 2013  427 0838 36.6 L   6.815 -73.154144.6  RSN 16 0.5 3.0LRSN 3.2WRSN        1
 SPEC AVERAGE  MO 13.9 ST  5.7 OM  2.4 f0 3.15 R0.5056 AL 2.35 WI 24.0 MW  3.2 3
 SPEC SD       MO  0.2 ST  9.0 OM  0.3 f00.904 R0.1468 AL      WI      MW  0.1 3
 GAP= 70        1.02       3.3     3.2  5.2  0.3781E+00  0.3313E+01  0.3675E+01E
 Epicentro: LOS SANTOS - SANTANDER                                             3
 SPEC ZAR HH E MO 14.0 ST  6.0 OM  2.2 f0 3.54 R0.4153 AL 1.18 WI 33.6 MW  3.3 3
 SPEC ZAR HH E T 83927 K 0.000 GD  249 VS 4.20 DE 3.20 Q0300.0 QA 0.60 VS 4.20 3
 SPEC TAM HH N MO 14.0 ST  3.2 OM  2.3 f0 2.81 R0.5231 AL 2.78 WI 23.8 MW  3.3 3
 SPEC TAM HH N T 83923 K 0.000 GD  212 VS 4.20 DE 3.20 Q0300.0 QA 0.60 VS 4.20 3
 SPEC PRA HH N MO 13.9 ST  1.9 OM  1.9 f0 2.53 R0.5810 AL 1.93 WI 19.6 MW  3.2 3
 SPEC PRA HH N T 840 9 K 0.000 GD  418 VS 4.20 DE 3.20 Q0300.0 QA 0.60 VS 4.20 3
 SPEC ROSCBH Z MO 14.0 ST  3.7 OM  2.1 f0 3.09 R0.4757 AL 3.40 WI 25.7 MW  3.3 3
 SPEC ROSCBH Z T 83939 K 0.000 GD  292 VS 4.20 DE 3.20 Q0300.0 QA 0.60 VS 4.20 3
 SPEC NOR HH N MO 14.2 ST 34.5 OM  2.4 f0 5.25 R0.2800 AL 2.95 WI 28.6 MW  3.4 3
 SPEC NOR HH N T 83938 K 0.000 GD  275 VS 4.20 DE 3.20 Q0300.0 QA 0.60 VS 4.20 3
 SPEC PTB HH N MO 13.7 ST  2.0 OM  2.0 f0 3.06 R0.4804 AL 1.66 WI 24.7 MW  3.1 3
 SPEC PTB HH N T 83920 K 0.000 GD  206 VS 4.20 DE 3.20 Q0300.0 QA 0.60 VS 4.20 3
 SPEC RUS HH N MO 13.6 ST  3.6 OM  2.0 f0 3.88 R0.3789 AL 3.43 WI 16.6 MW  3.0 3
 SPEC RUS HH N T 83915 K 0.000 GD  176 VS 4.20 DE 3.20 Q0300.0 QA 0.60 VS 4.20 3
 SPEC PAM SH N MO 14.0 ST0.867 OM  2.4 f0 1.83 R0.8033 AL 2.13 WI 23.4 MW  3.3 3
 SPEC PAM SH N T 83912 K 0.000 GD  163 VS 4.20 DE 3.20 Q0300.0 QA 0.60 VS 4.20 3
 SPEC HEL HH N MO 13.8 ST  1.6 OM  1.9 f0 2.68 R0.5485 AL 2.58 WI 40.3 MW  3.1 3
 SPEC HEL HH N T 83944 K 0.000 GD  308 VS 4.20 DE 3.20 Q0300.0 QA 0.60 VS 4.20 3
 SPEC BRR HH N MO 14.0 ST  9.1 OM  2.4 f0 4.03 R0.3648 AL 2.47 WI 21.8 MW  3.3 3
 SPEC BRR HH N T 83911 K 0.000 GD  160 VS 4.20 DE 3.20 Q0300.0 QA 0.60 VS 4.20 3
 SPEC GIR2SH Z MO 13.4 ST0.234 OM  1.8 f0 1.94 R0.7577 AL 1.46 WI 19.1 MW  2.9 3
 SPEC GIR2SH Z T 839 9 K 0.000 GD  147 VS 4.20 DE 3.20 Q0300.0 QA 0.60 VS 4.20 3
 SPEC BAR2SH Z MO 13.7 ST  2.1 OM  2.1 f0 3.21 R0.4579 AL 2.20 WI 11.0 MW  3.1 3
 SPEC BAR2SH Z T 839 7 K 0.000 GD  146 VS 4.20 DE 3.20 Q0300.0 QA 0.60 VS 4.20 3
 ACTION:UPD 13-05-22 14:41 OP:EP   STATUS:               ID:20130427083836 L   I
 2013-04-27-0828-36M.COL___214                                                 6
 STAT SP IPHASW D HRMM SECON CODA AMPLIT PERI AZIMU VELO AIN AR TRES W  DIS CAZ7
 BAR2 SZ EP        838 56.13                             170    0.0110 24.8 187 
 BAR2 SZ ES        839 10.91                             170   -0.4310 24.8 187 
 GIR2 SZ EP        838 56.20                             168    0.1210 29.5 351 
 GIR2 SZ ES   1    839 11.24                             168   -0.04 7 29.5 351 
 BRR  HZ IP     C  838 57.96                             153    0.4310 69.6 298 
 BRR  HN ES        839 14.78                             153    0.9210 69.6 298 
 BRR  HN I         839 15.55       279.8 0.26            150           69.6 298 
 PAM  SZ EP        838 58.97                             151    0.3310 76.7  41 
 PAM  SN ES   1    839 15.36                             151   -0.49 7 76.7  41 
 PAM  SN I         839 18.20       126.3 0.56            146           76.7  41 
 RUS  HZ EP   1    839  0.14                             143   -0.22 7  102 176 
 RUS  HN ES   1    839 18.77                             143   -0.12 7  102 176 
 RUS  HN I         839 19.30        98.0 0.26            139            102 176 
 PTB  HZ IP     D  839  2.68                             132   -0.73 9  147 258 
 PTB  HN ES   1    839 23.84                             132   -0.49 7  147 258 
 PTB  HN I         839 28.85       129.1 0.32            128            147 258 
 TAM  HZ IP     D  839  4.55                             130    0.25 9  156 105 
 TAM  HZ I         839 25.36        24.5 0.38            125            156 105 
 TAM  HN ES        839 26.08                             130    0.17 9  156 105 
 OCA  HZ EP   1    839  4.23                             130   -0.42 7  159 353 
 OCA  HN ES        839 26.05                             130   -0.48 9  159 353 
 OCA  HN I         839 34.72       218.9 0.38            125            159 353 
 ZAR  HZ EP   1    839  9.02                             122    0.21 6  203 292 
 ZAR  HN ES        839 34.03                             122    0.09 9  203 292 
 ZAR  HN I         839 36.30        74.7 0.24            118            203 292 
 CTAU SZ EP   4    839 10.84                             122    1.25 0  204 209 
 NOR  HZ IP        839 12.34                             118    0.06 8  235 234 
 NOR  HN ES   1    839 40.80                             118    0.69 6  235 234 
 NOR  HN I         839 46.49       107.6 0.18            114            235 234 
 SML  HZ EP   1    839 12.52                             117   -0.43 6  242 335 
 SML  HN ES   2    839 40.65                             117   -0.66 4  242 335 
 SML  HN I         839 47.65       109.5 0.10            113            242 335 
 ROSC BZ EP   1    839 15.94                             116    1.19 6  254 211 
 ROSC BN ES   4    839 46.63                             116    2.11 0  254 211 
 ROSC BZ I         839 50.52        88.7 0.35            112            254 211 
 HEL  HZ EP   1    839 17.24                             115    0.55 6  272 255 
 HEL  HN ES   2    839 47.90                             115   -0.07 4  272 255 
 HEL  HN I         839 54.30        36.3 0.40            111            272 255 
 VIL  SZ EP   1    839 20.18                             112    0.06 5  305 191 
 VIL  SN ES   2    839 53.38                             112   -0.69 4  305 191 
 PRA  HZ EP   1    839 29.94                             106   -0.25 4  393 209 
 PRA  HN ES        840 10.78                             106   -1.21 6  393 209 
 PRA  HN I         840 17.85        29.4 0.32            103            393 209 
 SJC  HZ EP   4    839 30.33                             106   -1.56 0  407 327 
 SJC  HN ES   4    840 10.88                             106   -4.15 0  407 327 
 SJC  HN I         840 17.49        25.7 0.38            102            407 327 
                                                                                
