 2010  227 0351 29.8 L   6.801 -73.123142.1  RSN  8 0.5 2.4LRSN                1
 GAP=240        1.05       7.8    11.1  8.9  0.3668E+02  0.4735E+02  0.2013E+02E
 Epicentro: LOS SANTOS - SANTANDER                                             3
 ACTION:UP  10-08-24 09:51 OP:vdl  STATUS:               ID:20100227035129 L   I
 2010-02-27-0349-43S.COL___093                                                 6
 STAT SP IPHASW D HRMM SECON CODA AMPLIT PERI AZIMU VELO SNR AR TRES W  DIS CAZ7
 BAR2 SZ IP        351 48.86                             169    -0.110   24 196 
 BAR2 SZ ES   1    352  3.03                             169    -0.9 7   24 196 
 BRR  HZ EP        351 50.68                             151     0.010   73 298 
 BRR  HE ES   1    352  7.51                             151     0.6 7   73 298 
 BRR  HZ I         352  8.73        35.0 0.10                            73 298 
 RUS  BZ EP   1    351 52.81                             143    -0.3 7  101 177 
 RUS  BE ES   1    352 12.22                             143     0.8 7  101 177 
 RUS  BZ I         352 13.23        16.4 0.38                           101 177 
 CHI  HZ EP   2    352  7.44                             116     0.1 4  249 196 
 CHI  HE ES   2    352 36.49                             116    -0.2 4  249 196 
 CHI  HZ I         352 40.10        18.0 0.57                           249 196 
 HEL  HZ EP   1    352 10.47                             114     0.4 6  275 256 
 HEL  HN ES   2    352 40.50                             114    -1.0 4  275 256 
 HEL  HZ I         352 47.38        12.6 0.42                           275 256 
 RREF BZ EP   1    352 16.42                             110     0.4 5  324 230 
 RREF BZ I         353  0.57        13.9 0.49                           324 230 
 DBB  SZ EP        352 17.26                             109    -0.1 7  342 274 
 PRA  HZ EP   1    352 22.76                             106    -0.6 4  393 210 
 PRA  HN ES   2    353  5.48                             106     0.4 3  393 210 
 PRA  HZ I         353 13.74        13.1 0.47                           393 210 
                                                                                
