 2011  527 0434 52.8 L   6.037 -73.731107.0  RSN 13 0.5 2.1LRSN                1
 GAP=104        1.03       4.4     4.5  8.9 -0.1179E+02  0.1278E+02 -0.2947E+01E
 Epicentro: BOLIVAR - SANTANDER                                                3
 ACTION:UP  11-06-29 08:56 OP:tino STATUS:               ID:20110527043452 L   I
 2011-05-27-0432-14S.COL___115                                                 6
 STAT SP IPHASW D HRMM SECON CODA AMPLIT PERI AZIMU VELO SNR AR TRES W  DIS CAZ7
 RUS  HZ EP   1    435 10.88                             143     0.1 7   73 103 
 RUS  HZ I         435 11.34        29.0 0.08                            73 103 
 RUS  HN ES   1    435 25.28                             143     0.5 7   73 103 
 BAR2 SZ EP        435 11.50                             138     0.110   86  45 
 BAR2 SZ ES   1    435 25.80                             138    -0.1 7   86  45 
 BAR2 SZ I         435 27.38        94.6 0.24                            86  45 
 BTL  SZ EP   1    435 13.41                             130    -0.1 7  110  28 
 BRR  HZ EP   1    435 13.41                             128    -0.5 7  118   1 
 BRR  HZ I         435 16.51        32.8 0.05                           118   1 
 BRR  HN ES   1    435 30.13                             128    -0.3 7  118   1 
 GIR2 SZ EP   1    435 15.25                             125     0.0 7  130  27 
 NOR  SZ EP   1    435 14.98                             124    -0.8 7  136 248 
 NOR  SN ES   1    435 33.11                             124    -0.6 7  136 248 
 NOR  SZ I         435 35.30         8.0 0.13                           136 248 
 PAM  SZ EP   1    435 21.14                             115    -0.2 7  184  38 
 PAM  SN ES   1    435 43.00                             115    -0.7 7  184  38 
 PAM  SZ I         435 46.71         5.6 0.19                           184  38 
 HEL  HZ EP   1    435 23.32                             113     0.3 6  200 275 
 HEL  HN ES   1    435 47.58                             113     1.0 6  200 275 
 HEL  HZ I         435 50.30         7.8 0.16                           200 275 
 GUY  SZ EP   1    435 24.10                             113     0.4 6  205 244 
 GUY  SZ I         435 53.93        25.1 0.42                           205 244 
 BRI  SZ EP   1    435 24.57                             111     0.4 6  213  29 
 BRI  SZ ES   1    435 49.05                             111     0.3 6  213  29 
 BRI  SZ I         435 51.78        19.6 0.29                           213  29 
 RREF HZ EP   1    435 25.45                             111     0.0 6  219 235 
 GRA  SZ EP   1    435 25.71                             109    -0.3 6  229  27 
 GRA  SZ ES   1    435 52.81                             109     0.9 6  229  27 
 GRA  SZ I         435 54.74        20.9 0.32                           229  27 
 PRA  HZ EP   1    435 32.25                             104    -0.4 5  287 207 
 PRA  HN ES   1    436  4.30                             104     0.5 5  287 207 
                                                                                
