 2017  927 0956 49.1 L   6.809 -73.155147.2  RSN  4 0.2 1.4LRSN                1
 GAP=237        0.53       7.1    12.2  5.7  0.6571E+02  0.2410E+02 -0.2137E+01E
 Epicentro: LOS SANTOS - SANTANDER                                             3
 ACTION:UPD 17-10-05 19:16 OP:rebc STATUS:               ID:20170927095649 L   I
 OLDACT:UP  17-09-27 19:20 OP:edw  STATUS:               ID:20170927094745d    3
 OLDACT:DUP 17-09-27 19:19 OP:edw  STATUS:               ID:20170927094745d    3
 OLDACT:REG 17-09-27 13:03 OP:edw  STATUS:               ID:20170927094744     3
 2017-09-27-0948-00M.COL___447                                                 6
 STAT SP IPHASW D HRMM SECON CODA AMPLIT PERI AZIMU VELO AIN AR TRES W  DIS CAZ7
 BAR2 EZ EP        957  8.99                             170    0.0210 24.2 187 
 BAR2 EZ ES        957 24.59                             170    0.1610 24.2 187 
 BAR2 EZ I         957 26.64         4.7 0.40            169           24.2 187 
 BRR  HZ EP        957 10.06                             153   -0.3110 69.8 298 
 RUS  HZ EP        957 13.26                             144    0.1410  102 175 
 RUS  HN ES        957 31.66                             144   -0.1510  102 175 
 RUS  HZ I         957 33.43         5.1 0.34            145            102 175 
 ZAR  HZ EP        957 21.73                             123    0.19 9  203 292 
                                                                                
