 2016  727 0458 37.1 L   6.582 -73.162148.3  RSN  4 0.2 1.1LRSN                1
 GAP=220        0.47       3.7     3.6  3.8  0.6261E+01  0.2119E+01  0.4858E+00E
 Epicentro: SAN GIL - SANTANDER                                                3
 ACTION:UPD 17-03-29 16:55 OP:lp   STATUS:               ID:20160727045837 L   I
 OLDACT:UP  16-07-27 17:17 OP:edw  STATUS:               ID:20160727045759     3
 OLDACT:REG 16-07-27 13:13 OP:edw  STATUS:               ID:20160727045759     3
 2016-07-27-0457-59S.COL___340                                                 6
 STAT SP IPHASW D HRMM SECON CODA AMPLIT PERI AZIMU VELO AIN AR TRES W  DIS CAZ7
 BAR2 EZ EP        458 56.82                             179    0.0410 2.49 296 
 BAR2 EZ ES        459 12.34                             179    0.1910 2.49 296 
 BAR2 EZ I         459 13.45         3.3 0.28            172           2.49 296 
 RUS  HZ EP        458 59.44                             151   -0.0910 76.8 173 
 RUS  HE ES        459 16.96                             151   -0.0810 76.8 173 
 RUS  HZ I         459 20.83         1.1 0.30            151           76.8 173 
 BRR  HZ EP        458 59.07                             149   -0.1910 84.0 314 
 BRR  HN ES        459 16.50                             149   -0.0710 84.0 314 
 BRR  HZ I         459 20.44         4.2 0.52            149           84.0 314 
 PTB  HZ EP        459  4.16                             133    0.32 9  143 268 
 PTB  HN ES        459 24.63                             133   -0.10 9  143 268 
 PTB  HZ I         459 30.66         1.2 0.60            133            143 268 
 GUY2CHZ EP   4    459 11.35                             114   -7.80 0  286 238 
 GUY2CHE ES   4    459 25.87                             114   -26.1 0  286 238 
                                                                                
