 2014  727 0551 22.2 L   6.826 -73.174140.1  RSN 20 0.4 2.7LRSN                1
 GAP= 69        0.93       2.0     2.7  4.5 -0.6117E+00  0.3657E+01  0.2285E+00E
 Epicentro: ZAPATOCA - SANTANDER                                               3
 ACTION:UPD 15-03-16 20:47 OP:nd   STATUS:               ID:20140727055122 L   I
 OLDACT:UP  14-07-27 15:02 OP:mh   STATUS:               ID:20140727054818     3
 OLDACT:UP  14-07-27 15:01 OP:mh   STATUS:               ID:20140727054818     3
 OLDACT:REG 14-07-27 12:11 OP:mh   STATUS:               ID:20140727054818     3
 2014-07-27-0548-18M.COL___260                                                 6
 STAT SP IPHASW D HRMM SECON CODA AMPLIT PERI AZIMU VELO AIN AR TRES W  DIS CAZ7
 BAR2 SZ EP     C  551 41.34                             169    0.1410 25.9 182 
 BAR2 SZ ES        551 56.48                             169    0.4610 25.9 182 
 BAR2 SZ I         551 59.19       116.2 0.15            169           25.9 182 
 PAM  SZ EP     D  551 44.34                             150    0.5410 77.3  43 
 PAM  SN ES   1    552  0.84                             150    0.18 7 77.3  43 
 PAM  SZ I         552  4.42        62.8 0.32            154           77.3  43 
 RUS  HZ EP     D  551 45.32                             142   -0.3110  104 174 
 RUS  HN ES        552  3.62                             142   -0.2910  104 174 
 RUS  HZ I         552  5.10        47.0 0.36            144            104 174 
 PTB  HZ EP        551 47.84                             131   -0.63 9  145 257 
 PTB  HN ES        552  8.65                             131   -0.32 9  145 257 
 PTB  HZ I         552 11.48        48.4 0.14            131            145 257 
 OCA  HZ EP        551 49.20                             129   -0.56 9  157 354 
 OCA  HN ES        552 11.04                             129   -0.22 9  157 354 
 OCA  HZ I         552 19.97        38.7 0.31            131            157 354 
 TAM  HZ EP        551 49.72                             128   -0.07 9  159 106 
 TAM  HN ES        552 11.51                             128    0.19 9  159 106 
 TAM  HZ I         552 13.03        25.1 0.65            133            159 106 
 SPBC HZ EP        551 50.08                             128   -0.22 9  164 217 
 SPBC HN ES        552 11.84                             128   -0.37 9  164 217 
 SPBC HZ I         552 18.66        64.7 0.11            129            164 217 
 ZAR  HZ EP        551 53.73                             122   -0.13 9  200 292 
 ZAR  HN ES        552 18.95                             122    0.40 9  200 292 
 ZAR  HZ I         552 25.32        41.0 0.39            122            200 292 
 NOR  HZ EP   1    551 56.99                             117   -0.52 6  234 233 
 NOR  HN ES        552 25.11                             117    0.06 8  234 233 
 NOR  HZ I         552 33.05        32.5 0.18            118            234 233 
 SML  HZ EP   1    551 57.63                             117   -0.44 6  240 336 
 SML  HN ES        552 25.95                             117   -0.11 8  240 336 
 SML  HZ I         552 29.37        48.8 0.10            118            240 336 
 CHI  HZ EP        551 59.66                             116   -0.15 8  251 194 
 CHI  HN ES        552 28.61                             116   -0.53 8  251 194 
 CHI  HZ I         552 35.29        21.7 0.31            118            251 194 
 ROSC BZ EP        552  1.02                             115    0.91 8  254 210 
 ROSC BN ES   4    552 31.61                             115    1.93 0  254 210 
 ROSC BZ I         552 36.28        54.2 0.37            117            254 210 
 HEL  HZ EP   1    552  1.88                             114    0.02 6  270 255 
 HEL  HN ES   1    552 32.77                             114   -0.03 6  270 255 
 HEL  HZ I         552 41.36        25.5 0.36            115            270 255 
 URE  HZ EP   4    552  1.48                             113   -1.06 0  280 292 
 URE  HN ES   4    552 35.45                             113    1.44 0  280 292 
 GUY2CHZ EP        552  5.81                             111    0.36 7  300 234 
 GUY2CHN ES   4    552 40.96                             111    1.78 0  300 234 
 GUY2CHZ I         552 47.34        57.9 0.88                           300 234 
 PTGC HZ EP   4    552  4.49                             110   -1.76 0  313 158 
 PTGC HN ES   4    552 37.05                             110   -3.56 0  313 158 
 RREF HZ EP   1    552  8.47                             110    0.43 5  321 229 
 RREF HN ES   4    552 46.35                             110    2.55 0  321 229 
 RREF HZ I         552 48.27        23.4 0.24            111            321 229 
 TOL  SZ EP   1    552 10.68                             108    0.47 5  343 224 
 TOL  SN ES   4    552 47.74                             108    0.07 0  343 224 
 TOL  SZ I         552 57.81        51.3 0.19            110            343 224 
 ARGC HZ EP        552 11.42                             107    0.22 6  355 341 
 ARGC HN ES        552 49.81                             107    0.39 6  355 341 
 ARGC HZ I         553  1.72         8.2 0.18            109            355 341 
 ANIL HZ EP        552 12.51                             107    0.74 6  357 224 
 ANIL HN ES        552 51.71                             107    1.27 6  357 224 
 ANIL HZ I         552 58.41        54.4 0.14            109            357 224 
 PRA  HZ EP   1    552 14.98                             105   -0.66 4  393 209 
 PRA  HN ES        552 57.05                             105   -0.28 6  393 209 
 PRA  HZ I         553  3.43        23.0 0.42            107            393 209 
 ORTC HZ EP        552 15.55                             105   -0.44 6  396 216 
 ORTC HN ES        552 58.50                             105    0.56 6  396 216 
 ORTC HZ I         553  5.49        12.0 0.61            107            396 216 
 SJC  HZ EP   4    552 15.40                             105   -1.68 0  405 327 
 SJC  HN ES   4    552 55.14                             105   -4.75 0  405 327 
                                                                                
