 2017  227 0838 44.8 L   6.769 -73.160143.7  RSN 23 0.6 2.8LRSN                1
 GAP= 65        1.22       3.2     3.1  5.3  0.7201E+00  0.4627E+01  0.1703E+01E
 Epicentro: LOS SANTOS - SANTANDER                                             3
 ACTION:UPD 17-05-24 15:41 OP:jn   STATUS:               ID:20170227083844 L   I
 OLDACT:UP  17-02-27 18:13 OP:dani STATUS:               ID:20170227083743     3
 OLDACT:UP  17-02-27 18:13 OP:dani STATUS:               ID:20170227083743     3
 OLDACT:REG 17-02-27 13:26 OP:ar   STATUS:               ID:20170227083743     3
 2017-02-27-0838-00M.COL___360                                                 6
 STAT SP IPHASW D HRMM SECON CODA AMPLIT PERI AZIMU VELO AIN AR TRES W  DIS CAZ7
 BAR2 EZ IP     C  839  4.27                             172    0.1310 19.7 187 
 BAR2 EZ ES        839 18.89                             172   -0.3210 19.7 187 
 BAR2 EZ I         839 20.16       157.1 0.20            170           19.7 187 
 BRR  HZ IP     C  839  6.17                             152    0.4010 71.5 302 
 BRR  HN ES        839 22.82                             152    0.7110 71.5 302 
 BRR  HZ I         839 27.50       136.0 0.10            150           71.5 302 
 PAM  EZ EP        839  7.17                             149    0.1210 81.0  39 
 PAM  EN ES        839 23.89                             149   -0.4910 81.0  39 
 PAM  EZ I         839 26.21       255.2 0.48            153           81.0  39 
 RUS  HZ EP        839  8.27                             144    0.1310 97.3 175 
 RUS  HN ES        839 26.53                             144    0.2110 97.3 175 
 RUS  HZ I         839 28.00       116.8 0.28            145           97.3 175 
 PTB  HZ EP        839 10.81                             132   -0.62 9  146 260 
 PTB  HN ES        839 31.34                             132   -0.84 9  146 260 
 PTB  HZ I         839 39.12        74.5 0.32            131            146 260 
 TAM  HZ IP     C  839 12.65                             129    0.24 9  156 104 
 TAM  HE ES        839 33.89                             129   -0.03 9  156 104 
 TAM  HZ I         839 33.96        24.4 0.30            133            156 104 
 ZAR  HZ EP        839 17.35                             121    0.23 9  204 293 
 ZAR  HN ES        839 41.61                             121   -0.71 9  204 293 
 ZAR  HZ I         839 48.55       106.0 0.60            122            204 293 
 NOR  HZ EP        839 19.83                             118   -0.25 8  231 235 
 NOR  HN ES        839 48.15                             118    0.56 8  231 235 
 NOR  HZ I         839 49.81        33.9 0.12            118            231 235 
 CHI  HZ EP        839 22.63                             117    0.62 8  245 195 
 CHI  HE ES        839 50.14                             117   -0.87 8  245 195 
 CHI  HZ I         839 56.11        26.2 0.42            118            245 195 
 ROSC BZ EP   9    839 24.52                             116    2.10 0  249 211 
 ROSC BE ES        839 52.24                                   -1.61 8  249 211 
 ROSC BZ I         840  0.82        56.5 0.55            117            249 211 
 HEL  HZ EP        839 26.12                             114    1.45 8  270 256 
 HEL  HE ES        839 56.18                             114    0.43 8  270 256 
 HEL  HZ I         840  3.08        20.7 0.22            115            270 256 
 URE  HZ EP        839 24.92                             113   -0.86 7  284 293 
 URE  HN ES   4    839 55.15                             113   -2.57 0  284 293 
 URE  HZ I         840  8.80        44.7 0.20            113            284 293 
 VIL  EZ EP        839 28.02                             111    0.29 7  300 191 
 VIL  EN ES        840  1.38                             111    0.18 7  300 191 
 VIL  EZ I         840  6.99        32.9 0.42            113            300 191 
 PTGC HZ EP        839 27.52                             111   -0.77 7  306 158 
 PTGC HE ES   4    840  0.08                             111   -2.12 0  306 158 
 PTGC HZ I         840  3.12        57.9 0.40            113            306 158 
 CBOC HZ EP   3    839 32.56                             109    1.20 2  331 253 
 CBOC HN ES        840  8.10                             109    0.44 7  331 253 
 CBOC HZ I         840 13.07         7.7 0.46            110            331 253 
 DBB  EZ EP        839 32.30                             109    0.23 7  338 275 
 DBB  EN ES        840  8.29                             109   -0.63 7  338 275 
 DBB  EZ I         840 10.34        16.5 0.22            109            338 275 
 ARGC HZ EP        839 34.87                             107    0.15 6  362 341 
 ARGC HE ES        840 13.61                             107   -0.02 6  362 341 
 ARGC HZ I         840 18.82         8.8 0.22            109            362 341 
 PRA  HZ EP        839 38.13                             106    0.30 6  388 210 
 PRA  HN ES        840 18.96                             106   -0.22 6  388 210 
 PRA  HZ I         840 27.61        26.0 0.30            107            388 210 
 APAC HZ EP        839 39.33                             106    0.43 6  398 289 
 APAC HN ES        840 20.70                             106   -0.37 6  398 289 
 APAC HZ I         840 23.67        12.2 0.37            106            398 289 
 SJC  HZ EP   3    839 38.62                             105   -1.94 1  411 327 
 SJC  HN ES   4    840 20.61                             105   -3.42 0  411 327 
 SJC  HZ I         840 24.15        11.6 0.28            106            411 327 
 CRJC HZ EP   3    839 44.89                             103   -2.80 1  471   4 
 CRJC HN ES   4    840 30.74                             103   -5.98 0  471   4 
 CRJC HZ I         840 41.38        15.1 0.14            104            471   4 
 MACC HZ EP   3    839 51.59                             101   -1.46 1  517 189 
 MACC HN ES   4    840 43.32                             101   -2.95 0  517 189 
 MACC HZ I         840 50.61         5.7 0.74            102            517 189 
 GARC HZ EP   3    839 57.65                             100   -1.93 1  569 207 
 GARC HN ES   3    840 56.48                             100   -1.41 1  569 207 
 GARC HZ I         840 59.32         9.9 0.32            101            569 207 
                                                                                
