 2016 1227 0621 35.3 L   6.787 -73.143145.3  RSN  5 0.3 1.0LRSN                1
 GAP=137        0.93       4.9     4.8  6.8 -0.2239E+01  0.4022E+01  0.1501E+01E
 Epicentro: LOS SANTOS - SANTANDER                                             3
 ACTION:UPD 17-01-11 20:19 OP:rebc STATUS:               ID:20161227062135 L   I
 OLDACT:REG 16-12-27 13:25 OP:edw  STATUS:               ID:20161227061746     3
 2016-12-27-0618-00M.COL___366                                                 6
 STAT SP IPHASW D HRMM SECON CODA AMPLIT PERI AZIMU VELO AIN AR TRES W  DIS CAZ7
 BAR2 EZ EP        621 54.82                             171    0.0110 22.0 191 
 BAR2 EZ ES        622 10.02                             171   -0.0410 22.0 191 
 BRR  HZ EP        621 56.60                             152    0.1910 72.1 299 
 BRR  HE ES        622 13.55                             152    0.6410 72.1 299 
 PAM  EZ EP     D  621 57.74                             150    0.2710 78.3  39 
 PAM  EE ES        622 14.22                             150   -0.5910 78.3  39 
 PAM  EZ I         622 15.45         2.2 0.44            154           78.3  39 
 RUS  HZ EP        621 59.01                             144    0.1510 99.2 176 
 RUS  HN ES        622 17.33                             144    0.0610 99.2 176 
 RUS  HZ I         622 18.79         2.7 0.34            145           99.2 176 
 PTB  HZ EP        622  1.86                             132   -0.33 9  148 259 
 PTB  HN ES        622 22.73                             132   -0.47 9  148 259 
 PTB  HZ I         622 29.31         0.8 0.07            131            148 259 
                                                                                
