 2017 1027 0800  2.1 L   6.732 -73.141140.9  RSN  5 0.4 0.9LRSN                1
 GAP=233        0.76       4.6     7.0  7.2  0.1021E+02  0.5202E+01  0.3658E+01E
 Epicentro: JORDAN - SANTANDER                                                 3
 ACTION:UPD 17-11-07 19:37 OP:rebc STATUS:               ID:20171027080002 L   I
 OLDACT:REG 17-10-27 13:04 OP:dani STATUS:               ID:20171027075742     3
 2017-10-27-0758-00M.COL___435                                                 6
 STAT SP IPHASW D HRMM SECON CODA AMPLIT PERI AZIMU VELO AIN AR TRES W  DIS CAZ7
 BAR2 EZ ES        8 0 35.28                             173   -0.4710 16.1 196 
 BRR  HZ EP        8 0 23.02                             150    0.0610 75.5 303 
 BRR  HN ES        8 0 39.53                             150    0.2910 75.5 303 
 BRR  HZ I         8 0 42.23         2.1 0.22            151           75.5 303 
 RUS  HZ EP        8 0 24.78                             145   -0.0410 93.1 176 
 RUS  HN ES        8 0 42.88                             145    0.3310 93.1 176 
 RUS  HZ I         8 0 43.94         1.1 0.28            148           93.1 176 
 SPBC HN ES        8 0 51.09                             129   -0.14 9  158 221 
 ZAR  HN ES   3    8 0 58.39                             121   -1.51 2  207 294 
                                                                                
