 2010  727 0109 13.2 L   6.783 -73.046145.8  RSN 12 0.4 2.3LRSN                1
 GAP=134        0.88       3.4     7.1  6.1 -0.8723E+01 -0.2114E+01  0.1809E+01E
 Epicentro: LOS SANTOS - SANTANDER                                             3
 ACTION:UPD 10-12-01 15:20 OP:pat  STATUS:               ID:20100727010913 L   I
 2010-07-27-0106-16S.COL___123                                                 6
 STAT SP IPHASW D HRMM SECON CODA AMPLIT PERI AZIMU VELO AIN AR TRES W  DIS CAZ7
 BAR2 SZ IP        1 9 32.87                             170     0.010   26 216 
 BAR2 SZ ES   1    1 9 47.96                             170    -0.2 7   26 216 
 BAR2 SZ I         1 9 49.62       103.0 0.12                            26 216 
 BRR  HZ IP     C  1 9 34.73                             150    -0.210   82 296 
 BRR  HZ I         1 9 35.07        95.5 0.09                            82 296 
 BRR  HN ES   1    1 9 51.76                             150    -0.2 7   82 296 
 RUS  HZ IP     D  1 9 36.76                             144     0.010   99 182 
 RUS  HE ES   1    1 9 55.29                             144     0.1 7   99 182 
 RUS  HZ I         1 9 56.79        29.3 0.49                            99 182 
 GUE  SZ IP        1 9 37.92                             139     0.010  117   7 
 GRA  SZ IP        1 9 38.70                             137     0.410  125  12 
 GRA  SZ ES   1    1 9 58.55                             137     0.6 7  125  12 
 GRA  SZ I         110  7.16        18.8 0.15                           125  12 
 OCA  SZ EP        1 9 41.40                             129    -0.4 9  164 349 
 OCA  SZ ES   1    110  4.00                             129    -0.1 7  164 349 
 OCA  SZ I         110 10.02        19.0 0.37                           164 349 
 CHI  HZ EP   1    1 9 50.93                             117    -0.1 6  250 198 
 CHI  HZ I         110 23.82         8.7 0.47                           250 198 
 ROSC BZ EP   1    1 9 52.36                             116     0.6 6  257 213 
 ROSC BZ I         110 30.55        13.3 0.49                           257 213 
 HEL  HZ EP   2    1 9 54.24                             114    -0.3 4  282 257 
 HEL  HZ I         110 31.45         6.1 0.31                           282 257 
 RREF HZ EP   2    110  0.96                             110     0.8 3  329 231 
 RREF HN ES   2    110 38.01                             110     1.2 3  329 231 
 RREF HZ I         110 41.20         9.7 0.33                           329 231 
 SDV  BZ EP   1    110  2.32                             109     0.0 5  353  49 
 PRA  HZ EP   1    110  6.14                             106    -1.0 4  396 211 
 PRA  HE ES   1    110 48.50                             106    -0.7 4  396 211 
 PRA  HZ I         110 54.56        10.9 0.37                           396 211 
                                                                                
