 2014 1127 0620  5.1 L   6.781 -73.147142.6  RSN 15 0.5 1.7LRSN                1
 GAP=137        1.21       3.3     4.2  6.2 -0.2978E+01  0.8303E+01  0.2341E+01E
 Epicentro: LOS SANTOS - SANTANDER                                             3
 ACTION:UPD 14-12-19 15:48 OP:nd   STATUS:               ID:20141127062005 L   I
 OLDACT:REG 14-11-27 13:27 OP:fm   STATUS:               ID:20141127061739     3
 2014-11-27-0617-39M.COL___306                                                 6
 STAT SP IPHASW D HRMM SECON CODA AMPLIT PERI AZIMU VELO AIN AR TRES W  DIS CAZ7
 BAR2 SZ EP        620 24.40                             171    0.0710 21.2 191 
 BAR2 SZ ES        620 39.60                             171    0.2910 21.2 191 
 BAR2 SZ I         620 41.51         8.2 0.16            170           21.2 191 
 BRR  HZ EP     D  620 26.21                             152    0.2310 72.1 300 
 BRR  HE ES        620 42.50                             152    0.2510 72.1 300 
 BRR  HZ I         620 48.28         8.1 0.14            152           72.1 300 
 PAM  SZ EP        620 27.13                             150    0.0210 79.1  39 
 PAM  SN ES        620 43.69                             150   -0.5610 79.1  39 
 PAM  SZ I         620 46.65        12.8 0.50            155           79.1  39 
 RUS  HZ EP        620 28.22                             144   -0.1910 98.5 176 
 RUS  HN ES        620 46.31                             144   -0.2710 98.5 176 
 RUS  HZ I         620 48.51         2.8 0.48            146           98.5 176 
 PTB  HZ EP        620 31.55                             131   -0.23 9  147 260 
 PTB  HN ES        620 51.14                             131   -1.44 9  147 260 
 PTB  HZ I         620 55.30         9.2 0.16            132            147 260 
 SPBC HZ EP        620 33.42                             129    0.20 9  161 219 
 SPBC HE ES        620 55.23                             129    0.10 9  161 219 
 SPBC HZ I         621  1.60         8.7 0.40            130            161 219 
 OCA  HZ EP        620 33.29                             128   -0.09 9  162 353 
 OCA  HN ES        620 56.38                             128    0.95 9  162 353 
 OCA  HZ I         620 59.35         6.7 0.46            132            162 353 
 ZAR  HZ EP        620 36.93                             122   -0.50 9  205 293 
 ZAR  HN ES        621  2.94                             122    0.31 9  205 293 
 ZAR  HZ I         621  7.86        10.8 0.42            123            205 293 
 NOR  HZ EP        620 40.41                             118   -0.12 8  233 235 
 NOR  HE ES        621  8.20                             118    0.06 8  233 235 
 NOR  HZ I         621 11.26         6.0 0.26            120            233 235 
 CHI  HZ EP        620 41.61                             117   -0.81 8  247 195 
 CHI  HN ES        621 12.29                             117    0.77 8  247 195 
 CHI  HZ I         621 22.44         1.7 0.28            119            247 195 
 ROSC BN ES        621 13.21                             116    0.90 8  251 211 
 ROSC BZ I         621 18.55         4.4 0.20            118            251 211 
 HEL  HE ES        621 16.50                             114    0.21 8  271 256 
 HEL  HZ I         621 22.67         4.0 0.46            116            271 256 
 GUY2CHZ EP        620 48.57                             112    0.13 7  300 235 
 GUY2CHE ES        621 22.59                             112    0.37 7  300 235 
 GUY2CHZ I         621 30.47         2.1 0.34                           300 235 
 CBOC HZ EP        620 52.08                             109    0.26 7  333 252 
 CBOC HN ES        621 27.79                             109   -0.45 7  333 252 
 CBOC HZ I         621 32.26         0.8 0.56            111            333 252 
 TOL  SN ES   4    621 29.06                             109   -1.41 0  342 225 
 SJC  HZ EP   4    620 58.97                             105   -1.81 0  411 327 
 SJC  HN ES   4    621 40.04                             105   -4.15 0  411 327 
 SJC  HZ I         621 46.02         1.3 0.58            107            411 327 
                                                                                
