 2015  227 0547 13.7 L   6.816 -73.162145.6  RSN 12 0.5 2.0LRSN                1
 GAP= 70        1.14       2.9     3.7  5.6 -0.1357E+01  0.3455E+01  0.1716E+01E
 Epicentro: LOS SANTOS - SANTANDER                                             3
 ACTION:UPD 15-04-30 21:29 OP:nd   STATUS:               ID:20150227054713 L   I
 OLDACT:REG 15-02-27 14:50 OP:carl STATUS:               ID:20150227053743     3
 2015-02-27-0537-43M.COL___296                                                 6
 STAT SP IPHASW D HRMM SECON CODA AMPLIT PERI AZIMU VELO AIN AR TRES W  DIS CAZ7
 BAR2 EZ EP        547 33.29                             170   -0.0710 24.8 185 
 BAR2 EZ ES        547 48.64                             170   -0.0410 24.8 185 
 BAR2 EZ I         547 51.07        24.7 0.24            170           24.8 185 
 BRR  HZ EP        547 35.15                             153    0.4410 68.7 298 
 BRR  HN ES        547 52.20                             153    1.1110 68.7 298 
 BRR  HZ I         547 56.08        18.9 0.26            150           68.7 298 
 PAM  SZ EP        547 36.12                             151    0.2110 77.2  41 
 PAM  SN ES        547 53.52                             151    0.3110 77.2  41 
 PAM  SZ I         547 54.04        10.9 0.24            154           77.2  41 
 RUS  HZ EP        547 37.28                             143   -0.3110  102 175 
 RUS  HN ES        547 55.86                             143   -0.3510  102 175 
 RUS  HZ I         547 57.34         7.9 0.28            146            102 175 
 PTB  HZ EP        547 40.00                             132   -0.54 9  146 258 
 PTB  HN ES        548  0.78                             132   -0.68 9  146 258 
 PTB  HZ I         548  7.17        11.0 0.24            132            146 258 
 TAM  HZ EP        547 41.77                             130    0.18 9  157 105 
 TAM  HN ES        548  3.24                             130   -0.09 9  157 105 
 OCA  HZ EP        547 41.38                             130   -0.45 9  158 354 
 OCA  HN ES        548  3.32                             130   -0.44 9  158 354 
 OCA  HZ I         548 11.69        12.0 0.22            131            158 354 
 SPBC HZ EP        547 42.25                             129    0.02 9  163 218 
 SPBC HN ES        548  4.01                             129   -0.45 9  163 218 
 SPBC HZ I         548 11.21        16.5 0.34            130            163 218 
 SML  HZ EP        547 50.28                             118    0.20 8  241 336 
 SML  HN ES        548 17.88                             118   -0.56 8  241 336 
 SML  HZ I         548 27.93        17.0 0.10            118            241 336 
 CHI  HZ EP        547 51.64                             117    0.10 8  250 195 
 CHI  HN ES        548 21.11                             117    0.07 8  250 195 
 CHI  HZ I         548 26.13         6.2 0.30            119            250 195 
 GUY2CHZ EP        547 58.47                             112    1.21 7  301 234 
 GUY2CHN ES        548 31.81                             112    0.58 7  301 234 
 GUY2CHZ I         548 39.70         6.4 0.60                           301 234 
 PRA  HZ EP        548  7.34                             106    0.03 6  393 209 
 PRA  HN ES        548 49.06                             106   -0.05 6  393 209 
 PRA  HZ I         548 55.79         6.2 0.26            108            393 209 
                                                                                
