 2014  227 0051 45.5 L   6.767 -73.146146.0  RSN  7 0.3 1.4LRSN                1
 GAP=138        0.66       3.0     3.3  6.0  0.6407E+00  0.4349E+01  0.2176E+01E
 Epicentro: LOS SANTOS - SANTANDER                                             3
 ACTION:UPD 14-03-10 08:13 OP:ep   STATUS:               ID:20140227005145 L   I
 OLDACT:UP  14-02-27 09:39 OP:fm   STATUS:               ID:20140227004806     3
 OLDACT:UP  14-02-27 09:30 OP:fm   STATUS:               ID:20140227004806     3
 OLDACT:REG 14-02-27 07:47 OP:fm   STATUS:               ID:20140227004806     3
 2014-02-27-0048-06M.COL___237                                                 6
 STAT SP IPHASW D HRMM SECON CODA AMPLIT PERI AZIMU VELO AIN AR TRES W  DIS CAZ7
 BAR2 SZ EP        052  4.93                             172   -0.1210 19.7 192 
 BAR2 SZ ES   2    052 19.84                             172   -0.48 5 19.7 192 
 BRR  HZ EP   1    052  7.01                             152    0.28 7 72.9 301 
 BRR  HN ES   1    052 23.49                             152    0.17 7 72.9 301 
 PAM  SZ EP        052  7.80                             150   -0.0710 80.3  38 
 PAM  SE ES        052 25.36                             150    0.0110 80.3  38 
 PAM  SZ I         052 27.09         3.8 0.62            152           80.3  38 
 RUS  HZ EP     D  052  8.90                             145   -0.0710 97.0 176 
 RUS  HN ES        052 27.48                             145    0.1710 97.0 176 
 RUS  HZ I         052 28.51         2.5 0.26            147           97.0 176 
 PTB  HZ EP   1    052 11.96                             132   -0.42 7  147 260 
 PTB  HN ES   1    052 32.73                             132   -0.64 7  147 260 
 PTB  HZ I         052 36.79         2.9 0.18            133            147 260 
 ZAR  HN ES        052 43.87                             122    0.39 8  205 293 
 ZAR  HZ I         052 47.53         3.6 0.10            123            205 293 
 CHI  HN ES   1    052 52.40                             118    0.50 6  245 195 
 SML  HN ES   4    052 48.53                             117   -2.77 0  247 336 
                                                                                
