 2017  727 0926 50.4 L   7.442 -73.188133.1  RSN 19 0.6 2.0LRSN                1
 GAP=104        1.11       4.3     3.3  5.8  0.2796E+01  0.3762E+01 -0.1442E+01E
 Epicentro: EL PLAYON - SANTANDER                                              3
 ACTION:UPD 17-08-30 15:37 OP:rebc STATUS:               ID:20170727092650 L   I
 OLDACT:UP  17-07-27 17:39 OP:and  STATUS:               ID:20170727091744d    3
 OLDACT:UP  17-07-27 17:39 OP:and  STATUS:               ID:20170727091744d    3
 OLDACT:UP  17-07-27 17:36 OP:and  STATUS:               ID:20170727091744d    3
 OLDACT:DUP 17-07-27 17:33 OP:and  STATUS:               ID:20170727091744d    3
 OLDACT:UP  17-07-27 17:33 OP:and  STATUS:               ID:20170727091743d    3
 OLDACT:UP  17-07-27 17:32 OP:and  STATUS:               ID:20170727091743d    3
 OLDACT:UP  17-07-27 17:32 OP:and  STATUS:               ID:20170727091743d    3
 OLDACT:UP  17-07-27 17:31 OP:and  STATUS:               ID:20170727091743d    3
 OLDACT:UP  17-07-27 17:23 OP:and  STATUS:               ID:20170727091743d    3
 OLDACT:DUP 17-07-27 17:14 OP:and  STATUS:               ID:20170727091743d    3
 2017-07-27-0918-00M.COL___368                                                 6
 STAT SP IPHASW D HRMM SECON CODA AMPLIT PERI AZIMU VELO AIN AR TRES W  DIS CAZ7
 PAM  EZ EP        927 10.50                             157    0.5110 55.1 102 
 PAM  EN ES        927 25.44                             157    0.1410 55.1 102 
 PAM  EZ I         927 26.99         8.6 0.46            157           55.1 102 
 BRR  HZ IP     C  927 10.18                             151    0.1710 68.7 237 
 BRR  HN ES        927 25.59                             151    0.2610 68.7 237 
 BRR  HZ I         927 25.97        22.8 0.15            144           68.7 237 
 BAR2 EZ EP        927 12.05                             143    0.0110 93.9 180 
 BAR2 EZ ES        927 28.47                             143   -0.4710 93.9 180 
 BAR2 EZ I         927 29.68        45.4 0.14            137           93.9 180 
 RUS  HZ IP     D  927 19.11                             125   -0.19 9  172 176 
 RUS  HN ES        927 40.63                             125   -1.25 9  172 176 
 RUS  HZ I         927 48.79         5.8 0.32            122            172 176 
 PTB  HZ EP        927 18.61                             125   -0.10 9  172 235 
 PTB  HN ES        927 41.12                             125    0.31 9  172 235 
 PTB  HZ I         927 44.39        10.8 0.14            121            172 235 
 ZAR  HZ IP     D  927 20.19                             122    0.23 9  184 272 
 ZAR  HN ES        927 43.60                             122    0.56 9  184 272 
 ZAR  HZ I         927 45.43        13.4 0.12            121            184 272 
 TAM  HZ EP   2    927 20.76                             122    0.15 4  190 126 
 TAM  HN ES        927 44.42                             122    0.21 9  190 126 
 SPBC HZ EP        927 24.67                             118    0.76 8  221 206 
 SPBC HN ES   2    927 50.64                             118    0.56 4  221 206 
 SPBC HZ I         927 57.55        11.2 0.08            115            221 206 
 YPLC HZ IP     D  927 26.63                             115    0.27 8  243 158 
 YPLC HN ES        927 53.91                             115   -0.52 8  243 158 
 YPLC HZ I         927 55.97         7.2 0.32            113            243 158 
 LL6C HZ EP   2    927 27.10                             113   -0.34 4  254 358 
 URE  HZ EP   3    927 29.72                             113    1.46 2  261 278 
 URE  HE ES   3    927 56.89                             113   -0.93 2  261 278 
 NOR  HZ IP     D  927 30.61                             112    0.29 7  279 222 
 NOR  HN ES        928  0.76                             112   -0.73 7  279 222 
 NOR  HZ I         928  6.84         8.3 0.18            110            279 222 
 HEL  HZ EP   4    927 34.82                             110    2.44 0  293 242 
 HEL  HN ES   4    928  9.03                             110    3.87 0  293 242 
 HEL  HZ I         928 14.94         4.8 0.52            109            293 242 
 DBB  EZ EP        927 37.08                             107    0.02 7  337 262 
 DBB  EN ES        928 12.10                             107   -1.39 7  337 262 
 DBB  EZ I         928 14.15         5.6 0.14            106            337 262 
 GUY2CHZ EP   9    927 40.82                             107    2.48 0  344 225 
 GUY2CHN ES        928 18.71                             106    0.47 7  344 225 
 GUY2CHZ I         928 25.45         5.4 0.42                           344 225 
 SJC  HZ EP        927 37.81                             106   -0.62 6  349 321 
 SJC  HN ES   3    928 14.14                             106   -1.78 2  349 321 
 PTGC HZ EP   2    927 42.00                             105    0.33 3  377 162 
 ORTC HZ EP   9    927 53.37                             102    2.74 0  452 210 
 ORTC HN ES        928 40.92                             101    0.54 5  452 210 
 ORTC HZ I         928 46.67         2.0 0.50            101            452 210 
 PRA  HZ EP   2    927 52.26                             102    1.53 2  453 205 
 PRA  HN ES   2    928 40.35                             102    2.53 2  453 205 
 PRA  HZ I         928 49.08         2.4 0.28            101            453 205 
                                                                                
