 2016  627 0635  8.7 L   6.821 -73.147142.0  RSN 19 0.4 2.2LRSN                1
 GAP=172        0.89       3.3     3.8  5.3  0.2955E+01  0.3728E+01  0.3465E+01E
 Epicentro: LOS SANTOS - SANTANDER                                             3
 ACTION:UPD 16-07-21 22:23 OP:rebc STATUS:               ID:20160627063508 L   I
 OLDACT:REG 16-06-27 13:19 OP:ak   STATUS:               ID:20160627062740     3
 2016-06-27-0627-40M.COL___327                                                 6
 STAT SP IPHASW D HRMM SECON CODA AMPLIT PERI AZIMU VELO AIN AR TRES W  DIS CAZ7
 BRR  HZ IP     D  635 29.81                             152    0.4410 70.0 297 
 BRR  HE ES        635 46.29                             152    0.7910 70.0 297 
 BRR  HZ I         635 50.60        19.5 0.12                          70.0 297 
 RUS  HZ EP        635 31.82                             142   -0.4310  103 176 
 RUS  HN ES        635 50.69                             142    0.0710  103 176 
 RUS  HZ I         635 53.48        12.7 0.32                           103 176 
 PTB  HZ EP        635 34.80                             131   -0.59 9  148 258 
 PTB  HN ES        635 55.38                             131   -0.83 9  148 258 
 PTB  HZ I         636  3.45        17.9 0.36                           148 258 
 SPBC HZ EP        635 36.90                             128   -0.17 9  165 218 
 SPBC HN ES        635 58.94                             128   -0.26 9  165 218 
 SPBC HZ I         636  5.02        28.1 0.32                           165 218 
 ZAR  HZ EP   2    635 40.55                             122   -0.25 4  203 292 
 ZAR  HE ES        636  5.55                             122   -0.28 9  203 292 
 ZAR  HZ I         636 11.70        18.0 0.30                           203 292 
 NOR  HZ EP        635 44.37                             118    0.03 8  236 234 
 NOR  HE ES        636 12.04                             118   -0.11 8  236 234 
 NOR  HZ I         636 18.80        12.1 0.30                           236 234 
 CHI  HZ EP        635 46.21                             116   -0.22 8  251 195 
 CHI  HN ES        636 15.69                             116   -0.17 8  251 195 
 CHI  HZ I         636 21.11         6.8 0.32                           251 195 
 ROSC BZ EP   9    635 48.31                             116    1.49 0  255 211 
 ROSC BN ES        636 18.24                                    0.19 8  255 211 
 ROSC BZ I         636 22.44        14.2 0.35                           255 211 
 HEL  HZ EP   2    635 48.67                             114   -0.10 4  273 255 
 HEL  HE ES        636 20.39                             114    0.37 8  273 255 
 HEL  HZ I         636 26.43         8.3 0.30                           273 255 
 URE  HZ EP   4    635 42.63                             113   -6.84 0  283 291 
 URE  HN ES   4    636 18.81                             113   -2.47 0  283 291 
 URE  HZ I         636 31.49         7.7 0.18                           283 291 
 GUY2CHZ EP        635 53.01                             112    0.74 7  302 234 
 GUY2CHE ES   4    636 28.22                             112    1.96 0  302 234 
 GUY2CHZ I         636 34.67        10.6 0.42                           302 234 
 ELA  HZ EP   2    635 56.28                             110    0.73 3  331 229 
 ELA  HE ES        636 32.80                             110    0.70 7  331 229 
 ELA  HZ I         636 40.63         7.4 0.40                           331 229 
 CBOC HZ EP        635 55.75                             109    0.23 7  334 252 
 CBOC HN ES        636 32.01                             109   -0.04 7  334 252 
 CBOC HZ I         636 38.11         2.6 0.60                           334 252 
 DBB  SZ EP   2    635 55.66                             109   -0.33 3  339 274 
 DBB  SZ ES        636 32.58                             109   -0.29 7  339 274 
 PRA  HZ EP   2    636  2.28                             106   -0.03 3  394 209 
 PRA  HN ES        636 44.86                             106    0.72 6  394 209 
 PRA  HZ I         636 52.30         7.4 0.30                           394 209 
 ORTC HZ EP   2    636  2.70                             106    0.00 3  397 216 
 ORTC HN ES        636 45.41                             106    0.59 6  397 216 
 ORTC HZ I         636 52.70         4.0 0.30                           397 216 
 SJC  HN ES   4    636 43.41                             105   -3.55 0  407 327 
 PAL  HZ EP        636  3.47                             105   -0.39 6  407 239 
 PAL  HN ES        636 47.02                             105    0.13 6  407 239 
 PAL  HZ I         636 50.83         3.6 0.20                           407 239 
 SJC  HZ EP   4    636  1.27                             105   -2.63 0  407 327 
 SJC  HZ I         636 48.23         3.0 0.38                           407 327 
 CRJC HZ EP   9    636  8.29                             103   -2.53 0  465   4 
 CRJC HN ES        636 56.88                                    0.13 5  465   4 
 CRJC HZ I         637  1.75         4.5 0.20                           465   4 
                                                                                
