 2014 1127 0214  1.7 L   6.828 -73.116147.1  RSN 13 0.5 1.6LRSN                1
 GAP=139        1.05       3.3     4.0  5.6 -0.3834E+01  0.4434E+01  0.4622E+01E
 Epicentro: LOS SANTOS - SANTANDER                                             3
 ACTION:UPD 14-12-19 15:47 OP:nd   STATUS:               ID:20141127021401 L   I
 OLDACT:REG 14-11-27 13:15 OP:fm   STATUS:               ID:20141127020742     3
 2014-11-27-0207-42M.COL___306                                                 6
 STAT SP IPHASW D HRMM SECON CODA AMPLIT PERI AZIMU VELO AIN AR TRES W  DIS CAZ7
 BAR2 SZ EP        214 21.83                             169    0.2410 27.1 196 
 BAR2 SZ ES        214 37.08                             169   -0.0010 27.1 196 
 BAR2 SZ I         214 38.44         8.6 0.18            166           27.1 196 
 BRR  HZ EP        214 23.70                             152    0.6110 72.7 295 
 BRR  HN ES        214 40.32                             152    0.5610 72.7 295 
 BRR  HZ I         214 44.26         6.7 0.14            154           72.7 295 
 PAM  SZ EP        214 23.29                             153   -0.5210 72.9  39 
 PAM  SE ES        214 40.92                             153   -0.1310 72.9  39 
 PAM  SZ I         214 43.33         5.9 0.16            156           72.9  39 
 RUS  HZ EP        214 26.10                             143    0.2910  104 178 
 RUS  HZ I         214 45.77         3.2 0.38            142            104 178 
 PTB  HZ EP        214 28.88                             132   -0.26 9  152 258 
 PTB  HE ES        214 49.88                             132   -0.65 9  152 258 
 PTB  HZ I         214 57.28         5.6 0.40            132            152 258 
 OCA  HZ EP        214 30.15                             130    0.27 9  158 352 
 OCA  HN ES        214 51.65                             130   -0.19 9  158 352 
 OCA  HZ I         214 55.04         5.5 0.22            133            158 352 
 SPBC HZ EP        214 31.16                             129    0.42 9  168 219 
 SPBC HN ES        214 53.36                             129   -0.02 9  168 219 
 SPBC HZ I         215  0.61         6.5 0.14            128            168 219 
 ZAR  HZ EP        214 34.11                             122   -0.33 8  206 291 
 ZAR  HN ES        214 59.59                             122   -0.37 8  206 291 
 ZAR  HZ I         215  5.51         6.2 0.60            124            206 291 
 NOR  HZ EP        214 37.48                             118   -0.52 8  239 234 
 NOR  HE ES        215  6.01                             118   -0.29 8  239 234 
 NOR  HZ I         215  8.14         3.2 0.52            118            239 234 
 CHI  HZ EP        214 39.36                             117   -0.55 8  253 196 
 CHI  HN ES        215  9.31                             117   -0.39 8  253 196 
 CHI  HZ I         215 13.64         2.5 0.80            117            253 196 
 HEL  HZ EP        214 42.73                             115    0.30 7  276 255 
 HEL  HN ES        215 14.23                             115    0.04 7  276 255 
 HEL  HZ I         215 21.27         2.3 0.52            115            276 255 
 GUY2CHZ EP        214 46.37                             112    0.48 7  306 235 
 GUY2CHE ES        215 21.69                             112    1.34 7  306 235 
 GUY2CHZ I         215 30.00         2.0 0.60                           306 235 
 RREF HZ EP        214 48.62                             111    0.19 7  326 229 
 RREF HN ES        215 24.33                             111   -0.54 7  326 229 
 RREF HZ I         215 38.55         1.8 0.36            111            326 229 
                                                                                
