 2017 1127 0544 30.5 L   6.800 -73.117147.5  RSN  5 0.4 1.1LRSN                1
 GAP=140        1.12       4.6     6.6  8.6 -0.7235E+01  0.1495E+02 -0.8117E+01E
 Epicentro: LOS SANTOS - SANTANDER                                             3
 ACTION:UPD 17-12-12 20:00 OP:rebc STATUS:               ID:20171127054430 L   I
 OLDACT:REG 17-11-27 12:24 OP:dhb  STATUS:               ID:20171127053744     3
 2017-11-27-0538-00M.COL___495                                                 6
 STAT SP IPHASW D HRMM SECON CODA AMPLIT PERI AZIMU VELO AIN AR TRES W  DIS CAZ7
 BAR2 EZ EP        544 50.42                             170    0.0410 24.0 197 
 BAR2 EZ ES        545  5.17                             170   -0.7010 24.0 197 
 BAR2 EZ I         545  6.55         3.7 0.22            170           24.0 197 
 PAM  EZ EP        544 53.48                             152    0.6710 75.4  38 
 PAM  EN ES        545 10.18                             152   -0.0210 75.4  38 
 PAM  EZ I         545 12.40         3.5 0.56            153           75.4  38 
 RUS  HZ EP        544 54.34                             144   -0.0910  100 178 
 RUS  HN ES        545 13.42                             144    0.3410  100 178 
 RUS  HZ I         545 15.25         1.5 0.14            145            100 178 
 PTB  HZ EP        544 57.50                             132   -0.42 9  151 259 
 PTB  HE ES        545 19.74                             132    0.46 9  151 259 
 PTB  HZ I         545 20.68         1.6 0.42            133            151 259 
 OCA  HZ EP        544 58.42                             130   -0.59 9  161 352 
 OCA  HE ES        545 21.50                             130    0.27 9  161 352 
                                                                                
