 2013  627 0341 19.8 L   6.733 -73.246152.5  RSN  6 0.3 1.0LRSN                1
 GAP=147        0.72       4.8     6.9  6.7  0.1621E+02 -0.1199E+02 -0.1061E+02E
 Epicentro: VILLANUEVA - SANTANDER                                             3
 ACTION:UPD 14-01-08 09:57 OP:ep   STATUS:               ID:20130627034119 L   I
 OLDACT:REG 13-06-27 06:34 OP:jn   STATUS:               ID:20130627033959     3
 2013-06-27-0339-59M.COL___266                                                 6
 STAT SP IPHASW D HRMM SECON CODA AMPLIT PERI AZIMU VELO AIN AR TRES W  DIS CAZ7
 BAR2 SZ ES   1    341 55.87                             173   -0.14 7 17.1 156 
 GIR2 SZ EP        341 40.03                             165   -0.4610 38.6   9 
 GIR2 SZ I         341 53.52         1.7 0.18            164           38.6   9 
 BRR  HZ EP        341 41.70                             155    0.2810 66.0 309 
 BRR  HN ES        341 58.53                             155    0.2510 66.0 309 
 BRR  HZ I         341 59.25         4.2 0.12            152           66.0 309 
 RUS  HZ EP        341 44.17                             147    0.3410 94.7 169 
 RUS  HN ES   1    342  2.41                             147   -0.15 7 94.7 169 
 RUS  HZ I         342  4.21         0.7 0.32            144           94.7 169 
 PTB  HN ES   1    342  6.55                             136   -0.37 7  136 261 
 PTB  HZ I         342 13.15         2.0 0.30            132            136 261 
 SML  HZ EP   1    341 56.77                             118   -0.31 6  246 338 
 SML  HE ES   1    342 26.29                             118    0.14 6  246 338 
                                                                                
