 2011  427 0830 29.6 L   6.776 -73.092141.6  RSN  6 0.2 1.5LRSN                1
 GAP=145        0.43       3.4     4.8  4.7 -0.3309E+01 -0.7525E+01  0.9085E+00E
 Epicentro: LOS SANTOS - SANTANDER                                             3
 ACTION:UP  11-06-22 15:33 OP:REBC STATUS:               ID:20110427083029 L   I
 2011-04-27-0827-50S.COL___137                                                 6
 STAT SP IPHASW D HRMM SECON CODA AMPLIT PERI AZIMU VELO SNR AR TRES W  DIS CAZ7
 BAR2 SZ EP   1    830 48.65                             171     0.0 7   23 206 
 BAR2 SZ ES   1    831  3.67                             171     0.1 7   23 206 
 BAR2 SZ I         831  4.94        17.6 0.16                            23 206 
 PAM  SZ EP        830 51.43                                     0.210   76  35 
 PAM  SN ES   2    831  8.08                                    -0.1 5   76  35 
 BRR  HZ EP   1    830 50.47                             150    -0.2 7   78 298 
 BRR  HE ES   1    831  7.05                             150     0.0 7   78 298 
 BRR  HZ I         831 11.84         6.1 0.15                            78 298 
 RUS  HZ EP   1    830 52.59                             144    -0.1 7   98 179 
 RUS  HZ I         830 53.46         3.2 0.12                            98 179 
 GRA  SZ EP   1    830 54.51                             136     0.0 7  127  15 
 GRA  SZ ES   2    831 13.55                                    -0.4 5  127  15 
 GRA  SZ I         831 15.26         3.7 0.30                           127  15 
 OCA  SZ ES   3    831 20.72                                     0.8 2  164 351 
                                                                                
