 2014 1227 0451 16.0 L   6.812 -73.125149.9  RSN  6 0.3 1.7LRSN                1
 GAP=185        0.65       2.3     5.0  5.3  0.3870E-01  0.7999E+01 -0.2446E+01E
 Epicentro: LOS SANTOS - SANTANDER                                             3
 ACTION:UPD 15-02-10 17:07 OP:nd   STATUS:               ID:20141227045116 L   I
 OLDACT:REG 14-12-27 13:19 OP:mh   STATUS:               ID:20141227044750     3
 2014-12-27-0447-50M.COL___268                                                 6
 STAT SP IPHASW D HRMM SECON CODA AMPLIT PERI AZIMU VELO AIN AR TRES W  DIS CAZ7
 BAR2 EZ EP   1    451 36.07                             170   -0.08 7 25.1 195 
 BAR2 EZ ES        451 52.11                             170    0.2310 25.1 195 
 BAR2 EZ I         451 53.30         6.9 0.27            166           25.1 195 
 RUS  HZ EP        451 40.39                             144    0.1610  102 177 
 RUS  HN ES        451 58.65                             144   -0.4910  102 177 
 RUS  HZ I         452  0.20         3.6 0.30            149            102 177 
 PTB  HZ EP        451 43.68                             132    0.16 9  150 259 
 PTB  HN ES   1    452  4.52                             132   -0.48 7  150 259 
 PTB  HZ I         452 11.88         5.8 0.34            130            150 259 
 OCA  HN ES        452  6.85                             131    0.05 9  159 352 
 OCA  HZ I         452 14.78         5.5 0.50            131            159 352 
 SPBC HZ EP        451 45.02                             129   -0.02 9  166 219 
 SPBC HN ES        452  8.07                             129    0.37 9  166 219 
 SPBC HZ I         452 15.41         6.7 0.76            130            166 219 
 SML  HZ EP   1    451 52.60                             118   -0.23 6  244 335 
 SML  HN ES        452 21.53                             118   -0.04 8  244 335 
 SML  HZ I         452 29.17         8.1 0.25            119            244 335 
                                                                                
