 2016  927 0509 42.9 L   6.716 -73.375146.3  RSN  5 0.3 1.4LRSN                1
 GAP=163        0.82       8.7     7.5  6.8  0.5008E+02 -0.8670E+01 -0.2289E+02E
 Epicentro: GALAN - SANTANDER                                                  3
 ACTION:UPD 17-08-17 21:16 OP:lp   STATUS:               ID:20160927050942 L   I
 OLDACT:UP  16-09-27 16:54 OP:edw  STATUS:               ID:20160927050742     3
 OLDACT:UP  16-09-27 16:54 OP:edw  STATUS:               ID:20160927050742     3
 OLDACT:UP  16-09-27 16:52 OP:edw  STATUS:               ID:20160927050742     3
 OLDACT:REG 16-09-27 12:50 OP:edw  STATUS:               ID:20160927050742     3
 2016-09-27-0508-00M.COL___360                                                 6
 STAT SP IPHASW D HRMM SECON CODA AMPLIT PERI AZIMU VELO AIN AR TRES W  DIS CAZ7
 BAR2 EZ EP        510  2.44                             170   -0.2410 25.3 123 
 BAR2 EZ ES        510 17.82                             170   -0.2610 25.3 123 
 BAR2 EZ I         510 19.02        10.8 0.28            171           25.3 123 
 BRR  HZ EP        510  4.11                             157    0.6810 57.1 319 
 BRR  HN ES   4    510 21.50                             157    2.09 0 57.1 319 
 RUS  HZ EP        510  6.51                             145    0.0510 96.6 160 
 RUS  HE ES        510 24.89                             145    0.0810 96.6 160 
 RUS  HZ I         510 26.25         3.2 0.22            147           96.6 160 
 PTB  HZ EP   9    510  8.91                             138    1.24 0  121 261 
 PTB  HN ES        510 28.45                             141    0.2610  121 261 
 PTB  HZ I         510 32.03         2.1 0.26            134            121 261 
 ZAR  HZ EP        510 13.21                             125   -0.29 9  185 298 
 ZAR  HE ES        510 37.22                             125   -0.11 9  185 298 
 ZAR  HZ I         510 46.19         2.3 0.16            125            185 298 
 NOR  HN ES   4    510 43.98                             122    2.24 0  209 232 
 CHI  HN ES   4    510 49.82                             119    2.52 0  234 190 
 HEL  HN ES   4    510 42.03                             117   -7.32 0  245 256 
                                                                                
