 2017  727 0110 15.6 L   6.751 -73.117143.4  RSN  5 0.4 1.2LRSN                1
 GAP=142        0.57       5.2     5.0  5.4  0.2375E+01 -0.3974E+01 -0.5986E+01E
 Epicentro: LOS SANTOS - SANTANDER                                             3
 ACTION:UPD 17-08-30 15:37 OP:rebc STATUS:               ID:20170727011015 L   I
 OLDACT:UP  17-07-27 13:13 OP:and  STATUS:               ID:20170727010741     3
 OLDACT:UP  17-07-27 13:12 OP:and  STATUS:               ID:20170727010741     3
 OLDACT:REG 17-07-27 12:10 OP:and  STATUS:               ID:20170727010741     3
 2017-07-27-0108-00M.COL___380                                                 6
 STAT SP IPHASW D HRMM SECON CODA AMPLIT PERI AZIMU VELO AIN AR TRES W  DIS CAZ7
 BAR2 EZ EP        110 34.89                             172    0.0610 19.0 202 
 BAR2 EZ ES        110 49.74                             172   -0.1110 19.0 202 
 BAR2 EZ I         110 50.79         5.0 0.20            172           19.0 202 
 BRR  HZ EP        110 36.76                             150   -0.0210 76.7 301 
 BRR  HN ES        110 53.53                             150    0.2110 76.7 301 
 PAM  EZ IP     D  110 37.81                             150    0.1410 79.7  35 
 PAM  EN ES   2    110 54.14                             150   -0.77 5 79.7  35 
 PAM  EZ I         110 56.71         3.0 0.44            151           79.7  35 
 RUS  HN ES   2    110 56.97                             145    0.25 5 95.0 178 
 RUS  HZ I         110 58.45         4.1 0.30            145           95.0 178 
 PTB  HZ EP   2    110 42.15                             131   -0.39 5  150 261 
 PTB  HN ES   3    111  2.36                             131   -1.22 2  150 261 
 PTB  HZ I         111  4.78         1.0 0.14            132            150 261 
                                                                                
