 2017  927 0443 34.0 L   6.782 -73.120138.0  RSN  7 0.4 1.5LRSN                1
 GAP=141        1.00       4.4     4.5  7.1 -0.2059E+01  0.1141E+02  0.5145E+01E
 Epicentro: LOS SANTOS - SANTANDER                                             3
 ACTION:UPD 17-10-05 19:16 OP:rebc STATUS:               ID:20170927044334 L   I
 OLDACT:REG 17-09-27 12:37 OP:edw  STATUS:               ID:20170927043739     3
 2017-09-27-0438-00M.COL___447                                                 6
 STAT SP IPHASW D HRMM SECON CODA AMPLIT PERI AZIMU VELO AIN AR TRES W  DIS CAZ7
 BAR2 EZ EP        443 52.59                             170   -0.0910 22.0 198 
 BAR2 EZ ES        444  7.82                             170    0.5810 22.0 198 
 BAR2 EZ I         444  8.68        11.8 0.18            171           22.0 198 
 BRR  HZ EP        443 54.45                             150   -0.0810 74.6 299 
 BRR  HN ES        444 10.95                             150    0.4210 74.6 299 
 BRR  HZ I         444 15.00         6.6 0.32            151           74.6 299 
 PAM  EZ EP     C  443 55.45                             150    0.0610 77.2  37 
 PAM  EN ES        444 11.85                             150   -0.2210 77.2  37 
 PAM  EZ I         444 14.29         5.3 0.42            152           77.2  37 
 RUS  HZ EP        443 56.68                             143   -0.1610 98.4 178 
 RUS  HN ES        444 14.26                             143   -0.3910 98.4 178 
 RUS  HZ I         444 16.82         3.7 0.38            146           98.4 178 
 ZAR  HN ES        444 30.88                             120   -0.63 8  207 292 
 NOR  HN ES        444 36.68                             117   -0.36 8  236 235 
 GUY2CHZ EP        444 18.39                             111    0.99 7  302 235 
 GUY2CHN ES        444 51.38                             111    0.14 7  302 235 
 GUY2CHZ I         444 58.02         1.2 0.28                           302 235 
                                                                                
