 2017  827 0630 57.4 L   6.727 -73.148155.6  RSN  5 0.3 1.0LRSN                1
 GAP=139        0.85       6.5     6.9  7.6  0.2644E+02 -0.1077E+02 -0.1563E+02E
 Epicentro: JORDAN - SANTANDER                                                 3
 ACTION:UPD 17-09-04 20:25 OP:rebc STATUS:               ID:20170827063057 L   I
 OLDACT:UP  17-08-27 16:50 OP:edw  STATUS:               ID:20170827062742     3
 OLDACT:REG 17-08-27 13:23 OP:edw  STATUS:               ID:20170827062742     3
 2017-08-27-0628-00M.COL___411                                                 6
 STAT SP IPHASW D HRMM SECON CODA AMPLIT PERI AZIMU VELO AIN AR TRES W  DIS CAZ7
 BAR2 EZ ES        631 33.95                             174   -0.2610 15.4 194 
 BAR2 EZ I         631 34.29         2.5 0.26            173           15.4 194 
 BRR  HZ EP        631 20.08                             153    0.2610 75.2 304 
 BRR  HN ES        631 37.21                             153   -0.1110 75.2 304 
 BRR  HZ I         631 37.41         1.5 0.62            153           75.2 304 
 PAM  EZ EP        631 21.20                             150    0.1710 83.9  36 
 RUS  HZ EP        631 21.03                             148   -0.5510 92.6 176 
 RUS  HN ES        631 40.92                             148    0.4710 92.6 176 
 RUS  HZ I         631 41.83         1.5 0.54            147           92.6 176 
 ZAR  HN ES        631 56.89                             124    0.05 8  207 294 
                                                                                
