 2017  627 0536 58.6 L   6.758 -73.085143.2  RSN  6 0.2 1.5LRSN                1
 GAP=271        0.66       4.2     4.5  5.0  0.1884E+01  0.1541E+01 -0.3228E+01E
 Epicentro: LOS SANTOS - SANTANDER                                             3
 ACTION:UPD 17-09-14 16:55 OP:jn   STATUS:               ID:20170627053658 L   I
 OLDACT:UP  17-06-27 15:50 OP:and  STATUS:               ID:20170627052747     3
 OLDACT:REG 17-06-27 12:38 OP:and  STATUS:               ID:20170627052747     3
 2017-06-27-0528-00M.COL___352                                                 6
 STAT SP IPHASW D HRMM SECON CODA AMPLIT PERI AZIMU VELO AIN AR TRES W  DIS CAZ7
 BAR2 EZ EP        537 17.81                             171   -0.0510 21.3 210 
 BAR2 EZ ES        537 32.81                             171   -0.0910 21.3 210 
 BAR2 EZ I         537 34.95         7.4 0.24            165           21.3 210 
 BRR  HZ EP        537 19.73                             149   -0.2110 79.3 299 
 BRR  HN ES        537 36.84                             149    0.2510 79.3 299 
 BRR  HZ I         537 37.82         6.0 0.20            147           79.3 299 
 PTB  HZ EP   9    537 24.93                             130   -0.95 0  154 261 
 PTB  HN ES        537 45.59                                   -0.63 9  154 261 
 PTB  HZ I         537 48.23         2.2 0.22            128            154 261 
 SPBC HN ES        537 49.11                             128    0.01 9  164 222 
 SPBC HZ I         537 56.00         3.7 0.07            125            164 222 
 ZAR  HZ EP        537 31.92                             120    0.23 8  212 293 
 ZAR  HN ES        537 57.38                             120   -0.14 8  212 293 
 ZAR  HZ I         538  2.57         3.9 0.30            120            212 293 
 NOR  HN ES   2    538  2.68                             117    0.21 4  238 236 
                                                                                
