 2011  427 0608 58.1 L   6.785 -73.081145.5  RSN  5 0.2 1.4LRSN                1
 GAP=146        0.41       3.0     5.7  5.6  0.3508E+01 -0.6245E+01 -0.1706E+00E
 Epicentro: LOS SANTOS - SANTANDER                                             3
 ACTION:UP  11-06-22 15:33 OP:REBC STATUS:               ID:20110427060858 L   I
 2011-04-27-0607-22S.COL___137                                                 6
 STAT SP IPHASW D HRMM SECON CODA AMPLIT PERI AZIMU VELO SNR AR TRES W  DIS CAZ7
 BAR2 SZ EP   1    6 9 17.65                             170     0.0 7   24 208 
 BAR2 SZ I         6 9 17.93         6.6 0.10                            24 208 
 PAM  SE ES   2    6 9 37.32                             152     0.1 5   74  34 
 PAM  SZ I         6 9 38.82         1.5 0.18                            74  34 
 BRR  HZ EP   1    6 9 19.41                             150    -0.2 7   78 297 
 BRR  HZ I         6 9 19.64        11.8 0.12                            78 297 
 BRR  HN ES   1    6 9 36.52                             150     0.1 7   78 297 
 RUS  HZ EP   1    6 9 21.80                             144     0.2 7   99 180 
 RUS  HE ES   2    6 9 39.79                             144    -0.3 5   99 180 
 RUS  HZ I         6 9 42.68         3.6 0.33                            99 180 
 OCA  SZ EP   1    6 9 26.67                             129     0.1 7  163 351 
 OCA  SZ ES   2    6 9 48.61                             129    -0.2 5  163 351 
 OCA  SZ I         6 9 51.80         3.5 0.26                           163 351 
                                                                                
