 2013 1027 0349 20.6 L   6.786 -73.140148.9  RSN 10 0.5 1.5LRSN                1
 GAP=138        1.33       3.7     5.8  7.7 -0.5899E+00  0.8413E+01  0.1247E+01E
 Epicentro: LOS SANTOS - SANTANDER                                             3
 ACTION:UPD 13-11-25 09:23 OP:ep   STATUS:               ID:20131027034920 L   I
 OLDACT:REG 13-10-27 08:54 OP:carl STATUS:               ID:20131027034848     3
 2013-10-27-0348-48M.COL___226                                                 6
 STAT SP IPHASW D HRMM SECON CODA AMPLIT PERI AZIMU VELO AIN AR TRES W  DIS CAZ7
 BAR2 SZ ES        349 55.51                             171   -0.6210 22.0 192 
 BAR2 SZ I         349 56.76        12.6 0.22            168           22.0 192 
 BRR  HZ EP        349 42.42                             153    0.2910 72.4 299 
 BRR  HE ES        349 59.92                             153    0.9810 72.4 299 
 BRR  HZ I         350  4.61         4.0 0.10            151           72.4 299 
 PAM  SZ EP        349 43.52                             151    0.3610 78.2  39 
 PAM  SE ES        350  0.93                             151    0.1410 78.2  39 
 PAM  SZ I         350  2.75         7.4 0.58            156           78.2  39 
 RUS  HZ EP        349 44.65                             145    0.1310 99.0 176 
 RUS  HN ES        350  2.95                             145   -0.2510 99.0 176 
 RUS  HZ I         350  4.40         2.0 0.42            145           99.0 176 
 PTB  HZ EP        349 47.06                             133   -0.76 9  148 259 
 PTB  HN ES        350  8.51                             133   -0.57 9  148 259 
 PTB  HZ I         350 14.46         5.6 0.42            132            148 259 
 SPBC HZ EP        349 49.65                             130    0.41 9  162 219 
 SPBC HN ES        350 11.23                             130   -0.37 9  162 219 
 SPBC HZ I         350 16.61         4.9 0.42            129            162 219 
 OCA  HE ES        350 11.50                             130   -0.15 9  162 353 
 ZAR  HN ES        350 19.80                             123    0.91 9  205 292 
 ZAR  HZ I         350 25.86         3.3 0.30            123            205 292 
 SML  HZ EP        349 56.92                             118   -0.63 8  245 335 
 SML  HN ES        350 25.63                             118   -0.76 8  245 335 
 CHI  HZ EP        349 58.62                             118    0.32 8  247 195 
 CHI  HN ES        350 28.12                             118    0.38 8  247 195 
 CHI  HZ I         350 37.58         1.4 0.38            119            247 195 
                                                                                
