 2014 1227 0905 36.5 L   6.771 -73.154139.7  RSN  8 0.4 1.8LRSN                1
 GAP=150        1.01       4.1     4.5  6.6 -0.5330E+01  0.9142E+01  0.4311E+00E
 Epicentro: LOS SANTOS - SANTANDER                                             3
 ACTION:UPD 15-02-10 17:07 OP:nd   STATUS:               ID:20141227090536 L   I
 OLDACT:UP  14-12-27 18:40 OP:mh   STATUS:               ID:20141227085749     3
 OLDACT:REG 14-12-27 13:35 OP:mh   STATUS:               ID:20141227085749     3
 2014-12-27-0857-49M.COL___265                                                 6
 STAT SP IPHASW D HRMM SECON CODA AMPLIT PERI AZIMU VELO AIN AR TRES W  DIS CAZ7
 BAR2 EZ EP        9 5 55.10                             171   -0.1910 20.0 189 
 BAR2 EZ ES        9 6  9.99                             171    0.0010 20.0 189 
 BAR2 EZ I         9 6 11.03        11.6 0.16            171           20.0 189 
 BRR  HZ EP        9 5 56.96                             151   -0.0410 72.0 301 
 BRR  HN ES        9 6 13.74                             151    0.7210 72.0 301 
 BRR  HZ I         9 6 15.18        10.9 0.41            147           72.0 301 
 PAM  SZ EP        9 5 58.08                             149   -0.1410 80.4  39 
 PAM  SN ES        9 6 15.11                             149   -0.0810 80.4  39 
 PAM  SZ I         9 6 17.53         8.0 0.22            151           80.4  39 
 PTB  HZ EP        9 6  2.14                             131   -0.66 9  146 260 
 PTB  HN ES        9 6 22.62                             131   -0.73 9  146 260 
 PTB  HZ I         9 6 29.44         8.0 0.19            130            146 260 
 SPBC HZ EP   1    9 6  4.83                             128    0.62 7  160 219 
 SPBC HN ES        9 6 25.70                             128   -0.15 9  160 219 
 SPBC HZ I         9 6 28.62         9.6 0.22            129            160 219 
 ZAR  HZ EP   1    9 6  8.90                             121    0.34 6  204 293 
 ZAR  HN ES        9 6 33.54                             121   -0.05 9  204 293 
 ZAR  HZ I         9 6 40.02         6.9 0.42            120            204 293 
 NOR  HZ EP        9 6 12.20                             117    0.64 8  232 235 
 NOR  HN ES        9 6 39.35                             117    0.40 8  232 235 
 NOR  HZ I         9 6 44.01         5.9 0.18            118            232 235 
 SML  HZ EP   4    9 6 11.81                             116   -1.22 0  246 336 
 SML  HN ES        9 6 41.55                             116   -0.00 8  246 336 
 SML  HZ I         9 6 47.70         6.5 0.10            116            246 336 
                                                                                
