 2013 1227 0313 41.0 L   6.809 -73.170141.2  RSN 10 0.4 1.5LRSN                1
 GAP=133        0.87       3.2     5.0  5.7  0.3422E+01  0.6965E+01 -0.6165E+00E
 Epicentro: LOS SANTOS - SANTANDER                                             3
 ACTION:UP  14-01-13 10:21 OP:ep   STATUS:               ID:20131227031341 L   I
 OLDACT:UPD 14-01-09 13:44 OP:ep   STATUS:               ID:20131227031341 L   3
 OLDACT:REG 13-12-27 07:42 OP:mh   STATUS:               ID:20131227031000     3
 2013-12-27-0310-00M.COL___285                                                 6
 STAT SP IPHASW D HRMM SECON CODA AMPLIT PERI AZIMU VELO AIN AR TRES W  DIS CAZ7
 BAR2 SZ EP   1    314  0.28                             170    0.16 7 24.0 183 
 BAR2 SZ ES        314 14.65                             170   -0.3710 24.0 183 
 BAR2 SZ I         314 16.06        13.4 0.16            165           24.0 183 
 BRR  HZ EP        314  2.31                             153    0.7810 68.4 299 
 BRR  HN ES        314 17.93                             153    0.4110 68.4 299 
 BRR  HZ I         314 47.29         5.0 0.21            148           68.4 299 
 PAM  SE ES   1    314 19.92                             150    0.10 7 78.4  41 
 RUS  HZ EP   1    314  4.42                             142   -0.00 7  102 175 
 RUS  HN ES        314 22.56                             142   -0.1110  102 175 
 PTB  HZ EP   1    314  7.39                             131   -0.01 7  145 258 
 PTB  HN ES   1    314 27.42                             131   -0.56 7  145 258 
 PTB  HZ I         314 31.12         4.0 0.06            133            145 258 
 OCA  HN ES   2    314 30.19                             129   -0.40 5  159 354 
 ZAR  HN ES   1    314 38.00                             122    0.27 6  201 292 
 ZAR  HZ I         314 45.44         2.5 0.16            125            201 292 
 NOR  HN ES   2    314 43.87                             118    0.02 4  233 234 
 SML  HZ EP        314 16.74                             117   -0.44 8  242 336 
 SML  HE ES        314 44.87                             117   -0.52 8  242 336 
 SML  HZ I         314 48.44         6.3 0.11            122            242 336 
 CHI  HZ EP        314 18.73                             116    0.23 8  249 195 
 CHI  HN ES   2    314 46.85                             116   -0.88 4  249 195 
 CHI  HZ I         314 51.62         1.2 0.34            123            249 195 
                                                                                
