 2013 1027 0429  7.1 L   6.625 -73.562108.4  RSN  7 0.5 1.6LRSN                1
 GAP= 86        1.19       4.1     5.3 12.4 -0.4558E+01  0.8376E+01 -0.2557E+01E
 Epicentro: EL CARMEN DE CHUCURI - SANTANDER                                   3
 ACTION:UPD 13-11-25 09:23 OP:ep   STATUS:               ID:20131027042907 L   I
 OLDACT:REG 13-10-27 08:55 OP:carl STATUS:               ID:20131027042847     3
 2013-10-27-0428-47M.COL___226                                                 6
 STAT SP IPHASW D HRMM SECON CODA AMPLIT PERI AZIMU VELO AIN AR TRES W  DIS CAZ7
 BAR2 SZ EP        429 23.35                             157    0.3810 42.1  95 
 BAR2 SZ I         429 36.76        15.6 0.50            152           42.1  95 
 BRR  HZ EP   1    429 23.84                             150    0.48 7 55.8 343 
 BRR  HN ES   1    429 36.71                             150    0.68 7 55.8 343 
 BRR  HZ I         429 37.98         9.9 0.10            151           55.8 343 
 RUS  HN ES        429 42.20                             135   -0.4510 96.8 147 
 PTB  HZ EP        429 26.36                             134   -0.2910 99.4 265 
 PTB  HN ES        429 41.13                             134   -0.7710 99.4 265 
 PTB  HZ I         429 45.59         8.1 0.16            137           99.4 265 
 SPBC HZ EP        429 28.60                             128   -0.2010  122 208 
 SPBC HE ES        429 46.03                             128    0.3210  122 208 
 OCA  HN ES        429 56.52                             116   -0.24 9  180   9 
 NOR  HN ES        429 58.40                             115    0.72 9  186 231 
                                                                                
