 2017  427 0243 38.3 L   6.805 -73.170155.4  RSN  7 0.4 1.9LRSN                1
 GAP=109        0.64       4.6     4.1  6.5  0.1122E+02 -0.3100E+01  0.4099E+01E
 Epicentro: LOS SANTOS - SANTANDER                                             3
 ACTION:UPD 17-05-30 21:16 OP:jn   STATUS:               ID:20170427024338 L   I
 OLDACT:UP  17-04-27 13:55 OP:and  STATUS:               ID:20170427023742d    3
 OLDACT:UP  17-04-27 13:55 OP:and  STATUS:               ID:20170427023742d    3
 OLDACT:UP  17-04-27 13:53 OP:and  STATUS:               ID:20170427023742d    3
 OLDACT:UP  17-04-27 13:53 OP:and  STATUS:               ID:20170427023742d    3
 OLDACT:UP  17-04-27 13:53 OP:and  STATUS:               ID:20170427023742d    3
 OLDACT:UP  17-04-27 13:52 OP:and  STATUS:               ID:20170427023742d    3
 OLDACT:DUP 17-04-27 13:50 OP:and  STATUS:               ID:20170427023742d    3
 OLDACT:UP  17-04-27 13:49 OP:and  STATUS:               ID:20170427023741     3
 OLDACT:UP  17-04-27 13:48 OP:and  STATUS:               ID:20170427023741     3
 OLDACT:UP  17-04-27 13:48 OP:and  STATUS:               ID:20170427023741     3
 OLDACT:UP  17-04-27 13:47 OP:and  STATUS:               ID:20170427023741     3
 OLDACT:UP  17-04-27 13:45 OP:and  STATUS:               ID:20170427023741     3
 OLDACT:UP  17-04-27 13:44 OP:and  STATUS:               ID:20170427023741     3
 OLDACT:UP  17-04-27 13:44 OP:and  STATUS:               ID:20170427023741     3
 OLDACT:UP  17-04-27 13:40 OP:and  STATUS:               ID:20170427023741     3
 OLDACT:UP  17-04-27 13:40 OP:and  STATUS:               ID:20170427023741     3
 OLDACT:UP  17-04-27 13:39 OP:and  STATUS:               ID:20170427023741     3
 OLDACT:UP  17-04-27 13:39 OP:and  STATUS:               ID:20170427023741     3
 OLDACT:UP  17-04-27 13:37 OP:and  STATUS:               ID:20170427023741     3
 OLDACT:UP  17-04-27 13:37 OP:and  STATUS:               ID:20170427023741     3
 OLDACT:UP  17-04-27 13:36 OP:and  STATUS:               ID:20170427023741     3
 OLDACT:UP  17-04-27 13:35 OP:and  STATUS:               ID:20170427023741     3
 OLDACT:UP  17-04-27 13:35 OP:and  STATUS:               ID:20170427023741     3
 OLDACT:REG 17-04-27 12:33 OP:and  STATUS:               ID:20170427023741     3
 2017-04-27-0238-00M.COL___360                                                 6
 STAT SP IPHASW D HRMM SECON CODA AMPLIT PERI AZIMU VELO AIN AR TRES W  DIS CAZ7
 BRR  HZ EP        244  0.54                             155    0.2010 68.6 299 
 BRR  HN ES        244 17.58                             155    0.0410 68.6 299 
 BRR  HZ I         244 21.56        14.8 0.42            154           68.6 299 
 PAM  EZ IP     D  244  1.70                             152    0.1010 78.7  41 
 PAM  EN ES   3    244 18.34                             152   -1.45 2 78.7  41 
 PAM  EZ I         244 20.88        22.9 0.56            159           78.7  41 
 PTB  HZ EP        244  5.71                             135   -0.12 9  145 258 
 PTB  HN ES   2    244 26.47                             135   -0.84 5  145 258 
 PTB  HZ I         244 32.81         6.9 0.28            135            145 258 
 YPLC HZ IP     D  244  9.15                             128    0.19 9  179 151 
 YPLC HN ES        244 32.79                             128   -0.10 9  179 151 
 YPLC HZ I         244 34.22         4.4 0.20            132            179 151 
 ZAR  HN ES        244 36.89                             125    0.19 9  201 292 
 ZAR  HZ I         244 43.37         8.2 0.24            126            201 292 
 PTGC HZ IP   2 C  244 21.95                             113   -0.80 4  310 158 
 SJC  HZ IP   2 C  244 32.93                             107   -1.02 3  407 327 
                                                                                
