 2017  127 0915 49.5 L   6.825 -73.194143.0  RSN  5 0.4 1.4LRSN                1
 GAP=129        1.10       5.9     5.5  8.1 -0.3112E+01  0.5380E+01  0.2625E+01E
 Epicentro: ZAPATOCA - SANTANDER                                               3
 ACTION:UPD 17-05-22 16:03 OP:jn   STATUS:               ID:20170127091549 L   I
 OLDACT:DUP 17-01-27 17:26 OP:cog  STATUS:               ID:20170127090741d    3
 2017-01-27-0908-00M.COL___316                                                 6
 STAT SP IPHASW D HRMM SECON CODA AMPLIT PERI AZIMU VELO AIN AR TRES W  DIS CAZ7
 BAR2 EZ EP        916  8.74                             169   -0.0810 25.7 177 
 BAR2 EZ ES        916 23.38                             169   -0.5310 25.7 177 
 BAR2 EZ I         916 24.63         6.6 0.32            169           25.7 177 
 BRR  HZ EP        916 10.65                             154    0.6610 65.2 299 
 BRR  HE ES        916 25.96                             154   -0.0310 65.2 299 
 PAM  EZ EP        916 11.63                             150    0.1410 78.9  44 
 PAM  EE ES        916 28.64                             150   -0.0210 78.9  44 
 PAM  EZ I         916 30.60         6.9 0.50            153           78.9  44 
 RUS  HZ EP        916 13.11                             142   -0.0810  104 173 
 RUS  HE ES        916 32.09                             142    0.4010  104 173 
 RUS  HZ I         916 33.29         2.2 0.32            144            104 173 
 PTB  HZ EP        916 14.91                             132   -0.88 9  143 257 
 PTB  HN ES        916 36.66                             132    0.35 9  143 257 
 PTB  HZ I         916 43.60         2.3 0.20            132            143 257 
                                                                                
