 2016 1127 0950 57.2 L   6.760 -73.153139.4  RSN  7 0.3 1.6LRSN                1
 GAP=152        0.78       3.4     3.6  5.2 -0.1069E+01  0.4871E+01  0.5292E+01E
 Epicentro: LOS SANTOS - SANTANDER                                             3
 ACTION:UPD 17-10-26 21:12 OP:lp   STATUS:               ID:20161127095057 L   I
 OLDACT:DUP 16-11-27 13:50 OP:cara STATUS:               ID:20161127094715d    3
 OLDACT:REG 16-11-27 13:10 OP:dani STATUS:               ID:20161127094714     3
 2016-11-27-0948-00M.COL___349                                                 6
 STAT SP IPHASW D HRMM SECON CODA AMPLIT PERI AZIMU VELO AIN AR TRES W  DIS CAZ7
 BAR2 EZ EP        951 16.30                             172    0.3710 18.8 190 
 BAR2 EZ ES        951 30.18                             172   -0.3910 18.8 190 
 BAR2 EZ I         951 31.94        10.5 0.26            170           18.8 190 
 BRR  HZ EP        951 17.91                             151    0.2110 72.7 302 
 BRR  HN ES        951 34.23                             151    0.5010 72.7 302 
 BRR  HZ I         951 35.27         7.0 0.30            151           72.7 302 
 PAM  HZ IP        951 19.09                             148    0.1510 81.4  38 
 PAM  EN ES        951 35.60                             148   -0.3410 81.4  38 
 PAM  HZ I         951 38.07         7.4 0.78            151           81.4  38 
 PTB  HZ EP        951 23.32                             131   -0.13 9  146 260 
 PTB  HN ES        951 43.93                             131   -0.04 9  146 260 
 PTB  HZ I         951 46.68         4.4 0.48            131            146 260 
 ZAR  HZ EP        951 29.34                             121    0.05 9  205 293 
 ZAR  HN ES        951 53.95                             121   -0.40 9  205 293 
 ZAR  HZ I         951 56.23         3.9 0.20            122            205 293 
 CHI  HN ES        952  2.98                             116    0.22 8  244 195 
 PRA  HZ EP        951 49.29                             106   -0.66 6  388 210 
 PRA  HN ES        952 31.16                             106    0.02 6  388 210 
 PRA  HZ I         952 39.09         1.4 0.26            106            388 210 
                                                                                
