 2012  227 0330 44.6 L   6.766 -73.146140.0  RSN  7 0.4 1.7LRSN                1
 GAP=138        0.80       4.9     5.3  6.4 -0.2029E+01  0.4415E+01  0.7252E+01E
 ACTION:UP  12-03-07 16:34 OP:epov STATUS:               ID:20120227033044 L   I
 2012-02-27-0330-00M.COL___192                                                 6
 STAT SP IPHASW D HRMM SECON CODA AMPLIT PERI AZIMU VELO AIN AR TRES W  DIS CAZ7
 BAR2 SZ EP   1    331  3.38                             172   -0.08 7 19.6 192 
 BAR2 SZ ES   1    331 17.69                             172   -0.49 7 19.6 192 
 BAR2 SZ I         331 19.09        16.8 0.16                          19.6 192 
 GIR2 SZ EP   1    331  3.46                             165   -0.23 7 35.0 351 
 GIR2 SZ ES   1    331 18.92                             165    0.33 7 35.0 351 
 BRR  HZ IP     D  331  5.23                             151    0.0010 73.0 301 
 BRR  HZ I         331  5.42        20.6 0.17                          73.0 301 
 BRR  HE ES   1    331 21.97                             151    0.65 7 73.0 301 
 PAM  SZ EP   1    331  6.39                             149    0.00 7 80.4  38 
 PAM  SN ES   1    331 23.31                             149   -0.07 7 80.4  38 
 PAM  SZ I         331 25.34        10.8 0.61                          80.4  38 
 RUS  HZ EP   1    331  7.52                             144    0.01 7 96.8 176 
 RUS  HN ES   1    331 25.42                             144    0.04 7 96.8 176 
 RUS  HZ I         331 28.23         3.8 0.23                          96.8 176 
 PTB  HZ EP   1    331 10.27                             131   -0.76 7  147 260 
 PTB  HE ES   1    331 31.51                             131   -0.14 7  147 260 
 CHI  HZ EP   1    331 22.56                             116    0.98 6  245 195 
 CHI  HZ I         331 56.98         1.6 0.19                           245 195 
                                                                                
