 2010 1127 0111 44.4 L   6.775 -73.045143.2  RSN  6 0.4 1.7LRSN                1
 GAP=170        0.75       4.2     7.6  8.5 -0.3306E+01 -0.1132E+02 -0.2490E+01E
 Epicentro: LOS SANTOS - SANTANDER                                             3
 ACTION:UP  10-12-17 16:55 OP:REBC STATUS:               ID:20101127011144 L   I
 2010-11-27-0108-07S.COL___129                                                 6
 STAT SP IPHASW D HRMM SECON CODA AMPLIT PERI AZIMU VELO SNR AR TRES W  DIS CAZ7
 BRR  HZ EP   1    112  5.68                             149    -0.2 8   82 297 
 BRR  HN ES   1    112 22.65                             149    -0.1 8   82 297 
 BRR  HZ I         112 27.91        11.2 0.07                            82 297 
 RUS  HZ EP   1    112  7.85                             144     0.2 8   98 182 
 RUS  HE ES   1    112 25.70                             144    -0.1 8   98 182 
 RUS  HZ I         112 27.82         5.3 0.17                            98 182 
 GRA  SZ EP        112  9.64                             136     0.310  126  12 
 GRA  SZ I         112 10.78         8.8 0.24                           126  12 
 OCA  SZ EP   2    112 12.56                             128    -0.3 5  165 349 
 OCA  SZ ES   2    112 35.13                             128     0.0 5  165 349 
 OCA  SZ I         112 39.45         9.0 0.00                           165 349 
 NOR  SZ EP   1    112 20.01                             117    -0.8 6  242 237 
 NOR  SE ES   2    112 50.07                             117     0.9 4  242 237 
 CHI  HZ EP   2    112 22.02                             117     0.1 4  249 198 
 CHI  HZ I         112 57.11         2.7 0.40                           249 198 
                                                                                
