 2016  327 0309 23.6 L   6.836 -73.101132.7  RSN  7 0.3 1.4LRSN                1
 GAP=248        0.81       4.9     5.4  5.9  0.1275E+02  0.1107E+02  0.5165E+01E
 Epicentro: LOS SANTOS - SANTANDER                                             3
 ACTION:UPD 16-05-13 21:27 OP:cam  STATUS:               ID:20160327030923 L   I
 OLDACT:DUP 16-03-27 15:32 OP:ak   STATUS:               ID:20160327030750d    3
 OLDACT:REG 16-03-27 13:11 OP:ak   STATUS:               ID:20160327030749     3
 2016-03-27-0307-49M.COL___293                                                 6
 STAT SP IPHASW D HRMM SECON CODA AMPLIT PERI AZIMU VELO AIN AR TRES W  DIS CAZ7
 BAR2 EZ ES        3 9 55.61                             167   -0.3910 28.4 198 
 RUS  HZ EP   2    3 9 46.71                             140    0.30 5  104 179 
 RUS  HE ES        310  4.78                             140    0.6010  104 179 
 RUS  HZ I         310  6.70         2.4 0.30            136            104 179 
 PTB  HZ EP        3 9 50.01                             128   -0.09 9  153 258 
 PTB  HN ES        310 10.37                             128   -0.38 9  153 258 
 PTB  HZ I         310 16.76         4.0 0.30            126            153 258 
 SPBC HZ EP        3 9 51.64                             125   -0.14 9  169 219 
 SPBC HN ES        310 13.61                             125   -0.12 9  169 219 
 SPBC HZ I         310 17.44         4.6 0.13            122            169 219 
 ZAR  HN ES        310 21.08                             119    0.57 8  207 291 
 NOR  HZ EP        3 9 59.41                             115    0.08 8  241 234 
 NOR  HN ES        310 27.31                             115    0.13 8  241 234 
 NOR  HZ I         310 31.02         1.6 0.26            114            241 234 
 CHI  HZ EP        310  0.79                             114   -0.42 8  254 196 
 CHI  HN ES        310 30.60                             114    0.07 8  254 196 
 CHI  HZ I         310 37.93         1.4 0.46            113            254 196 
                                                                                
