 2015  127 0507 37.0 L   6.782 -73.154147.2  RSN  6 0.2 1.8LRSN                1
 GAP= 99        0.65       3.7     3.3  4.8 -0.8026E+00  0.2840E+01 -0.1175E+01E
 Epicentro: LOS SANTOS - SANTANDER                                             3
 ACTION:UPD 15-03-02 15:42 OP:nd   STATUS:               ID:20150127050737 L   I
 OLDACT:DUP 15-01-27 16:11 OP:cam  STATUS:               ID:20150127050544d    3
 OLDACT:UP  15-01-27 16:10 OP:cam  STATUS:               ID:20150127050543     3
 OLDACT:REG 15-01-27 15:41 OP:cam  STATUS:               ID:20150127050543     3
 2015-01-27-0505-43M.COL___282                                                 6
 STAT SP IPHASW D HRMM SECON CODA AMPLIT PERI AZIMU VELO AIN AR TRES W  DIS CAZ7
 BAR2 EZ EP        5 7 56.62                             171   -0.1110 21.3 188 
 BAR2 EZ ES        5 8 12.10                             171   -0.0510 21.3 188 
 BAR2 EZ I         5 8 13.26         6.6 0.14            173           21.3 188 
 BRR  HZ EP        5 7 58.73                             153    0.4510 71.3 300 
 PAM  SZ EP     C  5 7 59.57                             150    0.1010 79.5  39 
 PAM  SN ES        5 8 16.80                             150   -0.2110 79.5  39 
 PAM  SZ I         5 8 18.84         9.1 0.46            150           79.5  39 
 RUS  HZ EP        5 8  0.33                             145   -0.4010 98.7 175 
 RUS  HE ES        5 8 19.50                             145    0.2410 98.7 175 
 PTB  HZ EP        5 8  3.76                             133   -0.18 9  146 260 
 TAM  HZ EP     D  5 8  4.91                             131    0.11 9  156 104 
 TAM  HN ES        5 8 26.57                             131    0.06 9  156 104 
 TAM  HN I         5 8 26.94        13.9 0.44            132            156 104 
                                                                                
