 2011  127 0545 37.5 L   6.805 -73.105137.1  RSN  7 0.3 1.7LRSN                1
 GAP=139        0.54       3.1     7.4  6.4 -0.1124E+02  0.1092E+02  0.8720E-01E
 Epicentro: LOS SANTOS - SANTANDER                                             3
 ACTION:UP  11-02-08 08:42 OP:pat  STATUS:               ID:20110127054537 L   I
 2011-01-27-0543-34S.COL___138                                                 6
 STAT SP IPHASW D HRMM SECON CODA AMPLIT PERI AZIMU VELO SNR AR TRES W  DIS CAZ7
 BAR2 SZ EP   2    545 56.28                             169     0.2 5   25 200 
 BAR2 SZ ES   2    546 10.72                             169     0.1 5   25 200 
 BAR2 SZ I         546 12.42        13.0 0.36                            25 200 
 RUS  HZ EP   1    546  0.37                             142     0.0 7  101 179 
 RUS  HN ES   2    546 18.52                             142     0.2 5  101 179 
 RUS  HZ I         546 20.84         7.3 0.29                           101 179 
 GRA  SZ EP   1    546  2.01                             135     0.2 7  124  16 
 GRA  SZ ES   1    546 20.33                             135    -0.4 7  124  16 
 GRA  SZ I         546 24.26         5.5 0.46                           124  16 
 OCA  SZ EP   1    546  5.50                             127     0.4 7  160 352 
 OCA  SZ I         546 32.68         8.9 0.57                           160 352 
 YOP  SZ EP   2    546  6.50                             124    -0.3 4  177 155 
 YOP  SZ I         546  8.92         4.1 0.22                           177 155 
 NOR  SZ EP   2    546 12.73                             116    -0.4 4  239 235 
 NOR  SN ES   2    546 40.95                             116     0.0 4  239 235 
 CHI  HZ EP   1    546 14.71                             115    -0.2 6  250 196 
 CHI  HN ES   2    546 44.28                             115     0.2 4  250 196 
 CHI  HZ I         546 51.27         3.1 0.62                           250 196 
                                                                                
