 2011  727 0721 39.8 L   6.867 -73.038144.7  RSN  4 0.3 1.2LRSN                1
 GAP=195        0.68       5.9     7.5  6.7 -0.1258E+02 -0.1440E+02  0.1932E+01E
 Epicentro: CEPITA - SANTANDER                                                 3
 ACTION:UPD 12-07-25 14:03 OP:epov STATUS:               ID:20110727072139 L   I
 2011-07-27-0720-00M.COL___139                                                 6
 STAT SP IPHASW D HRMM SECON CODA AMPLIT PERI AZIMU VELO AIN AR TRES W  DIS CAZ7
 GIR2 SZ EP   1    721 59.86                             168    0.60 7 29.1 324 
 GIR2 SZ ES   1    722 14.77                             168    0.32 7 29.1 324 
 BAR2 SZ EP        721 59.61                             166    0.0710 34.3 208 
 BAR2 SZ I         722  0.35         3.3 0.37                          34.3 208 
 BAR2 SZ ES   1    722 14.59                             166   -0.37 7 34.3 208 
 BRR  HZ EP        722  1.23                             150   -0.0410 79.1 290 
 BRR  HN ES        722 17.95                             150   -0.0910 79.1 290 
 BRR  HZ I         722 19.20         4.4 0.24                          79.1 290 
 GRA  SZ EP   1    722  3.61                             139   -0.47 7  116  13 
 GRA  SZ ES   1    722 23.05                             139    0.01 7  116  13 
 GRA  SZ I         722 24.53         1.5 0.09                           116  13 
                                                                                
