 2010  327 0751 11.8 L   6.831 -73.154156.5  RSN  5 0.4 1.3LRSN                1
 GAP=182        0.77       5.0    16.5  9.3  0.1718E+02 -0.1443E+02  0.1940E+01E
 Epicentro: LOS SANTOS - SANTANDER                                             3
 ACTION:UP  10-08-24 09:56 OP:vdl  STATUS:               ID:20100327075111 L   I
 2010-03-27-0747-38S.COL___098                                                 6
 STAT SP IPHASW D HRMM SECON CODA AMPLIT PERI AZIMU VELO SNR AR TRES W  DIS CAZ7
 BAR2 SZ EP   1    751 32.62                             170    -0.2 7   27 187 
 BAR2 SZ ES   2    751 48.67                             170    -0.5 5   27 187 
 BRR  HZ EP   1    751 33.45                             156    -0.6 7   69 296 
 BRR  HE ES   2    751 51.75                             156     0.4 5   69 296 
 BRR  HZ I         751 55.27         9.1 0.19                            69 296 
 RUS  HZ EP   1    751 37.11                             145     0.2 7  104 176 
 RUS  HZ I         751 38.30         1.5 0.32                           104 176 
 RUS  HN ES   2    751 57.02                             145     0.6 5  104 176 
 OCA  SZ EP   1    751 41.07                             133     0.4 7  157 353 
 OCA  SZ ES   2    752  3.36                             133     0.2 5  157 353 
 CHI  HZ EP   1    751 50.13                             119    -0.3 6  252 195 
 CHI  HE ES   2    752 21.19                             119     0.6 4  252 195 
 CHI  HZ I         752 30.29         0.9 0.32                           252 195 
                                                                                
