 2014  427 0433 50.8 L   6.805 -73.165153.1  RSN 15 0.4 2.1LRSN                1
 GAP=134        0.81       2.4     3.9  6.1 -0.3130E+01  0.7103E+01  0.7523E-01E
 Epicentro: LOS SANTOS - SANTANDER                                             3
 OLDACT:REG 14-04-27 13:18 OP:fm   STATUS:               ID:20140427042814     3
 ACTION:UPD 14-05-13 23:11 OP:nd   STATUS:               ID:20140427043350 L   I
 OLDACT:UP  14-04-27 17:17 OP:fm   STATUS:               ID:20140427042814     3
 2014-04-27-0428-14M.COL___239                                                 6
 STAT SP IPHASW D HRMM SECON CODA AMPLIT PERI AZIMU VELO AIN AR TRES W  DIS CAZ7
 PAM  SZ EP        434 14.20                             152    0.3510 78.3  41 
 PAM  SE ES        434 31.62                             152   -0.2110 78.3  41 
 PAM  SZ I         434 33.40        20.4 0.52            103           78.3  41 
 RUS  HZ EP   1    434 15.69                             145    0.36 7  101 175 
 RUS  HN ES   1    434 34.25                             145   -0.21 7  101 175 
 PTB  HZ EP   1    434 18.05                             134   -0.15 7  146 258 
 PTB  HN ES   1    434 38.94                             134   -0.63 7  146 258 
 PTB  SZ I         434 41.13        11.0 0.16             56            146 258 
 OCA  HZ EP        434 19.72                             131    0.11 9  159 354 
 OCA  HE ES        434 41.97                             131   -0.11 9  159 354 
 OCA  SZ I         434 47.01        10.2 0.32             56            159 354 
 SPBC HZ EP   1    434 20.27                             131    0.48 7  162 218 
 SPBC HN ES        434 43.04                             131    0.64 9  162 218 
 SPBC SZ I         434 46.31        16.6 0.20             56            162 218 
 ZAR  HZ EP   1    434 24.02                             124    0.51 6  202 292 
 ZAR  HE ES   1    434 49.69                             124    0.66 6  202 292 
 ZAR  SZ I         434 55.47         9.9 0.24             56            202 292 
 NOR  HE ES        434 54.48                             120   -0.43 8  233 234 
 SML  HZ EP   1    434 27.51                             119   -0.18 6  242 336 
 SML  HN ES   1    434 56.15                             119   -0.32 6  242 336 
 SML  SZ I         435  0.08        21.5 0.08             56            242 336 
 CHI  HZ EP   1    434 28.82                             118   -0.09 6  249 195 
 CHI  HN ES        434 58.03                             118   -0.61 8  249 195 
 CHI  SZ I         435  8.56         4.0 0.22             56            249 195 
 ROSC BZ EP   4    434 30.93                             118    1.67 0  252 211 
 ROSC SZ I         435  6.41         8.7 0.70             56            252 211 
 HEL  HZ EP   4    434 28.75                             116   -2.43 0  270 256 
 HEL  HN ES   4    435  3.98                             116    1.29 0  270 256 
 URE  HN ES   4    435  2.45                             115   -1.67 0  282 292 
 GUY2CHZ EP   4    434 37.47                             114    2.87 0  300 234 
 GUY2CHN ES   4    435 10.64                             114    1.88 0  300 234 
 GUY2CSZ I         435 15.37         5.2 0.54                           300 234 
 PTGC HZ EP   4    434 34.18                             113   -0.96 0  310 158 
 PTGC SZ I         435 17.92        10.3 0.40             55            310 158 
 RREF HZ EP   1    434 36.90                             112   -0.23 5  321 229 
 RREF HN ES   1    435 13.39                             112    0.12 5  321 229 
 RREF SZ I         435 19.92         5.2 1.42             55            321 229 
 CBOC HZ EP   4    434 39.71                             111    1.89 0  332 252 
 CBOC HN ES   4    435 13.43                             111   -1.06 0  332 252 
 PRA  HZ EP   1    434 44.07                             108   -0.45 4  391 209 
 PRA  HE ES   1    435 26.81                             108    0.39 4  391 209 
 PRA  SZ I         435 33.15         6.4 0.74             55            391 209 
 SJC  HZ EP   1    434 45.51                             107   -0.90 4  408 327 
 SJC  HE ES   4    435 27.17                             107   -2.63 0  408 327 
                                                                                
