 2011  827 0437 55.0 L   6.805 -72.920153.4  RSN  7 0.3 1.9LRSN                1
 GAP=168        0.64       3.7     7.1  7.4 -0.6598E+01  0.2747E+02  0.9647E+00E
 Epicentro: CEPITA - SANTANDER                                                 3
 ACTION:UPD 12-07-13 15:54 OP:ep   STATUS:               ID:20110827043755 L   I
 2011-08-27-0434-41S.COL___132                                                 6
 STAT SP IPHASW D HRMM SECON CODA AMPLIT PERI AZIMU VELO AIN AR TRES W  DIS CAZ7
 GIR2 SZ EP        438 15.79                             164   -0.1510 42.8 315 
 PAM  SE ES   1    438 35.17                             156    0.43 7 63.9  22 
 RUS  HZ EP        438 19.96                             145    0.3010  103 190 
 RUS  HE ES   1    438 38.41                             145   -0.47 7  103 190 
 RUS  HZ I         438 40.35         3.9 0.48                           103 190 
 OCA  SZ EP   1    438 23.81                             130   -0.52 7  165 344 
 CHI  HZ EP   1    438 34.03                             118   -0.01 6  257 201 
 CHI  HN ES   1    439  4.34                             118   -0.13 6  257 201 
 CHI  HZ I         439  9.91         4.8 0.53                           257 201 
 HEL  HZ EP   1    438 38.36                             114    0.04 5  296 257 
 HEL  HN ES   1    439 12.36                             114    0.26 5  296 257 
 HEL  HZ I         439 15.87         4.3 0.43                           296 257 
 PRA  HZ EP   1    438 50.82                             107    0.45 4  405 213 
 PRA  HZ I         439 40.11         6.2 0.23                           405 213 
                                                                                
