 2016  827 0809 40.2 L   6.779 -73.180155.2  RSN  4 0.5 1.3LRSN                1
 GAP=239        1.14       8.6     9.0  9.3 -0.1189E+02  0.5509E+01  0.1515E+02E
 Epicentro: LOS SANTOS - SANTANDER                                             3
 ACTION:UPD 16-10-29 15:39 OP:rebc STATUS:               ID:20160827080940 L   I
 OLDACT:REG 16-08-27 13:20 OP:ak   STATUS:               ID:20160827080733     3
 2016-08-27-0808-00M.COL___368                                                 6
 STAT SP IPHASW D HRMM SECON CODA AMPLIT PERI AZIMU VELO AIN AR TRES W  DIS CAZ7
 BAR2 EZ EP        810  0.95                             172   -0.0010 20.7 181 
 BAR2 EZ ES        810 16.84                             172   -0.2710 20.7 181 
 BAR2 EZ I         810 17.07         4.3 0.19                          20.7 181 
 BRR  HZ EP        810  2.97                             155    0.6710 69.1 302 
 BRR  HE ES        810 19.49                             155   -0.0110 69.1 302 
 BRR  HZ I         810 20.72         3.8 0.21                          69.1 302 
 PTB  HZ EP        810  7.54                             135   -0.08 9  144 259 
 PTB  HN ES        810 28.64                             135   -0.35 9  144 259 
 PTB  HZ I         810 31.92         1.9 0.17                           144 259 
 SPBC HZ EP        810  8.37                             132   -0.72 9  159 218 
 SPBC HN ES        810 32.31                             132    0.71 9  159 218 
 SPBC HZ I         810 33.11         2.1 0.11                           159 218 
                                                                                
