 2010  727 0334  1.7 L   7.386 -73.257126.6  RSN  5 0.4 1.8LRSN                1
 GAP=133        1.08       8.2    15.7 19.0 -0.6317E+02  0.2141E+03 -0.3331E+02E
 Epicentro: EL PLAYON - SANTANDER                                              3
 ACTION:UPD 10-12-01 15:20 OP:pat  STATUS:               ID:20100727033401 L   I
 2010-07-27-0332-00S.COL___123                                                 6
 STAT SP IPHASW D HRMM SECON CODA AMPLIT PERI AZIMU VELO AIN AR TRES W  DIS CAZ7
 BRR  HZ IP     C  334 20.56                             153     0.510   59 239 
 BRR  HZ I         334 41.64        17.9 0.08                            59 239 
 GRA  SZ IP        334 21.21                             148     0.010   74  42 
 GRA  SZ ES   1    334 36.03                             148    -0.4 7   74  42 
 GRA  SZ I         334 37.85        36.4 0.26                            74  42 
 BAR2 SZ EP        334 22.40                             143     0.110   88 175 
 BAR2 SZ ES   2    334 38.01                             143    -0.4 5   88 175 
 BAR2 SZ I         334 39.78         9.9 0.11                            88 175 
 OCA  SZ EP        334 22.76                             141     0.110   95 356 
 OCA  SZ I         334 41.14         8.1 0.18                            95 356 
 HEL  HZ EP        334 41.61                             110    -0.7 7  284 242 
 HEL  HZ I         335 23.95         2.5 0.23                           284 242 
                                                                                
