 2015  327 0350 31.1 L   6.761 -73.176139.0  RSN  8 0.4 1.3LRSN                1
 GAP=134        1.11       4.3     5.2  7.8  0.4228E+01  0.2435E+01 -0.4995E+01E
 Epicentro: LOS SANTOS - SANTANDER                                             3
 ACTION:UPD 15-04-30 16:29 OP:nd   STATUS:               ID:20150327035031 L   I
 OLDACT:REG 15-03-27 12:44 OP:fm   STATUS:               ID:20150327034738     3
 2015-03-27-0347-38M.COL___269                                                 6
 STAT SP IPHASW D HRMM SECON CODA AMPLIT PERI AZIMU VELO AIN AR TRES W  DIS CAZ7
 BAR2 EZ EP        350 49.91                             172    0.0610 18.6 182 
 BAR2 EZ ES        351  5.17                             172    0.7110 18.6 182 
 BAR2 EZ I         351  7.82         4.0 0.36            166           18.6 182 
 BRR  HZ EP        350 51.98                             151    0.4710 70.5 303 
 BRR  HE ES        351  7.21                             151   -0.2010 70.5 303 
 BRR  HZ I         351 14.67         4.0 0.38            147           70.5 303 
 PAM  SZ EP        350 52.84                             148   -0.1410 82.9  39 
 PAM  SZ I         351 32.93         3.1 0.58            130           82.9  39 
 RUS  HZ EP        350 53.76                             143   -0.1610 96.5 174 
 RUS  HN ES        351 11.15                             143   -0.5510 96.5 174 
 RUS  HZ I         351 13.60         1.7 0.58            139           96.5 174 
 PTB  HZ EP        350 57.55                             131    0.38 9  144 260 
 PTB  HN ES        351 17.35                             131   -0.14 9  144 260 
 PTB  HZ I         351 23.95         2.7 0.42            130            144 260 
 SPBC HZ EP        350 59.04                             128    0.45 9  158 219 
 SPBC HN ES        351 19.47                             128   -0.53 9  158 219 
 SPBC HZ I         351 28.34         3.0 0.34            127            158 219 
 ZAR  HN ES        351 28.13                             121    0.28 9  203 294 
 ZAR  HZ I         351 33.69         2.2 0.46            115            203 294 
 SML  HE ES        351 35.31                             116   -0.86 8  246 336 
 SML  HZ I         351 42.35         4.3 0.30            108            246 336 
                                                                                
