 2012  627 0007 37.3 L   6.776 -73.190141.4  RSN  8 0.3 2.3LRSN                1
 GAP=178        0.67       3.8     4.7  6.0  0.4987E+01  0.6325E+01 -0.2533E+01E
 Epicentro: VILLANUEVA - SANTANDER                                             3
 ACTION:UPD 12-08-06 17:52 OP:ep   STATUS:               ID:20120627000737 L   I
 2012-06-27-0000-00M.COL___201                                                 6
 STAT SP IPHASW D HRMM SECON CODA AMPLIT PERI AZIMU VELO AIN AR TRES W  DIS CAZ7
 BAR2 SZ EP        0 7 56.43                             172    0.0810 20.4 177 
 BAR2 SZ ES   1    0 8 11.44                             172    0.24 7 20.4 177 
 BAR2 SZ I         0 8 13.97        50.1 0.27                          20.4 177 
 BRR  HZ IP     C  0 7 58.28                             153    0.4710 68.3 302 
 RUS  HZ EP   1    0 8  0.53                             144    0.06 7 98.4 173 
 RUS  HE ES   1    0 8 17.92                             144   -0.62 7 98.4 173 
 RUS  HZ I         0 8 20.84        18.4 0.34                          98.4 173 
 PTB  HZ EP        0 8  3.03                             132   -0.40 9  142 259 
 PTB  HN ES   1    0 8 24.03                             132    0.23 7  142 259 
 OCA  HZ EP   1    0 8  5.20                             128   -0.28 7  162 355 
 ZAR  HZ EP   1    0 8  9.00                             122   -0.10 6  201 293 
 ZAR  HE ES   1    0 8 33.59                             122   -0.31 6  201 293 
 ZAR  HZ I         0 8 46.68        22.3 0.22                           201 293 
 NOR  SZ EP   1    0 8 12.29                             118    0.11 6  229 234 
 CHI  HZ EP   1    0 8 14.61                             117    0.27 6  245 194 
 CHI  HN ES   1    0 8 43.31                             117    0.07 6  245 194 
 CHI  HZ I         0 8 46.49        15.0 0.34                           245 194 
                                                                                
