 2011 1227 0240 25.5 L   6.770 -73.112144.4  RSN 10 0.3 1.8LRSN                1
 GAP=142        0.69       3.2     4.1  5.1 -0.1470E+01  0.4401E+01  0.9068E+00E
 Epicentro: LOS SANTOS - SANTANDER                                             3
 ACTION:UPD 12-07-13 16:18 OP:ep   STATUS:               ID:20111227024025 L   I
 2011-12-27-0240-00M.COL___187                                                 6
 STAT SP IPHASW D HRMM SECON CODA AMPLIT PERI AZIMU VELO AIN AR TRES W  DIS CAZ7
 BAR2 SZ EP        240 44.94                             171    0.0010 21.1 202 
 BAR2 SZ ES   1    240 59.70                             171   -0.39 7 21.1 202 
 BAR2 SZ I         241  1.16        24.5 0.25                          21.1 202 
 GIR2 SZ EP   1    240 45.13                             166   -0.02 7 35.4 345 
 GIR2 SZ ES   1    241  0.28                             166   -0.18 7 35.4 345 
 BRR  HZ EP   1    240 46.91                             151    0.10 7 76.1 299 
 BRR  HE ES   1    241  3.84                             151    0.43 7 76.1 299 
 BRR  HZ I         241  5.19        11.1 0.12                          76.1 299 
 PAM  SZ EP        240 47.95                             150    0.3310 77.8  36 
 PAM  SN ES   1    241  4.82                             150   -0.03 7 77.8  36 
 PAM  SZ I         241  7.11         7.4 0.36                          77.8  36 
 RUS  HZ EP   1    240 48.90                             144    0.02 7 97.0 178 
 RUS  HZ I         240 49.75         5.0 0.13                          97.0 178 
 RUS  HN ES   1    241  7.18                             144    0.07 7 97.0 178 
 PTB  HZ EP   1    240 51.56                             131   -1.10 7  151 260 
 OCA  SZ EP   1    240 53.90                             129   -0.19 7  164 352 
 OCA  SZ ES   1    241 16.35                             129   -0.02 7  164 352 
 OCA  SZ I         241 20.17        10.7 0.29                           164 352 
 ZAR  HN ES   1    241 24.09                             121    0.10 6  209 293 
 NOR  SZ EP   2    241  1.50                             118    0.21 4  236 236 
 NOR  SN ES   1    241 29.65                             118    0.46 6  236 236 
 CHI  HZ EP   2    241  3.24                             117    0.34 4  246 196 
                                                                                
