 2011  627 0748 22.0 L   6.750 -73.111147.6  RSN  8 0.4 2.2LRSN                1
 GAP=160        0.80       6.5     7.9  6.3 -0.2964E+02 -0.2334E+01 -0.6191E+01E
 Epicentro: LOS SANTOS - SANTANDER                                             3
 ACTION:UP  11-07-14 19:08 OP:ep   STATUS:               ID:20110627074822 L   I
 2011-06-27-0740-00M.COL___124                                                 6
 STAT SP IPHASW D HRMM SECON CODA AMPLIT PERI AZIMU VELO SNR AR TRES W  DIS CAZ7
 BAR2 SZ EP        748 41.91                             172     0.110   19 204 
 BAR2 SZ ES   1    748 57.01                             172    -0.2 7   19 204 
 BAR2 SZ I         748 58.60        56.7 0.22                            19 204 
 BTL  SZ IP        748 42.15                             171     0.210   25 317 
 BTL  SZ ES   1    748 57.52                             171     0.1 7   25 317 
 BRR  HZ IP        748 43.80                             152     0.110   77 301 
 BRR  HZ I         748 44.26        56.0 0.13                            77 301 
 BRR  HN ES   1    749  0.96                                     0.3 7   77 301 
 RUS  HZ EP   3    748 44.94                             145    -0.6 2   95 178 
 RUS  HZ I         749  5.69        21.2 0.38                            95 178 
 BRI  SZ EP        748 46.52                             141     0.110  112  18 
 GRA  SZ IP        748 47.78                             136     0.010  130  15 
 GRA  SZ I         748 49.01        11.1 0.23                           130  15 
 GRA  SZ ES   2    749  6.47                             136    -1.4 5  130  15 
 OCA  SZ EP        748 50.88                             129    -0.1 9  166 352 
 NOR  SZ EP   2    748 57.62                             119    -0.2 4  235 236 
 NOR  SN ES   1    749 25.17                             119    -0.6 6  235 236 
                                                                                
