 2017  727 0219 48.1 L   7.380 -73.021159.8  RSN 14 0.5 1.9LRSN                1
 GAP=137        0.83       4.3     3.4  5.1 -0.9057E+00  0.4521E+01 -0.1839E+01E
 Epicentro: SURATA - SANTANDER                                                 3
 ACTION:UPD 17-08-30 15:37 OP:rebc STATUS:               ID:20170727021948 L   I
 OLDACT:UP  17-07-27 13:46 OP:and  STATUS:               ID:20170727021742     3
 OLDACT:UP  17-07-27 13:44 OP:and  STATUS:               ID:20170727021742     3
 OLDACT:UP  17-07-27 13:44 OP:and  STATUS:               ID:20170727021742     3
 OLDACT:UP  17-07-27 13:42 OP:and  STATUS:               ID:20170727021742     3
 OLDACT:UP  17-07-27 13:42 OP:and  STATUS:               ID:20170727021742     3
 OLDACT:UP  17-07-27 13:41 OP:and  STATUS:               ID:20170727021742     3
 OLDACT:REG 17-07-27 12:14 OP:and  STATUS:               ID:20170727021742     3
 2017-07-27-0218-00M.COL___371                                                 6
 STAT SP IPHASW D HRMM SECON CODA AMPLIT PERI AZIMU VELO AIN AR TRES W  DIS CAZ7
 PAM  EZ IP     D  220 10.34                             167    0.2210 35.7  97 
 PAM  EN ES        220 27.17                             167   -0.0910 35.7  97 
 PAM  EZ I         220 30.97         9.2 0.44            170           35.7  97 
 BRR  HZ EP        220 11.75                             152    0.3310 82.1 249 
 BRR  HN ES        220 30.10                             152    0.5210 82.1 249 
 BRR  HZ I         220 35.18         9.5 0.24            151           82.1 249 
 BAR2 EZ EP   2    220 12.92                             150    0.74 5 88.9 192 
 BAR2 EZ ES        220 30.32                             150   -0.6010 88.9 192 
 BAR2 EZ I         220 31.84        18.0 0.16            149           88.9 192 
 RUS  HZ EP   2    220 18.47                             132    0.05 5  165 182 
 RUS  HN ES        220 41.78                             132   -0.26 9  165 182 
 RUS  HZ I         220 43.85         5.8 0.48            133            165 182 
 TAM  HZ IP     D  220 18.75                             131    0.32 9  171 127 
 PTB  HZ EP        220 18.95                             129   -0.63 9  184 240 
 PTB  HN ES   2    220 43.84                             129   -0.26 4  184 240 
 PTB  HZ I         220 46.18         5.8 0.12            129            184 240 
 ZAR  HZ EP   2    220 22.05                             126    0.60 4  203 274 
 ZAR  HN ES        220 47.83                             126    0.39 9  203 274 
 ZAR  HZ I         220 49.02        10.6 0.10            127            203 274 
 SPBC HZ EP   2    220 23.84                             123    0.21 4  224 211 
 SPBC HN ES   2    220 51.51                             123    0.20 4  224 211 
 SPBC HZ I         220 59.59         5.0 0.17            124            224 211 
 YPLC HZ EP   3    220 25.67                             122    1.36 2  230 162 
 NOR  HZ EP   2    220 29.85                             116   -0.43 4  287 226 
 NOR  HN ES        221  3.15                             116   -0.00 7  287 226 
 NOR  HZ I         221  8.98         3.2 0.30            117            287 226 
 HEL  HZ EP   2    220 32.98                             114    0.06 4  307 245 
 HEL  HN ES   2    221  7.61                             114   -0.24 4  307 245 
 HEL  HZ I         221  9.77         4.2 0.36            116            307 245 
 GUY2CHZ EP   2    220 39.19                             111    1.02 3  352 228 
 GUY2CHN ES   2    221 17.11                             111   -0.08 3  352 228 
 GUY2CHZ I         221 29.81         3.5 0.42                           352 228 
 SJC  HZ IP     C  220 38.38                             110   -0.83 6  366 320 
 SJC  HN ES   3    221 17.01                             110   -2.04 2  366 320 
 SJC  HZ I         221 20.40         2.5 0.42            112            366 320 
 CBOC HZ EP   3    220 40.80                             110    0.90 2  371 243 
 CBOC HN ES        221 19.59                             110   -0.69 6  371 243 
 CBOC HZ I         221 22.72         1.4 0.15            111            371 243 
                                                                                
