 2013  727 0925 15.7 L   6.812 -73.099148.6  RSN  7 0.5 1.8LRSN                1
 GAP=164        1.10       5.9     5.6  8.5 -0.5718E+01  0.1021E+02 -0.1376E+02E
 Epicentro: LOS SANTOS - SANTANDER                                             3
 ACTION:UPD 13-08-12 10:40 OP:ep   STATUS:               ID:20130727092515 L   I
 OLDACT:UP  13-07-27 12:12 OP:cam  STATUS:               ID:20130727091959     3
 OLDACT:REG 13-07-27 08:53 OP:cam  STATUS:               ID:20130727091959     3
 2013-07-27-0919-59M.COL___267                                                 6
 STAT SP IPHASW D HRMM SECON CODA AMPLIT PERI AZIMU VELO AIN AR TRES W  DIS CAZ7
 BAR2 SZ EP        925 35.73                             170    0.0210 26.0 201 
 BAR2 SZ ES        925 51.12                             170   -0.2110 26.0 201 
 BAR2 SZ I         925 52.76         7.7 0.17            172           26.0 201 
 PAM  SZ EP     C  925 38.71                             152    0.7510 73.1  37 
 PAM  SN ES   1    925 55.38                             152    0.05 7 73.1  37 
 PAM  SZ I         925 57.34        16.1 0.52            153           73.1  37 
 BRR  HZ EP        925 37.59                             152    0.2210 75.2 296 
 BRR  HE ES   1    925 54.50                             152    0.22 7 75.2 296 
 BRR  HZ I         925 58.53         7.4 0.10            149           75.2 296 
 PTB  HZ EP   1    925 43.04                             131   -0.33 7  153 259 
 PTB  HE ES        926  4.31                             131   -0.65 9  153 259 
 PTB  HZ I         926  6.43         7.1 0.42            133            153 259 
 OCA  HZ EP   1    925 43.67                             130   -0.49 7  160 351 
 OCA  HN ES        926  5.66                             130   -0.71 9  160 351 
 OCA  HZ I         926  9.54         7.7 0.18            131            160 351 
 ZAR  HZ EP   1    925 48.79                             122    0.03 6  208 291 
 ZAR  HE ES        926 15.38                             122    0.82 8  208 291 
 ZAR  HZ I         926 19.46         4.8 0.62            123            208 291 
 SML  HZ EP   1    925 52.02                             118   -0.56 6  245 334 
 SML  HN ES   1    926 21.86                             118    0.50 6  245 334 
 SML  HZ I         926 26.59         6.4 0.26            119            245 334 
                                                                                
