 2014 1127 0505 47.5 L   6.814 -73.156143.1  RSN 14 0.5 1.6LRSN                1
 GAP=135        1.32       3.7     4.5  6.5 -0.3588E+01  0.9864E+01  0.3095E+01E
 Epicentro: LOS SANTOS - SANTANDER                                             3
 ACTION:UPD 14-12-19 15:48 OP:nd   STATUS:               ID:20141127050547 L   I
 OLDACT:REG 14-11-27 13:22 OP:fm   STATUS:               ID:20141127045746     3
 2014-11-27-0457-46M.COL___303                                                 6
 STAT SP IPHASW D HRMM SECON CODA AMPLIT PERI AZIMU VELO AIN AR TRES W  DIS CAZ7
 BAR2 SZ EP        5 6  7.15                             170    0.3010 24.7 187 
 BAR2 SZ ES        5 6 21.46                             170   -0.4710 24.7 187 
 BAR2 SZ I         5 6 23.10        13.3 0.14            170           24.7 187 
 BRR  HZ IP     C  5 6  9.09                             153    0.8110 69.5 298 
 BRR  HN ES        5 6 25.30                             153    0.8310 69.5 298 
 BRR  HZ I         5 6 30.02         7.1 0.30            151           69.5 298 
 PAM  SZ EP        5 6 10.07                             150    0.6510 76.9  41 
 PAM  SN ES        5 6 26.79                             150    0.2910 76.9  41 
 PAM  SZ I         5 6 29.84         7.0 0.30            154           76.9  41 
 RUS  HZ EP        5 6 11.12                             143    0.0010  102 175 
 RUS  HN ES        5 6 28.86                             143   -0.6710  102 175 
 RUS  HZ I         5 6 30.43         2.5 0.16            146            102 175 
 PTB  HZ EP        5 6 13.50                             132   -0.69 9  147 258 
 PTB  HN ES        5 6 34.89                             132   -0.11 9  147 258 
 PTB  HZ I         5 6 37.57         9.9 0.16            132            147 258 
 OCA  HZ EP        5 6 15.59                             129    0.13 9  159 353 
 OCA  HN ES        5 6 36.44                             129   -0.82 9  159 353 
 OCA  HZ I         5 6 40.69         4.9 0.36            131            159 353 
 SPBC HZ EP        5 6 16.13                             128    0.28 9  164 218 
 SPBC HN ES        5 6 37.69                             128   -0.27 9  164 218 
 SPBC HZ I         5 6 41.24         4.9 0.14            130            164 218 
 ZAR  HZ EP        5 6 18.11                             122   -1.51 9  202 292 
 ZAR  HN ES        5 6 44.44                             122   -0.22 9  202 292 
 ZAR  HZ I         5 6 51.45         4.3 0.56            123            202 292 
 NOR  HZ EP        5 6 23.72                             118    0.63 8  235 234 
 NOR  HE ES        5 6 51.65                             118    0.82 8  235 234 
 NOR  HZ I         5 6 56.90         3.9 0.38            119            235 234 
 CHI  HZ EP        5 6 24.80                             116   -0.39 8  250 195 
 CHI  HN ES        5 6 54.42                             116   -0.16 8  250 195 
 CHI  HZ I         5 6 57.82         1.1 0.20            119            250 195 
 HEL  HZ EP        5 6 27.14                             114   -0.37 8  271 255 
 HEL  HE ES        5 6 58.80                             114    0.09 8  271 255 
 HEL  HZ I         5 7  6.15         2.7 0.28            116            271 255 
 GUY2CHZ EP        5 6 31.31                             112    0.31 7  301 234 
 GUY2CHN ES        5 7  4.87                             112   -0.04 7  301 234 
 GUY2CHZ I         5 7 12.38         1.6 0.26                           301 234 
 RREF HZ EP        5 6 33.69                             110    0.13 7  322 229 
 RREF HN ES        5 7  9.67                             110    0.20 7  322 229 
 RREF HZ I         5 7 15.39         1.7 0.62            112            322 229 
 CBOC HZ EP        5 6 34.32                             109    0.07 7  333 252 
 CBOC HN ES        5 7 10.81                             109    0.10 7  333 252 
 CBOC HZ I         5 7 14.93         1.3 0.30            111            333 252 
                                                                                
