 2015  127 0507 46.5 L   6.777 -73.141138.0  RSN  6 0.4 2.0LRSN                1
 GAP= 98        1.16       5.9     4.2  7.8  0.8407E+00 -0.1542E+01  0.3580E+01E
 Epicentro: LOS SANTOS - SANTANDER                                             3
 ACTION:UPD 15-03-02 15:42 OP:nd   STATUS:               ID:20150127050746 L   I
 OLDACT:UP  15-01-27 16:10 OP:cam  STATUS:               ID:20150127050543     3
 OLDACT:REG 15-01-27 15:41 OP:cam  STATUS:               ID:20150127050543     3
 2015-01-27-0505-43M.COL___282                                                 6
 STAT SP IPHASW D HRMM SECON CODA AMPLIT PERI AZIMU VELO AIN AR TRES W  DIS CAZ7
 BAR2 EZ EP        5 8  4.96                             171   -0.2110 21.0 193 
 BAR2 EZ ES        5 8 19.76                             171    0.0510 21.0 193 
 BAR2 EZ I         5 8 20.71        17.5 0.28            171           21.0 193 
 BRR  HZ EP        5 8  7.08                             150    0.1510 72.9 300 
 BRR  HN ES        5 8 23.84                             150    0.9910 72.9 300 
 BRR  HN I         5 8 24.13        68.5 0.20            151           72.9 300 
 PAM  SZ EP        5 8  7.96                             149   -0.0510 79.0  38 
 PAM  SN ES        5 8 24.14                             149   -0.6410 79.0  38 
 PAM  SZ I         5 8 27.18        17.0 0.44            151           79.0  38 
 RUS  HZ EP        5 8  9.51                             143    0.1910 98.0 176 
 RUS  HE ES        5 8 27.11                             143   -0.0010 98.0 176 
 RUS  HE I         5 8 28.93        10.9 0.24            144           98.0 176 
 PTB  HZ EP        5 8 13.01                             130    0.15 9  148 260 
 PTB  HE ES        5 8 32.52                             130   -0.90 9  148 260 
 PTB  HZ I         5 8 38.33        11.4 0.28            131            148 260 
 TAM  HZ EP        5 8 13.60                             129    0.12 9  154 104 
 TAM  HN ES        5 8 34.62                             129    0.10 9  154 104 
 TAM  HZ I         5 8 35.68         9.5 0.60            131            154 104 
                                                                                
