 2011  627 0736 46.5 L   6.848 -73.294121.1  RSN  5 0.2 1.2LRSN                1
 GAP=145        0.45       5.5     6.1  5.8  0.8091E+01 -0.1778E+02 -0.1301E+02E
 Epicentro: ZAPATOCA - SANTANDER                                               3
 ACTION:UP  11-07-14 19:08 OP:ep   STATUS:               ID:20110627073646 L   I
 2011-06-27-0731-20S.COL___140                                                 6
 STAT SP IPHASW D HRMM SECON CODA AMPLIT PERI AZIMU VELO SNR AR TRES W  DIS CAZ7
 BTL  SZ EP        737  3.00                             176     0.010    8  20 
 BTL  SZ ES   2    737 15.45                             176    -0.3 5    8  20 
 GIR2 SZ EP        737  3.10                             166    -0.110   28  23 
 BAR2 SZ EP        737  3.51                             165     0.110   31 156 
 BAR2 SZ ES   2    737 16.61                             165     0.0 5   31 156 
 BAR2 SZ I         737 17.78         6.8 0.15                            31 156 
 BRR  HZ EP        737  3.87                             154    -0.210   54 302 
 BRR  HN ES   1    737 17.98                             154     0.2 7   54 302 
 BRR  HZ I         737 18.61         3.9 0.11                            54 302 
 GRA  SZ EP        737  9.88                             130     0.110  127  25 
 GRA  SZ I         737 29.70         1.7 0.56                           127  25 
                                                                                
