 2011  727 0257  8.6 L   6.809 -73.061138.8  RSN  8 0.4 1.6LRSN                1
 GAP=163        0.76       4.3     5.9  7.0 -0.7801E+01  0.1085E+02  0.1748E+01E
 Epicentro: LOS SANTOS - SANTANDER                                             3
 ACTION:UPD 12-07-25 14:03 OP:epov STATUS:               ID:20110727025708 L   I
 2011-07-27-0255-37S.COL___140                                                 6
 STAT SP IPHASW D HRMM SECON CODA AMPLIT PERI AZIMU VELO AIN AR TRES W  DIS CAZ7
 BTL  SZ EP   1    257 27.54                             169    0.10 7 25.9 298 
 BAR2 SZ EP   1    257 27.04                             168   -0.44 7 27.4 209 
 BAR2 SZ ES   1    257 41.96                             168   -0.25 7 27.4 209 
 BAR2 SZ I         257 43.17         5.3 0.38                          27.4 209 
 GIR2 SZ EP   2    257 26.84                             166   -0.65 5 33.3 334 
 PAM  SZ EP   1    257 29.93                             152    0.25 7 71.0  34 
 PAM  SN ES   1    257 46.43                             152    0.29 7 71.0  34 
 BRR  HZ EP   1    257 28.90                             148   -0.58 7 79.2 295 
 BRR  HN ES   1    257 45.70                             148   -0.07 7 79.2 295 
 BRR  HZ I         257 48.74         8.9 0.18                          79.2 295 
 OCA  SZ EP   1    257 36.44                             128    0.03 7  161 350 
 OCA  SZ ES   1    257 58.58                             128    0.47 7  161 350 
 OCA  SZ I         258  5.44         5.4 0.70                           161 350 
 CHI  HN ES   1    258 16.49                             115    0.78 6  252 197 
 CHI  HZ I         258 18.47         3.7 0.34                           252 197 
 HEL  HZ EP   1    257 49.10                             112   -0.40 6  281 256 
 HEL  HZ I         257 58.07         1.9 0.41                           281 256 
 HEL  HN ES   1    258 21.99                             112    0.57 6  281 256 
                                                                                
