 2017  327 0217 46.2 L   6.291 -72.813  4.0  RSN 10 0.7 2.1LRSN                1
 GAP=203        1.34       3.2     6.5  7.5 -0.1027E+02  0.2713E+02 -0.7582E+01E
 Epicentro: ONZAGA - SANTANDER                                                 3
 ACTION:UPD 17-05-25 18:45 OP:jn   STATUS:               ID:20170327021747dL   I
 OLDACT:UP  17-03-27 14:42 OP:and  STATUS:               ID:20170327020744d    3
 OLDACT:UP  17-03-27 14:42 OP:and  STATUS:               ID:20170327020744d    3
 OLDACT:UP  17-03-27 14:41 OP:and  STATUS:               ID:20170327020744d    3
 OLDACT:UP  17-03-27 14:41 OP:and  STATUS:               ID:20170327020744d    3
 OLDACT:UP  17-03-27 14:40 OP:and  STATUS:               ID:20170327020744d    3
 OLDACT:UP  17-03-27 14:39 OP:and  STATUS:               ID:20170327020744d    3
 OLDACT:UP  17-03-27 14:39 OP:and  STATUS:               ID:20170327020744d    3
 OLDACT:UP  17-03-27 14:39 OP:and  STATUS:               ID:20170327020744d    3
 OLDACT:UP  17-03-27 14:38 OP:and  STATUS:               ID:20170327020744d    3
 OLDACT:UP  17-03-27 14:37 OP:and  STATUS:               ID:20170327020744d    3
 OLDACT:UP  17-03-27 14:37 OP:and  STATUS:               ID:20170327020744d    3
 OLDACT:DUP 17-03-27 14:33 OP:and  STATUS:               ID:20170327020744d    3
 OLDACT:UP  17-03-27 14:32 OP:and  STATUS:               ID:20170327020742d    3
 OLDACT:DUP 17-03-27 14:29 OP:and  STATUS:               ID:20170327020742d    3
 2017-03-27-0208-00M.COL___355                                                 6
 STAT SP IPHASW D HRMM SECON CODA AMPLIT PERI AZIMU VELO AIN AR TRES W  DIS CAZ7
 BAR2 HZ EP        217 54.52                              47   -0.4710 52.7 309 
 BAR2 HZ ES   2    218  0.35                              47   -1.53 5 52.7 309 
 BAR2 HZ I         218  1.43       284.9 0.44             47           52.7 309 
 RUS  HZ IP     D  217 55.65                              47    0.3010 53.3 214 
 RUS  HN ES        218  1.84                              47   -0.6710 53.3 214 
 RUS  HZ I         218  4.23        43.7 0.32             47           53.3 214 
 PAM  EZ EP        218  5.24                              47    0.3210  117   6 
 PAM  EN ES        218 18.92                              47   -0.6410  117   6 
 PAM  EZ I         218 22.71        17.5 0.16             47            117   6 
 BRR  HZ EP        218  7.95                              47    0.8510  134 312 
 BRR  HN ES        218 23.77                              47    0.3410  134 312 
 BRR  HZ I         218 24.56        37.0 0.10             47            134 312 
 SPBC HZ EP        218 11.20                              47    0.66 9  156 243 
 SPBC HN ES        218 29.19                              47   -0.37 9  156 243 
 SPBC HZ I         218 36.93        30.1 0.17             47            156 243 
 PTB  HZ EP        218 14.21                              37   -0.22 9  184 279 
 PTB  HN ES        218 36.57                              37    0.10 9  184 279 
 PTB  HZ I         218 37.74        56.0 0.42             37            184 279 
 CHI  HZ EP   2    218 19.61                              37    1.43 4  210 209 
 CHI  HN ES   4    218 46.81                              37    3.65 0  210 209 
 CHI  HZ I         218 55.17        12.6 0.12             37            210 209 
 NOR  HN ES   3    218 51.42                              37    2.04 2  242 251 
 NOR  HZ I         218 53.27         7.3 0.26             37            242 251 
 ZAR  HZ EP   9    218 25.62                              37    1.42 0  262 301 
 ZAR  HN ES        218 55.87                              37    0.58 8  262 301 
 ZAR  HZ I         218 58.00        12.8 0.24             37            262 301 
 HEL  HZ EP   3    218 28.23                              36   -1.22 2  301 268 
 HEL  HN ES   4    219  0.85                              36   -2.37 0  301 268 
 HEL  HZ I         219  8.57         6.2 0.24             36            301 268 
                                                                                
