 2013  927 0135 53.2 L   6.766 -73.162154.0  RSN  7 0.5 1.6LRSN                1
 GAP=136        1.13       5.0     7.3  9.7  0.6834E+01  0.1698E+02 -0.3319E+01E
 Epicentro: LOS SANTOS - SANTANDER                                             3
 ACTION:UPD 13-10-22 09:25 OP:ep   STATUS:               ID:20130927013553 L   I
 OLDACT:UP  13-09-27 10:42 OP:mh   STATUS:               ID:20130927012960d    3
 OLDACT:DUP 13-09-27 10:42 OP:mh   STATUS:               ID:20130927012960d    3
 OLDACT:REG 13-09-27 09:32 OP:mh   STATUS:               ID:20130927012959     3
 2013-09-27-0129-59M.COL___272                                                 6
 STAT SP IPHASW D HRMM SECON CODA AMPLIT PERI AZIMU VELO AIN AR TRES W  DIS CAZ7
 BRR  HZ EP   1    136 15.81                             154    0.57 7 71.5 302 
 BRR  HN ES        136 32.87                             154    0.4210 71.5 302 
 BRR  HZ I         136 42.21         7.5 0.28            149           71.5 302 
 PAM  SN ES   1    136 34.12                             151   -0.60 7 81.5  39 
 PAM  SZ I         136 36.15         4.5 0.44            157           81.5  39 
 RUS  HZ EP   1    136 18.25                             146    0.75 7 97.0 175 
 RUS  HN ES        136 36.21                             146   -0.2610 97.0 175 
 RUS  HN I         136 38.53         3.7 0.26            152           97.0 175 
 PTB  HZ EP        136 19.71                             134   -0.90 9  145 260 
 PTB  HN ES   1    136 41.71                             134   -0.30 7  145 260 
 PTB  HZ I         136 44.15         2.3 0.34            134            145 260 
 SPBC HZ EP   1    136 22.53                             132    0.59 7  159 219 
 SPBC HN ES   2    136 44.95                             132    0.57 5  159 219 
 SPBC HZ I         136 50.02         4.1 0.16            134            159 219 
 ZAR  HN ES   1    136 51.54                             124   -0.33 6  204 293 
 ZAR  HZ I         137  6.27         3.5 0.24            125            204 293 
 SML  HZ EP   1    136 30.19                             119   -0.37 6  246 336 
 SML  HN ES        137  0.11                             119    0.38 8  246 336 
 SML  HN I         137  5.12         9.3 0.10            122            246 336 
                                                                                
