 2017 1127 0421 42.7 L   5.983 -73.642114.0  RSN  5 0.3 1.2LRSN                1
 GAP=121        0.86       3.3     4.1  7.2  0.5611E+00  0.6729E+01  0.3143E+01E
 Epicentro: VELEZ - SANTANDER                                                  3
 ACTION:UPD 17-12-12 20:00 OP:rebc STATUS:               ID:20171127042142 L   I
 OLDACT:REG 17-11-27 12:17 OP:dhb  STATUS:               ID:20171127041742     3
 2017-11-27-0418-00M.COL___486                                                 6
 STAT SP IPHASW D HRMM SECON CODA AMPLIT PERI AZIMU VELO AIN AR TRES W  DIS CAZ7
 RUS  HZ IP     D  422  0.03                             150   -0.6610 62.7  99 
 RUS  HN ES        422 14.87                             150    0.1710 62.7  99 
 RUS  HZ I         422 16.15         3.0 0.40             47           62.7  99 
 BAR2 EZ EP        422  1.57                             141   -0.2710 84.4  37 
 BAR2 EZ ES        422 16.93                             141    0.1710 84.4  37 
 PTB  HZ EP        422  3.93                             133    0.3310  109 304 
 PTB  HN ES        422 19.68                             133   -0.2010  109 304 
 PTB  HZ I         422 21.91         2.9 0.14             47            109 304 
 CHI  HZ EP        422  7.96                             123   -0.10 9  150 184 
 CHI  HN ES        422 28.08                             123    0.26 9  150 184 
 CHI  HZ I         422 30.05         3.3 0.30             47            150 184 
 PAM  EZ EP        422 12.01                             118    0.42 9  183  35 
 PAM  EZ I         422 36.28         1.7 0.18             37            183  35 
                                                                                
