 2010  527 0205 47.4 L   6.804 -72.997144.6  RSN  7 0.4 2.4LRSN                1
 GAP=150        0.90       4.4     7.9  6.4 -0.2154E+02 -0.6968E+01  0.7550E+01E
 Epicentro: CEPITA - SANTANDER                                                 3
 ACTION:UP  10-08-24 10:07 OP:vdl  STATUS:               ID:20100527020547 L   I
 2010-05-27-0201-11S.COL___108                                                 6
 STAT SP IPHASW D HRMM SECON CODA AMPLIT PERI AZIMU VELO SNR AR TRES W  DIS CAZ7
 BAR2 SZ EP        2 6  6.88                             167    -0.210   31 221 
 BAR2 SZ ES   1    2 6 22.11                             167    -0.3 7   31 221 
 GIR2 SZ EP        2 6  7.03                             165     0.010   37 324 
 GIR2 SZ ES   1    2 6 22.56                             165     0.1 7   37 324 
 OCA  SZ EP        2 6 15.77                             129     0.0 9  163 347 
 OCA  SZ ES   1    2 6 38.25                             129     0.3 7  163 347 
 OCA  SZ I         2 6 42.26        29.8 1.13                           163 347 
 CHI  HZ EP        2 6 24.91                             116    -0.6 8  254 199 
 CHI  HZ I         2 6 26.02        15.6 0.27                           254 199 
 CHI  HN ES        2 6 56.03                             116     0.7 8  254 199 
 ROSC BZ EP        2 6 26.83                             116     0.4 8  262 214 
 ROSC BN ES   1    2 6 56.62                             116    -0.3 6  262 214 
 ROSC BZ I         2 7  2.37        21.1 1.10                           262 214 
 RREF BZ EP        2 6 34.24                             110    -0.7 7  335 231 
 RREF BN ES        2 7 12.41                             110     0.4 7  335 231 
 RREF BZ I         2 7 18.98        14.1 0.25                           335 231 
 SDV  BZ EP        2 6 36.33                             109     0.4 6  348  49 
 SDV  BZ I         2 6 37.22         4.6 0.27                           348  49 
 SDV  BE ES   2    2 7 13.58                             109    -0.1 3  348  49 
                                                                                
