 2017 1127 0744  3.9 L   6.813 -73.159142.5  RSN  5 0.3 1.1LRSN                1
 GAP=182        0.73       3.2     4.0  6.4  0.1961E+01  0.3318E+01 -0.6067E+01E
 Epicentro: LOS SANTOS - SANTANDER                                             3
 ACTION:UPD 17-12-12 20:01 OP:rebc STATUS:               ID:20171127074403 L   I
 OLDACT:REG 17-11-27 12:32 OP:dhb  STATUS:               ID:20171127073739     3
 2017-11-27-0738-00M.COL___480                                                 6
 STAT SP IPHASW D HRMM SECON CODA AMPLIT PERI AZIMU VELO AIN AR TRES W  DIS CAZ7
 BAR2 EZ EP        744 22.86                             170   -0.2710 24.6 186 
 BAR2 EZ ES        744 37.86                             170   -0.3010 24.6 186 
 BAR2 EZ I         744 40.16         3.9 0.70            175           24.6 186 
 RUS  HZ EP        744 27.36                             143   -0.0610  102 175 
 RUS  HN ES        744 46.20                             143    0.4110  102 175 
 RUS  HZ I         744 48.25         1.5 0.54            149            102 175 
 PTB  HZ EP        744 30.10                             131   -0.37 9  147 258 
 PTB  HN ES        744 51.47                             131    0.25 9  147 258 
 PTB  HZ I         744 52.48         0.9 0.14            135            147 258 
 OCA  HZ EP        744 32.14                             129    0.37 9  159 354 
 OCA  HN ES        744 53.58                             129    0.04 9  159 354 
 OCA  HZ I         745  1.17         4.2 0.48            130            159 354 
 ZAR  HE ES        745  0.87                             122   -0.03 9  202 292 
 ZAR  HZ I         745  5.48         1.3 0.40            124            202 292 
                                                                                
