 2017  327 0919 29.6 L   6.274 -73.628113.6  RSN  7 0.5 1.6LRSN                1
 GAP= 91        1.24       4.4     4.1  8.5 -0.7797E+00  0.5589E+01 -0.8681E+01E
 Epicentro: SANTA HELENA DEL OPON - SANTANDER                                  3
 ACTION:UPD 17-05-25 18:45 OP:jn   STATUS:               ID:20170327091929 L   I
 OLDACT:REG 17-03-27 13:30 OP:and  STATUS:               ID:20170327091739     3
 2017-03-27-0918-00M.COL___348                                                 6
 STAT SP IPHASW D HRMM SECON CODA AMPLIT PERI AZIMU VELO AIN AR TRES W  DIS CAZ7
 BAR2 EZ EP        919 47.18                             150    0.1710 60.6  55 
 BAR2 EZ ES        920  0.57                             150   -0.0310 60.6  55 
 BAR2 EZ I         920  1.59        19.9 0.46            152           60.6  55 
 RUS  HZ EP        919 48.27                             145    0.0410 73.6 125 
 RUS  HN ES        920  2.41                             145   -0.3610 73.6 125 
 SPBC HZ EP        919 48.56                             141    0.1010 84.5 216 
 SPBC HE ES        920  4.06                             141    0.8610 84.5 216 
 SPBC HZ I         920  8.31         7.9 0.10            142           84.5 216 
 BRR  HZ EP        919 48.81                             138   -0.1610 92.6 354 
 BRR  HE ES        920  4.39                             138    0.2910 92.6 354 
 BRR  HZ I         920  4.92         9.1 0.26            140           92.6 354 
 PTB  HZ EP        919 48.66                             137   -0.6410 96.2 288 
 PTB  HN ES        920  3.70                             137   -0.9810 96.2 288 
 PTB  HZ I         920  4.35        10.9 0.12            139           96.2 288 
 PAM  EZ EP        919 55.55                             122   -0.08 9  156  41 
 PAM  EN ES        920 16.08                             122    0.13 9  156  41 
 PAM  EZ I         920 19.39         4.2 0.20            124            156  41 
 ZAR  HZ EP        919 58.78                             116    0.03 9  191 315 
 ZAR  HE ES        920 22.35                             116    0.85 9  191 315 
 ZAR  HZ I         920 22.36         4.3 0.44            118            191 315 
                                                                                
