 2011 1227 0408 59.6 L   6.779 -73.145140.7  RSN 10 0.4 2.1LRSN                1
 GAP=138        0.78       3.5     4.1  5.4 -0.1818E+01  0.6311E+01  0.1152E+01E
 Epicentro: LOS SANTOS - SANTANDER                                             3
 ACTION:UPD 12-07-13 16:18 OP:ep   STATUS:               ID:20111227040859 L   I
 2011-12-27-0406-59S.COL___190                                                 6
 STAT SP IPHASW D HRMM SECON CODA AMPLIT PERI AZIMU VELO AIN AR TRES W  DIS CAZ7
 BAR2 SZ IP        4 9 18.59                             171   -0.0210 21.0 191 
 BAR2 SZ I         4 9 19.09        24.9 0.14                          21.0 191 
 BAR2 SZ ES   1    4 9 32.99                             171   -0.43 7 21.0 191 
 GIR2 SZ EP   1    4 9 18.65                             166   -0.13 7 33.6 351 
 GIR2 SZ ES   1    4 9 33.46                             166   -0.24 7 33.6 351 
 BRR  HZ EP        4 9 20.45                             151    0.1410 72.4 300 
 BRR  HZ I         4 9 20.61        40.2 0.17                          72.4 300 
 BRR  HE ES   1    4 9 37.41                             151    0.97 7 72.4 300 
 PAM  SZ EP   1    4 9 21.61                             149    0.18 7 79.1  38 
 PAM  SE ES   1    4 9 38.56                             149    0.14 7 79.1  38 
 PAM  SZ I         4 9 41.20        12.4 0.44                          79.1  38 
 RUS  HZ EP   1    4 9 22.66                             143   -0.06 7 98.2 176 
 RUS  HE ES   1    4 9 40.94                             143    0.21 7 98.2 176 
 RUS  HZ I         4 9 42.26        14.0 0.20                          98.2 176 
 PTB  HZ EP   1    4 9 25.32                             131   -0.85 7  147 260 
 PTB  HN ES   1    4 9 46.36                             131   -0.50 7  147 260 
 OCA  SZ EP   1    4 9 27.43                             128   -0.36 7  163 353 
 OCA  SZ ES   1    4 9 49.52                             128   -0.22 7  163 353 
 OCA  SZ I         4 9 53.91        20.3 0.41                           163 353 
 ZAR  HZ EP   1    4 9 32.37                             121    0.51 6  205 293 
 ZAR  HE ES   1    4 9 56.99                             121   -0.01 6  205 293 
 ZAR  HZ I         410  2.59        21.1 0.42                           205 293 
 NOR  SZ EP   1    4 9 35.30                             117    0.36 6  233 235 
 NOR  SN ES   1    410  2.49                             117    0.02 6  233 235 
 PRA  HZ EP   1    4 9 53.30                             106    0.55 4  390 210 
                                                                                
