 2012  927 0348 32.9 L   6.779 -73.145136.8  RSN 10 0.4 2.0LRSN                1
 GAP=138        0.79       3.6     3.8  5.9 -0.4513E+00  0.3667E+01  0.4107E+01E
 Epicentro: LOS SANTOS - SANTANDER                                             3
 ACTION:UPD 12-10-22 14:21 OP:ep   STATUS:               ID:20120927034832 L   I
 2012-09-27-0340-00M.COL___217                                                 6
 STAT SP IPHASW D HRMM SECON CODA AMPLIT PERI AZIMU VELO AIN AR TRES W  DIS CAZ7
 BAR2 SZ EP        348 51.30                             171   -0.0610 21.0 191 
 BAR2 SZ ES   1    349  5.81                             171    0.01 7 21.0 191 
 BAR2 SZ I         349  7.46        41.6 0.21                          21.0 191 
 GIR2 SZ EP   1    348 51.22                             165   -0.31 7 33.6 351 
 BRR  HZ EP   1    348 53.30                             150    0.18 7 72.5 300 
 BRR  HE ES        349  9.25                             150    0.3310 72.5 300 
 BRR  HZ I         349 14.34        22.0 0.12                          72.5 300 
 PAM  SZ EP        348 54.23                             149   -0.0110 79.2  38 
 PAM  SN ES   1    349 11.09                             149    0.18 7 79.2  38 
 PAM  SZ I         349 13.42        21.8 0.39                          79.2  38 
 RUS  HZ EP   1    348 55.40                             143   -0.16 7 98.2 176 
 RUS  HN ES   1    349 13.10                             143   -0.17 7 98.2 176 
 RUS  HZ I         349 15.24        13.7 0.30                          98.2 176 
 PTB  HN ES   1    349 18.56                             130   -0.96 7  147 260 
 ZAR  HZ EP   1    349  4.15                             120   -0.69 6  205 293 
 ZAR  HN ES   1    349 29.88                             120    0.10 6  205 293 
 NOR  SN ES   1    349 35.76                             117    0.46 6  233 235 
 CHI  HZ EP   1    349  9.78                             115   -0.04 6  246 195 
 CHI  HN ES   1    349 39.05                             115    0.40 6  246 195 
 HEL  HZ EP   1    349 13.50                             113    0.93 6  272 256 
                                                                                
