 2015 1127 0522 34.1 L   6.824 -73.218141.3  RSN  7 0.4 1.5LRSN                1
 GAP=126        1.09       5.1     4.6  6.9  0.8361E+00  0.6825E+01 -0.4274E+01E
 Epicentro: ZAPATOCA - SANTANDER                                               3
 ACTION:UPD 15-12-28 16:13 OP:cam  STATUS:               ID:20151127052234 L   I
 OLDACT:REG 15-11-27 12:54 OP:drio STATUS:               ID:20151127051738     3
 2015-11-27-0517-38M.COL___307                                                 6
 STAT SP IPHASW D HRMM SECON CODA AMPLIT PERI AZIMU VELO AIN AR TRES W  DIS CAZ7
 BAR2 EZ EP        522 53.47                             169    0.1910 25.9 171 
 BAR2 EZ ES        523  7.65                             169   -0.5710 25.9 171 
 BAR2 EZ I         523  9.20         8.0 0.36            160           25.9 171 
 BRR  HZ EP        522 54.70                             155    0.3610 63.0 300 
 BRR  HN ES        523 10.94                             155    0.8310 63.0 300 
 BRR  HZ I         523 16.46         5.3 0.36            154           63.0 300 
 PAM  EZ EP        522 56.18                             149    0.1010 80.8  45 
 PAM  EN ES        523 13.06                             149   -0.1510 80.8  45 
 PAM  EZ I         523 15.40        13.0 0.42            151           80.8  45 
 RUS  HZ EP        522 57.50                             142   -0.2010  104 172 
 RUS  HZ I         523 17.60         5.1 0.42            134            104 172 
 PTB  HZ EP        523  0.77                             132    0.69 9  141 257 
 PTB  HN ES        523 19.99                             132   -0.33 9  141 257 
 PTB  HZ I         523 24.22         2.7 0.28            128            141 257 
 ZAR  HZ EP        523  5.02                             122   -0.40 9  196 292 
 ZAR  HN ES        523 29.36                             122   -0.47 9  196 292 
 ZAR  HZ I         523 40.43         3.1 0.24            120            196 292 
 SML  HZ EP        523  9.71                             117   -0.18 8  238 337 
 SML  HE ES        523 37.60                             117   -0.19 8  238 337 
                                                                                
