 2013  427 0023 18.2 L   6.810 -73.174139.2  RSN 13 0.5 2.5LRSN                1
 GAP=133        1.19       4.0     5.2  8.0 -0.1971E+01  0.1426E+02 -0.5527E+01E
 Epicentro: LOS SANTOS - SANTANDER                                             3
 ACTION:UPD 13-05-22 14:41 OP:EP   STATUS:               ID:20130427002318 L   I
 2013-04-27-0018-37M.COL___220                                                 6
 STAT SP IPHASW D HRMM SECON CODA AMPLIT PERI AZIMU VELO AIN AR TRES W  DIS CAZ7
 BAR2 SZ IP     D  023 37.27                             170    0.1810 24.1 182 
 BAR2 SZ ES   1    023 51.86                             170    0.06 7 24.1 182 
 BAR2 SZ I         023 52.83        39.6 0.34            170           24.1 182 
 GIR2 SZ EP     C  023 37.39                             167    0.3010 29.8 356 
 GIR2 SZ ES   1    023 52.02                             167    0.23 7 29.8 356 
 GIR2 SZ I         024  0.03        18.6 0.40            164           29.8 356 
 BRR  HZ EP     C  023 39.19                             152    0.7010 67.9 299 
 BRR  HE ES   4    023 56.62                             152    2.34 0 67.9 299 
 BRR  HE I         023 59.93        52.2 0.16            149           67.9 299 
 PAM  SZ EP   1    023 40.15                             149    0.32 7 78.6  42 
 PAM  SN ES   1    023 56.99                             149    0.32 7 78.6  42 
 PAM  SN I         023 57.95       123.5 0.48            155           78.6  42 
 RUS  HZ EP     C  023 41.28                             142   -0.1710  102 174 
 RUS  HN ES        023 58.87                             142   -0.6810  102 174 
 RUS  HN I         024  0.48        25.8 0.18            148            102 174 
 PTB  HZ EP   1    023 43.83                             131   -0.58 7  145 258 
 PTB  HN ES        024  4.40                             131   -0.43 9  145 258 
 PTB  HN I         024  7.03        57.4 0.24            132            145 258 
 OCA  HZ IP     D  023 45.73                             128   -0.18 9  159 354 
 OCA  HN ES        024  6.92                             128   -0.57 9  159 354 
 OCA  HN I         024 13.11        89.5 0.26            131            159 354 
 ZAR  HZ EP   1    023 50.70                             121    0.78 6  201 292 
 ZAR  HN ES        024 15.56                             121    0.94 9  201 292 
 ZAR  HN I         024 17.42        53.3 0.28            123            201 292 
 NOR  HZ EP        023 53.95                             117    0.56 8  233 234 
 NOR  HN ES   2    024 20.30                             117   -0.50 4  233 234 
 NOR  HN I         024 25.91        45.0 0.16            120            233 234 
 SML  HZ EP        023 53.84                             116   -0.41 8  241 336 
 SML  HN ES   1    024 21.01                             116   -1.33 6  241 336 
 HEL  HN ES   1    024 28.29                             113   -0.39 6  269 255 
 HEL  HN I         024 36.69        12.3 0.36            116            269 255 
 URE  HZ EP   4    024  1.51                             112    2.89 0  280 292 
 URE  HN ES   4    024 29.42                             112   -0.70 0  280 292 
 URE  HN I         024 44.44        25.2 0.26            115            280 292 
 SJC  HZ EP   4    024 11.94                             105   -1.34 0  407 327 
 SJC  HN ES   4    024 52.39                             105   -3.82 0  407 327 
 SJC  HN I         024 55.69         7.0 0.18            107            407 327 
                                                                                
