 2012 1227 0747 30.7 L   6.811 -73.129155.5  RSN  7 0.5 1.6LRSN                1
 GAP=185        0.95       5.1     7.4  8.8  0.1164E+02  0.1246E+02 -0.4400E+01E
 Epicentro: LOS SANTOS - SANTANDER                                             3
 ACTION:UPD 13-01-04 14:30 OP:ep   STATUS:               ID:20121227074730 L   I
 2012-12-27-0740-00M.COL___243                                                 6
 STAT SP IPHASW D HRMM SECON CODA AMPLIT PERI AZIMU VELO AIN AR TRES W  DIS CAZ7
 BAR2 SZ EP   1    747 51.82                             171    0.32 8 24.9 194 
 BAR2 SZ ES   1    748  7.59                             171   -0.16 8 24.9 194 
 BAR2 SZ I         748  8.53        11.2 0.28                          24.9 194 
 BRR  HZ EP   1    747 53.39                             154    0.45 8 72.2 297 
 BRR  HN ES   1    748 11.35                             154    1.05 8 72.2 297 
 BRR  HZ I         748 15.13         5.5 0.14                          72.2 297 
 RUS  HZ EP   1    747 55.59                             145    0.12 8  102 177 
 RUS  HN ES   1    748 14.32                             145   -0.48 8  102 177 
 RUS  HZ I         748 15.44         3.7 0.36                           102 177 
 PTB  HZ EP        747 58.49                             134   -0.1410  150 259 
 PTB  HN ES   1    748 19.78                             134   -0.65 7  150 259 
 PTB  HZ I         748 24.51         4.1 0.10                           150 259 
 OCA  HN ES   1    748 21.72                             132   -0.57 7  159 352 
 OCA  HZ I         748 28.20         4.5 0.30                           159 352 
 ZAR  HZ EP   1    748  4.25                             124    0.36 7  205 292 
 ZAR  HN ES   1    748 29.78                             124   -0.02 7  205 292 
 ZAR  HZ I         748 31.99         3.4 0.32                           205 292 
 SML  HE ES   1    748 36.32                             119   -0.49 6  243 335 
 MON  HZ EP   4    748 18.92                             110   -1.23 0  354 308 
 MON  HN ES   4    748 57.86                             110   -0.87 0  354 308 
                                                                                
