 2016 1227 0543 38.2 L   6.763 -73.124141.0  RSN 11 0.4 1.5LRSN                1
 GAP=141        0.90       3.5     3.7  5.6 -0.8179E+00  0.3639E+01  0.4828E+01E
 Epicentro: LOS SANTOS - SANTANDER                                             3
 ACTION:UPD 17-01-11 20:19 OP:rebc STATUS:               ID:20161227054338 L   I
 OLDACT:UP  16-12-27 17:36 OP:edw  STATUS:               ID:20161227053745     3
 OLDACT:UP  16-12-27 17:35 OP:edw  STATUS:               ID:20161227053745     3
 OLDACT:REG 16-12-27 13:20 OP:edw  STATUS:               ID:20161227053745     3
 2016-12-27-0538-00M.COL___366                                                 6
 STAT SP IPHASW D HRMM SECON CODA AMPLIT PERI AZIMU VELO AIN AR TRES W  DIS CAZ7
 BAR2 EZ IP     C  543 56.97                             172   -0.2310 19.9 199 
 BAR2 EZ ES        544 12.03                             172    0.0210 19.9 199 
 BAR2 EZ I         544 13.44         6.4 0.20            169           19.9 199 
 BRR  HZ IP     C  543 58.89                             150   -0.2010 75.3 300 
 BRR  HE ES        544 15.52                             150    0.1510 75.3 300 
 BRR  HZ I         544 17.01         6.8 0.18            151           75.3 300 
 PAM  EZ EP     D  543 59.84                             149   -0.1810 79.1  36 
 PAM  EE ES        544 17.13                             149    0.0910 79.1  36 
 PAM  EZ I         544 17.54         5.3 0.36            152           79.1  36 
 RUS  HZ EP        544  1.37                             144    0.1910 96.3 177 
 RUS  HN ES        544 18.78                             144   -0.3210 96.3 177 
 RUS  HZ I         544 20.42         2.8 0.24            143           96.3 177 
 PTB  HZ EP   9    544  3.70                             131   -1.24 0  149 261 
 PTB  HN ES        544 25.09                             131    0.54 9  149 261 
 PTB  HZ I         544 26.73         4.5 0.20            131            149 261 
 ZAR  HZ IP   4    544 11.56                             121    0.81 0  208 293 
 ZAR  HN ES        544 36.50                             121    0.38 8  208 293 
 ZAR  HZ I         544 38.07         3.1 0.28            121            208 293 
 NOR  HZ EP   4    544 12.11                             117   -1.51 0  234 236 
 NOR  HN ES        544 40.77                             117   -0.48 8  234 236 
 NOR  HZ I         544 43.37         3.7 0.28            118            234 236 
 CHI  HZ EP        544 15.62                             116    0.34 8  245 196 
 CHI  HN ES        544 45.09                             116    0.89 8  245 196 
 CHI  HZ I         544 50.49         0.9 0.26            117            245 196 
 URE  HZ EP   4    544 21.47                             112    1.99 0  288 292 
 URE  HN ES   4    544 49.39                             112   -2.28 0  288 292 
 URE  HZ I         544 52.10         2.2 0.14            113            288 292 
 GUY2CHZ EP   4    544 17.28                             111   -4.28 0  301 236 
 GUY2CHN ES   4    544 58.14                             111    2.77 0  301 236 
 GUY2CHZ I         545  3.73         2.3 0.38                           301 236 
 CBOC HZ EP   4    544 25.99                             109    0.94 0  335 253 
 CBOC HE ES        545  1.01                             109   -0.58 7  335 253 
                                                                                
