 2016  227 0546  5.6 L   6.873 -73.159143.9  RSN  8 0.4 1.4LRSN                1
 GAP=131        0.84       3.4     4.0  5.7 -0.2594E+00  0.9065E+01  0.2650E+01E
 Epicentro: ZAPATOCA - SANTANDER                                               3
 ACTION:UPD 16-03-04 21:29 OP:rebc STATUS:               ID:20160227054605 L   I
 OLDACT:UP  16-02-27 14:28 OP:mh   STATUS:               ID:20160227053750     3
 OLDACT:UP  16-02-27 14:27 OP:mh   STATUS:               ID:20160227053750     3
 OLDACT:UP  16-02-27 14:27 OP:mh   STATUS:               ID:20160227053750     3
 OLDACT:REG 16-02-27 13:15 OP:mh   STATUS:               ID:20160227053750     3
 2016-02-27-0537-50M.COL___313                                                 6
 STAT SP IPHASW D HRMM SECON CODA AMPLIT PERI AZIMU VELO AIN AR TRES W  DIS CAZ7
 BAR2 EZ EP        546 25.12                             167   -0.0910 31.2 185 
 BAR2 EZ ES        546 40.15                             167   -0.3410 31.2 185 
 BAR2 EZ I         546 45.70         2.8 0.06            168           31.2 185 
 PAM  EN EP        546 27.54                             152    0.2010 72.4  45 
 PAM  EZ ES        546 44.43                             152    0.1510 72.4  45 
 PAM  EN I         546 46.16         6.3 0.36            157           72.4  45 
 RUS  HZ EP        546 29.55                             141   -0.2410  109 176 
 RUS  HN ES        546 48.84                             141    0.1910  109 176 
 RUS  HZ I         546 50.57         1.3 0.20            144            109 176 
 PTB  HZ EP        546 31.64                             131   -0.82 9  148 256 
 PTB  HN ES   1    546 53.04                             131   -0.36 7  148 256 
 PTB  HZ I         546 54.99         4.0 0.40            134            148 256 
 SPBC HZ EP   1    546 34.85                             128    0.36 7  169 217 
 SPBC HN ES   1    546 57.63                             128    0.61 7  169 217 
 SPBC HZ I         547  0.57         4.5 0.34            130            169 217 
 ZAR  HZ EP   1    546 37.42                             123   -0.07 6  200 290 
 ZAR  HN ES        547  2.88                             123    0.52 9  200 290 
 ZAR  HZ I         547  7.65         6.5 0.40            125            200 290 
 CHI  HZ EP        546 44.21                             116    0.19 8  256 194 
 CHI  HN ES        547 14.07                             116    0.09 8  256 194 
 CHI  HZ I         547 16.66         1.8 0.28            119            256 194 
 GUY2CHZ EP        546 49.63                             112    0.09 7  305 233 
 GUY2CHN ES   4    547 28.36                             112    4.57 0  305 233 
 GUY2CHZ I         547 33.78         2.1 0.56                           305 233 
                                                                                
