 2014  127 0349 23.1 L   6.786 -73.108141.5  RSN  6 0.5 1.5LRSN                1
 GAP=142        1.33       5.8     7.2  9.6 -0.5652E+01  0.1059E+01  0.1739E+02E
 Epicentro: LOS SANTOS - SANTANDER                                             3
 ACTION:UPD 14-03-13 09:58 OP:ep   STATUS:               ID:20140127034923 L   I
 OLDACT:DUP 14-01-27 12:05 OP:stll STATUS:               ID:20140127034808d    3
 2014-01-27-0348-07M.COL___234                                                 6
 STAT SP IPHASW D HRMM SECON CODA AMPLIT PERI AZIMU VELO AIN AR TRES W  DIS CAZ7
 BAR2 SZ ES        349 57.32                             170    0.1810 22.9 201 
 BAR2 SZ I         349 58.91        11.4 0.28            169           22.9 201 
 BRR  HZ EP        349 44.16                             150    0.0910 75.6 298 
 BRR  HN ES        350  1.11                             150    0.6910 75.6 298 
 BRR  HZ I         350  1.33        13.9 0.92            151           75.6 298 
 PAM  SZ EP        349 45.33                             150    0.5210 76.1  36 
 PAM  SZ I         349 45.49         8.6 0.22            153           76.1  36 
 PAM  SN ES        350  0.71                             150   -1.0210 76.1  36 
 RUS  HZ EP        349 46.61                             143    0.2810 98.8 178 
 RUS  HN ES        350  4.69                             143    0.2610 98.8 178 
 RUS  HZ I         350  6.10         1.6 0.66            143           98.8 178 
 PTB  HN ES        350 10.45                             130   -0.68 9  152 260 
 PTB  HZ I         350 13.00         2.2 0.16            130            152 260 
 CHI  HZ EP        350  0.30                             116   -0.24 8  248 196 
 CHI  HN ES        350 29.31                             116   -0.42 8  248 196 
 CHI  HZ I         350 33.31         1.5 0.66            116            248 196 
                                                                                
