 2011  827 0938 34.6 L   6.796 -73.113140.0  RSN 14 0.4 2.4LRSN                1
 GAP=117        0.87       3.0     4.4  5.3 -0.1968E+01  0.7838E+01  0.3568E+01E
 Epicentro: LOS SANTOS - SANTANDER                                             3
 ACTION:UPD 12-07-13 15:54 OP:ep   STATUS:               ID:20110827093834 L   I
 2011-08-27-0937-25S.COL___161                                                 6
 STAT SP IPHASW D HRMM SECON CODA AMPLIT PERI AZIMU VELO AIN AR TRES W  DIS CAZ7
 BAR2 SZ EP        938 53.43                             170   -0.1310 23.8 199 
 BAR2 SZ ES   1    939  7.70                             170   -0.64 7 23.8 199 
 BAR2 SZ I         939  9.34        87.9 0.14                          23.8 199 
 GIR2 SZ EP        938 53.52                             166   -0.1110 32.5 344 
 GIR2 SZ ES   1    939  8.79                             166    0.32 7 32.5 344 
 BRR  HZ IP     C  938 55.33                             150   -0.0110 74.6 297 
 BRR  HN ES   1    939 12.21                             150    0.70 7 74.6 297 
 BRR  HZ I         939 13.53        68.8 0.17                          74.6 297 
 PAM  SZ EP        938 56.27                             150    0.1710 75.4  37 
 PAM  SZ I         938 56.61        30.6 0.16                          75.4  37 
 PAM  SN ES   1    939 12.96                             150    0.10 7 75.4  37 
 RUS  HZ EP        938 57.35                             143   -0.4010100.0 178 
 RUS  HN ES   1    939 15.59                             143   -0.22 7100.0 178 
 RUS  HZ I         939 17.40        48.4 0.35                         100.0 178 
 OCA  SZ EP        939  2.41                             128   -0.15 9  161 352 
 OCA  SZ ES   1    939 24.19                             128   -0.18 7  161 352 
 OCA  SZ I         939 27.68        22.2 0.29                           161 352 
 YOP  SE ES   1    939 27.97                             125    0.96 7  177 154 
 NOR  SZ EP        939  9.49                             117   -0.82 8  237 235 
 NOR  SN ES        939 38.12                             117   -0.03 8  237 235 
 NOR  SZ I         939 42.32         2.4 0.14                           237 235 
 CHI  HZ EP   1    939 11.55                             116   -0.51 6  249 196 
 CHI  HN ES   1    939 41.49                             116    0.22 6  249 196 
 CHI  HZ I         939 44.36        12.7 0.49                           249 196 
 ROSC BZ EP   1    939 13.27                             115    0.68 6  254 212 
 HEL  HZ EP        939 15.52                             113    0.60 7  275 256 
 HEL  HN ES   1    939 46.22                             113   -0.14 6  275 256 
 HEL  HZ I         939 50.42        15.5 0.27                           275 256 
 RREF HZ EP   1    939 21.56                             110    0.77 5  324 230 
 RREF HZ I         940  4.18        10.1 0.25                           324 230 
 TOL  SZ EP   1    939 23.33                             108    0.43 5  346 225 
 PRA  HZ EP   1    939 27.68                             105   -0.43 4  393 210 
 PRA  HZ I         939 30.41        32.2 0.21                           393 210 
 PRA  HN ES   1    940  9.85                             105    0.02 4  393 210 
                                                                                
