 2017 1127 0239 51.0 L   6.808 -73.100146.4  RSN  9 0.5 1.6LRSN                1
 GAP=142        1.14       3.5     5.1  6.9 -0.2851E+01  0.1307E+02 -0.3058E+01E
 Epicentro: LOS SANTOS - SANTANDER                                             3
 ACTION:UPD 17-12-12 20:00 OP:rebc STATUS:               ID:20171127023951 L   I
 OLDACT:REG 17-11-27 12:10 OP:dhb  STATUS:               ID:20171127023740     3
 2017-11-27-0238-00M.COL___489                                                 6
 STAT SP IPHASW D HRMM SECON CODA AMPLIT PERI AZIMU VELO AIN AR TRES W  DIS CAZ7
 BAR2 EZ EP        240 10.77                             170    0.0210 25.5 201 
 BAR2 EZ ES        240 25.60                             170   -0.5610 25.5 201 
 BAR2 EZ I         240 26.68         9.8 0.38            170           25.5 201 
 PAM  EZ EP        240 13.71                             152    0.6510 73.6  37 
 PAM  EN ES        240 30.70                             152    0.4310 73.6  37 
 PAM  EZ I         240 32.98         2.8 0.44            153           73.6  37 
 RUS  HZ EP        240 14.95                             144    0.0910  101 179 
 RUS  HN ES        240 33.40                             144   -0.0710  101 179 
 RUS  HZ I         240 34.17         4.9 0.22            147            101 179 
 PTB  HZ EP        240 18.70                             131    0.21 9  153 259 
 PTB  HE ES        240 40.61                             131    0.68 9  153 259 
 PTB  HZ I         240 43.80         2.7 0.42            131            153 259 
 OCA  HZ EP        240 19.28                             130   -0.06 9  160 351 
 OCA  HN ES        240 40.94                             130   -0.51 9  160 351 
 OCA  HZ I         240 49.62         7.7 0.28            130            160 351 
 SPBC HZ EP        240 19.37                             128   -0.55 9  167 220 
 SPBC HE ES        240 41.73                             128   -0.74 9  167 220 
 SPBC HZ I         240 44.08         3.8 0.16            130            167 220 
 ZAR  HZ EP        240 24.24                             122    0.30 8  208 291 
 ZAR  HN ES        240 49.87                             122    0.24 8  208 291 
 ZAR  HZ I         240 54.84         3.7 0.34            122            208 291 
 PRA  HZ EP        240 44.60                             106   -0.32 6  395 210 
 PRA  HE ES        241 28.07                             106    1.09 6  395 210 
 PRA  HZ I         241 31.82         1.5 0.42            108            395 210 
 SJC  HZ IP     D  240 45.94                             106   -0.88 6  411 326 
 SJC  HE ES        241 29.88                             106   -0.48 6  411 326 
 SJC  HZ I         241 34.89         1.0 0.56            106            411 326 
                                                                                
