 2017  727 0850 20.1 L   6.807 -73.141138.5  RSN  7 0.4 1.4LRSN                1
 GAP=112        0.59       2.6     3.2  6.1 -0.8655E+00  0.6033E+01 -0.7924E+00E
 Epicentro: LOS SANTOS - SANTANDER                                             3
 ACTION:UPD 17-08-30 15:37 OP:rebc STATUS:               ID:20170727085020 L   I
 OLDACT:UP  17-07-27 16:48 OP:and  STATUS:               ID:20170727084736     3
 OLDACT:UP  17-07-27 16:48 OP:and  STATUS:               ID:20170727084736     3
 OLDACT:UP  17-07-27 16:48 OP:and  STATUS:               ID:20170727084736     3
 OLDACT:UP  17-07-27 16:48 OP:and  STATUS:               ID:20170727084736     3
 OLDACT:UP  17-07-27 16:48 OP:and  STATUS:               ID:20170727084736     3
 OLDACT:REG 17-07-27 12:35 OP:and  STATUS:               ID:20170727084736     3
 2017-07-27-0848-00M.COL___368                                                 6
 STAT SP IPHASW D HRMM SECON CODA AMPLIT PERI AZIMU VELO AIN AR TRES W  DIS CAZ7
 BAR2 EZ EP   2    850 38.67                             170   -0.18 5 24.2 191 
 BAR2 EZ ES   2    850 53.22                             170   -0.27 5 24.2 191 
 BAR2 EZ I         850 57.30         2.8 0.18            170           24.2 191 
 BRR  HZ EP     D  850 40.43                             151   -0.0210 71.3 298 
 BRR  HN ES   3    850 57.64                             151    1.30 2 71.3 298 
 BRR  HZ I         851  2.12         3.8 0.28            150           71.3 298 
 PAM  EZ IP        850 41.53                             150    0.0610 76.4  40 
 PAM  EN ES        850 58.04                             150   -0.1110 76.4  40 
 PAM  EZ I         850 59.92         4.0 0.64            155           76.4  40 
 RUS  HZ EP        850 43.31                             142    0.1310  101 176 
 RUS  HN ES        851  1.42                             142    0.2310  101 176 
 RUS  HZ I         851  2.89         3.9 0.30            148            101 176 
 SPBC HN ES        851  9.66                             127   -0.33 9  164 219 
 SPBC HZ I         851 12.52         4.5 0.24            132            164 219 
 YPLC HZ EP   2    850 48.97                             125   -0.43 4  177 152 
 ZAR  HZ EP   3    850 54.04                             121    1.96 2  204 292 
 ZAR  HN ES        851 17.05                             121    0.00 9  204 292 
 ZAR  HZ I         851 22.43         3.6 0.60            124            204 292 
                                                                                
