 2012  327 0655 30.6 L   6.723 -73.133147.8  RSN  5 0.3 1.6LRSN                1
 GAP=142        0.60       8.2     6.0  6.1 -0.1739E+02  0.6082E+01 -0.2653E+01E
 ACTION:UP  12-03-31 23:23 OP:EP   STATUS:               ID:20120327065530 L   I
 2012-03-27-0650-00M.COL___196                                                 6
 STAT SP IPHASW D HRMM SECON CODA AMPLIT PERI AZIMU VELO SNR AR TRES W  DIS CAZ7
 BAR2 SZ ES   1    656  5.73                             174     0.0 7   15 201 
 BAR2 SZ I         656  7.25         8.3 0.36                            15 201 
 BRR  HZ IP     C  655 52.41                             151     0.110   77 304 
 BRR  HN ES   1    656  9.45                             151     0.2 7   77 304 
 BRR  HZ I         656 10.81         7.2 0.14                            77 304 
 PAM  SZ EP        655 53.62                             149     0.210   83  35 
 PAM  SN ES   2    656 10.47                             149    -0.7 5   83  35 
 RUS  HN ES   3    656 12.37                             147     0.2 2   92 177 
 PTB  HZ EP        655 57.55                             132    -0.2 9  148 262 
                                                                                
