 2017 1027 0021 24.9 L   6.744 -73.134144.5  RSN  6 0.3 1.5LRSN                1
 GAP=140        0.78       5.2     3.5  5.5 -0.3938E-01  0.4146E+01  0.4148E+01E
 Epicentro: LOS SANTOS - SANTANDER                                             3
 ACTION:UPD 17-11-07 19:37 OP:rebc STATUS:               ID:20171027002124 L   I
 OLDACT:REG 17-10-27 12:26 OP:dani STATUS:               ID:20171027001742     3
 2017-10-27-0018-00M.COL___459                                                 6
 STAT SP IPHASW D HRMM SECON CODA AMPLIT PERI AZIMU VELO AIN AR TRES W  DIS CAZ7
 BAR2 EZ EP        021 44.38                             173    0.1510 17.6 197 
 BAR2 EZ ES        021 59.43                             173    0.0910 17.6 197 
 BAR2 EZ I         022  0.56         7.3 0.56            175           17.6 197 
 BRR  HZ EP        021 46.21                             151    0.1010 75.4 302 
 BRR  HE ES        022  2.82                             151    0.1310 75.4 302 
 BRR  HZ I         022  7.45         9.4 0.44            148           75.4 302 
 PAM  EZ EP        021 47.03                             149   -0.1610 81.5  36 
 PAM  EN ES        022  4.38                             149   -0.2210 81.5  36 
 PAM  EZ I         022  8.33         2.6 0.38            149           81.5  36 
 RUS  HZ EP        021 48.39                             145    0.3510 94.4 177 
 PTB  HZ EP        021 51.50                             132   -0.24 9  148 261 
 PTB  HN ES        022 12.12                             132   -0.58 9  148 261 
 PTB  HZ I         022 15.19         2.7 0.14            133            148 261 
 ZAR  HZ EP        021 57.35                             122   -0.24 8  208 294 
 ZAR  HN ES        022 23.72                             122    0.61 8  208 294 
 ZAR  HZ I         022 29.43         3.7 0.21            122            208 294 
                                                                                
