 2015  327 0109  1.3 L   6.820 -73.163140.2  RSN 13 0.4 2.0LRSN                1
 GAP= 69        0.94       2.8     2.5  4.8 -0.1515E+00  0.3608E+01 -0.6262E+00E
 Epicentro: LOS SANTOS - SANTANDER                                             3
 ACTION:UPD 15-04-30 16:29 OP:nd   STATUS:               ID:20150327010901 L   I
 OLDACT:REG 15-03-27 12:38 OP:fm   STATUS:               ID:20150327010749     3
 2015-03-27-0107-49M.COL___278                                                 6
 STAT SP IPHASW D HRMM SECON CODA AMPLIT PERI AZIMU VELO AIN AR TRES W  DIS CAZ7
 BAR2 EZ EP        1 9 20.50                             169    0.2410 25.3 185 
 BAR2 EZ ES        1 9 35.23                             169    0.1610 25.3 185 
 BAR2 EZ I         1 9 36.69        16.6 0.20            170           25.3 185 
 BRR  HZ EP        1 9 22.32                             152    0.6710 68.5 298 
 BRR  HE ES        1 9 37.91                             152    0.3610 68.5 298 
 BRR  HZ I         1 9 43.15        13.2 0.32            153           68.5 298 
 PAM  SZ EP     D  1 9 23.35                             150    0.5010 77.0  42 
 PAM  SE ES        1 9 39.44                             150   -0.2610 77.0  42 
 PAM  SZ I         1 9 42.29        17.4 0.50            153           77.0  42 
 RUS  HZ EP        1 9 24.52                             142   -0.1210  103 175 
 RUS  HN ES        1 9 42.73                             142   -0.1410  103 175 
 RUS  HZ I         1 9 44.65        11.8 0.26            144            103 175 
 PTB  HZ EP        1 9 27.46                             131   -0.18 9  146 258 
 PTB  HE ES        1 9 47.93                             131   -0.29 9  146 258 
 PTB  HZ I         1 9 51.29        15.7 0.22            133            146 258 
 TAM  HZ EP        1 9 28.94                             129    0.21 9  158 106 
 TAM  HE ES        1 9 49.38                             129   -0.78 9  158 106 
 TAM  HZ I         1 9 57.58        10.9 0.38            132            158 106 
 SPBC HZ EP        1 9 29.64                             128    0.26 9  164 218 
 SPBC HN ES        1 9 51.14                             128   -0.18 9  164 218 
 SPBC HZ I         1 9 58.11        23.8 0.86            130            164 218 
 ZAR  HZ EP        1 9 33.60                             121    0.53 9  201 292 
 ZAR  HN ES        1 9 57.76                             121   -0.12 9  201 292 
 ZAR  HZ I         110  6.88         8.3 0.56            123            201 292 
 NOR  HZ EP        1 9 36.98                             117    0.34 8  234 234 
 NOR  HN ES        110  3.67                             117   -0.56 8  234 234 
 NOR  HZ I         110 10.48         6.1 0.18            119            234 234 
 SML  HZ EP   1    1 9 37.06                             116   -0.21 6  241 335 
 SML  HE ES        110  5.18                             116   -0.18 8  241 335 
 SML  HZ I         110  9.90        12.1 0.28            119            241 335 
 HEL  HZ EP   1    1 9 40.78                             114   -0.26 6  271 255 
 HEL  HN ES        110 11.73                             114   -0.34 8  271 255 
 HEL  HZ I         110 19.80         6.5 0.36            116            271 255 
 GUY2CHZ EP   1    1 9 44.19                             111   -0.39 5  301 234 
 GUY2CHN ES        110 19.03                             111    0.66 7  301 234 
 GUY2CHZ I         110 28.07         2.8 0.44                           301 234 
 MON  HZ EP        1 9 49.34                             108   -0.37 6  351 308 
 MON  HE ES        110 26.63                             108   -0.88 6  351 308 
 MON  HZ I         110 27.53         2.6 0.20            110            351 308 
                                                                                
