 2011  627 0744 34.4 L   6.858 -73.099139.8  RSN  6 0.3 1.5LRSN                1
 GAP=158        0.59       6.2    10.6  6.6 -0.2895E+02  0.5234E+01 -0.1759E+02E
 Epicentro: LOS SANTOS - SANTANDER                                             3
 ACTION:UP  11-07-14 19:08 OP:ep   STATUS:               ID:20110627074434 L   I
 2011-06-27-0740-00M.COL___124                                                 6
 STAT SP IPHASW D HRMM SECON CODA AMPLIT PERI AZIMU VELO SNR AR TRES W  DIS CAZ7
 BTL  SZ EP        744 53.48                             171     0.210   20 290 
 BTL  SZ ES   1    745  8.04                             171     0.1 7   20 290 
 BAR2 SZ EP        744 53.27                             167    -0.210   31 197 
 BAR2 SZ ES   2    745  7.98                             167    -0.4 5   31 197 
 BAR2 SZ I         745  9.59         7.2 0.24                            31 197 
 PAM  SZ EP   3    744 56.39                             153     0.9 2   69  40 
 BRR  HZ EP        744 55.09                             151     0.110   73 292 
 BRR  HZ I         744 55.54         9.9 0.12                            73 292 
 GRA  SZ EP        744 58.58                             137     0.110  118  16 
 GRA  SZ ES   2    745 17.09                             137    -0.2 5  118  16 
 GRA  SZ I         745 19.33         3.6 0.39                           118  16 
 OCA  SZ EP        745  1.48                             129    -0.2 9  155 351 
 OCA  SZ I         745 29.89         3.4 0.57                           155 351 
                                                                                
