 2013 1127 0109 43.7 L   6.682 -73.215144.9  RSN  5 0.3 1.2LRSN                1
 GAP=210        0.74       4.3     4.9  5.6  0.5444E+01  0.6334E+01  0.3693E+01E
 Epicentro: VILLANUEVA - SANTANDER                                             3
 ACTION:UPD 14-01-09 16:31 OP:ep   STATUS:               ID:20131127010943 L   I
 OLDACT:REG 13-11-27 08:01 OP:stll STATUS:               ID:20131127010805     3
 2013-11-27-0108-05M.COL___243                                                 6
 STAT SP IPHASW D HRMM SECON CODA AMPLIT PERI AZIMU VELO AIN AR TRES W  DIS CAZ7
 BAR2 SZ ES        110 17.67                             176   -0.4610 10.6 160 
 BAR2 SZ I         110 19.60         7.2 0.36            172           10.6 160 
 BRR  HZ EP        110  4.95                             152    0.1210 72.3 311 
 BRR  HN ES        110 21.68                             152    0.3810 72.3 311 
 RUS  HZ EP        110  6.82                             147    0.2810 88.5 171 
 RUS  HN ES        110 24.41                             147    0.0610 88.5 171 
 RUS  HZ I         110 26.75         2.1 0.60            148           88.5 171 
 PTB  HZ EP        110  9.38                             134   -0.38 9  138 264 
 PTB  HN ES        110 29.94                             134   -0.13 9  138 264 
 PTB  HZ I         110 38.02         1.9 0.30            133            138 264 
 SPBC HZ EP        110 10.61                             132   -0.15 9  148 220 
 SPBC HN ES        110 32.09                             132    0.24 9  148 220 
                                                                                
