 2015  827 0609 57.1 L   6.798 -73.105151.2  RSN 11 0.3 1.7LRSN                1
 GAP=187        0.64       1.9     3.2  4.0  0.1369E+00  0.2331E+01  0.1501E+00E
 Epicentro: LOS SANTOS - SANTANDER                                             3
 ACTION:UPD 15-09-15 23:05 OP:cam  STATUS:               ID:20150827060957 L   I
 OLDACT:REG 15-08-27 12:47 OP:spq  STATUS:               ID:20150827060748     3
 2015-08-27-0607-48M.COL___352                                                 6
 STAT SP IPHASW D HRMM SECON CODA AMPLIT PERI AZIMU VELO AIN AR TRES W  DIS CAZ7
 BAR2 EZ EP        610 17.34                             170   -0.0910 24.3 201 
 BAR2 EZ ES   1    610 33.42                             170    0.15 7 24.3 201 
 BAR2 EZ I         610 33.87        12.9 0.20            168           24.3 201 
 BRR  HZ EP   1    610 18.85                             152   -0.25 7 75.3 297 
 BRR  HN ES        610 36.59                             152    0.3610 75.3 297 
 BRR  HZ I         610 39.63         4.5 0.13            149           75.3 297 
 RUS  HZ EP        610 21.32                             145   -0.0710  100 179 
 RUS  HN ES        610 40.47                             145    0.1610  100 179 
 RUS  HZ I         610 41.58         5.4 0.26            146            100 179 
 OCA  HZ EP   1    610 25.98                             131    0.04 7  161 352 
 OCA  HE ES        610 48.36                             131   -0.05 9  161 352 
 OCA  HZ I         610 52.12         9.2 0.42            131            161 352 
 SPBC HZ EP        610 26.38                             130    0.07 9  166 220 
 SPBC HE ES        610 48.51                             130   -0.55 9  166 220 
 SPBC HZ I         610 53.19         8.6 0.10            129            166 220 
 ZAR  HZ EP        610 30.07                             123   -0.30 8  208 292 
 ZAR  HN ES        610 56.18                             123   -0.12 8  208 292 
 ZAR  HZ I         611  1.55         5.4 0.30            122            208 292 
 SML  HZ EP        610 34.26                             118   -0.03 8  246 334 
 SML  HE ES   1    611  3.24                             118   -0.04 6  246 334 
 SML  HZ I         611  7.20         4.4 0.24            119            246 334 
 CHI  HZ EP   1    610 35.30                             118    0.05 6  250 196 
 CHI  HN ES   1    611  4.41                             118   -0.56 6  250 196 
 CHI  HZ I         611  8.29         1.8 0.49            119            250 196 
 HEL  HE ES        611 10.32                             115    0.26 7  276 256 
 HEL  HZ I         611 17.76         3.4 0.36            115            276 256 
 GUY2CHZ EP   4    610 43.50                             113    2.10 0  305 235 
 GUY2CHN ES        611 16.11                             113    0.19 7  305 235 
 GUY2CHZ I         611 21.63         2.4 0.22                           305 235 
 PRA  HZ EP        610 52.00                             107    0.92 6  394 210 
 PRA  HE ES   1    611 33.55                             107    0.38 4  394 210 
 PRA  HZ I         611 37.97         1.7 0.52            108            394 210 
                                                                                
