 2014  527 0717 40.0 L   6.665 -73.207138.9  RSN  4 0.2 1.2LRSN                1
 GAP=210        0.49       3.6     3.5  4.0  0.6316E+01  0.2420E+01  0.1038E+01E
 Epicentro: BARICHARA - SANTANDER                                              3
 ACTION:UPD 15-03-16 17:01 OP:nd   STATUS:               ID:20140527071740 L   I
 OLDACT:REG 14-05-27 13:49 OP:stll STATUS:               ID:20140527070805     3
 2014-05-27-0708-05M.COL___261                                                 6
 STAT SP IPHASW D HRMM SECON CODA AMPLIT PERI AZIMU VELO AIN AR TRES W  DIS CAZ7
 BAR2 SZ EP        717 58.41                             176   -0.2110 8.46 161 
 BAR2 SZ ES        718 13.17                             176    0.0510 8.46 161 
 BAR2 SZ I         718 14.34        10.0 0.36            175           8.46 161 
 BRR  HZ EP        718  0.49                             150   -0.1310 74.2 311 
 BRR  HN ES        718 16.82                             150    0.1310 74.2 311 
 BRR  HZ I         718 18.46         2.7 0.42            150           74.2 311 
 RUS  HZ EP        718  2.44                             147    0.3310 86.5 171 
 RUS  HZ I         718  3.13         1.8 0.10            147           86.5 171 
 RUS  HN ES        718 19.20                             147   -0.1410 86.5 171 
 PTB  HZ EP        718  5.64                             132    0.01 9  139 264 
 PTB  HN ES        718 25.57                             132   -0.03 9  139 264 
 PTB  HZ I         718 29.02         1.8 0.10            132            139 264 
                                                                                
