 2016 1027 0728 27.8 L   6.789 -73.166141.8  RSN 12 0.4 2.1LRSN                1
 GAP=135        0.90       3.5     3.6  5.0 -0.3364E+01  0.5164E+01  0.3991E+01E
 Epicentro: LOS SANTOS - SANTANDER                                             3
 ACTION:UPD 16-11-09 19:23 OP:rebc STATUS:               ID:20161027072827 L   I
 OLDACT:DUP 16-10-27 18:11 OP:cara STATUS:               ID:20161027072746d    3
 2016-10-27-0728-00M.COL___349                                                 6
 STAT SP IPHASW D HRMM SECON CODA AMPLIT PERI AZIMU VELO AIN AR TRES W  DIS CAZ7
 BAR2 EZ IP        728 46.64                             171   -0.3110 21.8 185 
 BAR2 EZ ES        729  2.17                             171    0.3110 21.8 185 
 BAR2 EZ I         729  4.48        33.6 0.32            168           21.8 185 
 BRR  HZ IP        728 48.46                             152   -0.0110 69.9 300 
 BRR  HN ES        729  5.06                             152    0.4810 69.9 300 
 PAM  EZ EP     C  728 49.39                             149   -0.3810 79.8  40 
 PAM  EN ES        729  6.65                             149   -0.2310 79.8  40 
 PAM  EZ I         729  8.80        32.9 0.52            155           79.8  40 
 RUS  HZ EP        728 51.33                             143    0.2210 99.5 175 
 RUS  HN ES        729  9.45                             143    0.1810 99.5 175 
 RUS  HZ I         729 10.40        23.9 0.34            144           99.5 175 
 PTB  HZ EP        728 54.45                             132    0.20 9  145 259 
 PTB  HN ES        729 14.35                             132   -0.51 9  145 259 
 PTB  HZ I         729 21.82         9.8 0.30            131            145 259 
 SPBC HZ EP        728 55.68                             129   -0.12 9  161 219 
 SPBC HN ES        729 17.43                             129   -0.18 9  161 219 
 SPBC HZ I         729 20.98        24.4 0.14            128            161 219 
 NOR  HZ EP        729  2.88                             118   -0.18 8  232 234 
 NOR  HN ES        729 30.50                             118   -0.03 8  232 234 
 NOR  HZ I         729 38.44         8.5 0.26            118            232 234 
 CHI  HZ EP        729  4.91                             116   -0.20 8  247 195 
 CHI  HN ES        729 34.18                             116   -0.01 8  247 195 
 ROSC BZ EP   4    729  6.92                             116    1.43 0  251 211 
 ROSC BN ES   4    729 37.07                             116    2.21 0  251 211 
 ROSC BZ I         729 41.34        11.4 0.35            117            251 211 
 GUY2CHZ EP        729 12.17                             112    1.20 7  299 235 
 GUY2CHN ES        729 44.10                             112   -0.51 7  299 235 
 GUY2CHZ I         729 56.90         5.5 0.44                           299 235 
 PTGC HZ EP   4    729  9.93                             111   -1.54 0  308 158 
 PTGC HN ES   4    729 42.91                             111   -2.60 0  308 158 
 PTGC HZ I         729 48.08         8.7 0.32            113            308 158 
 CBOC HZ EP        729 14.91                             109    0.62 7  331 252 
 CBOC HN ES        729 50.34                             109   -0.19 7  331 252 
 CBOC HZ I         730  1.94         1.6 0.58            110            331 252 
                                                                                
