 2014  127 0629 24.8 L   7.186 -73.095144.0  RSN  6 0.5 1.3LRSN                1
 GAP=166        1.22       6.4     6.5  8.2 -0.5279E+01  0.6368E+01  0.1433E+02E
 Epicentro: BUCARAMANGA - SANTANDER                                            3
 ACTION:UPD 14-03-13 09:58 OP:ep   STATUS:               ID:20140127062924 L   I
 OLDACT:REG 14-01-27 08:27 OP:stll STATUS:               ID:20140127062813     3
 2014-01-27-0628-13M.COL___225                                                 6
 STAT SP IPHASW D HRMM SECON CODA AMPLIT PERI AZIMU VELO AIN AR TRES W  DIS CAZ7
 PAM  SZ EP        629 45.15                             161   -0.2010 46.9  69 
 PAM  SN ES        630  1.11                             161   -0.2310 46.9  69 
 PAM  SZ I         630  3.73         4.5 0.44            161           46.9  69 
 BAR2 SZ EP        629 46.86                             154    0.9810 66.3 188 
 BAR2 SZ ES        630  2.88                             154    0.5910 66.3 188 
 BAR2 SZ I         630  3.50         5.5 0.36            153           66.3 188 
 BRR  HZ EP        629 45.92                             153    0.2610 68.7 263 
 BRR  HZ I         629 46.44         4.0 0.16            154           68.7 263 
 BRR  HN ES        630  1.74                             153   -0.1610 68.7 263 
 RUS  HZ EP        629 51.71                             133   -0.18 9  143 179 
 RUS  HN ES        630 12.14                             133   -0.84 9  143 179 
 RUS  HZ I         630 14.04         0.8 0.68            133            143 179 
 PTB  HZ EP        629 52.87                             128   -0.56 9  167 245 
 PTB  HZ I         629 53.81         4.1 0.12            129            167 245 
 PTB  HN ES        630 15.66                             128   -0.07 9  167 245 
 CHI  HZ EP        630  7.15                             113   -0.03 7  291 194 
 CHI  HN ES        630 40.56                             113    0.36 7  291 194 
 CHI  HZ I         630 44.87         0.8 0.62            113            291 194 
                                                                                
