 2013  527 0752 35.9 L   6.343 -73.551112.8  RSN  4 0.1 1.0LRSN                1
 GAP=148        0.37       2.9     1.9  3.6  0.1530E+01  0.1533E+01 -0.1066E+01E
 Epicentro: CONTRATACION - SANTANDER                                           3
 ACTION:UPD 13-06-20 09:54 OP:ep   STATUS:               ID:20130527075235 L   I
 2013-05-27-0750-00M.COL___261                                                 6
 STAT SP IPHASW D HRMM SECON CODA AMPLIT PERI AZIMU VELO AIN AR TRES W  DIS CAZ7
 BAR2 SZ EP   1    752 52.61                             155    0.00 7 49.2  56 
 BAR2 SZ ES        753  5.72                             155    0.0810 49.2  56 
 BAR2 SZ I         753  6.83         4.1 0.18             47           49.2  56 
 RUS  HZ EP        752 54.53                             146    0.1810 71.8 134 
 RUS  HN ES        753  8.60                             146   -0.1410 71.8 134 
 RUS  HZ I         753 11.62         1.9 0.36             47           71.8 134 
 GIR2 SZ EP        752 55.15                             138   -0.1010 90.4  26 
 GIR2 SZ I         753 15.65         3.3 0.46             47           90.4  26 
 PTB  HZ EP        752 56.05                             134   -0.0510  103 282 
 PTB  HN ES        753 11.87                             134    0.0210  103 282 
 PTB  HZ I         753 13.53         1.9 0.26             47            103 282 
                                                                                
