 2016  727 0859 45.5 L   6.772 -73.176154.4  RSN  5 0.4 1.1LRSN                1
 GAP=232        0.95       7.4     6.8  6.9  0.3147E+02  0.4640E+01 -0.5194E+01E
 Epicentro: LOS SANTOS - SANTANDER                                             3
 ACTION:UPD 17-03-29 16:55 OP:lp   STATUS:               ID:20160727085945 L   I
 OLDACT:REG 16-07-27 13:42 OP:edw  STATUS:               ID:20160727085759     3
 2016-07-27-0857-59S.COL___337                                                 6
 STAT SP IPHASW D HRMM SECON CODA AMPLIT PERI AZIMU VELO AIN AR TRES W  DIS CAZ7
 BAR2 EZ EP        9 0  6.15                             172    0.0110 19.9 182 
 BAR2 EZ ES        9 0 21.85                             172   -0.3710 19.9 182 
 BAR2 EZ I         9 0 22.66         3.5 0.18            163           19.9 182 
 BRR  HZ EP        9 0  8.03                             154    0.4810 69.8 302 
 BRR  HN ES        9 0 24.91                             154    0.1910 69.8 302 
 RUS  HZ EP        9 0 10.41                             146    0.4610 97.8 174 
 RUS  HN ES        9 0 28.76                             146   -0.2410 97.8 174 
 RUS  HZ I         9 0 31.63         1.3 0.34            144           97.8 174 
 PTB  HZ EP        9 0 12.74                             135   -0.13 9  144 260 
 PTB  HE ES        9 0 34.44                             135    0.24 9  144 260 
 PTB  HZ I         9 0 40.99         1.4 0.46            128            144 260 
 ZAR  HZ EP        9 0 17.54                             124   -0.82 9  202 293 
 ZAR  HE ES        9 0 43.93                             124   -0.04 9  202 293 
 ZAR  HZ I         9 0 59.23         1.7 0.10            121            202 293 
                                                                                
