 2011  527 0108 51.1 L   6.781 -73.115145.6  RSN  8 0.4 1.8LRSN                1
 GAP=141        0.76       4.2     7.3  7.8 -0.7170E+01  0.3256E+01  0.6742E+01E
 Epicentro: LOS SANTOS - SANTANDER                                             3
 ACTION:UP  11-06-29 08:56 OP:tino STATUS:               ID:20110527010851 L   I
 2011-05-27-0106-07S.COL___115                                                 6
 STAT SP IPHASW D HRMM SECON CODA AMPLIT PERI AZIMU VELO SNR AR TRES W  DIS CAZ7
 BAR2 SZ EP   1    1 9 10.54                             171    -0.1 7   22 200 
 BTL  SZ EP   1    1 9 10.91                             171     0.2 7   23 312 
 BRR  HZ EP   1    1 9 12.32                             151    -0.1 7   75 299 
 BRR  HZ I         1 9 12.54        25.1 0.18                            75 299 
 BRR  HN ES   1    1 9 29.47                             151     0.3 7   75 299 
 PAM  SZ EP   1    1 9 13.45                             151     0.2 7   77  37 
 PAM  SZ I         1 9 13.71         6.1 0.16                            77  37 
 PAM  SN ES   1    1 9 30.60                             151     0.0 7   77  37 
 RUS  HZ EP   1    1 9 15.18                             144     0.5 7   98 178 
 RUS  HN ES   1    1 9 32.68                             144    -0.4 7   98 178 
 RUS  HZ I         1 9 34.68        11.0 0.31                            98 178 
 GRA  SZ EP   1    1 9 16.15                             137    -0.3 7  127  16 
 GRA  SZ I         1 9 37.19         8.5 0.25                           127  16 
 OCA  SZ ES   2    1 9 41.08                             129    -0.8 5  163 352 
 PRA  HZ EP   1    1 9 45.11                             106     0.5 4  392 210 
 PRA  HN ES   1    110 25.59                             106    -0.7 4  392 210 
                                                                                
