 2011  327 0448 38.3 L   6.801 -73.092148.9  RSN  5 0.5 1.5LRSN                1
 GAP=189        1.15      10.5    12.4 10.7 -0.9659E+02  0.9343E+00  0.1502E+02E
 Epicentro: LOS SANTOS - SANTANDER                                             3
 ACTION:UP  11-06-16 14:35 OP:jfem STATUS:               ID:20110327044838 L   I
 2011-03-27-0443-48S.COL___138                                                 6
 STAT SP IPHASW D HRMM SECON CODA AMPLIT PERI AZIMU VELO SNR AR TRES W  DIS CAZ7
 BTL  SZ EP        448 58.90                             171     0.610   23 304 
 BAR2 SZ EP   1    448 58.38                             170     0.0 7   25 204 
 BAR2 SZ ES   1    449 13.76                             170    -0.2 7   25 204 
 BAR2 SZ I         449 17.73         8.0 0.63                            25 204 
 BRR  HZ IP     C  449  0.23                             151     0.110   77 296 
 BRR  HZ I         449  0.46         6.0 0.13                            77 296 
 BRR  HN ES   1    449 17.23                             151     0.1 7   77 296 
 GRA  SZ EP        449  3.96                             138     0.310  124  15 
 GRA  SZ ES   1    449 22.71                             138    -0.8 7  124  15 
 GRA  SZ I         449 24.67         3.9 0.41                           124  15 
 NOR  SZ EP        449 13.91                             119    -0.9 8  240 235 
 NOR  SE ES        449 43.39                             119     0.2 8  240 235 
                                                                                
