 2015  427 0728 55.1 L   6.848 -73.118146.8  RSN  5 0.5 1.5LRSN                1
 GAP=220        1.36       8.6     9.2 10.4  0.1267E+02  0.7820E+01 -0.3340E+02E
 Epicentro: LOS SANTOS - SANTANDER                                             3
 ACTION:UPD 15-06-03 16:57 OP:cam  STATUS:               ID:20150427072855 L   I
 OLDACT:REG 15-04-27 13:01 OP:stll STATUS:               ID:20150427072748     3
 2015-04-27-0727-48M.COL___269                                                 6
 STAT SP IPHASW D HRMM SECON CODA AMPLIT PERI AZIMU VELO AIN AR TRES W  DIS CAZ7
 BAR2 EZ EP        729 15.16                             168    0.1910 29.2 194 
 BAR2 EZ ES        729 29.76                             168   -0.7210 29.2 194 
 BRR  HZ EP        729 17.26                             153    0.8910 71.6 294 
 BRR  HN ES        729 33.76                             153    0.7910 71.6 294 
 BRR  HZ I         729 37.71         4.3 0.32            150           71.6 294 
 PTB  HZ EP        729 22.18                             131   -0.33 9  152 257 
 PTB  HN ES        729 43.47                             131   -0.43 9  152 257 
 PTB  HZ I         729 45.76         4.3 0.16            132            152 257 
 ZAR  HZ EP        729 27.80                             122    0.11 9  205 290 
 ZAR  HN ES        729 53.17                             122    0.05 9  205 290 
 ZAR  HZ I         729 59.00         3.7 0.60            123            205 290 
 SML  HZ EP        729 31.21                             118   -0.18 8  240 334 
 SML  HE ES        729 58.94                             118   -0.77 8  240 334 
                                                                                
