 2015  327 0954 16.4 L   6.814 -73.115143.4  RSN  6 0.5 1.7LRSN                1
 GAP=159        1.17       5.0     6.3  8.2 -0.8088E+01  0.1408E+02 -0.1427E+01E
 Epicentro: LOS SANTOS - SANTANDER                                             3
 ACTION:UPD 15-04-30 16:29 OP:nd   STATUS:               ID:20150327095416 L   I
 OLDACT:REG 15-03-27 12:58 OP:fm   STATUS:               ID:20150327094749     3
 2015-03-27-0947-49M.COL___278                                                 6
 STAT SP IPHASW D HRMM SECON CODA AMPLIT PERI AZIMU VELO AIN AR TRES W  DIS CAZ7
 BAR2 EZ EP   1    954 35.15                             169   -0.66 7 25.6 197 
 BAR2 EZ ES        954 51.22                             169    0.2810 25.6 197 
 BAR2 EZ I         954 52.38        11.2 0.18            168           25.6 197 
 BRR  HZ EP   1    954 37.91                             151    0.46 7 73.5 296 
 BRR  HN ES        954 54.59                             151    0.7410 73.5 296 
 PAM  SZ EP        954 38.10                             152   -0.0810 74.1  38 
 PAM  SN ES        954 54.89                             152   -0.2810 74.1  38 
 PAM  SZ I         954 58.55         6.4 0.64            155           74.1  38 
 OCA  HZ EP   1    954 45.00                             129    0.56 7  159 352 
 OCA  HN ES        955  5.89                             129   -0.42 9  159 352 
 OCA  HZ I         955  7.96         9.1 0.28            131            159 352 
 SPBC HZ EP        954 45.29                             128    0.24 9  166 220 
 SPBC HN ES        955  6.88                             128   -0.51 9  166 220 
 SPBC HZ I         955 14.07         4.7 0.36            128            166 220 
 ZAR  HZ EP        954 49.46                             122    0.48 8  207 291 
 ZAR  HN ES        955 13.57                             122   -0.81 8  207 291 
 ZAR  HZ I         955 22.45         3.2 0.30            122            207 291 
                                                                                
