 2010  227 0102 13.3 L   6.841 -72.955144.0  RSN  7 0.4 2.0LRSN                1
 GAP=258        0.71       7.1    10.4  6.8  0.3384E+02  0.8051E+01  0.1574E+02E
 Epicentro: CEPITA - SANTANDER                                                 3
 ACTION:UP  10-08-24 09:51 OP:vdl  STATUS:               ID:20100227010213 L   I
 2010-02-27-0059-25S.COL___094                                                 6
 STAT SP IPHASW D HRMM SECON CODA AMPLIT PERI AZIMU VELO SNR AR TRES W  DIS CAZ7
 BAR2 SZ IP        1 2 33.38                             165     0.310   37 222 
 BAR2 SZ ES   1    1 2 48.04                             165    -0.5 7   37 222 
 BRR  HZ EP   1    1 2 35.21                             146    -0.1 7   89 289 
 BRR  HE ES   1    1 2 52.69                             146     0.1 7   89 289 
 BRR  HZ I         1 2 54.35        18.1 0.22                            89 289 
 RUS  BZ EP        1 2 37.28                             142     0.010  106 188 
 RUS  BE ES   2    1 2 56.18                             142     0.2 5  106 188 
 RUS  BZ I         1 2 57.23         9.2 0.32                           106 188 
 CHI  HZ EP   3    1 2 51.91                             115    -0.2 2  259 199 
 CHI  HN ES   2    1 3 22.22                             115    -0.1 4  259 199 
 CHI  HZ I         1 3 26.58         4.1 0.19                           259 199 
 HEL  HZ EP   2    1 2 55.35                             112    -0.5 4  294 256 
 HEL  HZ I         1 3 31.32         3.6 0.41                           294 256 
 RREF BZ EP   1    1 3  2.16                             109     0.6 5  341 231 
 RREF BZ I         1 3 44.88         4.8 0.30                           341 231 
 PRA  HZ EP   1    1 3  7.62                             105    -0.9 4  407 212 
 PRA  HE ES   3    1 3 52.42                             105     0.9 1  407 212 
 PRA  HZ I         1 3 55.09         4.9 0.38                           407 212 
                                                                                
