 2011  827 0653 48.3 L   6.789 -73.070142.5  RSN 13 0.4 2.5LRSN                1
 GAP=147        0.75       3.0     5.1  4.7 -0.3030E+01  0.3253E+01  0.2039E+01E
 Epicentro: LOS SANTOS - SANTANDER                                             3
 ACTION:UPD 12-07-13 15:54 OP:ep   STATUS:               ID:20110827065348 L   I
 2011-08-27-0640-00M.COL___162                                                 6
 STAT SP IPHASW D HRMM SECON CODA AMPLIT PERI AZIMU VELO AIN AR TRES W  DIS CAZ7
 BAR2 SZ IP        654  7.61                             170    0.0410 25.1 210 
 BAR2 SZ ES   1    654 22.19                             170   -0.41 7 25.1 210 
 BAR2 SZ I         654 25.05        79.6 0.22                          25.1 210 
 GIR2 SZ EP        654  7.62                             166   -0.0610 34.8 337 
 GIR2 SZ ES   1    654 23.17                             166    0.37 7 34.8 337 
 PAM  SZ EP   1    654 10.43                             151    0.51 7 73.3  34 
 BRR  HZ IP     C  654  9.40                             149   -0.1710 79.2 296 
 BRR  HN ES   1    654 26.20                             149    0.04 7 79.2 296 
 BRR  HZ I         654 27.20        80.7 0.12                          79.2 296 
 RUS  HZ EP        654 11.47                             143   -0.1510 99.1 181 
 RUS  HN ES   1    654 29.53                             143   -0.28 7 99.1 181 
 RUS  HZ I         654 32.16        55.1 0.30                          99.1 181 
 BRI  SZ EP        654 12.09                             141    0.3310  107  16 
 OCA  SZ EP        654 16.23                             128   -0.35 9  163 350 
 OCA  SZ ES   2    654 38.53                             128   -0.12 5  163 350 
 OCA  SZ I         654 46.84        30.5 0.26                           163 350 
 NOR  SZ EP   1    654 23.60                             117   -0.91 6  241 236 
 NOR  SZ I         654 55.21         3.9 0.26                           241 236 
 CHI  HZ EP        654 26.07                             116    0.13 8  250 197 
 CHI  HN ES   1    654 55.91                             116    0.61 6  250 197 
 CHI  HZ I         654 59.19        12.7 0.31                           250 197 
 ROSC BZ EP   1    654 27.19                             116    0.58 6  256 213 
 ROSC BZ I         655  2.61        45.7 0.31                           256 213 
 HEL  HZ EP   1    654 29.15                             113   -0.07 6  280 256 
 HEL  HN ES   1    655  1.63                             113    0.49 6  280 256 
 HEL  HZ I         655  6.03        16.0 0.37                           280 256 
 RREF HZ EP   1    654 35.34                             110    0.40 5  327 230 
 RREF HZ I         655 18.89        14.1 0.22                           327 230 
 PRA  HZ EP   1    654 41.11                             106   -0.96 4  395 211 
 PRA  HZ I         655 30.70        56.7 0.25                           395 211 
                                                                                
