 2011 1027 0402 18.1 L   6.808 -73.092149.9  RSN  5 0.2 1.7LRSN                1
 GAP=143        0.36       3.4     3.7  4.9  0.2165E+01  0.4359E+00  0.2451E+00E
 Epicentro: LOS SANTOS - SANTANDER                                             3
 ACTION:UPD 12-07-13 16:06 OP:ep   STATUS:               ID:20111027040218 L   I
 2011-10-27-0357-33S.COL___169                                                 6
 STAT SP IPHASW D HRMM SECON CODA AMPLIT PERI AZIMU VELO AIN AR TRES W  DIS CAZ7
 BAR2 SZ EP   1    4 2 37.99                             170   -0.25 7 25.8 203 
 BAR2 SZ ES   2    4 2 54.00                             170    0.02 5 25.8 203 
 BAR2 SZ I         4 2 54.23         6.4 0.13                          25.8 203 
 PAM  SZ EP   1    4 2 40.61                             153    0.13 7 73.1  36 
 PAM  SN ES   2    4 2 57.85                             153   -0.10 5 73.1  36 
 BRR  HZ EP   1    4 2 39.86                             152   -0.07 7 76.1 296 
 BRR  HZ I         4 2 41.38        17.9 0.15                          76.1 296 
 BRR  HN ES   2    4 2 57.23                             152    0.24 5 76.1 296 
 RUS  HZ EP   1    4 2 42.46                             144    0.19 7  101 179 
 RUS  HN ES   2    4 3  1.05                             144   -0.09 5  101 179 
 RUS  HZ I         4 3  2.69         3.1 0.47                           101 179 
 ZAR  HN ES   2    4 3 17.15                             122   -0.09 4  209 291 
 ZAR  HZ I         4 3 21.81         9.8 0.36                           209 291 
                                                                                
