 2016 1227 0107 57.1 L   6.774 -73.143154.5  RSN  4 0.1 1.3LRSN                1
 GAP=236        0.38       2.9     3.3  3.7  0.5006E+01 -0.7398E+00  0.4001E+00E
 Epicentro: LOS SANTOS - SANTANDER                                             3
 ACTION:UPD 17-01-11 20:19 OP:rebc STATUS:               ID:20161227010757 L   I
 OLDACT:UP  16-12-27 14:37 OP:edw  STATUS:               ID:20161227005743d    3
 OLDACT:DUP 16-12-27 14:31 OP:edw  STATUS:               ID:20161227005743d    3
 OLDACT:UP  16-12-27 14:28 OP:edw  STATUS:               ID:20161227005742     3
 OLDACT:UP  16-12-27 14:28 OP:edw  STATUS:               ID:20161227005742     3
 OLDACT:REG 16-12-27 12:48 OP:edw  STATUS:               ID:20161227005742     3
 2016-12-27-0058-00M.COL___372                                                 6
 STAT SP IPHASW D HRMM SECON CODA AMPLIT PERI AZIMU VELO AIN AR TRES W  DIS CAZ7
 BRR  HZ EP        1 8 19.25                             153   -0.0610 72.9 300 
 BRR  HE ES        1 8 36.75                             153    0.1310 72.9 300 
 BRR  HZ I         1 8 36.93         8.7 0.32            152           72.9 300 
 RUS  HZ EP        1 8 21.66                             146    0.1210 97.7 176 
 RUS  HN ES        1 8 40.46                             146   -0.1410 97.7 176 
 RUS  HZ I         1 8 41.04         1.1 0.32            145           97.7 176 
 PTB  HZ EP        1 8 24.72                             134   -0.07 9  148 260 
 PTB  HN ES        1 8 46.29                             134   -0.09 9  148 260 
 PTB  HZ I         1 8 49.12         1.9 0.16            132            148 260 
 CHI  HZ EP   2    1 8 35.20                             119    0.17 4  246 195 
 CHI  HE ES   2    1 9  5.00                             119    0.39 4  246 195 
                                                                                
