 2014 1027 0917 24.3 L   6.788 -73.107146.0  RSN 15 0.5 2.0LRSN                1
 GAP=142        1.09       4.0     5.5  5.8 -0.3928E+01  0.1022E+02  0.2645E+01E
 Epicentro: LOS SANTOS - SANTANDER                                             3
 ACTION:UPD 14-11-29 23:57 OP:nd   STATUS:               ID:20141027091724 L   I
 OLDACT:UP  14-10-30 10:22 OP:mh   STATUS:               ID:20141027090744d    3
 OLDACT:UP  14-10-30 10:21 OP:mh   STATUS:               ID:20141027090744d    3
 OLDACT:UP  14-10-30 10:19 OP:mh   STATUS:               ID:20141027090744d    3
 OLDACT:UP  14-10-30 10:18 OP:mh   STATUS:               ID:20141027090744d    3
 OLDACT:UP  14-10-30 10:17 OP:mh   STATUS:               ID:20141027090744d    3
 OLDACT:DUP 14-10-30 10:11 OP:mh   STATUS:               ID:20141027090744d    3
 OLDACT:UP  14-10-30 10:11 OP:mh   STATUS:               ID:20141027090743     3
 OLDACT:UP  14-10-30 10:10 OP:mh   STATUS:               ID:20141027090743     3
 OLDACT:UP  14-10-30 10:10 OP:mh   STATUS:               ID:20141027090743     3
 OLDACT:REG 14-10-29 20:12 OP:spq  STATUS:               ID:20141027090743     3
 2014-10-27-0907-43M.COL___271                                                 6
 STAT SP IPHASW D HRMM SECON CODA AMPLIT PERI AZIMU VELO AIN AR TRES W  DIS CAZ7
 BAR2 SZ EP        917 44.05                             171    0.0410 23.2 201 
 BAR2 SZ ES        917 59.16                             171   -0.1810 23.2 201 
 BAR2 SZ I         918  0.71        58.8 0.10            168           23.2 201 
 BRR  HZ EP        917 45.91                             151    0.1410 75.6 298 
 BRR  HN ES        918  3.12                             151    0.6310 75.6 298 
 BRR  HZ I         918  7.45        13.0 0.32            146           75.6 298 
 PAM  SZ EP   2    917 46.82                             152    0.33 5 75.8  36 
 PAM  SN ES        918  4.20                             152    0.4310 75.8  36 
 PAM  SZ I         918 11.74                             154           75.8  36 
 RUS  HZ EP        917 48.04                             144    0.0210 99.1 178 
 RUS  HN ES        918  6.40                             144   -0.0810 99.1 178 
 RUS  HZ I         918  8.24        10.6 0.29            149           99.1 178 
 PTB  HZ EP        917 50.80                             131   -0.90 9  152 260 
 PTB  HN ES   4    918 12.19                             131   -0.84 0  152 260 
 PTB  HZ I         918 19.95        13.1 1.00            130            152 260 
 OCA  HZ EP        917 52.01                             129   -0.84 9  162 352 
 OCA  HN ES   1    918 14.60                             129   -0.48 7  162 352 
 OCA  HZ I         918 19.56        15.9 0.46            130            162 352 
 SPBC HZ EP   1    917 52.92                             129   -0.11 7  165 220 
 SPBC HN ES        918 14.99                             129   -0.41 9  165 220 
 SPBC HZ I         918 19.19        16.1 0.07            130            165 220 
 CHI  HZ EP        918  1.91                             117   -0.14 8  249 196 
 CHI  HZ I         918  3.93         4.8 0.14            120            249 196 
 CHI  HN ES   4    918 34.29                             117    2.83 0  249 196 
 HEL  HZ EP        918  5.76                             115    0.76 7  276 256 
 HEL  HN ES   4    918 39.83                             115    3.13 0  276 256 
 HEL  HZ I         918 44.27         3.8 0.27            115            276 256 
 URE  HZ EP   9    918  4.71                             113   -1.22 0  288 292 
 URE  HN ES   2    918 36.32                             114   -0.82 4  288 292 
 URE  HZ I         918 48.85         4.9 0.75            114            288 292 
 GUY2CHZ EP   9    918  9.40                             112    1.12 0  304 235 
 GUY2CHN ES   1    918 43.87                             113    0.20 5  304 235 
 CBOC HZ EP        918 12.30                             110    0.61 7  337 253 
 CBOC HN ES        918 48.26                             110   -0.36 7  337 253 
 CBOC HZ I         918 55.29         1.8 0.21            111            337 253 
 TOL  SZ EP   1    918 13.83                             109    0.97 5  346 225 
 TOL  SN ES   4    918 49.87                             109   -0.82 0  346 225 
 MON  HZ EP   9    918 10.89                             108   -2.95 0  358 308 
 MON  HN ES        918 49.95                                    0.46 6  358 308 
 ORTC HN EP        918 19.36                             106    0.91 6  397 217 
 ORTC HE ES   4    918 59.99                             106   -0.66 0  397 217 
                                                                                
