 2011 1227 0335  8.7 L   6.792 -73.181140.5  RSN  6 0.3 1.4LRSN                1
 GAP=176        0.69       5.6     5.3  7.0  0.1085E+02  0.1181E+02  0.1663E+01E
 Epicentro: LOS SANTOS - SANTANDER                                             3
 ACTION:UPD 12-07-13 16:18 OP:ep   STATUS:               ID:20111227033508 L   I
 2011-12-27-0330-00M.COL___187                                                 6
 STAT SP IPHASW D HRMM SECON CODA AMPLIT PERI AZIMU VELO AIN AR TRES W  DIS CAZ7
 BAR2 SZ EP   1    335 27.47                             171   -0.20 7 22.1 180 
 BAR2 SZ ES   1    335 42.20                             171   -0.28 7 22.1 180 
 BAR2 SZ I         335 43.68         7.0 0.18                          22.1 180 
 GIR2 SZ EP   1    335 27.68                             167   -0.08 7 31.7 357 
 GIR2 SZ ES   1    335 42.57                             167   -0.06 7 31.7 357 
 BRR  HZ EP   1    335 29.50                             153    0.39 7 68.2 301 
 BRR  HZ I         335 49.36         5.9 0.17                          68.2 301 
 RUS  HZ EP   1    335 31.92                             143    0.02 7  100 174 
 RUS  HN ES   1    335 50.51                             143    0.51 7  100 174 
 RUS  HZ I         335 51.66         2.5 0.21                           100 174 
 PTB  HZ EP   1    335 34.38                             132   -0.50 7  144 259 
 PTB  HN ES   1    335 54.98                             132   -0.32 7  144 259 
 ZAR  HN ES   1    336  5.82                             122    0.57 6  201 293 
 ZAR  HZ I         336 14.18         3.6 0.10                           201 293 
                                                                                
