 2010 1127 0746  7.5 L   6.759 -73.008151.6  RSN  7 0.3 1.6LRSN                1
 GAP=175        0.55       4.2     7.7 10.2 -0.8504E+01  0.3302E+02 -0.1924E+02E
 Epicentro: CEPITA - SANTANDER                                                 3
 ACTION:UP  10-12-17 16:55 OP:REBC STATUS:               ID:20101127074607 L   I
 2010-11-27-0743-17S.COL___132                                                 6
 STAT SP IPHASW D HRMM SECON CODA AMPLIT PERI AZIMU VELO SNR AR TRES W  DIS CAZ7
 BAR2 SZ IP        746 27.90                             170     0.010   27 226 
 BRR  HZ EP   1    746 29.86                             149    -0.4 7   87 296 
 BRR  HZ I         746 49.49        15.8 0.15                            87 296 
 RUS  HZ EP   1    746 31.71                             146     0.1 7   96 185 
 RUS  HN ES   1    746 50.39                             146     0.1 7   96 185 
 RUS  HZ I         746 52.37         2.7 0.34                            96 185 
 GRA  SZ EP   2    746 33.74                             138     0.4 5  126  10 
 GRA  SZ I         746 54.42         6.7 0.31                           126  10 
 OCA  SZ EP   2    746 36.97                             130     0.0 5  167 348 
 OCA  SZ I         747  3.26         4.8 0.42                           167 348 
 CHI  HZ EP   2    746 45.77                             118     0.2 4  249 199 
 CHI  HE ES   1    747 14.98                             118    -0.3 6  249 199 
 CHI  HZ I         747 24.02         2.3 0.61                           249 199 
 HEL  HZ EP   2    746 49.53                             115     0.0 4  286 257 
 HEL  HN ES   2    747 23.04                             115     0.7 4  286 257 
 HEL  HZ I         747 28.58         2.4 0.21                           286 257 
                                                                                
