 2015 1027 0054 10.9 L   6.788 -73.135141.1  RSN  9 0.3 1.7LRSN                1
 GAP=138        0.72       2.6     3.1  4.3  0.9848E-01  0.4660E+01  0.1907E+01E
 Epicentro: LOS SANTOS - SANTANDER                                             3
 ACTION:UPD 15-12-22 20:43 OP:cam  STATUS:               ID:20151027005411dL   I
 OLDACT:DUP 15-10-27 14:12 OP:mh   STATUS:               ID:20151027004749d    3
 OLDACT:UP  15-10-27 14:12 OP:mh   STATUS:               ID:20151027004748     3
 OLDACT:REG 15-10-27 12:24 OP:mh   STATUS:               ID:20151027004748     3
 2015-10-27-0047-48M.COL___310                                                 6
 STAT SP IPHASW D HRMM SECON CODA AMPLIT PERI AZIMU VELO AIN AR TRES W  DIS CAZ7
 BAR2 EZ EP        054 29.92                             171   -0.0610 22.3 194 
 BAR2 EZ ES        054 44.75                             171   -0.0910 22.3 194 
 BAR2 EZ I         054 45.76        10.6 0.68            169           22.3 194 
 BRR  HZ EP        054 31.55                             151   -0.1210 72.9 299 
 BRR  HN ES        054 48.08                             151    0.2310 72.9 299 
 BRR  HZ I         054 49.80         8.9 0.16            150           72.9 299 
 PAM  EZ EP        054 32.69                             150    0.0210 77.6  38 
 PAM  EN ES        054 49.49                             150   -0.1310 77.6  38 
 PAM  EZ I         054 51.72         7.6 0.44            153           77.6  38 
 RUS  HZ EP        054 34.01                             143   -0.1110 99.2 177 
 RUS  HN ES        054 52.55                             143    0.3310 99.2 177 
 RUS  HZ I         054 53.21         7.2 0.28            144           99.2 177 
 SPBC HZ EP        054 38.91                             128   -0.14 9  163 220 
 SPBC HN ES        055  1.09                             128    0.11 9  163 220 
 SPBC HZ I         055  5.11         6.6 0.16            128            163 220 
 ZAR  HZ EP        054 43.73                             121    0.49 8  206 292 
 ZAR  HN ES        055  8.10                             121   -0.34 8  206 292 
 ZAR  HZ I         055 12.87         7.7 0.46            121            206 292 
 CHI  HZ EP        054 47.81                             116   -0.46 8  248 196 
 CHI  HN ES        055 17.31                             116   -0.09 8  248 196 
 CHI  HZ I         055 20.30         3.1 0.34            117            248 196 
 HEL  HZ EP        054 51.76                             114    0.76 8  273 256 
 HEL  HN ES        055 21.84                             114   -0.42 8  273 256 
 HEL  HZ I         055 27.72         2.9 0.36            114            273 256 
 URE  HZ EP   4    054 50.30                             112   -1.66 0  285 292 
 URE  HN ES   4    055 20.16                             112   -3.80 0  285 292 
 URE  HZ I         055 25.30         4.9 0.14            113            285 292 
                                                                                
