 2017  827 0241 36.8 L   6.773 -73.117148.0  RSN  8 0.4 1.5LRSN                1
 GAP=141        0.94       3.7     4.2  6.0 -0.2966E+01  0.9037E+01  0.1656E+01E
 Epicentro: LOS SANTOS - SANTANDER                                             3
 ACTION:UPD 17-09-04 20:25 OP:rebc STATUS:               ID:20170827024136 L   I
 OLDACT:UP  17-08-27 15:33 OP:edw  STATUS:               ID:20170827023736     3
 OLDACT:UP  17-08-27 15:33 OP:edw  STATUS:               ID:20170827023736     3
 OLDACT:REG 17-08-27 13:05 OP:edw  STATUS:               ID:20170827023736     3
 2017-08-27-0238-00M.COL___411                                                 6
 STAT SP IPHASW D HRMM SECON CODA AMPLIT PERI AZIMU VELO AIN AR TRES W  DIS CAZ7
 BAR2 EZ EP        241 56.48                             171   -0.1810 21.3 200 
 BAR2 EZ ES        242 11.76                             171   -0.3910 21.3 200 
 BAR2 EZ I         242 13.09         5.0 0.36            168           21.3 200 
 BRR  HZ EP        241 58.64                             151    0.2110 75.4 299 
 BRR  HN ES        242 15.77                             151    0.4710 75.4 299 
 PAM  EZ EP        241 58.81                             151   -0.4610 77.7  36 
 PAM  EN ES        242 16.82                             151    0.0210 77.7  36 
 RUS  HZ EP        242  0.86                             145    0.3110 97.5 178 
 RUS  HN ES        242 19.37                             145    0.2910 97.5 178 
 RUS  HZ I         242 20.22         2.1 0.34            146           97.5 178 
 SPBC HZ EP        242  5.19                             130   -0.26 9  163 221 
 SPBC HN ES        242 27.90                             130    0.10 9  163 221 
 SPBC HZ I         242 33.06         4.2 0.12            129            163 221 
 ZAR  HZ EP        242 10.54                             122    0.73 8  208 293 
 ZAR  HN ES        242 35.09                             122   -0.47 8  208 293 
 ZAR  HZ I         242 40.82         3.6 0.28            122            208 293 
 NOR  HZ EP        242 12.71                             119   -0.05 8  236 235 
 NOR  HN ES        242 40.16                             119   -0.65 8  236 235 
 NOR  HZ I         242 45.82         2.9 0.24            119            236 235 
 GUY2CHZ EP   4    242 22.21                             113    1.59 0  302 236 
 GUY2CHN ES        242 55.10                             113    0.30 7  302 236 
 GUY2CHZ I         243  3.71         1.7 0.34                           302 236 
                                                                                
