 2015  727 0942 14.7 L   6.832 -73.081143.3  RSN 11 0.3 2.1LRSN                1
 GAP=190        0.72       1.9     3.7  4.4 -0.9292E-01  0.6976E+01  0.2235E+00E
 Epicentro: LOS SANTOS - SANTANDER                                             3
 ACTION:UPD 15-09-08 21:50 OP:cam  STATUS:               ID:20150727094214 L   I
 OLDACT:UP  15-07-27 18:00 OP:drio STATUS:               ID:20150727093744     3
 OLDACT:REG 15-07-27 13:02 OP:drio STATUS:               ID:20150727093744     3
 2015-07-27-0937-44M.COL___328                                                 6
 STAT SP IPHASW D HRMM SECON CODA AMPLIT PERI AZIMU VELO AIN AR TRES W  DIS CAZ7
 BAR2 EZ EP        942 34.58                             168    0.4110 28.8 203 
 BAR2 EZ ES        942 49.50                             168    0.1510 28.8 203 
 BAR2 EZ I         942 50.85        32.0 0.18            163           28.8 203 
 RUS  HZ EP        942 38.20                             142   -0.2710  104 180 
 RUS  HE ES        942 56.79                             142   -0.2110  104 180 
 RUS  HZ I         942 58.01         7.0 0.22            144            104 180 
 OCA  HZ EP        942 42.58                             130   -0.01 9  158 350 
 OCA  HE ES        943  4.39                             130    0.05 9  158 350 
 OCA  HZ I         943  7.71        27.3 0.20            131            158 350 
 ZAR  HZ EP        942 47.66                             121    0.11 8  209 291 
 ZAR  HN ES        943 12.79                             121   -0.38 8  209 291 
 ZAR  HZ I         943 20.96        10.4 0.36            120            209 291 
 SML  HZ EP        942 51.02                             117   -0.16 8  244 333 
 SML  HE ES        943 19.46                             117   -0.17 8  244 333 
 SML  HZ I         943 25.36        11.9 0.26            118            244 333 
 CHI  HZ EP        942 52.55                             116   -0.31 8  254 197 
 CHI  HN ES        943 22.62                             116   -0.00 8  254 197 
 CHI  HZ I         943 29.01         5.4 0.42            117            254 197 
 HEL  HZ EP        942 55.91                             114    0.25 7  280 255 
 HEL  HE ES        943 28.22                             114    0.61 7  280 255 
 HEL  HZ I         943 35.53         4.5 0.38            113            280 255 
 GUY2CHZ EP        942 59.65                             111    0.55 7  309 235 
 GUY2CHN ES        943 33.19                             111   -0.53 7  309 235 
 GUY2CHZ I         943 41.03         8.2 0.34                           309 235 
 TOL  SZ EP        943  4.12                             108    0.38 6  351 225 
 TOL  SN ES        943 41.86                             108   -0.12 6  351 225 
 TOL  SZ I         943 50.87         5.0 0.42            109            351 225 
 ORTC HZ EP        943  9.73                             106    0.35 6  403 217 
 ORTC HE ES        943 52.14                             106    0.12 6  403 217 
 ORTC HZ I         943 58.76         4.7 0.36            106            403 217 
 SJC  HZ EP   4    943  8.48                             105   -1.82 0  410 326 
 SJC  HN ES   4    943 48.27                             105   -5.40 0  410 326 
 PAL  HZ EP        943  9.84                             105   -0.88 6  414 239 
 PAL  HN ES   4    943 50.52                             105   -3.89 0  414 239 
 PAL  HZ I         944  0.17         1.9 0.40            106            414 239 
                                                                                
