 2013  527 0320 12.3 L   6.787 -73.145142.0  RSN 19 0.5 2.5LRSN 3.0WRSN        1
 SPEC AVERAGE  MO 13.5 ST  2.0 OM  1.9 f0 3.33 R0.4906 AL 2.14 WI 15.1 MW  3.0 3
 SPEC SD       MO  0.2 ST  1.9 OM  0.3 f00.777 R0.1176 AL      WI      MW  0.2 3
 GAP= 66        1.03       2.5     3.0  4.7 -0.8620E+00  0.4088E+01  0.1872E+01E
 Epicentro: LOS SANTOS - SANTANDER                                             3
 SPEC TAM HH N MO 13.8 ST0.962 OM  2.1 f0 2.32 R0.6698 AL 2.62 WI 11.0 MW  3.2 3
 SPEC TAM HH N T 32059 K 0.000 GD  210 VS 4.20 DE 3.20 Q0300.0 QA 0.60 VS 4.20 3
 SPEC PTB HH N MO 13.5 ST  2.2 OM  1.8 f0 3.88 R0.4005 AL 1.82 WI 14.0 MW  2.9 3
 SPEC PTB HH N T 32057 K 0.000 GD  205 VS 4.20 DE 3.20 Q0300.0 QA 0.60 VS 4.20 3
 SPEC RUS HH N MO 13.3 ST0.354 OM  1.7 f0 2.41 R0.6448 AL 2.06 WI 14.3 MW  2.8 3
 SPEC RUS HH N T 32051 K 0.000 GD  173 VS 4.20 DE 3.20 Q0300.0 QA 0.60 VS 4.20 3
 SPEC PRA HH N MO 13.6 ST0.626 OM  1.6 f0 2.35 R0.6613 AL 1.51 WI 21.7 MW  3.0 3
 SPEC PRA HH N T 32143 K 0.000 GD  415 VS 4.20 DE 3.20 Q0300.0 QA 0.60 VS 4.20 3
 SPECGUY2CHH N MO 14.0 ST  2.8 OM  2.1 f0 2.85 R0.5460 AL 3.05 WI 18.9 MW  3.3 3
 SPECGUY2CHH N T 32127 K 0.000 GD  331 VS 4.20 DE 3.20 Q0300.0 QA 0.60 VS 4.20 3
 SPEC HEL HH N MO 13.6 ST0.993 OM  1.7 f0 2.81 R0.5530 AL 2.18 WI 17.1 MW  3.0 3
 SPEC HEL HH N T 32123 K 0.000 GD  306 VS 4.20 DE 3.20 Q0300.0 QA 0.60 VS 4.20 3
 SPEC OCA HH N MO 14.0 ST  6.6 OM  2.3 f0 3.75 R0.4144 AL 2.17 WI 17.5 MW  3.3 3
 SPEC OCA HH N T 321 1 K 0.000 GD  215 VS 4.20 DE 3.20 Q0300.0 QA 0.60 VS 4.20 3
 SPEC PAM SH N MO 13.5 ST  1.0 OM  1.9 f0 3.02 R0.5146 AL 2.65 WI 13.8 MW  2.9 3
 SPEC PAM SH N T 32050 K 0.000 GD  162 VS 4.20 DE 3.20 Q0300.0 QA 0.60 VS 4.20 3
 SPEC ARGCHH N MO 13.7 ST  1.6 OM  1.7 f0 3.02 R0.5146 AL 1.85 WI 18.0 MW  3.1 3
 SPEC ARGCHH N T 32138 K 0.000 GD  387 VS 4.20 DE 3.20 Q0300.0 QA 0.60 VS 4.20 3
 SPEC COD HH N MO 13.5 ST  1.0 OM  1.5 f0 3.10 R0.5013 AL 1.94 WI 21.3 MW  2.9 3
 SPEC COD HH N T 32134 K 0.000 GD  377 VS 4.20 DE 3.20 Q0300.0 QA 0.60 VS 4.20 3
 SPEC CHI HH N MO 13.6 ST  4.2 OM  1.8 f0 4.33 R0.3589 AL 2.68 WI 15.8 MW  3.0 3
 SPEC CHI HH N T 32115 K 0.000 GD  284 VS 4.20 DE 3.20 Q0300.0 QA 0.60 VS 4.20 3
 SPEC BRR HH N MO 13.6 ST  4.7 OM  2.0 f0 4.65 R0.3342 AL 2.97 WI 14.8 MW  3.0 3
 SPEC BRR HH N T 32050 K 0.000 GD  159 VS 4.20 DE 3.20 Q0300.0 QA 0.60 VS 4.20 3
 SPEC GIR2SH Z MO 13.0 ST0.672 OM  1.4 f0 3.98 R0.3905 AL 1.70 WI  9.6 MW  2.6 3
 SPEC GIR2SH Z T 32045 K 0.000 GD  145 VS 4.20 DE 3.20 Q0300.0 QA 0.60 VS 4.20 3
 SPEC BAR2SH Z MO 13.2 ST0.843 OM  1.6 f0 3.70 R0.4200 AL 1.66 WI  7.1 MW  2.7 3
 SPEC BAR2SH Z T 32046 K 0.000 GD  143 VS 4.20 DE 3.20 Q0300.0 QA 0.60 VS 4.20 3
 ACTION:UPD 13-06-20 09:54 OP:ep   STATUS:               ID:20130527032012 L   I
 2013-05-27-0320-00M.COL___261                                                 6
 STAT SP IPHASW D HRMM SECON CODA AMPLIT PERI AZIMU VELO AIN AR TRES W  DIS CAZ7
 BAR2 SZ IP     C  320 31.61                             171    0.1810 22.0 191 
 BAR2 SZ ES        320 46.62                             171    0.2610 22.0 191 
 BAR2 SZ I         320 49.33        71.0 0.28            169           22.0 191 
 GIR2 SZ EP        320 31.73                             166    0.1910 32.6 351 
 GIR2 SZ ES        320 45.94                             166   -0.6310 32.6 351 
 GIR2 SZ I         320 48.56        41.1 0.44            168           32.6 351 
 BRR  HZ EP     D  320 33.73                             152    0.6610 71.9 299 
 BRR  HN ES   3    320 50.47                             152    1.20 2 71.9 299 
 BRR  HZ I         320 54.97        40.8 0.12            155           71.9 299 
 PAM  SZ EP        320 34.44                             150    0.2810 78.4  39 
 PAM  SN ES        320 51.70                             150    0.4810 78.4  39 
 PAM  SZ I         320 53.93        55.9 0.19            149           78.4  39 
 RUS  HZ IP     D  320 35.46                             143   -0.1010 99.2 176 
 RUS  HN ES        320 53.33                             143   -0.3910 99.2 176 
 RUS  HZ I         320 55.47        25.8 0.44            141           99.2 176 
 PTB  HZ EP        320 38.21                             131   -0.72 9  148 259 
 PTB  HN ES        320 59.03                             131   -0.67 9  148 259 
 PTB  HZ I         321  5.52        62.7 0.26            132            148 259 
 TAM  HZ IP     D  320 39.77                             130    0.14 9  155 104 
 TAM  HZ I         321  0.61        29.0 0.40            128            155 104 
 TAM  HN ES   2    321  1.20                             130    0.25 5  155 104 
 OCA  HZ EP        320 39.80                             128   -0.63 9  162 353 
 OCA  HN ES        321  2.32                             128   -0.07 9  162 353 
 OCA  HZ I         321  7.04        34.0 0.18            129            162 353 
 YOP  SZ EP        320 42.13                             126    0.20 9  178 153 
 YOP  SE ES   4    321  6.43                             126    1.37 0  178 153 
 YOP  SZ I         321 20.62        21.8 0.34            124            178 153 
 ZAR  HZ EP        320 43.90                             121   -0.65 9  205 292 
 ZAR  HN ES        321  9.80                             121    0.09 9  205 292 
 ZAR  HZ I         321 16.01        44.9 0.28            122            205 292 
 NOR  HZ EP        320 47.54                             118   -0.17 8  234 235 
 NOR  HN ES        321 15.89                             118    0.54 8  234 235 
 NOR  HZ I         321 19.37        34.6 0.22            118            234 235 
 SML  HZ EP        320 48.28                             116   -0.56 8  245 335 
 SML  HN ES        321 17.66                             116    0.31 8  245 335 
 SML  HZ I         321 20.17        74.3 0.26            117            245 335 
 CHI  HZ EP        320 49.70                             116    0.07 8  247 195 
 CHI  HN ES        321 18.56                             116   -0.20 8  247 195 
 CHI  HZ I         321 22.93        14.5 0.36            116            247 195 
 HEL  HZ EP        320 52.96                             114    0.68 8  272 256 
 HEL  HN ES        321 24.08                             114    0.61 8  272 256 
 HEL  HZ I         321 30.37        17.1 0.34            114            272 256 
 URE  HZ EP   4    320 51.45                             113   -1.79 0  284 292 
 URE  HN ES   4    321 21.71                             113   -3.47 0  284 292 
 URE  HZ I         321 25.37        20.9 0.14            113            284 292 
 GUY2CHZ EP        320 55.95                             112    0.32 7  300 235 
 GUY2CHN ES        321 30.03                             112    0.58 7  300 235 
 GUY2CHZ I         321 38.35        24.1 0.30                           300 235 
 RREF HZ EP   4    320 59.67                             110    1.50 0  321 230 
 RREF HN ES        321 33.98                             110    0.03 7  321 230 
 RREF HZ I         321 40.25        19.5 0.26            110            321 230 
 COD  HZ EP   4    320 59.64                             108   -1.04 0  350 355 
 COD  HN ES   4    321 36.01                             108   -2.41 0  350 355 
 ARGC HZ EP   4    321  1.86                             107   -0.09 0  361 340 
 ARGC HN ES   4    321 38.76                             107   -1.93 0  361 340 
 ARGC HZ I         321 43.04         8.2 0.22            108            361 340 
 PRA  HZ EP        321  5.12                             106   -0.42 6  391 210 
 PRA  HN ES        321 46.50                             106   -0.58 6  391 210 
 PRA  HZ I         321 53.09        21.3 0.62            106            391 210 
                                                                                
