 2016 1227 0513 23.4 L   6.765 -73.111142.3  RSN 10 0.2 1.6LRSN                1
 GAP=143        0.49       2.1     2.3  2.8 -0.1168E+01  0.1274E+01  0.1447E+01E
 Epicentro: LOS SANTOS - SANTANDER                                             3
 ACTION:UPD 17-01-11 20:19 OP:rebc STATUS:               ID:20161227051323 L   I
 OLDACT:UP  16-12-27 17:16 OP:edw  STATUS:               ID:20161227050743     3
 OLDACT:REG 16-12-27 13:11 OP:edw  STATUS:               ID:20161227050743     3
 2016-12-27-0508-00M.COL___366                                                 6
 STAT SP IPHASW D HRMM SECON CODA AMPLIT PERI AZIMU VELO AIN AR TRES W  DIS CAZ7
 BAR2 EZ IP     C  513 42.40                             171   -0.1610 20.6 202 
 BAR2 EZ ES        513 57.27                             171   -0.2310 20.6 202 
 BAR2 EZ I         513 58.56        10.4 0.32            167           20.6 202 
 BRR  HZ IP     D  513 44.19                             150   -0.3010 76.5 300 
 BRR  HN ES        514  1.27                             150    0.3410 76.5 300 
 BRR  HZ I         514  4.32         6.3 0.28            146           76.5 300 
 PAM  EZ IP     D  513 45.34                             150    0.0410 78.2  36 
 PAM  EN ES        514  2.47                             150    0.1010 78.2  36 
 PAM  EZ I         514  3.09         4.0 0.22            154           78.2  36 
 RUS  HZ EP        513 46.54                             144    0.0210 96.5 178 
 RUS  HN ES        514  4.58                             144    0.0410 96.5 178 
 RUS  HZ I         514  6.60         5.4 0.50            143           96.5 178 
 PTB  HZ EP   9    513 49.24                             131   -1.14 0  151 261 
 PTB  HN ES        514 10.09                             130   -0.18 9  151 261 
 PTB  HZ I         514 12.01         4.7 0.42            128            151 261 
 ZAR  HZ EP   4    513 57.31                             121    1.16 0  209 293 
 ZAR  HN ES   4    514 20.34                             121   -1.35 0  209 293 
 ZAR  HZ I         514 25.50         5.6 0.32            119            209 293 
 NOR  HZ EP        513 59.11                             118    0.08 8  236 236 
 NOR  HN ES        514 26.81                             118   -0.01 8  236 236 
 NOR  HZ I         514 35.67         3.1 0.42            116            236 236 
 CHI  HZ EP        514  0.60                             117   -0.02 8  246 196 
 CHI  HN ES        514 29.85                             117    0.21 8  246 196 
 CHI  HZ I         514 34.91         2.7 0.48            116            246 196 
 URE  HN ES   4    514 33.37                             112   -3.85 0  289 292 
 GUY2CHZ EP   4    514  8.47                             112    1.51 0  302 236 
 GUY2CHE ES   4    514 44.68                             112    3.75 0  302 236 
 GUY2CHZ I         514 48.58         2.5 0.32                           302 236 
 CBOC HZ EP        514 10.74                             109    0.27 7  336 253 
 CBOC HN ES        514 46.90                             109   -0.27 7  336 253 
 CBOC HZ I         515  0.60         0.8 0.56            108            336 253 
 SJC  HZ EP   4    514 13.51                             105   -5.98 0  415 327 
 SJC  HN ES   4    515  0.12                             105   -3.12 0  415 327 
                                                                                
