 2017  727 0049 59.7 L   6.796 -73.089141.1  RSN 13 0.5 1.5LRSN                1
 GAP=117        1.00       4.0     3.5  5.8 -0.4115E+00  0.2405E+01  0.6740E+01E
 Epicentro: LOS SANTOS - SANTANDER                                             3
 ACTION:UPD 17-08-30 15:37 OP:rebc STATUS:               ID:20170727004959 L   I
 OLDACT:UP  17-07-27 13:10 OP:and  STATUS:               ID:20170727004736     3
 OLDACT:UP  17-07-27 13:09 OP:and  STATUS:               ID:20170727004736     3
 OLDACT:REG 17-07-27 12:09 OP:and  STATUS:               ID:20170727004736     3
 2017-07-27-0048-00M.COL___380                                                 6
 STAT SP IPHASW D HRMM SECON CODA AMPLIT PERI AZIMU VELO AIN AR TRES W  DIS CAZ7
 BAR2 EZ EP   2    050 18.66                             170   -0.15 5 24.7 205 
 BAR2 EZ ES        050 33.23                             170   -0.4810 24.7 205 
 BAR2 EZ I         050 34.85        12.2 0.20            168           24.7 205 
 PAM  EZ IP     C  050 21.64                             151    0.4110 74.0  36 
 PAM  EN ES        050 38.42                             151    0.4110 74.0  36 
 PAM  EZ I         050 40.66         4.4 0.30            155           74.0  36 
 BRR  HZ EP        050 20.66                             150   -0.0410 77.0 297 
 BRR  HN ES        050 37.16                             150    0.0810 77.0 297 
 BRR  HZ I         050 42.82         6.0 0.18            150           77.0 297 
 RUS  HZ EP        050 22.81                             143   -0.1410 99.9 180 
 RUS  HN ES        050 41.02                             143   -0.0610 99.9 180 
 RUS  HZ I         050 45.64         3.3 0.22            145           99.9 180 
 PTB  HZ EP   2    050 26.61                             129   -0.25 5  154 259 
 PTB  HN ES        050 47.86                             129   -0.18 9  154 259 
 PTB  HZ I         050 49.08         3.8 0.16            131            154 259 
 SPBC HZ EP        050 27.94                             127   -0.27 9  167 221 
 SPBC HN ES        050 50.33                             127   -0.10 9  167 221 
 SPBC HZ I         050 57.40         5.4 0.18            129            167 221 
 YPLC HZ IP     C  050 29.26                             126    0.42 9  173 153 
 ZAR  HN ES        050 57.21                             120   -0.83 8  210 292 
 ZAR  HZ I         051  3.39         5.1 0.28            123            210 292 
 NOR  HZ EP   1    050 35.55                             117   -0.15 6  240 235 
 NOR  HN ES        051  4.48                             117    0.71 8  240 235 
 NOR  HZ I         051  7.99         2.2 0.32            119            240 235 
 PTGC HZ EP        050 42.29                             111   -0.77 7  306 160 
 GUY2CHZ EP   3    050 44.81                             111    1.15 2  306 236 
 GUY2CHN ES   4    051 21.55                             111    3.61 0  306 236 
 GUY2CHZ I         051 24.19         1.8 0.24                           306 236 
 CBOC HZ EP   2    050 47.93                             108    0.83 3  339 253 
 CBOC HN ES        051 25.26                             108    1.19 7  339 253 
 CBOC HZ I         051 25.88         0.9 0.30            110            339 253 
 SJC  HZ EP   3    050 53.59                             105   -1.98 1  413 326 
 SJC  HN ES   4    051 35.62                             105   -3.53 0  413 326 
                                                                                
