 2012 1027 0215 14.9 L   6.825 -73.111144.0  RSN  7 0.4 2.1LRSN                1
 GAP=140        0.85       4.9     4.9  8.7  0.3616E+01  0.1224E+02  0.1303E+02E
 Epicentro: LOS SANTOS - SANTANDER                                             3
 ACTION:UPD 12-11-22 17:06 OP:ep   STATUS:               ID:20121027021515 L   I
 2012-10-27-0210-00M.COL___228                                                 6
 STAT SP IPHASW D HRMM SECON CODA AMPLIT PERI AZIMU VELO AIN AR TRES W  DIS CAZ7
 BAR2 SZ EP   1    215 34.03                             169   -0.39 7 26.9 197 
 PAM  SZ EP   1    215 36.86                             152    0.17 7 72.8  39 
 PAM  SN ES        215 53.81                             152    0.1510 72.8  39 
 BRR  HZ EP   1    215 35.85                             152   -0.16 7 73.3 295 
 BRR  HN ES        215 52.83                             152    0.3810 73.3 295 
 BRR  HN I         215 56.11        26.4 0.44                          73.3 295 
 RUS  HZ EP   1    215 38.79                             143    0.10 7  103 178 
 RUS  HN ES   2    215 56.76                             143   -0.47 5  103 178 
 RUS  HN I         215 59.22         4.7 0.21                           103 178 
 OCA  HN ES   1    216  3.98                             130   -0.72 7  158 352 
 OCA  HN I         216  8.23        29.7 0.24                           158 352 
 ZAR  HZ EP   1    215 48.46                             122    0.95 6  207 291 
 ZAR  HE ES        216 12.59                             122   -0.34 8  207 291 
 ZAR  HN I         216 16.96        17.0 0.69                           207 291 
 CHI  HN ES   2    216 22.18                             116   -0.39 4  252 196 
                                                                                
