 2016 1027 0949  6.3 L   6.766 -73.142146.6  RSN  8 0.3 1.8LRSN                1
 GAP=139        0.79       3.2     3.8  4.9 -0.3196E+01  0.7851E+00  0.3676E+01E
 Epicentro: LOS SANTOS - SANTANDER                                             3
 ACTION:UPD 16-11-09 19:23 OP:rebc STATUS:               ID:20161027094906 L   I
 OLDACT:DUP 16-10-27 14:33 OP:cara STATUS:               ID:20161027094746d    3
 OLDACT:DUP 16-10-27 14:23 OP:cara STATUS:               ID:20161027094745d    3
 2016-10-27-0948-00M.COL___331                                                 6
 STAT SP IPHASW D HRMM SECON CODA AMPLIT PERI AZIMU VELO AIN AR TRES W  DIS CAZ7
 BAR2 EZ IP        949 26.00                             172    0.0110 19.8 193 
 BAR2 EZ ES        949 41.33                             172   -0.0010 19.8 193 
 BAR2 EZ I         949 43.78        29.1 0.30            170           19.8 193 
 BRR  HZ IP     C  949 27.79                             152    0.1010 73.4 301 
 BRR  HN ES        949 44.92                             152    0.5610 73.4 301 
 BRR  HZ I         949 49.76        11.6 0.20            151           73.4 301 
 PAM  EZ EP     C  949 28.74                             150   -0.0510 80.0  38 
 PAM  EN ES        949 46.13                             150   -0.1910 80.0  38 
 PAM  EZ I         949 48.14         4.4 0.54            155           80.0  38 
 RUS  HZ EP        949 29.82                             145   -0.0810 96.8 176 
 RUS  HN ES        949 48.22                             145   -0.0610 96.8 176 
 RUS  HZ I         949 50.00        12.8 0.36            147           96.8 176 
 PTB  HZ EP        949 33.11                             132   -0.23 9  147 260 
 PTB  HN ES        949 53.78                             132   -0.63 9  147 260 
 PTB  HZ I         950  1.06         6.4 0.18            133            147 260 
 SPBC HZ EP        949 34.54                             130   -0.11 9  161 220 
 SPBC HN ES        949 56.94                             130    0.21 9  161 220 
 SPBC HZ I         949 59.59        14.0 0.26            131            161 220 
 CHI  HZ EP        949 44.29                             118    0.59 8  245 195 
 CHI  HN ES        950 12.84                             118   -0.00 8  245 195 
 CHI  HZ I         950 19.64         3.3 0.36            120            245 195 
 GUY2CHZ EP   9    949 51.32                             113    1.55 0  299 235 
 GUY2CHN ES        950 25.84                                    0.63 7  299 235 
 GUY2CHZ I         950 38.23         3.2 0.44                           299 235 
 SJC  HZ IP   4    950  0.25                             106   -2.06 0  413 327 
 SJC  HE ES   4    950 41.22                             106   -4.75 0  413 327 
                                                                                
