 2011  327 0809 13.0 L   5.983 -74.212  7.8  RSN  4 0.2 1.1LRSN                1
 GAP=203        0.50       3.5     3.3  5.7 -0.9031E+01 -0.8196E+01  0.1198E+02E
 Epicentro: LA BELLEZA - SANTANDER                                             3
 ACTION:UP  11-06-16 14:35 OP:jfem STATUS:               ID:20110327080913 L   I
 2011-03-27-0808-11S.COL___138                                                 6
 STAT SP IPHASW D HRMM SECON CODA AMPLIT PERI AZIMU VELO SNR AR TRES W  DIS CAZ7
 NOR  SZ EP   1    8 9 26.67                              93    -0.1 8   87 238 
 NOR  SN ES   1    8 9 37.50                              93     0.0 8   87 238 
 BRR  HZ EP   1    8 9 34.12                              92    -0.1 8  136  24 
 BRR  HN ES   1    8 9 50.76                              92     0.0 8  136  24 
 BRR  HZ I         8 9 52.11         3.7 0.12                           136  24 
 HEL  HZ EP        8 9 36.37                              92     0.010  148 279 
 HEL  HE ES   1    8 9 54.62                              92     0.0 7  148 279 
 HEL  HZ I         8 9 56.18         3.3 0.30                           148 279 
 RREF HZ EP   1    8 9 40.91                              56     0.5 7  174 226 
 RREF HN ES   1    810  1.50                              56    -0.3 7  174 226 
 RREF HZ I         810  4.94         1.8 0.29                           174 226 
                                                                                
