 2016 1227 0520 17.9 L   6.734 -73.157149.3  RSN  4 0.4 1.0LRSN                1
 GAP=231        0.98       7.8     7.5  7.9  0.2899E+02  0.5373E+01  0.7493E+00E
 Epicentro: LOS SANTOS - SANTANDER                                             3
 ACTION:UPD 17-01-11 20:19 OP:rebc STATUS:               ID:20161227052017 L   I
 OLDACT:REG 16-12-27 13:12 OP:edw  STATUS:               ID:20161227051743     3
 2016-12-27-0518-00M.COL___366                                                 6
 STAT SP IPHASW D HRMM SECON CODA AMPLIT PERI AZIMU VELO AIN AR TRES W  DIS CAZ7
 BAR2 EZ EP        520 37.86                             174    0.0610 15.9 190 
 BAR2 EZ ES        520 52.81                             174   -0.5310 15.9 190 
 BAR2 EZ I         520 55.23         2.1 0.18            169           15.9 190 
 BRR  HZ EP        520 39.63                             152    0.0810 73.9 304 
 BRR  HN ES        520 56.81                             152    0.3510 73.9 304 
 RUS  HZ EP        520 41.03                             147   -0.4410 93.4 175 
 RUS  HN ES        521  0.45                             147    0.5710 93.4 175 
 RUS  HZ I         521  1.65         2.2 0.32            146           93.4 175 
 PTB  HZ EP        520 45.14                             133    0.24 9  145 262 
 PTB  HN ES        521  5.65                             133   -0.34 9  145 262 
 PTB  HZ I         521  9.83         0.8 0.26            133            145 262 
                                                                                
