 2015  927 0536 12.6 L   6.796 -73.154149.4  RSN  9 0.3 1.7LRSN                1
 GAP=182        0.74       2.4     4.2  5.3  0.2546E+00 -0.1142E+01  0.2020E+00E
 Epicentro: LOS SANTOS - SANTANDER                                             3
 ACTION:UPD 15-10-28 16:28 OP:cam  STATUS:               ID:20150927053612 L   I
 OLDACT:DUP 15-09-27 17:12 OP:spq  STATUS:               ID:20150927052748d    3
 2015-09-27-0527-47M.COL___340                                                 6
 STAT SP IPHASW D HRMM SECON CODA AMPLIT PERI AZIMU VELO AIN AR TRES W  DIS CAZ7
 BAR2 EZ EP   1    536 32.80                             171    0.11 7 22.8 188 
 BAR2 EZ ES   1    536 48.38                             171    0.04 7 22.8 188 
 BAR2 EZ I         536 48.91        13.4 0.35            170           22.8 188 
 BRR  HZ EP     C  536 34.36                             153    0.2210 70.6 299 
 BRR  HN ES        536 51.42                             153    0.5010 70.6 299 
 BRR  HZ I         536 55.33         8.4 0.46            150           70.6 299 
 RUS  HZ EP   1    536 36.55                             145   -0.17 7  100 175 
 RUS  HE ES   1    536 55.08                             145   -0.43 7  100 175 
 RUS  HZ I         536 56.16         2.6 0.28            147            100 175 
 PTB  HZ EP        536 39.44                             133   -0.37 9  147 259 
 PTB  HN ES        537  0.65                             133   -0.36 9  147 259 
 PTB  HZ I         537  5.99         4.1 0.42            132            147 259 
 OCA  HZ EP        536 40.90                             130   -0.36 9  161 354 
 OCA  HN ES        537  3.51                             130   -0.07 9  161 354 
 OCA  HZ I         537  9.19         8.6 0.28            131            161 354 
 SPBC HZ EP        536 41.86                             130    0.53 9  162 219 
 SPBC HN ES        537  3.50                             130   -0.21 9  162 219 
 SPBC HZ I         537  7.97         4.8 0.16            130            162 219 
 ZAR  HN ES        537 10.70                             123    0.02 9  203 292 
 ZAR  HZ I         537 17.30         4.8 0.36            123            203 292 
 SML  HN ES   1    537 18.16                             118   -0.03 6  244 336 
 SML  HZ I         537 19.75         8.6 0.10            119            244 336 
 CHI  HZ EP   1    536 50.94                             118    0.47 6  248 195 
 CHI  HN ES   1    537 20.23                             118    0.25 6  248 195 
 CHI  HZ I         537 23.60         2.7 0.58            119            248 195 
                                                                                
