 2014  227 0812 19.3 L   6.814 -73.185141.5  RSN 14 0.5 2.2LRSN                1
 GAP=131        1.12       2.7     4.1  5.9 -0.2191E+01  0.9424E+01  0.7655E+00E
 Epicentro: ZAPATOCA - SANTANDER                                               3
 OLDACT:REG 14-02-27 08:31 OP:y    STATUS:               ID:20140227080807     3
 ACTION:UPD 14-03-10 08:13 OP:ep   STATUS:               ID:20140227081219 L   I
 OLDACT:UP  14-02-27 10:41 OP:stll STATUS:               ID:20140227080807     3
 2014-02-27-0808-07M.COL___228                                                 6
 STAT SP IPHASW D HRMM SECON CODA AMPLIT PERI AZIMU VELO AIN AR TRES W  DIS CAZ7
 BAR2 SZ IP     D  812 38.63                             170    0.1710 24.5 179 
 BAR2 SZ I         812 39.11        35.7 0.16            168           24.5 179 
 BAR2 SZ ES        812 53.66                             170    0.2710 24.5 179 
 PAM  SZ EP        812 41.50                             149    0.3210 79.1  43 
 PAM  SN ES        812 58.20                             149   -0.0410 79.1  43 
 PAM  SZ I         813  0.61        14.7 0.54            151           79.1  43 
 RUS  HZ IP     C  812 42.47                             142   -0.3210  102 174 
 RUS  HN ES        813  1.05                             142   -0.0510  102 174 
 RUS  SZ I         813  2.16        13.3 0.34            141            102 174 
 PTB  HZ EP        812 45.28                             132   -0.29 9  144 258 
 PTB  HN ES        813  6.12                             132    0.07 9  144 258 
 PTB  SZ I         813 13.56        30.2 0.50            129            144 258 
 OCA  HZ EP        812 47.01                             129   -0.10 9  158 355 
 OCA  HE ES        813  8.49                             129   -0.30 9  158 355 
 OCA  SZ I         813 12.85        18.1 0.20            128            158 355 
 SPBC HZ EP        812 47.58                             128    0.24 9  162 217 
 SPBC HN ES        813  9.25                             128    0.05 9  162 217 
 SPBC SZ I         813 16.69        18.9 0.28            126            162 217 
 ZAR  HZ EP        812 50.99                             122   -0.01 9  199 292 
 ZAR  HE ES        813 15.97                             122    0.25 9  199 292 
 ZAR  SZ I         813 22.16        16.6 0.28            120            199 292 
 SML  HZ EP        812 54.98                             117   -0.38 8  241 336 
 SML  HN ES        813 23.26                             117   -0.21 8  241 336 
 SML  SZ I         813 29.42        21.1 0.08            116            241 336 
 CHI  HZ EP        812 56.89                             116    0.07 8  249 194 
 CHI  SZ I         813 24.05        10.8 1.32            115            249 194 
 CHI  HN ES        813 25.58                             116   -0.49 8  249 194 
 HEL  HZ EP        812 59.98                             114    1.10 8  268 255 
 HEL  HE ES        813 28.35                             114   -1.39 8  268 255 
 HEL  SZ I         813 36.84        10.6 0.30            113            268 255 
 GUY2CHZ EP        813  3.41                             112    0.99 7  298 234 
 GUY2CHE ES        813 36.73                             112    0.68 7  298 234 
 GUY2CSZ I         813 44.95         8.7 0.66                           298 234 
 RREF HZ EP        813  5.53                             110    0.52 7  319 229 
 RREF HN ES        813 41.19                             110    0.54 7  319 229 
 RREF SZ I         813 50.62         8.9 0.24            109            319 229 
 PRA  HZ EP        813 11.45                             106   -1.14 6  391 209 
 PRA  HN ES        813 53.11                             106   -1.04 6  391 209 
 PRA  SZ I         813 57.86         8.7 0.36            105            391 209 
 ORTC HZ EP        813 13.34                             106    0.41 6  394 216 
 ORTC HN ES        813 54.24                             106   -0.51 6  394 216 
 ORTC SZ I         813 57.56         5.7 2.16            105            394 216 
                                                                                
