 2013 1227 0356  1.7 L   6.119 -73.825 98.2  RSN 13 0.5 1.3LRSN                1
 GAP= 70        1.19       3.0     3.1  7.2 -0.1118E+01  0.5788E+01 -0.1001E+01E
 Epicentro: EL PEON - SANTANDER                                                3
 ACTION:UPD 14-01-13 10:21 OP:ep   STATUS:               ID:20131227035601 L   I
 OLDACT:DUP 13-12-27 09:32 OP:mh   STATUS:               ID:20131227035001d    3
 OLDACT:UP  13-12-27 09:31 OP:mh   STATUS:               ID:20131227035000     3
 OLDACT:UP  13-12-27 09:30 OP:mh   STATUS:               ID:20131227035000     3
 OLDACT:UP  13-12-27 09:26 OP:mh   STATUS:               ID:20131227035000     3
 OLDACT:UP  13-12-27 09:25 OP:mh   STATUS:               ID:20131227035000     3
 OLDACT:REG 13-12-27 07:43 OP:mh   STATUS:               ID:20131227035000     3
 2013-12-27-0350-00M.COL___285                                                 6
 STAT SP IPHASW D HRMM SECON CODA AMPLIT PERI AZIMU VELO AIN AR TRES W  DIS CAZ7
 SPBC HZ EP        356 17.23                             147    0.0810 58.4 208 
 SPBC HN ES        356 29.35                             147    0.1310 58.4 208 
 SPBC HZ I         356 31.57         8.4 0.18            145           58.4 208 
 PTB  HZ IP        356 18.07                             137   -0.9310 83.9 304 
 PTB  HN ES        356 31.59                             137   -0.9210 83.9 304 
 PTB  HZ I         356 32.66         5.3 0.09            138           83.9 304 
 RUS  HZ EP   1    356 19.95                             136    0.14 7 85.8 107 
 RUS  HN ES        356 34.07                             136    0.1110 85.8 107 
 RUS  HZ I         356 36.11         1.9 0.27            137           85.8 107 
 BAR2 SZ EP   1    356 19.97                             135    0.30 7 88.3  54 
 BAR2 SZ ES   1    356 33.64                             135   -0.08 7 88.3  54 
 BAR2 SZ I         356 36.04        14.2 0.30            137           88.3  54 
 BRR  HZ EP   1    356 21.70                             128    0.34 7  110   7 
 BRR  HN ES   1    356 37.60                             128    0.88 7  110   7 
 NOR  HZ EP        356 22.69                             123   -0.8410  131 242 
 NOR  HN ES        356 40.81                             123    0.2210  131 242 
 NOR  HZ I         356 42.68         7.1 0.48            122            131 242 
 CHI  HZ EP        356 27.04                             117   -0.61 9  165 176 
 CHI  HE ES        356 48.52                             117    0.61 9  165 176 
 CHI  HZ I         356 53.75         1.7 0.28            116            165 176 
 PAM  SE ES        356 51.51                             114   -0.25 9  184  43 
 HEL  HZ EP        356 30.65                             113    0.40 9  189 273 
 HEL  HN ES        356 53.29                             113    0.75 9  189 273 
 HEL  HZ I         356 57.12         2.4 0.30            113            189 273 
 ZAR  HZ EP        356 30.05                             113    0.11 9  190 323 
 ZAR  HN ES        356 52.60                             113    0.62 9  190 323 
 ZAR  HZ I         356 53.89         5.1 0.24            113            190 323 
 GUY2CHZ EP        356 31.04                             112   -0.30 9  197 240 
 GUY2CHN ES   2    356 54.64                             112    0.15 4  197 240 
 GUY2CHZ I         357  0.41         1.6 0.16                           197 240 
 RREF HZ EP   2    356 33.80                             110    0.12 4  216 231 
 RREF HN ES   2    356 58.95                             110    0.29 4  216 231 
 RREF HZ I         357  4.83         1.7 0.56            109            216 231 
 CBOC HZ EP   1    356 36.77                             108    0.40 6  244 263 
 CBOC HN ES   2    357  3.21                             108   -0.23 4  244 263 
 CBOC HZ I         357  5.35         1.0 0.18            106            244 263 
                                                                                
