 2015  127 0120  7.4 L   6.808 -73.172146.2  RSN  9 0.3 1.7LRSN                1
 GAP=133        0.88       2.7     4.0  5.1 -0.1847E+01  0.4167E+01  0.3978E+00E
 Epicentro: LOS SANTOS - SANTANDER                                             3
 ACTION:UPD 15-03-02 15:42 OP:nd   STATUS:               ID:20150127012007 L   I
 OLDACT:REG 15-01-27 12:56 OP:cam  STATUS:               ID:20150127011817     3
 2015-01-27-0118-17M.COL___277                                                 6
 STAT SP IPHASW D HRMM SECON CODA AMPLIT PERI AZIMU VELO AIN AR TRES W  DIS CAZ7
 BAR2 EZ ES        120 42.15                             170   -0.3310 23.9 183 
 BAR2 EZ I         120 43.57        13.6 0.46            171           23.9 183 
 BRR  HZ EP     C  120 28.92                             154    0.4610 68.3 299 
 BRR  HN ES        120 45.58                             154    0.7110 68.3 299 
 BRR  HZ I         120 50.11         5.9 0.58            151           68.3 299 
 PAM  SZ EP        120 29.98                             151    0.2210 78.6  42 
 PAM  SN ES        120 46.87                             151   -0.3110 78.6  42 
 PAM  SN I         120 49.57         9.3 0.60            153           78.6  42 
 RUS  HZ EP     C  120 31.07                             144   -0.2310  102 174 
 RUS  HN ES        120 50.08                             144    0.1610  102 174 
 RUS  HZ I         120 50.72         6.9 0.34            147            102 174 
 PTB  HZ EP        120 33.90                             133   -0.29 9  145 258 
 PTB  HN ES        120 54.90                             133   -0.17 9  145 258 
 PTB  HZ I         120 56.84         4.0 0.14            132            145 258 
 SPBC HZ EP        120 36.17                             129    0.32 9  162 218 
 SPBC HN ES        120 57.92                             129   -0.10 9  162 218 
 SPBC HZ I         121  4.06         9.4 0.10            130            162 218 
 NOR  HE ES        121 10.44                             119   -0.28 8  233 234 
 NOR  HE I         121 15.97         6.5 0.14            120            233 234 
 SML  HZ EP        120 44.14                             118    0.28 8  242 336 
 SML  HN ES        121 11.61                             118   -0.67 8  242 336 
 SML  HZ I         121 20.16         6.6 0.10            118            242 336 
 CHI  HZ EP        120 45.04                             117   -0.12 8  249 194 
 CHI  HN ES        121 14.63                             117    0.04 8  249 194 
                                                                                
