 2017  227 0908  8.7 L   6.841 -73.195149.7  RSN 10 0.6 2.1LRSN                1
 GAP= 78        1.05       5.4     4.3  8.3  0.1103E+01  0.8615E+01 -0.9085E+01E
 Epicentro: ZAPATOCA - SANTANDER                                               3
 ACTION:UPD 17-05-24 15:41 OP:jn   STATUS:               ID:20170227090808 L   I
 OLDACT:UP  17-02-27 18:30 OP:dani STATUS:               ID:20170227085741d    3
 OLDACT:DUP 17-02-27 18:27 OP:dani STATUS:               ID:20170227085741d    3
 OLDACT:UP  17-02-27 18:27 OP:dani STATUS:               ID:20170227085740     3
 OLDACT:REG 17-02-27 13:30 OP:ar   STATUS:               ID:20170227085740     3
 2017-02-27-0858-00M.COL___354                                                 6
 STAT SP IPHASW D HRMM SECON CODA AMPLIT PERI AZIMU VELO AIN AR TRES W  DIS CAZ7
 BAR2 EZ IP     D  9 8 28.96                             170    0.0210 27.6 177 
 BAR2 EZ I         9 8 45.21        41.0 0.26            166           27.6 177 
 BRR  HZ EP     D  9 8 30.85                             155    0.9010 64.2 297 
 BRR  HN ES   3    9 8 47.73                             155    1.24 2 64.2 297 
 BRR  HZ I         9 8 52.00        27.8 0.16            153           64.2 297 
 PAM  EZ EP        9 8 31.87                             151    0.4710 77.7  45 
 PAM  EN ES        9 8 49.00                             151   -0.0710 77.7  45 
 PAM  EZ I         9 8 51.15        52.8 0.52            148           77.7  45 
 RUS  HZ EP        9 8 33.14                             144   -0.1110  106 173 
 RUS  HE ES        9 8 51.70                             144   -0.6610  106 173 
 RUS  HZ I         9 8 52.86        16.5 0.30            138            106 173 
 PTB  HZ EP        9 8 35.55                             134   -0.10 9  143 257 
 PTB  HN ES        9 8 56.80                             134    0.17 9  143 257 
 PTB  HZ I         9 9  1.51        11.3 0.50            129            143 257 
 TAM  HZ IP     D  9 8 37.36                             130    0.02 9  162 106 
 TAM  HZ I         9 8 57.51         5.2 0.50            125            162 106 
 HEL  HZ EP   4    9 8 51.42                             116    2.72 0  268 255 
 HEL  HN ES   3    9 9 21.19                             116    1.32 2  268 255 
 HEL  HZ I         9 9 29.98         5.7 0.30            112            268 255 
 URE  HZ EP        9 8 48.86                             115   -0.39 7  277 291 
 URE  HN ES        9 9 20.07                             115   -0.78 7  277 291 
 URE  HZ I         9 9 30.78        11.4 0.28            111            277 291 
 CBOC HZ EP   3    9 8 57.52                             111    2.13 2  330 251 
 CBOC HE ES   4    9 9 29.24                             111   -2.54 0  330 251 
 CBOC HZ I         9 9 37.09         1.8 0.23            107            330 251 
 SJC  HZ EP        9 9  3.22                             107   -0.42 6  402 327 
 SJC  HN ES   3    9 9 44.67                             107   -1.79 1  402 327 
 SJC  HZ I         9 9 48.86         2.5 0.31            103            402 327 
                                                                                
