 2011 1127 0321 43.0 L   6.764 -73.081147.3  RSN  5 0.3 1.4LRSN                1
 GAP=147        0.44       3.8     7.0  8.6  0.1503E+01 -0.2318E+01  0.2681E+01E
 Epicentro: LOS SANTOS - SANTANDER                                             3
 ACTION:UPD 12-07-13 16:12 OP:ep   STATUS:               ID:20111127032143 L   I
 2011-11-27-0318-43S.COL___159                                                 6
 STAT SP IPHASW D HRMM SECON CODA AMPLIT PERI AZIMU VELO AIN AR TRES W  DIS CAZ7
 BAR2 SZ EP   2    322  2.55                             171   -0.26 5 22.0 210 
 BAR2 SZ I         322 29.34         6.6 0.50                          22.0 210 
 PAM  SZ EP   2    322  5.23                             151   -0.11 5 76.4  34 
 PAM  SN ES   2    322 22.62                             151   -0.12 5 76.4  34 
 BRR  HZ EP   2    322  4.41                             150   -0.40 5 79.3 299 
 BRR  HE ES   2    322 21.84                             150    0.04 5 79.3 299 
 BRR  HZ I         322 24.54         6.2 0.13                          79.3 299 
 RUS  HZ EP   2    322  7.10                             145    0.48 5 96.4 180 
 RUS  HE ES   2    322 25.08                             145    0.05 5 96.4 180 
 RUS  HZ I         322 27.00         2.2 0.43                          96.4 180 
 OCA  SZ ES   2    322 34.85                             129    0.40 5  165 351 
 OCA  SZ I         322 37.23         3.4 0.30                           165 351 
                                                                                
