 2016  627 0955 37.0 L   6.800 -73.332117.3  RSN  4 0.4 1.5LRSN                1
 GAP=264        0.91       5.0     8.2  9.1  0.4708E+00  0.2619E+01  0.6974E+01E
 Epicentro: ZAPATOCA - SANTANDER                                               3
 ACTION:UPD 16-07-21 22:23 OP:rebc STATUS:               ID:20160627095537 L   I
 OLDACT:REG 16-06-27 16:22 OP:lv   STATUS:               ID:20160627095245     3
 2016-06-27-0952-45M.COL___324                                                 6
 STAT SP IPHASW D HRMM SECON CODA AMPLIT PERI AZIMU VELO AIN AR TRES W  DIS CAZ7
 BRR  HZ EP        955 54.22                             154    0.1110 54.0 309 
 BRR  HN ES        956  7.44                             154   -0.0110 54.0 309 
 BRR  HZ I         956 14.11         8.7 0.31                          54.0 309 
 PTB  HZ EP        955 59.16                             129   -0.6910  128 257 
 PTB  HN ES        956 17.30                             129   -0.3610  128 257 
 PTB  HZ I         956 20.89         4.9 0.13                           128 257 
 SPBC HZ EP   2    956  2.61                             124    0.36 5  151 213 
 SPBC HN ES        956 22.34                             124    0.40 9  151 213 
 SPBC HZ I         956 24.94         4.9 0.10                           151 213 
 ZAR  HZ EP   1    956  5.99                             118    0.28 7  185 295 
 ZAR  HN ES        956 28.53                             118    0.43 9  185 295 
 ZAR  HZ I         956 33.18         3.8 0.18                           185 295 
                                                                                
