 2015  927 0702  4.3 L   6.801 -73.130147.5  RSN 15 0.4 1.7LRSN                1
 GAP=185        0.93       2.7     4.1  5.3 -0.1167E+01  0.2052E+01  0.7142E+00E
 Epicentro: LOS SANTOS - SANTANDER                                             3
 ACTION:UPD 15-10-28 16:28 OP:cam  STATUS:               ID:20150927070204 L   I
 OLDACT:REG 15-09-27 12:39 OP:spq  STATUS:               ID:20150927065746     3
 2015-09-27-0657-46M.COL___340                                                 6
 STAT SP IPHASW D HRMM SECON CODA AMPLIT PERI AZIMU VELO AIN AR TRES W  DIS CAZ7
 BAR2 EZ EP     D  7 2 24.04                             170   -0.1010 23.8 194 
 BAR2 EZ ES   1    7 2 39.34                             170   -0.28 7 23.8 194 
 BAR2 EZ I         7 2 41.69         8.9 0.26            170           23.8 194 
 BRR  HZ EP        7 2 25.97                             152    0.2610 72.7 298 
 BRR  HN ES        7 2 43.28                             152    0.8610 72.7 298 
 BRR  HZ I         7 2 46.39         7.0 0.37            150           72.7 298 
 RUS  HZ EP        7 2 28.01                             144   -0.2010  101 177 
 RUS  HN ES   1    7 2 46.95                             144    0.08 7  101 177 
 RUS  HZ I         7 2 47.62         3.6 0.36            148            101 177 
 PTB  HZ EP        7 2 30.93                             132   -0.63 9  149 259 
 PTB  HN ES        7 2 52.14                             132   -0.68 9  149 259 
 PTB  HZ I         7 2 59.40         6.7 0.28            132            149 259 
 OCA  HZ EP        7 2 33.07                             130    0.32 9  160 353 
 OCA  HN ES        7 2 54.66                             130   -0.28 9  160 353 
 OCA  HZ I         7 3  6.04        16.7 0.36            132            160 353 
 SPBC HZ EP        7 2 33.03                             129   -0.00 9  164 219 
 SPBC HE ES        7 2 55.41                             129   -0.04 9  164 219 
 SPBC HZ I         7 2 57.51        10.3 0.26            131            164 219 
 ZAR  HZ EP        7 2 36.49                             122   -0.52 8  206 292 
 ZAR  HE ES        7 3  2.22                             122   -0.31 8  206 292 
 ZAR  HZ I         7 3  8.40         7.0 0.26            123            206 292 
 NOR  HZ EP        7 2 40.31                             119    0.03 8  236 235 
 NOR  HE ES        7 3  8.79                             119    0.44 8  236 235 
 NOR  HZ I         7 3 14.25         6.0 0.20            120            236 235 
 SML  HZ EP        7 2 41.00                             118   -0.08 8  244 335 
 SML  HE ES   1    7 3 10.04                             118    0.26 6  244 335 
 SML  HZ I         7 3 12.79         9.4 0.10            119            244 335 
 CHI  HZ EP        7 2 42.20                             117    0.05 8  249 196 
 CHI  HE ES   1    7 3 11.66                             117   -0.01 6  249 196 
 CHI  HZ I         7 3 16.52         1.8 0.38            120            249 196 
 HEL  HZ EP   4    7 2 46.28                             115    1.50 0  274 256 
 HEL  HE ES   1    7 3 17.09                             115    0.73 6  274 256 
 HEL  HZ I         7 3 22.72         3.3 0.28            116            274 256 
 GUY2CHZ EP        7 2 48.62                             112    0.47 7  303 235 
 GUY2CHE ES   1    7 3 22.66                             112    0.31 5  303 235 
 GUY2CHZ I         7 3 30.95         4.9 0.72                           303 235 
 CBOC HZ EP        7 2 52.10                             110    0.63 7  335 252 
 CBOC HE ES   1    7 3 27.51                             110   -0.76 5  335 252 
 CBOC HZ I         7 3 36.35         1.1 0.48            112            335 252 
 MON  HN ES   4    7 3 30.31                             109   -1.59 0  355 308 
 MON  HZ I         7 3 32.60         1.2 0.37            110            355 308 
 SJC  HZ EP   4    7 2 58.32                             106   -1.69 0  410 327 
 SJC  HE ES   4    7 3 41.07                             106   -2.40 0  410 327 
 SJC  HZ I         7 3 46.49         0.8 0.26            107            410 327 
                                                                                
