 2016 1027 0515 17.2 L   6.740 -73.195153.6  RSN  6 0.5 1.5LRSN                1
 GAP=227        1.10       6.8     7.5  7.7  0.1528E+02  0.1549E+02  0.1831E+02E
 Epicentro: VILLANUEVA - SANTANDER                                             3
 ACTION:UPD 16-11-09 19:23 OP:rebc STATUS:               ID:20161027051517 L   I
 OLDACT:DUP 16-10-27 18:01 OP:cog  STATUS:               ID:20161027050743d    3
 2016-10-27-0508-00M.COL___349                                                 6
 STAT SP IPHASW D HRMM SECON CODA AMPLIT PERI AZIMU VELO AIN AR TRES W  DIS CAZ7
 BAR2 EZ EP        515 37.55                             173   -0.0810 16.4 175 
 BAR2 EZ ES        515 53.54                             173   -0.0410 16.4 175 
 BAR2 EZ I         515 54.32         9.1 0.20            166           16.4 175 
 BRR  HZ EP        515 39.21                             154    0.1010 70.1 305 
 BRR  HE ES        515 56.19                             154   -0.0310 70.1 305 
 BRR  HZ I         515 57.42         7.4 0.33            148           70.1 305 
 RUS  HZ EP        515 41.19                             147   -0.1010 94.5 173 
 RUS  HE ES        516  0.15                             147    0.0510 94.5 173 
 RUS  HZ I         516  1.95         2.7 0.18            136           94.5 173 
 PTB  HZ EP        515 43.29                             135   -0.93 9  141 261 
 PTB  HN ES        516  5.74                             135    0.42 9  141 261 
 PTB  HZ I         516  7.78         5.5 0.24            125            141 261 
 SPBC HZ EP        515 46.13                             132    0.63 9  155 219 
 SPBC HZ I         516 15.54         4.1 0.36            122            155 219 
 PRA  HZ EP        516 10.89                             108    0.90 6  384 209 
 PRA  HE ES        516 50.33                             108   -0.86 6  384 209 
                                                                                
