 2015  827 0307 31.5 L   6.775 -73.080147.5  RSN  5 0.3 1.2LRSN                1
 GAP=146        0.71       3.8     4.3  6.0  0.4473E+01  0.3157E+01 -0.6249E+01E
 Epicentro: LOS SANTOS - SANTANDER                                             3
 ACTION:UPD 15-09-15 23:05 OP:cam  STATUS:               ID:20150827030731 L   I
 OLDACT:DUP 15-08-27 15:13 OP:spq  STATUS:               ID:20150827025749d    3
 2015-08-27-0257-48M.COL___355                                                 6
 STAT SP IPHASW D HRMM SECON CODA AMPLIT PERI AZIMU VELO AIN AR TRES W  DIS CAZ7
 PAM  EZ EP     C  3 7 54.21                             152    0.4310 75.3  34 
 PAM  EZ I         3 8 10.39         1.5 0.24            141           75.3  34 
 PAM  EN ES   1    3 8 10.98                             152   -0.17 7 75.3  34 
 BRR  HZ EP        3 7 53.24                             150   -0.0410 78.9 298 
 BRR  HN ES        3 8 10.36                             150    0.0910 78.9 298 
 BRR  HZ I         3 8 12.00         3.4 0.25            150           78.9 298 
 RUS  HZ EP   1    3 7 55.60                             145    0.40 7 97.5 180 
 RUS  HE ES        3 8 13.39                             145   -0.3010 97.5 180 
 RUS  HZ I         3 8 14.12         2.1 0.48            146           97.5 180 
 ZAR  HZ EP        3 8  4.81                             122   -0.05 8  212 292 
 ZAR  HN ES        3 8 31.01                             122    0.14 8  212 292 
 ZAR  HZ I         3 8 34.27         1.7 0.38            120            212 292 
 SML  HZ EP        3 8  8.19                             117   -0.64 8  249 334 
 SML  HN ES   1    3 8 38.03                             117    0.08 6  249 334 
 SML  HZ I         3 8 45.04         2.3 0.10            114            249 334 
                                                                                
