 2014  527 0458  7.4 L   6.633 -73.191147.0  RSN  4 0.2 1.3LRSN                1
 GAP=215        0.59       6.6     4.3  4.8  0.9875E+01  0.5453E+01  0.2412E+00E
 Epicentro: BARICHARA - SANTANDER                                              3
 ACTION:UPD 15-03-16 17:01 OP:nd   STATUS:               ID:20140527045807 L   I
 OLDACT:DUP 14-05-27 18:22 OP:stll STATUS:               ID:20140527044817d    3
 2014-05-27-0448-16M.COL___255                                                 6
 STAT SP IPHASW D HRMM SECON CODA AMPLIT PERI AZIMU VELO AIN AR TRES W  DIS CAZ7
 BAR2 SZ EP        458 27.06                             178    0.1210 4.64 168 
 BAR2 SZ ES        458 41.92                             178   -0.2710 4.64 168 
 BAR2 SZ I         458 43.89         4.2 0.38            174           4.64 168 
 BRR  HZ EP        458 29.11                             150    0.0510 77.8 312 
 BRR  HN ES        458 46.22                             150    0.2610 77.8 312 
 BRR  HZ I         458 49.94         3.0 0.40            147           77.8 312 
 PTB  HZ EP        458 33.63                             134   -0.16 9  140 266 
 PTB  HN ES        458 54.59                             134    0.21 9  140 266 
 ZAR  HZ EP        458 40.36                             122    0.12 8  207 297 
 ZAR  HN ES        459  5.46                             122   -0.40 8  207 297 
 ZAR  HZ I         459 10.98         2.2 0.46            122            207 297 
                                                                                
