 2016  627 0253  9.2 L   7.346 -73.205127.2  RSN  6 0.4 1.6LRSN                1
 GAP=175        0.91       5.3     3.9  7.5  0.8891E-01  0.7893E+01  0.1059E+02E
 Epicentro: RIONEGRO - SANTANDER                                               3
 ACTION:UPD 16-07-21 22:23 OP:rebc STATUS:               ID:20160627025309 L   I
 OLDACT:REG 16-06-27 12:41 OP:ak   STATUS:               ID:20160627024747     3
 2016-06-27-0247-47M.COL___333                                                 6
 STAT SP IPHASW D HRMM SECON CODA AMPLIT PERI AZIMU VELO AIN AR TRES W  DIS CAZ7
 PAM  EZ EP        253 28.00                             155   -0.2210 55.8  91 
 PAM  EN ES        253 42.96                             155   -0.0710 55.8  91 
 PAM  EZ I         253 44.03         5.3 0.19                          55.8  91 
 BRR  HZ IP     C  253 27.67                             152   -0.1610 61.9 245 
 BRR  HN ES        253 42.84                             152    0.4910 61.9 245 
 BRR  HZ I         253 43.30        15.3 0.10                          61.9 245 
 RUS  HZ EP   2    253 36.75                             125    0.05 5  161 175 
 RUS  HE ES        253 58.14                             125    0.01 9  161 175 
 RUS  HZ I         254  2.21         2.5 0.38                           161 175 
 PTB  HZ EP        253 36.28                             124   -0.12 9  165 237 
 PTB  HN ES        253 56.94                             124   -0.66 9  165 237 
 PTB  HZ I         254  0.73         4.6 0.17                           165 237 
 ZAR  HN ES        254  1.12                             121    0.12 9  183 275 
 ZAR  HZ I         254  3.59         5.9 0.19                           183 275 
 SPBC HZ EP        253 42.16                             117    0.84 8  210 207 
 SPBC HN ES   1    254  6.10                             117   -0.26 6  210 207 
 SPBC HZ I         254 12.44         5.2 0.07                           210 207 
                                                                                
