 2011 1227 0218 22.4 L   7.104 -73.424115.0  RSN  5 0.4 1.4LRSN                1
 GAP=186        0.70       9.3     5.3  7.7 -0.1334E+01  0.5114E+01  0.2888E+02E
 Epicentro: SAN VICENTE DE CHUCURI - SANTANDER                                 3
 ACTION:UPD 12-07-13 16:18 OP:ep   STATUS:               ID:20111227021822 L   I
 2011-12-27-0217-59S.COL___190                                                 6
 STAT SP IPHASW D HRMM SECON CODA AMPLIT PERI AZIMU VELO AIN AR TRES W  DIS CAZ7
 GIR2 SZ EP   1    218 38.04                             167   -0.19 7 25.6  96 
 GIR2 SZ ES   1    218 50.19                             167   -0.40 7 25.6  96 
 BRR  HE ES   1    218 51.17                             163    0.60 7 31.8 271 
 BRR  HZ I         218 51.97         6.1 0.15                          31.8 271 
 BAR2 SZ ES   1    218 53.90                             150    0.03 7 62.6 155 
 BAR2 SZ I         218 55.05         8.5 0.31                          62.6 155 
 PTB  HZ EP   2    218 45.28                             128    0.01 5  130 241 
 PTB  HN ES   1    219  2.75                             128   -0.38 7  130 241 
 RUS  HZ EP   1    218 47.12                             126    0.33 7  139 164 
                                                                                
