 2013  827 0635 41.7 L   6.753 -73.164147.2  RSN  5 0.4 1.6LRSN                1
 GAP=232        0.76       5.5     6.4  6.9  0.6592E+01  0.5739E+01  0.3021E+01E
 Epicentro: LOS SANTOS - SANTANDER                                             3
 ACTION:UPD 14-01-14 09:07 OP:ep   STATUS:               ID:20130827063541 L   I
 OLDACT:DUP 13-08-27 11:03 OP:carl STATUS:               ID:20130827062960d    3
 2013-08-27-0629-59M.COL___270                                                 6
 STAT SP IPHASW D HRMM SECON CODA AMPLIT PERI AZIMU VELO AIN AR TRES W  DIS CAZ7
 BAR2 SZ EP   1    636  1.20                             173   -0.19 7 17.9 186 
 BAR2 SZ ES   1    636 16.26                             173   -0.50 7 17.9 186 
 BAR2 SZ I         636 17.78        10.4 0.26            166           17.9 186 
 BRR  HZ EP        636  3.22                             152    0.1810 72.1 303 
 BRR  HN ES   1    636 20.24                             152    0.55 7 72.1 303 
 BRR  HN I         636 24.31        15.2 0.18            150           72.1 303 
 RUS  HZ EP   1    636  5.18                             145   -0.04 7 95.6 175 
 RUS  HN ES   1    636 23.73                             145    0.15 7 95.6 175 
 RUS  HZ I         636 25.03         3.9 0.34            145           95.6 175 
 PTB  HZ EP   1    636  7.85                             133   -0.65 7  145 261 
 PTB  HN ES   1    636 29.03                             133   -0.39 7  145 261 
 PTB  HZ I         636 32.09         3.5 0.38            131            145 261 
 SPBC HZ EP        636 10.08                             130    0.29 9  158 220 
 SPBC HN ES   1    636 31.94                             130    0.22 7  158 220 
 SPBC HZ I         636 39.72         4.8 0.30            129            158 220 
                                                                                
