 2013  127 0707 28.1 L   6.709 -73.222149.6  RSN  4 0.3 1.4LRSN                1
 GAP=212        0.84       6.8     6.6  8.4  0.2247E+02 -0.5851E+01 -0.3602E+01E
 Epicentro: VILLANUEVA - SANTANDER                                             3
 ACTION:UPD 13-02-15 09:17 OP:ep   STATUS:               ID:20130127070728 L   I
 2013-01-27-0658-50M.COL___185                                                 6
 STAT SP IPHASW D HRMM SECON CODA AMPLIT PERI AZIMU VELO AIN AR TRES W  DIS CAZ7
 BAR2 SZ EP        7 7 47.37                             175   -0.6410 13.6 161 
 BAR2 SZ I         7 8  3.60         6.8 0.34            169           13.6 161 
 BRR  HZ EP        7 7 49.60                             154    0.0410 69.8 309 
 BRR  HN ES        7 8  6.57                             154    0.2510 69.8 309 
 BRR  HN I         7 8  9.43         3.7 0.18            152           69.8 309 
 RUS  HZ EP        7 7 51.94                             147    0.3610 91.6 170 
 RUS  HN ES        7 8  9.95                             147    0.0310 91.6 170 
 PTB  HZ EP        7 7 54.68                             135    0.20 9  138 262 
 PTB  HN ES        7 8 14.83                             135   -0.24 9  138 262 
 PTB  HN I         7 8 16.82         2.3 0.22            138            138 262 
                                                                                
