 2013  427 0928 13.1 L   6.841 -73.196133.3  RSN 10 0.4 1.9LRSN                1
 GAP=132        0.70       4.5     5.3  8.6 -0.8924E+01  0.1689E+02  0.1799E+01E
 Epicentro: ZAPATOCA - SANTANDER                                               3
 ACTION:UPD 13-05-22 14:41 OP:EP   STATUS:               ID:20130427092813 L   I
 2013-04-27-0918-43M.COL___211                                                 6
 STAT SP IPHASW D HRMM SECON CODA AMPLIT PERI AZIMU VELO AIN AR TRES W  DIS CAZ7
 GIR2 SZ EP   1    928 30.43                             168   -0.71 7 26.3   1 
 BAR2 SZ ES   2    928 45.42                             168   -0.12 5 27.6 177 
 BRR  HZ EP   1    928 33.13                             153    0.64 7 64.2 297 
 BRR  HN ES   4    928 49.87                             153    2.24 0 64.2 297 
 BRR  HN I         928 50.27        20.9 0.20            150           64.2 297 
 PAM  SZ EP   1    928 34.28                             148    0.27 7 77.7  45 
 PAM  SN ES   1    928 50.50                             148    0.17 7 77.7  45 
 PAM  SN I         928 52.35        13.6 0.24            150           77.7  45 
 PTB  HZ EP   1    928 38.31                             130   -0.33 7  143 257 
 PTB  HN ES   1    928 58.64                             130    0.05 7  143 257 
 PTB  HN I         929  2.82         5.1 0.18            130            143 257 
 OCA  HE ES   2    929  0.37                             128   -0.55 5  155 355 
 OCA  HE I         929  6.02        20.4 0.22            128            155 355 
 NOR  HN ES   2    929 15.46                             116    0.35 4  233 233 
 SML  HN ES   1    929 15.90                             115    0.07 6  237 336 
 SML  HN I         929 20.74        11.0 0.10            116            237 336 
 URE  HN ES   4    929 24.34                             112    0.56 0  277 291 
 PRA  HZ EP   1    929  6.55                             104    0.20 4  393 209 
 PRA  HN ES   2    929 47.36                             104   -0.54 3  393 209 
 PRA  HN I         929 53.97         1.9 0.34            105            393 209 
 SJC  HN ES   4    929 46.54                             104   -3.32 0  402 327 
 SJC  HN I         929 50.27         2.0 0.26            104            402 327 
                                                                                
