 2015  927 0519 40.4 L   6.802 -73.130141.3  RSN 17 0.4 2.2LRSN                1
 GAP=184        1.01       2.9     4.1  5.7 -0.7916E+00  0.5361E+01 -0.3044E+00E
 Epicentro: LOS SANTOS - SANTANDER                                             3
 ACTION:UPD 15-10-28 16:28 OP:cam  STATUS:               ID:20150927051940 L   I
 OLDACT:REG 15-09-27 12:32 OP:spq  STATUS:               ID:20150927051748     3
 2015-09-27-0517-48M.COL___340                                                 6
 STAT SP IPHASW D HRMM SECON CODA AMPLIT PERI AZIMU VELO AIN AR TRES W  DIS CAZ7
 BAR2 EZ EP     D  519 59.45                             170   -0.0210 23.8 194 
 BAR2 EZ ES   1    520 14.12                             170   -0.26 7 23.8 194 
 BAR2 EZ I         520 15.35        36.2 0.12            168           23.8 194 
 BRR  HZ EP     D  520  1.42                             151    0.3010 72.6 298 
 BRR  HN ES        520 18.26                             151    0.9510 72.6 298 
 BRR  HZ I         520 20.08        46.8 0.13            147           72.6 298 
 RUS  HZ EP   1    520  3.81                             143    0.12 7  101 177 
 RUS  HN ES        520 21.76                             143   -0.1210  101 177 
 RUS  HZ I         520 22.46        10.8 0.42            145            101 177 
 PTB  HZ EP        520  6.49                             131   -0.64 9  149 259 
 PTB  HN ES        520 27.35                             131   -0.66 9  149 259 
 PTB  HZ I         520 30.45        31.5 0.10            129            149 259 
 OCA  HZ EP        520  7.75                             129   -0.59 9  160 353 
 OCA  HN ES        520 29.77                             129   -0.39 9  160 353 
 SPBC HZ EP        520  8.45                             128   -0.20 9  164 219 
 SPBC HN ES        520 30.52                             128   -0.18 9  164 219 
 SPBC HZ I         520 35.08        19.0 0.24            128            164 219 
 ZAR  HZ EP        520 12.64                             121   -0.04 8  206 292 
 ZAR  HN ES        520 38.54                             121    0.65 8  206 292 
 ZAR  HZ I         520 44.46        27.2 0.32            121            206 292 
 NOR  HZ EP        520 16.21                             117    0.21 8  236 235 
 NOR  HE ES        520 43.92                             117    0.12 8  236 235 
 NOR  HZ I         520 47.43        12.8 0.31            118            236 235 
 SML  HZ EP   1    520 16.94                             116    0.13 6  244 335 
 SML  HE ES   1    520 45.30                             116    0.07 6  244 335 
 SML  HZ I         520 51.62        28.2 0.10            117            244 335 
 CHI  HZ EP        520 18.68                             116    0.79 8  249 196 
 CHI  HN ES   1    520 47.23                             116    0.07 6  249 196 
 HEL  HZ EP   4    520 21.92                             114    1.37 0  274 256 
 HEL  HN ES        520 51.95                             114    0.07 8  274 256 
 HEL  HZ I         521  0.34         8.3 0.28            114            274 256 
 URE  HZ EP   4    520 19.78                             113   -1.62 0  285 292 
 URE  HN ES   4    520 51.06                             113   -2.34 0  285 292 
 URE  HZ I         521  2.63        13.5 0.14            113            285 292 
 GUY2CHZ EP   4    520 25.55                             111    1.61 0  303 235 
 GUY2CHE ES   1    520 57.28                             111   -0.65 5  303 235 
 GUY2CHZ I         521  9.93         5.5 0.50                           303 235 
 CBOC HZ EP        520 28.00                             109    0.71 7  335 252 
 CBOC HN ES        521  4.02                             109    0.12 7  335 252 
 CBOC HZ I         521  7.31         3.7 0.24            109            335 252 
 DBB  SZ EP        520 27.74                             109   -0.12 7  341 274 
 DBB  SZ ES   1    521  4.15                             109   -0.76 5  341 274 
 MON  HZ EP   4 D  520 27.41                             108   -1.93 0  355 308 
 MON  HN ES   4    521  6.25                             108   -1.29 0  355 308 
 MON  HZ I         521  9.19         2.8 0.28            108            355 308 
 SJC  HZ EP   4    520 33.87                             105   -2.01 0  410 327 
 SJC  HN ES   4    521 15.71                             105   -3.47 0  410 327 
 SJC  HZ I         521 19.51         4.4 0.46            106            410 327 
                                                                                
