 2016  127 0648 22.7 L   6.888 -73.092142.2  RSN  4 0.3 0.9LRSN                1
 GAP=139        0.65       3.2     4.0  6.3 -0.3043E+01  0.1041E+02 -0.4706E+01E
 Epicentro: PIEDECUESTA - SANTANDER                                            3
 ACTION:UPD 16-03-09 23:28 OP:cam  STATUS:               ID:20160127064822 L   I
 OLDACT:REG 16-01-27 16:11 OP:ak   STATUS:               ID:20160127064749     3
 2016-01-27-0647-49M.COL___328                                                 6
 STAT SP IPHASW D HRMM SECON CODA AMPLIT PERI AZIMU VELO AIN AR TRES W  DIS CAZ7
 PAM  EZ EP        648 43.40                             154   -0.4610 66.1  41 
 PAM  EN ES        649  0.48                             154    0.0910 66.1  41 
 PAM  EZ I         649  4.35         3.7 0.44            156           66.1  41 
 RUS  HZ EP        648 47.05                             140    0.2610  110 179 
 RUS  HE ES        649  5.71                             140    0.1010  110 179 
 RUS  HZ I         649  7.22         0.6 0.32            145            110 179 
 PTB  HZ EP        648 50.01                             129   -0.07 9  156 256 
 PTB  HN ES        649 11.26                             129   -0.21 9  156 256 
 PTB  HZ I         649 13.74         1.2 0.20            133            156 256 
 SML  HZ EP        648 58.65                             117    0.23 8  237 333 
 SML  HN ES   2    649 26.88                             117    0.58 4  237 333 
                                                                                
