 2012  527 0306  8.7 L   6.821 -73.189138.2  RSN  4 0.2 1.6LRSN                1
 GAP=179        0.61       4.8     6.3  6.1  0.3897E+01  0.1155E+02 -0.3160E+01E
 Epicentro: ZAPATOCA - SANTANDER                                               3
 ACTION:UP  12-07-05 12:08 OP:pat  STATUS:               ID:20120527030608 L   I
 2012-05-27-0300-00M.COL___198                                                 6
 STAT SP IPHASW D HRMM SECON CODA AMPLIT PERI AZIMU VELO SNR AR TRES W  DIS CAZ7
 BAR2 SZ EP        3 6 27.68                             169     0.210   25 178 
 BAR2 SZ ES        3 6 42.00                             169    -0.110   25 178 
 BAR2 SZ I         3 6 44.44        10.2 0.35                            25 178 
 RUS  HZ EP        3 6 32.04                             141     0.110  103 174 
 RUS  HN ES   2    3 6 50.27                             141     0.2 5  103 174 
 RUS  HZ I         3 6 53.52         4.1 0.27                           103 174 
 PTB  HZ EP        3 6 34.33                             131    -0.4 9  144 258 
 PTB  HE ES   2    3 6 55.38                             131     0.4 5  144 258 
 PTB  HZ I         3 7  3.37         5.3 0.52                           144 258 
 OCA  HZ EP   2    3 6 36.45                             128     0.3 5  157 355 
 OCA  HN ES   2    3 6 57.46                             128    -0.1 5  157 355 
 OCA  HZ I         3 7  9.77         8.5 0.22                           157 355 
                                                                                
