 2014  727 0616 32.5 L   6.800 -73.112147.8  RSN  5 0.4 1.4LRSN                1
 GAP=204        0.89       4.2     7.2  8.3  0.3949E+01  0.9703E+01 -0.1422E+02E
 Epicentro: LOS SANTOS - SANTANDER                                             3
 ACTION:UPD 15-03-16 20:47 OP:nd   STATUS:               ID:20140727061632 L   I
 OLDACT:UP  14-07-27 15:07 OP:mh   STATUS:               ID:20140727060816     3
 OLDACT:REG 14-07-27 12:22 OP:mh   STATUS:               ID:20140727060816     3
 2014-07-27-0608-16M.COL___260                                                 6
 STAT SP IPHASW D HRMM SECON CODA AMPLIT PERI AZIMU VELO AIN AR TRES W  DIS CAZ7
 BAR2 SZ ES   1    617  7.74                             170   -0.19 8 24.2 199 
 BAR2 SZ I         617 11.26         3.4 0.13            171           24.2 199 
 RUS  HZ EP        616 56.39                             144   -0.0710  100 178 
 RUS  HN ES        617 15.29                             144    0.1610  100 178 
 RUS  HZ I         617 17.41         2.8 0.36            148            100 178 
 PTB  HZ EP        617  0.57                             132    0.59 9  151 259 
 PTB  HN ES   1    617 20.76                             132   -0.64 7  151 259 
 PTB  HZ I         617 22.99         3.2 0.18            134            151 259 
 SPBC HZ EP        617  0.78                             129   -0.62 9  166 220 
 SPBC HN ES        617 24.27                             129    0.35 9  166 220 
 SPBC HZ I         617 30.60         4.0 0.12            132            166 220 
 SML  HZ EP        617  9.35                             118   -0.08 8  245 335 
 SML  HN ES        617 38.37                             118    0.15 8  245 335 
 SML  HZ I         617 44.06         3.7 0.13            120            245 335 
                                                                                
