 2012 1127 0842 43.2 L   6.676 -72.953  8.9  RSN  4 0.5 1.2LRSN                1
 GAP=220        1.28       4.5     6.7  7.9  0.6973E+01  0.8686E+01 -0.5468E+01E
 Epicentro: ARATOCA - SANTANDER                                                3
 ACTION:UPD 12-12-05 15:36 OP:}ep  STATUS:               ID:20121127084243 L   I
 2012-11-27-0840-00M.COL___234                                                 6
 STAT SP IPHASW D HRMM SECON CODA AMPLIT PERI AZIMU VELO AIN AR TRES W  DIS CAZ7
 BAR2 SZ EP        842 48.17                             103    0.0110 27.0 250 
 BAR2 SZ ES        842 52.27                             103    0.2010 27.0 250 
 BAR2 SZ I         842 52.96        22.8 0.38                          27.0 250 
 GIR2 SZ EP        842 51.37                              96   -0.4210 51.9 329 
 GIR2 SZ I         842 51.52        11.4 0.10                          51.9 329 
 RUS  HZ EP        842 58.32                              94    0.7410 87.8 189 
 RUS  HN ES        843  8.13                              94   -0.7010 87.8 189 
 RUS  HN I         843  9.12         5.7 0.42                          87.8 189 
 PTB  HZ EP   1    843  9.76                              56    0.89 7  167 265 
 PTB  HN ES        843 28.63                              56   -0.29 9  167 265 
 PTB  HN I         843 31.26         4.1 0.82                           167 265 
                                                                                
