 2017 1027 0453 21.1 L   6.789 -73.144140.4  RSN  5 0.4 1.1LRSN                1
 GAP=237        0.90       6.7     6.3  6.5  0.2669E+02  0.4986E+01 -0.4243E+01E
 Epicentro: LOS SANTOS - SANTANDER                                             3
 ACTION:UPD 17-11-07 19:37 OP:rebc STATUS:               ID:20171027045321 L   I
 OLDACT:DUP 17-10-27 15:53 OP:dani STATUS:               ID:20171027043430d    3
 2017-10-27-0448-00M.COL___444                                                 6
 STAT SP IPHASW D HRMM SECON CODA AMPLIT PERI AZIMU VELO AIN AR TRES W  DIS CAZ7
 BAR2 EZ EP        453 39.91                             171   -0.2010 22.2 191 
 BAR2 EZ ES        453 54.85                             171   -0.0610 22.2 191 
 BAR2 EZ I         453 57.73         2.5 0.23            171           22.2 191 
 BRR  HZ EP        453 41.55                             151   -0.2210 71.9 299 
 BRR  HN ES        453 57.98                             151    0.1310 71.9 299 
 BRR  HZ I         454  0.67         2.1 0.37            150           71.9 299 
 RUS  HZ EP        453 44.36                             143    0.0710 99.4 176 
 RUS  HN ES        454  2.55                             143    0.2110 99.4 176 
 RUS  HZ I         454  3.46         1.4 0.24            146           99.4 176 
 PTB  HZ EP        453 47.08                             131   -0.60 9  148 259 
 PTB  HN ES        454  8.40                             131    0.03 9  148 259 
 PTB  HZ I         454 10.79         1.0 0.18            132            148 259 
 ZAR  HZ EP        453 54.23                             121    0.91 9  205 292 
 ZAR  HN ES        454 18.26                             121   -0.15 9  205 292 
 ZAR  HZ I         454 24.46         2.3 0.44            122            205 292 
                                                                                
