 2016  127 0546  0.9 L   6.795 -73.207142.8  RSN  5 0.4 1.1LRSN                1
 GAP=129        0.97       3.7     5.0  8.8 -0.4969E+01  0.1524E+02 -0.8757E+01E
 Epicentro: ZAPATOCA - SANTANDER                                               3
 *SML-PAM                                                                      3
 ACTION:UPD 16-03-09 23:28 OP:cam  STATUS:               ID:20160127054600 L   I
 OLDACT:DUP 16-01-27 18:51 OP:ak   STATUS:               ID:20160127053749d    3
 2016-01-27-0537-48M.COL___328                                                 6
 STAT SP IPHASW D HRMM SECON CODA AMPLIT PERI AZIMU VELO AIN AR TRES W  DIS CAZ7
 PAM  EZ EP        546 23.31                             149    0.1710 82.3  43 
 PAM  EN ES        546 40.38                             149   -0.0810 82.3  43 
 PAM  EZ I         546 41.73         3.2 0.30            153           82.3  43 
 RUS  HZ EP        546 24.71                             143    0.2910  101 172 
 RUS  HE ES        546 42.40                             143   -0.3210  101 172 
 RUS  HZ I         546 44.53         1.1 0.22            145            101 172 
 PTB  HZ EP        546 26.66                             133   -0.39 9  141 258 
 PTB  HN ES        546 47.06                             133   -0.36 9  141 258 
 PTB  HZ I         546 50.67         1.9 0.15            134            141 258 
 SPBC HZ EP        546 28.78                             129    0.00 9  159 217 
 SPBC HN ES        546 51.16                             129    0.68 9  159 217 
 SPBC HZ I         546 56.04         2.9 0.27            131            159 217 
 SML  HZ EP        546 36.60                             117   -0.55 8  241 337 
 SML  HE ES        547  6.01                             117    0.61 8  241 337 
                                                                                
