 2015  927 0535 22.2 L   6.775 -73.172146.0  RSN  6 0.3 1.2LRSN                1
 GAP=233        0.65       4.0     5.5  6.1  0.7875E+01  0.1099E+02  0.2317E+01E
 Epicentro: LOS SANTOS - SANTANDER                                             3
 ACTION:UPD 15-10-28 16:28 OP:cam  STATUS:               ID:20150927053522 L   I
 OLDACT:REG 15-09-27 12:33 OP:spq  STATUS:               ID:20150927052747     3
 2015-09-27-0527-47M.COL___340                                                 6
 STAT SP IPHASW D HRMM SECON CODA AMPLIT PERI AZIMU VELO AIN AR TRES W  DIS CAZ7
 BAR2 EZ ES   1    535 56.81                             172   -0.31 7 20.2 183 
 BAR2 EZ I         535 57.49         3.7 0.14            169           20.2 183 
 BRR  HZ EP        535 43.15                             153   -0.2010 70.1 302 
 BRR  HN ES        536  0.31                             153    0.5010 70.1 302 
 BRR  HZ I         536  1.26         2.4 0.18            149           70.1 302 
 RUS  HE ES   1    536  4.19                             145   -0.04 7 98.1 174 
 RUS  HZ I         536  5.04         2.5 0.26            146           98.1 174 
 PTB  HZ EP        535 48.88                             133   -0.04 9  144 260 
 PTB  HN ES   1    536  9.32                             133   -0.41 7  144 260 
 PTB  HZ I         536 12.66         1.7 0.16            130            144 260 
 SPBC HZ EP   1    535 50.58                             130    0.20 7  159 219 
 SPBC HN ES        536 12.51                             130    0.18 9  159 219 
 SPBC HZ I         536 14.85         3.6 0.36            129            159 219 
 ZAR  HE ES        536 19.57                             123   -0.15 9  202 293 
 ZAR  HZ I         536 28.23         1.8 0.28            121            202 293 
                                                                                
