 2011  827 0928 25.8 L   6.814 -73.140146.0  RSN 10 0.4 2.2LRSN                1
 GAP=137        0.80       3.3     5.9  6.4 -0.4427E+01  0.8075E+01  0.4866E+01E
 Epicentro: LOS SANTOS - SANTANDER                                             3
 ACTION:UPD 12-07-13 15:54 OP:ep   STATUS:               ID:20110827092825 L   I
 2011-08-27-0924-25S.COL___161                                                 6
 STAT SP IPHASW D HRMM SECON CODA AMPLIT PERI AZIMU VELO AIN AR TRES W  DIS CAZ7
 BAR2 SZ IP        928 45.49                             170    0.0510 24.9 191 
 BAR2 SZ I         928 45.80        29.9 0.12                          24.9 191 
 GIR2 SZ EP        928 45.47                             168    0.0610 29.9 349 
 GIR2 SZ ES   2    929  0.61                             168   -0.14 5 29.9 349 
 BRR  HZ IP     C  928 47.28                             153    0.3610 71.1 297 
 BRR  HN ES   1    929  4.02                             153    0.59 7 71.1 297 
 BRR  HZ I         929  6.87        24.1 0.13                          71.1 297 
 PAM  SZ EP   1    928 48.19                             151    0.29 7 75.8  40 
 PAM  SZ I         928 48.51        24.4 0.17                          75.8  40 
 PAM  SN ES   1    929  5.10                             151   -0.07 7 75.8  40 
 RUS  HZ EP        928 49.56                             143   -0.0710  102 176 
 RUS  HN ES   1    929  7.88                             143   -0.38 7  102 176 
 RUS  HZ I         929  9.73        15.6 0.35                           102 176 
 OCA  SZ EP        928 53.84                             130   -0.10 9  159 353 
 OCA  SZ ES   1    929 15.19                             130   -0.75 7  159 353 
 OCA  SZ I         929 20.84        16.5 0.24                           159 353 
 NOR  SZ EP   1    929  0.91                             118   -0.74 6  236 234 
 NOR  SN ES   1    929 29.49                             118   -0.15 6  236 234 
 CHI  HZ EP   1    929  4.33                             117    0.69 6  250 195 
 CHI  HN ES   1    929 33.01                             117   -0.18 6  250 195 
 CHI  HZ I         929 36.59         5.2 0.25                           250 195 
 RREF HZ EP   1    929 11.34                             111   -0.73 5  323 229 
 PRA  HZ EP   1    929 20.37                             106    0.90 4  394 210 
 PRA  HZ I         930  4.67        16.9 0.20                           394 210 
                                                                                
