 2014  427 0247 43.7 L   6.812 -73.153140.8  RSN 10 0.5 1.6LRSN                1
 GAP=135        0.88       3.5     4.3  8.9 -0.2022E+01  0.1307E+02  0.5919E+01E
 Epicentro: LOS SANTOS - SANTANDER                                             3
 OLDACT:DUP 14-04-27 15:49 OP:fm   STATUS:               ID:20140427023807d    3
 OLDACT:REG 14-04-27 13:10 OP:fm   STATUS:               ID:20140427023806     3
 ACTION:UPD 14-05-13 23:11 OP:nd   STATUS:               ID:20140427024743 L   I
 OLDACT:UP  14-04-27 15:55 OP:fm   STATUS:               ID:20140427023807d    3
 2014-04-27-0238-06M.COL___239                                                 6
 STAT SP IPHASW D HRMM SECON CODA AMPLIT PERI AZIMU VELO AIN AR TRES W  DIS CAZ7
 PAM  SZ EP        248  5.91                             150    0.5910 76.9  41 
 PAM  SN ES        248 22.43                             150    0.2210 76.9  41 
 PAM  SZ I         248 25.21         5.8 0.28            153           76.9  41 
 RUS  HZ EP        248  6.63                             142   -0.4010  102 176 
 RUS  HE ES   1    248 25.11                             142   -0.15 7  102 176 
 RUS  SZ I         248 27.61         4.6 1.68            143            102 176 
 PTB  HZ EP   1    248  9.80                             131   -0.38 7  147 258 
 PTB  HN ES        248 30.74                             131   -0.12 9  147 258 
 PTB  SZ I         248 33.28         5.0 0.14            132            147 258 
 OCA  HN ES   2    248 32.62                             129   -0.51 5  159 353 
 SPBC HZ EP   1    248 11.67                             128   -0.17 7  164 218 
 SPBC HN ES   2    248 33.40                             128   -0.41 5  164 218 
 SPBC SZ I         248 34.45         3.9 1.10            129            164 218 
 ZAR  HN ES   1    248 41.10                             121    0.49 6  203 292 
 SML  HN ES   1    248 47.13                             116   -0.93 6  242 335 
 CHI  HN ES   1    248 50.43                             116   -0.07 6  250 195 
 GUY2CHZ EP   1    248 27.70                             111    0.64 5  301 234 
 GUY2CHN ES   1    249  1.64                             111    0.74 5  301 234 
 GUY2CSZ I         249 10.69         2.4 0.70                           301 234 
 RREF HZ EP   4    248 31.75                             110    2.13 0  322 229 
 RREF HN ES   4    249  8.64                             110    3.17 0  322 229 
 RREF SZ I         249 15.03         3.6 1.20            111            322 229 
                                                                                
