 2012  127 0658 40.1 L   6.761 -73.131142.1  RSN 13 0.4 2.3LRSN                1
 GAP=140        0.75       3.3     3.7  5.7 -0.2316E+01  0.1318E+01  0.4382E+01E
 Epicentro: LOS SANTOS - SANTANDER                                             3
 ACTION:UP  12-02-03 08:21 OP:REBC STATUS:               ID:20120127065840 L   I
 2012-01-27-0650-00M.COL___188                                                 6
 STAT SP IPHASW D HRMM SECON CODA AMPLIT PERI AZIMU VELO SNR AR TRES W  DIS CAZ7
 BAR2 SZ EP        658 59.29                             172     0.110   20 197 
 BAR2 SZ ES   2    659 14.27                             172     0.2 5   20 197 
 BAR2 SZ I         659 16.95        52.3 0.21                            20 197 
 GIR2 SZ EP        658 59.35                             165    -0.110   36 349 
 BRR  HZ EP        659  1.18                             151     0.110   75 301 
 BRR  HE ES   1    659 18.14                             151     0.7 7   75 301 
 BRR  HZ I         659 20.80        35.0 0.20                            75 301 
 PAM  SZ EP        659  2.10                             149     0.010   80  37 
 PAM  SE ES   1    659 18.62                             149    -0.6 7   80  37 
 RUS  HZ EP   1    659  3.10                             144    -0.1 7   96 177 
 RUS  HE ES   2    659 21.49                             144     0.3 5   96 177 
 RUS  HZ I         659 23.00        20.3 0.27                            96 177 
 PTB  HZ EP   1    659  6.25                             131    -0.6 7  149 261 
 PTB  HN ES        659 27.15                             131    -0.5 9  149 261 
 OCA  SZ EP        659  8.30                             128    -0.2 9  165 353 
 OCA  SZ ES   1    659 31.25                             128     0.5 7  165 353 
 OCA  SZ I         659 34.81        22.8 0.34                           165 353 
 ZAR  HZ EP   2    659 12.55                             121    -0.1 4  207 293 
 ZAR  HE ES   1    659 38.04                             121     0.0 6  207 293 
 ZAR  HZ I         659 45.76        20.5 0.10                           207 293 
 NOR  SZ EP   1    659 15.67                             118     0.2 6  234 236 
 NOR  SE ES   2    659 43.08                             118     0.0 4  234 236 
 CHI  HZ EP        659 17.42                             117     0.2 8  245 196 
 CHI  HE ES   2    659 46.07                             117     0.0 4  245 196 
 HEL  HZ EP   2    659 20.41                             114     0.2 4  273 257 
 GUY  SZ EP   2    659 24.40                             111     0.7 4  302 236 
 RREF HZ EP   2    659 26.37                             110     0.5 3  320 230 
                                                                                
