 2014  227 0112  5.6 L   6.804 -73.170144.9  RSN  5 0.4 1.3LRSN                1
 GAP=199        0.91       5.3     5.8  9.8  0.1435E+02 -0.6685E+01 -0.2752E+02E
 Epicentro: LOS SANTOS - SANTANDER                                             3
 ACTION:UPD 14-03-10 08:13 OP:ep   STATUS:               ID:20140227011206dL   I
 OLDACT:REG 14-02-27 07:48 OP:fm   STATUS:               ID:20140227010816     3
 2014-02-27-0108-37M.COL___234                                                 6
 STAT SP IPHASW D HRMM SECON CODA AMPLIT PERI AZIMU VELO AIN AR TRES W  DIS CAZ7
 BAR2 SZ EP        112 25.02                             170   -0.0710 23.5 183 
 BAR2 SZ ES   1    112 40.13                             170   -0.19 7 23.5 183 
 BAR2 SZ I         112 41.49         7.8 0.22            169           23.5 183 
 RUS  HZ EP        112 28.89                             143   -0.3910  101 175 
 RUS  HN ES        112 48.22                             143    0.4410  101 175 
 RUS  HZ I         112 48.90         1.3 0.30            145            101 175 
 PTB  HZ EP   1    112 31.80                             132   -0.43 7  145 258 
 PTB  HN ES        112 52.93                             132   -0.11 9  145 258 
 PTB  HZ I         112 58.59         1.9 0.24            132            145 258 
 ZAR  HN ES        113  3.01                             123    0.28 9  201 292 
 SML  HZ EP        112 42.75                             117    0.78 8  242 336 
 SML  HN ES        113  9.96                             117   -0.41 8  242 336 
 SML  HZ I         113 12.45         3.6 0.10            119            242 336 
                                                                                
