 2017  927 0956 39.7 L   6.824 -73.014141.2  RSN  4 0.2 1.1LRSN                1
 GAP=252        0.56       7.4    13.3  5.6  0.7367E+02  0.7589E+01 -0.1111E+02E
 Epicentro: CEPITA - SANTANDER                                                 3
 ACTION:UPD 17-10-05 19:16 OP:rebc STATUS:               ID:20170927095639 L   I
 OLDACT:REG 17-09-27 13:03 OP:edw  STATUS:               ID:20170927094744     3
 2017-09-27-0948-00M.COL___447                                                 6
 STAT SP IPHASW D HRMM SECON CODA AMPLIT PERI AZIMU VELO AIN AR TRES W  DIS CAZ7
 BAR2 EZ EP        956 58.69                             167   -0.3210 31.7 216 
 BAR2 EZ ES        957 14.18                             167    0.1310 31.7 216 
 BAR2 EZ I         957 15.29         4.9 0.28            167           31.7 216 
 BRR  HZ EP        957  1.21                             148    0.0910 83.2 292 
 RUS  HZ EP        957  3.50                             142    0.2710  103 184 
 RUS  HN ES        957 21.43                             142   -0.1410  103 184 
 RUS  HZ I         957 22.01         1.3 0.32            143            103 184 
 ZAR  HZ EP        957 13.14                             120   -0.05 8  217 290 
                                                                                
