 2011  827 0017  7.5 L   6.480 -73.184141.6  RSN 10 0.4 2.1LRSN                1
 GAP=141        0.73       2.9     5.0  5.3 -0.5883E+01  0.6580E+01  0.2295E+01E
 Epicentro: VALLE DE SAN JOSE - SANTANDER                                      3
 ACTION:UPD 12-07-13 15:53 OP:ep   STATUS:               ID:20110827001707 L   I
 2011-08-27-0014-53S.COL___161                                                 6
 STAT SP IPHASW D HRMM SECON CODA AMPLIT PERI AZIMU VELO AIN AR TRES W  DIS CAZ7
 BAR2 SZ EP        017 26.42                             175   -0.0710 12.4   1 
 BAR2 SZ ES   1    017 40.87                             175   -0.40 7 12.4   1 
 BAR2 SZ I         017 41.95        33.8 0.26                          12.4   1 
 RUS  HZ EP   1    017 28.66                             154    0.01 7 65.9 170 
 RUS  HZ I         017 29.27        25.7 0.09                          65.9 170 
 RUS  HN ES   1    017 45.43                             154    0.31 7 65.9 170 
 GIR2 SZ EP        017 28.21                             154    0.0510 66.2 359 
 GIR2 SZ ES   1    017 44.15                             154   -0.10 7 66.2 359 
 BRR  HZ IP     D  017 29.71                             145    0.2410 90.7 320 
 BRR  HE ES   1    017 47.23                             145    0.64 7 90.7 320 
 PAM  SZ EP   1    017 31.67                             141    0.16 7  109  29 
 PAM  SN ES   1    017 50.31                             141    0.09 7  109  29 
 PAM  SZ I         017 53.25         5.7 0.33                           109  29 
 OCA  SZ EP   1    017 38.54                             123   -0.43 6  195 356 
 OCA  SZ ES   1    018  2.90                             123   -0.60 6  195 356 
 OCA  SZ I         018  4.34        16.6 0.19                           195 356 
 NOR  SN ES   1    018  5.67                             120   -0.79 6  212 242 
 CHI  HZ EP   1    017 40.78                             120   -0.44 6  213 197 
 CHI  HE ES   1    018  7.32                             120   -0.18 6  213 197 
 CHI  HZ I         018 13.37         5.5 0.48                           213 197 
 RREF HZ EP   1    017 51.43                             112    0.81 5  297 234 
 RREF HN ES   1    018 24.49                             112    0.26 5  297 234 
 RREF HZ I         018 29.60         4.6 0.24                           297 234 
 PRA  HZ EP   1    017 57.62                             107    0.52 5  359 212 
 PRA  HN ES   1    018 35.54                             107   -0.23 5  359 212 
 PRA  HZ I         018 40.83        18.7 0.28                           359 212 
                                                                                
