 2010  827 0959 52.3 L   6.805 -73.050146.8  RSN  5 0.0 1.6LRSN                1
 GAP=247        0.29       2.5     3.9  3.8  0.4278E+01 -0.2738E+01  0.1143E+01E
 Epicentro: LOS SANTOS - SANTANDER                                             3
 ACTION:UP  10-09-07 10:58 OP:vdl  STATUS:               ID:20100827095952 L   I
 2010-08-27-0958-44S.COL___120                                                 6
 STAT SP IPHASW D HRMM SECON CODA AMPLIT PERI AZIMU VELO SNR AR TRES W  DIS CAZ7
 BAR2 SZ EP       10 0 12.24                             169     0.010   28 212 
 BAR2 SZ I        10 0 29.86         8.9 0.21                            28 212 
 BRR  HZ EP       10 0 14.08                             150    -0.110   80 295 
 BRR  HZ I        10 0 21.70         8.3 0.34                            80 295 
 BRR  HN ES       10 0 31.17                             150     0.010   80 295 
 RUS  HZ EP   1   10 0 16.23                             144     0.0 7  101 182 
 RUS  HZ I        10 0 17.10         2.4 0.16                           101 182 
 RUS  HN ES   1   10 0 34.81                             144     0.0 7  101 182 
 RREF HN ES   2   10 1 16.24                             110     0.0 3  330 231 
 RREF HZ I        10 1 22.66         1.7 0.21                           330 231 
 PRA  HN ES   2   10 1 28.95                             106     0.1 3  398 211 
 PRA  HZ I        10 1 32.79         1.8 0.33                           398 211 
                                                                                
