 2012  727 0516 32.7 L   6.741 -73.166144.2  RSN  4 0.2 1.6LRSN                1
 GAP=231        0.59       6.3     7.7  6.2  0.3014E+02 -0.3462E+01 -0.2415E+01E
 Epicentro: VILLANUEVA - SANTANDER                                             3
 ACTION:UPD 12-08-14 11:45 OP:ep   STATUS:               ID:20120727051632 L   I
 2012-07-27-0510-00M.COL___215                                                 6
 STAT SP IPHASW D HRMM SECON CODA AMPLIT PERI AZIMU VELO AIN AR TRES W  DIS CAZ7
 BAR2 SZ EP        516 51.93                             173    -0.110   17 186 
 BAR2 SZ ES   1    517  6.69                             173    -0.4 7   17 186 
 BAR2 SZ I         517  8.23        11.1 0.18            170             17 186 
 BRR  HZ EP        516 53.78                             152     0.010   73 304 
 BRR  HZ I         516 54.00        11.2 0.12            151             73 304 
 BRR  HN ES   1    517 10.50                             152     0.3 7   73 304 
 RUS  HZ EP        516 55.86                             145     0.010   94 174 
 RUS  HZ I         516 56.79         3.9 0.10            144             94 174 
 RUS  HN ES   1    517 14.26                             145     0.3 7   94 174 
 PTB  HZ EP   2    516 59.19                             132    -0.1 5  144 261 
 PTB  HN ES   2    517 19.77                             132    -0.2 5  144 261 
 PTB  HZ I         517 21.91         4.6 0.30            131            144 261 
