 2012  227 0623 59.3 L   6.767 -73.169151.6  RSN  4 0.4 1.3LRSN                1
 GAP=232        0.70       7.5     7.6 10.0  0.3645E+02 -0.1213E+02 -0.1529E+02E
 ACTION:UP  12-03-07 16:34 OP:epov STATUS:               ID:20120227062359 L   I
 2012-02-27-0620-00M.COL___192                                                 6
 STAT SP IPHASW D HRMM SECON CODA AMPLIT PERI AZIMU VELO AIN AR TRES W  DIS CAZ7
 BRR  HZ EP        624 20.99                             153   -0.0310 70.8 302 
 BRR  HZ I         624 21.15         7.2 0.15                          70.8 302 
 BRR  HE ES   1    624 38.17                             153    0.17 7 70.8 302 
 RUS  HZ EP   1    624 23.80                             146    0.44 7 97.2 174 
 RUS  HN ES   1    624 41.68                             146   -0.47 7 97.2 174 
 RUS  HZ I         624 42.87         1.5 0.34                          97.2 174 
 PTB  HZ EP   2    624 26.00                             134   -0.43 5  145 260 
 PTB  HE ES   1    624 48.05                             134    0.43 7  145 260 
 ZAR  HN ES   1    624 57.12                             124   -0.41 6  203 293 
                                                                                
