 2012  127 0844 27.3 L   6.750 -73.103149.5  RSN  7 0.3 1.5LRSN                1
 GAP=144        0.70       5.5     6.9  7.9  0.1001E+02  0.8144E+01  0.1053E+02E
 Epicentro: LOS SANTOS - SANTANDER                                             3
 ACTION:UP  12-02-03 08:21 OP:REBC STATUS:               ID:20120127084427 L   I
 2012-01-27-0840-00M.COL___188                                                 6
 STAT SP IPHASW D HRMM SECON CODA AMPLIT PERI AZIMU VELO SNR AR TRES W  DIS CAZ7
 BAR2 SZ EP   1    844 47.47                             172     0.1 7   20 206 
 BAR2 SZ I         845  4.26        10.4 0.33                            20 206 
 GIR2 SZ EP   2    844 47.69                             165     0.1 5   38 345 
 BRR  HZ EP        844 49.38                             151     0.110   78 300 
 BRR  HZ I         844 49.68        10.5 0.14                            78 300 
 BRR  HE ES   1    845  6.70                             151     0.3 7   78 300 
 PAM  SN ES   2    845  7.30                             151    -0.4 5   79  34 
 RUS  HZ EP   1    844 51.07                             146     0.0 7   95 179 
 RUS  HN ES   1    845  9.41                             146    -0.1 7   95 179 
 RUS  HZ I         845 11.89         3.1 0.59                            95 179 
 PTB  HZ EP   1    844 54.24                             132    -0.7 7  151 261 
 PTB  HE ES   2    845 16.33                             132    -0.1 5  151 261 
 CHI  HZ EP   1    845  5.26                             118     0.5 6  245 197 
 CHI  HZ I         845 40.84         1.7 0.48                           245 197 
                                                                                
