 2016  927 0322 12.6 L   6.750 -73.079142.4  RSN 14 0.5 2.1LRSN                1
 GAP=169        1.29       4.0     5.6  6.4 -0.3711E-01  0.3337E+01  0.2512E+01E
 Epicentro: LOS SANTOS - SANTANDER                                             3
 ACTION:UPD 17-08-17 21:16 OP:lp   STATUS:               ID:20160927032212 L   I
 OLDACT:UP  16-09-27 15:36 OP:edw  STATUS:               ID:20160927031743     3
 OLDACT:UP  16-09-27 15:35 OP:edw  STATUS:               ID:20160927031743     3
 OLDACT:UP  16-09-27 15:34 OP:edw  STATUS:               ID:20160927031743     3
 OLDACT:UP  16-09-27 15:32 OP:edw  STATUS:               ID:20160927031743     3
 OLDACT:REG 16-09-27 12:42 OP:edw  STATUS:               ID:20160927031743     3
 2016-09-27-0318-00M.COL___360                                                 6
 STAT SP IPHASW D HRMM SECON CODA AMPLIT PERI AZIMU VELO AIN AR TRES W  DIS CAZ7
 BAR2 EZ IP     C  322 31.48                             171   -0.2910 20.8 213 
 BAR2 EZ ES        322 46.68                             171   -0.0510 20.8 213 
 BAR2 EZ I         322 47.70        43.2 0.16            167           20.8 213 
 BRR  HZ EP        322 33.59                             149   -0.3410 80.3 300 
 BRR  HN ES        322 50.47                             149   -0.1010 80.3 300 
 BRR  HZ I         322 51.57        20.6 0.12            146           80.3 300 
 RUS  HZ EP        322 35.49                             144   -0.1010 94.8 180 
 RUS  HN ES        322 53.95                             144    0.4110 94.8 180 
 RUS  HZ I         322 54.45         6.5 0.28            144           94.8 180 
 PTB  HZ EP   9    322 38.66                             130   -1.21 0  154 261 
 PTB  HN ES        322 59.02                             129   -0.92 9  154 261 
 PTB  HZ I         323  4.98        12.5 0.18            128            154 261 
 SPBC HZ EP        322 40.50                             128   -0.38 9  164 222 
 SPBC HN ES        323  2.36                             128   -0.60 9  164 222 
 SPBC HZ I         323  8.91        18.9 0.18            127            164 222 
 OCA  HZ EP    9   322 41.86                             127    0.60 9  167 351 
 OCA  HN ES        323  4.02                             127    0.39 9  167 351 
 OCA  HZ I         323  6.41        27.1 0.26            129            167 351 
 ZAR  HZ EP        322 45.75                             120    0.00 8  213 293 
 ZAR  HN ES        323 10.84                             120   -0.77 8  213 293 
 ZAR  HZ I         323 16.80        11.8 0.32            120            213 293 
 NOR  HZ EP        322 49.12                             117    0.68 8  238 237 
 NOR  HN ES        323 16.49                             117    0.09 8  238 237 
 NOR  HZ I         323 22.28         8.9 0.16            117            238 237 
 CHI  HZ EP        322 49.34                             116   -0.40 8  245 197 
 CHI  HN ES   4    323 20.72                             116    2.00 0  245 197 
 CHI  HZ I         323 24.66         5.1 0.22            117            245 197 
 HEL  HZ EP        322 53.43                             113    0.15 7  278 257 
 HEL  HN ES   4    323 26.86                             113    1.83 0  278 257 
 HEL  HZ I         323 28.47         4.6 0.48            113            278 257 
 PTGC HZ EP        322 54.72                             111   -0.69 7  301 160 
 PTGC HN ES   4    323 27.90                             111   -0.90 0  301 160 
 GUY2CHZ EP        322 56.97                             111    0.60 7  304 236 
 GUY2CHN ES        323 32.23                             111    1.70 7  304 236 
 GUY2CHZ I         323 38.09         7.0 0.40                           304 236 
 CBOC HZ EP   4    323  0.26                             109    0.28 0  339 253 
 ANIL HN ES   4    323 44.76                             107    3.48 0  359 226 
 PAL  HZ EP        323  7.67                             105   -0.38 6  409 240 
 PAL  HN ES   4    323 53.43                             105    2.11 0  409 240 
 PAL  HZ I         323 54.44         2.8 0.26            105            409 240 
 SJC  HZ EP   4    323  6.26                             104   -2.80 0  418 327 
 SJC  HN ES   4    323 47.47                             104   -5.64 0  418 327 
 SJC  HZ I         323 51.86         2.6 0.32            105            418 327 
 CRJC HZ EP   4    323  5.48                             102   -10.1 0  473   3 
 CRJC HN ES   4    323 59.25                             102   -5.51 0  473   3 
                                                                                
