 2015  427 0939 35.8 L   7.485 -73.142133.6  RSN 14 0.6 2.4LRSN                1
 GAP=107        1.59       5.3     7.9  9.9  0.1027E+02  0.1012E+02 -0.9514E+00E
 Epicentro: EL PLAYON - SANTANDER                                              3
 ACTION:UPD 15-06-03 16:57 OP:cam  STATUS:               ID:20150427093935 L   I
 OLDACT:REG 15-04-27 13:06 OP:stll STATUS:               ID:20150427093748     3
 2015-04-27-0937-48M.COL___265                                                 6
 STAT SP IPHASW D HRMM SECON CODA AMPLIT PERI AZIMU VELO AIN AR TRES W  DIS CAZ7
 BRR  HZ IP     D  939 56.43                             149    0.5410 75.5 236 
 BRR  HZ I         939 56.65        66.9 0.22            114           75.5 236 
 BRR  HN ES        940 12.39                             149    0.8110 75.5 236 
 BAR2 EZ IP     D  939 58.13                             141    0.2710 98.8 183 
 BAR2 EZ ES        940 14.91                             141   -0.1710 98.8 183 
 BAR2 EZ I         940 15.91        41.3 0.22            111           98.8 183 
 RUS  HE ES        940 27.29                             124   -0.86 9  176 178 
 RUS  HZ I         940 32.84         7.7 0.46            101            176 178 
 SML  HZ EP        940  4.45                             123   -0.28 9  178 325 
 SML  HN ES        940 26.93                             123   -0.38 9  178 325 
 SML  HZ I         940 31.50        46.2 0.10            101            178 325 
 PTB  HZ EP        940  4.44                             123   -0.41 9  179 234 
 PTB  HN ES        940 27.41                             123   -0.12 9  179 234 
 PTB  HZ I         940 30.19        39.2 0.36             99            179 234 
 ZAR  HZ EP     C  940  5.76                             122   -0.16 9  189 270 
 ZAR  HN ES        940 30.12                             122    0.69 9  189 270 
 ZAR  HZ I         940 33.45        41.3 0.26             99            189 270 
 SPBC HZ EP        940 11.03                             117    0.97 8  227 207 
 SPBC HN ES        940 36.14                             117   -0.66 8  227 207 
 SPBC HZ I         940 42.71        21.6 0.24             97            227 207 
 SOCV BZ EP   9    940 15.15                             112    0.75 0  267  71 
 SOCV BN ES        940 44.24                                   -1.04 8  267  71 
 NOR  HZ EP        940 16.80                             111    0.26 7  286 222 
 NOR  HN ES        940 48.83                             111    0.49 7  286 222 
 NOR  HZ I         940 54.68        18.0 0.24             95            286 222 
 HEL  HZ EP        940 18.54                             110   -0.05 7  300 242 
 HEL  HZ I         941  0.78        13.8 0.50             95            300 242 
 MON  HZ EP   9    940 18.16                             109   -1.41 0  313 297 
 MON  HN ES        940 51.12                                   -1.20 7  313 297 
 MON  HZ I         940 54.04         4.3 0.16             95            313 297 
 SJC  HZ EP   9    940 23.27                             107   -0.54 0  348 320 
 SJC  HZ I         940 23.73         8.8 0.26             94            348 320 
 SJC  HN ES        940 58.85                                   -1.88 6  348 320 
 GUY2CHZ EP        940 23.74                             107   -0.84 6  351 225 
 GUY2CHE ES        941  1.15                             107   -1.49 6  351 225 
 GUY2CHZ I         941 13.14        12.3 0.68                           351 225 
 CBOC HZ EP        940 26.17                             106    0.36 6  364 241 
 CBOC HZ I         941 18.57         3.8 0.38             94            364 241 
                                                                                
