 2017  427 0613 40.4 L   6.822 -73.126156.0  RSN 43 0.7 3.7LRSN                1
 GAP=113        0.94       2.2     2.7  4.2 -0.1624E+00  0.1718E+01  0.1410E+01E
 Epicentro: LOS SANTOS - SANTANDER                                             3
      85.0      73.0    -174.0 10.0  3.0 10.0  0.1  0.1           RSN FPFIT    F
 ACTION:UPD 17-05-30 21:16 OP:jn   STATUS:               ID:20170427061340 L   I
 OLDACT:UP  17-04-27 16:51 OP:and  STATUS:               ID:20170427060742     3
 OLDACT:UP  17-04-27 16:50 OP:and  STATUS:               ID:20170427060742     3
 OLDACT:UP  17-04-27 16:49 OP:and  STATUS:               ID:20170427060742     3
 OLDACT:UP  17-04-27 16:48 OP:and  STATUS:               ID:20170427060742     3
 OLDACT:UP  17-04-27 16:36 OP:and  STATUS:               ID:20170427060742     3
 OLDACT:UP  17-04-27 16:32 OP:and  STATUS:               ID:20170427060742     3
 OLDACT:UP  17-04-27 16:30 OP:and  STATUS:               ID:20170427060742     3
 OLDACT:UP  17-04-27 16:29 OP:and  STATUS:               ID:20170427060742     3
 OLDACT:UP  17-04-27 16:27 OP:and  STATUS:               ID:20170427060742     3
 OLDACT:UP  17-04-27 16:27 OP:and  STATUS:               ID:20170427060742     3
 OLDACT:UP  17-04-27 16:24 OP:and  STATUS:               ID:20170427060742     3
 OLDACT:UP  17-04-27 16:24 OP:and  STATUS:               ID:20170427060742     3
 OLDACT:UP  17-04-27 16:23 OP:and  STATUS:               ID:20170427060742     3
 OLDACT:UP  17-04-27 16:23 OP:and  STATUS:               ID:20170427060742     3
 OLDACT:REG 17-04-27 12:42 OP:and  STATUS:               ID:20170427060742     3
 2017-04-27-0608-00M.COL___360                                                 6
 STAT SP IPHASW D HRMM SECON CODA AMPLIT PERI AZIMU VELO AIN AR TRES W  DIS CAZ7
 BRR  HZ IP     C  614  2.97                             154    0.2710 72.0 296 
 BRR  HN ES        614 20.20                             154    0.0910 72.0 296 
 BRR  HZ I         614 24.13       915.4 0.26            152           72.0 296 
 PAM  EZ IP     C  614  4.06                             154    0.5310 74.1  39 
 PAM  EN ES        614 21.12                             154   -0.4610 74.1  39 
 PAM  EZ I         614 23.50       703.4 0.48            158           74.1  39 
 PTB  HZ IP   2 C  614  7.66                             134   -0.78 5  150 258 
 PTB  HN ES   2    614 28.86                             134   -1.46 5  150 258 
 PTB  HZ I         614 35.69       624.5 0.34            132            150 258 
 SPBC HZ EP        614 10.02                             131    0.02 9  166 219 
 SPBC HN ES        614 32.92                             131   -0.17 9  166 219 
 SPBC HZ I         614 37.10      1220.7 0.20            130            166 219 
 YPLC HZ IP     D  614 11.64                             129    0.58 9  178 152 
 YPLC HN ES        614 35.45                             129    0.47 9  178 152 
 YPLC HZ I         614 38.41       350.3 0.32            130            178 152 
 ZAR  HZ EP        614 13.19                             124   -0.45 9  205 291 
 ZAR  HN ES        614 39.17                             124   -0.40 9  205 291 
 ZAR  HZ I         614 44.44       854.0 0.40            124            205 291 
 TABC EZ EP   9    614 18.58                             121    1.47 0  233 211 
 TABC EZ ES        614 47.85                             120    0.63 8  233 211 
 TABC EZ I         614 50.31       943.9 0.72            121            233 211 
 NOR  HZ EP        614 16.99                             120   -0.08 8  238 234 
 NOR  HE ES        614 45.69                             120    0.01 8  238 234 
 NOR  HZ I         614 54.59       303.3 0.21            120            238 234 
 CHI  HZ EP        614 19.03                             119    0.04 8  252 196 
 CHI  HN ES        614 48.71                             119   -0.39 8  252 196 
 CHI  HZ I         614 52.25       477.8 0.64            119            252 196 
 ROSC BZ IP   9 D  614 20.92                             118    1.49 0  256 211 
 ROSC BN ES        614 51.25                             118   -0.12 8  256 211 
 HEL  HZ EP        614 21.80                             116    0.36 8  275 255 
 HEL  HN ES        614 53.41                             116   -0.05 8  275 255 
 HEL  HZ I         614 59.35       368.6 0.30            116            275 255 
 LL1C HZ EP   3    614 25.89                             114    1.65 2  305 351 
 LL1C HN ES   4    615  0.87                             114    2.43 0  305 351 
 VIL  EZ EP        614 24.40                             114   -0.21 7  306 192 
 VIL  EE ES        614 58.57                             114   -0.53 7  306 192 
 VIL  EZ I         615  8.96       748.7 0.42            114            306 192 
 PTGC HZ IP     D  614 24.38                             113   -0.51 7  310 159 
 PTGC HN ES   3    614 58.25                             113   -1.35 2  310 159 
 PTGC HZ I         615  0.51       220.7 0.34            114            310 159 
 LL6C HN EP   9    614  6.42                             112   -19.9 0  323 357 
 LL6C HN ES   2    614 41.17                                   -1.05 3  323 357 
 LL6C HN I         614 51.08       221.1 0.30            114            323 357 
 LL5C HN ES   4    615  5.88                             112    2.27 0  330 349 
 ELA  HZ EP   2    614 28.89                             112    0.83 3  332 229 
 ELA  HN ES        615  6.73                             112    1.49 7  332 229 
 ELA  HZ I         615 13.92       330.1 0.58            112            332 229 
 CBOC HZ EP        614 28.55                             111    0.48 7  336 252 
 CBOC HN ES        615  6.07                             111    0.81 7  336 252 
 CBOC HZ I         615 11.04        95.6 0.52            112            336 252 
 DBB  EZ EP        614 28.55                             111    0.02 7  341 274 
 DBB  EE ES        615  5.08                             111   -1.00 7  341 274 
 DBB  EZ I         615  6.78       186.3 0.32            111            341 274 
 ARGC HZ EP   2    614 31.11                             110    0.83 3  358 340 
 ARGC HE ES   2    615 10.90                             110    1.71 3  358 340 
 ARGC HZ I         615 17.05        92.6 0.30            111            358 340 
 ANIL HZ EP        614 31.44                             110    0.46 6  361 224 
 ANIL HN ES   3    615 12.08                             110    1.64 2  361 224 
 ORTC HZ EP        614 35.30                             108    0.25 6  399 216 
 ORTC HE ES        615 18.43                             108    0.74 6  399 216 
 ORTC HZ I         615 22.64       241.6 0.24            108            399 216 
 APAC HZ IP     D  614 35.05                             108   -0.05 6  400 288 
 APAC HN ES   2    615 16.76                             108   -1.01 3  400 288 
 APAC HZ I         615 26.79       101.1 0.32            108            400 288 
 SJC  HZ IP   3 D  614 34.81                             107   -1.40 1  408 327 
 SJC  HN ES   4    615 16.22                             107   -3.53 0  408 327 
 SJC  HZ I         615 31.06       131.5 0.70            108            408 327 
 VALLCHZ IP     C  614 35.32                             107   -0.80 6  408 358 
 VALLCHE ES        615 19.65                             107    0.07 6  408 358 
 PAL  HZ IP     C  614 36.65                             107    0.38 6  409 239 
 PAL  HN ES        615 20.27                             107    0.41 6  409 239 
 PAL  HZ I         615 24.77        86.8 0.22            108            409 239 
 LCBC HZ EP        614 37.02                             107   -0.74 5  422 302 
 LCBC HE ES   3    615 23.73                             107    1.22 1  422 302 
 LCBC HZ I         615 27.08       113.0 0.22            107            422 302 
 YOT  HZ IP     C  614 43.29                             104   -0.83 5  475 229 
 YOT  HN ES        615 32.80                             104   -1.02 5  475 229 
 GUA  EZ EP        614 43.58                             104   -0.52 5  476 173 
 GUA  EN ES        615 33.00                             104   -0.78 5  476 173 
 GUA  EZ I         615 38.78       104.6 0.32            105            476 173 
 SMAR HZ EP        614 45.88                             104   -0.45 4  495 346 
 SMAR HN ES   4    615 34.13                             104   -3.63 0  495 346 
 SMAR HZ I         615 36.72        78.5 0.40            105            495 346 
 CAP2 HZ EP   4    614 45.62                             103   -2.33 0  509 294 
 CAP2 HN ES   4    615 37.05                             103   -3.59 0  509 294 
 CAP2 HZ I         615 41.05        55.2 0.14            104            509 294 
 PIZC HZ EP        614 49.94                             103    1.66 4  512 247 
 PIZC HN ES        615 40.90                             103   -0.34 4  512 247 
 PTA  HZ EP        614 48.77                             103   -0.34 4  519 274 
 PTA  HN ES   4    615 39.24                             103   -3.46 0  519 274 
 PTA  HZ I         615 43.91        30.8 0.32            103            519 274 
 BET  EZ EP        614 49.31                             103   -0.00 4  520 209 
 BET  EN ES   4    615 40.19                             103   -2.88 0  520 209 
 BET  EZ I         615 47.47        65.5 0.32            103            520 209 
 MACC HZ IP   3 C  614 48.32                             103   -1.37 1  523 189 
 MACC HN ES   4    615 40.27                             103   -3.47 0  523 189 
 MACC HZ I         615 45.58        61.7 0.38            103            523 189 
 MARO HZ EP        614 51.86                             102   -0.20 4  540 216 
 MARO HE ES   4    615 45.66                             102   -2.29 0  540 216 
 MARO HZ I         615 52.84        45.3 0.40            103            540 216 
 URI  HZ EP   4    614 51.47                             102   -1.83 0  554  13 
 URI  HN ES   4    615 46.05                             102   -4.12 0  554  13 
 URI  HZ I         615 54.29        30.2 0.50            103            554  13 
 JAMC HZ EP        614 54.06                             102   -0.28 3  560 225 
 JAMC HN ES   4    615 49.82                             102   -2.20 0  560 225 
 JAMC HZ I         615 57.50        15.7 0.28            102            560 225 
 MAL  EZ EP   4    614 55.20                             102    1.12 0  560 237 
 MAL  EZ I         616 10.79        23.7 0.74            102            560 237 
 GARC HZ IP     C  614 55.35                             101   -0.91 3  576 207 
 GARC HN ES   4    615 49.79                             101   -5.64 0  576 207 
 GARC HZ I         615 59.52        97.4 0.24            102            576 207 
 CONO HZ EP        615  2.15                             101    0.78 3  615 216 
 CONO HN ES   4    616  5.57                             101    1.04 0  615 216 
 CONO HZ I         616 13.91        24.7 0.42            101            615 216 
 POP2 HZ IP     C  615  0.58                             100   -0.43 3  616 220 
 POP2 HN ES        616  4.51                             100    0.62 3  616 220 
 POP2 HZ I         616 10.00        12.7 0.46            101            616 220 
 FLO2 HZ EP        615  3.44                             100   -0.65 2  644 206 
 FLO2 HN ES        616  8.63                             100   -0.75 2  644 206 
 FLO2 HZ I         616 14.24        15.5 0.43            100            644 206 
 CRU  EZ EP   4    615 16.14                              99    2.50 0  720 216 
 TULM HZ EP        615 30.42                              97    0.78 0  851 218 
                                                                                
