 2011  427 0412 48.5 L   6.660 -73.286141.1  RSN  4 0.4 1.9LRSN                1
 GAP=166        0.87       5.8    12.3  9.9  0.2347E+02  0.9842E+01 -0.3088E+01E
 Epicentro: GALAN - SANTANDER                                                  3
 ACTION:UP  11-06-22 15:33 OP:REBC STATUS:               ID:20110427041248 L   I
 2011-04-27-0400-00M.COL___137                                                 6
 STAT SP IPHASW D HRMM SECON CODA AMPLIT PERI AZIMU VELO SNR AR TRES W  DIS CAZ7
 BRR  HZ EP   1    413  8.19                             153    -0.8 7   68 316 
 BRR  HZ I         413  8.34        23.1 0.11                            68 316 
 BRR  HE ES   1    413 25.11                             153     0.2 7   68 316 
 RUS  HZ EP   1    413 10.73                             147    -0.2 7   88 165 
 RUS  HN ES   1    413 28.49                             147     0.1 7   88 165 
 RUS  HZ I         413 29.78         6.6 0.57                            88 165 
 OCA  SZ EP   1    413 18.26                             126     0.4 7  175 359 
 OCA  SZ ES   2    413 40.87                             126     0.1 4  175 359 
 OCA  SZ I         413 46.62         9.9 0.37                           175 359 
 NOR  SZ EP   1    413 21.99                             120     0.3 6  213 235 
                                                                                
