 2014  427 0244 47.1 L   6.773 -73.171146.3  RSN  6 0.3 1.4LRSN                1
 GAP=135        0.57       2.9     3.1  6.9 -0.2951E+01  0.6144E+01 -0.2661E+01E
 Epicentro: LOS SANTOS - SANTANDER                                             3
 OLDACT:REG 14-04-27 13:10 OP:fm   STATUS:               ID:20140427023806     3
 ACTION:UPD 14-05-13 23:11 OP:nd   STATUS:               ID:20140427024447 L   I
 OLDACT:UP  14-04-27 15:49 OP:fm   STATUS:               ID:20140427023806     3
 2014-04-27-0238-06M.COL___239                                                 6
 STAT SP IPHASW D HRMM SECON CODA AMPLIT PERI AZIMU VELO AIN AR TRES W  DIS CAZ7
 PAM  SZ EP        245  9.69                             149    0.0710 81.4  40 
 PAM  SE ES        245 27.15                             149   -0.0310 81.4  40 
 PAM  SZ I         245 28.98         3.9 0.38            153           81.4  40 
 RUS  HZ EP   1    245 10.83                             144    0.12 7 97.8 174 
 RUS  HN ES        245 29.18                             144    0.0610 97.8 174 
 RUS  SZ I         245 31.25         5.5 1.68            147           97.8 174 
 PTB  HZ EP   1    245 13.53                             133   -0.29 7  144 260 
 PTB  HN ES        245 34.26                             133   -0.39 9  144 260 
 PTB  SZ I         245 38.00         3.5 1.70            135            144 260 
 SPBC HN ES   1    245 37.45                             130    0.23 7  159 219 
 OCA  HE ES   2    245 38.26                             129    0.25 5  163 354 
 ZAR  HN ES   2    245 45.45                             123    0.79 4  203 293 
                                                                                
