 2011  727 0927 35.9 L   6.752 -73.133148.9  RSN 13 0.4 2.7LRSN                1
 GAP=144        0.63       2.8     3.5  4.4 -0.4072E+01  0.2604E+01  0.3527E+01E
 Epicentro: LOS SANTOS - SANTANDER                                             3
 ACTION:UPD 12-07-25 14:03 OP:epov STATUS:               ID:20110727092735 L   I
 2011-07-27-0926-02S.COL___141                                                 6
 STAT SP IPHASW D HRMM SECON CODA AMPLIT PERI AZIMU VELO AIN AR TRES W  DIS CAZ7
 BAR2 SZ IP        927 55.87                             173    0.0110 18.5 197 
 BAR2 SZ ES   1    928 11.07                             173   -0.33 7 18.5 197 
 BAR2 SZ I         928 13.73       115.0 0.47                          18.5 197 
 BRR  HZ IP        927 57.73                             152    0.0810 75.0 302 
 BRR  HN ES   1    928 15.22                             152    0.64 7 75.0 302 
 BRR  HZ I         928 18.82       109.8 0.16                          75.0 302 
 PAM  SZ EP   1    927 58.88                             150    0.19 7 80.7  36 
 PAM  SE ES   1    928 16.19                             150   -0.24 7 80.7  36 
 BRI  SZ EP        928  0.38                             141   -0.0910  113  19 
 BRI  SZ ES   1    928 19.57                             141   -0.04 7  113  19 
 GRA  SZ ES   2    928 22.20                             137    0.14 5  130  16 
 GRA  SZ I         928 34.36        43.5 0.32                           130  16 
 OCA  SZ EP   1    928  4.83                             129   -0.17 7  166 353 
 OCA  SZ ES   1    928 27.73                             129    0.06 7  166 353 
 OCA  SZ I         928 30.58        73.6 0.11                           166 353 
 CHI  HZ EP   1    928 13.87                             118    0.57 6  244 196 
 CHI  HN ES   1    928 42.33                             118   -0.11 6  244 196 
 CHI  HZ I         928 49.40        30.7 0.30                           244 196 
 HEL  HZ EP   1    928 17.02                             115    0.70 6  272 257 
 HEL  HN ES   1    928 47.49                             115   -0.33 6  272 257 
 TOL  SZ EP   1    928 24.56                             110    0.56 5  341 225 
 TOL  SZ ES   1    929  1.24                             110   -0.25 5  341 225 
 DBB  SZ EP   1    928 23.20                             110   -0.55 5  341 275 
 DBB  SZ ES   1    929  0.33                             110   -0.71 5  341 275 
 SDV  BZ EP   1    928 25.80                             109   -0.57 5  363  49 
 SDV  BZ I         929  4.78        13.7 0.46                           363  49 
 PRA  HZ EP   1    928 29.62                             107    0.51 4  388 210 
 PRA  HN ES   1    929  9.99                             107   -0.60 4  388 210 
 SJA  SZ EP   1    928 29.94                             107   -0.09 4  395 193 
                                                                                
