 2011  227 0233 54.0 L   6.786 -73.326141.9  RSN  4 0.2 1.4LRSN                1
 GAP=196        0.45       3.2    12.4  6.9 -0.1080E+02  0.3857E+02 -0.9317E+01E
 Epicentro: ZAPATOCA - SANTANDER                                               3
 ACTION:UP  11-03-28 15:11 OP:jfem STATUS:               ID:20110227023354 L   I
 2011-02-27-0231-29S.COL___135                                                 6
 STAT SP IPHASW D HRMM SECON CODA AMPLIT PERI AZIMU VELO SNR AR TRES W  DIS CAZ7
 BAR2 SZ EP   2    234 13.32                             169     0.1 5   27 144 
 BAR2 SZ ES   2    234 28.37                             169     0.1 5   27 144 
 BAR2 SZ I         234 29.59         5.8 0.17                            27 144 
 RUS  HZ EP   2    234 17.41                             142    -0.1 5  102 165 
 RUS  HN ES   2    234 35.68                             142    -0.1 5  102 165 
 RUS  HZ I         234 37.68         1.0 0.26                           102 165 
 GRA  SZ EP        234 19.55                             134    -0.110  135  25 
 GRA  SZ I         234 20.87         5.3 0.25                           135  25 
 GRA  SZ ES   1    234 39.77                             134     0.1 7  135  25 
 OCA  SZ EP        234 22.24                             129     0.210  161   0 
 OCA  SZ ES   2    234 43.43                             129    -0.5 5  161   0 
 OCA  SZ I         234 49.08         5.2 0.50                           161   0 
                                                                                
