 2014 1127 0956 29.5 L   6.743 -73.167160.9  RSN  4 0.3 1.3LRSN                1
 GAP=231        0.72       7.0     7.0  6.5  0.3609E+02 -0.4797E+00 -0.4997E+01E
 Epicentro: LOS SANTOS - SANTANDER                                             3
 ACTION:UPD 14-12-19 15:48 OP:nd   STATUS:               ID:20141127095629 L   I
 OLDACT:REG 14-11-27 13:39 OP:fm   STATUS:               ID:20141127094747     3
 2014-11-27-0947-47M.COL___303                                                 6
 STAT SP IPHASW D HRMM SECON CODA AMPLIT PERI AZIMU VELO AIN AR TRES W  DIS CAZ7
 BRR  HE ES        957 10.04                             155   -0.1710 72.4 304 
 RUS  HZ EP        956 54.52                             148    0.1510 94.5 174 
 RUS  HN ES        957 13.83                             148    0.0610 94.5 174 
 RUS  HZ I         957 15.24         2.2 0.34            147           94.5 174 
 PTB  HZ EP        956 57.48                             136    0.03 9  144 261 
 PTB  HE ES        957 18.99                             136   -0.25 9  144 261 
 PTB  HZ I         957 22.61         2.0 0.10            133            144 261 
 ZAR  HZ EP        957  2.61                             125   -0.39 9  204 294 
 ZAR  HN ES        957 29.73                             125    0.59 9  204 294 
 ZAR  HZ I         957 35.11         2.5 0.70            125            204 294 
                                                                                
