 2015  327 0215 34.3 L   6.783 -73.178144.4  RSN 10 0.4 1.7LRSN                1
 GAP=133        1.02       3.4     4.0  6.5 -0.1893E+01  0.7994E+01  0.1114E+01E
 Epicentro: LOS SANTOS - SANTANDER                                             3
 ACTION:UPD 15-04-30 16:29 OP:nd   STATUS:               ID:20150327021534 L   I
 OLDACT:REG 15-03-27 12:40 OP:fm   STATUS:               ID:20150327020744     3
 2015-03-27-0207-44M.COL___278                                                 6
 STAT SP IPHASW D HRMM SECON CODA AMPLIT PERI AZIMU VELO AIN AR TRES W  DIS CAZ7
 BAR2 EZ EP        215 53.92                             171    0.2010 21.1 181 
 BAR2 EZ ES        216  8.95                             171    0.0810 21.1 181 
 BAR2 EZ I         216 11.64         8.9 0.28            170           21.1 181 
 BRR  HZ EP        215 55.80                             153    0.6310 69.0 301 
 BRR  HN ES        216 12.17                             153    0.7110 69.0 301 
 BRR  HZ I         216 20.23         7.3 0.42            150           69.0 301 
 PAM  SZ EP        215 56.72                             149    0.1310 81.1  41 
 PAM  SE ES        216 13.24                             149   -0.7510 81.1  41 
 PAM  SZ I         216 16.07         8.5 0.20            155           81.1  41 
 RUS  HZ EP        215 57.87                             144    0.0710 99.0 174 
 RUS  HN ES        216 16.04                             144   -0.1010 99.0 174 
 RUS  HZ I         216 17.98         3.0 0.32            149           99.0 174 
 PTB  HZ EP        216  0.82                             132    0.02 9  144 259 
 PTB  HE ES        216 21.52                             132    0.04 9  144 259 
 PTB  HZ I         216 27.80         7.6 0.22            133            144 259 
 SPBC HZ EP        216  2.78                             129    0.44 9  159 218 
 SPBC HN ES        216 23.66                             129   -0.56 9  159 218 
 SPBC HZ I         216 31.95        10.6 0.28            132            159 218 
 ZAR  HN ES        216 31.11                             122   -0.30 9  201 293 
 ZAR  HZ I         216 38.34         6.1 0.26            124            201 293 
 NOR  HZ EP   1    216  9.01                             119   -0.50 6  231 234 
 NOR  HN ES        216 36.64                             119   -0.35 8  231 234 
 NOR  HZ I         216 45.09         3.9 0.22            121            231 234 
 SML  HZ EP   4    216  7.18                             117   -3.69 0  244 336 
 SML  HE ES        216 38.89                             117   -0.50 8  244 336 
 SML  HZ I         216 45.19         7.5 0.26            120            244 336 
 GUY2CHZ EP   4    216 17.83                             112    0.44 0  297 235 
 GUY2CHE ES        216 51.06                             112    0.06 7  297 235 
 GUY2CHZ I         217  0.73         4.4 0.76                           297 235 
                                                                                
