 2017  227 0109  9.0 L   6.764 -73.115145.5  RSN  7 0.4 2.2LRSN                1
 GAP= 96        1.10       6.1     3.8  7.2 -0.3839E-01  0.3330E+00  0.1477E+00E
 Epicentro: LOS SANTOS - SANTANDER                                             3
 ACTION:UPD 17-05-24 15:41 OP:jn   STATUS:               ID:20170227010909 L   I
 OLDACT:REG 17-02-27 12:52 OP:ar   STATUS:               ID:20170227010744     3
 2017-02-27-0108-00M.COL___372                                                 6
 STAT SP IPHASW D HRMM SECON CODA AMPLIT PERI AZIMU VELO AIN AR TRES W  DIS CAZ7
 BAR2 EZ IP        1 9 28.49                             172   -0.0910 20.4 201 
 BAR2 EZ ES        1 9 44.00                             172    0.1810 20.4 201 
 BAR2 EZ I         1 9 45.60        30.1 0.26            173           20.4 201 
 BRR  HZ IP     D  1 9 30.36                             151   -0.0810 76.1 300 
 BRR  HE ES        1 9 47.60                             151    0.4710 76.1 300 
 BRR  HZ I         110  2.02        30.2 0.46            145           76.1 300 
 PAM  EZ IP     C  1 9 31.45                             150    0.1610 78.4  36 
 PAM  EZ I         1 9 47.91        52.8 0.36            142           78.4  36 
 RUS  HZ EP        1 9 32.40                             145   -0.0710 96.5 178 
 RUS  HN ES        1 9 50.98                             145    0.2410 96.5 178 
 RUS  HZ I         1 9 51.90        10.5 0.30            157           96.5 178 
 PTB  HZ EP        1 9 35.92                             131   -0.30 9  150 261 
 PTB  HE ES        1 9 56.47                             131   -0.95 9  150 261 
 PTB  HZ I         1 9 58.54        22.0 0.16            133            150 261 
 TAM  HZ EP        1 9 36.88                             131    0.58 9  151 104 
 TAM  HE ES        1 9 56.80                             131   -0.76 9  151 104 
 TAM  HZ I         110  0.92        54.8 0.78            133            151 104 
 NOR  HZ EP        1 9 45.04                             118    0.23 8  235 236 
 NOR  HN ES        110 13.10                             118    0.40 8  235 236 
 NOR  HZ I         110 14.24        10.8 0.20            122            235 236 
                                                                                
