 2014  527 0244 52.7 L   6.795 -73.166137.9  RSN 15 0.5 2.0LRSN                1
 GAP= 70        1.23       3.2     3.4  5.8 -0.5457E+00  0.4818E+01  0.2616E+01E
 Epicentro: LOS SANTOS - SANTANDER                                             3
 ACTION:UPD 15-03-16 17:01 OP:nd   STATUS:               ID:20140527024452 L   I
 OLDACT:REG 14-05-27 13:29 OP:stll STATUS:               ID:20140527023814     3
 2014-05-27-0238-14M.COL___262                                                 6
 STAT SP IPHASW D HRMM SECON CODA AMPLIT PERI AZIMU VELO AIN AR TRES W  DIS CAZ7
 BAR2 SZ EP        245 11.46                             170    0.1310 22.5 185 
 BAR2 SZ ES        245 26.06                             170    0.1710 22.5 185 
 BAR2 SZ I         245 27.81        51.9 0.22            168           22.5 185 
 BRR  HZ EP        245 13.25                             152    0.3810 69.5 300 
 BRR  HN ES        245 29.76                             152    1.1410 69.5 300 
 BRR  HZ I         245 33.95        26.1 0.14            150           69.5 300 
 PAM  SZ EP        245 14.36                             149    0.2010 79.2  41 
 PAM  SZ I         245 14.56        26.2 0.22            154           79.2  41 
 PAM  SN ES        245 30.74                             149   -0.1910 79.2  41 
 RUS  HZ EP        245 15.54                             142   -0.0810  100 175 
 RUS  HZ I         245 16.59        10.7 0.10            144            100 175 
 RUS  HN ES        245 33.24                             142   -0.2910  100 175 
 PTB  HZ EP        245 18.33                             131   -0.46 9  145 259 
 PTB  HN ES        245 38.41                             131   -0.75 9  145 259 
 PTB  HZ I         245 44.99        11.4 0.52            130            145 259 
 TAM  HZ EP        245 19.82                             128   -0.10 9  157 105 
 TAM  HN ES        245 40.82                             128   -0.36 9  157 105 
 TAM  HZ I         245 42.68         6.5 0.60            133            157 105 
 SPBC HZ EP        245 20.34                             128   -0.05 9  161 218 
 SPBC HN ES        245 41.81                             128   -0.21 9  161 218 
 SPBC HZ I         245 48.40         9.9 0.16            128            161 218 
 ZAR  HZ EP        245 24.81                             121    0.40 9  202 293 
 ZAR  HN ES        245 48.89                             121   -0.29 9  202 293 
 ZAR  HZ I         245 59.48         8.1 0.12            122            202 293 
 NOR  HZ EP        245 27.88                             117    0.16 8  233 234 
 NOR  HN ES        245 54.85                             117   -0.21 8  233 234 
 NOR  HZ I         246  1.58         7.8 0.20            118            233 234 
 SML  HZ EP        245 28.33                             116   -0.48 8  243 336 
 SML  HE ES        245 56.40                             116   -0.61 8  243 336 
 SML  HZ I         245 59.64        18.7 0.10            118            243 336 
 CHI  HZ EP        245 29.86                             116    0.04 8  248 195 
 CHI  HN ES        245 58.41                             116   -0.38 8  248 195 
 CHI  HZ I         246  6.22         3.3 0.52            117            248 195 
 ROSC BZ EP        245 30.67                             115    0.48 8  251 211 
 ROSC BZ I         245 33.03         6.0 0.45            116            251 211 
 ROSC BN ES        246  0.48                             115    1.03 8  251 211 
 HEL  HZ EP        245 32.60                             113    0.37 8  270 256 
 HEL  HE ES        246  2.32                             113   -0.77 8  270 256 
 HEL  HZ I         246 11.68         3.1 0.26            114            270 256 
 GUY2CHZ EP        245 37.14                             111    1.46 7  299 235 
 PRA  HZ EP        245 45.49                             105   -0.25 6  390 209 
 PRA  HN ES        246 26.22                             105   -0.91 6  390 209 
 PRA  HZ I         246 35.09         3.0 0.42            106            390 209 
                                                                                
