 2012  827 0246 30.8 L   6.652 -73.204143.9  RSN  4 0.3 1.3LRSN                1
 GAP=208        0.56       8.3     5.3  6.4  0.1559E+02  0.9718E+01  0.2580E+01E
 Epicentro: BARICHARA - SANTANDER                                              3
 ACTION:UPD 12-09-10 11:58 OP:ep   STATUS:               ID:20120827024630 L   I
 2012-08-27-0240-00M.COL___218                                                 6
 STAT SP IPHASW D HRMM SECON CODA AMPLIT PERI AZIMU VELO AIN AR TRES W  DIS CAZ7
 BAR2 SZ EP   1    246 49.97                             177   -0.01 7 7.04 160 
 BAR2 SZ ES   1    247  4.60                             177   -0.34 7 7.04 160 
 BAR2 SZ I         247  7.14         7.6 0.33                          7.04 160 
 BRR  HZ EP   1    246 52.11                             151    0.13 7 75.4 312 
 BRR  HZ I         246 53.68         4.6 0.13                          75.4 312 
 BRR  HN ES   1    247  8.93                             151    0.43 7 75.4 312 
 PTB  HZ EP   1    246 56.93                             133    0.11 7  139 265 
 PTB  HN ES   1    247 17.23                             133    0.11 7  139 265 
 PTB  HZ I         247 21.13         1.4 0.14                           139 265 
 ZAR  HZ EP   2    247  3.10                             122   -0.11 4  205 297 
 ZAR  HE ES   1    247 27.97                             122   -0.52 6  205 297 
 ZAR  HZ I         247 34.27         2.2 0.33                           205 297 
                                                                                
