 2017  627 0846  0.1 L   6.770 -73.129150.5  RSN  5 0.3 1.4LRSN                1
 GAP=257        0.73       7.5     6.0  6.5  0.2155E+02 -0.2886E+01 -0.4065E+01E
 Epicentro: LOS SANTOS - SANTANDER                                             3
 ACTION:UPD 17-09-14 16:55 OP:jn   STATUS:               ID:20170627084600 L   I
 OLDACT:UP  17-06-27 17:37 OP:and  STATUS:               ID:20170627083742d    3
 OLDACT:UP  17-06-27 17:37 OP:and  STATUS:               ID:20170627083742d    3
 OLDACT:UP  17-06-27 17:36 OP:and  STATUS:               ID:20170627083742d    3
 OLDACT:DUP 17-06-27 17:33 OP:and  STATUS:               ID:20170627083742d    3
 OLDACT:UP  17-06-27 17:33 OP:and  STATUS:               ID:20170627083741     3
 OLDACT:UP  17-06-27 17:31 OP:and  STATUS:               ID:20170627083741     3
 OLDACT:UP  17-06-27 15:40 OP:dhb  STATUS:               ID:20170627083741     3
 OLDACT:REG 17-06-27 13:16 OP:and  STATUS:               ID:20170627083741     3
 2017-06-27-0838-00M.COL___343                                                 6
 STAT SP IPHASW D HRMM SECON CODA AMPLIT PERI AZIMU VELO AIN AR TRES W  DIS CAZ7
 BAR2 EZ EP        846 20.09                             172   -0.1410 20.5 197 
 BAR2 EZ ES        846 35.71                             172   -0.2410 20.5 197 
 BAR2 EZ I         846 36.71         8.9 0.18            168           20.5 197 
 BRR  HZ EP   2    846 22.02                             152    0.09 5 74.5 300 
 BRR  HN ES        846 39.35                             152    0.3810 74.5 300 
 BRR  HZ I         846 40.35         3.4 0.14            148           74.5 300 
 PTB  HZ EP   9    846 27.13                             133   -0.42 0  149 260 
 PTB  HN ES        846 48.03                                   -0.53 9  149 260 
 PTB  HZ I         846 51.19         1.4 0.30            129            149 260 
 SPBC HZ EP   2    846 29.10                             130    0.28 5  162 220 
 SPBC HN ES   2    846 51.67                             130    0.43 5  162 220 
 SPBC HZ I         846 53.93         3.9 0.10            127            162 220 
 ZAR  HN ES        846 58.70                             123   -0.24 8  207 293 
 ZAR  HZ I         847  4.73         1.9 0.15            120            207 293 
 SJC  HZ EP   4    846 53.95                             106   -2.29 0  413 327 
 SJC  HN ES   4    847 36.20                             106   -3.85 0  413 327 
                                                                                
