 2017 1027 0807 19.3 L   6.782 -73.139145.9  RSN  5 0.4 1.0LRSN                1
 GAP=237        1.13       6.7     7.3  8.3  0.1113E+02  0.7253E+01  0.4909E+01E
 Epicentro: LOS SANTOS - SANTANDER                                             3
 ACTION:UPD 17-11-07 19:37 OP:rebc STATUS:               ID:20171027080719 L   I
 OLDACT:UP  17-10-27 17:23 OP:edw  STATUS:               ID:20171027075743d    3
 OLDACT:DUP 17-10-27 17:20 OP:edw  STATUS:               ID:20171027075743d    3
 OLDACT:REG 17-10-27 13:04 OP:dani STATUS:               ID:20171027075742     3
 2017-10-27-0758-00M.COL___435                                                 6
 STAT SP IPHASW D HRMM SECON CODA AMPLIT PERI AZIMU VELO AIN AR TRES W  DIS CAZ7
 BAR2 EZ EP        8 7 38.75                             171   -0.1610 21.6 193 
 BAR2 EZ ES        8 7 53.77                             171   -0.4410 21.6 193 
 BAR2 EZ I         8 7 55.03         3.1 0.16            170           21.6 193 
 BRR  HZ EP        8 7 40.63                             152    0.0810 72.8 300 
 BRR  HN ES        8 7 57.85                             152    0.7210 72.8 300 
 BRR  HZ I         8 8  0.41         1.9 0.38            151           72.8 300 
 RUS  HZ EP        8 7 43.26                             144    0.3410 98.6 176 
 RUS  HN ES        8 8  1.17                             144   -0.1810 98.6 176 
 RUS  HZ I         8 8  3.03         1.2 0.44            146           98.6 176 
 PTB  HZ EP        8 7 45.86                             132   -0.45 9  148 260 
 PTB  HN ES        8 8  6.72                             132   -0.66 9  148 260 
 PTB  HZ I         8 8 10.74         0.8 0.30            132            148 260 
 SPBC HZ EP        8 7 47.80                             129    0.09 9  162 220 
 SPBC HN ES        8 8 10.51                             129    0.64 9  162 220 
 SPBC HZ I         8 8 12.29         2.1 0.20            130            162 220 
                                                                                
