 2013  427 0647  0.4 L   6.736 -73.172127.2  RSN  4 0.2 1.5LRSN                1
 GAP=146        0.46       9.8     4.7 12.1 -0.3485E+02 -0.6509E+01  0.6494E+01E
 Epicentro: VILLANUEVA - SANTANDER                                             3
 ACTION:UPD 13-05-22 14:41 OP:EP   STATUS:               ID:20130427064700 L   I
 2013-04-27-0638-40M.COL___208                                                 6
 STAT SP IPHASW D HRMM SECON CODA AMPLIT PERI AZIMU VELO AIN AR TRES W  DIS CAZ7
 BAR2 SZ EP   1    647 17.75                             173    0.07 7 15.9 184 
 BRR  HZ EP        647 19.88                             148    0.2110 72.5 305 
 BRR  HN I         647 36.98        14.4 0.24            105           72.5 305 
 PAM  SZ EP   1    647 20.93                             144   -0.27 7 84.7  38 
 PAM  SN ES   2    647 37.42                             144    0.02 5 84.7  38 
 PAM  SN I         647 38.60         3.6 0.22            107           84.7  38 
 PTB  HN ES        647 45.04                             128   -0.12 9  144 261 
 PTB  HN I         647 51.12         4.1 0.22             99            144 261 
                                                                                
