 2017  827 0116  3.2 L   6.832 -73.065149.1  RSN 16 0.5 2.1LRSN                1
 GAP=119        1.24       3.3     4.5  6.1 -0.6053E+00  0.4075E+01  0.2240E+01E
 Epicentro: LOS SANTOS - SANTANDER                                             3
 ACTION:UPD 17-09-04 20:24 OP:rebc STATUS:               ID:20170827011603 L   I
 OLDACT:UP  17-08-27 14:42 OP:edw  STATUS:               ID:20170827010744     3
 OLDACT:UP  17-08-27 14:40 OP:edw  STATUS:               ID:20170827010744     3
 OLDACT:REG 17-08-27 12:56 OP:edw  STATUS:               ID:20170827010744     3
 2017-08-27-0108-00M.COL___411                                                 6
 STAT SP IPHASW D HRMM SECON CODA AMPLIT PERI AZIMU VELO AIN AR TRES W  DIS CAZ7
 BAR2 EZ IP     C  116 23.25                             169   -0.0710 29.5 206 
 BAR2 EZ ES        116 39.09                             169    0.0310 29.5 206 
 BAR2 EZ I         116 39.89        38.8 0.16            167           29.5 206 
 PAM  EZ EP        116 26.14                             154    0.8710 69.2  36 
 PAM  EN ES        116 43.25                             154    0.7310 69.2  36 
 PAM  EZ I         116 45.43        22.4 0.56            157           69.2  36 
 BRR  HZ IP     D  116 25.12                             151    0.0810 77.7 293 
 BRR  HN ES        116 42.14                             151    0.0310 77.7 293 
 BRR  HZ I         116 46.07        28.7 0.42            151           77.7 293 
 RUS  HZ EP        116 27.23                             144   -0.2410  104 181 
 RUS  HN ES        116 46.04                             144   -0.4010  104 181 
 RUS  HZ I         116 47.37         9.8 0.26            145            104 181 
 SPBC HZ EP        116 32.26                             128   -0.45 9  172 221 
 SPBC HE ES        116 55.08                             128   -0.68 9  172 221 
 SPBC HZ I         117  2.03         9.9 0.24            129            172 221 
 YPLC HZ EP        116 33.69                             128    0.59 9  176 154 
 YPLC HE ES        116 55.75                             128   -0.71 9  176 154 
 YPLC HZ I         117  1.29         5.3 0.42            130            176 154 
 ZAR  HZ EP        116 36.97                             122    0.43 8  211 290 
 ZAR  HN ES        117  1.95                             122   -0.64 8  211 290 
 ZAR  HZ I         117  7.99        13.6 0.34            123            211 290 
 NOR  HE ES        117  8.62                             118   -0.25 8  244 235 
 CHI  HZ EP        116 41.62                             117   -0.05 8  254 197 
 CHI  HE ES        117 11.85                             117    0.14 8  254 197 
 CHI  HZ I         117 14.31         6.9 0.62            118            254 197 
 ROSC BZ EP   4    116 43.93                             117    1.64 0  260 212 
 ROSC BN ES        117 13.83                             117    1.01 8  260 212 
 ROSC BZ I         117 17.14        14.5 0.40            118            260 212 
 VIL  EE ES   4    117 18.21                             112   -3.57 0  309 193 
 PTGC HZ IP     D  116 46.52                             112   -0.66 7  309 160 
 PTGC HN ES   4    117 20.10                             112   -1.42 0  309 160 
 GUY2CHZ EP        116 48.22                             112    0.25 7  311 235 
 GUY2CHN ES   4    117 25.87                             112    2.95 0  311 235 
 GUY2CHZ I         117 30.69         4.7 0.32                           311 235 
 LL6C HZ EP        116 47.83                             111   -0.83 7  322 356 
 LL6C HN ES        117 23.56                             111   -0.59 7  322 356 
 ELA  HE ES        117 29.59                             110    0.95 7  338 230 
 ANIL HN ES   4    117 35.31                             109    1.47 0  366 225 
 PRA  HZ EP        116 57.83                             107    0.17 6  399 210 
 PRA  HN ES   4    117 38.67                             107   -1.51 0  399 210 
 PRA  HZ I         117 42.22         5.6 0.28            108            399 210 
 SJC  HZ EP   4    116 57.51                             106   -1.56 0  411 326 
 SJC  HN ES   4    117 36.61                             106   -6.07 0  411 326 
 SJC  HZ I         117 47.20         2.1 0.54            107            411 326 
                                                                                
