 2014  227 0301 35.0 L   6.389 -73.710 52.3  RSN  8 0.3 1.5LRSN                1
 GAP= 93        0.65       2.1     1.5  7.9 -0.2083E+00  0.4978E+01 -0.2972E+01E
 Epicentro: SANTA HELENA DEL OPON - SANTANDER                                  3
 ACTION:UPD 14-03-10 08:13 OP:ep   STATUS:               ID:20140227030135 L   I
 OLDACT:REG 14-02-27 08:01 OP:fm   STATUS:               ID:20140227025816     3
 2014-02-27-0258-16M.COL___234                                                 6
 STAT SP IPHASW D HRMM SECON CODA AMPLIT PERI AZIMU VELO AIN AR TRES W  DIS CAZ7
 BAR2 SZ EP        3 1 47.23                             122    0.2710 62.5  69 
 BAR2 SZ ES   1    3 1 56.58                             122    0.31 7 62.5  69 
 BAR2 SZ I         3 1 57.56        31.3 0.24            122           62.5  69 
 PTB  HZ EP        3 1 48.95                             112   -0.1110 84.2 281 
 PTB  HN ES        3 1 59.70                             112   -0.3010 84.2 281 
 PTB  HZ I         3 2  0.66        23.6 0.32            112           84.2 281 
 RUS  HZ EP        3 1 49.68                             111   -0.4610 88.5 128 
 RUS  HE ES        3 2  1.63                             111   -0.3010 88.5 128 
 RUS  HZ I         3 2  3.93         5.1 0.22            111           88.5 128 
 SPBC HZ EP   1    3 1 50.35                             110    0.44 7 90.8 206 
 SPBC HZ I         3 1 50.58        11.7 0.10            109           90.8 206 
 SPBC HN ES   1    3 2  1.96                             110    0.44 7 90.8 206 
 PAM  SZ EP   1    3 1 58.00                              99    0.11 7  153  47 
 PAM  SN ES   1    3 2 15.74                              99    0.02 7  153  47 
 PAM  SZ I         3 2 16.74         5.3 0.18             99            153  47 
 NOR  HN ES        3 2 15.69                              99    0.02 9  157 235 
 NOR  HZ I         3 2 20.31         2.7 0.12             98            157 235 
 ZAR  HZ EP   1    3 2  0.20                              97    0.13 7  176 314 
 ZAR  HN ES        3 2 19.56                              97   -0.04 9  176 314 
 ZAR  HZ I         3 2 21.64         5.5 0.46             97            176 314 
 HEL  HZ EP        3 2  3.94                              96    0.19 9  202 264 
 HEL  HN ES        3 2 26.12                              96   -0.03 9  202 264 
 HEL  HZ I         3 2 27.87         4.5 0.18             96            202 264 
 SML  HZ EP   4    3 2 10.06                              94   -1.51 0  270 352 
                                                                                
