 2011  727 0838 32.3 L   6.799 -73.143150.1  RSN 13 0.3 2.3LRSN                1
 GAP=151        0.60       2.5     3.2  3.4 -0.3931E+01  0.1946E+01  0.2129E+01E
 Epicentro: LOS SANTOS - SANTANDER                                             3
 ACTION:UPD 12-07-25 14:03 OP:epov STATUS:               ID:20110727083832 L   I
 2011-07-27-0836-58S.COL___140                                                 6
 STAT SP IPHASW D HRMM SECON CODA AMPLIT PERI AZIMU VELO AIN AR TRES W  DIS CAZ7
 BAR2 SZ IP        838 52.31                             171   -0.1910 23.3 191 
 BAR2 SZ I         838 52.90        54.0 0.38                          23.3 191 
 BAR2 SZ ES   1    839  7.70                             171   -0.52 7 23.3 191 
 GIR2 SZ EP   1    838 52.36                             168   -0.18 7 31.4 350 
 GIR2 SZ ES        839  8.77                             168    0.4710 31.4 350 
 BRR  HZ IP     C  838 53.91                             153   -0.0710 71.5 299 
 BRR  HZ I         838 54.40        75.5 0.21                          71.5 299 
 BRR  HN ES        839 10.71                             153   -0.1510 71.5 299 
 PAM  SZ EP   1    838 55.34                             152    0.32 7 77.3  39 
 PAM  SN ES   1    839 12.76                             152    0.05 7 77.3  39 
 BRI  SZ EP   1    838 56.47                             142   -0.19 7  108  21 
 BRI  SZ ES   1    839 16.01                             142    0.39 7  108  21 
 GRA  SZ IP        838 58.10                             138    0.1110  126  17 
 GRA  SZ ES   1    839 17.56                             138   -0.42 7  126  17 
 GRA  SZ I         839 18.72        17.2 0.41                           126  17 
 OCA  SZ EP        839  1.14                             131    0.13 9  160 353 
 OCA  SZ ES   1    839 23.13                             131   -0.24 7  160 353 
 OCA  SZ I         839 27.36        21.7 0.32                           160 353 
 CHI  HZ EP   1    839  9.64                             118   -0.64 6  249 195 
 CHI  HN ES   1    839 40.37                             118    0.49 6  249 195 
 CHI  HZ I         839 50.78         8.0 0.26                           249 195 
 HEL  HZ EP   1    839 13.15                             116    0.34 6  272 256 
 HEL  HE ES   1    839 44.73                             116    0.36 6  272 256 
 RREF HZ EP   1    839 18.59                             112   -0.10 5  322 229 
 RREF HN ES   1    839 54.86                             112    0.02 5  322 229 
 RREF HZ I         840  6.36         8.5 0.42                           322 229 
 DBB  SZ EP   1    839 20.29                             110    0.26 5  340 274 
 DBB  SZ ES   1    839 56.77                             110   -0.46 5  340 274 
 TOL  SZ EP   1    839 20.90                             110    0.11 5  344 225 
 TOL  SZ ES   1    839 58.78                             110    0.20 5  344 225 
 PRA  HZ EP   1    839 25.95                             107   -0.07 4  392 210 
 PRA  HE ES   1    840  7.81                             107   -0.08 4  392 210 
                                                                                
