 2015  427 0216 47.1 L   6.411 -73.254 13.8  RSN 14 0.6 2.3LRSN                1
 GAP=131        1.44       2.3     3.4  4.4 -0.8834E+00  0.7704E+01  0.1383E+01E
 Epicentro: PALMAS DEL SOCORRO - SANTANDER                                     3
      25.0      18.0      88.0 15.0 17.0 10.0  0.0  0.1           RSN FPFIT    F
 ACTION:UPD 15-06-03 16:57 OP:cam  STATUS:               ID:20150427021647 L   I
 OLDACT:DUP 15-04-27 15:18 OP:stll STATUS:               ID:20150427020749d    3
 2015-04-27-0207-47M.COL___280                                                 6
 STAT SP IPHASW D HRMM SECON CODA AMPLIT PERI AZIMU VELO AIN AR TRES W  DIS CAZ7
 BAR2 EZ IP     C  216 52.07                             120    0.4210 21.6  22 
 BAR2 EZ ES        216 55.32                             120    0.1310 21.6  22 
 BAR2 EZ I         216 56.79       483.2 0.16             47           21.6  22 
 RUS  HZ IP     D  216 57.45                             101   -0.0610 60.3 162 
 RUS  HE ES        217  4.73                             101   -0.8810 60.3 162 
 RUS  HZ I         217  6.20        94.7 0.60             47           60.3 162 
 BRR  HZ IP     D  217  2.14                              96    0.3710 92.2 327 
 BRR  HZ I         217  2.35       127.7 0.18             47           92.2 327 
 BRR  HN ES        217 12.97                              96   -0.2110 92.2 327 
 PAM  SZ EP        217  7.02                              95    0.6010  120  31 
 PAM  SN ES        217 20.64                              95   -0.8210  120  31 
 PAM  SZ I         217 22.19        80.9 0.16             47            120  31 
 SPBC HZ EP        217  6.94                              95    0.3610  123 227 
 SPBC HE ES        217 22.26                              95    0.5110  123 227 
 SPBC HZ I         217 28.56        76.2 0.26             47            123 227 
 PTB  HZ IP     D  217  7.98                              94   -0.0710  134 276 
 PTB  HE ES        217 23.44                              94   -0.9410  134 276 
 NOR  HZ EP        217 16.80                              56   -0.04 9  202 242 
 NOR  HE ES        217 39.49                              56   -0.52 9  202 242 
 NOR  HZ I         217 43.43        20.2 0.24             37            202 242 
 CHI  HE ES        217 41.20                              56   -0.05 9  204 195 
 CHI  HZ I         217 53.65        10.4 0.46             37            204 195 
 ZAR  HZ EP        217 18.36                              56    0.08 8  214 304 
 ZAR  HE ES        217 42.40                              56   -0.18 8  214 304 
 ZAR  HZ I         217 47.10        28.6 0.30             37            214 304 
 HEL  HZ IP     D  217 23.83                              56    0.24 8  253 265 
 HEL  HE ES        217 50.99                              56   -1.05 8  253 265 
 HEL  HZ I         217 51.53        17.7 0.22             37            253 265 
 GUY2CHZ IP     D  217 27.27                              56    1.65 8  268 241 
 GUY2CHN ES        217 56.56                              56    0.91 8  268 241 
 GUY2CHZ I         218  4.35        16.0 0.60                           268 241 
 SML  HZ EP        217 26.85                              55    0.40 7  279 341 
 SML  HE ES        217 56.44                              55   -0.67 7  279 341 
 SML  HZ I         218  9.99        33.0 0.10             37            279 341 
 TOL  SZ EP   4    217 31.95                              55    1.90 0  305 229 
 TOL  SN ES        218  3.29                              55   -0.25 7  305 229 
 MON  HZ EP   4    217 39.52                              55    1.47 0  373 315 
 MON  HZ I         217 48.12         6.3 0.34             36            373 315 
 MON  HN ES        218 18.62                              55    0.86 6  373 315 
                                                                                
