 2014  127 0651 26.6 L   6.586 -73.429114.3  RSN 12 0.3 2.0LRSN                1
 GAP= 60        0.82       2.3     2.1  4.6 -0.3544E+00  0.2905E+01 -0.2940E+00E
 Epicentro: HATO - SANTANDER                                                   3
 ACTION:UPD 14-03-13 09:58 OP:ep   STATUS:               ID:20140127065126 L   I
 OLDACT:UP  14-01-28 05:14 OP:CAM  STATUS:               ID:20140127065126 L   3
 OLDACT:REG 14-01-27 08:27 OP:stll STATUS:               ID:20140127064809     3
 2014-01-27-0648-09M.COL___215                                                 6
 STAT SP IPHASW D HRMM SECON CODA AMPLIT PERI AZIMU VELO AIN AR TRES W  DIS CAZ7
 BAR2 SZ EP        651 42.74                             166    0.1710 27.2  89 
 BAR2 SZ ES        651 55.53                             166    0.5110 27.2  89 
 BAR2 SZ I         651 57.56        99.0 0.26            170           27.2  89 
 RUS  HZ EP        651 46.14                             141   -0.0610 85.7 153 
 RUS  HN ES        652  1.39                             141   -0.1010 85.7 153 
 RUS  HZ I         652  3.15        14.3 0.24            145           85.7 153 
 PTB  HZ IP   4 C  651 46.74                             132   -1.18 0  114 267 
 PTB  HN ES        652  4.08                             132   -0.4710  114 267 
 PTB  HZ I         652  7.17        25.9 0.40            133            114 267 
 PAM  SZ EP        651 48.96                             132    0.2110  116  44 
 PAM  SN ES        652  5.70                             132   -0.3310  116  44 
 PAM  SZ I         652 10.89         7.5 0.58            136            116  44 
 SPBC HZ EP        651 48.82                             129   -0.2910  125 215 
 SPBC HN ES   4    652  5.33                             129   -1.33 0  125 215 
 SPBC HZ I         652 12.68        33.7 0.22            131            125 215 
 TAM  HZ EP        651 54.75                             118   -0.07 9  182  95 
 TAM  HZ I         651 55.06        17.2 0.32            122            182  95 
 TAM  HN ES        652 16.60                             118   -0.24 9  182  95 
 ZAR  HZ EP        651 55.37                             117    0.03 9  187 302 
 ZAR  HE ES        652 18.26                             117    0.50 9  187 302 
 ZAR  HZ I         652 23.04        14.1 0.22            119            187 302 
 NOR  HZ EP        651 56.79                             116    0.47 9  195 235 
 NOR  HN ES        652 19.20                             116   -0.31 9  195 235 
 NOR  HZ I         652 24.03        11.4 0.18            118            195 235 
 CHI  HZ EP        651 59.58                             113    0.19 8  219 189 
 CHI  HN ES        652 25.08                             113    0.11 8  219 189 
 CHI  HZ I         652 30.59         3.7 0.26            116            219 189 
 HEL  HZ EP        652  1.22                             111   -0.09 8  236 259 
 HEL  HN ES        652 28.01                             111   -0.38 8  236 259 
 HEL  HZ I         652 33.93         6.3 0.20            113            236 259 
 SML  HZ EP        652  2.35                             109   -0.62 8  255 344 
 SML  HN ES        652 31.53                             109    0.19 8  255 344 
 SML  HZ I         652 36.27        22.1 0.10            112            255 344 
 GUY2CHZ EP        652  5.05                             109    0.66 8  262 235 
 GUY2CHN ES   4    652 36.39                             109    2.53 0  262 235 
 GUY2CHZ I         652 43.40         5.4 0.40                           262 235 
                                                                                
