 2012  927 0610 26.0 L   6.745 -73.149146.0  RSN 11 0.4 2.4LRSN 2.9WRSN        1
 SPEC AVERAGE  MO 13.4 ST  5.6 OM  2.7 f0 5.13 R0.2907 AL 3.15 WI 13.4 MW  2.9 3
 SPEC SD       MO  0.1 ST  3.8 OM  1.1 f00.652 R0.0341 AL      WI      MW  0.1 3
 GAP= 73        0.77       4.5     3.2  6.1 -0.1348E+01 -0.2141E+00  0.7939E+01E
 Epicentro: JORDAN - SANTANDER                                                 3
 SPEC PTB HH N MO 13.3 ST  2.9 OM  1.6 f0 4.76 R0.3088 AL 2.14 WI  7.6 MW  2.8 3
 SPEC PTB HH N T 61112 K 0.000 GD  206 VS 4.20 DE 3.00 Q0230.0 QA 0.60 VS 4.20 3
 SPEC HEL HH E MO 13.4 ST  3.0 OM  1.5 f0 4.59 R0.3203 AL 3.54 WI 16.3 MW  2.8 3
 SPEC HEL HH E T 61136 K 0.000 GD  306 VS 4.20 DE 3.00 Q0230.0 QA 0.60 VS 4.20 3
 SPEC HEL HH N MO 13.6 ST 11.0 OM  1.7 f0 6.05 R0.2430 AL 3.78 WI 16.3 MW  3.0 3
 SPEC HEL HH N T 61138 K 0.000 GD  306 VS 4.20 DE 3.00 Q0230.0 QA 0.60 VS 4.20 3
 ACTION:UPD 12-10-22 14:21 OP:ep   STATUS:               ID:20120927061026 L   I
 2012-09-27-0610-00M.COL___217                                                 6
 STAT SP IPHASW D HRMM SECON CODA AMPLIT PERI AZIMU VELO AIN AR TRES W  DIS CAZ7
 BAR2 SZ EP        610 45.50                             173   -0.1010 17.3 192 
 BAR2 SZ ES   2    611  0.78                             173   -0.07 5 17.3 192 
 BAR2 SZ I         611  2.40        81.5 0.25                          17.3 192 
 GIR2 SZ EP        610 45.74                             165   -0.1810 37.2 352 
 BRR  HZ IP     C  610 47.52                             152    0.1410 74.0 303 
 BRR  HZ I         610 47.98       104.9 0.13                          74.0 303 
 BRR  HN ES        611  4.78                             152    0.7710 74.0 303 
 PAM  SZ EP        610 48.51                             150   -0.0810 82.4  37 
 PAM  SZ I         610 49.05        39.0 0.38                          82.4  37 
 PAM  SN ES   1    611  5.90                             150   -0.27 7 82.4  37 
 RUS  HZ EP   1    610 49.33                             146   -0.07 7 94.6 176 
 RUS  HN ES   2    611  7.55                             146   -0.06 5 94.6 176 
 RUS  HZ I         611  9.07        25.9 0.32                          94.6 176 
 PTB  HZ EP   1    610 52.24                             133   -0.66 7  146 261 
 PTB  HN ES        611 13.23                             133   -0.62 9  146 261 
 PTB  HN I         611 18.44        45.6 0.17                           146 261 
 TAM  HZ EP   1    610 53.75                             131    0.11 7  154 103 
 TAM  HZ I         610 54.18        22.0 0.19                           154 103 
 TAM  HE ES   2    611 15.49                             131    0.33 5  154 103 
 ZAR  HZ EP   1    610 58.53                             122   -0.18 6  206 294 
 ZAR  HN ES   2    611 24.09                             122   -0.10 4  206 294 
 ZAR  HZ I         611 29.44        34.3 0.38                           206 294 
 NOR  SN ES   2    611 29.46                             119    0.51 4  231 236 
 CHI  HZ EP   1    611  3.53                             118    0.42 6  243 195 
 CHI  HN ES   2    611 32.29                             118    0.26 4  243 195 
 CHI  HZ I         611 37.69         5.2 0.36                           243 195 
 HEL  HZ EP   1    611  6.39                             115    0.32 6  270 257 
 HEL  HE ES   2    611 38.18                             115    0.89 4  270 257 
 HEL  HZ I         611 45.15        12.4 0.28                           270 257 
                                                                                
