 2013  427 0259 26.8 L   6.762 -73.159148.1  RSN  5 0.4 1.8LRSN                1
 GAP=259        0.76       7.3     8.3  9.5 -0.7959E+01 -0.6982E+01  0.1800E+02E
 Epicentro: LOS SANTOS - SANTANDER                                             3
 ACTION:UPD 13-05-22 14:41 OP:EP   STATUS:               ID:20130427025926 L   I
 2013-04-27-0258-50M.COL___220                                                 6
 STAT SP IPHASW D HRMM SECON CODA AMPLIT PERI AZIMU VELO AIN AR TRES W  DIS CAZ7
 BRR  HZ IP        259 48.60                             153    0.3110 72.1 302 
 BRR  HN ES        3 0  5.05                             153    0.0310 72.1 302 
 BRR  HN I         3 0  9.67        12.7 0.16            142           72.1 302 
 PTB  HZ EP        259 53.49                             133   -0.31 9  146 260 
 PTB  HN ES   1    3 0 14.31                             133   -0.52 7  146 260 
 PTB  HN I         3 0 19.49         4.5 0.46            127            146 260 
 ZAR  HN ES        3 0 25.18                             123    0.26 9  204 293 
 ZAR  HN I         3 0 33.98         6.3 0.20            118            204 293 
 NOR  HN ES   2    3 0 30.73                             119    0.74 4  231 235 
 NOR  HN I         3 0 35.80         5.1 0.14            117            231 235 
 SML  HN ES   2    3 0 32.16                             118   -0.74 4  247 336 
 SML  HN I         3 0 37.56         6.9 0.10            115            247 336 
                                                                                
