 2010  227 0119  6.9 L   6.813 -73.093148.7  RSN 10 0.4 3.8LRSN                1
 GAP=188        0.92       4.2     7.8  6.8  0.1217E+01  0.1699E+02  0.5353E+01E
 Epicentro: LOS SANTOS - SANTANDER                                             3
 ACTION:UP  10-08-24 09:51 OP:vdl  STATUS:               ID:20100227011906 L   I
 2010-02-27-0117-34S.COL___093                                                 6
 STAT SP IPHASW D HRMM SECON CODA AMPLIT PERI AZIMU VELO SNR AR TRES W  DIS CAZ7
 BAR2 SZ IP        119 27.14                             170     0.110   26 202 
 BAR2 SZ ES   1    119 41.75                             170    -0.9 7   26 202 
 BRR  HZ IP        119 28.95                             152     0.310   76 295 
 BRR  HZ I         119 29.21      2932.7 0.15                            76 295 
 BRR  HN ES   1    119 46.19                             152     0.6 7   76 295 
 RUS  BZ IP        119 31.06                             144     0.010  102 179 
 RUS  BN ES   2    119 49.87                             144     0.0 5  102 179 
 RUS  BZ I         119 50.99       440.6 0.37                           102 179 
 OCA  SZ IP        119 35.48                             130     0.0 9  160 351 
 OCA  SZ ES   2    119 57.56                             130    -0.1 5  160 351 
 CHI  HZ IP        119 45.59                             117     0.5 8  252 196 
 CHI  HE ES   1    120 15.10                             117     0.2 6  252 196 
 CHI  HZ I         120 18.46       269.7 0.49                           252 196 
 HEL  HZ EP        119 47.12                             115    -0.9 7  278 256 
 HEL  HE ES   2    120 20.55                             115     0.6 4  278 256 
 HEL  HZ I         120 25.66       352.0 0.30                           278 256 
 RREF BZ EP   1    119 53.69                             111    -0.1 5  327 230 
 RREF BZ I         120 37.06       322.1 0.29                           327 230 
 DBB  SZ IP        119 54.85                             110    -0.3 7  345 274 
 TOL  SZ EP        119 56.05                             109     0.1 6  349 225 
 PRA  HZ EP   2    120  0.36                             107    -0.7 3  396 210 
 PRA  HN ES   1    120 43.28                             107     0.0 4  396 210 
 PRA  HZ I         120 48.59       201.5 0.24                           396 210 
                                                                                
