 2011 1027 0948 38.6 L   6.830 -72.984139.5  RSN  7 0.3 1.8LRSN                1
 GAP=157        0.52       3.1     4.9  6.2  0.7431E+00  0.1113E+02 -0.5313E+01E
 Epicentro: CEPITA - SANTANDER                                                 3
 ACTION:UPD 12-07-13 16:06 OP:ep   STATUS:               ID:20111027094838 L   I
 2011-10-27-0947-26S.COL___177                                                 6
 STAT SP IPHASW D HRMM SECON CODA AMPLIT PERI AZIMU VELO AIN AR TRES W  DIS CAZ7
 BAR2 SZ EP   1    948 57.97                             166    0.23 7 34.3 220 
 BAR2 SZ ES   2    949 12.55                             166   -0.13 5 34.3 220 
 BAR2 SZ I         949 13.86        13.5 0.28                          34.3 220 
 PAM  SZ EP   2    948 59.62                             154    0.23 5 64.5  29 
 PAM  SN ES   2    949 15.88                             154    0.26 5 64.5  29 
 BRR  HZ IP     C  948 59.75                             146   -0.2410 86.1 291 
 BRR  HZ I         949  0.03        20.5 0.18                          86.1 291 
 BRR  HN ES   2    949 17.40                             146    0.71 5 86.1 291 
 RUS  HZ EP   2    949  2.28                             141    0.28 5  104 186 
 RUS  HN ES        949 20.07                             141   -0.1910  104 186 
 RUS  HZ I         949 21.45         5.5 0.27                           104 186 
 OCA  SZ EP   2    949  6.51                             128    0.11 5  160 347 
 OCA  SZ ES   2    949 27.70                             128   -0.39 5  160 347 
 OCA  SZ I         949 31.38         6.7 0.06                           160 347 
 ZAR  HZ EP   2    949 12.12                             119   -0.15 4  220 290 
 ZAR  HE ES   2    949 38.06                             119   -0.48 4  220 290 
 ZAR  HZ I         949 41.72         9.6 0.35                           220 290 
 HEL  HZ EP   2    949 21.01                             112    0.49 4  290 256 
 HEL  HN ES   2    949 53.78                             112    0.54 4  290 256 
 HEL  HZ I         949 56.38         3.5 0.37                           290 256 
                                                                                
