 2010  227 0017 31.8 L   6.728 -73.210143.4  RSN  4 0.4 1.5LRSN                1
 GAP=173        0.70       9.4    20.4 11.3  0.1362E+03 -0.1093E+03 -0.5774E+02E
 Epicentro: VILLANUEVA - SANTANDER                                             3
 ACTION:UP  10-08-24 09:51 OP:vdl  STATUS:               ID:20100227001731 L   I
 2010-02-27-0015-44S.COL___093                                                 6
 STAT SP IPHASW D HRMM SECON CODA AMPLIT PERI AZIMU VELO SNR AR TRES W  DIS CAZ7
 BAR2 SZ EP   1    017 51.20                             173     0.1 7   15 169 
 BAR2 SZ ES   2    018  6.56                             173     0.5 5   15 169 
 BRR  HZ IP   1    017 53.07                             152     0.4 7   70 307 
 BRR  HZ I         017 53.37        14.5 0.16                            70 307 
 BRR  HN ES   2    018  8.45                             152    -0.4 5   70 307 
 RUS  BZ EP   1    017 54.79                             145    -0.1 7   93 171 
 RUS  BN ES   2    018 12.30                             145    -0.5 5   93 171 
 RUS  BZ I         018 15.10         2.4 0.34                            93 171 
 OCA  SZ EP   1    018  0.30                             128    -0.4 7  168 356 
                                                                                
