 2010  927 0941 39.5 L   5.862 -73.770115.0  RSN  4 0.3 1.5LRSN                1
 GAP=168        0.65       4.4     3.9 11.4 -0.6050E+01  0.2317E+01  0.8542E+01E
 Epicentro: JESUS MARIA - SANTANDER                                            3
 ACTION:UP  11-02-18 11:05 OP:tino STATUS:               ID:20100927094139 L   I
 2010-09-27-0937-50S.COL___121                                                 6
 STAT SP IPHASW D HRMM SECON CODA AMPLIT PERI AZIMU VELO SNR AR TRES W  DIS CAZ7
 RUS  HZ EP        941 58.78                             144     0.310   76  87 
 RUS  HZ I         941 58.94         5.1 0.37                            76  87 
 RUS  HN ES   2    942 12.68                             144    -0.6 5   76  87 
 BAR2 SZ EP   1    942  0.27                             135     0.0 7  104  39 
 NOR  SZ EP        942  2.03                             128    -0.110  126 255 
 NOR  SN ES   1    942 19.78                             128     0.0 7  126 255 
 BRR  HZ EP   2    942  2.46                             126    -0.7 5  138   3 
 BRR  HN ES        942 21.66                             126     0.1 9  138   3 
 BRR  HZ I         942 23.01         6.7 0.28                           138   3 
                                                                                
