 2015  427 0520  2.9 L   6.681 -73.228138.0  RSN  4 0.4 1.3LRSN                1
 GAP=201        0.97      10.2     6.7  7.7  0.2382E+02  0.1522E+02 -0.1347E+01E
 Epicentro: BARICHARA - SANTANDER                                              3
 ACTION:UPD 15-06-03 16:57 OP:cam  STATUS:               ID:20150427052002 L   I
 OLDACT:REG 15-04-27 12:55 OP:stll STATUS:               ID:20150427051748     3
 2015-04-27-0517-48M.COL___274                                                 6
 STAT SP IPHASW D HRMM SECON CODA AMPLIT PERI AZIMU VELO AIN AR TRES W  DIS CAZ7
 BAR2 EZ EP        520 21.21                             175   -0.1410 11.1 153 
 BAR2 EZ ES        520 35.64                             175   -0.1510 11.1 153 
 BAR2 EZ I         520 37.05         4.0 0.18            177           11.1 153 
 BRR  HZ EP        520 22.91                             151   -0.2610 71.2 311 
 BRR  HE ES        520 39.51                             151    0.5010 71.2 311 
 BRR  HZ I         520 44.22         3.8 0.22            148           71.2 311 
 PTB  HZ EP        520 28.26                             133    0.08 9  137 263 
 PTB  HN ES        520 48.05                             133    0.11 9  137 263 
 PTB  HZ I         520 51.21         1.8 0.46            133            137 263 
 ZAR  HZ EP        520 35.09                             121    0.59 9  201 297 
 ZAR  HE ES        520 58.42                             121   -0.76 9  201 297 
 ZAR  HZ I         521  4.64         3.2 0.44            122            201 297 
                                                                                
