 2015  527 0441 47.8 L   6.805 -73.129147.5  RSN 11 0.3 1.7LRSN                1
 GAP=138        0.65       2.6     3.1  4.5 -0.1111E+01  0.3724E+01 -0.2124E+01E
 Epicentro: LOS SANTOS - SANTANDER                                             3
 ACTION:UPD 15-09-10 22:07 OP:cam  STATUS:               ID:20150527044147 L   I
 OLDACT:REG 15-05-27 12:41 OP:spq  STATUS:               ID:20150527043747     3
 2015-05-27-0437-47M.COL___294                                                 6
 STAT SP IPHASW D HRMM SECON CODA AMPLIT PERI AZIMU VELO AIN AR TRES W  DIS CAZ7
 BAR2 EZ EP   1    442  7.54                             170   -0.14 7 24.3 194 
 BAR2 EZ ES   1    442 22.74                             170   -0.43 7 24.3 194 
 BAR2 EZ I         442 24.76         4.8 0.26            169           24.3 194 
 BRR  HZ EP        442  9.49                             152    0.2510 72.6 297 
 BRR  HN ES        442 26.20                             152    0.2610 72.6 297 
 BRR  HZ I         442 29.17         7.8 0.26            151           72.6 297 
 PAM  SZ EP        442 10.45                             152    0.3210 75.8  39 
 PAM  SN ES        442 27.37                             152   -0.1610 75.8  39 
 PAM  SZ I         442 28.84         5.6 0.40            156           75.8  39 
 RUS  HZ EP   1    442 11.88                             144    0.10 7  101 177 
 RUS  HE ES   1    442 30.43                             144   -0.03 7  101 177 
 OCA  HZ EP        442 16.02                             130   -0.22 9  160 352 
 OCA  HN ES   4    442 36.94                             130   -1.46 0  160 352 
 OCA  HZ I         442 42.16        11.6 0.28            132            160 352 
 SPBC HZ EP   1    442 16.79                             129    0.18 7  165 219 
 SPBC HE ES        442 38.90                             129   -0.16 9  165 219 
 SPBC HZ I         442 45.01         6.8 0.38            130            165 219 
 ZAR  HZ EP        442 20.64                             122    0.10 8  206 292 
 ZAR  HE ES        442 46.45                             122    0.39 8  206 292 
 ZAR  HZ I         442 51.95         7.0 0.30            123            206 292 
 SML  HZ EP   1    442 24.31                             118   -0.27 6  244 335 
 SML  HN ES   1    442 52.64                             118   -0.61 6  244 335 
 HEL  HE ES   1    442 59.28                             115   -0.66 6  274 256 
 HEL  HZ I         443  6.01         3.6 0.34            116            274 256 
 GUY2CHZ EP   4    442 34.44                             112    2.72 0  303 235 
 GUY2CHE ES   4    443  8.57                             112    2.61 0  303 235 
 GUY2CHZ I         443 13.08         2.3 0.62                           303 235 
 MON  HZ EP   4    442 34.99                             109   -2.03 0  355 308 
 MON  HE ES   4    443 14.00                             109   -1.40 0  355 308 
 MON  HZ I         443 14.37         1.0 0.20            110            355 308 
                                                                                
