 2010  827 0029 40.7 L   6.808 -73.059145.4  RSN 13 0.4 2.3LRSN                1
 GAP=168        0.87       3.6     7.7  6.7 -0.1218E+02  0.1222E+02 -0.5810E-01E
 Epicentro: LOS SANTOS - SANTANDER                                             3
 ACTION:UP  10-09-07 10:58 OP:vdl  STATUS:               ID:20100827002940 L   I
 2010-08-27-0027-02S.COL___120                                                 6
 STAT SP IPHASW D HRMM SECON CODA AMPLIT PERI AZIMU VELO SNR AR TRES W  DIS CAZ7
 BAR2 SZ EP   1    030  0.21                             169    -0.1 7   28 210 
 BAR2 SZ ES   1    030 15.88                             169     0.2 7   28 210 
 BAR2 SZ I         030 16.62        33.5 0.39                            28 210 
 BRR  HZ IP     C  030  2.29                             150     0.010   79 295 
 BRR  HZ I         030  2.67        36.2 0.20                            79 295 
 BRR  HN ES   2    030 18.87                             150    -0.2 5   79 295 
 RUS  HZ EP   1    030  4.09                             144    -0.3 7  101 182 
 RUS  HE ES   1    030 23.09                             144     0.1 7  101 182 
 RUS  HZ I         030 26.16        10.9 0.31                           101 182 
 GUE  SZ EP        030  4.49                             140    -0.710  114   7 
 GUE  SZ I         030  5.99         2.9 0.14                           114   7 
 GRA  SZ IP        030  6.22                             138     0.610  122  13 
 GRA  SZ ES   1    030 24.75                             138    -0.3 7  122  13 
 GRA  SZ I         030 28.79        32.0 0.29                           122  13 
 OCA  SZ EP   1    030  9.15                             129     0.1 7  161 350 
 OCA  SZ ES   1    030 31.57                             129     0.5 7  161 350 
 OCA  SZ I         030 35.79        35.8 0.47                           161 350 
 CHI  HZ EP   1    030 18.28                             117    -0.5 6  252 197 
 CHI  HZ I         030 20.67         9.9 0.82                           252 197 
 CHI  HN ES   2    030 49.37                             117     0.9 4  252 197 
 ROSC BZ EP   2    030 19.63                             116     0.2 4  259 213 
 ROSC BZ I         030 58.38        13.2 0.34                           259 213 
 HEL  HZ EP   2    030 21.69                             114    -0.2 4  282 256 
 HEL  HE ES   3    030 53.63                                    -0.5 2  282 256 
 HEL  HZ I         030 59.73        18.8 0.43                           282 256 
 GUY  SZ EP   2    030 25.63                             112     0.4 4  310 236 
 GUY  SN ES   2    030 59.12                             112    -0.9 4  310 236 
 GUY  SZ I         031  7.06        41.9 0.37                           310 236 
 RREF HZ EP   1    030 27.73                             110     0.0 5  330 230 
 RREF HE ES   2    031  4.77                             110     0.4 3  330 230 
 RREF HZ I         031 12.70        11.2 0.84                           330 230 
 ANIL HZ EP   2    030 31.89                             108     0.6 3  365 225 
 ANIL HZ I         031 21.60        22.0 0.28                           365 225 
 PRA  HZ EP   2    030 34.86                             106     0.0 3  398 211 
 PRA  HE ES   2    031 17.48                             106     0.4 3  398 211 
 PRA  HZ I         031 24.69         7.9 0.58                           398 211 
                                                                                
