 2016 1227 0227 23.5 L   6.714 -73.204151.8  RSN  4 0.2 0.9LRSN                1
 GAP=222        0.63       5.1     5.0  6.3  0.1307E+02 -0.3726E+01 -0.2522E+01E
 Epicentro: VILLANUEVA - SANTANDER                                             3
 ACTION:UPD 17-01-11 20:19 OP:rebc STATUS:               ID:20161227022723 L   I
 OLDACT:DUP 16-12-27 15:18 OP:edw  STATUS:               ID:20161227021746d    3
 2016-12-27-0218-00M.COL___363                                                 6
 STAT SP IPHASW D HRMM SECON CODA AMPLIT PERI AZIMU VELO AIN AR TRES W  DIS CAZ7
 BAR2 EZ EP        227 43.40                             175   -0.3210 13.7 170 
 BRR  HZ EP        227 45.19                             154   -0.1210 71.0 308 
 BRR  HN ES        228  2.51                             154    0.2110 71.0 308 
 RUS  HZ EP        227 47.69                             147    0.4210 91.8 172 
 RUS  HN ES        228  5.68                             147   -0.1210 91.8 172 
 RUS  HZ I         228  6.81         1.6 0.22            147           91.8 172 
 PTB  HZ EP        227 50.28                             135   -0.01 9  140 262 
 PTB  HN ES        228 11.10                             135   -0.07 9  140 262 
 PTB  HZ I         228 12.69         0.8 0.30            135            140 262 
                                                                                
