 2016  327 0717  6.6 L   6.805 -73.143142.3  RSN 13 0.3 1.6LRSN                1
 GAP=137        0.72       2.2     2.7  4.3 -0.1017E+01  0.4816E+01  0.8303E+00E
 Epicentro: LOS SANTOS - SANTANDER                                             3
 ACTION:UPD 16-05-13 21:28 OP:cam  STATUS:               ID:20160327071706 L   I
 OLDACT:REG 16-03-27 13:30 OP:ak   STATUS:               ID:20160327070744     3
 2016-03-27-0707-44M.COL___291                                                 6
 STAT SP IPHASW D HRMM SECON CODA AMPLIT PERI AZIMU VELO AIN AR TRES W  DIS CAZ7
 BAR2 EZ EP        717 25.60                             170   -0.2410 23.9 191 
 BAR2 EZ ES        717 40.87                             170    0.0310 23.9 191 
 BAR2 EZ I         717 43.78        10.8 0.26            168           23.9 191 
 PAM  EZ EP        717 28.68                             150    0.2510 76.8  40 
 PAM  EN ES        717 45.33                             150   -0.1110 76.8  40 
 PAM  EZ I         717 48.20         7.5 0.60            155           76.8  40 
 RUS  HZ EP        717 30.20                             143    0.1410  101 176 
 RUS  HN ES        717 48.51                             143    0.1510  101 176 
 RUS  HZ I         717 49.86         4.5 0.24            145            101 176 
 PTB  HZ EP   2    717 32.82                             131   -0.52 5  148 259 
 PTB  HN ES        717 53.63                             131   -0.56 9  148 259 
 PTB  HZ I         717 55.54         5.3 0.12            132            148 259 
 OCA  HN ES        717 56.63                             129    0.18 9  160 353 
 SPBC HZ EP        717 34.65                             128   -0.26 9  164 219 
 SPBC HN ES        717 56.81                             128   -0.17 9  164 219 
 SPBC HZ I         718  1.88         9.7 0.28            129            164 219 
 ZAR  HZ EP        717 38.46                             122   -0.39 9  204 292 
 ZAR  HE ES        718  4.44                             122    0.45 9  204 292 
 ZAR  HZ I         718 10.16         4.2 0.41            123            204 292 
 NOR  HZ EP        717 41.97                             118   -0.24 8  235 234 
 NOR  HN ES        718  9.81                             118   -0.16 8  235 234 
 NOR  HZ I         718 16.92         4.0 0.18            119            235 234 
 CHI  HZ EP        717 43.87                             116   -0.32 8  249 195 
 CHI  HN ES        718 14.01                             116    0.52 8  249 195 
 CHI  HZ I         718 20.89         1.7 0.30            118            249 195 
 HEL  HZ EP        717 47.09                             114    0.39 8  273 256 
 HEL  HE ES        718 18.47                             114    0.50 8  273 256 
 HEL  HZ I         718 26.24         2.1 0.38            115            273 256 
 GUY2CHZ EP        717 50.51                             112    0.38 7  302 235 
 GUY2CHN ES        718 24.08                             112    0.01 7  302 235 
 GUY2CHZ I         718 32.46         3.3 0.76                           302 235 
 PTGC HZ EP   4    717 48.67                             111   -1.69 0  309 159 
 PTGC HE ES   4    718 22.07                             111   -2.41 0  309 159 
 CBOC HN ES        718 30.08                             109    0.11 7  334 252 
 MON  HZ EP   2    717 54.66                             108   -0.82 3  354 308 
 MON  HE ES   4    718 31.13                             108   -2.46 0  354 308 
                                                                                
