 2014  527 0940 47.6 L   6.550 -73.474117.0  RSN 11 0.4 1.6LRSN                1
 GAP= 67        0.88       2.9     4.3  7.1 -0.4040E+00  0.1629E+02  0.2745E+01E
 Epicentro: EL CARMEN DE CHUCURI - SANTANDER                                   3
 ACTION:UPD 15-03-16 17:01 OP:nd   STATUS:               ID:20140527094047 L   I
 OLDACT:REG 14-05-27 13:53 OP:stll STATUS:               ID:20140527093805     3
 2014-05-27-0938-05M.COL___261                                                 6
 STAT SP IPHASW D HRMM SECON CODA AMPLIT PERI AZIMU VELO AIN AR TRES W  DIS CAZ7
 BAR2 SZ IP     C  941  4.75                             163    0.6710 32.6  82 
 BAR2 SZ ES   1    941 16.86                             163   -0.06 7 32.6  82 
 BRR  HZ EP        941  5.53                             148    0.0710 67.0 337 
 BRR  HN ES   1    941 19.03                             148   -0.35 7 67.0 337 
 BRR  HZ I         941 22.24         7.1 0.11            151           67.0 337 
 RUS  HZ EP   1    941  7.77                             142    0.37 7 84.6 149 
 RUS  HN ES   1    941 22.39                             142   -0.44 7 84.6 149 
 PTB  HZ EP   1    941  7.60                             134   -1.10 7  109 269 
 PTB  HN ES   4    941 20.83                             134   -4.31 0  109 269 
 PAM  SZ EP   4    941  6.74                             131   -3.84 0  122  44 
 PAM  SE ES   1    941 28.55                             131    0.07 7  122  44 
 PAM  SZ I         941 30.51         8.8 0.38            133            122  44 
 ZAR  HZ EP        941 16.36                             118    0.07 9  185 304 
 ZAR  HN ES   1    941 39.22                             118    0.57 7  185 304 
 NOR  HZ EP   4    941 15.83                             117   -0.96 0  189 235 
 NOR  HN ES   1    941 39.73                             117    0.19 7  189 235 
 CHI  HZ EP   1    941 19.19                             114   -0.83 6  214 188 
 CHI  HE ES   1    941 45.76                             114    0.47 6  214 188 
 CHI  HZ I         941 51.19         2.7 0.47            116            214 188 
 GUY2CHZ EP   1    941 24.79                             110    0.02 6  256 235 
 GUY2CHN ES        941 53.81                             110    0.06 8  256 235 
 GUY2CHZ I         941 59.88         4.5 0.41                           256 235 
 SML  HZ EP   1    941 24.01                             109   -0.38 6  257 345 
 SML  HN ES   1    941 52.97                             109   -0.10 6  257 345 
 PRA  HZ EP   1    941 35.32                             103   -0.03 5  351 207 
 PRA  HN ES   1    942 12.53                             103   -0.04 5  351 207 
                                                                                
