 2013  427 0316 58.1 L   6.804 -73.148147.9  RSN 12 0.4 2.2LRSN                1
 GAP=136        0.89       3.3     4.9  5.6 -0.3612E+01  0.7686E+01  0.1301E+01E
 Epicentro: LOS SANTOS - SANTANDER                                             3
 ACTION:UPD 13-05-22 14:41 OP:EP   STATUS:               ID:20130427031658 L   I
 2013-04-27-0308-36M.COL___220                                                 6
 STAT SP IPHASW D HRMM SECON CODA AMPLIT PERI AZIMU VELO AIN AR TRES W  DIS CAZ7
 BAR2 SZ EP        317 18.20                             170    0.1810 23.7 189 
 BAR2 SZ ES        317 33.08                             170   -0.4510 23.7 189 
 BAR2 SZ I         317 35.72        28.5 0.38            169           23.7 189 
 GIR2 SZ EP   1    317 18.25                             168    0.21 7 30.8 351 
 GIR2 SZ I         317 38.44         8.6 0.32            168           30.8 351 
 BRR  HZ EP     D  317 19.93                             153    0.4510 70.8 298 
 BRR  HN ES        317 36.83                             153    0.6910 70.8 298 
 BRR  HZ I         317 39.42         9.5 0.16            151           70.8 298 
 PAM  SZ EP   1    317 20.86                             151    0.30 7 77.2  40 
 PAM  SN ES        317 38.13                             151    0.0810 77.2  40 
 PAM  SN I         317 39.28        24.5 0.48            152           77.2  40 
 RUS  HZ EP   1    317 22.05                             144   -0.07 7  101 176 
 RUS  HN ES   2    317 39.90                             144   -0.93 5  101 176 
 RUS  HN I         317 42.27        28.9 0.30            143            101 176 
 PTB  HZ EP   1    317 24.73                             133   -0.52 7  148 259 
 PTB  HN ES   1    317 46.10                             133   -0.31 7  148 259 
 PTB  HN I         317 51.38        28.1 0.42            131            148 259 
 OCA  HZ EP   1    317 26.14                             130   -0.42 7  160 353 
 OCA  HN ES   1    317 48.57                             130   -0.17 7  160 353 
 OCA  HN I         317 51.35        67.3 0.28            130            160 353 
 NOR  HZ EP        317 33.92                             119   -0.06 8  235 234 
 NOR  HN ES   1    318  2.23                             119    0.28 6  235 234 
 NOR  HN I         318  8.83        24.1 0.16            118            235 234 
 SML  HZ EP   1    317 35.17                             118    0.35 6  243 335 
 SML  HN ES        318  2.64                             118   -0.80 8  243 335 
 SML  HN I         318  5.20        33.6 0.10            117            243 335 
 HEL  HZ EP   4    317 39.01                             115    0.58 0  272 256 
 HEL  HN ES   4    318 11.21                             115    1.34 0  272 256 
 HEL  HN I         318 16.82         7.2 0.28            114            272 256 
 PRA  HZ EP   1    317 51.89                             107    0.14 4  392 210 
 PRA  HN ES        318 33.62                             107    0.05 6  392 210 
 PRA  HN I         318 39.28         4.6 0.58            106            392 210 
 SJC  HZ EP   4    317 52.40                             106   -1.30 0  409 327 
 SJC  HN ES   4    318 33.20                             106   -3.85 0  409 327 
 SJC  HN I         318 36.71         4.5 0.36            105            409 327 
                                                                                
