 2014 1027 0337 39.6 L   6.748 -73.107146.9  RSN  6 0.4 1.1LRSN                1
 GAP=144        0.87       4.9     5.3  6.9 -0.8194E+01  0.3415E+01  0.6699E+01E
 Epicentro: LOS SANTOS - SANTANDER                                             3
 ACTION:UPD 14-11-29 23:57 OP:nd   STATUS:               ID:20141027033739 L   I
 OLDACT:REG 14-10-29 19:33 OP:spq  STATUS:               ID:20141027032748     3
 2014-10-27-0327-48M.COL___271                                                 6
 STAT SP IPHASW D HRMM SECON CODA AMPLIT PERI AZIMU VELO AIN AR TRES W  DIS CAZ7
 BAR2 SZ ES   1    338 14.69                             172   -0.01 7 19.2 206 
 BAR2 SZ I         338 15.87         4.3 0.28            169           19.2 206 
 BRR  HZ EP        338  1.18                             150   -0.1210 77.7 301 
 BRR  HN ES        338 18.69                             150    0.5010 77.7 301 
 BRR  HZ I         338 22.44         2.8 0.16            151           77.7 301 
 PAM  SZ EP        338  2.20                             151    0.0910 79.4  35 
 PAM  SN ES        338 19.34                             151   -0.2810 79.4  35 
 PAM  SZ I         338 20.38         1.0 0.17            156           79.4  35 
 RUS  HZ EP   1    338  2.59                             146   -0.51 7 94.7 178 
 RUS  HN ES   1    338 21.52                             146    0.13 7 94.7 178 
 RUS  HZ I         338 23.64         1.2 0.26            146           94.7 178 
 PTB  HZ EP   1    338  6.67                             131   -0.33 7  151 261 
 PTB  HN ES   1    338 27.69                             131   -0.65 7  151 261 
 PTB  HZ I         338 29.19         1.4 0.09            132            151 261 
 SPBC HZ EP        338  8.74                             130    0.66 9  162 221 
 SPBC HE ES   1    338 30.17                             130   -0.09 7  162 221 
 SPBC HZ I         338 38.26         2.2 0.22            130            162 221 
                                                                                
