 2010 1227 0747 32.8 L   6.806 -73.131132.3  RSN  8 0.5 2.2LRSN                1
 GAP=160        1.10       4.7     8.0 10.4 -0.1524E+02  0.4107E+02 -0.6048E+01E
 Epicentro: LOS SANTOS - SANTANDER                                             3
 ACTION:UP  11-01-14 15:27 OP:pat  STATUS:               ID:20101227074732 L   I
 2010-12-27-0743-27S.COL___133                                                 6
 STAT SP IPHASW D HRMM SECON CODA AMPLIT PERI AZIMU VELO SNR AR TRES W  DIS CAZ7
 BAR2 SZ EP        747 50.81                             169     0.010   24 194 
 BAR2 SZ ES   1    748  4.45                             169    -0.4 7   24 194 
 BAR2 SZ I         748  6.92        36.0 0.24                            24 194 
 RUS  HZ EP   1    747 54.83                             141    -0.4 7  101 177 
 RUS  HN ES   1    748 13.18                             141     0.4 7  101 177 
 RUS  HZ I         748 15.30        16.5 0.28                           101 177 
 GRA  SZ EP   1    747 57.61                             134     0.9 7  125  17 
 GRA  SZ ES   1    748 15.97                             134     0.5 7  125  17 
 GRA  SZ I         748 20.02        18.2 0.19                           125  17 
 OCA  SZ EP   1    747 59.25                             126    -0.8 7  160 353 
 OCA  SZ ES   1    748 20.74                             126    -0.6 7  160 353 
 OCA  SZ I         748 24.34        22.1 0.06                           160 353 
 ROSC BZ EP   2    748 11.13                             114     0.8 4  254 211 
 ROSC BZ I         748 45.36        15.7 0.38                           254 211 
 HEL  HZ EP   1    748 12.67                             112     0.1 6  274 256 
 HEL  HN ES        748 43.93                             112     0.4 8  274 256 
 HEL  HZ I         748 49.26        10.1 0.47                           274 256 
 RREF HN ES   1    748 54.14                             108    -0.1 5  323 229 
 RREF HZ I         749  0.65         7.0 0.34                           323 229 
 PRA  HZ EP   1    748 25.34                             104    -0.7 4  393 210 
 PRA  HN ES   1    749  7.32                             104    -0.2 4  393 210 
                                                                                
