 2013  727 0216 16.5 L   6.696 -73.133140.2  RSN  6 0.4 1.3LRSN                1
 GAP=172        0.86      10.2     4.8  9.3 -0.2131E+02 -0.2607E+00  0.2622E+02E
 Epicentro: JORDAN - SANTANDER                                                 3
 ACTION:UPD 13-08-12 10:40 OP:ep   STATUS:               ID:20130727021616 L   I
 OLDACT:UP  13-07-27 10:35 OP:cam  STATUS:               ID:20130727020960d    3
 OLDACT:DUP 13-07-27 10:33 OP:cam  STATUS:               ID:20130727020960d    3
 OLDACT:UP  13-07-27 10:32 OP:cam  STATUS:               ID:20130727020959     3
 OLDACT:REG 13-07-27 08:18 OP:cam  STATUS:               ID:20130727020959     3
 2013-07-27-0209-59M.COL___267                                                 6
 STAT SP IPHASW D HRMM SECON CODA AMPLIT PERI AZIMU VELO AIN AR TRES W  DIS CAZ7
 BAR2 SZ EP   1    216 35.90                             175    0.58 7 12.7 206 
 GIR2 SZ IP        216 35.68                             162   -0.2410 42.8 351 
 GIR2 SZ EP   1    216 35.68                             162   -0.24 7 42.8 351 
 BRR  HZ EP        216 37.52                             149   -0.0010 78.5 305 
 BRR  HN ES   1    216 54.50                             149    0.60 7 78.5 305 
 BRR  HZ I         216 57.86         3.1 0.14            150           78.5 305 
 PAM  SZ EP        216 38.73                             147    0.0410 85.7  34 
 PAM  SN ES   1    216 55.67                             147   -0.31 7 85.7  34 
 PTB  HZ EP        216 42.66                             131   -0.36 9  147 263 
 PTB  HN ES        217  3.55                             131   -0.13 9  147 263 
 PTB  HZ I         217  6.09         3.3 0.14            133            147 263 
 ZAR  HZ EP        216 49.90                             120    0.66 8  210 295 
 ZAR  HE ES   1    217 14.22                             120   -0.53 6  210 295 
                                                                                
