 2015  127 0456  1.0 L   6.809 -73.168150.0  RSN  7 0.4 1.3LRSN                1
 GAP=133        0.96       4.1     5.1  7.6 -0.3359E+01  0.3699E+01  0.2990E+00E
 Epicentro: LOS SANTOS - SANTANDER                                             3
 ACTION:UPD 15-03-02 15:42 OP:nd   STATUS:               ID:20150127045601 L   I
 OLDACT:DUP 15-01-27 14:48 OP:cam  STATUS:               ID:20150127044814d    3
 OLDACT:UP  15-01-27 14:48 OP:cam  STATUS:               ID:20150127044813d    3
 OLDACT:DUP 15-01-27 14:44 OP:cam  STATUS:               ID:20150127044813d    3
 OLDACT:REG 15-01-27 13:05 OP:cam  STATUS:               ID:20150127044812     3
 2015-01-27-0448-12M.COL___277                                                 6
 STAT SP IPHASW D HRMM SECON CODA AMPLIT PERI AZIMU VELO AIN AR TRES W  DIS CAZ7
 BRR  HZ EP        456 22.64                             154    0.1910 68.5 299 
 BRR  HE ES        456 39.88                             154    0.6810 68.5 299 
 BRR  HZ I         456 44.71         3.3 0.42            154           68.5 299 
 PAM  SZ EP        456 23.50                             151   -0.2110 78.2  41 
 PAM  SE ES        456 41.30                             151   -0.1210 78.2  41 
 PAM  SZ I         456 43.30         3.0 0.48            156           78.2  41 
 RUS  HZ EP   1    456 24.92                             144   -0.33 7  102 175 
 RUS  HN ES   1    456 44.04                             144   -0.13 7  102 175 
 RUS  HZ I         456 44.81         1.9 0.44            147            102 175 
 PTB  HZ EP   1    456 28.09                             134   -0.02 7  146 258 
 PTB  HN ES        456 48.39                             134   -0.87 9  146 258 
 PTB  HZ I         456 52.41         2.5 0.46            135            146 258 
 SPBC HZ EP   1    456 30.13                             130    0.38 7  162 218 
 SPBC HN ES   1    456 52.77                             130    0.59 7  162 218 
 SPBC HZ I         456 57.29         4.9 0.12            132            162 218 
 SML  HZ EP   1    456 38.07                             119    0.42 6  242 336 
 SML  HN ES        457  6.00                             119   -0.24 8  242 336 
 CHI  HZ EP   2    456 39.18                             118    0.21 4  249 195 
                                                                                
