 2017  927 0853 10.3 L   6.834 -73.267125.1  RSN  6 0.3 1.5LRSN                1
 GAP=112        0.77       3.7     4.0  6.0  0.4983E+01  0.1020E+02  0.3047E+01E
 Epicentro: ZAPATOCA - SANTANDER                                               3
 ACTION:UPD 17-10-05 19:16 OP:rebc STATUS:               ID:20170927085310 L   I
 OLDACT:UP  17-09-27 18:48 OP:edw  STATUS:               ID:20170927084735     3
 OLDACT:REG 17-09-27 12:58 OP:edw  STATUS:               ID:20170927084735     3
 2017-09-27-0848-00M.COL___447                                                 6
 STAT SP IPHASW D HRMM SECON CODA AMPLIT PERI AZIMU VELO AIN AR TRES W  DIS CAZ7
 BAR2 EZ EP     C  853 27.82                             167    0.2510 28.3 161 
 BAR2 EZ ES        853 41.24                             167    0.2010 28.3 161 
 BAR2 EZ I         853 42.67         8.1 0.42            168           28.3 161 
 BRR  HZ EP        853 28.23                             154   -0.2210 57.7 302 
 BRR  HN ES        853 42.43                             154   -0.1810 57.7 302 
 BRR  HZ I         853 43.13        11.0 0.16            154           57.7 302 
 PAM  EN ES        853 46.79                             144   -0.0210 84.0  48 
 PAM  EZ I         853 49.72         5.1 0.32            144           84.0  48 
 RUS  HZ EP        853 32.90                             137    0.3910  106 169 
 RUS  HN ES        853 49.45                             137   -0.3910  106 169 
 RUS  HZ I         853 51.35         3.2 0.22            139            106 169 
 ZAR  HZ EP        853 39.54                             119   -0.46 9  190 293 
 ZAR  HN ES        854  3.60                             119    0.43 9  190 293 
 ZAR  HZ I         854  6.79         4.7 0.28            120            190 293 
 NOR  HN ES   2    854 10.26                             115    0.03 4  226 232 
                                                                                
