 2017 1027 0539 53.3 L   6.793 -73.130149.6  RSN  6 0.5 1.1LRSN                1
 GAP=239        1.25       7.2     7.5  9.2  0.2200E+02  0.9937E+01  0.3414E+01E
 Epicentro: LOS SANTOS - SANTANDER                                             3
 ACTION:UPD 17-11-07 19:37 OP:rebc STATUS:               ID:20171027053953 L   I
 OLDACT:REG 17-10-27 12:52 OP:dani STATUS:               ID:20171027053743     3
 2017-10-27-0538-00M.COL___444                                                 6
 STAT SP IPHASW D HRMM SECON CODA AMPLIT PERI AZIMU VELO AIN AR TRES W  DIS CAZ7
 BAR2 EZ EP        540 13.12                             171   -0.2910 22.9 195 
 BAR2 EZ ES        540 28.88                             171   -0.2010 22.9 195 
 BAR2 EZ I         540 34.31         2.5 0.58            169           22.9 195 
 BRR  HZ EP        540 15.00                             153   -0.0010 73.1 298 
 BRR  HN ES        540 32.17                             153    0.2710 73.1 298 
 BRR  HZ I         540 34.42         2.4 0.33            155           73.1 298 
 RUS  HZ EP        540 17.69                             145    0.2910 99.7 177 
 RUS  HN ES        540 36.34                             145    0.1710 99.7 177 
 RUS  HZ I         540 38.07         1.3 0.29            146           99.7 177 
 PTB  HZ EP        540 19.97                             133   -0.78 9  149 259 
 PTB  HN ES        540 41.21                             133   -0.93 9  149 259 
 PTB  HZ I         540 44.21         1.0 0.70            135            149 259 
 SPBC HZ EP        540 22.42                             130    0.25 9  164 220 
 SPBC HE ES        540 45.11                             130    0.45 9  164 220 
 SPBC HZ I         540 50.25         2.0 0.24            132            164 220 
 ZAR  HN ES        540 52.80                             123    0.92 8  206 292 
                                                                                
