 2012  827 0611 12.7 L   6.682 -73.148158.0  RSN  4 0.3 1.6LRSN                1
 GAP=254        0.62       9.8     6.2  6.6  0.2280E+02  0.8100E+01 -0.2442E+01E
 Epicentro: VILLANUEVA - SANTANDER                                             3
 ACTION:UPD 12-09-10 11:58 OP:ep   STATUS:               ID:20120827061112 L   I
 2012-08-27-0610-00M.COL___218                                                 6
 STAT SP IPHASW D HRMM SECON CODA AMPLIT PERI AZIMU VELO AIN AR TRES W  DIS CAZ7
 BAR2 SZ EP   1    611 33.16                             176   -0.47 7 10.6 201 
 BAR2 SZ ES   1    611 50.02                             176    0.07 7 10.6 201 
 BAR2 SZ I         611 51.95         7.3 0.15                          10.6 201 
 BRR  HZ EP   1    611 35.90                             152    0.35 7 78.0 307 
 BRR  HZ I         611 36.22        11.7 0.18                          78.0 307 
 BRR  HN ES   1    611 53.50                             152    0.12 7 78.0 307 
 PTB  HZ EP   1    611 40.41                             135   -0.08 7  145 264 
 PTB  HN ES   1    612  2.35                             135    0.18 7  145 264 
 PTB  HZ I         612  9.30         3.1 0.52                           145 264 
 ZAR  HZ EP   1    611 46.80                             124    0.33 6  209 295 
 ZAR  HE ES   1    612 12.26                             124   -0.55 6  209 295 
 ZAR  HZ I         612 17.79         3.6 0.37                           209 295 
                                                                                
