 2014  627 0751 39.6 L   7.149 -73.320115.3  RSN  6 0.5 1.3LRSN                1
 GAP=166        0.96       3.7     5.3 10.5 -0.3935E+01  0.1901E+02 -0.6419E+00E
 Epicentro: LEBRIJA - SANTANDER                                                3
 ACTION:UPD 14-07-01 22:57 OP:nd   STATUS:               ID:20140627075139 L   I
 OLDACT:REG 14-06-27 15:22 OP:spq  STATUS:               ID:20140627074817     3
 2014-06-27-0748-17M.COL___256                                                 6
 STAT SP IPHASW D HRMM SECON CODA AMPLIT PERI AZIMU VELO AIN AR TRES W  DIS CAZ7
 BAR2 SZ EP        751 57.55                             149    0.1110 63.4 166 
 BAR2 SZ ES   1    752 11.60                             149    0.29 7 63.4 166 
 BAR2 SZ I         752 12.36        12.7 0.12            151           63.4 166 
 OCA  HZ EP   1    752  1.28                             130   -0.59 7  121   0 
 OCA  HN ES        752 19.23                             130    0.0410  121   0 
 OCA  HZ I         752 20.43         6.0 0.30            133            121   0 
 PTB  HZ EP   1    752  2.77                             125   -1.03 7  143 242 
 PTB  HE ES        752 22.19                             125   -0.45 9  143 242 
 PTB  HZ I         752 25.25         2.1 0.22            126            143 242 
 ZAR  HZ EP        752  7.48                             119    0.43 9  174 283 
 ZAR  HE ES        752 28.74                             119    0.32 9  174 283 
 ZAR  HZ I         752 31.56         2.5 0.22            121            174 283 
 SPBC HE ES   1    752 30.74                             117   -0.01 7  185 207 
 SPBC HZ I         752 34.88         1.9 0.36            119            185 207 
 NOR  HZ EP   1    752 15.77                             110    0.76 6  245 224 
 NOR  HE ES   1    752 42.72                             110    0.13 6  245 224 
 NOR  HZ I         752 44.31         1.0 0.18            112            245 224 
                                                                                
