 2015  827 0721 10.8 L   6.776 -73.088149.2  RSN  4 0.2 1.3LRSN                1
 GAP=242        0.46       3.1     4.8  5.1  0.1856E+01 -0.3778E+01  0.5533E+00E
 Epicentro: LOS SANTOS - SANTANDER                                             3
 ACTION:UPD 15-09-15 23:05 OP:cam  STATUS:               ID:20150827072110 L   I
 OLDACT:REG 15-08-27 12:50 OP:spq  STATUS:               ID:20150827071746     3
 2015-08-27-0717-46M.COL___352                                                 6
 STAT SP IPHASW D HRMM SECON CODA AMPLIT PERI AZIMU VELO AIN AR TRES W  DIS CAZ7
 BAR2 EZ EP        721 30.71                             171   -0.1510 22.8 207 
 BAR2 EZ ES   1    721 46.32                             171   -0.16 7 22.8 207 
 BAR2 EZ I         721 47.08         5.2 0.18            169           22.8 207 
 BRR  HZ EP        721 32.64                             151   -0.1010 78.1 298 
 BRR  HE ES        721 49.99                             151    0.1610 78.1 298 
 BRR  HZ I         721 52.87         1.9 0.42            150           78.1 298 
 RUS  HZ EP   1    721 35.07                             145    0.36 7 97.7 180 
 RUS  HN ES   1    721 53.42                             145    0.08 7 97.7 180 
 RUS  HZ I         721 54.37         1.7 0.26            146           97.7 180 
 SPBC HE ES        722  2.28                             129   -0.09 9  165 221 
 SPBC HZ I         722  4.36         4.1 0.20            130            165 221 
                                                                                
