 2014  127 0737 48.4 L   6.776 -73.157140.2  RSN  5 0.2 1.0LRSN                1
 GAP=139        0.46       2.7     2.8  4.6 -0.2433E+01  0.3771E+01  0.6899E+00E
 Epicentro: LOS SANTOS - SANTANDER                                             3
 ACTION:UPD 14-03-13 09:58 OP:ep   STATUS:               ID:20140127073748 L   I
 OLDACT:DUP 14-01-27 14:24 OP:stll STATUS:               ID:20140127072814d    3
 2014-01-27-0728-13M.COL___222                                                 6
 STAT SP IPHASW D HRMM SECON CODA AMPLIT PERI AZIMU VELO AIN AR TRES W  DIS CAZ7
 BAR2 SZ EP        738  7.61                             171    0.2910 20.5 188 
 PAM  SZ EP        738 10.22                             149    0.0010 80.2  39 
 PAM  SN ES        738 27.08                             149   -0.1410 80.2  39 
 PAM  SZ I         738 29.68         2.6 0.50            153           80.2  39 
 RUS  HN ES        738 29.39                             143    0.0110 98.0 175 
 RUS  HZ I         738 32.99         1.2 0.40            146           98.0 175 
 PTB  HZ EP        738 14.84                             131    0.07 9  146 260 
 PTB  HN ES        738 35.26                             131   -0.08 9  146 260 
 PTB  HZ I         738 37.75         1.7 0.14            134            146 260 
 CHI  HZ EP        738 25.24                             116   -0.25 8  246 195 
                                                                                
