 2013  227 0708 56.2 L   6.783 -73.150147.1  RSN  8 0.5 1.9LRSN                1
 GAP=111        1.15       5.1     5.6  8.0  0.9263E+01 -0.5700E+01  0.3115E+01E
 Epicentro: LOS SANTOS - SANTANDER                                             3
 ACTION:UPD 13-03-12 09:36 OP:ep   STATUS:               ID:20130227070856 L   I
 2013-02-27-0658-48M.COL___193                                                 6
 STAT SP IPHASW D HRMM SECON CODA AMPLIT PERI AZIMU VELO AIN AR TRES W  DIS CAZ7
 BAR2 SZ EP        7 9 15.71                             171   -0.2510 21.4 190 
 BAR2 SZ ES        7 9 30.74                             171   -0.6310 21.4 190 
 BAR2 SZ I         7 9 32.48        13.1 0.46            171           21.4 190 
 BRR  HZ EP        7 9 17.80                             152    0.2710 71.7 300 
 BRR  HN ES        7 9 34.97                             152    0.8110 71.7 300 
 BRR  HN I         7 9 39.23        22.4 0.18            152           71.7 300 
 RUS  HZ EP        7 9 20.00                             145    0.0410 98.8 176 
 RUS  HN ES        7 9 38.53                             145    0.0410 98.8 176 
 RUS  HN I         7 9 39.93         9.9 0.44            147           98.8 176 
 PTB  HZ EP   2    7 9 22.62                             132   -0.59 5  147 260 
 PTB  HN ES        7 9 43.80                             132   -0.47 9  147 260 
 PTB  HN I         7 9 48.64         9.3 0.36            133            147 260 
 TAM  HZ EP        7 9 23.78                             131   -0.21 9  155 104 
 OCA  HN ES   1    7 9 47.57                             129    0.49 7  162 353 
 ZAR  HE ES        7 9 53.77                             123   -0.39 9  204 293 
 CHI  HZ EP        7 9 33.79                             118    0.02 8  247 195 
 CHI  HN ES   1    710  4.43                             118    1.36 6  247 195 
                                                                                
