 2011  527 0215 16.4 L   6.784 -73.090147.8  RSN 15 0.5 3.0LRSN                1
 GAP=145        0.93       4.3     6.3  5.7 -0.1623E+02  0.8380E+01  0.3700E+01E
 Epicentro: LOS SANTOS - SANTANDER                                             3
 ACTION:UP  11-06-29 08:56 OP:tino STATUS:               ID:20110527021516 L   I
 2011-05-27-0213-42S.COL___115                                                 6
 STAT SP IPHASW D HRMM SECON CODA AMPLIT PERI AZIMU VELO SNR AR TRES W  DIS CAZ7
 BAR2 SZ IP        215 36.11                             170    -0.110   24 206 
 BAR2 SZ ES   1    215 51.54                             170    -0.2 7   24 206 
 BAR2 SZ I         215 54.14       168.2 0.44                            24 206 
 BTL  SZ EP   1    215 36.28                             170     0.0 7   25 307 
 GIR2 SZ EP   1    215 36.28                             166    -0.1 7   35 341 
 GIR2 SZ ES   1    215 51.72                             166    -0.3 7   35 341 
 PAM  SZ EP        215 38.84                             152     0.210   75  35 
 PAM  SZ I         215 39.16        63.5 0.16                            75  35 
 PAM  SN ES   1    215 56.33                             152     0.3 7   75  35 
 BRR  HZ EP        215 37.98                             151    -0.110   77 297 
 BRR  HN ES   1    215 55.32                             151     0.3 7   77 297 
 BRR  HZ I         215 57.75       120.0 0.13                            77 297 
 RUS  HZ EP   1    215 39.92                             145    -0.3 7   99 180 
 RUS  HN ES   1    215 58.77                             145     0.0 7   99 180 
 RUS  HZ I         215 59.93        41.1 0.14                            99 180 
 BRI  SZ EP   1    215 40.64                             142     0.2 7  108  17 
 BRI  SZ ES   1    215 58.68                             142    -0.5 7  108  17 
 BRI  SZ I         216  1.38        89.8 0.25                           108  17 
 GRA  SZ IP        215 41.89                             137     0.110  126  15 
 GRA  SZ ES   1    216  2.01                             137     0.4 7  126  15 
 GRA  SZ I         216  2.65       100.2 0.37                           126  15 
 NOR  SZ EP   1    215 51.85                             118    -0.8 6  239 236 
 NOR  SN ES   1    216 20.32                             118    -0.6 6  239 236 
 NOR  SZ I         216 23.97        15.2 0.27                           239 236 
 ROSC BZ EP   1    215 55.67                             117     0.9 6  255 212 
 ROSC BN ES   1    216 25.22                             117     0.5 6  255 212 
 ROSC BZ I         216 33.56      2467.5 0.30                           255 212 
 GUY  SZ EP   1    216  1.16                             112     0.4 5  308 236 
 RREF HZ EP   1    216  3.41                             111     0.4 5  325 230 
 RREF HN ES   1    216 40.90                             111     1.5 5  325 230 
 DBB  SZ EP   1    216  4.00                             109    -0.7 5  346 274 
 TOL  SZ EP   1    216  5.01                             109    -0.1 5  347 226 
 PRA  HZ EP   1    216  9.23                             107    -0.9 4  394 210 
 PRA  HN ES   1    216 51.61                             107    -0.5 4  394 210 
 PRA  HZ I         216 57.58        79.6 0.26                           394 210 
                                                                                
