 2017 1027 0350 52.1 L   6.766 -73.156148.3  RSN  6 0.4 1.2LRSN                1
 GAP=137        0.97       4.9     4.3  6.6  0.2273E+01  0.6985E+01 -0.1502E+01E
 Epicentro: LOS SANTOS - SANTANDER                                             3
 ACTION:UPD 17-11-07 19:37 OP:rebc STATUS:               ID:20171027035052 L   I
 OLDACT:UP  17-10-27 15:08 OP:dani STATUS:               ID:20171027034737     3
 OLDACT:REG 17-10-27 12:41 OP:dani STATUS:               ID:20171027034737     3
 2017-10-27-0348-00M.COL___444                                                 6
 STAT SP IPHASW D HRMM SECON CODA AMPLIT PERI AZIMU VELO AIN AR TRES W  DIS CAZ7
 BAR2 EZ EP        351 11.81                             172   -0.1310 19.4 189 
 BAR2 HN ES        351 26.85                             172   -0.5810 19.4 189 
 BRR  HZ EP        351 13.71                             153    0.1610 72.1 302 
 BRR  HE ES        351 30.94                             153    0.6410 72.1 302 
 BRR  HZ I         351 31.55         6.7 0.27            151           72.1 302 
 PAM  EZ EP        351 14.73                             150   -0.0510 81.0  38 
 PAM  EN ES        351 32.40                             150   -0.0810 81.0  38 
 PAM  EZ I         351 33.65         1.6 0.16            152           81.0  38 
 RUS  HZ EP        351 15.95                             145    0.1310 96.9 175 
 RUS  HN ES        351 34.75                             145    0.4110 96.9 175 
 RUS  HZ I         351 36.36         1.4 0.25            147           96.9 175 
 PTB  HZ EP        351 18.47                             133   -0.62 9  146 260 
 PTB  HE ES        351 40.01                             133   -0.15 9  146 260 
 PTB  HZ I         351 42.72         1.2 0.28            133            146 260 
 ZAR  HZ EP        351 25.18                             123    0.45 9  204 293 
 ZAR  HE ES        351 49.95                             123   -0.25 9  204 293 
 ZAR  HZ I         351 55.94         2.3 0.33            123            204 293 
                                                                                
