 2013  627 0347 38.1 L   7.462 -73.491135.1  RSN  5 0.4 1.2LRSN                1
 GAP=166        0.93       6.0     9.7 12.2  0.1552E+02 -0.1562E+02 -0.3739E+02E
 Epicentro: SABANA DE TORRES - SANTANDER                                       3
 ACTION:UPD 14-01-08 09:57 OP:ep   STATUS:               ID:20130627034738 L   I
 OLDACT:DUP 13-06-27 08:24 OP:jn   STATUS:               ID:20130627033960d    3
 OLDACT:REG 13-06-27 06:34 OP:jn   STATUS:               ID:20130627033959     3
 2013-06-27-0339-59M.COL___266                                                 6
 STAT SP IPHASW D HRMM SECON CODA AMPLIT PERI AZIMU VELO AIN AR TRES W  DIS CAZ7
 BRR  HZ EP        347 57.44                             160    0.5710 46.3 212 
 BRR  HN ES        348 11.75                             160    0.2710 46.3 212 
 BRR  HZ I         348 12.95         3.3 0.40            153           46.3 212 
 GIR2 SZ EP   1    347 56.93                             157   -0.48 7 53.6 142 
 BAR2 SZ ES   1    348 17.77                             141   -0.38 7  102 160 
 BAR2 SZ I         348 18.68         5.5 0.18            139            102 160 
 PTB  HN ES   1    348 24.13                             129   -0.49 7  148 226 
 PTB  HZ I         348 29.12         1.0 0.30            125            148 226 
 SML  HZ EP   1    348  5.74                             127    0.21 7  161 337 
 SML  HE ES   1    348 26.41                             127   -0.49 7  161 337 
                                                                                
