 2016  427 0038 36.7 L   6.808 -73.199139.3  RSN  4 0.3 1.5LRSN                1
 GAP=145        0.46       3.0     4.6  5.3 -0.6047E+01  0.7228E+01 -0.1391E+01E
 Epicentro: ZAPATOCA - SANTANDER                                               3
 ACTION:UPD 16-05-05 14:24 OP:rebc STATUS:               ID:20160427003836 L   I
 OLDACT:REG 16-04-27 12:41 OP:dnl  STATUS:               ID:20160427003750     3
 2016-04-27-0037-50M.COL___319                                                 6
 STAT SP IPHASW D HRMM SECON CODA AMPLIT PERI AZIMU VELO AIN AR TRES W  DIS CAZ7
 BAR2 EZ EP   3    038 54.72                             170   -0.88 2 23.9 176 
 BAR2 EZ ES   2    039  9.81                             170   -0.51 5 23.9 176 
 BAR2 EZ I         039 11.80        13.3 0.36            170           23.9 176 
 PAM  EZ EP        038 58.56                             149    0.0910 80.6  43 
 PAM  EE ES        039 15.45                             149    0.0310 80.6  43 
 PAM  EZ I         039 17.78         8.0 0.54            153           80.6  43 
 RUS  HZ EP        038 59.81                             142   -0.1510  102 173 
 RUS  HE ES        039 18.24                             142    0.1610  102 173 
 RUS  HZ I         039 19.21         2.4 0.32            147            102 173 
 PTB  HZ EP   2    039  2.71                             132    0.04 5  142 258 
 PTB  HN ES   2    039 23.09                             132    0.19 5  142 258 
 PTB  HZ I         039 28.95         4.2 0.16            130            142 258 
                                                                                
