 2014  927 0832 16.4 L   6.655 -73.042173.7  RSN 22 0.5 2.7LRSN                1
 GAP= 83        1.03       2.8     3.0  4.7 -0.3942E+00  0.4144E+01  0.1774E+01E
 Epicentro: ARATOCA - SANTANDER                                                3
 ACTION:UPD 14-10-03 23:08 OP:nd   STATUS:               ID:20140927083216 L   I
 OLDACT:UP  14-09-27 19:07 OP:mh   STATUS:               ID:20140927082807     3
 OLDACT:UP  14-09-27 19:06 OP:mh   STATUS:               ID:20140927082807     3
 OLDACT:UP  14-09-27 19:06 OP:mh   STATUS:               ID:20140927082807     3
 OLDACT:UP  14-09-27 19:00 OP:mh   STATUS:               ID:20140927082807     3
 OLDACT:UP  14-09-27 19:00 OP:mh   STATUS:               ID:20140927082807     3
 OLDACT:UP  14-09-27 19:00 OP:mh   STATUS:               ID:20140927082807     3
 OLDACT:REG 14-09-27 13:59 OP:mh   STATUS:               ID:20140927082807     3
 2014-09-27-0828-07M.COL___295                                                 6
 STAT SP IPHASW D HRMM SECON CODA AMPLIT PERI AZIMU VELO AIN AR TRES W  DIS CAZ7
 BAR2 SZ IP        832 39.49                             174    0.2110 17.0 246 
 BAR2 SZ ES        832 57.36                             174    0.2110 17.0 246 
 BAR2 SZ I         832 58.58       208.1 0.22            172           17.0 246 
 RUS  HZ EP        832 42.26                             153    0.2510 84.4 183 
 RUS  HN ES        833  2.49                             153    0.4910 84.4 183 
 RUS  HZ I         833  3.30       112.6 0.20            154           84.4 183 
 PAM  SZ EP        832 42.31                             153    0.3010 84.6  27 
 PAM  SN ES        833  1.97                             153   -0.0510 84.6  27 
 PAM  SZ I         833  5.91        34.2 0.42            156           84.6  27 
 BRR  HZ EP     C  832 42.23                             151    0.6510 89.4 304 
 BRR  HN ES        833  1.11                             151   -0.1210 89.4 304 
 BRR  HZ I         833  7.47        58.7 0.18            152           89.4 304 
 TAM  HZ EP        832 45.05                             139   -0.14 9  140 100 
 TAM  HE ES        833  7.00                             139   -0.67 9  140 100 
 TAM  HZ I         833  7.98        20.4 0.56            143            140 100 
 PTB  HZ EP        832 46.39                             136   -0.13 9  157 265 
 PTB  HN ES        833  9.47                             136   -0.56 9  157 265 
 PTB  HZ I         833 11.13        53.8 0.16            137            157 265 
 SPBC HZ EP        832 47.07                             135    0.27 9  159 226 
 SPBC HN ES        833 10.21                             135   -0.32 9  159 226 
 SPBC HZ I         833 16.05        50.8 0.18            137            159 226 
 OCA  HZ EP   1    832 48.47                             132   -0.07 7  178 350 
 OCA  HN ES        833 13.20                             132   -0.43 9  178 350 
 OCA  HZ I         833 15.91        55.5 0.58            134            178 350 
 ZAR  HZ EP        832 52.37                             126   -0.07 8  221 295 
 ZAR  HN ES        833 21.12                             126    0.55 8  221 295 
 ZAR  HZ I         833 23.23        53.8 0.26            127            221 295 
 CHI  HZ EP        832 54.57                             124    0.03 8  237 199 
 CHI  HN ES        833 24.31                             124   -0.00 8  237 199 
 CHI  HZ I         833 26.86        19.8 0.28            126            237 199 
 ROSC BZ EP        832 55.85                             123    0.42 8  246 215 
 ROSC BN ES   4    833 27.52                             123    1.63 0  246 215 
 SML  HZ EP        832 56.68                             121   -0.05 8  263 334 
 SML  HN ES   4    833 26.10                             121   -2.10 0  263 334 
 SML  HZ I         833 32.27        72.4 0.34            122            263 334 
 PTGC HZ EP   4    832 58.18                             118   -1.37 0  290 160 
 PTGC HN ES   4    833 30.12                             118   -3.10 0  290 160 
 PTGC HZ I         833 33.42        17.8 0.48            120            290 160 
 URE  HZ EP        832 59.78                             117   -0.98 7  301 294 
 URE  HN ES        833 34.32                             117   -1.06 7  301 294 
 URE  HZ I         833 36.17        73.0 0.16            119            301 294 
 GUY2CHZ EP   4    833  3.09                             117    1.59 0  302 239 
 GUY2CHN ES   4    833 39.79                             117    3.10 0  302 239 
 GUY2CHZ I         833 48.68        20.4 0.64                           302 239 
 RREF HZ EP   4    832 59.91                             116   -3.83 0  321 233 
 RREF HN ES   4    833 37.08                             116   -3.60 0  321 233 
 CBOC HZ EP        833  6.14                             114    0.84 7  340 255 
 CBOC HN ES        833 43.78                             114    0.31 7  340 255 
 CBOC HZ I         833 47.42         9.0 0.42            115            340 255 
 TOL  SZ EP        833  5.84                             114    0.27 7  341 228 
 TOL  SN ES        833 43.80                             114   -0.15 7  341 228 
 TOL  SZ I         833 49.50        34.8 0.38            116            341 228 
 DBB  SZ EP        833  6.66                             113    0.09 6  352 277 
 DBB  SZ ES        833 46.70                             113    0.98 6  352 277 
 MON  HZ EP   4    833  6.91                             112   -1.82 0  373 309 
 MON  HN ES   4    833 47.26                             112   -2.31 0  373 309 
 MON  HZ I         833 50.29        21.7 0.18            113            373 309 
 PRA  HZ EP        833  9.44                             111   -0.65 6  384 212 
 PRA  HN ES        833 50.90                             111   -1.09 6  384 212 
 PRA  HZ I         833 54.71        29.7 0.28            113            384 212 
 ORTC HZ EP   1    833 10.62                             111   -0.10 4  390 219 
 ORTC HN ES        833 52.74                             111   -0.37 6  390 219 
 ORTC HZ I         833 59.49         6.7 0.18            112            390 219 
 PAL  HZ EP   4    833 13.77                             110    0.95 0  408 242 
 PAL  HN ES   4    833 55.89                             110   -0.97 0  408 242 
 SJC  HZ EP   4    833 12.90                             109   -2.35 0  429 327 
 SJC  HN ES   4    833 57.97                             109   -3.20 0  429 327 
 SJC  HZ I         834  1.85        14.0 0.54            110            429 327 
                                                                                
