 2014 1227 0343 46.3 L   6.539 -73.513111.3  RSN 21 0.7 2.8LRSN                1
 GAP= 53        1.61       3.0     3.6  8.8 -0.1011E+01  0.8918E+01  0.1067E+01E
 Epicentro: EL CARMEN - SANTANDER                                              3
 ACTION:UPD 15-02-10 17:07 OP:nd   STATUS:               ID:20141227034346 L   I
 OLDACT:REG 14-12-27 13:19 OP:mh   STATUS:               ID:20141227033750     3
 2014-12-27-0337-50M.COL___268                                                 6
 STAT SP IPHASW D HRMM SECON CODA AMPLIT PERI AZIMU VELO AIN AR TRES W  DIS CAZ7
 BAR2 EZ IP     D  344  2.87                             160    0.6110 37.0  81 
 BRR  HZ EP        344  3.60                             147    0.0710 66.6 341 
 BRR  HZ I         344 10.84        83.7 0.32            146           66.6 341 
 BRR  HN ES        344 17.37                             147    0.4110 66.6 341 
 RUS  HZ IP     D  344  5.75                             140    0.1210 85.8 146 
 RUS  HN ES        344 21.01                             140    0.3110 85.8 146 
 RUS  HZ I         344 22.76        52.9 0.42            138           85.8 146 
 PTB  HZ IP     D  344  5.64                             134   -0.8810  104 270 
 PTB  HN ES   4    344 20.28                             134   -2.02 0  104 270 
 PTB  HZ I         344 21.47       118.4 0.34            133            104 270 
 SPBC HZ IP     D  344  7.61                             130   -0.0710  116 212 
 SPBC HN ES        344 23.69                             130   -0.6710  116 212 
 SPBC HZ I         344 25.81       198.1 0.32            129            116 212 
 PAM  SZ EP        344  9.50                             128    0.3310  126  45 
 PAM  SN ES        344 27.34                             128    0.3210  126  45 
 PAM  SZ I         344 28.53       136.4 0.24            127            126  45 
 ZAR  HZ EP   1    344 14.90                             117    0.55 7  182 305 
 ZAR  HN ES        344 36.72                             117    0.49 9  182 305 
 ZAR  HZ I         344 39.37       110.5 0.28            116            182 305 
 NOR  HZ EP   1    344 14.37                             116   -0.33 7  185 234 
 NOR  HN ES        344 35.57                             116   -1.28 9  185 234 
 NOR  HZ I         344 38.14        78.8 0.16            115            185 234 
 OCA  HZ EP        344 14.97                             116   -0.33 9  189   6 
 OCA  HN ES        344 38.05                             116    0.13 9  189   6 
 OCA  HZ I         344 45.59       113.3 0.26            115            189   6 
 TAM  HZ EP        344 15.37                             115    0.05 9  191  93 
 TAM  HN ES        344 36.54                             115   -1.43 9  191  93 
 TAM  HZ I         344 40.60        44.5 0.14            114            191  93 
 ROSC BZ EP   4    344 19.03                             113    1.33 0  208 206 
 ROSC BN ES   4    344 44.31                             113    2.12 0  208 206 
 ROSC BZ I         344 49.42        67.5 0.45            112            208 206 
 CHI  HZ EP        344 18.06                             113   -0.17 8  213 187 
 CHI  HN ES        344 43.25                             113    0.12 8  213 187 
 CHI  HZ I         344 48.53        31.9 0.32            112            213 187 
 HEL  HZ EP   1    344 19.84                             111    0.11 6  226 260 
 HEL  HN ES        344 45.52                             111   -0.29 8  226 260 
 HEL  HZ I         344 48.61        38.2 0.24            110            226 260 
 SML  HZ EP        344 22.67                             108   -0.19 8  258 346 
 SML  HN ES        344 52.45                             108    1.07 8  258 346 
 SML  HZ I         344 56.21       121.2 0.24            107            258 346 
 URE  HZ EP   4    344 22.22                             108   -0.98 0  260 301 
 URE  HN ES        344 50.66                             108   -1.32 8  260 301 
 VIL  SZ EP   1    344 24.82                             107    0.45 6  269 184 
 VIL  SN ES        344 53.97                             107   -0.09 8  269 184 
 VIL  SZ I         345  3.03        62.4 0.36            106            269 184 
 CBOC HZ EP        344 27.06                             106    0.61 7  287 255 
 CBOC HN ES        344 57.30                             106   -0.48 7  287 255 
 CBOC HZ I         345  1.78        18.1 0.48            105            287 255 
 TOL  SZ EP   1    344 28.26                             105    0.65 5  295 223 
 TOL  SN ES        345  2.46                             105    2.64 7  295 223 
 TOL  SZ I         345  2.84       106.2 0.66            104            295 223 
 PTGC HZ EP   4    344 27.11                             105   -0.78 0  300 149 
 PTGC HN ES   4    344 58.95                             105   -1.38 0  300 149 
 ANIL HZ EP   4    344 28.85                             104   -0.34 0  308 223 
 ANIL HN ES   4    345  4.27                             104    1.62 0  308 223 
 MON  HZ EP   1    344 31.71                             102   -1.23 5  343 316 
 MON  HN ES        345  8.87                             102   -0.45 7  343 316 
 MON  HZ I         345 11.41        16.4 0.36            101            343 316 
 ORTC HZ EP        344 33.90                             102    0.26 6  349 214 
 ORTC HN ES        345 11.17                             102    0.60 6  349 214 
 ORTC HZ I         345 15.45        15.4 0.22            101            349 214 
 PAL  HZ EP   4    344 34.67                             101    0.09 0  356 240 
 PAL  HN ES   4    345 12.32                             101    0.08 0  356 240 
 SJC  HZ EP   4    344 40.04                              99   -1.51 0  414 334 
 SJC  HN ES   4    345 21.13                              99   -3.52 0  414 334 
 SJC  HZ I         345 25.39        13.6 0.44             98            414 334 
                                                                                
