 2016  627 0901 24.9 L   6.753 -73.158146.8  RSN  8 0.5 1.7LRSN                1
 GAP=137        1.12       7.6     5.1  9.5 -0.6847E+01  0.1471E+02 -0.1589E-01E
 Epicentro: LOS SANTOS - SANTANDER                                             3
 ACTION:UPD 16-07-21 22:23 OP:rebc STATUS:               ID:20160627090124 L   I
 OLDACT:UP  16-06-27 15:04 OP:lv   STATUS:               ID:20160627085745     3
 OLDACT:REG 16-06-27 13:39 OP:lv   STATUS:               ID:20160627085745     3
 2016-06-27-0857-45M.COL___321                                                 6
 STAT SP IPHASW D HRMM SECON CODA AMPLIT PERI AZIMU VELO AIN AR TRES W  DIS CAZ7
 BRR  HZ EP        9 1 46.48                             152    0.2010 72.7 303 
 BRR  HN ES        9 2  3.42                             152    0.4910 72.7 303 
 BRR  HZ I         9 2  7.61         8.9 0.14                          72.7 303 
 PAM  EZ EP        9 1 47.78                             149    0.2110 82.3  38 
 PAM  EN ES        9 2  4.79                             149   -0.4210 82.3  38 
 RUS  HN ES   2    9 2  7.57                             146    0.82 5 95.5 175 
 PTB  HZ EP        9 1 51.61                             133   -0.18 9  145 261 
 PTB  HN ES        9 2 11.77                             133   -0.95 9  145 261 
 PTB  HZ I         9 2 17.03         3.0 0.17                           145 261 
 SPBC HN ES   2    9 2 15.13                             130    0.15 5  158 220 
 SPBC HZ I         9 2 22.46         6.3 0.10                           158 220 
 ZAR  HZ EP        9 1 57.56                             122    0.03 9  205 294 
 ZAR  HN ES        9 2 23.61                             122    0.66 9  205 294 
 ZAR  HZ I         9 2 28.20         5.6 0.25                           205 294 
 HEL  HZ EP   4    9 2  9.88                             115    4.96 0  269 257 
 HEL  HN ES   4    9 2 41.04                             115    4.94 0  269 257 
 HEL  HZ I         9 2 45.47         2.5 0.22                           269 257 
 URE  HZ EP   4    9 2  8.49                             114    2.35 0  285 293 
 URE  HN ES        9 2 37.87                             114   -0.41 7  285 293 
 URE  HZ I         9 2 47.47         2.8 0.20                           285 293 
 CBOC HZ EP   4    9 2 13.64                             110    2.07 0  331 253 
 CBOC HN ES   4    9 2 49.52                             110    1.59 0  331 253 
                                                                                
