 2013  327 0234 10.4 L   6.686 -73.223146.0  RSN  5 0.3 1.3LRSN                1
 GAP=206        0.73       8.1     8.0  7.3  0.4520E+02  0.2167E+02  0.9776E+01E
 Epicentro: BARICHARA - SANTANDER                                              3
 ACTION:UPD 13-04-09 14:05 OP:ep   STATUS:               ID:20130327023410 L   I
 2013-03-27-0230-00M.COL___245                                                 6
 STAT SP IPHASW D HRMM SECON CODA AMPLIT PERI AZIMU VELO AIN AR TRES W  DIS CAZ7
 BAR2 SZ ES   1    234 44.52                             175   -0.50 8 11.3 157 
 BRR  HN ES   1    234 48.38                             152    0.33 8 71.3 311 
 RUS  HZ EP   1    234 33.52                             147    0.19 8 89.1 170 
 RUS  HN ES   1    234 51.53                             147    0.27 8 89.1 170 
 RUS  HZ I         234 53.66         2.1 0.32            147           89.1 170 
 PTB  HZ EP        234 35.96                             134   -0.4510  137 263 
 PTB  HE ES   1    234 56.91                             134    0.17 7  137 263 
 PTB  HZ I         234 59.46         3.5 0.46            132            137 263 
 ZAR  HZ EP   1    234 43.03                             123    0.49 7  201 296 
 ZAR  HN ES   1    235  7.53                             123   -0.12 7  201 296 
 ZAR  HZ I         235 12.55         2.1 0.38            123            201 296 
                                                                                
