 2016  827 0025 48.1 L   6.798 -73.115151.4  RSN 14 0.5 1.8LRSN                1
 GAP=122        1.19       3.4     4.0  5.9 -0.4765E+01  0.2047E+01  0.1113E+01E
 Epicentro: LOS SANTOS - SANTANDER                                             3
 ACTION:UPD 16-10-29 15:39 OP:rebc STATUS:               ID:20160827002548 L   I
 OLDACT:REG 16-08-27 12:31 OP:ak   STATUS:               ID:20160827001732     3
 2016-08-27-0018-00M.COL___377                                                 6
 STAT SP IPHASW D HRMM SECON CODA AMPLIT PERI AZIMU VELO AIN AR TRES W  DIS CAZ7
 BAR2 EZ EP        026  8.58                             171    0.2010 24.0 198 
 BAR2 EZ ES        026 24.35                             171    0.1210 24.0 198 
 BAR2 EZ I         026 26.44        11.0 0.36                          24.0 198 
 BRR  HZ EP        026 10.08                             153    0.0910 74.3 297 
 BRR  HN ES        026 27.82                             153    0.7310 74.3 297 
 BRR  HZ I         026 32.72         7.2 0.08                          74.3 297 
 PAM  EZ EP        026 11.35                             152    0.5810 75.4  37 
 PAM  EN ES        026 29.03                             152    0.5610 75.4  37 
 PAM  EZ I         026 30.67        13.1 0.56                          75.4  37 
 RUS  HZ EP        026 12.21                             145   -0.1410  100 178 
 RUS  HN ES        026 30.59                             145   -0.7010  100 178 
 RUS  HZ I         026 31.93         6.0 0.50                           100 178 
 PTB  HZ EP        026 14.97                             133   -0.82 9  151 259 
 PTB  HN ES        026 36.58                             133   -0.83 9  151 259 
 PTB  HZ I         026 43.23         7.9 0.36                           151 259 
 OCA  HZ EP        026 17.50                             131    0.63 9  161 352 
 OCA  HN ES        026 38.74                             131   -0.60 9  161 352 
 OCA  HZ I         026 45.47        17.5 0.16                           161 352 
 SPBC HZ EP        026 17.61                             130    0.42 9  165 220 
 SPBC HN ES        026 39.72                             130   -0.18 9  165 220 
 SPBC HZ I         026 45.26        12.4 0.34                           165 220 
 ZAR  HZ EP   1    026 20.54                             123   -0.67 6  207 292 
 ZAR  HN ES        026 46.59                             123   -0.47 8  207 292 
 ZAR  HZ I         026 52.82        11.2 0.39                           207 292 
 CHI  HZ EP   2    026 25.36                             118   -0.80 4  249 196 
 CHI  HN ES        026 56.04                             118    0.17 8  249 196 
 CHI  HZ I         026 58.85         2.4 0.06                           249 196 
 SOCV BZ EP        026 30.99                             113   -0.08 7  299  56 
 SOCV BN ES        027  3.80                             113   -0.81 7  299  56 
 GUY2CHZ EP   1    026 32.36                             113    0.12 5  304 235 
 GUY2CHN ES        027  7.11                             113    0.42 7  304 235 
 GUY2CHZ I         027 19.29         2.3 0.50                           304 235 
 ELA  HN ES        027 12.81                             111    0.42 7  332 230 
 DBB  EZ EP        026 36.82                             110    0.66 7  343 274 
 PRA  HZ EP   2    026 42.49                             107    0.53 3  394 210 
 PRA  HN ES        027 24.28                             107    0.28 6  394 210 
 PRA  HZ I         027 28.12         2.4 0.40                           394 210 
                                                                                
