 2015  127 0454 24.8 L   6.808 -73.131147.3  RSN 10 0.5 1.9LRSN                1
 GAP=138        1.21       3.3     5.1  6.8 -0.8912E+00  0.5986E+01 -0.1288E+01E
 Epicentro: LOS SANTOS - SANTANDER                                             3
 ACTION:UPD 15-03-02 15:42 OP:nd   STATUS:               ID:20150127045424 L   I
 OLDACT:UP  15-01-27 14:48 OP:cam  STATUS:               ID:20150127044813d    3
 OLDACT:DUP 15-01-27 14:44 OP:cam  STATUS:               ID:20150127044813d    3
 OLDACT:REG 15-01-27 13:05 OP:cam  STATUS:               ID:20150127044812     3
 2015-01-27-0448-12M.COL___277                                                 6
 STAT SP IPHASW D HRMM SECON CODA AMPLIT PERI AZIMU VELO AIN AR TRES W  DIS CAZ7
 BAR2 EZ EP     D  454 44.62                             170    0.0210 24.5 194 
 BAR2 EZ ES        454 59.36                             170   -0.7110 24.5 194 
 BAR2 EZ I         455  1.44        14.4 0.44            169           24.5 194 
 BRR  HZ IP     C  454 46.50                             152    0.3610 72.3 297 
 BRR  HE ES        455  3.75                             152    0.9410 72.3 297 
 BRR  HZ I         455  8.76        10.9 0.14            150           72.3 297 
 PAM  SZ EP        454 47.46                             152    0.4210 75.7  39 
 PAM  SE ES        455  4.64                             152    0.2210 75.7  39 
 PAM  SZ I         455  6.64         9.5 0.58            156           75.7  39 
 RUS  HZ EP        454 48.46                             144   -0.2610  101 177 
 RUS  HN ES        455  7.57                             144    0.1710  101 177 
 RUS  HZ I         455  7.91         8.0 0.24            146            101 177 
 PTB  HZ EP   1    454 51.58                             132   -0.44 7  150 259 
 PTB  HN ES        455 12.72                             132   -0.56 9  150 259 
 PTB  HZ I         455 18.41        10.9 0.38            132            150 259 
 OCA  HZ EP        454 53.56                             130    0.43 9  160 353 
 OCA  HN ES        455 14.35                             130   -0.91 9  160 353 
 OCA  HZ I         455 20.46        11.5 0.30            132            160 353 
 SPBC HZ EP        454 53.60                             129    0.06 9  165 219 
 SPBC HE ES        455 15.98                             129   -0.01 9  165 219 
 SPBC HZ I         455 22.32        20.6 0.26            130            165 219 
 ZAR  HZ EP   1    454 57.17                             122   -0.27 6  205 292 
 ZAR  HN ES        455 23.68                             122    0.76 8  205 292 
 ZAR  HZ I         455 27.96        12.1 0.50            123            205 292 
 SML  HZ EP     C  455  1.54                             118    0.07 8  244 335 
 SML  HN ES        455 29.31                             118   -0.79 8  244 335 
 SML  HZ I         455 32.38        13.5 0.30            119            244 335 
 CHI  HZ EP   1    455  2.65                             117   -0.03 6  250 195 
 CHI  HN ES        455 32.13                             117   -0.13 8  250 195 
 CHI  HZ I         455 37.87         4.2 0.28            119            250 195 
 HEL  HZ EP   4    455  6.79                             115    1.53 0  274 256 
 GUY2CHZ EP   4    455  8.72                             112    0.07 0  303 235 
 TOL  SZ EP   4    455 14.44                             109    1.15 0  345 225 
                                                                                
