 2016  927 0018 40.6 L   6.908 -73.094153.0  RSN  8 0.2 1.3LRSN                1
 GAP=214        0.54       2.7     3.3  3.7  0.4381E+00  0.3158E+01 -0.2735E+01E
 Epicentro: PIEDECUESTA - SANTANDER                                            3
 ACTION:UPD 17-08-17 21:16 OP:lp   STATUS:               ID:20160927001840 L   I
 OLDACT:UP  16-09-27 13:24 OP:edw  STATUS:               ID:20160927001739     3
 OLDACT:UP  16-09-27 13:24 OP:edw  STATUS:               ID:20160927001739     3
 OLDACT:UP  16-09-27 13:23 OP:edw  STATUS:               ID:20160927001739     3
 OLDACT:UP  16-09-27 13:21 OP:edw  STATUS:               ID:20160927001739     3
 OLDACT:REG 16-09-27 12:25 OP:edw  STATUS:               ID:20160927001739     3
 2016-09-27-0018-00M.COL___363                                                 6
 STAT SP IPHASW D HRMM SECON CODA AMPLIT PERI AZIMU VELO AIN AR TRES W  DIS CAZ7
 BAR2 EZ EP        019  1.57                             166    0.1410 36.3 196 
 BAR2 EZ ES        019 17.78                             166    0.1110 36.3 196 
 BAR2 EZ I         019 19.69         4.5 0.10            166           36.3 196 
 BRR  HZ EP   2    019  2.50                             154   -0.08 5 71.7 288 
 BRR  HN ES   2    019 20.02                             154    0.31 5 71.7 288 
 RUS  HZ EP        019  6.10                             142    0.1710  112 179 
 RUS  HN ES        019 25.33                             142   -0.3510  112 179 
 RUS  HZ I         019 25.72         2.5 0.18            143            112 179 
 PTB  HZ EP        019  9.04                             132    0.12 9  156 255 
 PTB  HE ES        019 31.07                             132    0.07 9  156 255 
 PTB  HZ I         019 33.12         1.9 0.09            132            156 255 
 SPBC HZ EP        019 10.93                             128    0.03 9  176 218 
 SPBC HN ES        019 34.30                             128   -0.21 9  176 218 
 ZAR  HN ES   4    019 37.09                             124   -2.35 0  205 288 
 NOR  HZ EP        019 17.61                             119   -0.41 8  246 233 
 NOR  HE ES        019 47.23                             119    0.04 8  246 233 
 NOR  HZ I         019 50.47         1.7 0.14            119            246 233 
 GUY2CHZ EP        019 26.34                             113    0.47 7  313 234 
 GUY2CHN ES   4    020  5.36                             113    4.19 0  313 234 
 GUY2CHZ I         020  7.87         1.4 0.36                           313 234 
 SJC  HZ EP        019 35.64                             107    0.01 6  402 325 
 SJC  HN ES        020 18.09                             107   -0.46 6  402 325 
                                                                                
