 2012  727 0748 13.9 L   6.844 -73.134137.1  RSN  5 0.3 1.4LRSN                1
 GAP=184        0.38       7.2     4.7 13.9  0.1694E+02 -0.1386E+02 -0.6241E+02E
 Epicentro: LOS SANTOS - SANTANDER                                             3
 ACTION:UPD 12-08-14 11:45 OP:ep   STATUS:               ID:20120727074813 L   I
 2012-07-27-0740-00M.COL___215                                                 6
 STAT SP IPHASW D HRMM SECON CODA AMPLIT PERI AZIMU VELO AIN AR TRES W  DIS CAZ7
 BAR2 SZ EP   2    748 32.56                             168     0.0 5   28 191 
 BAR2 SZ I         748 52.83         5.2 0.30            165             28 191 
 BRR  HN ES   3    748 49.25                             151    -0.5 2   70 295 
 RUS  HZ EP   3    748 36.86                             140    -0.3 2  105 177 
 RUS  HN ES   1    748 55.33                             140     0.0 7  105 177 
 PTB  HZ EP   3    748 39.76                             129    -0.6 2  150 257 
 PTB  HN ES   1    749  1.08                             129     0.1 7  150 257 
 PTB  HZ I         749  4.87         3.8 0.14            135            150 257 
 OCA  HZ EP   3    748 41.62                             128     0.6 2  156 352 
