 2014 1127 0232 16.2 L   6.040 -73.799105.8  RSN  8 0.5 1.1LRSN                1
 GAP= 76        1.22       3.5     4.0  9.6 -0.7265E+00  0.7483E+01 -0.3834E+01E
 Epicentro: EL PENON - SANTANDER                                               3
 ACTION:UPD 14-12-19 15:47 OP:nd   STATUS:               ID:20141127023216 L   I
 OLDACT:REG 14-11-27 13:16 OP:fm   STATUS:               ID:20141127022745     3
 2014-11-27-0227-45M.COL___306                                                 6
 STAT SP IPHASW D HRMM SECON CODA AMPLIT PERI AZIMU VELO AIN AR TRES W  DIS CAZ7
 SPBC HZ EP        232 32.27                             152    0.2210 52.5 215 
 SPBC HN ES        232 44.87                             152    0.4110 52.5 215 
 SPBC HZ I         232 47.56         5.9 0.28            155           52.5 215 
 RUS  HZ EP        232 34.76                             140    0.1810 80.9 102 
 RUS  HN ES        232 48.32                             140   -0.6410 80.9 102 
 RUS  HZ I         232 50.84         1.6 0.72            144           80.9 102 
 PTB  HZ EP        232 34.78                             136    0.0110 91.3 307 
 PTB  HE ES        232 49.01                             136   -0.2810 91.3 307 
 PTB  HZ I         232 51.60         3.4 0.42            140           91.3 307 
 BAR2 SZ EP        232 35.59                             136    0.4910 91.5  48 
 BAR2 SZ ES        232 50.52                             136    0.6510 91.5  48 
 BAR2 SZ I         232 52.02         5.8 0.34            140           91.5  48 
 BRR  HZ EP        232 37.18                             128   -0.0310  118   5 
 BRR  HE ES        232 53.36                             128   -0.2810  118   5 
 BRR  HZ I         232 57.79         2.5 0.18            132            118   5 
 CHI  HN ES        233  0.64                             120   -0.82 9  156 177 
 CHI  HZ I         233  2.77         0.8 0.66            124            156 177 
 GUY2CHN ES        233  9.86                             113    0.60 9  196 243 
 GUY2CHZ I         233 15.68         1.0 0.34                           196 243 
 ZAR  HE ES        233  8.16                             113   -0.67 9  199 324 
                                                                                
