 2014  427 0809  2.0 L   6.792 -73.156136.0  RSN 13 0.5 2.0LRSN                1
 GAP=136        1.04       3.8     4.5  8.3 -0.3223E+01  0.1507E+02  0.4410E+01E
 Epicentro: LOS SANTOS - SANTANDER                                             3
 OLDACT:REG 14-04-27 13:35 OP:fm   STATUS:               ID:20140427080815     3
 ACTION:UPD 14-05-13 23:11 OP:nd   STATUS:               ID:20140427080902 L   I
 OLDACT:UP  14-04-27 18:04 OP:fm   STATUS:               ID:20140427080815     3
 2014-04-27-0808-15M.COL___239                                                 6
 STAT SP IPHASW D HRMM SECON CODA AMPLIT PERI AZIMU VELO AIN AR TRES W  DIS CAZ7
 PAM  SZ EP        8 9 23.33                             149    0.0910 78.8  40 
 PAM  SN ES        8 9 40.41                             149    0.5810 78.8  40 
 PAM  SZ I         8 9 42.03        13.7 0.22            148           78.8  40 
 RUS  HZ EP        8 9 24.41                             142   -0.2910 99.8 175 
 RUS  HN ES   1    8 9 42.50                             142    0.06 7 99.8 175 
 PTB  HZ EP        8 9 27.19                             130   -0.84 9  146 259 
 PTB  HN ES        8 9 47.93                             130   -0.43 9  146 259 
 PTB  SZ I         8 9 54.41         9.0 0.24            123            146 259 
 OCA  HN ES   1    8 9 50.55                             128   -0.62 7  161 354 
 SPBC HZ EP        8 9 29.16                             127   -0.43 9  162 219 
 SPBC HN ES        8 9 51.37                             127    0.23 9  162 219 
 SPBC SZ I         8 9 57.17        16.7 0.38            121            162 219 
 ZAR  HZ EP        8 9 33.22                             121   -0.49 9  203 292 
 ZAR  HN ES        8 9 59.20                             121    0.72 9  203 292 
 ZAR  SZ I         810  4.37        12.4 0.50            115            203 292 
 NOR  HZ EP   1    8 9 37.08                             117    0.10 6  233 234 
 NOR  HN ES   4    810  5.67                             117    1.37 0  233 234 
 NOR  SZ I         810 10.83        12.2 0.20            111            233 234 
 SML  HN ES   4    810  8.72                             116    2.44 0  244 336 
 CHI  HZ EP   4    8 9 36.54                             116   -2.47 0  247 195 
 CHI  HN ES   1    810  8.07                             116    0.16 6  247 195 
 CHI  SZ I         810 15.70         5.3 0.60            110            247 195 
 HEL  HZ EP   1    8 9 41.79                             113    0.24 6  271 256 
 HEL  HE ES   4    810 15.47                             113    3.05 0  271 256 
 HEL  SZ I         810 21.71         4.6 0.28            108            271 256 
 URE  HE ES   4    810 12.37                             112   -1.74 0  283 292 
 GUY2CHZ EP        8 9 45.41                             111    0.44 7  300 235 
 GUY2CHN ES        810 18.67                             111    0.15 7  300 235 
 GUY2CSZ I         810 26.59         8.5 0.58                           300 235 
 RREF HZ EP   4    8 9 45.99                             109   -1.54 0  320 229 
 RREF HN ES   4    810 21.72                             109   -1.36 0  320 229 
 RREF SZ I         810 31.24         5.9 0.68            105            320 229 
 CBOC HZ EP   1    8 9 49.24                             108    0.91 5  332 252 
 CBOC SZ I         810 24.52         6.1 3.54            104            332 252 
 CBOC HE ES   1    810 25.41                             108    0.91 5  332 252 
 PRA  HE ES   2    810 37.07                             105    0.70 3  391 209 
                                                                                
