 2011  227 0409  6.9 L   6.771 -73.014145.8  RSN  7 0.4 1.8LRSN                1
 GAP=147        0.89       3.2     9.2  8.3  0.2842E+01  0.2093E+02  0.2409E-01E
 Epicentro: CEPITA - SANTANDER                                                 3
 ACTION:UP  11-03-28 15:11 OP:jfem STATUS:               ID:20110227040906 L   I
 2011-02-27-0404-24S.COL___135                                                 6
 STAT SP IPHASW D HRMM SECON CODA AMPLIT PERI AZIMU VELO SNR AR TRES W  DIS CAZ7
 BAR2 SZ EP   1    4 9 26.90                             169     0.3 8   27 224 
 BAR2 SZ ES   1    4 9 41.56                             169    -0.4 8   27 224 
 BAR2 SZ I         4 9 44.51        18.6 0.33                            27 224 
 RUS  HZ EP   1    4 9 30.53                             145     0.1 8   97 185 
 RUS  HE ES   1    4 9 49.37                             145     0.6 8   97 185 
 RUS  HZ I         4 9 50.74         8.3 0.29                            97 185 
 GRA  SZ EP   1    4 9 32.51                             137     0.4 8  125  11 
 GRA  SZ ES   1    4 9 51.97                             137     0.2 8  125  11 
 GRA  SZ I         4 9 55.24         5.2 0.56                           125  11 
 OCA  SZ EP   1    4 9 35.36                             129    -0.4 8  166 348 
 OCA  SZ ES   1    4 9 57.96                             129    -0.3 8  166 348 
 OCA  SZ I         410  3.76        10.4 0.36                           166 348 
 YOP  SZ I         4 9 56.35         8.3 0.36                           170 157 
 YOP  SE ES        4 9 58.32                             128    -0.510  170 157 
 CHI  HZ EP   1    4 9 44.70                             117     0.0 7  250 199 
 CHI  HN ES   1    410 14.43                             117     0.2 7  250 199 
 CHI  HZ I         410 16.80         3.9 0.25                           250 199 
 HEL  HZ EP   1    4 9 48.31                             113    -0.3 6  285 257 
 HEL  HZ I         410 27.38         5.0 0.34                           285 257 
                                                                                
