 2010 1027 0736 50.4 L   6.856 -73.306121.1  RSN 10 0.4 2.0LRSN                1
 GAP=123        0.78       3.1     5.3  6.1 -0.5031E+01  0.3942E+01  0.1857E+01E
 Epicentro: ZAPATOCA - SANTANDER                                               3
 ACTION:UP  11-02-18 11:12 OP:tino STATUS:               ID:20101027073650 L   I
 2010-10-27-0734-05S.COL___128                                                 6
 STAT SP IPHASW D HRMM SECON CODA AMPLIT PERI AZIMU VELO SNR AR TRES W  DIS CAZ7
 BTL  SZ IP        737  7.30                             176     0.510    8  32 
 BAR2 SZ IP        737  7.36                             164     0.010   32 155 
 BAR2 SZ ES   1    737 20.32                             164    -0.2 7   32 155 
 BAR2 SZ I         737 21.90        68.3 0.38                            32 155 
 BRR  HZ IP     C  737  7.76                             155    -0.110   53 302 
 BRR  HZ I         737  8.03        42.7 0.12                            53 302 
 BRR  HN ES   1    737 21.83                             155     0.4 7   53 302 
 RUS  HZ EP   1    737 12.46                             135    -0.1 7  109 167 
 RUS  HE ES   2    737 29.02                             135    -0.8 5  109 167 
 RUS  HZ I         737 32.75         3.4 0.49                           109 167 
 GRA  SZ IP        737 13.98                             131     0.410  127  26 
 GRA  SZ ES   1    737 31.64                             131    -0.1 7  127  26 
 GRA  SZ I         737 35.04        20.5 0.67                           127  26 
 OCA  SZ EP   1    737 15.69                             125    -0.5 7  153 359 
 OCA  SZ ES   1    737 35.63                             125    -0.6 7  153 359 
 OCA  SZ I         737 42.97        20.6 0.73                           153 359 
 NOR  SZ EP   2    737 23.70                             114     0.0 4  224 231 
 NOR  SN ES   2    737 49.56                             114    -0.1 4  224 231 
 CHI  HZ EP   1    737 27.23                             111     0.1 6  251 191 
 CHI  HN ES   2    737 55.51                             111    -0.2 4  251 191 
 CHI  HZ I         738  1.14         2.9 0.34                           251 191 
 HEL  HZ EP   2    737 27.85                             111     0.2 4  257 253 
 HEL  HN ES   2    737 56.40                             111    -0.4 4  257 253 
 HEL  HZ I         738  1.47         3.8 0.48                           257 253 
 PRA  HZ EP   2    737 42.09                             102    -0.7 3  389 207 
 PRA  HE ES   2    738 24.31                             102     0.6 3  389 207 
 PRA  HZ I         738 34.05         7.1 0.25                           389 207 
                                                                                
