 2017 1127 0049 12.3 L   6.356 -73.608108.0  RSN 12 0.7 1.6LRSN                1
 GAP= 75        1.40       3.8     3.3  7.9 -0.1099E+01  0.6446E+01 -0.1401E+01E
 Epicentro: SANTA HELENA DEL OPON - SANTANDER                                  3
 ACTION:UPD 17-12-12 20:00 OP:rebc STATUS:               ID:20171127004912 L   I
 OLDACT:UP  17-11-27 13:39 OP:dhb  STATUS:               ID:20171127004740     3
 OLDACT:REG 17-11-27 12:04 OP:dhb  STATUS:               ID:20171127004740     3
 2017-11-27-0048-00M.COL___498                                                 6
 STAT SP IPHASW D HRMM SECON CODA AMPLIT PERI AZIMU VELO AIN AR TRES W  DIS CAZ7
 BAR2 EZ IP     D  049 29.03                             152    0.3010 53.8  61 
 BAR2 EZ ES        049 42.20                             152    0.6610 53.8  61 
 BAR2 EZ I         049 43.40        28.0 0.40            150           53.8  61 
 RUS  HZ EP        049 30.28                             142   -0.3810 77.4 131 
 RUS  HN ES        049 44.54                             142   -0.4510 77.4 131 
 RUS  HZ I         049 48.20         3.4 0.18            145           77.4 131 
 SPBC HZ EP        049 31.22                             136   -0.1610 93.3 214 
 SPBC HE ES        049 46.51                             136    0.2510 93.3 214 
 SPBC HZ I         049 48.49        13.8 0.22            139           93.3 214 
 PTB  HZ EP        049 30.83                             135   -0.6910 96.1 282 
 PTB  HN ES        049 45.70                             135   -0.8110 96.1 282 
 PTB  HZ I         049 49.12         6.3 0.14            135           96.1 282 
 PAM  EZ EP        049 36.23                             122   -0.90 9  148  43 
 PAM  EE ES        049 56.54                             122    0.04 9  148  43 
 PAM  EZ I         050  6.16         2.7 0.32            122            148  43 
 NOR  HZ EP        049 37.61                             119   -0.73 9  165 238 
 NOR  HN ES        049 59.00                             119    0.34 9  165 238 
 NOR  HZ I         050  0.70         7.7 0.18            120            165 238 
 YPLC HZ EP        049 38.88                             118   -0.30 9  172 128 
 YPLC HE ES        050  1.06                             118    0.91 9  172 128 
 YPLC HZ I         050  2.30        10.2 0.32            119            172 128 
 ZAR  HZ EP        049 40.56                             115   -0.12 9  187 312 
 ZAR  HE ES        050  3.42                             115    0.61 9  187 312 
 ZAR  HZ I         050 10.83         6.0 0.24            115            187 312 
 OCA  HN ES        050  8.43                             112    0.53 8  211   9 
 OCA  HZ I         050 17.88        11.0 0.56            112            211   9 
 HEL  HZ EP        049 44.13                             112    0.02 8  213 265 
 HEL  HE ES        050  9.61                             112    0.68 8  213 265 
 HEL  HZ I         050 14.15         3.4 0.30            113            213 265 
 GUY2CHZ EP        049 47.21                             110    0.91 8  231 237 
 GUY2CHE ES   3    050 15.74                             110    2.92 2  231 237 
 GUY2CHZ I         050 20.43         3.3 0.26                           231 237 
 PRA  HZ EP        049 56.33                             103   -0.38 7  325 206 
 PRA  HE ES   3    050 33.57                             103    2.21 2  325 206 
 PRA  HZ I         050 36.92         1.8 0.24            104            325 206 
                                                                                
