 2015 1227 0355 19.2 L   6.287 -73.670108.0  RSN  5 0.3 1.2LRSN                1
 GAP=130        0.53       4.6     2.5  7.2 -0.3882E+01  0.5070E+01 -0.8719E+01E
 Epicentro: SANTA HELENA DEL OPON - SANTANDER                                  3
 ACTION:UPD 16-02-04 15:07 OP:cam  STATUS:               ID:20151227035519 L   I
 OLDACT:UP  15-12-27 13:47 OP:dnl  STATUS:               ID:20151227034745     3
 OLDACT:REG 15-12-27 12:39 OP:dnl  STATUS:               ID:20151227034745     3
 2015-12-27-0347-45M.COL___334                                                 6
 STAT SP IPHASW D HRMM SECON CODA AMPLIT PERI AZIMU VELO AIN AR TRES W  DIS CAZ7
 BAR2 EZ EP   2    355 36.54                             148    0.27 5 63.6  58 
 BAR2 EZ ES   2    355 49.00                             148   -0.56 5 63.6  58 
 BAR2 EZ I         355 51.54         9.4 0.28            152           63.6  58 
 RUS  HZ EP        355 37.42                             142   -0.2510 78.3 124 
 RUS  HE ES        355 52.28                             142    0.2310 78.3 124 
 RUS  HZ I         355 55.64         1.1 0.27            149           78.3 124 
 SPBC HZ EP   2    355 37.84                             140    0.36 5 83.1 212 
 SPBC HE ES        355 51.69                             140   -0.0310 83.1 212 
 PTB  HZ EP   2    355 38.27                             137    0.22 5 91.3 288 
 PTB  HE ES   2    355 53.07                             137    0.34 5 91.3 288 
 PTB  HZ I         355 56.42         2.6 0.13            140           91.3 288 
 NOR  HE ES        356  3.60                             121   -0.13 9  155 239 
 NOR  HZ I         356  7.48         7.3 0.19            125            155 239 
                                                                                
