 2016 1027 0316 31.7 L   6.785 -73.116145.9  RSN  5 0.4 1.3LRSN                1
 GAP=239        0.94       5.6     6.1  6.9  0.7938E+01  0.4733E+01  0.3084E+01E
 Epicentro: LOS SANTOS - SANTANDER                                             3
 ACTION:UPD 16-11-09 19:23 OP:rebc STATUS:               ID:20161027031631 L   I
 OLDACT:UP  16-10-27 16:41 OP:cog  STATUS:               ID:20161027030748d    3
 OLDACT:DUP 16-10-27 16:32 OP:cog  STATUS:               ID:20161027030748d    3
 2016-10-27-0308-00M.COL___349                                                 6
 STAT SP IPHASW D HRMM SECON CODA AMPLIT PERI AZIMU VELO AIN AR TRES W  DIS CAZ7
 BAR2 EZ EP        316 51.42                             171    0.1010 22.6 199 
 BAR2 EZ ES        317  6.06                             171   -0.5710 22.6 199 
 BRR  HZ EP        316 53.19                             151    0.1210 74.9 298 
 BRR  HE ES        317 10.29                             151    0.5510 74.9 298 
 RUS  HZ EP        316 55.16                             144   -0.1710 98.8 178 
 RUS  HE ES        317 13.98                             144    0.2210 98.8 178 
 RUS  HZ I         317 14.62         1.6 0.22            143           98.8 178 
 PTB  HZ EP        316 58.47                             131   -0.47 9  151 260 
 PTB  HN ES        317 19.79                             131   -0.40 9  151 260 
 PTB  HZ I         317 21.75         3.3 0.16            130            151 260 
 SPBC HZ EP        317  0.60                             129    0.32 9  164 220 
 SPBC HE ES        317 22.85                             129    0.27 9  164 220 
 SPBC HZ I         317 26.03         3.5 0.20            127            164 220 
                                                                                
