 2011 1027 0622 31.5 L   6.803 -73.118148.6  RSN  5 0.2 1.7LRSN                1
 GAP=140        0.36       3.5     3.9  4.7  0.4602E+01  0.4195E+01  0.6591E+00E
 Epicentro: LOS SANTOS - SANTANDER                                             3
 ACTION:UPD 12-07-13 16:06 OP:ep   STATUS:               ID:20111027062231 L   I
 2011-10-27-0619-26S.COL___176                                                 6
 STAT SP IPHASW D HRMM SECON CODA AMPLIT PERI AZIMU VELO AIN AR TRES W  DIS CAZ7
 BAR2 SZ EP   1    622 51.52                             170    0.00 7 24.4 197 
 BAR2 SZ ES   2    623  6.84                             170   -0.27 5 24.4 197 
 BAR2 SZ I         623  9.01         8.9 0.69                          24.4 197 
 BRR  HZ IP     C  622 53.12                             152    0.0010 73.7 297 
 BRR  HZ I         622 53.37        15.5 0.14                          73.7 297 
 BRR  HE ES   2    623 10.41                             152    0.44 5 73.7 297 
 PAM  SZ EP   2    622 53.90                             152   -0.01 5 75.2  38 
 PAM  SN ES   2    623 11.30                             152   -0.07 5 75.2  38 
 RUS  HZ EP   1    622 55.57                             144    0.00 7  101 178 
 RUS  HN ES   2    623 14.39                             144    0.07 5  101 178 
 RUS  HZ I         623 15.58         3.0 0.31                           101 178 
 ZAR  HZ EP   2    623  4.64                             123    0.21 4  207 292 
 ZAR  HE ES   2    623 29.67                             123   -0.43 4  207 292 
 ZAR  HZ I         623 35.83         5.4 0.30                           207 292 
                                                                                
