 2017  527 0641 24.1 L   6.768 -73.186153.0  RSN  5 0.5 1.3LRSN                1
 GAP=230        1.19       6.9     8.2  9.8  0.2739E+02 -0.3260E+01 -0.8164E+01E
 Epicentro: LOS SANTOS - SANTANDER                                             3
 ACTION:UPD 17-06-16 13:39 OP:jn   STATUS:               ID:20170527064123 L   I
 OLDACT:UP  17-06-02 19:49 OP:nlst STATUS:               ID:20170527064123 L   3
 OLDACT:UP  17-05-27 19:11 OP:ar   STATUS:               ID:20170527063743     3
 OLDACT:REG 17-05-27 14:06 OP:ar   STATUS:               ID:20170527063743     3
 2017-05-27-0638-00M.COL___335                                                 6
 STAT SP IPHASW D HRMM SECON CODA AMPLIT PERI AZIMU VELO AIN AR TRES W  DIS CAZ7
 BRR  HZ EP        641 45.71                             154   -0.1910 69.2 303 
 BRR  HN ES        642  3.14                             154    0.2210 69.2 303 
 BRR  HZ I         642  7.70         2.4 0.14            151           69.2 303 
 RUS  HZ EP        641 48.55                             146    0.2210 97.5 173 
 RUS  HE ES        642  7.04                             146   -0.2110 97.5 173 
 RUS  HZ I         642  7.74         2.4 0.19            150           97.5 173 
 PTB  HZ EP        641 50.67                             135   -0.53 9  143 260 
 PTB  HN ES        642 11.51                             135   -0.85 9  143 260 
 PTB  HZ I         642 18.39         2.2 0.40            135            143 260 
 SPBC HZ EP        641 52.40                             132   -0.23 9  158 219 
 SPBC HE ES        642 15.75                             132    0.85 9  158 219 
 SPBC HZ I         642 16.83         3.6 0.10            134            158 219 
 ZAR  HZ EP        641 57.20                             124    0.48 9  201 294 
 ZAR  HN ES        642 22.60                             124    0.41 9  201 294 
 ZAR  HZ I         642 29.93         2.6 0.52            125            201 294 
                                                                                
