 2016  927 0830  9.0 L   7.403 -73.183130.2  RSN  4 0.1 1.2LRSN                1
 GAP=267        0.40       4.5     2.9  4.0  0.7001E+01 -0.1546E+01 -0.8588E+01E
 Epicentro: EL PLAYON - SANTANDER                                              3
 ACTION:UPD 17-08-17 21:16 OP:lp   STATUS:               ID:20160927083009 L   I
 OLDACT:UP  16-09-27 17:48 OP:edw  STATUS:               ID:20160927082744d    3
 OLDACT:DUP 16-09-27 17:45 OP:edw  STATUS:               ID:20160927082744d    3
 OLDACT:UP  16-09-27 17:44 OP:edw  STATUS:               ID:20160927082743     3
 OLDACT:REG 16-09-27 13:07 OP:edw  STATUS:               ID:20160927082743     3
 2016-09-27-0828-00M.COL___351                                                 6
 STAT SP IPHASW D HRMM SECON CODA AMPLIT PERI AZIMU VELO AIN AR TRES W  DIS CAZ7
 BRR  HZ EP        830 28.22                             151   -0.0110 66.9 241 
 BRR  HN ES        830 43.14                             151   -0.0910 66.9 241 
 BAR2 EZ EP        830 30.04                             143   -0.0410 89.7 180 
 BAR2 EZ ES        830 46.62                             143    0.1010 89.7 180 
 BAR2 EZ I         830 47.46         4.4 0.40            141           89.7 180 
 PTB  HZ EP        830 37.10                             124    0.16 9  170 236 
 PTB  HN ES        830 58.59                             124   -0.15 9  170 236 
 PTB  HZ I         831  2.03         1.6 0.24            121            170 236 
 ZAR  HZ EP        830 38.31                             121   -0.17 9  185 273 
 ZAR  HN ES        831  1.68                             121    0.20 9  185 273 
 ZAR  HZ I         831  4.86         1.5 0.08            120            185 273 
                                                                                
