 2016 1227 0846  0.1 L   6.725 -73.184148.8  RSN  4 0.3 1.2LRSN                1
 GAP=227        0.72       5.7     5.4  5.8  0.1492E+02  0.3291E+01  0.9393E+00E
 Epicentro: VILLANUEVA - SANTANDER                                             3
 ACTION:UPD 17-01-11 20:19 OP:rebc STATUS:               ID:20161227084600 L   I
 OLDACT:REG 16-12-27 13:38 OP:edw  STATUS:               ID:20161227083747     3
 2016-12-27-0838-00M.COL___366                                                 6
 STAT SP IPHASW D HRMM SECON CODA AMPLIT PERI AZIMU VELO AIN AR TRES W  DIS CAZ7
 BAR2 EZ EP        846 19.88                             174   -0.0410 14.7 179 
 BAR2 EZ ES        846 34.99                             174   -0.4110 14.7 179 
 BAR2 EZ I         846 37.23         6.1 0.70            173           14.7 179 
 BRR  HZ EP        846 21.57                             153   -0.0110 72.0 306 
 BRR  HE ES        846 38.71                             153    0.3410 72.0 306 
 BRR  HZ I         846 39.53         6.3 0.34            154           72.0 306 
 RUS  HZ EP        846 23.90                             147    0.3310 92.7 173 
 RUS  HE ES        846 41.99                             147    0.0910 92.7 173 
 RUS  HZ I         846 43.39         1.2 0.36            147           92.7 173 
 PTB  HZ EP        846 26.39                             134   -0.39 9  142 262 
 PTB  HE ES        846 47.67                             134    0.05 9  142 262 
 PTB  HZ I         846 49.37         1.3 0.34            135            142 262 
                                                                                
