 2013  127 0229  7.1 L   6.763 -73.138140.8  RSN  6 0.4 1.6LRSN                1
 GAP=139        0.92       4.5     5.5  6.6 -0.2057E+01  0.5519E-01  0.6418E+01E
 Epicentro: LOS SANTOS - SANTANDER                                             3
 ACTION:UPD 13-02-15 09:17 OP:ep   STATUS:               ID:20130127022907 L   I
 2013-01-27-0218-50M.COL___184                                                 6
 STAT SP IPHASW D HRMM SECON CODA AMPLIT PERI AZIMU VELO AIN AR TRES W  DIS CAZ7
 BAR2 SZ EP   1    229 26.21                             172    0.12 7 19.5 195 
 BAR2 SZ ES        229 40.88                             172    0.0110 19.5 195 
 BAR2 SZ I         229 42.36         7.9 0.18            172           19.5 195 
 BRR  HZ EP        229 28.01                             151    0.1010 74.0 301 
 BRR  HN ES        229 44.75                             151    0.6410 74.0 301 
 BRR  HN I         229 48.14         9.6 0.14            149           74.0 301 
 PAM  SZ EP        229 28.90                             149   -0.0910 80.1  37 
 PAM  SZ I         229 29.07         6.2 0.20            151           80.1  37 
 PAM  SN ES        229 45.68                             149   -0.3510 80.1  37 
 RUS  HZ EP        229 30.15                             144    0.0610 96.4 176 
 RUS  HN ES        229 48.05                             144    0.0510 96.4 176 
 PTB  HN ES   1    229 53.34                             131   -1.10 7  148 260 
 CHI  HZ EP        229 44.23                             116    0.08 8  245 196 
                                                                                
