 2015  827 0511  5.1 L   6.752 -73.096151.8  RSN  7 0.3 1.4LRSN                1
 GAP=188        0.72       3.4     5.6  6.8  0.3003E+01  0.2140E+01 -0.8336E+01E
 Epicentro: LOS SANTOS - SANTANDER                                             3
 ACTION:UPD 15-09-15 23:05 OP:cam  STATUS:               ID:20150827051105 L   I
 OLDACT:DUP 15-08-27 17:23 OP:spq  STATUS:               ID:20150827050750d    3
 OLDACT:REG 15-08-27 12:44 OP:spq  STATUS:               ID:20150827050749     3
 2015-08-27-0507-49M.COL___349                                                 6
 STAT SP IPHASW D HRMM SECON CODA AMPLIT PERI AZIMU VELO AIN AR TRES W  DIS CAZ7
 BAR2 EZ EP        511 25.54                             172    0.1610 20.0 208 
 BAR2 EZ ES   1    511 40.63                             172   -0.58 7 20.0 208 
 BAR2 EZ I         511 41.64         4.6 0.66            169           20.0 208 
 BRR  HZ EP        511 27.47                             151    0.1610 78.6 300 
 BRR  HN ES        511 44.52                             151   -0.1210 78.6 300 
 BRR  HZ I         511 47.31         3.8 0.30            147           78.6 300 
 RUS  HE ES   1    511 47.90                             147    0.16 7 95.0 179 
 SPBC HN ES   1    511 56.76                             130    0.20 7  163 222 
 SPBC HZ I         511 59.99         2.2 0.08            130            163 222 
 OCA  HN ES        511 57.73                             130    0.41 9  166 351 
 OCA  HZ I         512  1.75         4.3 0.32            129            166 351 
 ZAR  HE ES        512  4.85                             123    0.00 8  211 293 
 ZAR  HZ I         512 10.35         2.7 0.36            121            211 293 
 SML  HZ EP        511 42.18                             118   -0.65 8  251 335 
 SML  HN ES   1    512 12.31                             118    0.04 6  251 335 
 SML  HZ I         512 15.31         2.1 0.10            117            251 335 
                                                                                
