 2015 1227 0428 21.2 L   6.835 -73.116148.0  RSN 13 0.4 1.8LRSN                1
 GAP=139        0.85       2.9     3.8  5.4 -0.4701E+00  0.4378E+01  0.3478E+01E
 Epicentro: LOS SANTOS - SANTANDER                                             3
 ACTION:UPD 16-02-04 15:07 OP:cam  STATUS:               ID:20151227042821 L   I
 OLDACT:REG 15-12-27 12:40 OP:dnl  STATUS:               ID:20151227041739     3
 2015-12-27-0417-39M.COL___334                                                 6
 STAT SP IPHASW D HRMM SECON CODA AMPLIT PERI AZIMU VELO AIN AR TRES W  DIS CAZ7
 BAR2 EZ EP   2    428 41.23                             169    0.00 5 27.8 195 
 BAR2 EZ ES   2    428 56.60                             169   -0.22 5 27.8 195 
 BAR2 EZ I         428 58.50         8.1 0.18            166           27.8 195 
 PAM  EZ EP   2    428 43.95                             153    0.56 5 72.3  39 
 PAM  EN ES        429  0.98                             153    0.3010 72.3  39 
 PAM  EZ I         429  2.93         5.8 0.33            157           72.3  39 
 BRR  HE ES        429  0.04                             153    0.6110 72.4 295 
 BRR  HZ I         429  2.90         8.0 0.30            151           72.4 295 
 RUS  HZ EP        428 45.33                             143   -0.1410  104 178 
 RUS  HE ES        429  4.38                             143    0.0110  104 178 
 RUS  HZ I         429  6.21         4.4 0.23            144            104 178 
 PTB  HZ EP        428 47.98                             132   -0.77 9  152 258 
 PTB  HE ES        429  9.86                             132   -0.35 9  152 258 
 PTB  HZ I         429 11.72         8.5 0.16            131            152 258 
 OCA  HZ EP        428 49.29                             131   -0.11 9  157 352 
 OCA  HN ES        429 10.62                             131   -0.76 9  157 352 
 OCA  HZ I         429 15.54        17.5 0.30            133            157 352 
 SPBC HZ EP   2    428 50.33                             129   -0.05 5  168 219 
 SPBC HN ES   2    429 12.89                             129   -0.23 5  168 219 
 SPBC HZ I         429 20.19         9.8 0.18            129            168 219 
 ZAR  HZ EP   1    428 54.53                             123    0.54 6  206 291 
 ZAR  HN ES        429 20.08                             123    0.53 8  206 291 
 ZAR  HZ I         429 24.99         9.0 0.15            123            206 291 
 NOR  HZ EP   2    428 58.00                             119    0.38 4  240 234 
 NOR  HN ES   2    429 25.61                             119   -0.39 4  240 234 
 NOR  HZ I         429 30.35         3.9 0.10            119            240 234 
 CHI  HZ EP        428 59.69                             117    0.14 8  253 196 
 CHI  HN ES   2    429 29.32                             117   -0.12 4  253 196 
 CHI  HZ I         429 35.27         1.6 0.34            118            253 196 
 HEL  HZ EP   2    429  2.82                             115    0.80 4  276 255 
 HEL  HN ES   2    429 33.44                             115   -0.39 4  276 255 
 HEL  HZ I         429 40.19         4.5 0.46            115            276 255 
 GUY2CHZ EP   4    429  6.86                             113    1.36 0  306 235 
 GUY2CHE ES   2    429 40.29                             113    0.27 4  306 235 
 GUY2CHZ I         429 49.76         3.5 0.61                           306 235 
 PRA  HZ EP        429 15.91                             107    0.50 6  397 210 
 PRA  HN ES   2    429 57.14                             107   -0.53 3  397 210 
 PRA  HZ I         430  3.28         2.8 0.32            108            397 210 
 SJC  HZ EP   4    429 15.02                             106   -1.68 0  408 326 
 SJC  HN ES   4    429 58.30                             106   -1.67 0  408 326 
                                                                                
