 2010  827 0734 10.0 L   6.083 -73.675114.0  RSN  7 0.3 1.3LRSN                1
 GAP= 84        0.70       3.6     5.4  7.7  0.1706E+00  0.2175E+02  0.1911E+01E
 Epicentro: CHIPATA - SANTANDER                                                3
 ACTION:UP  10-09-07 10:58 OP:vdl  STATUS:               ID:20100827073410 L   I
 2010-08-27-0732-38S.COL___120                                                 6
 STAT SP IPHASW D HRMM SECON CODA AMPLIT PERI AZIMU VELO SNR AR TRES W  DIS CAZ7
 RUS  HZ IP     D  734 28.21                             147    -0.210   69 108 
 RUS  HZ I         734 28.69         3.6 0.26                            69 108 
 RUS  HE ES   1    734 42.52                             147    -0.2 7   69 108 
 BAR2 SZ EP   2    734 28.89                             143     0.2 5   78  44 
 BAR2 SZ ES   1    734 43.45                             143     0.2 7   78  44 
 BAR2 SZ I         734 44.54        11.9 0.13                            78  44 
 BRR  HZ EP   1    734 30.71                             132    -0.5 7  113 358 
 BRR  HE ES   1    734 48.07                             132     0.3 7  113 358 
 BRR  HZ I         734 50.74         3.8 0.12                           113 358 
 CHI  HE ES   2    734 57.26                             121     0.2 5  161 182 
 CHI  HZ I         735  2.20         2.4 0.39                           161 182 
 HEL  HZ EP   2    734 40.84                             114    -0.4 4  206 273 
 HEL  HN ES   2    735  5.47                             114    -0.1 4  206 273 
 HEL  HZ I         735  9.21         1.8 0.26                           206 273 
 GUE  SZ IP        734 41.75                             114     0.1 8  210  23 
 GUE  SZ I         734 43.26         1.7 0.06                           210  23 
 PRA  HZ EP   1    734 51.65                             106     0.6 5  294 207 
 PRA  HZ I         735 27.95         1.5 0.24                           294 207 
                                                                                
