 2014 1227 0034 56.0 L   6.808 -73.128145.1  RSN 11 0.5 2.0LRSN                1
 GAP=138        1.14       3.4     4.3  6.1 -0.1042E+01  0.7472E+01  0.1366E+01E
 Epicentro: LOS SANTOS - SANTANDER                                             3
 ACTION:UPD 15-02-10 17:07 OP:nd   STATUS:               ID:20141227003456 L   I
 OLDACT:REG 14-12-27 13:14 OP:mh   STATUS:               ID:20141227002749     3
 2014-12-27-0027-49M.COL___280                                                 6
 STAT SP IPHASW D HRMM SECON CODA AMPLIT PERI AZIMU VELO AIN AR TRES W  DIS CAZ7
 BAR2 EZ EP        035 15.85                             170    0.2610 24.6 194 
 BAR2 EZ ES        035 30.40                             170   -0.4610 24.6 194 
 BAR2 EZ I         035 31.59        20.3 0.36            169           24.6 194 
 BRR  HZ EP        035 17.14                             152   -0.0210 72.5 297 
 BRR  HN ES        035 34.12                             152    0.4610 72.5 297 
 BRR  HZ I         035 38.75        20.9 0.20            150           72.5 297 
 PAM  SZ EP        035 18.66                             151    0.6210 75.4  39 
 PAM  SN ES        035 35.69                             151    0.4710 75.4  39 
 PAM  SZ I         035 37.76        16.0 0.54            154           75.4  39 
 RUS  HZ EP        035 18.98                             143   -0.7710  101 177 
 RUS  HN ES        035 38.01                             143   -0.2610  101 177 
 RUS  HZ I         035 39.44         8.3 0.40            146            101 177 
 PTB  HZ EP        035 22.66                             131   -0.45 9  150 259 
 PTB  HN ES        035 43.75                             131   -0.51 9  150 259 
 PTB  HZ I         035 45.96        14.6 0.62            131            150 259 
 SPBC HZ EP        035 24.79                             128    0.15 9  165 219 
 SPBC HN ES        035 46.86                             128   -0.12 9  165 219 
 SPBC HZ I         035 51.57        19.3 0.10            129            165 219 
 ZAR  HZ EP   4    035 30.74                             122    2.18 0  206 292 
 ZAR  HN ES        035 53.90                             122   -0.05 8  206 292 
 ZAR  HZ I         035 59.50        17.4 0.52            122            206 292 
 NOR  HZ EP        035 31.76                             118   -0.17 8  237 235 
 NOR  HN ES        035 59.87                             118   -0.08 8  237 235 
 NOR  HZ I         036  4.60         8.1 0.30            119            237 235 
 SML  HZ EP        035 32.12                             117   -0.48 8  244 335 
 SML  HN ES        036  0.59                             117   -0.54 8  244 335 
 SML  HZ I         036  6.05        11.1 0.10            118            244 335 
 CHI  HZ EP        035 33.74                             117   -0.09 8  250 196 
 CHI  HN ES        036  4.08                             117    0.76 8  250 196 
 CHI  HZ I         036  6.58         3.2 0.44            118            250 196 
 HEL  HZ EP        035 37.22                             114    0.80 8  274 256 
 HEL  HN ES        036  8.79                             114    0.84 8  274 256 
 HEL  HZ I         036 14.63         5.0 0.42            115            274 256 
                                                                                
