 2011 1227 0356 35.6 L   6.933 -73.123151.1  RSN  6 0.2 1.2LRSN                1
 GAP=132        0.37       7.0     3.4  5.0 -0.9298E+01 -0.2891E+01  0.2249E+02E
 Epicentro: PIEDECUESTA - SANTANDER                                            3
 ACTION:UPD 12-07-13 16:18 OP:ep   STATUS:               ID:20111227035635 L   I
 2011-12-27-0350-00M.COL___187                                                 6
 STAT SP IPHASW D HRMM SECON CODA AMPLIT PERI AZIMU VELO AIN AR TRES W  DIS CAZ7
 GIR2 SZ EP   1    356 55.53                             173   -0.06 7 17.9 334 
 GIR2 SZ ES   1    357 11.12                             173   -0.10 7 17.9 334 
 BAR2 SZ EP   1    356 56.27                             165    0.06 7 38.2 190 
 BAR2 SZ I         356 56.50         4.7 0.15                          38.2 190 
 PAM  SN ES   2    357 14.73                             156   -0.19 5 64.9  46 
 PAM  SZ I         357 16.54         1.3 0.31                          64.9  46 
 BRR  HZ EP   1    356 57.16                             154    0.05 7 67.8 287 
 BRR  HZ I         356 58.00         5.9 0.12                          67.8 287 
 BRR  HN ES   1    357 14.19                             154    0.28 7 67.8 287 
 RUS  HZ EP   2    357  1.10                             141    0.19 5  115 178 
 RUS  HZ I         357  1.99         1.8 0.22                           115 178 
 PTB  HZ EP   1    357  3.48                             132   -0.02 7  154 254 
 PTB  HN ES   1    357 25.05                             132   -0.24 7  154 254 
                                                                                
