 2014  227 0620 56.2 L   5.769 -73.910106.8  RSN  5 0.4 1.5LRSN                1
 GAP=153        0.80       6.4     3.7 11.1 -0.7616E+01  0.9052E+01 -0.7972E+01E
 Epicentro: ALBANIA - SANTANDER                                                3
 ACTION:UPD 14-03-10 08:13 OP:ep   STATUS:               ID:20140227062056 L   I
 OLDACT:UP  14-02-28 01:47 OP:CF   STATUS:               ID:20140227062056 L   3
 OLDACT:DUP 14-02-27 12:42 OP:stll STATUS:               ID:20140227061806d    3
 2014-02-27-0618-05M.COL___231                                                 6
 STAT SP IPHASW D HRMM SECON CODA AMPLIT PERI AZIMU VELO AIN AR TRES W  DIS CAZ7
 SPBC HZ EP   1    621 11.28                             167    0.37 7 22.2 234 
 SPBC HN ES   1    621 22.85                             167    0.46 7 22.2 234 
 SPBC HZ I         621 23.90         7.8 0.27            168           22.2 234 
 RUS  HN ES        621 30.47                             136   -0.3910 92.6  81 
 PTB  HN ES   1    621 31.35                             132   -0.20 7  104 325 
 NOR  HZ EP   1    621 16.73                             131    0.23 7  109 258 
 NOR  HN ES   1    621 31.82                             131   -0.51 7  109 258 
 NOR  HZ I         621 34.41         4.0 0.34            132            109 258 
 BAR2 SZ ES   1    621 35.30                             127    0.37 7  122  41 
 BAR2 SZ I         621 37.70        10.7 0.50            128            122  41 
                                                                                
