 2011  127 0248 51.5 L   6.393 -73.993  0.0  RSN  4 0.2 1.0LRSN                1
 GAP=242        0.47       4.3     5.6  7.9 -0.1807E+02 -0.3256E+02  0.2487E+02E
 Epicentro: CIMITARRA - SANTANDER                                              3
 ACTION:UP  11-02-08 08:42 OP:pat  STATUS:               ID:20110127024851 L   I
 2011-01-27-0248-16S.COL___138                                                 6
 STAT SP IPHASW D HRMM SECON CODA AMPLIT PERI AZIMU VELO SNR AR TRES W  DIS CAZ7
 BAR2 SZ EP   1    249  6.55                              47    -0.4 7   92  76 
 BAR2 SZ ES   1    249 18.99                              47     0.1 7   92  76 
 BAR2 SZ I         249 20.65         9.3 0.37                            92  76 
 BTL  SZ EP        249  8.07                              47     0.110   99  54 
 RUS  HZ EP   2    249 10.43                              47    -0.2 5  115 119 
 RUS  HN ES   2    249 25.63                              47     0.1 5  115 119 
 RUS  HZ I         249 28.29         2.5 0.26                           115 119 
 CHI  HZ EP   1    249 22.75                              37     0.2 6  197 172 
 CHI  HN ES   2    249 46.75                              37    -0.1 4  197 172 
 CHI  HZ I         249 57.36         0.9 0.22                           197 172 
                                                                                
