 2015  227 0053 23.0 L   6.820 -73.170145.4  RSN  9 0.5 2.2LRSN                1
 GAP=133        1.32       4.1     5.8  7.6 -0.3996E+01  0.8825E+01  0.9950E+00E
 Epicentro: LOS SANTOS - SANTANDER                                             3
 ACTION:UPD 15-04-30 21:29 OP:nd   STATUS:               ID:20150227005323 L   I
 OLDACT:REG 15-02-27 14:42 OP:carl STATUS:               ID:20150227004738     3
 2015-02-27-0047-38M.COL___302                                                 6
 STAT SP IPHASW D HRMM SECON CODA AMPLIT PERI AZIMU VELO AIN AR TRES W  DIS CAZ7
 BAR2 EZ IP     C  053 42.75                             170    0.1510 25.2 183 
 BAR2 EZ ES        053 57.50                             170   -0.4110 25.2 183 
 BAR2 EZ I         053 59.88        30.9 0.18            169           25.2 183 
 BRR  HZ IP     C  053 44.54                             154    0.6410 67.8 298 
 BRR  HN ES        054  1.36                             154    1.1510 67.8 298 
 BRR  HZ I         054  5.23        26.2 0.22            151           67.8 298 
 PAM  SZ EP        053 45.61                             151    0.4510 77.5  42 
 PAM  SN ES        054  2.26                             151   -0.2010 77.5  42 
 PAM  SZ I         054  3.11        27.6 0.20            155           77.5  42 
 RUS  HZ EP        053 46.64                             143   -0.2310  103 175 
 RUS  HN ES        054  5.33                             143   -0.1710  103 175 
 RUS  HZ I         054  6.62        11.8 0.28            145            103 175 
 PTB  HZ EP        053 49.37                             132   -0.35 9  146 258 
 PTB  HN ES        054 10.27                             132   -0.30 9  146 258 
 PTB  HZ I         054 15.67        15.7 0.26            132            146 258 
 SPBC HZ EP        053 51.75                             129    0.30 9  163 218 
 SPBC HN ES        054 13.17                             129   -0.50 9  163 218 
 SPBC HZ I         054 19.44        25.6 0.20            129            163 218 
 NOR  HN ES        054 26.76                             119    0.39 8  234 234 
 NOR  HZ I         054 30.54        18.7 0.42            119            234 234 
 SML  HZ EP        053 59.07                             118   -0.17 8  241 336 
 SML  HN ES        054 26.28                             118   -1.25 8  241 336 
 SML  HZ I         054 32.96        20.8 0.10            119            241 336 
 CHI  HZ EP        054  1.20                             117    0.39 8  250 194 
 CHI  HN ES        054 29.94                             117   -0.38 8  250 194 
 CHI  HZ I         054 35.70         4.2 0.32            118            250 194 
                                                                                
