 2011  627 0703  5.8 L   6.759 -73.077138.9  RSN  4 0.3 1.3LRSN                1
 GAP=232        0.57      22.1    13.0  9.0  0.1330E+03  0.9444E+01  0.8588E+02E
 Epicentro: LOS SANTOS - SANTANDER                                             3
 ACTION:UP  11-07-14 19:08 OP:ep   STATUS:               ID:20110627070305 L   I
 2011-06-27-0700-00M.COL___124                                                 6
 STAT SP IPHASW D HRMM SECON CODA AMPLIT PERI AZIMU VELO SNR AR TRES W  DIS CAZ7
 BAR2 SZ EP   2    7 3 24.79                             170     0.2 5   22 212 
 BTL  SZ EP        7 3 24.95                             169     0.210   27 310 
 BTL  SZ ES   2    7 3 38.84                             169    -0.6 5   27 310 
 GIR2 SZ EP        7 3 24.87                             165     0.010   38 340 
 GIR2 SZ ES   2    7 3 39.88                             165     0.1 5   38 340 
 BRR  HZ EP        7 3 26.57                             149    -0.210   80 299 
 BRR  HZ I         7 3 26.86         4.1 0.12                            80 299 
 BRR  HN ES   2    7 3 43.45                             149     0.3 5   80 299 
                                                                                
