 2013  227 0930  2.5 L   6.792 -73.138144.2  RSN  6 0.5 1.7LRSN                1
 GAP=138        1.09       9.3     6.4 10.6 -0.1775E+02 -0.1588E+01  0.4373E+02E
 Epicentro: LOS SANTOS - SANTANDER                                             3
 ACTION:UPD 13-03-12 09:36 OP:ep   STATUS:               ID:20130227093002 L   I
 2013-02-27-0928-39M.COL___193                                                 6
 STAT SP IPHASW D HRMM SECON CODA AMPLIT PERI AZIMU VELO AIN AR TRES W  DIS CAZ7
 BAR2 SZ EP        930 21.96                             170   -0.0210 22.6 192 
 BAR2 SZ ES   1    930 37.35                             170    0.22 7 22.6 192 
 BAR2 SZ I         930 38.62         7.7 0.38            170           22.6 192 
 BRR  HZ EP        930 24.01                             152    0.4210 72.3 299 
 BRR  HN ES   1    930 40.95                             152    0.94 7 72.3 299 
 BRR  HN I         930 41.62        11.6 0.30            151           72.3 299 
 PAM  SZ EP   1    930 24.77                             150    0.16 7 77.6  39 
 PAM  SN ES        930 41.20                             150   -0.6110 77.6  39 
 PAM  SZ I         930 44.09         6.7 0.48            153           77.6  39 
 RUS  HZ EP        930 26.34                             143    0.2610 99.6 176 
 PTB  HZ EP   1    930 28.98                             131   -0.46 7  148 259 
 PTB  HN ES        930 49.76                             131   -0.66 9  148 259 
 PTB  HN I         930 55.55         8.0 0.28            132            148 259 
 CHI  HZ EP   2    930 40.10                             117    0.01 4  248 195 
                                                                                
