 2014 1027 0341 23.5 L   6.093 -73.667116.4  RSN  5 0.3 1.2LRSN                1
 GAP=114        0.67       3.3     4.1  6.4 -0.3154E+01  0.3254E+01 -0.4901E+01E
 Epicentro: CHIPATA - SANTANDER                                                3
 ACTION:UPD 14-11-29 23:57 OP:nd   STATUS:               ID:20141027034123 L   I
 OLDACT:REG 14-10-29 19:34 OP:spq  STATUS:               ID:20141027033744     3
 2014-10-27-0337-44M.COL___274                                                 6
 STAT SP IPHASW D HRMM SECON CODA AMPLIT PERI AZIMU VELO AIN AR TRES W  DIS CAZ7
 SPBC HZ EP        341 41.23                             148   -0.1110 66.2 223 
 SPBC HN ES        341 55.51                             148    0.2310 66.2 223 
 SPBC HZ I         341 56.39         3.1 0.16            151           66.2 223 
 RUS  HZ EP        341 42.23                             148    0.1710 68.4 109 
 RUS  HE ES   1    341 55.93                             148   -0.62 7 68.4 109 
 RUS  HZ I         341 57.96         1.2 0.29            147           68.4 109 
 BAR2 SZ EP        341 42.57                             144    0.2910 77.0  44 
 BAR2 SZ ES   1    341 57.11                             144    0.16 7 77.0  44 
 BAR2 SZ I         341 57.99         3.9 0.26            144           77.0  44 
 PTB  HZ EP   1    341 43.36                             136   -0.43 7  100 300 
 PTB  HN ES   4    341 56.98                             136   -2.66 0  100 300 
 PTB  HZ I         341 57.77        10.1 0.04            139            100 300 
 BRR  HZ EP        341 44.76                             133   -0.0510  112 357 
 BRR  HN ES        342  1.43                             133   -0.0210  112 357 
 BRR  HZ I         342  3.93         2.7 0.56            134            112 357 
                                                                                
