 2010  327 0346  4.3 L   6.816 -73.018140.0  RSN  7 0.5 1.8LRSN                1
 GAP=196        0.79       4.5    10.5  8.5 -0.2085E+01  0.1458E+02  0.5442E+01E
 Epicentro: CEPITA - SANTANDER                                                 3
 ACTION:UP  10-08-24 09:56 OP:vdl  STATUS:               ID:20100327034604 L   I
 2010-03-27-0346-17S.COL___098                                                 6
 STAT SP IPHASW D HRMM SECON CODA AMPLIT PERI AZIMU VELO SNR AR TRES W  DIS CAZ7
 BAR2 SZ IP        346 23.42                             167     0.010   31 217 
 BAR2 SZ ES   2    346 38.07                             167    -0.2 5   31 217 
 BRR  HZ IP        346 25.39                             147    -0.110   83 293 
 BRR  HZ I         346 25.77        13.0 0.28                            83 293 
 BRR  HN ES   2    346 42.50                             147     0.4 5   83 293 
 RUS  HZ EP   1    346 28.07                             142     0.5 7  102 184 
 RUS  HN ES   2    346 45.82                             142     0.1 5  102 184 
 RUS  HZ I         346 47.33         9.0 0.35                           102 184 
 OCA  SZ EP   1    346 32.13                             128     0.0 7  161 348 
 OCA  SZ ES   2    346 53.45                             128    -0.5 5  161 348 
 CHI  HZ EP   2    346 41.76                             115    -0.5 4  254 198 
 CHI  HE ES   2    347 10.99                             115    -0.9 4  254 198 
 CHI  HZ I         347 18.21         2.2 0.60                           254 198 
 RREF BZ EP   1    346 52.54                             109     1.0 5  334 231 
 RREF BN ES   2    347 28.74                             109     0.3 3  334 231 
 RREF BZ I         347 35.35         3.3 0.31                           334 231 
 PRA  HZ EP   1    346 57.94                             105    -0.7 4  401 211 
 PRA  HZ I         346 59.55         2.6 0.17                           401 211 
 PRA  HE ES   2    347 40.07                             105    -0.9 3  401 211 
                                                                                
