 2016  727 0530 50.7 L   6.767 -73.144138.5  RSN 14 0.4 1.6LRSN                1
 GAP=209        0.99       3.5     4.1  5.1  0.3344E+01  0.6974E+01  0.3228E+01E
 Epicentro: LOS SANTOS - SANTANDER                                             3
 ACTION:UPD 17-03-29 16:55 OP:lp   STATUS:               ID:20160727053050 L   I
 OLDACT:REG 16-07-27 13:15 OP:edw  STATUS:               ID:20160727052759     3
 2016-07-27-0527-59S.COL___340                                                 6
 STAT SP IPHASW D HRMM SECON CODA AMPLIT PERI AZIMU VELO AIN AR TRES W  DIS CAZ7
 BAR2 EZ EP        531  9.21                             172   -0.2110 19.8 192 
 BAR2 EZ ES        531 23.97                             172   -0.0310 19.8 192 
 BAR2 EZ I         531 24.84        17.8 0.28            169           19.8 192 
 BRR  HZ EP        531 11.10                             151   -0.1210 73.1 301 
 BRR  HN ES        531 28.03                             151    0.8410 73.1 301 
 BRR  HZ I         531 32.07        10.7 0.12            151           73.1 301 
 RUS  HZ EP        531 13.23                             143   -0.2810 97.0 176 
 RUS  HN ES        531 31.60                             143    0.3210 97.0 176 
 RUS  HZ I         531 32.47         5.1 0.26            144           97.0 176 
 PTB  HZ EP        531 16.37                             130   -0.70 9  147 260 
 PTB  HE ES        531 36.88                             130   -0.73 9  147 260 
 PTB  HZ I         531 39.67         5.0 0.13            131            147 260 
 SPBC HZ EP        531 18.44                             128    0.01 9  160 220 
 SPBC HN ES        531 39.82                             128   -0.21 9  160 220 
 SPBC HZ I         531 44.07         6.4 0.09            128            160 220 
 ZAR  HZ EP        531 23.57                             121    0.69 8  206 293 
 ZAR  HN ES        531 47.38                             121   -0.57 8  206 293 
 NOR  HZ EP   4    531 27.19                             117    1.35 0  233 235 
 NOR  HN ES        531 53.50                             117    0.28 8  233 235 
 NOR  HZ I         531 57.57         3.2 0.18            118            233 235 
 CHI  HZ EP        531 27.43                             116   -0.24 8  245 195 
 CHI  HN ES        531 56.27                             116   -0.20 8  245 195 
 HEL  HZ EP        531 31.38                             113    0.87 8  271 257 
 HEL  HN ES        532  1.40                             113   -0.13 8  271 257 
 URE  HZ EP        531 31.53                             112   -0.10 7  285 293 
 URE  HE ES   4    532  1.61                             112   -1.92 0  285 293 
 URE  HZ I         532  2.78         4.4 0.14            113            285 293 
 GUY2CHZ EP        531 33.80                             111    0.00 7  299 235 
 GUY2CHE ES        532  7.71                             111    0.33 7  299 235 
 GUY2CHZ I         532 16.61         1.4 0.48                           299 235 
 CBOC HZ EP        531 37.45                             109    0.20 7  333 253 
 CBOC HN ES        532 13.71                             109    0.18 7  333 253 
 CBOC HZ I         532 17.76         0.8 0.28            110            333 253 
 PRA  HZ EP        531 43.86                             105    0.20 6  389 210 
 PRA  HN ES        532 25.30                             105    0.37 6  389 210 
 PRA  HN I         532 31.74         1.1 0.22            107            389 210 
 SJC  HZ EP   9    531 44.24                             104   -2.20 0  412 327 
 SJC  HN ES        532 27.37                                   -0.31 6  412 327 
                                                                                
