 2016 1127 0721 41.5 L   6.756 -73.368122.0  RSN  4 0.3 1.1LRSN                1
 GAP=176        0.69       8.0     5.3  7.0 -0.6715E+01 -0.2294E+01  0.1474E+02E
 Epicentro: ZAPATOCA - SANTANDER                                               3
 ACTION:UPD 17-10-26 21:12 OP:lp   STATUS:               ID:20161127072141 L   I
 OLDACT:DUP 16-11-27 15:19 OP:dani STATUS:               ID:20161127071746d    3
 OLDACT:REG 16-11-27 13:00 OP:dani STATUS:               ID:20161127071745     3
 2016-11-27-0718-00M.COL___349                                                 6
 STAT SP IPHASW D HRMM SECON CODA AMPLIT PERI AZIMU VELO AIN AR TRES W  DIS CAZ7
 BAR2 EZ EP        721 58.57                             167    0.2210 27.4 132 
 BAR2 EZ I         722 12.48         9.2 0.42            155           27.4 132 
 BRR  HZ EP        721 58.92                             154   -0.1810 54.3 316 
 BRR  HN ES        722 12.81                             154   -0.0510 54.3 316 
 BRR  HZ I         722 14.25         4.1 0.44            163           54.3 316 
 PTB  HZ EP        722  3.79                             132   -0.4410  123 259 
 PTB  HN ES        722 22.16                             132    0.1810  123 259 
 PTB  HZ I         722 25.08         1.3 0.24            133            123 259 
 ZAR  HZ EP        722 10.62                             120    0.33 9  184 296 
 ZAR  HE ES   4    722 34.27                             120    1.50 0  184 296 
 ZAR  HZ I         722 37.51         0.9 0.34            121            184 296 
                                                                                
