 2011  927 0811 25.1 L   6.785 -73.106147.5  RSN 11 0.4 2.7LRSN                1
 GAP=142        0.70       2.8     3.8  5.0 -0.1444E+01  0.6188E+01  0.1499E+01E
 Epicentro: LOS SANTOS - SANTANDER                                             3
 ACTION:UPD 12-07-13 16:00 OP:ep   STATUS:               ID:20110927081125 L   I
 2011-09-27-0809-51S.COL___165                                                 6
 STAT SP IPHASW D HRMM SECON CODA AMPLIT PERI AZIMU VELO AIN AR TRES W  DIS CAZ7
 BAR2 SZ EP        811 45.12                             171    0.1710 22.9 202 
 BAR2 SZ ES   1    812  0.18                             171   -0.24 7 22.9 202 
 BAR2 SZ I         812  1.40        99.2 0.26                          22.9 202 
 BTL  SZ EP   1    811 45.21                             171    0.25 7 23.2 309 
 BRR  HZ IP     C  811 46.92                             151    0.1910 75.9 298 
 BRR  HN ES   1    812  4.03                             151    0.46 7 75.9 298 
 BRR  HZ I         812  7.94       167.8 0.13                          75.9 298 
 PAM  SZ EP   1    811 47.66                             152    0.22 7 76.0  36 
 PAM  SZ I         811 47.96        68.4 0.17                          76.0  36 
 PAM  SN ES   1    812  4.57                             152   -0.27 7 76.0  36 
 RUS  HZ EP   1    811 48.95                             145    0.04 7 98.7 179 
 RUS  HN ES   1    812  7.12                             145   -0.35 7 98.7 179 
 RUS  HZ I         812  8.71        24.5 0.26                          98.7 179 
 OCA  SZ EP        811 53.41                             130   -0.37 9  162 352 
 OCA  SZ ES   1    812 16.55                             130    0.43 7  162 352 
 OCA  SZ I         812 20.17       116.9 0.20                           162 352 
 ZAR  HZ EP   1    811 57.40                             122   -0.77 6  209 292 
 ZAR  HN ES   1    812 23.54                             122   -0.40 6  209 292 
 ZAR  HZ I         812 29.06       113.2 0.22                           209 292 
 NOR  SZ EP   1    812  1.19                             118   -0.05 6  237 235 
 NOR  SN ES   1    812 28.69                             118   -0.72 6  237 235 
 CHI  HZ EP   1    812  2.95                             117    0.07 6  248 196 
 CHI  HN ES   2    812 32.58                             117    0.26 4  248 196 
 CHI  HZ I         812 40.82        12.2 0.38                           248 196 
 HEL  HZ EP   1    812  5.89                             115    0.03 6  276 256 
 HEL  HN ES   1    812 38.23                             115    0.61 6  276 256 
 HEL  HZ I         812 45.23        20.6 0.27                           276 256 
 PRA  HZ EP   1    812 18.88                             107    0.08 4  393 210 
 PRA  HN ES   1    813  1.43                             107    0.77 4  393 210 
 PRA  HZ I         813  5.61        49.6 0.15                           393 210 
                                                                                
