 2014  427 0153 11.0 L   7.281 -73.344106.0  RSN  4 0.3 1.3LRSN                1
 GAP=125        0.73       4.2     4.2 11.2 -0.2441E+01  0.1619E+02  0.1860E+02E
 Epicentro: RIONEGRO - SANTANDER                                               3
 OLDACT:REG 14-04-27 13:03 OP:fm   STATUS:               ID:20140427014805     3
 ACTION:UPD 14-05-13 23:11 OP:nd   STATUS:               ID:20140427015311 L   I
 OLDACT:UP  14-04-27 15:24 OP:fm   STATUS:               ID:20140427014805     3
 2014-04-27-0148-05M.COL___242                                                 6
 STAT SP IPHASW D HRMM SECON CODA AMPLIT PERI AZIMU VELO AIN AR TRES W  DIS CAZ7
 PAM  SZ EP   1    153 28.79                             144    0.09 8 71.5  85 
 PAM  SN ES   1    153 42.75                             144    0.21 8 71.5  85 
 PAM  SZ I         153 57.83         3.3 3.34             95           71.5  85 
 OCA  HN ES   1    153 46.61                             132   -0.18 8  106   1 
 PTB  HZ EP        153 34.69                             121   -0.3410  148 236 
 PTB  SZ I         153 52.97         4.1 1.66             37            148 236 
 PTB  HE ES        153 54.10                             121    0.3010  148 236 
 RUS  HZ EP   1    153 37.05                             120    0.51 7  156 169 
 RUS  HE ES   1    153 55.93                             120   -0.56 7  156 169 
 RUS  SZ I         153 59.73         4.7 2.88             37            156 169 
                                                                                
