 2012  227 0404  5.9 L   6.790 -73.160140.8  RSN 15 0.4 2.3LRSN                1
 GAP=135        0.85       3.1     4.1  5.3 -0.1031E+01  0.5326E+01  0.4206E+01E
 ACTION:UP  12-03-07 16:34 OP:epov STATUS:               ID:20120227040405 L   I
 2012-02-27-0400-00M.COL___192                                                 6
 STAT SP IPHASW D HRMM SECON CODA AMPLIT PERI AZIMU VELO AIN AR TRES W  DIS CAZ7
 BAR2 SZ EP        4 4 24.76                             171   -0.1110 22.0 186 
 BAR2 SZ ES   1    4 4 39.36                             171   -0.33 7 22.0 186 
 BAR2 SZ I         4 4 40.65        28.0 0.16                          22.0 186 
 GIR2 SZ EP   1    4 4 24.82                             166   -0.15 7 32.2 353 
 GIR2 SZ ES   1    4 4 40.23                             166    0.36 7 32.2 353 
 BRR  HZ EP        4 4 26.68                             152    0.2510 70.4 300 
 BRR  HE ES   1    4 4 43.36                             152    0.89 7 70.4 300 
 BRR  HZ I         4 4 47.56        52.2 0.11                          70.4 300 
 PAM  SZ EP        4 4 27.69                             149    0.0210 79.3  40 
 PAM  SZ I         4 4 27.91        26.6 0.20                          79.3  40 
 PAM  SE ES   1    4 4 44.50                             149   -0.17 7 79.3  40 
 RUS  HZ EP        4 4 28.71                             143   -0.3510 99.6 175 
 RUS  HE ES   1    4 4 46.96                             143   -0.18 7 99.6 175 
 RUS  HZ I         4 4 49.35        23.4 0.32                          99.6 175 
 PTB  HZ EP   1    4 4 31.43                             131   -0.84 7  146 259 
 PTB  HN ES   1    4 4 52.12                             131   -0.74 7  146 259 
 OCA  SZ EP   1    4 4 34.19                             128    0.31 7  161 354 
 OCA  SZ ES   1    4 4 55.67                             128   -0.06 7  161 354 
 ZAR  HZ EP   1    4 4 37.58                             121   -0.30 6  203 293 
 ZAR  HN ES   1    4 5  2.77                             121   -0.08 6  203 293 
 ZAR  HZ I         4 5  9.28        31.6 0.42                           203 293 
 NOR  SZ EP   1    4 4 41.24                             118    0.14 6  233 234 
 NOR  SN ES   1    4 5  8.76                             118    0.18 6  233 234 
 CHI  HZ EP   1    4 4 42.99                             116   -0.14 6  247 195 
 CHI  HN ES   2    4 5 12.19                             116    0.00 4  247 195 
 CHI  HZ I         4 5 18.34         8.2 0.31                           247 195 
 ROSC BZ EP   1    4 4 44.84                             116    1.32 6  251 211 
 ROSC BZ I         4 5 18.51        17.2 0.51                           251 211 
 HEL  HZ EP   2    4 4 45.53                             114   -0.10 4  270 256 
 HEL  HZ I         4 5 23.46        14.9 0.48                           270 256 
 VIL  SN ES   1    4 5 23.24                             111    0.78 5  302 191 
 RREF HZ EP   1    4 4 51.52                             110   -0.05 5  320 229 
 RREF HZ I         4 5 35.15         7.7 0.20                           320 229 
 PRA  HZ EP   1    4 4 59.26                             106    0.25 4  390 209 
                                                                                
