 2011 1027 0943 26.8 L   6.792 -73.051141.2  RSN  5 0.3 1.6LRSN                1
 GAP=193        0.47       4.4     6.7  6.8  0.1312E+02 -0.1717E+01 -0.8677E+01E
 Epicentro: LOS SANTOS - SANTANDER                                             3
 ACTION:UPD 12-07-13 16:06 OP:ep   STATUS:               ID:20111027094326 L   I
 2011-10-27-0941-57S.COL___177                                                 6
 STAT SP IPHASW D HRMM SECON CODA AMPLIT PERI AZIMU VELO AIN AR TRES W  DIS CAZ7
 BAR2 SZ EP   1    943 45.81                             169   -0.10 7 26.4 213 
 BAR2 SZ ES   2    944  0.45                             169   -0.40 5 26.4 213 
 BAR2 SZ I         944  2.17         7.3 0.17                          26.4 213 
 BRR  HZ EP   1    943 47.85                             148   -0.16 7 81.0 296 
 BRR  HZ I         943 48.96        10.1 0.17                          81.0 296 
 BRR  HN ES   2    944  5.27                             148    0.68 5 81.0 296 
 RUS  HZ EP   2    943 50.29                             143    0.30 5 99.5 182 
 RUS  HN ES   2    944  8.18                             143    0.08 5 99.5 182 
 RUS  HZ I         944  9.24         3.6 0.31                          99.5 182 
 OCA  SZ EP   2    943 55.22                             128    0.26 5  163 350 
 OCA  SZ ES   2    944 16.85                             128   -0.10 5  163 350 
 OCA  SZ I         944 21.24         5.9 0.21                           163 350 
 ZAR  HZ EP   2    944  0.04                             120    0.07 4  214 291 
 ZAR  HN ES   2    944 25.52                             120   -0.36 4  214 291 
 ZAR  HZ I         944 30.72         8.1 0.37                           214 291 
                                                                                
