 2016  727 0444 44.2 L   6.059 -73.661117.3  RSN 18 0.4 2.3LRSN                1
 GAP= 64        0.86       1.9     2.1  4.2  0.9166E-01  0.2049E+01  0.1970E+01E
 Epicentro: CHIPATA - SANTANDER                                                3
 ACTION:UPD 17-03-29 16:55 OP:lp   STATUS:               ID:20160727044444 L   I
 OLDACT:UP  16-07-27 16:49 OP:edw  STATUS:               ID:20160727043760d    3
 OLDACT:DUP 16-07-27 16:45 OP:edw  STATUS:               ID:20160727043760d    3
 2016-07-27-0437-59S.COL___340                                                 6
 STAT SP IPHASW D HRMM SECON CODA AMPLIT PERI AZIMU VELO AIN AR TRES W  DIS CAZ7
 SPBC HZ EP        445  1.83                             149   -0.1410 64.1 225 
 SPBC HN ES        445 15.36                             149   -0.5110 64.1 225 
 SPBC HZ I         445 17.26        69.6 0.10            148           64.1 225 
 RUS  HZ EP        445  2.85                             149    0.1410 66.6 106 
 RUS  HN ES        445 17.60                             149    0.4210 66.6 106 
 BAR2 EZ EP        445  3.63                             144    0.4310 79.2  42 
 BAR2 EZ ES        445 18.17                             144    0.1110 79.2  42 
 PTB  HZ EP   4    445  3.61                             136   -1.15 0  103 301 
 PTB  HE ES        445 20.67                             136   -0.1510  103 301 
 PTB  HZ I         445 21.72        24.4 0.10            137            103 301 
 BRR  HZ EP        445  5.94                             132    0.0410  116 357 
 BRR  HE ES        445 22.90                             132    0.0510  116 357 
 BRR  HZ I         445 25.70        22.2 0.14            134            116 357 
 NOR  HZ EP        445  8.39                             125   -0.31 9  145 248 
 NOR  HE ES        445 27.86                             125    0.01 9  145 248 
 NOR  HZ I         445 29.08        70.3 0.18            126            145 248 
 ROSC BZ EP        445 10.28                             124    0.25 9  153 208 
 ROSC BN ES        445 30.23                             124    0.02 9  153 208 
 ROSC BZ I         445 38.48        20.5 0.45            124            153 208 
 CHI  HZ EP        445 10.28                             123   -0.28 9  158 183 
 CHI  HN ES        445 30.63                             123   -0.53 9  158 183 
 CHI  HZ I         445 33.61        15.8 0.38            123            158 183 
 ZAR  HZ EP        445 14.96                             115   -0.22 8  206 320 
 ZAR  HN ES        445 38.75                             115   -0.63 8  206 320 
 ZAR  HZ I         445 40.07        13.9 0.09            116            206 320 
 HEL  HZ EP        445 15.70                             115   -0.04 8  207 274 
 HEL  HN ES   2    445 40.04                             115   -0.33 4  207 274 
 HEL  HZ I         445 43.84        10.4 0.26            116            207 274 
 GUY2CHZ EP        445 16.23                             115    0.04 8  210 244 
 GUY2CHN ES        445 41.91                             115    0.73 8  210 244 
 GUY2CHZ I         445 45.19        13.6 0.38                           210 244 
 VIL  EZ EP        445 16.48                             114    0.15 8  215 181 
 VIL  EN ES        445 41.87                             114    0.44 8  215 181 
 ELA  HZ EP        445 19.84                             112    0.92 8  234 236 
 ELA  HN ES        445 46.27                             112    0.23 8  234 236 
 ANIL HZ EP   4    445 10.58                             109   -11.0 0  260 228 
 ANIL HN ES   4    445 51.30                             109    0.59 0  260 228 
 ANIL HZ I         445 53.05        22.7 0.26            110            260 228 
 CBOC HZ EP        445 21.53                             109   -0.06 8  261 265 
 CBOC HN ES        445 51.12                             109    0.33 8  261 265 
 PTGC HZ EP        445 21.56                             109   -0.42 8  266 140 
 PTGC HN ES        445 51.09                             109   -0.39 8  266 140 
 PRA  HZ EP        445 24.76                             107   -0.33 7  293 208 
 PRA  HN ES        445 56.63                             107   -0.39 7  293 208 
 PRA  HZ I         446  6.38         8.9 0.26            107            293 208 
 SJC  HZ EP   4    445 42.41                              99   -2.17 0  456 339 
 SJC  HN ES   4    446 27.47                              99   -4.23 0  456 339 
 CRJC HZ EP   4    445 57.76                              96    1.16 0  555   9 
 CRJC HN ES   4    446 51.49                              96   -1.62 0  555   9 
 CRJC HZ I         447  0.42         6.6 0.28             97            555   9 
                                                                                
