 2013  327 0808 20.6 L   6.802 -73.159147.5  RSN  8 0.4 1.6LRSN                1
 GAP=135        0.79       3.7     4.6  6.4  0.8735E+00  0.8221E+01 -0.3419E+01E
 Epicentro: LOS SANTOS - SANTANDER                                             3
 ACTION:UPD 13-04-09 14:05 OP:ep   STATUS:               ID:20130327080820 L   I
 2013-03-27-0800-00M.COL___245                                                 6
 STAT SP IPHASW D HRMM SECON CODA AMPLIT PERI AZIMU VELO AIN AR TRES W  DIS CAZ7
 BAR2 SZ EP   1    8 8 40.32                             171   -0.16 7 23.3 186 
 BAR2 SZ ES   1    8 8 55.76                             171   -0.20 7 23.3 186 
 BAR2 SZ I         8 8 56.20         8.4 0.36            170           23.3 186 
 BRR  HZ EP        8 8 42.08                             153    0.1810 69.8 299 
 BRR  HN ES   1    8 8 58.65                             153    0.16 7 69.8 299 
 BRR  HZ I         8 8 59.60         5.4 0.44            150           69.8 299 
 PAM  SZ EP   1    8 8 43.01                             151   -0.08 7 78.2  40 
 PAM  SN ES   1    8 9  0.02                             151   -0.58 7 78.2  40 
 PAM  SZ I         8 9  2.07         7.7 0.48            154           78.2  40 
 RUS  HZ EP   1    8 8 44.92                             144    0.33 7  101 175 
 RUS  HN ES   1    8 9  3.91                             144    0.65 7  101 175 
 PTB  HZ EP        8 8 47.26                             133   -0.37 9  146 259 
 PTB  HN ES   1    8 9  8.04                             133   -0.63 7  146 259 
 PTB  HZ I         8 9 13.59         4.8 0.20            132            146 259 
 OCA  HN ES   1    8 9 11.55                             130    0.33 7  160 354 
 ZAR  HZ EP   1    8 8 53.23                             123    0.17 6  203 292 
 ZAR  HN ES   1    8 9 18.68                             123    0.34 6  203 292 
 ZAR  HZ I         8 9 24.01         3.7 0.22            123            203 292 
 SML  HZ EP   1    8 8 56.75                             118   -0.53 6  243 336 
 SML  HN ES   1    8 9 26.47                             118    0.61 6  243 336 
 SML  HZ I         8 9 28.04         5.0 0.26            118            243 336 
                                                                                
