 2013 1127 0133 35.7 L   6.801 -73.134148.7  RSN  9 0.6 1.9LRSN                1
 GAP=218        1.33       4.4     7.3  7.7 -0.5429E+00  0.5460E+01  0.2659E+01E
 Epicentro: LOS SANTOS - SANTANDER                                             3
 ACTION:UPD 14-01-09 16:31 OP:ep   STATUS:               ID:20131127013335 L   I
 OLDACT:REG 13-11-27 08:01 OP:stll STATUS:               ID:20131127012805     3
 2013-11-27-0128-05M.COL___243                                                 6
 STAT SP IPHASW D HRMM SECON CODA AMPLIT PERI AZIMU VELO AIN AR TRES W  DIS CAZ7
 BAR2 SZ EP        133 56.16                             171    0.4710 23.6 193 
 BAR2 SZ ES        134 10.76                             171   -0.5210 23.6 193 
 BAR2 SZ I         134 12.71        18.6 0.48            169           23.6 193 
 BRR  HZ EP        133 57.95                             153    0.7210 72.3 298 
 BRR  HN ES        134 14.88                             153    0.8610 72.3 298 
 PTB  HZ EP        134  2.03                             132   -0.99 9  149 259 
 PTB  HN ES        134 23.80                             132   -0.54 9  149 259 
 PTB  HZ I         134 26.07         9.1 0.16            131            149 259 
 SPBC HZ EP        134  5.02                             130    0.52 9  164 219 
 SPBC HN ES        134 26.64                             130   -0.33 9  164 219 
 SPBC HZ I         134 32.41         9.7 0.22            129            164 219 
 ZAR  HZ EP        134  8.66                             123    0.21 8  205 292 
 ZAR  HN ES        134 33.97                             123   -0.04 8  205 292 
 ZAR  HZ I         134 40.05         8.7 0.32            122            205 292 
 NOR  HZ EP        134 11.95                             119    0.24 8  236 235 
 NOR  HN ES        134 39.72                             119   -0.09 8  236 235 
 NOR  HZ I         134 44.27         6.8 0.20            119            236 235 
 SML  HZ EP        134 12.04                             118   -0.50 8  244 335 
 SML  HE ES        134 40.70                             118   -0.58 8  244 335 
 SML  HZ I         134 47.92        10.5 0.24            118            244 335 
 CHI  HZ EP        134 13.67                             118    0.07 8  249 195 
 CHI  HN ES        134 42.63                             118   -0.54 8  249 195 
 CHI  HZ I         134 49.25         2.8 0.26            118            249 195 
 GUY2CHZ EP        134 19.34                             113   -0.22 7  302 235 
 GUY2CHN ES        134 54.79                             113    1.01 7  302 235 
 GUY2CHZ I         135  1.83         3.5 0.50                           302 235 
                                                                                
