 2016  527 0625 32.6 L   6.256 -73.555 58.6  RSN  6 0.2 1.6LRSN                1
 GAP= 93        0.56       1.7     2.7  7.2 -0.8663E+00  0.1296E+02 -0.1514E+01E
 Epicentro: EL GUACAMAYO - SANTANDER                                           3
 ACTION:UPD 16-08-18 17:49 OP:cam  STATUS:               ID:20160527062532 L   I
 OLDACT:UP  16-08-18 13:16 OP:cam  STATUS:               ID:20160527062532 L   3
 OLDACT:UP  16-08-18 13:06 OP:cam  STATUS:               ID:20160527062532 L   3
 OLDACT:UP  16-05-27 18:21 OP:mh   STATUS:               ID:20160527061747     3
 OLDACT:UP  16-05-27 18:21 OP:mh   STATUS:               ID:20160527061747     3
 OLDACT:UP  16-05-27 18:18 OP:mh   STATUS:               ID:20160527061747     3
 OLDACT:REG 16-05-27 12:43 OP:mh   STATUS:               ID:20160527061747     3
 2016-05-27-0617-47M.COL___313                                                 6
 STAT SP IPHASW D HRMM SECON CODA AMPLIT PERI AZIMU VELO AIN AR TRES W  DIS CAZ7
 BAR2 EZ EP        625 44.59                             131    0.2710 55.5  48 
 BAR2 EZ ES        625 53.22                             131   -0.2210 55.5  48 
 BAR2 EZ I         625 53.79        55.0 0.62            140           55.5  48 
 RUS  HZ EP        625 45.73                             126    0.0710 65.8 128 
 RUS  HN ES        625 55.70                             126   -0.1310 65.8 128 
 RUS  HZ I         625 56.37         6.1 0.18            132           65.8 128 
 SPBC HZ EP        625 47.71                             116    0.2210 88.0 221 
 SPBC HN ES        625 59.11                             116    0.0210 88.0 221 
 SPBC HZ I         626  4.09        11.7 0.22            120           88.0 221 
 BRR  HZ EP        625 48.17                             113   -0.0710 95.7 350 
 BRR  HN ES        626  0.56                             113    0.1310 95.7 350 
 BRR  HZ I         626  1.06        16.6 0.12            120           95.7 350 
 PTB  HZ EP   4    625 48.02                             111   -1.25 0  105 287 
 PTB  HN ES   4    625 59.76                             111   -2.51 0  105 287 
 PTB  HZ I         626  0.61        19.5 0.44            116            105 287 
 HEL  HZ EP        626  2.99                              98   -0.43 8  219 268 
 HEL  HN ES   4    626 25.48                              98   -1.96 0  219 268 
                                                                                
