 2011  827 0217  3.5 L   6.549 -73.546109.5  RSN 14 0.3 2.6LRSN                1
 GAP= 84        0.62       2.1     2.5  4.5 -0.8781E+00  0.4938E+01  0.1846E+01E
 Epicentro: EL CARMEN DE CHUCURI - SANTANDER                                   3
 ACTION:UPD 12-07-13 15:54 OP:ep   STATUS:               ID:20110827021703 L   I
 2011-08-27-0212-37S.COL___152                                                 6
 STAT SP IPHASW D HRMM SECON CODA AMPLIT PERI AZIMU VELO AIN AR TRES W  DIS CAZ7
 BAR2 SZ IP        217 19.61                             158    0.2010 40.5  83 
 BAR2 SZ ES   1    217 31.96                             158    0.14 7 40.5  83 
 BAR2 SZ I         217 33.63       480.9 0.45                          40.5  83 
 BRR  HZ EP        217 20.38                             147   -0.0210 64.3 343 
 BRR  HZ I         217 20.66       109.7 0.11                          64.3 343 
 BRR  HN ES   1    217 33.86                             147    0.28 7 64.3 343 
 GIR2 SZ IP        217 21.17                             145    0.1610 70.3  34 
 RUS  HZ EP        217 22.78                             138   -0.1310 88.9 145 
 RUS  HN ES   1    217 37.54                             138   -0.51 7 88.9 145 
 RUS  HZ I         217 39.36        60.1 0.43                          88.9 145 
 PAM  SZ EP   1    217 26.22                             127   -0.20 7  128  47 
 PAM  SN ES   1    217 44.03                             127   -0.28 7  128  47 
 YOP  SE ES   1    217 53.95                             116    0.57 7  182 137 
 NOR  SZ EP   1    217 30.83                             116   -0.72 7  183 233 
 NOR  SN ES   1    217 53.11                             116   -0.33 7  183 233 
 ROSC BZ EP   1    217 35.26                             113    0.50 6  208 204 
 ROSC BZ I         217 38.50        27.9 0.27                           208 204 
 CHI  HZ EP   1    217 35.35                             112   -0.08 6  213 186 
 CHI  HZ I         217 36.36        22.3 0.37                           213 186 
 CHI  HN ES   2    217 59.94                             112   -0.40 4  213 186 
 HEL  HZ EP   1    217 36.74                             111    0.27 6  223 260 
 HEL  HN ES   1    218  2.33                             111    0.15 6  223 260 
 HEL  HZ I         218  5.61        17.9 0.37                           223 260 
 RREF HZ EP   1    217 42.15                             107   -0.12 6  270 228 
 RREF HZ I         218 22.09        20.9 0.26                           270 228 
 ANIL HZ EP   1    217 46.44                             104    0.29 5  307 222 
 ANIL HZ I         217 51.89        28.1 0.39                           307 222 
 ANIL HN ES   1    218 19.12                             104   -0.29 5  307 222 
 PRA  HZ EP   1    217 50.33                             101   -0.28 5  347 205 
 PRA  HZ I         217 53.33        36.3 0.21                           347 205 
 PRA  HN ES   1    218 28.13                             101    0.77 5  347 205 
 COD  HZ EP   1    217 53.83                             100   -0.03 5  375   2 
 COD  HN ES   1    218 32.95                             100   -0.20 5  375   2 
 COD  HZ I         218 40.57        31.5 0.41                           375   2 
                                                                                
