 2010  427 0920 30.0 L   6.769 -73.022144.9  RSN  8 0.4 2.6LRSN                1
 GAP=163        0.75       4.9     7.3  6.5 -0.1287E+02 -0.1304E+02  0.4425E+01E
 Epicentro: CEPITA - SANTANDER                                                 3
 ACTION:UPD 10-08-24 10:01 OP:vdl  STATUS:               ID:20100427092030 L   I
 2010-04-27-0918-57S.COL___104                                                 6
 STAT SP IPHASW D HRMM SECON CODA AMPLIT PERI AZIMU VELO AIN AR TRES W  DIS CAZ7
 BAR2 SZ IP        920 49.67                             169     0.110   27 222 
 BAR2 SZ ES   1    921  4.33                             169    -0.5 7   27 222 
 BRR  HZ IP     C  920 52.08                             148     0.210   85 296 
 BRR  HN ES   1    921  9.36                             148     0.4 7   85 296 
 BRR  HZ I         921 11.56        78.0 0.24                            85 296 
 OCA  SZ EP   1    920 58.42                             128    -0.3 7  166 349 
 OCA  SZ ES   1    921 20.73                             128    -0.4 7  166 349 
 OCA  SZ I         921 23.17        99.8 0.18                           166 349 
 HEL  HZ EP   2    921 10.94                             113    -0.6 4  285 257 
 HEL  HZ I         921 49.44        17.7 0.47                           285 257 
 RREF BE ES   2    921 53.40                             110    -0.3 3  330 231 
 RREF BZ I         922  2.06        21.0 0.21                           330 231 
 TOL  SZ EP   1    921 19.38                             108     0.4 5  351 227 
 SDV  BZ IP     C  921 19.26                             108     0.2 6  352  48 
 SDV  BZ I         922  1.19         5.4 0.71                           352  48 
 PRA  HZ EP   2    921 23.41                             106    -0.5 3  396 212 
 PRA  HE ES   2    922  5.52                             106    -0.5 3  396 212 
 PRA  HZ I         922 10.17        16.8 0.33                           396 212 
                                                                                
