 2014  727 0058 42.0 L   6.790 -73.171138.0  RSN  9 0.4 1.8LRSN                1
 GAP=134        0.90       3.4     4.6  6.9 -0.1416E+01  0.9134E+01 -0.2726E+01E
 Epicentro: LOS SANTOS - SANTANDER                                             3
 ACTION:UPD 15-03-16 20:47 OP:nd   STATUS:               ID:20140727005842 L   I
 OLDACT:UP  14-07-27 12:59 OP:mh   STATUS:               ID:20140727005815     3
 OLDACT:REG 14-07-27 12:00 OP:mh   STATUS:               ID:20140727005815     3
 2014-07-27-0058-15M.COL___263                                                 6
 STAT SP IPHASW D HRMM SECON CODA AMPLIT PERI AZIMU VELO AIN AR TRES W  DIS CAZ7
 BAR2 SZ EP   1    059  0.74                             170    0.03 7 21.9 183 
 BAR2 SZ ES        059 14.67                             170   -0.6110 21.9 183 
 BRR  HZ IP     C  059  2.79                             152    0.5410 69.2 300 
 BRR  HN ES   1    059 18.40                             152    0.40 7 69.2 300 
 BRR  HZ I         059 21.99        10.9 0.12            151           69.2 300 
 PAM  SZ EP   1    059  3.61                             148    0.00 7 80.0  41 
 PAM  SN ES   1    059 20.67                             148    0.24 7 80.0  41 
 PAM  SZ I         059 22.65        11.0 0.78            153           80.0  41 
 RUS  HZ EP   1    059  4.96                             142   -0.02 7 99.7 174 
 RUS  HN ES   1    059 23.13                             142    0.26 7 99.7 174 
 RUS  HZ I         059 24.33         8.6 0.22            146           99.7 174 
 PTB  HZ EP   1    059  7.71                             131   -0.40 7  145 259 
 PTB  HN ES        059 28.01                             131   -0.44 9  145 259 
 PTB  HZ I         059 30.53         8.6 0.37            132            145 259 
 SPBC HZ EP   1    059  9.68                             127   -0.03 7  161 218 
 SPBC HN ES   1    059 31.72                             127    0.44 7  161 218 
 SPBC HZ I         059 36.45        10.5 0.20            130            161 218 
 OCA  HN ES        059 31.52                             127    0.01 9  161 354 
 OCA  HZ I         059 35.04         8.1 0.42            130            161 354 
 ZAR  HZ EP   1    059 13.44                             121   -0.33 6  202 293 
 ZAR  HN ES   1    059 39.36                             121    0.86 6  202 293 
 ZAR  HZ I         059 45.51        10.5 0.24            122            202 293 
 SML  HE ES   1    059 45.65                             116   -0.80 6  244 336 
                                                                                
