 2016 1027 0220 39.4 L   6.771 -73.899 22.2  RSN  4 0.4 1.1LRSN                1
 GAP=142        1.04       4.7     2.8  6.7 -0.5394E+01 -0.8190E+01  0.2272E+02E
 Epicentro: PUERTO PARRA - SANTANDER                                           3
 ACTION:UPD 16-11-09 19:23 OP:rebc STATUS:               ID:20161027022039 L   I
 OLDACT:REG 16-10-27 11:50 OP:cog  STATUS:               ID:20161027021744     3
 2016-10-27-0218-00M.COL___349                                                 6
 STAT SP IPHASW D HRMM SECON CODA AMPLIT PERI AZIMU VELO AIN AR TRES W  DIS CAZ7
 BRR  HZ EP        220 46.86                             115   -0.1810 42.5  29 
 BRR  HN ES        220 53.17                             115    0.1610 42.5  29 
 BRR  HZ I         220 53.51         9.2 0.09             47           42.5  29 
 PTB  HZ EP        220 50.44                             106   -0.0610 66.7 248 
 PTB  HE ES        220 59.25                             106    0.0810 66.7 248 
 PTB  HZ I         221  0.18         9.4 0.14             47           66.7 248 
 BAR2 EZ EP        220 52.22                             103   -0.7010 81.6 104 
 BAR2 EZ ES        221  3.86                             103    0.3810 81.6 104 
 RUS  HZ EP        221  0.94                              56    0.6910  133 137 
 RUS  HN ES        221 16.20                              56   -0.3310  133 137 
 RUS  HZ I         221 19.07         3.5 0.22             47            133 137 
                                                                                
