 2011  927 0412 40.0 L   6.774 -73.157142.8  RSN 11 0.4 2.2LRSN                1
 GAP=181        0.70       2.8     4.2  5.0  0.3720E-01  0.6567E+01  0.3465E+01E
 Epicentro: LOS SANTOS - SANTANDER                                             3
 ACTION:UPD 12-07-13 16:00 OP:ep   STATUS:               ID:20110927041240 L   I
 2011-09-27-0400-00M.COL___167                                                 6
 STAT SP IPHASW D HRMM SECON CODA AMPLIT PERI AZIMU VELO AIN AR TRES W  DIS CAZ7
 BTL  SZ EP   1    412 59.55                             172    0.36 7 20.1 323 
 BAR2 SZ EP        412 59.28                             171    0.0910 20.3 188 
 BAR2 SZ I         412 59.67        32.9 0.10                          20.3 188 
 BAR2 SZ ES   1    413 13.91                             171   -0.27 7 20.3 188 
 GIR2 SZ EP   1    412 59.43                             166    0.06 7 33.9 353 
 GIR2 SZ ES   1    413 14.06                             166   -0.44 7 33.9 353 
 BRR  HZ EP   1    413  1.21                             152    0.39 7 71.5 301 
 BRR  HN ES   1    413 17.48                             152    0.40 7 71.5 301 
 BRR  HZ I         413 22.44        28.6 0.11                          71.5 301 
 RUS  HZ EP   1    413  2.81                             144   -0.43 7 97.8 175 
 RUS  HN ES   1    413 21.88                             144    0.50 7 97.8 175 
 RUS  HZ I         413 24.78        14.1 0.25                          97.8 175 
 OCA  SZ EP   1    413  7.94                             128   -0.37 7  163 354 
 OCA  SZ ES   1    413 30.59                             128    0.17 7  163 354 
 OCA  SZ I         413 35.06        32.8 0.32                           163 354 
 ZAR  HN ES   1    413 36.72                             122   -0.65 6  204 293 
 NOR  SZ EP   1    413 14.86                             118   -0.39 6  232 235 
 NOR  SN ES   1    413 42.57                             118   -0.18 6  232 235 
 NOR  SZ I         413 47.01         1.0 0.14                           232 235 
 CHI  HZ EP   1    413 17.12                             117   -0.06 6  246 195 
 CHI  HN ES   1    413 45.63                             117   -0.56 6  246 195 
 CHI  HZ I         413 50.24         8.6 0.58                           246 195 
 HEL  HZ EP   1    413 20.02                             114    0.19 6  270 256 
 HEL  HN ES   1    413 51.37                             114    0.46 6  270 256 
 HEL  HZ I         413 57.36         7.4 0.35                           270 256 
 PRA  HZ EP   1    413 33.70                             106    0.67 4  389 210 
 PRA  HZ I         413 35.02        44.9 0.18                           389 210 
 PRA  HN ES   1    414 14.61                             106    0.20 4  389 210 
                                                                                
