 2014  227 0609 29.5 L   5.952 -73.793106.9  RSN  5 0.2 1.3LRSN                1
 GAP= 92        0.56       2.1     2.3  4.4 -0.1385E+00 -0.1308E+00  0.8642E+00E
 Epicentro: GUAVATA - SANTANDER                                                3
 ACTION:UPD 14-03-10 08:13 OP:ep   STATUS:               ID:20140227060929 L   I
 OLDACT:REG 14-02-27 08:20 OP:y    STATUS:               ID:20140227060816     3
 2014-02-27-0608-16M.COL___231                                                 6
 STAT SP IPHASW D HRMM SECON CODA AMPLIT PERI AZIMU VELO AIN AR TRES W  DIS CAZ7
 SPBC HZ EP        6 9 44.98                             155   -0.1110 45.4 223 
 SPBC HE ES        6 9 57.55                             155    0.2610 45.4 223 
 SPBC HZ I         610  0.39         6.0 0.24            157           45.4 223 
 RUS  HZ EP        6 9 47.79                             141   -0.0410 78.8  95 
 RUS  HN ES        610  1.95                             141   -0.2110 78.8  95 
 RUS  HZ I         610  3.61         3.3 0.26            145           78.8  95 
 BAR2 SZ EP        6 9 48.98                             134   -0.0510 97.8  44 
 BAR2 SZ ES        610  4.54                             134    0.2310 97.8  44 
 BAR2 SZ I         610  6.15        16.1 0.30            138           97.8  44 
 PTB  HZ EP        6 9 48.71                             134   -0.0410 98.0 312 
 PTB  HN ES        610  3.64                             134   -0.1610 98.0 312 
 PTB  HZ I         610  5.93         3.2 0.16            137           98.0 312 
 CHI  HZ EP        6 9 54.33                             122    0.37 9  146 177 
 CHI  HZ I         6 9 54.57         1.2 0.18            125            146 177 
 CHI  HN ES        610 12.83                             122   -0.24 9  146 177 
                                                                                
