 2014 1027 0207 37.7 L   5.912 -73.659126.4  RSN  5 0.3 1.4LRSN                1
 GAP=146        0.75       4.1     3.7  6.6  0.7213E+00  0.2432E+01 -0.7252E+01E
 Epicentro: PUENTE NACIONAL - SANTANDER                                        3
 ACTION:UPD 14-11-29 23:57 OP:nd   STATUS:               ID:20141027020737 L   I
 OLDACT:DUP 14-10-29 22:40 OP:spq  STATUS:               ID:20141027015743d    3
 2014-10-27-0157-42M.COL___277                                                 6
 STAT SP IPHASW D HRMM SECON CODA AMPLIT PERI AZIMU VELO AIN AR TRES W  DIS CAZ7
 SPBC HZ EP   1    2 7 55.91                             155   -0.05 7 54.1 238 
 SPBC HN ES        2 8 10.56                             155    0.3710 54.1 238 
 SPBC HZ I         2 8 13.44         5.7 0.30            157           54.1 238 
 RUS  HZ EP        2 7 57.15                             152    0.0810 63.7  92 
 RUS  HE ES        2 8 11.91                             152   -0.2510 63.7  92 
 BAR2 SZ ES   1    2 8 14.67                             142   -0.19 7 91.8  35 
 BAR2 SZ I         2 8 15.76         8.4 0.52            144           91.8  35 
 PTB  HZ EP        2 7 59.52                             136   -0.4110  112 308 
 PTB  HE ES        2 8 16.96                             136   -0.2910  112 308 
 PTB  HZ I         2 8 19.33         1.7 0.18            136            112 308 
 BRR  HZ EP        2 8  2.06                             130    0.3710  132 357 
 BRR  HE ES        2 8 20.68                             130    0.3010  132 357 
 BRR  HZ I         2 8 26.02         5.2 0.44            132            132 357 
                                                                                
