 2017 1027 0427 10.3 L   6.782 -73.107137.7  RSN  7 0.5 1.4LRSN                1
 GAP=142        1.10       5.4     5.7  7.6  0.5003E+01  0.1390E+02 -0.4333E+00E
 Epicentro: LOS SANTOS - SANTANDER                                             3
 ACTION:UPD 17-11-07 19:37 OP:rebc STATUS:               ID:20171027042710 L   I
 OLDACT:UP  17-10-27 15:43 OP:dani STATUS:               ID:20171027041741d    3
 OLDACT:UP  17-10-27 15:43 OP:dani STATUS:               ID:20171027041741d    3
 OLDACT:DUP 17-10-27 15:41 OP:dani STATUS:               ID:20171027041741d    3
 OLDACT:DUP 17-10-27 15:39 OP:dani STATUS:               ID:20171027041740d    3
 OLDACT:REG 17-10-27 12:43 OP:dani STATUS:               ID:20171027041739     3
 2017-10-27-0418-00M.COL___453                                                 6
 STAT SP IPHASW D HRMM SECON CODA AMPLIT PERI AZIMU VELO AIN AR TRES W  DIS CAZ7
 BAR2 EZ EP        427 28.60                             170   -0.3410 22.5 202 
 BAR2 EZ ES        427 43.44                             170   -0.0410 22.5 202 
 BAR2 EZ I         427 44.30         5.9 0.30            169           22.5 202 
 BRR  HZ EP        427 30.58                             149   -0.2810 75.9 298 
 BRR  HN ES        427 47.44                             149    0.5410 75.9 298 
 BRR  HZ I         427 51.41         5.7 0.15            151           75.9 298 
 PAM  EZ EP        427 31.45                             150   -0.1510 76.4  36 
 PAM  EN ES        427 48.16                             150   -0.0510 76.4  36 
 PAM  EZ I         427 50.76         6.3 0.44            154           76.4  36 
 RUS  HZ EP        427 33.06                             143   -0.0310 98.3 178 
 RUS  HN ES        427 51.07                             143    0.1910 98.3 178 
 RUS  HZ I         427 57.14         1.8 0.27            145           98.3 178 
 PTB  HZ EP        427 36.50                             129   -0.47 9  152 260 
 PTB  HN ES   3    427 56.05                             129   -1.73 2  152 260 
 PTB  HZ I         427 58.72         3.3 0.14            131            152 260 
 SPBC HN ES   3    428  1.21                             127    1.07 2  164 221 
 ZAR  HZ EP        427 43.96                             120    1.24 8  209 292 
 ZAR  HE ES        428  7.62                             120   -0.39 8  209 292 
 ZAR  HZ I         428 12.71         3.9 0.18            122            209 292 
                                                                                
