 2012  327 0744 56.0 L   6.903 -73.595  0.0  RSN  5 0.3 1.0LRSN                1
 GAP= 94        0.86       4.0     3.5 12.1  0.1349E+01  0.1265E+02 -0.2511E+02E
 ACTION:UP  12-03-31 23:23 OP:EP   STATUS:               ID:20120327074456 L   I
 2012-03-27-0740-00M.COL___196                                                 6
 STAT SP IPHASW D HRMM SECON CODA AMPLIT PERI AZIMU VELO SNR AR TRES W  DIS CAZ7
 BRR  HZ EP        745  1.10                              47     0.010   26 330 
 BRR  HN ES   1    745  5.48                              47     0.4 7   26 330 
 BRR  HZ I         745  6.72        37.2 0.12                            26 330 
 PTB  HZ EP        745 12.55                              47    -0.310  103 247 
 PTB  HZ I         745 26.54         2.0 0.42                           103 247 
 PAM  SZ EP        745 14.05                              47    -0.310  110  64 
 RUS  HZ EP        745 17.00                              47     0.410  125 153 
 RUS  HZ I         745 17.69         1.5 0.33                           125 153 
 ZAR  HZ EP        745 20.72                              47     0.2 9  154 295 
 ZAR  HZ I         745 20.90         4.0 0.28                           154 295 
 ZAR  HE ES   2    745 39.13                              47    -0.5 5  154 295 
                                                                                
