 2017  227 0129 43.4 L   6.777 -73.138143.9  RSN  6 0.5 1.4LRSN                1
 GAP=139        1.31       6.5     5.8  8.9  0.3778E+01  0.1329E+02 -0.2568E+01E
 Epicentro: LOS SANTOS - SANTANDER                                             3
 ACTION:UPD 17-05-24 15:41 OP:jn   STATUS:               ID:20170227012943 L   I
 OLDACT:UP  17-02-27 15:26 OP:ar   STATUS:               ID:20170227012742     3
 OLDACT:REG 17-02-27 12:52 OP:ar   STATUS:               ID:20170227012742     3
 2017-02-27-0128-00M.COL___372                                                 6
 STAT SP IPHASW D HRMM SECON CODA AMPLIT PERI AZIMU VELO AIN AR TRES W  DIS CAZ7
 BAR2 EZ IP     C  130  2.72                             171    0.0010 21.0 193 
 BAR2 EZ ES        130 17.26                             171   -0.5510 21.0 193 
 BAR2 EZ I         130 18.44         5.7 0.28            171           21.0 193 
 BRR  HZ EP        130  4.49                             151    0.0710 73.2 300 
 BRR  HN ES        130 21.43                             151    0.5910 73.2 300 
 BRR  HZ I         130 24.51         5.4 0.36            150           73.2 300 
 PAM  EZ EP        130  5.75                             150    0.2910 78.8  38 
 PAM  EN ES        130 22.25                             150   -0.4510 78.8  38 
 PAM  EZ I         130 24.50         5.5 0.38            153           78.8  38 
 RUS  HZ EP        130  6.83                             144    0.0910 98.0 176 
 RUS  HN ES        130 25.68                             144    0.7110 98.0 176 
 RUS  HZ I         130 27.07         3.2 0.30            147           98.0 176 
 PTB  HZ EP        130  9.30                             131   -0.91 9  148 260 
 PTB  HN ES        130 30.48                             131   -0.66 9  148 260 
 PTB  HZ I         130 36.29         2.9 0.46            132            148 260 
 ZAR  HZ EP        130 16.09                             122    0.23 8  206 293 
 ZAR  HE ES        130 41.84                             122    0.62 8  206 293 
 ZAR  HZ I         130 46.50         4.4 0.46            123            206 293 
                                                                                
