 2014  827 0641  4.4 L   6.859 -73.157145.4  RSN  5 0.3 1.1LRSN                1
 GAP=242        0.65       4.3     8.4 10.1 -0.6330E+01 -0.1391E+02 -0.3605E+01E
 Epicentro: LOS SANTOS - SANTANDER                                             3
 ACTION:UPD 14-09-15 21:53 OP:nd   STATUS:               ID:20140827064104 L   I
 OLDACT:DUP 14-08-27 16:30 OP:fm   STATUS:               ID:20140827063820d    3
 2014-08-27-0638-19M.COL___257                                                 6
 STAT SP IPHASW D HRMM SECON CODA AMPLIT PERI AZIMU VELO AIN AR TRES W  DIS CAZ7
 BRR  HZ EP   1    641 25.82                             154    0.48 8 67.2 294 
 BRR  HN ES   1    641 41.63                             154   -0.00 8 67.2 294 
 BRR  HZ I         641 46.70         1.9 0.48            147           67.2 294 
 PTB  HZ EP   1    641 31.20                             132   -0.21 7  148 256 
 PTB  HN ES        641 52.21                             132   -0.2210  148 256 
 PTB  HZ I         641 55.87         1.6 0.42            131            148 256 
 SPBC HN ES   1    641 55.83                             128   -0.04 7  168 217 
 ZAR  HN ES   1    642  2.02                             123    0.50 7  201 291 
 ZAR  HZ I         642  9.40         1.8 0.42            122            201 291 
 SML  HN ES   1    642  7.91                             118   -0.46 6  237 335 
                                                                                
