 2011  127 0842  5.0 L   5.975 -73.665112.6  RSN  5 0.3 1.3LRSN                1
 GAP=121        0.59       4.5     4.3  9.8 -0.5656E+01  0.1936E+02  0.3535E+01E
 Epicentro: VELEZ - SANTANDER                                                  3
 ACTION:UP  11-02-08 08:43 OP:pat  STATUS:               ID:20110127084205 L   I
 2011-01-27-0840-12S.COL___138                                                 6
 STAT SP IPHASW D HRMM SECON CODA AMPLIT PERI AZIMU VELO SNR AR TRES W  DIS CAZ7
 RUS  HZ EP   1    842 23.05                             148     0.1 7   65  98 
 RUS  HE ES   2    842 36.34                             148    -0.6 5   65  98 
 RUS  HZ I         842 39.27         3.8 0.26                            65  98 
 BAR2 SZ EP        842 24.17                             140     0.010   87  38 
 BAR2 SZ ES   1    842 39.24                             140     0.2 7   87  38 
 BAR2 SZ I         842 40.56        11.6 0.17                            87  38 
 NOR  SZ EP   2    842 28.37                             124    -0.5 5  141 251 
 NOR  SE ES   2    842 47.24                             124    -0.2 5  141 251 
 CHI  HZ EP   2    842 30.03                             123    -0.1 5  149 183 
 CHI  HE ES   2    842 50.26                             123     0.5 5  149 183 
 CHI  HZ I         842 53.88         1.7 0.22                           149 183 
 HEL  HZ EP   2    842 36.06                             114    -0.3 4  208 277 
 HEL  HN ES   2    843  1.36                             114     0.5 4  208 277 
 HEL  HZ I         843  5.80         2.8 0.47                           208 277 
                                                                                
