 2015  127 0559 24.8 L   6.824 -73.287119.2  RSN  5 0.2 1.3LRSN                1
 GAP=126        0.52       3.4     3.0  3.8  0.3184E+00  0.2041E+01  0.1227E+01E
 Epicentro: ZAPATOCA - SANTANDER                                               3
 ACTION:UPD 15-03-02 15:42 OP:nd   STATUS:               ID:20150127055924 L   I
 OLDACT:REG 15-01-27 13:14 OP:cam  STATUS:               ID:20150127055814     3
 2015-01-27-0558-14M.COL___277                                                 6
 STAT SP IPHASW D HRMM SECON CODA AMPLIT PERI AZIMU VELO AIN AR TRES W  DIS CAZ7
 BAR2 EZ IP     D  559 41.58                             166    0.2010 28.1 156 
 BAR2 EZ ES        559 54.38                             166    0.0610 28.1 156 
 BAR2 EZ I         559 56.07        17.1 0.22            170           28.1 156 
 BRR  HZ EP        559 41.89                             153   -0.3610 56.4 304 
 BRR  HN ES        559 55.89                             153    0.0310 56.4 304 
 BRR  HZ I         559 56.97         4.2 0.30            135           56.4 304 
 PAM  SZ EP        559 45.05                             142    0.1210 86.4  49 
 PAM  SN ES        6 0  0.56                             142   -0.0610 86.4  49 
 PAM  SZ I         6 0  4.68         2.5 0.56            132           86.4  49 
 RUS  HZ EP        559 46.32                             136   -0.1410  105 168 
 ZAR  HZ EP        559 54.20                             118    0.21 9  189 293 
 ZAR  HZ I         6 0 20.20         1.9 0.10            107            189 293 
                                                                                
