 2017 1227 0625 22.5 L   6.888 -73.167144.5  RSN 12 0.5 1.9LRSN                1
 GAP= 75        1.15       3.2     3.4  6.5 -0.1407E+01  0.7292E+01 -0.2563E+01E
 Epicentro: BETULIA - SANTANDER                                                3
 ACTION:UPD 18-01-04 13:24 OP:rebc STATUS:               ID:20171227062522 L   I
 OLDACT:REG 17-12-27 13:12 OP:osc  STATUS:               ID:20171227061523     3
 2017-12-27-0618-00M.COL___451                                                 6
 STAT SP IPHASW D HRMM SECON CODA AMPLIT PERI AZIMU VELO AIN AR TRES W  DIS CAZ7
 BAR2 EZ EP        625 42.11                             167   -0.0910 32.8 183 
 BAR2 EZ ES        625 57.22                             167   -0.3510 32.8 183 
 BAR2 EZ I         625 58.87        12.2 0.38            168           32.8 183 
 PAM  EZ EP        625 44.97                             152    0.7210 71.8  46 
 PAM  EN ES        626  1.66                             152    0.4510 71.8  46 
 PAM  EZ I         626  2.28         9.3 0.30            155           71.8  46 
 PTB  HZ EP        625 48.81                             132   -0.54 9  148 255 
 PTB  HN ES        626  9.64                             132   -0.66 9  148 255 
 PTB  HZ I         626 11.39         6.1 0.36            132            148 255 
 OCA  HZ EP        625 49.82                             131    0.04 9  150 354 
 OCA  HN ES        626 11.40                             131    0.34 9  150 354 
 OCA  HZ I         626 13.49        16.1 0.24            132            150 354 
 TAM  HZ EP        625 50.65                             129    0.11 9  160 108 
 TAM  HE ES        626 11.87                             129   -0.55 9  160 108 
 SPBC HZ EP        625 51.21                             128   -0.29 9  169 216 
 SPBC HN ES        626 14.21                             128    0.08 9  169 216 
 SPBC HZ I         626 18.96         8.3 0.14            129            169 216 
 ZAR  HZ EP        625 55.08                             123    0.81 9  198 290 
 ZAR  HN ES        626 19.59                             123    0.53 9  198 290 
 ZAR  HZ I         626 25.71         8.6 0.38            123            198 290 
 ROSC BN ES   4    626 33.90                             116    2.26 0  260 209 
 URE  HZ EP        626  2.08                             114   -0.79 7  278 290 
 URE  HE ES        626 33.78                             114   -0.57 7  278 290 
 URE  HZ I         626 44.87         4.6 0.18            115            278 290 
 DRL03HZ EP        626  2.99                             114    0.07 7  279 353 
 DRL03HE ES        626 34.03                             114   -0.43 7  279 353 
 GUY2CHZ EP        626  7.27                             112    0.79 7  305 233 
 GUY2CHE ES        626 41.17                             112    0.38 7  305 233 
 GUY2CHZ I         626 49.76         4.7 0.56                           305 233 
 SJC  HZ EP        626 16.09                             106   -0.81 6  400 326 
 SJC  HE ES        626 59.13                             106   -0.21 6  400 326 
 ORTC HN ES        627  0.53                             106    0.76 6  402 215 
                                                                                
