 2016  927 0717 25.6 L   6.808 -73.112154.7  RSN  5 0.2 1.5LRSN                1
 GAP=206        0.50       2.9     3.1  3.7 -0.1214E+01  0.1301E+01 -0.2177E+01E
 Epicentro: LOS SANTOS - SANTANDER                                             3
 ACTION:UPD 17-08-17 21:16 OP:lp   STATUS:               ID:20160927071725 L   I
 OLDACT:UP  16-09-27 17:26 OP:edw  STATUS:               ID:20160927070650d    3
 OLDACT:DUP 16-09-27 17:23 OP:edw  STATUS:               ID:20160927070650d    3
 OLDACT:UP  16-09-27 17:22 OP:edw  STATUS:               ID:20160927070649     3
 OLDACT:UP  16-09-27 17:19 OP:edw  STATUS:               ID:20160927070649     3
 OLDACT:UP  16-09-27 17:18 OP:edw  STATUS:               ID:20160927070649     3
 OLDACT:UP  16-09-27 17:15 OP:edw  STATUS:               ID:20160927070649     3
 OLDACT:REG 16-09-27 13:02 OP:edw  STATUS:               ID:20160927070649     3
 2016-09-27-0707-00M.COL___351                                                 6
 STAT SP IPHASW D HRMM SECON CODA AMPLIT PERI AZIMU VELO AIN AR TRES W  DIS CAZ7
 BAR2 EZ EP        717 46.28                             170   -0.0210 25.0 198 
 BAR2 EZ ES        718  2.67                             170    0.2010 25.0 198 
 BAR2 EZ I         718  3.18         3.9 0.32            172           25.0 198 
 BRR  HZ EP        717 48.01                             153    0.1810 74.1 297 
 BRR  HN ES        718  5.02                             153   -0.1910 74.1 297 
 BRR  HZ I         718  8.70         5.7 0.34            151           74.1 297 
 PTB  HZ EP        717 53.35                             133   -0.25 9  152 259 
 PTB  HE ES        718 15.30                             133   -0.17 9  152 259 
 PTB  HZ I         718 15.90         3.0 0.16            134            152 259 
 OCA  HZ EP        717 54.43                             132   -0.11 9  160 352 
 OCA  HE ES        718 17.09                             132   -0.06 9  160 352 
 OCA  HZ I         718 19.73         8.8 0.32            132            160 352 
 ZAR  HZ EP        717 59.11                             124    0.20 8  207 292 
 ZAR  HN ES        718 25.20                             124    0.27 8  207 292 
 ZAR  HZ I         718 29.92         2.6 0.09            124            207 292 
                                                                                
