 2010  827 0146  9.3 L   6.794 -73.052145.0  RSN 10 0.4 1.9LRSN                1
 GAP=169        0.86       4.3     8.1  6.9 -0.1350E+02  0.1349E+01  0.9138E-01E
 Epicentro: LOS SANTOS - SANTANDER                                             3
 ACTION:UP  10-09-07 10:58 OP:vdl  STATUS:               ID:20100827014609 L   I
 2010-08-27-0143-58S.COL___120                                                 6
 STAT SP IPHASW D HRMM SECON CODA AMPLIT PERI AZIMU VELO SNR AR TRES W  DIS CAZ7
 BAR2 SZ EP   2    146 29.16                             169     0.2 5   27 213 
 BAR2 SZ ES   1    146 44.25                             169     0.0 7   27 213 
 BAR2 SZ I         146 46.66        18.0 0.34                            27 213 
 BRR  HZ IP     D  146 30.87                             149    -0.110   81 295 
 BRR  HZ I         146 31.03        16.9 0.14                            81 295 
 BRR  HE ES   1    146 47.84                             149     0.0 7   81 295 
 RUS  HZ EP   1    146 33.12                             144     0.2 7  100 182 
 RUS  HN ES   1    146 51.30                             144    -0.1 7  100 182 
 RUS  HZ I         146 52.90         8.4 0.23                           100 182 
 GUE  SZ IP        146 33.10                             140    -0.810  115   7 
 GUE  SZ I         146 34.58         3.7 0.11                           115   7 
 GRA  SZ IP        146 34.88                             137     0.510  124  13 
 GRA  SZ ES   1    146 54.23                             137     0.4 7  124  13 
 GRA  SZ I         146 55.79         9.0 0.24                           124  13 
 CHI  HZ EP   2    146 47.54                             117     0.3 4  251 198 
 CHI  HE ES   3    147 16.38                                    -0.4 2  251 198 
 ROSC BZ EP   2    146 47.87                             116    -0.1 4  258 213 
 ROSC BZ I         147 25.69         6.8 0.47                           258 213 
 HEL  HZ EP   2    146 50.97                             114     0.3 4  282 256 
 HEL  HZ I         147 29.04         4.3 0.49                           282 256 
 RREF HZ EP   2    146 56.70                             110     0.4 3  329 231 
 RREF HE ES   2    147 33.44                             110     0.5 3  329 231 
 RREF HZ I         147 41.14         3.8 0.38                           329 231 
 PRA  HZ EP   2    147  3.10                             106    -0.3 3  397 211 
 PRA  HN ES   2    147 45.18                             106    -0.4 3  397 211 
 PRA  HZ I         147 51.16         4.3 0.70                           397 211 
                                                                                
