 2011  227 0711 22.6 L   6.799 -73.190150.8  RSN  4 0.2 1.4LRSN                1
 GAP=177        0.44       2.7    14.2  6.3 -0.1466E+02  0.2057E+02 -0.4858E+01E
 Epicentro: ZAPATOCA - SANTANDER                                               3
 ACTION:UP  11-03-28 15:11 OP:jfem STATUS:               ID:20110227071122 L   I
 2011-02-27-0707-24S.COL___135                                                 6
 STAT SP IPHASW D HRMM SECON CODA AMPLIT PERI AZIMU VELO SNR AR TRES W  DIS CAZ7
 BAR2 SZ EP   1    711 42.96                             171     0.1 7   23 178 
 BAR2 SZ ES   2    711 58.97                             171     0.3 5   23 178 
 BAR2 SZ I         712  0.49         5.6 0.24                            23 178 
 RUS  HZ EP   1    711 46.98                             145     0.1 7  101 173 
 RUS  HN ES   1    712  5.60                             145    -0.2 7  101 173 
 RUS  HZ I         712  9.45         1.7 0.39                           101 173 
 GRA  SZ EP   1    711 48.63                             138     0.2 7  127  20 
 GRA  SZ ES   1    712  8.54                             138    -0.1 7  127  20 
 GRA  SZ I         712 11.24         3.3 0.28                           127  20 
 OCA  SZ EP   2    711 51.05                             131    -0.3 5  160 355 
 OCA  SZ ES   2    712 13.51                             131    -0.2 5  160 355 
 OCA  SZ I         712 19.08         4.9 0.32                           160 355 
                                                                                
