 2017  527 0557  8.5 L   6.849 -73.127155.4  RSN  7 0.5 1.7LRSN                1
 GAP=219        1.14       6.6     6.1  9.9  0.1566E+02 -0.7561E+01  0.3929E+01E
 Epicentro: LOS SANTOS - SANTANDER                                             3
 ACTION:UPD 17-06-16 13:39 OP:jn   STATUS:               ID:20170527055708 L   I
 OLDACT:UP  17-06-02 19:53 OP:jn   STATUS:               ID:20170527055708 L   3
 OLDACT:UP  17-06-02 19:49 OP:nlst STATUS:               ID:20170527055708 L   3
 OLDACT:UP  17-05-27 18:17 OP:ar   STATUS:               ID:20170527054731     3
 OLDACT:UP  17-05-27 18:16 OP:ar   STATUS:               ID:20170527054731     3
 OLDACT:REG 17-05-27 14:03 OP:ar   STATUS:               ID:20170527054731     3
 2017-05-27-0548-00M.COL___335                                                 6
 STAT SP IPHASW D HRMM SECON CODA AMPLIT PERI AZIMU VELO AIN AR TRES W  DIS CAZ7
 BRR  HZ EP        557 30.91                             154    0.2310 70.7 294 
 BRR  HN ES        557 47.77                             154   -0.2010 70.7 294 
 BRR  HZ I         557 51.36         9.2 0.14            153           70.7 294 
 RUS  HZ EP        557 34.24                             144    0.6510  106 177 
 RUS  HN ES        557 52.50                             144   -0.6610  106 177 
 RUS  HZ I         557 53.33         3.3 0.24            142            106 177 
 PTB  HZ EP        557 36.48                             133   -0.08 9  151 257 
 PTB  HN ES        557 58.36                             133   -0.08 9  151 257 
 PTB  HZ I         558  1.72         5.6 0.34            132            151 257 
 SPBC HZ EP   4    557 36.05                             130   -2.23 0  169 218 
 SPBC HE ES        558  2.11                             130    0.61 9  169 218 
 SPBC HZ I         558  6.01         5.9 0.20            128            169 218 
 YPLC HZ EP   4    557 44.10                             128    4.71 0  181 153 
 YPLC HE ES        558  3.82                             128    0.35 9  181 153 
 YPLC HZ I         558  4.49         6.3 0.28            128            181 153 
 NOR  HZ EP   4    557 47.10                             120    1.77 0  240 234 
 NOR  HN ES        558 13.70                             120   -0.35 8  240 234 
 NOR  HZ I         558 18.94         3.6 0.38            119            240 234 
 PTGC HZ EP        557 52.40                             113   -0.90 7  313 159 
 PTGC HN ES   4    558 26.31                             113   -1.93 0  313 159 
 PTGC HZ I         558 34.31         3.0 0.34            113            313 159 
                                                                                
