 2010  427 0358 14.3 L   6.793 -72.978146.5  RSN  7 0.2 2.4LRSN                1
 GAP=225        0.40       2.6     5.2  3.9 -0.3708E+01 -0.1311E+01 -0.1220E+00E
 Epicentro: CEPITA - SANTANDER                                                 3
 ACTION:UPD 10-08-24 10:01 OP:vdl  STATUS:               ID:20100427035825 L   I
 2010-04-27-0356-20S.COL___104                                                 6
 STAT SP IPHASW D HRMM SECON CODA AMPLIT PERI AZIMU VELO AIN AR TRES W  DIS CAZ7
 BAR2 SZ IP        358 34.29                             167     0.110   32 226 
 BAR2 SZ ES   1    358 49.71                             167     0.0 7   32 226 
 BRR  HZ IP     C  358 36.67                             147     0.110   88 293 
 BRR  HE ES   1    358 53.78                             147    -0.1 7   88 293 
 BRR  HZ I         358 56.33        48.0 0.15                            88 293 
 OCA  SZ EP        358 42.86                             129    -0.2 9  164 347 
 OCA  SZ ES   1    359  5.43                             129     0.0 7  164 347 
 OCA  SZ I         359  9.23        33.4 0.30                           164 347 
 HEL  HE ES   3    359 29.82                             113     0.4 2  290 257 
 HEL  HZ I         359 31.64         5.8 0.34                           290 257 
 RREF BZ EP   3    359  2.31                             110     0.3 2  336 232 
 RREF BN ES   2    359 39.33                             110     0.1 3  336 232 
 RREF BZ I         359 46.65        11.8 0.28                           336 232 
 TOL  SZ EP   2    359  4.29                             109     0.3 3  356 227 
 PRA  HZ EP   3    359  8.60                             106    -0.2 1  401 212 
 PRA  HN ES   2    359 50.55                             106    -0.9 3  401 212 
 PRA  HZ I         359 53.94         5.9 0.46                           401 212 
                                                                                
