 2011  327 0417 13.1 L   6.779 -73.068146.7  RSN 11 0.4 2.1LRSN                1
 GAP=142        0.97       5.1     6.5  7.4 -0.1524E+02 -0.4667E+00  0.1260E+02E
 Epicentro: LOS SANTOS - SANTANDER                                             3
 ACTION:UP  11-06-16 14:35 OP:jfem STATUS:               ID:20110327041713 L   I
 2011-03-27-0400-00M.COL___140                                                 6
 STAT SP IPHASW D HRMM SECON CODA AMPLIT PERI AZIMU VELO SNR AR TRES W  DIS CAZ7
 BAR2 SZ IP        417 32.70                             170    -0.110   24 212 
 BAR2 SZ ES   1    417 48.03                             170    -0.2 7   24 212 
 BAR2 SZ I         417 50.75        29.9 0.30                            24 212 
 BTL  SZ EP        417 33.64                             169     0.710   27 305 
 BRR  HZ IP     D  417 34.67                             150    -0.210   80 297 
 BRR  HE ES   1    417 51.91                             150     0.1 7   80 297 
 BRR  HZ I         417 54.35        27.4 0.14                            80 297 
 GRA  SZ IP        417 38.52                             137     0.110  126  13 
 GRA  SZ ES   1    417 57.93                             137    -0.2 7  126  13 
 GRA  SZ I         417 59.27        19.8 0.36                           126  13 
 OCA  SZ EP        417 41.70                             129    -0.1 9  164 350 
 OCA  SZ I         418  9.15        16.1 0.23                           164 350 
 YOP  SZ EP   1    417 42.89                             128     0.3 7  173 156 
 YOP  SZ I         418 10.25         9.3 0.51                           173 156 
 NOR  SZ EP        417 48.74                             118    -0.7 8  241 236 
 NOR  SN ES   2    418 17.19                             118    -0.7 4  241 236 
 CHI  HZ EP   1    417 50.18                             117    -0.7 6  249 197 
 CHI  HZ I         418 28.42         6.5 0.32                           249 197 
 HEL  HZ EP   2    417 54.32                             114     0.1 4  280 257 
 HEL  HN ES   1    418 26.34                             114     0.1 6  280 257 
 HEL  HZ I         418 32.00         6.6 0.38                           280 257 
 RREF HZ EP   1    418  0.27                             111     0.4 5  327 231 
 RREF HN ES   1    418 37.12                             111     0.8 5  327 231 
 RREF HZ I         418 44.94         8.5 0.53                           327 231 
 PRA  HZ EP        418  6.78                             107    -0.1 6  394 211 
 PRA  HE ES   1    418 49.19                             107     0.3 4  394 211 
                                                                                
