 2010  427 0443 59.2 L   6.787 -73.031135.2  RSN  7 0.6 2.1LRSN                1
 GAP=222        0.81       8.0    10.9  8.7 -0.2273E+02  0.2950E+02  0.4190E+01E
 Epicentro: CEPITA - SANTANDER                                                 3
 ACTION:UPD 10-08-24 10:01 OP:vdl  STATUS:               ID:20100427044410 L   I
 2010-04-27-0441-34S.COL___104                                                 6
 STAT SP IPHASW D HRMM SECON CODA AMPLIT PERI AZIMU VELO AIN AR TRES W  DIS CAZ7
 BAR2 SZ EP   1    444 17.89                             167     0.2 7   27 218 
 BAR2 SZ ES   1    444 31.59                             167    -0.5 7   27 218 
 BRR  HZ IP     C  444 20.11                             147     0.110   83 295 
 BRR  HE ES   2    444 36.84                             147     0.6 5   83 295 
 BRR  HZ I         444 38.25        20.1 0.14                            83 295 
 OCA  SZ EP   2    444 26.72                             127    -0.3 5  164 349 
 OCA  SZ I         444 53.60        17.5 0.14                           164 349 
 HEL  HZ EP   3    444 40.08                             112    -0.2 2  284 257 
 HEL  HN ES   2    445 11.04                             112    -1.2 4  284 257 
 HEL  HZ I         445 16.57         4.6 0.57                           284 257 
 RREF BZ EP   2    444 46.43                             108     0.5 3  331 231 
 RREF BN ES   2    445 23.50                             108     1.1 3  331 231 
 RREF BZ I         445 27.98         5.1 0.27                           331 231 
 TOL  SZ EP   2    444 48.15                             107     0.1 3  352 226 
 PRA  HZ EP   2    444 52.18                             104    -0.8 3  397 211 
 PRA  HE ES   2    445 35.25                             104     0.3 3  397 211 
 PRA  HZ I         445 40.28         4.9 0.24                           397 211 
                                                                                
