 2013  727 0811 50.9 L   6.762 -73.171147.0  RSN  5 0.3 1.2LRSN                1
 GAP=232        0.64       6.2     6.4  6.9  0.2269E+02  0.1776E+02  0.5487E+00E
 Epicentro: LOS SANTOS - SANTANDER                                             3
 ACTION:UPD 13-08-12 10:40 OP:ep   STATUS:               ID:20130727081150 L   I
 OLDACT:UP  13-07-27 11:50 OP:cam  STATUS:               ID:20130727080959     3
 OLDACT:UP  13-07-27 11:50 OP:cam  STATUS:               ID:20130727080959     3
 OLDACT:REG 13-07-27 08:49 OP:cam  STATUS:               ID:20130727080959     3
 2013-07-27-0809-59M.COL___268                                                 6
 STAT SP IPHASW D HRMM SECON CODA AMPLIT PERI AZIMU VELO AIN AR TRES W  DIS CAZ7
 BAR2 SZ ES        812 25.61                             172   -0.3310 18.8 184 
 BRR  HZ IP     C  812 12.04                             153   -0.1110 71.0 303 
 BRR  HN ES        812 29.12                             153    0.3810 71.0 303 
 BRR  HZ I         812 29.52         3.3 0.12            147           71.0 303 
 RUS  HN ES   1    812 33.15                             145    0.28 7 96.6 174 
 PTB  HZ EP   1    812 17.82                             133    0.19 7  144 260 
 PTB  HN ES   1    812 38.25                             133   -0.25 7  144 260 
 PTB  HZ I         812 45.39         2.2 0.16            128            144 260 
 ZAR  HE ES        812 48.51                             123   -0.10 9  203 294 
                                                                                
