 2012  627 0203 41.9 L   6.707 -73.151152.3  RSN  5 0.3 1.2LRSN                1
 GAP=230        0.65       7.1     7.5  8.5  0.2898E+02  0.2489E+02 -0.1201E+01E
 Epicentro: VILLANUEVA - SANTANDER                                             3
 ACTION:UPD 12-08-06 17:52 OP:ep   STATUS:               ID:20120627020341 L   I
 2012-06-27-0200-00M.COL___201                                                 6
 STAT SP IPHASW D HRMM SECON CODA AMPLIT PERI AZIMU VELO AIN AR TRES W  DIS CAZ7
 BAR2 SZ ES   1    2 4 17.40                             175   -0.57 7 13.2 195 
 BAR2 SZ I         2 4 20.52         4.3 0.36                          13.2 195 
 BRR  HZ EP   1    2 4  4.07                             152    0.03 7 76.2 306 
 BRR  HN ES   1    2 4 21.75                             152    0.44 7 76.2 306 
 RUS  HN ES   1    2 4 24.46                             148    0.35 7 90.4 175 
 RUS  HZ I         2 4 27.76         1.6 0.39                          90.4 175 
 PTB  HZ EP   1    2 4  9.08                             134   -0.13 7  146 263 
 PTB  HN ES   1    2 4 30.39                             134   -0.13 7  146 263 
 PTB  HZ I         2 4 33.71         2.6 0.16                           146 263 
 ZAR  HN ES   1    2 4 41.05                             123   -0.03 6  208 295 
                                                                                
