 2012  127 0045 18.3 L   6.784 -73.170139.4  RSN 13 0.4 2.6LRSN                1
 GAP=134        0.82       2.9     3.7  5.1 -0.2009E+01  0.6129E+01  0.2625E+01E
 Epicentro: LOS SANTOS - SANTANDER                                             3
 ACTION:UP  12-02-03 08:21 OP:REBC STATUS:               ID:20120127004518 L   I
 2012-01-27-0040-00M.COL___188                                                 6
 STAT SP IPHASW D HRMM SECON CODA AMPLIT PERI AZIMU VELO SNR AR TRES W  DIS CAZ7
 BAR2 SZ EP        045 37.15                             171     0.010   21 184 
 BAR2 SZ ES   1    045 51.64                             171    -0.2 7   21 184 
 BAR2 SZ I         045 55.85        58.6 0.36                            21 184 
 GIR2 SZ EP        045 37.21                             166    -0.110   33 356 
 BRR  HZ IP     C  045 38.99                             152     0.310   70 301 
 BRR  HZ I         045 40.58        98.9 0.18                            70 301 
 BRR  HN ES   1    045 55.42                             152     0.8 7   70 301 
 PAM  SZ EP        045 39.97                             149    -0.110   81  40 
 PAM  SN ES        045 56.98                             149     0.010   81  40 
 RUS  HZ EP   1    045 41.42                             143     0.1 7   99 174 
 RUS  HE ES   1    045 59.13                             143    -0.2 7   99 174 
 RUS  HZ I         046  1.60        34.1 0.31                            99 174 
 PTB  HZ EP        045 43.87                             131    -0.6 9  145 259 
 PTB  HE ES   1    046  4.60                             131    -0.3 7  145 259 
 OCA  SZ EP        045 46.16                             128    -0.1 9  162 354 
 OCA  SZ ES   1    046  8.09                             128     0.0 7  162 354 
 OCA  SZ I         046 13.01        62.1 0.21                           162 354 
 ZAR  HZ EP        045 49.71                             121    -0.5 9  202 293 
 ZAR  HN ES   1    046 15.51                             121     0.5 6  202 293 
 ZAR  HZ I         046 21.12        64.7 0.31                           202 293 
 NOR  SZ EP   1    045 53.64                             118     0.3 6  231 234 
 NOR  SE ES   1    046 20.34                             118    -0.3 6  231 234 
 CHI  HZ EP        045 55.68                             116     0.3 8  246 195 
 CHI  HN ES   1    046 24.71                             116     0.4 6  246 195 
 CHI  HZ I         046 32.15        14.3 0.38                           246 195 
 HEL  HZ EP   1    045 58.57                             114     0.7 6  269 256 
 HEL  HN ES   2    046 28.31                             114    -0.4 4  269 256 
 HEL  HZ I         046 36.74        21.1 0.33                           269 256 
 RREF HZ EP   1    046  4.33                             110     0.5 5  319 229 
 RREF HN ES   2    046 38.71                             110    -0.6 3  319 229 
 RREF HZ I         046 49.88        19.2 0.32                           319 229 
 PRA  HZ EP        046 11.39                             106     0.1 6  389 209 
 PRA  HE ES   1    046 52.75                             106     0.1 4  389 209 
                                                                                
