 2017 1127 0235 38.2 L   6.800 -73.231135.9  RSN  7 0.4 1.3LRSN                1
 GAP=122        0.94       3.1     3.9  6.6 -0.2397E+01  0.9128E+01 -0.3992E+01E
 Epicentro: ZAPATOCA - SANTANDER                                               3
 ACTION:UPD 17-12-12 20:00 OP:rebc STATUS:               ID:20171127023538 L   I
 OLDACT:REG 17-11-27 12:09 OP:dhb  STATUS:               ID:20171127022740     3
 2017-11-27-0228-00M.COL___495                                                 6
 STAT SP IPHASW D HRMM SECON CODA AMPLIT PERI AZIMU VELO AIN AR TRES W  DIS CAZ7
 BAR2 EZ EP        235 56.48                             170   -0.1410 23.6 167 
 BAR2 EZ ES        236 10.77                             170   -0.2410 23.6 167 
 BAR2 EZ I         236 12.53         7.2 0.48            172           23.6 167 
 PAM  EZ EP        235 59.58                             147   -0.1710 83.7  44 
 PAM  EE ES        236 16.68                             147    0.0910 83.7  44 
 PAM  EZ I         236 18.40         3.3 0.46            152           83.7  44 
 RUS  HZ EP        236  0.78                             141   -0.2610  102 171 
 RUS  HN ES        236 19.31                             141    0.4310  102 171 
 RUS  HZ I         236 20.12         1.5 0.18            147            102 171 
 PTB  HZ EP        236  2.64                             132   -0.85 9  138 258 
 PTB  HN ES        236 22.88                             132   -0.36 9  138 258 
 PTB  HZ I         236 29.46         1.9 0.44            132            138 258 
 SPBC HZ EP        236  5.81                             128    0.45 9  157 216 
 SPBC HE ES        236 26.83                             128    0.25 9  157 216 
 SPBC HZ I         236 29.53         2.8 0.12            130            157 216 
 OCA  HZ EP        236  5.99                             127    0.34 9  159 357 
 OCA  HE ES        236 27.09                             127    0.00 9  159 357 
 OCA  HZ I         236 30.30         6.9 0.18            130            159 357 
 ZAR  HZ EP        236  9.21                             121    0.13 9  195 293 
 ZAR  HE ES        236 33.71                             121    0.53 9  195 293 
 ZAR  HZ I         236 40.93         1.9 0.16            123            195 293 
                                                                                
