 2017  327 0855 56.8 L   7.359 -73.179132.1  RSN  4 0.2 0.9LRSN                1
 GAP=208        0.46       5.9     4.4  6.5 -0.1578E+02  0.2015E+02 -0.1520E+02E
 Epicentro: RIONEGRO - SANTANDER                                               3
 ACTION:UPD 17-05-25 18:45 OP:jn   STATUS:               ID:20170327085556 L   I
 OLDACT:REG 17-03-27 13:29 OP:and  STATUS:               ID:20170327083922     3
 2017-03-27-0848-00M.COL___348                                                 6
 STAT SP IPHASW D HRMM SECON CODA AMPLIT PERI AZIMU VELO AIN AR TRES W  DIS CAZ7
 PAM  EZ EP   2    856 16.74                             157    0.50 5 53.0  92 
 PAM  EN ES        856 31.37                             157   -0.0110 53.0  92 
 PAM  EZ I         856 32.96         1.8 0.28            161           53.0  92 
 BRR  HZ EP   2    856 15.71                             152   -0.45 5 65.1 245 
 BRR  HN ES   2    856 31.22                             152   -0.01 5 65.1 245 
 BAR2 EZ EP   4    856 20.23                             146    2.48 0 84.8 180 
 BAR2 EZ ES        856 33.99                             146   -0.0710 84.8 180 
 PTB  HZ EP        856 24.58                             125   -0.09 9  168 237 
 PTB  HN ES        856 46.56                             125    0.18 9  168 237 
 PTB  HZ I         856 48.83         0.8 0.38            127            168 237 
                                                                                
