 2015  327 0217 17.2 L   6.779 -73.077142.3  RSN  6 0.3 1.2LRSN                1
 GAP=147        0.77       3.7     4.0  6.5 -0.3061E+01  0.3055E+01  0.3004E+01E
 Epicentro: LOS SANTOS - SANTANDER                                             3
 ACTION:UPD 15-04-30 16:29 OP:nd   STATUS:               ID:20150327021717 L   I
 OLDACT:DUP 15-03-27 14:12 OP:fm   STATUS:               ID:20150327020745d    3
 2015-03-27-0207-44M.COL___278                                                 6
 STAT SP IPHASW D HRMM SECON CODA AMPLIT PERI AZIMU VELO AIN AR TRES W  DIS CAZ7
 BAR2 EZ EP        217 36.37                             170   -0.0610 23.7 209 
 BAR2 EZ ES   1    217 51.42                             170   -0.00 7 23.7 209 
 BAR2 EZ I         217 52.54         2.7 0.16            171           23.7 209 
 PAM  SZ EP   1    217 39.30                             151    0.40 7 74.7  34 
 PAM  SN ES        217 55.45                             151   -0.3610 74.7  34 
 BRR  HZ EP        217 38.38                             149   -0.0710 79.0 297 
 BRR  HN ES        217 55.58                             149    0.5610 79.0 297 
 BRR  HZ I         217 58.09         6.7 0.46            150           79.0 297 
 RUS  HZ EP        217 40.66                             144    0.2310 98.0 180 
 RUS  HN ES        217 58.42                             144   -0.1210 98.0 180 
 RUS  HZ I         217 59.64         1.2 0.42            146           98.0 180 
 PTB  HZ EP   1    217 44.25                             130   -0.30 7  155 260 
 PTB  HN ES        218  5.41                             130   -0.46 9  155 260 
 PTB  HZ I         218  6.12         2.0 0.26            131            155 260 
 SPBC HN ES        218  8.17                             128    0.17 9  166 222 
                                                                                
