 2010 1227 0416  2.3 L   6.339 -73.655102.0  RSN  7 0.4 2.0LRSN                1
 GAP=123        0.82       4.0     3.8  8.4 -0.5381E+01  0.1561E+02 -0.2536E+01E
 Epicentro: SANTA HELENA DEL OPON - SANTANDER                                  3
 ACTION:UP  11-01-14 15:27 OP:pat  STATUS:               ID:20101227041602 L   I
 2010-12-27-0412-47S.COL___132                                                 6
 STAT SP IPHASW D HRMM SECON CODA AMPLIT PERI AZIMU VELO SNR AR TRES W  DIS CAZ7
 BAR2 SZ EP        416 18.28                             148    -0.110   59  62 
 BAR2 SZ ES   1    416 30.84                             148    -0.1 7   59  62 
 BAR2 SZ I         416 32.36        75.5 0.51                            59  62 
 RUS  HZ EP   1    416 20.15                             139    -0.1 7   80 128 
 RUS  HE ES   1    416 34.22                             139    -0.1 7   80 128 
 RUS  HZ I         416 36.08         7.9 0.31                            80 128 
 NOR  SZ EP   1    416 26.63                             117    -0.8 7  160 238 
 NOR  SN ES   1    416 47.63                             117     0.6 7  160 238 
 YOP  SZ EP   2    416 28.95                             115    -0.2 4  175 129 
 YOP  SN ES   2    416 50.88                             115     0.8 4  175 129 
 YOP  SZ I         416 53.58        14.0 0.25                           175 129 
 GRA  SZ EP   1    416 32.01                             112     0.6 6  195  29 
 GRA  SZ ES   1    416 54.33                             112     0.1 6  195  29 
 GRA  SZ I         417  3.15         9.2 0.29                           195  29 
 HEL  HZ EP   1    416 33.14                             110    -0.1 6  208 266 
 HEL  HN ES   1    416 57.36                             110     0.0 6  208 266 
 HEL  HZ I         417  0.82         8.5 0.27                           208 266 
 PRA  HZ EP   1    416 45.60                             101    -0.5 5  321 205 
 PRA  HN ES   1    417 20.63                             101     0.4 5  321 205 
 PRA  HZ I         417 28.21        11.5 0.19                           321 205 
                                                                                
