 2016 1227 0713 37.6 L   6.864 -73.108122.4  RSN  4 0.5 0.9LRSN                1
 GAP=138        1.16       5.9     6.5 10.7 -0.1667E+01  0.1217E+02  0.1530E+02E
 Epicentro: LOS SANTOS - SANTANDER                                             3
 ACTION:UPD 17-01-11 20:19 OP:rebc STATUS:               ID:20161227071337 L   I
 OLDACT:UP  16-12-27 18:24 OP:edw  STATUS:               ID:20161227070644     3
 OLDACT:REG 16-12-27 13:31 OP:edw  STATUS:               ID:20161227070644     3
 2016-12-27-0707-00M.COL___366                                                 6
 STAT SP IPHASW D HRMM SECON CODA AMPLIT PERI AZIMU VELO AIN AR TRES W  DIS CAZ7
 PAM  EZ EP        713 57.60                             149    0.7410 69.2  41 
 PAM  EE ES        714 11.25                             149   -0.6310 69.2  41 
 PAM  EZ I         714 11.94         3.3 0.46            152           69.2  41 
 BRR  HZ EP        713 56.63                             147    0.2910 72.0 292 
 BRR  HN ES        714 11.13                             147    0.1910 72.0 292 
 RUS  HZ EP        713 59.47                             136   -0.2510  108 179 
 RUS  HN ES        714 17.17                             136    0.2110  108 179 
 RUS  HZ I         714 19.15         1.1 0.58            136            108 179 
 PTB  HZ EP        714  2.68                             125   -0.66 9  153 257 
 PTB  HN ES   2    714 23.45                             125    0.04 5  153 257 
 PTB  HZ I         714 25.35         0.7 0.13            126            153 257 
                                                                                
