 2011  327 0656 35.6 L   6.790 -73.059139.9  RSN  6 0.3 2.1LRSN                1
 GAP=221        0.68       4.9    12.0  6.7  0.2404E+01 -0.1420E+01 -0.1229E+02E
 Epicentro: LOS SANTOS - SANTANDER                                             3
 ACTION:UP  11-06-16 14:35 OP:jfem STATUS:               ID:20110327065636 L   I
 2011-03-27-0640-00M.COL___140                                                 6
 STAT SP IPHASW D HRMM SECON CODA AMPLIT PERI AZIMU VELO SNR AR TRES W  DIS CAZ7
 BAR2 SZ EP        656 54.62                             169     0.110   26 212 
 BAR2 SZ ES        657  9.22                             169    -0.110   26 212 
 BAR2 SZ I         657 10.29        23.0 0.41                            26 212 
 BTL  SZ EP        656 54.60                             169     0.010   27 302 
 BRR  HZ IP        656 56.56                             148    -0.110   80 296 
 BRR  HZ I         656 56.91        27.6 0.11                            80 296 
 BRR  HN ES   2    657 13.50                             148     0.4 5   80 296 
 OCA  SZ EP        657  4.04                             127     0.4 9  163 350 
 OCA  SZ ES   1    657 25.04                             127    -0.5 7  163 350 
 OCA  SZ I         657 29.29         7.7 0.21                           163 350 
 RREF HE ES   3    657 58.58                             109     0.0 2  328 231 
 PRA  HZ EP   2    657 28.62                             105    -0.7 3  396 211 
 PRA  HZ I         658 15.75         5.0 0.19                           396 211 
                                                                                
