 2015 1227 0946 52.8 L   6.647 -73.194133.2  RSN  4 0.1 1.3LRSN                1
 GAP=216        0.29       5.1     3.7  2.7  0.1244E+02  0.3143E+01  0.8996E+00E
 Epicentro: VILLANUEVA - SANTANDER                                             3
 ACTION:UPD 16-02-04 15:08 OP:cam  STATUS:               ID:20151227094652 L   I
 OLDACT:REG 15-12-27 13:01 OP:dnl  STATUS:               ID:20151227093736     3
 2015-12-27-0937-36M.COL___331                                                 6
 STAT SP IPHASW D HRMM SECON CODA AMPLIT PERI AZIMU VELO AIN AR TRES W  DIS CAZ7
 BAR2 EZ EP        947 10.60                             177   -0.0410 6.22 168 
 BAR2 EZ ES        947 24.63                             177    0.0410 6.22 168 
 BAR2 EZ I         947 26.80         3.4 0.13            176           6.22 168 
 BRR  HZ EP   2    947 12.80                             148   -0.10 5 76.6 312 
 BRR  HN ES        947 28.60                             148   -0.0110 76.6 312 
 BRR  HZ I         947 30.82         5.9 0.35            145           76.6 312 
 PTB  HE ES   2    947 37.69                             131   -0.03 5  140 265 
 PTB  HZ I         947 38.90         2.4 0.12            130            140 265 
 ZAR  HZ EP        947 24.74                             119    0.09 8  206 297 
 ZAR  HN ES   2    947 49.46                             119   -0.06 4  206 297 
 ZAR  HZ I         947 55.16         2.0 0.19            119            206 297 
                                                                                
