 2017  327 0644  4.3 L   6.796 -73.120144.5  RSN 16 0.4 2.1LRSN                1
 GAP=140        0.76       2.4     2.9  3.7 -0.9847E+00  0.3520E+01  0.1248E+01E
 Epicentro: LOS SANTOS - SANTANDER                                             3
 ACTION:UPD 17-05-25 18:45 OP:jn   STATUS:               ID:20170327064404 L   I
 OLDACT:UP  17-03-27 17:54 OP:and  STATUS:               ID:20170327063746d    3
 OLDACT:UP  17-03-27 17:53 OP:and  STATUS:               ID:20170327063746d    3
 OLDACT:UP  17-03-27 17:53 OP:and  STATUS:               ID:20170327063746d    3
 OLDACT:UP  17-03-27 17:49 OP:and  STATUS:               ID:20170327063746d    3
 OLDACT:UP  17-03-27 17:49 OP:and  STATUS:               ID:20170327063746d    3
 OLDACT:UP  17-03-27 17:48 OP:and  STATUS:               ID:20170327063746d    3
 OLDACT:UP  17-03-27 17:47 OP:and  STATUS:               ID:20170327063746d    3
 OLDACT:DUP 17-03-27 17:45 OP:and  STATUS:               ID:20170327063746d    3
 2017-03-27-0638-00M.COL___348                                                 6
 STAT SP IPHASW D HRMM SECON CODA AMPLIT PERI AZIMU VELO AIN AR TRES W  DIS CAZ7
 BAR2 EZ EP        644 23.63                             170   -0.1610 23.5 197 
 BAR2 EZ ES        644 38.59                             170   -0.4010 23.5 197 
 BAR2 EZ I         644 39.70        33.7 0.32            169           23.5 197 
 BRR  HZ EP        644 25.49                             151    0.0110 74.0 298 
 BRR  HN ES        644 42.53                             151    0.5410 74.0 298 
 BRR  HZ I         644 43.81        14.5 0.15            149           74.0 298 
 PAM  EZ EP        644 26.43                             151    0.1310 76.0  38 
 PAM  EN ES        644 43.54                             151    0.0810 76.0  38 
 PAM  EZ I         644 45.82        33.8 0.52            153           76.0  38 
 RUS  HZ EP        644 27.84                             144   -0.0510 99.9 178 
 RUS  HN ES        644 46.54                             144    0.2610 99.9 178 
 RUS  HZ I         644 47.91        13.4 0.44            145           99.9 178 
 PTB  HZ EP   9    644 30.35                             131   -1.07 0  150 259 
 PTB  HN ES        644 51.47                             132   -0.03 9  150 259 
 PTB  HZ I         644 54.31        12.5 0.15            130            150 259 
 SPBC HZ EP        644 32.69                             128   -0.16 9  165 220 
 SPBC HN ES        644 54.81                             128   -0.30 9  165 220 
 SPBC HZ I         644 57.94        22.2 0.19            128            165 220 
 ZAR  HZ EP        644 37.51                             122    0.54 8  207 292 
 ZAR  HN ES        645  1.76                             122   -0.68 8  207 292 
 ZAR  HZ I         645  8.59        14.3 0.10            121            207 292 
 CHI  HN ES        645 11.29                             117   -0.05 8  249 196 
 HEL  HZ EP   2    644 45.12                             114    0.37 4  275 256 
 HEL  HN ES        645 16.00                             114   -0.30 8  275 256 
 HEL  HZ I         645 21.71         7.4 0.28            114            275 256 
 URE  HZ EP   4    644 43.44                             113   -2.19 0  287 292 
 ELA  HZ EP   4    644 54.48                             110    3.16 0  331 230 
 ELA  HN ES   4    645 30.17                             110    2.18 0  331 230 
 CBOC HZ EP        644 51.80                             109    0.33 7  336 252 
 CBOC HN ES        645 28.43                             109    0.18 7  336 252 
 CBOC HZ I         645 33.20         2.0 0.42            109            336 252 
 ARGC HZ EP        644 53.73                             108   -0.35 6  361 340 
 ARGC HN ES   4    645 35.31                             108    2.41 0  361 340 
 PRA  HZ EP        644 58.04                             106    0.14 6  393 210 
 PRA  HN ES        645 39.16                             106   -0.55 6  393 210 
 PRA  HZ I         645 45.59         6.5 0.24            107            393 210 
 ORTC HZ EP        644 58.17                             106   -0.17 6  397 217 
 ORTC HN ES        645 41.31                             106    0.83 6  397 217 
 ORTC HZ I         645 45.02         4.9 0.20            106            397 217 
 PAL  HZ EP        644 59.20                             105   -0.49 6  408 239 
 PAL  HN ES        645 43.53                             105    0.65 6  408 239 
 PAL  HZ I         645 47.47         2.1 0.26            106            408 239 
 SJC  HZ EP   4    644 57.87                             105   -2.19 0  411 327 
 SJC  HN ES   4    645 38.86                             105   -4.69 0  411 327 
 SJC  HZ I         645 43.76         1.9 0.15            106            411 327 
 CRJC HZ EP   9    645  4.09                             103   -2.72 0  468   3 
 CRJC HN ES        645 53.01                             103    0.17 5  468   3 
 CRJC HZ I         645 58.98         3.7 0.29            104            468   3 
 YOT  HZ EP   4    645  8.56                             103    1.02 0  474 229 
 URI  HZ EP   4    645 14.31                             100   -2.95 0  557  13 
 URI  HN ES   4    646 12.16                             100   -2.01 0  557  13 
                                                                                
