 2010  927 0039 43.5 L   6.790 -73.109145.7  RSN  7 0.3 1.9LRSN                1
 GAP=163        0.72       3.3     5.9  6.4 -0.1834E+01 -0.5314E+01 -0.2379E+01E
 Epicentro: LOS SANTOS - SANTANDER                                             3
 ACTION:UP  11-02-18 11:05 OP:tino STATUS:               ID:20100927003943 L   I
 2010-09-27-0039-18S.COL___122                                                 6
 STAT SP IPHASW D HRMM SECON CODA AMPLIT PERI AZIMU VELO SNR AR TRES W  DIS CAZ7
 BTL  SZ EP        040  3.31                             171     0.210   23 309 
 BAR2 SZ EP        040  3.03                             170    -0.110   23 201 
 BAR2 SZ ES   2    040 17.64                             170    -0.8 5   23 201 
 BAR2 SZ I         040 20.57        16.6 0.38                            23 201 
 BRR  HZ EP        040  4.89                             151     0.010   75 298 
 BRR  HN ES        040 21.82                             151     0.210   75 298 
 BRR  HZ I         040 25.94        20.0 0.14                            75 298 
 RUS  HZ EP        040  7.49                             144     0.310   99 178 
 RUS  HN ES        040 25.58                             144    -0.110   99 178 
 RUS  HZ I         040 27.15        10.7 0.39                            99 178 
 GRA  SZ EP        040  8.81                             137     0.010  126  16 
 GRA  SZ ES   1    040 28.48                             137     0.0 7  126  16 
 GRA  SZ I         040 29.56        13.2 0.20                           126  16 
 OCA  SZ EP   1    040 11.52                             129    -0.5 7  162 352 
 OCA  SZ I         040 37.90        10.4 0.91                           162 352 
 RREF HN ES   1    041  5.90                             111    -0.3 5  324 230 
 RREF HZ I         041 14.67         2.1 0.24                           324 230 
                                                                                
