 2011  427 0559 58.2 L   6.783 -73.136149.8  RSN  7 0.3 2.1LRSN                1
 GAP=133        0.63       4.2     4.6  6.4  0.4658E+01  0.5175E+01 -0.2028E+01E
 Epicentro: LOS SANTOS - SANTANDER                                             3
 ACTION:UP  11-06-22 15:33 OP:REBC STATUS:               ID:20110427055958 L   I
 2011-04-27-0600-00M.COL___137                                                 6
 STAT SP IPHASW D HRMM SECON CODA AMPLIT PERI AZIMU VELO SNR AR TRES W  DIS CAZ7
 BAR2 SZ EP   1    6 0 18.02                             171    -0.2 7   22 194 
 BAR2 SZ I         6 0 18.20        37.2 0.20                            22 194 
 BAR2 SZ ES   2    6 0 33.67                             171    -0.2 5   22 194 
 BRR  HZ EP   1    6 0 19.90                             153     0.0 7   73 299 
 BRR  HZ I         6 0 20.20       100.7 0.17                            73 299 
 BRR  HE ES   2    6 0 37.25                             153     0.5 5   73 299 
 RUS  HZ EP   1    6 0 21.89                             145    -0.3 7   99 177 
 RUS  HN ES   1    6 0 40.70                             145    -0.2 7   99 177 
 RUS  HZ I         6 0 41.90        22.0 0.27                            99 177 
 BRI  SZ EP   1    6 0 22.59                             142     0.0 7  110  20 
 BRI  SZ I         6 0 23.26        13.3 0.06                           110  20 
 YOP  SZ EP   1    6 0 28.48                             127     0.2 7  177 153 
 YOP  SN ES   1    6 0 52.27                             127     0.5 7  177 153 
 YOP  SZ I         6 0 53.61        10.2 0.47                           177 153 
 NOR  SZ EP   1    6 0 34.15                             119     0.0 6  234 235 
 NOR  SN ES   2    6 1  1.76                             119    -0.4 4  234 235 
 NOR  SZ I         6 1  4.28         2.4 0.24                           234 235 
 HEL  HZ EP   1    6 0 38.48                             115    -0.2 6  273 256 
 HEL  HN ES   2    6 1 11.03                             115     0.8 4  273 256 
 HEL  HZ I         6 1 16.39         8.6 0.38                           273 256 
                                                                                
