 2017  727 0129 57.0 L   6.804 -73.114152.0  RSN  9 0.5 1.4LRSN                1
 GAP=122        0.72       3.9     3.4  6.1  0.1766E+00  0.3885E+01  0.1667E+01E
 Epicentro: LOS SANTOS - SANTANDER                                             3
 ACTION:UPD 17-08-30 15:37 OP:rebc STATUS:               ID:20170727012957 L   I
 OLDACT:UP  17-07-27 13:24 OP:and  STATUS:               ID:20170727012742d    3
 OLDACT:UP  17-07-27 13:23 OP:and  STATUS:               ID:20170727012742d    3
 OLDACT:UP  17-07-27 13:21 OP:and  STATUS:               ID:20170727012742d    3
 OLDACT:DUP 17-07-27 13:19 OP:and  STATUS:               ID:20170727012742d    3
 2017-07-27-0128-00M.COL___380                                                 6
 STAT SP IPHASW D HRMM SECON CODA AMPLIT PERI AZIMU VELO AIN AR TRES W  DIS CAZ7
 BAR2 EZ EP   2    130 17.30                             170   -0.13 5 24.6 198 
 BAR2 EZ ES   3    130 32.07                             170   -1.27 2 24.6 198 
 BAR2 EZ I         130 33.80         4.7 0.14            170           24.6 198 
 BRR  HZ EP        130 19.06                             153    0.0610 74.1 297 
 BRR  HN ES        130 36.32                             153    0.1710 74.1 297 
 PAM  EZ IP     C  130 19.95                             153    0.1910 74.8  38 
 PAM  EN ES        130 37.32                             153   -0.1710 74.8  38 
 PAM  EZ I         130 39.00         5.2 0.50            154           74.8  38 
 RUS  HZ EP   2    130 22.14                             145    0.73 5  101 178 
 RUS  HN ES        130 40.58                             145    0.1410  101 178 
 RUS  HZ I         130 41.85         3.0 0.42            147            101 178 
 PTB  HZ EP        130 24.24                             133   -0.58 9  151 259 
 PTB  HN ES        130 46.33                             133   -0.17 9  151 259 
 PTB  HZ I         130 48.98         2.5 0.11            133            151 259 
 ZAR  HN ES        130 56.30                             123    0.24 8  207 292 
 ZAR  HZ I         131  1.23         4.2 0.44            123            207 292 
 NOR  HN ES   3    131  2.30                             120    0.43 2  238 235 
 GUY2CHZ EP   4    130 44.15                             113    2.88 0  304 235 
 GUY2CHN ES   3    131 18.07                             113    2.28 2  304 235 
 GUY2CHZ I         131 24.33         1.5 0.56                           304 235 
 PTGC HZ EP   2    130 40.40                             113   -0.67 4  308 159 
                                                                                
