 2011  827 0755 22.9 L   6.768 -73.313119.6  RSN  9 0.4 1.8LRSN                1
 GAP=122        0.74       3.0     4.5  5.5 -0.1422E+01  0.9677E+01  0.2831E+01E
 Epicentro: ZAPATOCA - SANTANDER                                               3
 ACTION:UPD 12-07-13 15:54 OP:ep   STATUS:               ID:20110827075522 L   I
 2011-08-27-0754-07S.COL___161                                                 6
 STAT SP IPHASW D HRMM SECON CODA AMPLIT PERI AZIMU VELO AIN AR TRES W  DIS CAZ7
 BAR2 SZ EP        755 39.64                             168    0.2210 24.2 143 
 BAR2 SZ ES   1    755 52.07                             168   -0.23 7 24.2 143 
 BAR2 SZ I         755 53.87        28.9 0.23                          24.2 143 
 GIR2 SZ EP        755 39.85                             162    0.1710 36.9  21 
 GIR2 SZ ES   2    755 52.88                             162    0.11 5 36.9  21 
 BRR  HZ EP        755 40.47                             152    0.0010 57.9 310 
 BRR  HZ I         755 40.74        19.8 0.11                          57.9 310 
 BRR  HN ES   1    755 54.75                             152    0.58 7 57.9 310 
 RUS  HZ EP   1    755 43.96                             138   -0.18 7  100 165 
 RUS  HN ES   1    756  0.54                             138   -0.17 7  100 165 
 RUS  HZ I         756  3.07         4.6 0.30                           100 165 
 OCA  SZ EP   1    755 49.07                             123   -0.50 7  163 360 
 OCA  SZ ES   1    756  9.96                             123   -0.41 7  163 360 
 OCA  SZ I         756 15.31        11.2 0.15                           163 360 
 NOR  SZ EP   1    755 55.10                             114   -0.25 6  218 232 
 NOR  SN ES   1    756 20.18                             114   -0.48 6  218 232 
 CHI  HZ EP   1    755 58.36                             112   -0.06 6  241 191 
 CHI  HZ I         756  0.60         1.9 0.18                           241 191 
 HEL  HZ EP   1    756  0.70                             111    0.94 6  253 256 
 HEL  HN ES   1    756 27.94                             111   -0.57 6  253 256 
 HEL  HZ I         756 33.90         3.6 0.31                           253 256 
 PRA  HZ EP   1    756 15.02                             102    0.81 5  380 207 
 PRA  HN ES   1    756 54.29                             102    0.06 5  380 207 
 PRA  HZ I         757  2.28         6.4 0.28                           380 207 
                                                                                
