 2017 1027 0549 43.6 L   6.640 -74.154 25.1  RSN  5 0.3 0.8LRSN                1
 GAP=127        0.81       2.6     2.2  4.1  0.1322E+00 -0.5223E+01 -0.7241E+00E
 Epicentro: PUERTO PARRA - SANTANDER                                           3
 ACTION:UPD 17-11-07 19:37 OP:rebc STATUS:               ID:20171027054943 L   I
 OLDACT:UP  17-10-27 16:21 OP:dani STATUS:               ID:20171027054741     3
 OLDACT:UP  17-10-27 16:21 OP:dani STATUS:               ID:20171027054741     3
 OLDACT:UP  17-10-27 16:20 OP:dani STATUS:               ID:20171027054741     3
 OLDACT:REG 17-10-27 12:53 OP:dani STATUS:               ID:20171027054741     3
 2017-10-27-0548-00M.COL___444                                                 6
 STAT SP IPHASW D HRMM SECON CODA AMPLIT PERI AZIMU VELO AIN AR TRES W  DIS CAZ7
 PTB  HZ EP        549 50.38                             118   -0.1810 35.3 252 
 PTB  HN ES        549 55.90                             118   -0.0610 35.3 252 
 PTB  HZ I         549 56.24        12.2 0.14            123           35.3 252 
 BRR  HZ EP        549 55.49                              91    0.0210 71.1  43 
 BRR  HE ES        550  4.89                              91    0.1810 71.1  43 
 BRR  HZ I         550  5.40         2.1 0.12            107           71.1  43 
 BAR2 EZ EP        550  0.68                              61   -0.1210  108  93 
 BAR2 EZ ES        550 13.58                              61   -0.6210  108  93 
 BAR2 EZ I         550 16.77         2.4 0.42             56            108  93 
 ZAR  HN ES        550 17.03                              61    0.0510  122 320 
 RUS  HZ EP        550  6.30                              61    0.58 9  144 125 
 RUS  HN ES        550 23.18                              61    0.23 9  144 125 
 RUS  HZ I         550 24.78         1.2 0.24             56            144 125 
                                                                                
