 2010  327 0049 21.3 L   6.796 -73.022146.0  RSN  8 0.5 2.4LRSN                1
 GAP=250        0.79       6.2     9.9  8.6  0.8213E+01  0.3234E+02  0.1832E+02E
 Epicentro: CEPITA - SANTANDER                                                 3
 ACTION:UP  10-08-24 09:56 OP:vdl  STATUS:               ID:20100327004921 L   I
 2010-03-27-0045-06S.COL___098                                                 6
 STAT SP IPHASW D HRMM SECON CODA AMPLIT PERI AZIMU VELO SNR AR TRES W  DIS CAZ7
 BAR2 SZ EP   1    049 41.12                             168     0.0 7   29 218 
 BAR2 SZ ES   2    049 56.33                             168    -0.2 5   29 218 
 BRR  HZ IP        049 43.10                             148    -0.210   84 294 
 BRR  HE ES   2    050  0.28                             148    -0.1 5   84 294 
 BRR  HZ I         050  2.48        35.8 0.17                            84 294 
 RUS  HZ EP   1    049 45.12                             144     0.0 7  100 184 
 RUS  HE ES   2    050  4.21                             144     0.6 5  100 184 
 RUS  HZ I         050  5.09        29.4 0.27                           100 184 
 CHI  HZ EP   1    049 59.26                             117    -0.2 6  252 198 
 CHI  HZ I         049 59.92        11.5 0.36                           252 198 
 CHI  HE ES   2    050 28.69                             117    -0.5 4  252 198 
 HEL  HZ EP   1    050  3.44                             113     0.4 6  285 257 
 RREF BZ EP   1    050  9.74                             110     1.1 5  332 231 
 RREF BE ES   2    050 44.55                             110    -1.0 3  332 231 
 RREF BZ I         050 53.35        12.2 0.38                           332 231 
 TOL  SZ EP   1    050 11.08                             109     0.4 5  353 226 
 TOL  SZ ES   2    050 49.50                             109     0.3 3  353 226 
 PRA  HZ EP   1    050 14.51                             106    -1.1 4  399 211 
 PRA  HN ES   2    050 58.23                             106     0.2 3  399 211 
 PRA  HZ I         051  3.14        11.1 0.50                           399 211 
                                                                                
