 2016  127 0444 48.6 L   6.797 -73.154139.4  RSN 11 0.5 1.7LRSN                1
 GAP=136        1.14       3.0     5.0  6.4 -0.5112E+01  0.1224E+02 -0.7311E+00E
 Epicentro: LOS SANTOS - SANTANDER                                             3
 ACTION:UPD 16-03-09 23:28 OP:cam  STATUS:               ID:20160127044448 L   I
 OLDACT:REG 16-01-27 15:59 OP:ak   STATUS:               ID:20160127043740     3
 2016-01-27-0437-40M.COL___328                                                 6
 STAT SP IPHASW D HRMM SECON CODA AMPLIT PERI AZIMU VELO AIN AR TRES W  DIS CAZ7
 BAR2 EZ EP        445  7.78                             170    0.3410 22.9 188 
 BAR2 EZ ES        445 21.51                             170   -0.6310 22.9 188 
 BAR2 EZ I         445 24.35        21.4 0.27            171           22.9 188 
 PAM  EZ EP        445 10.58                             149    0.4110 78.2  40 
 PAM  EN ES        445 27.68                             149    0.6610 78.2  40 
 PAM  EZ I         445 29.98         7.1 0.42            152           78.2  40 
 RUS  HZ EP        445 11.07                             142   -0.6210  100 176 
 RUS  HN ES        445 29.79                             142    0.0710  100 176 
 RUS  HZ I         445 31.45         3.9 0.42            145            100 176 
 PTB  HZ EP        445 14.78                             131   -0.17 9  147 259 
 PTB  HN ES        445 35.30                             131   -0.22 9  147 259 
 PTB  HZ I         445 37.37         4.6 0.24            131            147 259 
 OCA  HZ EP        445 16.66                             128    0.23 9  160 353 
 OCA  HN ES        445 37.63                             128   -0.51 9  160 353 
 OCA  HZ I         445 44.66        10.2 0.52            129            160 353 
 SPBC HZ EP        445 16.74                             128    0.22 9  162 219 
 SPBC HN ES        445 38.88                             128    0.57 9  162 219 
 SPBC HZ I         445 43.22        11.6 0.05            129            162 219 
 NOR  HZ EP        445 23.80                             117   -0.05 8  234 234 
 NOR  HN ES        445 50.96                             117   -0.40 8  234 234 
 NOR  HZ I         445 57.79         2.7 0.14            118            234 234 
 SML  HZ EP        445 24.03                             116   -0.82 8  244 336 
 SML  HN ES        445 53.38                             116    0.24 8  244 336 
 SML  HZ I         446  1.33         5.6 0.06            117            244 336 
 CHI  HZ EP        445 25.42                             116   -0.45 8  248 195 
 CHI  HN ES        445 54.77                             116   -0.19 8  248 195 
 CHI  HZ I         445 59.43         3.1 0.80            118            248 195 
 GUY2CHZ EP        445 32.66                             111    0.86 7  300 235 
 GUY2CHN ES        446  6.44                             111    0.93 7  300 235 
 GUY2CHZ I         446 10.79         1.8 0.28                           300 235 
 PRA  HZ EP        445 41.88                             105    0.08 6  391 209 
 PRA  HN ES        446 22.77                             105   -0.55 6  391 209 
 PRA  HZ I         446 31.99         2.0 0.34            107            391 209 
                                                                                
