 2012 1127 0813 52.3 L   6.560 -73.588104.4  RSN 10 0.5 2.0LRSN                1
 GAP= 57        1.14       3.0     3.8  7.9  0.3280E+00  0.1153E+02 -0.1602E+01E
 Epicentro: EL CARMEN DE CHUCURI - SANTANDER                                   3
 ACTION:UPD 12-12-05 15:36 OP:}ep  STATUS:               ID:20121127081352 L   I
 2012-11-27-0810-00M.COL___234                                                 6
 STAT SP IPHASW D HRMM SECON CODA AMPLIT PERI AZIMU VELO AIN AR TRES W  DIS CAZ7
 BAR2 SZ IP        814  8.00                             155    0.1410 45.0  85 
 BAR2 SZ I         814  8.16        73.7 0.24                          45.0  85 
 BAR2 SZ ES        814 20.31                             155    0.3210 45.0  85 
 GIR2 SZ EP        814  9.43                             142   -0.0110 72.1  37 
 RUS  HZ EP        814 11.05                             135   -0.5110 92.5 143 
 RUS  HN ES        814 26.69                             135    0.1110 92.5 143 
 RUS  HN I         814 30.05         7.6 0.40                          92.5 143 
 PTB  HZ IP     C  814 10.82                             134   -0.3910 96.0 269 
 PTB  HN ES        814 25.37                             134   -0.6010 96.0 269 
 PTB  HN I         814 31.80        17.7 0.24                          96.0 269 
 ZAR  HZ EP        814 20.08                             116    0.98 9  174 306 
 ZAR  HN ES   1    814 40.83                             116    0.83 7  174 306 
 ZAR  HN I         814 45.99        16.1 0.32                           174 306 
 OCA  HZ EP   1    814 19.93                             114   -0.89 7  188   9 
 OCA  HN ES        814 42.92                             114   -0.15 9  188   9 
 OCA  HN I         814 49.15        38.6 0.32                           188   9 
 CHI  HZ EP   1    814 23.89                             110   -0.20 6  214 184 
 CHI  HN ES        814 49.67                             110    0.79 8  214 184 
 CHI  HN I         814 56.35         4.4 0.68                           214 184 
 HEL  HZ EP   1    814 24.89                             110    0.34 6  219 259 
 HEL  HE ES        814 49.48                             110   -0.22 8  219 259 
 SML  HN ES        814 56.12                             106    0.03 8  254 348 
 SML  HN I         815  3.92        24.8 0.10                           254 348 
 PRA  HN ES        815 15.30                             100   -0.45 6  346 205 
 PRA  HN I         815 19.80         1.7 0.18                           346 205 
                                                                                
