 2017  127 0943 19.9 L   6.701 -73.214133.4  RSN  4 0.4 1.0LRSN                1
 GAP=228        0.96       9.1     7.6  9.8  0.3565E+02  0.2443E+02 -0.2542E+02E
 Epicentro: VILLANUEVA - SANTANDER                                             3
 ACTION:UPD 17-05-22 16:03 OP:jn   STATUS:               ID:20170127094319 L   I
 OLDACT:UP  17-03-31 17:25 OP:nlst STATUS:               ID:20170127094319 L   3
 OLDACT:REG 17-01-27 12:58 OP:lv   STATUS:               ID:20170127093742     3
 2017-01-27-0938-00M.COL___316                                                 6
 STAT SP IPHASW D HRMM SECON CODA AMPLIT PERI AZIMU VELO AIN AR TRES W  DIS CAZ7
 BAR2 EZ EP   1    943 37.01                             174   -0.86 7 12.5 164 
 BAR2 EZ ES        943 52.11                             174    0.2310 12.5 164 
 BAR2 EZ I         943 53.15         6.4 0.86            177           12.5 164 
 RUS  HN ES        943 58.81                             144    0.0810 90.5 171 
 RUS  HZ I         944  0.12         1.3 0.33            148           90.5 171 
 PTB  HZ EP        943 44.99                             131   -0.05 9  139 263 
 PTB  HN ES        944  4.54                             131   -0.09 9  139 263 
 PTB  HZ I         944  6.60         1.1 0.05            132            139 263 
 ZAR  HZ EP        943 52.03                             120    0.71 9  202 296 
 ZAR  HN ES        944 15.53                             120   -0.29 9  202 296 
 ZAR  HZ I         944 22.01         0.5 0.06            121            202 296 
                                                                                
