 2012 1227 0915 48.6 L   6.281 -73.634105.0  RSN  6 0.5 1.3LRSN                1
 GAP=142        0.85       6.0     4.9  9.7  0.7638E+01  0.2708E+02  0.4958E+01E
 Epicentro: SANTA HELENA DEL OPON - SANTANDER                                  3
 ACTION:UPD 13-01-04 14:30 OP:ep   STATUS:               ID:20121227091548 L   I
 2012-12-27-0910-00M.COL___243                                                 6
 STAT SP IPHASW D HRMM SECON CODA AMPLIT PERI AZIMU VELO AIN AR TRES W  DIS CAZ7
 BAR2 SZ EP   1    916  5.04                             148   -0.07 7 60.6  55 
 BAR2 SZ ES   1    916 18.01                             148    0.00 7 60.6  55 
 BAR2 SZ I         916 19.15        12.0 0.40                          60.6  55 
 RUS  HN ES   1    916 20.60                             142    0.23 7 74.5 125 
 RUS  HZ I         916 23.30         2.2 0.40                          74.5 125 
 BRR  HZ EP   1    916  6.76                             135   -0.38 7 91.8 355 
 BRR  HN ES   1    916 22.05                             135    0.42 7 91.8 355 
 PTB  HZ EP   1    916  6.80                             134   -0.68 7 95.4 288 
 PTB  HN ES   1    916 21.81                             134   -0.42 7 95.4 288 
 PTB  HZ I         916 24.33         5.7 0.28                          95.4 288 
 ZAR  HZ EP   1    916 16.93                             113   -0.27 7  190 315 
 ZAR  HE ES   1    916 39.96                             113    0.42 7  190 315 
 ZAR  HZ I         916 44.17         2.7 0.30                           190 315 
 HEL  HZ EP   1    916 20.83                             111    0.96 6  210 267 
 HEL  HN ES   2    916 44.58                             111    0.30 4  210 267 
 HEL  HZ I         916 49.73         1.5 0.32                           210 267 
                                                                                
