 2012  827 0504  4.2 L   6.811 -73.191148.9  RSN  6 0.5 1.7LRSN                1
 GAP=178        0.88       8.5     6.9  8.9  0.3125E+01  0.1264E+02 -0.3872E+01E
 Epicentro: ZAPATOCA - SANTANDER                                               3
 ACTION:UPD 12-09-10 11:58 OP:ep   STATUS:               ID:20120827050404 L   I
 2012-08-27-0500-00M.COL___218                                                 6
 STAT SP IPHASW D HRMM SECON CODA AMPLIT PERI AZIMU VELO AIN AR TRES W  DIS CAZ7
 BAR2 SZ EP   1    5 4 24.22                             171   -0.05 7 24.2 178 
 BAR2 SZ I         5 4 24.54        14.3 0.09                          24.2 178 
 BAR2 SZ ES   1    5 4 39.45                             171   -0.44 7 24.2 178 
 GIR2 SZ EP   1    5 4 24.27                             168    0.02 7 29.7 359 
 GIR2 SZ ES   2    5 4 39.62                             168   -0.24 5 29.7 359 
 BRR  HZ EP        5 4 26.20                             155    0.7310 66.3 300 
 BRR  HZ I         5 4 29.31         7.1 0.06                          66.3 300 
 BRR  HN ES   1    5 4 42.39                             155    0.36 7 66.3 300 
 PTB  HZ EP   1    5 4 30.38                             134   -0.67 7  143 258 
 PTB  HE ES   1    5 4 52.17                             134    0.20 7  143 258 
 OCA  HN ES   2    5 4 54.31                             130   -0.49 5  159 355 
 ZAR  HZ EP   2    5 4 35.83                             124   -0.55 4  199 292 
 ZAR  HN ES   1    5 5  1.03                             124   -0.42 6  199 292 
                                                                                
