 2014  627 0420 31.5 L   6.819 -73.118145.8  RSN  8 0.5 1.5LRSN                1
 GAP=204        0.99       4.6     7.0  8.0 -0.1177E+02  0.7762E+01 -0.4638E+01E
 Epicentro: LOS SANTOS - SANTANDER                                             3
 ACTION:UPD 14-07-01 22:57 OP:nd   STATUS:               ID:20140627042031 L   I
 OLDACT:REG 14-06-27 15:02 OP:spq  STATUS:               ID:20140627041819     3
 2014-06-27-0418-19M.COL___259                                                 6
 STAT SP IPHASW D HRMM SECON CODA AMPLIT PERI AZIMU VELO AIN AR TRES W  DIS CAZ7
 BAR2 SZ EP   1    420 51.03                             170   -0.20 7 26.1 196 
 BAR2 SZ ES   1    421  6.40                             170   -0.19 7 26.1 196 
 BAR2 SZ I         421  6.97         6.7 0.30            169           26.1 196 
 BRR  HZ EP        420 53.13                             152    0.3410 72.9 296 
 BRR  HN ES        421  9.85                             152    0.4810 72.9 296 
 BRR  HZ I         421 14.38         3.9 0.14            147           72.9 296 
 PTB  HZ EP        420 58.65                             131   -0.17 9  151 258 
 PTB  HE ES        421 19.45                             131   -0.65 9  151 258 
 PTB  HZ I         421 22.34         3.5 0.18            131            151 258 
 OCA  HZ EP   1    420 59.14                             130   -0.55 7  159 352 
 OCA  HN ES        421 21.87                             130    0.22 9  159 352 
 OCA  HZ I         421 26.56         3.8 0.37            129            159 352 
 SPBC HN ES   1    421 22.76                             129   -0.12 7  167 219 
 ZAR  HZ EP        421  4.90                             122    0.70 8  206 291 
 ZAR  HN ES   1    421 29.69                             122    0.02 6  206 291 
 ZAR  HZ I         421 38.19         3.2 0.24            122            206 291 
 NOR  HN ES   1    421 36.09                             118    0.23 6  238 234 
 NOR  HZ I         421 37.17         1.7 0.16            120            238 234 
 SML  HN ES   1    421 35.61                             118   -1.00 6  243 334 
 SJC  HZ EP   4    421 25.53                             106   -1.56 0  409 326 
 SJC  HN ES   4    422  6.74                             106   -3.68 0  409 326 
                                                                                
