 2015 1227 0618 45.2 L   6.827 -73.167139.9  RSN 16 0.4 2.0LRSN                1
 GAP=133        0.95       2.3     3.7  5.0 -0.8034E+00  0.4397E+01  0.1204E+01E
 Epicentro: LOS SANTOS - SANTANDER                                             3
 ACTION:UPD 16-02-04 15:08 OP:cam  STATUS:               ID:20151227061845 L   I
 OLDACT:REG 15-12-27 12:46 OP:dnl  STATUS:               ID:20151227060746     3
 2015-12-27-0607-46M.COL___334                                                 6
 STAT SP IPHASW D HRMM SECON CODA AMPLIT PERI AZIMU VELO AIN AR TRES W  DIS CAZ7
 BAR2 EZ EP        619  4.34                             169    0.1310 26.0 184 
 BAR2 EZ ES        619 18.07                             169   -0.9410 26.0 184 
 BAR2 EZ I         619 20.33        18.1 0.26            167           26.0 184 
 BRR  HZ EP     C  619  6.07                             153    0.5310 67.7 297 
 BRR  HZ ES        619 21.92                             153    0.5410 67.7 297 
 BRR  HN ES        619 22.66                             153           67.7 297 
 BRR  HZ I         619 27.64        17.2 0.12            150           67.7 297 
 PAM  EZ EP        619  7.06                             150    0.2910 76.6  42 
 PAM  EE ES        619 24.05                             150    0.4810 76.6  42 
 PAM  EZ I         619 26.21        14.9 0.41            154           76.6  42 
 RUS  HZ EP        619  8.75                             142    0.1110  104 175 
 RUS  HE ES        619 26.92                             142    0.0210  104 175 
 RUS  HZ I         619 28.94         6.6 0.20            143            104 175 
 PTB  HZ EP        619 11.08                             131   -0.48 9  146 257 
 PTB  HN ES        619 32.02                             131   -0.09 9  146 257 
 PTB  HZ I         619 34.42        12.9 0.14            130            146 257 
 OCA  HZ EP        619 12.34                             129   -0.43 9  157 354 
 OCA  HN ES        619 34.05                             129   -0.21 9  157 354 
 OCA  HZ I         619 38.06        27.9 0.17            130            157 354 
 SPBC HE ES   2    619 35.55                             127    0.24 5  164 218 
 SPBC HZ I         619 40.41        11.2 0.19            127            164 218 
 ZAR  HE ES        619 42.11                             121    0.42 9  201 292 
 ZAR  HZ I         619 47.97         8.7 0.07            121            201 292 
 NOR  HZ EP   2    619 20.70                             117    0.09 4  235 234 
 NOR  HN ES   2    619 48.15                             117   -0.05 4  235 234 
 NOR  HZ I         619 50.31         6.2 0.18            117            235 234 
 SML  HZ EP        619 20.60                             117   -0.52 8  240 335 
 SML  HN ES        619 48.74                             117   -0.38 8  240 335 
 SML  HZ I         619 55.56        17.8 0.08            117            240 335 
 CHI  HZ EP        619 22.86                             116    0.00 8  251 194 
 CHI  HE ES        619 52.19                             116   -0.02 8  251 194 
 CHI  HZ I         619 59.94         4.2 0.33            117            251 194 
 ROSC BZ EP   4    619 24.42                             115    1.24 0  254 210 
 ROSC BE ES        619 52.33                             115   -0.46 8  254 210 
 ROSC BZ I         619 59.06         6.7 0.38            116            254 210 
 HEL  HZ EP   2    619 25.88                             114    0.90 4  271 255 
 HEL  HE ES   2    619 55.52                             114   -0.46 4  271 255 
 HEL  HZ I         620  2.13         4.9 0.30            114            271 255 
 GUY2CHZ EP   4    619 30.04                             111    1.49 0  301 234 
 GUY2CHN ES   4    620  4.08                             111    1.74 0  301 234 
 GUY2CHZ I         620 10.28         3.7 0.27                           301 234 
 PRA  HZ EP        619 39.27                             105    0.55 6  393 209 
 PRA  HN ES        620 20.50                             105    0.05 6  393 209 
 PRA  HZ I         620 25.19         5.1 0.42            106            393 209 
 ORTC HZ EP   2    619 38.99                             105   -0.08 3  397 216 
 ORTC HE ES   2    620 22.53                             105    1.45 3  397 216 
 ORTC HZ I         620 28.49         2.8 0.26            106            397 216 
                                                                                
