 2010 1027 0657 12.7 L   6.078 -73.840 88.3  RSN  6 0.4 1.2LRSN                1
 GAP= 93        0.87       5.6     4.4 14.9 -0.4315E+01  0.3830E+02  0.9097E+00E
 Epicentro: EL PEON - SANTANDER                                                3
 ACTION:UP  11-02-18 11:12 OP:tino STATUS:               ID:20101027065712 L   I
 2010-10-27-0653-52S.COL___128                                                 6
 STAT SP IPHASW D HRMM SECON CODA AMPLIT PERI AZIMU VELO SNR AR TRES W  DIS CAZ7
 RUS  HZ EP   1    657 30.11                             133     0.1 8   86 104 
 RUS  HE ES   1    657 43.39                             133    -0.1 8   86 104 
 RUS  HZ I         657 47.30         2.8 0.32                            86 104 
 BAR2 SZ EP   1    657 29.58                             131    -0.6 8   92  52 
 BAR2 SZ ES   2    657 44.76                             131     0.9 5   92  52 
 BAR2 SZ I         657 46.47         8.5 0.45                            92  52 
 BRR  HZ EP   1    657 32.42                             124     0.3 8  115   7 
 BRR  HE ES   2    657 46.64                             124    -0.6 5  115   7 
 BRR  HZ I         657 52.27         4.2 0.14                           115   7 
 NOR  SZ IP        657 33.63                             120     0.110  128 244 
 NOR  SE ES   2    657 49.32                             120    -0.5 5  128 244 
 CHI  HZ EP   2    657 37.69                             115     0.1 5  161 176 
 CHI  HZ I         658  6.26         1.5 0.21                           161 176 
 HEL  HZ EP   1    657 40.30                             111    -0.3 7  187 274 
 HEL  HN ES   1    658  2.87                             111     0.5 7  187 274 
 HEL  HZ I         658  7.15         1.5 0.28                           187 274 
                                                                                
