 2017 1027 0300 53.1 L   6.834 -73.137147.4  RSN  9 0.6 1.4LRSN                1
 GAP=111        1.38       4.7     5.4  8.2  0.3095E+01  0.8311E+01  0.9186E+01E
 Epicentro: LOS SANTOS - SANTANDER                                             3
 ACTION:UPD 17-11-07 19:37 OP:rebc STATUS:               ID:20171027030053 L   I
 OLDACT:REG 17-10-27 12:37 OP:dani STATUS:               ID:20171027025740     3
 2017-10-27-0258-00M.COL___453                                                 6
 STAT SP IPHASW D HRMM SECON CODA AMPLIT PERI AZIMU VELO AIN AR TRES W  DIS CAZ7
 BAR2 EZ EP        3 1 12.73                             169   -0.2310 27.1 191 
 BAR2 EZ ES        3 1 27.70                             169   -0.7910 27.1 191 
 BAR2 EZ I         3 1 30.35         4.4 0.54            166           27.1 191 
 BRR  HZ EP        3 1 14.44                             153    0.1110 70.3 296 
 BRR  HE ES        3 1 31.51                             153    0.5810 70.3 296 
 BRR  HZ I         3 1 37.62         6.0 0.37            152           70.3 296 
 PAM  EZ EP        3 1 15.50                             152    0.2510 73.9  41 
 PAM  EN ES        3 1 32.55                             152   -0.0010 73.9  41 
 PAM  EZ I         3 1 33.01         2.9 0.27            158           73.9  41 
 RUS  HZ EP        3 1 16.89                             143   -0.3410  104 177 
 RUS  HN ES        3 1 36.42                             143    0.3310  104 177 
 RUS  HZ I         3 1 37.25         3.1 0.34            144            104 177 
 SPBC HZ EP        3 1 21.89                             129   -0.12 9  167 218 
 SPBC HN ES        3 1 44.44                             129   -0.15 9  167 218 
 SPBC HZ I         3 1 51.78         4.6 0.13            129            167 218 
 YPLC HZ EP        3 1 23.22                             126   -0.03 9  180 152 
 YPLC HN ES        3 1 47.55                             126    0.76 9  180 152 
 YPLC HZ I         3 1 49.50         4.1 0.25            129            180 152 
 ZAR  HZ EP        3 1 25.40                             123   -0.16 9  204 291 
 ZAR  HN ES        3 1 50.40                             123   -0.50 9  204 291 
 ZAR  HZ I         3 1 56.64         4.0 0.29            124            204 291 
 NOR  HN ES        3 1 58.76                             118    1.38 8  238 234 
 CHI  HZ EP        3 1 31.52                             117    0.26 8  252 195 
 CHI  HN ES        3 1 59.70                             117   -1.36 8  252 195 
 CHI  HZ I         3 2  8.62         1.2 0.31            118            252 195 
                                                                                
