 2017  827 0305 39.2 L   5.999 -73.716114.2  RSN  5 0.3 1.2LRSN                1
 GAP=126        0.75       3.7     3.4  6.9 -0.5686E+01  0.4629E+01 -0.7647E+01E
 Epicentro: VELEZ - SANTANDER                                                  3
 ACTION:UPD 17-09-04 20:25 OP:rebc STATUS:               ID:20170827030539 L   I
 OLDACT:UP  17-08-27 15:56 OP:edw  STATUS:               ID:20170827025740d    3
 OLDACT:DUP 17-08-27 15:54 OP:edw  STATUS:               ID:20170827025740d    3
 OLDACT:DUP 17-08-27 15:46 OP:edw  STATUS:               ID:20170827025739d    3
 OLDACT:UP  17-08-27 15:45 OP:edw  STATUS:               ID:20170827025738     3
 OLDACT:REG 17-08-27 13:07 OP:edw  STATUS:               ID:20170827025738     3
 2017-08-27-0258-00M.COL___411                                                 6
 STAT SP IPHASW D HRMM SECON CODA AMPLIT PERI AZIMU VELO AIN AR TRES W  DIS CAZ7
 SPBC HZ EP        3 5 56.33                             152    0.1210 55.0 226 
 SPBC HN ES        3 6  9.33                             152   -0.1110 55.0 226 
 SPBC HZ I         3 6 10.64         4.8 0.24            154           55.0 226 
 RUS  HZ EP        3 5 58.14                             146    0.3610 71.1 100 
 RUS  HN ES        3 6 12.04                             146   -0.2010 71.1 100 
 RUS  HZ I         3 6 13.82         2.0 0.30            147           71.1 100 
 BAR2 EZ EP        3 5 58.78                             140    0.0910 88.2  42 
 BAR2 EZ ES        3 6 13.83                             140   -0.0210 88.2  42 
 BAR2 EZ I         3 6 14.72         7.5 0.44            141           88.2  42 
 BRR  HZ EP        3 6  0.72                             129   -0.6210  122   0 
 BRR  HN ES        3 6 18.91                             129    0.3310  122   0 
 NOR  HE ES        3 6 21.15                             126    0.03 9  136 249 
                                                                                
