 2013  327 0333 45.0 L   6.767 -73.161146.9  RSN  7 0.4 1.3LRSN                1
 GAP=136        0.78       4.3     5.0  7.9  0.2106E+01  0.1195E+02  0.1021E+01E
 Epicentro: LOS SANTOS - SANTANDER                                             3
 ACTION:UPD 13-04-09 14:05 OP:ep   STATUS:               ID:20130327033345 L   I
 2013-03-27-0330-00M.COL___245                                                 6
 STAT SP IPHASW D HRMM SECON CODA AMPLIT PERI AZIMU VELO AIN AR TRES W  DIS CAZ7
 BAR2 SZ EP   1    334  4.51                             172   -0.17 7 19.5 187 
 BAR2 SZ ES   1    334 19.75                             172   -0.29 7 19.5 187 
 BAR2 SZ I         334 22.07        11.3 0.30            170           19.5 187 
 BRR  HZ EP        334  6.50                             153    0.2210 71.6 302 
 BRR  HN ES   1    334 23.69                             153    0.81 7 71.6 302 
 BRR  HZ I         334 29.06         4.9 0.56            149           71.6 302 
 PAM  SN ES   1    334 24.85                             150   -0.31 7 81.3  39 
 RUS  HZ EP   1    334  9.10                             145    0.50 7 97.1 175 
 RUS  HE ES   1    334 26.99                             145   -0.02 7 97.1 175 
 RUS  HZ I         334 28.77         1.8 0.28            150           97.1 175 
 PTB  HZ EP   1    334 11.40                             133   -0.43 7  145 260 
 PTB  HN ES   1    334 32.34                             133   -0.44 7  145 260 
 PTB  HZ I         334 34.44         2.2 0.14            132            145 260 
 OCA  HE ES   1    334 35.93                             129   -0.18 7  164 354 
 ZAR  HE ES   1    334 42.81                             123   -0.03 6  204 293 
 ZAR  HZ I         334 52.77         1.9 0.24            123            204 293 
                                                                                
