 2014 1127 0443 22.4 L   6.801 -73.350132.7  RSN  5 0.4 1.1LRSN                1
 GAP=191        1.09       7.8     7.3 10.1  0.3143E+02  0.6975E+01 -0.9597E+01E
 Epicentro: ZAPATOCA - SANTANDER                                               3
 ACTION:UPD 14-12-19 15:48 OP:nd   STATUS:               ID:20141127044322 L   I
 OLDACT:REG 14-11-27 13:22 OP:fm   STATUS:               ID:20141127043744     3
 2014-11-27-0437-44M.COL___306                                                 6
 STAT SP IPHASW D HRMM SECON CODA AMPLIT PERI AZIMU VELO AIN AR TRES W  DIS CAZ7
 BAR2 SZ EP        443 41.00                             167    0.3810 29.6 141 
 BAR2 SZ I         443 55.34         6.5 0.36            165           29.6 141 
 BRR  HZ EP        443 41.28                             157    0.1510 52.4 310 
 BRR  HN ES        443 55.30                             157   -0.4510 52.4 310 
 BRR  HZ I         443 58.04         3.8 0.36            155           52.4 310 
 RUS  HN ES        444  3.07                             140    0.0710  105 164 
 RUS  HZ I         444  4.43         0.9 0.32            138            105 164 
 PTB  HZ EP        443 45.40                             134   -0.9110  126 257 
 PTB  HE ES        444  5.26                             134    0.3010  126 257 
 PTB  HZ I         444  9.59         2.1 0.22            133            126 257 
 ZAR  HZ EP        443 51.98                             122    0.13 9  183 295 
 ZAR  HN ES        444 15.24                             122    0.41 9  183 295 
 ZAR  HZ I         444 23.45         1.7 0.28            120            183 295 
                                                                                
