 2015  827 0318 41.6 L   6.794 -73.116150.0  RSN 10 0.4 1.6LRSN                1
 GAP=141        0.84       2.7     4.2  5.3 -0.1897E+00  0.6068E+01  0.2027E+01E
 Epicentro: LOS SANTOS - SANTANDER                                             3
 ACTION:UPD 15-09-15 23:05 OP:cam  STATUS:               ID:20150827031841 L   I
 OLDACT:DUP 15-08-27 15:04 OP:spq  STATUS:               ID:20150827030739d    3
 2015-08-27-0307-38M.COL___358                                                 6
 STAT SP IPHASW D HRMM SECON CODA AMPLIT PERI AZIMU VELO AIN AR TRES W  DIS CAZ7
 BAR2 EZ EP        319  1.53                             171   -0.2110 23.5 198 
 BAR2 EZ ES   1    319 17.10                             171   -0.35 7 23.5 198 
 BAR2 EZ I         319 19.43         7.0 0.31            170           23.5 198 
 BRR  HZ EP        319  3.66                             152    0.2710 74.4 298 
 BRR  HN ES        319 20.92                             152    0.5410 74.4 298 
 BRR  HZ I         319 23.20         6.7 0.38            151           74.4 298 
 PAM  EZ EP     D  319  4.47                             152    0.2910 75.9  37 
 PAM  EE ES        319 21.63                             152   -0.1610 75.9  37 
 PAM  EZ I         319 23.75         6.4 0.20            155           75.9  37 
 RUS  HZ EP        319  5.38                             145   -0.3310 99.7 178 
 RUS  HN ES   1    319 24.27                             145   -0.25 7 99.7 178 
 RUS  HZ I         319 25.15         2.1 0.50            148           99.7 178 
 OCA  HE ES        319 33.08                             130    0.31 9  161 352 
 OCA  HZ I         319 40.04         7.8 0.32            132            161 352 
 SPBC HZ EP        319 10.54                             130   -0.03 9  165 220 
 SPBC HN ES        319 33.45                             130    0.28 9  165 220 
 SPBC HZ I         319 38.40         9.4 0.16            131            165 220 
 ZAR  HZ EP        319 14.18                             123   -0.48 8  207 292 
 ZAR  HE ES        319 39.73                             123   -0.72 8  207 292 
 ZAR  HZ I         319 45.98         5.0 0.18            123            207 292 
 SML  HZ EP   1    319 18.54                             118   -0.14 6  246 335 
 SML  HN ES   1    319 47.52                             118   -0.09 6  246 335 
 SML  HZ I         319 50.27         5.7 0.09            119            246 335 
 CHI  HZ EP   1    319 19.54                             118   -0.02 6  249 196 
 CHI  HE ES   1    319 49.48                             118    0.31 6  249 196 
 CHI  HZ I         319 52.88         2.1 0.27            120            249 196 
 GUY2CHZ EP        319 26.32                             113    0.65 7  303 235 
 GUY2CHE ES   4    320  2.35                             113    2.32 0  303 235 
 GUY2CHZ I         320  8.82         2.1 0.30                           303 235 
                                                                                
