 2011  527 0830 40.9 L   7.056 -73.316173.6  RSN  5 0.6 1.6LRSN                1
 GAP=114        1.31      10.5    18.9 18.0 -0.4718E+02 -0.5772E+02 -0.5566E+01E
 Epicentro: LEBRIJA - SANTANDER                                                3
 ACTION:UP  11-06-29 08:56 OP:tino STATUS:               ID:20110527083040 L   I
 2011-05-27-0825-15S.COL___115                                                 6
 STAT SP IPHASW D HRMM SECON CODA AMPLIT PERI AZIMU VELO SNR AR TRES W  DIS CAZ7
 GIR2 SZ EP   1    831  2.91                             175    -0.7 7   14  79 
 BTL  SZ EP   1    831  2.93                             174    -0.9 7   16 160 
 BRR  HZ EP   1    831  4.56                             165     0.5 7   44 277 
 BRR  HZ I         831  4.82        10.4 0.17                            44 277 
 BRR  HN ES   1    831 22.20                             165     0.1 7   44 277 
 GRA  SZ EP   1    831  8.35                             147     0.8 7  108  32 
 GRA  SZ ES   1    831 28.10                             147    -0.1 7  108  32 
 GRA  SZ I         831 29.77         2.6 0.33                           108  32 
 RUS  HN ES   1    831 32.43                             141     0.4 7  131 169 
                                                                                
