 2013  627 0245 49.0 L   6.802 -73.140144.3  RSN  8 0.4 1.5LRSN                1
 GAP=184        1.02       4.7     6.8  7.8  0.1049E+02  0.3823E+01 -0.1080E+02E
 Epicentro: LOS SANTOS - SANTANDER                                             3
 ACTION:UPD 14-01-08 09:57 OP:ep   STATUS:               ID:20130627024549 L   I
 OLDACT:REG 13-06-27 06:32 OP:jn   STATUS:               ID:20130627023959     3
 2013-06-27-0239-59M.COL___266                                                 6
 STAT SP IPHASW D HRMM SECON CODA AMPLIT PERI AZIMU VELO AIN AR TRES W  DIS CAZ7
 BAR2 SZ EP        246  8.69                             170    0.2410 23.7 191 
 BAR2 SZ ES        246 23.17                             170   -0.4610 23.7 191 
 BAR2 SZ I         246 25.50         6.4 0.34            175           23.7 191 
 GIR2 SZ EP        246  8.78                             167    0.3010 31.1 349 
 BRR  HZ EP     C  246 10.51                             152    0.5110 71.6 298 
 BRR  HN ES   1    246 27.48                             152    1.08 7 71.6 298 
 BRR  HZ I         246 31.80         7.3 0.40            153           71.6 298 
 RUS  HZ EP        246 12.77                             143    0.1610  101 176 
 RUS  HN ES        246 30.66                             143   -0.3810  101 176 
 RUS  HZ I         246 32.45         3.5 0.26            150            101 176 
 PTB  HZ EP        246 15.64                             131   -0.26 9  148 259 
 PTB  HN ES   1    246 36.54                             131   -0.35 7  148 259 
 PTB  HZ I         246 38.79         3.3 0.12            135            148 259 
 OCA  HE ES   1    246 38.75                             129   -0.40 7  160 353 
 OCA  HZ I         246 44.65         5.9 0.36            131            160 353 
 ZAR  HE ES   1    246 46.51                             122   -0.15 6  205 292 
 SML  HZ EP        246 25.38                             117   -0.15 8  244 335 
 SML  HN ES   1    246 53.37                             117   -0.67 6  244 335 
                                                                                
