 2015 1127 0348 24.2 L   6.790 -73.181149.1  RSN  5 0.3 1.4LRSN                1
 GAP=198        0.80       4.1     5.7  5.9  0.9722E+01 -0.1433E+01 -0.7750E+01E
 Epicentro: LOS SANTOS - SANTANDER                                             3
 ACTION:UPD 15-12-28 16:13 OP:cam  STATUS:               ID:20151127034824 L   I
 OLDACT:REG 15-11-27 12:51 OP:drio STATUS:               ID:20151127034738     3
 2015-11-27-0347-38M.COL___307                                                 6
 STAT SP IPHASW D HRMM SECON CODA AMPLIT PERI AZIMU VELO AIN AR TRES W  DIS CAZ7
 BAR2 EZ EP        348 44.13                             171   -0.0410 21.9 180 
 BAR2 EZ ES        348 59.54                             171   -0.2410 21.9 180 
 BAR2 EZ I         349  0.59         5.5 0.26            167           21.9 180 
 BRR  HZ EP        348 46.04                             154    0.5110 68.3 301 
 BRR  HN ES        349  2.64                             154    0.4610 68.3 301 
 BRR  HZ I         349 10.23         6.5 0.42            149           68.3 301 
 RUS  HZ EP        348 48.41                             145    0.2110 99.9 174 
 RUS  HN ES        349  6.68                             145   -0.2610 99.9 174 
 RUS  HZ I         349  7.64         2.7 0.38            147           99.9 174 
 PTB  HZ EP        348 51.05                             133   -0.01 9  144 259 
 PTB  HN ES        349 11.80                             133   -0.22 9  144 259 
 PTB  HZ I         349 19.54         4.1 0.34            132            144 259 
 SML  HZ EP        349  0.67                             118   -0.25 8  243 336 
 SML  HN ES        349 29.14                             118   -0.44 8  243 336 
                                                                                
