 2016 1227 0954  9.1 L   5.953 -73.760 94.7  RSN  5 0.4 1.2LRSN                1
 GAP=151        1.15       6.0     5.1 12.2  0.7524E+01  0.2637E+02  0.2205E+02E
 Epicentro: BOLIVAR - SANTANDER                                                3
 ACTION:UPD 17-01-11 20:19 OP:rebc STATUS:               ID:20161227095409 L   I
 OLDACT:REG 16-12-27 13:42 OP:edw  STATUS:               ID:20161227094740     3
 2016-12-27-0948-00M.COL___363                                                 6
 STAT SP IPHASW D HRMM SECON CODA AMPLIT PERI AZIMU VELO AIN AR TRES W  DIS CAZ7
 RUS  HZ EP        954 25.20                             139   -0.8510 75.3  95 
 RUS  HN ES        954 39.78                             139    0.5110 75.3  95 
 RUS  HZ I         954 41.45         2.4 0.30            141           75.3  95 
 BAR2 EZ EP        954 27.62                             132    0.1710 95.3  42 
 BAR2 EZ ES        954 41.59                             132   -0.1610 95.3  42 
 BAR2 EZ I         954 42.80        12.0 0.46            132           95.3  42 
 PTB  HZ EP   4    954 26.35                             130   -1.31 0  101 310 
 PTB  HN ES        954 42.07                             130   -0.0510  101 310 
 PTB  HZ I         954 43.84         1.5 0.16            130            101 310 
 BRR  HZ EP        954 30.99                             122    0.6510  128   2 
 BRR  HE ES        954 46.62                             122   -0.2710  128   2 
 BRR  HZ I         954 52.60         8.0 0.30            123            128   2 
 GUY2CHZ EP        954 38.44                             112    0.05 9  195 246 
 GUY2CHN ES   4    955  3.31                             112    2.08 0  195 246 
 GUY2CHZ I         955  7.19         1.3 0.38                           195 246 
                                                                                
