 2013  627 0406 45.1 L   6.480 -73.577111.4  RSN  4 0.2 1.0LRSN                1
 GAP=134        0.46       3.6     2.6  5.2  0.2497E+01  0.2538E+01 -0.4289E+01E
 Epicentro: SANTA HELENA DEL OPON - SANTANDER                                  3
 ACTION:UPD 14-01-08 09:57 OP:ep   STATUS:               ID:20130627040645 L   I
 OLDACT:REG 13-06-27 06:35 OP:jn   STATUS:               ID:20130627035959     3
 2013-06-27-0359-59M.COL___267                                                 6
 STAT SP IPHASW D HRMM SECON CODA AMPLIT PERI AZIMU VELO AIN AR TRES W  DIS CAZ7
 BAR2 SZ EP        4 7  1.59                             156    0.1410 45.4  74 
 BAR2 SZ ES   1    4 7 14.36                             156    0.16 7 45.4  74 
 BAR2 SZ I         4 7 15.37         3.8 0.16            163           45.4  74 
 GIR2 SZ EP        4 7  3.19                             142   -0.2010 78.6  33 
 RUS  HZ EP        4 7  4.54                             140    0.1810 84.9 140 
 RUS  HN ES        4 7 19.19                             140   -0.2010 84.9 140 
 RUS  HZ I         4 7 20.70         1.8 0.28            146           84.9 140 
 PTB  HZ EP        4 7  4.71                             136   -0.0210 97.5 274 
 PTB  HN ES   1    4 7 20.07                             136    0.03 7 97.5 274 
 PTB  HZ I         4 7 24.25         2.7 0.22            137           97.5 274 
                                                                                
