 2016  427 0554  9.6 L   6.860 -73.289124.6  RSN 12 0.5 1.9LRSN                1
 GAP= 67        1.14       3.1     3.2  6.7 -0.1187E+01  0.5634E+01  0.1012E+01E
 Epicentro: BETULIA - SANTANDER                                                3
 ACTION:UPD 16-05-05 14:24 OP:rebc STATUS:               ID:20160427055409 L   I
 OLDACT:UP  16-04-27 16:52 OP:mh   STATUS:               ID:20160427054745     3
 OLDACT:REG 16-04-27 13:05 OP:dnl  STATUS:               ID:20160427054745     3
 2016-04-27-0547-45M.COL___289                                                 6
 STAT SP IPHASW D HRMM SECON CODA AMPLIT PERI AZIMU VELO AIN AR TRES W  DIS CAZ7
 BAR2 EZ EP        554 27.31                             165    0.3610 31.8 158 
 BAR2 EZ ES        554 40.26                             165   -0.2110 31.8 158 
 PAM  EZ EP        554 30.35                             144    0.2710 83.9  51 
 PAM  EN ES        554 46.84                             144    0.7910 83.9  51 
 PAM  EZ I         554 48.80        13.3 0.28            148           83.9  51 
 RUS  HE EP        554 32.25                             136    0.1810  109 168 
 RUS  HN ES        554 49.06                             136   -0.5310  109 168 
 RUS  HE I         554 51.39        10.4 0.20            138            109 168 
 PTB  HZ EP        554 32.58                             130   -1.0410  134 255 
 PTB  HN ES        554 52.42                             130    0.0810  134 255 
 PTB  HZ I         554 54.13        19.5 0.44            130            134 255 
 OCA  HZ EP        554 35.25                             126   -0.35 9  153 359 
 OCA  HN ES        554 55.52                             126   -0.35 9  153 359 
 OCA  HZ I         554 58.01        29.4 0.48            128            153 359 
 SPBC HZ EP        554 35.92                             124   -0.27 9  159 213 
 SPBC HN ES        554 57.19                             124    0.28 9  159 213 
 SPBC HZ I         555  4.02         8.8 0.20            125            159 213 
 TAM  HZ EP        554 37.73                             122    0.30 9  172 106 
 TAM  HN ES        554 58.41                             122   -0.72 9  172 106 
 TAM  HZ I         554 59.84         8.5 0.46            125            172 106 
 ZAR  HZ EP   1    554 39.26                             120    0.32 7  187 292 
 ZAR  HN ES        555  2.11                             120    0.29 9  187 292 
 CHI  HZ EP        554 47.03                             112    0.48 8  251 191 
 CHI  HN ES        555 15.80                             112    0.43 8  251 191 
 CHI  HZ I         555 21.03         2.5 0.38            113            251 191 
 HEL  HZ EP        554 47.45                             111    0.15 8  259 254 
 HEL  HN ES   1    555 15.92                             111   -0.78 6  259 254 
 HEL  HZ I         555 21.30         5.2 0.58            112            259 254 
 URE  HZ EP   4    554 49.81                             110    2.03 0  267 292 
 URE  HN ES   4    555 15.13                             110   -2.42 0  267 292 
 URE  HZ I         555 24.19         6.3 0.22            112            267 292 
 GUY2CHZ EP   4    554 53.53                             109    2.20 0  292 232 
 GUY2CHN ES        555 24.20                             109    0.34 7  292 232 
 GUY2CHZ I         555 30.94         4.5 0.36                           292 232 
                                                                                
