 2017  727 0242 34.6 L   6.818 -73.144147.7  RSN 10 0.4 1.5LRSN                1
 GAP=111        0.86       3.7     3.5  5.1 -0.2410E+01  0.1250E+01  0.4946E+01E
 Epicentro: LOS SANTOS - SANTANDER                                             3
 ACTION:UPD 17-08-30 15:37 OP:rebc STATUS:               ID:20170727024234 L   I
 OLDACT:UP  17-07-27 13:49 OP:and  STATUS:               ID:20170727023738     3
 OLDACT:UP  17-07-27 13:49 OP:and  STATUS:               ID:20170727023738     3
 OLDACT:REG 17-07-27 12:14 OP:and  STATUS:               ID:20170727023738     3
 2017-07-27-0238-00M.COL___371                                                 6
 STAT SP IPHASW D HRMM SECON CODA AMPLIT PERI AZIMU VELO AIN AR TRES W  DIS CAZ7
 BAR2 EZ EP        242 54.48                             170   -0.0510 25.3 190 
 BAR2 EZ ES        243  9.69                             170   -0.3610 25.3 190 
 BAR2 EZ I         243 12.07         7.0 0.28            170           25.3 190 
 BRR  HZ EP        242 56.13                             153    0.1910 70.4 297 
 BRR  HN ES        243 13.16                             153    0.6010 70.4 297 
 PAM  EZ IP     D  242 57.26                             152    0.3110 75.7  40 
 PAM  EN ES        243 14.04                             152   -0.3210 75.7  40 
 PAM  EZ I         243 16.90         3.5 0.50            153           75.7  40 
 RUS  HZ EP        242 58.55                             144   -0.1610  103 176 
 RUS  HN ES        243 17.65                             144    0.1610  103 176 
 RUS  HZ I         243 19.03         4.3 0.26            146            103 176 
 PTB  HZ EP        243  1.32                             132   -0.48 9  148 258 
 PTB  HN ES        243 22.52                             132   -0.48 9  148 258 
 PTB  HZ I         243 23.09         3.0 0.14            132            148 258 
 SPBC HZ EP        243  3.55                             129    0.12 9  165 219 
 SPBC HN ES        243 26.14                             129    0.24 9  165 219 
 SPBC HZ I         243 31.56         3.0 0.13            130            165 219 
 YPLC HZ EP        243  4.71                             127   -0.02 9  179 152 
 YPLC HN ES   2    243 28.85                             127    0.65 4  179 152 
 YPLC HZ I         243 29.67         4.2 0.24            129            179 152 
 ZAR  HN ES   4    243 34.97                             123    2.47 0  203 292 
 ZAR  HZ I         243 44.84         3.9 0.46            122            203 292 
 NOR  HZ EP        243 11.15                             119    0.54 8  236 234 
 NOR  HN ES        243 38.41                             119   -0.27 8  236 234 
 NOR  HZ I         243 40.82         1.8 0.18            119            236 234 
 PTGC HZ EP   2    243 17.91                             112   -0.87 3  311 159 
                                                                                
