 2016  527 0839 46.6 L   5.815 -73.627124.9  RSN  7 0.3 1.6LRSN                1
 GAP=168        0.75       3.3     3.0  5.3 -0.3660E+01  0.2952E+01 -0.4319E+01E
 Epicentro: PUENTE NACIONAL - SANTANDER                                        3
 ACTION:UPD 16-08-18 17:49 OP:cam  STATUS:               ID:20160527083946 L   I
 OLDACT:DUP 16-05-27 19:00 OP:mh   STATUS:               ID:20160527083741d    3
 2016-05-27-0837-40M.COL___310                                                 6
 STAT SP IPHASW D HRMM SECON CODA AMPLIT PERI AZIMU VELO AIN AR TRES W  DIS CAZ7
 SPBC HZ EP        840  4.86                             156    0.2610 52.6 250 
 SPBC HN ES        840 18.70                             156    0.0610 52.6 250 
 SPBC HZ I         840 25.33         7.5 0.42            156           52.6 250 
 RUS  HZ EP        840  5.92                             153    0.3010 60.8  82 
 RUS  HN ES        840 20.38                             153   -0.0710 60.8  82 
 BAR2 EZ EP        840  7.68                             139   -0.2010 99.0  30 
 BAR2 EZ ES        840 24.26                             139   -0.2110 99.0  30 
 BAR2 EZ I         840 25.73        13.0 0.30            144           99.0  30 
 PTB  HZ EP        840  8.93                             133   -0.5910  122 311 
 PTB  HN ES        840 27.39                             133   -0.0010  122 311 
 PTB  HZ I         840 31.03         5.7 0.10            135            122 311 
 NOR  HZ EP        840 11.24                             128   -0.06 9  140 259 
 NOR  HN ES        840 30.72                             128    0.16 9  140 259 
 NOR  HZ I         840 35.08         6.3 0.56            131            140 259 
 BRR  HZ EP        840 11.40                             128   -0.09 9  143 356 
 BRR  HN ES        840 30.84                             128   -0.05 9  143 356 
 BRR  HZ I         840 36.97         6.3 0.80            131            143 356 
 OCA  HN ES        840 56.34                             110    0.77 8  270   7 
                                                                                
