 2011 1027 0337 36.1 L   6.739 -73.124157.0  RSN  4 0.2 1.5LRSN                1
 GAP=235        0.41       8.4     9.9  6.5  0.6820E+02 -0.1041E+02 -0.9669E+01E
 Epicentro: JORDAN - SANTANDER                                                 3
 ACTION:UPD 12-07-13 16:06 OP:ep   STATUS:               ID:20111027033736 L   I
 2011-10-27-0335-40S.COL___176                                                 6
 STAT SP IPHASW D HRMM SECON CODA AMPLIT PERI AZIMU VELO AIN AR TRES W  DIS CAZ7
 BAR2 SZ EP   1    337 56.87                             173   -0.09 7 17.5 202 
 BAR2 SZ ES   2    338 12.84                             173   -0.40 5 17.5 202 
 BAR2 SZ I         338 15.42         9.7 0.52                          17.5 202 
 BRR  HZ EP   1    337 58.84                             153    0.10 7 76.7 302 
 BRR  HZ I         338  1.84         6.8 0.47                          76.7 302 
 BRR  HN ES   2    338 16.78                             153    0.36 5 76.7 302 
 RUS  HZ EP   1    338  0.49                             148    0.01 7 93.7 177 
 RUS  HN ES   2    338 19.73                             148    0.21 5 93.7 177 
 RUS  HZ I         338 21.17         2.7 0.22                          93.7 177 
 ZAR  HN ES   2    338 35.76                             124   -0.28 4  209 294 
 ZAR  HZ I         338 41.01         3.7 0.47                           209 294 
                                                                                
