 2016  927 0835 19.2 L   6.770 -73.114144.1  RSN  6 0.1 1.5LRSN                1
 GAP=239        0.48       2.6     3.1  3.1  0.3395E+01  0.9712E-01 -0.8395E+00E
 Epicentro: LOS SANTOS - SANTANDER                                             3
 ACTION:UPD 17-08-17 21:16 OP:lp   STATUS:               ID:20160927083519 L   I
 OLDACT:UP  16-09-27 17:44 OP:edw  STATUS:               ID:20160927082743     3
 OLDACT:REG 16-09-27 13:07 OP:edw  STATUS:               ID:20160927082743     3
 2016-09-27-0828-00M.COL___351                                                 6
 STAT SP IPHASW D HRMM SECON CODA AMPLIT PERI AZIMU VELO AIN AR TRES W  DIS CAZ7
 BAR2 EZ EP        835 38.50                             171   -0.0810 21.1 201 
 BAR2 EZ ES        835 53.68                             171   -0.0210 21.1 201 
 BAR2 EZ I         835 54.49        13.6 0.26            171           21.1 201 
 BRR  HZ EP        835 40.40                             151   -0.0310 75.9 299 
 BRR  HN ES        835 57.15                             151    0.1510 75.9 299 
 BRR  HZ I         835 59.95         5.9 0.36            149           75.9 299 
 RUS  HZ EP        835 42.73                             144    0.2010 97.1 178 
 RUS  HN ES        836  0.56                             144   -0.1710 97.1 178 
 RUS  HZ I         836  2.10         1.7 0.26            146           97.1 178 
 PTB  HZ EP   9    835 45.49                             131   -0.80 0  151 260 
 PTB  HE ES        836  6.31                             132   -0.31 9  151 260 
 PTB  HZ I         836  9.33         5.1 0.12            130            151 260 
 SPBC HZ EP        835 47.32                             129   -0.22 9  163 221 
 SPBC HN ES        836  9.82                             129    0.18 9  163 221 
 SPBC HZ I         836 10.83         3.4 0.10            129            163 221 
 ZAR  HZ EP        835 52.14                             121    0.14 8  209 293 
 ZAR  HN ES        836 17.42                             121   -0.16 8  209 293 
 ZAR  HZ I         836 22.76         3.3 0.20            121            209 293 
                                                                                
