 2017  327 0112 28.7 L   6.922 -73.117135.8  RSN  6 0.4 1.3LRSN                1
 GAP=133        1.00       5.1     4.9  7.3  0.3879E+01 -0.4645E+00 -0.1020E+01E
 Epicentro: PIEDECUESTA - SANTANDER                                            3
 ACTION:UPD 17-05-25 18:45 OP:jn   STATUS:               ID:20170327011228 L   I
 OLDACT:UP  17-03-27 14:04 OP:and  STATUS:               ID:20170327010650     3
 OLDACT:UP  17-03-27 14:04 OP:and  STATUS:               ID:20170327010650     3
 OLDACT:UP  17-03-27 14:01 OP:and  STATUS:               ID:20170327010650     3
 OLDACT:UP  17-03-27 14:01 OP:and  STATUS:               ID:20170327010650     3
 OLDACT:REG 17-03-27 12:45 OP:and  STATUS:               ID:20170327010650     3
 2017-03-27-0108-00M.COL___361                                                 6
 STAT SP IPHASW D HRMM SECON CODA AMPLIT PERI AZIMU VELO AIN AR TRES W  DIS CAZ7
 BAR2 EZ EP        112 47.06                             164   -0.4210 37.2 191 
 BAR2 EZ ES        113  1.91                             164   -0.2510 37.2 191 
 BAR2 EZ I         113  3.33         4.7 0.32            165           37.2 191 
 PAM  EZ EP        112 49.35                             153    0.2510 65.2  45 
 PAM  EE ES        113  5.34                             153    0.2910 65.2  45 
 PAM  EZ I         113  6.58         2.7 0.20            154           65.2  45 
 BRR  HZ EP        112 48.12                             152   -0.4810 68.9 287 
 BRR  HN ES        113  3.85                             152   -0.3110 68.9 287 
 RUS  HZ EP        112 52.37                             138   -0.1310  114 178 
 RUS  HN ES        113 11.65                             138    0.5610  114 178 
 PTB  HZ EP   9    112 53.65                             128   -1.78 0  154 254 
 PTB  HN ES        113 14.62                             130    0.09 9  154 254 
 PTB  HZ I         113 17.66         1.7 0.12            128            154 254 
 ZAR  HN ES        113 25.67                             120    0.69 9  202 288 
 ZAR  HZ I         113 29.25         2.8 0.09            120            202 288 
                                                                                
