 2015  627 0833 34.6 L   6.861 -73.144151.9  RSN 14 0.4 2.2LRSN                1
 GAP=195        0.91       3.3     4.9  6.8 -0.4785E+01 -0.1869E+01  0.9034E+01E
 Epicentro: LOS SANTOS - SANTANDER                                             3
 ACTION:UPD 15-09-10 22:15 OP:cam  STATUS:               ID:20150627083334 L   I
 OLDACT:UP  15-06-27 17:38 OP:mh   STATUS:               ID:20150627082749     3
 OLDACT:UP  15-06-27 17:37 OP:mh   STATUS:               ID:20150627082749     3
 OLDACT:UP  15-06-27 17:37 OP:mh   STATUS:               ID:20150627082749     3
 OLDACT:UP  15-06-27 17:36 OP:mh   STATUS:               ID:20150627082749     3
 OLDACT:REG 15-06-27 13:09 OP:mh   STATUS:               ID:20150627082749     3
 2015-06-27-0827-49M.COL___307                                                 6
 STAT SP IPHASW D HRMM SECON CODA AMPLIT PERI AZIMU VELO AIN AR TRES W  DIS CAZ7
 BAR2 EZ EP        833 54.71                             168   -0.3510 30.0 188 
 BAR2 EZ I         834 10.50        24.6 0.20            157           30.0 188 
 BRR  HZ EP        833 56.33                             154    0.1110 68.5 293 
 BRR  HN ES        834 13.73                             154    0.6210 68.5 293 
 BRR  HZ I         834 14.83        19.6 0.06            169           68.5 293 
 OCA  HZ EP        834  2.72                             132   -0.01 9  154 353 
 OCA  HN ES        834 24.38                             132   -0.34 9  154 353 
 OCA  HZ I         834 29.82        20.5 0.16            134            154 353 
 ZAR  HZ EP        834  6.77                             124   -0.41 9  202 290 
 ZAR  HN ES        834 31.84                             124   -0.78 9  202 290 
 ZAR  HZ I         834 37.65         9.1 0.40            129            202 290 
 SML  HZ EP        834 11.18                             119    0.29 8  238 335 
 SML  HN ES        834 39.38                             119    0.15 8  238 335 
 SML  HZ I         834 42.68        25.7 0.26            121            238 335 
 NOR  HZ EP        834 11.12                             119    0.04 8  239 233 
 NOR  HN ES        834 39.18                             119   -0.40 8  239 233 
 NOR  HZ I         834 41.03        12.1 0.14            120            239 233 
 HEL  HZ EP        834 15.59                             116    0.29 8  274 254 
 HEL  HN ES        834 46.75                             116   -0.33 8  274 254 
 URE  HZ EP   4    834 14.88                             115   -0.80 0  282 291 
 URE  HN ES        834 48.35                             115    0.59 7  282 291 
 URE  HZ I         834 56.94         9.6 0.22            118            282 291 
 GUY2CHZ EP        834 19.50                             113    0.59 7  305 234 
 GUY2CHN ES   4    834 54.80                             113    1.29 0  305 234 
 GUY2CHZ I         834 58.68         5.9 0.32                           305 234 
 PTGC HZ EP   4    834 17.50                             112   -1.89 0  315 159 
 PTGC HN ES   4    834 50.81                             112   -3.55 0  315 159 
 PTGC HZ I         835 46.35        16.2 0.48            109            315 159 
 TOL  SZ EP   1    834 24.52                             110    0.89 5  348 224 
 TOL  SN ES        835  2.37                             110    0.46 6  348 224 
 TOL  SZ I         835  8.03         6.3 0.52            110            348 224 
 MON  HZ EP   4    834 21.76                             110   -1.58 0  350 307 
 MON  HN ES   4    835  0.19                             110   -1.21 0  350 307 
 MON  HZ I         835 15.25         2.2 0.64            111            350 307 
 PRA  HZ EP        834 28.62                             107   -0.37 6  398 209 
 PRA  HN ES     C  835 11.17                             107   -0.28 6  398 209 
 PRA  HZ I         835 16.00         4.6 0.20            106            398 209 
 ORTC HZ EP        834 29.19                             107   -0.15 6  401 216 
 ORTC HN ES   4    835 12.16                             107    0.09 0  401 216 
 ORTC HZ I         835 15.66         4.9 0.32            106            401 216 
                                                                                
