 2017 1027 0648 14.5 L   6.550 -73.579108.2  RSN 10 0.6 1.5LRSN                1
 GAP= 61        1.31       3.7     3.7  8.0 -0.7939E+00  0.1632E+01  0.5285E+01E
 Epicentro: EL CARMEN - SANTANDER                                              3
 ACTION:UPD 17-11-07 19:37 OP:rebc STATUS:               ID:20171027064814 L   I
 OLDACT:UP  17-10-27 17:16 OP:dani STATUS:               ID:20171027064739     3
 OLDACT:REG 17-10-27 12:58 OP:dani STATUS:               ID:20171027064739     3
 2017-10-27-0648-00M.COL___444                                                 6
 STAT SP IPHASW D HRMM SECON CODA AMPLIT PERI AZIMU VELO AIN AR TRES W  DIS CAZ7
 BAR2 EZ EP     D  648 30.43                             156   -0.0210 44.1  84 
 BAR2 EZ ES        648 42.82                             156   -0.0610 44.1  84 
 BAR2 EZ I         648 44.27        32.7 0.46            158           44.1  84 
 BRR  HZ EP        648 31.38                             147    0.1610 63.4 347 
 BRR  HN ES        648 44.93                             147    0.6910 63.4 347 
 BRR  HZ I         648 45.92         8.9 0.15            148           63.4 347 
 RUS  HZ EP        648 33.36                             137   -0.6310 91.1 143 
 RUS  HE ES        648 49.63                             137    0.4610 91.1 143 
 RUS  HZ I         648 51.51         2.3 0.24            140           91.1 143 
 PTB  HZ EP        648 33.23                             135   -0.6110 97.0 269 
 PTB  HN ES        648 48.13                             135   -0.7710 97.0 269 
 PTB  HZ I         648 49.43         8.7 0.10            136           97.0 269 
 SPBC HZ EP        648 35.70                             130    0.3010  113 209 
 SPBC HN ES        648 51.40                             130   -0.2910  113 209 
 SPBC HZ I         648 53.09         6.5 0.07            132            113 209 
 PAM  EZ EP        648 37.36                             126   -0.2510  131  48 
 PAM  EN ES        648 55.08                             126   -0.5510  131  48 
 PAM  EZ I         648 56.42         3.4 0.18            128            131  48 
 ZAR  HZ EP        648 42.78                             117    1.10 9  176 306 
 ZAR  HN ES   3    649  4.98                             117    2.12 2  176 306 
 ZAR  HZ I         649  7.18         5.9 0.36            118            176 306 
 NOR  HN ES        649  3.78                             116    0.02 9  180 233 
 YPLC HZ EP        648 42.40                             115   -0.29 9  184 134 
 YPLC HZ ES        649  5.11                             115    0.44 9  184 134 
 CHI  HN ES        649 11.73                             112    0.54 8  213 185 
                                                                                
