 2015  527 0955 20.7 L   6.047 -73.811 91.9  RSN  5 0.4 1.3LRSN                1
 GAP=164        0.97       4.7     4.3  8.9 -0.1037E+02  0.2063E+02 -0.1863E+02E
 Epicentro: EL PENON - SANTANDER                                               3
 ACTION:UPD 15-09-10 22:07 OP:cam  STATUS:               ID:20150527095520 L   I
 OLDACT:REG 15-05-27 12:59 OP:spq  STATUS:               ID:20150527094745     3
 2015-05-27-0947-45M.COL___291                                                 6
 STAT SP IPHASW D HRMM SECON CODA AMPLIT PERI AZIMU VELO AIN AR TRES W  DIS CAZ7
 SPBC HZ EP        955 34.74                             148   -0.3410 52.3 214 
 SPBC HN ES        955 46.59                             148    0.2610 52.3 214 
 SPBC HZ I         955 52.99         6.6 0.22            155           52.3 214 
 BAR2 EZ EP        955 38.93                             132    0.4610 92.1  49 
 BAR2 EZ ES        955 52.01                             132   -0.3610 92.1  49 
 BAR2 EZ I         955 55.29         4.0 0.18            140           92.1  49 
 HEL  HZ EP        955 49.37                             111    0.20 9  191 275 
 HEL  HE ES        956 10.70                             111   -0.71 9  191 275 
 HEL  HZ I         956 13.65         2.7 0.26            117            191 275 
 GUY2CHZ EP        955 49.55                             111   -0.21 9  195 242 
 GUY2CHE ES        956 12.88                             111    0.43 9  195 242 
 GUY2CHZ I         956 16.50         3.6 0.34                           195 242 
 ZAR  HZ EP        955 49.30                             110   -0.18 9  197 324 
 ZAR  HE ES        956 12.43                             110    0.48 9  197 324 
 ZAR  HZ I         956 14.96         1.4 0.42            116            197 324 
                                                                                
