 2017 1027 0201 18.6 L   6.779 -73.105142.4  RSN  6 0.6 1.2LRSN                1
 GAP=143        1.32       6.7     7.0  9.7  0.7775E+01  0.1657E+02  0.2478E+01E
 Epicentro: LOS SANTOS - SANTANDER                                             3
 ACTION:UPD 17-11-07 19:37 OP:rebc STATUS:               ID:20171027020118 L   I
 OLDACT:UP  17-10-27 14:03 OP:dani STATUS:               ID:20171027015742d    3
 OLDACT:DUP 17-10-27 14:00 OP:dani STATUS:               ID:20171027015742d    3
 OLDACT:REG 17-10-27 12:33 OP:dani STATUS:               ID:20171027015741     3
 2017-10-27-0158-00M.COL___462                                                 6
 STAT SP IPHASW D HRMM SECON CODA AMPLIT PERI AZIMU VELO AIN AR TRES W  DIS CAZ7
 BAR2 EZ EP        2 1 37.87                             170    0.0510 22.4 202 
 BAR2 EZ ES        2 1 51.92                             170   -0.8710 22.4 202 
 BAR2 EZ I         2 1 56.78         5.0 0.50            171           22.4 202 
 BRR  HZ EP        2 1 39.74                             150    0.0510 76.2 298 
 BRR  HN ES        2 1 57.17                             150    1.0410 76.2 298 
 BRR  HZ I         2 1 59.19         5.7 0.41            151           76.2 298 
 PAM  EZ EP        2 1 40.44                             151    0.0310 76.5  36 
 PAM  EE ES        2 1 57.19                             151   -0.2310 76.5  36 
 PAM  EZ I         2 2  2.86         1.9 0.20            155           76.5  36 
 RUS  HZ EP        2 1 42.12                             144    0.2710 98.1 179 
 RUS  HN ES        2 2  0.40                             144    0.4310 98.1 179 
 RUS  HZ I         2 2  1.66         1.3 0.25            148           98.1 179 
 PTB  HZ EP        2 1 45.01                             130   -0.66 9  152 260 
 PTB  HN ES   3    2 2  5.21                             130   -1.57 2  152 260 
 PTB  HZ I         2 2 13.51         1.7 0.41            133            152 260 
 ZAR  HN ES        2 2 16.76                             121   -0.15 8  209 292 
                                                                                
