 2011  527 0118  0.3 L   6.793 -73.094150.6  RSN  9 0.4 1.8LRSN                1
 GAP=144        0.83       4.6     6.5  6.1 -0.1344E+02  0.5523E+01  0.4430E+01E
 Epicentro: LOS SANTOS - SANTANDER                                             3
 ACTION:UP  11-06-29 08:56 OP:tino STATUS:               ID:20110527011800 L   I
 2011-05-27-0114-55S.COL___115                                                 6
 STAT SP IPHASW D HRMM SECON CODA AMPLIT PERI AZIMU VELO SNR AR TRES W  DIS CAZ7
 BAR2 SZ EP   1    118 20.26                             170    -0.3 7   24 204 
 BAR2 SZ ES   1    118 35.56                             170    -0.8 7   24 204 
 BAR2 SZ I         118 37.05        31.4 0.23                            24 204 
 GIR2 SZ EP   1    118 20.61                             167     0.0 7   33 341 
 GIR2 SZ ES   1    118 36.72                             167     0.2 7   33 341 
 PAM  SZ EP   1    118 23.26                             152     0.4 7   75  36 
 PAM  SN ES   1    118 40.53                             152     0.0 7   75  36 
 PAM  SZ I         118 43.25         2.7 0.23                            75  36 
 BRR  HZ EP        118 22.39                             152     0.110   77 297 
 BRR  HN ES   1    118 39.74                             152     0.3 7   77 297 
 BRR  HZ I         118 43.22        27.3 0.16                            77 297 
 RUS  HZ EP   1    118 24.33                             145    -0.2 7  100 179 
 RUS  HN ES   1    118 43.81                             145     0.5 7  100 179 
 RUS  HZ I         118 46.02        11.6 0.24                           100 179 
 BRI  SZ EP   1    118 24.96                             143     0.4 7  107  18 
 BRI  SZ I         118 55.38         8.8 0.42                           107  18 
 GRA  SZ EP   2    118 25.03                             138    -0.9 5  125  15 
 GRA  SZ ES   2    118 45.70                             138    -0.2 5  125  15 
 GRA  SZ I         118 50.85         9.1 0.36                           125  15 
 NOR  SZ EP   1    118 36.84                             119     0.0 6  239 235 
 NOR  SN ES   1    119  4.92                             119    -0.3 6  239 235 
 NOR  SZ I         119 10.09         1.4 0.13                           239 235 
 PRA  HZ EP   1    118 53.94                             107    -0.3 4  394 210 
 PRA  HN ES   1    119 36.98                             107     0.6 4  394 210 
                                                                                
