 2013  927 0550 53.7 L   6.776 -73.124145.1  RSN 15 0.4 1.8LRSN                1
 GAP=140        0.76       2.4     3.2  4.7 -0.8187E+00  0.4338E+01  0.1224E+01E
 Epicentro: LOS SANTOS - SANTANDER                                             3
 ACTION:UPD 13-10-22 09:25 OP:ep   STATUS:               ID:20130927055053 L   I
 OLDACT:UP  13-09-27 12:37 OP:mh   STATUS:               ID:20130927054741     3
 OLDACT:UP  13-09-27 12:36 OP:mh   STATUS:               ID:20130927054741     3
 OLDACT:REG 13-09-27 10:21 OP:mh   STATUS:               ID:20130927054741     3
 2013-09-27-0547-41M.COL___238                                                 6
 STAT SP IPHASW D HRMM SECON CODA AMPLIT PERI AZIMU VELO AIN AR TRES W  DIS CAZ7
 BAR2 SZ EP   1    551 13.22                             171    0.02 7 21.4 198 
 BAR2 SZ ES   1    551 28.48                             171    0.07 7 21.4 198 
 BAR2 SZ I         551 30.70        10.2 0.28            167           21.4 198 
 BRR  HZ EP   1    551 15.03                             151    0.08 7 74.5 299 
 BRR  HN ES        551 32.06                             151    0.5210 74.5 299 
 BRR  HZ I         551 34.48         4.8 0.10            150           74.5 299 
 PAM  SZ EP   1    551 15.97                             150    0.11 7 78.0  37 
 PAM  SN ES        551 33.10                             150   -0.0610 78.0  37 
 PAM  SZ I         551 35.31         7.3 0.48            155           78.0  37 
 RUS  HZ EP   1    551 17.26                             144    0.08 7 97.8 177 
 RUS  HN ES        551 35.24                             144   -0.2610 97.8 177 
 RUS  HZ I         551 38.45         6.1 0.32            144           97.8 177 
 PTB  HZ EP   1    551 20.05                             131   -0.72 7  150 260 
 PTB  HN ES        551 41.21                             131   -0.68 9  150 260 
 PTB  HZ I         551 48.35         8.6 0.48            130            150 260 
 SPBC HZ EP   1    551 22.09                             129    0.00 7  163 220 
 SPBC HN ES        551 44.29                             129    0.05 9  163 220 
 SPBC HZ I         551 49.75         9.5 0.16            128            163 220 
 OCA  HN ES   1    551 44.80                             129    0.33 7  163 352 
 OCA  HN I         551 46.56        33.0 0.18            131            163 352 
 ZAR  HN ES        551 51.89                             122   -0.06 8  207 293 
 ZAR  HZ I         551 58.26         6.3 0.32            122            207 293 
 NOR  HN ES        551 57.58                             118    0.28 8  235 235 
 NOR  HZ I         552  0.80         5.3 0.18            118            235 235 
 SML  HZ EP   1    551 29.81                             117   -0.83 6  247 335 
 SML  HN ES   1    551 59.20                             117   -0.26 6  247 335 
 SML  HZ I         552  1.51        14.4 0.10            118            247 335 
 CHI  HZ EP   1    551 31.50                             117    0.36 6  247 196 
 CHI  HN ES   1    552  0.15                             117   -0.21 6  247 196 
 CHI  HZ I         552  9.26         2.1 0.34            117            247 196 
 HEL  HZ EP   1    551 34.53                             114    0.48 6  274 256 
 HEL  HE ES   1    552  5.93                             114    0.40 6  274 256 
 HEL  HZ I         552 10.62         2.6 0.74            114            274 256 
 GUY2CHZ EP   1    551 38.05                             112    0.74 5  302 235 
 GUY2CHN ES   4    552 13.10                             112    1.76 0  302 235 
 GUY2CHZ I         552 19.90         4.1 0.78                           302 235 
 RREF HZ EP   4    551 39.88                             111    0.07 0  322 230 
 RREF HN ES   4    552 18.34                             111    2.55 0  322 230 
 RREF HZ I         552 23.99         3.4 0.26            111            322 230 
 PRA  HZ EP   1    551 47.25                             106    0.19 4  391 210 
 PRA  HN ES   4    552 30.60                             106    1.92 0  391 210 
 PRA  HZ I         552 35.51         3.3 0.80            107            391 210 
                                                                                
