 2011 1227 0511  7.2 L   6.772 -73.175147.5  RSN  5 0.4 1.2LRSN                1
 GAP=134        0.74       7.1     5.5  7.8 -0.1185E+02  0.7380E+01 -0.2305E+01E
 Epicentro: LOS SANTOS - SANTANDER                                             3
 ACTION:UPD 12-07-13 16:18 OP:ep   STATUS:               ID:20111227051107 L   I
 2011-12-27-0510-00M.COL___187                                                 6
 STAT SP IPHASW D HRMM SECON CODA AMPLIT PERI AZIMU VELO AIN AR TRES W  DIS CAZ7
 BAR2 SZ EP   1    511 26.96                             172    0.01 7 19.9 182 
 BAR2 SZ ES   1    511 42.38                             172    0.00 7 19.9 182 
 BAR2 SZ I         511 44.22         4.9 0.37                          19.9 182 
 BRR  HZ EP   1    511 28.82                             153    0.37 7 70.0 302 
 BRR  HZ I         511 29.21         4.7 0.11                          70.0 302 
 BRR  HE ES   1    511 45.64                             153    0.60 7 70.0 302 
 PAM  SZ EP   1    511 29.93                             150    0.08 7 81.8  40 
 PAM  SZ I         511 30.17         2.5 0.15                          81.8  40 
 PAM  SN ES   1    511 46.98                             150   -0.55 7 81.8  40 
 RUS  HN ES   2    511 49.66                             145    0.25 5 97.8 174 
 RUS  HZ I         511 51.64         1.9 0.39                          97.8 174 
 PTB  HZ EP   1    511 33.83                             133   -0.13 7  144 260 
 PTB  HN ES   1    511 54.25                             133   -0.59 7  144 260 
                                                                                
