 2011  227 0810 11.8 L   6.817 -73.081138.8  RSN 10 0.3 2.2LRSN                1
 GAP=106        0.75       2.5     5.4  5.5 -0.1593E+01  0.4892E+01 -0.6953E+00E
 Epicentro: LOS SANTOS - SANTANDER                                             3
 ACTION:UP  11-03-28 15:11 OP:jfem STATUS:               ID:20110227081011 L   I
 2011-02-27-0806-37S.COL___135                                                 6
 STAT SP IPHASW D HRMM SECON CODA AMPLIT PERI AZIMU VELO SNR AR TRES W  DIS CAZ7
 BAR2 SZ IP        810 30.98                             168     0.310   27 205 
 BAR2 SZ ES   1    810 45.62                             168     0.2 7   27 205 
 BAR2 SZ I         810 48.28        55.6 0.27                            27 205 
 RUS  HZ EP        810 35.03                             142     0.010  102 180 
 RUS  HE ES   1    810 52.65                             142    -0.5 7  102 180 
 RUS  HZ I         810 56.00        25.1 0.38                           102 180 
 GRA  SZ EP        810 36.72                             136     0.610  122  15 
 GRA  SZ ES   1    810 54.77                             136    -0.3 7  122  15 
 GRA  SZ I         810 57.29        25.8 0.43                           122  15 
 OCA  SZ EP        810 39.08                             128    -0.4 9  159 351 
 OCA  SZ ES   1    811  1.05                             128    -0.1 7  159 351 
 OCA  SZ I         811  4.24        19.1 0.22                           159 351 
 YOP  SZ EP   1    810 41.33                             125     0.1 7  178 156 
 YOP  SN ES   1    811  4.22                             125     0.0 7  178 156 
 YOP  SZ I         811  7.99        12.3 0.43                           178 156 
 CHI  HZ EP        810 49.41                             115    -0.1 8  252 197 
 CHI  HE ES   2    811 18.67                             115    -0.3 4  252 197 
 CHI  HZ I         811 25.96         8.0 0.34                           252 197 
 HEL  HZ EP   1    810 52.62                             113     0.1 6  279 256 
 HEL  HZ I         811 29.84        10.7 0.62                           279 256 
 RREF HZ EP   2    810 58.33                             109    -0.1 3  328 230 
 RREF HN ES   2    811 35.12                             109     0.3 3  328 230 
 RREF HZ I         811 43.31        13.1 0.25                           328 230 
 DBB  SZ EP   1    810 59.67                             108    -0.2 5  347 274 
 SDV  BZ EP        811  0.59                             107    -0.2 6  354  50 
                                                                                
