 2014 1127 0640 34.4 L   6.720 -73.205144.0  RSN  5 0.5 1.2LRSN                1
 GAP=223        1.12       9.2     8.2 10.5  0.4215E+02 -0.1909E+01 -0.9326E+01E
 Epicentro: VILLANUEVA - SANTANDER                                             3
 ACTION:UPD 14-12-19 15:48 OP:nd   STATUS:               ID:20141127064034 L   I
 OLDACT:UP  14-11-27 17:12 OP:fm   STATUS:               ID:20141127063736     3
 OLDACT:UP  14-11-27 17:12 OP:fm   STATUS:               ID:20141127063736     3
 OLDACT:UP  14-11-27 17:07 OP:fm   STATUS:               ID:20141127063736     3
 OLDACT:REG 14-11-27 13:27 OP:fm   STATUS:               ID:20141127063736     3
 2014-11-27-0637-36M.COL___306                                                 6
 STAT SP IPHASW D HRMM SECON CODA AMPLIT PERI AZIMU VELO AIN AR TRES W  DIS CAZ7
 BAR2 SZ EP        640 53.36                             174   -0.3310 14.4 170 
 BRR  HZ EP        640 54.60                             153   -0.7410 70.5 307 
 BRR  HN ES        641 12.15                             153    0.4910 70.5 307 
 BRR  HZ I         641 15.76         4.0 0.42            150           70.5 307 
 RUS  HZ EP   1    640 57.91                             146    0.48 7 92.5 172 
 RUS  HN ES   1    641 15.54                             146    0.17 7 92.5 172 
 PTB  HZ EP        641  0.50                             133   -0.03 9  140 262 
 PTB  HN ES        641 20.66                             133   -0.24 9  140 262 
 PTB  HZ I         641 23.91         1.4 0.16            134            140 262 
 ZAR  HZ EP        641  7.31                             122    0.81 9  202 295 
 ZAR  HN ES        641 31.34                             122   -0.18 9  202 295 
 ZAR  HZ I         641 38.45         1.7 0.36            123            202 295 
                                                                                
