 2017 1127 0325 47.5 L   6.886 -73.287119.8  RSN  7 0.4 1.4LRSN                1
 GAP=108        0.97       3.0     3.8  7.1 -0.2062E+01  0.1076E+02 -0.3761E+01E
 Epicentro: BETULIA - SANTANDER                                                3
 ACTION:UPD 17-12-12 20:00 OP:rebc STATUS:               ID:20171127032547 L   I
 OLDACT:DUP 17-11-27 14:58 OP:dhb  STATUS:               ID:20171127031745d    3
 OLDACT:UP  17-11-27 14:57 OP:dhb  STATUS:               ID:20171127031744     3
 OLDACT:REG 17-11-27 12:12 OP:dhb  STATUS:               ID:20171127031744     3
 2017-11-27-0318-00M.COL___495                                                 6
 STAT SP IPHASW D HRMM SECON CODA AMPLIT PERI AZIMU VELO AIN AR TRES W  DIS CAZ7
 BAR2 EZ IP     C  326  4.59                             163    0.2810 34.5 160 
 BAR2 EZ ES        326 17.16                             163   -0.3010 34.5 160 
 BAR2 EZ I         326 19.11        19.5 0.28            166           34.5 160 
 PAM  EZ EP        326  7.22                             144   -0.0910 82.0  52 
 PAM  EN ES        326 23.43                             144    0.6310 82.0  52 
 PAM  EZ I         326 26.63         3.7 0.46            147           82.0  52 
 RUS  HZ EP        326  9.50                             134   -0.2410  112 168 
 RUS  HN ES        326 27.12                             134    0.0010  112 168 
 RUS  HZ I         326 28.84         1.4 0.32            138            112 168 
 PTB  HZ EP        326 10.77                             128   -0.4110  135 254 
 PTB  HN ES        326 29.32                             128   -0.3610  135 254 
 PTB  HZ I         326 31.74         3.7 0.44            131            135 254 
 OCA  HZ EP        326 12.77                             125   -0.05 9  150 359 
 OCA  HE ES        326 31.94                             125   -0.65 9  150 359 
 SPBC HZ EP        326 13.85                             123   -0.11 9  162 213 
 SPBC HN ES        326 34.97                             123    0.34 9  162 213 
 SPBC HZ I         326 35.65         5.7 0.10            126            162 213 
 ZAR  HZ EP        326 16.96                             119    0.56 9  186 291 
 ZAR  HE ES        326 39.44                             119    0.47 9  186 291 
 ZAR  HZ I         326 42.93         3.9 0.30            121            186 291 
                                                                                
