 2015 1027 0538 18.6 L   6.724 -73.101138.7  RSN  4 0.2 1.3LRSN                1
 GAP=179        0.47       3.1     3.7  4.3 -0.1092E+01 -0.5101E+00 -0.1996E+01E
 Epicentro: JORDAN - SANTANDER                                                 3
 ACTION:UPD 15-12-22 20:43 OP:cam  STATUS:               ID:20151027053818 L   I
 OLDACT:REG 15-10-27 12:29 OP:mh   STATUS:               ID:20151027053745     3
 2015-10-27-0537-45M.COL___310                                                 6
 STAT SP IPHASW D HRMM SECON CODA AMPLIT PERI AZIMU VELO AIN AR TRES W  DIS CAZ7
 BAR2 EZ EP        538 37.10                             173   -0.1310 17.1 212 
 BAR2 EZ ES        538 52.01                             173    0.2210 17.1 212 
 BAR2 EZ I         538 53.18         4.5 0.26            172           17.1 212 
 BRR  HZ EP        538 39.43                             148   -0.0510 79.7 302 
 BRR  HN ES        538 55.67                             148   -0.1110 79.7 302 
 BRR  HZ I         539  0.93         3.4 0.14            145           79.7 302 
 PAM  EZ EP        538 40.42                             148    0.1410 81.3  33 
 PAM  EN ES        538 57.01                             148   -0.2010 81.3  33 
 PAM  EZ I         538 59.54         2.7 0.64            148           81.3  33 
 OCA  HN ES        539  9.71                             126    0.16 9  169 352 
 OCA  HZ I         539 15.05         4.8 0.19            126            169 352 
                                                                                
