 2011  127 0501 32.1 L   6.753 -72.885134.0  RSN  4 0.3 1.1LRSN                1
 GAP=189        0.69       6.3    26.6 11.5 -0.7543E+02 -0.1727E+03  0.9821E+01E
 Epicentro: SAN ANDRES - SANTANDER                                             3
 ACTION:UP  11-02-08 08:42 OP:pat  STATUS:               ID:20110127050132 L   I
 2011-01-27-0459-32S.COL___138                                                 6
 STAT SP IPHASW D HRMM SECON CODA AMPLIT PERI AZIMU VELO SNR AR TRES W  DIS CAZ7
 BAR2 SZ EP   1    5 1 50.24                             163    -0.5 7   38 242 
 BAR2 SZ ES   1    5 2  5.04                             163    -0.2 7   38 242 
 BAR2 SZ I         5 2  6.62         4.0 0.11                            38 242 
 BTL  SZ EP        5 1 51.36                             159     0.310   46 293 
 RUS  HZ EP   1    5 1 54.40                             142    -0.1 7   98 193 
 RUS  HN ES   2    5 2 12.40                             142     0.5 5   98 193 
 RUS  HZ I         5 2 15.17         2.1 0.31                            98 193 
 GRA  SZ EP   2    5 1 56.30                             134     0.0 5  125   4 
 GRA  SZ ES   2    5 2 15.13                             134     0.0 5  125   4 
 GRA  SZ I         5 2 19.72         2.0 0.77                           125   4 
                                                                                
