 2016  427 0654 27.6 L   6.834 -73.180144.4  RSN  5 0.2 1.5LRSN                1
 GAP=146        0.56       3.2     3.2  5.5 -0.4569E+01  0.4812E+01 -0.2734E+00E
 Epicentro: ZAPATOCA - SANTANDER                                               3
 ACTION:UPD 16-05-05 14:24 OP:rebc STATUS:               ID:20160427065427 L   I
 OLDACT:UP  16-04-27 16:09 OP:dani STATUS:               ID:20160427064746     3
 OLDACT:UP  16-04-27 16:07 OP:dani STATUS:               ID:20160427064746     3
 OLDACT:UP  16-04-27 16:04 OP:dani STATUS:               ID:20160427064746     3
 OLDACT:REG 16-04-27 13:09 OP:dnl  STATUS:               ID:20160427064746     3
 2016-04-27-0647-46M.COL___289                                                 6
 STAT SP IPHASW D HRMM SECON CODA AMPLIT PERI AZIMU VELO AIN AR TRES W  DIS CAZ7
 BAR2 EZ EP        654 47.04                             169   -0.0610 26.7 181 
 BAR2 EZ I         655  3.08         5.5 0.22            170           26.7 181 
 PAM  EZ EP     C  654 49.86                             151    0.2510 77.1  43 
 PAM  EN ES        655  6.69                             151   -0.1310 77.1  43 
 PAM  EZ I         655  8.99         8.5 0.52            148           77.1  43 
 RUS  HZ EP        654 51.13                             142   -0.3410  105 174 
 RUS  HE ES        655 10.34                             142    0.2110  105 174 
 RUS  HZ I         655 10.80         3.3 0.34            142            105 174 
 PTB  HZ EP        654 54.03                             132   -0.12 9  145 257 
 PTB  HN ES        655 14.97                             132    0.08 9  145 257 
 PTB  HZ I         655 17.79         2.7 0.12            131            145 257 
 SPBC HZ EP        654 56.29                             129    0.28 9  164 217 
 SPBC HN ES        655 18.04                             129   -0.16 9  164 217 
 SPBC HZ I         655 20.96         7.1 0.29            128            164 217 
                                                                                
