 2010  927 0958 25.9 L   6.792 -73.055145.4  RSN  4 0.2 1.6LRSN                1
 GAP=246        0.38       3.9     7.8  4.7  0.1775E+02 -0.5859E+01  0.2723E+01E
 Epicentro: LOS SANTOS - SANTANDER                                             3
 ACTION:UP  11-02-18 11:05 OP:tino STATUS:               ID:20100927095825 L   I
 2010-09-27-0955-26S.COL___121                                                 6
 STAT SP IPHASW D HRMM SECON CODA AMPLIT PERI AZIMU VELO SNR AR TRES W  DIS CAZ7
 BAR2 SZ EP   1    958 45.47                             169    -0.1 7   26 213 
 BAR2 SZ ES   2    959  0.64                             169    -0.2 5   26 213 
 BAR2 SZ I         959  3.50        11.2 0.35                            26 213 
 BRR  HZ EP        958 47.52                             149     0.010   81 296 
 BRR  HE ES   1    959  4.52                             149     0.1 7   81 296 
 BRR  HZ I         959  8.19         7.5 0.26                            81 296 
 RUS  HZ EP   1    958 49.51                             144     0.0 7  100 182 
 RUS  HN ES   2    959  8.33                             144     0.4 5  100 182 
 RUS  HZ I         959  9.56         3.9 0.33                           100 182 
 CHI  HZ EP   1    959  3.88                             117     0.1 6  251 197 
 CHI  HN ES   2    959 33.07                             117    -0.3 4  251 197 
                                                                                
