 2013  627 0824 28.8 L   6.758 -73.142150.0  RSN  9 0.4 1.9LRSN                1
 GAP=183        0.90       4.0     5.4  7.0  0.3581E+01  0.3075E+01 -0.3074E+01E
 Epicentro: LOS SANTOS - SANTANDER                                             3
 ACTION:UPD 14-01-08 09:57 OP:ep   STATUS:               ID:20130627082428 L   I
 OLDACT:REG 13-06-27 06:44 OP:jn   STATUS:               ID:20130627081959     3
 2013-06-27-0819-59M.COL___266                                                 6
 STAT SP IPHASW D HRMM SECON CODA AMPLIT PERI AZIMU VELO AIN AR TRES W  DIS CAZ7
 BAR2 SZ EP        824 48.91                             173    0.0610 18.9 194 
 BAR2 SZ ES   1    825  3.90                             173   -0.60 7 18.9 194 
 BAR2 SZ I         825  5.68        17.0 0.44            166           18.9 194 
 GIR2 SZ EP        824 48.99                             166   -0.1110 35.9 351 
 BRR  HZ EP     C  824 50.73                             152    0.1810 73.8 302 
 BRR  HE ES        825  8.11                             152    0.6010 73.8 302 
 BRR  HZ I         825 10.68        13.1 0.14            148           73.8 302 
 RUS  HZ EP        824 52.84                             146    0.2010 96.0 176 
 RUS  HN ES   1    825 11.38                             146    0.14 7 96.0 176 
 RUS  HZ I         825 12.68         7.5 0.40            145           96.0 176 
 PTB  HZ EP        824 55.43                             133   -0.64 9  147 261 
 PTB  HN ES   1    825 17.02                             133   -0.32 7  147 261 
 PTB  HZ I         825 19.41         9.4 0.26            130            147 261 
 OCA  HN ES   1    825 20.01                             130   -0.53 7  165 353 
 ZAR  HZ EP   1    825  2.52                             123    0.79 6  206 293 
 ZAR  HE ES   1    825 27.05                             123   -0.38 6  206 293 
 ZAR  HZ I         825 32.96        12.8 0.35            122            206 293 
 NOR  HE ES   1    825 32.58                             120    0.19 6  232 235 
 NOR  HZ I         825 41.32         5.8 0.18            118            232 235 
 SML  HZ EP   1    825  5.84                             118   -0.29 6  248 336 
 SML  HE ES   1    825 35.66                             118    0.41 6  248 336 
                                                                                
