 2016  727 0436 34.2 L   6.698 -73.628106.0  RSN  5 0.2 1.1LRSN                1
 GAP=115        0.57       2.7     2.4  4.9  0.9501E+00  0.1823E+01  0.3956E+01E
 Epicentro: EL CARMEN - SANTANDER                                              3
 ACTION:UPD 17-03-29 16:55 OP:lp   STATUS:               ID:20160727043634 L   I
 OLDACT:UP  16-07-27 16:32 OP:edw  STATUS:               ID:20160727042760d    3
 OLDACT:UP  16-07-27 16:24 OP:edw  STATUS:               ID:20160727042760d    3
 2016-07-27-0427-59S.COL___340                                                 6
 STAT SP IPHASW D HRMM SECON CODA AMPLIT PERI AZIMU VELO AIN AR TRES W  DIS CAZ7
 BRR  HZ EP        436 49.75                             155    0.0710 46.2 348 
 BRR  HN ES        437  1.94                             155    0.2110 46.2 348 
 BAR2 EZ EP        436 49.94                             153   -0.3310 50.7 103 
 BAR2 EZ ES        437  2.76                             153   -0.0210 50.7 103 
 BAR2 EZ I         437  3.05         5.4 0.26            154           50.7 103 
 PTB  HZ EP        436 52.85                             135   -0.1910 93.2 259 
 PTB  HE ES        437  7.58                             135   -0.1210 93.2 259 
 PTB  HZ I         437  8.72         1.8 0.24            136           93.2 259 
 RUS  HZ EP        436 55.31                             131    0.3510  108 146 
 RUS  HN ES        437 10.97                             131   -0.1610  108 146 
 RUS  HZ I         437 11.57         3.4 0.26            132            108 146 
 SPBC HZ EP   2    436 56.44                             126    0.29 5  126 203 
 SPBC HN ES        437 13.39                             126    0.1510  126 203 
                                                                                
