 2016  327 0216  4.9 L   6.785 -73.138139.4  RSN 10 0.3 1.6LRSN                1
 GAP=138        0.82       3.0     3.2  5.6 -0.1828E+01  0.7814E+01  0.4010E+00E
 Epicentro: LOS SANTOS - SANTANDER                                             3
 ACTION:UPD 16-05-13 21:27 OP:cam  STATUS:               ID:20160327021604 L   I
 OLDACT:REG 16-03-27 12:53 OP:ak   STATUS:               ID:20160327020746     3
 2016-03-27-0207-46M.COL___296                                                 6
 STAT SP IPHASW D HRMM SECON CODA AMPLIT PERI AZIMU VELO AIN AR TRES W  DIS CAZ7
 BAR2 EZ EP        216 23.73                             171    0.0410 21.9 193 
 BAR2 EZ ES        216 38.40                             171    0.0110 21.9 193 
 BAR2 EZ I         216 39.80        13.7 0.12            170           21.9 193 
 PAM  EZ EP        216 26.71                             149    0.2610 78.1  38 
 PAM  EN ES        216 43.39                             149    0.1010 78.1  38 
 PAM  EZ I         216 46.25         5.7 0.64            153           78.1  38 
 RUS  HZ EP        216 27.72                             143   -0.1410 98.8 176 
 RUS  HN ES        216 45.42                             143   -0.3810 98.8 176 
 RUS  HZ I         216 47.24         5.4 0.22            144           98.8 176 
 PTB  HZ EP        216 30.48                             130   -0.89 9  148 260 
 PTB  HN ES        216 51.63                             130   -0.41 9  148 260 
 PTB  HZ I         216 53.88         4.6 0.10            131            148 260 
 SPBC HZ EP        216 32.81                             128    0.01 9  162 220 
 SPBC HN ES        216 55.24                             128    0.64 9  162 220 
 SPBC HZ I         216 59.81         6.5 0.23            129            162 220 
 ZAR  HZ EP        216 37.45                             121    0.40 8  206 292 
 ZAR  HN ES        217  2.33                             121    0.17 8  206 292 
 ZAR  HZ I         217  8.08         6.1 0.22            122            206 292 
 NOR  HZ EP   2    216 40.04                             117   -0.16 4  234 235 
 NOR  HN ES        217  8.00                             117    0.24 8  234 235 
 NOR  HZ I         217 11.56         3.5 0.20            118            234 235 
 CHI  HZ EP   2    216 41.80                             116   -0.26 4  247 195 
 CHI  HN ES        217 11.44                             116    0.36 8  247 195 
 CHI  HZ I         217 17.58         1.0 0.68            117            247 195 
 HEL  HN ES        217 15.97                             113    0.01 8  273 256 
 GUY2CHZ EP   2    216 48.17                             111    0.02 4  301 235 
 GUY2CHN ES        217 21.85                             111   -0.07 7  301 235 
 GUY2CHZ I         217 30.38         2.1 0.34                           301 235 
 MON  HN ES   4    217 29.89                             107   -2.12 0  355 309 
                                                                                
