 2017  127 0204 14.9 L   6.387 -73.641104.4  RSN  6 0.4 1.4LRSN                1
 GAP=105        1.01       4.1     3.0  7.8 -0.1616E+01  0.7835E+01 -0.5140E+01E
 Epicentro: SANTA HELENA DEL OPON - SANTANDER                                  3
 ACTION:UPD 17-05-22 16:03 OP:jn   STATUS:               ID:20170127020414 L   I
 OLDACT:REG 17-01-27 12:32 OP:lv   STATUS:               ID:20170127015743     3
 2017-01-27-0158-00M.COL___343                                                 6
 STAT SP IPHASW D HRMM SECON CODA AMPLIT PERI AZIMU VELO AIN AR TRES W  DIS CAZ7
 BAR2 EZ EP        2 4 31.16                             150    0.1410 55.5  66 
 BAR2 EZ ES        2 4 44.09                             150    0.4710 55.5  66 
 BAR2 EZ I         2 4 45.07        15.8 0.22            151           55.5  66 
 RUS  HZ EP        2 4 33.21                             139   -0.0810 82.5 132 
 RUS  HN ES        2 4 47.58                             139   -0.0810 82.5 132 
 RUS  HZ I         2 4 50.16         3.0 0.24            141           82.5 132 
 PTB  HZ EP        2 4 32.71                             135   -0.6910 91.8 281 
 PTB  HN ES        2 4 47.29                             135   -0.5810 91.8 281 
 PTB  HZ I         2 4 48.26         4.1 0.11            136           91.8 281 
 PAM  EZ EP        2 4 39.25                             121   -0.22 9  148  45 
 PAM  EN ES        2 4 58.53                             121   -0.14 9  148  45 
 PAM  EZ I         2 5  2.68         3.2 0.29            122            148  45 
 NOR  HZ EP        2 4 40.61                             117    0.03 9  164 236 
 NOR  HN ES        2 5  1.16                             117    0.52 9  164 236 
 NOR  HZ I         2 5  3.96         2.0 0.20            119            164 236 
 ZAR  HZ EP        2 4 42.98                             115    0.48 9  182 312 
 ZAR  HN ES        2 5  4.43                             115    0.38 9  182 312 
 ZAR  HZ I         2 5  8.03         6.0 0.19            115            182 312 
                                                                                
