 2016  727 0453  1.3 L   6.275 -73.734101.6  RSN  4 0.2 0.6LRSN                1
 GAP=170        0.49       2.8     2.2  5.0  0.2460E+01  0.2341E+01  0.2494E+01E
 Epicentro: LANDAZURI - SANTANDER                                              3
 ACTION:UPD 17-03-29 16:55 OP:lp   STATUS:               ID:20160727045301 L   I
 OLDACT:REG 16-07-27 13:11 OP:edw  STATUS:               ID:20160727044759     3
 2016-07-27-0447-59S.COL___340                                                 6
 STAT SP IPHASW D HRMM SECON CODA AMPLIT PERI AZIMU VELO AIN AR TRES W  DIS CAZ7
 BAR2 EZ EP        453 18.09                             143   -0.1010 70.3  60 
 BAR2 EZ ES        453 31.49                             143    0.1410 70.3  60 
 RUS  HZ EP        453 19.58                             138    0.0010 83.5 120 
 RUS  HE ES        453 33.76                             138   -0.0510 83.5 120 
 RUS  HZ I         453 36.04         1.0 0.26            138           83.5 120 
 PTB  HZ EP        453 19.38                             137    0.3310 85.1 290 
 PTB  HE ES        453 32.72                             137   -0.1610 85.1 290 
 BRR  HZ EP        453 19.41                             134   -0.2110 92.0   1 
 BRR  HN ES        453 33.94                             134    0.0510 92.0   1 
                                                                                
