 2011 1027 0037  7.9 L   6.775 -73.119147.9  RSN 10 0.2 2.0LRSN                1
 GAP=141        0.33       2.2     2.7  3.6 -0.1111E+01  0.3313E+01 -0.3426E+00E
 Epicentro: LOS SANTOS - SANTANDER                                             3
 ACTION:UPD 12-07-13 16:06 OP:ep   STATUS:               ID:20111027003707 L   I
 2011-10-27-0035-35S.COL___177                                                 6
 STAT SP IPHASW D HRMM SECON CODA AMPLIT PERI AZIMU VELO AIN AR TRES W  DIS CAZ7
 BAR2 SZ EP   1    037 27.58                             171   -0.16 7 21.4 199 
 BAR2 SZ ES   2    037 42.95                             171   -0.28 5 21.4 199 
 BAR2 SZ I         037 44.29        17.4 0.35                          21.4 199 
 BTL  SZ EP   3    037 27.90                             171    0.13 2 22.9 314 
 BRR  HZ EP        037 29.52                             152    0.0210 75.2 299 
 BRR  HE ES   2    037 46.77                             152    0.42 5 75.2 299 
 BRR  HZ I         037 49.94        25.4 0.37                          75.2 299 
 PAM  SZ EP   1    037 30.41                             151    0.05 7 77.7  37 
 PAM  SN ES   2    037 48.01                             151    0.13 5 77.7  37 
 RUS  HZ EP   2    037 31.62                             145   -0.03 5 97.6 178 
 RUS  HN ES   2    037 50.23                             145    0.05 5 97.6 178 
 RUS  HZ I         037 51.93         9.4 0.66                          97.6 178 
 OCA  SZ EP   1    037 36.80                             129    0.14 7  163 352 
 OCA  SZ ES   2    037 58.78                             129   -0.32 5  163 352 
 OCA  SZ I         038  4.02         6.7 0.32                           163 352 
 ZAR  HZ EP   2    037 40.95                             122    0.08 4  208 293 
 ZAR  HN ES   2    038  6.33                             122   -0.26 4  208 293 
 ZAR  HZ I         038 11.22        11.7 0.38                           208 293 
 NOR  SZ EP   2    037 43.54                             119   -0.30 4  236 235 
 HEL  HZ EP   2    037 48.19                             115   -0.27 4  274 257 
 HEL  HN ES   2    038 20.04                             115   -0.07 4  274 257 
 HEL  HZ I         038 26.57         4.3 0.74                           274 257 
 RREF HZ EP   2    037 54.53                             111    0.35 3  322 230 
 RREF HN ES   2    038 30.71                             111    0.42 3  322 230 
 RREF HZ I         038 38.80         5.2 0.38                           322 230 
                                                                                
