 2017 1227 0214 54.3 L   7.456 -73.158132.8  RSN  8 0.4 1.4LRSN                1
 GAP=114        0.90       2.8     4.2  7.0 -0.2633E+01  0.1114E+02 -0.3175E+01E
 Epicentro: EL PLAYON - SANTANDER                                              3
 ACTION:UPD 18-01-04 13:24 OP:rebc STATUS:               ID:20171227021454 L   I
 OLDACT:DUP 17-12-27 13:52 OP:osc  STATUS:               ID:20171227020358d    3
 2017-12-27-0208-00M.COL___454                                                 6
 STAT SP IPHASW D HRMM SECON CODA AMPLIT PERI AZIMU VELO AIN AR TRES W  DIS CAZ7
 PAM  EZ EP        215 14.08                             158    0.3210 52.2 104 
 PAM  EN ES        215 28.98                             158    0.0510 52.2 104 
 PAM  EZ I         215 29.57         3.1 0.31            158           52.2 104 
 OCA  HZ EP        215 15.67                             144    0.2410 88.3 348 
 OCA  HE ES        215 32.08                             144    0.1810 88.3 348 
 BAR2 EZ EP        215 15.78                             142   -0.3010 95.6 182 
 BAR2 EZ ES        215 32.60                             142   -0.4510 95.6 182 
 BAR2 EZ I         215 34.07         6.9 0.26            143           95.6 182 
 PTB  HZ EP        215 22.38                             124   -0.62 9  176 235 
 PTB  HE ES        215 45.52                             124    0.14 9  176 235 
 PTB  HZ I         215 47.03         2.4 0.12            124            176 235 
 ZAR  HN ES        215 47.53                             122   -0.03 9  188 271 
 DRL03HZ EP        215 27.62                             118    0.32 8  217 351 
 DRL03HE ES        215 52.53                             118   -0.49 8  217 351 
 SPBC HE ES        215 55.29                             117    0.72 8  224 207 
 GUY2CHZ EP   9    215 44.67                             107    1.99 0  347 225 
 GUY2CHE ES        216 22.43                                    0.03 6  347 225 
 GUY2CHZ I         216 28.39         1.1 0.30                           347 225 
                                                                                
