 2011 1227 0210 32.4 L   6.791 -73.164139.0  RSN 15 0.3 2.4LRSN                1
 GAP=112        0.64       2.3     3.1  4.1 -0.6646E+00  0.3647E+01  0.2462E+01E
 Epicentro: LOS SANTOS - SANTANDER                                             3
 ACTION:UPD 12-07-13 16:18 OP:ep   STATUS:               ID:20111227021032 L   I
 2011-12-27-0210-00M.COL___187                                                 6
 STAT SP IPHASW D HRMM SECON CODA AMPLIT PERI AZIMU VELO AIN AR TRES W  DIS CAZ7
 BAR2 SZ IP        210 51.22                             171    0.0510 22.1 185 
 BAR2 SZ ES   1    211  5.88                             171    0.05 7 22.1 185 
 BAR2 SZ I         211  7.52       103.5 0.27                          22.1 185 
 GIR2 SZ EP        210 51.29                             166    0.0210 31.9 354 
 GIR2 SZ ES   1    211  6.30                             166    0.30 7 31.9 354 
 BRR  HZ EP        210 53.05                             152    0.3310 69.9 300 
 BRR  HZ I         211 11.84        56.3 0.14                          69.9 300 
 PAM  SZ EP        210 54.17                             149    0.1610 79.4  40 
 PAM  SN ES   1    211 10.94                             149    0.06 7 79.4  40 
 PAM  SZ I         211 13.37        29.7 0.48                          79.4  40 
 RUS  HZ EP   1    210 55.20                             143   -0.21 7 99.8 175 
 RUS  HZ I         210 55.93        26.8 0.20                          99.8 175 
 RUS  HN ES   1    211 12.99                             143   -0.39 7 99.8 175 
 PTB  HZ EP   1    210 57.68                             131   -0.92 7  146 259 
 PTB  HN ES   1    211 18.66                             131   -0.39 7  146 259 
 OCA  SZ EP   1    210 59.83                             128   -0.41 7  161 354 
 OCA  SZ ES   1    211 21.60                             128   -0.37 7  161 354 
 OCA  SZ I         211 26.24        29.4 0.43                           161 354 
 YOP  SZ EP   1    211  1.90                             125   -0.05 7  179 153 
 YOP  SZ I         211 28.64        17.0 0.36                           179 153 
 ZAR  HZ EP   1    211  4.05                             121   -0.18 6  203 293 
 ZAR  HN ES   1    211 29.34                             121    0.26 6  203 293 
 ZAR  HZ I         211 35.14        53.2 0.31                           203 293 
 NOR  SZ EP   1    211  7.74                             117    0.26 6  232 234 
 NOR  SE ES   1    211 35.32                             117    0.46 6  232 234 
 CHI  HZ EP        211  9.53                             116   -0.02 8  247 195 
 CHI  HN ES   1    211 38.73                             116    0.18 6  247 195 
 CHI  HZ I         211 44.83        13.3 0.27                           247 195 
 HEL  HZ EP   1    211 12.46                             114    0.45 6  270 256 
 HEL  HZ I         211 49.63        18.1 0.56                           270 256 
 VIL  SZ EP   1    211 15.64                             111    0.30 5  302 191 
 VIL  SZ I         211 53.25        12.6 0.33                           302 191 
 RREF HZ EP   1    211 18.22                             110    0.23 5  320 229 
 RREF HZ I         211 59.58        14.9 0.38                           320 229 
 PRA  HZ EP   1    211 25.85                             105    0.39 4  390 209 
 PRA  HN ES   1    212  6.17                             105   -0.69 4  390 209 
                                                                                
