 2013  627 0906 37.2 L   6.733 -73.166143.2  RSN  6 0.3 1.5LRSN                1
 GAP=179        0.77       6.2     5.6  6.5  0.1628E+02  0.4102E+01 -0.2611E+01E
 Epicentro: VILLANUEVA - SANTANDER                                             3
 ACTION:UPD 14-01-08 09:57 OP:ep   STATUS:               ID:20130627090637 L   I
 OLDACT:REG 13-06-27 06:45 OP:jn   STATUS:               ID:20130627085959     3
 2013-06-27-0859-59M.COL___267                                                 6
 STAT SP IPHASW D HRMM SECON CODA AMPLIT PERI AZIMU VELO AIN AR TRES W  DIS CAZ7
 BAR2 SZ EP        9 6 56.41                             173   -0.0210 15.7 186 
 BAR2 SZ ES        9 7 11.09                             173   -0.3110 15.7 186 
 BAR2 SZ I         9 7 12.18         8.2 0.16            171           15.7 186 
 GIR2 SZ EP        9 6 56.74                             164   -0.0810 38.3 356 
 BRR  HZ EP        9 6 58.34                             151    0.1110 73.1 304 
 BRR  HN ES   1    9 7 14.77                             151    0.18 7 73.1 304 
 BRR  HZ I         9 7 19.25         6.4 0.12            148           73.1 304 
 RUS  HZ EP        9 7  0.45                             145    0.2210 93.4 174 
 RUS  HN ES   1    9 7 18.66                             145    0.50 7 93.4 174 
 RUS  HZ I         9 7 19.65         2.7 0.18            149           93.4 174 
 PTB  HZ EP        9 7  3.20                             132   -0.48 9  144 262 
 PTB  HN ES   1    9 7 23.98                             132   -0.33 7  144 262 
 PTB  HZ I         9 7 26.95         4.3 0.14            131            144 262 
 ZAR  HE ES   1    9 7 35.58                             122    0.73 6  205 294 
 ZAR  HZ I         9 7 43.47         2.6 0.54            121            205 294 
                                                                                
