 2013 1127 0515 55.0 L   6.733 -73.196144.6  RSN  5 0.3 1.3LRSN                1
 GAP=226        0.77       5.9     6.1  5.9  0.1917E+02  0.1049E+02  0.8671E+01E
 Epicentro: VILLANUEVA - SANTANDER                                             3
 ACTION:UPD 14-01-09 16:31 OP:ep   STATUS:               ID:20131127051555 L   I
 OLDACT:REG 13-11-27 08:14 OP:stll STATUS:               ID:20131127050813     3
 2013-11-27-0508-13M.COL___240                                                 6
 STAT SP IPHASW D HRMM SECON CODA AMPLIT PERI AZIMU VELO AIN AR TRES W  DIS CAZ7
 BAR2 SZ ES        516 29.10                             174   -0.3710 15.6 175 
 BAR2 SZ I         516 30.81         6.1 0.28            154           15.6 175 
 BRR  HZ EP        516 16.16                             153    0.1710 70.5 306 
 BRR  HN ES        516 32.65                             153    0.2910 70.5 306 
 RUS  HZ EP        516 18.11                             146   -0.0510 93.7 172 
 RUS  HN ES        516 36.38                             146    0.1610 93.7 172 
 RUS  HZ I         516 38.47         2.0 0.38            125           93.7 172 
 PTB  HZ EP        516 20.73                             133   -0.54 9  141 261 
 PTB  HN ES        516 41.73                             133   -0.03 9  141 261 
 PTB  HZ I         516 43.72         2.5 0.38            118            141 261 
 SPBC HZ EP        516 22.89                             131    0.35 9  154 219 
 SPBC HZ I         516 52.33         4.6 0.20            114            154 219 
                                                                                
