 2017  327 0223 47.4 L   6.757 -73.132157.2  RSN  5 0.2 0.8LRSN                1
 GAP=236        0.44       5.8     5.8  7.0  0.2744E+02 -0.1349E+02 -0.1988E+02E
 Epicentro: LOS SANTOS - SANTANDER                                             3
 ACTION:UPD 17-05-25 18:45 OP:jn   STATUS:               ID:20170327022347 L   I
 OLDACT:UP  17-03-27 14:49 OP:and  STATUS:               ID:20170327021744d    3
 OLDACT:UP  17-03-27 14:49 OP:and  STATUS:               ID:20170327021744d    3
 OLDACT:UP  17-03-27 14:48 OP:and  STATUS:               ID:20170327021744d    3
 OLDACT:UP  17-03-27 14:48 OP:ND   STATUS:               ID:20170327021744d    3
 OLDACT:UP  17-03-27 14:48 OP:and  STATUS:               ID:20170327021744d    3
 OLDACT:DUP 17-03-27 14:45 OP:e    STATUS:               ID:20170327021744d    3
 2017-03-27-0218-00M.COL___355                                                 6
 STAT SP IPHASW D HRMM SECON CODA AMPLIT PERI AZIMU VELO AIN AR TRES W  DIS CAZ7
 BAR2 EZ EP        224  8.30                             172   -0.0010 19.0 197 
 BRR  HZ EP        224  9.88                             153   -0.0810 74.9 301 
 BRR  HN ES   2    224 27.19                             153   -0.39 5 74.9 301 
 RUS  HZ EP        224 12.01                             147    0.0710 95.7 177 
 RUS  HN ES        224 31.15                             147    0.0510 95.7 177 
 RUS  HZ I         224 33.14         1.0 0.34            148           95.7 177 
 PTB  HZ EP   2    224 15.02                             134   -0.33 5  148 261 
 PTB  HN ES   3    224 36.31                             134   -0.86 2  148 261 
 PTB  HZ I         224 37.15         0.8 0.40            136            148 261 
 ZAR  HZ EP   4    224 18.41                             124   -2.50 0  207 293 
 ZAR  HN ES        224 47.31                             124    0.24 8  207 293 
                                                                                
