 2016  527 0121 51.7 L   6.792 -73.176143.6  RSN  8 0.4 1.6LRSN                1
 GAP=133        1.10       4.8     5.3  7.5 -0.2588E+01  0.8851E+01  0.1316E+02E
 Epicentro: LOS SANTOS - SANTANDER                                             3
 ACTION:UPD 16-08-18 17:49 OP:cam  STATUS:               ID:20160527012151 L   I
 OLDACT:UP  16-05-27 14:04 OP:mh   STATUS:               ID:20160527011745     3
 OLDACT:REG 16-05-27 12:33 OP:mh   STATUS:               ID:20160527011745     3
 2016-05-27-0117-45M.COL___322                                                 6
 STAT SP IPHASW D HRMM SECON CODA AMPLIT PERI AZIMU VELO AIN AR TRES W  DIS CAZ7
 BAR2 EZ EP        122 10.82                             171   -0.1810 22.1 182 
 BAR2 EZ ES        122 25.92                             171   -0.1810 22.1 182 
 BAR2 EZ I         122 26.84        10.7 0.50            169           22.1 182 
 BRR  HZ EP        122 12.75                             153    0.3210 68.7 300 
 BRR  HN ES        122 29.48                             153    0.8410 68.7 300 
 BRR  HZ I         122 32.87        10.7 0.38            152           68.7 300 
 PAM  EE ES        122 30.62                             150   -0.4810 80.2  41 
 PAM  EZ I         122 32.72         5.3 0.70            156           80.2  41 
 RUS  HZ EP        122 15.03                             143   -0.1210  100 174 
 RUS  HN ES        122 33.87                             143    0.3810  100 174 
 RUS  HZ I         122 35.90         2.8 0.18            145            100 174 
 PTB  HZ EP        122 17.63                             132   -0.51 9  144 259 
 PTB  HN ES        122 38.34                             132   -0.45 9  144 259 
 PTB  HZ I         122 43.77         6.4 0.18            132            144 259 
 SPBC HZ EP        122 19.87                             129    0.14 9  160 218 
 SPBC HN ES   1    122 41.13                             129   -0.50 7  160 218 
 SPBC HZ I         122 48.67         8.3 0.14            130            160 218 
 NOR  HN ES        122 54.42                             118   -0.00 8  232 234 
 NOR  HZ I         122 59.05         4.5 0.20            120            232 234 
 CHI  HZ EP        122 29.91                             117    0.86 8  247 194 
 CHI  HN ES        122 57.98                             117   -0.24 8  247 194 
 CHI  HZ I         123  0.91         2.4 0.08            119            247 194 
                                                                                
