 2013 1227 0848 25.0 L   6.822 -73.088140.9  RSN  5 0.4 1.5LRSN                1
 GAP=143        0.91       4.8     6.9 10.7  0.7414E+01  0.4716E+02  0.1045E+02E
 Epicentro: LOS SANTOS - SANTANDER                                             3
 ACTION:UPD 14-01-13 10:21 OP:ep   STATUS:               ID:20131227084825 L   I
 OLDACT:REG 13-12-27 13:41 OP:mh   STATUS:               ID:20131227084737     3
 2013-12-27-0847-37M.COL___235                                                 6
 STAT SP IPHASW D HRMM SECON CODA AMPLIT PERI AZIMU VELO AIN AR TRES W  DIS CAZ7
 BAR2 SZ EP        848 44.41                             168    0.2410 27.4 202 
 BAR2 SZ I         849  1.17         5.9 0.11            168           27.4 202 
 PAM  SN ES        849  2.77                             152   -0.2710 71.6  37 
 RUS  HZ EP        848 48.80                             142    0.3310  103 180 
 RUS  HN ES        849  6.91                             142    0.1610  103 180 
 SPBC HZ EP        848 52.89                             127   -0.85 9  169 220 
 SPBC HN ES   2    849 15.85                             127   -0.27 5  169 220 
 SPBC HZ I         849 21.44         4.6 0.18            126            169 220 
 ZAR  HZ EP        848 57.99                             121    0.29 8  209 291 
 ZAR  HN ES        849 23.28                             121    0.11 8  209 291 
                                                                                
