 2015  327 0426 52.8 L   6.513 -73.533113.1  RSN  4 0.4 1.4LRSN                1
 GAP=158        0.84       5.1     5.5  9.2  0.6305E+01  0.3455E+02  0.2095E+02E
 Epicentro: EL CARMEN - SANTANDER                                              3
 ACTION:UPD 15-04-30 16:29 OP:nd   STATUS:               ID:20150327042652 L   I
 OLDACT:REG 15-03-27 12:45 OP:fm   STATUS:               ID:20150327041736     3
 2015-03-27-0417-36M.COL___269                                                 6
 STAT SP IPHASW D HRMM SECON CODA AMPLIT PERI AZIMU VELO AIN AR TRES W  DIS CAZ7
 BAR2 EZ EP     D  427  9.58                             159    0.5010 39.7  77 
 BAR2 EZ ES        427 21.58                             159   -0.2010 39.7  77 
 BAR2 EZ I         427 23.75        17.5 0.34            164           39.7  77 
 BRR  HZ EP        427 10.45                             146    0.1110 68.6 343 
 BRR  HN ES        427 23.76                             146   -0.2710 68.6 343 
 BRR  HZ I         427 25.70         5.3 0.30            145           68.6 343 
 ZAR  HZ EP   1    427 20.43                             117   -0.50 7  182 307 
 ZAR  HN ES        427 43.18                             117    0.30 9  182 307 
 ZAR  HZ I         427 49.65         2.6 0.36            118            182 307 
 GUY2CHZ EP        427 28.38                             109   -0.53 8  248 235 
 GUY2CHN ES        427 57.36                             109    0.28 8  248 235 
 GUY2CHZ I         428  6.32         1.3 0.46                           248 235 
                                                                                
