 2016  127 0838 48.2 L   6.797 -73.184145.5  RSN  8 0.4 1.3LRSN                1
 GAP=132        0.93       3.0     5.0  5.8 -0.2018E+01  0.1189E+02  0.4895E+00E
 Epicentro: ZAPATOCA - SANTANDER                                               3
 ACTION:UPD 16-03-09 23:28 OP:cam  STATUS:               ID:20160127083848 L   I
 OLDACT:REG 16-01-27 16:17 OP:ak   STATUS:               ID:20160127082740     3
 2016-01-27-0827-40M.COL___327                                                 6
 STAT SP IPHASW D HRMM SECON CODA AMPLIT PERI AZIMU VELO AIN AR TRES W  DIS CAZ7
 BAR2 EZ ES        839 22.96                             171   -0.1410 22.7 180 
 BAR2 EZ I         839 24.06         7.8 0.14            171           22.7 180 
 PAM  EZ EP        839 10.56                             150   -0.0510 80.4  42 
 PAM  EE ES        839 28.30                             150    0.2510 80.4  42 
 PAM  EZ I         839 29.95         3.2 0.56            151           80.4  42 
 RUS  HZ EP        839 12.02                             144    0.0510  101 174 
 RUS  HN ES        839 30.57                             144    0.0910  101 174 
 RUS  HZ I         839 32.00         3.4 0.28            145            101 174 
 PTB  HZ EP        839 14.64                             133   -0.17 9  144 259 
 PTB  HN ES        839 35.56                             133    0.03 9  144 259 
 PTB  HZ I         839 37.78         2.7 0.18            132            144 259 
 SML  HZ EP        839 24.62                             118   -0.07 8  242 336 
 SML  HN ES        839 52.89                             118   -0.23 8  242 336 
 SML  HZ I         840  2.97         1.8 0.18            117            242 336 
 CHI  HZ EP        839 24.81                             117   -0.97 8  247 194 
 CHI  HN ES        839 55.04                             117   -0.02 8  247 194 
 CHI  HZ I         840  4.89         1.1 0.40            117            247 194 
 GUY2CHZ EP        839 32.55                             113    1.12 7  298 234 
 GUY2CHN ES   4    840  7.95                             113    2.83 0  298 234 
 GUY2CHZ I         840 17.87         1.2 0.68                           298 234 
 PRA  HZ EP        839 42.26                             107    0.78 6  390 209 
 PRA  HN ES        840 22.68                             107   -0.33 6  390 209 
 PRA  HN IS        840 22.68                             107            390 209 
                                                                                
