 2014  427 0554 43.5 L   6.804 -73.130150.0  RSN 11 0.4 1.9LRSN                1
 GAP=138        0.81       3.5     3.9  6.6 -0.4988E+01  0.8854E+01 -0.1391E+01E
 Epicentro: LOS SANTOS - SANTANDER                                             3
 OLDACT:REG 14-04-27 13:24 OP:fm   STATUS:               ID:20140427054807     3
 ACTION:UPD 14-05-13 23:11 OP:nd   STATUS:               ID:20140427055443 L   I
 OLDACT:UP  14-04-27 17:29 OP:fm   STATUS:               ID:20140427054807     3
 2014-04-27-0548-07M.COL___239                                                 6
 STAT SP IPHASW D HRMM SECON CODA AMPLIT PERI AZIMU VELO AIN AR TRES W  DIS CAZ7
 PAM  SZ EP        555  6.53                             152    0.4810 75.9  39 
 PAM  SN ES        555 23.54                             152   -0.1210 75.9  39 
 PAM  SZ I         555 25.38        10.4 0.62            154           75.9  39 
 RUS  HZ EP        555  7.72                             144    0.0610  101 177 
 RUS  HN ES   1    555 26.69                             144    0.16 7  101 177 
 PTB  HZ EP        555 10.37                             133   -0.58 9  150 259 
 PTB  HN ES        555 32.01                             133   -0.37 9  150 259 
 PTB  SZ I         555 37.36        10.3 0.32            132            150 259 
 OCA  HZ EP   1    555 11.80                             130   -0.29 7  160 352 
 OCA  HE ES   4    555 31.76                             130   -2.65 0  160 352 
 OCA  SZ I         555 38.43         4.7 0.16            131            160 352 
 SPBC HZ EP   1    555 12.19                             130   -0.24 7  165 219 
 SPBC HN ES   1    555 35.11                             130    0.09 7  165 219 
 SPBC SZ I         555 39.26         6.6 0.16            132            165 219 
 ZAR  HZ EP   1    555 16.53                             123    0.19 6  206 292 
 ZAR  HN ES   1    555 42.49                             123    0.51 6  206 292 
 ZAR  SZ I         555 47.91         6.7 0.22            123            206 292 
 NOR  HZ EP   1    555 18.91                             119   -0.72 6  236 235 
 NOR  HN ES   1    555 48.19                             119    0.36 6  236 235 
 NOR  SZ I         555 52.73         4.4 0.42            121            236 235 
 SML  HZ EP   1    555 20.57                             118    0.20 6  244 335 
 SML  HN ES   2    555 49.14                             118   -0.01 4  244 335 
 SML  SZ I         555 59.02         8.4 0.10            119            244 335 
 HEL  HN ES   2    555 56.05                             115    0.26 4  274 256 
 GUY2CHZ EP   2    555 26.64                             113   -0.83 4  303 235 
 GUY2CSZ I         556  1.55         6.7 1.68                           303 235 
 GUY2CHN ES   1    556  2.34                             113    0.56 5  303 235 
 RREF HZ EP   1    555 31.20                             111    1.22 5  323 230 
 RREF HN ES   1    556  5.86                             111   -0.40 5  323 230 
 RREF SZ I         556 11.84         3.1 0.42            113            323 230 
 SJC  HZ EP   4    555 37.92                             106   -1.32 0  410 327 
 SJC  HN ES   4    556 16.72                             106   -6.02 0  410 327 
                                                                                
