 2017  427 0423  8.9 L   6.844 -73.125146.7  RSN 21 0.6 2.3LRSN                1
 GAP=112        0.94       2.7     3.0  5.3 -0.1717E+00  0.2632E+01  0.4521E+01E
 Epicentro: LOS SANTOS - SANTANDER                                             3
 ACTION:UPD 17-05-30 21:16 OP:jn   STATUS:               ID:20170427042308 L   I
 OLDACT:UP  17-04-27 15:19 OP:and  STATUS:               ID:20170427041739     3
 OLDACT:UP  17-04-27 15:18 OP:and  STATUS:               ID:20170427041739     3
 OLDACT:UP  17-04-27 14:50 OP:and  STATUS:               ID:20170427041739     3
 OLDACT:UP  17-04-27 14:48 OP:and  STATUS:               ID:20170427041739     3
 OLDACT:UP  17-04-27 14:48 OP:and  STATUS:               ID:20170427041739     3
 OLDACT:UP  17-04-27 14:45 OP:and  STATUS:               ID:20170427041739     3
 OLDACT:UP  17-04-27 14:42 OP:and  STATUS:               ID:20170427041739     3
 OLDACT:UP  17-04-27 14:28 OP:and  STATUS:               ID:20170427041739     3
 OLDACT:UP  17-04-27 14:27 OP:and  STATUS:               ID:20170427041739     3
 OLDACT:UP  17-04-27 14:26 OP:and  STATUS:               ID:20170427041739     3
 OLDACT:REG 17-04-27 12:37 OP:and  STATUS:               ID:20170427041739     3
 2017-04-27-0418-00M.COL___360                                                 6
 STAT SP IPHASW D HRMM SECON CODA AMPLIT PERI AZIMU VELO AIN AR TRES W  DIS CAZ7
 BRR  HZ IP     C  423 30.13                             153   -0.0710 71.1 294 
 BRR  HN ES        423 47.09                             153    0.3210 71.1 294 
 BRR  HZ I         423 50.93        24.4 0.32            152           71.1 294 
 PAM  EZ IP     C  423 30.89                             152   -0.0810 72.2  41 
 PAM  EN ES        423 48.12                             152   -0.0210 72.2  41 
 PAM  EZ I         423 50.36        18.8 0.18            160           72.2  41 
 PTB  HZ EP   9    423 35.15                             131   -1.14 0  151 257 
 PTB  HN ES        423 56.45                             133   -0.03 9  151 257 
 PTB  HZ I         424  3.56        29.3 0.36            131            151 257 
 SPBC HZ EP        423 37.46                             128   -0.56 9  168 219 
 SPBC HN ES        424  0.34                             128   -0.35 9  168 219 
 SPBC HZ I         424  2.44        46.1 0.22            128            168 219 
 YPLC HZ EP        423 39.19                             126    0.07 9  180 153 
 YPLC HN ES        424  3.07                             126    0.41 9  180 153 
 YPLC HZ I         424  6.74        23.3 0.40            129            180 153 
 ZAR  HZ EP        423 41.67                             122    0.17 9  204 291 
 ZAR  HN ES        424  6.28                             122   -0.60 9  204 291 
 ZAR  HZ I         424 12.17        25.9 0.28            124            204 291 
 TABC EZ EP   3    423 46.42                             119    1.10 2  235 211 
 TABC EZ ES   3    424 16.33                             119    2.64 2  235 211 
 TABC EZ I         424 20.59        24.8 0.36            120            235 211 
 NOR  HZ EP        423 45.10                             118   -0.14 8  239 234 
 NOR  HN ES        424 13.33                             118   -0.21 8  239 234 
 NOR  HZ I         424 18.38        19.8 0.28            119            239 234 
 CHI  HZ EP        423 46.82                             117   -0.45 8  254 195 
 CHI  HN ES        424 16.24                             117   -0.92 8  254 195 
 CHI  HZ I         424 22.20        13.2 0.30            118            254 195 
 ROSC BZ EP        423 48.50                             116    0.80 8  258 211 
 ROSC BN ES   2    424 19.76                             116    1.83 4  258 211 
 ROSC BZ I         424 22.99        26.2 0.35            117            258 211 
 HEL  HZ EP   2    423 50.53                             115    0.94 4  276 255 
 HEL  HN ES        424 21.16                             115   -0.13 7  276 255 
 HEL  HZ I         424 27.73        14.7 0.30            116            276 255 
 VIL  EZ EP        423 52.75                             112   -0.25 7  309 192 
 VIL  EE ES   3    424 29.08                             112    1.73 2  309 192 
 VIL  EZ I         424 29.82        14.4 0.40            113            309 192 
 PTGC HZ EP   3    423 51.77                             111   -1.49 2  312 159 
 PTGC HN ES   4    424 25.44                             111   -2.39 0  312 159 
 PTGC HZ I         424 34.53         8.1 0.30            113            312 159 
 LL6C HN EP   9    423 33.36                             111   -20.8 0  320 357 
 LL6C HN ES        424  8.21                                   -0.41 7  320 357 
 LL6C HN I         424 15.24        11.5 0.40            114            320 357 
 ELA  HZ EP   4    423 58.91                             110    2.51 0  334 229 
 ELA  HN ES        424 33.78                             110    0.37 7  334 229 
 ELA  HZ I         424 44.63         6.4 0.34            111            334 229 
 CBOC HZ EP   3    423 58.00                             110    1.67 2  337 251 
 CBOC HE ES        424 32.86                             110   -0.42 7  337 251 
 CBOC HZ I         424 44.23         5.4 0.48            111            337 251 
 DBB  EZ EP        423 56.46                             109   -0.23 7  341 273 
 DBB  EN ES   3    424 32.59                             109   -1.34 2  341 273 
 DBB  EZ I         424 40.28         5.4 0.32            111            341 273 
 ARGC HZ EP   2    423 58.52                             108    0.31 3  355 340 
 ARGC HE ES        424 37.36                             108    0.73 6  355 340 
 ARGC HZ I         424 48.88         5.7 0.40            111            355 340 
 ANIL HZ EP   4    424  1.48                             108    2.11 0  362 224 
 ANIL HN ES   4    424 40.73                             108    2.02 0  362 224 
 ORTC HZ EP        424  3.57                             106    0.06 6  401 216 
 ORTC HN ES        424 46.71                             106    0.63 6  401 216 
 ORTC HZ I         424 53.02         9.4 0.46            107            401 216 
 SJC  HZ EP   4    424  2.49                             106   -1.73 0  406 326 
 SJC  HN ES   4    424 43.27                             106   -4.06 0  406 326 
 SJC  HZ I         424 52.86         3.4 0.44            108            406 326 
 PAL  HZ EP   2    424  4.19                             106   -0.47 3  410 239 
 PAL  HN ES        424 49.16                             106    1.04 6  410 239 
 PAL  HZ I         424 50.83         3.6 0.19            107            410 239 
 URI  HZ EP   4    424 18.53                             101   -2.82 0  552  13 
                                                                                
