 2014 1027 0638  6.9 L   6.789 -73.190144.7  RSN  4 0.5 1.1LRSN                1
 GAP=176        1.22      10.6     8.7 12.8 -0.6284E+02 -0.1672E+02  0.4359E+02E
 Epicentro: ZAPATOCA - SANTANDER                                               3
 ACTION:UPD 14-11-29 23:57 OP:nd   STATUS:               ID:20141027063806 L   I
 OLDACT:DUP 14-10-30 05:53 OP:mh   STATUS:               ID:20141027062745d    3
 OLDACT:REG 14-10-29 19:51 OP:spq  STATUS:               ID:20141027062744     3
 2014-10-27-0627-44M.COL___274                                                 6
 STAT SP IPHASW D HRMM SECON CODA AMPLIT PERI AZIMU VELO AIN AR TRES W  DIS CAZ7
 BRR  HZ EP        638 28.32                             153    0.5610 67.6 301 
 BRR  HN ES        638 44.44                             153    0.4310 67.6 301 
 BRR  HZ I         638 49.49         2.1 0.33            151           67.6 301 
 PAM  SZ EP        638 29.64                             149    0.3610 81.5  42 
 PAM  SN ES        638 46.12                             149   -0.5910 81.5  42 
 PAM  SZ I         638 49.75         2.0 0.59            152           81.5  42 
 PTB  HZ EP        638 32.69                             133   -0.67 9  143 259 
 PTB  HN ES        638 53.58                             133   -0.39 9  143 259 
 PTB  HZ I         638 59.54         1.6 0.16            135            143 259 
 SPBC HN ES        638 57.05                             129    0.21 9  159 218 
                                                                                
