 2011  527 0207 42.0 L   7.420 -73.255135.3  RSN  4 0.2 1.4LRSN                1
 GAP=131        0.59       3.6     6.8  6.9 -0.8037E+01 -0.2684E+01  0.6436E+00E
 Epicentro: EL PLAYON - SANTANDER                                              3
 ACTION:UP  11-06-29 08:56 OP:tino STATUS:               ID:20110527020742 L   I
 2011-05-27-0206-04S.COL___115                                                 6
 STAT SP IPHASW D HRMM SECON CODA AMPLIT PERI AZIMU VELO SNR AR TRES W  DIS CAZ7
 BRR  HZ EP   1    2 8  1.48                             154     0.0 7   61 236 
 BRR  HN ES   1    2 8 17.01                             154     0.3 7   61 236 
 BRR  HZ I         2 8 23.36         5.7 0.33                            61 236 
 GRA  SZ EP   1    2 8  2.47                             151     0.1 7   72  44 
 GRA  SZ ES   1    2 8 18.38                             151     0.2 7   72  44 
 GRA  SZ I         2 8 22.15         4.7 0.57                            72  44 
 OCA  SZ EP   1    2 8  3.49                             144    -0.1 7   91 356 
 OCA  SZ ES   1    2 8 20.09                             144    -0.3 7   91 356 
 BAR2 SZ EP   1    2 8  3.91                             144     0.1 7   92 175 
 BAR2 SZ ES   1    2 8 20.36                             144    -0.4 7   92 175 
 BAR2 SZ I         2 8 21.58         5.9 0.11                            92 175 
                                                                                
