 2017  927 0104  3.5 L   6.804 -73.098143.0  RSN  7 0.3 1.6LRSN                1
 GAP=142        0.71       3.1     3.6  5.3 -0.1029E+01  0.6310E+01  0.2286E+01E
 Epicentro: LOS SANTOS - SANTANDER                                             3
 ACTION:UPD 17-10-05 19:16 OP:rebc STATUS:               ID:20170927010403 L   I
 OLDACT:UP  17-09-27 14:50 OP:edw  STATUS:               ID:20170927005745d    3
 OLDACT:DUP 17-09-27 14:46 OP:edw  STATUS:               ID:20170927005745d    3
 OLDACT:UP  17-09-27 14:44 OP:edw  STATUS:               ID:20170927005744     3
 OLDACT:UP  17-09-27 14:43 OP:edw  STATUS:               ID:20170927005744     3
 OLDACT:REG 17-09-27 12:14 OP:edw  STATUS:               ID:20170927005744     3
 2017-09-27-0058-00M.COL___453                                                 6
 STAT SP IPHASW D HRMM SECON CODA AMPLIT PERI AZIMU VELO AIN AR TRES W  DIS CAZ7
 BAR2 EZ EP        1 4 22.63                             170   -0.1910 25.2 202 
 BAR2 EZ ES        1 4 37.59                             170   -0.3110 25.2 202 
 BAR2 EZ I         1 4 38.84         6.4 0.36            168           25.2 202 
 PAM  EZ EP        1 4 25.35                             151    0.1610 73.8  37 
 PAM  EN ES        1 4 42.23                             151    0.1110 73.8  37 
 PAM  EZ I         1 4 44.17         8.4 0.52            154           73.8  37 
 BRR  HZ EP        1 4 24.28                             150   -0.3110 75.6 296 
 BRR  HN ES        1 4 41.47                             150    0.4210 75.6 296 
 RUS  HZ EP   2    1 4 27.18                             143    0.20 5  101 179 
 RUS  HN ES   2    1 4 45.46                             143    0.16 5  101 179 
 RUS  HZ I         1 4 46.93         3.8 0.32            144            101 179 
 ZAR  HZ EP        1 4 36.47                             121    0.23 8  209 291 
 ZAR  HE ES        1 5  1.31                             121   -0.47 8  209 291 
 ZAR  HZ I         1 5  6.04         5.7 0.22            121            209 291 
 NOR  HN ES        1 5  8.10                             117    0.43 8  239 235 
 NOR  HZ I         1 5 12.60         2.3 0.34            118            239 235 
 CHI  HN ES        1 5 10.56                             116   -0.11 8  250 196 
                                                                                
