 2011  427 0714 51.9 L   6.798 -73.108141.1  RSN  7 0.3 1.9LRSN                1
 GAP=141        0.75       4.1     5.7  6.3 -0.1097E+02  0.4993E+01 -0.2779E+00E
 Epicentro: LOS SANTOS - SANTANDER                                             3
 ACTION:UP  11-06-22 15:33 OP:REBC STATUS:               ID:20110427071451 L   I
 2011-04-27-0713-11S.COL___137                                                 6
 STAT SP IPHASW D HRMM SECON CODA AMPLIT PERI AZIMU VELO SNR AR TRES W  DIS CAZ7
 BAR2 SZ EP   1    715 11.08                             170     0.0 7   24 200 
 BAR2 SZ ES   1    715 25.65                             170    -0.3 7   24 200 
 BAR2 SZ I         715 27.37        23.1 0.22                            24 200 
 PAM  SZ EP   1    715 13.87                             151     0.3 7   75  37 
 PAM  SZ I         715 14.02        10.5 0.14                            75  37 
 PAM  SE ES   1    715 30.09                             151    -0.3 7   75  37 
 BRR  HZ EP   1    715 12.76                             150    -0.1 7   75 297 
 BRR  HE ES   1    715 29.73                             150     0.6 7   75 297 
 BRR  HZ I         715 30.35        30.3 0.12                            75 297 
 RUS  HZ EP   1    715 15.51                             143     0.3 7  100 178 
 RUS  HE ES   1    715 33.46                             143     0.1 7  100 178 
 RUS  HZ I         715 34.60         7.7 0.31                           100 178 
 BRI  SZ EP   1    715 15.47                             141     0.2 7  107  19 
 GRA  SZ EP   1    715 16.68                             136     0.0 7  125  16 
 GRA  SZ I         715 17.83        12.1 0.32                           125  16 
 GRA  SZ ES   1    715 35.53                             136    -0.5 7  125  16 
 NOR  SZ EP   1    715 27.37                             117    -0.4 6  238 235 
 NOR  SN ES   1    715 55.29                             117    -0.4 6  238 235 
                                                                                
