 2016 1027 0619 43.4 L   6.813 -73.151146.4  RSN 15 0.5 2.7LRSN                1
 GAP= 70        0.96       3.6     2.8  5.1 -0.2342E+01  0.2886E+01  0.3547E+01E
 Epicentro: LOS SANTOS - SANTANDER                                             3
 ACTION:UPD 16-11-09 19:23 OP:rebc STATUS:               ID:20161027061943 L   I
 OLDACT:REG 16-10-27 13:03 OP:cog  STATUS:               ID:20161027061749     3
 2016-10-27-0618-00M.COL___349                                                 6
 STAT SP IPHASW D HRMM SECON CODA AMPLIT PERI AZIMU VELO AIN AR TRES W  DIS CAZ7
 BAR2 EZ EP        620  3.12                             170   -0.0210 24.6 188 
 BAR2 EZ ES        620 18.42                             170   -0.1110 24.6 188 
 BAR2 EZ I         620 20.95       197.5 0.30            169           24.6 188 
 BRR  HZ IP     C  620  4.92                             153    0.3610 70.0 298 
 BRR  HE ES        620 21.63                             153    0.5710 70.0 298 
 BRR  HZ I         620 25.96        93.4 0.26            150           70.0 298 
 PAM  EZ EP        620  5.87                             151    0.2210 76.7  41 
 PAM  EE ES        620 23.06                             151    0.0610 76.7  41 
 PAM  EZ I         620 25.85        70.6 0.64            153           76.7  41 
 RUS  HZ EP        620  7.10                             144   -0.2310  102 176 
 RUS  HE ES        620 25.85                             144   -0.1310  102 176 
 RUS  HZ I         620 26.99        84.2 0.30            144            102 176 
 PTB  HZ EP        620  9.49                             132   -0.91 9  147 258 
 PTB  HN ES        620 30.74                             132   -0.71 9  147 258 
 PTB  HZ I         620 34.03        45.7 0.28            131            147 258 
 TAM  HZ IP     C  620 11.42                             130    0.20 9  156 105 
 TAM  HN ES        620 33.08                             130    0.17 9  156 105 
 TAM  HZ I         620 34.85        27.8 0.54            133            156 105 
 SPBC HZ EP        620 11.97                             129   -0.05 9  164 219 
 SPBC HN ES        620 34.03                             129   -0.31 9  164 219 
 SPBC HZ I         620 38.97        99.8 0.20            128            164 219 
 NOR  HZ EP        620 19.24                             119    0.03 8  235 234 
 NOR  HE ES        620 46.96                             119   -0.18 8  235 234 
 NOR  HZ I         620 52.66        36.0 0.20            118            235 234 
 CHI  HZ IP     C  620 21.43                             117    0.16 8  250 195 
 CHI  HN ES        620 50.79                             117   -0.01 8  250 195 
 HEL  HZ EP   2    620 24.48                             115    0.85 4  272 255 
 HEL  HN ES        620 55.42                             115    0.42 8  272 255 
 HEL  HZ I         621  3.37        26.9 0.38            114            272 255 
 GUY2CHZ EP   4    620 27.96                             112    0.88 0  302 234 
 GUY2CHN ES   4    621  5.44                             112    4.29 0  302 234 
 GUY2CHZ I         621  9.29        34.3 0.36                           302 234 
 PTGC HZ EP   4    620 26.09                             112   -1.38 0  310 159 
 PTGC HN ES   4    621  0.12                             112   -1.71 0  310 159 
 PTGC HZ I         621  4.49        29.1 0.30            112            310 159 
 ELA  HZ EP   3    620 32.05                             110    1.71 2  330 229 
 ELA  HN ES        621  6.82                             110   -0.12 7  330 229 
 ELA  HZ I         621 22.30        27.8 0.46            110            330 229 
 CBOC HZ EP        620 30.76                             110    0.42 7  333 252 
 CBOC HE ES        621  7.81                             110    0.87 7  333 252 
 CBOC HZ I         621 17.80         8.0 0.52            110            333 252 
 CRJC HZ EP   2    620 43.55                             103   -2.22 2  466   4 
 CRJC HE ES   2    621 32.37                             103   -2.03 2  466   4 
 CRJC HZ I         621 41.50        12.7 0.40            104            466   4 
                                                                                
