 2010  927 0334  1.0 L   6.792 -72.994144.0  RSN 10 0.4 2.2LRSN                1
 GAP=176        1.13       4.1     7.6  9.2 -0.8951E+01 -0.6745E+01  0.6352E+01E
 Epicentro: CEPITA - SANTANDER                                                 3
 ACTION:UP  11-02-18 11:05 OP:tino STATUS:               ID:20100927033401 L   I
 2010-09-27-0332-27S.COL___121                                                 6
 STAT SP IPHASW D HRMM SECON CODA AMPLIT PERI AZIMU VELO SNR AR TRES W  DIS CAZ7
 BAR2 SZ EP        334 20.60                             167     0.010   30 223 
 BAR2 SZ I         334 36.93        60.3 0.18                            30 223 
 BTL  SZ EP   1    334 21.15                             166     0.4 7   33 295 
 BRR  HZ IP     C  334 22.54                             147    -0.410   87 294 
 BRR  HZ I         334 22.84       111.3 0.20                            87 294 
 BRR  HN ES        334 40.19                             147     0.110   87 294 
 RUS  HZ EP        334 24.54                             144     0.010  100 186 
 RUS  HN ES   1    334 42.69                             144    -0.2 7  100 186 
 RUS  HZ I         334 44.69        25.5 0.99                           100 186 
 GUE  SZ EP        334 25.60                             139     0.110  115   4 
 GUE  SZ I         334 26.29         5.8 0.10                           115   4 
 GRA  SZ EP        334 26.44                             137     0.610  123  10 
 GRA  SZ I         334 47.13        19.5 0.53                           123  10 
 OCA  SZ EP        334 28.95                             128    -0.6 9  164 347 
 OCA  SZ ES   1    334 51.77                             128    -0.1 7  164 347 
 OCA  SZ I         334 57.51        31.7 0.92                           164 347 
 CHI  HZ EP        334 38.57                             116    -0.5 8  253 199 
 CHI  HN ES        335  8.76                             116     0.0 8  253 199 
 CHI  HZ I         335 13.91         6.0 0.34                           253 199 
 HEL  HZ EP   1    334 42.82                             113    -0.1 5  288 257 
 HEL  HN ES   2    335 14.51                             113    -1.1 4  288 257 
 HEL  HZ I         335 19.18         7.9 0.33                           288 257 
 RREF HZ EP        334 49.41                             110     0.9 7  334 231 
 RREF HN ES        335 26.05                             110     0.5 7  334 231 
 RREF HZ I         335 30.01        11.8 0.52                           334 231 
                                                                                
