 2013  527 0730 33.1 L   6.777 -73.199128.9  RSN  9 0.5 1.6LRSN                1
 GAP=177        1.19       4.2     5.2  7.9  0.6327E+00  0.1840E+02  0.1506E+01E
 Epicentro: ZAPATOCA - SANTANDER                                               3
 ACTION:UPD 13-06-20 09:54 OP:ep   STATUS:               ID:20130527073033 L   I
 2013-05-27-0730-00M.COL___261                                                 6
 STAT SP IPHASW D HRMM SECON CODA AMPLIT PERI AZIMU VELO AIN AR TRES W  DIS CAZ7
 BAR2 SZ EP        730 50.99                             170    0.3310 20.5 175 
 BAR2 SZ ES        731  4.16                             170   -0.1910 20.5 175 
 BAR2 SZ I         731  7.38         8.4 0.44            175           20.5 175 
 BRR  HZ IP     D  730 52.52                             150    0.2910 67.4 303 
 BRR  HN ES   1    731  6.42                             150   -0.73 7 67.4 303 
 BRR  HZ I         731 13.92         6.4 0.50            148           67.4 303 
 RUS  HZ EP        730 54.68                             141   -0.4110 98.6 173 
 RUS  HN ES        731 12.46                             141    0.2210 98.6 173 
 RUS  HZ I         731 14.17         5.0 0.26            148           98.6 173 
 PTB  HZ EP   2    730 57.22                             129   -0.94 5  141 259 
 PTB  HN ES        731 18.25                             129    0.55 9  141 259 
 PTB  HZ I         731 20.18         5.9 0.56            131            141 259 
 OCA  HZ EP   4    730 58.58                             125   -1.78 0  162 355 
 OCA  HN ES        731 21.43                             125   -0.18 9  162 355 
 OCA  HZ I         731 31.22         4.5 0.18            127            162 355 
 ZAR  HZ EP        731  4.93                             119    0.89 9  200 293 
 ZAR  HN ES        731 28.08                             119   -0.09 9  200 293 
 ZAR  HZ I         731 35.43         6.8 0.32            121            200 293 
 NOR  HZ EP        731  6.43                             115   -0.80 8  228 234 
 NOR  HN ES        731 34.69                             115    0.85 8  228 234 
 NOR  HZ I         731 38.83         4.7 0.22            119            228 234 
 HEL  HZ EP        731 11.99                             112    0.19 8  266 256 
 HEL  HN ES        731 41.54                             112   -0.44 8  266 256 
 HEL  HZ I         731 48.85         2.6 0.30            115            266 256 
 GUY2CHZ EP   1    731 15.31                             109    0.04 5  295 235 
 GUY2CHN ES        731 47.32                             109   -0.84 7  295 235 
 GUY2CHZ I         731 56.40         2.1 0.52                           295 235 
                                                                                
