 2013  427 0932 56.5 L   6.785 -73.154151.0  RSN  7 0.5 2.3LRSN                1
 GAP=136        0.95       4.9     4.7  7.8  0.3370E+00  0.9728E+01 -0.6315E+01E
 Epicentro: LOS SANTOS - SANTANDER                                             3
 ACTION:UPD 13-05-22 14:41 OP:EP   STATUS:               ID:20130427093256 L   I
 2013-04-27-0928-38M.COL___211                                                 6
 STAT SP IPHASW D HRMM SECON CODA AMPLIT PERI AZIMU VELO AIN AR TRES W  DIS CAZ7
 BAR2 SZ EP   1    933 16.78                             172    0.01 7 21.5 188 
 BAR2 SZ ES   1    933 32.21                             172   -0.34 7 21.5 188 
 BAR2 SZ I         933 33.47        20.2 0.36            172           21.5 188 
 BRR  HZ IP     C  933 18.70                             153    0.4410 71.3 300 
 BRR  HN ES   1    933 36.14                             153    0.94 7 71.3 300 
 BRR  HN I         933 36.79        55.9 0.22            150           71.3 300 
 PAM  SZ EP   1    933 19.60                             151    0.18 7 79.2  39 
 PAM  SN ES        933 37.08                             151   -0.1910 79.2  39 
 PAM  SN I         933 37.91        14.5 0.50            153           79.2  39 
 RUS  HZ EP   1    933 21.04                             145    0.34 7 99.0 175 
 RUS  HN ES   1    933 39.22                             145   -0.32 7 99.0 175 
 RUS  HN I         933 39.85        19.3 0.34            148           99.0 175 
 PTB  HZ EP   1    933 23.70                             133   -0.14 7  147 259 
 PTB  HN ES        933 44.52                             133   -0.61 9  147 259 
 PTB  HN I         933 49.68        40.4 0.30            132            147 259 
 ZAR  HZ EP   2    933 29.66                             123    0.34 4  204 293 
 ZAR  HN ES        933 55.28                             123    0.40 9  204 293 
 ZAR  HN I         934  0.94        32.7 0.16            123            204 293 
 SML  HZ EP   1    933 33.06                             118   -0.53 6  245 336 
 SML  HN ES   1    934  1.73                             118   -0.76 6  245 336 
 SML  HN I         934  7.56        44.1 0.10            118            245 336 
                                                                                
