 2015  627 0730 28.9 L   6.547 -73.438117.9  RSN  7 0.4 1.9LRSN                1
 GAP=175        0.92       4.1     4.4  6.1 -0.6227E+01  0.1326E+02 -0.3796E+01E
 Epicentro: HATO - SANTANDER                                                   3
 ACTION:UPD 15-09-10 22:15 OP:cam  STATUS:               ID:20150627073028 L   I
 OLDACT:UP  15-06-27 16:47 OP:mh   STATUS:               ID:20150627072749     3
 OLDACT:UP  15-06-27 16:47 OP:mh   STATUS:               ID:20150627072749     3
 OLDACT:REG 15-06-27 13:08 OP:mh   STATUS:               ID:20150627072749     3
 2015-06-27-0727-49M.COL___310                                                 6
 STAT SP IPHASW D HRMM SECON CODA AMPLIT PERI AZIMU VELO AIN AR TRES W  DIS CAZ7
 BAR2 EZ EP        730 45.60                             165    0.2610 28.7  80 
 BAR2 EZ ES        730 57.87                             165   -0.2910 28.7  80 
 BRR  HZ EP        730 46.99                             147    0.0210 69.0 334 
 BRR  HN ES        731  1.27                             147    0.2110 69.0 334 
 BRR  HZ I         731  2.21        14.3 0.10            142           69.0 334 
 OCA  HZ EP        730 58.31                             118    0.21 9  188   4 
 OCA  HN ES        731 20.97                             118    0.11 9  188   4 
 OCA  HZ I         731 25.92        12.0 0.27            117            188   4 
 ZAR  HZ EP        730 58.04                             118    0.03 9  189 304 
 ZAR  HN ES        731 21.15                             118    0.43 9  189 304 
 ZAR  HZ I         731 25.26         8.5 0.38            116            189 304 
 HEL  HZ EP        731  3.32                             112   -0.26 8  235 260 
 HEL  HN ES        731 29.87                             112   -0.76 8  235 260 
 HEL  HZ I         731 35.20         3.5 0.36            112            235 260 
 SML  HZ EP        731  5.12                             110   -0.76 8  259 344 
 SML  HN ES        731 34.37                             110   -0.34 8  259 344 
 SML  HZ I         731 41.30        12.3 0.22            109            259 344 
 CBOC HZ EP        731 11.08                             107    0.83 7  295 255 
 CBOC HN ES        731 42.69                             107    0.19 7  295 255 
                                                                                
