 2011 1227 0441 40.7 L   6.487 -73.619109.1  RSN  6 0.2 1.6LRSN                1
 GAP=123        0.52       3.3     3.3  6.6  0.1818E+01  0.1229E+02 -0.2497E+01E
 Epicentro: SANTA HELENA DEL OPON - SANTANDER                                  3
 ACTION:UPD 12-07-13 16:18 OP:ep   STATUS:               ID:20111227044140 L   I
 2011-12-27-0440-00M.COL___187                                                 6
 STAT SP IPHASW D HRMM SECON CODA AMPLIT PERI AZIMU VELO AIN AR TRES W  DIS CAZ7
 BAR2 SZ EP        441 57.23                             154    0.1810 49.7  76 
 BAR2 SZ ES   1    442  9.70                             154   -0.08 7 49.7  76 
 BRR  HZ EP   1    441 57.44                             145   -0.49 7 69.4 352 
 BRR  HZ I         441 57.73        16.9 0.13                          69.4 352 
 RUS  HZ EP   1    442  0.18                             138    0.11 7 88.5 138 
 RUS  HN ES   1    442 15.11                             138   -0.05 7 88.5 138 
 RUS  HZ I         442 16.70         7.3 0.25                          88.5 138 
 PAM  SZ EP   1    442  4.80                             124    0.12 7  139  47 
 PAM  SE ES   1    442 23.42                             124    0.05 7  139  47 
 PAM  SZ I         442 24.55         2.1 0.32                           139  47 
 ZAR  HZ EP   1    442  7.65                             117   -0.37 7  176 309 
 ZAR  HE ES   1    442 29.69                             117    0.38 7  176 309 
 ZAR  HZ I         442 32.50         9.5 0.20                           176 309 
 HEL  HZ EP   1    442 12.68                             112    0.04 6  214 261 
 HEL  HZ I         442 40.83         3.5 0.35                           214 261 
                                                                                
