 2013  627 0139  3.5 L   6.785 -73.138153.5  RSN  5 0.5 1.5LRSN                1
 GAP=237        1.17       8.2     8.3 11.6  0.3134E+02  0.3947E+01  0.1697E+01E
 Epicentro: LOS SANTOS - SANTANDER                                             3
 ACTION:UPD 14-01-08 09:57 OP:ep   STATUS:               ID:20130627013903 L   I
 OLDACT:REG 13-06-27 07:10 OP:jn   STATUS:               ID:20130627013746     3
 2013-06-27-0137-46M.COL___232                                                 6
 STAT SP IPHASW D HRMM SECON CODA AMPLIT PERI AZIMU VELO AIN AR TRES W  DIS CAZ7
 BRR  HZ EP     D  139 25.95                             154    0.3710 72.7 299 
 BRR  HN ES        139 43.11                             154    0.3110 72.7 299 
 BRR  HZ I         139 45.78         4.2 0.16            150           72.7 299 
 RUS  HZ EP        139 28.08                             146    0.1710 98.8 176 
 RUS  HN ES        139 46.76                             146   -0.1810 98.8 176 
 RUS  HZ I         139 47.59         2.6 0.26            147           98.8 176 
 PTB  HZ EP        139 30.63                             134   -0.53 9  148 260 
 PTB  HN ES        139 51.97                             134   -0.76 9  148 260 
 PTB  HZ I         139 54.06         3.8 0.14            132            148 260 
 ZAR  HE ES   1    140  2.43                             124   -0.00 6  205 292 
 ZAR  HZ I         140  9.06         4.5 0.30            123            205 292 
 NOR  HE ES   1    140  9.08                             120    1.21 6  234 235 
 NOR  HZ I         140 12.35         3.0 0.18            120            234 235 
                                                                                
