 2011  627 0323 14.4 L   6.770 -73.101146.4  RSN  5 0.2 1.3LRSN                1
 GAP=190        0.72       8.5    15.3  9.6 -0.8491E+02  0.4452E+02 -0.3118E+02E
 Epicentro: LOS SANTOS - SANTANDER                                             3
 ACTION:UP  11-07-14 19:08 OP:ep   STATUS:               ID:20110627032314 L   I
 2011-06-27-0322-05S.COL___140                                                 6
 STAT SP IPHASW D HRMM SECON CODA AMPLIT PERI AZIMU VELO SNR AR TRES W  DIS CAZ7
 BAR2 SZ EP        323 34.03                             171    -0.110   22 204 
 BAR2 SZ ES   1    323 49.17                             171    -0.3 7   22 204 
 BTL  SZ EP        323 34.59                             170     0.410   25 312 
 GIR2 SZ EP        323 34.41                             166     0.110   36 343 
 BRR  HZ EP        323 35.81                             151    -0.210   77 299 
 BRR  HZ I         323 36.11         5.5 0.15                            77 299 
 GRA  SZ EP        323 39.55                             137    -0.310  128  15 
 GRA  SZ ES   1    323 59.85                             137     0.1 7  128  15 
 GRA  SZ I         324  1.44         2.1 0.49                           128  15 
                                                                                
