 2012 1127 0111  5.4 L   6.804 -73.164142.7  RSN 14 0.5 2.9LRSN                1
 GAP= 70        1.17       2.8     3.5  6.1  0.3198E+00  0.6640E+01  0.2422E+01E
 Epicentro: LOS SANTOS - SANTANDER                                             3
 ACTION:UPD 12-12-05 15:36 OP:}ep  STATUS:               ID:20121127011105 L   I
 2012-11-27-0110-00M.COL___234                                                 6
 STAT SP IPHASW D HRMM SECON CODA AMPLIT PERI AZIMU VELO AIN AR TRES W  DIS CAZ7
 BAR2 SZ IP        111 24.72                             170    0.0910 23.5 185 
 BAR2 SZ ES        111 39.87                             170    0.2110 23.5 185 
 BAR2 SZ I         111 41.45       142.8 0.28                          23.5 185 
 GIR2 SZ EP        111 24.84                             167    0.1910 30.6 354 
 GIR2 SZ I         111 41.84        54.6 0.60                          30.6 354 
 PAM  SZ EP        111 27.42                             150    0.1110 78.4  41 
 PAM  SN ES        111 44.80                             150    0.3610 78.4  41 
 PAM  SN I         111 45.12       127.3 0.40                          78.4  41 
 RUS  HZ EP     D  111 28.55                             143   -0.3010  101 175 
 RUS  HN ES        111 46.61                             143   -0.5710  101 175 
 RUS  HN I         111 47.75        63.7 0.38                           101 175 
 PTB  HZ EP        111 31.60                             132   -0.30 9  146 259 
 PTB  HN ES        111 52.00                             132   -0.61 9  146 259 
 PTB  HN I         111 58.14       143.7 0.30                           146 259 
 TAM  HZ IP     D  111 32.87                             129   -0.12 9  157 105 
 TAM  HN ES        111 54.48                             129   -0.06 9  157 105 
 TAM  HN I         111 55.14       165.6 0.38                           157 105 
 OCA  HZ EP        111 33.07                             129   -0.30 9  160 354 
 OCA  HE ES        111 54.96                             129   -0.27 9  160 354 
 OCA  HN I         112  0.01       262.5 0.22                           160 354 
 ZAR  HZ EP        111 37.62                             122    0.22 9  202 292 
 ZAR  HN ES        112  3.06                             122    0.67 9  202 292 
 ZAR  HN I         112  9.46        64.4 0.20                           202 292 
 SML  HZ EP        111 41.10                             117   -0.58 8  243 336 
 SML  HE ES        112 10.44                             117    0.42 8  243 336 
 SML  HN I         112 13.37       111.5 0.28                           243 336 
 CHI  HZ EP        111 42.66                             116   -0.21 8  248 195 
 CHI  HE ES        112 13.02                             116    0.88 8  248 195 
 CHI  HZ I         112 17.90        20.0 0.54                           248 195 
 ROSC BZ EP        111 44.37                             116    1.13 8  252 211 
 ROSC BZ I         112 22.21        56.1 0.50                           252 211 
 HEL  HZ EP        111 46.07                             114    0.86 8  270 256 
 HEL  HE ES        112 15.27                             114   -1.02 8  270 256 
 HEL  HE I         112 24.25        31.8 0.44                           270 256 
 VIL  SZ EP        111 47.91                             111   -0.73 7  303 191 
 VIL  SE ES        112 22.64                             111    0.25 7  303 191 
 VIL  SN I         112 29.33       109.9 0.48                           303 191 
 PRA  HZ EP        111 58.19                             106   -0.51 6  391 209 
 PRA  HN ES        112 40.84                             106    0.54 6  391 209 
 PRA  HN I         112 46.34        30.0 0.80                           391 209 
                                                                                
