 2016  527 0505 14.9 L   6.789 -73.076146.5  RSN  4 0.4 1.3LRSN                1
 GAP=146        1.02       6.1     8.2  8.4 -0.3407E+01 -0.5866E+01  0.6287E+01E
 Epicentro: LOS SANTOS - SANTANDER                                             3
 ACTION:UPD 16-08-18 17:49 OP:cam  STATUS:               ID:20160527050514 L   I
 OLDACT:UP  16-05-27 17:10 OP:mh   STATUS:               ID:20160527045745d    3
 OLDACT:DUP 16-05-27 17:10 OP:mh   STATUS:               ID:20160527045745d    3
 OLDACT:REG 16-05-27 12:39 OP:mh   STATUS:               ID:20160527045744     3
 2016-05-27-0457-44M.COL___313                                                 6
 STAT SP IPHASW D HRMM SECON CODA AMPLIT PERI AZIMU VELO AIN AR TRES W  DIS CAZ7
 BAR2 EZ EP        5 5 34.99                             170    0.3410 24.7 208 
 BAR2 EZ ES        5 5 50.21                             170    0.1610 24.7 208 
 BAR2 EZ I         5 5 52.39         4.7 0.28            171           24.7 208 
 PAM  EZ EP        5 5 37.45                             152    0.4710 73.7  34 
 PAM  EN ES        5 5 53.85                             152   -0.3610 73.7  34 
 PAM  EZ I         5 5 57.37         2.8 0.66            155           73.7  34 
 BRR  HZ EP        5 5 36.65                             150    0.0910 78.6 297 
 BRR  HN ES        5 5 53.29                             150   -0.1710 78.6 297 
 BRR  HZ I         5 5 57.43         4.9 0.46            152           78.6 297 
 RUS  HZ EP        5 5 37.87                             144   -0.7510 99.1 180 
 RUS  HN ES   1    5 5 57.51                             144    0.39 7 99.1 180 
 RUS  HZ I         5 5 59.22         2.1 0.54            148           99.1 180 
                                                                                
