 2016  627 0613 29.4 L   6.766 -73.218151.2  RSN  4 0.2 1.5LRSN                1
 GAP=273        0.51       3.3     5.2  5.6 -0.7794E-01 -0.4343E+01  0.1650E+01E
 Epicentro: ZAPATOCA - SANTANDER                                               3
 ACTION:UPD 16-07-21 22:23 OP:rebc STATUS:               ID:20160627061329 L   I
 OLDACT:REG 16-06-27 13:18 OP:ak   STATUS:               ID:20160627060746     3
 2016-06-27-0607-46M.COL___328                                                 6
 STAT SP IPHASW D HRMM SECON CODA AMPLIT PERI AZIMU VELO AIN AR TRES W  DIS CAZ7
 BRR  HZ EP        613 50.98                             155    0.0510 66.3 305 
 BRR  HN ES        614  7.70                             155    0.0110 66.3 305 
 BRR  HZ I         614 10.44         5.1 0.12                          66.3 305 
 PTB  HZ EP        613 55.77                             135   -0.34 9  139 260 
 PTB  HN ES        614 16.97                             135    0.06 9  139 260 
 PTB  HZ I         614 19.42         1.8 0.17                           139 260 
 SPBC HZ EP   2    613 58.38                             132    0.74 5  155 218 
 SPBC HN ES        614 19.62                             132   -0.02 9  155 218 
 SPBC HZ I         614 27.79         5.7 0.05                           155 218 
 ZAR  HZ EP   2    614  1.75                             125    0.10 4  198 294 
 ZAR  HN ES        614 26.81                             125    0.04 9  198 294 
 ZAR  HZ I         614 32.17         4.1 0.30                           198 294 
                                                                                
