 2017  727 0750 17.3 L   5.896 -73.755109.2  RSN  6 0.1 0.7LRSN                1
 GAP=142        0.38       2.0     1.9  3.4 -0.1868E+01 -0.1894E+01  0.4963E+00E
 Epicentro: JESUS MARIA - SANTANDER                                            3
 ACTION:UPD 17-08-30 15:37 OP:rebc STATUS:               ID:20170727075017 L   I
 OLDACT:UP  17-07-27 16:03 OP:and  STATUS:               ID:20170727074738d    3
 OLDACT:UP  17-07-27 16:03 OP:and  STATUS:               ID:20170727074738d    3
 OLDACT:DUP 17-07-27 16:01 OP:and  STATUS:               ID:20170727074738d    3
 2017-07-27-0748-00M.COL___371                                                 6
 STAT SP IPHASW D HRMM SECON CODA AMPLIT PERI AZIMU VELO AIN AR TRES W  DIS CAZ7
 SPBC HZ EP        750 33.07                             156   -0.1210 44.3 232 
 SPBC HN ES        750 45.64                             156    0.1010 44.3 232 
 SPBC HZ I         750 46.98         3.0 0.22            159           44.3 232 
 RUS  HZ EP        750 35.71                             143    0.0910 74.4  90 
 RUS  HN ES   2    750 49.61                             143   -0.26 5 74.4  90 
 RUS  HZ I         750 52.26         1.2 0.28            145           74.4  90 
 BAR2 EZ EP        750 37.24                             134   -0.0510 99.7  39 
 BAR2 EZ ES        750 52.96                             134    0.1110 99.7  39 
 PTB  HZ EP   9    750 36.59                             133   -0.89 0  105 313 
 PTB  HN ES        750 52.16                             134   -0.1410  105 313 
 PTB  HZ I         750 54.75         0.8 0.12            136            105 313 
 NOR  HN ES        750 57.18                             126   -0.0410  129 253 
 BRR  HZ EP   2    750 40.57                             125    0.37 5  134   2 
 BRR  HN ES        750 57.89                             125   -0.1310  134   2 
                                                                                
