 2013  427 0732 56.3 L   6.811 -73.139145.9  RSN 12 0.5 2.3LRSN                1
 GAP=137        1.05       4.3     5.3  6.0 -0.1708E+00  0.8019E+01  0.3944E+01E
 Epicentro: LOS SANTOS - SANTANDER                                             3
 ACTION:UPD 13-05-22 14:41 OP:EP   STATUS:               ID:20130427073256 L   I
 2013-04-27-0728-48M.COL___211                                                 6
 STAT SP IPHASW D HRMM SECON CODA AMPLIT PERI AZIMU VELO AIN AR TRES W  DIS CAZ7
 BAR2 SZ EP     C  733 16.01                             170    0.0510 24.6 191 
 BAR2 SZ ES   1    733 30.67                             170   -0.63 7 24.6 191 
 BAR2 SZ I         733 33.57        42.5 0.28            168           24.6 191 
 GIR2 SZ EP        733 16.09                             168    0.1510 30.2 349 
 GIR2 SZ ES        733 31.48                             168    0.2010 30.2 349 
 GIR2 SZ I         733 32.21        21.8 0.34            168           30.2 349 
 BRR  HZ IP     C  733 17.90                             153    0.4510 71.3 297 
 BRR  HN ES        733 34.67                             153    0.7110 71.3 297 
 BRR  HZ I         733 38.95        26.3 0.44            151           71.3 297 
 PAM  SZ EP     C  733 18.80                             151    0.3710 76.0  40 
 PAM  SE ES   1    733 35.50                             151   -0.21 7 76.0  40 
 PAM  SZ I         733 38.05        36.2 0.54            156           76.0  40 
 RUS  HZ IP     D  733 19.89                             143   -0.2410  102 177 
 RUS  HN ES   2    733 37.77                             143   -0.96 5  102 177 
 RUS  HZ I         733 39.58        14.7 0.34            144            102 177 
 PTB  HZ EP        733 22.59                             132   -0.76 9  149 258 
 PTB  HN ES   1    733 43.89                             132   -0.56 7  149 258 
 PTB  HZ I         733 49.81        29.7 0.46            132            149 258 
 OCA  HZ EP   1    733 24.15                             130   -0.35 7  159 353 
 OCA  HN ES   1    733 46.32                             130   -0.19 7  159 353 
 OCA  HZ I         733 51.88        24.2 0.32            133            159 353 
 ZAR  HZ EP   1    733 29.13                             122    0.37 6  204 292 
 ZAR  HN ES   2    733 54.22                             122    0.13 4  204 292 
 ZAR  HN I         733 55.82        45.1 0.14            123            204 292 
 SML  HZ EP   2    733 32.00                             118   -0.83 4  243 335 
 SML  HN ES        734  0.67                             118   -0.67 8  243 335 
 ROSC BZ EP   1    733 35.68                             117    1.12 6  254 211 
 ROSC BN ES   4    734  6.80                             117    2.38 0  254 211 
 ROSC BZ I         734 13.74        19.3 0.45            118            254 211 
 HEL  HZ EP        733 37.13                             115    0.52 8  273 256 
 HEL  HN ES   2    734  7.90                             115   -0.17 4  273 256 
 PRA  HZ EP   1    733 49.66                             106   -0.31 4  393 210 
 PRA  HN ES   4    734 32.66                             106    0.82 0  393 210 
 PRA  HN I         734 35.95         8.3 0.36            108            393 210 
                                                                                
