 2017  927 0102 45.6 L   6.795 -73.113151.7  RSN 21 0.5 2.3LRSN                1
 GAP= 68        1.01       2.7     2.7  4.8 -0.1097E+00  0.3171E+01  0.2121E+01E
 Epicentro: LOS SANTOS - SANTANDER                                             3
 ACTION:UPD 17-10-05 19:16 OP:rebc STATUS:               ID:20170927010245 L   I
 OLDACT:UP  17-09-27 14:44 OP:edw  STATUS:               ID:20170927005744     3
 OLDACT:UP  17-09-27 14:43 OP:edw  STATUS:               ID:20170927005744     3
 OLDACT:REG 17-09-27 12:14 OP:edw  STATUS:               ID:20170927005744     3
 2017-09-27-0058-00M.COL___453                                                 6
 STAT SP IPHASW D HRMM SECON CODA AMPLIT PERI AZIMU VELO AIN AR TRES W  DIS CAZ7
 BAR2 EZ EP     D  1 3  5.82                             171   -0.1610 23.7 199 
 BAR2 EZ ES        1 3 22.04                             171    0.1810 23.7 199 
 BAR2 EZ I         1 3 23.63        45.1 0.24            168           23.7 199 
 BRR  HZ EP        1 3  7.68                             152    0.0610 74.6 298 
 BRR  HN ES        1 3 25.19                             152    0.4310 74.6 298 
 BRR  HZ I         1 3 28.91        31.5 0.14            151           74.6 298 
 PAM  EZ EP        1 3  8.62                             152    0.2410 75.6  37 
 PAM  EN ES        1 3 26.09                             152   -0.0410 75.6  37 
 PAM  EZ I         1 3 28.07        44.1 0.56            156           75.6  37 
 RUS  HZ EP        1 3  9.77                             145   -0.1510 99.8 178 
 RUS  HN ES        1 3 28.07                             145   -0.8010 99.8 178 
 RUS  HZ I         1 3 31.29        19.7 0.42            145           99.8 178 
 TAM  HZ IP        1 3 13.97                             133    0.50 9  152 105 
 TAM  HN ES        1 3 35.88                             133    0.71 9  152 105 
 YPLC HZ EP        1 3 15.98                             128    0.32 9  175 152 
 YPLC HN ES        1 3 38.61                             128   -0.47 9  175 152 
 YPLC HZ I         1 3 42.19         7.7 0.36            130            175 152 
 ZAR  HZ EP        1 3 18.67                             123   -0.16 8  208 292 
 ZAR  HN ES        1 3 44.14                             123   -0.58 8  208 292 
 ZAR  HZ I         1 3 50.13        16.3 0.44            124            208 292 
 NOR  HZ EP        1 3 21.62                             119   -0.37 8  237 235 
 NOR  HN ES        1 3 50.00                             119   -0.35 8  237 235 
 NOR  HZ I         1 3 53.94        12.5 0.20            120            237 235 
 CHI  HZ EP        1 3 23.91                             118    0.20 8  249 196 
 CHI  HN ES        1 3 53.18                             118   -0.23 8  249 196 
 CHI  HZ I         1 3 56.83         7.7 0.60            119            249 196 
 ROSC BZ EP   4    1 3 25.65                             118    1.42 0  254 212 
 ROSC BN ES   4    1 3 56.51                             118    2.17 0  254 212 
 ROSC BZ I         1 4  1.86        17.0 0.55            118            254 212 
 HEL  HZ EP   4    1 3 27.86                             116    1.34 0  275 256 
 HEL  HN ES        1 3 59.10                             116    0.69 7  275 256 
 HEL  HZ I         1 4  3.91         7.7 0.46            116            275 256 
 URE  HZ EP   4    1 3 30.65                             114    3.26 0  287 292 
 URE  HN ES   4    1 4  3.59                             114    3.63 0  287 292 
 GUY2CHZ EP   4    1 3 30.94                             113    1.13 0  304 235 
 GUY2CHN ES        1 4  4.91                             113    0.64 7  304 235 
 GUY2CHZ I         1 4 13.68         9.8 0.46                           304 235 
 PTGC HZ EP        1 3 28.71                             113   -0.85 7  307 159 
 PTGC HN ES   4    1 4  0.94                             113   -2.88 0  307 159 
 PTGC HZ I         1 4  4.56         8.0 0.44            114            307 159 
 LL6C HZ EP        1 3 31.16                             111   -0.51 7  326 357 
 LL6C HN ES        1 4  7.42                             111   -0.17 7  326 357 
 LL6C HZ I         1 4  9.45         8.8 0.60            113            326 357 
 ELA  HZ EP   4    1 3 34.99                             111    1.98 0  331 230 
 ELA  HN ES   4    1 4  8.60                             111   -1.36 0  331 230 
 ELA  HZ I         1 4 17.50         8.5 0.48            112            331 230 
 CBOC HZ EP   1    1 3 34.02                             111    0.85 5  337 252 
 CBOC HN ES        1 4 10.15                             111   -0.09 7  337 252 
 CBOC HZ I         1 4 16.38         2.6 0.64            111            337 252 
 DBB  EN ES   4    1 4  9.69                             110   -1.62 0  343 274 
 ANIL HZ EP   4    1 3 37.58                             109    1.66 0  359 225 
 ANIL HN ES        1 4 14.93                             109   -0.20 6  359 225 
 PRA  HZ EP        1 3 39.53                             107    0.01 6  393 210 
 PRA  HN ES   4    1 4 20.48                             107   -1.06 0  393 210 
 PRA  HZ I         1 4 27.42        10.3 0.32            108            393 210 
 ORTC HZ EP        1 3 39.75                             107   -0.21 6  397 217 
 ORTC HN ES        1 4 23.32                             107    0.99 6  397 217 
 ORTC HZ I         1 4 29.33         6.6 0.50            108            397 217 
 SJC  HZ EP   4    1 3 40.08                             106   -1.60 0  412 327 
 SJC  HN ES   4    1 4 20.73                             106   -4.66 0  412 327 
 SJC  HZ I         1 4 25.47         4.1 0.40            107            412 327 
 CRJC HZ EP   4    1 3 46.17                             104   -2.18 0  468   3 
 CRJC HN ES   4    1 4 34.14                             104   -3.12 0  468   3 
 CRJC HZ I         1 4 38.42         5.9 0.24            105            468   3 
                                                                                
