 2011  527 0155 41.5 L   6.797 -73.129143.1  RSN 12 0.4 2.0LRSN                1
 GAP=139        0.84       3.6     6.1  5.6 -0.1035E+02  0.6127E+01  0.2651E+01E
 Epicentro: LOS SANTOS - SANTANDER                                             3
 ACTION:UP  11-06-29 08:56 OP:tino STATUS:               ID:20110527015541 L   I
 2011-05-27-0154-02S.COL___115                                                 6
 STAT SP IPHASW D HRMM SECON CODA AMPLIT PERI AZIMU VELO SNR AR TRES W  DIS CAZ7
 BTL  SZ EP   1    156  0.88                             172     0.1 7   20 311 
 BAR2 SZ EP   1    156  0.57                             170    -0.2 7   23 195 
 BAR2 SZ ES   1    156 14.89                             170    -1.0 7   23 195 
 BAR2 SZ I         156 16.85        51.1 0.33                            23 195 
 GIR2 SZ EP   1    156  0.72                             167    -0.1 7   32 347 
 GIR2 SZ ES   1    156 16.12                             167     0.2 7   32 347 
 BRR  HZ EP   1    156  2.46                             151     0.0 7   73 298 
 BRR  HZ I         156  2.67        66.8 0.16                            73 298 
 BRR  HN ES   1    156 19.48                             151     0.7 7   73 298 
 PAM  SZ EP   1    156  3.64                             151     0.3 7   77  38 
 PAM  SZ I         156  3.88        10.3 0.14                            77  38 
 PAM  SN ES   1    156 20.82                             151     0.4 7   77  38 
 RUS  HZ EP   1    156  4.78                             143    -0.2 7  100 177 
 RUS  HN ES   1    156 23.33                             143     0.1 7  100 177 
 RUS  HZ I         156 25.50         9.9 0.29                           100 177 
 BRI  SZ EP   1    156  5.21                             141     0.1 7  108  20 
 BRI  SZ ES   1    156 23.78                             141     0.3 7  108  20 
 BRI  SZ I         156 28.85        12.7 0.37                           108  20 
 GRA  SZ EP   1    156  6.45                             136     0.0 7  126  17 
 GRA  SZ ES   1    156 25.88                             136    -0.1 7  126  17 
 GRA  SZ I         156 30.52        18.2 0.31                           126  17 
 OCA  SZ EP   1    156  9.18                             129    -0.5 7  161 353 
 OCA  SZ ES   1    156 31.02                             129    -0.6 7  161 353 
 NOR  SZ EP   1    156 17.03                             118    -0.2 6  236 235 
 NOR  SN ES   1    156 44.91                             118    -0.1 6  236 235 
 NOR  SZ I         156 50.92         1.3 0.24                           236 235 
 ROSC BZ EP   1    156 20.20                             116     0.7 6  253 211 
 ROSC BZ I         156 22.42        10.7 0.20                           253 211 
 PRA  HZ EP   1    156 34.83                             106    -0.1 4  393 210 
 PRA  HN ES   1    157 17.00                             106     0.3 4  393 210 
                                                                                
