 2017  327 0554 53.6 L   6.786 -73.157140.9  RSN  7 0.4 1.5LRSN                1
 GAP=136        1.07       5.0     5.0  7.0 -0.5834E+01  0.8607E+01  0.1412E+01E
 Epicentro: LOS SANTOS - SANTANDER                                             3
 ACTION:UPD 17-05-25 18:45 OP:jn   STATUS:               ID:20170327055453 L   I
 OLDACT:UP  17-03-27 17:25 OP:and  STATUS:               ID:20170327054742     3
 OLDACT:REG 17-03-27 13:07 OP:and  STATUS:               ID:20170327054742     3
 2017-03-27-0548-00M.COL___348                                                 6
 STAT SP IPHASW D HRMM SECON CODA AMPLIT PERI AZIMU VELO AIN AR TRES W  DIS CAZ7
 BAR2 EZ EP        555 12.44                             171   -0.1710 21.6 187 
 BAR2 EZ ES        555 27.18                             171   -0.2710 21.6 187 
 BAR2 EZ I         555 28.47        12.4 0.28            170           21.6 187 
 BRR  HZ IP     C  555 14.20                             152   -0.0110 70.8 300 
 BRR  HN ES        555 30.88                             152    0.6010 70.8 300 
 BRR  HZ I         555 31.49         6.7 0.11            151           70.8 300 
 PAM  EZ EP        555 15.14                             149   -0.2910 79.4  40 
 PAM  EN ES        555 32.72                             149    0.2710 79.4  40 
 PAM  EZ I         555 36.24         1.8 0.14            152           79.4  40 
 RUS  HZ EP        555 16.93                             143    0.1610 99.1 175 
 RUS  HN ES        555 34.77                             143   -0.0810 99.1 175 
 RUS  HZ I         555 36.77         8.1 0.32            144           99.1 175 
 PTB  HZ EP        555 19.39                             131   -0.64 9  146 259 
 PTB  HN ES        555 39.89                             131   -0.76 9  146 259 
 PTB  HZ I         555 42.97         3.9 0.18            131            146 259 
 SPBC HZ EP   2    555 21.66                             128    0.12 5  161 219 
 SPBC HN ES        555 43.84                             128    0.51 9  161 219 
 SPBC HZ I         555 48.62         3.9 0.09            128            161 219 
 HEL  HZ EP        555 34.19                             114    0.80 8  270 256 
 HEL  HE ES   2    556  5.10                             114    0.68 4  270 256 
 HEL  HZ I         556 12.62         1.7 0.46            114            270 256 
                                                                                
