 2010  627 0730 20.3 L   6.778 -73.057138.2  RSN 10 0.3 2.1LRSN                1
 GAP=166        0.62       3.0     5.7  4.5 -0.8498E+01  0.2810E+00  0.1486E+01E
 Epicentro: LOS SANTOS - SANTANDER                                             3
 ACTION:UP  10-08-24 10:13 OP:vdl  STATUS:               ID:20100627073020 L   I
 2010-06-27-0727-27S.COL___118                                                 6
 STAT SP IPHASW D HRMM SECON CODA AMPLIT PERI AZIMU VELO SNR AR TRES W  DIS CAZ7
 BAR2 SZ IP        730 39.12                             169     0.010   25 214 
 BAR2 SZ ES   1    730 53.44                             169    -0.3 7   25 214 
 BRR  HZ EP   2    730 41.10                             148    -0.2 5   81 297 
 BRR  HZ I         730 41.36        41.2 0.06                            81 297 
 BRR  HN ES   1    730 57.65                             148     0.1 7   81 297 
 RUS  HZ EP        730 43.14                             143     0.010   98 182 
 RUS  HN ES   2    731  0.91                             143     0.0 5   98 182 
 RUS  HZ I         731  3.10        14.7 0.26                            98 182 
 BRI  SZ EP        730 43.79                             140     0.410  108  15 
 BRI  SZ ES   2    731  1.94                             140     0.5 5  108  15 
 BRI  SZ I         731  4.37        20.5 0.42                           108  15 
 GUE  SZ EP   2    730 44.58                             138     0.2 5  117   7 
 GRA  SZ EP        730 44.77                             135    -0.110  125  13 
 GRA  SZ ES   1    731  4.06                             135     0.0 7  125  13 
 OCA  SZ EP        730 47.89                             127    -0.5 9  164 350 
 OCA  SZ I         731 14.17        12.7 0.14                           164 350 
 ROSC BZ EP   3    730 59.53                             115     1.1 2  256 213 
 ROSC BN ES   3    731 28.38                             115     0.3 2  256 213 
 ROSC BZ I         731 36.76         8.2 0.12                           256 213 
 RREF HZ EP        731  7.09                             109     0.3 7  328 231 
 RREF HN ES   2    731 43.66                             109     0.6 3  328 231 
 RREF HZ I         731 53.74         6.0 0.34                           328 231 
 PRA  HZ EP        731 13.71                             105    -0.2 6  395 211 
 PRA  HN ES   2    731 55.27                             105    -0.5 3  395 211 
 PRA  HZ I         732  2.17         5.2 0.31                           395 211 
                                                                                
