 2017  827 0033  7.8 L   6.823 -73.080147.5  RSN  4 0.2 0.8LRSN                1
 GAP=144        0.49       2.9     4.3  4.4  0.1339E+01  0.1800E+01  0.2447E+01E
 Epicentro: LOS SANTOS - SANTANDER                                             3
 ACTION:UPD 17-09-04 20:24 OP:rebc STATUS:               ID:20170827003307 L   I
 OLDACT:REG 17-08-27 12:53 OP:edw  STATUS:               ID:20170827002740     3
 2017-08-27-0028-00M.COL___411                                                 6
 STAT SP IPHASW D HRMM SECON CODA AMPLIT PERI AZIMU VELO AIN AR TRES W  DIS CAZ7
 BAR2 EZ EP        033 27.41                             169   -0.3010 27.9 204 
 BAR2 EZ ES        033 43.36                             169    0.1010 27.9 204 
 BAR2 EZ I         033 44.66         2.2 0.28            168           27.9 204 
 PAM  EN ES        033 47.01                             153    0.0210 70.9  36 
 BRR  HZ EP        033 29.68                             151    0.2610 76.6 294 
 BRR  HN ES        033 46.18                             151   -0.1210 76.6 294 
 RUS  HZ EP        033 31.87                             143    0.0110  103 180 
 RUS  HN ES        033 50.68                             143    0.0310  103 180 
 RUS  HZ I         033 51.47         0.6 0.34            144            103 180 
                                                                                
