 2016 1127 0109 20.7 L   6.783 -73.144146.6  RSN 10 0.6 2.1LRSN                1
 GAP=120        1.06       4.3     4.6  6.5 -0.7527E+00  0.3628E+01  0.1120E+02E
 Epicentro: LOS SANTOS - SANTANDER                                             3
 ACTION:UPD 17-10-26 21:12 OP:lp   STATUS:               ID:20161127010920 L   I
 OLDACT:UP  16-11-27 13:22 OP:dani STATUS:               ID:20161127010744     3
 OLDACT:UP  16-11-27 13:22 OP:dani STATUS:               ID:20161127010744     3
 OLDACT:UP  16-11-27 13:22 OP:dani STATUS:               ID:20161127010744     3
 OLDACT:REG 16-11-27 12:34 OP:dani STATUS:               ID:20161127010744     3
 2016-11-27-0108-00M.COL___346                                                 6
 STAT SP IPHASW D HRMM SECON CODA AMPLIT PERI AZIMU VELO AIN AR TRES W  DIS CAZ7
 BAR2 EZ EP        1 9 40.33                             171   -0.0210 21.5 191 
 BAR2 EZ ES        1 9 55.32                             171   -0.3910 21.5 191 
 BAR2 EZ I         1 9 58.06        28.8 0.30            166           21.5 191 
 BRR  HZ EP        1 9 42.08                             152    0.1210 72.3 300 
 BRR  HN ES        1 9 59.31                             152    0.7410 72.3 300 
 BRR  HZ I         110  3.32        20.5 0.07            154           72.3 300 
 PAM  EZ EP        1 9 43.12                             150    0.0810 78.7  39 
 PAM  EN ES        110  0.46                             150   -0.0310 78.7  39 
 PAM  EZ I         110  2.47        29.0 0.50            159           78.7  39 
 PTB  HZ EP        1 9 47.11                             132   -0.57 9  148 260 
 PTB  HN ES        110  7.90                             132   -0.85 9  148 260 
 PTB  HZ I         110 13.08        10.8 0.20            133            148 260 
 ZAR  HZ EP        1 9 53.75                             122    0.50 9  205 293 
 ZAR  HE ES        110 18.57                             122   -0.10 9  205 293 
 ZAR  HZ I         110 24.15         9.6 0.21            125            205 293 
 CHI  HZ EP        1 9 58.58                             117    0.37 8  247 195 
 CHI  HN ES        110 27.99                             117    0.48 8  247 195 
 CHI  HZ I         110 37.71         6.3 0.40            119            247 195 
 ROSC BZ EP   3    110  0.13                             117    1.47 2  251 211 
 ROSC BN ES        110 28.60                             117    0.30 8  251 211 
 ROSC BZ I         110 35.06        11.4 0.20            118            251 211 
 PTGC HZ EP        110  3.50                             112   -0.85 7  307 159 
 PTGC HE ES   4    110 36.05                             112   -2.37 0  307 159 
 PTGC HZ I         110 41.67        12.1 0.34            114            307 159 
 ORTC HZ EP        110 14.66                             106    0.21 6  394 216 
 ORTC HN ES   3    110 58.39                             106    1.99 1  394 216 
 ORTC HZ I         111  4.16         4.3 0.38            108            394 216 
 SJC  HZ EP   3    110 14.76                             106   -1.68 1  411 327 
 SJC  HE ES   4    110 55.81                             106   -4.14 0  411 327 
 SJC  HZ I         110 56.68         2.1 0.74            108            411 327 
                                                                                
