 2017 1227 0520 46.7 L   6.828 -73.189139.1  RSN 11 0.4 1.8LRSN                1
 GAP= 73        1.03       3.7     3.1  6.3 -0.2285E+01  0.2969E+01  0.2308E+01E
 Epicentro: ZAPATOCA - SANTANDER                                               3
 ACTION:UPD 18-01-04 13:24 OP:rebc STATUS:               ID:20171227052046 L   I
 OLDACT:REG 17-12-27 13:09 OP:osc  STATUS:               ID:20171227051738     3
 2017-12-27-0518-00M.COL___445                                                 6
 STAT SP IPHASW D HRMM SECON CODA AMPLIT PERI AZIMU VELO AIN AR TRES W  DIS CAZ7
 BAR2 EZ EP        521  5.69                             169    0.0710 26.1 178 
 BAR2 EZ ES        521 19.91                             169   -0.4410 26.1 178 
 BAR2 EZ I         521 21.89        20.2 0.20            170           26.1 178 
 PAM  EZ EP        521  8.60                             149    0.3110 78.2  44 
 PAM  EN ES        521 25.45                             149    0.3510 78.2  44 
 PAM  EZ I         521 27.69        13.6 0.50            151           78.2  44 
 PTB  HZ EP        521 12.40                             131   -0.39 9  144 257 
 PTB  HE ES        521 34.02                             131    0.91 9  144 257 
 PTB  HZ I         521 36.19         4.9 0.18            132            144 257 
 OCA  HZ EP        521 13.92                             129   -0.26 9  157 355 
 OCA  HE ES        521 35.35                             129   -0.25 9  157 355 
 OCA  HZ I         521 36.95        13.6 0.18            130            157 355 
 TAM  HZ EP     D  521 14.18                             128   -0.22 9  160 106 
 TAM  HE ES        521 35.92                             128   -0.06 9  160 106 
 SPBC HZ EP        521 15.05                             128    0.37 9  163 217 
 SPBC HE ES        521 36.54                             128    0.07 9  163 217 
 SPBC HZ I         521 39.17         5.8 0.12            129            163 217 
 ZAR  HZ EP   9    521 20.03                             122    1.87 0  198 292 
 ZAR  HN ES        521 44.08                                   -0.47 9  198 292 
 ZAR  HZ I         521 50.62         6.8 0.22            122            198 292 
 URE  HZ EP   4    521 27.99                             113    1.14 0  278 292 
 URE  HE ES        521 57.81                             113   -0.34 7  278 292 
 GUY2CHZ EP        521 30.15                             111    0.35 7  299 234 
 GUY2CHN ES        522  2.53                             111   -0.87 7  299 234 
 GUY2CHZ I         522 12.46         1.5 0.22                           299 234 
 CBOC HZ EP   9    521 35.01                             109    2.05 0  330 251 
 CBOC HN ES        522 10.40                                   -0.67 7  330 251 
 SJC  HZ EP   9    521 40.49                             105   -0.97 0  404 327 
 SJC  HE ES        522 22.53                                   -0.65 6  404 327 
                                                                                
