 2011  527 0116 41.6 L   6.799 -73.107152.2  RSN 10 0.4 2.3LRSN                1
 GAP=141        0.87       4.4     6.8  7.4 -0.1496E+02  0.1048E+02  0.5340E+01E
 Epicentro: LOS SANTOS - SANTANDER                                             3
 ACTION:UP  11-06-29 08:56 OP:tino STATUS:               ID:20110527011641 L   I
 2011-05-27-0114-55S.COL___115                                                 6
 STAT SP IPHASW D HRMM SECON CODA AMPLIT PERI AZIMU VELO SNR AR TRES W  DIS CAZ7
 BAR2 SZ EP        117  1.92                             170    -0.110   24 200 
 GIR2 SZ EP   1    117  2.00                             167    -0.1 7   32 343 
 BRR  HZ EP   1    117  3.81                             152     0.1 7   75 297 
 BRR  HZ I         117 23.70        63.0 0.15                            75 297 
 PAM  SZ EP   1    117  4.76                             153     0.4 7   75  37 
 PAM  SN ES   1    117 22.14                             153     0.0 7   75  37 
 PAM  SZ I         117 24.17        17.6 0.49                            75  37 
 BRR  HN ES   1    117 21.37                             152     0.5 7   75 297 
 RUS  HZ EP   1    117  5.82                             145    -0.2 7  100 178 
 RUS  HN ES   1    117 24.97                             145     0.0 7  100 178 
 RUS  HZ I         117 27.46        27.6 0.29                           100 178 
 BRI  SZ EP   1    117  6.48                             143     0.5 7  107  19 
 BRI  SZ ES   1    117 24.09                             143    -1.0 7  107  19 
 BRI  SZ I         117 28.16        27.5 0.23                           107  19 
 GRA  SZ EP   1    117  7.66                             139     0.3 7  125  16 
 GRA  SZ ES   1    117 27.51                             139     0.1 7  125  16 
 GRA  SZ I         117 28.59        40.5 0.49                           125  16 
 NOR  SZ EP   1    117 17.77                             119    -0.3 6  238 235 
 NOR  SN ES   1    117 46.12                             119    -0.4 6  238 235 
 NOR  SZ I         117 48.24         2.2 0.23                           238 235 
 PRA  HZ EP   1    117 35.62                             107     0.0 4  394 210 
 PRA  HZ I         117 37.66        55.9 0.20                           394 210 
 PRA  HN ES   1    118 18.18                             107     0.5 4  394 210 
 SJC  HZ EP   1    117 36.94                             107    -0.7 4  412 326 
                                                                                
