 2014  127 0304  5.6 L   6.767 -73.097148.1  RSN  7 0.4 1.4LRSN                1
 GAP=144        1.08       4.2     5.7  6.6  0.8406E+00  0.6399E+01 -0.1691E+01E
 Epicentro: LOS SANTOS - SANTANDER                                             3
 ACTION:UPD 14-03-13 09:58 OP:ep   STATUS:               ID:20140127030405 L   I
 OLDACT:REG 14-01-27 08:09 OP:stll STATUS:               ID:20140127025808     3
 2014-01-27-0258-08M.COL___240                                                 6
 STAT SP IPHASW D HRMM SECON CODA AMPLIT PERI AZIMU VELO AIN AR TRES W  DIS CAZ7
 BAR2 SZ ES        3 4 40.24                             171   -0.7110 21.5 206 
 BAR2 SZ I         3 4 41.35         5.3 0.16            172           21.5 206 
 PAM  SZ EP        3 4 28.13                             151    0.1210 77.0  35 
 PAM  SN ES        3 4 45.82                             151    0.3010 77.0  35 
 PAM  SZ I         3 4 47.72         4.5 0.48            152           77.0  35 
 BRR  HZ EP        3 4 27.83                             151    0.4810 77.7 299 
 BRR  HE ES        3 4 44.97                             151    0.6410 77.7 299 
 BRR  HZ I         3 4 48.54         3.0 0.14            150           77.7 299 
 RUS  HZ EP        3 4 29.45                             145    0.1710 96.7 179 
 RUS  HN ES        3 4 47.47                             145   -0.3010 96.7 179 
 RUS  HZ I         3 4 48.76         2.5 0.32            148           96.7 179 
 PTB  HZ EP        3 4 33.09                             132   -0.06 9  152 261 
 PTB  HN ES        3 4 54.62                             132   -0.05 9  152 261 
 PTB  HZ I         3 4 56.88         2.6 0.14            132            152 261 
 CHI  HZ EP        3 4 43.46                             118    0.28 8  247 197 
 SML  HZ EP        3 4 42.23                             117   -0.70 8  249 335 
 SML  HE ES        3 5 11.51                             117   -0.57 8  249 335 
 SML  HZ I         3 5 15.01         3.8 0.26            118            249 335 
                                                                                
