 2017 1127 0039 16.2 L   6.811 -73.162140.0  RSN 11 0.5 1.5LRSN                1
 GAP=110        1.09       3.9     3.8  6.3  0.1424E+00  0.6737E+01  0.6398E+01E
 Epicentro: LOS SANTOS - SANTANDER                                             3
 ACTION:UPD 17-12-12 20:00 OP:rebc STATUS:               ID:20171127003916 L   I
 OLDACT:REG 17-11-27 12:03 OP:dhb  STATUS:               ID:20171127003744     3
 2017-11-27-0038-00M.COL___498                                                 6
 STAT SP IPHASW D HRMM SECON CODA AMPLIT PERI AZIMU VELO AIN AR TRES W  DIS CAZ7
 BAR2 EZ EP        039 34.58                             170   -0.5510 24.3 185 
 BAR2 HE ES        039 49.55                             170   -0.3710 24.3 185 
 BAR2 EZ I         039 58.64         5.3 0.10            168           24.3 185 
 PAM  EZ IP     C  039 38.12                             150    0.3310 77.6  41 
 PAM  EN ES        039 54.95                             150    0.2910 77.6  41 
 PAM  EZ I         039 58.28         3.8 0.48            157           77.6  41 
 RUS  HZ EP        039 39.27                             142   -0.1910  102 175 
 RUS  HN ES        039 57.31                             142   -0.3210  102 175 
 RUS  HZ I         039 59.34         3.1 0.54            145            102 175 
 PTB  HZ EP        039 41.99                             131   -0.55 9  146 258 
 PTB  HN ES        040  3.01                             131   -0.10 9  146 258 
 PTB  HZ I         040  7.99         2.9 0.30            134            146 258 
 SPBC HZ EP        039 44.27                             128    0.05 9  163 218 
 SPBC HN ES        040  6.76                             128    0.66 9  163 218 
 SPBC HZ I         040  8.02         5.4 0.28            131            163 218 
 YPLC HZ IP     C  039 45.55                             125   -0.19 9  179 151 
 YPLC HE ES        040  9.73                             125    0.92 9  179 151 
 YPLC HZ I         040 10.48         3.4 0.24            130            179 151 
 ZAR  HE ES        040 13.29                             121    0.41 9  202 292 
 ZAR  HZ I         040 18.24         3.2 0.28            125            202 292 
 NOR  HZ EP        039 50.94                             117   -0.55 8  234 234 
 NOR  HN ES        040 19.31                             117    0.26 8  234 234 
 NOR  HZ I         040 24.52         2.4 0.20            121            234 234 
 CHI  HZ EP        039 53.16                             116   -0.47 8  249 195 
 CHI  HN ES        040 22.57                             116   -0.28 8  249 195 
 CHI  HZ I         040 32.60         1.6 0.28            119            249 195 
 GUY2CHZ EP        040  0.44                             111    1.01 7  300 234 
 GUY2CHE ES   4    040 37.95                             111    4.77 0  300 234 
 GUY2CHZ I         040 41.47         1.7 0.62                           300 234 
 PRA  HZ EP        040  9.56                             105    0.04 6  392 209 
 PRA  HE ES        040 51.28                             105    0.15 6  392 209 
 PRA  HZ I         040 58.28         1.6 0.54            109            392 209 
                                                                                
