 2010 1127 0406 50.8 L   6.792 -73.043143.3  RSN  7 0.4 2.1LRSN                1
 GAP=170        1.04       5.5    11.0  8.8  0.4363E+01 -0.1305E+02 -0.8105E+01E
 Epicentro: LOS SANTOS - SANTANDER                                             3
 ACTION:UP  10-12-17 16:55 OP:REBC STATUS:               ID:20101127040650 L   I
 2010-11-27-0406-28S.COL___129                                                 6
 STAT SP IPHASW D HRMM SECON CODA AMPLIT PERI AZIMU VELO SNR AR TRES W  DIS CAZ7
 BAR2 SZ EP   1    4 7 10.12                             169    -0.1 7   27 215 
 BAR2 SZ ES   1    4 7 24.55                             169    -0.8 7   27 215 
 BAR2 SZ I         4 7 26.97        23.0 0.22                            27 215 
 BRR  HZ IP     C  4 7 12.02                             148    -0.310   82 295 
 BRR  HZ I         4 7 12.30        69.6 0.12                            82 295 
 BRR  HN ES   1    4 7 29.65                             148     0.6 7   82 295 
 RUS  HZ EP        4 7 14.54                             143     0.310  100 183 
 RUS  HN ES   1    4 7 32.72                             143     0.2 7  100 183 
 RUS  HZ I         4 7 33.98        11.6 0.33                           100 183 
 GRA  SZ IP        4 7 15.94                             137     0.310  124  12 
 GRA  SZ I         4 7 38.46        11.3 0.25                           124  12 
 OCA  SZ EP   1    4 7 18.65                             128    -0.5 7  163 349 
 OCA  SZ I         4 7 46.51        17.8 0.35                           163 349 
 CHI  HZ EP   1    4 7 28.26                             116    -0.3 6  251 198 
 CHI  HZ I         4 7 28.71         4.6 0.56                           251 198 
 CHI  HE ES   2    4 7 57.95                             116    -0.1 4  251 198 
 HEL  HZ EP   1    4 7 32.19                             113     0.1 6  283 257 
 HEL  HZ I         4 8  8.88         7.3 0.53                           283 257 
                                                                                
