 2014  127 0026 52.8 L   6.767 -73.149140.0  RSN  6 0.2 1.4LRSN                1
 GAP=138        0.45       1.9     2.3  3.1 -0.4019E+00  0.8919E+00  0.1563E+01E
 Epicentro: LOS SANTOS - SANTANDER                                             3
 ACTION:UPD 14-03-13 09:58 OP:ep   STATUS:               ID:20140127002652 L   I
 OLDACT:REG 14-01-27 08:04 OP:stll STATUS:               ID:20140127001810     3
 2014-01-27-0018-10M.COL___243                                                 6
 STAT SP IPHASW D HRMM SECON CODA AMPLIT PERI AZIMU VELO AIN AR TRES W  DIS CAZ7
 BAR2 SZ ES        027 26.24                             172   -0.1110 19.7 191 
 BAR2 SZ I         027 28.12        11.9 0.28            168           19.7 191 
 BRR  HZ EP        027 13.52                             151    0.1410 72.7 301 
 BRR  HN ES        027 29.59                             151    0.1310 72.7 301 
 BRR  HZ I         027 32.92         5.0 0.30            151           72.7 301 
 PAM  SZ EP        027 14.66                             149    0.1010 80.4  38 
 PAM  SZ I         027 14.78         5.2 0.18            153           80.4  38 
 PAM  SN ES        027 31.46                             149   -0.1010 80.4  38 
 RUS  HZ EP        027 15.70                             144    0.0110 97.0 176 
 RUS  HN ES        027 33.61                             144    0.0310 97.0 176 
 RUS  HZ I         027 36.36         2.9 0.26            143           97.0 176 
 PTB  HZ EP        027 18.75                             131   -0.42 9  147 260 
 PTB  HE ES        027 39.84                             131    0.07 9  147 260 
 PTB  HZ I         027 43.30         3.2 0.28            131            147 260 
 CHI  HZ EP        027 29.92                             116    0.16 8  245 195 
 CHI  HN ES        027 58.61                             116   -0.00 8  245 195 
 CHI  HZ I         028  5.34         1.6 0.32            117            245 195 
                                                                                
