 2013  527 0107 11.7 L   6.813 -73.193132.8  RSN  7 0.4 1.6LRSN                1
 GAP=197        0.94       3.8     6.1  6.6  0.5224E+01  0.9678E+01 -0.3699E+01E
 Epicentro: ZAPATOCA - SANTANDER                                               3
 ACTION:UPD 13-06-20 09:54 OP:ep   STATUS:               ID:20130527010711 L   I
 2013-05-27-0100-00M.COL___261                                                 6
 STAT SP IPHASW D HRMM SECON CODA AMPLIT PERI AZIMU VELO AIN AR TRES W  DIS CAZ7
 BAR2 SZ EP        1 7 29.77                             169   -0.0210 24.4 177 
 BAR2 SZ ES        1 7 43.95                             169    0.0410 24.4 177 
 BAR2 SZ I         1 7 46.38        10.1 0.20            171           24.4 177 
 BRR  HZ EP        1 7 31.81                             152    0.6710 65.9 300 
 BRR  HN ES   2    1 7 45.30                             152   -1.01 5 65.9 300 
 BRR  HZ I         1 7 49.68         6.3 0.30            150           65.9 300 
 RUS  HZ EP        1 7 34.05                             140   -0.2810  102 173 
 RUS  HN ES        1 7 51.94                             140   -0.0610  102 173 
 RUS  HZ I         1 7 53.80         3.9 0.18            143            102 173 
 PTB  HZ EP        1 7 36.85                             130   -0.32 9  143 258 
 PTB  HN ES        1 7 57.49                             130    0.44 9  143 258 
 PTB  HZ I         1 7 59.67         5.0 0.44            130            143 258 
 SML  HZ EP        1 7 47.49                             115    0.25 8  240 336 
 SML  HN ES        1 8 14.50                             115   -0.48 8  240 336 
 SML  HZ I         1 8 20.85         6.6 0.24            116            240 336 
 GUY2CHZ EP   4    1 7 54.93                             110    0.60 0  298 234 
 GUY2CHN ES   4    1 8 26.65                             110   -0.94 0  298 234 
 GUY2CHZ I         1 8 40.66         1.8 0.50                           298 234 
 PRA  HZ EP        1 8  5.07                             104    0.44 6  391 209 
 PRA  HN ES        1 8 45.30                             104   -0.62 6  391 209 
 PRA  HZ I         1 8 50.70         2.0 0.54            106            391 209 
                                                                                
