 2013  427 0610 45.2 L   6.621 -73.104129.7  RSN  4 0.2 1.8LRSN                1
 GAP=231        0.52       8.8     4.2 10.4 -0.2185E+02  0.7549E+01  0.4067E+02E
 Epicentro: CURITI - SANTANDER                                                 3
 ACTION:UPD 13-05-22 14:41 OP:EP   STATUS:               ID:20130427061045 L   I
 2013-04-27-0608-36M.COL___208                                                 6
 STAT SP IPHASW D HRMM SECON CODA AMPLIT PERI AZIMU VELO AIN AR TRES W  DIS CAZ7
 PAM  SZ EP   1    611  7.03                             143    0.35 7 91.2  29 
 PAM  SN ES        611 23.29                             143   -0.1610 91.2  29 
 PAM  SN I         611 24.58        11.9 0.48            147           91.2  29 
 PTB  HZ EP   1    611 10.86                             127   -0.25 7  150 267 
 PTB  HN ES   1    611 31.62                             127    0.30 7  150 267 
 PTB  HN I         611 33.84        11.8 0.34            127            150 267 
 ZAR  HN ES   1    611 43.58                             117    0.01 6  216 297 
 ZAR  HN I         611 45.97         4.6 0.12            117            216 297 
 HEL  HE ES   1    611 55.27                             111   -0.22 6  272 260 
 HEL  HE I         612  4.08         2.9 0.34            111            272 260 
                                                                                
