 2016  727 0551 50.2 L   6.769 -73.172148.0  RSN 11 0.3 1.6LRSN                1
 GAP=232        0.73       2.8     3.2  4.0  0.1823E+01  0.3659E+01  0.2478E+01E
 Epicentro: LOS SANTOS - SANTANDER                                             3
 ACTION:UPD 17-03-29 16:55 OP:lp   STATUS:               ID:20160727055150 L   I
 OLDACT:DUP 16-07-27 17:42 OP:edw  STATUS:               ID:20160727054760d    3
 2016-07-27-0547-59S.COL___340                                                 6
 STAT SP IPHASW D HRMM SECON CODA AMPLIT PERI AZIMU VELO AIN AR TRES W  DIS CAZ7
 BAR2 EZ EP        552  9.69                             172   -0.3510 19.6 183 
 BAR2 EZ ES        552 25.35                             172   -0.1510 19.6 183 
 BAR2 EZ I         552 27.43         9.9 0.35            171           19.6 183 
 BRR  HZ EP        552 11.49                             153   -0.0610 70.4 302 
 BRR  HN ES        552 28.97                             153    0.7710 70.4 302 
 RUS  HZ EP        552 14.01                             145    0.0510 97.4 174 
 RUS  HN ES        552 32.30                             145   -0.1810 97.4 174 
 RUS  HZ I         552 33.37         3.6 0.20            147           97.4 174 
 PTB  HZ EP        552 16.79                             133   -0.25 9  144 260 
 PTB  HE ES        552 37.63                             133   -0.35 9  144 260 
 PTB  HZ I         552 40.04         3.8 0.18            133            144 260 
 SPBC HZ EP        552 18.55                             130    0.09 9  159 219 
 SPBC HN ES        552 40.56                             130    0.07 9  159 219 
 SPBC HZ I         552 45.72         8.0 0.20            131            159 219 
 ZAR  HZ EP        552 22.73                             123    0.07 9  203 293 
 ZAR  HN ES        552 47.90                             123   -0.07 9  203 293 
 ZAR  HZ I         552 55.86         2.9 0.08            124            203 293 
 NOR  HZ EP   4    552 18.60                             119   -7.00 0  230 235 
 NOR  HE ES        552 53.18                             119   -0.03 8  230 235 
 NOR  HZ I         552 57.74         4.4 0.18            120            230 235 
 CHI  HZ EP        552 27.92                             118    0.33 8  245 195 
 CHI  HN ES        552 57.05                             118    0.29 8  245 195 
 HEL  HZ EP        552 29.58                             116   -0.55 8  268 256 
 HEL  HN ES        553  1.29                             116    0.02 8  268 256 
 URE  HZ EP   4    552 25.11                             114   -6.12 0  282 293 
 URE  HN ES   4    553  0.46                             114   -2.76 0  282 293 
 GUY2CHZ EP        552 33.51                             113    0.08 7  297 235 
 GUY2CHN ES        553  7.24                             113    0.10 7  297 235 
 GUY2CHZ I         553 14.44         2.5 0.34                           297 235 
 PRA  HZ EP        552 43.95                             107    0.66 6  388 209 
 PRA  HN ES        553 24.51                             107   -0.19 6  388 209 
 SJC  HZ EP   4    552 43.34                             106   -2.65 0  410 328 
 SJC  HN ES   4    553 26.51                             106   -2.99 0  410 328 
                                                                                
