 2017  827 0820 20.0 L   6.809 -73.130143.7  RSN  7 0.4 1.5LRSN                1
 GAP=113        1.04       4.0     5.0  6.7  0.7267E+01  0.5716E+01  0.5104E+01E
 Epicentro: LOS SANTOS - SANTANDER                                             3
 ACTION:UPD 17-09-04 20:25 OP:rebc STATUS:               ID:20170827082020 L   I
 OLDACT:UP  17-08-27 18:08 OP:edw  STATUS:               ID:20170827081738d    3
 OLDACT:DUP 17-08-27 18:03 OP:edw  STATUS:               ID:20170827081738d    3
 OLDACT:UP  17-08-27 17:37 OP:edw  STATUS:               ID:20170827081737     3
 OLDACT:REG 17-08-27 13:30 OP:edw  STATUS:               ID:20170827081737     3
 2017-08-27-0818-00M.COL___411                                                 6
 STAT SP IPHASW D HRMM SECON CODA AMPLIT PERI AZIMU VELO AIN AR TRES W  DIS CAZ7
 BAR2 EZ EP        820 39.05                             170   -0.3410 24.6 193 
 BAR2 EZ ES        820 54.24                             170   -0.2910 24.6 193 
 BAR2 EZ I         820 56.72         7.7 0.28            170           24.6 193 
 BRR  HZ EP        820 40.78                             152   -0.1810 72.2 297 
 BRR  HN ES        820 57.92                             152    0.5910 72.2 297 
 BRR  HZ I         821  1.14         4.0 0.76            152           72.2 297 
 PAM  HZ EP        820 41.89                             151    0.0210 75.5  39 
 PAM  EN ES        820 59.04                             151    0.1010 75.5  39 
 PAM  HZ I         821  1.09         5.7 0.50            153           75.5  39 
 RUS  HZ EP        820 43.19                             143   -0.4010  101 177 
 RUS  HN ES        821  1.95                             143   -0.0610  101 177 
 RUS  HZ I         821  2.80         7.0 0.34            145            101 177 
 YPLC HZ EP        820 49.40                             126   -0.23 9  177 152 
 YPLC HN ES        821 13.26                             126    0.50 9  177 152 
 YPLC HZ I         821 14.36         5.2 0.24            129            177 152 
 ZAR  HZ EP        820 53.29                             122    0.88 8  205 292 
 ZAR  HN ES        821 17.06                             122   -0.65 8  205 292 
 ZAR  HZ I         821 22.21         2.9 0.72            123            205 292 
 CHI  HN ES        821 27.46                             117    0.31 8  250 195 
                                                                                
