 2016  227 0140 25.6 L   6.812 -73.154132.3  RSN 11 0.5 1.8LRSN                1
 GAP=135        1.05       3.0     4.0  6.3 -0.2190E+01  0.9979E+01  0.2723E+00E
 Epicentro: LOS SANTOS - SANTANDER                                             3
 ACTION:UPD 16-03-04 21:29 OP:rebc STATUS:               ID:20160227014025 L   I
 OLDACT:UP  16-02-27 14:53 OP:mh   STATUS:               ID:20160227013750     3
 OLDACT:UP  16-02-27 14:52 OP:mh   STATUS:               ID:20160227013750     3
 OLDACT:UP  16-02-27 14:52 OP:mh   STATUS:               ID:20160227013750     3
 OLDACT:REG 16-02-27 13:07 OP:mh   STATUS:               ID:20160227013750     3
 2016-02-27-0137-50M.COL___319                                                 6
 STAT SP IPHASW D HRMM SECON CODA AMPLIT PERI AZIMU VELO AIN AR TRES W  DIS CAZ7
 BAR2 EZ EP   1    140 43.38                             169   -0.26 7 24.4 187 
 BAR2 EZ ES        140 57.88                             169    0.1710 24.4 187 
 BAR2 EZ I         140 59.26         7.9 0.28            168           24.4 187 
 PAM  EN EP        140 46.64                             148    0.2610 77.0  41 
 PAM  EZ ES        141  2.98                             148    0.3910 77.0  41 
 PAM  EN I         141  4.24        28.0 0.48            152           77.0  41 
 RUS  HZ EP        140 48.01                             140   -0.1510  102 176 
 RUS  HN ES        141  5.81                             140    0.0610  102 176 
 RUS  HZ I         141  6.82         3.3 0.28            143            102 176 
 PTB  HZ EP   1    140 50.50                             129   -0.94 7  147 258 
 PTB  HN ES        141 10.91                             129   -0.69 9  147 258 
 PTB  HZ I         141 13.97         8.9 0.44            129            147 258 
 OCA  HZ EP        140 52.47                             127   -0.30 9  159 353 
 OCA  HN ES        141 13.56                             127   -0.40 9  159 353 
 OCA  HZ I         141 16.85        27.0 0.34            128            159 353 
 SPBC HZ EP        140 52.74                             126   -0.41 9  164 218 
 SPBC HN ES   1    141 14.86                             126    0.23 7  164 218 
 SPBC HZ I         141 17.99         8.9 0.22            127            164 218 
 ZAR  HZ EP        140 56.93                             119   -0.13 9  203 292 
 ZAR  HN ES        141 22.04                             119    0.44 9  203 292 
 ZAR  HZ I         141 25.63         6.7 0.26            120            203 292 
 NOR  HZ EP        141  1.23                             115    0.64 8  235 234 
 NOR  HN ES        141 27.48                             115   -0.39 8  235 234 
 NOR  HZ I         141 34.30         4.4 0.16            116            235 234 
 CHI  HZ EP        141  2.98                             114    0.28 8  250 195 
 CHI  HN ES        141 31.33                             114   -0.31 8  250 195 
 CHI  HZ I         141 33.85         1.6 0.56            116            250 195 
 HEL  HZ EP        141  5.87                             112    0.77 8  271 255 
 HEL  HN ES        141 36.75                             112    0.85 8  271 255 
 HEL  HZ I         141 44.37         3.6 0.48            113            271 255 
 GUY2CHZ EP   4    141  8.93                             110    0.31 0  301 234 
 GUY2CHN ES   4    141 42.45                             110    0.28 0  301 234 
 GUY2CHZ I         141 48.70         3.5 0.26                           301 234 
                                                                                
