 2016  727 0637 17.9 L   6.763 -73.186145.8  RSN  7 0.3 1.7LRSN                1
 GAP=230        0.68       3.5     3.8  4.4  0.6388E+01  0.3601E+01 -0.1380E+01E
 Epicentro: LOS SANTOS - SANTANDER                                             3
 ACTION:UPD 17-03-29 16:55 OP:lp   STATUS:               ID:20160727063717 L   I
 OLDACT:REG 16-07-27 13:23 OP:edw  STATUS:               ID:20160727062759     3
 2016-07-27-0627-59S.COL___334                                                 6
 STAT SP IPHASW D HRMM SECON CODA AMPLIT PERI AZIMU VELO AIN AR TRES W  DIS CAZ7
 BAR2 EZ EP        637 37.26                             172   -0.1810 18.9 179 
 BAR2 EZ ES        637 52.29                             172   -0.4110 18.9 179 
 BRR  HZ EP        637 39.10                             153    0.1510 69.5 303 
 BRR  HN ES        637 55.59                             153    0.2210 69.5 303 
 BRR  HZ I         637 59.78        10.4 0.14            152           69.5 303 
 RUS  HZ EP        637 41.70                             145    0.3110 96.9 173 
 RUS  HN ES        637 59.87                             145    0.1610 96.9 173 
 RUS  HZ I         638  1.30         4.7 0.24            149           96.9 173 
 PTB  HZ EP        637 43.92                             133   -0.48 9  143 260 
 PTB  HE ES        638  5.23                             133    0.15 9  143 260 
 PTB  HZ I         638  8.37         5.4 0.13            134            143 260 
 SPBC HZ EP        637 45.74                             130   -0.09 9  157 219 
 SPBC HN ES        638  7.62                             130   -0.01 9  157 219 
 ZAR  HZ EP        637 50.32                             123    0.24 9  202 294 
 ZAR  HE ES        638 15.44                             123    0.25 9  202 294 
 ZAR  HZ I         638 21.65         7.1 0.44            124            202 294 
 URE  HZ EP        637 58.72                             114    0.04 7  281 293 
 URE  HN ES        638 30.02                             114   -0.47 7  281 293 
 URE  HZ I         638 33.12         4.6 0.14            115            281 293 
                                                                                
