 2016  727 0831 29.0 L   6.802 -73.159150.6  RSN  5 0.5 1.4LRSN                1
 GAP=247        1.21       7.5     8.1  8.9  0.1046E+02  0.1310E+02  0.1589E+01E
 Epicentro: LOS SANTOS - SANTANDER                                             3
 ACTION:UPD 17-03-29 16:55 OP:lp   STATUS:               ID:20160727083129 L   I
 OLDACT:REG 16-07-27 13:36 OP:edw  STATUS:               ID:20160727082759     3
 2016-07-27-0827-59S.COL___337                                                 6
 STAT SP IPHASW D HRMM SECON CODA AMPLIT PERI AZIMU VELO AIN AR TRES W  DIS CAZ7
 BAR2 EZ EP        831 49.20                             171    0.0110 23.3 186 
 BAR2 EZ ES        832  4.14                             171   -0.8110 23.3 186 
 BAR2 EZ I         832  5.15         5.5 0.44            168           23.3 186 
 BRR  HZ EP        831 51.07                             154    0.4910 69.8 299 
 BRR  HE ES        832  8.25                             154    0.8310 69.8 299 
 PTB  HZ EP        831 55.96                             133   -0.26 9  146 259 
 PTB  HE ES        832 17.14                             133   -0.33 9  146 259 
 PTB  HZ I         832 24.11         1.9 0.44            130            146 259 
 SPBC HZ EP        831 57.96                             130    0.18 9  162 219 
 SPBC HE ES        832 20.65                             130    0.40 9  162 219 
 SPBC HZ I         832 21.46         3.7 0.34            129            162 219 
 ZAR  HZ EP        832  1.28                             123   -0.32 9  203 292 
 ZAR  HN ES        832 26.71                             123   -0.33 9  203 292 
 ZAR  HZ I         832 34.25         2.6 0.30            122            203 292 
                                                                                
