 2016 1027 0951  7.0 L   6.788 -73.148145.0  RSN  7 0.3 1.4LRSN                1
 GAP=137        0.72       3.4     3.6  4.9 -0.2983E+01  0.2384E+01  0.1799E+01E
 Epicentro: LOS SANTOS - SANTANDER                                             3
 ACTION:UPD 16-11-09 19:23 OP:rebc STATUS:               ID:20161027094924 L   I
 OLDACT:UP  16-10-28 14:44 OP:cara STATUS:               ID:20161027094924 L   3
 OLDACT:UP  16-10-28 14:44 OP:cara STATUS:               ID:20161027094924 L   3
 OLDACT:DUP 16-10-27 19:01 OP:nlst STATUS:               ID:20161027094924 L   3
 OLDACT:DUP 16-10-27 14:33 OP:cara STATUS:               ID:20161027094746d    3
 OLDACT:DUP 16-10-27 14:23 OP:cara STATUS:               ID:20161027094745d    3
 2016-10-27-0948-00M.COL___331                                                 6
 STAT SP IPHASW D HRMM SECON CODA AMPLIT PERI AZIMU VELO AIN AR TRES W  DIS CAZ7
 BAR2 HZ EP        951 26.64                             171    0.1210 22.0 190 
 BAR2 HZ ES        951 41.53                             171   -0.2110 22.0 190 
 BAR2 HZ I         951 42.22         6.7 0.34            172           22.0 190 
 BRR  HZ EP        951 28.58                             152    0.4810 71.6 300 
 BRR  HN ES        951 44.69                             152    0.1510 71.6 300 
 BRR  HZ I         951 48.47         4.7 0.36            152           71.6 300 
 PAM  EZ EP        951 29.44                             150    0.2310 78.6  39 
 PAM  EN ES        951 46.23                             150   -0.3010 78.6  39 
 PAM  EZ I         951 48.39         6.1 0.50            152           78.6  39 
 RUS  HZ EP        951 30.30                             144   -0.2910 99.3 176 
 RUS  HN ES        951 49.26                             144    0.2710 99.3 176 
 RUS  HZ I         951 49.98         3.5 0.22            146           99.3 176 
 PTB  HZ EP        951 33.43                             132   -0.44 9  147 259 
 PTB  HN ES        951 54.71                             132   -0.10 9  147 259 
 PTB  HZ I         951 57.04         2.7 0.28            133            147 259 
 SPBC HZ EP        951 35.28                             129   -0.06 9  162 219 
 SPBC HN ES        951 57.52                             129    0.09 9  162 219 
 SPBC HZ I         952  0.10         5.9 0.20            131            162 219 
 GUY2CHZ EP   4    951 52.35                             112    1.88 0  300 235 
 GUY2CHN ES   4    952 22.14                             112   -2.23 0  300 235 
 GUY2CHZ I         952 31.46         1.0 0.28                           300 235 
                                                                                
