 2012 1227 0924  2.5 L   6.721 -73.157156.0  RSN  6 0.2 1.7LRSN                1
 GAP=181        0.49       3.1     3.8  4.7  0.3894E+01  0.3226E+01 -0.1246E+01E
 Epicentro: VILLANUEVA - SANTANDER                                             3
 ACTION:UPD 13-01-04 14:30 OP:ep   STATUS:               ID:20121227092402 L   I
 2012-12-27-0920-00M.COL___243                                                 6
 STAT SP IPHASW D HRMM SECON CODA AMPLIT PERI AZIMU VELO AIN AR TRES W  DIS CAZ7
 BAR2 SZ EP   1    924 23.33                             174    0.11 7 14.5 191 
 BAR2 SZ ES   1    924 39.13                             174   -0.26 7 14.5 191 
 BAR2 SZ I         924 41.13        16.0 0.24                          14.5 191 
 BRR  HZ EP   1    924 25.21                             153    0.26 7 74.8 305 
 BRR  HN ES   1    924 42.93                             153    0.46 7 74.8 305 
 RUS  HZ EP   1    924 26.79                             148    0.10 7 91.9 175 
 RUS  HN ES   1    924 45.39                             148   -0.17 7 91.9 175 
 RUS  HZ I         924 48.73         2.8 0.22                          91.9 175 
 PTB  HZ EP   1    924 30.17                             135    0.09 7  145 262 
 PTB  HN ES   1    924 51.53                             135   -0.07 7  145 262 
 PTB  HZ I         924 57.04         8.1 0.50                           145 262 
 OCA  HN ES   1    924 55.54                             130   -0.20 7  169 354 
 OCA  HZ I         924 58.34         4.2 0.46                           169 354 
 ZAR  HZ EP   1    924 35.57                             124   -0.29 6  206 295 
 ZAR  HN ES   1    925  1.71                             124   -0.18 6  206 295 
 ZAR  HZ I         925  7.69         7.1 0.54                           206 295 
 MON  HZ EP   4    924 50.30                             110   -2.14 0  358 310 
 MON  HN ES   4    925 28.90                             110   -2.49 0  358 310 
                                                                                
