 2017  927 0223 28.6 L   6.852 -73.044148.9  RSN  4 0.1 1.3LRSN                1
 GAP=147        0.41       2.2     3.3  3.3 -0.3543E+00 -0.7528E+00  0.4855E+00E
 Epicentro: LOS SANTOS - SANTANDER                                             3
 ACTION:UPD 17-10-05 19:16 OP:rebc STATUS:               ID:20170927022329 L   I
 OLDACT:DUP 17-09-27 15:25 OP:edw  STATUS:               ID:20170927021744d    3
 OLDACT:UP  17-09-27 15:24 OP:edw  STATUS:               ID:20170927021743     3
 OLDACT:REG 17-09-27 12:24 OP:edw  STATUS:               ID:20170927021743     3
 2017-09-27-0218-00M.COL___447                                                 6
 STAT SP IPHASW D HRMM SECON CODA AMPLIT PERI AZIMU VELO AIN AR TRES W  DIS CAZ7
 BAR2 EZ EP        223 48.52                             167   -0.2510 32.5 208 
 BAR2 EZ ES        224  4.40                             167   -0.1410 32.5 208 
 BAR2 EZ I         224  6.43         4.0 0.30            167           32.5 208 
 PAM  EZ EP        223 50.55                             155    0.0810 66.0  35 
 PAM  EN ES        224  7.60                             155    0.0310 66.0  35 
 BRR  HZ EP        223 50.51                             150    0.0210 79.1 291 
 BRR  HN ES        224  7.69                             150    0.0810 79.1 291 
 RUS  HZ EP        223 53.07                             143    0.0610  106 182 
 RUS  HN ES        224 12.22                             143    0.1310  106 182 
 RUS  HZ I         224 13.38         3.1 0.34            143            106 182 
                                                                                
