 2012  627 0248 17.4 L   6.731 -73.214150.1  RSN  5 0.3 1.5LRSN                1
 GAP=220        0.60       6.2     5.6  6.4  0.2118E+02  0.5345E+01  0.8086E+00E
 Epicentro: VILLANUEVA - SANTANDER                                             3
 ACTION:UPD 12-08-06 17:52 OP:ep   STATUS:               ID:20120627024817 L   I
 2012-06-27-0240-00M.COL___201                                                 6
 STAT SP IPHASW D HRMM SECON CODA AMPLIT PERI AZIMU VELO AIN AR TRES W  DIS CAZ7
 BAR2 SZ EP   1    248 37.01                             174   -0.44 7 15.7 167 
 BAR2 SZ ES   1    248 52.77                             174   -0.29 7 15.7 167 
 BAR2 SZ I         248 54.67         7.1 0.39                          15.7 167 
 BRR  HZ EP   1    248 39.04                             154    0.12 7 68.9 307 
 BRR  HZ I         248 53.68         9.6 0.45                          68.9 307 
 BRR  HN ES   1    248 55.93                             154    0.25 7 68.9 307 
 RUS  HZ EP   1    248 41.53                             147    0.40 7 93.8 171 
 RUS  HN ES   1    248 59.85                             147    0.22 7 93.8 171 
 PTB  HZ EP   1    248 43.67                             135   -0.30 7  139 261 
 PTB  HN ES   1    249  4.49                             135   -0.19 7  139 261 
 PTB  HZ I         249  5.95         2.1 0.18                           139 261 
 ZAR  HN ES   1    249 15.21                             124    0.24 6  200 295 
                                                                                
