 2014 1027 0549 49.2 L   6.793 -73.104146.0  RSN 22 0.5 2.3LRSN                1
 GAP=123        1.15       3.3     4.6  5.7 -0.4876E+01  0.4334E+01  0.3944E+01E
 Epicentro: LOS SANTOS - SANTANDER                                             3
 ACTION:UPD 14-11-29 23:57 OP:nd   STATUS:               ID:20141027054949 L   I
 OLDACT:REG 14-10-29 19:47 OP:spq  STATUS:               ID:20141027054749     3
 2014-10-27-0547-49M.COL___274                                                 6
 STAT SP IPHASW D HRMM SECON CODA AMPLIT PERI AZIMU VELO AIN AR TRES W  DIS CAZ7
 BAR2 SZ EP        550  8.89                             170    0.0310 23.9 201 
 BAR2 SZ ES   1    550 24.18                             170   -0.02 7 23.9 201 
 BAR2 SZ I         550 26.57        38.8 0.20            168           23.9 201 
 PAM  SZ EP     D  550 11.62                             152    0.3310 75.1  37 
 PAM  SN ES        550 28.72                             152    0.1810 75.1  37 
 PAM  SZ I         550 31.23        29.9 0.44            156           75.1  37 
 BRR  HZ EP        550 10.72                             151    0.1110 75.6 297 
 BRR  HN ES        550 27.97                             151    0.6510 75.6 297 
 BRR  HZ I         550 31.48        30.5 0.12            149           75.6 297 
 RUS  HZ EP        550 12.73                             144   -0.1610 99.6 179 
 RUS  HN ES   1    550 31.60                             144    0.22 7 99.6 179 
 RUS  HZ I         550 34.40        12.1 0.32            146           99.6 179 
 PTB  HZ EP        550 15.35                             131   -1.22 9  152 259 
 PTB  HE ES        550 36.95                             131   -0.98 9  152 259 
 PTB  HZ I         550 44.06        41.9 0.38            131            152 259 
 OCA  HZ EP        550 16.89                             130   -0.75 9  162 352 
 OCA  HE ES        550 40.27                             130    0.44 9  162 352 
 OCA  HZ I         550 43.82        17.2 0.32            132            162 352 
 SPBC HZ EP        550 17.69                             129   -0.24 9  166 220 
 SPBC HN ES        550 40.16                             129   -0.18 9  166 220 
 SPBC HZ I         550 44.47        27.5 0.16            129            166 220 
 CHI  HZ EP        550 27.19                             117    0.23 8  249 196 
 CHI  HN ES   1    550 56.47                             117    0.05 6  249 196 
 CHI  HZ I         551  6.05         8.7 0.30            119            249 196 
 ROSC BZ EP   4    550 28.60                             117    1.09 0  255 212 
 ROSC BN ES   4    550 59.22                             117    1.82 0  255 212 
 ROSC BZ I         551  6.54        21.7 0.40            118            255 212 
 HEL  HZ EP   1    550 29.99                             115    0.11 6  276 256 
 HEL  HN ES   1    551  1.40                             115   -0.22 6  276 256 
 HEL  HZ I         551  7.33         9.3 0.34            115            276 256 
 URE  HZ EP   4    550 29.49                             113   -1.28 0  288 292 
 URE  HN ES   4    551  5.32                             113    2.11 0  288 292 
 URE  HZ I         551 12.90        15.2 0.18            114            288 292 
 GUY2CHZ EP        550 33.18                             112   -0.00 7  305 235 
 GUY2CHN ES   4    551  9.40                             112    1.90 0  305 235 
 GUY2CHZ I         551 17.67        11.7 0.50                           305 235 
 PTGC HZ EP   1    550 31.86                             112   -0.93 5  306 159 
 PTGC HN ES   4    551  5.09                             112   -1.71 0  306 159 
 PTGC HZ I         551  5.78         7.6 0.27            114            306 159 
 RREF HZ EP   9    550 32.57                             111   -3.11 0  325 230 
 RREF HN ES        551 10.00                                    1.16 7  325 230 
 RREF HZ I         551 15.06        10.0 0.38            112            325 230 
 CBOC HZ EP        550 36.97                             110    0.39 7  338 252 
 CBOC HE ES        551 14.06                             110    0.51 7  338 252 
 CBOC HZ I         551 18.08         3.4 0.50            111            338 252 
 TOL  SZ EP        550 38.47                             109    0.71 6  346 225 
 TOL  SN ES        551 16.65                             109    1.00 6  346 225 
 TOL  SZ I         551 20.81        20.0 0.46            110            346 225 
 SDV  BN ES   4    551 15.68                             109   -1.97 0  357  50 
 SDV  BZ I         551 17.43         3.2 0.30            111            357  50 
 MON  HZ EP   4    550 35.85                             109   -2.81 0  358 308 
 MON  HN ES   4    551 14.90                             109   -2.35 0  358 308 
 MON  HZ I         551 16.99         3.1 0.14            110            358 308 
 ARGC HZ EP        550 39.54                             108    0.43 6  361 340 
 ARGC HN ES   1    551 17.83                             108   -0.22 5  361 340 
 ARGC HZ I         551 27.10         4.2 0.26            110            361 340 
 PRA  HZ EP        550 42.88                             107   -0.03 6  394 210 
 PRA  HN ES        551 24.60                             107   -0.21 6  394 210 
 PRA  HZ I         551 28.91         9.0 0.31            108            394 210 
 ORTC HZ EP        550 43.34                             106   -0.02 6  398 217 
 ORTC HN ES        551 26.32                             106    0.70 6  398 217 
 ORTC HZ I         551 29.83         4.4 0.38            108            398 217 
 SJC  HZ EP   4    550 42.62                             106   -2.50 0  412 326 
 SJC  HN ES   4    551 23.29                             106   -5.46 0  412 326 
 SJC  HZ I         551 28.55         4.7 0.54            107            412 326 
                                                                                
