 2017  327 0128 42.1 L   6.795 -73.082148.0  RSN 18 0.6 2.1LRSN                1
 GAP=125        0.97       3.6     3.6  4.8 -0.5568E+00  0.2728E+01  0.4521E+01E
 Epicentro: LOS SANTOS - SANTANDER                                             3
 ACTION:UPD 17-05-25 18:45 OP:jn   STATUS:               ID:20170327012842 L   I
 OLDACT:UP  17-03-27 14:15 OP:and  STATUS:               ID:20170327012711     3
 OLDACT:UP  17-03-27 14:15 OP:and  STATUS:               ID:20170327012711     3
 OLDACT:UP  17-03-27 14:14 OP:and  STATUS:               ID:20170327012711     3
 OLDACT:UP  17-03-27 14:14 OP:and  STATUS:               ID:20170327012711     3
 OLDACT:UP  17-03-27 14:13 OP:and  STATUS:               ID:20170327012711     3
 OLDACT:UP  17-03-27 14:13 OP:and  STATUS:               ID:20170327012711     3
 OLDACT:UP  17-03-27 14:12 OP:and  STATUS:               ID:20170327012711     3
 OLDACT:UP  17-03-27 14:12 OP:and  STATUS:               ID:20170327012711     3
 OLDACT:UP  17-03-27 14:09 OP:and  STATUS:               ID:20170327012711     3
 OLDACT:UP  17-03-27 14:08 OP:and  STATUS:               ID:20170327012711     3
 OLDACT:UP  17-03-27 14:08 OP:and  STATUS:               ID:20170327012711     3
 OLDACT:REG 17-03-27 12:46 OP:and  STATUS:               ID:20170327012711     3
 2017-03-27-0128-00M.COL___361                                                 6
 STAT SP IPHASW D HRMM SECON CODA AMPLIT PERI AZIMU VELO AIN AR TRES W  DIS CAZ7
 BAR2 EZ IP     C  129  2.16                             170    0.1110 25.0 206 
 BAR2 EZ ES        129 16.84                             170   -0.7510 25.0 206 
 BAR2 EZ I         129 18.64        38.7 0.24            166           25.0 206 
 PAM  EZ IP     D  129  4.89                             152    0.5410 73.6  35 
 PAM  EN ES        129 21.97                             152    0.2810 73.6  35 
 PAM  EZ I         129 24.60        11.2 0.31            156           73.6  35 
 BRR  HZ EP        129  4.01                             151    0.1310 77.7 296 
 BRR  HN ES        129 21.17                             151    0.3110 77.7 296 
 BRR  HZ I         129 26.05        14.7 0.07            147           77.7 296 
 RUS  HZ EP        129  6.06                             144    0.0310 99.7 180 
 RUS  HN ES        129 24.90                             144    0.2210 99.7 180 
 RUS  HZ I         129 26.09        13.5 0.28            145           99.7 180 
 PTB  HZ EP   9    129  8.71                             131   -1.17 0  155 260 
 PTB  HN ES        129 30.04                             132   -0.33 9  155 260 
 PTB  HZ I         129 37.54        14.9 0.17            129            155 260 
 SPBC HZ EP        129 11.20                             129    0.03 9  167 221 
 SPBC HN ES        129 33.56                             129   -0.27 9  167 221 
 SPBC HZ I         129 35.99        24.9 0.18            128            167 221 
 ZAR  HN ES        129 40.52                             122   -0.84 8  211 292 
 ZAR  HZ I         129 49.10        10.1 0.32            121            211 292 
 NOR  HZ EP        129 18.45                             118   -0.10 8  240 236 
 NOR  HN ES        129 47.00                             118    0.03 8  240 236 
 NOR  HZ I         129 52.57         9.2 0.28            118            240 236 
 CHI  HZ EP        129 20.11                             117    0.03 8  250 197 
 CHI  HN ES   3    129 48.32                             117   -1.38 2  250 197 
 CHI  HZ I         129 58.66         5.5 0.32            118            250 197 
 HEL  HZ EP   2    129 23.71                             114    0.53 4  279 256 
 HEL  HN ES        129 56.17                             114    0.96 7  279 256 
 HEL  HZ I         130  2.35         8.4 0.30            114            279 256 
 URE  HZ EP        129 22.96                             113   -1.09 7  291 292 
 URE  HE ES   4    129 53.60                             113   -3.15 0  291 292 
 URE  HZ I         130  0.95         6.2 0.14            113            291 292 
 PTGC HZ EP        129 25.26                             112   -0.47 7  306 160 
 PTGC HN ES   2    129 58.65                             112   -1.09 4  306 160 
 CBOC HZ EP   2    129 30.77                             110    0.90 3  340 253 
 CBOC HN ES   2    130  6.98                             110   -0.13 3  340 253 
 CBOC HZ I         130 12.82         2.5 0.46            110            340 253 
 PRA  HZ EP        129 35.90                             107   -0.16 6  395 211 
 PRA  HN ES   2    130 18.95                             107    0.81 3  395 211 
 PRA  HZ I         130 24.72         6.0 0.34            107            395 211 
 ORTC HZ EP        129 37.29                             106    0.75 6  399 217 
 ORTC HN ES   3    130 20.15                             106    1.15 1  399 217 
 ORTC HZ I         130 25.63         4.5 0.37            107            399 217 
 SJC  HZ EP   3    129 36.49                             106   -1.77 1  414 326 
 SJC  HN ES   4    130 17.92                             106   -4.14 0  414 326 
 SJC  HZ I         130 20.98         1.7 0.32            106            414 326 
 CRJC HZ EP   9    129 42.36                             103   -2.34 0  468   3 
 CRJC HE ES        130 30.53                             104   -0.65 5  468   3 
 CRJC HZ I         130 38.98         2.7 0.20            104            468   3 
 URI  HZ EP   3    129 56.13                             101    1.08 1  556  12 
 URI  HN ES   3    130 50.08                             101   -1.86 1  556  12 
                                                                                
