 2017  527 0651 32.2 L   6.764 -73.145140.6  RSN  8 0.4 1.4LRSN                1
 GAP=209        1.05       4.7     6.0  7.6  0.1467E+02 -0.7033E+01 -0.1313E+01E
 Epicentro: LOS SANTOS - SANTANDER                                             3
 ACTION:UPD 17-06-16 13:39 OP:jn   STATUS:               ID:20170527065132 L   I
 OLDACT:UP  17-05-28 00:02 OP:ar   STATUS:               ID:20170527064731     3
 OLDACT:REG 17-05-27 14:06 OP:ar   STATUS:               ID:20170527064731     3
 2017-05-27-0648-00M.COL___329                                                 6
 STAT SP IPHASW D HRMM SECON CODA AMPLIT PERI AZIMU VELO AIN AR TRES W  DIS CAZ7
 BRR  HZ EP        651 52.69                             151   -0.1910 73.2 301 
 BRR  HE ES        652  9.61                             151    0.5710 73.2 301 
 BRR  HZ I         652 10.55         3.2 0.28            150           73.2 301 
 RUS  HZ EP        651 54.76                             144   -0.3710 96.6 176 
 RUS  HN ES        652 12.92                             144   -0.1210 96.6 176 
 RUS  HZ I         652 14.22         2.7 0.26            145           96.6 176 
 PTB  HZ EP        651 58.41                             131   -0.25 9  147 260 
 PTB  HN ES        652 19.34                             131    0.02 9  147 260 
 PTB  HZ I         652 20.61         4.0 0.28            131            147 260 
 SPBC HZ EP        652  0.11                             128    0.13 9  160 220 
 SPBC HN ES        652 20.94                             128   -0.74 9  160 220 
 SPBC HZ I         652 24.22         5.5 0.40            129            160 220 
 YPLC HZ EP        652  1.20                             126   -0.05 9  173 151 
 YPLC HE ES   4    652 26.41                             126    2.48 0  173 151 
 YPLC HZ I         652 27.31         2.9 0.28            128            173 151 
 ZAR  HZ EP        652  4.12                             121   -0.32 8  206 293 
 ZAR  HN ES        652 29.66                             121    0.04 8  206 293 
 ZAR  HZ I         652 38.76         3.7 0.34            121            206 293 
 CHI  HZ EP        652 10.19                             116    1.02 8  245 195 
 CHI  HN ES        652 38.67                             116    0.64 8  245 195 
 PTGC HZ EP   9    652 13.98                             111   -1.39 0  305 158 
 PTGC HE ES        652 47.39                             112   -0.29 7  305 158 
                                                                                
