 2010  427 0234 30.1 L   6.802 -73.064145.6  RSN 11 0.5 2.9LRSN                1
 GAP=148        0.83       4.4     8.1  7.2 -0.1230E+02  0.1304E+02  0.3510E+01E
 Epicentro: LOS SANTOS - SANTANDER                                             3
 ACTION:UPD 10-08-24 10:01 OP:vdl  STATUS:               ID:20100427023437 L   I
 2010-04-27-0232-57S.COL___104                                                 6
 STAT SP IPHASW D HRMM SECON CODA AMPLIT PERI AZIMU VELO AIN AR TRES W  DIS CAZ7
 BAR2 SZ IP        234 49.85                             169     0.110   27 210 
 BAR2 SZ ES   1    235  4.76                             169    -0.4 7   27 210 
 BRR  HZ IP     C  234 52.23                             150     0.510   79 295 
 BRR  HZ I         235 12.46       160.1 0.16                            79 295 
 OCA  SZ EP   1    234 58.12                             129    -0.4 7  161 350 
 OCA  SZ ES   1    235 20.48                             129    -0.2 7  161 350 
 OCA  SZ I         235 26.60       144.0 0.32                           161 350 
 CHI  HZ EP   1    235  7.72                             117    -0.4 6  251 197 
 CHI  HE ES   2    235 37.82                             117     0.1 4  251 197 
 CHI  HZ I         235 44.97        31.6 0.43                           251 197 
 ROSC BZ EP   2    235  9.53                             116     0.8 4  258 213 
 ROSC BN ES   2    235 39.85                             116     1.0 4  258 213 
 ROSC BZ I         235 47.53        50.4 0.35                           258 213 
 HEL  HZ EP   1    235 11.51                             114     0.2 6  281 256 
 HEL  HN ES   2    235 42.90                             114    -0.5 4  281 256 
 HEL  HZ I         235 48.43        27.8 0.33                           281 256 
 RREF BZ EP   1    235 17.02                             110     0.0 5  329 230 
 RREF BZ I         235 58.74        38.7 0.26                           329 230 
 DBB  SZ EP   1    235 18.42                             109    -0.2 5  348 274 
 TOL  SZ EP   1    235 19.14                             109     0.0 5  350 226 
 SDV  BZ EP   1    235 19.24                             109    -0.1 5  353  49 
 SDV  BZ I         236  0.98         9.6 0.47                           353  49 
 PRA  HZ EP   1    235 23.17                             106    -1.0 4  397 211 
 PRA  HE ES   2    236  5.28                             106    -1.1 3  397 211 
 PRA  HZ I         236 11.53        38.1 0.31                           397 211 
                                                                                
