 2017  127 0210 14.9 L   6.736 -73.184134.3  RSN  4 0.3 1.0LRSN                1
 GAP=137        0.92       5.3     5.1  7.7 -0.8335E+01  0.1123E+02 -0.4680E+01E
 Epicentro: VILLANUEVA - SANTANDER                                             3
 ACTION:UPD 17-05-22 16:03 OP:jn   STATUS:               ID:20170127021014 L   I
 OLDACT:REG 17-01-27 12:32 OP:lv   STATUS:               ID:20170127020548     3
 2017-01-27-0208-00M.COL___340                                                 6
 STAT SP IPHASW D HRMM SECON CODA AMPLIT PERI AZIMU VELO AIN AR TRES W  DIS CAZ7
 BAR2 EZ EP        210 32.76                             173   -0.2510 15.9 179 
 BAR2 EZ ES        210 47.37                             173    0.2310 15.9 179 
 BAR2 EZ I         210 49.16         2.6 0.14            172           15.9 179 
 PAM  HZ EP        210 37.01                             146    0.5710 85.5  39 
 PAM  EN ES        210 52.89                             146   -0.3610 85.5  39 
 RUS  HZ EP        210 37.25                             143    0.2110 94.0 173 
 RUS  HN ES        210 54.15                             143   -0.1710 94.0 173 
 RUS  HZ I         210 55.98         1.3 0.27            145           94.0 173 
 PTB  HZ EP        210 39.93                             130   -0.52 9  142 261 
 PTB  HN ES        211  0.64                             130    0.26 9  142 261 
 PTB  HZ I         211  2.80         1.5 0.17            131            142 261 
                                                                                
