 2011 1027 0009  2.1 L   6.725 -73.087134.6  RSN  5 0.2 1.5LRSN                1
 GAP=148        0.36       3.4     4.7  5.0 -0.6571E+00 -0.1366E+01 -0.1130E+01E
 Epicentro: JORDAN - SANTANDER                                                 3
 ACTION:UPD 12-07-13 16:06 OP:ep   STATUS:               ID:20111027000902 L   I
 2011-10-27-0000-00M.COL___177                                                 6
 STAT SP IPHASW D HRMM SECON CODA AMPLIT PERI AZIMU VELO AIN AR TRES W  DIS CAZ7
 BAR2 SZ EP   1    0 9 20.20                             172   -0.04 7 18.0 216 
 BAR2 SZ ES   2    0 9 34.02                             172   -0.40 5 18.0 216 
 BAR2 SZ I         0 9 36.33         6.6 0.24                          18.0 216 
 GIR2 SZ EP   3    0 9 20.36                             162   -0.36 2 40.9 343 
 GIR2 SZ ES   3    0 9 35.61                             162    0.33 2 40.9 343 
 PAM  SZ EP   1    0 9 23.17                             148   -0.11 7 80.3  32 
 PAM  SN ES   2    0 9 40.08                             148    0.24 5 80.3  32 
 BRR  HZ EP   1    0 9 22.62                             147    0.00 7 81.0 302 
 BRR  HZ I         0 9 23.27         6.4 0.37                          81.0 302 
 BRR  HE ES   2    0 9 38.81                             147    0.14 5 81.0 302 
 RUS  HZ EP   2    0 9 24.39                             144    0.30 5 92.0 180 
 RUS  HN ES   2    0 9 41.35                             144    0.07 5 92.0 180 
 RUS  HZ I         0 9 44.10         5.8 0.51                          92.0 180 
                                                                                
