 2016 1127 0122  9.6 L   6.469 -73.768 89.8  RSN  5 0.5 1.4LRSN                1
 GAP=198        0.90       6.3     3.5  8.2  0.2646E+01  0.8353E+01  0.2572E+00E
 Epicentro: SANTA HELENA DEL OPON - SANTANDER                                  3
 ACTION:UPD 17-10-26 21:12 OP:lp   STATUS:               ID:20161127012209 L   I
 OLDACT:UP  16-11-27 13:32 OP:dani STATUS:               ID:20161127011745     3
 OLDACT:REG 16-11-27 12:35 OP:dani STATUS:               ID:20161127011745     3
 2016-11-27-0118-00M.COL___346                                                 6
 STAT SP IPHASW D HRMM SECON CODA AMPLIT PERI AZIMU VELO AIN AR TRES W  DIS CAZ7
 BAR2 EZ EP        122 25.10                             141    0.1210 66.2  78 
 BAR2 EZ ES        122 37.38                             141    0.3710 66.2  78 
 BAR2 EZ I         122 38.24        10.7 0.26            144           66.2  78 
 BRR  HZ EP        122 24.59                             139   -0.4310 70.8   5 
 BRR  HN ES        122 36.85                             139   -0.2210 70.8   5 
 BRR  HZ I         122 41.30         4.3 0.11            137           70.8   5 
 PTB  HZ EP        122 25.53                             136    0.0110 76.5 276 
 PTB  HN ES        122 37.72                             136   -0.2310 76.5 276 
 PTB  HZ I         122 39.15         6.9 0.10            137           76.5 276 
 PAM  EZ EP   3    122 35.02                             116    1.23 2  152  51 
 PAM  EE ES   3    122 50.70                             116   -1.98 2  152  51 
 PAM  EZ I         122 52.43         2.8 0.16            118            152  51 
 ZAR  HZ EP        122 34.47                             114   -0.15 9  165 313 
 ZAR  HN ES        122 54.81                             114    0.66 9  165 313 
 ZAR  HZ I         122 58.53         7.7 0.26            114            165 313 
                                                                                
