 2017  127 0010 17.3 L   6.763 -73.164140.5  RSN  5 0.4 1.5LRSN                1
 GAP=136        0.97       5.3     4.5  9.3 -0.1466E+01  0.1140E+02 -0.3540E+01E
 Epicentro: LOS SANTOS - SANTANDER                                             3
 ACTION:UPD 17-05-22 16:03 OP:jn   STATUS:               ID:20170127001017 L   I
 OLDACT:REG 17-01-27 12:26 OP:lv   STATUS:               ID:20170126235958     3
 2017-01-27-0000-15M.COL___343                                                 6
 STAT SP IPHASW D HRMM SECON CODA AMPLIT PERI AZIMU VELO AIN AR TRES W  DIS CAZ7
 BRR  HZ EP        010 38.19                             151    0.3210 71.5 302 
 BRR  HN ES        010 54.17                             151    0.2310 71.5 302 
 PAM  EZ EP        010 39.06                             148   -0.1410 81.8  39 
 PAM  EN ES        010 56.03                             148   -0.2810 81.8  39 
 PAM  EZ I         010 56.74         5.2 0.16            149           81.8  39 
 RUS  HZ EP   4    010 41.91                             144    1.69 0 96.7 175 
 RUS  HN ES        010 58.44                             144    0.3210 96.7 175 
 PTB  HZ EP        010 43.43                             131   -0.13 9  145 260 
 PTB  HN ES        011  3.30                             131   -0.77 9  145 260 
 PTB  HZ I         011  7.18         2.7 0.17            130            145 260 
 ZAR  HN ES        011 14.84                             121    0.47 9  204 293 
 ZAR  HZ I         011 19.44         6.1 0.25            120            204 293 
                                                                                
