 2017 1027 0624  3.1 L   6.736 -73.187147.6  RSN  4 0.4 1.0LRSN                1
 GAP=228        0.98       7.7     7.3  7.9  0.2773E+02  0.6110E+01  0.1888E+01E
 Epicentro: VILLANUEVA - SANTANDER                                             3
 ACTION:UPD 17-11-07 19:37 OP:rebc STATUS:               ID:20171027062403 L   I
 OLDACT:REG 17-10-27 12:56 OP:dani STATUS:               ID:20171027061735     3
 2017-10-27-0618-00M.COL___444                                                 6
 STAT SP IPHASW D HRMM SECON CODA AMPLIT PERI AZIMU VELO AIN AR TRES W  DIS CAZ7
 BAR2 EZ EP        624 22.31                             174   -0.5010 15.9 178 
 BAR2 HN ES        624 38.16                             174   -0.0410 15.9 178 
 BRR  HZ EP        624 25.13                             153    0.7010 71.1 305 
 BRR  HN ES     C  624 40.93                             153   -0.1410 71.1 305 
 BRR  HZ I         624 46.13         2.4 0.41            154           71.1 305 
 RUS  HZ EP        624 26.76                             146    0.2010 94.0 173 
 RUS  HN ES        624 44.96                             146    0.0910 94.0 173 
 RUS  HZ I         624 47.24         1.4 0.19            150           94.0 173 
 PTB  HZ EP        624 29.18                             134   -0.51 9  142 261 
 PTB  HE ES        624 50.61                             134    0.16 9  142 261 
 PTB  HZ I         624 52.46         1.0 0.70            136            142 261 
                                                                                
