 2011 1027 0657 43.8 L   6.762 -73.125146.5  RSN 10 0.3 1.9LRSN                1
 GAP=117        0.40       2.4     2.8  4.4  0.4421E+00  0.3135E+01  0.6165E+00E
 Epicentro: LOS SANTOS - SANTANDER                                             3
 ACTION:UPD 12-07-13 16:06 OP:ep   STATUS:               ID:20111027065743 L   I
 2011-10-27-0640-00M.COL___177                                                 6
 STAT SP IPHASW D HRMM SECON CODA AMPLIT PERI AZIMU VELO AIN AR TRES W  DIS CAZ7
 BAR2 SZ EP   1    658  3.42                             172   -0.03 7 19.8 199 
 BAR2 SZ ES   2    658 19.01                             172    0.23 5 19.8 199 
 BAR2 SZ I         658 21.73        18.1 0.29                          19.8 199 
 GIR2 SZ EP   2    658  3.31                             166   -0.38 5 35.9 348 
 BRR  HZ EP   1    658  5.21                             151   -0.05 7 75.3 300 
 BRR  HZ I         658  9.59        16.9 0.06                          75.3 300 
 BRR  HN ES   2    658 22.30                             151    0.30 5 75.3 300 
 PAM  SZ EP   1    658  6.32                             150    0.12 7 79.3  36 
 PAM  SN ES   2    658 23.57                             150   -0.11 5 79.3  36 
 RUS  HZ EP   2    658  7.22                             145   -0.09 5 96.2 177 
 RUS  HN ES   2    658 25.15                             145   -0.50 5 96.2 177 
 RUS  HZ I         658 28.09        10.1 0.27                          96.2 177 
 OCA  SZ EP   2    658 12.16                             129   -0.43 5  165 353 
 OCA  SZ ES   2    658 35.17                             129    0.13 5  165 353 
 OCA  SZ I         658 41.67         8.3 0.58                           165 353 
 YOP  SZ EP   2    658 13.71                             127    0.29 4  174 153 
 YOP  SN ES   2    658 36.98                             127    0.45 4  174 153 
 ZAR  HZ EP   2    658 16.81                             122    0.13 4  208 293 
 ZAR  HN ES   2    658 42.38                             122    0.05 4  208 293 
 ZAR  HZ I         658 46.96         8.4 0.15                           208 293 
 NOR  SZ EP   2    658 19.29                             119   -0.23 4  234 236 
 NOR  SN ES   2    658 46.98                             119   -0.40 4  234 236 
 HEL  HZ EP   2    658 24.68                             115    0.49 4  273 257 
 HEL  HN ES   2    658 55.96                             115    0.27 4  273 257 
 HEL  HZ I         659  3.29         5.9 0.23                           273 257 
                                                                                
