 2017 1127 0316  8.2 L   6.769 -73.171131.0  RSN  5 0.3 1.0LRSN                1
 GAP=135        0.86       4.3     3.9  6.8 -0.5284E+00  0.1070E+02 -0.5035E+01E
 Epicentro: LOS SANTOS - SANTANDER                                             3
 ACTION:UPD 17-12-12 20:00 OP:rebc STATUS:               ID:20171127031608 L   I
 OLDACT:DUP 17-11-27 14:27 OP:dhb  STATUS:               ID:20171127030741d    3
 OLDACT:REG 17-11-27 12:12 OP:dhb  STATUS:               ID:20171127030740     3
 2017-11-27-0308-00M.COL___495                                                 6
 STAT SP IPHASW D HRMM SECON CODA AMPLIT PERI AZIMU VELO AIN AR TRES W  DIS CAZ7
 BAR2 EZ EP        316 25.78                             171   -0.1810 19.6 184 
 BAR2 EZ ES        316 40.06                             171    0.2310 19.6 184 
 BAR2 EZ I         316 43.19         4.0 0.52            171           19.6 184 
 PAM  EZ IP     C  316 28.56                             146   -0.5910 81.8  40 
 PAM  EN ES        316 45.65                             146    0.1610 81.8  40 
 PAM  EZ I         316 46.88         2.2 0.42            151           81.8  40 
 RUS  HZ EP        316 30.49                             141    0.2210 97.4 174 
 RUS  HN ES        316 47.53                             141    0.0410 97.4 174 
 RUS  HZ I         316 50.04         1.1 0.44            145           97.4 174 
 PTB  HZ EP        316 33.84                             129    0.17 9  144 260 
 PTB  HN ES        316 52.98                             129   -0.57 9  144 260 
 PTB  HZ I         316 57.11         1.1 0.20            131            144 260 
 ZAR  HZ EP        316 40.08                             119    0.50 9  203 293 
 ZAR  HN ES        317  4.22                             119    0.15 9  203 293 
 ZAR  HZ I         317  6.86         1.3 0.54            122            203 293 
                                                                                
