 2014  527 0958  8.2 L   6.802 -73.170140.8  RSN 15 0.4 2.0LRSN                1
 GAP=133        1.00       3.0     4.0  5.6 -0.2105E+01  0.7562E+01  0.3321E+00E
 Epicentro: LOS SANTOS - SANTANDER                                             3
 OLDACT:UP  14-05-27 18:34 OP:mh   STATUS:               ID:20140527094805     3
 OLDACT:REG 14-05-27 13:53 OP:stll STATUS:               ID:20140527094805     3
 ACTION:UPD 15-03-16 17:01 OP:nd   STATUS:               ID:20140527095808 L   I
 OLDACT:UP  14-05-27 18:40 OP:mh   STATUS:               ID:20140527094805     3
 OLDACT:UP  14-05-27 18:39 OP:mh   STATUS:               ID:20140527094805     3
 2014-05-27-0948-05M.COL___261                                                 6
 STAT SP IPHASW D HRMM SECON CODA AMPLIT PERI AZIMU VELO AIN AR TRES W  DIS CAZ7
 BAR2 SZ EP     C  958 27.36                             170    0.1810 23.2 183 
 BAR2 SZ ES        958 42.34                             170    0.3110 23.2 183 
 BAR2 SZ I         958 43.80        25.9 0.12            167           23.2 183 
 BRR  HZ EP     D  958 29.19                             152    0.5710 68.7 299 
 BRR  HN ES   1    958 44.64                             152    0.05 7 68.7 299 
 BRR  SZ I         958 49.83        16.9 0.12            146           68.7 299 
 PAM  SZ EP        958 30.02                             149    0.0810 79.0  41 
 PAM  SN ES        958 47.33                             149    0.3910 79.0  41 
 PAM  SZ I         958 48.92        23.1 0.68            148           79.0  41 
 RUS  HZ EP        958 31.39                             143   -0.0610  101 175 
 RUS  HN ES        958 48.92                             143   -0.7010  101 175 
 RUS  SZ I         958 51.12         6.9 0.84            138            101 175 
 PTB  HZ EP        958 34.04                             131   -0.44 9  145 259 
 PTB  HN ES        958 54.77                             131   -0.24 9  145 259 
 PTB  SZ I         958 58.35        10.3 0.10            125            145 259 
 TAM  HZ EP   4    958 35.47                             129   -0.22 0  158 105 
 TAM  HE ES   4    958 55.14                             129   -2.04 0  158 105 
 OCA  HZ EP        958 35.50                             129   -0.54 9  160 354 
 OCA  HN ES        958 57.49                             129   -0.29 9  160 354 
 OCA  SZ I         959  1.55        13.5 0.20            124            160 354 
 SPBC HZ EP   4    958 35.94                             128   -0.18 0  162 218 
 SPBC HN ES   4    958 58.42                             128    0.48 0  162 218 
 ZAR  HZ EP        958 40.03                             122    0.02 9  201 292 
 ZAR  HN ES   1    959  4.99                             122    0.13 6  201 292 
 ZAR  SZ I         959 11.65        18.7 0.26            116            201 292 
 NOR  HE ES        959 10.37                             118   -0.47 8  233 234 
 SML  HZ EP   1    958 43.47                             116   -0.89 6  242 336 
 SML  HN ES   4    959 11.97                             116   -0.64 0  242 336 
 SML  SZ I         959 18.71        16.7 0.08            112            242 336 
 CHI  HZ EP   1    958 45.30                             116   -0.22 6  248 195 
 CHI  SZ I         959 14.51         5.7 1.54            112            248 195 
 CHI  HN ES        959 14.86                             116    0.19 8  248 195 
 HEL  HZ EP        958 48.81                             114    0.98 8  269 256 
 HEL  HE ES   1    959 19.38                             114    0.61 6  269 256 
 HEL  SZ I         959 28.19         3.5 0.34            109            269 256 
 URE  HZ EP   4    958 47.48                             113   -1.21 0  281 292 
 URE  HN ES   4    959 19.27                             113   -1.04 0  281 292 
 URE  SZ I         959 28.88         8.9 0.18            109            281 292 
 GUY2CHZ EP   4    958 52.81                             111    1.52 0  299 234 
 GUY2CHN ES   4    959 23.74                             111   -1.20 0  299 234 
 GUY2CSZ I         959 33.99         4.0 0.76                           299 234 
 RREF HZ EP   4    958 55.76                             110    1.90 0  320 229 
 RREF HN ES   4    959 33.01                             110    3.50 0  320 229 
 RREF SZ I         959 39.93         4.2 0.32            106            320 229 
 SDV  BZ EP   4    958 56.15                             107   -2.09 0  362  50 
 SDV  BN ES   4    959 32.90                             107   -4.41 0  362  50 
 PRA  HZ EP        959  1.99                             106    0.63 6  391 209 
 PRA  HN ES   1    959 42.96                             106    0.09 4  391 209 
 PRA  SZ I         959 47.95         4.8 1.58            102            391 209 
 SJC  HZ EP   4    959  0.53                             105   -2.83 0  408 327 
 SJC  HN ES   4    959 42.41                             105   -4.02 0  408 327 
                                                                                
