 2010  927 0353 48.4 L   6.316 -73.582112.9  RSN  4 0.2 1.6LRSN                1
 GAP=136        0.61       4.6     6.0  8.1  0.1615E+02  0.2444E+02  0.1509E+02E
 Epicentro: SANTA HELENA DEL OPON - SANTANDER                                  3
 ACTION:UP  11-02-18 11:05 OP:tino STATUS:               ID:20100927035348 L   I
 2010-09-27-0352-17S.COL___121                                                 6
 STAT SP IPHASW D HRMM SECON CODA AMPLIT PERI AZIMU VELO SNR AR TRES W  DIS CAZ7
 BAR2 SZ IP     C  354  5.72                             152     0.310   54  55 
 BAR2 SZ ES   1    354 18.69                             152     0.1 7   54  55 
 BAR2 SZ I         354 20.24        34.7 0.54                            54  55 
 RUS  HZ EP        354  6.88                             145     0.010   72 130 
 RUS  HN ES   1    354 21.10                             145    -0.2 7   72 130 
 RUS  HZ I         354 21.88         6.2 0.60                            72 130 
 BRR  HZ EP        354  7.21                             139    -0.210   89 351 
 BRR  HN ES        354 22.24                             139     0.010   89 351 
 HEL  HN ES   2    354 46.16                             113     0.2 4  216 266 
 HEL  HZ I         354 47.97         2.5 0.41                           216 266 
                                                                                
