 2017  127 0840  4.3 L   6.566 -73.609105.3  RSN  4 0.1 0.8LRSN                1
 GAP=140        0.45       3.6     2.3  5.7  0.4205E+01  0.5071E+01 -0.2328E+01E
 Epicentro: EL CARMEN - SANTANDER                                              3
 ACTION:UPD 17-05-22 16:03 OP:jn   STATUS:               ID:20170127084004 L   I
 OLDACT:REG 17-01-27 12:54 OP:lv   STATUS:               ID:20170127083739     3
 2017-01-27-0838-00M.COL___316                                                 6
 STAT SP IPHASW D HRMM SECON CODA AMPLIT PERI AZIMU VELO AIN AR TRES W  DIS CAZ7
 BAR2 EZ EP        840 20.28                             154    0.2010 47.2  86 
 BAR2 EZ ES        840 32.36                             154   -0.0210 47.2  86 
 BAR2 EZ I         840 33.84         4.1 0.21            157           47.2  86 
 PTB  HZ EP        840 23.10                             135    0.0010 93.8 268 
 PTB  HN ES        840 37.89                             135    0.1410 93.8 268 
 PTB  HZ I         840 39.13         0.9 0.07            137           93.8 268 
 RUS  HN ES        840 38.85                             135   -0.1710 94.5 142 
 ZAR  HN ES        840 51.46                             116   -0.19 9  172 307 
                                                                                
