 2017 1227 0151 15.6 L   6.813 -73.148143.9  RSN  8 0.4 1.4LRSN                1
 GAP= 83        0.98       4.2     3.9  7.0 -0.5314E+01  0.4312E+01  0.4460E+01E
 Epicentro: LOS SANTOS - SANTANDER                                             3
 ACTION:UPD 18-01-04 13:24 OP:rebc STATUS:               ID:20171227015115 L   I
 OLDACT:REG 17-12-27 12:53 OP:osc  STATUS:               ID:20171227014643     3
 2017-12-27-0148-00M.COL___445                                                 6
 STAT SP IPHASW D HRMM SECON CODA AMPLIT PERI AZIMU VELO AIN AR TRES W  DIS CAZ7
 BAR2 EZ EP        151 34.67                             170   -0.3910 24.8 189 
 BAR2 EZ ES        151 49.97                             170   -0.2510 24.8 189 
 BAR2 EZ I         151 52.47         5.1 0.28            170           24.8 189 
 PAM  EZ EP        151 37.63                             151    0.0510 76.4  40 
 PAM  EN ES        151 54.83                             151    0.1210 76.4  40 
 PAM  EZ I         151 56.75         4.8 0.52            152           76.4  40 
 PTB  HZ EP        151 41.84                             132   -0.61 9  148 258 
 PTB  HE ES        152  3.45                             132    0.08 9  148 258 
 PTB  HZ I         152  4.32         2.3 0.30            134            148 258 
 TAM  HZ EP        151 43.20                             130   -0.01 9  156 105 
 OCA  HN ES        152  6.15                             129    0.64 9  159 353 
 SPBC HN ES        152  6.65                             128    0.38 9  164 219 
 ZAR  HN ES        152 12.46                             122   -0.56 9  203 292 
 GUY2CHZ EP        151 59.54                             112    0.31 7  302 235 
 GUY2CHE ES        152 33.93                             112    0.70 7  302 235 
 GUY2CHZ I         152 41.07         1.3 0.58                           302 235 
                                                                                
