 2017 1227 0651 46.0 L   6.797 -73.148138.8  RSN  9 0.6 1.5LRSN                1
 GAP= 85        1.27       4.9     4.0  8.3 -0.2943E+01  0.8907E+01  0.5258E+01E
 Epicentro: LOS SANTOS - SANTANDER                                             3
 ACTION:UPD 18-01-04 13:24 OP:rebc STATUS:               ID:20171227065146 L   I
 OLDACT:DUP 17-12-27 16:03 OP:osc  STATUS:               ID:20171227064206d    3
 2017-12-27-0648-00M.COL___451                                                 6
 STAT SP IPHASW D HRMM SECON CODA AMPLIT PERI AZIMU VELO AIN AR TRES W  DIS CAZ7
 BAR2 EZ EP        652  4.63                             170   -0.1610 22.9 189 
 BAR2 EZ ES        652 19.65                             170    0.2110 22.9 189 
 BAR2 EZ I         652 20.38         8.2 0.38            169           22.9 189 
 PAM  EZ EP        652  7.51                             149    0.0010 77.8  40 
 PAM  EN ES        652 24.34                             149    0.0610 77.8  40 
 PAM  EZ I         652 25.05         5.6 0.18            153           77.8  40 
 PTB  HZ EP        652 11.40                             130   -0.97 9  147 259 
 PTB  HE ES        652 33.10                             130    0.15 9  147 259 
 PTB  HZ I         652 36.99         2.3 0.12            131            147 259 
 TAM  HZ EP        652 12.96                             129   -0.19 9  155 105 
 TAM  HE ES        652 34.84                             129    0.51 9  155 105 
 OCA  HE ES        652 34.72                             128   -0.78 9  161 353 
 SPBC HZ EP        652 13.30                             127   -0.63 9  163 219 
 SPBC HE ES        652 35.97                             127    0.26 9  163 219 
 SPBC HZ I         652 41.04         5.0 0.30            128            163 219 
 ZAR  HZ EP        652 18.73                             121    0.75 9  204 292 
 ZAR  HN ES        652 43.48                             121    0.55 9  204 292 
 ZAR  HZ I         652 48.43         5.3 0.28            122            204 292 
 URE  HZ EP   2    652 29.16                             112    2.44 4  284 292 
 URE  HE ES   4    652 56.77                             112   -1.72 0  284 292 
 GUY2CHZ EP        652 29.39                             111    0.15 7  301 235 
 GUY2CHE ES        653  2.86                             111   -0.11 7  301 235 
 GUY2CHZ I         653 10.10         1.7 0.34                           301 235 
                                                                                
