 2014  327 0609  8.1 L   6.825 -73.141144.8  RSN  8 0.4 1.7LRSN                1
 GAP=184        0.97       2.9     5.2  6.7  0.2417E+01  0.5426E+01 -0.1364E+01E
 Epicentro: LOS SANTOS - SANTANDER                                             3
 ACTION:UPD 14-04-09 23:20 OP:nd   STATUS:               ID:20140327060908 L   I
 OLDACT:REG 14-03-27 08:18 OP:carl STATUS:               ID:20140327060038     3
 2014-03-27-0600-38M.COL___244                                                 6
 STAT SP IPHASW D HRMM SECON CODA AMPLIT PERI AZIMU VELO AIN AR TRES W  DIS CAZ7
 BAR2 SZ EP        6 9 28.18                             169    0.5110 26.2 190 
 BAR2 SZ ES        6 9 42.52                             169   -0.4110 26.2 190 
 BAR2 SZ I         6 9 44.72        12.4 0.54            166           26.2 190 
 RUS  HZ EP        6 9 31.39                             143   -0.5610  103 176 
 RUS  HN ES        6 9 51.20                             143    0.6410  103 176 
 RUS  HZ I         6 9 53.63         4.8 0.42            145            103 176 
 PTB  HZ EP        6 9 35.15                             132    0.07 9  149 258 
 PTB  HN ES        6 9 56.29                             132    0.16 9  149 258 
 PTB  HZ I         610  3.84         4.5 0.24            130            149 258 
 OCA  HE ES        6 9 57.81                             130   -0.09 9  158 353 
 OCA  HZ I         610  3.09         6.2 0.30            132            158 353 
 SPBC HZ EP        6 9 37.07                             128    0.31 9  166 219 
 SPBC HN ES        6 9 59.12                             128    0.01 9  166 219 
 SPBC HZ I         610  7.52         8.6 0.30            129            166 219 
 ZAR  HN ES        610  5.57                             122   -0.07 9  204 291 
 ZAR  HZ I         610 13.76         5.0 0.32            122            204 291 
 SML  HZ EP        6 9 44.54                             117    0.12 8  241 335 
 SML  HN ES        610 12.54                             117   -0.21 8  241 335 
 SML  HZ I         610 16.10         8.1 0.32            119            241 335 
 CHI  HZ EP        6 9 46.17                             117    0.12 8  251 195 
 CHI  HN ES        610 14.79                             117   -0.86 8  251 195 
 CHI  HZ I         610 19.66         1.7 0.28            119            251 195 
                                                                                
