 2013  527 0832 23.1 L   6.837 -73.162136.0  RSN  4 0.5 1.2LRSN                1
 GAP=239        1.32      10.3    10.2 13.7  0.5415E+02 -0.1665E+02 -0.4052E+01E
 Epicentro: LOS SANTOS - SANTANDER                                             3
 ACTION:UPD 13-06-20 09:54 OP:ep   STATUS:               ID:20130527083223 L   I
 2013-05-27-0830-00M.COL___261                                                 6
 STAT SP IPHASW D HRMM SECON CODA AMPLIT PERI AZIMU VELO AIN AR TRES W  DIS CAZ7
 BAR2 SZ EP        832 41.83                             168    0.1910 27.2 185 
 BAR2 SZ I         832 58.14         3.1 0.42            173           27.2 185 
 BRR  HZ IP     C  832 43.85                             152    0.8610 67.7 296 
 BRR  HN ES        832 57.94                             152   -0.5710 67.7 296 
 BRR  HZ I         833  3.42         3.8 0.12            152           67.7 296 
 RUS  HZ EP        832 45.70                             140   -0.5210  105 175 
 RUS  HN ES        833  4.48                             140    0.2210  105 175 
 RUS  HZ I         833  5.83         1.8 0.48            145            105 175 
 PTB  HZ EP        832 48.63                             130   -0.57 9  147 257 
 PTB  HN ES        833  9.93                             130    0.37 9  147 257 
 PTB  HZ I         833 15.29         3.0 0.12            133            147 257 
                                                                                
