 2016  827 0711  1.3 L   6.743 -73.173149.1  RSN  5 0.3 1.2LRSN                1
 GAP=230        0.86       5.1     5.5  6.3  0.5746E+01  0.4418E+01  0.2881E+01E
 Epicentro: VILLANUEVA - SANTANDER                                             3
 ACTION:UPD 16-10-29 15:39 OP:rebc STATUS:               ID:20160827071101 L   I
 OLDACT:REG 16-08-27 13:00 OP:ak   STATUS:               ID:20160827070640     3
 2016-08-27-0707-00M.COL___368                                                 6
 STAT SP IPHASW D HRMM SECON CODA AMPLIT PERI AZIMU VELO AIN AR TRES W  DIS CAZ7
 BAR2 EZ EP        711 21.23                             173   -0.0410 16.7 184 
 BAR2 EZ ES        711 36.42                             173   -0.3910 16.7 184 
 BAR2 EZ I         711 37.32         6.1 0.20                          16.7 184 
 BRR  HZ EP        711 23.12                             153    0.2210 71.9 304 
 BRR  HN ES        711 40.21                             153    0.4910 71.9 304 
 BRR  HZ I         711 41.68         1.8 0.14                          71.9 304 
 RUS  HZ EP        711 24.97                             146   -0.0510 94.6 174 
 RUS  HN ES        711 43.50                             146    0.0210 94.6 174 
 RUS  HZ I         711 44.60         2.6 0.22                          94.6 174 
 PTB  HZ EP        711 27.91                             134   -0.33 9  144 261 
 PTB  HN ES        711 48.67                             134   -0.54 9  144 261 
 PTB  HZ I         711 51.16         1.6 0.17                           144 261 
 SPBC HZ EP        711 29.62                             131    0.14 9  156 220 
 SPBC HN ES        711 51.90                             131    0.47 9  156 220 
 SPBC HZ I         711 54.64         1.9 0.14                           156 220 
                                                                                
