 2017  827 0139 36.1 L   6.766 -73.114143.8  RSN 17 0.3 1.9LRSN                1
 GAP=116        0.77       2.5     2.9  4.0  0.1484E+01  0.3257E+01  0.3476E+01E
 Epicentro: LOS SANTOS - SANTANDER                                             3
 ACTION:UPD 17-09-04 20:24 OP:rebc STATUS:               ID:20170827013936 L   I
 OLDACT:UP  17-08-27 15:05 OP:edw  STATUS:               ID:20170827013741     3
 OLDACT:UP  17-08-27 15:04 OP:edw  STATUS:               ID:20170827013741     3
 OLDACT:UP  17-08-27 15:04 OP:edw  STATUS:               ID:20170827013741     3
 OLDACT:UP  17-08-27 14:56 OP:edw  STATUS:               ID:20170827013741     3
 OLDACT:REG 17-08-27 12:59 OP:edw  STATUS:               ID:20170827013741     3
 2017-08-27-0138-00M.COL___411                                                 6
 STAT SP IPHASW D HRMM SECON CODA AMPLIT PERI AZIMU VELO AIN AR TRES W  DIS CAZ7
 BAR2 EZ EP     D  139 55.18                             171   -0.2810 20.6 201 
 BAR2 EZ ES        140 10.44                             171   -0.1110 20.6 201 
 BAR2 EZ I         140 11.78        42.4 0.20            167           20.6 201 
 BRR  HZ EP        139 57.03                             151   -0.3210 76.1 300 
 BRR  HN ES        140 14.42                             151    0.5210 76.1 300 
 BRR  HZ I         140 15.22        12.1 0.12            152           76.1 300 
 PAM  EZ EP        139 57.98                             150   -0.2010 78.2  36 
 PAM  EN ES        140 15.65                             150    0.2710 78.2  36 
 PAM  EZ I         140 17.44         8.1 0.48            156           78.2  36 
 RUS  HZ EP        139 59.10                             144   -0.3010 96.6 178 
 RUS  HN ES        140 17.23                             144   -0.3210 96.6 178 
 RUS  HZ I         140 18.94         7.2 0.46            143           96.6 178 
 SPBC HZ EP        140  4.17                             129   -0.24 9  163 221 
 SPBC HN ES        140 26.21                             129   -0.26 9  163 221 
 SPBC HZ I         140 31.99        16.9 0.50            129            163 221 
 YPLC HZ EP        140  5.40                             127    0.11 9  172 152 
 YPLC HE ES        140 28.58                             127    0.55 9  172 152 
 YPLC HZ I         140 34.70         3.6 0.52            128            172 152 
 ZAR  HZ EP        140  8.78                             121   -0.15 8  209 293 
 ZAR  HE ES        140 34.47                             121   -0.04 8  209 293 
 ZAR  HZ I         140 35.87         8.0 0.10            123            209 293 
 TABC EZ EP        140 11.67                             119    0.06 8  229 212 
 TABC EZ ES   4    140 43.56                             119    4.28 0  229 212 
 NOR  HZ EP   2    140 11.17                             118   -0.65 4  235 236 
 NOR  HN ES   2    140 40.18                             118    0.53 4  235 236 
 NOR  HZ I         140 43.56         5.1 0.38            119            235 236 
 CHI  HZ EP        140 13.38                             117   -0.04 8  246 196 
 CHI  HN ES        140 42.56                             117    0.05 8  246 196 
 CHI  HZ I         140 46.26         3.1 0.46            118            246 196 
 ROSC BZ EP        140 14.97                             116    0.98 8  251 212 
 ROSC BN ES   4    140 46.61                             116    3.09 0  251 212 
 ROSC BZ I         140 48.92         8.0 0.40            117            251 212 
 HEL  HN ES   2    140 48.03                             114    0.01 4  275 257 
 GUY2CHZ EP        140 20.02                             112    0.30 7  302 236 
 GUY2CHN ES   4    140 56.83                             112    3.10 0  302 236 
 GUY2CHZ I         141  7.19         3.4 0.42                           302 236 
 PTGC HZ EP   4    140 17.94                             112   -1.41 0  304 159 
 PTGC HN ES        140 52.85                             112   -0.22 7  304 159 
 ELA  HN ES   1    140 59.37                             110   -0.05 5  329 230 
 PRA  HZ EP        140 29.28                             106   -0.12 6  390 210 
 PRA  HN ES   4    141 13.40                             106    2.45 0  390 210 
 PRA  HZ I         141 16.88         4.5 0.24            107            390 210 
 ORTC HZ EP        140 30.28                             106    0.42 6  394 217 
 ORTC HN ES   4    141 14.13                             106    2.35 0  394 217 
 ORTC HZ I         141 18.75         2.5 0.46            107            394 217 
 SJC  HZ EP   4    140 29.34                             105   -2.88 0  414 327 
 SJC  HN ES   4    141 10.97                             105   -5.00 0  414 327 
                                                                                
