 2017  327 0513 20.1 L   6.818 -73.099141.7  RSN  6 0.3 1.3LRSN                1
 GAP=142        0.63       3.2     4.2  5.2 -0.2467E+01 -0.4431E+01  0.2637E+01E
 Epicentro: LOS SANTOS - SANTANDER                                             3
 ACTION:UPD 17-05-25 18:45 OP:jn   STATUS:               ID:20170327051320 L   I
 OLDACT:UP  17-03-27 17:08 OP:and  STATUS:               ID:20170327050743d    3
 OLDACT:UP  17-03-27 17:06 OP:and  STATUS:               ID:20170327050743d    3
 OLDACT:DUP 17-03-27 17:03 OP:and  STATUS:               ID:20170327050743d    3
 OLDACT:UP  17-03-27 17:03 OP:and  STATUS:               ID:20170327050742     3
 OLDACT:UP  17-03-27 17:03 OP:and  STATUS:               ID:20170327050742     3
 OLDACT:UP  17-03-27 17:02 OP:and  STATUS:               ID:20170327050742     3
 OLDACT:REG 17-03-27 13:03 OP:and  STATUS:               ID:20170327050742     3
 2017-03-27-0508-00M.COL___348                                                 6
 STAT SP IPHASW D HRMM SECON CODA AMPLIT PERI AZIMU VELO AIN AR TRES W  DIS CAZ7
 BAR2 EZ EP   2    513 38.90                             169   -0.38 5 26.6 200 
 BAR2 EZ ES   2    513 53.45                             169   -0.82 5 26.6 200 
 BAR2 EZ I         513 55.87         5.2 0.41            167           26.6 200 
 PAM  EZ IP     C  513 41.79                             151    0.2310 72.6  37 
 PAM  EN ES        513 58.24                             151   -0.1010 72.6  37 
 PAM  EZ I         514  0.67         2.6 0.28            155           72.6  37 
 BRR  HZ EP        513 40.77                             151   -0.2210 75.0 295 
 BRR  HN ES        513 57.59                             151    0.2710 75.0 295 
 BRR  HZ I         514  0.06         2.9 0.19            151           75.0 295 
 RUS  HZ EP        513 43.46                             142   -0.0810  102 179 
 RUS  HN ES        514  2.12                             142    0.2610  102 179 
 RUS  HZ I         514  3.67         4.3 0.28            143            102 179 
 PTB  HZ EP   9    513 45.97                             130   -1.24 0  153 259 
 PTB  HN ES        514  6.84                             132   -0.31 9  153 259 
 PTB  HZ I         514  9.52         3.2 0.20            131            153 259 
 SPBC HZ EP   2    513 48.60                             127   -0.12 5  168 220 
 SPBC HN ES   2    514 10.93                             127   -0.14 5  168 220 
 SPBC HZ I         514 16.02         2.7 0.06            128            168 220 
                                                                                
