 2010  727 0653 27.8 L   6.781 -73.134146.4  RSN  6 0.4 1.6LRSN                1
 GAP=160        1.02       5.3    11.8 12.0 -0.2282E+01 -0.4709E+02 -0.1227E+02E
 Epicentro: LOS SANTOS - SANTANDER                                             3
 ACTION:UPD 10-12-01 15:20 OP:pat  STATUS:               ID:20100727065328dL   I
 2010-07-27-0649-32S.COL___123                                                 6
 STAT SP IPHASW D HRMM SECON CODA AMPLIT PERI AZIMU VELO AIN AR TRES W  DIS CAZ7
 BAR2 SZ EP   1    653 47.42                             171    -0.1 7   22 195 
 BAR2 SZ I         654  3.70         8.7 0.19                            22 195 
 BRR  HZ EP        653 49.29                             152     0.110   73 299 
 BRR  HE ES   1    654  5.73                             152    -0.1 7   73 299 
 BRR  HZ I         654 10.30         8.2 0.33                            73 299 
 RUS  HZ EP        653 51.14                             144    -0.310   98 177 
 RUS  HN ES   1    654 10.24                             144     0.3 7   98 177 
 GUE  SZ EP        653 53.43                             139     0.710  118  11 
 GUE  SZ I         654 17.93         2.2 0.07                           118  11 
 GRA  SZ IP        653 53.16                             137    -0.110  127  17 
 GRA  SZ ES   1    654 12.72                             137    -0.4 7  127  17 
 GRA  SZ I         654 13.68         5.4 0.26                           127  17 
 OCA  SZ EP   1    653 55.92                             129    -0.5 7  162 353 
 OCA  SZ I         654 21.74         9.6 0.23                           162 353 
                                                                                
