 2013  227 0429 24.2 L   5.839 -73.764114.0  RSN  4 0.1 1.4LRSN                1
 GAP=137        0.38       1.5     2.1  4.5  0.3393E+00  0.2571E+01  0.1622E+01E
 Epicentro: JESUS MARIA - SANTANDER                                            3
 ACTION:UPD 13-03-12 09:36 OP:ep   STATUS:               ID:20130227042924 L   I
 2013-02-27-0428-43M.COL___191                                                 6
 STAT SP IPHASW D HRMM SECON CODA AMPLIT PERI AZIMU VELO AIN AR TRES W  DIS CAZ7
 RUS  HN ES   1    429 57.60                             144   -0.13 8 75.6  85 
 RUS  HN I         429 59.82         4.6 0.50            146           75.6  85 
 BAR2 SZ EP        429 45.19                             134    0.1310  105  38 
 BAR2 SZ ES        430  1.31                             134    0.0010  105  38 
 BAR2 SZ I         430  2.52        16.7 0.40            137            105  38 
 PTB  HZ EP        429 44.88                             133   -0.2010  109 315 
 PTB  HE ES        430  1.45                             133    0.1010  109 315 
 PTB  HE I         430  2.55         3.9 0.28            136            109 315 
 CHI  HZ EP        429 47.96                             127    0.0210  134 178 
 CHI  HZ I         429 48.34         2.4 0.28            130            134 178 
 CHI  HE ES        430  6.47                             127    0.0310  134 178 
                                                                                
