 2014 1027 0600 39.2 L   5.961 -74.046 93.6  RSN  5 0.7 1.1LRSN                1
 GAP=140        1.51      10.3     8.3 19.1  0.9438E+01 -0.1550E+02 -0.1060E+03E
 Epicentro: LA BELLEZA - SANTANDER                                             3
 ACTION:UPD 14-11-29 23:57 OP:nd   STATUS:               ID:20141027060039 L   I
 OLDACT:REG 14-10-29 19:48 OP:spq  STATUS:               ID:20141027055746     3
 2014-10-27-0557-46M.COL___274                                                 6
 STAT SP IPHASW D HRMM SECON CODA AMPLIT PERI AZIMU VELO AIN AR TRES W  DIS CAZ7
 SPBC HN ES   1    6 1  4.28                             158    0.90 7 34.2 185 
 PTB  HZ EP        6 0 54.97                             137   -0.6610 78.5 325 
 PTB  HN ES   1    6 1  7.74                             137   -0.72 7 78.5 325 
 PTB  HZ I         6 1  8.88         2.3 0.28            139           78.5 325 
 RUS  HE ES   1    6 1 13.32                             128   -0.91 7  107  94 
 BAR2 SZ ES   1    6 1 15.59                             124   -0.08 7  118  54 
 BAR2 SZ I         6 1 19.77         4.9 0.42            124            118  54 
 BRR  HZ EP        6 1  1.62                             121    0.8310  132  16 
 BRR  HN ES        6 1 18.02                             121    0.3810  132  16 
 BRR  HZ I         6 1 18.29         2.1 0.40            121            132  16 
                                                                                
