 2013  327 0108 37.5 L   6.771 -73.184139.8  RSN  6 0.3 1.5LRSN                1
 GAP=231        0.67       4.7     5.3  6.3  0.1314E+02  0.7275E+01  0.7650E+01E
 Epicentro: LOS SANTOS - SANTANDER                                             3
 ACTION:UPD 13-04-09 14:05 OP:ep   STATUS:               ID:20130327010837 L   I
 2013-03-27-0100-00M.COL___245                                                 6
 STAT SP IPHASW D HRMM SECON CODA AMPLIT PERI AZIMU VELO AIN AR TRES W  DIS CAZ7
 BAR2 SZ EP        1 8 56.22                             171   -0.1410 19.8 180 
 BAR2 SZ ES   1    1 9 10.84                             171   -0.21 7 19.8 180 
 BAR2 SZ I         1 9 13.02         8.0 0.50            172           19.8 180 
 BRR  HZ EP   1    1 8 58.34                             152    0.44 7 69.2 302 
 BRR  HN ES   1    1 9 13.41                             152   -0.39 7 69.2 302 
 BRR  HZ I         1 9 18.02         8.7 0.16            153           69.2 302 
 RUS  HZ EP   1    1 9  0.63                             143    0.15 7 97.8 173 
 RUS  HN ES   1    1 9 18.89                             143    0.50 7 97.8 173 
 RUS  HZ I         1 9 19.84         3.5 0.26            147           97.8 173 
 PTB  HZ EP   1    1 9  3.21                             132   -0.36 7  143 260 
 PTB  HN ES   1    1 9 24.23                             132    0.35 7  143 260 
 PTB  HZ I         1 9 26.29         5.3 0.62            134            143 260 
 ZAR  HE ES   1    1 9 34.24                             121    0.15 6  201 293 
 CHI  HZ EP   1    1 9 14.43                             116   -0.01 6  245 194 
 CHI  HN ES   1    1 9 42.70                             116   -0.53 6  245 194 
                                                                                
