 2014  527 0516 29.1 L   6.378 -73.633104.6  RSN 13 0.5 1.7LRSN                1
 GAP= 67        1.28       2.8     3.6  7.1 -0.1248E+01  0.9905E+01 -0.2675E+01E
 Epicentro: SANTA HELENA DEL OPON - SANTANDER                                  3
 ACTION:UPD 15-03-16 17:01 OP:nd   STATUS:               ID:20140527051629 L   I
 OLDACT:UP  14-05-27 14:11 OP:stll STATUS:               ID:20140527050809     3
 OLDACT:REG 14-05-27 13:33 OP:stll STATUS:               ID:20140527050809     3
 2014-05-27-0508-09M.COL___261                                                 6
 STAT SP IPHASW D HRMM SECON CODA AMPLIT PERI AZIMU VELO AIN AR TRES W  DIS CAZ7
 BAR2 SZ IP     C  516 45.61                             150    0.3710 55.2  65 
 BAR2 SZ I         516 45.76        51.2 0.22            154           55.2  65 
 BAR2 SZ ES        516 57.74                             150   -0.1010 55.2  65 
 BRR  HZ EP        516 47.12                             139    0.3810 81.1 354 
 BRR  HN ES        517  0.81                             139    0.3110 81.1 354 
 BRR  HZ I         517  2.81         9.5 0.12            140           81.1 354 
 RUS  HZ EP        516 46.89                             140   -0.5410 81.2 131 
 RUS  HN ES        517  1.16                             140   -0.5710 81.2 131 
 RUS  HZ I         517  2.86         6.7 0.28            144           81.2 131 
 PTB  HZ EP        516 47.47                             135   -0.2710 92.8 281 
 PTB  HN ES        517  2.12                             135   -0.1610 92.8 281 
 PTB  HZ I         517  5.62        18.7 0.12            135           92.8 281 
 SPBC HZ EP        516 47.81                             135   -0.1210 93.8 211 
 SPBC HN ES        517  3.30                             135    0.6810 93.8 211 
 SPBC HZ I         517  4.48        15.7 0.14            136           93.8 211 
 NOR  HZ EP        516 55.21                             118    0.38 9  164 237 
 NOR  HN ES        517 14.54                             118   -0.37 9  164 237 
 NOR  HZ I         517 20.47        11.3 0.18            119            164 237 
 ZAR  HZ EP        516 57.35                             114    0.47 9  183 312 
 ZAR  HN ES        517 19.20                             114    0.64 9  183 312 
 ZAR  HZ I         517 24.62        10.9 0.32            116            183 312 
 CHI  HZ EP   2    516 58.73                             113    0.15 4  194 183 
 CHI  HE ES        517 21.38                             113   -0.20 9  194 183 
 CHI  HZ I         517 24.74         1.9 0.50            115            194 183 
 OCA  HZ EP   1    517  0.53                             111    0.58 6  209  10 
 OCA  HN ES        517 24.58                             111    0.56 8  209  10 
 OCA  HZ I         517 30.70         8.2 0.42            113            209  10 
 HEL  HZ EP        517  0.68                             111    0.22 8  211 264 
 HEL  HN ES        517 24.87                             111   -0.06 8  211 264 
 HEL  HZ I         517 31.59         3.2 0.18            112            211 264 
 GUY2CHZ EP        517  3.16                             109    0.32 8  230 236 
 GUY2CHN ES        517 29.22                             109    0.05 8  230 236 
 GUY2CHZ I         517 36.73         4.8 0.40                           230 236 
 URE  HN ES        517 32.83                             106   -1.26 8  259 306 
 SML  HZ EP        517  7.21                             105    0.07 8  272 350 
 SML  HN ES        517 35.10                             105   -1.71 8  272 350 
                                                                                
