 2017  327 0854 14.0 L   6.828 -73.151136.8  RSN  4 0.1 0.7LRSN                1
 GAP=146        0.41       5.1     3.3  4.0 -0.1188E+02  0.6294E+01 -0.6744E+01E
 Epicentro: LOS SANTOS - SANTANDER                                             3
 ACTION:UPD 17-05-25 18:45 OP:jn   STATUS:               ID:20170327085414 L   I
 OLDACT:DUP 17-03-27 17:17 OP:ar   STATUS:               ID:20170327083923d    3
 OLDACT:REG 17-03-27 13:29 OP:and  STATUS:               ID:20170327083922     3
 2017-03-27-0848-00M.COL___348                                                 6
 STAT SP IPHASW D HRMM SECON CODA AMPLIT PERI AZIMU VELO AIN AR TRES W  DIS CAZ7
 BAR2 EZ EP        854 32.47                             169   -0.1710 26.3 188 
 BAR2 EZ ES        854 47.29                             169    0.1210 26.3 188 
 BRR  HZ EP        854 34.23                             152    0.1410 69.3 297 
 PAM  EZ EP        854 35.29                             150    0.1310 75.4  41 
 PAM  EN ES        854 51.53                             150   -0.1310 75.4  41 
 PAM  EZ I         854 54.28         1.4 0.66            149           75.4  41 
 PTB  HZ EP        854 40.23                             130   -0.05 9  148 258 
 PTB  HN ES        855  0.70                             130   -0.06 9  148 258 
 PTB  HZ I         855  3.33         0.5 0.17            131            148 258 
                                                                                
