 2015  127 0647 23.2 L   6.532 -73.497102.8  RSN  4 0.3 1.0LRSN                1
 GAP=191        0.77       9.2     4.8 11.6 -0.3195E+02 -0.3216E+02  0.6738E+02E
 Epicentro: EL CARMEN - SANTANDER                                              3
 ACTION:UPD 15-03-02 15:42 OP:nd   STATUS:               ID:20150127064723 L   I
 OLDACT:UP  15-01-27 15:21 OP:cam  STATUS:               ID:20150127063815d    3
 OLDACT:DUP 15-01-27 15:17 OP:cam  STATUS:               ID:20150127063815d    3
 2015-01-27-0638-14M.COL___277                                                 6
 STAT SP IPHASW D HRMM SECON CODA AMPLIT PERI AZIMU VELO AIN AR TRES W  DIS CAZ7
 BAR2 EZ EP        647 38.38                             160    0.2110 35.4  79 
 BRR  HZ EP        647 39.66                             144   -0.0610 67.8 340 
 BRR  HN ES        647 52.94                             144    0.3810 67.8 340 
 BRR  HZ I         647 53.18         2.1 0.32            101           67.8 340 
 PTB  HZ IP     C  647 43.18                             130    0.2410  106 270 
 PTB  HN ES        647 57.86                             130   -0.4410  106 270 
 PTB  HZ I         647 59.03         1.8 0.16             94            106 270 
 PAM  SZ EP        647 45.45                             125    0.0110  125  45 
 PAM  SZ I         648  0.54         3.9 0.42             91            125  45 
 PAM  SN ES        648  2.38                             125   -0.3710  125  45 
                                                                                
