 2013  227 0511 21.9 L   6.815 -73.163143.0  RSN  7 0.5 1.9LRSN                1
 GAP=134        1.26       4.5     6.4  9.0 -0.3165E+01  0.7547E+01  0.5637E+01E
 Epicentro: LOS SANTOS - SANTANDER                                             3
 ACTION:UPD 13-03-12 09:36 OP:ep   STATUS:               ID:20130227051121 L   I
 2013-02-27-0508-40M.COL___191                                                 6
 STAT SP IPHASW D HRMM SECON CODA AMPLIT PERI AZIMU VELO AIN AR TRES W  DIS CAZ7
 BAR2 SZ EP        511 41.19                             170   -0.0310 24.8 185 
 BAR2 SZ ES        511 55.72                             170   -0.5710 24.8 185 
 BAR2 SZ I         511 57.09        25.3 0.42            168           24.8 185 
 BRR  HZ EP        511 43.13                             153    0.5310 68.7 298 
 BRR  HN ES        511 59.83                             153    1.0810 68.7 298 
 BRR  HN I         512  0.35        30.5 0.28            152           68.7 298 
 PAM  SZ EP        511 44.12                             150    0.3110 77.3  41 
 PAM  SN ES        512  0.96                             150    0.0610 77.3  41 
 RUS  HZ EP        511 45.69                             143    0.1810  102 175 
 RUS  HN ES        512  3.85                             143   -0.0810  102 175 
 RUS  HN I         512  5.23        12.4 0.26            142            102 175 
 PTB  HZ EP        511 48.07                             132   -0.43 9  146 258 
 PTB  HN ES        512  8.87                             132   -0.38 9  146 258 
 PTB  HN I         512 11.63         8.9 0.24            131            146 258 
 OCA  HN ES        512 10.70                             129   -0.88 9  158 354 
 CHI  HZ EP   3    512  0.10                             116    0.53 2  250 195 
 CHI  HE ES        512 28.88                             116   -0.07 8  250 195 
 CHI  HN I         512 33.76         3.0 0.52            116            250 195 
                                                                                
