 2017  427 0517 34.1 L   6.736 -73.133154.2  RSN  5 0.2 1.5LRSN                1
 GAP=216        0.35       2.9     3.1  4.0 -0.7635E+00 -0.4306E+01  0.5351E+01E
 Epicentro: LOS SANTOS - SANTANDER                                             3
 ACTION:UPD 17-05-30 21:16 OP:jn   STATUS:               ID:20170427051734 L   I
 OLDACT:UP  17-04-27 15:35 OP:and  STATUS:               ID:20170427050740d    3
 OLDACT:UP  17-04-27 15:35 OP:and  STATUS:               ID:20170427050740d    3
 OLDACT:UP  17-04-27 15:34 OP:and  STATUS:               ID:20170427050740d    3
 OLDACT:UP  17-04-27 15:34 OP:and  STATUS:               ID:20170427050740d    3
 OLDACT:UP  17-04-27 15:34 OP:and  STATUS:               ID:20170427050740d    3
 OLDACT:UP  17-04-27 15:34 OP:and  STATUS:               ID:20170427050740d    3
 OLDACT:DUP 17-04-27 15:32 OP:and  STATUS:               ID:20170427050740d    3
 OLDACT:REG 17-04-27 12:39 OP:and  STATUS:               ID:20170427050739     3
 2017-04-27-0508-00M.COL___360                                                 6
 STAT SP IPHASW D HRMM SECON CODA AMPLIT PERI AZIMU VELO AIN AR TRES W  DIS CAZ7
 BRR  HZ EP        517 56.53                             152    0.0610 76.0 303 
 BRR  HN ES        518 13.92                             152    0.0310 76.0 303 
 BRR  HZ I         518 17.95         3.4 0.12            150           76.0 303 
 PTB  HZ EP        518  1.66                             134   -0.16 9  148 262 
 PTB  HN ES   2    518 23.34                             134   -0.07 5  148 262 
 PTB  HZ I         518 30.10         3.8 0.36            133            148 262 
 ZAR  HZ EP        518  7.64                             124    0.09 8  208 294 
 ZAR  HN ES   2    518 33.49                             124   -0.13 4  208 294 
 ZAR  HZ I         518 38.29         3.5 0.34            125            208 294 
 NOR  HZ EP   3    518 11.13                             121    1.07 2  232 236 
 NOR  HN ES        518 38.08                             121   -0.01 8  232 236 
 NOR  HZ I         518 43.90         2.8 0.18            121            232 236 
 PTGC HZ EP        518 17.54                             114   -0.04 7  302 158 
                                                                                
