 2010 1127 0823 43.0 L   6.795 -73.084137.8  RSN  5 0.1 1.4LRSN                1
 GAP=166        0.39       3.5     6.3  5.0  0.1056E+02 -0.1432E+02 -0.7558E+01E
 Epicentro: LOS SANTOS - SANTANDER                                             3
 ACTION:UP  10-12-17 16:55 OP:REBC STATUS:               ID:20101127082343 L   I
 2010-11-27-0821-04S.COL___131                                                 6
 STAT SP IPHASW D HRMM SECON CODA AMPLIT PERI AZIMU VELO SNR AR TRES W  DIS CAZ7
 BAR2 SZ ES   1    824 16.23                             170     0.0 7   25 206 
 BAR2 SZ I         824 18.89         7.3 0.08                            25 206 
 BRR  HZ EP   1    824  3.40                             149    -0.2 7   78 297 
 BRR  HE ES   1    824 19.87                             149     0.1 7   78 297 
 BRR  HZ I         824 21.38         6.6 0.16                            78 297 
 RUS  HZ EP   1    824  5.92                             143     0.0 7  100 180 
 RUS  HN ES   1    824 23.73                             143     0.0 7  100 180 
 RUS  HZ I         824 26.46         3.3 0.85                           100 180 
 GRA  SZ EP   1    824  7.51                             135     0.1 7  124  14 
 GRA  SZ I         824 27.82         2.5 0.10                           124  14 
 HEL  HZ EP   3    824 23.86                             113     0.4 2  279 256 
 HEL  HZ I         825  0.77         1.5 0.26                           279 256 
                                                                                
