 2016  227 0737 35.2 L   6.822 -73.130150.0  RSN 11 0.5 2.0LRSN                1
 GAP=137        1.07       3.4     5.3  6.7 -0.5094E+01  0.1266E+02  0.3103E+01E
 Epicentro: LOS SANTOS - SANTANDER                                             3
 ACTION:UPD 16-03-04 21:29 OP:rebc STATUS:               ID:20160227073735 L   I
 OLDACT:UP  16-02-27 18:16 OP:mh   STATUS:               ID:20160227072748     3
 OLDACT:UP  16-02-27 18:16 OP:mh   STATUS:               ID:20160227072748     3
 OLDACT:UP  16-02-27 18:13 OP:mh   STATUS:               ID:20160227072748     3
 OLDACT:UP  16-02-27 18:07 OP:mh   STATUS:               ID:20160227072748     3
 OLDACT:REG 16-02-27 13:19 OP:mh   STATUS:               ID:20160227072748     3
 2016-02-27-0727-48M.COL___309                                                 6
 STAT SP IPHASW D HRMM SECON CODA AMPLIT PERI AZIMU VELO AIN AR TRES W  DIS CAZ7
 BAR2 EZ EP        737 55.67                             170    0.2610 26.1 193 
 BAR2 EZ ES        738 10.60                             170   -0.5610 26.1 193 
 BAR2 EZ I         738 13.38        19.8 0.28            169           26.1 193 
 PAM  EZ EP        737 58.44                             152    0.7310 74.4  40 
 PAM  EZ I         738 10.17        13.5 0.17            154           74.4  40 
 PAM  EN ES        738 15.40                             152    0.1410 74.4  40 
 RUS  HZ EP        737 59.54                             144   -0.0110  103 177 
 OCA  HZ EP        738  2.85                             131   -0.81 9  158 352 
 OCA  HN ES        738 26.09                             131    0.25 9  158 352 
 OCA  HZ I         738 31.10        18.6 0.16            131            158 352 
 SPBC HZ EP        738  4.59                             129    0.27 9  166 219 
 SPBC HN ES        738 26.84                             129   -0.19 9  166 219 
 ZAR  HZ EP        738  7.60                             123   -0.42 9  205 291 
 ZAR  HN ES        738 33.86                             123    0.27 9  205 291 
 NOR  HZ EP        738 11.56                             119    0.06 8  238 234 
 NOR  HN ES        738 39.54                             119   -0.25 8  238 234 
 NOR  HZ I         738 57.58         9.5 0.16            119            238 234 
 CHI  HZ EP        738 12.96                             117   -0.50 8  251 195 
 CHI  HN ES        738 43.31                             117    0.03 8  251 195 
 CHI  HZ I         738 47.20         3.5 0.48            118            251 195 
 GUY2CHZ EP        738 20.38                             113    1.04 7  304 235 
 GUY2CHN ES   4    738 59.11                             113    5.35 0  304 235 
 GUY2CHZ I         739  2.36         9.1 0.74                           304 235 
 ANIL HN ES   4    739  7.42                             109    2.65 0  360 224 
 ORTC HZ EP        738 28.96                             107   -0.68 6  398 216 
 ORTC HN ES        739 12.73                             107    0.65 6  398 216 
 ORTC HZ I         739 20.07         3.8 0.24            107            398 216 
 SJC  HZ EP   1    738 30.01                             106   -0.79 4  408 327 
 SJC  HN ES   4    739 11.31                             106   -2.83 0  408 327 
 SJC  HZ I         739 14.64         1.9 0.62            107            408 327 
                                                                                
