 2017  927 0659 17.4 L   6.815 -73.140148.4  RSN 15 0.5 1.9LRSN                1
 GAP=119        1.09       3.6     4.4  6.1 -0.8464E+00  0.1023E+02  0.2379E+01E
 Epicentro: LOS SANTOS - SANTANDER                                             3
 ACTION:UPD 17-10-05 19:16 OP:rebc STATUS:               ID:20170927065917 L   I
 OLDACT:UP  17-09-27 18:22 OP:edw  STATUS:               ID:20170927065743     3
 OLDACT:REG 17-09-27 12:50 OP:edw  STATUS:               ID:20170927065743     3
 2017-09-27-0658-00M.COL___447                                                 6
 STAT SP IPHASW D HRMM SECON CODA AMPLIT PERI AZIMU VELO AIN AR TRES W  DIS CAZ7
 BAR2 EZ EP        659 37.24                             170   -0.1010 25.1 191 
 BAR2 EZ ES        659 52.12                             170   -0.8010 25.1 191 
 BAR2 EZ I         659 55.03        17.6 0.44            166           25.1 191 
 BRR  HZ EP        659 38.97                             153    0.1910 71.0 297 
 BRR  HN ES        659 56.17                             153    0.6810 71.0 297 
 BRR  HZ I         7 0  0.96        13.5 0.20            149           71.0 297 
 PAM  EZ EP     D  659 40.23                             152    0.4810 75.6  40 
 PAM  EN ES        659 57.41                             152    0.1910 75.6  40 
 PAM  EZ I         659 59.40        13.9 0.54            158           75.6  40 
 RUS  HZ EP        659 41.48                             144   -0.0010  102 176 
 RUS  HN ES        7 0  0.36                             144    0.0610  102 176 
 RUS  HZ I         7 0  1.00        17.4 0.26            145            102 176 
 ZAR  HZ EP        659 49.80                             123   -0.17 9  204 292 
 ZAR  HN ES        7 0 14.90                             123   -0.51 9  204 292 
 ZAR  HZ I         7 0 23.00         6.5 0.44            123            204 292 
 NOR  HZ EP        659 53.17                             119   -0.23 8  236 234 
 NOR  HN ES        7 0 21.82                             119    0.30 8  236 234 
 NOR  HZ I         7 0 29.13         6.8 0.14            119            236 234 
 CHI  HZ EP        659 55.52                             117    0.13 8  250 195 
 CHI  HN ES        7 0 24.77                             117   -0.30 8  250 195 
 CHI  HZ I         7 0 26.94         3.7 0.32            119            250 195 
 ROSC BZ EP   4    659 57.38                             117    1.57 0  255 211 
 ROSC BN ES   4    7 0 27.64                             117    1.83 0  255 211 
 ROSC BZ I         7 0 36.76         6.6 0.35            118            255 211 
 HEL  HN ES        7 0 28.89                             115   -0.49 8  273 255 
 HEL  HZ I         7 0 36.52         4.1 0.58            115            273 255 
 URE  HZ EP        659 57.72                             114   -0.83 7  284 292 
 URE  HN ES   4    7 0 29.42                             114   -1.27 0  284 292 
 URE  HZ I         7 0 39.78         3.9 0.20            114            284 292 
 GUY2CHZ EP   4    7 0  4.24                             113    2.98 0  303 235 
 GUY2CHE ES        7 0 36.65                             113    1.15 7  303 235 
 GUY2CHZ I         7 0 42.42         3.7 0.56                           303 235 
 PTGC HZ EP   9    7 0  0.43                             112   -1.05 0  310 159 
 PTGC HN ES        7 0 34.04                             112   -0.81 7  310 159 
 PTGC HZ I         7 0 36.90         4.2 0.26            114            310 159 
 LL6C HZ EP   2    7 0  2.81                             111   -0.17 3  323 357 
 LL6C HN ES   2    7 0 38.62                             111    0.06 3  323 357 
 CBOC HZ EP   4    7 0  5.83                             110    1.32 0  335 252 
 CBOC HN ES   4    7 0 39.88                             110   -1.41 0  335 252 
 CBOC HZ I         7 0 45.19         1.5 0.46            111            335 252 
 PRA  HZ EP        7 0 11.22                             107    0.04 6  394 210 
 PRA  HN ES   4    7 0 52.06                             107   -1.10 0  394 210 
 PRA  HZ I         7 0 58.87         2.8 0.26            108            394 210 
                                                                                
