 2014  827 0140 32.0 L   6.765 -73.106147.3  RSN  5 0.5 1.5LRSN                1
 GAP=239        0.98       6.6     7.0  8.4  0.1014E+02  0.1712E+02  0.8911E+01E
 Epicentro: LOS SANTOS - SANTANDER                                             3
 ACTION:UPD 14-09-15 21:53 OP:nd   STATUS:               ID:20140827014032 L   I
 OLDACT:REG 14-08-27 12:49 OP:fm   STATUS:               ID:20140827013818     3
 2014-08-27-0138-18M.COL___254                                                 6
 STAT SP IPHASW D HRMM SECON CODA AMPLIT PERI AZIMU VELO AIN AR TRES W  DIS CAZ7
 BAR2 SZ EP        140 51.89                             172    0.0910 20.9 204 
 BAR2 SZ ES   1    141  6.78                             172   -0.43 7 20.9 204 
 BAR2 SZ I         141  8.46        17.3 0.18            171           20.9 204 
 BRR  HZ EP        140 53.73                             151    0.0510 76.9 300 
 BRR  HN ES        141 11.08                             151    0.5210 76.9 300 
 BRR  HZ I         141 12.10         4.5 0.14            152           76.9 300 
 RUS  HZ EP   1    140 55.59                             145   -0.06 7 96.5 178 
 RUS  HN ES        141 14.16                             145    0.1010 96.5 178 
 RUS  HZ I         141 15.64         1.9 0.18            147           96.5 178 
 PTB  HZ EP   1    140 58.52                             132   -0.93 7  151 261 
 PTB  HN ES   1    141 20.00                             132   -0.84 7  151 261 
 PTB  HZ I         141 21.78         3.3 0.14            133            151 261 
 GUY2CHZ EP   1    141 16.41                             113    0.54 5  303 236 
 GUY2CHE ES        141 50.48                             113    0.42 7  303 236 
 GUY2CHZ I         141 58.40         1.5 0.54                           303 236 
                                                                                
