 2013 1127 0831 49.1 L   6.799 -73.135140.9  RSN 13 0.5 2.3LRSN 2.8WRSN        1
 SPEC AVERAGE  MO 13.2 ST145.9 OM  1.3 f0 15.7 R0.2227 AL 0.00 WI 20.0 MW  2.8 3
 SPEC SD       MO  0.3 ST284.4 OM  0.3 f0 12.3 R0.1515 AL      WI      MW  0.2 3
 GAP= 72        1.18       3.5     3.3  5.8 -0.1352E+01  0.5300E+01  0.1626E+01E
 Epicentro: LOS SANTOS - SANTANDER                                             3
 SPEC BAR2SH Z MO 13.3 ST 87.4 OM  1.5 f0 18.8 R0.1023 AL-0.00 WI 20.0 MW  2.8 3
 SPEC BAR2SH Z T 83221 K 0.050 GD  142 VS 5.20 DE 3.20 Q0750.0 QA 1.50 VS 5.20 3
 SPEC BRR HH Z MO 13.2 ST 31.0 OM  1.3 f0 15.0 R0.1283 AL-0.00 WI 20.0 MW  2.7 3
 SPEC BRR HH Z T 83225 K 0.050 GD  158 VS 5.20 DE 3.20 Q0750.0 QA 1.50 VS 5.20 3
 SPEC PAM SH Z MO 13.4 ST  3.7 OM  1.5 f0 6.33 R0.3039 AL-0.00 WI 20.0 MW  2.9 3
 SPEC PAM SH Z T 83226 K 0.050 GD  160 VS 5.20 DE 3.20 Q0750.0 QA 1.50 VS 5.20 3
 SPEC TAM HH Z MO 13.2 ST0.550 OM  1.2 f0 3.85 R0.4997 AL-0.00 WI 20.0 MW  2.7 3
 SPEC TAM HH Z T 83236 K 0.050 GD  208 VS 5.20 DE 3.20 Q0750.0 QA 1.50 VS 5.20 3
 SPEC OCA HH Z MO 13.3 ST 28.6 OM  1.3 f0 13.2 R0.1458 AL-0.00 WI 20.0 MW  2.8 3
 SPEC OCA HH Z T 83236 K 0.050 GD  213 VS 5.20 DE 3.20 Q0750.0 QA 1.50 VS 5.20 3
 SPEC ZAR HH Z MO 13.4 ST924.6 OM  1.3 f0 40.0 R0.0481 AL-0.00 WI 20.0 MW  2.9 3
 SPEC ZAR HH Z T 83245 K 0.050 GD  248 VS 5.20 DE 3.20 Q0750.0 QA 1.50 VS 5.20 3
 SPEC NOR HH Z MO 13.0 ST234.7 OM  0.9 f0 33.3 R0.0578 AL-0.00 WI 20.0 MW  2.6 3
 SPEC NOR HH Z T 83250 K 0.050 GD  274 VS 5.20 DE 3.20 Q0750.0 QA 1.50 VS 5.20 3
 SPEC HEL HH Z MO 13.2 ST0.958 OM  1.0 f0 4.75 R0.4051 AL-0.00 WI 20.0 MW  2.7 3
 SPEC HEL HH Z T 83258 K 0.050 GD  307 VS 5.20 DE 3.20 Q0750.0 QA 1.50 VS 5.20 3
 SPECGUY2CHH Z MO 13.1 ST  0.5 OM  0.9 f0 4.05 R 0.476 AL-0.00 WI 20.0 MW  2.7 3
 SPECGUY2CHH Z T 833 5 K 0.050 GD333.3 VS 5.20 DE 3.20 Q0750.0 QA 1.50 VS 5.20 3
 SPEC ORTCHH Z MO 13.0 ST  1.4 OM  0.7 f0 6.14 R0.3134 AL-0.00 WI 20.0 MW  2.6 3
 SPEC ORTCHH Z T 83323 K 0.050 GD  420 VS 5.20 DE 3.20 Q0750.0 QA 1.50 VS 5.20 3
 OLDACT:REG 13-11-27 08:23 OP:stll STATUS:               ID:20131127082805     3
 ACTION:UPD 14-01-09 16:31 OP:ep   STATUS:               ID:20131127083149 L   I
 OLDACT:UP  13-11-27 12:09 OP:stll STATUS:               ID:20131127082805     3
 2013-11-27-0828-05M.COL___231                                                 6
 STAT SP IPHASW D HRMM SECON CODA AMPLIT PERI AZIMU VELO AIN AR TRES W  DIS CAZ7
 BAR2 SZ IP     C  832  8.38                             170    0.1810 23.5 193 
 BAR2 SZ ES        832 22.78                             170   -0.2710 23.5 193 
 BAR2 SZ I         832 25.18        53.2 0.16            173           23.5 193 
 BRR  HZ EP        832 10.31                             151    0.4710 72.3 298 
 BRR  HN ES        832 26.92                             151    0.9510 72.3 298 
 BRR  SZ I         832 29.92        31.6 0.14            143           72.3 298 
 PAM  SZ IP     C  832 11.37                             150    0.5710 76.7  39 
 PAM  SN ES        832 27.80                             150    0.1010 76.7  39 
 PAM  SZ I         832 28.77        48.8 0.62            143           76.7  39 
 RUS  HZ IP     C  832 12.34                             143   -0.0710  100 177 
 RUS  HN ES        832 29.97                             143   -0.5910  100 177 
 PTB  HZ EP        832 15.10                             131   -0.73 9  149 259 
 PTB  HN ES        832 36.38                             131   -0.26 9  149 259 
 PTB  SZ I         832 38.82        34.4 0.14            125            149 259 
 TAM  HZ IP     D  832 16.65                             130    0.32 9  154 105 
 TAM  HN ES        832 37.52                             130   -0.02 9  154 105 
 TAM  SZ I         832 38.84        11.9 0.60            126            154 105 
 OCA  HZ EP        832 16.79                             128   -0.32 9  161 353 
 OCA  HN ES        832 38.38                             128   -0.53 9  161 353 
 OCA  SZ I         832 42.88        25.4 0.52            121            161 353 
 ZAR  HZ EP        832 21.41                             121    0.01 9  205 292 
 ZAR  HN ES        832 46.68                             121    0.12 9  205 292 
 ZAR  SZ I         832 54.73        20.3 0.20            115            205 292 
 NOR  HZ EP        832 24.70                             117    0.00 8  236 235 
 NOR  HN ES        832 51.93                             117   -0.50 8  236 235 
 NOR  SZ I         832 54.32        12.4 0.16            113            236 235 
 SML  HZ EP        832 24.58                             116   -0.99 8  244 335 
 SML  SZ I         833  0.35        33.8 0.08            110            244 335 
 HEL  HZ EP        832 29.82                             114    0.58 8  273 256 
 HEL  HN ES        833  0.15                             114   -0.37 8  273 256 
 HEL  SZ I         833  7.15         8.0 0.44            109            273 256 
 GUY2CHZ EP        832 33.37                             111    0.73 7  302 235 
 GUY2CHN ES        833  7.46                             111    0.90 7  302 235 
 GUY2CSZ I         833 12.04         5.3 0.36                           302 235 
 ORTC HZ EP        832 42.89                             105   -0.09 6  396 216 
 ORTC HN ES        833 24.67                             105   -0.30 6  396 216 
 ORTC SZ I         833 41.69         6.0 4.28            102            396 216 
                                                                                
