 2010 1027 0105 14.4 L   6.786 -73.105148.3  RSN  8 0.3 2.1LRSN                1
 GAP=163        0.60       3.0     5.7  4.9 -0.6644E+01  0.3543E+00  0.2486E+01E
 Epicentro: LOS SANTOS - SANTANDER                                             3
 ACTION:UP  11-02-18 11:12 OP:tino STATUS:               ID:20101027010514 L   I
 2010-10-27-0101-54S.COL___128                                                 6
 STAT SP IPHASW D HRMM SECON CODA AMPLIT PERI AZIMU VELO SNR AR TRES W  DIS CAZ7
 BAR2 SZ IP        1 5 34.24                             171    -0.110   23 202 
 BAR2 SZ ES   1    1 5 49.73                             171    -0.2 7   23 202 
 BAR2 SZ I         1 5 50.51        25.8 0.46                            23 202 
 BTL  SZ EP        1 5 34.51                             171     0.110   23 309 
 BRR  HZ EP   1    1 5 36.11                             151     0.0 7   76 298 
 BRR  HE ES   1    1 5 53.41                             151     0.3 7   76 298 
 BRR  HZ I         1 5 55.89        25.7 0.12                            76 298 
 RUS  HZ EP   1    1 5 37.94                             145    -0.4 7   99 179 
 RUS  HN ES   1    1 5 57.05                             145     0.1 7   99 179 
 RUS  HZ I         1 5 59.34        12.9 0.52                            99 179 
 GRA  SZ IP        1 5 40.07                             137     0.110  126  15 
 GRA  SZ ES   1    1 5 59.79                             137     0.0 7  126  15 
 GRA  SZ I         1 6  0.89        23.6 0.31                           126  15 
 NOR  SZ EP   2    1 5 50.23                             119    -0.4 4  238 236 
 NOR  SN ES   2    1 6 17.91                             119    -1.0 4  238 236 
 CHI  HZ EP   1    1 5 52.33                             118     0.1 6  248 196 
 CHI  HN ES   2    1 6 22.31                             118     0.6 4  248 196 
 CHI  HZ I         1 6 25.69         6.1 0.31                           248 196 
 PRA  HZ EP   1    1 6  8.66                             107     0.5 4  393 210 
 PRA  HE ES   1    1 6 50.24                             107     0.2 4  393 210 
                                                                                
