 2017 1227 0916 12.3 L   6.564 -73.541 20.3  RSN  5 0.4 1.3LRSN                1
 GAP=125        0.74       3.4     1.9  4.0 -0.3340E+01  0.1497E+01 -0.7348E+01E
 Epicentro: EL CARMEN - SANTANDER                                              3
 ACTION:UPD 18-01-04 13:24 OP:rebc STATUS:               ID:20171227091613dL   I
 OLDACT:DUP 17-12-27 15:24 OP:dnl  STATUS:               ID:20171227090358d    3
 OLDACT:REG 17-12-27 13:30 OP:osc  STATUS:               ID:20171227090357     3
 2017-12-27-0908-00M.COL___451                                                 6
 STAT SP IPHASW D HRMM SECON CODA AMPLIT PERI AZIMU VELO AIN AR TRES W  DIS CAZ7
 BAR2 EZ EP        916 19.65                             115   -0.0510 39.8  85 
 BAR2 EZ ES        916 25.59                             115    0.1010 39.8  85 
 BAR2 EZ I         916 26.48        22.0 0.44             47           39.8  85 
 PTB  HZ EP        916 28.02                             100   -0.4110  101 269 
 PTB  HE ES        916 41.29                             100    0.2610  101 269 
 PTB  HZ I         916 41.93         6.1 0.32             47            101 269 
 SPBC HZ EP        916 30.42                              98   -0.4010  117 210 
 SPBC HE ES        916 45.57                              98    0.2910  117 210 
 SPBC HZ I         916 46.27         9.6 0.12             47            117 210 
 PAM  EZ EP        916 32.90                              56    0.3610  127  47 
 PAM  EE ES        916 48.15                              56   -0.2010  127  47 
 PAM  EZ I         916 51.36         5.1 0.36             47            127  47 
 ZAR  HZ EP   3    916 39.75                              56    1.34 2  178 305 
 ZAR  HE ES   3    916 58.62                              56   -0.17 2  178 305 
 ZAR  HZ I         917  7.49         1.6 0.24             37            178 305 
                                                                                
