 2012  227 0152 13.8 L   6.716 -73.522108.8  RSN  8 0.4 1.6LRSN                1
 GAP= 74        0.83       3.9     4.8  7.8  0.6144E+01  0.2018E+02  0.1260E+02E
 ACTION:UP  12-03-07 16:34 OP:epov STATUS:               ID:20120227015213 L   I
 2012-02-27-0150-00M.COL___192                                                 6
 STAT SP IPHASW D HRMM SECON CODA AMPLIT PERI AZIMU VELO AIN AR TRES W  DIS CAZ7
 BAR2 SZ ES   1    152 41.80                             158   -0.13 7 39.9 110 
 BAR2 SZ I         152 42.94        25.4 0.23                          39.9 110 
 BRR  HZ EP        152 29.46                             154   -0.1910 48.1 334 
 BRR  HZ I         152 30.33        13.8 0.10                          48.1 334 
 BRR  HN ES   1    152 42.35                             154    0.33 7 48.1 334 
 GIR2 SZ EP        152 30.19                             152    0.0010 54.1  42 
 GIR2 SZ ES   1    152 42.99                             152    0.01 7 54.1  42 
 RUS  HZ EP   1    152 34.35                             133   -0.01 7  103 152 
 RUS  HZ I         152 35.06         8.1 0.12                           103 152 
 RUS  HN ES   1    152 50.40                             133    0.01 7  103 152 
 PTB  HZ EP   1    152 32.72                             132   -1.17 7  105 259 
 PAM  SN ES   1    152 52.19                             130    0.04 7  114  53 
 ZAR  HZ EP   1    152 40.72                             118    0.25 7  171 300 
 ZAR  HE ES   1    153  1.76                             118    0.49 7  171 300 
 ZAR  HZ I         153  3.41         5.0 0.40                           171 300 
 CHI  HZ EP   1    152 48.47                             110    0.66 6  232 186 
 CHI  HN ES   1    153 14.63                             110    0.29 6  232 186 
 CHI  HZ I         153 19.81         1.4 0.38                           232 186 
                                                                                
