 2012  827 0618 58.4 L   6.776 -73.161146.4  RSN  7 0.2 1.9LRSN                1
 GAP=181        0.55       3.0     3.7  4.5  0.1879E+01  0.1155E+01 -0.1504E+01E
 Epicentro: LOS SANTOS - SANTANDER                                             3
 ACTION:UPD 12-09-10 11:58 OP:ep   STATUS:               ID:20120827061858 L   I
 2012-08-27-0616-45M.COL___202                                                 6
 STAT SP IPHASW D HRMM SECON CODA AMPLIT PERI AZIMU VELO AIN AR TRES W  DIS CAZ7
 BAR2 SZ EP        619 18.06                             172    0.0310 20.5 187 
 BAR2 SZ ES   1    619 33.49                             172    0.13 7 20.5 187 
 BAR2 SZ I         619 34.79        41.3 0.23                          20.5 187 
 GIR2 SZ EP        619 18.10                             166   -0.0910 33.7 354 
 GIR2 SZ ES   1    619 33.13                             166   -0.51 7 33.7 354 
 BRR  HZ EP        619 19.89                             153    0.3010 71.0 301 
 BRR  HZ I         619 20.16        12.3 0.18                          71.0 301 
 BRR  HN ES   1    619 36.61                             153    0.49 7 71.0 301 
 RUS  HZ EP   1    619 21.96                             145   -0.05 7 98.1 175 
 RUS  HZ I         619 38.86        18.2 0.44                          98.1 175 
 RUS  HN ES   1    619 40.45                             145    0.00 7 98.1 175 
 PTB  HZ EP   1    619 24.92                             133   -0.28 7  146 260 
 PTB  HN ES   1    619 46.02                             133   -0.10 7  146 260 
 PTB  HZ I         619 47.00         5.3 0.55                           146 260 
 OCA  HZ EP   1    619 27.06                             129    0.09 7  163 354 
 OCA  HE ES   1    619 49.19                             129   -0.07 7  163 354 
 OCA  HZ I         619 55.19        10.6 0.36                           163 354 
 ZAR  HE ES   1    619 55.86                             123   -0.24 6  203 293 
 ZAR  HZ I         620  1.02         5.2 0.35                           203 293 
                                                                                
