 2015  127 0413 43.0 L   6.808 -73.147149.9  RSN  4 0.3 1.2LRSN                1
 GAP=142        0.75       5.9     4.6 10.0 -0.3965E+01  0.9261E+00 -0.2818E+02E
 Epicentro: LOS SANTOS - SANTANDER                                             3
 ACTION:UPD 15-03-02 15:42 OP:nd   STATUS:               ID:20150127041343 L   I
 OLDACT:REG 15-01-27 13:02 OP:cam  STATUS:               ID:20150127040814     3
 2015-01-27-0408-14M.COL___277                                                 6
 STAT SP IPHASW D HRMM SECON CODA AMPLIT PERI AZIMU VELO AIN AR TRES W  DIS CAZ7
 PAM  SZ EP        414  5.68                             152    0.0510 76.8  40 
 RUS  HZ EP        414  7.14                             144   -0.0910  102 176 
 RUS  HN ES        414 26.13                             144    0.0010  102 176 
 RUS  HZ I         414 26.44         1.5 0.50            149            102 176 
 PTB  HZ EP        414  9.84                             133   -0.48 9  148 258 
 PTB  HE ES        414 31.84                             133    0.22 9  148 258 
 PTB  HZ I         414 38.13         2.4 0.40            133            148 258 
 SPBC HZ EP        414 12.42                             130    0.54 9  164 219 
 SPBC HN ES        414 34.19                             130   -0.21 9  164 219 
 SPBC HZ I         414 38.63         3.0 0.16            132            164 219 
                                                                                
