 2011  527 0532 16.0 L   6.690 -73.221159.3  RSN  6 0.5 1.5LRSN                1
 GAP=139        1.16       8.1    10.5 11.4  0.5560E+00 -0.1476E+02 -0.4404E+01E
 Epicentro: VILLANUEVA - SANTANDER                                             3
 ACTION:UP  11-06-29 08:56 OP:tino STATUS:               ID:20110527053216 L   I
 2011-05-27-0528-41S.COL___115                                                 6
 STAT SP IPHASW D HRMM SECON CODA AMPLIT PERI AZIMU VELO SNR AR TRES W  DIS CAZ7
 BAR2 SZ EP   1    532 37.00                             176    -0.1 7   12 158 
 BAR2 SZ ES   1    532 52.64                             176    -1.0 7   12 158 
 BAR2 SZ I         532 53.30         5.4 0.17                            12 158 
 BTL  SZ EP   1    532 37.42                             170     0.1 7   26 349 
 BRR  HZ EP   1    532 39.10                             155     0.4 7   71 310 
 BRR  HZ I         532 39.50         7.9 0.11                            71 310 
 BRR  HN ES        532 56.69                             155     0.410   71 310 
 RUS  HZ EP   1    532 40.75                             150     0.3 7   89 170 
 RUS  HN ES   1    533  0.01                             150     0.6 7   89 170 
 RUS  HZ I         533  1.13         3.0 0.25                            89 170 
 GRA  SZ EP   1    532 43.17                             137    -0.5 7  140  19 
 NOR  SN ES   1    533 17.91                             123    -0.6 6  221 236 
                                                                                
