 2016 1227 0726 17.9 L   6.533 -73.593  4.0  RSN 14 0.6 1.8LRSN                1
 GAP= 71        1.36       3.0     2.3  6.8  0.4853E+00 -0.1651E+01 -0.3843E+01E
 Epicentro: EL CARMEN - SANTANDER                                              3
 ACTION:UPD 17-01-11 20:19 OP:rebc STATUS:               ID:20161227072617 L   I
 OLDACT:UP  16-12-27 18:34 OP:edw  STATUS:               ID:20161227071740     3
 OLDACT:UP  16-12-27 18:33 OP:edw  STATUS:               ID:20161227071740     3
 OLDACT:REG 16-12-27 13:31 OP:edw  STATUS:               ID:20161227071740     3
 2016-12-27-0718-00M.COL___366                                                 6
 STAT SP IPHASW D HRMM SECON CODA AMPLIT PERI AZIMU VELO AIN AR TRES W  DIS CAZ7
 BAR2 EZ IP     D  726 26.04                              47    0.3910 45.9  82 
 BAR2 EZ ES        726 32.29                              47    0.5610 45.9  82 
 BAR2 EZ I         726 33.07        90.6 0.34             47           45.9  82 
 BRR  HZ EP        726 28.22                              47   -0.0510 64.8 348 
 BRR  HN ES        726 36.76                              47    0.3610 64.8 348 
 BRR  HZ I         726 37.74        29.1 0.12             47           64.8 348 
 RUS  HZ IP        726 32.89                              47    0.2210 90.5 141 
 RUS  HN ES        726 43.16                              47   -1.0710 90.5 141 
 RUS  HZ I         726 45.00        55.2 0.20             47           90.5 141 
 PTB  HZ IP     D  726 32.78                              47   -0.1410 95.4 270 
 PTB  HN ES        726 44.39                              47   -0.2910 95.4 270 
 PTB  HZ I         726 45.86        66.4 0.20             47           95.4 270 
 PAM  EZ EP     D  726 39.18                              47    0.0610  133  48 
 PAM  EN ES        726 54.93                              47   -0.7710  133  48 
 PAM  EZ I         726 59.66        25.8 0.18             47            133  48 
 ZAR  HZ EP        726 44.14                              47   -0.90 9  175 307 
 ZAR  HN ES   4    727  3.16                              47   -3.08 0  175 307 
 ZAR  HZ I         727  4.75        19.4 0.24             47            175 307 
 NOR  HZ EP        726 45.32                              37   -0.02 9  177 233 
 NOR  HN ES   4    727  4.92                              37   -1.85 0  177 233 
 NOR  HZ I         727  7.42        17.7 0.22             37            177 233 
 TAM  HZ EP   2    726 49.01                              37    0.90 4  200  93 
 TAM  HN ES   4    727 13.94                              37    2.23 0  200  93 
 CHI  HZ EP   4    726 52.80                              37    2.82 0  211 184 
 CHI  HN ES   4    727 18.63                              37    3.58 0  211 184 
 CHI  HZ I         727 23.05         3.5 0.56             37            211 184 
 GUY2CHZ EP        726 54.41                              37    0.26 8  244 234 
 GUY2CHN ES   4    727 20.95                              37   -1.52 0  244 234 
 GUY2CHZ I         727 25.74         2.4 0.19                           244 234 
 URE  HZ EP        726 55.35                              37    0.59 8  253 302 
 URE  HN ES        727 22.79                              37   -0.76 8  253 302 
 URE  HZ I         727 30.19         5.4 0.38             37            253 302 
 ELA  HZ EP        726 58.54                              37    0.73 8  272 227 
 ELA  HN ES   4    727 30.50                              37    1.53 0  272 227 
 ELA  HZ I         727 34.61         3.8 0.46             37            272 227 
 CBOC HZ EP        726 58.85                              37    0.82 7  278 255 
 CBOC HN ES   4    727 31.46                              37    2.09 0  278 255 
 CBOC HZ I         727 39.16         2.7 0.46             37            278 255 
 ORTC HZ EP        727  6.67                              36    0.70 7  343 212 
 ORTC HE ES   4    727 45.63                              36    2.13 0  343 212 
 ORTC HZ I         727 58.58         2.8 0.46             36            343 212 
                                                                                
