 2013  527 0820 59.4 L   6.770 -73.179143.1  RSN 11 0.4 2.1LRSN                1
 GAP=134        0.97       3.4     4.2  5.7 -0.4327E+01  0.8655E+01  0.8903E-02E
 Epicentro: LOS SANTOS - SANTANDER                                             3
 ACTION:UPD 13-06-20 09:54 OP:ep   STATUS:               ID:20130527082059 L   I
 2013-05-27-0820-00M.COL___261                                                 6
 STAT SP IPHASW D HRMM SECON CODA AMPLIT PERI AZIMU VELO AIN AR TRES W  DIS CAZ7
 BAR2 SZ EP        821 18.73                             172    0.1310 19.7 181 
 BAR2 SZ ES   1    821 33.95                             172    0.34 7 19.7 181 
 BAR2 SZ I         821 34.87        31.0 0.24            170           19.7 181 
 GIR2 SZ EP        821 18.92                             166    0.1210 34.1 357 
 GIR2 SZ ES        821 33.65                             166   -0.3010 34.1 357 
 GIR2 SZ I         821 36.24        26.4 0.26            164           34.1 357 
 BRR  HZ IP     C  821 20.71                             153    0.5710 69.7 302 
 BRR  HN ES   2    821 36.29                             153   -0.05 5 69.7 302 
 BRR  HZ I         821 40.37        26.1 0.12            149           69.7 302 
 PAM  SZ IP     C  821 21.79                             148    0.2010 82.2  40 
 PAM  SN ES        821 39.01                             148    0.0810 82.2  40 
 PAM  SZ I         821 41.43        21.2 0.42            153           82.2  40 
 RUS  HZ EP        821 22.46                             144   -0.1810 97.6 174 
 RUS  HN ES        821 40.81                             144    0.0210 97.6 174 
 RUS  HZ I         821 42.67        14.0 0.22            147           97.6 174 
 PTB  HZ EP        821 25.30                             132   -0.43 9  144 260 
 PTB  HN ES        821 45.49                             132   -0.81 9  144 260 
 PTB  HZ I         821 51.41        15.0 0.26            131            144 260 
 OCA  HZ EP   2    821 26.72                             128   -1.02 5  163 355 
 OCA  HN ES        821 49.85                             128   -0.02 9  163 355 
 OCA  HZ I         821 53.64        12.3 0.12            130            163 355 
 NOR  HZ EP        821 34.68                             118    0.27 8  230 235 
 NOR  HN ES        822  1.56                             118   -0.19 8  230 235 
 NOR  HZ I         822 10.19         8.4 0.16            119            230 235 
 SML  HZ EP        821 35.61                             117   -0.39 8  245 336 
 SML  HN ES   2    822  5.43                             117    0.85 4  245 336 
 SML  HZ I         822  8.59        23.0 0.26            118            245 336 
 HEL  HZ EP   4    821 40.27                             114    1.31 0  268 256 
 HEL  HN ES        822 10.91                             114    1.07 8  268 256 
 HEL  HZ I         822 18.90         6.7 0.50            115            268 256 
 PRA  HZ EP        821 52.04                             106   -0.21 6  387 209 
 PRA  HN ES   4    822 29.98                             106   -3.52 0  387 209 
 PRA  HZ I         822 37.90         3.5 0.30            108            387 209 
                                                                                
