 2014  227 0934 10.9 L   6.773 -73.160135.2  RSN  4 0.5 1.3LRSN                1
 GAP=139        1.27       7.3     7.3 14.2 -0.1628E+02  0.3318E+02 -0.5197E+01E
 Epicentro: LOS SANTOS - SANTANDER                                             3
 ACTION:UPD 14-03-10 08:14 OP:ep   STATUS:               ID:20140227093410 L   I
 OLDACT:DUP 14-02-27 12:30 OP:stll STATUS:               ID:20140227092813d    3
 2014-02-27-0928-10M.COL___228                                                 6
 STAT SP IPHASW D HRMM SECON CODA AMPLIT PERI AZIMU VELO AIN AR TRES W  DIS CAZ7
 BAR2 SZ EP        934 29.86                             171    0.6610 20.1 187 
 BAR2 SZ I         934 30.12         8.7 0.38            170           20.1 187 
 PAM  SZ EP        934 32.49                             148    0.2710 80.7  39 
 PAM  SZ I         934 32.83         2.9 0.20            151           80.7  39 
 PAM  SN ES        934 48.51                             148   -0.3310 80.7  39 
 RUS  HZ EP        934 33.57                             142    0.1610 97.7 175 
 RUS  HN ES        934 50.68                             142   -0.2910 97.7 175 
 RUS  HZ I         934 53.99         1.5 0.64            143           97.7 175 
 PTB  HZ EP        934 35.89                             130   -0.94 9  146 260 
 PTB  HN ES        934 57.47                             130    0.41 9  146 260 
 PTB  HZ I         934 59.95         3.2 0.12            131            146 260 
                                                                                
