 2017 1227 0410 34.2 L   6.750 -73.136146.8  RSN  6 0.3 1.5LRSN                1
 GAP=203        0.79       3.5     5.0  6.2 -0.3632E+01  0.1047E+02 -0.5681E-01E
 Epicentro: LOS SANTOS - SANTANDER                                             3
 ACTION:UPD 18-01-04 13:24 OP:rebc STATUS:               ID:20171227041034 L   I
 OLDACT:REG 17-12-27 13:05 OP:osc  STATUS:               ID:20171227040736     3
 2017-12-27-0408-00M.COL___454                                                 6
 STAT SP IPHASW D HRMM SECON CODA AMPLIT PERI AZIMU VELO AIN AR TRES W  DIS CAZ7
 BAR2 EZ EP        410 53.86                             173    0.0410 18.1 196 
 BAR2 EZ ES        411  8.83                             173   -0.3310 18.1 196 
 BAR2 EZ I         411 10.09         6.3 0.10            169           18.1 196 
 PTB  HZ EP        411  0.72                             132   -0.49 9  148 261 
 PTB  HE ES        411 22.21                             132   -0.11 9  148 261 
 PTB  HZ I         411 28.07         2.4 0.28            131            148 261 
 SPBC HZ EP        411  2.85                             130    0.46 9  160 221 
 SPBC HE ES        411 24.79                             130    0.37 9  160 221 
 SPBC HZ I         411 29.47         4.7 0.20            130            160 221 
 OCA  HN ES        411 25.99                             129    0.35 9  166 353 
 ZAR  HZ EP        411  6.53                             122   -0.46 8  207 293 
 ZAR  HE ES        411 32.85                             122    0.25 8  207 293 
 ZAR  HZ I         411 38.16         3.3 0.14            123            207 293 
 GUY2CHZ EP        411 17.54                             113   -0.01 7  299 236 
 GUY2CHE ES        411 51.36                             113   -0.04 7  299 236 
 GUY2CHZ I         412  0.49         2.5 0.54                           299 236 
                                                                                
