 2013  927 0933 34.3 L   6.774 -73.157138.0  RSN  7 0.5 1.3LRSN                1
 GAP=136        0.96       4.9     5.3  8.3 -0.8362E+01  0.4798E+01  0.6060E+01E
 Epicentro: LOS SANTOS - SANTANDER                                             3
 ACTION:UPD 13-10-22 09:25 OP:ep   STATUS:               ID:20130927093334 L   I
 OLDACT:UP  13-09-27 13:57 OP:mh   STATUS:               ID:20130927092959     3
 OLDACT:REG 13-09-27 09:52 OP:mh   STATUS:               ID:20130927092959     3
 2013-09-27-0929-59M.COL___272                                                 6
 STAT SP IPHASW D HRMM SECON CODA AMPLIT PERI AZIMU VELO AIN AR TRES W  DIS CAZ7
 BAR2 SZ EP   1    933 52.73                             171   -0.16 7 20.3 188 
 BAR2 SZ I         934 10.38         4.4 0.28            168           20.3 188 
 BRR  HZ EP        933 54.78                             151    0.1910 71.5 301 
 BRR  HN ES        934 10.67                             151    0.2210 71.5 301 
 BRR  HZ I         934 13.42         5.0 0.32            153           71.5 301 
 PAM  SZ EP        933 55.61                             149   -0.2310 80.4  39 
 PAM  SN ES        934 12.59                             149   -0.0910 80.4  39 
 PAM  SZ I         934 14.93         4.2 0.46            150           80.4  39 
 RUS  HZ EP   1    933 56.86                             143   -0.19 7 97.8 175 
 RUS  HN ES   1    934 15.43                             143    0.61 7 97.8 175 
 RUS  HZ I         934 18.26         1.3 0.36            141           97.8 175 
 PTB  HZ EP   1    933 59.65                             131   -0.79 7  146 260 
 PTB  HN ES   1    934 20.18                             131   -0.67 7  146 260 
 PTB  HZ I         934 26.52         3.5 0.42            131            146 260 
 SPBC HZ EP   1    934  1.82                             128   -0.06 7  160 219 
 SPBC HN ES        934 23.44                             128    0.02 9  160 219 
 SPBC HZ I         934 28.65         2.9 0.24            127            160 219 
 ZAR  HZ EP   1    934  7.39                             121    1.19 6  204 293 
 ZAR  HN ES   4    934 33.49                             121    2.38 0  204 293 
                                                                                
