 2012  627 0721  7.8 L   6.654 -73.155140.5  RSN  4 0.3 1.2LRSN                1
 GAP=254        0.59       8.8     5.7  7.2  0.1870E+02  0.1224E+02  0.5405E+01E
 Epicentro: VILLANUEVA - SANTANDER                                             3
 ACTION:UPD 12-08-06 17:52 OP:ep   STATUS:               ID:20120627072107 L   I
 2012-06-27-0720-00M.COL___201                                                 6
 STAT SP IPHASW D HRMM SECON CODA AMPLIT PERI AZIMU VELO AIN AR TRES W  DIS CAZ7
 BAR2 SZ EP   1    721 26.58                             177    0.04 7 7.48 203 
 BAR2 SZ ES   1    721 41.14                             177   -0.04 7 7.48 203 
 BAR2 SZ I         721 42.17         3.2 0.45                          7.48 203 
 BRR  HZ EP   1    721 28.39                             149   -0.45 7 79.3 309 
 BRR  HN ES   1    721 45.55                             149    0.28 7 79.3 309 
 BRR  HZ I         721 49.64         3.0 0.13                          79.3 309 
 PTB  HZ EP   1    721 34.47                             131    0.47 7  144 265 
 PTB  HN ES   1    721 54.21                             131   -0.25 7  144 265 
 PTB  HZ I         721 55.95         2.3 0.41                           144 265 
 ZAR  HE ES   1    722  5.93                             120   -0.03 6  210 296 
 ZAR  HZ I         722  7.00         1.5 0.27                           210 296 
                                                                                
