 2010  527 0441 26.4 L   6.848 -73.108138.1  RSN  6 0.5 1.8LRSN                1
 GAP=185        0.94       6.0    12.0 14.7 -0.3950E+02  0.6509E+02 -0.8358E+01E
 Epicentro: LOS SANTOS - SANTANDER                                             3
 ACTION:UP  10-08-24 10:07 OP:vdl  STATUS:               ID:20100527044126 L   I
 2010-05-27-0438-50S.COL___108                                                 6
 STAT SP IPHASW D HRMM SECON CODA AMPLIT PERI AZIMU VELO SNR AR TRES W  DIS CAZ7
 BAR2 SZ EP        441 44.90                             167    -0.410   30 197 
 BAR2 SZ ES   2    442  0.39                             167     0.4 5   30 197 
 GUE  SZ EP   1    441 50.60                             139     0.7 7  110  11 
 GUE  SZ ES   2    442  8.54                             139     0.2 5  110  11 
 OCA  SZ EP   1    441 53.50                             128    -0.2 7  156 351 
 OCA  SZ ES   2    442 14.48                             128    -0.5 5  156 351 
 CHI  HN ES   1    442 33.78                             115    -0.2 6  255 196 
 CHI  HZ I         442 40.30         2.3 0.47                           255 196 
 HEL  HN ES   2    442 37.69                             112    -0.7 4  277 255 
 HEL  HZ I         442 43.31         4.4 0.11                           277 255 
 RREF BN ES   1    442 50.31                             109     1.0 5  328 229 
 RREF BZ I         442 56.76         3.5 0.07                           328 229 
                                                                                
