 2014 1127 0551  6.6 L   6.834 -73.144141.5  RSN 12 0.4 1.5LRSN                1
 GAP=135        0.98       3.0     3.8  5.4 -0.3921E+00  0.6472E+01  0.2996E+01E
 Epicentro: LOS SANTOS - SANTANDER                                             3
 ACTION:UPD 14-12-19 15:48 OP:nd   STATUS:               ID:20141127055106 L   I
 OLDACT:REG 14-11-27 13:24 OP:fm   STATUS:               ID:20141127054735     3
 2014-11-27-0547-35M.COL___306                                                 6
 STAT SP IPHASW D HRMM SECON CODA AMPLIT PERI AZIMU VELO AIN AR TRES W  DIS CAZ7
 BAR2 SZ EP        551 25.78                             169   -0.0010 27.0 189 
 BAR2 SZ ES        551 41.02                             169    0.2610 27.0 189 
 BAR2 SZ I         551 42.05         8.1 0.22            166           27.0 189 
 BRR  HZ EP        551 26.74                             152   -0.4410 69.7 296 
 BRR  HE ES        551 43.66                             152    0.4110 69.7 296 
 BRR  HZ I         551 48.02         6.1 0.16            151           69.7 296 
 PAM  SZ EP        551 28.59                             151    0.4310 74.4  41 
 PAM  SN ES        551 45.27                             151    0.2710 74.4  41 
 PAM  SZ I         551 46.23         4.5 0.24            157           74.4  41 
 RUS  HZ EP        551 30.23                             142    0.0410  104 176 
 RUS  HN ES        551 47.91                             142   -0.7010  104 176 
 RUS  HZ I         551 50.25         2.1 0.42            143            104 176 
 PTB  HZ EP        551 33.14                             131   -0.15 9  149 257 
 PTB  HN ES        551 53.57                             131   -0.56 9  149 257 
 PTB  HZ I         551 56.32         3.9 0.10            131            149 257 
 OCA  HN ES        551 55.00                             129   -0.77 9  157 353 
 OCA  HZ I         551 56.96         4.1 0.16            133            157 353 
 SPBC HZ EP        551 34.78                             127   -0.27 9  166 218 
 SPBC HE ES        551 57.63                             127    0.38 9  166 218 
 SPBC HZ I         552  4.84         4.4 0.24            128            166 218 
 ZAR  HZ EP        551 38.97                             122    0.34 9  203 291 
 ZAR  HN ES        552  4.06                             122    0.43 9  203 291 
 ZAR  HZ I         552  9.38         4.6 0.32            123            203 291 
 CHI  HZ EP        551 44.98                             116    0.54 8  252 195 
 CHI  HN ES        552 14.03                             116    0.05 8  252 195 
 CHI  HZ I         552 22.09         1.2 0.42            117            252 195 
 HEL  HZ EP        551 46.55                             114   -0.16 8  273 255 
 HEL  HE ES        552 18.17                             114    0.17 8  273 255 
 HEL  HZ I         552 24.96         1.5 0.30            115            273 255 
 GUY2CHZ EP        551 50.20                             111   -0.06 7  304 234 
 GUY2CHN ES   4    552 27.12                             111    2.79 0  304 234 
 GUY2CHZ I         552 35.00         1.9 0.76                           304 234 
 MON  HN ES   4    552 31.06                             108   -2.01 0  352 308 
 MON  HZ I         552 32.75         1.1 0.20            110            352 308 
                                                                                
