 2014  127 0411  6.3 L   6.743 -73.143143.2  RSN 10 0.6 1.5LRSN                1
 GAP=139        1.29       4.2     6.1  7.8 -0.5313E+01  0.1191E+02  0.5657E+01E
 Epicentro: JORDAN - SANTANDER                                                 3
 ACTION:UPD 14-03-13 09:58 OP:ep   STATUS:               ID:20140127041106 L   I
 OLDACT:UP  14-01-28 05:14 OP:CAM  STATUS:               ID:20140127041106 L   3
 OLDACT:DUP 14-01-27 12:41 OP:stll STATUS:               ID:20140127040809d    3
 2014-01-27-0408-08M.COL___234                                                 6
 STAT SP IPHASW D HRMM SECON CODA AMPLIT PERI AZIMU VELO AIN AR TRES W  DIS CAZ7
 BAR2 SZ EP        411 25.64                             173    0.1210 17.2 195 
 BAR2 SZ ES        411 40.40                             173   -0.1010 17.2 195 
 BAR2 SZ I         411 42.37        12.9 0.24            172           17.2 195 
 BRR  HZ EP        411 27.78                             151    0.4010 74.7 303 
 BRR  HZ I         411 30.74         4.5 0.40            151           74.7 303 
 BRR  HN ES        411 44.98                             151    1.1610 74.7 303 
 PAM  SZ EP        411 28.78                             149    0.2310 82.2  37 
 PAM  SN ES        411 45.56                             149   -0.3310 82.2  37 
 PAM  SZ I         411 50.66         3.1 0.42            151           82.2  37 
 RUS  HZ EP        411 29.43                             145    0.0710 94.3 176 
 RUS  HN ES        411 47.16                             145   -0.1710 94.3 176 
 RUS  HZ I         411 49.56         4.4 0.56            146           94.3 176 
 PTB  HN ES   1    411 52.51                             132   -1.30 7  147 261 
 PTB  HZ I         411 57.47         5.4 0.10            132            147 261 
 SPBC HZ EP        411 34.28                             129    0.11 9  159 221 
 SPBC HZ I         411 34.70         8.5 0.18            130            159 221 
 SPBC HN ES        411 55.29                             129   -0.61 9  159 221 
 CHI  HZ EP        411 42.78                             117   -0.44 8  243 196 
 CHI  HN ES        412 12.13                             117    0.13 8  243 196 
 CHI  HZ I         412 15.51         1.1 0.26            118            243 196 
 SML  HN ES        412 11.38                             116   -1.01 8  250 336 
 GUY2CHZ EP        411 49.74                             112    0.31 7  298 236 
 GUY2CHN ES        412 23.39                             112    0.34 7  298 236 
 GUY2CHZ I         412 31.85         2.4 0.52                           298 236 
 RREF BZ EP   4    411 53.53                             111    1.62 0  318 230 
 RREF BN ES   1    412 28.03                             111    0.56 5  318 230 
 RREF BZ I         412 36.02         1.6 0.34            111            318 230 
                                                                                
