 2017  927 0218 41.8 L   6.763 -73.394111.5  RSN  5 0.2 1.4LRSN                1
 GAP=136        0.65       2.9     2.9  4.7  0.2675E+01  0.3528E+01 -0.1678E+00E
 Epicentro: SAN VICENTE DE CHUCURI - SANTANDER                                 3
 ACTION:UPD 17-10-05 19:16 OP:rebc STATUS:               ID:20170927021841 L   I
 OLDACT:UP  17-09-27 15:24 OP:edw  STATUS:               ID:20170927021743     3
 OLDACT:REG 17-09-27 12:24 OP:edw  STATUS:               ID:20170927021743     3
 2017-09-27-0218-00M.COL___447                                                 6
 STAT SP IPHASW D HRMM SECON CODA AMPLIT PERI AZIMU VELO AIN AR TRES W  DIS CAZ7
 BAR2 EZ EP        218 57.51                             164   -0.0710 30.1 129 
 BAR2 EZ ES        219 10.17                             164    0.3310 30.1 129 
 BAR2 EZ I         219 10.85        19.6 0.50            167           30.1 129 
 BRR  HZ IP     C  218 57.86                             153   -0.3310 51.8 317 
 BRR  HN ES        219 10.93                             153   -0.0110 51.8 317 
 PAM  EZ EP        219  2.28                             135   -0.0610 99.8  50 
 PAM  EN ES        219 18.31                             135   -0.0110 99.8  50 
 PAM  EZ I         219 19.71         3.1 0.16            138           99.8  50 
 RUS  HZ EP        219  2.95                             135    0.4010  102 160 
 RUS  HN ES        219 18.32                             135   -0.3810  102 160 
 RUS  HZ I         219 20.36         2.3 0.18            136            102 160 
 ZAR  HZ EP        219  9.89                             117    0.15 9  181 297 
 ZAR  HN ES        219 31.52                             117    0.02 9  181 297 
 ZAR  HZ I         219 37.16         4.6 0.32            117            181 297 
                                                                                
