 2014  227 0618 47.9 L   6.583 -73.332119.4  RSN  4 0.3 0.9LRSN                1
 GAP=132        0.79       4.5     4.0  7.6 -0.2560E+01  0.1139E+02 -0.1024E+01E
 Epicentro: HATO - SANTANDER                                                   3
 ACTION:UPD 14-03-10 08:13 OP:ep   STATUS:               ID:20140227061847 L   I
 OLDACT:REG 14-02-27 08:22 OP:y    STATUS:               ID:20140227061805     3
 2014-02-27-0618-05M.COL___231                                                 6
 STAT SP IPHASW D HRMM SECON CODA AMPLIT PERI AZIMU VELO AIN AR TRES W  DIS CAZ7
 BAR2 SZ EP        619  4.33                             172    0.1310 16.5  86 
 BAR2 SZ ES        619 17.13                             172    0.2010 16.5  86 
 RUS  HZ EP        619  8.08                             144    0.4510 81.1 160 
 RUS  HN ES        619 22.63                             144   -0.4010 81.1 160 
 RUS  HZ I         619 25.18         1.4 0.44            144           81.1 160 
 PAM  SE ES        619 26.81                             135   -0.1610  109  40 
 PTB  HZ EP        619 10.21                             130   -0.3810  124 268 
 PTB  HN ES        619 28.43                             130    0.1310  124 268 
 PTB  HZ I         619 29.95         1.6 0.42            131            124 268 
                                                                                
