 2010  527 0936 34.5 L   6.770 -72.984146.7  RSN  9 0.5 2.2LRSN                1
 GAP=151        1.01       4.7     7.1  7.3 -0.1935E+02 -0.4772E+01  0.6683E+01E
 Epicentro: CEPITA - SANTANDER                                                 3
 ACTION:UP  10-08-24 10:07 OP:vdl  STATUS:               ID:20100527093634 L   I
 2010-05-27-0932-22S.COL___108                                                 6
 STAT SP IPHASW D HRMM SECON CODA AMPLIT PERI AZIMU VELO SNR AR TRES W  DIS CAZ7
 BAR2 SZ IP        936 54.07                             168    -0.310   30 228 
 BAR2 SZ ES   1    937  9.44                             168    -0.4 7   30 228 
 GIR2 SZ EP        936 55.17                             164     0.610   41 326 
 GIR2 SZ ES   2    937  9.74                             164    -0.5 5   41 326 
 GUE  SZ EP        936 59.30                             139    -0.110  117   3 
 GUE  SZ ES   1    937 18.41                             139    -0.3 7  117   3 
 GRA  SZ EP        937  0.02                             137     0.310  125   9 
 GRA  SZ ES        937 19.62                             137     0.210  125   9 
 OCA  SZ EP        937  3.12                             129    -0.3 9  167 347 
 OCA  SZ ES   1    937 26.86                             129     0.8 7  167 347 
 CHI  HZ EP   1    937 12.28                             117    -0.2 6  251 199 
 CHI  HN ES   1    937 42.09                             117     0.0 6  251 199 
 CHI  HZ I         937 50.31         7.7 0.53                           251 199 
 ROSC BN ES   2    937 45.33                             116     1.6 4  260 215 
 ROSC BZ I         937 52.01        13.8 0.69                           260 215 
 HEL  HZ EP        937 15.83                             114    -0.8 7  289 257 
 HEL  HN ES   1    937 49.33                             114    -0.1 5  289 257 
 HEL  HZ I         937 53.27        14.1 0.15                           289 257 
 SDV  BZ EP        937 23.38                             109     0.1 6  349  48 
 SDV  BN ES   1    938  1.25                             109     0.0 5  349  48 
 SDV  BZ I         938  3.24         3.1 0.75                           349  48 
                                                                                
