 2017  927 0559  0.8 L   6.426 -73.413113.4  RSN  4 0.3 0.7LRSN                1
 GAP=158        0.86       7.5     9.8  9.4  0.6019E+02  0.5258E+02  0.2787E+02E
 Epicentro: SIMACOTA - SANTANDER                                               3
 ACTION:UPD 17-10-05 19:16 OP:rebc STATUS:               ID:20170927055900 L   I
 OLDACT:UP  17-09-27 18:01 OP:edw  STATUS:               ID:20170927055740d    3
 OLDACT:DUP 17-09-27 17:57 OP:edw  STATUS:               ID:20170927055740d    3
 OLDACT:UP  17-09-27 17:55 OP:edw  STATUS:               ID:20170927055739     3
 OLDACT:UP  17-09-27 17:54 OP:edw  STATUS:               ID:20170927055739     3
 OLDACT:REG 17-09-27 12:43 OP:edw  STATUS:               ID:20170927055739     3
 2017-09-27-0558-00M.COL___447                                                 6
 STAT SP IPHASW D HRMM SECON CODA AMPLIT PERI AZIMU VELO AIN AR TRES W  DIS CAZ7
 BAR2 EZ EP        559 17.45                             163    0.6510 31.5  54 
 BAR2 EZ ES        559 29.04                             163   -0.2310 31.5  54 
 BAR2 EZ I         559 31.47         1.8 0.20            164           31.5  54 
 RUS  HZ EP        559 18.86                             147   -0.2810 69.4 148 
 RUS  HN ES        559 33.54                             147    0.1010 69.4 148 
 RUS  HZ I         559 34.67         1.2 0.09            148           69.4 148 
 BRR  HZ EP        559 18.97                             141   -0.3910 82.2 336 
 BRR  HN ES        559 33.90                             141    0.0710 82.2 336 
 ZAR  HN ES        559 54.19                             115    0.09 9  198 307 
                                                                                
