 2016 1027 0345 48.1 L   6.862 -73.119142.2  RSN 11 0.6 2.2LRSN                1
 GAP=137        1.22       4.9     5.5  6.9 -0.6368E+01  0.1363E+02  0.7543E+01E
 Epicentro: LOS SANTOS - SANTANDER                                             3
 ACTION:UPD 16-11-09 19:23 OP:rebc STATUS:               ID:20161027034548 L   I
 OLDACT:REG 16-10-27 12:01 OP:cog  STATUS:               ID:20161027033744     3
 2016-10-27-0338-00M.COL___349                                                 6
 STAT SP IPHASW D HRMM SECON CODA AMPLIT PERI AZIMU VELO AIN AR TRES W  DIS CAZ7
 BAR2 EZ IP        346  7.41                             167   -0.1010 30.6 193 
 BAR2 EZ EP     C  346  7.42                             167   -0.0910 30.6 193 
 BAR2 EZ ES        346 22.43                             167   -0.1910 30.6 193 
 PAM  EZ EP        346  9.89                             153    0.3410 70.3  41 
 PAM  EN ES        346 26.36                             153    0.1010 70.3  41 
 PAM  EZ ES        346 26.55                                           70.3  41 
 BRR  HZ IP     C  346  8.97                             152    0.1010 70.9 293 
 BRR  HE ES        346 25.62                             152    0.5610 70.9 293 
 BRR  HZ I         346 28.60        39.6 0.14            151           70.9 293 
 RUS  HZ EP        346 11.94                             141   -0.0910  107 178 
 RUS  HE ES        346 30.47                             141   -0.2110  107 178 
 RUS  HZ I         346 32.17        16.6 0.32            142            107 178 
 PTB  HZ IP     C  346 13.99                             130   -1.22 9  152 257 
 PTB  HN ES   2    346 35.46                             130   -0.87 5  152 257 
 PTB  HZ I         346 37.87        40.8 0.24            130            152 257 
 SPBC HZ EP        346 16.15                             127   -0.90 9  170 218 
 SPBC HE ES        346 39.94                             127    0.33 9  170 218 
 SPBC HZ I         346 44.04        22.8 0.20            127            170 218 
 CHI  HZ EP        346 25.88                             116   -0.56 8  256 195 
 CHI  HE ES        346 57.18                             116    0.85 8  256 195 
 CHI  HZ I         347  0.44         5.9 0.26            117            256 195 
 HEL  HZ EP        346 29.55                             114    0.88 7  277 255 
 HEL  HN ES   2    346 59.15                             114   -1.15 4  277 255 
 HEL  HZ I         347  6.38         9.7 0.50            114            277 255 
 GUY2CHZ EP   3    346 33.54                             111    1.24 2  308 234 
 GUY2CHN ES        347  7.14                             111    0.39 7  308 234 
 GUY2CHZ I         347 15.73        11.2 0.34                           308 234 
 CBOC HZ EP        346 36.03                             109    0.57 7  339 251 
 CBOC HE ES        347 12.19                             109   -0.20 7  339 251 
 CBOC HZ I         347 13.64         3.0 0.18            110            339 251 
 ORTC HZ EP        346 42.95                             105    0.17 6  403 216 
 ORTC HN ES        347 26.36                             105    0.95 6  403 216 
 ORTC HZ I         347 30.42         4.2 0.39            106            403 216 
                                                                                
