 2011  327 0745 20.1 L   6.053 -74.230 89.0  RSN  4 0.3 1.2LRSN                1
 GAP=176        0.54       5.3     5.0 17.6 -0.1956E+02 -0.2551E+02  0.3108E+02E
 Epicentro: LA BELLEZA - SANTANDER                                             3
 ACTION:UP  11-06-16 14:35 OP:jfem STATUS:               ID:20110327074520 L   I
 2011-03-27-0744-16S.COL___138                                                 6
 STAT SP IPHASW D HRMM SECON CODA AMPLIT PERI AZIMU VELO SNR AR TRES W  DIS CAZ7
 BRR  HZ EP   2    745 40.79                             119    -0.4 5  130  26 
 BRR  HN ES   2    745 57.84                             119     0.2 5  130  26 
 BRR  HZ I         745 58.90         4.2 0.15                           130  26 
 BTL  SZ EP   1    745 42.89                             117     0.0 8  143  48 
 HEL  HZ IP     C  745 43.16                             117    -0.110  145 276 
 HEL  HE ES   2    746  1.42                             117     0.1 5  145 276 
 HEL  HZ I         746  2.98         3.2 0.15                           145 276 
 RREF HZ EP   1    745 47.74                             112     0.4 7  178 224 
 RREF HN ES   1    746  8.27                             112    -0.2 7  178 224 
 RREF HZ I         746 11.69         1.6 0.18                           178 224 
                                                                                
