 2014  127 0617 47.6 L   6.759 -73.122142.8  RSN  9 0.5 1.8LRSN                1
 GAP=141        1.11       4.3     4.6  6.4 -0.4125E+01  0.7885E+01  0.6244E+01E
 Epicentro: LOS SANTOS - SANTANDER                                             3
 ACTION:UPD 14-03-13 09:58 OP:ep   STATUS:               ID:20140127061747 L   I
 OLDACT:REG 14-01-27 08:26 OP:stll STATUS:               ID:20140127060812     3
 2014-01-27-0608-12M.COL___225                                                 6
 STAT SP IPHASW D HRMM SECON CODA AMPLIT PERI AZIMU VELO AIN AR TRES W  DIS CAZ7
 BAR2 SZ EP        618  6.79                             172   -0.0510 19.7 200 
 BAR2 SZ I         618  7.13        34.5 0.10            169           19.7 200 
 BAR2 SZ ES        618 21.54                             172   -0.2710 19.7 200 
 BRR  HZ EP        618  8.67                             150   -0.0610 75.7 301 
 BRR  HZ I         618  8.92        23.8 0.26            150           75.7 301 
 BRR  HN ES        618 26.10                             150    0.9210 75.7 301 
 PAM  SZ EP        618  9.53                             150   -0.1210 79.3  36 
 PAM  SZ I         618  9.84         8.6 0.22            153           79.3  36 
 PAM  SN ES        618 26.80                             150   -0.0210 79.3  36 
 RUS  HZ EP        618 10.78                             144    0.0210 95.9 177 
 RUS  HN ES        618 28.79                             144   -0.0110 95.9 177 
 RUS  HZ I         618 30.39         6.5 0.30            145           95.9 177 
 PTB  HZ EP        618 13.67                             131   -0.86 9  150 261 
 PTB  HN ES        618 34.95                             131   -0.55 9  150 261 
 PTB  HZ I         618 40.93        10.7 0.48            131            150 261 
 SPBC HZ EP        618 15.55                             129   -0.19 9  161 221 
 SPBC HN ES        618 37.70                             129    0.04 9  161 221 
 SPBC HZ I         618 40.53        13.1 0.30            129            161 221 
 CHI  HZ EP        618 24.95                             117    0.17 8  245 196 
 CHI  HN ES        618 54.06                             117    0.32 8  245 196 
 CHI  HZ I         618 57.03         1.7 0.36            117            245 196 
 HEL  HZ EP        618 28.92                             114    1.05 8  274 257 
 HEL  HN ES        618 58.63                             114   -0.61 8  274 257 
 HEL  HZ I         619  3.86         3.0 0.30            114            274 257 
 GUY2CHZ EP        618 31.26                             112    0.20 7  301 236 
 GUY2CHN ES        619  5.44                             112    0.51 7  301 236 
 GUY2CHZ I         619 13.28         4.0 0.58                           301 236 
                                                                                
