 2012  927 0435 41.6 L   6.227 -73.627108.3  RSN  9 0.5 1.7LRSN                1
 GAP= 85        0.93       3.5     3.8  8.8  0.3130E+00  0.1146E+02  0.5968E+01E
 Epicentro: LA PAZ - SANTANDER                                                 3
 ACTION:UPD 12-10-22 14:21 OP:ep   STATUS:               ID:20120927043541 L   I
 2012-09-27-0430-00M.COL___217                                                 6
 STAT SP IPHASW D HRMM SECON CODA AMPLIT PERI AZIMU VELO AIN AR TRES W  DIS CAZ7
 BAR2 SZ EP        435 58.95                             147    0.2510 63.6  51 
 BAR2 SZ I         435 59.43        16.1 0.34                          63.6  51 
 BAR2 SZ ES   1    436 12.30                             147    0.28 7 63.6  51 
 RUS  HZ EP   1    435 59.64                             145    0.10 7 70.6 122 
 RUS  HN ES   1    436 13.20                             145   -0.31 7 70.6 122 
 RUS  HZ I         436 18.00         3.6 0.37                          70.6 122 
 BRR  HZ EP        436  0.89                             134   -0.1110 97.8 354 
 BRR  HZ I         436  1.31        27.3 0.21                          97.8 354 
 BRR  HE ES   1    436 16.69                             134    0.58 7 97.8 354 
 PTB  HN ES   1    436 15.44                             134   -0.77 7 98.1 291 
 GIR2 SZ EP        436  1.98                             132    0.0810  106  27 
 GIR2 SZ ES   1    436 17.90                             132    0.20 7  106  27 
 PAM  SN ES   1    436 27.26                             120   -0.87 7  160  40 
 PAM  SN I         436 30.04         8.1 0.47                           160  40 
 CHI  HZ EP   1    436  8.65                             117   -0.83 7  177 184 
 CHI  HN ES   1    436 31.85                             117    0.65 7  177 184 
 CHI  HN I         436 36.02         7.2 0.21                           177 184 
 ZAR  HE ES   1    436 34.01                             114    0.18 6  195 316 
 ZAR  HN I         436 37.43        13.8 0.15                           195 316 
 HEL  HZ EP   1    436 13.75                             112    0.61 6  211 269 
 HEL  HN ES   1    436 37.50                             112   -0.22 6  211 269 
 HEL  HZ I         436 42.17         3.5 0.17                           211 269 
                                                                                
