 2012  327 0027 47.8 L   6.799 -73.212140.2  RSN  8 0.4 1.5LRSN                1
 GAP=128        0.84       5.0     6.4  9.9 -0.6309E+01  0.2456E+02 -0.3001E+01E
 ACTION:UP  12-03-31 23:23 OP:EP   STATUS:               ID:20120327002747 L   I
 2012-03-27-0020-00M.COL___196                                                 6
 STAT SP IPHASW D HRMM SECON CODA AMPLIT PERI AZIMU VELO SNR AR TRES W  DIS CAZ7
 BAR2 SZ EP   1    028  6.81                             170     0.0 7   23 172 
 BAR2 SZ ES   2    028 21.99                             170     0.4 5   23 172 
 BAR2 SZ I         028 22.65         8.2 0.28                            23 172 
 BRR  HZ EP   1    028  8.56                             154     0.6 7   65 302 
 BRR  HZ I         028  8.85        12.8 0.12                            65 302 
 PAM  SZ EP        028  9.63                             148    -0.110   82  43 
 PAM  SN ES   1    028 26.31                             148    -0.5 7   82  43 
 RUS  HZ EP        028 11.10                             142     0.010  101 172 
 RUS  HN ES   1    028 29.40                             142     0.2 7  101 172 
 RUS  HZ I         028 30.85         4.0 0.42                           101 172 
 PTB  HZ EP        028 13.42                             132    -0.2 9  141 258 
 PTB  HN ES   2    028 32.98                             132    -0.9 5  141 258 
 PTB  HZ I         028 40.11         4.0 0.24                           141 258 
 OCA  SZ ES   2    028 38.23                             128     0.9 5  160 356 
 ZAR  HN ES   3    028 44.13                             122     0.5 2  197 293 
 NOR  SE ES   3    028 50.38                             118     0.7 2  229 233 
                                                                                
