 2011  327 0721 41.6 L   6.732 -73.167147.8  RSN  4 0.2 1.5LRSN                1
 GAP=169        0.50       6.9     8.9  7.9 -0.3520E+02 -0.1872E+02  0.1598E+02E
 Epicentro: VILLANUEVA - SANTANDER                                             3
 ACTION:UP  11-06-16 14:35 OP:jfem STATUS:               ID:20110327072141 L   I
 2011-03-27-0719-27S.COL___138                                                 6
 STAT SP IPHASW D HRMM SECON CODA AMPLIT PERI AZIMU VELO SNR AR TRES W  DIS CAZ7
 BAR2 SZ EP   1    722  1.05                             174    -0.3 7   16 187 
 BAR2 SZ I         722 27.87        10.3 0.66                            16 187 
 BTL  SZ EP   1    722  1.68                             171     0.2 7   23 332 
 BTL  SZ ES   2    722 17.17                             171     0.2 5   23 332 
 BRR  HZ EP        722  2.97                             152    -0.110   73 305 
 BRR  HZ I         722  4.97         8.9 0.30                            73 305 
 BRR  HN ES   2    722 19.79                             152     0.0 5   73 305 
 GRA  SZ EP   1    722  7.90                             135     0.3 7  134  17 
 GRA  SZ ES   1    722 27.81                             135    -0.2 7  134  17 
 GRA  SZ I         722 29.70         1.8 0.38                           134  17 
                                                                                
