 2016  727 0222 13.6 L   6.674 -73.214150.4  RSN  6 0.2 1.5LRSN                1
 GAP=208        0.59       4.0     3.6  4.3  0.7331E+01 -0.4528E+00 -0.3354E+01E
 Epicentro: BARICHARA - SANTANDER                                              3
 ACTION:UPD 17-03-29 16:55 OP:lp   STATUS:               ID:20160727022213 L   I
 OLDACT:REG 16-07-27 12:42 OP:edw  STATUS:               ID:20160727021759     3
 2016-07-27-0217-59S.COL___340                                                 6
 STAT SP IPHASW D HRMM SECON CODA AMPLIT PERI AZIMU VELO AIN AR TRES W  DIS CAZ7
 BAR2 EZ EP        222 33.48                             176   -0.0810 9.72 159 
 BAR2 EZ ES        222 48.95                             176   -0.2110 9.72 159 
 BRR  HZ EP        222 35.33                             153    0.0210 72.9 311 
 BRR  HN ES        222 52.49                             153    0.2210 72.9 311 
 RUS  HZ EP        222 36.65                             148   -0.2510 87.6 170 
 RUS  HN ES        222 55.40                             148    0.2910 87.6 170 
 RUS  HZ I         222 56.48         3.2 0.52            148           87.6 170 
 PTB  HZ EP        222 40.40                             135    0.33 9  138 264 
 PTB  HE ES        223  0.50                             135   -0.25 9  138 264 
 PTB  HZ I         223  2.08         3.5 0.10            134            138 264 
 SPBC HZ EP   9    222 42.94                             133    1.94 0  148 220 
 SPBC HN ES        223  4.18                                   -0.16 9  148 220 
 ZAR  HZ EP   4    222 37.32                             123   -8.88 0  203 297 
 ZAR  HN ES        223 11.58                             123   -0.07 9  203 297 
 ZAR  HZ I         223 13.92         3.9 0.14            123            203 297 
                                                                                
