 2016  627 0008  0.9 L   6.767 -73.216152.6  RSN  5 0.4 1.4LRSN                1
 GAP=227        0.87       5.3     6.7  8.9  0.6923E+01  0.6113E+01 -0.2574E+00E
 Epicentro: ZAPATOCA - SANTANDER                                               3
 ACTION:UPD 16-07-21 22:23 OP:rebc STATUS:               ID:20160627000800 L   I
 OLDACT:DUP 16-06-27 13:27 OP:ak   STATUS:               ID:20160627000003d    3
 2016-06-27-0000-02M.COL___336                                                 6
 STAT SP IPHASW D HRMM SECON CODA AMPLIT PERI AZIMU VELO AIN AR TRES W  DIS CAZ7
 BRR  HZ EP        0 8 22.66                             155    0.0810 66.5 305 
 BRR  HE ES        0 8 39.86                             155    0.4010 66.5 305 
 BRR  HZ I         0 8 42.60         3.9 0.15                          66.5 305 
 RUS  HZ EP   2    0 8 25.28                             146    0.11 5 97.8 171 
 RUS  HN ES        0 8 43.75                             146   -0.3210 97.8 171 
 RUS  HZ I         0 8 45.20         2.8 0.34                          97.8 171 
 PTB  HZ EP        0 8 27.59                             135   -0.15 9  139 260 
 PTB  HN ES        0 8 47.99                             135   -0.66 9  139 260 
 PTB  HZ I         0 8 51.15         3.1 0.32                           139 260 
 SPBC HZ EP   2    0 8 29.66                             132    0.40 5  155 218 
 SPBC HN ES        0 8 51.72                             132    0.37 9  155 218 
 SPBC HZ I         0 8 59.06         4.5 0.40                           155 218 
 NOR  HE ES   2    0 9  4.43                             121    0.76 4  226 234 
 GUY2CHN ES   4    0 9 22.28                             114    4.83 0  293 234 
                                                                                
