 2017  927 0812 18.1 L   6.824 -73.101144.7  RSN  8 0.4 1.6LRSN                1
 GAP=141        0.97       4.4     4.5  6.5 -0.1986E+01  0.1050E+02  0.5876E+01E
 Epicentro: LOS SANTOS - SANTANDER                                             3
 ACTION:UPD 17-10-05 19:16 OP:rebc STATUS:               ID:20170927081218 L   I
 OLDACT:UP  17-09-27 18:35 OP:edw  STATUS:               ID:20170927080739     3
 OLDACT:UP  17-09-27 18:34 OP:edw  STATUS:               ID:20170927080739     3
 OLDACT:REG 17-09-27 12:55 OP:edw  STATUS:               ID:20170927080739     3
 2017-09-27-0808-00M.COL___447                                                 6
 STAT SP IPHASW D HRMM SECON CODA AMPLIT PERI AZIMU VELO AIN AR TRES W  DIS CAZ7
 BAR2 EZ EP        812 37.31                             169   -0.3610 27.2 199 
 BAR2 EZ ES        812 52.55                             169   -0.4010 27.2 199 
 BAR2 EZ I         812 55.01         9.2 0.34            168           27.2 199 
 PAM  EZ EP        812 39.88                             152   -0.0010 72.2  38 
 PAM  EE ES        812 57.24                             152    0.3610 72.2  38 
 PAM  EZ I         812 59.06         6.6 0.48            156           72.2  38 
 BRR  HZ EP        812 39.01                             151   -0.2910 74.5 295 
 BRR  HN ES        812 56.38                             151    0.5210 74.5 295 
 BRR  HZ I         812 59.65         7.3 0.50            150           74.5 295 
 RUS  HZ EP        812 42.13                             143    0.2210  103 179 
 RUS  HN ES        813  0.43                             143   -0.0610  103 179 
 RUS  HZ I         813  1.42         5.8 0.32            146            103 179 
 ZAR  HZ EP   4    812 51.90                             122    1.06 0  208 291 
 ZAR  HN ES        813 15.91                             122   -0.48 8  208 291 
 ZAR  HZ I         813 21.07         6.0 0.40            123            208 291 
 NOR  HZ EP        812 53.87                             118   -0.49 8  240 235 
 NOR  HN ES        813 22.60                             118   -0.05 8  240 235 
 NOR  HZ I         813 28.31         2.4 0.16            119            240 235 
 CHI  HE ES   4    813 28.10                             116    2.26 0  253 196 
 GUY2CHZ EP        813  3.05                             112    0.77 7  307 235 
 GUY2CHE ES        813 37.39                             112    0.64 7  307 235 
 GUY2CHZ I         813 44.06         1.7 0.34                           307 235 
 SJC  HZ EP   4    813 11.32                             105   -2.35 0  410 326 
 SJC  HN ES   4    813 53.24                             105   -3.79 0  410 326 
 SJC  HZ I         813 57.70         1.0 0.54            107            410 326 
                                                                                
