 2017  927 0347 39.1 L   6.835 -73.126152.2  RSN 14 0.5 1.8LRSN                1
 GAP=119        1.13       4.0     4.5  5.9  0.1114E+00  0.6951E+01  0.6143E+01E
 Epicentro: LOS SANTOS - SANTANDER                                             3
 ACTION:UPD 17-10-05 19:16 OP:rebc STATUS:               ID:20170927034739 L   I
 OLDACT:UP  17-09-27 16:20 OP:edw  STATUS:               ID:20170927033741     3
 OLDACT:UP  17-09-27 16:18 OP:edw  STATUS:               ID:20170927033741     3
 OLDACT:REG 17-09-27 12:32 OP:edw  STATUS:               ID:20170927033741     3
 2017-09-27-0338-00M.COL___447                                                 6
 STAT SP IPHASW D HRMM SECON CODA AMPLIT PERI AZIMU VELO AIN AR TRES W  DIS CAZ7
 BAR2 EZ EP        347 59.59                             169    0.0310 27.5 193 
 BAR2 EZ ES        348 14.80                             169   -0.7410 27.5 193 
 BAR2 EZ I         348 17.37        14.6 0.48            168           27.5 193 
 BRR  HZ IP     D  348  1.39                             154    0.4710 71.4 295 
 BRR  HN ES        348 18.46                             154    0.4910 71.4 295 
 BRR  HZ I         348 21.93         8.2 0.48            150           71.4 295 
 PAM  EZ EP        348  2.57                             153    0.8410 73.1  40 
 PAM  EN ES        348 19.40                             153   -0.0110 73.1  40 
 PAM  EZ I         348 21.75         9.9 0.52            156           73.1  40 
 RUS  HZ EP        348  3.58                             144   -0.1410  104 177 
 RUS  HN ES        348 22.91                             144   -0.0410  104 177 
 RUS  HZ I         348 23.29         8.1 0.24            146            104 177 
 ZAR  HZ EP        348 11.15                             124   -0.85 9  205 291 
 ZAR  HN ES        348 37.42                             124   -0.26 9  205 291 
 ZAR  HZ I         348 46.34         5.6 0.24            123            205 291 
 NOR  HZ EP        348 16.07                             119    0.47 8  239 234 
 NOR  HN ES        348 44.17                             119    0.08 8  239 234 
 NOR  HZ I         348 48.21         4.9 0.26            120            239 234 
 CHI  HZ EP        348 17.70                             118    0.12 8  253 195 
 CHI  HN ES        348 47.54                             118   -0.09 8  253 195 
 CHI  HZ I         348 50.28         3.5 0.40            119            253 195 
 HEL  HZ EP   4    348 21.01                             116    1.07 0  275 255 
 HEL  HN ES        348 51.30                             116   -0.53 8  275 255 
 HEL  HZ I         348 57.15         3.4 0.50            116            275 255 
 GUY2CHZ EP   4    348 24.81                             113    1.39 0  305 234 
 GUY2CHE ES   4    348 59.33                             113    1.31 0  305 234 
 GUY2CHZ I         349  4.75         2.4 0.66                           305 234 
 PTGC HZ EP        348 22.69                             112   -0.84 7  311 159 
 PTGC HN ES   4    348 54.79                             112   -3.43 0  311 159 
 CBOC HZ EP   9    348 25.45                             111   -1.17 0  337 252 
 CBOC HN ES   1    349  2.05                             111   -0.49 5  337 252 
 CBOC HZ I         349  7.74         1.7 0.74            111            337 252 
 PRA  HZ EP        348 33.94                             107    0.62 6  396 210 
 PRA  HN ES   4    349 13.93                             107   -1.71 0  396 210 
 PRA  HZ I         349 21.10         2.5 0.28            108            396 210 
 ORTC HZ EP        348 33.72                             107    0.00 6  400 216 
 ORTC HE ES        349 17.15                             107    0.81 6  400 216 
 SJC  HZ EP        348 33.84                             107   -0.77 6  407 326 
 SJC  HN ES   4    349 14.03                             107   -3.90 0  407 326 
                                                                                
