 2012  127 0616 50.8 L   6.730 -73.134146.0  RSN  5 0.3 1.1LRSN                1
 GAP=141        0.60       6.0     6.0  8.0  0.5013E+01  0.8463E+01  0.1933E+02E
 Epicentro: JORDAN - SANTANDER                                                 3
 ACTION:UP  12-02-03 08:21 OP:REBC STATUS:               ID:20120127061650 L   I
 2012-01-27-0610-00M.COL___188                                                 6
 STAT SP IPHASW D HRMM SECON CODA AMPLIT PERI AZIMU VELO SNR AR TRES W  DIS CAZ7
 GIR2 SZ EP   2    617 10.85                             164     0.1 5   39 350 
 GIR2 SZ ES   2    617 26.26                             164    -0.1 5   39 350 
 BRR  HZ EP   1    617 12.35                             151     0.0 7   76 303 
 BRR  HZ I         617 20.12         3.8 0.10                            76 303 
 BRR  HN ES   1    617 29.48                             151     0.4 7   76 303 
 PAM  SN ES   2    617 30.49                             149    -0.5 5   83  35 
 RUS  HZ EP   1    617 14.35                             146     0.3 7   93 176 
 RUS  HE ES   2    617 32.07                             146    -0.1 5   93 176 
 RUS  HZ I         617 34.39         1.2 0.16                            93 176 
 PTB  HZ EP   1    617 17.49                             132    -0.3 7  148 262 
 PTB  HE ES   2    617 38.41                             132    -0.5 5  148 262 
                                                                                
