 2014  327 0620  3.1 L   7.172 -73.387114.0  RSN  8 0.4 1.7LRSN                1
 GAP=184        1.03       3.0     5.8 11.0 -0.6870E+01 -0.1750E+02  0.1399E+02E
 Epicentro: LEBRIJA - SANTANDER                                                3
 ACTION:UPD 14-04-09 23:20 OP:nd   STATUS:               ID:20140327062003 L   I
 OLDACT:REG 14-03-27 10:04 OP:carl STATUS:               ID:20140327061841     3
 2014-03-27-0618-41M.COL___247                                                 6
 STAT SP IPHASW D HRMM SECON CODA AMPLIT PERI AZIMU VELO AIN AR TRES W  DIS CAZ7
 OCA  HZ EP        620 25.00                             131    0.0110  118   4 
 OCA  HN ES        620 42.49                             131    0.4210  118   4 
 OCA  HZ I         620 45.36        11.1 0.28            137            118   4 
 PTB  HZ EP        620 26.03                             126   -0.6010  137 239 
 PTB  HE ES        620 44.70                             126   -0.2910  137 239 
 PTB  HZ I         620 48.12         9.6 0.20            129            137 239 
 ZAR  HZ EP        620 29.76                             120    0.17 9  166 282 
 ZAR  HN ES        620 51.05                             120    0.80 9  166 282 
 ZAR  HZ I         620 57.62         5.1 0.28            124            166 282 
 SPBC HZ EP        620 31.59                             117   -0.04 9  184 204 
 SPBC HN ES        620 53.95                             117    0.06 9  184 204 
 SPBC HZ I         621  0.17         6.1 0.24            121            184 204 
 SML  HZ EP        620 32.47                             116   -0.24 9  195 337 
 SML  HN ES        620 55.07                             116   -0.74 9  195 337 
 SML  HZ I         621  1.45         6.7 0.22            121            195 337 
 NOR  HE ES        621  4.74                             110   -0.53 8  242 223 
 NOR  HZ I         621 11.02         7.8 0.28            114            242 223 
 CHI  HZ EP        620 43.63                             107    0.31 8  284 188 
 CHI  HN ES        621 14.69                             107    0.01 8  284 188 
 CHI  HZ I         621 21.38         1.3 0.54            111            284 188 
 RREF HZ EP        620 50.04                             104    0.78 7  332 221 
 RREF HE ES        621 25.57                             104    0.30 7  332 221 
 RREF HZ I         621 33.50         2.5 0.62            107            332 221 
                                                                                
