 2011  227 0501 37.9 L   6.810 -73.226142.7  RSN  4 0.2 1.2LRSN                1
 GAP=188        0.38       4.9    23.3  6.1 -0.9231E+02  0.5791E+02 -0.1106E+02E
 Epicentro: ZAPATOCA - SANTANDER                                               3
 ACTION:UP  11-03-28 15:11 OP:jfem STATUS:               ID:20110227050137 L   I
 2011-02-27-0456-30S.COL___135                                                 6
 STAT SP IPHASW D HRMM SECON CODA AMPLIT PERI AZIMU VELO SNR AR TRES W  DIS CAZ7
 BAR2 SZ EP   2    5 1 57.16                             170    -0.1 5   25 169 
 BAR2 SZ ES   2    5 2 12.18                             170    -0.1 5   25 169 
 BAR2 SZ I         5 2 14.00         4.9 0.15                            25 169 
 RUS  HZ EP   1    5 2  1.34                             143    -0.2 7  103 171 
 RUS  HZ I         5 2  2.16         1.4 0.36                           103 171 
 RUS  HN ES   2    5 2 20.19                             143     0.2 5  103 171 
 GRA  SZ EP   1    5 2  3.11                             136     0.1 7  128  21 
 GRA  SZ ES   2    5 2 22.70                             136     0.0 5  128  21 
 GRA  SZ I         5 2 25.45         2.5 0.35                           128  21 
 CHI  HZ EP   2    5 2 15.64                             117     0.3 4  248 193 
                                                                                
