 2016  427 0837  1.9 L   6.811 -73.143147.9  RSN 10 0.4 1.8LRSN                1
 GAP=136        0.89       3.0     4.6  5.6 -0.4697E+01  0.8876E+01 -0.9369E+00E
 Epicentro: LOS SANTOS - SANTANDER                                             3
 ACTION:UPD 16-05-05 14:24 OP:rebc STATUS:               ID:20160427083701 L   I
 OLDACT:UP  16-04-27 17:50 OP:mher STATUS:               ID:20160427082744d    3
 OLDACT:UP  16-04-27 17:50 OP:mher STATUS:               ID:20160427082744d    3
 OLDACT:UP  16-04-27 17:49 OP:mher STATUS:               ID:20160427082744d    3
 OLDACT:UP  16-04-27 17:49 OP:mher STATUS:               ID:20160427082744d    3
 OLDACT:DUP 16-04-27 17:42 OP:mher STATUS:               ID:20160427082744d    3
 2016-04-27-0827-43M.COL___285                                                 6
 STAT SP IPHASW D HRMM SECON CODA AMPLIT PERI AZIMU VELO AIN AR TRES W  DIS CAZ7
 BAR2 EZ EP        837 21.69                             170   -0.0810 24.6 190 
 BAR2 EZ ES        837 37.63                             170    0.3310 24.6 190 
 BAR2 EZ I         837 38.41         8.3 0.32            166           24.6 190 
 PAM  EZ EP   1    837 24.97                             152    0.74 7 76.2  40 
 PAM  EN ES   1    837 41.28                             152   -0.40 7 76.2  40 
 PAM  EZ I         837 43.85         3.9 0.18            150           76.2  40 
 RUS  HZ EP        837 25.84                             144   -0.0610  102 176 
 RUS  HN ES        837 44.49                             144   -0.1710  102 176 
 RUS  HZ I         837 45.46         4.0 0.42            142            102 176 
 PTB  HE EP        837 28.74                             132   -0.31 9  148 258 
 PTB  HZ ES        837 50.18                             132   -0.07 9  148 258 
 PTB  HE I         837 55.52        16.5 0.34            124            148 258 
 OCA  HZ EP        837 30.69                             130    0.47 9  159 353 
 OCA  HN ES        837 52.00                             130   -0.35 9  159 353 
 OCA  HZ I         837 57.68        16.2 0.16            124            159 353 
 SPBC HZ EP        837 30.63                             129    0.00 9  164 219 
 SPBC HN ES        837 53.01                             129   -0.06 9  164 219 
 SPBC HZ I         837 59.67        14.7 0.24            123            164 219 
 NOR  HZ EP        837 36.85                             119   -0.96 8  236 234 
 NOR  HN ES        838  6.50                             119    0.64 8  236 234 
 NOR  HZ I         838 13.13         6.3 0.10            113            236 234 
 CHI  HZ EP   1    837 39.83                             117    0.02 6  250 195 
 CHI  HN ES        838  9.38                             117   -0.03 8  250 195 
 CHI  HZ I         838 14.75         3.2 0.32            114            250 195 
 HEL  HZ EP        837 42.52                             115    0.28 8  273 256 
 HEL  HZ I         838 20.11         2.6 0.32            110            273 256 
 GUY2CHZ EP   1    837 46.09                             113    0.42 5  302 235 
 GUY2CHE ES   4    838 24.03                             113    4.18 0  302 235 
 GUY2CHZ I         838 28.81         2.9 0.58                           302 235 
                                                                                
