 2014 1227 0732  8.2 L   6.795 -73.169148.8  RSN  9 0.5 1.9LRSN                1
 GAP=134        1.18       3.8     5.4  7.3  0.1113E+01  0.1519E+01 -0.7070E+01E
 Epicentro: LOS SANTOS - SANTANDER                                             3
 ACTION:UPD 15-02-10 17:07 OP:nd   STATUS:               ID:20141227073208 L   I
 OLDACT:UP  14-12-27 18:36 OP:mh   STATUS:               ID:20141227072744     3
 OLDACT:REG 14-12-27 13:30 OP:mh   STATUS:               ID:20141227072744     3
 2014-12-27-0727-44M.COL___265                                                 6
 STAT SP IPHASW D HRMM SECON CODA AMPLIT PERI AZIMU VELO AIN AR TRES W  DIS CAZ7
 BAR2 EZ EP        732 28.37                             171    0.1710 22.5 184 
 BAR2 EZ ES        732 43.68                             171   -0.1010 22.5 184 
 BAR2 EZ I         732 44.86        34.2 0.22            169           22.5 184 
 BRR  HZ EP        732 30.27                             154    0.6810 69.2 300 
 BRR  HN ES        732 46.57                             154    0.3110 69.2 300 
 BRR  HZ I         732 51.44         7.7 0.16            151           69.2 300 
 PAM  SZ EP        732 31.20                             151    0.3210 79.5  41 
 PAM  SZ I         732 50.61         7.0 0.44            144           79.5  41 
 RUS  HZ EP        732 32.01                             145   -0.2410  100 175 
 RUS  HN ES        732 50.75                             145   -0.2410  100 175 
 RUS  HZ I         732 52.12        13.1 0.22            139            100 175 
 PTB  HZ EP        732 34.42                             133   -0.78 9  145 259 
 PTB  HN ES        732 55.45                             133   -0.79 9  145 259 
 PTB  HZ I         733  1.67         7.9 0.26            129            145 259 
 SPBC HZ EP        732 37.40                             130    0.64 9  161 218 
 SPBC HN ES        732 59.16                             130    0.14 9  161 218 
 SPBC HZ I         733  2.17        18.9 0.05            125            161 218 
 OCA  HZ EP        732 36.22                             130   -0.57 9  161 354 
 OCA  HN ES        732 59.17                             130    0.09 9  161 354 
 OCA  HZ I         733  8.31         6.0 0.32            124            161 354 
 ZAR  HZ EP        732 41.06                             123    0.42 9  202 293 
 ZAR  HN ES        733  6.56                             123    0.63 9  202 293 
 ZAR  HZ I         733 12.56         6.5 0.32            118            202 293 
 SML  HZ EP        732 44.63                             118   -0.32 8  243 336 
 SML  HN ES        733 13.06                             118   -0.55 8  243 336 
 SML  HZ I         733 17.56        11.6 0.26            113            243 336 
 SJC  HZ EP   4    733  3.05                             106   -0.72 0  408 327 
 SJC  HN ES   4    733 43.42                             106   -3.68 0  408 327 
                                                                                
