 2012 1027 0220  9.0 L   6.491 -73.630103.7  RSN  5 0.4 1.4LRSN                1
 GAP=172        0.68       6.2     5.9 12.8  0.2398E+02  0.3749E+02  0.2103E+02E
 Epicentro: SANTA HELENA DEL OPON - SANTANDER                                  3
 ACTION:UPD 12-11-22 17:06 OP:ep   STATUS:               ID:20121027022009 L   I
 2012-10-27-0219-36M.COL___205                                                 6
 STAT SP IPHASW D HRMM SECON CODA AMPLIT PERI AZIMU VELO AIN AR TRES W  DIS CAZ7
 BAR2 SZ ES   2    220 37.59                             152    0.46 6 50.7  77 
 BRR  HZ EP   1    220 25.11                             144   -0.53 8 68.7 352 
 BRR  HE ES   2    220 37.95                             144   -0.65 6 68.7 352 
 BRR  HN I         220 38.82        11.8 0.08                          68.7 352 
 RUS  HZ EP   1    220 28.02                             136    0.04 8 89.7 138 
 RUS  HN ES   2    220 42.77                             136    0.00 6 89.7 138 
 RUS  HN I         220 45.24         2.6 0.20                          89.7 138 
 PAM  SN ES   2    220 51.46                             123    0.35 5  139  48 
 PAM  SN I         220 52.53         6.0 0.28                           139  48 
 ZAR  HE ES        220 57.15                             115    0.3110  175 309 
 ZAR  HN I         220 59.21         3.2 0.14                           175 309 
                                                                                
