 2016  327 0357 26.4 L   6.808 -73.143140.7  RSN  9 0.4 1.5LRSN                1
 GAP=136        1.00       3.9     4.1  6.9 -0.3291E+01  0.1141E+02  0.2152E+01E
 Epicentro: LOS SANTOS - SANTANDER                                             3
 ACTION:UPD 16-05-13 21:28 OP:cam  STATUS:               ID:20160327035726 L   I
 OLDACT:DUP 16-03-27 14:53 OP:ak   STATUS:               ID:20160327034750d    3
 2016-03-27-0347-48M.COL___292                                                 6
 STAT SP IPHASW D HRMM SECON CODA AMPLIT PERI AZIMU VELO AIN AR TRES W  DIS CAZ7
 BAR2 EZ EP        357 45.64                             170    0.1910 24.2 190 
 BAR2 EZ ES        358  0.29                             170   -0.0210 24.2 190 
 BAR2 EZ I         358  1.86        12.7 0.20            170           24.2 190 
 PAM  EZ EP        357 48.39                             150    0.3510 76.5  40 
 PAM  EE ES        358  4.90                             150   -0.0110 76.5  40 
 PAM  EZ I         358  9.79         2.9 0.32            152           76.5  40 
 RUS  HZ EP        357 49.63                             142   -0.1010  101 176 
 RUS  HN ES        358  7.73                             142   -0.1910  101 176 
 RUS  HZ I         358  9.22         4.3 0.18            144            101 176 
 PTB  HZ EP        357 52.14                             131   -0.87 9  148 259 
 PTB  HN ES        358 12.94                             131   -0.82 9  148 259 
 PTB  HZ I         358 15.67         3.7 0.14            131            148 259 
 SPBC HZ EP   2    357 54.47                             128   -0.13 5  164 219 
 SPBC HN ES        358 17.21                             128    0.61 9  164 219 
 ZAR  HZ EP   2    357 58.38                             121   -0.14 4  204 292 
 ZAR  HE ES        358 24.23                             121    0.66 9  204 292 
 ZAR  HZ I         358 30.93         2.7 0.22            122            204 292 
 NOR  HZ EP        358  1.83                             117   -0.10 8  235 234 
 NOR  HN ES        358 29.57                             117   -0.06 8  235 234 
 NOR  HZ I         358 34.62         3.4 0.20            118            235 234 
 CHI  HZ EP   2    358  3.35                             116   -0.58 4  250 195 
 CHI  HN ES        358 33.38                             116    0.18 8  250 195 
 CHI  HZ I         358 40.80         1.2 0.11            117            250 195 
 GUY2CHZ EP   2    358 10.62                             111    0.75 4  302 235 
 GUY2CHE ES        358 44.32                             111    0.55 7  302 235 
 GUY2CHZ I         358 50.35         1.7 0.30                           302 235 
                                                                                
