 2013  827 0834 56.1 L   6.799 -73.147151.5  RSN  7 0.4 1.5LRSN                1
 GAP=183        0.91       4.0     5.2  7.9  0.3255E+01  0.3219E+01  0.3315E+01E
 Epicentro: LOS SANTOS - SANTANDER                                             3
 ACTION:UPD 14-01-14 09:07 OP:ep   STATUS:               ID:20130827083456 L   I
 OLDACT:REG 13-08-27 07:50 OP:carl STATUS:               ID:20130827082959     3
 2013-08-27-0829-59M.COL___270                                                 6
 STAT SP IPHASW D HRMM SECON CODA AMPLIT PERI AZIMU VELO AIN AR TRES W  DIS CAZ7
 BAR2 SZ EP        835 16.57                             171    0.1810 23.2 190 
 BAR2 SZ ES   1    835 32.05                             171   -0.19 7 23.2 190 
 BAR2 SZ I         835 33.57         5.2 0.18            168           23.2 190 
 BRR  HZ EP   1    835 18.56                             154    0.72 7 71.1 299 
 BRR  HN ES   1    835 35.83                             154    1.01 7 71.1 299 
 BRR  HZ I         835 38.37         4.1 0.16            155           71.1 299 
 RUS  HZ EP        835 20.27                             145   -0.1210  100 176 
 RUS  HN ES   1    835 39.21                             145   -0.14 7  100 176 
 RUS  HZ I         835 42.02         3.8 0.36            146            100 176 
 PTB  HZ EP        835 23.51                             133    0.01 9  148 259 
 PTB  HN ES        835 44.65                             133   -0.24 9  148 259 
 PTB  HZ I         835 46.62         6.2 0.12            135            148 259 
 OCA  HN ES        835 46.71                             131   -0.58 9  160 353 
 SPBC HZ EP        835 25.11                             130    0.11 9  163 219 
 SPBC HN ES   1    835 47.26                             130   -0.31 7  163 219 
 SPBC HZ I         835 53.37         4.8 0.28            132            163 219 
 ZAR  HN ES        835 54.35                             124   -0.14 9  204 292 
                                                                                
