 2017  927 0604 16.5 L   6.837 -73.084146.0  RSN 18 0.6 2.0LRSN                1
 GAP= 70        1.39       4.2     4.1  6.5 -0.1220E+01  0.6559E+01  0.4988E+01E
 Epicentro: LOS SANTOS - SANTANDER                                             3
 ACTION:UPD 17-10-05 19:16 OP:rebc STATUS:               ID:20170927060416 L   I
 OLDACT:UP  17-09-27 17:55 OP:edw  STATUS:               ID:20170927055739     3
 OLDACT:UP  17-09-27 17:54 OP:edw  STATUS:               ID:20170927055739     3
 OLDACT:REG 17-09-27 12:43 OP:edw  STATUS:               ID:20170927055739     3
 2017-09-27-0558-00M.COL___447                                                 6
 STAT SP IPHASW D HRMM SECON CODA AMPLIT PERI AZIMU VELO AIN AR TRES W  DIS CAZ7
 BAR2 EZ IP     D  6 4 36.35                             168    0.1010 29.2 202 
 BAR2 EZ ES        6 4 50.79                             168   -0.8910 29.2 202 
 BAR2 EZ I         6 4 53.08        16.1 0.28            165           29.2 202 
 PAM  EZ EP        6 4 39.19                             153    0.9210 69.9  37 
 PAM  EN ES        6 4 55.76                             153    0.4710 69.9  37 
 PAM  EZ I         6 4 57.99        21.8 0.50            158           69.9  37 
 BRR  HZ EP        6 4 38.05                             151    0.1710 75.5 293 
 BRR  HN ES        6 4 54.94                             151    0.3510 75.5 293 
 BRR  HZ I         6 4 58.20        15.1 0.14            150           75.5 293 
 RUS  HZ EP        6 4 40.60                             143    0.0910  104 180 
 RUS  HN ES        6 4 59.12                             143   -0.1610  104 180 
 RUS  HZ I         6 5  1.29         7.0 0.42            142            104 180 
 TAM  HZ EP     D  6 4 44.80                             132    1.15 9  150 107 
 TAM  HN ES        6 5  3.87                             132   -1.00 9  150 107 
 ZAR  HZ EP        6 4 49.16                             122   -0.26 8  209 290 
 ZAR  HN ES        6 5 14.55                             122   -0.58 8  209 290 
 NOR  HZ EP        6 4 52.97                             117   -0.08 8  243 235 
 NOR  HN ES        6 5 21.38                             117   -0.22 8  243 235 
 NOR  HZ I         6 5 24.21         7.8 0.18            118            243 235 
 CHI  HZ EP        6 4 55.05                             116    0.25 8  254 196 
 CHI  HE ES        6 5 24.99                             116    0.28 8  254 196 
 CHI  HZ I         6 5 32.33         3.4 0.34            117            254 196 
 ROSC BZ EP        6 4 55.44                             116    0.08 8  260 212 
 ROSC BN ES        6 5 25.45                             116   -0.25 8  260 212 
 ROSC BZ I         6 5 32.51         4.6 0.30            116            260 212 
 HEL  HZ EP        6 4 58.11                             114    0.58 7  280 255 
 HEL  HN ES        6 5 30.10                             114    0.54 7  280 255 
 HEL  HZ I         6 5 35.90         6.8 0.24            114            280 255 
 URE  HZ EP   4    6 4 56.56                             113   -1.52 0  289 291 
 URE  HE ES   4    6 5 28.05                             113   -2.50 0  289 291 
 URE  HZ I         6 5 36.55         8.4 0.26            114            289 291 
 GUY2CHZ EP   4    6 5  2.05                             112    1.08 0  309 235 
 GUY2CHN ES        6 5 36.21                             112    0.51 7  309 235 
 GUY2CHZ I         6 5 44.87         5.1 0.34                           309 235 
 PTGC HZ EP        6 4 59.90                             111   -0.59 7  310 160 
 PTGC HN ES   4    6 5 30.87                             111   -3.96 0  310 160 
 PTGC HZ I         6 5 40.99         6.6 0.30            112            310 160 
 LL6C HZ EP        6 5  0.48                             111   -1.26 7  321 356 
 CBOC HZ EP   4    6 5  5.19                             109    0.92 0  341 252 
 CBOC HN ES   4    6 5 40.09                             109   -1.48 0  341 252 
 CBOC HZ I         6 5 52.59         2.5 0.46            110            341 252 
 PRA  HZ EP        6 5 10.35                             106   -0.45 6  399 210 
 PRA  HN ES        6 5 52.79                             106   -0.39 6  399 210 
 PRA  HZ I         6 5 55.44         3.9 0.26            107            399 210 
 ORTC HZ EP        6 5 11.78                             106    0.54 6  403 217 
 ORTC HE ES   4    6 5 55.75                             106    1.77 0  403 217 
 ORTC HZ I         6 5 57.20         4.6 0.12            106            403 217 
 SJC  HZ EP        6 5 10.48                             106   -1.59 6  410 326 
 SJC  HN ES   4    6 5 50.76                             106   -4.69 0  410 326 
 SJC  HZ I         6 5 54.57         2.6 0.56            107            410 326 
                                                                                
