 2017  427 0009 51.3 L   6.792 -73.145147.6  RSN  5 0.1 1.7LRSN                1
 GAP=196        0.39       5.1     2.2  3.9 -0.3716E+01 -0.1292E+01  0.1157E+02E
 Epicentro: LOS SANTOS - SANTANDER                                             3
 ACTION:UPD 17-05-30 21:16 OP:jn   STATUS:               ID:20170427000951 L   I
 OLDACT:UP  17-04-27 12:57 OP:and  STATUS:               ID:20170427000000     3
 OLDACT:UP  17-04-27 12:57 OP:and  STATUS:               ID:20170427000000     3
 OLDACT:UP  17-04-27 12:57 OP:and  STATUS:               ID:20170427000000     3
 OLDACT:REG 17-04-27 12:26 OP:and  STATUS:               ID:20170427000000     3
 2017-04-27-0000-15M.COL___367                                                 6
 STAT SP IPHASW D HRMM SECON CODA AMPLIT PERI AZIMU VELO AIN AR TRES W  DIS CAZ7
 BRR  HZ EP        010 12.71                             152    0.0810 71.7 299 
 BRR  HN ES        010 29.43                             152    0.1310 71.7 299 
 PAM  EZ IP     C  010 13.79                             151    0.0810 78.0  39 
 PAM  EN ES        010 31.04                             151   -0.1710 78.0  39 
 PAM  EZ I         010 32.43         6.8 0.38            155           78.0  39 
 PTB  HZ EP   9    010 17.69                             132   -0.68 0  148 259 
 PTB  HN ES        010 38.70                             133   -0.13 9  148 259 
 PTB  HZ I         010 45.32         4.7 0.50            131            148 259 
 ZAR  HZ EP   4    010 26.44                             122    2.57 0  204 292 
 ZAR  HN ES        010 49.24                             122   -0.06 9  204 292 
 ZAR  HZ I         010 55.40         5.5 0.28            122            204 292 
 NOR  HZ EP        010 26.94                             119   -0.11 8  234 235 
 NOR  HN ES   4    010 59.91                             119    4.95 0  234 235 
                                                                                
