 2012  127 0712 10.9 L   7.155 -73.063148.5  RSN  9 0.2 1.8LRSN                1
 GAP=118        0.57       3.4     3.8  4.5 -0.1878E+01  0.2969E+01  0.1670E+01E
 Epicentro: BUCARAMANGA - SANTANDER                                            3
 ACTION:UP  12-02-03 08:21 OP:REBC STATUS:               ID:20120127071210 L   I
 2012-01-27-0710-00M.COL___188                                                 6
 STAT SP IPHASW D HRMM SECON CODA AMPLIT PERI AZIMU VELO SNR AR TRES W  DIS CAZ7
 GIR2 SZ EP        712 30.65                             173     0.110   17 240 
 GIR2 SZ ES   1    712 45.56                             173    -0.4 7   17 240 
 PAM  SZ EP   1    712 31.77                             162     0.0 7   45  63 
 PAM  SN ES   1    712 48.02                             162    -0.1 7   45  63 
 BAR2 SZ EP   1    712 32.36                             156     0.1 7   64 192 
 BAR2 SZ ES   2    712 49.00                             156     0.1 5   64 192 
 BAR2 SZ I         712 53.26        11.9 0.42                            64 192 
 BRR  HZ EP        712 32.52                             153     0.210   72 266 
 BRR  HZ I         712 33.18        15.5 0.12                            72 266 
 BRR  HE ES   1    712 49.60                             153     0.5 7   72 266 
 OCA  SZ EP   1    712 36.32                             138     0.2 7  123 347 
 OCA  SZ ES   1    712 55.65                             138    -0.2 7  123 347 
 OCA  SZ I         712 57.61        11.6 0.28                           123 347 
 RUS  HZ EP   2    712 38.39                             135     0.4 5  140 181 
 RUS  HE ES   2    712 59.09                             135     0.0 5  140 181 
 PTB  HZ EP        712 39.54                             129    -0.4 9  168 246 
 PTB  HE ES   1    713  2.54                             129    -0.1 7  168 246 
 ZAR  HE ES   2    713  8.52                             123     0.0 4  202 281 
 CHI  HZ EP   2    712 52.91                             114    -0.2 4  289 195 
 CHI  HZ I         713 35.36         1.7 0.28                           289 195 
                                                                                
