 2010  627 0311 40.8 L   6.795 -72.959142.2  RSN  5 0.4 1.5LRSN                1
 GAP=180        0.85       7.0    13.3 13.9 -0.1757E+02 -0.3774E+02 -0.2548E+02E
 Epicentro: CEPITA - SANTANDER                                                 3
 ACTION:UP  10-08-24 10:13 OP:vdl  STATUS:               ID:20100627031140 L   I
 2010-06-27-0309-13S.COL___118                                                 6
 STAT SP IPHASW D HRMM SECON CODA AMPLIT PERI AZIMU VELO SNR AR TRES W  DIS CAZ7
 BRR  HZ EP        312  2.58                             146    -0.210   90 293 
 BRR  HZ I         312  4.14         7.1 0.13                            90 293 
 BRR  HE ES   2    312 19.97                             146     0.1 5   90 293 
 RUS  HZ EP   3    312  4.60                             143     0.4 2  101 188 
 RUS  HN ES   2    312 22.66                             143     0.2 5  101 188 
 RUS  HZ I         312 24.54         2.6 0.35                           101 188 
 GUE  SZ EP        312  4.64                             139    -0.410  115   2 
 GRA  SZ ES   2    312 24.96                             137     0.4 5  122   8 
 OCA  SZ EP        312  9.87                             128     0.6 9  165 346 
 OCA  SZ ES   2    312 31.12                             128    -0.3 5  165 346 
 OCA  SZ I         312 36.91         4.9 0.30                           165 346 
                                                                                
