 2012  627 0723  7.8 L   6.759 -73.135149.4  RSN  6 0.3 1.7LRSN                1
 GAP=140        0.71       5.2     4.4  7.4 -0.4183E+00  0.8642E+01 -0.5442E+01E
 Epicentro: LOS SANTOS - SANTANDER                                             3
 ACTION:UPD 12-08-06 17:53 OP:ep   STATUS:               ID:20120627072307 L   I
 2012-06-27-0720-00M.COL___201                                                 6
 STAT SP IPHASW D HRMM SECON CODA AMPLIT PERI AZIMU VELO AIN AR TRES W  DIS CAZ7
 BAR2 SZ EP   1    723 27.88                             172    0.06 7 19.2 196 
 BAR2 SZ ES   1    723 43.30                             172   -0.12 7 19.2 196 
 BAR2 SZ I         723 44.60         8.8 0.17                          19.2 196 
 BRR  HZ EP   1    723 29.92                             152    0.37 7 74.5 301 
 BRR  HN ES   1    723 47.14                             152    0.64 7 74.5 301 
 BRR  HZ I         723 51.77        14.4 0.18                          74.5 301 
 PAM  SZ EP   1    723 30.73                             151    0.14 7 80.2  37 
 PAM  SZ I         723 30.93         6.4 0.18                          80.2  37 
 PAM  SN ES   1    723 47.84                             151   -0.52 7 80.2  37 
 RUS  HE ES   1    723 50.32                             146    0.15 7 96.0 177 
 PTB  HZ EP   1    723 34.87                             133   -0.25 7  148 261 
 PTB  HN ES   1    723 55.91                             133   -0.51 7  148 261 
 PTB  HZ I         724  2.08         4.1 0.14                           148 261 
 ZAR  HE ES   1    724  6.43                             123   -0.09 6  207 293 
 ZAR  HZ I         724 12.33         7.6 0.35                           207 293 
                                                                                
