 2010  627 0956 18.4 L   6.791 -73.180137.3  RSN  7 0.4 1.7LRSN                1
 GAP=151        0.99       4.7    12.1  8.7 -0.2451E+02  0.2730E+02 -0.4770E+01E
 Epicentro: LOS SANTOS - SANTANDER                                             3
 ACTION:UP  10-08-24 10:13 OP:vdl  STATUS:               ID:20100627095618 L   I
 2010-06-27-0952-41S.COL___118                                                 6
 STAT SP IPHASW D HRMM SECON CODA AMPLIT PERI AZIMU VELO SNR AR TRES W  DIS CAZ7
 BAR2 SZ IP        956 37.05                             170     0.110   22 181 
 BAR2 SZ ES   1    956 51.46                             170     0.0 7   22 181 
 BRR  HZ EP        956 38.81                             152     0.310   68 301 
 BRR  HN ES   3    956 54.94                             152     0.8 2   68 301 
 BRR  HZ I         956 57.39        11.7 0.22                            68 301 
 RUS  HZ EP        956 41.07                             142    -0.210  100 174 
 RUS  HN ES   2    956 58.83                             142    -0.3 5  100 174 
 RUS  HZ I         957  0.55         5.3 0.25                           100 174 
 BRI  SZ EP        956 41.60                             139    -0.110  111  22 
 BRI  SZ ES   2    956 59.72                             139    -0.1 5  111  22 
 BRI  SZ I         957  2.25         6.3 0.53                           111  22 
 GRA  SZ IP        956 43.85                             135     0.810  128  19 
 GRA  SZ ES   1    957  2.44                             135     0.1 7  128  19 
 OCA  SZ EP        956 45.43                             128    -0.7 9  161 355 
 OCA  SZ ES   2    957  6.88                             128    -0.9 5  161 355 
 OCA  SZ I         957 11.20         6.1 0.13                           161 355 
 PRA  HZ EP        957 11.20                             105    -0.1 6  389 209 
 PRA  HE ES   2    957 53.14                             105     0.5 3  389 209 
 PRA  HZ I         957 59.28         4.2 0.23                           389 209 
                                                                                
