 2017  227 0528 14.5 L   6.810 -73.651  4.0  RSN 16 0.5 2.5LRSN                1
 GAP= 72        1.21       2.5     2.1  4.8  0.2416E+00  0.5451E+00  0.1279E+01E
 Epicentro: EL CARMEN - SANTANDER                                              3
 ACTION:UPD 17-05-24 15:41 OP:jn   STATUS:               ID:20170227052814 L   I
 OLDACT:UP  17-02-27 17:07 OP:ar   STATUS:               ID:20170227051745     3
 OLDACT:UP  17-02-27 17:02 OP:ar   STATUS:               ID:20170227051745     3
 OLDACT:REG 17-02-27 13:12 OP:ar   STATUS:               ID:20170227051745     3
 2017-02-27-0518-00M.COL___369                                                 6
 STAT SP IPHASW D HRMM SECON CODA AMPLIT PERI AZIMU VELO AIN AR TRES W  DIS CAZ7
 BRR  HZ IP     C  528 20.04                              47   -0.1410 33.5 348 
 BRR  HE ES        528 24.96                              47    0.3510 33.5 348 
 BRR  HZ I         528 25.21       336.7 0.12             90           33.5 348 
 BAR2 EZ IP     D  528 23.69                              47   -0.3110 57.1 115 
 BAR2 EZ ES        528 31.12                              47   -0.2810 57.1 115 
 BAR2 EZ I         528 31.77       453.4 0.52             47           57.1 115 
 PTB  HZ IP     D  528 29.20                              47   -0.1610 94.0 251 
 PTB  HE ES        528 40.46                              47   -0.4810 94.0 251 
 PTB  HZ I         528 40.58       252.9 0.30             47           94.0 251 
 RUS  HZ EP     D  528 33.53                              47   -0.1510  119 148 
 RUS  HN ES   2    528 49.14                              47    0.50 5  119 148 
 RUS  HZ I         528 55.01        49.4 0.32             47            119 148 
 PAM  EZ EP        528 34.13                              47    0.3010  120  61 
 PAM  EE ES        528 48.78                              47   -0.1210  120  61 
 PAM  EZ I         528 49.23        88.3 0.22             47            120  61 
 ZAR  HZ IP     D  528 38.02                              47   -0.31 9  153 300 
 ZAR  HN ES        528 56.43                              47   -0.47 9  153 300 
 ZAR  HZ I         528 58.21       225.8 0.30             47            153 300 
 NOR  HZ EP        528 44.45                              37    0.52 9  193 224 
 NOR  HE ES        529  6.88                              37   -0.00 9  193 224 
 TAM  HZ EP   4    528 47.99                              37    1.96 0  210 101 
 TAM  HN ES   4    529 15.07                              37    4.45 0  210 101 
 TAM  HZ I         529 17.96        77.7 0.64             37            210 101 
 HEL  HZ EP        528 47.09                              37   -0.46 8  219 252 
 ROSC BZ EP   4    528 51.11                              37    2.11 0  230 199 
 ROSC BE ES   4    529 19.90                              37    4.00 0  230 199 
 ROSC BZ I         529 33.49        17.7 0.45             37            230 199 
 URE  HZ EP        528 49.84                              37    1.00 8  232 297 
 URE  HE ES   4    529 19.79                              37    4.17 0  232 297 
 URE  HZ I         529 21.75        36.7 0.18             37            232 297 
 CHI  HZ EP   9    528 54.17                              37    3.75 0  241 182 
 CHI  HN ES        529 22.83                                    0.65 8  241 182 
 CHI  HZ I         529 27.97        19.7 0.72             37            241 182 
 CBOC HZ EP        528 56.62                              37    1.47 7  281 248 
 CBOC HN ES   4    529 30.26                              37    3.40 0  281 248 
 CBOC HZ I         529 34.49        14.5 0.58             37            281 248 
 DBB  EZ EP   4    528 57.38                              37    2.05 0  284 275 
 DBB  EN ES   4    529 32.73                              37    5.55 0  284 275 
 DBB  EZ I         529 40.03        10.8 0.52             37            284 275 
 VIL  EZ EP   9    529  5.65                              36    8.44 0  298 181 
 VIL  EN ES        529 39.64                                    0.68 7  298 181 
 VIL  EZ I         529 49.09        18.4 0.48             36            298 181 
 PTGC HZ EP   4    529  2.75                              36    1.29 0  334 150 
 PTGC HE ES   4    529 40.43                              36    2.35 0  334 150 
 PTGC HZ I         529 52.59        19.1 0.22             36            334 150 
                                                                                
