 2010  427 0323 42.9 L   7.229 -73.354102.0  RSN  8 0.4 2.4LRSN                1
 GAP=111        0.76       3.9     7.6  7.1 -0.1021E+02 -0.5780E+01  0.3396E+01E
 Epicentro: LEBRIJA - SANTANDER                                                3
 ACTION:UPD 10-08-24 10:01 OP:vdl  STATUS:               ID:20100427032344 L   I
 2010-04-27-0321-14S.COL___104                                                 6
 STAT SP IPHASW D HRMM SECON CODA AMPLIT PERI AZIMU VELO AIN AR TRES W  DIS CAZ7
 BRR  HZ IP     D  323 57.35                             156    -0.410   42 251 
 BRR  HN ES   1    324  9.63                             156     0.4 7   42 251 
 BRR  HZ I         324 10.55        62.1 0.26                            42 251 
 BAR2 SZ EP        323 59.90                             142    -0.110   73 165 
 BAR2 SZ ES   2    324 13.77                             142     0.4 5   73 165 
 OCA  SZ EP        324  2.97                             129    -0.310  112   2 
 OCA  SZ ES   1    324 19.73                             129     0.6 7  112   2 
 OCA  SZ I         324 21.40       209.1 0.09                           112   2 
 HEL  HZ EP   3    324 20.32                             105    -0.4 2  266 245 
 HEL  HE ES   3    324 49.23                             105    -0.9 2  266 245 
 HEL  HZ I         324 53.20         5.9 0.37                           266 245 
 RREF BZ EP   2    324 29.77                             100     0.1 3  339 221 
 RREF BE ES   2    325  5.82                             100    -0.3 3  339 221 
 RREF BZ I         325 14.34         9.1 0.34                           339 221 
 SDV  BZ EP   2    324 31.06                             100     0.4 3  351  59 
 SDV  BZ I         325 11.12         8.0 0.48                           351  59 
 TOL  SZ EP   1    324 33.10                              99     0.7 5  364 217 
 PRA  HZ EP   3    324 39.40                              96     0.2 1  424 204 
 PRA  HN ES   2    325 24.00                              96     0.9 3  424 204 
                                                                                
