 2012  327 0813 52.8 L   6.776 -73.151142.6  RSN  5 0.3 1.3LRSN                1
 GAP=137        0.67       5.7     6.5  8.3  0.1047E+01  0.7583E+01 -0.1806E+01E
 ACTION:UP  12-03-31 23:23 OP:EP   STATUS:               ID:20120327081352 L   I
 2012-03-27-0810-00M.COL___196                                                 6
 STAT SP IPHASW D HRMM SECON CODA AMPLIT PERI AZIMU VELO SNR AR TRES W  DIS CAZ7
 BAR2 SZ ES   2    814 26.59                             172    -0.3 5   21 190 
 BRR  HZ EP        814 13.71                             152     0.110   72 301 
 BRR  HE ES   2    814 30.54                             152     0.7 5   72 301 
 BRR  HZ I         814 34.80         5.6 0.14                            72 301 
 PAM  SZ EP        814 14.79                             149     0.010   80  39 
 PAM  SN ES   3    814 31.43                             149    -0.5 2   80  39 
 RUS  HZ EP        814 16.23                             144     0.210   98 176 
 RUS  HN ES   2    814 33.89                             144    -0.3 5   98 176 
 RUS  HZ I         814 35.82         3.2 0.30                            98 176 
 PTB  HZ EP        814 19.02                             132    -0.4 9  147 260 
 PTB  HZ I         814 42.27         1.7 0.12                           147 260 
                                                                                
