 2012  127 0717  1.5 L   6.756 -73.143148.3  RSN  7 0.2 1.6LRSN                1
 GAP=139        0.61       4.1     4.1  5.4 -0.1405E+01  0.2345E+01  0.1324E+01E
 Epicentro: LOS SANTOS - SANTANDER                                             3
 ACTION:UP  12-02-03 08:21 OP:REBC STATUS:               ID:20120127071701 L   I
 2012-01-27-0710-00M.COL___188                                                 6
 STAT SP IPHASW D HRMM SECON CODA AMPLIT PERI AZIMU VELO SNR AR TRES W  DIS CAZ7
 BAR2 SZ EP        717 21.35                             173     0.010   19 193 
 BAR2 SZ ES   1    717 36.61                             173    -0.2 7   19 193 
 BAR2 SZ I         717 43.02        12.8 0.45                            19 193 
 GIR2 SZ EP   1    717 21.49                             166    -0.1 7   36 351 
 BRR  HZ EP        717 23.29                             152     0.210   74 302 
 BRR  HZ I         717 23.60        20.3 0.16                            74 302 
 BRR  HN ES   1    717 40.45                             152     0.5 7   74 302 
 PAM  SZ EP   1    717 24.23                             150     0.0 7   81  37 
 PAM  SN ES   1    717 41.72                             150    -0.2 7   81  37 
 RUS  HZ EP   1    717 25.35                             146     0.2 7   96 176 
 RUS  HN ES   1    717 43.71                             146     0.1 7   96 176 
 RUS  HZ I         717 45.28         3.6 0.16                            96 176 
 PTB  HZ EP   1    717 28.27                             133    -0.4 7  147 261 
 PTB  HE ES   1    717 49.50                             133    -0.3 7  147 261 
 CHI  HZ EP   2    717 39.18                             118     0.3 4  244 196 
 CHI  HZ I         717 41.49         1.2 0.23                           244 196 
                                                                                
