 2011  627 0632 19.8 L   7.203 -73.073152.2  RSN  5 0.1 1.1LRSN                1
 GAP=186        0.34       6.8     8.3  6.0 -0.3559E+02  0.4745E+01  0.3624E+01E
 Epicentro: BUCARAMANGA - SANTANDER                                            3
 ACTION:UP  11-07-14 19:08 OP:ep   STATUS:               ID:20110627063219 L   I
 2011-06-27-0628-50S.COL___140                                                 6
 STAT SP IPHASW D HRMM SECON CODA AMPLIT PERI AZIMU VELO SNR AR TRES W  DIS CAZ7
 GIR2 SZ EP        632 39.98                             172     0.010   19 224 
 BTL  SZ EP        632 40.48                             165    -0.110   38 214 
 BTL  SZ ES   2    632 56.94                             165     0.1 5   38 214 
 BRI  SZ EP   2    632 41.82                             156     0.2 5   64  28 
 BRR  HZ EP        632 41.77                             153     0.110   71 261 
 BRR  HZ I         632 42.16         2.6 0.17                            71 261 
 BRR  HN ES   3    632 58.52                             153    -0.2 2   71 261 
 GRA  SZ EP   3    632 42.22                             150    -0.2 2   81  21 
 GRA  SZ ES   2    633  0.02                             150    -0.1 5   81  21 
 GRA  SZ I         633  0.83         1.8 0.30                            81  21 
                                                                                
