 2016  727 0312 21.3 L   6.686 -73.170124.0  RSN  5 0.3 0.8LRSN                1
 GAP=226        0.82       5.5     6.3  7.0  0.2275E+02  0.5023E+01  0.2095E+00E
 Epicentro: VILLANUEVA - SANTANDER                                             3
 ACTION:UPD 17-03-29 16:55 OP:lp   STATUS:               ID:20160727031221 L   I
 OLDACT:REG 16-07-27 12:49 OP:edw  STATUS:               ID:20160727030759     3
 2016-07-27-0307-59S.COL___340                                                 6
 STAT SP IPHASW D HRMM SECON CODA AMPLIT PERI AZIMU VELO AIN AR TRES W  DIS CAZ7
 BRR  HZ EP        312 40.13                             146   -0.3010 75.9 308 
 BRR  HE ES        312 55.39                             146    0.0210 75.9 308 
 RUS  HZ EP        312 41.81                             143   -0.2010 88.3 174 
 RUS  HN ES        312 58.46                             143    0.2810 88.3 174 
 RUS  HZ I         313  1.70         0.9 0.35            143           88.3 174 
 PTB  HZ EP        312 45.70                             127   -0.43 9  143 264 
 PTB  HN ES        313  5.39                             127   -0.11 9  143 264 
 PTB  HZ I         313  5.46         1.1 0.07            130            143 264 
 SPBC HZ EP        312 47.15                             126    0.08 9  152 221 
 ZAR  HZ EP        312 53.47                             117    0.77 8  207 296 
 ZAR  HE ES        313 17.29                             117    0.09 8  207 296 
 NOR  HZ EP   4    312 57.06                             115    2.25 0  225 237 
                                                                                
