 2011  227 0110 41.9 L   6.783 -73.148142.6  RSN  8 0.3 2.2LRSN                1
 GAP=136        0.78       2.9     6.9  9.0 -0.3272E+01  0.2890E+02  0.7086E+00E
 Epicentro: LOS SANTOS - SANTANDER                                             3
 ACTION:UP  11-03-28 15:11 OP:jfem STATUS:               ID:20110227011041 L   I
 2011-02-27-0108-00S.COL___135                                                 6
 STAT SP IPHASW D HRMM SECON CODA AMPLIT PERI AZIMU VELO SNR AR TRES W  DIS CAZ7
 BAR2 SZ EP        111  1.26                             171     0.110   22 190 
 BAR2 SZ I         111 18.06        46.7 0.31                            22 190 
 RUS  HZ EP   1    111  5.36                             144     0.2 7   99 176 
 RUS  HN ES   1    111 22.92                             144    -0.5 7   99 176 
 RUS  HZ I         111 25.17        18.2 0.19                            99 176 
 GRA  SZ EP        111  7.00                             136     0.010  128  17 
 GRA  SZ ES        111 26.82                             136     0.210  128  17 
 GRA  SZ I         111 29.75        37.3 0.55                           128  17 
 OCA  SZ EP   1    111  9.51                             129    -0.6 7  162 353 
 OCA  SZ ES   2    111 32.41                             129     0.2 5  162 353 
 OCA  SZ I         111 37.42        49.6 0.45                           162 353 
 YOP  SZ EP   1    111 11.83                             126     0.3 7  177 153 
 YOP  SE ES   2    111 34.03                             126    -0.7 4  177 153 
 YOP  SZ I         111 40.43        11.6 0.37                           177 153 
 CHI  HZ EP   1    111 19.19                             117     0.0 6  247 195 
 CHI  HZ I         111 21.41         6.8 0.07                           247 195 
 CHI  HN ES   1    111 48.98                             117     0.7 6  247 195 
 HEL  HN ES   2    111 52.98                             114    -0.1 4  271 256 
 HEL  HZ I         112  1.66        10.5 0.40                           271 256 
 DBB  SZ EP        111 29.08                             109    -0.2 7  339 275 
                                                                                
