 2013  727 0830  3.9 L   6.786 -73.149149.6  RSN  7 0.4 1.4LRSN                1
 GAP=137        0.97       6.2     5.3  7.2 -0.6153E+01  0.3515E+01  0.3568E+01E
 Epicentro: LOS SANTOS - SANTANDER                                             3
 ACTION:UPD 13-08-12 10:40 OP:ep   STATUS:               ID:20130727083003 L   I
 OLDACT:UP  13-07-27 12:01 OP:cam  STATUS:               ID:20130727082959     3
 OLDACT:REG 13-07-27 08:49 OP:cam  STATUS:               ID:20130727082959     3
 2013-07-27-0829-59M.COL___268                                                 6
 STAT SP IPHASW D HRMM SECON CODA AMPLIT PERI AZIMU VELO AIN AR TRES W  DIS CAZ7
 BAR2 SZ EP        830 23.88                             171   -0.0610 21.8 190 
 BAR2 SZ ES        830 39.28                             171   -0.3110 21.8 190 
 BAR2 SZ I         830 40.66         4.2 0.22            170           21.8 190 
 GIR2 SZ ES   1    830 39.52                             167   -0.26 7 32.7 351 
 BRR  HZ EP        830 25.76                             153    0.2910 71.6 300 
 BRR  HN ES        830 43.14                             153    0.8310 71.6 300 
 BRR  HZ I         830 43.91         3.2 0.30            151           71.6 300 
 PAM  SZ EP        830 26.74                             151    0.1610 78.8  39 
 PAM  SN ES        830 44.08                             151   -0.2210 78.8  39 
 PAM  SZ I         830 46.00         5.3 0.52            154           78.8  39 
 RUS  HZ EP   1    830 28.24                             145    0.34 7 99.1 176 
 PTB  HZ EP   1    830 30.93                             133   -0.18 7  147 259 
 PTB  HN ES        830 51.87                             133   -0.47 9  147 259 
 PTB  HZ I         830 59.43         3.6 0.42            132            147 259 
 SML  HN ES   1    831  9.03                             118   -0.67 6  245 336 
                                                                                
