 2013 1227 0710  5.1 L   6.833 -73.151139.4  RSN 16 0.4 2.4LRSN                1
 GAP= 70        0.94       2.7     3.2  5.3 -0.1633E+01  0.7077E+01  0.3488E+00E
 Epicentro: LOS SANTOS - SANTANDER                                             3
 ACTION:UPD 14-01-13 10:21 OP:ep   STATUS:               ID:20131227071005 L   I
 OLDACT:UP  13-12-27 10:59 OP:mh   STATUS:               ID:20131227071000     3
 OLDACT:UP  13-12-27 10:59 OP:mh   STATUS:               ID:20131227071000     3
 OLDACT:REG 13-12-27 07:47 OP:mh   STATUS:               ID:20131227071000     3
 2013-12-27-0710-00M.COL___285                                                 6
 STAT SP IPHASW D HRMM SECON CODA AMPLIT PERI AZIMU VELO AIN AR TRES W  DIS CAZ7
 BAR2 SZ IP        710 24.07                             169    0.0810 26.8 187 
 BAR2 SZ ES        710 38.71                             169   -0.0610 26.8 187 
 BAR2 SZ I         710 41.29       161.9 0.40            164           26.8 187 
 PAM  SZ IP     C  710 26.85                             150    0.4010 75.0  42 
 PAM  SE ES        710 43.76                             150    0.6310 75.0  42 
 RUS  HZ EP     C  710 28.13                             141   -0.3310  104 176 
 RUS  HN ES        710 46.45                             141   -0.2610  104 176 
 RUS  HZ I         710 48.47        58.0 0.31            138            104 176 
 PTB  HZ EP        710 30.68                             130   -0.84 9  148 257 
 PTB  HZ I         710 54.58        35.0 0.18            122            148 257 
 OCA  HZ EP   1    710 32.32                             129   -0.20 7  157 353 
 OCA  HN ES        710 53.53                             129   -0.41 9  157 353 
 OCA  HZ I         710 58.91        22.9 0.26            122            157 353 
 TAM  HZ IP     C  710 32.50                             129    0.12 9  157 106 
 TAM  HN ES        710 53.80                             129    0.10 9  157 106 
 SPBC HZ EP        710 33.03                             127   -0.28 9  166 218 
 SPBC HN ES        710 55.09                             127   -0.25 9  166 218 
 SPBC HZ I         710 57.79        46.1 0.25            120            166 218 
 ZAR  HZ EP        710 36.78                             121   -0.10 9  202 291 
 ZAR  HN ES   1    711  2.32                             121    0.61 6  202 291 
 ZAR  HZ I         711  7.85        44.0 0.19            114            202 291 
 NOR  HZ EP   1    710 40.52                             117   -0.07 6  236 234 
 NOR  HN ES        711  8.00                             117   -0.32 8  236 234 
 NOR  HZ I         711 13.66        18.4 0.17            111            236 234 
 SML  HZ EP   1    710 40.53                             116   -0.40 6  240 335 
 SML  HN ES   2    711  8.44                             116   -0.48 4  240 335 
 CHI  HZ EP        710 42.52                             115   -0.25 8  252 195 
 CHI  HN ES   2    711 12.12                             115   -0.08 4  252 195 
 CHI  HZ I         711 16.25         9.9 0.23            111            252 195 
 ROSC BZ EP   4    710 44.28                             115    1.14 0  256 210 
 ROSC BN ES   4    711 14.43                             115    1.58 0  256 210 
 HEL  HZ EP   1    710 45.97                             113    0.99 6  272 255 
 HEL  HZ I         711 23.82        12.7 0.36            108            272 255 
 URE  HZ EP   4    710 45.69                             112    0.09 0  282 291 
 URE  HN ES   4    711 17.21                             112   -0.02 0  282 291 
 GUY2CHZ EP        710 48.97                             111    0.42 7  303 234 
 GUY2CHN ES        711 23.20                             111    0.71 7  303 234 
 GUY2CHZ I         711 29.32        13.4 0.29                           303 234 
 PTGC HZ EP   4    710 47.41                             110   -1.63 0  312 159 
 PTGC HN ES   4    711 20.36                             110   -3.00 0  312 159 
 PTGC HZ I         711 23.39        11.8 0.19            107            312 159 
 CBOC HZ EP        710 52.13                             109    0.36 7  334 251 
 CBOC HN ES   4    711 26.27                             109   -1.94 0  334 251 
 CBOC HZ I         711 44.91         5.7 0.64            104            334 251 
 ORTC HZ EP   1    710 58.97                             105   -0.09 4  398 216 
 ORTC HN ES        711 42.31                             105    1.12 6  398 216 
 ORTC HZ I         711 49.13         7.7 0.59            101            398 216 
                                                                                
