 2013  127 0937 23.8 L   6.792 -73.144136.3  RSN  6 0.5 1.4LRSN                1
 GAP=100        1.29       7.0     6.1 10.9 -0.3569E+01 -0.1374E+02  0.3987E+00E
 Epicentro: LOS SANTOS - SANTANDER                                             3
 ACTION:UPD 13-02-15 09:17 OP:ep   STATUS:               ID:20130127093723 L   I
 2013-01-27-0928-50M.COL___183                                                 6
 STAT SP IPHASW D HRMM SECON CODA AMPLIT PERI AZIMU VELO AIN AR TRES W  DIS CAZ7
 BAR2 SZ EP   1    937 42.22                             170   -0.07 7 22.5 191 
 BAR2 SZ ES   1    937 56.97                             170    0.27 7 22.5 191 
 BAR2 SZ I         937 59.28         9.5 0.72            173           22.5 191 
 BRR  HZ EP        937 44.36                             150    0.3710 71.8 299 
 BRR  HN ES        938  0.47                             150    0.7510 71.8 299 
 BRR  HN I         938  5.91         3.4 0.14            151           71.8 299 
 PAM  SZ EP        937 45.30                             149    0.2310 77.9  39 
 PAM  SN ES        938  0.87                             149   -0.7710 77.9  39 
 RUS  HN ES        938  4.44                             142    0.1010 99.7 176 
 PTB  HN ES        938  9.56                             130   -0.92 9  148 259 
 TAM  HZ EP        937 50.74                             128    0.02 9  155 105 
                                                                                
