 2013  127 0858 37.6 L   6.724 -73.195141.0  RSN  5 0.5 1.5LRSN                1
 GAP=226        1.28       9.2     9.3  9.3  0.4292E+02  0.1642E+02  0.2070E+02E
 Epicentro: VILLANUEVA - SANTANDER                                             3
 ACTION:UPD 13-02-15 09:17 OP:ep   STATUS:               ID:20130127085837 L   I
 2013-01-27-0848-40M.COL___182                                                 6
 STAT SP IPHASW D HRMM SECON CODA AMPLIT PERI AZIMU VELO AIN AR TRES W  DIS CAZ7
 BAR2 SZ EP        858 56.22                             174   -0.3110 14.6 175 
 BAR2 SZ ES        859 10.74                             174   -0.5410 14.6 175 
 BAR2 SZ I         859 12.26         9.2 0.28            173           14.6 175 
 BRR  HZ EP        858 58.19                             152   -0.0710 71.2 307 
 BRR  HE ES        859 15.27                             152    0.9210 71.2 307 
 BRR  HN I         859 15.73        11.7 0.26            153           71.2 307 
 RUS  HZ EP        859  0.44                             145    0.0910 92.7 172 
 RUS  HN ES        859 18.20                             145    0.1310 92.7 172 
 RUS  HN I         859 20.48         3.3 0.24            146           92.7 172 
 PTB  HZ EP        859  2.99                             132   -0.60 9  141 262 
 PTB  HN ES        859 23.58                             132   -0.26 9  141 262 
 CHI  HZ EP        859 14.87                             117    0.85 8  239 194 
                                                                                
