 2017 1227 0859 14.8 L   6.812 -73.138145.0  RSN  5 0.3 1.4LRSN                1
 GAP=260        0.76       6.0     5.4  7.0  0.7423E+01  0.1027E+02  0.1309E+01E
 Epicentro: LOS SANTOS - SANTANDER                                             3
 ACTION:UPD 18-01-04 13:24 OP:rebc STATUS:               ID:20171227085914 L   I
 OLDACT:UP  17-12-27 15:18 OP:dnl  STATUS:               ID:20171227085328     3
 OLDACT:REG 17-12-27 13:24 OP:osc  STATUS:               ID:20171227085328     3
 2017-12-27-0858-00M.COL___442                                                 6
 STAT SP IPHASW D HRMM SECON CODA AMPLIT PERI AZIMU VELO AIN AR TRES W  DIS CAZ7
 BAR2 EZ EP        859 34.44                             170    0.1010 24.7 191 
 BAR2 EZ ES        859 49.60                             170    0.0010 24.7 191 
 BAR2 EZ I         859 52.52         4.2 0.34            171           24.7 191 
 PTB  HZ EP        859 41.25                             132   -0.53 9  149 258 
 PTB  HE ES        9 0  3.28                             132    0.45 9  149 258 
 PTB  HZ I         9 0  4.54         2.6 0.14            133            149 258 
 SPBC HZ EP        859 43.55                             129    0.19 9  165 219 
 SPBC HN ES        9 0  5.38                             129   -0.27 9  165 219 
 SPBC HZ I         9 0  8.44         3.9 0.36            131            165 219 
 ZAR  HZ EP   4    859 49.55                             122    2.35 0  204 292 
 ZAR  HE ES        9 0 12.39                             122   -0.10 9  204 292 
 ZAR  HZ I         9 0 18.34         4.7 0.56            123            204 292 
 GUY2CHZ EP   2    859 59.38                             112    0.87 4  303 235 
 GUY2CHE ES   4    9 0 34.67                             112    2.05 0  303 235 
 GUY2CHZ I         9 0 40.26         1.1 0.56                           303 235 
                                                                                
