 2014  127 0047 33.5 L   6.297 -73.728 98.7  RSN  4 0.3 1.2LRSN                1
 GAP=166        0.71       4.0     3.3  7.6  0.5409E+01  0.7302E+01  0.6890E+01E
 Epicentro: LANDAZURI - SANTANDER                                              3
 ACTION:UPD 14-03-13 09:58 OP:ep   STATUS:               ID:20140127004733 L   I
 OLDACT:REG 14-01-27 08:05 OP:stll STATUS:               ID:20140127003809     3
 2014-01-27-0038-09M.COL___243                                                 6
 STAT SP IPHASW D HRMM SECON CODA AMPLIT PERI AZIMU VELO AIN AR TRES W  DIS CAZ7
 BAR2 SZ ES        048  3.04                             143    0.2610 68.6  62 
 BAR2 SZ I         048  3.88        15.9 0.46            142           68.6  62 
 RUS  HZ EP        047 51.90                             137    0.3610 84.3 122 
 RUS  HZ I         047 52.11         1.1 0.32            137           84.3 122 
 RUS  HN ES        048  5.27                             137   -0.3510 84.3 122 
 PTB  HZ EP        047 51.02                             136    0.0810 84.9 288 
 PTB  HE ES        048  4.58                             136    0.0210 84.9 288 
 BRR  HZ EP        047 50.95                             135   -0.3710 89.6   1 
 BRR  HE ES        048  5.24                             135    0.0110 89.6   1 
                                                                                
