 2011  227 0805  3.8 L   6.025 -73.723108.0  RSN  6 0.3 1.4LRSN                1
 GAP=111        0.63       4.2     4.8  8.7 -0.2644E+01  0.1837E+02 -0.3090E+01E
 Epicentro: BOLIVAR - SANTANDER                                                3
 ACTION:UP  11-03-28 15:11 OP:jfem STATUS:               ID:20110227080504 L   I
 2011-02-27-0801-30S.COL___135                                                 6
 STAT SP IPHASW D HRMM SECON CODA AMPLIT PERI AZIMU VELO SNR AR TRES W  DIS CAZ7
 RUS  HZ EP   1    8 5 21.84                             144     0.0 7   72 102 
 RUS  HE ES   1    8 5 36.19                             144     0.3 7   72 102 
 RUS  HZ I         8 5 37.81         4.6 0.38                            72 102 
 BAR2 SZ EP   1    8 5 22.39                             139    -0.2 7   87  44 
 BAR2 SZ ES   2    8 5 36.53                             139    -0.6 5   87  44 
 BAR2 SZ I         8 5 38.70        15.5 0.17                            87  44 
 CHI  HZ EP   2    8 5 29.56                             121     0.3 5  154 180 
 CHI  HN ES   2    8 5 48.72                             121    -0.3 5  154 180 
 CHI  HZ I         8 5 52.31         2.3 0.32                           154 180 
 YOP  SZ EP   1    8 5 29.52                             119    -0.1 7  162 117 
 YOP  SZ I         8 5 30.14         3.5 0.30                           162 117 
 HEL  HZ EP   2    8 5 34.38                             113     0.2 4  201 275 
 HEL  HE ES   2    8 5 57.95                             113     0.0 4  201 275 
 HEL  HZ I         8 6  2.74         1.9 0.52                           201 275 
 GRA  SZ EP   2    8 5 36.86                             110    -0.3 4  229  26 
 GRA  SZ ES   2    8 6  4.01                             110     0.8 4  229  26 
 GRA  SZ I         8 6  7.66         1.8 0.39                           229  26 
                                                                                
