 2017 1027 0455 50.3 L   6.775 -73.149138.6  RSN  5 0.3 1.0LRSN                1
 GAP=235        0.78       5.9     5.5  6.2  0.2032E+02  0.5245E+01  0.1781E+00E
 Epicentro: LOS SANTOS - SANTANDER                                             3
 ACTION:UPD 17-11-07 19:37 OP:rebc STATUS:               ID:20171027045550 L   I
 OLDACT:DUP 17-10-27 15:56 OP:dani STATUS:               ID:20171027043431d    3
 OLDACT:DUP 17-10-27 15:53 OP:dani STATUS:               ID:20171027043430d    3
 2017-10-27-0448-00M.COL___444                                                 6
 STAT SP IPHASW D HRMM SECON CODA AMPLIT PERI AZIMU VELO AIN AR TRES W  DIS CAZ7
 BAR2 EZ EP        456  8.76                             171   -0.3010 20.6 190 
 BAR2 EZ ES        456 23.60                             171   -0.0610 20.6 190 
 BAR2 EZ I         456 24.79         3.8 0.23            173           20.6 190 
 BRR  HZ EP        456 10.65                             151   -0.1410 72.2 301 
 BRR  HN ES        456 26.84                             151    0.1110 72.2 301 
 BRR  HZ I         456 30.68         2.0 0.47            152           72.2 301 
 RUS  HZ EP        456 13.12                             143   -0.0810 97.9 176 
 RUS  HN ES        456 31.39                             143    0.3610 97.9 176 
 RUS  HZ I         456 32.86         1.2 0.39            146           97.9 176 
 PTB  HZ EP        456 16.95                             130    0.29 9  147 260 
 PTB  HN ES        456 36.64                             130   -0.54 9  147 260 
 ZAR  HE ES        456 47.86                             121    0.44 9  205 293 
                                                                                
