 2012  527 0916 49.4 L   6.785 -73.191140.0  RSN 10 0.2 2.6LRSN                1
 GAP=132        0.49       1.8     2.5  4.0 -0.6792E+00  0.3527E+01  0.1148E+01E
 Epicentro: LOS SANTOS - SANTANDER                                             3
 ACTION:UP  12-07-05 12:08 OP:pat  STATUS:               ID:20120527091649 L   I
 2012-05-27-0910-00M.COL___198                                                 6
 STAT SP IPHASW D HRMM SECON CODA AMPLIT PERI AZIMU VELO SNR AR TRES W  DIS CAZ7
 BAR2 SZ IP        917  8.56                             171     0.310   21 177 
 BAR2 SZ ES   2    917 23.22                             171     0.2 5   21 177 
 BAR2 SZ I         917 26.49        92.1 0.39                            21 177 
 PAM  SZ EP        917 11.33                             148     0.110   82  41 
 PAM  SN ES   1    917 28.14                             148    -0.2 7   82  41 
 RUS  HZ EP        917 12.36                             143    -0.110   99 173 
 RUS  HN ES   1    917 30.37                             143    -0.1 7   99 173 
 RUS  HZ I         917 32.70        33.8 0.33                            99 173 
 PTB  HZ EP        917 15.29                             132    -0.1 9  143 259 
 PTB  HN ES   1    917 35.74                             132     0.0 7  143 259 
 PTB  HZ I         917 42.72        44.2 0.36                           143 259 
 OCA  HZ EP   1    917 17.21                             128    -0.1 7  161 355 
 OCA  HN ES   1    917 39.30                             128     0.1 7  161 355 
 OCA  HZ I         917 44.76        97.5 0.26                           161 355 
 ZAR  HZ EP   1    917 21.17                             122     0.1 6  200 293 
 ZAR  HE ES   1    917 45.31                             122    -0.4 6  200 293 
 ZAR  HZ I         917 52.92        51.7 0.36                           200 293 
 NOR  SZ EP   1    917 24.01                             118    -0.2 6  230 234 
 NOR  SN ES   1    917 51.66                             118     0.2 6  230 234 
 CHI  HZ EP   1    917 26.52                             116     0.1 6  246 194 
 CHI  HE ES   1    917 55.24                             116    -0.1 6  246 194 
 CHI  HZ I         918  4.51        22.1 0.58                           246 194 
 HEL  HZ EP   1    917 29.23                             114     0.5 6  267 256 
 HEL  HZ I         918  6.83        16.2 0.22                           267 256 
 PRA  HZ EP        917 42.04                             106    -0.2 6  388 209 
 PRA  HN ES        918 23.48                             106     0.0 6  388 209 
                                                                                
