 2016  927 0301 15.6 L   6.831 -73.137140.6  RSN  5 0.1 1.2LRSN                1
 GAP=241        0.35       2.9     2.7  2.6  0.5243E+01  0.1002E+01 -0.2936E+00E
 Epicentro: LOS SANTOS - SANTANDER                                             3
 ACTION:UPD 17-08-17 21:16 OP:lp   STATUS:               ID:20160927030115 L   I
 OLDACT:UP  16-09-27 15:16 OP:edw  STATUS:               ID:20160927025744d    3
 OLDACT:DUP 16-09-27 15:12 OP:edw  STATUS:               ID:20160927025744d    3
 OLDACT:UP  16-09-27 15:10 OP:edw  STATUS:               ID:20160927025743     3
 OLDACT:UP  16-09-27 15:08 OP:edw  STATUS:               ID:20160927025743     3
 OLDACT:REG 16-09-27 12:41 OP:edw  STATUS:               ID:20160927025743     3
 2016-09-27-0258-00M.COL___360                                                 6
 STAT SP IPHASW D HRMM SECON CODA AMPLIT PERI AZIMU VELO AIN AR TRES W  DIS CAZ7
 BAR2 EZ EP        3 1 34.52                             169   -0.1410 26.9 191 
 BAR2 EZ ES        3 1 49.70                             169    0.1510 26.9 191 
 BAR2 EZ I         3 1 50.74         6.5 0.48            168           26.9 191 
 BRR  HN ES        3 1 52.05                             152   -0.1010 70.5 296 
 RUS  HZ EP        3 1 39.06                             142   -0.0010  104 177 
 RUS  HE ES        3 1 57.39                             142   -0.0010  104 177 
 RUS  HZ I         3 1 58.20         1.3 0.17            143            104 177 
 PTB  HZ EP        3 1 42.39                             130    0.12 9  149 258 
 PTB  HE ES        3 2  2.99                             130   -0.11 9  149 258 
 PTB  HZ I         3 2  5.15         1.5 0.14            129            149 258 
 OCA  HN ES   4    3 2  1.84                             129   -2.86 0  157 353 
 ZAR  HZ EP        3 1 47.64                             121   -0.00 9  204 291 
 ZAR  HN ES        3 2 12.79                             121    0.12 9  204 291 
 ZAR  HZ I         3 2 19.00         1.9 0.30            121            204 291 
                                                                                
