 2016  727 0829 53.8 L   6.157 -73.813 95.7  RSN  5 0.3 1.2LRSN                1
 GAP=152        0.85       3.4     3.5  7.2 -0.1559E+01  0.3194E+01 -0.7443E+01E
 Epicentro: LANDAZURI - SANTANDER                                              3
 ACTION:UPD 17-03-29 16:55 OP:lp   STATUS:               ID:20160727082953 L   I
 OLDACT:DUP 16-07-27 17:19 OP:edw  STATUS:               ID:20160727082760d    3
 2016-07-27-0827-59S.COL___337                                                 6
 STAT SP IPHASW D HRMM SECON CODA AMPLIT PERI AZIMU VELO AIN AR TRES W  DIS CAZ7
 SPBC HZ EP        830  9.54                             144    0.2010 62.7 207 
 SPBC HE ES        830 21.65                             144    0.2010 62.7 207 
 SPBC HZ I         830 23.49         7.3 0.22            149           62.7 207 
 PTB  HZ EP        830 10.34                             136   -0.4810 82.8 301 
 PTB  HN ES        830 23.76                             136   -0.3310 82.8 301 
 PTB  HZ I         830 26.88         2.7 0.10            138           82.8 301 
 BAR2 EZ EP        830 11.57                             136    0.2710 84.8  55 
 BAR2 EZ ES        830 24.72                             136   -0.2210 84.8  55 
 BAR2 EZ I         830 27.16         3.9 0.18            139           84.8  55 
 BRR  HZ EP        830 12.62                             128   -0.2810  106   6 
 BRR  HE ES        830 28.04                             128    0.2610  106   6 
 BRR  HZ I         830 30.07         3.2 0.58            131            106   6 
 ZAR  HZ EP        830 21.57                             113   -0.10 9  187 322 
 ZAR  HN ES        830 44.00                             113    0.60 9  187 322 
 ZAR  HZ I         830 46.94         2.7 0.36            114            187 322 
                                                                                
