 2012  727 0350 55.8 L   6.844 -73.163141.9  RSN 24 0.5 3.0LRSN                1
 GAP= 56        0.93       3.1     3.7  5.7 -0.1191E+01  0.5923E+01  0.2435E+01E
 Epicentro: LOS SANTOS - SANTANDER                                             3
 SPEC SD       MO  0.1 ST  4.5 OM  1.6 f00.400 R0.0545 AL      WI      MW  0.1 3
 SPEC HEL HH N MO 14.0 ST  3.1 OM  2.1 f0 2.91 R0.5052 AL 1.73 WI 55.1 MW  3.2 3
 SPEC HEL HH N T 352 6 K 0.000 GD  305 VS 4.20 DE 3.00 Q0230.0 QA 0.60 VS 4.20 3
 SPEC CHI HH N MO 14.2 ST 12.0 OM  2.4 f0 3.71 R0.3962 AL 2.35 WI 35.6 MW  3.4 3
 SPEC CHI HH N T 352 3 K 0.000 GD  289 VS 4.20 DE 3.00 Q0230.0 QA 0.60 VS 4.20 3
 ACTION:UPD 12-08-14 11:45 OP:ep   STATUS:               ID:20120727035056 L   I
 2012-07-27-0350-00M.COL___215                                                 6
 STAT SP IPHASW D HRMM SECON CODA AMPLIT PERI AZIMU VELO AIN AR TRES W  DIS CAZ7
 BAR2 SZ IP        351 15.28                             169     0.210   28 184 
 BAR2 SZ ES   1    351 29.61                             169    -0.5 7   28 184 
 BAR2 SZ I         351 31.66       181.7 0.54            159             28 184 
 BRR  HZ IP     C  351 17.01                             153     0.610   67 296 
 BRR  HZ I         351 17.26       304.5 0.32            139             67 296 
 BRR  HN ES   3    351 33.26                             153     0.9 2   67 296 
 PAM  SZ IP        351 17.97                             151     0.510   75  43 
 PAM  SZ I         351 18.34       262.9 0.18            150             75  43 
 PAM  SN ES   1    351 34.60                             151     0.2 7   75  43 
 RUS  HZ EP        351 19.40                             142    -0.210  106 175 
 RUS  HN ES   1    351 37.57                             142    -0.6 7  106 175 
 RUS  HZ I         351 39.39        90.4 0.26            132            106 175 
 PTB  HZ EP        351 21.87                             131    -0.6 9  147 257 
 PTB  HN ES   3    351 42.75                             131    -0.4 2  147 257 
 PTB  HZ I         351 45.45        81.7 0.12            119            147 257 
 OCA  HZ EP        351 23.16                             129    -0.2 9  155 354 
 OCA  HE ES   2    351 45.37                             129     0.5 5  155 354 
 OCA  HZ I         351 48.15       236.8 0.22            121            155 354 
 TAM  HZ IP     D  351 23.71                             129     0.2 9  158 107 
 TAM  HN ES   1    351 44.88                             129    -0.2 7  158 107 
 YOP  SZ EP   1    351 26.02                             124    -0.1 7  184 153 
 ZAR  HZ EP        351 27.77                             122     0.1 9  200 291 
 ZAR  HN ES   2    351 52.09                             122    -0.4 4  200 291 
 ZAR  HZ I         351 58.90       133.8 0.24            112            200 291 
 NOR  SZ EP        351 31.80                             117     0.3 8  236 233 
 NOR  SN ES   2    351 59.24                             117    -0.1 4  236 233 
 CHI  HZ EP        351 33.45                             116    -0.4 8  253 194 
 CHI  HN ES   1    352  3.67                             116     0.3 6  253 194 
 CHI  HZ I         352 10.01        28.8 0.60            108            253 194 
 ROSC BN ES   2    352  4.65                             115     0.7 4  256 210 
 HEL  HZ EP   3    351 36.51                             114     0.7 2  271 255 
 HEL  HZ I         352 16.32        23.9 0.46            105            271 255 
 URE  HN ES   3    352  6.17                             113    -1.7 2  280 291 
 VIL  SZ EP   1    351 39.27                             111    -0.3 5  308 191 
 VIL  SN ES   1    352 13.13                             111    -0.6 5  308 191 
 VIL  SZ I         352 18.34        23.3 0.34            104            308 191 
 DBB  SZ EP   2    351 43.31                             109     0.4 3  337 273 
 TOL  SZ EP        351 45.24                             108     1.0 6  346 224 
 MON  HN ES   3    352 20.84                             108    -1.0 2  349 308 
 MON  HZ I         352 23.50        20.9 0.26            101            349 308 
 SDV  BZ EP        351 44.73                             107    -0.8 6  359  51 
 ANIL HZ EP   3    351 46.07                             107     0.3 2  359 224 
 ANIL HE ES   3    352 23.96                             107    -0.7 2  359 224 
 ANIL HZ I         352 33.53        74.8 0.28            100            359 224 
 PRA  HZ EP        351 49.38                             106    -0.2 6  395 209 
 PRA  HE ES   1    352 31.16                             106    -0.4 4  395 209 
 PRA  HZ I         352 38.23        35.6 0.64             99            395 209 
 SJC  HZ EP   3    351 49.05                             105    -1.6 1  404 327 
 SJA  SZ EP        351 51.44                             105     0.7 6  404 193 
 PAL  HZ EP   3    351 50.97                             105     0.0 1  407 238 
