 2011  127 0517 59.3 L   6.278 -73.621112.1  RSN  6 0.3 1.2LRSN                1
 GAP=146        0.49       5.4     5.6  8.4 -0.1618E+02  0.2303E+02 -0.1147E+02E
 Epicentro: SANTA HELENA DEL OPON - SANTANDER                                  3
 ACTION:UP  11-02-08 08:42 OP:pat  STATUS:               ID:20110127051759 L   I
 2011-01-27-0514-50S.COL___138                                                 6
 STAT SP IPHASW D HRMM SECON CODA AMPLIT PERI AZIMU VELO SNR AR TRES W  DIS CAZ7
 BAR2 SZ EP   1    518 16.60                             150     0.1 7   60  54 
 BAR2 SZ ES   2    518 30.07                             150     0.1 5   60  54 
 BAR2 SZ I         518 31.38        12.5 0.17                            60  54 
 RUS  HZ EP   2    518 17.58                             145    -0.2 5   73 126 
 RUS  HN ES   2    518 32.04                             145    -0.2 5   73 126 
 RUS  HZ I         518 33.55         2.8 0.12                            73 126 
 GIR2 SZ EP   2    518 19.50                             135     0.0 5  100  28 
 NOR  SZ EP   2    518 24.45                             121    -0.6 5  159 240 
 NOR  SN ES   2    518 45.36                             121     0.3 5  159 240 
 CHI  HZ EP   2    518 28.52                             117     0.5 4  183 184 
 CHI  HZ I         518 55.35         1.1 0.27                           183 184 
 GRA  SZ EP   2    518 29.51                             115     0.0 4  199  27 
 GRA  SZ I         518 59.79         2.2 0.08                           199  27 
                                                                                
