 2014  127 0209 50.5 L   6.696 -73.316130.1  RSN  6 0.4 1.3LRSN                1
 GAP= 98        0.97       4.4     4.4  6.4 -0.9708E+00  0.4242E+01 -0.4148E+01E
 Epicentro: GALAN - SANTANDER                                                  3
 ACTION:UPD 14-03-13 09:58 OP:ep   STATUS:               ID:20140127020950 L   I
 OLDACT:DUP 14-01-27 09:55 OP:stll STATUS:               ID:20140127020808d    3
 2014-01-27-0208-07M.COL___240                                                 6
 STAT SP IPHASW D HRMM SECON CODA AMPLIT PERI AZIMU VELO AIN AR TRES W  DIS CAZ7
 BAR2 SZ EP        210  8.02                             171   -0.1310 18.7 128 
 BAR2 SZ I         210  9.27         8.2 0.12            173           18.7 128 
 BAR2 SZ ES        210 22.66                             171    0.7410 18.7 128 
 BRR  HZ EP        210 10.02                             152    0.5210 63.2 316 
 BRR  HN ES        210 24.23                             152   -0.0910 63.2 316 
 BRR  HZ I         210 26.61         5.9 0.44            151           63.2 316 
 RUS  HZ EP        210 12.24                             143    0.1110 92.5 164 
 RUS  HE ES        210 28.62                             143   -0.3710 92.5 164 
 PAM  SZ EP        210 12.69                             141    0.1110 98.5  44 
 PAM  SZ I         210 13.16         2.2 0.50            141           98.5  44 
 PAM  SN ES        210 29.26                             141   -0.5410 98.5  44 
 PTB  HZ EP        210 14.31                             133   -0.0310  127 262 
 PTB  HZ I         210 15.88         2.7 0.16            132            127 262 
 PTB  HN ES        210 32.59                             133   -0.3410  127 262 
 SML  HZ EP        210 26.68                             114   -0.02 8  247 340 
                                                                                
