 2015  127 0240 15.8 L   6.805 -73.157146.3  RSN 16 0.5 2.2LRSN                1
 GAP= 70        1.13       2.9     3.1  5.9 -0.7151E+00  0.3583E+01  0.5605E+00E
 Epicentro: LOS SANTOS - SANTANDER                                             3
 ACTION:UPD 15-03-02 15:42 OP:nd   STATUS:               ID:20150127024015 L   I
 OLDACT:UP  15-01-27 14:30 OP:cam  STATUS:               ID:20150127023819     3
 OLDACT:REG 15-01-27 12:58 OP:cam  STATUS:               ID:20150127023819     3
 2015-01-27-0238-19M.COL___277                                                 6
 STAT SP IPHASW D HRMM SECON CODA AMPLIT PERI AZIMU VELO AIN AR TRES W  DIS CAZ7
 BAR2 EZ EP   1    240 35.55                             170    0.04 7 23.6 187 
 BAR2 EZ ES        240 50.04                             170   -0.8410 23.6 187 
 BAR2 EZ I         240 51.48        46.1 0.28            167           23.6 187 
 BRR  HZ IP     D  240 37.28                             153    0.3410 69.8 299 
 BRR  HN ES        240 54.26                             153    0.8410 69.8 299 
 BRR  HZ I         240 58.07        28.6 0.18            145           69.8 299 
 PAM  SZ EP        240 38.11                             151    0.0110 77.8  40 
 PAM  SN ES        240 55.53                             151    0.0310 77.8  40 
 PAM  SZ I         240 56.17        14.1 0.18            147           77.8  40 
 RUS  HZ EP     C  240 39.54                             144   -0.1110  101 175 
 RUS  HN ES        240 57.90                             144   -0.3510  101 175 
 RUS  HZ I         240 59.18        13.5 0.26            138            101 175 
 PTB  HZ EP   1    240 42.18                             132   -0.53 7  147 259 
 PTB  HN ES        241  3.27                             132   -0.43 9  147 259 
 PTB  HZ I         241  6.27        11.2 0.28            124            147 259 
 TAM  HZ IP     C  240 43.97                             130    0.32 9  156 105 
 TAM  HN ES        241  5.56                             130    0.19 9  156 105 
 TAM  HN I         241  6.55        27.6 0.62            125            156 105 
 OCA  HZ EP   1    240 43.28                             130   -0.81 7  160 354 
 OCA  HN ES        241  7.11                             130    0.95 9  160 354 
 OCA  HZ I         241 10.43        17.3 0.26            123            160 354 
 SPBC HZ EP   1    240 44.32                             129    0.01 7  163 219 
 SPBC HN ES        241  6.49                             129   -0.05 9  163 219 
 ZAR  HZ EP        240 48.10                             123   -0.04 9  203 292 
 ZAR  HN ES        241 13.27                             123   -0.10 9  203 292 
 ZAR  HZ I         241 19.73        15.8 0.30            116            203 292 
 NOR  HZ EP   1    240 51.23                             119   -0.25 6  234 234 
 NOR  HE ES        241 19.41                             119    0.09 8  234 234 
 NOR  HZ I         241 27.92         9.1 0.22            112            234 234 
 SML  HZ EP        240 51.95                             118   -0.40 8  243 336 
 SML  HN ES        241 19.96                             118   -0.90 8  243 336 
 SML  HZ I         241 25.83        22.7 0.10            112            243 336 
 CHI  HZ EP        240 53.83                             117    0.28 8  249 195 
 CHI  HN ES        241 23.48                             117    0.49 8  249 195 
 CHI  HZ I         241 26.44         9.0 0.60            111            249 195 
 ROSC BZ EP   4    240 56.12                             117    2.19 0  253 211 
 ROSC BZ I         241 30.16        21.3 0.40            111            253 211 
 HEL  HZ EP   4    240 58.01                             115    2.09 0  271 256 
 HEL  HN ES        241 28.01                             115    0.80 8  271 256 
 HEL  HZ I         241 33.88         5.7 0.50            109            271 256 
 GUY2CHZ EP   4    241  0.64                             112    1.29 0  300 235 
 GUY2CHN ES        241 33.12                             112   -0.20 7  300 235 
 GUY2CHZ I         241 43.23         5.4 0.30                           300 235 
 PTGC HZ EP   4 D  240 58.89                             112   -0.90 0  310 158 
 TOL  SZ EP   4    241  5.21                             109    1.19 0  343 224 
 MON  HZ EP   4    241  2.70                             109   -1.97 0  352 308 
 MON  HN ES   4    241 41.25                             109   -1.54 0  352 308 
 MON  HZ I         241 59.04         3.9 0.48            104            352 308 
                                                                                
