 2017 1027 0835 20.0 L   6.800 -73.155141.3  RSN  6 0.5 1.1LRSN                1
 GAP=135        1.23       5.6     5.7  9.8 -0.5010E+01  0.2259E+02 -0.1089E+02E
 Epicentro: LOS SANTOS - SANTANDER                                             3
 ACTION:UPD 17-11-07 19:37 OP:rebc STATUS:               ID:20171027083520 L   I
 OLDACT:UP  17-10-27 17:29 OP:edw  STATUS:               ID:20171027082739     3
 OLDACT:UP  17-10-27 17:29 OP:edw  STATUS:               ID:20171027082739     3
 OLDACT:REG 17-10-27 13:06 OP:dani STATUS:               ID:20171027082739     3
 2017-10-27-0828-00M.COL___435                                                 6
 STAT SP IPHASW D HRMM SECON CODA AMPLIT PERI AZIMU VELO AIN AR TRES W  DIS CAZ7
 BAR2 EZ ES        835 54.10                             170    0.1410 23.2 188 
 BAR2 EZ I         835 55.24         3.0 0.38            171           23.2 188 
 PAM  EZ EP        835 41.58                             150   -0.1710 78.0  40 
 PAM  EE ES        835 58.75                             150    0.0110 78.0  40 
 PAM  EZ I         836  0.33         3.2 0.28            153           78.0  40 
 RUS  HZ EP        835 43.32                             143    0.0210  101 175 
 RUS  HN ES        836  1.46                             143   -0.0310  101 175 
 RUS  HZ I         836  4.32         1.2 0.20            145            101 175 
 PTB  HZ EP        835 45.49                             131   -1.00 9  147 259 
 PTB  HE ES        836  6.87                             131   -0.30 9  147 259 
 PTB  HZ I         836 10.79         1.2 0.14            132            147 259 
 SPBC HN ES        836 10.41                             128    0.41 9  163 219 
 ZAR  HZ EP        835 53.20                             121    1.17 9  203 292 
 ZAR  HN ES        836 17.01                             121   -0.03 9  203 292 
 ZAR  HZ I         836 19.94         2.4 0.46            123            203 292 
                                                                                
