 2012 1227 0541 17.4 L   6.552 -73.407120.8  RSN  7 0.4 2.1LRSN                1
 GAP=107        0.75       4.5     4.0  6.4  0.4734E+01  0.1154E+02  0.4130E+01E
 Epicentro: HATO - SANTANDER                                                   3
 ACTION:UPD 13-01-04 14:30 OP:ep   STATUS:               ID:20121227054117 L   I
 2012-12-27-0540-00M.COL___243                                                 6
 STAT SP IPHASW D HRMM SECON CODA AMPLIT PERI AZIMU VELO AIN AR TRES W  DIS CAZ7
 BAR2 SZ EP        541 34.23                             167    0.1210 25.2  80 
 BAR2 SZ ES   1    541 47.74                             167    0.62 7 25.2  80 
 BAR2 SZ I         541 48.76        87.0 0.24                          25.2  80 
 GIR2 SZ IP     C  541 35.59                             150   -0.0310 62.9  22 
 GIR2 SZ ES   1    541 49.62                             150   -0.19 7 62.9  22 
 GIR2 SZ I         541 50.45        26.1 0.14                          62.9  22 
 BRR  HZ IP     D  541 35.72                             148   -0.1410 70.1 331 
 BRR  HN ES   1    541 50.37                             148    0.13 7 70.1 331 
 BRR  HZ I         541 51.74        23.4 0.14                          70.1 331 
 RUS  HZ EP   1    541 37.67                             144    0.35 7 81.2 154 
 RUS  HN ES   1    541 52.41                             144   -0.43 7 81.2 154 
 RUS  HZ I         541 54.39        30.7 0.22                          81.2 154 
 PTB  HZ EP   1    541 39.15                             133   -0.34 7  116 269 
 PTB  HE ES   1    541 56.14                             133   -0.56 7  116 269 
 PTB  HZ I         541 58.16        21.9 0.12                           116 269 
 ZAR  HZ EP   1    541 46.51                             118   -0.47 7  191 303 
 ZAR  HN ES   1    542 10.37                             118    0.34 7  191 303 
 ZAR  HZ I         542 14.26        12.7 0.24                           191 303 
 HEL  HZ EP   1    541 53.21                             112    0.58 6  238 260 
 HEL  HN ES   2    542 20.75                             112    0.66 4  238 260 
                                                                                
