 2013  327 0250 54.9 L   6.798 -73.150142.2  RSN 13 0.5 1.9LRSN                1
 GAP=136        0.86       2.8     4.0  5.6 -0.1808E+01  0.5903E+01  0.1772E+00E
 Epicentro: LOS SANTOS - SANTANDER                                             3
 ACTION:UPD 13-04-09 14:05 OP:ep   STATUS:               ID:20130327025054 L   I
 2013-03-27-0250-00M.COL___245                                                 6
 STAT SP IPHASW D HRMM SECON CODA AMPLIT PERI AZIMU VELO AIN AR TRES W  DIS CAZ7
 BAR2 SZ EP   1    251 14.41                             170    0.27 7 23.0 189 
 BAR2 SZ ES   1    251 28.61                             170   -0.50 7 23.0 189 
 BAR2 SZ I         251 29.86        53.3 0.20            168           23.0 189 
 BRR  HZ EP        251 16.00                             152    0.3110 70.9 299 
 BRR  HN ES   1    251 32.92                             152    1.04 7 70.9 299 
 BRR  HZ I         251 35.69        15.2 0.22            149           70.9 299 
 PAM  SZ IP     D  251 17.16                             150    0.3510 77.8  40 
 PAM  SN ES   1    251 33.92                             150    0.05 7 77.8  40 
 PAM  SZ I         251 36.09        37.5 0.48            153           77.8  40 
 RUS  HZ EP   1    251 18.32                             143   -0.01 7  100 176 
 RUS  HN ES   1    251 36.47                             143   -0.10 7  100 176 
 RUS  HZ E      C  251 37.05                                            100 176 
 RUS  HZ I         251 38.20        10.1 0.34            143            100 176 
 PTB  HZ EP   1    251 20.98                             131   -0.60 7  147 259 
 PTB  HN ES   1    251 41.41                             131   -0.94 7  147 259 
 PTB  HZ I         251 44.48        19.5 0.16            130            147 259 
 OCA  HZ EP        251 22.57                             129   -0.43 9  160 353 
 OCA  HN ES   1    251 44.32                             129   -0.56 7  160 353 
 OCA  HZ I         251 46.13        14.7 0.28            129            160 353 
 ZAR  HZ EP   1    251 27.43                             122    0.31 6  204 292 
 ZAR  HN ES   1    251 52.44                             122    0.21 6  204 292 
 ZAR  HZ I         252  0.67        11.5 0.46            121            204 292 
 NOR  HZ EP   1    251 30.73                             118    0.32 6  234 234 
 NOR  HN ES   1    251 58.05                             118   -0.03 6  234 234 
 NOR  HZ I         251 59.93         4.9 0.16            117            234 234 
 SML  HZ EP   1    251 30.60                             117   -0.77 6  244 335 
 SML  HN ES   1    251 59.66                             117   -0.13 6  244 335 
 CHI  HZ EP   1    251 32.35                             116   -0.06 6  248 195 
 CHI  HN ES   1    252  1.79                             116    0.16 6  248 195 
 CHI  HZ I         252 11.39         1.8 0.38            116            248 195 
 HEL  HZ EP   1    251 35.43                             114    0.51 6  272 256 
 HEL  HN ES   1    252  6.32                             114    0.22 6  272 256 
 HEL  HZ I         252 13.01         4.5 0.34            113            272 256 
 COD  HN ES   2    252 21.43                             108    0.58 3  348 355 
 COD  HZ I         252 27.43         1.3 0.22            109            348 355 
 PRA  HZ EP   1    251 48.42                             106    0.13 4  392 210 
 PRA  HN ES   1    252 29.59                             106   -0.31 4  392 210 
 PRA  HZ I         252 37.05         2.5 0.26            106            392 210 
 SJC  HZ EP   4    251 48.52                             105   -1.86 0  409 327 
 SJC  HN ES   4    252 32.15                             105   -1.48 0  409 327 
                                                                                
