 2017  627 0233  0.3 L   6.800 -73.139138.0  RSN 13 0.5 1.8LRSN                1
 GAP=167        0.79       4.1     3.1  5.1 -0.4887E+00  0.1722E+01  0.6857E+00E
 Epicentro: LOS SANTOS - SANTANDER                                             3
 ACTION:UPD 17-09-14 16:55 OP:jn   STATUS:               ID:20170627023300 L   I
 OLDACT:UP  17-06-27 14:52 OP:and  STATUS:               ID:20170627022742d    3
 OLDACT:DUP 17-06-27 14:47 OP:and  STATUS:               ID:20170627022742d    3
 OLDACT:UP  17-06-27 14:45 OP:and  STATUS:               ID:20170627022741     3
 OLDACT:REG 17-06-27 12:26 OP:and  STATUS:               ID:20170627022741     3
 2017-06-27-0228-00M.COL___346                                                 6
 STAT SP IPHASW D HRMM SECON CODA AMPLIT PERI AZIMU VELO AIN AR TRES W  DIS CAZ7
 BAR2 EZ IP     D  233 19.10                             170    0.1010 23.4 192 
 BAR2 EZ ES        233 33.38                             170   -0.2010 23.4 192 
 BAR2 EZ I         233 35.43        21.5 0.13            167           23.4 192 
 BRR  HZ IP     D  233 20.99                             151    0.3410 71.8 298 
 BRR  HN ES   3    233 38.22                             151    1.70 2 71.8 298 
 BRR  HZ I         233 41.35        10.3 0.26            149           71.8 298 
 PTB  HZ EP        233 25.98                             130   -0.73 9  148 259 
 PTB  HN ES        233 47.10                             130   -0.21 9  148 259 
 PTB  HZ I         233 48.97         4.9 0.14            129            148 259 
 TAM  HZ IP     D  233 27.42                             129    0.12 9  154 105 
 SPBC HZ EP        233 28.06                             127   -0.19 9  164 219 
 SPBC HN ES        233 50.35                             127    0.29 9  164 219 
 SPBC HZ I         233 54.70        18.6 0.36            127            164 219 
 ZAR  HN ES        233 57.32                             120    0.03 9  205 292 
 ZAR  HZ I         234  3.76        12.0 0.12            121            205 292 
 NOR  HZ EP        233 35.40                             117   -0.25 8  235 235 
 NOR  HN ES   2    234  3.34                             117    0.12 4  235 235 
 NOR  HZ I         234  6.53         4.7 0.16            117            235 235 
 CHI  HZ EP   2    233 36.76                             115   -0.83 4  249 195 
 CHI  HN ES   1    234  6.60                             115   -0.08 6  249 195 
 CHI  HZ I         234  9.91         3.7 0.12            116            249 195 
 ROSC BZ EP   9    233 40.23                             115    2.19 0  253 211 
 ROSC BN ES        234  9.99                                    0.32 8  253 211 
 ROSC BZ I         234 16.96         7.7 0.35            116            253 211 
 HEL  HZ EP   3    233 42.42                             113    2.22 2  273 256 
 HEL  HN ES        234 11.41                             113    0.08 8  273 256 
 HEL  HZ I         234 17.09         4.3 0.30            114            273 256 
 GUY2CHZ EP        233 44.30                             111    0.68 7  302 235 
 GUY2CHN ES   4    234 20.06                             111    2.65 0  302 235 
 GUY2CHZ I         234 25.33         2.6 0.38                           302 235 
 CBOC HZ EP        233 47.21                             108    0.23 7  334 252 
 CBOC HE ES        234 23.35                             108   -0.04 7  334 252 
 CBOC HZ I         234 29.03         1.5 0.58            109            334 252 
 SJC  HZ EP   4    233 53.33                             104   -2.33 0  410 327 
 SJC  HN ES   4    234 34.87                             104   -3.98 0  410 327 
 SJC  HZ I         234 42.08         1.1 0.32            106            410 327 
                                                                                
