 2014  627 0822 15.7 L   6.800 -73.135144.0  RSN 11 0.5 1.7LRSN                1
 GAP=200        1.05       4.0     6.0  9.3 -0.8132E+01  0.1299E+02 -0.5766E+01E
 Epicentro: LOS SANTOS - SANTANDER                                             3
 ACTION:UPD 14-07-01 22:57 OP:nd   STATUS:               ID:20140627082215 L   I
 OLDACT:REG 14-06-27 15:23 OP:spq  STATUS:               ID:20140627081812     3
 2014-06-27-0818-12M.COL___256                                                 6
 STAT SP IPHASW D HRMM SECON CODA AMPLIT PERI AZIMU VELO AIN AR TRES W  DIS CAZ7
 BAR2 SZ EP        822 35.56                             170    0.4410 23.6 193 
 BAR2 SZ ES   1    822 50.22                             170   -0.05 7 23.6 193 
 BAR2 SZ I         822 51.64        12.7 0.20            167           23.6 193 
 PTB  HZ EP        822 42.23                             131   -0.40 9  149 259 
 PTB  HN ES        823  3.28                             131   -0.35 9  149 259 
 PTB  HZ I         823  5.93         8.2 0.14            120            149 259 
 OCA  HZ EP   1    822 43.86                             129   -0.03 7  160 353 
 OCA  HN ES        823  5.53                             129   -0.35 9  160 353 
 OCA  HZ I         823 10.64         5.6 0.18            116            160 353 
 SPBC HZ EP   1    822 44.32                             128    0.18 7  164 219 
 SPBC HN ES        823  6.28                             128   -0.03 9  164 219 
 SPBC HZ I         823 10.79         3.4 0.24            117            164 219 
 ZAR  HZ EP        822 48.92                             122    0.77 9  205 292 
 ZAR  HN ES        823 14.37                             122    0.92 9  205 292 
 ZAR  HZ I         823 16.73         5.0 0.14            111            205 292 
 NOR  HN ES   1    823 19.25                             118   -0.05 6  236 235 
 NOR  HZ I         823 21.25         2.5 0.20            108            236 235 
 SML  HZ EP   1    822 52.17                             117   -0.11 6  244 335 
 SML  HE ES   1    823 19.90                             117   -0.92 6  244 335 
 SML  HZ I         823 23.68         9.9 0.10            107            244 335 
 HEL  HN ES   1    823 26.37                             114   -0.97 6  273 256 
 HEL  HZ I         823 34.44         2.1 0.30            106            273 256 
 CBOC HN ES   1    823 39.75                             109    0.44 5  335 252 
 CBOC HZ I         823 53.38         0.8 0.36            102            335 252 
 PRA  HN ES   1    823 50.19                             106   -0.79 4  393 210 
 PRA  HZ I         823 56.20         1.0 0.26            100            393 210 
 SJC  HZ EP   4    823 10.50                             105   -0.78 0  410 327 
 SJC  HZ I         824  6.22         1.1 0.54            100            410 327 
                                                                                
