 2013  227 0347 46.8 L   6.819 -73.135144.0  RSN  6 0.4 1.7LRSN                1
 GAP=137        0.97       4.3     6.6  7.0 -0.2910E+01  0.9247E+01  0.5946E+01E
 Epicentro: LOS SANTOS - SANTANDER                                             3
 ACTION:UPD 13-03-12 09:36 OP:ep   STATUS:               ID:20130227034746 L   I
 2013-02-27-0338-48M.COL___191                                                 6
 STAT SP IPHASW D HRMM SECON CODA AMPLIT PERI AZIMU VELO AIN AR TRES W  DIS CAZ7
 BAR2 SZ EP   2    348  6.05                             169   -0.17 5 25.7 192 
 BAR2 SZ ES        348 21.00                             169   -0.4110 25.7 192 
 BAR2 SZ I         348 22.32         9.1 0.58            156           25.7 192 
 BRR  HZ EP        348  7.78                             152    0.0610 71.3 297 
 BRR  HN ES        348 24.62                             152    0.5510 71.3 297 
 BRR  HN I         348 28.19        11.5 0.20            133           71.3 297 
 PAM  SZ EP        348  8.83                             151    0.1910 75.0  40 
 PAM  SN ES        348 25.67                             151   -0.0410 75.0  40 
 RUS  HZ EP        348 10.59                             143    0.1110  103 177 
 RUS  HN ES        348 28.86                             143   -0.1310  103 177 
 RUS  HN I         348 30.37         4.3 0.36            134            103 177 
 PTB  HZ EP     D  348 12.88                             131   -0.84 9  149 258 
 PTB  HN I         348 39.17        11.1 0.20            116            149 258 
 CHI  HZ EP   2    348 25.30                             116    0.69 4  251 195 
 CHI  HN ES        348 54.67                             116    0.53 8  251 195 
 CHI  HN I         348 59.33         2.7 0.30            108            251 195 
                                                                                
