 2011 1127 0425 49.2 L   6.782 -73.073143.1  RSN  4 0.2 1.4LRSN                1
 GAP=147        0.37       3.9     5.8  6.0 -0.6840E+00 -0.2448E+01  0.9484E+00E
 Epicentro: LOS SANTOS - SANTANDER                                             3
 ACTION:UPD 12-07-13 16:12 OP:ep   STATUS:               ID:20111127042549 L   I
 2011-11-27-0421-07S.COL___160                                                 6
 STAT SP IPHASW D HRMM SECON CODA AMPLIT PERI AZIMU VELO AIN AR TRES W  DIS CAZ7
 BAR2 SZ EP   2    426  8.29                             170   -0.26 5 24.3 210 
 BAR2 SZ ES   2    426 23.75                             170    0.13 5 24.3 210 
 BAR2 SZ I         426 24.18         6.8 0.28                          24.3 210 
 PAM  SZ EP   2    426 11.26                             151    0.30 5 74.1  34 
 PAM  SN ES   2    426 27.75                             151   -0.16 5 74.1  34 
 BRR  HZ EP   2    426 10.31                             149   -0.25 5 79.2 297 
 BRR  HN ES   2    426 27.35                             149    0.15 5 79.2 297 
 BRR  HZ I         426 28.28         6.7 0.21                          79.2 297 
 RUS  HZ EP   2    426 12.75                             144    0.20 5 98.4 181 
 RUS  HN ES   2    426 30.65                             144   -0.10 5 98.4 181 
 RUS  HZ I         426 31.79         2.0 0.26                          98.4 181 
                                                                                
