 2012  527 0810 49.2 L   6.783 -73.174144.5  RSN  6 0.2 1.6LRSN                1
 GAP=134        0.48       3.5     3.8  5.6  0.1489E+01  0.8235E+01 -0.5925E+00E
 Epicentro: LOS SANTOS - SANTANDER                                             3
 ACTION:UP  12-07-05 12:08 OP:pat  STATUS:               ID:20120527081049 L   I
 2012-05-27-0810-00M.COL___198                                                 6
 STAT SP IPHASW D HRMM SECON CODA AMPLIT PERI AZIMU VELO SNR AR TRES W  DIS CAZ7
 BAR2 SZ EP   1    811  8.67                             171     0.1 8   21 183 
 BAR2 SZ ES   1    811 23.87                             171     0.1 8   21 183 
 BAR2 SZ I         811 25.99        10.8 0.33                            21 183 
 PAM  SE ES   2    811 28.82                             149     0.0 5   81  40 
 RUS  HZ EP   1    811 13.00                             144     0.3 8   99 174 
 RUS  HN ES   1    811 30.74                             144    -0.3 8   99 174 
 RUS  HZ I         811 33.22         3.6 0.26                            99 174 
 PTB  HZ EP        811 15.55                             132    -0.210  144 259 
 PTB  HN ES   1    811 36.51                             132     0.1 7  144 259 
 PTB  HZ I         811 42.44         4.7 0.35                           144 259 
 OCA  HN ES   2    811 39.44                             129    -0.2 5  162 354 
 ZAR  HN ES   2    811 46.60                             122     0.2 5  202 293 
 ZAR  HZ I         811 54.00         6.2 0.17                           202 293 
                                                                                
