 2016  327 0405 19.3 L   6.782 -73.127147.3  RSN  8 0.4 1.5LRSN                1
 GAP=140        0.91       3.5     4.0  6.4 -0.2254E+01  0.8893E+01  0.6210E+00E
 Epicentro: LOS SANTOS - SANTANDER                                             3
 ACTION:UPD 16-05-13 21:28 OP:cam  STATUS:               ID:20160327040519 L   I
 OLDACT:UP  16-03-27 15:05 OP:ak   STATUS:               ID:20160327035745     3
 OLDACT:REG 16-03-27 13:16 OP:ak   STATUS:               ID:20160327035745     3
 2016-03-27-0357-45M.COL___292                                                 6
 STAT SP IPHASW D HRMM SECON CODA AMPLIT PERI AZIMU VELO AIN AR TRES W  DIS CAZ7
 BAR2 EZ EP   2    4 5 38.51                             171   -0.53 5 21.8 196 
 BAR2 EZ ES        4 5 54.49                             171    0.0210 21.8 196 
 BAR2 EZ I         4 5 56.89         6.0 0.48            169           21.8 196 
 PAM  EZ EP        4 5 42.02                             151    0.3710 77.7  37 
 PAM  EN ES        4 5 59.02                             151   -0.1010 77.7  37 
 PAM  EZ I         4 6  1.37         4.2 0.20            156           77.7  37 
 RUS  HZ EP        4 5 42.36                             145   -0.6410 98.4 177 
 RUS  HN ES        4 6  1.77                             145    0.2410 98.4 177 
 RUS  HZ I         4 6  3.01         2.4 0.30            147           98.4 177 
 PTB  HZ EP   2    4 5 46.15                             132   -0.35 5  149 260 
 PTB  HN ES        4 6  7.30                             132   -0.45 9  149 260 
 PTB  HZ I         4 6 14.45         4.4 0.30            132            149 260 
 SPBC HZ EP        4 5 48.43                             129    0.58 9  163 220 
 SPBC HE ES        4 6 10.75                             129    0.60 9  163 220 
 SPBC HZ I         4 6 16.27         8.3 0.06            131            163 220 
 ZAR  HZ EP        4 5 51.95                             122   -0.13 8  207 292 
 ZAR  HE ES        4 6 17.84                             122    0.16 8  207 292 
 ZAR  HZ I         4 6 24.59         3.3 0.24            123            207 292 
 NOR  HZ EP   2    4 5 55.31                             119    0.18 4  235 235 
 NOR  HN ES        4 6 23.04                             119   -0.07 8  235 235 
 NOR  HZ I         4 6 26.84         2.6 0.20            120            235 235 
 CHI  HZ EP   2    4 5 57.37                             118    0.48 4  247 196 
 CHI  HN ES        4 6 25.67                             118   -0.57 8  247 196 
 CHI  HZ I         4 6 30.33         1.1 0.35            120            247 196 
                                                                                
