 2017  327 0610 30.9 L   6.775 -73.078143.7  RSN  6 0.3 0.9LRSN                1
 GAP=147        0.78       4.3     5.7  6.9 -0.4003E+01 -0.1497E+01 -0.3415E+01E
 Epicentro: LOS SANTOS - SANTANDER                                             3
 ACTION:UPD 17-05-25 18:45 OP:jn   STATUS:               ID:20170327061030 L   I
 OLDACT:UP  17-03-27 17:36 OP:and  STATUS:               ID:20170327060741     3
 OLDACT:UP  17-03-27 17:36 OP:and  STATUS:               ID:20170327060741     3
 OLDACT:UP  17-03-27 17:35 OP:and  STATUS:               ID:20170327060741     3
 OLDACT:REG 17-03-27 13:16 OP:and  STATUS:               ID:20170327060741     3
 2017-03-27-0608-00M.COL___348                                                 6
 STAT SP IPHASW D HRMM SECON CODA AMPLIT PERI AZIMU VELO AIN AR TRES W  DIS CAZ7
 BAR2 EZ EP        610 50.29                             170   -0.0410 23.3 210 
 BAR2 EZ ES        611  5.74                             170    0.2910 23.3 210 
 PAM  EZ IP     D  610 53.26                             151    0.4510 75.1  34 
 PAM  EN ES        611  9.39                             151   -0.4710 75.1  34 
 PAM  EZ I         611 12.76         1.1 0.42            152           75.1  34 
 BRR  HZ IP     C  610 52.06                             150   -0.2910 79.1 298 
 BRR  HN ES        611  9.22                             150    0.1810 79.1 298 
 BRR  HZ I         611 12.26         2.9 0.40            150           79.1 298 
 RUS  HN ES        611 12.49                             144    0.0110 97.6 180 
 RUS  HZ I         611 13.84         1.4 0.26            147           97.6 180 
 PTB  HZ EP   9    610 57.12                             130   -1.27 0  155 260 
 PTB  HN ES   2    611 18.10                             132   -0.42 5  155 260 
 PTB  HZ I         611 21.32         1.0 0.17            132            155 260 
 SPBC HN ES   2    611 21.28                             128   -0.59 5  166 222 
                                                                                
