 2011  427 0058 32.6 L   6.835 -73.114144.4  RSN 12 0.4 2.2LRSN                1
 GAP=115        0.81       3.3     4.2  5.6 -0.2515E+01  0.5888E+01  0.1902E+01E
 Epicentro: LOS SANTOS - SANTANDER                                             3
 ACTION:UP  11-06-22 15:33 OP:REBC STATUS:               ID:20110427005832 L   I
 2011-04-27-0058-39S.COL___137                                                 6
 STAT SP IPHASW D HRMM SECON CODA AMPLIT PERI AZIMU VELO SNR AR TRES W  DIS CAZ7
 BAR2 SZ EP   1    058 51.89                             168    -0.2 7   28 196 
 BAR2 SZ ES   1    059  7.26                             168    -0.1 7   28 196 
 BAR2 SZ I         059  8.94        55.9 0.27                            28 196 
 PAM  SZ EP   1    058 54.59                             152     0.3 7   72  39 
 PAM  SN ES   1    059 11.26                             152     0.0 7   72  39 
 PAM  SZ I         059 13.49        19.2 0.20                            72  39 
 BRR  HZ EP        058 53.64                             152     0.010   73 295 
 BRR  HN ES   1    059 10.30                             152     0.2 7   73 295 
 BRR  HZ I         059 13.85        55.3 0.09                            73 295 
 BRI  SZ EP   1    058 56.13                             142     0.2 7  104  20 
 RUS  HZ EP   1    058 56.14                             142    -0.3 7  104 178 
 RUS  HN ES   1    059 14.79                             142    -0.3 7  104 178 
 RUS  HZ I         059 16.25        25.1 0.43                           104 178 
 BRI  SZ I         059 19.14        20.3 0.39                           104  20 
 GRA  SZ EP   1    058 56.82                             138    -0.5 7  121  16 
 GRA  SZ ES   1    059 16.86                             138     0.3 7  121  16 
 GRA  SZ I         059 17.79        30.8 0.37                           121  16 
 OCA  SZ EP   1    059  0.08                             130    -0.4 7  157 352 
 YOP  SZ EP   1    059  2.80                             126     0.1 7  181 155 
 YOP  SN ES   1    059 26.94                             126     0.7 7  181 155 
 YOP  SZ I         059 28.04        12.0 0.28                           181 155 
 NOR  SZ EP   1    059  8.92                             117     0.2 6  240 234 
 NOR  SN ES   1    059 36.35                             117    -0.7 6  240 234 
 NOR  SZ I         059 41.41         2.7 0.11                           240 234 
 HEL  HZ EP   1    059 13.80                             114     0.6 6  276 255 
 HEL  HN ES   1    059 45.50                             114     0.6 6  276 255 
 HEL  HZ I         059 49.03         9.1 0.42                           276 255 
 GUY  SZ EP   1    059 17.08                             112     0.1 5  309 235 
 PRA  HZ EP   1    059 26.17                             106    -0.5 4  397 210 
 PRA  HZ I         1 0 13.69        25.8 0.19                           397 210 
                                                                                
