 2012  227 0144  7.5 L   6.319 -73.591110.6  RSN 11 0.4 1.7LRSN                1
 GAP= 74        0.83       3.2     3.4  6.5 -0.2320E+01  0.5865E+01  0.5787E+01E
 ACTION:UP  12-03-07 16:34 OP:epov STATUS:               ID:20120227014407 L   I
 2012-02-27-0140-00M.COL___192                                                 6
 STAT SP IPHASW D HRMM SECON CODA AMPLIT PERI AZIMU VELO AIN AR TRES W  DIS CAZ7
 BAR2 SZ EP        144 24.48                             152    0.2510 54.3  56 
 BAR2 SZ ES   1    144 37.28                             152   -0.01 7 54.3  56 
 BAR2 SZ I         144 39.16        37.0 0.25                          54.3  56 
 RUS  HZ EP        144 25.82                             144    0.0010 73.4 130 
 RUS  HN ES   1    144 40.11                             144   -0.01 7 73.4 130 
 RUS  HZ I         144 41.85         5.2 0.25                          73.4 130 
 BRR  HZ EP   1    144 26.18                             138   -0.07 7 88.1 351 
 BRR  HZ I         144 29.38        16.1 0.13                          88.1 351 
 BRR  HE ES   1    144 40.79                             138   -0.10 7 88.1 351 
 GIR2 SZ EP        144 27.19                             136    0.1910 94.8  28 
 GIR2 SZ ES   1    144 42.70                             136    0.48 7 94.8  28 
 PTB  HZ EP        144 26.47                             135   -0.7010 98.8 284 
 PTB  HN ES   1    144 42.94                             135    0.42 7 98.8 284 
 PAM  SZ EP   1    144 32.67                             122   -0.01 7  150  41 
 PAM  SZ I         144 34.19         3.8 0.17                           150  41 
 PAM  SN ES   1    144 51.73                             122   -0.59 7  150  41 
 NOR  SZ EP   1    144 34.08                             119    0.44 7  164 239 
 NOR  SN ES   1    144 53.87                             119   -0.16 7  164 239 
 CHI  HZ EP   1    144 36.89                             116    0.29 7  188 185 
 CHI  HE ES   1    144 58.63                             116   -0.68 7  188 185 
 CHI  HZ I         145  4.17         4.2 0.30                           188 185 
 HEL  HZ EP   1    144 39.13                             112   -0.47 6  215 266 
 HEL  HZ I         145  9.94         5.6 0.45                           215 266 
 RREF HZ EP   1    144 44.80                             109    0.87 6  250 231 
 RREF HZ I         145 18.22         5.7 0.37                           250 231 
 PRA  HZ EP   1    144 51.95                             103    0.30 5  322 207 
                                                                                
