 2010  727 0421 36.0 L   6.780 -73.128141.1  RSN  9 0.4 2.0LRSN                1
 GAP=161        0.92       4.0     7.4  7.6 -0.7679E+01  0.1742E+01 -0.4776E+01E
 Epicentro: LOS SANTOS - SANTANDER                                             3
 ACTION:UPD 10-12-01 15:20 OP:pat  STATUS:               ID:20100727042136 L   I
 2010-07-27-0419-55S.COL___123                                                 6
 STAT SP IPHASW D HRMM SECON CODA AMPLIT PERI AZIMU VELO AIN AR TRES W  DIS CAZ7
 BAR2 SZ IP        421 54.99                             171    -0.110   22 197 
 BAR2 SZ ES   1    422  9.28                             171    -0.6 7   22 197 
 BAR2 SZ I         422 10.67        28.1 0.18                            22 197 
 BRR  HZ EP        421 56.93                             151     0.110   74 299 
 BRR  HE ES   1    422 13.54                             151     0.5 7   74 299 
 BRR  HZ I         422 14.97        23.5 0.10                            74 299 
 RUS  HZ EP   1    421 58.95                             144    -0.2 7   98 177 
 RUS  HE ES   1    422 17.52                             144     0.3 7   98 177 
 RUS  HZ I         422 19.36         8.9 0.41                            98 177 
 GUE  SZ EP   1    422  1.21                             138     0.7 7  118  11 
 GRA  SZ IP        422  1.01                             136     0.010  127  16 
 GRA  SZ ES   1    422 20.75                             136     0.3 7  127  16 
 GRA  SZ I         422 21.59        18.1 0.44                           127  16 
 OCA  SZ EP        422  3.72                             128    -0.5 9  163 353 
 OCA  SZ ES   1    422 25.97                             128    -0.2 7  163 353 
 OCA  SZ I         422 28.81        19.2 0.33                           163 353 
 HEL  HN ES   2    422 46.93                             114    -0.5 4  273 256 
 HEL  HZ I         422 49.02         2.0 0.42                           273 256 
 RREF HN ES   2    422 58.41                             110     0.6 3  322 230 
 RREF HZ I         423  3.44         3.1 0.43                           322 230 
 PRA  HZ EP   2    422 29.41                             106     0.1 3  391 210 
 PRA  HE ES   2    423 10.78                             106     0.0 3  391 210 
 PRA  HZ I         423 18.26         4.0 0.55                           391 210 
                                                                                
