 2010  727 0810 12.9 L   6.757 -73.180151.7  RSN  5 0.5 1.4LRSN                1
 GAP=155        1.05      13.1    17.7 14.8  0.4708E+02 -0.1478E+03 -0.9206E+02E
 Epicentro: VILLANUEVA - SANTANDER                                             3
 ACTION:UPD 10-12-01 15:20 OP:pat  STATUS:               ID:20100727081012 L   I
 2010-07-27-0807-33S.COL___123                                                 6
 STAT SP IPHASW D HRMM SECON CODA AMPLIT PERI AZIMU VELO AIN AR TRES W  DIS CAZ7
 BAR2 SZ EP   2    810 32.42                             173    -0.7 5   18 181 
 BAR2 SZ ES   1    810 48.89                             173     0.0 8   18 181 
 BAR2 SZ I         810 50.87         7.9 0.26                            18 181 
 BRR  HZ EP   1    810 34.45                             154    -0.1 8   70 303 
 BRR  HZ I         810 36.37         8.0 0.11                            70 303 
 BRR  HN ES   1    810 51.63                             154     0.1 8   70 303 
 RUS  HZ EP   2    810 37.39                             146     0.5 5   96 174 
 RUS  HZ I         811  0.27         1.8 0.28                            96 174 
 GUE  SZ EP   1    810 39.38                             139     0.8 8  122  13 
 GRA  SZ EP        810 38.70                             137    -0.410  131  18 
 GRA  SZ I         810 59.42         4.3 0.35                           131  18 
                                                                                
