 2011 1127 0808 21.6 L   6.812 -73.093148.0  RSN  4 0.2 1.6LRSN                1
 GAP=143        0.42       4.5     6.3  6.4  0.1001E+01  0.2330E+01 -0.5026E+00E
 Epicentro: LOS SANTOS - SANTANDER                                             3
 ACTION:UPD 12-07-13 16:12 OP:ep   STATUS:               ID:20111127080821 L   I
 2011-11-27-0806-32S.COL___160                                                 6
 STAT SP IPHASW D HRMM SECON CODA AMPLIT PERI AZIMU VELO AIN AR TRES W  DIS CAZ7
 BAR2 SZ EP   2    8 8 41.29                             169   -0.27 5 26.3 202 
 BAR2 SZ ES   2    8 8 56.93                             169   -0.20 5 26.3 202 
 BAR2 SZ I         8 8 57.41         8.9 0.25                          26.3 202 
 PAM  SZ EP   2    8 8 44.09                             153    0.31 5 72.7  37 
 PAM  SN ES   2    8 9  1.01                             153   -0.08 5 72.7  37 
 BRR  HZ EP   1    8 8 43.04                             151   -0.21 7 75.8 296 
 BRR  HZ I         8 8 43.23        10.0 0.15                          75.8 296 
 BRR  HE ES   2    8 9  0.52                             151    0.38 5 75.8 296 
 RUS  HZ EP   2    8 8 45.91                             144    0.26 5  102 179 
 RUS  HN ES   2    8 9  4.47                             144    0.06 5  102 179 
 RUS  HZ I         8 9  4.60         3.3 0.66                           102 179 
                                                                                
