 2014 1127 0852 24.8 L   6.773 -73.112147.2  RSN 10 0.4 1.5LRSN                1
 GAP=142        0.98       3.2     3.9  5.6 -0.3961E+00  0.7616E+01  0.3574E+01E
 Epicentro: LOS SANTOS - SANTANDER                                             3
 ACTION:UPD 14-12-19 15:48 OP:nd   STATUS:               ID:20141127085224 L   I
 OLDACT:DUP 14-11-27 18:30 OP:fm   STATUS:               ID:20141127084743d    3
 2014-11-27-0847-42M.COL___306                                                 6
 STAT SP IPHASW D HRMM SECON CODA AMPLIT PERI AZIMU VELO AIN AR TRES W  DIS CAZ7
 BAR2 SZ EP        852 44.56                             171    0.0110 21.4 201 
 BAR2 SZ ES        853  0.00                             171    0.0310 21.4 201 
 BAR2 SZ I         853  4.03         6.2 0.44            169           21.4 201 
 BRR  HZ EP        852 46.90                             151    0.5410 75.9 299 
 BRR  HN ES        853  3.67                             151    0.4810 75.9 299 
 BRR  HZ I         853  8.62         3.2 0.12            151           75.9 299 
 PAM  SZ EP        852 47.81                             151    0.6510 77.5  36 
 PAM  SN ES        853  4.65                             151    0.0410 77.5  36 
 PAM  SZ I         853  7.10         6.1 0.56            157           77.5  36 
 RUS  HZ EP        852 48.27                             145   -0.1910 97.4 178 
 RUS  HN ES        853  6.67                             145   -0.2410 97.4 178 
 RUS  HZ I         853  9.31         1.7 0.40            147           97.4 178 
 PTB  HZ EP        852 51.78                             132   -0.38 9  151 260 
 PTB  HN ES        853 12.95                             132   -0.55 9  151 260 
 PTB  HZ I         853 20.21         5.1 0.42            133            151 260 
 OCA  HN ES        853 14.95                             129   -1.00 9  164 352 
 OCA  HZ I         853 20.77         7.0 0.48            133            164 352 
 ZAR  HZ EP        852 57.63                             122   -0.17 8  209 293 
 ZAR  HE ES        853 23.88                             122    0.33 8  209 293 
 ZAR  HZ I         853 29.54         3.7 0.42            124            209 293 
 CHI  HZ EP        853  2.20                             118   -0.16 8  247 196 
 CHI  HE ES        853 31.59                             118   -0.08 8  247 196 
 CHI  HZ I         853 42.28         0.9 0.28            120            247 196 
 HEL  HZ EP        853  5.50                             115    0.10 8  275 257 
 HEL  HE ES        853 37.18                             115    0.11 8  275 257 
 HEL  HZ I         853 44.36         3.1 0.30            117            275 257 
 GUY2CHZ EP        853  8.81                             112    0.19 7  303 236 
 GUY2CHE ES        853 43.06                             112    0.26 7  303 236 
 GUY2CHZ I         853 52.26         2.0 0.30                           303 236 
                                                                                
