 2016 1127 0249 25.7 L   6.818 -73.155142.5  RSN 15 0.6 2.2LRSN                1
 GAP= 81        0.99       4.0     2.9  6.0 -0.8113E+00  0.3267E+01  0.8099E+01E
 Epicentro: LOS SANTOS - SANTANDER                                             3
 ACTION:UPD 17-10-26 21:12 OP:lp   STATUS:               ID:20161127024925 L   I
 OLDACT:UP  16-11-27 13:56 OP:dani STATUS:               ID:20161127024748     3
 OLDACT:UP  16-11-27 13:54 OP:dani STATUS:               ID:20161127024748     3
 OLDACT:UP  16-11-27 13:54 OP:dani STATUS:               ID:20161127024748     3
 OLDACT:UP  16-11-27 13:53 OP:dani STATUS:               ID:20161127024748     3
 OLDACT:REG 16-11-27 12:41 OP:dani STATUS:               ID:20161127024748     3
 2016-11-27-0248-00M.COL___349                                                 6
 STAT SP IPHASW D HRMM SECON CODA AMPLIT PERI AZIMU VELO AIN AR TRES W  DIS CAZ7
 BAR2 EZ EP        249 44.83                             170   -0.1110 25.1 187 
 BAR2 EZ ES        249 59.58                             170   -0.4010 25.1 187 
 BAR2 EZ I         250  0.94        38.5 0.34            165           25.1 187 
 BRR  HZ EP     D  249 46.57                             152    0.2110 69.4 298 
 BRR  HN ES        250  3.17                             152    0.6710 69.4 298 
 BRR  HZ I         250  6.79        43.9 0.14            155           69.4 298 
 PAM  EZ EP        249 47.48                             150   -0.0010 76.5  41 
 PAM  EN ES        250  4.40                             150   -0.1010 76.5  41 
 PAM  EZ I         250  6.44        65.3 0.34            153           76.5  41 
 PTB  HZ EP        249 51.60                             131   -0.71 9  147 258 
 PTB  HN ES        250 12.44                             131   -0.66 9  147 258 
 PTB  HZ I         250 15.93        23.6 0.20            132            147 258 
 TAM  HZ EP     C  249 53.36                             129    0.14 9  157 106 
 TAM  HN ES        250 14.81                             129    0.09 9  157 106 
 TAM  HZ I         250 26.85        10.5 0.38            129            157 106 
 ZAR  HZ EP        249 57.53                             122   -0.19 9  202 292 
 ZAR  HN ES        250 23.22                             122    0.48 9  202 292 
 ZAR  HZ I         250 28.29        26.3 0.42            123            202 292 
 NOR  HZ EP   3    250  3.21                             118    1.97 2  235 234 
 NOR  HE ES        250 29.53                             118    0.54 8  235 234 
 NOR  HZ I         250 31.97        11.1 0.22            118            235 234 
 CHI  HZ EP   3    250  5.13                             116    1.77 2  250 195 
 CHI  HN ES        250 32.58                             116   -0.18 8  250 195 
 CHI  HZ I         250 39.42         4.6 0.55            116            250 195 
 ROSC BZ EP   4    250  1.83                             116   -1.90 0  254 211 
 ROSC BN ES   4    250 36.35                             116    2.92 0  254 211 
 ROSC BZ I         250 41.91        11.6 0.28            115            254 211 
 LL6C HZ EP   9    249 50.13                             110   -20.9 0  323 358 
 LL6C HN ES   2    250 26.84                                    1.35 3  323 358 
 CBOC HZ EP   3    250 13.35                             109    0.95 2  333 252 
 CBOC HN ES        250 48.17                             109   -0.69 7  333 252 
 CBOC HZ I         250 56.11         2.4 0.22            110            333 252 
 PRA  HZ EP        250 19.67                             106    0.46 6  393 209 
 PRA  HN ES        251  1.76                             106    0.78 6  393 209 
 PRA  HZ I         251  6.07         7.3 0.20            106            393 209 
 ORTC HZ EP   3    250 20.95                             106    1.37 1  396 216 
 ORTC HE ES   3    251  3.37                             106    1.72 1  396 216 
 ORTC HZ I         251  7.34         3.8 0.27            106            396 216 
 SJC  HZ EP   3    250 18.90                             105   -1.96 1  407 327 
 SJC  HN ES   4    251  0.30                             105   -3.62 0  407 327 
 SJC  HZ I         251  3.88         7.7 0.60            106            407 327 
 CRJC HZ EP   3    250 25.36                             103   -2.49 1  466   4 
                                                                                
