 2012  727 0505 33.4 L   6.275 -73.666108.8  RSN  4 0.1 1.1LRSN                1
 GAP=165        0.34       3.6     3.4  6.3  0.4878E+01 -0.3990E+00  0.6739E+01E
 Epicentro: SANTA HELENA DEL OPON - SANTANDER                                  3
 ACTION:UPD 12-08-14 11:45 OP:ep   STATUS:               ID:20120727050533 L   I
 2012-07-27-0500-00M.COL___215                                                 6
 STAT SP IPHASW D HRMM SECON CODA AMPLIT PERI AZIMU VELO AIN AR TRES W  DIS CAZ7
 BAR2 SZ EP        5 5 50.48                             148    -0.110   64  57 
 BAR2 SZ ES   2    5 6  3.89                             148    -0.1 5   64  57 
 BAR2 SZ I         5 6  5.24         6.1 0.42            151             64  57 
 RUS  HZ EP        5 5 51.94                             142     0.110   77 123 
 BRR  HZ EP        5 5 52.34                             137     0.010   92 357 
 BRR  HN ES   2    5 6  7.34                             137     0.2 5   92 357 
 PTB  HZ EP   3    5 5 52.62                             137     0.2 2   92 289 
 PTB  HN ES   2    5 6  7.09                             137    -0.1 5   92 289 
 PTB  HZ I         5 6  8.11         1.7 0.12            140             92 289 
