 2017 1027 0443 37.1 L   6.763 -73.155144.7  RSN  8 0.4 1.5LRSN                1
 GAP= 96        0.99       4.2     3.7  6.2 -0.8024E+00  0.6621E+00  0.2452E+01E
 Epicentro: LOS SANTOS - SANTANDER                                             3
 ACTION:UPD 17-11-07 19:37 OP:rebc STATUS:               ID:20171027044337 L   I
 OLDACT:REG 17-10-27 12:45 OP:dani STATUS:               ID:20171027043037     3
 2017-10-27-0438-00M.COL___444                                                 6
 STAT SP IPHASW D HRMM SECON CODA AMPLIT PERI AZIMU VELO AIN AR TRES W  DIS CAZ7
 BAR2 EZ EP        443 56.53                             172    0.0110 19.1 189 
 BAR2 EZ ES        444 11.38                             172   -0.2910 19.1 189 
 BAR2 EZ I         444 12.74        11.4 0.16            171           19.1 189 
 BRR  HZ EP        443 58.50                             152    0.3010 72.4 302 
 BRR  HE ES        444 15.31                             152    0.6510 72.4 302 
 BRR  HZ I         444 15.92         4.9 0.34            152           72.4 302 
 PAM  EZ EP        443 59.38                             149   -0.0610 81.2  38 
 PAM  EN ES        444 16.64                             149   -0.2210 81.2  38 
 PAM  EZ I         444 19.02         3.4 0.35            152           81.2  38 
 RUS  HZ EP        444  0.51                             145    0.0510 96.6 175 
 RUS  HN ES        444 18.62                             145   -0.0610 96.6 175 
 RUS  HZ I         444 20.25         6.5 0.26            146           96.6 175 
 PTB  HZ EP        444  3.02                             132   -0.80 9  146 260 
 PTB  HN ES        444 24.04                             132   -0.62 9  146 260 
 PTB  HZ I         444 29.61         2.2 0.38            133            146 260 
 TAM  HZ EP        444  4.84                             130    0.15 9  155 103 
 SPBC HZ EP        444  5.48                             129    0.32 9  159 220 
 SPBC HN ES        444 27.46                             129    0.42 9  159 220 
 SPBC HZ I         444 30.68         4.5 0.22            130            159 220 
 ZAR  HN ES        444 35.00                             122    0.15 9  205 293 
                                                                                
