 2011  227 0922 55.5 L   6.801 -73.201147.3  RSN  5 0.2 1.6LRSN                1
 GAP=162        0.56       3.3    14.5  6.0 -0.1881E+02  0.2627E+02 -0.6138E+01E
 Epicentro: ZAPATOCA - SANTANDER                                               3
 ACTION:UP  11-03-28 15:11 OP:jfem STATUS:               ID:20110227092255 L   I
 2011-02-27-0920-10S.COL___135                                                 6
 STAT SP IPHASW D HRMM SECON CODA AMPLIT PERI AZIMU VELO SNR AR TRES W  DIS CAZ7
 BAR2 SZ EP   1    923 15.50                             171     0.1 8   23 175 
 BAR2 SZ ES   1    923 31.07                             171     0.3 8   23 175 
 BAR2 SZ I         923 32.38         8.3 0.20                            23 175 
 RUS  HZ EP   1    923 19.46                             144     0.0 8  101 173 
 RUS  HE ES   2    923 37.61                             144    -0.6 5  101 173 
 RUS  HZ I         923 39.41         3.5 0.21                           101 173 
 GRA  SZ EP        923 21.27                             137     0.210  128  20 
 GRA  SZ ES   1    923 40.81                             137    -0.2 7  128  20 
 GRA  SZ I         923 43.91         6.0 0.21                           128  20 
 OCA  SZ EP        923 23.75                             130    -0.110  160 355 
 OCA  SZ ES   2    923 45.80                             130    -0.2 5  160 355 
 OCA  SZ I         923 51.59         7.2 0.62                           160 355 
 CHI  HZ EP   2    923 33.23                             118     0.1 4  247 194 
 CHI  HZ I         924 10.72         1.7 0.35                           247 194 
                                                                                
