 2013  127 0928 20.9 L   5.912 -73.845106.5  RSN  6 0.4 2.0LRSN                1
 GAP=141        0.93       3.0     4.0  9.1  0.3509E+01  0.1171E+02  0.4984E+01E
 Epicentro: SUCRE - SANTANDER                                                  3
 ACTION:UPD 13-02-15 09:17 OP:ep   STATUS:               ID:20130127092820 L   I
 2013-01-27-0918-51M.COL___182                                                 6
 STAT SP IPHASW D HRMM SECON CODA AMPLIT PERI AZIMU VELO AIN AR TRES W  DIS CAZ7
 RUS  HZ EP        928 39.96                             139    0.2910 84.4  91 
 RUS  HN ES        928 54.02                             139   -0.2910 84.4  91 
 RUS  HN I         928 55.57         8.7 0.20            140           84.4  91 
 PTB  HZ EP        928 39.27                             134   -0.7910 96.9 316 
 PTB  HN ES        928 55.50                             134    0.4910 96.9 316 
 BAR2 SZ EP        928 41.37                             132    0.2810  105  44 
 BAR2 SZ ES        928 56.66                             132   -0.1910  105  44 
 BAR2 SZ I         928 58.33        40.3 0.30            132            105  44 
 BRR  HZ EP        928 43.49                             124    0.0410  133   6 
 BRR  HN ES        929  1.26                             124    0.2110  133   6 
 BRR  HN I         929  4.00        27.1 0.14            125            133   6 
 CHI  HZ EP        928 45.20                             123    0.25 9  142 175 
 CHI  HN ES        929  3.63                             123   -0.08 9  142 175 
 ZAR  HN ES        929 15.17                             112   -0.25 8  208 327 
                                                                                
