 2017  227 0259 13.0 L   6.043 -73.781 98.7  RSN  4 0.3 1.4LRSN                1
 GAP=199        0.71       4.8     3.7  9.0 -0.1116E+02 -0.7924E+01  0.1905E+02E
 Epicentro: EL PENON - SANTANDER                                               3
 ACTION:UPD 17-05-24 15:41 OP:jn   STATUS:               ID:20170227025912 L   I
 OLDACT:REG 17-02-27 13:02 OP:ar   STATUS:               ID:20170227024743     3
 2017-02-27-0248-00M.COL___369                                                 6
 STAT SP IPHASW D HRMM SECON CODA AMPLIT PERI AZIMU VELO AIN AR TRES W  DIS CAZ7
 BAR2 EZ EP        259 30.95                             135   -0.2110 89.9  47 
 BAR2 EZ ES        259 45.48                             135    0.1310 89.9  47 
 BAR2 EZ I         259 46.79         9.8 0.44            135           89.9  47 
 PTB  HZ EP   2    259 30.65                             133   -0.46 5 92.7 306 
 PTB  HE ES        259 45.49                             133    0.2310 92.7 306 
 PTB  HZ I         259 45.77         4.3 0.30            133           92.7 306 
 BRR  HZ EP        259 33.95                             126    0.4710  118   4 
 BRR  HN ES        259 49.08                             126   -0.3910  118   4 
 BRR  HZ I         259 54.32         4.0 0.14            126            118   4 
 NOR  HZ EP        259 34.93                             123   -0.0210  132 246 
 NOR  HN ES        259 51.99                             123   -0.1010  132 246 
 NOR  HZ I         259 53.95         6.1 0.32            124            132 246 
                                                                                
