 2011  627 0035 53.3 L   6.773 -73.045143.4  RSN 12 0.4 2.2LRSN                1
 GAP=151        0.75       3.6     6.3  5.9 -0.1057E+02 -0.3792E+01  0.6087E+01E
 Epicentro: LOS SANTOS - SANTANDER                                             3
 ACTION:UP  11-07-14 19:08 OP:ep   STATUS:               ID:20110627003553 L   I
 2011-06-27-0034-08S.COL___140                                                 6
 STAT SP IPHASW D HRMM SECON CODA AMPLIT PERI AZIMU VELO SNR AR TRES W  DIS CAZ7
 BAR2 SZ IP        036 12.74                             170     0.110   25 217 
 BAR2 SZ ES   1    036 27.52                             170    -0.3 7   25 217 
 BAR2 SZ I         036 29.56        33.8 0.39                            25 217 
 PAM  SZ EP   3    036 15.64                             152     0.6 2   73  31 
 BRR  HZ IP     C  036 14.59                             149    -0.310   82 297 
 BRR  HZ I         036 14.91        71.4 0.21                            82 297 
 BRR  HN ES   1    036 31.99                             149     0.3 7   82 297 
 RUS  HZ EP        036 16.59                             144     0.010   97 182 
 RUS  HZ I         036 36.60        15.4 0.24                            97 182 
 BRI  SZ IP        036 17.28                             141     0.410  108  15 
 BRI  SZ ES   1    036 35.19                             141    -0.2 7  108  15 
 GRA  SZ IP        036 18.52                             136     0.210  126  12 
 GRA  SZ ES   1    036 38.24                             136     0.4 7  126  12 
 GRA  SZ I         036 39.21        21.8 0.33                           126  12 
 OCA  SZ EP        036 21.35                             128    -0.5 9  165 349 
 OCA  SZ ES   2    036 44.14                             128     0.0 5  165 349 
 OCA  SZ I         036 49.24        18.2 0.43                           165 349 
 NOR  SZ EP   3    036 29.72                             117     0.0 2  242 237 
 NOR  SN ES   2    036 57.57                             117    -0.5 4  242 237 
 CHI  HZ EP        036 30.86                             117     0.0 8  249 198 
 CHI  HZ I         037  7.89         6.9 0.35                           249 198 
 HEL  HZ EP   2    036 35.10                             113     0.6 4  282 257 
 HEL  HZ I         037 11.40         7.1 0.23                           282 257 
 RREF HZ EP   3    036 38.94                             110    -1.2 2  328 231 
 RREF HN ES   2    037 17.73                             110     1.1 3  328 231 
 RREF HZ I         037 24.80         8.1 1.42                           328 231 
 PRA  HZ EP   2    036 46.81                             106    -0.3 3  395 211 
 PRA  HZ I         037 33.82         9.5 0.20                           395 211 
                                                                                
