 2017 1027 0409 48.1 L   7.371 -73.165134.9  RSN  5 0.2 1.1LRSN                1
 GAP=210        0.62       4.6     3.4  4.8 -0.3872E+01  0.3444E+01  0.2032E+00E
 Epicentro: RIONEGRO - SANTANDER                                               3
 ACTION:UPD 17-11-07 19:37 OP:rebc STATUS:               ID:20171027040948 L   I
 OLDACT:UP  17-10-27 15:26 OP:dani STATUS:               ID:20171027040735     3
 OLDACT:REG 17-10-27 12:43 OP:dani STATUS:               ID:20171027040735     3
 2017-10-27-0408-00M.COL___444                                                 6
 STAT SP IPHASW D HRMM SECON CODA AMPLIT PERI AZIMU VELO AIN AR TRES W  DIS CAZ7
 PAM  EZ EP        410  7.84                             158    0.0810 51.5  94 
 PAM  EN ES        410 23.30                             158    0.2110 51.5  94 
 PAM  EZ I         410 25.21         2.2 0.28            159           51.5  94 
 BRR  HZ EP        410  7.64                             152   -0.2110 67.1 244 
 BRR  HN ES        410 23.00                             152   -0.2510 67.1 244 
 BRR  HZ I         410 23.47         3.9 0.10            152           67.1 244 
 BAR2 EZ EP        410  9.53                             146    0.1310 86.2 181 
 BAR2 EZ ES        410 25.76                             146   -0.2510 86.2 181 
 BAR2 EZ I         410 27.12         4.6 0.17            146           86.2 181 
 RUS  HZ EP   1    410 16.14                             127   -0.24 7  164 177 
 RUS  HN ES   1    410 38.59                             127    0.15 7  164 177 
 RUS  HZ I         410 39.69         1.2 0.42            127            164 177 
 PTB  HZ EP        410 16.26                             125   -0.09 9  170 237 
 PTB  HN ES        410 38.87                             125    0.49 9  170 237 
 PTB  HZ I         410 42.00         1.2 0.19            126            170 237 
                                                                                
