 2016  527 0238  2.1 L   6.809 -73.216138.1  RSN  6 0.3 1.7LRSN                1
 GAP=127        0.78       2.9     4.1  5.7 -0.4455E+01  0.7226E+01 -0.2930E+01E
 Epicentro: ZAPATOCA - SANTANDER                                               3
 ACTION:UPD 16-08-18 17:49 OP:cam  STATUS:               ID:20160527023802 L   I
 OLDACT:DUP 16-05-27 15:28 OP:mher STATUS:               ID:20160527022743d    3
 OLDACT:REG 16-05-27 12:34 OP:mh   STATUS:               ID:20160527022742     3
 2016-05-27-0227-42M.COL___320                                                 6
 STAT SP IPHASW D HRMM SECON CODA AMPLIT PERI AZIMU VELO AIN AR TRES W  DIS CAZ7
 BAR2 EZ EP        238 20.91                             170    0.1210 24.2 171 
 BAR2 EZ ES        238 35.64                             170    0.2510 24.2 171 
 BAR2 EZ I         238 37.04        13.0 0.20            173           24.2 171 
 PAM  EZ EP        238 23.77                             148    0.0210 81.8  44 
 PAM  EN ES        238 40.49                             148   -0.1710 81.8  44 
 PAM  EZ I         238 43.07        12.6 0.52            139           81.8  44 
 RUS  HZ EP        238 25.25                             142    0.0510  102 172 
 RUS  HE ES        238 43.25                             142    0.0110  102 172 
 RUS  HZ I         238 44.13         2.9 0.22            138            102 172 
 PTB  HZ EP        238 27.63                             132   -0.10 9  140 258 
 PTB  HN ES        238 48.08                             132    0.33 9  140 258 
 PTB  HZ I         238 50.90         7.8 0.14            124            140 258 
 SPBC HZ EP        238 30.06                             128    0.47 9  159 217 
 SPBC HN ES        238 50.27                             128   -0.80 9  159 217 
 SPBC HZ I         238 57.77         2.8 0.11            122            159 217 
 OCA  HZ EP        238 29.45                             128   -0.17 9  159 356 
 OCA  HE ES        238 51.05                             128   -0.07 9  159 356 
 OCA  HZ I         238 54.95        17.2 0.18            119            159 356 
                                                                                
