 2014 1027 0927 51.0 L   6.462 -73.987 77.4  RSN 12 0.4 1.7LRSN                1
 GAP= 76        1.01       3.3     2.7  7.4 -0.1548E+01  0.7315E+00  0.2597E+01E
 Epicentro: CIMITARRA - SANTANDER                                              3
 ACTION:UPD 14-11-29 23:57 OP:nd   STATUS:               ID:20141027092751 L   I
 OLDACT:UP  14-10-30 10:31 OP:mh   STATUS:               ID:20141027091739d    3
 OLDACT:UP  14-10-30 10:30 OP:mh   STATUS:               ID:20141027091739d    3
 OLDACT:DUP 14-10-30 10:26 OP:mh   STATUS:               ID:20141027091739d    3
 OLDACT:REG 14-10-29 20:13 OP:spq  STATUS:               ID:20141027091737     3
 2014-10-27-0917-37M.COL___268                                                 6
 STAT SP IPHASW D HRMM SECON CODA AMPLIT PERI AZIMU VELO AIN AR TRES W  DIS CAZ7
 PTB  HZ EP        928  3.42                             142   -0.4310 52.6 279 
 PTB  HN ES   1    928 13.60                             142   -0.28 7 52.6 279 
 PTB  HZ I         928 14.02        22.7 0.20            135           52.6 279 
 BRR  HZ IP        928  6.00                             130    0.0510 77.5  23 
 BRR  HN ES        928 17.88                             130    0.2610 77.5  23 
 BRR  HZ I         928 19.15        13.7 0.16            126           77.5  23 
 BAR2 SZ EP        928  7.87                             126    0.3810 90.1  81 
 BAR2 SZ ES        928 20.75                             126    0.3910 90.1  81 
 BAR2 SZ I         928 22.19        21.0 0.10            121           90.1  81 
 RUS  HZ EP        928 10.76                             118    0.0010  118 122 
 RUS  HN ES        928 25.90                             118   -0.2710  118 122 
 RUS  HZ I         928 27.26         5.5 0.36            112            118 122 
 PAM  SZ EP        928 16.44                             109   -0.45 9  172  56 
 PAM  SN ES        928 36.73                             109   -0.35 9  172  56 
 PAM  SZ I         928 37.84        12.2 0.24            104            172  56 
 HEL  HZ EP        928 17.34                             108    0.48 9  173 260 
 HEL  HN ES   1    928 36.86                             108   -0.17 7  173 260 
 HEL  HZ I         928 41.56         5.6 0.52            104            173 260 
 GUY2CHZ EP        928 21.25                             105    0.50 9  205 228 
 GUY2CHN ES   4    928 43.35                             105   -0.60 0  205 228 
 OCA  HZ EP   1    928 20.30                             105   -0.63 6  210  21 
 OCA  HN ES        928 44.28                             105    0.00 8  210  21 
 OCA  HZ I         928 50.26         5.5 0.22            101            210  21 
 URE  HZ EP   9    928 21.11                             103   -1.16 0  222 310 
 URE  HN ES        928 44.83                             111   -0.67 8  222 310 
 TOL  SZ EP   9    928 28.10                             102    1.55 0  255 216 
 TOL  SN ES        928 55.91                             103    0.08 8  255 216 
 MON  HZ EP   9    928 32.29                              99   -1.30 0  316 324 
 MON  HN ES        929  6.29                              56    0.78 7  316 324 
 PRA  HZ EP   9    928 37.42                              99    3.32 0  320 198 
 PRA  HN ES        929  9.99                              98   -1.05 7  320 198 
 PRA  HZ I         929 20.33         1.7 0.30             96            320 198 
                                                                                
