 2012  327 0905 39.6 L   6.869 -73.186146.7  RSN  7 0.4 1.8LRSN                1
 GAP=128        0.86       5.4     4.6  8.4  0.3082E+01  0.4829E+01  0.1082E+01E
 ACTION:UP  12-03-31 23:23 OP:EP   STATUS:               ID:20120327090539 L   I
 2012-03-27-0903-35M.COL___169                                                 6
 STAT SP IPHASW D HRMM SECON CODA AMPLIT PERI AZIMU VELO SNR AR TRES W  DIS CAZ7
 BAR2 SZ EP        9 5 59.38                             168    -0.110   31 179 
 BAR2 SZ I         9 5 59.62         8.5 0.12                            31 179 
 BRR  HZ IP     C  9 6  0.76                             155     0.310   64 294 
 BRR  HN ES   1    9 6 17.41                             155     0.7 7   64 294 
 BRR  HZ I         9 6 17.65        12.0 0.12                            64 294 
 PAM  SZ EP        9 6  1.88                             152     0.110   75  46 
 PAM  SN ES   1    9 6 18.43                             152    -0.6 7   75  46 
 RUS  HZ EP        9 6  4.11                             142     0.110  109 174 
 RUS  HN ES   1    9 6 22.85                             142    -0.2 7  109 174 
 PTB  HN ES   1    9 6 27.23                             133    -0.1 7  145 256 
 ZAR  HZ EP        9 6 11.21                             124    -0.2 9  197 291 
 ZAR  HE ES   1    9 6 35.58                             124    -0.6 6  197 291 
 ZAR  HZ I         9 6 42.37        10.1 0.30                           197 291 
 NOR  SN ES   3    9 6 42.64                             119    -0.8 2  236 232 
                                                                                
