 2017  727 0644 57.0 L   6.714 -73.379128.8  RSN  4 0.2 1.2LRSN                1
 GAP=162        0.49       4.4     3.5  4.7  0.4088E+01  0.5604E+01  0.4147E+01E
 Epicentro: GALAN - SANTANDER                                                  3
 ACTION:UPD 17-08-30 15:37 OP:rebc STATUS:               ID:20170727064457 L   I
 OLDACT:UP  17-07-27 15:29 OP:and  STATUS:               ID:20170727063749d    3
 OLDACT:DUP 17-07-27 15:27 OP:and  STATUS:               ID:20170727063749d    3
 2017-07-27-0638-00M.COL___371                                                 6
 STAT SP IPHASW D HRMM SECON CODA AMPLIT PERI AZIMU VELO AIN AR TRES W  DIS CAZ7
 BAR2 EZ EP   2    645 14.94                             168    0.31 5 25.6 122 
 BAR2 EZ ES        645 28.17                             168   -0.2310 25.6 122 
 BAR2 EZ I         645 29.01         7.3 0.28            166           25.6 122 
 BRR  HZ EP        645 15.60                             155    0.0910 57.0 320 
 BRR  HN ES        645 30.05                             155    0.0910 57.0 320 
 RUS  HZ EP   2    645 19.05                             141    0.26 5 96.5 160 
 RUS  HN ES   2    645 36.12                             141    0.31 5 96.5 160 
 RUS  HZ I         645 38.62         2.4 0.28            139           96.5 160 
 PTB  HZ EP        645 19.85                             134   -0.2710  121 261 
 PTB  HN ES        645 38.27                             134    0.0910  121 261 
 PTB  HZ I         645 42.30         2.2 0.26            132            121 261 
                                                                                
