 2014 1227 0940 14.2 L   6.824 -73.164147.0  RSN 15 0.3 1.9LRSN                1
 GAP=133        0.75       2.0     2.9  4.3 -0.1010E+01  0.2305E+01  0.4460E+00E
 Epicentro: LOS SANTOS - SANTANDER                                             3
 ACTION:UPD 15-02-10 17:07 OP:nd   STATUS:               ID:20141227094015dL   I
 OLDACT:DUP 14-12-27 19:07 OP:mh   STATUS:               ID:20141227093748d    3
 OLDACT:REG 14-12-27 13:36 OP:mh   STATUS:               ID:20141227093747     3
 2014-12-27-0937-47M.COL___265                                                 6
 STAT SP IPHASW D HRMM SECON CODA AMPLIT PERI AZIMU VELO AIN AR TRES W  DIS CAZ7
 BAR2 EZ EP        940 33.69                             170   -0.3010 25.7 184 
 BAR2 EZ I         940 51.38        12.5 0.04            168           25.7 184 
 BRR  HZ EP        940 35.80                             154    0.5210 68.1 297 
 BRR  HN ES        940 51.93                             154    0.1910 68.1 297 
 BRR  HZ I         940 56.90                             154           68.1 297 
 PAM  SZ IP        940 36.74                             151    0.2710 76.7  42 
 PAM  SN ES        940 53.75                             151   -0.1210 76.7  42 
 PAM  SZ I         940 56.05         6.2 0.36            156           76.7  42 
 RUS  HZ EP        940 38.32                             143    0.0810  103 175 
 RUS  HN ES        940 56.50                             143   -0.5110  103 175 
 RUS  HZ I         940 58.98         7.5 0.40            144            103 175 
 PTB  HZ EP        940 40.77                             133   -0.33 9  146 258 
 PTB  HN ES        941  1.86                             133   -0.25 9  146 258 
 PTB  HZ I         941  8.37        16.4 0.10            133            146 258 
 OCA  HZ EP        940 42.16                             130   -0.15 9  157 354 
 OCA  HN ES        941  4.76                             130    0.51 9  157 354 
 OCA  HZ I         941  7.78         8.6 0.14            133            157 354 
 SPBC HZ EP        940 43.04                             129    0.21 9  164 218 
 SPBC HN ES        941  5.43                             129    0.24 9  164 218 
 SPBC HZ I         941  9.66        20.0 0.24            130            164 218 
 ZAR  HZ EP        940 45.82                             123   -0.57 9  201 292 
 ZAR  HN ES   1    941 11.46                             123   -0.07 6  201 292 
 NOR  HZ EP        940 50.17                             119    0.22 8  235 234 
 NOR  HN ES        941 18.06                             119    0.19 8  235 234 
 NOR  HZ I         941 23.79         5.4 0.18            120            235 234 
 SML  HZ EP        940 50.09                             118   -0.42 8  240 335 
 SML  HN ES        941 18.73                             118   -0.13 8  240 335 
 SML  HZ I         941 21.15        17.1 0.10            120            240 335 
 CHI  HZ EP        940 52.12                             117   -0.03 8  251 195 
 CHI  HN ES        941 22.06                             117    0.28 8  251 195 
 CHI  HZ I         941 33.22         3.7 0.16            118            251 195 
 HEL  HZ EP   9    940 56.16                             115    1.87 0  271 255 
 HEL  HN ES   1    941 27.21                             115   -0.25 6  271 255 
 HEL  HZ I         941 34.87         4.5 0.26            116            271 255 
 URE  HZ EP   4    940 58.21                             114    3.24 0  281 292 
 URE  HN ES   4    941 24.44                             114   -2.36 0  281 292 
 URE  HZ I         941 33.95         6.5 0.12            115            281 292 
 CBOC HZ EP   1    941  1.44                             110    0.44 5  332 252 
 CBOC HN ES   1    941 37.38                             110   -0.15 5  332 252 
 CBOC HZ I         941 41.00         1.7 0.76            111            332 252 
 MON  HZ EP   4    940 59.90                             109   -2.94 0  350 308 
 MON  HN ES   4    941 38.42                             109   -2.38 0  350 308 
 MON  HZ I         941 41.64         2.1 0.30            110            350 308 
                                                                                
