 2013  627 0558 36.3 L   6.770 -73.155149.6  RSN  6 0.4 1.5LRSN                1
 GAP=182        0.94       5.6     7.6  7.0  0.1687E+02 -0.3156E+01 -0.1078E+02E
 Epicentro: LOS SANTOS - SANTANDER                                             3
 ACTION:UPD 14-01-08 09:57 OP:ep   STATUS:               ID:20130627055836 L   I
 OLDACT:UP  13-06-27 09:12 OP:jn   STATUS:               ID:20130627055641     3
 OLDACT:REG 13-06-27 07:11 OP:jn   STATUS:               ID:20130627055641     3
 2013-06-27-0556-41M.COL___232                                                 6
 STAT SP IPHASW D HRMM SECON CODA AMPLIT PERI AZIMU VELO AIN AR TRES W  DIS CAZ7
 BAR2 SZ EP        558 56.37                             172    0.0910 19.9 189 
 BAR2 SZ ES        559 11.44                             172   -0.4610 19.9 189 
 BAR2 SZ I         559 12.79        11.3 0.44            171           19.9 189 
 GIR2 SZ EP        558 56.51                             166    0.0410 34.4 353 
 BRR  HZ EP        558 58.26                             153    0.4010 71.9 301 
 BRR  HN ES        559 15.32                             153    0.6110 71.9 301 
 BRR  HZ I         559 16.29         6.4 0.12            153           71.9 301 
 RUS  HZ EP        559  0.55                             146    0.3910 97.3 175 
 RUS  HN ES   1    559 18.40                             146   -0.40 7 97.3 175 
 RUS  HZ I         559 20.22         5.0 0.28            146           97.3 175 
 PTB  HZ EP        559  3.09                             133   -0.30 9  146 260 
 PTB  HN ES   1    559 24.30                             133   -0.25 7  146 260 
 PTB  HZ I         559 26.14         3.1 0.46            133            146 260 
 SML  HZ EP        559 12.96                             118   -0.42 8  246 336 
 SML  HE ES   1    559 41.76                             118   -0.57 6  246 336 
                                                                                
