 2015  927 0202 15.4 L   6.812 -73.166145.0  RSN 10 0.4 1.7LRSN                1
 GAP=133        0.94       3.0     4.8  6.8 -0.3746E+00 -0.3427E+01  0.1574E+01E
 Epicentro: LOS SANTOS - SANTANDER                                             3
 ACTION:UPD 15-10-28 16:28 OP:cam  STATUS:               ID:20150927020215 L   I
 OLDACT:DUP 15-09-27 15:52 OP:spq  STATUS:               ID:20150927015752d    3
 2015-09-27-0157-51M.COL___352                                                 6
 STAT SP IPHASW D HRMM SECON CODA AMPLIT PERI AZIMU VELO AIN AR TRES W  DIS CAZ7
 BAR2 EZ ES   1    2 2 49.82                             170   -0.41 7 24.4 184 
 BAR2 EZ I         2 2 50.69        12.2 0.34            169           24.4 184 
 BRR  HZ EP     C  2 2 36.59                             153    0.2510 68.6 298 
 BRR  HN ES        2 2 53.44                             153    0.7910 68.6 298 
 BRR  HZ I         2 2 57.99         7.3 0.26            150           68.6 298 
 PAM  EZ EP        2 2 37.78                             151    0.2010 77.8  41 
 RUS  HZ EP   1    2 2 39.42                             143    0.22 7  102 175 
 RUS  HE ES   1    2 2 57.10                             143   -0.66 7  102 175 
 RUS  HZ I         2 2 58.93         3.4 0.22            144            102 175 
 PTB  HZ EP   1    2 2 41.51                             132   -0.64 7  146 258 
 PTB  HN ES        2 3  2.38                             132   -0.61 9  146 258 
 PTB  HZ I         2 3  7.49         6.7 0.14            130            146 258 
 OCA  HZ EP   1    2 2 43.21                             130   -0.31 7  159 354 
 OCA  HE ES        2 3  5.22                             130   -0.21 9  159 354 
 OCA  HZ I         2 3  7.74        16.1 0.25            130            159 354 
 SPBC HZ EP        2 2 44.09                             129    0.27 9  163 218 
 SPBC HN ES        2 3  6.15                             129    0.17 9  163 218 
 SPBC HZ I         2 3  7.26         6.0 0.22            128            163 218 
 ZAR  HN ES        2 3 12.73                             123    0.13 9  201 292 
 ZAR  HZ I         2 3 19.07         4.5 0.10            121            201 292 
 SML  HE ES   1    2 3 19.63                             117   -0.48 6  242 336 
 SML  HZ I         2 3 24.91         8.0 0.07            117            242 336 
 CHI  HZ EP        2 2 53.20                             117    0.05 8  249 195 
 CHI  HE ES   1    2 3 22.84                             117    0.25 6  249 195 
 CHI  HZ I         2 3 30.73         1.3 0.23            117            249 195 
                                                                                
