 2014  327 0848  6.4 L   6.809 -73.157145.3  RSN  9 0.5 1.5LRSN                1
 GAP=182        1.24       3.6     6.5  8.3  0.3589E+00  0.1459E+02 -0.1929E+01E
 Epicentro: LOS SANTOS - SANTANDER                                             3
 ACTION:UPD 14-04-09 23:20 OP:nd   STATUS:               ID:20140327084806 L   I
 OLDACT:REG 14-03-27 08:26 OP:carl STATUS:               ID:20140327084047     3
 2014-03-27-0840-47M.COL___232                                                 6
 STAT SP IPHASW D HRMM SECON CODA AMPLIT PERI AZIMU VELO AIN AR TRES W  DIS CAZ7
 BAR2 SZ EP        848 26.33                             170    0.3410 24.1 187 
 BAR2 SZ ES        848 41.23                             170   -0.0410 24.1 187 
 BAR2 SZ I         848 42.88         9.2 0.40            168           24.1 187 
 RUS  HE ES        848 47.98                             143   -0.7510  102 175 
 PTB  HZ EP        848 33.25                             132    0.02 9  147 258 
 PTB  HN ES        848 53.80                             132   -0.37 9  147 258 
 PTB  HZ I         848 56.31         3.3 0.20            130            147 258 
 OCA  HE ES        848 57.47                             130    0.93 9  159 354 
 SPBC HZ EP        848 35.22                             129    0.37 9  163 218 
 SPBC HE ES        848 57.31                             129    0.25 9  163 218 
 SPBC HZ I         848 59.49         5.3 0.16            127            163 218 
 ZAR  HE ES        849  4.05                             122    0.23 9  203 292 
 NOR  HZ EP        848 41.19                             118   -0.86 8  234 234 
 NOR  HE ES        849 10.44                             118    0.58 8  234 234 
 NOR  HZ I         849 17.96         2.5 0.18            117            234 234 
 SML  HZ EP        848 42.54                             117   -0.30 8  242 335 
 SML  HE ES        849 10.31                             117   -0.96 8  242 335 
 SML  HZ I         849 17.83         4.3 0.10            117            242 335 
 CHI  HZ EP        848 44.45                             117    0.32 8  249 195 
 CHI  HN ES        849 13.68                             117    0.11 8  249 195 
 CHI  HZ I         849 23.25         1.1 0.60            116            249 195 
                                                                                
