 2016  827 0529 12.4 L   6.805 -73.133150.2  RSN 14 0.5 1.7LRSN                1
 GAP=120        1.07       2.9     3.7  5.3 -0.2505E+01 -0.8546E-01  0.1016E+01E
 Epicentro: LOS SANTOS - SANTANDER                                             3
 ACTION:UPD 16-10-29 15:39 OP:rebc STATUS:               ID:20160827052912 L   I
 OLDACT:REG 16-08-27 12:55 OP:ak   STATUS:               ID:20160827052742     3
 2016-08-27-0528-00M.COL___374                                                 6
 STAT SP IPHASW D HRMM SECON CODA AMPLIT PERI AZIMU VELO AIN AR TRES W  DIS CAZ7
 BAR2 EZ EP        529 32.70                             170    0.1310 24.2 193 
 BAR2 EZ ES        529 47.85                             170   -0.4610 24.2 193 
 BAR2 EZ I         529 50.36        15.8 0.26                          24.2 193 
 BRR  HZ IP     C  529 34.41                             153    0.3410 72.2 298 
 BRR  HN ES        529 51.34                             153    0.3510 72.2 298 
 BRR  HZ I         529 53.99         9.7 0.40                          72.2 298 
 PAM  EZ EP        529 35.53                             152    0.5310 76.0  39 
 PAM  EN ES        529 52.86                             152    0.2310 76.0  39 
 PAM  EZ I         529 54.87         8.1 0.38                          76.0  39 
 RUS  HZ EP        529 36.66                             144    0.0510  101 177 
 RUS  HN ES        529 55.24                             144   -0.2710  101 177 
 RUS  HZ I         529 56.71         3.8 0.22                           101 177 
 PTB  HZ EP        529 38.98                             133   -0.88 9  149 259 
 PTB  HN ES        530  0.39                             133   -0.89 9  149 259 
 PTB  HZ I         530  7.54         4.8 0.18                           149 259 
 OCA  HZ EP        529 41.21                             131    0.20 9  160 353 
 OCA  HN ES        530  3.69                             131    0.36 9  160 353 
 OCA  HZ I         530  6.58        10.3 0.25                           160 353 
 SPBC HZ EP        529 41.54                             130    0.18 9  165 219 
 SPBC HE ES        530  4.04                             130    0.09 9  165 219 
 SPBC HZ I         530  9.60                                            165 219 
 ZAR  HZ EP   4    529 46.78                             123    1.54 0  205 292 
 ZAR  HN ES        530 11.22                             123    0.36 9  205 292 
 ZAR  HZ I         530 17.43         4.6 0.20                           205 292 
 CHI  HZ EP        529 50.80                             118    0.36 8  250 195 
 CHI  HN ES        530 20.23                             118    0.12 8  250 195 
 CHI  HZ I         530 23.86         2.6 0.28                           250 195 
 ROSC BZ EP   2    529 51.68                             117    0.79 4  254 211 
 ROSC BN ES   4    530 23.25                             117    2.33 0  254 211 
 ROSC BZ I         530 27.31         6.8 0.40                           254 211 
 SOCV BZ EP        529 55.40                             113   -0.07 7  300  57 
 SOCV BE ES        530 27.94                             113   -1.13 7  300  57 
 GUY2CHZ EP   2    529 56.31                             113   -0.06 4  303 235 
 GUY2CHN ES   4    530 33.60                             113    2.92 0  303 235 
 GUY2CHZ I         530 40.02         1.9 0.30                           303 235 
 PRA  HZ EP        530  6.33                             107    0.13 6  393 210 
 PRA  HN ES        530 48.73                             107    0.55 6  393 210 
 PRA  HZ I         530 53.84         3.4 0.28                           393 210 
 SJC  HZ EP   2    530  6.94                             106   -1.19 3  410 327 
 SJC  HE ES        530 50.83                             106   -0.78 6  410 327 
 SJC  HZ I         530 52.00         1.0 0.34                           410 327 
                                                                                
