 2015 1027 0922 23.1 L   6.802 -73.139147.0  RSN  6 0.3 1.4LRSN                1
 GAP=137        0.75       3.2     4.3  6.3  0.2035E+01  0.7106E+01 -0.4975E+01E
 Epicentro: LOS SANTOS - SANTANDER                                             3
 ACTION:UPD 15-12-22 20:43 OP:cam  STATUS:               ID:20151027092223 L   I
 OLDACT:UP  15-10-27 18:57 OP:mh   STATUS:               ID:20151027091743     3
 OLDACT:UP  15-10-27 18:56 OP:mh   STATUS:               ID:20151027091743     3
 OLDACT:UP  15-10-27 18:56 OP:mh   STATUS:               ID:20151027091743     3
 OLDACT:REG 15-10-27 12:33 OP:mh   STATUS:               ID:20151027091743     3
 2015-10-27-0917-43M.COL___307                                                 6
 STAT SP IPHASW D HRMM SECON CODA AMPLIT PERI AZIMU VELO AIN AR TRES W  DIS CAZ7
 BRR  HZ EP        922 44.44                             152   -0.0110 71.7 298 
 BRR  HN ES   1    923  1.28                             152    0.21 7 71.7 298 
 BRR  HZ I         923  2.33         4.9 0.18            151           71.7 298 
 PAM  EZ EP        922 45.89                             151    0.4510 76.7  39 
 PAM  EN ES        923  2.71                             151   -0.1310 76.7  39 
 PAM  EZ I         923  4.95         3.1 0.62            154           76.7  39 
 RUS  HZ EP   1    922 47.46                             144    0.44 7  101 176 
 RUS  HN ES        923  5.30                             144   -0.3510  101 176 
 RUS  HZ I         923  7.13         2.9 0.30            146            101 176 
 OCA  HZ EP        922 51.04                             130   -0.48 9  160 353 
 OCA  HN ES   1    923 14.15                             130    0.48 7  160 353 
 ZAR  HZ EP   1    922 55.79                             122    0.07 6  205 292 
 ZAR  HN ES        923 21.27                             122    0.13 9  205 292 
 ZAR  HZ I         923 27.61         2.6 0.26            123            205 292 
 SML  HZ EP        922 59.80                             118   -0.04 8  244 335 
 SML  HN ES        923 28.07                             118   -0.40 8  244 335 
 SML  HZ I         923 32.22         4.6 0.26            119            244 335 
                                                                                
