 2016  527 0409 18.7 L   6.839 -73.119146.4  RSN  9 0.5 1.8LRSN                1
 GAP=243        1.12       5.9     5.7  6.9  0.2202E+01  0.1149E+02  0.7703E+01E
 Epicentro: LOS SANTOS - SANTANDER                                             3
 ACTION:UPD 16-08-18 17:49 OP:cam  STATUS:               ID:20160527040918 L   I
 OLDACT:UP  16-05-27 16:30 OP:mh   STATUS:               ID:20160527040744     3
 OLDACT:REG 16-05-27 12:37 OP:mh   STATUS:               ID:20160527040744     3
 2016-05-27-0407-44M.COL___314                                                 6
 STAT SP IPHASW D HRMM SECON CODA AMPLIT PERI AZIMU VELO AIN AR TRES W  DIS CAZ7
 BAR2 EZ EP        4 9 38.44                             169   -0.1210 28.1 194 
 BAR2 EZ ES        4 9 53.68                             169   -0.3310 28.1 194 
 BAR2 EZ I         4 9 55.52         9.1 0.34            164           28.1 194 
 BRR  HZ EP        4 9 40.80                             152    0.8010 71.9 294 
 BRR  HN ES        4 9 57.19                             152    0.6110 71.9 294 
 BRR  HZ I         410  0.78         8.7 0.20            150           71.9 294 
 RUS  HZ EP        4 9 42.79                             143   -0.0710  105 178 
 RUS  HN ES        410  1.56                             143   -0.1010  105 178 
 RUS  HZ I         410  3.83         6.6 0.52            143            105 178 
 PTB  HZ EP        4 9 45.38                             131   -0.72 9  152 257 
 PTB  HN ES        410  6.72                             131   -0.72 9  152 257 
 PTB  HZ I         410 14.21        11.7 0.40            131            152 257 
 SPBC HZ EP        4 9 47.76                             128   -0.02 9  168 219 
 SPBC HN ES        410 10.69                             128    0.26 9  168 219 
 SPBC HZ I         410 16.10        10.1 0.38            128            168 219 
 NOR  HZ EP        4 9 54.72                             118   -0.31 8  240 234 
 NOR  HN ES        410 23.77                             118    0.43 8  240 234 
 NOR  HZ I         410 26.84         5.2 0.18            119            240 234 
 ROSC BZ EP   1    4 9 57.67                             116    0.21 6  258 211 
 ROSC BN ES   4    410 29.45                             116    1.79 0  258 211 
 ROSC BZ I         410 32.99         6.2 0.35            117            258 211 
 HEL  HZ EP        4 9 59.52                             115    0.10 7  276 255 
 HEL  HN ES        410 30.68                             115   -0.47 7  276 255 
 HEL  HZ I         410 36.76         4.3 0.32            116            276 255 
 ORTC HN ES        410 56.78                             106    0.94 6  401 216 
                                                                                
