 2013  127 0732 40.3 L   6.865 -73.106150.0  RSN  5 0.4 1.5LRSN                1
 GAP=138        0.95      14.1     6.6 13.6 -0.2522E+02 -0.4743E+01  0.1422E+03E
 Epicentro: LOS SANTOS - SANTANDER                                             3
 ACTION:UPD 13-02-15 09:17 OP:ep   STATUS:               ID:20130127073240 L   I
 2013-01-27-0728-50M.COL___185                                                 6
 STAT SP IPHASW D HRMM SECON CODA AMPLIT PERI AZIMU VELO AIN AR TRES W  DIS CAZ7
 BAR2 SZ EP        733  0.87                             167    0.2710 31.3 196 
 PAM  SE ES        733 19.46                             155   -0.3410 69.0  40 
 BRR  HZ EP        733  1.83                             153   -0.1110 72.2 292 
 BRR  HN ES        733 19.39                             153    0.5610 72.2 292 
 RUS  HZ EP   1    733  5.04                             143    0.09 7  108 179 
 PTB  HZ EP        733  8.10                             132   -0.02 9  154 257 
 PTB  HE ES   1    733 28.95                             132   -0.89 7  154 257 
 PTB  HN I         733 33.69         3.6 0.22            132            154 257 
                                                                                
