 2010 1227 0920 41.0 L   6.788 -73.200136.6  RSN 11 0.5 2.3LRSN                1
 GAP=132        1.06       3.9     6.3  8.7 -0.8393E+01  0.1951E+02 -0.1476E+01E
 Epicentro: ZAPATOCA - SANTANDER                                               3
 ACTION:UP  11-01-14 15:27 OP:pat  STATUS:               ID:20101227092041 L   I
 2010-12-27-0917-47S.COL___132                                                 6
 STAT SP IPHASW D HRMM SECON CODA AMPLIT PERI AZIMU VELO SNR AR TRES W  DIS CAZ7
 BAR2 SZ IP        920 59.40                             170    -0.110   22 175 
 BAR2 SZ ES   1    921 13.70                             170    -0.3 7   22 175 
 BAR2 SZ I         921 16.44        73.3 0.30                            22 175 
 RUS  HZ EP   1    921  3.17                             142    -0.7 7  100 173 
 RUS  HE ES   1    921 21.88                             142     0.2 7  100 173 
 RUS  HZ I         921 23.40        12.0 0.33                           100 173 
 GRA  SZ IP        921  6.39                             134     0.610  129  20 
 GRA  SZ ES   1    921 25.54                             134     0.5 7  129  20 
 GRA  SZ I         921 26.95        71.5 0.33                           129  20 
 OCA  SZ EP        921  8.01                             127    -0.7 9  161 355 
 OCA  SZ ES   1    921 30.23                             127    -0.1 7  161 355 
 OCA  SZ I         921 33.21        61.2 0.18                           161 355 
 YOP  SZ EP   1    921 10.14                             124    -0.5 7  181 151 
 YOP  SN ES   2    921 34.22                             124     0.5 4  181 151 
 YOP  SZ I         921 39.94         8.3 0.15                           181 151 
 NOR  SZ EP   1    921 15.97                             117     0.3 6  229 234 
 NOR  SN ES   1    921 43.19                             117     0.5 6  229 234 
 ROSC BZ EP   1    921 18.99                             115     0.8 6  249 210 
 ROSC BZ I         921 55.76        17.4 0.27                           249 210 
 HEL  HE ES   1    921 50.29                             113    -0.3 6  266 256 
 HEL  HZ I         921 58.44        14.1 0.61                           266 256 
 RREF HN ES   1    922  1.47                             109     0.1 5  316 229 
 RREF HZ I         922  9.94        10.7 0.88                           316 229 
 DBB  SZ EP   2    921 27.66                             108     0.2 3  334 275 
 PRA  HZ EP   1    921 33.96                             105     0.2 4  388 209 
 PRA  HN ES   1    922 14.47                             105    -0.4 4  388 209 
                                                                                
