 2016  327 0349 39.8 L   6.755 -73.163143.5  RSN  5 0.3 1.3LRSN                1
 GAP=241        0.70       4.9     5.2  8.0  0.1012E+02  0.2291E+01 -0.1708E+02E
 Epicentro: LOS SANTOS - SANTANDER                                             3
 ACTION:UPD 16-05-13 21:28 OP:cam  STATUS:               ID:20160327034939 L   I
 OLDACT:REG 16-03-27 13:14 OP:ak   STATUS:               ID:20160327034748     3
 2016-03-27-0347-48M.COL___292                                                 6
 STAT SP IPHASW D HRMM SECON CODA AMPLIT PERI AZIMU VELO AIN AR TRES W  DIS CAZ7
 RUS  HZ EP   2    350  2.76                             145   -0.19 5 95.8 175 
 RUS  HN ES        350 21.13                             145    0.1010 95.8 175 
 RUS  HZ I         350 23.56         1.9 0.40            146           95.8 175 
 PTB  HZ EP        350  5.74                             132   -0.56 9  145 261 
 PTB  HN ES        350 26.64                             132   -0.35 9  145 261 
 PTB  HZ I         350 29.88         2.8 0.14            132            145 261 
 SPBC HN ES        350 29.50                             129    0.17 9  158 220 
 ZAR  HZ EP        350 12.35                             122    0.27 9  204 294 
 ZAR  HN ES        350 37.59                             122    0.30 9  204 294 
 ZAR  HZ I         350 41.88         1.9 0.17            123            204 294 
 NOR  HZ EP        350 15.11                             118    0.22 8  230 235 
 NOR  HE ES        350 42.35                             118    0.06 8  230 235 
 NOR  HZ I         350 49.70         1.6 0.18            119            230 235 
                                                                                
