 2011  827 0432 27.8 L   6.793 -73.079146.8  RSN  8 0.4 1.9LRSN                1
 GAP=190        0.72       3.1     6.7  6.1 -0.1120E+01  0.1069E+01  0.2663E+01E
 Epicentro: LOS SANTOS - SANTANDER                                             3
 ACTION:UPD 12-07-13 15:54 OP:ep   STATUS:               ID:20110827043227 L   I
 2011-08-27-0430-52S.COL___161                                                 6
 STAT SP IPHASW D HRMM SECON CODA AMPLIT PERI AZIMU VELO AIN AR TRES W  DIS CAZ7
 BAR2 SZ EP        432 47.67                             170    0.0510 25.0 207 
 BAR2 SZ ES   1    433  2.42                             170   -0.63 7 25.0 207 
 BAR2 SZ I         433  4.55        19.0 0.21                          25.0 207 
 GIR2 SZ EP   1    432 47.89                             166    0.19 7 34.0 338 
 BRR  HZ EP        432 49.63                             150    0.1410 78.1 296 
 BRR  HZ I         432 51.22        17.9 0.11                          78.1 296 
 BRR  HN ES   1    433  6.72                             150    0.34 7 78.1 296 
 RUS  HZ EP        432 51.45                             144   -0.1610 99.6 180 
 RUS  HZ I         432 52.44         4.9 0.21                          99.6 180 
 RUS  HN ES   1    433 10.26                             144    0.11 7 99.6 180 
 OCA  SZ EP   1    432 55.83                             129   -0.56 7  162 351 
 OCA  SZ ES   1    433 18.91                             129    0.25 7  162 351 
 OCA  SZ I         433 23.79         8.0 0.19                           162 351 
 NOR  SN ES   1    433 32.12                             118   -0.48 6  240 236 
 CHI  HZ EP   1    433  5.91                             117    0.19 6  250 197 
 CHI  HZ I         433  6.46         4.3 0.19                           250 197 
 CHI  HN ES   1    433 36.15                             117    0.87 6  250 197 
 PRA  HZ EP   1    433 21.60                             106   -0.14 4  395 211 
 PRA  HN ES   2    434  2.96                             106   -0.83 3  395 211 
 PRA  HZ I         434  9.89        10.5 0.22                           395 211 
                                                                                
