 2011 1127 0727  6.2 L   6.786 -73.109148.5  RSN 15 0.3 2.4LRSN                1
 GAP=118        0.42       1.8     2.9  3.9 -0.1099E+01  0.2592E+01  0.9529E+00E
 Epicentro: LOS SANTOS - SANTANDER                                             3
 ACTION:UPD 12-07-13 16:12 OP:ep   STATUS:               ID:20111127072706 L   I
 2011-11-27-0726-42S.COL___160                                                 6
 STAT SP IPHASW D HRMM SECON CODA AMPLIT PERI AZIMU VELO AIN AR TRES W  DIS CAZ7
 BAR2 SZ EP        727 25.99                             171   -0.1110 22.9 201 
 BAR2 SZ ES   2    727 41.34                             171   -0.32 5 22.9 201 
 BAR2 SZ I         727 44.03        73.8 0.40                          22.9 201 
 BRR  HZ IP     C  727 27.87                             152    0.0310 75.5 298 
 BRR  HE ES   2    727 45.32                             152    0.56 5 75.5 298 
 BRR  HZ I         727 48.81        57.3 0.58                          75.5 298 
 PAM  SZ IP        727 28.75                             152    0.1710 76.1  36 
 PAM  SN ES   2    727 46.00                             152   -0.08 5 76.1  36 
 RUS  HZ EP        727 29.83                             145   -0.2210 98.8 178 
 RUS  HN ES   2    727 48.22                             145   -0.47 5 98.8 178 
 RUS  HZ I         727 49.88        24.7 0.38                          98.8 178 
 OCA  SZ EP   2    727 34.69                             130   -0.18 5  162 352 
 OCA  SZ ES   2    727 57.66                             130    0.39 5  162 352 
 OCA  SZ I         728  3.23        28.3 0.31                           162 352 
 YOP  SZ EP   2    727 36.52                             127    0.44 4  176 154 
 YOP  SZ I         727 37.18        12.2 0.46                           176 154 
 YOP  SN ES   2    728  0.01                             127    0.58 4  176 154 
 CTAU SZ EP   2    727 39.55                             123    0.18 4  203 211 
 CTAU SZ ES   2    728  5.32                             123    0.03 4  203 211 
 CTAB SZ EP   2    727 42.68                             120    0.53 4  231 212 
 NOR  SZ EP   2    727 41.99                             119   -0.31 4  237 235 
 NOR  SN ES   2    728 10.42                             119   -0.08 4  237 235 
 CHI  HZ EP   2    727 44.00                             118    0.04 4  248 196 
 CHI  HN ES   2    728 13.05                             118   -0.40 4  248 196 
 CHI  HZ I         728 22.07        13.2 0.60                           248 196 
 CVER SZ EP   2    727 46.88                             115    0.21 4  272 203 
 CVER SZ ES   2    728 18.69                             115    0.42 4  272 203 
 HEL  HZ EP   2    727 47.08                             115    0.18 4  276 256 
 HEL  HE ES   2    728 18.50                             115   -0.18 4  276 256 
 HEL  HZ I         728 24.39        14.7 0.41                           276 256 
 RREF HZ EP   2    727 52.75                             111    0.10 3  324 230 
 RREF HN ES   2    728 28.86                             111   -0.06 3  324 230 
 RREF HZ I         728 35.58        19.3 0.34                           324 230 
 COD  HZ EP   2    727 54.21                             109   -0.65 3  350 354 
 COD  HN ES   2    728 32.48                             109   -0.37 3  350 354 
 COD  HZ I         728 44.25        19.1 0.48                           350 354 
 PRA  HZ EP   2    727 59.68                             107   -0.17 3  393 210 
 PRA  HE ES   2    728 41.47                             107   -0.26 3  393 210 
                                                                                
