 2013  427 0409 56.9 L   6.809 -73.238136.0  RSN  6 0.5 1.9LRSN                1
 GAP=187        1.04       6.8     7.3 12.6 -0.3047E+02  0.6875E+01  0.1111E+02E
 Epicentro: ZAPATOCA - SANTANDER                                               3
 ACTION:UPD 13-05-22 14:41 OP:EP   STATUS:               ID:20130427040956 L   I
 2013-04-27-0408-50M.COL___217                                                 6
 STAT SP IPHASW D HRMM SECON CODA AMPLIT PERI AZIMU VELO AIN AR TRES W  DIS CAZ7
 BRR  HZ EP     D  410 17.35                             154    0.8510 61.9 302 
 BRR  HN ES   1    410 31.87                             154    0.10 7 61.9 302 
 BRR  HN I         410 38.87        12.5 0.18            150           61.9 302 
 PAM  SZ EP   1    410 18.44                             147   -0.06 7 83.5  45 
 PAM  SN ES   1    410 34.92                             147   -0.42 7 83.5  45 
 PAM  SN I         410 36.18        10.9 0.48            152           83.5  45 
 PTB  HZ EP   1    410 22.25                             132    0.04 7  138 258 
 PTB  HN ES        410 42.11                             132    0.18 9  138 258 
 PTB  HN I         410 45.39        11.0 0.20            133            138 258 
 OCA  HN ES   1    410 45.39                             128   -0.28 7  158 357 
 OCA  HN I         410 50.16        22.2 0.50            130            158 357 
 NOR  HE ES        410 57.33                             117   -0.74 8  227 233 
 NOR  HE I         411  3.80         4.3 0.24            120            227 233 
 SML  HN ES   1    410 59.66                             116   -0.54 6  239 337 
 SML  HN I         411  4.70         8.7 0.10            118            239 337 
                                                                                
