 2010  427 0525  9.1 L   6.714 -73.085135.1  RSN  4 0.2 1.7LRSN                1
 GAP=269        0.40       7.9     9.0  4.7  0.4577E+02  0.1256E+02  0.1016E+02E
 Epicentro: JORDAN - SANTANDER                                                 3
 ACTION:UPD 10-08-24 10:01 OP:vdl  STATUS:               ID:20100427052510 L   I
 2010-04-27-0522-25S.COL___104                                                 6
 STAT SP IPHASW D HRMM SECON CODA AMPLIT PERI AZIMU VELO AIN AR TRES W  DIS CAZ7
 BAR2 SZ EP   1    525 27.47                             170     0.1 7   17 219 
 BAR2 SZ ES   1    525 41.50                             170    -0.1 7   17 219 
 BRR  HZ IP     C  525 29.77                             147     0.010   82 302 
 BRR  HE ES   1    525 46.05                             147     0.1 7   82 302 
 BRR  HZ I         525 50.26        10.7 0.10                            82 302 
 HEL  HZ EP   2    525 48.99                             112    -0.3 4  276 258 
 HEL  HZ I         526 26.15         1.9 0.51                           276 258 
 PRA  HZ EP   2    526  2.13                             105     0.4 3  387 211 
 PRA  HZ I         526 51.03         2.8 0.39                           387 211 
                                                                                
