 2014  227 0747 33.4 L   6.801 -73.209143.6  RSN  6 0.2 1.4LRSN                1
 GAP=129        0.52       2.1     2.7  4.1 -0.1407E+01  0.3882E+01 -0.3003E+01E
 Epicentro: ZAPATOCA - SANTANDER                                               3
 ACTION:UPD 14-03-10 08:13 OP:ep   STATUS:               ID:20140227074733 L   I
 OLDACT:DUP 14-02-27 10:01 OP:stll STATUS:               ID:20140227073817d    3
 2014-02-27-0738-16M.COL___231                                                 6
 STAT SP IPHASW D HRMM SECON CODA AMPLIT PERI AZIMU VELO AIN AR TRES W  DIS CAZ7
 BAR2 SZ EP        747 52.60                             170   -0.1310 23.3 173 
 BAR2 SZ ES        748  7.83                             170   -0.0110 23.3 173 
 BAR2 SZ I         748  8.77        13.8 0.26            175           23.3 173 
 PAM  SZ EP        747 55.73                             149    0.1010 81.9  43 
 PAM  SE ES        748 13.13                             149    0.1410 81.9  43 
 PAM  SZ I         748 17.34         3.0 0.48            150           81.9  43 
 RUS  HZ EP        747 57.19                             143    0.2310  101 172 
 RUS  HN ES        748 15.04                             143   -0.3310  101 172 
 RUS  HZ I         748 15.94         2.9 0.22            148            101 172 
 PTB  HZ EP        747 59.67                             133    0.13 9  141 258 
 PTB  HN ES        748 19.90                             133   -0.06 9  141 258 
 PTB  HZ I         748 23.76         2.8 0.10            135            141 258 
 SPBC HN ES        748 23.27                             129    0.18 9  159 217 
 SML  HZ EP        748  9.15                             117   -0.40 8  241 337 
 SML  HN ES        748 37.83                             117    0.06 8  241 337 
 SML  HZ I         748 42.89         3.2 0.28            119            241 337 
                                                                                
