 2015 1127 0023 32.1 L   6.819 -73.204140.4  RSN  7 0.4 1.4LRSN                1
 GAP=128        1.02       4.1     4.3  6.8  0.2097E+01  0.5429E+01 -0.5597E+01E
 Epicentro: ZAPATOCA - SANTANDER                                               3
 ACTION:UPD 15-12-28 16:13 OP:cam  STATUS:               ID:20151127002332 L   I
 OLDACT:DUP 15-11-27 13:13 OP:drio STATUS:               ID:20151127001749d    3
 2015-11-27-0017-48M.COL___310                                                 6
 STAT SP IPHASW D HRMM SECON CODA AMPLIT PERI AZIMU VELO AIN AR TRES W  DIS CAZ7
 BAR2 EZ EP        023 51.08                             169   -0.0410 25.2 174 
 BAR2 EZ ES        024  5.45                             169   -0.5110 25.2 174 
 BAR2 EZ I         024  7.81         5.9 0.26            170           25.2 174 
 BRR  HZ EP        023 53.12                             154    0.8310 64.5 300 
 BRR  HE ES        024  8.30                             154    0.2610 64.5 300 
 PAM  EZ EP        023 54.27                             149    0.3610 80.1  44 
 PAM  EN ES        024 10.99                             149    0.0610 80.1  44 
 PAM  EZ I         024 13.28         7.5 0.52            153           80.1  44 
 RUS  HZ EP        023 55.19                             142   -0.3310  103 173 
 RUS  HE ES        024 13.74                             142   -0.0610  103 173 
 RUS  HZ I         024 15.00         1.8 0.28            145            103 173 
 PTB  HZ EP        023 58.42                             132    0.34 9  142 257 
 PTB  HN ES        024 18.26                             132   -0.10 9  142 257 
 PTB  HZ I         024 25.88         2.1 0.40            132            142 257 
 ZAR  HE ES        024 27.89                             122   -0.08 9  197 292 
 ZAR  HZ I         024 33.97         3.8 0.26            123            197 292 
 SML  HZ EP        024  7.15                             117   -0.77 8  239 336 
 SML  HE ES        024 35.53                             117   -0.34 8  239 336 
 SML  HZ I         024 39.50         4.7 0.10            118            239 336 
                                                                                
