 2010  427 0752 31.9 L   6.790 -73.014143.2  RSN  5 0.4 2.1LRSN                1
 GAP=223        0.63       5.9    10.9  7.8 -0.1330E+02 -0.9149E+01  0.9604E+01E
 Epicentro: CEPITA - SANTANDER                                                 3
 ACTION:UPD 10-08-24 10:01 OP:vdl  STATUS:               ID:20100427075242 L   I
 2010-04-27-0750-39S.COL___104                                                 6
 STAT SP IPHASW D HRMM SECON CODA AMPLIT PERI AZIMU VELO AIN AR TRES W  DIS CAZ7
 BAR2 SZ EP   2    752 51.67                             168     0.3 5   29 221 
 BAR2 SZ ES   2    753  5.91                             168    -0.6 5   29 221 
 BRR  HZ IP     D  752 53.94                             147     0.310   85 295 
 BRR  HE ES   1    753 10.62                             147     0.1 7   85 295 
 BRR  HZ I         753 12.73        15.6 0.11                            85 295 
 OCA  SZ EP   2    753  0.07                             128    -0.3 5  164 348 
 OCA  SZ ES   2    753 22.02                             128    -0.5 5  164 348 
 OCA  SZ I         753 26.73        21.1 0.25                           164 348 
 HEL  HZ EP   2    753 13.36                             113    -0.2 4  286 257 
 HEL  HE ES   3    753 45.34                             113    -0.7 2  286 257 
 HEL  HZ I         753 50.83         5.6 0.60                           286 257 
 PRA  HZ EP   2    753 26.37                             106     0.3 3  398 211 
 PRA  HE ES   2    754  7.79                             106    -0.6 3  398 211 
 PRA  HZ I         754 14.19         2.9 0.29                           398 211 
                                                                                
