 2017  127 0858  0.1 L   6.729 -73.180148.3  RSN  5 0.3 1.1LRSN                1
 GAP=228        0.69       5.4     5.0  5.5  0.1428E+02  0.6196E+01 -0.4896E+01E
 Epicentro: VILLANUEVA - SANTANDER                                             3
 ACTION:UPD 17-05-22 16:03 OP:jn   STATUS:               ID:20170127085800 L   I
 OLDACT:REG 17-01-27 12:55 OP:lv   STATUS:               ID:20170127084738     3
 2017-01-27-0848-00M.COL___316                                                 6
 STAT SP IPHASW D HRMM SECON CODA AMPLIT PERI AZIMU VELO AIN AR TRES W  DIS CAZ7
 BAR2 EZ EP        858 19.73                             174   -0.2210 15.1 181 
 BAR2 EZ ES        858 35.04                             174   -0.3510 15.1 181 
 BAR2 EZ I         858 37.81         2.9 0.32            172           15.1 181 
 BRR  HZ EP        858 21.51                             153   -0.1110 72.1 305 
 BRR  HN ES        858 38.79                             153    0.4210 72.1 305 
 BRR  HZ I         858 39.01         2.9 0.30            151           72.1 305 
 RUS  HN ES        858 42.26                             146    0.3210 93.1 173 
 PTB  HZ EP        858 26.98                             134    0.11 9  143 262 
 PTB  HN ES        858 47.43                             134   -0.28 9  143 262 
 PTB  HZ I         858 51.07         0.9 0.18            133            143 262 
 ZAR  HZ EP        858 32.88                             123    0.16 9  204 295 
 ZAR  HE ES        858 58.06                             123   -0.06 9  204 295 
 ZAR  HZ I         859  3.38         1.1 0.10            123            204 295 
                                                                                
