 2013  927 0608  6.3 L   6.743 -73.118143.2  RSN  5 0.5 1.2LRSN                1
 GAP=236        0.97       6.3     8.0  9.4  0.1972E+02  0.1347E+02  0.1462E+02E
 Epicentro: JORDAN - SANTANDER                                                 3
 ACTION:UPD 13-10-22 09:25 OP:ep   STATUS:               ID:20130927060806 L   I
 OLDACT:REG 13-09-27 10:08 OP:mh   STATUS:               ID:20130927060735     3
 2013-09-27-0607-35M.COL___238                                                 6
 STAT SP IPHASW D HRMM SECON CODA AMPLIT PERI AZIMU VELO AIN AR TRES W  DIS CAZ7
 BAR2 SZ EP   1    6 8 25.90                             173    0.34 7 18.1 203 
 BAR2 SZ ES   1    6 8 41.09                             173    0.54 7 18.1 203 
 BAR2 SZ I         6 8 42.19         3.8 0.22            166           18.1 203 
 BRR  HZ EP   1    6 8 27.78                             150    0.23 7 77.0 302 
 BRR  HN ES        6 8 43.93                             150   -0.1610 77.0 302 
 BRR  HZ I         6 8 50.42         2.6 0.28            148           77.0 302 
 RUS  HZ EP   1    6 8 28.46                             145   -0.91 7 94.1 178 
 RUS  HN ES   2    6 8 46.61                             145   -0.73 5 94.1 178 
 RUS  HZ I         6 8 49.85         1.5 0.36            146           94.1 178 
 SPBC HZ EP        6 8 34.89                             129    0.52 9  160 221 
 SPBC HN ES        6 8 56.23                             129   -0.00 9  160 221 
 SPBC HZ I         6 9  2.85         1.9 0.16            129            160 221 
 ZAR  HN ES        6 9  4.47                             121   -0.30 8  209 293 
 ZAR  HZ I         6 9 10.03         3.6 0.28            122            209 293 
                                                                                
