 2013  527 0717 25.6 L   6.811 -73.176140.1  RSN 14 0.4 2.2LRSN 2.7WRSN        1
 SPEC AVERAGE  MO 13.2 ST  1.9 OM  1.7 f0 4.31 R0.3662 AL 2.53 WI 13.6 MW  2.7 3
 SPEC SD       MO  0.3 ST  1.3 OM  0.4 f00.502 R0.0436 AL      WI      MW  0.2 3
 GAP=132        1.09       3.4     4.4  5.8 -0.2941E+01  0.9642E+01 -0.9396E+00E
 Epicentro: LOS SANTOS - SANTANDER                                             3
 SPEC PRA HH N MO 13.1 ST  1.3 OM  1.1 f0 4.38 R0.3548 AL 2.92 WI 16.2 MW  2.7 3
 SPEC PRA HH N T 71855 K 0.000 GD  415 VS 4.20 DE 3.20 Q0300.0 QA 0.60 VS 4.20 3
 SPECGUY2CHH N MO 13.5 ST0.742 OM  1.5 f0 2.81 R0.5522 AL 3.02 WI 24.6 MW  2.9 3
 SPECGUY2CHH N T 71839 K 0.000 GD  330 VS 4.20 DE 3.20 Q0300.0 QA 0.60 VS 4.20 3
 SPEC HEL HH N MO 13.2 ST  1.4 OM  1.3 f0 4.28 R0.3631 AL 3.04 WI 19.7 MW  2.7 3
 SPEC HEL HH N T 71835 K 0.000 GD  303 VS 4.20 DE 3.20 Q0300.0 QA 0.60 VS 4.20 3
 SPEC NOR HH N MO 13.4 ST  4.2 OM  1.6 f0 5.12 R0.3035 AL 2.89 WI 14.6 MW  2.9 3
 SPEC NOR HH N T 71827 K 0.000 GD  271 VS 4.20 DE 3.20 Q0300.0 QA 0.60 VS 4.20 3
 SPEC OCA HH N MO 13.5 ST  4.2 OM  1.8 f0 4.76 R0.3265 AL 2.72 WI 16.3 MW  3.0 3
 SPEC OCA HH N T 71812 K 0.000 GD  211 VS 4.20 DE 3.20 Q0300.0 QA 0.60 VS 4.20 3
 SPEC PAM SH N MO 13.5 ST  1.6 OM  1.9 f0 3.49 R0.4453 AL 3.49 WI  7.1 MW  2.9 3
 SPEC PAM SH N T 718 4 K 0.000 GD  160 VS 4.20 DE 3.20 Q0300.0 QA 0.60 VS 4.20 3
 SPEC BRR HH N MO 13.3 ST  1.4 OM  1.7 f0 3.93 R0.3954 AL 1.70 WI 16.7 MW  2.8 3
 SPEC BRR HH N T 718 0 K 0.000 GD  155 VS 4.20 DE 3.20 Q0300.0 QA 0.60 VS 4.20 3
 SPEC GIR2SH Z MO 12.7 ST0.545 OM  1.1 f0 4.70 R0.3306 AL 1.42 WI 10.1 MW  2.4 3
 SPEC GIR2SH Z T 71757 K 0.000 GD  143 VS 4.20 DE 3.20 Q0300.0 QA 0.60 VS 4.20 3
 SPEC BAR2SH Z MO 12.8 ST0.450 OM  1.3 f0 3.79 R0.4100 AL 2.07 WI  8.1 MW  2.5 3
 SPEC BAR2SH Z T 71758 K 0.000 GD  142 VS 4.20 DE 3.20 Q0300.0 QA 0.60 VS 4.20 3
 ACTION:UPD 13-06-20 09:54 OP:ep   STATUS:               ID:20130527071725 L   I
 2013-05-27-0710-00M.COL___261                                                 6
 STAT SP IPHASW D HRMM SECON CODA AMPLIT PERI AZIMU VELO AIN AR TRES W  DIS CAZ7
 BAR2 SZ IP     D  717 44.76                             170    0.1510 24.2 182 
 BAR2 SZ ES        717 59.51                             170    0.1010 24.2 182 
 BAR2 SZ I         718  1.15        31.6 0.20            168           24.2 182 
 GIR2 SZ IP     C  717 44.90                             167    0.3010 29.7 356 
 GIR2 SZ ES        717 58.96                             167   -0.4210 29.7 356 
 GIR2 SZ I         718  1.15        32.8 0.46            162           29.7 356 
 BRR  HZ IP     C  717 46.68                             153    0.7010 67.7 299 
 BRR  HN ES        718  2.29                             153    0.4510 67.7 299 
 BRR  HZ I         718  4.80        31.2 0.10            146           67.7 299 
 PAM  SZ EP        717 47.68                             149    0.3410 78.7  42 
 PAM  SN ES        718  4.56                             149    0.3010 78.7  42 
 PAM  SZ I         718  9.00        17.1 0.60            152           78.7  42 
 RUS  HZ IP     C  717 48.74                             142   -0.2110  102 174 
 RUS  HN ES        718  6.69                             142   -0.4410  102 174 
 RUS  HZ I         718  8.13        15.9 0.18            145            102 174 
 PTB  HZ EP     C  717 51.37                             131   -0.50 9  145 258 
 PTB  HN ES        718 12.39                             131    0.06 9  145 258 
 PTB  HZ I         718 16.75        17.9 0.24            128            145 258 
 OCA  HZ EP   4    717 52.24                             129   -1.13 0  159 354 
 OCA  HN ES        718 14.00                             129   -0.99 9  159 354 
 OCA  HZ I         718 19.15        15.8 0.32            128            159 354 
 ZAR  HZ EP        717 57.86                             122    0.51 9  200 292 
 ZAR  HN ES   4    718 23.84                             122    1.76 0  200 292 
 ZAR  HZ I         718 29.18        24.1 0.38            120            200 292 
 NOR  HZ EP        718  0.77                             117   -0.06 8  233 234 
 NOR  HN ES        718 28.27                             117   -0.01 8  233 234 
 NOR  HZ I         718 35.05        13.5 0.18            117            233 234 
 SML  HZ EP        718  0.94                             116   -0.74 8  241 336 
 SML  HN ES        718 30.05                             116    0.25 8  241 336 
 SML  HZ I         718 38.58        21.7 0.10            116            241 336 
 HEL  HZ EP   4    718  6.69                             114    1.45 0  269 255 
 HEL  HN ES        718 35.90                             114   -0.23 8  269 255 
 HEL  HZ I         718 47.67         6.2 0.28            113            269 255 
 URE  HZ EP   4    718  7.08                             113    1.04 0  280 292 
 URE  HN ES   4    718 36.48                             113   -1.07 0  280 292 
 URE  HZ I         718 49.34        18.8 0.28            112            280 292 
 GUY2CHZ EP   4    718 10.07                             111    1.31 0  299 234 
 GUY2CHN ES   4    718 41.35                             111   -1.04 0  299 234 
 GUY2CHZ I         718 51.40        10.6 0.48                           299 234 
 PRA  HZ EP   2    718 19.63                             106    0.73 3  391 209 
 PRA  HN ES   4    718 56.32                             106   -4.12 0  391 209 
 PRA  HZ I         719  6.60         5.0 0.28            106            391 209 
                                                                                
