 2013  127 0829 22.9 L   6.754 -73.155148.0  RSN  5 0.3 1.4LRSN                1
 GAP=137        0.62       5.3     4.7  9.6  0.2823E+01 -0.2059E+02 -0.1354E+02E
 Epicentro: LOS SANTOS - SANTANDER                                             3
 ACTION:UPD 13-02-15 09:17 OP:ep   STATUS:               ID:20130127082922 L   I
 2013-01-27-0818-48M.COL___185                                                 6
 STAT SP IPHASW D HRMM SECON CODA AMPLIT PERI AZIMU VELO AIN AR TRES W  DIS CAZ7
 BAR2 SZ EP   1    829 42.51                             173   -0.15 7 18.1 190 
 BRR  HZ EP   1    829 44.93                             152    0.58 7 72.9 302 
 BRR  HN ES        830  1.16                             152    0.0510 72.9 302 
 BRR  HN I         830  5.05         6.5 0.20            154           72.9 302 
 PAM  SZ EP        829 45.39                             150   -0.2010 82.0  38 
 PAM  SZ I         829 45.47         3.0 0.14            151           82.0  38 
 RUS  HE ES   1    830  5.03                             146    0.13 7 95.6 175 
 PTB  HN ES        830 10.69                             133   -0.19 9  146 261 
                                                                                
