 2014 1027 0159  9.7 L   6.798 -73.169148.9  RSN  4 0.4 1.1LRSN                1
 GAP=134        0.88       6.5     5.2  9.3 -0.2546E+01 -0.1734E+01  0.1999E+02E
 Epicentro: LOS SANTOS - SANTANDER                                             3
 ACTION:UPD 14-11-29 23:57 OP:nd   STATUS:               ID:20141027015909 L   I
 OLDACT:REG 14-10-29 19:23 OP:spq  STATUS:               ID:20141027015742     3
 2014-10-27-0157-42M.COL___277                                                 6
 STAT SP IPHASW D HRMM SECON CODA AMPLIT PERI AZIMU VELO AIN AR TRES W  DIS CAZ7
 BRR  HE ES        159 48.26                             154    0.5710 69.0 300 
 BRR  HZ I         159 50.27         3.6 0.64            155           69.0 300 
 PAM  SZ EP   1    159 32.40                             151    0.08 7 79.2  41 
 PAM  SN ES   1    159 49.38                             151   -0.61 7 79.2  41 
 PAM  SZ I         159 51.24         2.5 0.36            153           79.2  41 
 RUS  HZ EP        159 33.94                             144    0.2210  101 175 
 RUS  HN ES   1    159 52.43                             144   -0.06 7  101 175 
 RUS  HZ I         159 54.02         1.1 0.22            146            101 175 
 PTB  HZ EP        159 36.60                             133   -0.05 9  145 259 
 PTB  HN ES        159 57.25                             133   -0.46 9  145 259 
 PTB  HZ I         159 59.46         1.8 0.11            135            145 259 
                                                                                
