 2017  627 0728 27.8 L   6.793 -73.187146.0  RSN  9 0.5 1.8LRSN                1
 GAP=238        1.08       5.8     5.6  6.7  0.9733E+00  0.9033E+01  0.7001E+01E
 Epicentro: ZAPATOCA - SANTANDER                                               3
 ACTION:UPD 17-09-14 16:55 OP:jn   STATUS:               ID:20170627072827 L   I
 OLDACT:UP  17-06-27 14:25 OP:dhb  STATUS:               ID:20170627072737     3
 OLDACT:UP  17-06-27 14:21 OP:dhb  STATUS:               ID:20170627072737     3
 OLDACT:REG 17-06-27 13:08 OP:and  STATUS:               ID:20170627072737     3
 2017-06-27-0728-00M.COL___346                                                 6
 STAT SP IPHASW D HRMM SECON CODA AMPLIT PERI AZIMU VELO AIN AR TRES W  DIS CAZ7
 BAR2 EZ EP        728 47.13                             171   -0.3410 22.2 179 
 BAR2 EZ ES        729  2.74                             171   -0.0510 22.2 179 
 BAR2 EZ I         729  3.27        17.4 0.16            169           22.2 179 
 BRR  HZ EP        728 48.81                             154   -0.0010 67.7 301 
 BRR  HN ES        729  6.03                             154    0.8510 67.7 301 
 BRR  HZ I         729  7.78         8.2 0.10            150           67.7 301 
 PTB  HZ EP        728 53.77                             133   -0.64 9  143 259 
 PTB  HN ES        729 14.70                             133   -0.44 9  143 259 
 PTB  HZ I         729 16.77         4.9 0.12            131            143 259 
 SPBC HZ EP        728 55.88                             130   -0.15 9  160 218 
 SPBC HN ES        729 18.15                             130    0.13 9  160 218 
 SPBC HZ I         729 20.49        10.4 0.09            129            160 218 
 ZAR  HZ EP        728 59.58                             123   -0.32 9  200 293 
 ZAR  HE ES        729 24.96                             123    0.05 9  200 293 
 ZAR  HZ I         729 30.19         5.5 0.12            122            200 293 
 HEL  HZ EP        729  7.73                             115    0.18 8  268 256 
 HEL  HE ES        729 37.86                             115   -0.67 8  268 256 
 HEL  HZ I         729 45.07         4.5 0.28            115            268 256 
 URE  HZ EP   9    729  6.08                             114   -2.40 0  280 292 
 URE  HZ E         729  6.14                                            280 292 
 URE  HN ES        729 37.75                                   -0.03 7  280 292 
 URE  HZ I         729 40.91         4.7 0.09            114            280 292 
 GUY2CHZ EP        729 12.01                             113    1.02 7  297 234 
 GUY2CHN ES        729 45.22                             113    0.57 7  297 234 
 GUY2CHZ I         729 53.28         3.1 0.36                           297 234 
 CBOC HZ EP   2    729 15.42                             110    1.18 3  329 252 
 CBOC HE ES   3    729 51.06                             110    0.63 2  329 252 
 CBOC HZ I         729 56.66         1.4 0.32            110            329 252 
                                                                                
