 2016  327 0635 38.6 L   7.113 -73.321114.0  RSN 14 0.5 1.7LRSN                1
 GAP=101        1.10       2.8     3.2  6.4 -0.2361E+01  0.1028E+01 -0.1949E+01E
 Epicentro: LEBRIJA - SANTANDER                                                3
 ACTION:UPD 16-05-13 21:28 OP:cam  STATUS:               ID:20160327063538 L   I
 OLDACT:DUP 16-03-27 16:01 OP:ak   STATUS:               ID:20160327062745d    3
 OLDACT:REG 16-03-27 13:27 OP:ak   STATUS:               ID:20160327062744     3
 2016-03-27-0627-44M.COL___292                                                 6
 STAT SP IPHASW D HRMM SECON CODA AMPLIT PERI AZIMU VELO AIN AR TRES W  DIS CAZ7
 BAR2 EZ EP        635 56.18                             150    0.1410 59.6 165 
 BAR2 EZ ES        636  9.22                             150   -0.4010 59.6 165 
 BAR2 EZ I         636 11.90        22.1 0.08            151           59.6 165 
 OCA  HZ EP        636  1.56                             129    0.4610  124   0 
 OCA  HN ES        636 19.29                             129    0.6510  124   0 
 RUS  HZ EP        636  2.87                             126    0.06 9  138 169 
 RUS  HE ES        636 21.83                             126    0.15 9  138 169 
 RUS  HZ I         636 23.01         4.3 0.24            127            138 169 
 PTB  HZ EP   9    636  0.93                             125   -1.56 0  141 243 
 PTB  HN ES        636 18.74                             132   -0.81 9  141 243 
 PTB  HZ I         636 21.92         9.4 0.19            125            141 243 
 ZAR  HZ EP        636  6.41                             118    0.38 9  175 284 
 ZAR  HN ES        636 27.33                             118   -0.08 9  175 284 
 ZAR  HZ I         636 31.00         7.5 0.42            119            175 284 
 SPBC HZ EP   1    636  7.28                             117    0.41 7  182 207 
 SPBC HN ES        636 28.85                             117   -0.06 9  182 207 
 SPBC HZ I         636 34.44        10.9 0.18            118            182 207 
 URE  HZ EP        636 14.14                             109   -0.78 8  254 286 
 URE  HN ES   4    636 40.61                             109   -2.61 0  254 286 
 URE  HZ I         636 45.63         2.7 0.10            110            254 286 
 HEL  HZ EP   2    636 16.12                             108   -0.44 4  265 247 
 HEL  HN ES        636 45.29                             108   -0.87 8  265 247 
 HEL  HZ I         636 50.66         7.1 0.24            109            265 247 
 CHI  HZ EP        636 17.90                             107   -0.32 7  278 189 
 CHI  HN ES        636 49.80                             107    0.69 7  278 189 
 CHI  HZ I         636 54.40         2.5 0.48            108            278 189 
 SOCV BZ EP        636 20.44                             105    0.03 7  301  64 
 SOCV BN ES        636 52.11                             105   -0.89 7  301  64 
 GUY2CHZ EP        636 21.92                             105    0.16 7  308 227 
 GUY2CHN ES        636 54.88                             105   -0.53 7  308 227 
 GUY2CHZ I         637  5.98         3.8 0.74                           308 227 
 MON  HZ IP   4    636 20.67                             104   -1.61 0  317 306 
 MON  HN ES   4    636 53.93                             104   -2.40 0  317 306 
 MON  HZ I         636 56.37         1.2 0.20            105            317 306 
 SDV  BZ EP        636 27.73                             102    0.70 6  355  56 
 SDV  BN ES        637  4.00                             102   -0.79 6  355  56 
 SJC  HN ES   4    637  4.98                             101   -2.57 0  370 327 
 ORTC HZ EP   2    636 33.50                              99   -0.32 3  414 211 
 ORTC HE ES        637 17.45                              99    0.58 6  414 211 
                                                                                
