 2014 1127 0622 25.9 L   6.875 -73.060121.2  RSN  5 0.4 1.4LRSN                1
 GAP=144        0.93       5.0     4.7 12.6  0.2224E+01  0.8027E+01 -0.2807E+02E
 Epicentro: PIEDECUESTA - SANTANDER                                            3
 ACTION:UPD 14-12-19 15:48 OP:nd   STATUS:               ID:20141127062225 L   I
 OLDACT:DUP 14-11-27 16:57 OP:fm   STATUS:               ID:20141127061740d    3
 2014-11-27-0617-39M.COL___306                                                 6
 STAT SP IPHASW D HRMM SECON CODA AMPLIT PERI AZIMU VELO AIN AR TRES W  DIS CAZ7
 PAM  SZ EP        622 44.62                             150   -0.1210 65.0  38 
 RUS  HZ EP        622 48.60                             135    0.6310  109 181 
 RUS  HN ES        623  5.02                             135   -0.1810  109 181 
 PTB  HZ EP        622 51.93                             123   -0.13 9  159 257 
 PTB  HN ES        623 12.06                             123   -0.43 9  159 257 
 PTB  HZ I         623 14.54         3.9 0.52            125            159 257 
 SPBC HZ EP        622 53.43                             120   -0.47 9  176 220 
 SPBC HE ES        623 16.11                             120    0.35 9  176 220 
 SPBC HZ I         623 21.04         3.0 0.20            123            176 220 
 ZAR  HZ EP        622 57.33                             115   -0.17 8  210 289 
 ZAR  HN ES        623 22.67                             115    0.51 8  210 289 
 ZAR  HZ I         623 31.80         2.0 0.40            117            210 289 
                                                                                
