 2014  127 0713 24.2 L   7.220 -73.859 83.7  RSN  5 0.6 1.5LRSN                1
 GAP=131        1.47       4.9     5.2 18.3  0.1428E+01  0.6516E+00 -0.3436E+02E
 Epicentro: PUERTO WILCHES - SANTANDER                                         3
 ACTION:UPD 14-03-13 09:58 OP:ep   STATUS:               ID:20140127071324 L   I
 OLDACT:REG 14-01-27 08:28 OP:stll STATUS:               ID:20140127070806     3
 2014-01-27-0708-06M.COL___222                                                 6
 STAT SP IPHASW D HRMM SECON CODA AMPLIT PERI AZIMU VELO AIN AR TRES W  DIS CAZ7
 PTB  HZ EP        713 42.17                             125    0.3210  100 221 
 PTB  HN ES        713 55.52                             125   -0.1010  100 221 
 PTB  HZ I         713 57.31         9.9 0.20            132            100 221 
 BAR2 SZ EP        713 42.64                             125    0.3010  102 133 
 BAR2 SZ ES        713 57.06                             125    0.5610  102 133 
 BAR2 SZ I         713 59.89         9.1 0.30            131            102 133 
 PAM  SZ EP        713 46.59                             118    1.1210  129  84 
 PAM  SN ES        714  1.47                             118   -0.6010  129  84 
 PAM  SZ I         714  3.39         5.8 0.48            124            129  84 
 RUS  HZ EP        713 49.52                             111   -0.59 9  170 150 
 RUS  HN ES        714  9.44                             111   -0.88 9  170 150 
 RUS  HZ I         714 12.88         2.4 0.44            117            170 150 
 SML  HZ EP        713 50.22                             110   -0.00 9  176 352 
 SML  HN ES        714 10.05                             110   -0.47 9  176 352 
 SML  HZ I         714 14.29         9.8 0.10            115            176 352 
                                                                                
