 2010 1127 0032 55.9 L   6.731 -73.117146.3  RSN  6 0.4 1.5LRSN                1
 GAP=163        0.79       5.5     9.1 10.5 -0.5804E+01 -0.2695E+02  0.1478E+02E
 Epicentro: JORDAN - SANTANDER                                                 3
 ACTION:UP  10-12-17 16:55 OP:REBC STATUS:               ID:20101127003255 L   I
 2010-11-27-0020-00M.COL___129                                                 6
 STAT SP IPHASW D HRMM SECON CODA AMPLIT PERI AZIMU VELO SNR AR TRES W  DIS CAZ7
 BAR2 SZ EP   1    033 15.21                             173    -0.3 7   17 206 
 BAR2 SZ I         033 31.94        20.8 0.19                            17 206 
 BRR  HZ EP   1    033 17.10                             151    -0.4 7   78 302 
 BRR  HE ES   1    033 34.35                             151     0.0 7   78 302 
 BRR  HZ I         033 36.93        16.6 0.02                            78 302 
 RUS  HZ EP   1    033 19.12                             146     0.0 7   93 178 
 RUS  HE ES   2    033 37.85                             146     0.6 5   93 178 
 RUS  HZ I         033 39.25         5.2 0.42                            93 178 
 GRA  SZ EP   1    033 21.97                             136     0.3 7  132  15 
 GRA  SZ I         033 43.98         5.8 0.16                           132  15 
 NOR  SZ EP   2    033 31.66                             119     0.2 4  233 237 
 NOR  SN ES   2    033 59.68                             119     0.4 4  233 237 
 NOR  SZ I         034 11.34         0.2 0.15                           233 237 
 CHI  HZ EP   1    033 33.34                             118     0.4 6  242 196 
 CHI  HN ES   2    034  0.72                             118    -1.1 4  242 196 
 CHI  HZ I         034 12.13         4.1 0.58                           242 196 
                                                                                
