 2017 1127 0920 22.1 L   6.770 -73.134144.1  RSN  6 0.4 1.5LRSN                1
 GAP=202        0.89       4.1     5.6  7.0 -0.6905E+01  0.1086E+02 -0.7075E+01E
 Epicentro: LOS SANTOS - SANTANDER                                             3
 ACTION:UPD 17-12-12 20:01 OP:rebc STATUS:               ID:20171127092022 L   I
 OLDACT:REG 17-11-27 12:39 OP:dhb  STATUS:               ID:20171127091743     3
 2017-11-27-0918-00M.COL___471                                                 6
 STAT SP IPHASW D HRMM SECON CODA AMPLIT PERI AZIMU VELO AIN AR TRES W  DIS CAZ7
 BAR2 EZ EP        920 41.45                             172   -0.0310 20.3 195 
 BAR2 EZ ES        920 56.83                             172    0.2410 20.3 195 
 BAR2 EZ I         920 58.93         6.0 0.16            173           20.3 195 
 PTB  HZ EP        920 48.32                             131   -0.68 9  148 260 
 PTB  HN ES        921  9.53                             131   -0.44 9  148 260 
 PTB  HZ I         921 10.34         2.2 0.12            133            148 260 
 SPBC HE ES        921 12.36                             129    0.05 9  161 220 
 SPBC HZ I         921 15.64         3.5 0.36            132            161 220 
 OCA  HZ EP        920 50.71                             129    0.09 9  164 353 
 OCA  HE ES        921 12.68                             129   -0.18 9  164 353 
 OCA  HZ I         921 18.43         5.8 0.22            130            164 353 
 ZAR  HZ EP        920 54.84                             122    0.14 8  206 293 
 ZAR  HE ES        921 20.67                             122    0.55 8  206 293 
 ZAR  HZ I         921 26.30         3.8 0.36            123            206 293 
 GUY2CHZ EP        921  6.14                             112    0.60 7  300 235 
 GUY2CHN ES   4    921 43.60                             112    4.18 0  300 235 
 GUY2CHZ I         921 50.87         1.1 0.56                           300 235 
                                                                                
