 2010  927 0229 53.7 L   7.539 -72.995155.2  RSN  6 0.3 2.0LRSN                1
 GAP=154        0.63       4.0     6.8  6.8 -0.1024E+02 -0.3353E+01  0.5467E+01E
 Epicentro: SURATA - SANTANDER                                                 3
 ACTION:UP  11-02-18 11:05 OP:tino STATUS:               ID:20100927022953 L   I
 2010-09-27-0227-05S.COL___121                                                 6
 STAT SP IPHASW D HRMM SECON CODA AMPLIT PERI AZIMU VELO SNR AR TRES W  DIS CAZ7
 GUE  SZ EP        230 15.02                             167     0.210   33  14 
 GRA  SZ EP        230 15.06                             163     0.210   44  29 
 GRA  SZ ES   1    230 31.53                             163     0.1 7   44  29 
 GRA  SZ I         230 32.63        19.2 0.26                            44  29 
 OCA  SZ EP        230 16.77                             150    -0.110   85 335 
 OCA  SZ I         230 17.16        13.8 0.03                            85 335 
 OCA  SZ ES   1    230 34.70                             150    -0.3 7   85 335 
 BRR  HZ EP        230 16.99                             148    -0.210   92 239 
 BRR  HN ES   1    230 35.62                             148     0.2 7   92 239 
 BRR  HZ I         230 37.67        13.5 0.12                            92 239 
 RUS  HN ES   1    230 49.51                             128    -0.4 7  182 183 
 RREF HN ES   2    231 31.54                             108     0.9 3  391 222 
                                                                                
