 2012  427 0825 52.5 L   6.781 -73.173148.2  RSN  8 0.3 1.8LRSN                1
 GAP=233        0.72       4.4     5.6  6.0  0.1070E+02  0.8761E+01  0.6309E+01E
 Epicentro: LOS SANTOS - SANTANDER                                             3
 ACTION:UPD 12-07-05 11:56 OP:tino STATUS:               ID:20120427082552 L   I
 2012-04-27-0820-00M.COL___189                                                 6
 STAT SP IPHASW D HRMM SECON CODA AMPLIT PERI AZIMU VELO AIN AR TRES W  DIS CAZ7
 BAR2 SZ EP   1    826 12.07                             172    -0.3 7   21 183 
 BAR2 SZ ES   1    826 27.45                             172    -0.4 7   21 183 
 BAR2 SZ I         826 28.96        25.0 0.22                            21 183 
 BRR  HZ EP        826 14.09                             153     0.310   70 301 
 BRR  HZ I         826 14.35        13.2 0.13                            70 301 
 BRR  HE ES   1    826 30.96                             153     0.5 7   70 301 
 RUS  HZ EP   1    826 16.46                             145     0.1 7   99 174 
 RUS  HE ES   1    826 35.10                             145     0.1 7   99 174 
 RUS  HZ I         826 36.21        10.4 0.24                            99 174 
 PTB  HZ EP   1    826 19.18                             133    -0.2 7  144 259 
 PTB  HN ES   1    826 39.73                             133    -0.6 7  144 259 
 PTB  HZ I         826 45.69         3.5 0.14                           144 259 
 ZAR  HZ EP   1    826 24.42                             123    -0.5 6  202 293 
 ZAR  HE ES   1    826 50.38                             123     0.2 6  202 293 
 ZAR  HZ I         826 55.63         3.7 0.26                           202 293 
 CHI  HZ EP   1    826 30.07                             118     0.1 6  246 195 
 CHI  HZ I         826 30.99         3.6 0.21                           246 195 
 CHI  HN ES   1    826 59.44                             118     0.2 6  246 195 
 RREF HN ES   2    827 14.60                             112     0.5 3  318 229 
 PRA  HZ EP   1    826 45.78                             107     0.1 4  389 209 
 PRA  HN ES   2    827 27.02                             107    -0.2 3  389 209 
                                                                                
