 2016 1127 0931  7.2 L   6.655 -73.118134.4  RSN  4 0.2 1.4LRSN                1
 GAP=234        0.54       6.7     3.0  5.5 -0.1014E+02 -0.5626E+00  0.1579E+02E
 Epicentro: VILLANUEVA - SANTANDER                                             3
 ACTION:UPD 17-10-26 21:12 OP:lp   STATUS:               ID:20161127093107 L   I
 OLDACT:REG 16-11-27 13:09 OP:dani STATUS:               ID:20161127092748     3
 2016-11-27-0928-00M.COL___349                                                 6
 STAT SP IPHASW D HRMM SECON CODA AMPLIT PERI AZIMU VELO AIN AR TRES W  DIS CAZ7
 BRR  HZ EP        931 27.80                             146   -0.0410 82.5 307 
 BRR  HN ES        931 44.25                             146    0.3010 82.5 307 
 BRR  HZ I         931 48.38         7.8 0.48            142           82.5 307 
 PAM  EZ IP        931 29.11                             145    0.1410 88.7  31 
 PAM  EE ES        931 45.73                             145   -0.2210 88.7  31 
 PAM  EZ I         931 47.67         8.5 0.38            145           88.7  31 
 PTB  HZ EP        931 33.19                             129   -0.14 9  149 265 
 PTB  HN ES        931 53.66                             129   -0.06 9  149 265 
 PTB  HZ I         931 57.27         2.2 0.26            129            149 265 
 ZAR  HZ EP     D  931 40.17                             118    0.26 8  213 296 
 ZAR  HN ES        932  5.17                             118   -0.26 8  213 296 
 ZAR  HZ I         932 11.61         1.6 0.12            118            213 296 
                                                                                
