 2011  327 0606 56.8 L   7.178 -73.390 98.0  RSN  5 0.5 1.4LRSN                1
 GAP=115        1.20       6.2    12.2 13.7  0.1254E+02 -0.3504E+02 -0.4878E+02E
 Epicentro: LEBRIJA - SANTANDER                                                3
 ACTION:UP  11-06-16 14:35 OP:jfem STATUS:               ID:20110327060656 L   I
 2011-03-27-0604-53S.COL___138                                                 6
 STAT SP IPHASW D HRMM SECON CODA AMPLIT PERI AZIMU VELO SNR AR TRES W  DIS CAZ7
 BTL  SZ EP   1    6 7 11.12                             161     0.1 7   32 155 
 BTL  SZ ES   1    6 7 21.14                             161    -0.9 7   32 155 
 BRR  HZ EP        6 7 10.44                             158    -0.410   36 258 
 BRR  HZ I         6 7 10.58         8.1 0.14                            36 258 
 BRR  HN ES   1    6 7 22.46                             158     0.6 7   36 258 
 BAR2 SZ ES        6 7 26.31                             143     0.410   69 161 
 BAR2 SZ I         6 7 28.06        10.3 0.36                            69 161 
 GRA  SZ EP   1    6 7 16.13                             131     0.3 7  101  40 
 GRA  SZ I         6 7 33.18         3.4 0.33                           101  40 
 OCA  SZ EP   1    6 7 17.20                             126    -0.2 7  118   4 
 OCA  SZ ES        6 7 33.56                             126     0.110  118   4 
 OCA  SZ I         6 7 35.26         5.1 0.18                           118   4 
                                                                                
