 2015  427 0843 51.3 L   6.823 -73.225157.3  RSN  4 0.5 1.6LRSN                1
 GAP=280        1.12       7.9    11.4 10.5 -0.2094E+02 -0.2897E+02 -0.1008E+02E
 Epicentro: ZAPATOCA - SANTANDER                                               3
 ACTION:UPD 15-06-03 16:57 OP:cam  STATUS:               ID:20150427084351 L   I
 OLDACT:REG 15-04-27 13:04 OP:stll STATUS:               ID:20150427083747     3
 2015-04-27-0837-47M.COL___268                                                 6
 STAT SP IPHASW D HRMM SECON CODA AMPLIT PERI AZIMU VELO AIN AR TRES W  DIS CAZ7
 BRR  HZ EP        844 13.54                             157    0.2310 62.3 300 
 BRR  HN ES        844 30.63                             157    0.1910 62.3 300 
 PTB  HZ EP        844 18.14                             136   -0.45 9  140 257 
 PTB  HN ES        844 39.45                             136   -0.39 9  140 257 
 PTB  HZ I         844 41.74         4.3 0.38            128            140 257 
 ZAR  HZ EP        844 23.77                             126    0.10 9  195 292 
 ZAR  HN ES        844 49.53                             126    0.65 9  195 292 
 ZAR  HZ I         844 58.27         2.5 0.30            119            195 292 
 SML  HZ EP        844 28.54                             120    0.52 8  238 337 
 SML  HN ES        844 55.72                             120   -0.90 8  238 337 
 SML  HZ I         844 59.52         3.8 0.10            116            238 337 
                                                                                
