 2015  127 0056 40.7 L   6.813 -73.147148.2  RSN  9 0.4 1.8LRSN                1
 GAP=136        0.99       3.1     4.4  6.1  0.1210E+01  0.5151E+01 -0.1197E+00E
 Epicentro: LOS SANTOS - SANTANDER                                             3
 ACTION:UPD 15-03-02 15:42 OP:nd   STATUS:               ID:20150127005640 L   I
 OLDACT:DUP 15-01-27 13:51 OP:cam  STATUS:               ID:20150127004817d    3
 OLDACT:REG 15-01-27 12:55 OP:cam  STATUS:               ID:20150127004816     3
 2015-01-27-0048-16M.COL___274                                                 6
 STAT SP IPHASW D HRMM SECON CODA AMPLIT PERI AZIMU VELO AIN AR TRES W  DIS CAZ7
 BAR2 EZ EP        057  0.58                             170   -0.0410 24.7 189 
 BAR2 EZ ES        057 15.60                             170   -0.5810 24.7 189 
 BAR2 EZ I         057 17.92         9.0 0.26            168           24.7 189 
 BRR  HZ IP     C  057  2.44                             153    0.4010 70.4 298 
 BRR  HE ES        057 19.53                             153    0.8210 70.4 298 
 BRR  HZ I         057 22.74        12.2 0.16            151           70.4 298 
 PAM  SZ EP     C  057  3.30                             152    0.2110 76.4  40 
 PAM  SN ES        057 20.56                             152   -0.0110 76.4  40 
 PAM  SZ I         057 22.78        12.2 0.48            156           76.4  40 
 RUS  HZ EP        057  4.89                             144    0.1310  102 176 
 RUS  HN ES        057 23.50                             144   -0.0510  102 176 
 RUS  HZ I         057 25.65         4.0 0.54            145            102 176 
 PTB  HZ EP        057  7.32                             132   -0.53 9  148 258 
 PTB  HN ES        057 28.50                             132   -0.55 9  148 258 
 PTB  HZ I         057 34.21        10.4 0.44            132            148 258 
 OCA  HN ES   1    057 30.79                             130   -0.37 7  159 353 
 ZAR  HZ EP   4    057 15.10                             123    1.89 0  203 292 
 ZAR  HN ES        057 38.95                             123    0.36 9  203 292 
 ZAR  HZ I         057 45.62         9.3 0.30            123            203 292 
 SML  HZ EP        057 17.02                             118   -0.27 8  242 335 
 SML  HE ES        057 45.65                             118   -0.20 8  242 335 
 SML  HZ I         057 48.41        14.6 0.10            120            242 335 
 CHI  HZ EP   1    057 18.74                             117    0.09 6  250 195 
 CHI  HE ES        057 48.66                             117    0.39 8  250 195 
 CHI  HZ I         057 53.74         2.1 0.38            119            250 195 
 GUY2CHZ EP   4    057 25.77                             113    1.29 0  302 235 
 MON  HZ EP   4    057 26.57                             109   -3.09 0  353 308 
                                                                                
