 2012  227 0933 12.7 L   6.747 -73.187145.3  RSN  5 0.3 1.4LRSN                1
 GAP=180        0.61       7.8     4.8  6.4  0.6005E+01  0.9374E+01  0.7470E+01E
 ACTION:UP  12-03-07 16:34 OP:epov STATUS:               ID:20120227093312 L   I
 2012-02-27-0930-00M.COL___192                                                 6
 STAT SP IPHASW D HRMM SECON CODA AMPLIT PERI AZIMU VELO AIN AR TRES W  DIS CAZ7
 BAR2 SZ EP   1    933 32.21                             173    0.03 7 17.2 178 
 BAR2 SZ ES   1    933 47.58                             173    0.21 7 17.2 178 
 BAR2 SZ I         933 49.83         3.7 0.35                          17.2 178 
 GIR2 SZ EP   1    933 32.18                             165   -0.31 7 36.6 359 
 GIR2 SZ ES   1    933 47.60                             165   -0.31 7 36.6 359 
 BRR  HZ EP   1    933 33.83                             153    0.06 7 70.4 304 
 BRR  HE ES   1    933 50.62                             153    0.43 7 70.4 304 
 BRR  HZ I         933 54.17         7.2 0.23                          70.4 304 
 PTB  HZ EP   1    933 39.51                             133    0.35 7  142 261 
 PTB  HN ES   1    933 59.29                             133   -0.48 7  142 261 
 ZAR  HN ES   1    934 10.09                             122    0.02 6  202 294 
 ZAR  HZ I         934 16.33         3.0 0.19                           202 294 
                                                                                
