 2010 1027 0957 16.2 L   6.759 -73.148146.4  RSN  5 0.3 1.6LRSN                1
 GAP=159        0.60       3.2     7.0  5.9 -0.1876E+01 -0.3813E+01  0.1336E+00E
 Epicentro: LOS SANTOS - SANTANDER                                             3
 ACTION:UP  11-02-18 11:12 OP:tino STATUS:               ID:20101027095716 L   I
 2010-10-27-0953-23S.COL___127                                                 6
 STAT SP IPHASW D HRMM SECON CODA AMPLIT PERI AZIMU VELO SNR AR TRES W  DIS CAZ7
 BAR2 SZ EP   1    957 35.66                             172    -0.2 7   19 192 
 BAR2 SZ I         957 36.18        11.1 0.33                            19 192 
 BAR2 SZ ES   1    957 50.95                             172    -0.2 7   19 192 
 BRR  HZ IP     C  957 37.43                             152    -0.110   73 302 
 BRR  HZ I         957 37.65        21.0 0.14                            73 302 
 BRR  HN ES   1    957 54.35                             152     0.2 7   73 302 
 RUS  HZ EP   1    957 39.64                             145    -0.1 7   96 176 
 RUS  HN ES   1    957 58.23                             145     0.2 7   96 176 
 RUS  HZ I         958  0.72         2.9 0.39                            96 176 
 GRA  SZ EP   1    957 42.38                             136     0.5 7  130  17 
 GRA  SZ ES   1    958  1.67                             136    -0.2 7  130  17 
 GRA  SZ I         958  3.26         2.6 0.31                           130  17 
 CHI  HZ EP   2    957 52.96                             118    -0.5 4  244 195 
 CHI  HE ES   2    958 22.76                             118     0.3 4  244 195 
 CHI  HZ I         958 26.44         2.6 0.30                           244 195 
                                                                                
