 2012  627 0628 53.9 L   6.754 -73.179133.5  RSN  6 0.4 1.3LRSN                1
 GAP=134        0.83       5.2     4.6  7.4  0.2344E+01  0.9523E+01 -0.1906E+01E
 Epicentro: VILLANUEVA - SANTANDER                                             3
 ACTION:UPD 12-08-06 17:52 OP:ep   STATUS:               ID:20120627062853 L   I
 2012-06-27-0626-59S.COL___210                                                 6
 STAT SP IPHASW D HRMM SECON CODA AMPLIT PERI AZIMU VELO AIN AR TRES W  DIS CAZ7
 BAR2 SZ EP   1    629 12.19                             172    0.19 7 17.9 181 
 BAR2 SZ ES   1    629 25.42                             172   -0.66 7 17.9 181 
 BAR2 SZ I         629 27.93         7.1 0.39                          17.9 181 
 BRR  HZ EP   1    629 13.82                             150    0.07 7 70.6 304 
 BRR  HN ES   1    629 29.97                             150    0.78 7 70.6 304 
 BRR  HZ I         629 34.56         6.8 0.14                          70.6 304 
 PAM  SZ EP   1    629 15.01                             146   -0.28 7 83.7  39 
 PAM  SN ES   1    629 31.83                             146   -0.10 7 83.7  39 
 RUS  HZ EP   1    629 16.53                             142    0.37 7 95.9 174 
 RUS  HZ I         629 17.42         2.5 0.14                          95.9 174 
 RUS  HN ES   1    629 33.73                             142    0.25 7 95.9 174 
 PTB  HZ EP   1    629 18.84                             130   -0.67 7  143 261 
 PTB  HN ES   1    629 39.22                             130   -0.23 7  143 261 
 PTB  HZ I         629 42.10         1.9 0.14                           143 261 
 ZAR  HZ EP   1    629 25.85                             120    0.38 6  203 294 
 ZAR  HN ES   1    629 49.90                             120   -0.16 6  203 294 
                                                                                
