 2015  927 0548  4.1 L   6.768 -73.164151.1  RSN 13 0.4 1.7LRSN                1
 GAP=181        0.83       2.6     4.2  4.8  0.1380E+01  0.3758E+01  0.1144E+01E
 Epicentro: LOS SANTOS - SANTANDER                                             3
 ACTION:UPD 15-10-28 16:28 OP:cam  STATUS:               ID:20150927054804 L   I
 OLDACT:DUP 15-09-27 16:55 OP:spq  STATUS:               ID:20150927053748d    3
 2015-09-27-0537-47M.COL___340                                                 6
 STAT SP IPHASW D HRMM SECON CODA AMPLIT PERI AZIMU VELO AIN AR TRES W  DIS CAZ7
 BAR2 EZ EP        548 23.85                             172   -0.4510 19.5 186 
 BAR2 EZ ES   1    548 40.47                             172    0.41 7 19.5 186 
 BAR2 EZ I         548 42.25         7.2 0.26            170           19.5 186 
 BRR  HZ EP     C  548 25.82                             153   -0.0110 71.3 302 
 BRR  HN ES        548 43.24                             153    0.4610 71.3 302 
 BRR  HZ I         548 46.31         7.3 0.32            151           71.3 302 
 RUS  HZ EP        548 27.77                             146   -0.3710 97.2 175 
 RUS  HE ES        548 46.78                             146   -0.1110 97.2 175 
 RUS  HZ I         548 47.75         3.2 0.22            148           97.2 175 
 PTB  HZ EP        548 30.80                             134   -0.47 9  145 260 
 PTB  HN ES        548 52.11                             134   -0.36 9  145 260 
 PTB  HZ I         548 57.14         5.5 0.24            133            145 260 
 SPBC HZ EP        548 32.82                             131    0.18 9  159 219 
 SPBC HN ES        548 55.06                             131    0.16 9  159 219 
 SPBC HZ I         549  1.84        10.4 0.18            132            159 219 
 OCA  HN ES        548 56.01                             130    0.23 9  164 354 
 OCA  HZ I         548 59.95         9.6 0.18            133            164 354 
 ZAR  HZ EP   1    548 36.54                             124   -0.31 6  204 293 
 ZAR  HE ES        549  2.11                             124   -0.28 9  204 293 
 ZAR  HZ I         549  8.21         7.1 0.44            124            204 293 
 CHI  HZ EP        548 42.01                             119    0.34 8  245 195 
 CHI  HN ES   1    549 10.92                             119   -0.06 6  245 195 
 CHI  HZ I         549 15.19         2.2 0.38            121            245 195 
 SML  HZ EP   1    548 41.38                             118    0.10 6  246 336 
 SML  HE ES   1    549  9.98                             118   -0.31 6  246 336 
 SML  HZ I         549 13.93         5.8 0.10            120            246 336 
 HEL  HZ EP   1    548 44.44                             116    0.16 6  269 256 
 HEL  HE ES   4    549 17.29                             116    1.67 0  269 256 
 HEL  HZ I         549 22.58         2.4 0.26            117            269 256 
 GUY2CHZ EP        548 48.30                             114    0.75 7  298 235 
 GUY2CHE ES   1    549 21.13                             114   -0.31 5  298 235 
 GUY2CHZ I         549 30.41         2.3 0.26                           298 235 
 CBOC HZ EP        548 51.70                             111    0.80 7  331 253 
 MON  HE ES   4    549 30.15                             109   -1.68 0  354 309 
 MON  HZ I         549 31.03         0.9 0.20            111            354 309 
                                                                                
