 2015  527 0449 42.6 L   6.798 -73.152146.0  RSN  7 0.3 1.4LRSN                1
 GAP=136        0.78       3.9     5.1  6.5  0.7328E+01 -0.2804E+01 -0.4352E+01E
 Epicentro: LOS SANTOS - SANTANDER                                             3
 ACTION:UPD 15-09-10 22:07 OP:cam  STATUS:               ID:20150527044942 L   I
 OLDACT:REG 15-05-27 12:42 OP:spq  STATUS:               ID:20150527044749     3
 2015-05-27-0447-49M.COL___294                                                 6
 STAT SP IPHASW D HRMM SECON CODA AMPLIT PERI AZIMU VELO AIN AR TRES W  DIS CAZ7
 BAR2 EZ EP        450  2.03                             171   -0.2010 23.0 188 
 BAR2 EZ ES   1    450 17.15                             171   -0.41 7 23.0 188 
 BAR2 EZ I         450 19.38         4.2 0.26            171           23.0 188 
 BRR  HZ EP     D  450  3.77                             153    0.0510 70.7 299 
 BRR  HN ES        450 20.80                             153    0.5910 70.7 299 
 BRR  HZ I         450 22.23         4.9 0.36            151           70.7 299 
 PAM  SZ EP        450  5.03                             151    0.1810 77.9  40 
 RUS  HZ EP        450  6.30                             144   -0.0410  100 176 
 RUS  HE ES   1    450 24.89                             144    0.02 7  100 176 
 RUS  HZ I         450 25.60         2.1 0.26            147            100 176 
 OCA  HN ES        450 32.80                             130   -0.22 9  160 353 
 OCA  HZ I         450 36.33         3.4 0.16            131            160 353 
 ZAR  HZ EP   1    450 15.57                             123    0.59 6  204 292 
 ZAR  HN ES        450 39.75                             123   -0.50 9  204 292 
 ZAR  HZ I         450 45.57         2.8 0.52            123            204 292 
 SML  HZ EP   1    450 19.04                             118   -0.16 6  244 335 
                                                                                
