 2014  727 0504 27.6 L   6.766 -73.175145.7  RSN  6 0.4 1.7LRSN                1
 GAP=180        0.78       3.0     5.1  5.7 -0.2768E+00  0.6861E+01 -0.4549E+01E
 Epicentro: LOS SANTOS - SANTANDER                                             3
 ACTION:UPD 15-03-16 20:47 OP:nd   STATUS:               ID:20140727050427 L   I
 OLDACT:UP  14-07-27 14:38 OP:mh   STATUS:               ID:20140727045817     3
 OLDACT:UP  14-07-27 14:37 OP:mh   STATUS:               ID:20140727045817     3
 OLDACT:UP  14-07-27 14:37 OP:mh   STATUS:               ID:20140727045817     3
 OLDACT:UP  14-07-27 14:36 OP:mh   STATUS:               ID:20140727045817     3
 OLDACT:REG 14-07-27 12:08 OP:mh   STATUS:               ID:20140727045817     3
 2014-07-27-0458-17M.COL___260                                                 6
 STAT SP IPHASW D HRMM SECON CODA AMPLIT PERI AZIMU VELO AIN AR TRES W  DIS CAZ7
 BAR2 SZ EP        5 4 47.34                             172    0.2310 19.3 182 
 BAR2 SZ ES        5 5  2.43                             172    0.0710 19.3 182 
 BAR2 SZ I         5 5  3.67         9.0 0.21            170           19.3 182 
 RUS  HZ EP        5 4 50.94                             145   -0.1210 97.2 174 
 RUS  HN ES        5 5  9.14                             145   -0.2610 97.2 174 
 RUS  HZ I         5 5 12.69        15.1 0.04            146           97.2 174 
 PTB  HZ EP        5 4 54.23                             133    0.05 9  144 260 
 PTB  HN ES        5 5 14.63                             133   -0.31 9  144 260 
 PTB  HZ I         5 5 21.15         4.5 0.52            131            144 260 
 OCA  HZ EP        5 4 56.05                             129   -0.13 9  164 354 
 OCA  HN ES   1    5 5 19.21                             129    0.70 7  164 354 
 OCA  HZ I         5 5 22.34         5.7 0.40            130            164 354 
 SML  HZ EP        5 5  4.08                             117   -0.33 8  246 336 
 SML  HN ES   1    5 5 33.19                             117    0.04 6  246 336 
 SML  HZ I         5 5 35.71         4.9 0.18            118            246 336 
 PRA  HZ EP   1    5 5 20.09                             107   -0.43 4  387 209 
 PRA  HN ES        5 6  2.89                             107    1.07 6  387 209 
 PRA  HZ I         5 6  9.22         1.8 0.20            108            387 209 
                                                                                
