 2017  427 0535 30.9 L   6.773 -73.215151.0  RSN  5 0.3 1.4LRSN                1
 GAP=274        0.48       3.1     5.0  5.2 -0.7645E+00 -0.2774E+01  0.1607E+01E
 Epicentro: ZAPATOCA - SANTANDER                                               3
 ACTION:UPD 17-05-30 21:16 OP:jn   STATUS:               ID:20170427053530 L   I
 OLDACT:UP  17-04-27 15:46 OP:and  STATUS:               ID:20170427052743     3
 OLDACT:UP  17-04-27 15:46 OP:and  STATUS:               ID:20170427052743     3
 OLDACT:REG 17-04-27 12:40 OP:and  STATUS:               ID:20170427052743     3
 2017-04-27-0528-00M.COL___360                                                 6
 STAT SP IPHASW D HRMM SECON CODA AMPLIT PERI AZIMU VELO AIN AR TRES W  DIS CAZ7
 BRR  HZ EP        535 52.40                             155    0.0810 66.2 304 
 BRR  HN ES        536  9.16                             155    0.1110 66.2 304 
 PTB  HZ EP        535 57.45                             135   -0.11 9  140 259 
 PTB  HN ES        536 18.13                             135   -0.24 9  140 259 
 PTB  HZ I         536 25.28         2.4 0.38            123            140 259 
 SPBC HN ES        536 21.12                             132   -0.03 9  156 217 
 ZAR  HZ EP   2    536  3.49                             124    0.42 4  198 294 
 ZAR  HN ES        536 28.16                             124   -0.02 9  198 294 
 ZAR  HZ I         536 36.34         2.4 0.26            116            198 294 
 NOR  HZ EP   2    536  6.13                             121    0.06 4  227 234 
 NOR  HN ES   3    536 35.18                             121    1.66 2  227 234 
 NOR  HZ I         536 39.90         1.8 0.12            113            227 234 
                                                                                
