 2016  227 0646 28.5 L   6.923 -73.354114.7  RSN  6 0.3 1.6LRSN                1
 GAP=126        0.80       2.9     4.0  7.0  0.9597E+00  0.1215E+02 -0.3766E+01E
 Epicentro: SAN VICENTE DE CHUCURI - SANTANDER                                 3
 ACTION:UPD 16-03-04 21:29 OP:rebc STATUS:               ID:20160227064628 L   I
 OLDACT:UP  16-02-29 14:13 OP:nlst STATUS:               ID:20160227064628 L   3
 OLDACT:UP  16-02-27 17:50 OP:mh   STATUS:               ID:20160227063747     3
 OLDACT:UP  16-02-27 14:34 OP:mh   STATUS:               ID:20160227063747     3
 OLDACT:UP  16-02-27 14:34 OP:mh   STATUS:               ID:20160227063747     3
 OLDACT:REG 16-02-27 13:17 OP:mh   STATUS:               ID:20160227063747     3
 2016-02-27-0637-47M.COL___313                                                 6
 STAT SP IPHASW D HRMM SECON CODA AMPLIT PERI AZIMU VELO AIN AR TRES W  DIS CAZ7
 BAR2 EZ EP     D  646 45.45                             159    0.4110 41.1 153 
 BAR2 EZ ES        646 58.16                             159    0.2310 41.1 153 
 PAM  EZ EP        646 48.56                             141    0.4110 85.7  57 
 PAM  EN ES        647  3.39                             141   -0.0710 85.7  57 
 PAM  EZ I         647  8.54         3.7 0.50            140           85.7  57 
 RUS  HZ EP        646 50.83                             131   -0.0410  118 165 
 RUS  HN ES        647  7.75                             131   -0.5610  118 165 
 PTB  HZ EP   4 C  646 49.82                             128   -1.47 0  129 251 
 PTB  HN ES   4    647  6.25                             128   -2.81 0  129 251 
 PTB  HZ I         647  7.30         9.6 0.34            131            129 251 
 OCA  HZ EP        646 52.99                             124   -0.12 9  146   1 
 OCA  HN ES        647 11.91                             124   -0.39 9  146   1 
 OCA  HZ I         647 12.89        12.9 0.28            125            146   1 
 ZAR  HZ EP        646 56.16                             118   -0.10 9  178 291 
 ZAR  HN ES        647 18.04                             118    0.13 9  178 291 
 ZAR  HZ I         647 19.18         5.0 0.78            121            178 291 
                                                                                
