 2013  427 0539  8.5 L   6.762 -73.151141.4  RSN  4 0.5 1.7LRSN                1
 GAP=197        0.87      23.2    12.1 17.5 -0.2438E+03 -0.1238E+03  0.2993E+03E
 Epicentro: LOS SANTOS - SANTANDER                                             3
 ACTION:UPD 13-05-22 14:41 OP:EP   STATUS:               ID:20130427053908 L   I
 2013-04-27-0538-36M.COL___208                                                 6
 STAT SP IPHASW D HRMM SECON CODA AMPLIT PERI AZIMU VELO AIN AR TRES W  DIS CAZ7
 BRR  HZ EP   1    539 29.53                             150    0.28 7 72.8 302 
 BRR  HN ES   1    539 46.03                             150    0.58 7 72.8 302 
 BRR  HN I         539 47.29        17.6 0.24            163           72.8 302 
 PAM  SZ EP   1    539 30.68                             148    0.22 7 81.0  38 
 PAM  SN ES   1    539 47.27                             148   -0.33 7 81.0  38 
 PAM  SN I         539 50.15         6.3 0.50            158           81.0  38 
 PTB  HZ EP   1    539 34.62                             131   -0.35 7  146 260 
 PTB  HN ES   1    539 54.88                             131   -0.75 7  146 260 
 PTB  HN I         540  0.46         8.5 0.40            136            146 260 
 NOR  HE ES   2    540 11.80                             118    0.73 4  232 235 
 NOR  HZ I         540 17.14         1.9 0.16            121            232 235 
                                                                                
