 2010  727 0848 10.8 L   6.781 -73.088148.4  RSN  9 0.3 1.7LRSN                1
 GAP=165        0.73       3.6     6.8  5.5 -0.8857E+01  0.6324E+01 -0.1185E+01E
 Epicentro: LOS SANTOS - SANTANDER                                             3
 ACTION:UPD 10-12-01 15:20 OP:pat  STATUS:               ID:20100727084810 L   I
 2010-07-27-0846-41S.COL___123                                                 6
 STAT SP IPHASW D HRMM SECON CODA AMPLIT PERI AZIMU VELO AIN AR TRES W  DIS CAZ7
 BAR2 SZ IP        848 30.44                             171    -0.410   23 207 
 BAR2 SZ ES   1    848 46.48                             171     0.1 7   23 207 
 BAR2 SZ I         848 46.63         7.8 0.45                            23 207 
 BRR  HZ IP        848 32.40                             151    -0.310   78 298 
 BRR  HZ I         848 33.96        19.7 0.13                            78 298 
 BRR  HN ES   1    848 49.82                             151     0.1 7   78 298 
 RUS  HZ EP   1    848 34.55                             145    -0.1 7   98 180 
 RUS  HN ES   1    848 53.41                             145     0.1 7   98 180 
 RUS  HZ I         848 56.60         3.8 0.46                            98 180 
 GUE  SZ EP   1    848 36.52                             140     0.6 7  117   9 
 GRA  SZ IP        848 36.27                             138    -0.110  126  14 
 GRA  SZ ES   1    848 56.49                             138     0.2 7  126  14 
 OCA  SZ EP   1    848 39.34                             130    -0.3 7  163 351 
 HEL  HZ EP   1    848 51.70                             115    -0.1 6  278 257 
 HEL  HZ I         849 29.13         3.2 0.23                           278 257 
 RREF HZ EP   1    848 58.24                             111     0.7 5  325 230 
 RREF HZ I         849 38.88         3.8 0.29                           325 230 
 PRA  HZ EP   1    849  4.98                             107     0.4 4  393 211 
 PRA  HN ES   1    849 46.65                             107     0.1 4  393 211 
                                                                                
