 2010 1227 0641 40.9 L   6.806 -73.139129.5  RSN  7 0.5 1.9LRSN                1
 GAP=159        1.19       5.6    12.5 12.2 -0.3162E+02  0.5495E+02 -0.2245E+02E
 Epicentro: LOS SANTOS - SANTANDER                                             3
 ACTION:UP  11-01-14 15:27 OP:pat  STATUS:               ID:20101227064140 L   I
 2010-12-27-0637-03S.COL___132                                                 6
 STAT SP IPHASW D HRMM SECON CODA AMPLIT PERI AZIMU VELO SNR AR TRES W  DIS CAZ7
 BAR2 SZ EP        641 58.76                             169     0.110   24 192 
 BAR2 SZ ES   1    642 12.17                             169    -0.2 7   24 192 
 BAR2 SZ I         642 14.43        14.8 0.37                            24 192 
 RUS  HZ EP   1    642  2.67                             140    -0.5 7  101 177 
 RUS  HN ES   1    642 20.59                             140     0.1 7  101 177 
 RUS  HZ I         642 22.49         8.6 0.18                           101 177 
 GRA  SZ EP   1    642  5.89                             133     1.2 7  125  17 
 GRA  SZ I         642 26.68        14.0 0.22            132            125  17 
 OCA  SZ EP        642  7.55                             126    -0.4 9  160 353 
 OCA  SZ ES   1    642 28.73                             126    -0.3 7  160 353 
 OCA  SZ I         642 34.06        14.9 0.44                           160 353 
 NOR  SE ES   1    642 43.55                             115     0.4 6  236 235 
 ROSC BN ES   1    642 47.65                             113     0.2 6  254 211 
 ROSC BZ I         642 55.23         6.7 0.15                           254 211 
 PRA  HZ EP   1    642 33.30                             103    -0.7 4  393 210 
                                                                                
