 2014  727 0851 11.7 L   6.108 -73.742112.2  RSN 16 0.4 2.2LRSN                1
 GAP= 72        0.95       2.4     2.7  5.0 -0.3001E+01  0.2034E+01 -0.5857E+00E
 Epicentro: EL PENON - SANTANDER                                               3
 ACTION:UPD 15-03-16 20:47 OP:nd   STATUS:               ID:20140727085111 L   I
 OLDACT:REG 14-07-27 12:32 OP:mh   STATUS:               ID:20140727084818     3
 2014-07-27-0848-18M.COL___254                                                 6
 STAT SP IPHASW D HRMM SECON CODA AMPLIT PERI AZIMU VELO AIN AR TRES W  DIS CAZ7
 SPBC HZ EP     D  851 28.90                             149    0.0510 62.2 216 
 SPBC HN ES        851 42.40                             149    0.1610 62.2 216 
 SPBC HZ I         851 44.53        46.9 0.42            148           62.2 216 
 RUS  HZ EP        851 30.09                             143   -0.3110 76.7 108 
 RUS  HN ES   1    851 44.02                             143   -0.99 7 76.7 108 
 RUS  HZ I         851 45.83        28.8 0.47            143           76.7 108 
 BAR2 SZ EP        851 30.89                             141    0.4610 81.9  49 
 BAR2 SZ ES        851 45.13                             141    0.0710 81.9  49 
 BAR2 SZ I         851 47.56       148.1 0.74            141           81.9  49 
 PTB  HZ EP        851 30.68                             137   -0.2710 92.3 301 
 PTB  HN ES        851 45.91                             137   -0.0710 92.3 301 
 PTB  HZ I         851 48.80        24.0 0.16            136           92.3 301 
 NOR  HZ EP        851 35.33                             125    0.07 9  139 244 
 NOR  HN ES        851 54.04                             125    0.38 9  139 244 
 NOR  HZ I         851 56.42        79.9 0.20            124            139 244 
 ROSC BZ EP   1    851 38.17                             122    0.89 7  154 205 
 ROSC BN ES   1    851 58.12                             122    0.86 7  154 205 
 ROSC BZ I         852  1.60        34.1 0.88            121            154 205 
 CHI  HZ EP   1    851 37.52                             120   -0.77 7  163 180 
 CHI  HN ES   1    851 59.28                             120    0.23 7  163 180 
 CHI  HZ I         852  0.42        12.4 0.64            120            163 180 
 PAM  SZ EP        851 40.32                             118    0.34 9  178  40 
 PAM  SN ES        852  1.89                             118   -0.17 9  178  40 
 PAM  SZ I         852  8.57        10.6 0.19            117            178  40 
 HEL  HZ EP        851 41.66                             115   -0.30 9  198 273 
 HEL  HN ES        852  4.76                             115   -0.83 9  198 273 
 HEL  HZ I         852 10.65        11.9 0.23            114            198 273 
 GUY2CHZ EP   1    851 43.42                             114    0.58 6  205 242 
 GUY2CHN ES   4    852  7.90                             114    0.76 0  205 242 
 GUY2CHZ I         852 12.47        15.7 0.71                           205 242 
 RREF HZ EP   1    851 44.47                             112   -0.56 6  222 233 
 RREF HN ES        852 11.21                             112    0.16 8  222 233 
 RREF HZ I         852 17.07        13.1 0.21            111            222 233 
 OCA  HZ EP        851 46.72                             110    0.26 8  240  11 
 OCA  HN ES   1    852 14.03                             110    0.43 6  240  11 
 OCA  HZ I         852 24.03        15.8 0.13            109            240  11 
 PRA  HZ EP   1    851 51.71                             105   -0.81 5  294 206 
 PRA  HN ES        852 24.43                             105    0.05 7  294 206 
 PRA  HZ I         852 28.92         9.1 0.30            105            294 206 
 ORTC HZ EP        851 52.49                             105   -0.18 7  295 215 
 ORTC HE ES        852 24.47                             105   -0.18 7  295 215 
 ORTC HZ I         852 28.54         6.6 0.39            105            295 215 
 SML  HZ EP        851 53.35                             105    0.12 7  300 353 
 SML  HN ES   1    852 25.83                             105    0.19 5  300 353 
 MACC HZ EP   4    852  7.03                              98   -2.76 0  438 182 
 MACC HN ES   4    852 47.68                              98   -7.44 0  438 182 
 MACC HZ I         853  6.45         2.1 0.20             98            438 182 
                                                                                
