 2016  727 0330  9.3 L   6.828 -73.162153.4  RSN  6 0.4 1.2LRSN                1
 GAP=238        0.92       5.3     5.9  6.3  0.9756E+01  0.4937E+01 -0.1768E+01E
 Epicentro: LOS SANTOS - SANTANDER                                             3
 ACTION:UPD 17-03-29 16:55 OP:lp   STATUS:               ID:20160727033009 L   I
 OLDACT:UP  16-07-27 15:43 OP:edw  STATUS:               ID:20160727032759     3
 OLDACT:REG 16-07-27 12:52 OP:edw  STATUS:               ID:20160727032759     3
 2016-07-27-0327-59S.COL___340                                                 6
 STAT SP IPHASW D HRMM SECON CODA AMPLIT PERI AZIMU VELO AIN AR TRES W  DIS CAZ7
 BAR2 EZ EP        330 29.43                             170   -0.5010 26.2 185 
 BAR2 EZ ES        330 45.90         4.0 0.21            170   -0.1010 26.2 185 
 BRR  HZ EP        330 31.87                             155    0.7310 68.1 297 
 BRR  HN ES        330 48.38                             155    0.2210 68.1 297 
 RUS  HZ EP        330 34.23                             144    0.1710  104 175 
 RUS  HE ES        330 53.18                             144   -0.1710  104 175 
 RUS  HZ I         330 55.33         0.8 0.18            141            104 175 
 PTB  HZ EP        330 36.82                             134   -0.00 9  147 258 
 PTB  HE ES        330 58.18                             134   -0.09 9  147 258 
 PTB  HZ I         331  0.30         2.2 0.16            131            147 258 
 SPBC HZ EP        330 38.88                             130    0.34 9  164 218 
 SPBC HN ES        331  1.38                             130    0.06 9  164 218 
 SPBC HZ I         331  8.73         4.2 0.68            127            164 218 
 ZAR  HZ EP        330 41.31                             124   -0.68 9  201 292 
 ZAR  HE ES   2    331  7.03                             124   -0.44 4  201 292 
                                                                                
