 2014  527 0020 11.5 L   6.693 -73.318151.5  RSN  4 0.3 1.2LRSN                1
 GAP=207        0.70       9.5     7.4  8.8  0.5627E+02 -0.1066E+02 -0.2211E+02E
 Epicentro: GALAN - SANTANDER                                                  3
 ACTION:UPD 15-03-16 17:01 OP:nd   STATUS:               ID:20140527002011 L   I
 OLDACT:REG 14-05-27 13:24 OP:stll STATUS:               ID:20140527001817     3
 2014-05-27-0018-17M.COL___256                                                 6
 STAT SP IPHASW D HRMM SECON CODA AMPLIT PERI AZIMU VELO AIN AR TRES W  DIS CAZ7
 BRR  HN ES   2    020 49.27                             156   -0.20 5 63.2 317 
 RUS  HZ EP        020 34.85                             147   -0.3610 92.2 164 
 RUS  HN ES        020 53.99                             147    0.2610 92.2 164 
 RUS  HZ I         020 54.61         1.1 0.22            156           92.2 164 
 PTB  HZ EP        020 37.44                             138    0.3210  127 262 
 PTB  HN ES        020 56.87                             138   -0.2710  127 262 
 PTB  HZ I         020 59.46         2.4 0.10            141            127 262 
 ZAR  HN ES   1    021  7.93                             125    0.25 7  192 298 
 ZAR  HZ I         021 15.47         2.2 0.20            126            192 298 
                                                                                
