 2010  627 0817 15.2 L   6.783 -73.175140.3  RSN  6 0.4 1.4LRSN                1
 GAP=156        0.89       5.8    19.3 12.3 -0.3000E+02 -0.2556E+02 -0.2263E+02E
 Epicentro: LOS SANTOS - SANTANDER                                             3
 ACTION:UP  10-08-24 10:13 OP:vdl  STATUS:               ID:20100627081715 L   I
 2010-06-27-0815-13S.COL___118                                                 6
 STAT SP IPHASW D HRMM SECON CODA AMPLIT PERI AZIMU VELO SNR AR TRES W  DIS CAZ7
 BAR2 SZ EP        817 34.12                             171     0.010   21 183 
 BAR2 SZ ES   2    817 48.57                             171    -0.3 5   21 183 
 BRR  HZ EP   2    817 35.81                             152     0.1 5   69 301 
 BRR  HE ES   3    817 52.36                             152     0.7 2   69 301 
 RUS  HZ EP        817 38.53                             143     0.210   99 174 
 RUS  HN ES   2    817 55.82                             143    -0.5 5   99 174 
 RUS  HZ I         817 58.12         4.3 0.23                            99 174 
 GUE  SZ EP        817 38.98                             137    -0.610  119  13 
 GRA  SZ EP        817 40.78                             135     0.610  129  19 
 GRA  SZ ES   2    818  0.15                             135     0.4 5  129  19 
 OCA  SZ EP   2    817 42.75                             128    -0.5 5  162 354 
                                                                                
