 2010  427 0211  4.9 L   6.808 -73.118150.0  RSN 12 0.6 3.1LRSN                1
 GAP=146        1.10       5.5     9.1  9.0 -0.2043E+02  0.1810E+02  0.1875E+01E
 Epicentro: LOS SANTOS - SANTANDER                                             3
 ACTION:UPD 10-08-24 10:01 OP:vdl  STATUS:               ID:20100427021112 L   I
 2010-04-27-0208-42S.COL___104                                                 6
 STAT SP IPHASW D HRMM SECON CODA AMPLIT PERI AZIMU VELO AIN AR TRES W  DIS CAZ7
 BAR2 SZ IP        211 24.95                             170    -0.110   25 197 
 BAR2 SZ ES   1    211 40.13                             170    -0.6 7   25 197 
 BRR  HZ IP     D  211 27.31                             152     0.710   74 297 
 BRR  HZ I         211 49.28       182.0 0.22                            74 297 
 OCA  SZ EP   1    211 32.67                             130    -0.8 7  160 352 
 OCA  SZ ES   1    211 56.39                             130     0.6 7  160 352 
 CHI  HZ EP   2    211 42.79                             118    -0.2 4  250 196 
 CHI  HE ES   1    212 13.61                             118     0.9 6  250 196 
 CHI  HZ I         212 18.37        47.5 0.34                           250 196 
 ROSC BZ EP   2    211 44.52                             117     1.0 4  255 212 
 ROSC BE ES   2    212 12.66                             117    -0.9 4  255 212 
 ROSC BZ I         212 19.49        83.5 0.23                           255 212 
 HEL  HZ EP   1    211 45.66                             115     0.0 6  275 256 
 HEL  HN ES   2    212 16.74                             115    -0.7 4  275 256 
 HEL  HZ I         212 23.84        48.2 0.36                           275 256 
 RREF BZ EP   1    211 51.72                             111     0.2 5  325 230 
 RREF BZ I         212 36.57        76.1 0.46                           325 230 
 DBB  SZ EP        211 52.68                             110    -0.2 7  342 274 
 TOL  SZ EP   1    211 53.60                             110     0.0 5  346 225 
 SDV  BZ IP     C  211 54.26                             109    -0.5 6  357  50 
 SDV  BZ I         212 33.87        13.8 0.44                           357  50 
 ANIL BZ EP   2    211 55.73                             109     0.6 3  360 225 
 ANIL BN ES   2    212 33.50                             109    -0.9 3  360 225 
 ANIL BZ I         212 41.65       139.1 0.48                           360 225 
 PRA  HZ EP   1    211 58.29                             107    -0.5 4  394 210 
 PRA  HE ES   2    212 41.06                             107     0.2 3  394 210 
 PRA  HZ I         212 46.82        71.7 0.35                           394 210 
                                                                                
