 2017 1027 0202 14.0 L   6.792 -73.124142.6  RSN  9 0.6 1.4LRSN                1
 GAP=140        1.50       5.2     6.6  9.0 -0.1556E+01  0.1671E+02  0.8473E+01E
 Epicentro: LOS SANTOS - SANTANDER                                             3
 ACTION:UPD 17-11-07 19:37 OP:rebc STATUS:               ID:20171027020214 L   I
 OLDACT:REG 17-10-27 12:33 OP:dani STATUS:               ID:20171027015741     3
 2017-10-27-0158-00M.COL___462                                                 6
 STAT SP IPHASW D HRMM SECON CODA AMPLIT PERI AZIMU VELO AIN AR TRES W  DIS CAZ7
 BAR2 EZ EP        2 2 32.94                             170   -0.3310 23.0 196 
 BAR2 EZ ES        2 2 48.25                             170   -0.0310 23.0 196 
 BAR2 EZ I         2 2 49.17         7.1 0.28            169           23.0 196 
 BRR  HZ EP        2 2 34.77                             151   -0.2110 73.7 298 
 BRR  HN ES        2 2 51.85                             151    0.5310 73.7 298 
 BRR  HZ I         2 2 54.75         9.3 0.30            151           73.7 298 
 PAM  EZ EP        2 2 35.95                             151    0.0910 76.6  38 
 PAM  EN ES        2 2 52.54                             151   -0.3510 76.6  38 
 PAM  EZ I         2 2 55.07         3.1 0.56            153           76.6  38 
 RUS  HN ES        2 2 56.07                             143    0.4410 99.6 177 
 PTB  HZ EP        2 2 39.94                             131   -1.00 9  150 259 
 PTB  HE ES        2 3  1.53                             131   -0.39 9  150 259 
 PTB  HZ I         2 3  3.31         1.4 0.12            131            150 259 
 SPBC HZ EP        2 2 42.16                             128   -0.21 9  164 220 
 SPBC HN ES        2 3  4.84                             128    0.37 9  164 220 
 SPBC HZ I         2 3  8.24         4.2 0.40            129            164 220 
 ZAR  HZ EP        2 2 48.49                             121    1.96 8  207 292 
 ZAR  HN ES        2 3 11.36                             121   -0.52 8  207 292 
 ZAR  HZ I         2 3 16.79         2.0 0.16            122            207 292 
 CHI  HZ EP        2 2 51.59                             116    0.06 8  248 196 
 CHI  HN ES        2 3 20.66                             116   -0.13 8  248 196 
 CHI  HZ I         2 3 26.00         1.4 0.43            118            248 196 
 PRA  HE ES        2 3 48.97                             106   -0.22 6  392 210 
                                                                                
