 2011  627 0332 47.4 L   6.728 -73.050144.5  RSN  4 0.3 1.5LRSN                1
 GAP=170        0.61       4.8     9.3 11.0 -0.4203E+01 -0.2966E+02 -0.8547E+01E
 Epicentro: ARATOCA - SANTANDER                                                3
 ACTION:UP  11-07-14 19:08 OP:ep   STATUS:               ID:20110627033247 L   I
 2011-06-27-0331-29S.COL___140                                                 6
 STAT SP IPHASW D HRMM SECON CODA AMPLIT PERI AZIMU VELO SNR AR TRES W  DIS CAZ7
 BRR  HZ EP        333  9.19                             148     0.010   84 300 
 BRR  HN ES   2    333 26.13                             148     0.0 5   84 300 
 BRR  HZ I         333 30.05         7.2 0.17                            84 300 
 RUS  HZ EP   2    333  9.68                             146    -0.7 5   92 182 
 RUS  HN ES   2    333 28.74                             146     0.3 5   92 182 
 GRA  SZ EP        333 13.15                             135     0.210  131  12 
 GRA  SZ ES   2    333 32.44                             135    -0.4 5  131  12 
 GRA  SZ I         333 35.52         3.6 0.41                           131  12 
 OCA  SZ ES   2    333 39.06                             127    -0.1 5  170 350 
                                                                                
