 2011 1127 0901  9.9 L   6.779 -73.046145.4  RSN 11 0.4 2.0LRSN                1
 GAP=151        0.58       3.3     5.0  6.1 -0.5403E+01  0.8657E+01  0.2729E+01E
 Epicentro: LOS SANTOS - SANTANDER                                             3
 ACTION:UPD 12-07-13 16:12 OP:ep   STATUS:               ID:20111127090109 L   I
 2011-11-27-0859-36S.COL___160                                                 6
 STAT SP IPHASW D HRMM SECON CODA AMPLIT PERI AZIMU VELO AIN AR TRES W  DIS CAZ7
 BAR2 SZ IP        9 1 29.43                             170   -0.1010 25.6 216 
 BAR2 SZ ES   2    9 1 44.50                             170   -0.35 5 25.6 216 
 BAR2 SZ I         9 1 45.73        23.3 0.23                          25.6 216 
 PAM  SZ EP   1    9 1 32.28                             152    0.47 7 72.8  32 
 PAM  SN ES   2    9 1 49.15                             152    0.25 5 72.8  32 
 BRR  HZ IP     D  9 1 31.34                             149   -0.3210 82.1 296 
 BRR  HZ I         9 1 31.77        36.3 0.11                          82.1 296 
 BRR  HN ES   2    9 1 48.67                             149    0.04 5 82.1 296 
 RUS  HZ EP   2    9 1 33.90                             144    0.46 5 98.1 182 
 RUS  HN ES   2    9 1 51.65                             144   -0.15 5 98.1 182 
 RUS  HZ I         9 1 54.32         5.5 0.25                          98.1 182 
 OCA  SZ EP   2    9 1 38.20                             129   -0.36 5  164 349 
 OCA  SZ ES   2    9 2  1.37                             129    0.46 5  164 349 
 OCA  SZ I         9 2  4.89        11.7 0.25                           164 349 
 CTAU SZ EP   2    9 1 43.57                             122    0.35 4  206 212 
 CTAU SZ ES   2    9 2  8.90                             122   -0.31 4  206 212 
 CTAB SZ EP   2    9 1 46.15                             119    0.11 4  234 213 
 NOR  SZ EP   2    9 1 46.09                             117   -0.36 4  242 236 
 NOR  SN ES   2    9 2 14.91                             117   -0.04 4  242 236 
 CHI  HZ EP   2    9 1 46.99                             117   -0.69 4  250 198 
 CHI  HN ES   2    9 2 17.37                             117    0.23 4  250 198 
 CHI  HZ I         9 2 26.48         3.8 0.48                           250 198 
 HEL  HZ EP   2    9 1 50.76                             114   -0.47 4  282 257 
 HEL  HN ES   2    9 2 23.56                             114    0.10 4  282 257 
 HEL  HZ I         9 2 29.84         7.4 0.26                           282 257 
 RREF HZ EP   2    9 1 57.45                             110    0.63 3  329 231 
 RREF HN ES   2    9 2 34.88                             110    1.46 3  329 231 
 RREF HZ I         9 2 44.21         6.3 0.32                           329 231 
                                                                                
