 2016 1127 0756 24.2 L   6.613 -73.164139.0  RSN  4 0.3 1.4LRSN                1
 GAP=270        0.81       8.9     5.8  6.5  0.1769E+02  0.1130E+02  0.9504E+00E
 Epicentro: VILLANUEVA - SANTANDER                                             3
 ACTION:UPD 17-10-26 21:12 OP:lp   STATUS:               ID:20161127075624 L   I
 OLDACT:REG 16-11-27 13:02 OP:dani STATUS:               ID:20161127074749     3
 2016-11-27-0748-00M.COL___349                                                 6
 STAT SP IPHASW D HRMM SECON CODA AMPLIT PERI AZIMU VELO AIN AR TRES W  DIS CAZ7
 BAR2 EZ EP        756 42.58                             179   -0.1510 3.06 222 
 BAR2 EZ ES        756 57.53                             179    0.3110 3.06 222 
 BAR2 EZ I         756 58.42         5.9 0.54            172           3.06 222 
 BRR  HZ EP        756 44.81                             148   -0.4110 81.6 312 
 BRR  HN ES        757  1.59                             148   -0.0710 81.6 312 
 BRR  HZ I         757  4.33         5.0 0.24            144           81.6 312 
 PTB  HZ EP        756 50.63                             131    0.47 9  143 267 
 PTB  HN ES        757 10.03                             131   -0.41 9  143 267 
 PTB  HZ I         757 12.92         2.7 0.14            131            143 267 
 ZAR  HZ EP        756 56.94                             120    0.04 8  211 298 
 ZAR  HN ES        757 22.77                             120    0.34 8  211 298 
 ZAR  HZ I         757 29.90         1.9 0.30            119            211 298 
                                                                                
