 2011 1227 0540 39.2 L   6.790 -73.162145.9  RSN  6 0.2 1.3LRSN                1
 GAP=135        0.46       3.1     4.8  4.9 -0.1043E+01  0.7859E+01  0.9165E+00E
 Epicentro: LOS SANTOS - SANTANDER                                             3
 ACTION:UPD 12-07-13 16:18 OP:ep   STATUS:               ID:20111227054039 L   I
 2011-12-27-0540-00M.COL___187                                                 6
 STAT SP IPHASW D HRMM SECON CODA AMPLIT PERI AZIMU VELO AIN AR TRES W  DIS CAZ7
 BAR2 SZ EP   1    540 58.79                             171   -0.02 7 22.0 186 
 BAR2 SZ I         540 58.97         6.1 0.19                          22.0 186 
 BAR2 SZ ES   1    541 14.47                             171    0.35 7 22.0 186 
 BRR  HZ EP   1    541  0.34                             153    0.05 7 70.2 300 
 PAM  SZ EP   1    541  1.59                             150    0.05 7 79.4  40 
 PAM  SN ES   1    541 18.85                             150   -0.12 7 79.4  40 
 PAM  SZ I         541 20.78         4.6 0.58                          79.4  40 
 RUS  HZ EP   1    541  2.64                             144   -0.25 7 99.6 175 
 RUS  HN ES   1    541 21.14                             144   -0.23 7 99.6 175 
 RUS  HZ I         541 23.37         2.2 0.45                          99.6 175 
 ZAR  HE ES   2    541 36.51                             123   -0.22 4  203 293 
 ZAR  HZ I         541 42.88         2.9 0.13                           203 293 
 CHI  HZ EP   1    541 17.10                             117    0.37 6  247 195 
 CHI  HZ I         541 54.75         1.2 0.73                           247 195 
                                                                                
