 2013  827 0902 47.5 L   6.795 -73.157151.0  RSN 11 0.5 2.0LRSN                1
 GAP=135        0.99       3.3     4.9  6.6 -0.2401E+01  0.7390E+01 -0.1060E+01E
 Epicentro: LOS SANTOS - SANTANDER                                             3
 ACTION:UPD 14-01-14 09:07 OP:ep   STATUS:               ID:20130827090247 L   I
 OLDACT:REG 13-08-27 07:53 OP:carl STATUS:               ID:20130827085959     3
 2013-08-27-0859-59M.COL___270                                                 6
 STAT SP IPHASW D HRMM SECON CODA AMPLIT PERI AZIMU VELO AIN AR TRES W  DIS CAZ7
 BAR2 SZ EP        9 3  7.73                             171    0.0110 22.6 187 
 BAR2 SZ ES   1    9 3 23.41                             171   -0.10 7 22.6 187 
 BAR2 SZ I         9 3 25.53        12.7 0.36            169           22.6 187 
 BRR  HZ IP     C  9 3  9.64                             154    0.5010 70.3 299 
 BRR  HN ES   1    9 3 26.82                             154    0.78 7 70.3 299 
 BRR  HZ I         9 3 29.45        17.9 0.22            151           70.3 299 
 PAM  SZ EP        9 3 10.64                             151    0.3210 78.6  40 
 PAM  SN ES   1    9 3 27.98                             151   -0.16 7 78.6  40 
 PAM  SZ I         9 3 29.98        14.9 0.58            157           78.6  40 
 RUS  HZ EP        9 3 11.55                             145   -0.1610  100 175 
 RUS  HN ES   1    9 3 30.27                             145   -0.35 7  100 175 
 RUS  HZ I         9 3 31.48         6.2 0.44            148            100 175 
 PTB  HZ EP        9 3 14.33                             133   -0.42 9  146 259 
 PTB  HN ES   1    9 3 35.70                             133   -0.33 7  146 259 
 PTB  HZ I         9 3 40.30        16.1 0.30            133            146 259 
 OCA  HZ EP   1    9 3 16.96                             131    0.73 7  161 354 
 OCA  HN ES   1    9 3 37.86                             131   -0.80 7  161 354 
 OCA  HZ I         9 3 43.70        12.7 0.26            134            161 354 
 SPBC HZ EP        9 3 16.57                             130    0.30 9  162 219 
 SPBC HN ES   1    9 3 38.89                             130    0.17 7  162 219 
 SPBC HZ I         9 3 47.37        12.7 0.24            132            162 219 
 ZAR  HZ EP   1    9 3 20.72                             124    0.56 6  203 292 
 ZAR  HN ES   1    9 3 46.24                             124    0.58 6  203 292 
 ZAR  HZ I         9 3 51.33        12.8 0.34            125            203 292 
 NOR  HZ EP        9 3 22.81                             120   -0.56 8  233 234 
 NOR  HE ES   1    9 3 51.03                             120   -0.34 6  233 234 
 NOR  HZ I         9 3 59.57         9.4 0.34            121            233 234 
 SML  HZ EP        9 3 24.25                             119   -0.14 8  244 336 
 SML  HN ES   1    9 3 51.97                             119   -1.22 6  244 336 
 CHI  HN ES   1    9 3 54.99                             118    0.05 6  248 195 
 CHI  HN I         9 3 57.54        13.0 0.26            121            248 195 
                                                                                
