 2012  227 0324  2.9 L   6.759 -73.160154.5  RSN  4 0.4 1.2LRSN                1
 GAP=233        0.65       7.5     7.8  8.3  0.2917E+02  0.8853E+01 -0.1016E+01E
 ACTION:UP  12-03-07 16:34 OP:epov STATUS:               ID:20120227032402 L   I
 2012-02-27-0320-00M.COL___192                                                 6
 STAT SP IPHASW D HRMM SECON CODA AMPLIT PERI AZIMU VELO AIN AR TRES W  DIS CAZ7
 BAR2 SZ ES   2    324 38.72                             173   -0.84 5 18.6 187 
 BAR2 SZ I         324 40.70         3.2 0.23                          18.6 187 
 BRR  HZ EP   1    324 25.22                             154    0.19 7 72.1 302 
 BRR  HZ I         324 41.13         4.4 0.42                          72.1 302 
 BRR  HN ES   1    324 42.51                             154    0.20 7 72.1 302 
 RUS  HZ EP   2    324 26.74                             147   -0.47 5 96.2 175 
 RUS  HE ES   1    324 46.56                             147    0.38 7 96.2 175 
 RUS  HZ I         324 47.13         1.9 0.19                          96.2 175 
 PTB  HZ EP   1    324 30.39                             134    0.02 7  145 260 
 PTB  HE ES   1    324 51.56                             134   -0.24 7  145 260 
                                                                                
