 2011 1227 0635 17.2 L   6.762 -73.210147.4  RSN  4 0.3 1.3LRSN                1
 GAP=168        0.69      12.2    11.1  8.1  0.1718E+02  0.3938E+02  0.2024E+02E
 Epicentro: VILLANUEVA - SANTANDER                                             3
 ACTION:UPD 12-07-13 16:18 OP:ep   STATUS:               ID:20111227063517 L   I
 2011-12-27-0630-00M.COL___186                                                 6
 STAT SP IPHASW D HRMM SECON CODA AMPLIT PERI AZIMU VELO AIN AR TRES W  DIS CAZ7
 BAR2 SZ ES   1    635 52.48                             172    0.18 7 19.0 171 
 BAR2 SZ I         635 54.67         3.2 0.48                          19.0 171 
 GIR2 SZ EP   1    635 37.00                             166   -0.12 7 35.1   3 
 GIR2 SZ ES   1    635 52.34                             166   -0.36 7 35.1   3 
 BRR  HZ EP   1    635 38.84                             154    0.57 7 67.4 305 
 BRR  HE ES   1    635 54.82                             154    0.09 7 67.4 305 
 BRR  HZ I         635 55.29         4.8 0.16                          67.4 305 
 PTB  HZ EP   1    635 43.16                             134   -0.40 7  140 260 
                                                                                
