 2010  827 0527 52.1 L   6.810 -73.119145.4  RSN  5 0.3 1.4LRSN                1
 GAP=161        0.65       3.3     7.3  7.3 -0.3540E+01 -0.5827E+01  0.3763E+00E
 Epicentro: LOS SANTOS - SANTANDER                                             3
 ACTION:UP  10-09-07 10:58 OP:vdl  STATUS:               ID:20100827052752 L   I
 2010-08-27-0525-15S.COL___120                                                 6
 STAT SP IPHASW D HRMM SECON CODA AMPLIT PERI AZIMU VELO SNR AR TRES W  DIS CAZ7
 BRR  HZ IP     C  528 13.36                             152     0.010   73 297 
 BRR  HN ES   1    528 29.86                             152     0.0 7   73 297 
 BRR  HZ I         528 33.31         4.4 0.10                            73 297 
 RUS  HZ EP   1    528 15.88                             143     0.0 7  102 178 
 RUS  HN ES   1    528 34.11                             143    -0.3 7  102 178 
 RUS  HZ I         528 36.02         3.2 0.38                           102 178 
 GRA  SZ EP   1    528 17.18                             137     0.0 7  124  16 
 GRA  SZ ES   1    528 37.23                             137     0.5 7  124  16 
 GRA  SZ I         528 38.13         2.7 0.23                           124  16 
 OCA  SZ EP   1    528 20.13                             129    -0.2 7  160 352 
 OCA  SZ ES   2    528 41.85                             129    -0.5 5  160 352 
 OCA  SZ I         528 46.88         4.4 0.44                           160 352 
 PRA  HZ EP   2    528 46.23                             106     0.3 3  394 210 
 PRA  HE ES   2    529 28.74                             106     0.9 3  394 210 
 PRA  HZ I         529 34.31         1.4 0.39                           394 210 
                                                                                
