 2010  727 0542 41.4 L   6.793 -73.032140.1  RSN  8 0.3 1.6LRSN                1
 GAP=172        0.79       4.1     7.4 10.0 -0.7010E+00 -0.1559E+02 -0.9295E+01E
 Epicentro: CEPITA - SANTANDER                                                 3
 ACTION:UPD 10-12-01 15:20 OP:pat  STATUS:               ID:20100727054241 L   I
 2010-07-27-0540-54S.COL___123                                                 6
 STAT SP IPHASW D HRMM SECON CODA AMPLIT PERI AZIMU VELO AIN AR TRES W  DIS CAZ7
 BAR2 SZ EP   1    543  0.21                             169    -0.2 7   28 217 
 BAR2 SZ I         543 16.85        16.5 0.16                            28 217 
 BRR  HZ IP     D  543  2.18                             148    -0.410   83 295 
 BRR  HN ES   1    543 19.44                             148     0.2 7   83 295 
 BRR  HZ I         543 22.99         8.8 0.08                            83 295 
 RUS  HZ EP   1    543  4.27                             143    -0.2 7  100 183 
 RUS  HN ES   1    543 22.75                             143     0.2 7  100 183 
 RUS  HZ I         543 24.35         5.0 0.18                           100 183 
 GUE  SZ EP   1    543  6.00                             139     0.6 7  115   6 
 GRA  SZ EP   1    543  5.94                             137     0.1 7  123  12 
 GRA  SZ I         543 30.25         3.4 0.20                           123  12 
 OCA  SZ EP   1    543  9.53                             128     0.0 7  163 349 
 OCA  SZ ES   1    543 31.46                             128     0.0 7  163 349 
 OCA  SZ I         543 35.22         3.4 0.34                           163 349 
 HEL  HN ES   2    543 54.64                             113    -0.2 4  284 257 
 HEL  HZ I         543 59.10         2.9 0.37                           284 257 
 RREF HN ES   2    544  5.81                             110     0.9 3  331 231 
 RREF HZ I         544 14.47         2.7 0.38                           331 231 
                                                                                
