 2016  427 0646 46.2 L   6.803 -73.141147.8  RSN  9 0.4 1.7LRSN                1
 GAP=120        0.86       3.0     3.8  5.5 -0.2947E+01  0.2322E+01 -0.9377E+00E
 Epicentro: LOS SANTOS - SANTANDER                                             3
 ACTION:UPD 16-05-05 14:24 OP:rebc STATUS:               ID:20160427064646 L   I
 OLDACT:UP  16-04-27 14:57 OP:dani STATUS:               ID:20160427063748     3
 OLDACT:REG 16-04-27 13:08 OP:dnl  STATUS:               ID:20160427063748     3
 2016-04-27-0637-48M.COL___289                                                 6
 STAT SP IPHASW D HRMM SECON CODA AMPLIT PERI AZIMU VELO AIN AR TRES W  DIS CAZ7
 BAR2 EZ EP        647  5.99                             170   -0.1210 23.8 191 
 BAR2 EZ ES   1    647 21.47                             170   -0.15 7 23.8 191 
 BAR2 EZ I         647 23.78        14.0 0.28            165           23.8 191 
 PAM  EZ EP        647  9.03                             151    0.4010 76.8  39 
 PAM  EN ES        647 26.08                             151   -0.0210 76.8  39 
 PAM  EZ I         647 29.07         6.5 0.32            148           76.8  39 
 RUS  HZ EP        647 10.19                             144   -0.0110  101 176 
 RUS  HN ES        647 28.86                             144   -0.0410  101 176 
 RUS  HZ I         647 29.88         4.6 0.34            136            101 176 
 PTB  HZ EP        647 12.77                             132   -0.65 9  148 259 
 PTB  HN ES        647 34.11                             132   -0.51 9  148 259 
 PTB  HZ I         647 40.83         4.7 0.23            126            148 259 
 OCA  HZ EP        647 14.31                             130   -0.36 9  160 353 
 OCA  HE ES        647 37.28                             130    0.42 9  160 353 
 OCA  HZ I         647 44.50         7.2 0.18            125            160 353 
 SPBC HZ EP        647 14.95                             129    0.01 9  164 219 
 SPBC HE ES        647 37.83                             129    0.50 9  164 219 
 SPBC HZ I         647 43.38         8.5 0.20            122            164 219 
 ZAR  HZ EP   1    647 19.14                             123    0.30 6  204 292 
 ZAR  HN ES   1    647 44.65                             123    0.37 6  204 292 
 CHI  HZ EP     C  647 24.63                             117    0.54 8  249 195 
 CHI  HZ I         647 57.10         2.8 0.36            111            249 195 
 ROSC BZ EP   4    647 26.34                             117    1.82 0  253 211 
 SOCV BZ EP        647 28.93                             113   -0.37 7  301  57 
                                                                                
