 2017 1227 0643 41.4 L   6.902 -73.154146.0  RSN 19 0.7 2.2LRSN                1
 GAP= 63        1.48       3.3     3.8  7.3  0.4890E+00  0.8940E+01  0.2515E+01E
 Epicentro: BETULIA - SANTANDER                                                3
 ACTION:UPD 18-01-04 13:24 OP:rebc STATUS:               ID:20171227064341 L   I
 OLDACT:UP  17-12-27 16:02 OP:osc  STATUS:               ID:20171227063347     3
 OLDACT:UP  17-12-27 16:02 OP:osc  STATUS:               ID:20171227063347     3
 OLDACT:REG 17-12-27 13:13 OP:osc  STATUS:               ID:20171227063347     3
 2017-12-27-0638-00M.COL___451                                                 6
 STAT SP IPHASW D HRMM SECON CODA AMPLIT PERI AZIMU VELO AIN AR TRES W  DIS CAZ7
 BAR2 EZ EP        644  1.20                             166   -0.1210 34.4 185 
 BAR2 EZ ES        644 16.44                             166   -0.4310 34.4 185 
 BAR2 EZ I         644 17.80        42.4 0.42            164           34.4 185 
 PAM  EZ IP     C  644  3.66                             153    0.4710 69.7  46 
 PAM  EN ES        644 20.85                             153    0.6510 69.7  46 
 PAM  EZ I         644 22.72        24.6 0.34            159           69.7  46 
 PTB  HZ EP        644  7.87                             132   -0.66 9  149 255 
 PTB  HN ES        644 29.22                             132   -0.48 9  149 255 
 PTB  HZ I         644 34.62         8.2 0.14            132            149 255 
 OCA  HZ EP        644  8.78                             132    0.10 9  149 353 
 OCA  HN ES        644 30.42                             132    0.47 9  149 353 
 OCA  HZ I         644 36.13        35.8 0.27            135            149 353 
 TAM  HZ EP        644  9.54                             130    0.06 9  159 109 
 TAM  HE ES        644 31.25                             130   -0.13 9  159 109 
 SPBC HZ EP        644  9.92                             128   -0.79 9  172 216 
 SPBC HE ES        644 32.74                             128   -0.84 9  172 216 
 SPBC HZ I         644 39.86        22.3 0.36            128            172 216 
 YPLC HZ EP        644 11.89                             125   -0.34 9  187 153 
 YPLC HE ES        644 36.39                             125    0.10 9  187 153 
 YPLC HZ I         644 40.54         9.2 0.76            127            187 153 
 ZAR  HZ EP        644 14.26                             123    0.90 9  199 289 
 ZAR  HE ES        644 39.59                             123    1.31 9  199 289 
 ZAR  HZ I         644 44.88        37.7 0.30            124            199 289 
 ROSC BZ EP        644 20.45                             116   -0.09 8  262 210 
 ROSC BN ES   4    644 52.98                             116    1.90 0  262 210 
 ROSC BZ I         644 58.65        12.8 0.70            117            262 210 
 DRL03HZ EP        644 21.59                             114   -0.16 7  278 353 
 DRL03HE ES        644 52.56                             114   -0.67 7  278 353 
 URE  HZ EP        644 21.17                             114   -0.76 7  279 290 
 URE  HN ES        644 52.05                             114   -1.50 7  279 290 
 URE  HZ I         645  2.53        14.3 0.16            116            279 290 
 CVER HZ EP        644 23.62                             114    0.73 7  282 201 
 CVER HE ES        644 55.01                             114   -0.25 7  282 201 
 CVER HZ I         645  6.77         6.6 0.46            115            282 201 
 GUY2CHZ EP        644 26.20                             112    0.52 7  307 233 
 GUY2CHE ES        645  0.00                             112   -0.22 7  307 233 
 GUY2CHZ I         645 11.56         7.1 0.54                           307 233 
 VIL  EZ EP        644 25.36                             111   -0.70 7  314 191 
 VIL  EE ES        645  2.31                             111    1.42 7  314 191 
 VIL  EZ I         645  5.78        14.6 0.46            113            314 191 
 PTGC HZ EP   4    644 24.67                             111   -1.83 0  320 159 
 PTGC HE ES   4    644 58.40                             111   -3.27 0  320 159 
 PTGC HZ I         645  7.28         5.4 0.22            113            320 159 
 CBOC HZ EP        644 29.71                             110    1.07 7  336 250 
 CBOC HE ES        645  5.77                             110    0.29 7  336 250 
 CBOC HZ I         645 17.74         3.5 0.60            111            336 250 
 DBB  EN ES        645  6.78                             110    1.18 7  338 272 
 SDV  B2 ES   4    645  6.02                             109   -3.14 0  354  52 
 SJC  HZ EP        644 35.00                             106   -0.80 6  399 326 
 SJC  HE ES        645 17.46                             106   -0.77 6  399 326 
 SJC  HZ I         645 19.74         4.0 0.44            108            399 326 
 ORTC HZ EP        644 36.71                             106    0.38 6  404 215 
 ORTC HE ES        645 19.65                             106    0.47 6  404 215 
 ORTC HZ I         645 25.96         5.5 0.56            107            404 215 
                                                                                
