 2017  827 0526 38.7 L   6.834 -73.109148.5  RSN 22 0.5 2.3LRSN                1
 GAP= 68        1.23       3.2     3.5  5.4 -0.9078E-01  0.4993E+01  0.2450E+01E
 Epicentro: LOS SANTOS - SANTANDER                                             3
 ACTION:UPD 17-09-04 20:25 OP:rebc STATUS:               ID:20170827052638 L   I
 OLDACT:UP  17-08-27 16:45 OP:edw  STATUS:               ID:20170827051738     3
 OLDACT:UP  17-08-27 16:44 OP:edw  STATUS:               ID:20170827051738     3
 OLDACT:REG 17-08-27 13:18 OP:edw  STATUS:               ID:20170827051738     3
 2017-08-27-0518-00M.COL___411                                                 6
 STAT SP IPHASW D HRMM SECON CODA AMPLIT PERI AZIMU VELO AIN AR TRES W  DIS CAZ7
 BAR2 EZ IP     D  526 58.40                             169   -0.3510 28.0 197 
 BAR2 EZ ES        527 13.56                             169   -0.8310 28.0 197 
 BAR2 EZ I         527 16.14        31.0 0.28            169           28.0 197 
 PAM  EZ EP        527  1.27                             153    0.3910 71.9  39 
 PAM  EN ES        527 18.53                             153    0.3410 71.9  39 
 PAM  EZ I         527 20.55        30.6 0.50            152           71.9  39 
 BRR  HZ EP        527  0.26                             152    0.0210 73.1 294 
 BRR  HN ES        527 17.71                             152    0.6610 73.1 294 
 BRR  HZ I         527 22.59        26.7 0.12            150           73.1 294 
 RUS  HZ EP        527  2.33                             143   -0.6410  104 178 
 RUS  HN ES        527 21.33                             143   -0.5710  104 178 
 TAM  HZ EP        527  6.57                             131    0.25 9  152 107 
 TAM  HZ I         527 27.26        17.8 0.32            130            152 107 
 TAM  HN ES        527 28.46                             131    0.59 9  152 107 
 SPBC HZ EP        527  7.30                             128   -0.62 9  169 219 
 SPBC HN ES        527 30.37                             128   -0.34 9  169 219 
 SPBC HZ I         527 31.70        36.2 0.40            127            169 219 
 YPLC HZ EP        527  8.63                             127   -0.19 9  178 153 
 YPLC HN ES        527 32.44                             127    0.11 9  178 153 
 YPLC HZ I         527 34.59        11.6 0.36            126            178 153 
 ZAR  HZ EP        527 11.03                             122   -0.52 8  206 291 
 ZAR  HN ES        527 37.21                             122    0.02 8  206 291 
 ZAR  HZ I         527 42.97        27.8 0.42            121            206 291 
 TABC EZ EP        527 15.98                             119    0.81 8  235 211 
 TABC EZ ES   4    527 44.84                             119    1.22 0  235 211 
 TABC EZ I         527 50.37        14.5 0.64            118            235 211 
 CHI  HZ EP        527 16.79                             117   -0.26 8  253 196 
 CHI  HE ES   4    527 45.93                             117   -1.05 0  253 196 
 CHI  HZ I         527 48.90         4.4 0.20            116            253 196 
 ROSC BZ EP        527 18.20                             116    0.66 8  258 211 
 ROSC BN ES        527 48.84                             116    1.00 8  258 211 
 ROSC BZ I         527 56.24        20.0 0.45            115            258 211 
 HEL  HZ EP        527 19.79                             115    0.21 7  277 255 
 HEL  HN ES        527 52.29                             115    0.82 7  277 255 
 HEL  HZ I         527 57.12        12.7 0.36            113            277 255 
 URE  HZ EP   4    527 18.92                             114   -1.23 0  286 291 
 GUY2CHZ EP        527 22.98                             112   -0.06 7  307 235 
 GUY2CHN ES   4    527 59.59                             112    1.95 0  307 235 
 GUY2CHZ I         528  5.32        17.1 0.72                           307 235 
 PTGC HZ EP   9    527 21.30                             112   -1.61 0  311 160 
 PTGC HN ES        527 54.54                             112   -1.25 7  311 160 
 PTGC HZ I         527 57.95         6.2 0.22            111            311 160 
 LL6C HZ EP        527 23.85                             111   -0.24 7  321 357 
 LL6C HE ES        527 58.99                             111   -0.52 7  321 357 
 ELA  HZ EP   4    527 28.12                             110    1.83 0  335 229 
 ELA  HN ES   4    528  4.88                             110    1.47 0  335 229 
 ELA  HZ I         528 11.13         7.2 0.38            109            335 229 
 DBB  EZ EP   9    527 25.36                             109   -1.35 0  343 274 
 DBB  EN ES        528  2.10                             110   -0.71 7  343 274 
 DBB  EZ I         528  9.80         4.5 0.36            108            343 274 
 ANIL HZ EP        527 29.99                             108    0.75 6  363 225 
 ANIL HN ES   4    528  9.97                             108    1.30 0  363 225 
 PRA  HZ EP        527 32.68                             106   -0.24 6  397 210 
 PRA  HN ES        528 15.37                             106    0.15 6  397 210 
 PRA  HZ I         528 19.94         7.4 0.62            106            397 210 
 ORTC HZ EP        527 32.81                             106   -0.53 6  401 216 
 ORTC HN ES        528 15.82                             106   -0.15 6  401 216 
 ORTC HZ I         528 23.14         6.1 0.58            105            401 216 
 SJC  HZ EP   4    527 32.66                             106   -1.57 0  408 326 
 SJC  HN ES   4    528 13.60                             106   -3.95 0  408 326 
 SJC  HZ I         528 28.01         2.6 0.66            105            408 326 
 PAL  HZ EP        527 34.09                             106   -0.48 6  411 239 
                                                                                
