 2016 1227 0829  2.3 L   6.728 -73.170149.3  RSN  5 0.4 1.4LRSN                1
 GAP=229        1.07       8.5     8.1  8.6  0.3384E+02  0.6840E+01  0.1444E+01E
 Epicentro: VILLANUEVA - SANTANDER                                             3
 ACTION:UPD 17-01-11 20:19 OP:rebc STATUS:               ID:20161227082902 L   I
 OLDACT:REG 16-12-27 13:37 OP:edw  STATUS:               ID:20161227082745     3
 2016-12-27-0828-00M.COL___366                                                 6
 STAT SP IPHASW D HRMM SECON CODA AMPLIT PERI AZIMU VELO AIN AR TRES W  DIS CAZ7
 BAR2 EZ EP        829 21.98                             174   -0.2510 15.0 185 
 BAR2 EZ ES        829 37.05                             174   -0.7210 15.0 185 
 BAR2 EZ I         829 37.84         6.7 0.38            173           15.0 185 
 BRR  HZ EP        829 24.03                             152    0.0810 73.1 305 
 BRR  HE ES        829 41.46                             152    0.6310 73.1 305 
 BRR  HZ I         829 44.55         5.3 0.16            151           73.1 305 
 RUS  HZ EP        829 26.05                             147    0.1810 92.8 174 
 RUS  HN ES        829 44.71                             147    0.4510 92.8 174 
 RUS  HZ I         829 45.60         3.2 0.30            148           92.8 174 
 PTB  HZ EP        829 29.03                             134   -0.18 9  144 262 
 PTB  HE ES        829 49.95                             134   -0.24 9  144 262 
 PTB  HZ I         829 52.84         3.7 0.18            134            144 262 
 GUY2CHZ EP   4    829 47.61                             114    2.29 0  294 236 
 GUY2CHE ES   4    830 23.82                             114    4.95 0  294 236 
 GUY2CHZ I         830 28.47         1.6 0.34                           294 236 
                                                                                
