 2017  527 0539 12.8 L   6.583 -73.527109.3  RSN 22 0.6 2.4LRSN                1
 GAP=155        1.41       4.0     4.1  7.4  0.6066E+01  0.1044E+02  0.6242E+01E
 Epicentro: EL CARMEN - SANTANDER                                              3
 ACTION:UPD 17-06-16 13:39 OP:jn   STATUS:               ID:20170527053912 L   I
 OLDACT:UP  17-05-27 17:52 OP:ar   STATUS:               ID:20170527053737     3
 OLDACT:UP  17-05-27 17:49 OP:ar   STATUS:               ID:20170527053737     3
 OLDACT:UP  17-05-27 17:44 OP:ar   STATUS:               ID:20170527053737     3
 OLDACT:UP  17-05-27 17:43 OP:ar   STATUS:               ID:20170527053737     3
 OLDACT:UP  17-05-27 17:37 OP:ar   STATUS:               ID:20170527053737     3
 OLDACT:REG 17-05-27 14:02 OP:ar   STATUS:               ID:20170527053737     3
 2017-05-27-0538-00M.COL___335                                                 6
 STAT SP IPHASW D HRMM SECON CODA AMPLIT PERI AZIMU VELO AIN AR TRES W  DIS CAZ7
 BRR  HZ EP        539 29.40                             148   -0.0810 61.5 341 
 BRR  HN ES        539 43.11                             148    0.6110 61.5 341 
 BRR  HZ I         539 53.98        48.0 0.18            150           61.5 341 
 RUS  HZ EP        539 31.80                             137   -0.5310 90.8 147 
 RUS  HE ES        539 47.47                             137   -0.1110 90.8 147 
 RUS  HZ I         539 48.67        56.9 0.38            140           90.8 147 
 PTB  HZ IP   9 C  539 31.44                             133   -1.27 0  103 267 
 PTB  HN ES        539 46.30                             132   -0.6810  103 267 
 PTB  HZ I         539 46.96        47.3 0.40            132            103 267 
 SPBC HZ EP        539 33.54                             128   -0.7910  119 210 
 SPBC HE ES        539 50.20                             128   -0.9310  119 210 
 SPBC HZ I         539 55.49       121.6 0.24            128            119 210 
 ZAR  HZ EP        539 40.34                             116    0.06 9  178 304 
 ZAR  HN ES   4    540  3.70                             116    1.97 0  178 304 
 ZAR  HZ I         540  4.92        75.8 0.36            117            178 304 
 YPLC HZ EP        539 40.59                             115   -0.27 9  183 136 
 YPLC HE ES        540  3.40                             115    0.65 9  183 136 
 YPLC HZ I         540  4.58        79.9 0.34            118            183 136 
 NOR  HZ EP        539 40.23                             115   -1.03 9  186 233 
 NOR  HZ I         540  5.70        38.4 0.16            116            186 233 
 ROSC BZ EP        539 45.55                             112    1.04 8  212 205 
 ROSC BN ES   4    540 11.90                             112    2.64 0  212 205 
 ROSC BZ I         540 16.16        15.9 0.30            113            212 205 
 CHI  HZ EP        539 45.07                             111   -0.08 8  217 186 
 CHI  HN ES        540 10.98                             111    0.59 8  217 186 
 CHI  HZ I         540 12.23        10.3 0.30            113            217 186 
 HEL  HZ EP        539 46.10                             110    0.05 8  226 259 
 HEL  HN ES        540 11.59                             110   -0.41 8  226 259 
 HEL  HZ I         540 16.11        26.9 0.34            111            226 259 
 VIL  EZ EP        539 50.90                             106   -0.44 8  274 184 
 VIL  HE EP        539 52.21                             105            274 184 
 VIL  HE ES        540 22.42                             106    1.01 8  274 184 
 VIL  EZ I         540 29.19        21.9 0.42            107            274 184 
 ELA  HZ EP        539 53.44                             105    0.69 7  282 228 
 ELA  HN ES   4    540 28.19                             105    4.27 0  282 228 
 ELA  HZ I         540 35.95        12.6 0.52            106            282 228 
 CBOC HZ EP        539 53.71                             105    0.86 7  286 254 
 CBOC HN ES        540 24.66                             105    0.57 7  286 254 
 CBOC HZ I         540 26.84        10.5 0.46            106            286 254 
 DBB  EZ EP        539 54.37                             104   -0.04 7  300 279 
 DBB  EN ES        540 27.90                             104    1.03 7  300 279 
 DBB  EZ I         540 29.96        10.2 0.30            105            300 279 
 PTGC HZ EP   9    539 53.19                             103   -1.72 0  306 150 
 PTGC HN ES        540 24.96                             103   -1.09 7  306 150 
 PTGC HZ I         540 30.96        12.8 0.38            105            306 150 
 ANIL HZ EP   9    539 57.25                             103    1.33 0  311 222 
 ANIL HN ES        540 31.48                             103    0.59 7  311 222 
 ANIL HZ I         540 36.18        43.5 0.22            104            311 222 
 ORTC HZ EP        540  0.60                             101    0.14 6  352 213 
 ORTC HN ES        540 37.62                             101   -0.03 6  352 213 
 ORTC HZ I         540 40.77         8.1 0.36            102            352 213 
 PAL  HZ EP        540  1.21                             100    0.06 6  357 239 
 PAL  HN ES        540 38.24                             100   -0.64 6  357 239 
 PAL  HZ I         540 44.48        13.6 0.24            102            357 239 
 APAC HZ EP        540  1.68                             100   -0.59 6  367 294 
 APAC HN ES        540 40.78                             100   -0.08 6  367 294 
 APAC HZ I         540 44.90         6.1 0.34            101            367 294 
 ARGC HZ EP   4    540  3.65                             100    0.95 0  371 348 
 ARGC HN ES   4    540 47.71                             100    6.09 0  371 348 
 SJC  HZ EP   9    540  5.91                              98   -1.49 0  409 334 
 SJC  HN ES        540 47.37                              98   -1.13 6  409 334 
 SJC  HZ I         540 55.04         3.8 0.58            100            409 334 
 YOT  HZ EP   4    540  7.90                              97   -1.41 0  424 228 
 YOT  HE ES   4    540 56.58                              97    3.18 0  424 228 
 YOT  HZ I         541  1.38         2.0 0.32             99            424 228 
 MACC HZ EP        540 16.28                              95   -1.08 4  492 184 
 MACC HN ES   4    541  3.54                              95   -4.19 0  492 184 
 MACC HZ I         541 13.69         4.1 0.46             97            492 184 
                                                                                
