 2016 1227 0551  9.1 L   6.744 -73.134142.5  RSN  6 0.2 1.2LRSN                1
 GAP=140        0.56       2.8     3.9  3.7 -0.1167E+01 -0.2527E+01  0.1980E+01E
 Epicentro: LOS SANTOS - SANTANDER                                             3
 ACTION:UPD 17-01-11 20:19 OP:rebc STATUS:               ID:20161227055109 L   I
 OLDACT:UP  16-12-27 17:40 OP:edw  STATUS:               ID:20161227054745     3
 OLDACT:REG 16-12-27 13:22 OP:edw  STATUS:               ID:20161227054745     3
 2016-12-27-0548-00M.COL___366                                                 6
 STAT SP IPHASW D HRMM SECON CODA AMPLIT PERI AZIMU VELO AIN AR TRES W  DIS CAZ7
 BAR2 EZ EP        551 27.93                             173   -0.2610 17.6 198 
 BAR2 EZ ES        551 43.29                             173    0.1810 17.6 198 
 BRR  HZ EP        551 29.93                             150   -0.1710 75.4 302 
 BRR  HN ES        551 46.61                             150    0.1010 75.4 302 
 BRR  HZ I         551 51.69         4.7 0.46            149           75.4 302 
 PAM  EZ IP     C  551 31.01                             149   -0.1710 81.5  36 
 PAM  EZ ES        551 48.51                             149    0.0810 81.5  36 
 PAM  EZ I         551 51.10         2.7 0.40            150           81.5  36 
 RUS  HZ EP        551 32.34                             145    0.3010 94.3 177 
 RUS  HN ES        551 49.77                             145   -0.1910 94.3 177 
 RUS  HZ I         551 51.25         3.7 0.28            148           94.3 177 
 PTB  HZ EP   9    551 35.05                             131   -0.72 0  148 261 
 PTB  HN ES        551 55.63                             132   -0.26 9  148 261 
 PTB  HZ I         551 58.30         1.2 0.12            132            148 261 
 CHI  HZ EP        551 46.13                             117    0.17 8  243 196 
                                                                                
