 2010 1027 0125 54.8 L   6.830 -73.023149.4  RSN  4 0.1 1.7LRSN                1
 GAP=252        0.33       6.8    11.7  5.0  0.6571E+02 -0.2034E+02 -0.6739E+01E
 Epicentro: CEPITA - SANTANDER                                                 3
 ACTION:UP  11-02-18 11:12 OP:tino STATUS:               ID:20101027012554 L   I
 2010-10-27-0123-55S.COL___128                                                 6
 STAT SP IPHASW D HRMM SECON CODA AMPLIT PERI AZIMU VELO SNR AR TRES W  DIS CAZ7
 BAR2 SZ EP   2    126 15.15                             168     0.1 5   32 214 
 BAR2 SZ ES   2    126 30.74                             168    -0.1 5   32 214 
 BAR2 SZ I         126 31.81         5.9 0.10                            32 214 
 BRR  HZ EP   1    126 17.04                             150     0.1 7   82 292 
 BRR  HN ES   1    126 34.23                             150     0.0 7   82 292 
 BRR  HZ I         126 40.50         6.0 0.47                            82 292 
 RUS  HZ EP   2    126 18.93                             144    -0.2 5  104 184 
 RUS  HE ES   2    126 38.27                             144     0.2 5  104 184 
 CHI  HZ EP   2    126 33.38                             117    -0.1 4  256 198 
 CHI  HZ I         127  9.05         6.7 0.20                           256 198 
                                                                                
