 2010 1027 0928 45.2 L   6.491 -73.540110.0  RSN  6 0.4 1.7LRSN                1
 GAP= 90        0.65       6.7     7.2 11.3  0.1541E+01  0.5963E+02  0.2024E+02E
 Epicentro: SANTA HELENA DEL OPON - SANTANDER                                  3
 ACTION:UP  11-02-18 11:12 OP:tino STATUS:               ID:20101027092845 L   I
 2010-10-27-0920-00M.COL___115                                                 6
 STAT SP IPHASW D HRMM SECON CODA AMPLIT PERI AZIMU VELO SNR AR TRES W  DIS CAZ7
 BAR2 SZ IP        929  1.39                             158     0.210   41  74 
 BAR2 SZ ES   1    929 13.59                             158    -0.1 7   41  74 
 BAR2 SZ I         929 15.12        30.4 0.48                            41  74 
 BRR  HZ EP   2    929  2.00                             144    -0.6 5   71 344 
 RUS  HZ EP   2    929  4.64                             140     0.4 5   83 143 
 RUS  HE ES   2    929 18.91                             140    -0.2 5   83 143 
 RUS  HZ I         929 21.13         3.6 0.45                            83 143 
 NOR  SZ EP   2    929 12.80                             116    -0.2 4  180 235 
 HEL  HZ EP   2    929 17.82                             111    -0.4 4  223 262 
 HEL  HN ES   2    929 44.52                             111     0.7 4  223 262 
 HEL  HZ I         929 47.01         3.7 0.40                           223 262 
 PRA  HZ EP   2    929 32.24                             102     0.5 3  341 206 
 PRA  HZ I         929 33.80         5.2 0.13                           341 206 
 PRA  HN ES   2    930  7.08                             102    -0.9 3  341 206 
                                                                                
