 2016  727 0134 24.3 L   6.746 -73.239148.0  RSN  6 0.2 1.5LRSN                1
 GAP=212        0.66       3.6     3.5  4.8  0.4919E+00  0.3218E+01  0.2386E+01E
 Epicentro: ZAPATOCA - SANTANDER                                               3
 ACTION:UPD 17-03-29 16:55 OP:lp   STATUS:               ID:20160727013424 L   I
 OLDACT:REG 16-07-27 12:34 OP:edw  STATUS:               ID:20160727012759     3
 2016-07-27-0127-59S.COL___340                                                 6
 STAT SP IPHASW D HRMM SECON CODA AMPLIT PERI AZIMU VELO AIN AR TRES W  DIS CAZ7
 BAR2 HZ EP        134 44.37                             173    0.2910 18.2 160 
 BAR2 HZ ES        134 59.26                             173   -0.2710 18.2 160 
 BRR  HZ EP        134 45.04                             155   -0.3310 65.7 307 
 BRR  HN ES        135  1.92                             155    0.1010 65.7 307 
 RUS  HZ EP        134 47.88                             146   -0.0410 96.0 170 
 RUS  HN ES        135  6.44                             146    0.0710 96.0 170 
 RUS  HZ I         135  7.31         3.2 0.44            145           96.0 170 
 PTB  HZ EP        134 50.34                             135   -0.09 9  137 260 
 PTB  HE ES        135 11.18                             135    0.34 9  137 260 
 PTB  HZ I         135 15.61         2.9 0.10            134            137 260 
 SPBC HZ EP        134 52.18                             132    0.26 9  152 217 
 SPBC HE ES        135 13.52                             132    0.04 9  152 217 
 SPBC HZ I         135 18.15        10.1 0.10            131            152 217 
 NOR  HZ EP   4    134 50.55                             120   -8.32 0  223 234 
 NOR  HE ES        135 25.40                             120   -0.46 8  223 234 
                                                                                
