 2013  627 0222 31.0 L   6.750 -73.143148.2  RSN  4 0.3 1.3LRSN                1
 GAP=234        0.70       8.4     7.4  8.0  0.3404E+02  0.9746E+01  0.1142E+02E
 Epicentro: LOS SANTOS - SANTANDER                                             3
 ACTION:UPD 14-01-08 09:57 OP:ep   STATUS:               ID:20130627022231 L   I
 OLDACT:DUP 13-06-27 07:52 OP:jn   STATUS:               ID:20130627021960d    3
 2013-06-27-0219-59M.COL___267                                                 6
 STAT SP IPHASW D HRMM SECON CODA AMPLIT PERI AZIMU VELO AIN AR TRES W  DIS CAZ7
 BAR2 SZ EP   1    222 50.76                             173   -0.04 7 18.0 194 
 BAR2 SZ ES   1    223  5.71                             173   -0.56 7 18.0 194 
 BRR  HN ES   1    223  9.84                             152    0.46 7 74.2 302 
 BRR  HZ I         223 14.76         6.1 0.42            152           74.2 302 
 RUS  HZ EP   1    222 54.88                             146    0.30 7 95.1 176 
 RUS  HN ES   1    223 13.19                             146    0.20 7 95.1 176 
 RUS  HZ I         223 14.95         1.6 0.32            151           95.1 176 
 PTB  HZ EP   1    222 57.66                             133   -0.41 7  147 261 
 PTB  HN ES   1    223 19.21                             133   -0.00 7  147 261 
 PTB  HZ I         223 21.40         2.7 0.12            136            147 261 
                                                                                
