 2015 1127 0020 16.0 L   6.747 -73.132134.8  RSN 10 0.4 1.8LRSN                1
 GAP=141        1.07       3.9     4.1  6.3 -0.2131E+01  0.8397E+01  0.3139E+01E
 Epicentro: LOS SANTOS - SANTANDER                                             3
 ACTION:UPD 15-12-28 16:13 OP:cam  STATUS:               ID:20151127002016 L   I
 OLDACT:UP  15-12-10 15:56 OP:cam  STATUS:               ID:20151127002016 L   3
 OLDACT:UP  15-12-01 10:58 OP:ak   STATUS:               ID:20151127002016 L   3
 OLDACT:REG 15-11-27 12:46 OP:drio STATUS:               ID:20151127001748     3
 2015-11-27-0017-48M.COL___310                                                 6
 STAT SP IPHASW D HRMM SECON CODA AMPLIT PERI AZIMU VELO AIN AR TRES W  DIS CAZ7
 BAR2 EZ EP        020 34.28                             172    0.0910 18.0 198 
 BAR2 EZ ES        020 47.83                             172   -0.5610 18.0 198 
 BAR2 EZ I         020 50.21        13.4 0.16            171           18.0 198 
 BRR  HZ EP        020 36.16                             149   -0.0610 75.5 302 
 BRR  HN ES        020 52.78                             149    0.7810 75.5 302 
 BRR  HZ I         020 55.40        11.8 0.14            149           75.5 302 
 PAM  EZ EP        020 37.27                             147   -0.0110 81.1  36 
 PAM  EE ES        020 54.07                             147    0.1710 81.1  36 
 PAM  EZ I         020 54.63         8.3 0.20            151           81.1  36 
 RUS  HZ EP        020 38.40                             143    0.1710 94.6 177 
 RUS  HN ES        020 55.62                             143    0.0510 94.6 177 
 RUS  HZ I         020 59.11         4.8 0.38            145           94.6 177 
 PTB  HZ EP        020 41.28                             129   -0.84 9  148 261 
 PTB  HN ES        021  2.01                             129   -0.50 9  148 261 
 PTB  HZ I         021  3.71         8.6 0.18            130            148 261 
 SPBC HZ EP        020 43.28                             127   -0.04 9  160 221 
 SPBC HE ES        021  4.74                             127    0.10 9  160 221 
 SPBC HZ I         021 10.52        10.0 0.26            129            160 221 
 ZAR  HZ EP        020 48.79                             119    0.66 8  208 293 
 ZAR  HE ES        021 12.88                             119   -0.32 8  208 293 
 ZAR  HZ I         021 17.76         8.9 0.42            121            208 293 
 NOR  HZ EP        020 50.50                             116   -0.37 8  233 236 
 NOR  HE ES        021 18.34                             116    0.26 8  233 236 
 NOR  HZ I         021 20.52         7.6 0.18            118            233 236 
 SML  HZ EP   9    020 50.49                             114   -2.19 0  250 336 
 SML  HN ES        021 18.52                             114   -0.59 8  250 336 
 SML  HZ I         021 23.61         9.8 0.10            116            250 336 
 GUY2CHZ EP   4    021  0.22                             110    1.35 0  299 236 
 GUY2CHE ES        021 32.92                             110    0.61 7  299 236 
 GUY2CHZ I         021 40.74         4.9 0.40                           299 236 
                                                                                
