 2011  227 0827 31.3 L   6.785 -73.182139.4  RSN 15 0.3 3.5LRSN                1
 GAP=133        0.63       2.0     3.5  5.2 -0.9548E+00  0.9282E+01  0.1308E+01E
 Epicentro: LOS SANTOS - SANTANDER                                             3
 ACTION:UP  11-03-28 15:11 OP:jfem STATUS:               ID:20110227082731 L   I
 2011-02-27-0824-46S.COL___135                                                 6
 STAT SP IPHASW D HRMM SECON CODA AMPLIT PERI AZIMU VELO SNR AR TRES W  DIS CAZ7
 BAR2 SZ IP        827 50.33                             171     0.210   21 180 
 BAR2 SZ ES   2    828  5.00                             171     0.2 5   21 180 
 BAR2 SZ I         828  6.33      1348.3 0.31                            21 180 
 RUS  HZ EP        827 54.14                             143    -0.210   99 174 
 RUS  HN ES   1    828 12.32                             143     0.0 7   99 174 
 RUS  HZ I         828 13.78       428.2 0.19                            99 174 
 GRA  SZ IP        827 56.29                             135     0.110  129  19 
 GRA  SZ ES        828 15.74                             135     0.110  129  19 
 GRA  SZ I         828 17.03       389.2 0.38                           129  19 
 OCA  SZ EP        827 58.69                             128    -0.5 9  161 355 
 OCA  SZ ES   2    828 21.19                             128     0.2 5  161 355 
 OCA  SZ I         828 25.33       580.9 0.25                           161 355 
 YOP  SZ IP     C  828  0.98                             125     0.0 9  179 152 
 YOP  SN ES   1    828 24.05                             125     0.0 7  179 152 
 YOP  SZ I         828 27.26       150.6 0.40                           179 152 
 CHI  HZ EP        828  8.39                             116     0.0 8  246 194 
 CHI  HN ES   1    828 36.96                             116    -0.3 6  246 194 
 CHI  HZ I         828 44.46       157.9 0.69                           246 194 
 HEL  HZ EP        828 10.60                             114    -0.1 8  268 256 
 HEL  HN ES   1    828 41.37                             114    -0.1 6  268 256 
 HEL  HZ I         828 48.73       210.4 0.32                           268 256 
 GUY  SZ EP   1    828 14.57                             111     0.4 5  297 235 
 GUY  SN ES   2    828 47.59                             111     0.0 4  297 235 
 GUY  SZ I         828 55.83       258.3 0.30                           297 235 
 VIL  SZ EP   1    828 13.67                             111    -0.3 5  299 189 
 VIL  SE ES   2    828 46.98                             111    -0.3 4  299 189 
 VIL  SZ I         828 53.79       131.0 0.48                           299 189 
 RREF HZ EP        828 16.87                             110     0.2 7  318 229 
 RREF HE ES   2    828 51.40                             110    -0.7 3  318 229 
 RREF HZ I         828 59.12       210.1 0.61                           318 229 
 DBB  SZ EP        828 18.27                             109     0.2 7  336 275 
 TOL  SZ EP        828 19.73                             108     0.9 7  340 224 
 PRA  HZ EP   1    828 23.97                             106    -0.2 4  389 209 
 PRA  HE ES   1    829  5.58                             106     0.1 4  389 209 
 HORQ SZ EP   2    828 40.55                             101    -0.6 2  528 226 
 PCON HZ EP   1    828 51.47                              99     0.4 2  608 216 
                                                                                
