 2011 1227 0839 46.9 L   7.100 -73.171140.1  RSN  7 0.3 1.3LRSN                1
 GAP=140        0.53       4.1     3.7  5.5 -0.3207E+01  0.8323E+01 -0.2949E+01E
 Epicentro: GIRON - SANTANDER                                                  3
 ACTION:UPD 12-07-13 16:18 OP:ep   STATUS:               ID:20111227083946 L   I
 2011-12-27-0837-59S.COL___189                                                 6
 STAT SP IPHASW D HRMM SECON CODA AMPLIT PERI AZIMU VELO AIN AR TRES W  DIS CAZ7
 GIR2 SZ EP        840  5.55                             179    0.0510 3.39 226 
 GIR2 SZ ES   1    840 19.97                             179   -0.01 7 3.39 226 
 BAR2 SZ EP   1    840  6.91                             157   -0.12 7 56.2 181 
 BAR2 SZ ES   1    840 22.32                             157   -0.38 7 56.2 181 
 PAM  SZ EP   1    840  7.39                             156   -0.12 7 58.4  63 
 PAM  SZ I         840  7.53         6.5 0.12                          58.4  63 
 PAM  SN ES   1    840 23.64                             156    0.09 7 58.4  63 
 BRR  HZ EP   1    840  7.22                             156    0.36 7 59.7 271 
 BRR  HZ I         840 23.88         8.1 0.11                          59.7 271 
 RUS  HN ES   1    840 33.46                             134    0.41 7  134 176 
 RUS  HZ I         840 34.36         1.5 0.51                           134 176 
 PTB  HZ EP   1    840 13.73                             129   -0.40 7  155 247 
 PTB  HN ES   1    840 35.27                             129   -0.06 7  155 247 
 ZAR  HE ES   2    840 42.05                             123    0.36 4  191 283 
 ZAR  HZ I         840 46.80         1.7 0.35                           191 283 
                                                                                
