 2012  327 0800  3.2 L   6.154 -73.743101.2  RSN  9 0.5 1.8LRSN                1
 GAP=129        1.08       4.9     4.3 10.3 -0.4047E+01  0.1649E+02  0.5443E+01E
 ACTION:UP  12-03-31 23:23 OP:EP   STATUS:               ID:20120327080003 L   I
 2012-03-27-0800-00M.COL___196                                                 6
 STAT SP IPHASW D HRMM SECON CODA AMPLIT PERI AZIMU VELO SNR AR TRES W  DIS CAZ7
 RUS  HZ EP        8 0 20.59                             139    -0.410   79 112 
 BAR2 SZ IP        8 0 20.64                             139    -0.110   79  52 
 BAR2 SZ ES   1    8 0 34.21                             139    -0.1 7   79  52 
 BAR2 SZ I         8 0 36.35        31.5 0.46                            79  52 
 RUS  HN ES   2    8 0 34.98                             139     0.0 5   79 112 
 PTB  HZ EP   3    8 0 20.67                             134    -0.6 2   90 298 
 PTB  HN ES   2    8 0 35.94                             134     0.5 5   90 298 
 BRR  HZ IP     D  8 0 22.41                             129    -0.310  105   2 
 BRR  HZ I         8 0 22.72         8.4 0.10                           105   2 
 BRR  HN ES   1    8 0 38.39                             129     0.5 7  105   2 
 NOR  SZ EP        8 0 26.04                             121    -0.3 9  141 242 
 NOR  SN ES   1    8 0 44.45                             121     0.1 7  141 242 
 PAM  SZ EP        8 0 31.53                             114     1.0 9  175  41 
 ZAR  HZ EP        8 0 31.56                             112    -0.4 9  193 320 
 ZAR  HE ES   1    8 0 53.56                             112    -0.8 7  193 320 
 ZAR  HZ I         8 0 59.20         8.4 0.50                           193 320 
 HEL  HZ EP        8 0 33.23                             111     0.3 9  198 271 
 HEL  HN ES   3    8 0 56.97                             111     0.8 2  198 271 
 HEL  HZ I         8 1  1.21         6.2 0.48                           198 271 
 GUY  SZ EP        8 0 34.74                             110     0.3 8  209 241 
 GUY  SZ I         8 1  4.04         9.1 0.36                           209 241 
                                                                                
