 2016  127 0603  0.9 L   6.796 -73.172142.5  RSN  6 0.4 1.3LRSN                1
 GAP=133        1.09       4.1     5.6  7.9 -0.6054E+01  0.1647E+02 -0.8758E+01E
 Epicentro: LOS SANTOS - SANTANDER                                             3
 ACTION:UPD 16-03-09 23:28 OP:cam  STATUS:               ID:20160127060300 L   I
 OLDACT:UP  16-01-27 19:29 OP:ak   STATUS:               ID:20160127055746d    3
 OLDACT:DUP 16-01-27 19:26 OP:ak   STATUS:               ID:20160127055746d    3
 2016-01-27-0557-45M.COL___328                                                 6
 STAT SP IPHASW D HRMM SECON CODA AMPLIT PERI AZIMU VELO AIN AR TRES W  DIS CAZ7
 BAR2 EZ EP        6 3 19.37                             171   -0.8010 22.6 183 
 BAR2 EZ ES        6 3 35.07                             171   -0.0910 22.6 183 
 BAR2 EZ I         6 3 36.59         6.7 0.36            171           22.6 183 
 PAM  EZ EP        6 3 23.45                             149    0.5010 79.6  41 
 PAM  EN ES        6 3 39.95                             149   -0.1710 79.6  41 
 PAM  EZ I         6 3 42.84         3.3 0.70            154           79.6  41 
 RUS  HZ EP        6 3 24.19                             143   -0.1710  100 174 
 RUS  HN ES        6 3 43.11                             143    0.4810  100 174 
 RUS  HZ I         6 3 43.98         1.3 0.34            147            100 174 
 PTB  HZ EP        6 3 27.01                             132   -0.36 9  145 259 
 PTB  HN ES        6 3 48.06                             132    0.07 9  145 259 
 PTB  HZ I         6 3 53.74         1.6 0.11            132            145 259 
 SPBC HZ EP        6 3 29.62                             129    0.64 9  161 218 
 SPBC HN ES        6 3 50.68                             129   -0.18 9  161 218 
 SPBC HZ I         6 3 55.66         2.1 0.16            131            161 218 
 SML  HZ EP        6 3 36.92                             117   -0.38 8  243 336 
 SML  HN ES        6 4  6.20                             117    0.55 8  243 336 
 SML  HZ I         6 4  9.09         3.3 0.11            119            243 336 
                                                                                
