 2011 1227 0112  6.3 L   6.806 -73.160141.9  RSN  7 0.4 1.7LRSN                1
 GAP=134        0.86       5.3     5.6  6.7 -0.4934E+01  0.1292E+01  0.7314E+01E
 Epicentro: LOS SANTOS - SANTANDER                                             3
 ACTION:UPD 12-07-13 16:18 OP:ep   STATUS:               ID:20111227011206 L   I
 2011-12-27-0110-00M.COL___187                                                 6
 STAT SP IPHASW D HRMM SECON CODA AMPLIT PERI AZIMU VELO AIN AR TRES W  DIS CAZ7
 BAR2 SZ EP        112 25.48                             170   -0.0110 23.7 186 
 BAR2 SZ ES   1    112 40.05                             170   -0.40 7 23.7 186 
 BAR2 SZ I         112 41.63        18.2 0.28                          23.7 186 
 GIR2 SZ EP        112 25.61                             167    0.1010 30.4 353 
 GIR2 SZ ES   1    112 40.57                             167    0.09 7 30.4 353 
 BRR  HZ EP   1    112 27.34                             152    0.38 7 69.5 299 
 BRR  HE ES   1    112 43.75                             152    0.69 7 69.5 299 
 BRR  HZ I         112 48.14        12.5 0.14                          69.5 299 
 PAM  SZ EP        112 28.43                             150    0.2710 77.9  41 
 PAM  SZ I         112 28.67         8.5 0.21                          77.9  41 
 PAM  SE ES   1    112 44.43                             150   -0.76 7 77.9  41 
 RUS  HZ EP   1    112 29.63                             143   -0.12 7  101 175 
 RUS  HZ I         112 30.72         6.1 0.16                           101 175 
 RUS  HE ES   1    112 48.43                             143    0.41 7  101 175 
 PTB  HZ EP   1    112 32.17                             131   -0.67 7  146 258 
 PTB  HN ES   1    112 53.11                             131   -0.43 7  146 258 
 CHI  HZ EP   1    112 43.89                             116    0.06 6  249 195 
 CHI  HZ I         113 19.88         2.6 0.49                           249 195 
                                                                                
