 2017 1227 0928 56.9 L   6.799 -73.157150.3  RSN 15 0.4 2.0LRSN                1
 GAP= 65        0.92       2.9     2.7  5.1  0.6076E+00  0.2308E+01  0.3308E+00E
 Epicentro: LOS SANTOS - SANTANDER                                             3
 ACTION:UPD 18-01-04 13:24 OP:rebc STATUS:               ID:20171227092856 L   I
 OLDACT:UP  17-12-27 15:34 OP:dnl  STATUS:               ID:20171227092737     3
 OLDACT:REG 17-12-27 13:32 OP:osc  STATUS:               ID:20171227092737     3
 2017-12-27-0928-00M.COL___451                                                 6
 STAT SP IPHASW D HRMM SECON CODA AMPLIT PERI AZIMU VELO AIN AR TRES W  DIS CAZ7
 BAR2 EZ EP        929 16.91                             171   -0.1310 23.0 187 
 BAR2 EZ ES        929 32.14                             171   -0.6310 23.0 187 
 BAR2 EZ I         929 33.40        28.5 0.20            167           23.0 187 
 PAM  EZ EP        929 19.82                             151    0.1910 78.3  40 
 PAM  EE ES        929 37.11                             151   -0.2610 78.3  40 
 PAM  EZ I         929 39.36        14.4 0.54            157           78.3  40 
 PTB  HZ EP        929 23.72                             133   -0.38 9  146 259 
 PTB  HE ES        929 45.58                             133    0.24 9  146 259 
 PTB  HZ I         929 51.30         5.3 0.44            132            146 259 
 TAM  HZ IP     C  929 25.26                             131    0.24 9  156 105 
 TAM  HN ES        929 46.96                             131   -0.02 9  156 105 
 TAM  HZ I         929 48.38         7.0 0.58            135            156 105 
 OCA  HZ EP        929 25.53                             131   -0.01 9  160 354 
 OCA  HE ES        929 48.46                             131    0.56 9  160 354 
 OCA  HZ I         929 51.03        23.2 0.20            134            160 354 
 SPBC HZ EP        929 25.80                             130    0.16 9  162 219 
 SPBC HE ES        929 48.30                             130    0.23 9  162 219 
 SPBC HZ I         929 54.86        16.3 0.20            129            162 219 
 YPLC HZ EP        929 27.26                             128    0.21 9  177 151 
 YPLC HE ES        929 51.10                             128    0.52 9  177 151 
 YPLC HZ I         929 52.21        13.8 0.26            128            177 151 
 ZAR  HZ EP        929 29.47                             123   -0.03 9  203 292 
 ZAR  HN ES        929 54.87                             123   -0.08 9  203 292 
 ZAR  HZ I         930  0.16         7.3 0.28            124            203 292 
 ROSC BZ EP   4    929 37.23                             118    2.07 0  252 211 
 ROSC BN ES   4    930  9.53                             118    4.51 0  252 211 
 ROSC BZ I         930 11.93         9.3 0.55            118            252 211 
 URE  HZ EP        929 37.24                             115   -0.80 7  283 292 
 URE  HE ES   4    930  8.53                             115   -1.62 0  283 292 
 URE  HZ I         930 12.94         5.7 0.12            115            283 292 
 DRL03HZ EP        929 39.00                             114    0.30 7  289 353 
 DRL03HE ES   4    930 12.46                             114    1.13 0  289 353 
 GUY2CHZ EP   4    929 42.30                             113    1.73 0  300 235 
 GUY2CHE ES   4    930 17.97                             113    3.32 0  300 235 
 GUY2CHZ I         930 22.88         4.8 0.34                           300 235 
 PTGC HZ EP        929 40.05                             112   -0.92 7  309 158 
 PTGC HN ES   4    930 13.23                             112   -2.14 0  309 158 
 PTGC HZ I         930 20.82         6.8 0.46            113            309 158 
 CBOC HZ EP   4    929 45.29                             111    1.46 0  332 252 
 CBOC HN ES        930 20.93                             111    0.47 7  332 252 
 CBOC HZ I         930 36.69         2.0 0.46            111            332 252 
 SJC  HZ EP   4    929 51.21                             106   -1.31 0  409 327 
 SJC  HN ES   4    930 31.65                             106   -4.27 0  409 327 
 SJC  HZ I         930 31.81         1.6 0.64            108            409 327 
                                                                                
