 2017  627 0649 49.7 L   6.516 -73.734 92.3  RSN  4 0.3 1.1LRSN                1
 GAP=190        0.73       5.6     3.1  6.7  0.3574E+00  0.6484E+01  0.2313E+01E
 Epicentro: SANTA HELENA DEL OPON - SANTANDER                                  3
 ACTION:UPD 17-09-14 16:55 OP:jn   STATUS:               ID:20170627064949 L   I
 OLDACT:UP  17-06-27 17:04 OP:dhb  STATUS:               ID:20170627064740d    3
 OLDACT:DUP 17-06-27 16:56 OP:dhb  STATUS:               ID:20170627064740d    3
 2017-06-27-0648-00M.COL___346                                                 6
 STAT SP IPHASW D HRMM SECON CODA AMPLIT PERI AZIMU VELO AIN AR TRES W  DIS CAZ7
 BAR2 EZ EP        650  4.83                             144   -0.1610 61.6  82 
 BAR2 EZ ES        650 17.28                             144    0.3510 61.6  82 
 BAR2 EZ I         650 18.48         8.5 0.16            148           61.6  82 
 BRR  HZ EP        650  5.10                             142    0.1610 65.4   2 
 BRR  HN ES        650 16.45                             142   -0.3810 65.4   2 
 BRR  HZ I         650 17.56         2.5 0.12            144           65.4   2 
 PTB  HZ EP        650  5.87                             136   -0.2710 79.9 272 
 PTB  HN ES        650 18.97                             136   -0.0110 79.9 272 
 PTB  HZ I         650 21.88         1.8 0.10            136           79.9 272 
 ZAR  HZ EP        650 14.92                             115    0.15 9  165 311 
 ZAR  HN ES   2    650 35.21                             115    0.87 5  165 311 
 ZAR  HZ I         650 37.31         3.1 0.25            115            165 311 
                                                                                
