 2015  227 0222 35.5 L   6.813 -73.177141.1  RSN  8 0.4 1.9LRSN                1
 GAP=132        1.09       3.5     4.8  6.5 -0.1482E+01  0.6816E+01  0.6586E+00E
 Epicentro: ZAPATOCA - SANTANDER                                               3
 ACTION:UPD 15-04-30 21:29 OP:nd   STATUS:               ID:20150227022235 L   I
 OLDACT:REG 15-02-27 14:46 OP:carl STATUS:               ID:20150227021748     3
 2015-02-27-0217-48M.COL___302                                                 6
 STAT SP IPHASW D HRMM SECON CODA AMPLIT PERI AZIMU VELO AIN AR TRES W  DIS CAZ7
 BAR2 EZ EP        222 54.57                             170   -0.0010 24.4 182 
 BAR2 EZ ES        223  9.17                             170   -0.3010 24.4 182 
 BAR2 EZ I         223 10.44        11.8 0.28            170           24.4 182 
 BRR  HZ EP        222 56.53                             153    0.6110 67.5 299 
 BRR  HN ES        223 12.41                             153    0.5510 67.5 299 
 BRR  HZ I         223 17.55        23.1 0.12            151           67.5 299 
 PAM  SZ EP        222 57.64                             150    0.3710 78.5  42 
 PAM  SN ES        223 14.26                             150   -0.0110 78.5  42 
 PAM  SZ I         223 16.58        12.4 0.42            151           78.5  42 
 RUS  HZ EP        222 58.96                             142    0.0610  102 174 
 RUS  HN ES        223 16.98                             142   -0.1910  102 174 
 RUS  HZ I         223 17.91         8.0 0.22            144            102 174 
 PTB  HZ EP        223  1.41                             132   -0.38 9  145 258 
 PTB  HN ES        223 21.70                             132   -0.61 9  145 258 
 PTB  HZ I         223 25.03        10.9 0.16            131            145 258 
 NOR  HE ES        223 39.20                             118    0.97 8  233 234 
 SML  HZ EP        223 11.22                             117   -0.33 8  241 336 
 SML  HE ES        223 39.13                             117   -0.56 8  241 336 
 SML  HZ I         223 47.50        10.6 0.10            117            241 336 
 CHI  HZ EP        223 12.97                             116   -0.01 8  249 194 
 CHI  HN ES        223 41.81                             116   -0.42 8  249 194 
 CHI  HZ I         223 51.88         2.8 0.34            117            249 194 
                                                                                
