 2010  127 0508  3.4 L   6.844 -73.069146.6  RSN  8 0.6 1.3LRSN                1
 GAP=173        0.82       5.5    16.9  8.0 -0.2113E+02  0.1626E+02 -0.2073E+01E
 Epicentro: LOS SANTOS - SANTANDER                                             3
 ACTION:UP  10-08-24 09:46 OP:vdl  STATUS:               ID:20100127050803 L   I
 2010-01-27-0459-50S.COL___086                                                 6
 STAT SP IPHASW D HRMM SECON CODA AMPLIT PERI AZIMU VELO SNR AR TRES W  DIS CAZ7
 GIR2 SZ ES   2    5 8 38.94                             168     0.4 5   29 332 
 BAR2 SZ EP        5 8 23.33                             167     0.010   31 204 
 BAR2 SZ ES   1    5 8 38.47                             167    -0.4 7   31 204 
 RUS  HZ EP   1    5 8 27.30                             143    -0.3 7  105 181 
 RUS  HZ I         5 8 28.44         1.6 0.10                           105 181 
 RUS  HN ES   3    5 8 45.87                             143    -0.6 2  105 181 
 GUE  SZ EP   1    5 8 28.24                             141     0.5 7  110   8 
 OCA  SZ EP   1    5 8 31.13                             130    -0.3 7  157 350 
 OCA  SZ ES   3    5 8 53.08                             130    -0.2 2  157 350 
 CHI  HZ EP   1    5 8 41.56                             116    -0.4 6  256 197 
 CHI  HE ES   2    5 9 13.08                             116     1.1 4  256 197 
 CHI  HZ I         5 9 18.94         1.2 0.41                           256 197 
 HEL  HZ EP   2    5 8 45.74                             114     1.0 4  281 255 
 HEL  HZ I         5 9 24.10         2.7 0.35                           281 255 
 MON  HE ES   3    5 9 29.44                             108    -1.9 2  356 307 
                                                                                
