 2010  327 0052 42.1 L   6.864 -72.922144.2  RSN  6 0.4 1.7LRSN                1
 GAP=262        0.76       7.0    11.0  8.9  0.8716E+01  0.1537E+02  0.2245E+02E
 Epicentro: GUACA - SANTANDER                                                  3
 ACTION:UP  10-08-24 09:56 OP:vdl  STATUS:               ID:20100327005242 L   I
 2010-03-27-0050-45S.COL___098                                                 6
 STAT SP IPHASW D HRMM SECON CODA AMPLIT PERI AZIMU VELO SNR AR TRES W  DIS CAZ7
 BAR2 SZ IP        053  2.53                             164     0.410   42 224 
 BAR2 SZ ES   2    053 17.15                             164    -0.5 5   42 224 
 BRR  HZ EP   1    053  4.53                             146     0.1 7   91 287 
 BRR  HZ I         053  4.90        10.7 0.09                            91 287 
 BRR  HE ES   2    053 21.41                             146    -0.3 5   91 287 
 RUS  HZ EP   1    053  6.28                             141    -0.1 7  109 189 
 RUS  HZ I         053  7.17         3.0 0.25                           109 189 
 RUS  HE ES   2    053 25.07                             141    -0.2 5  109 189 
 CHI  HZ EP   1    053 20.79                             115    -0.5 6  263 200 
 CHI  HZ I         053 23.27         1.9 0.41                           263 200 
 CHI  HE ES   2    053 52.65                             115     0.8 4  263 200 
 RREF BZ EP   1    053 30.83                             109    -0.1 5  345 231 
 RREF BN ES   2    054  8.79                             109    -0.2 3  345 231 
 RREF BZ I         054 11.33         2.2 0.44                           345 231 
 PRA  HZ EP   1    053 36.97                             105    -0.8 4  411 212 
 PRA  HN ES   2    054 21.89                             105     0.7 3  411 212 
 PRA  HZ I         054 23.05         2.2 0.67                           411 212 
                                                                                
