 2014  627 0021  3.8 L   6.163 -73.668104.3  RSN 18 0.5 2.2LRSN                1
 GAP= 68        1.20       2.3     3.2  5.8 -0.1975E+01  0.5333E+01 -0.1730E+00E
 Epicentro: LA PAZ - SANTANDER                                                 3
 ACTION:UPD 14-07-01 22:57 OP:nd   STATUS:               ID:20140627002103 L   I
 OLDACT:REG 14-06-27 12:38 OP:spq  STATUS:               ID:20140627001817     3
 2014-06-27-0018-17M.COL___262                                                 6
 STAT SP IPHASW D HRMM SECON CODA AMPLIT PERI AZIMU VELO AIN AR TRES W  DIS CAZ7
 RUS  HZ EP        021 21.35                             143   -0.0510 71.3 115 
 RUS  HN ES        021 34.84                             143   -0.2610 71.3 115 
 RUS  HZ I         021 36.58        26.6 0.34            148           71.3 115 
 BAR2 SZ IP     D  021 21.32                             143    0.2510 71.6  49 
 BAR2 SZ ES   1    021 33.90                             143   -0.61 7 71.6  49 
 SPBC HZ EP        021 21.06                             143    0.1610 72.1 218 
 SPBC HN ES        021 34.67                             143    0.4710 72.1 218 
 SPBC HZ I         021 36.66        60.6 0.26            144           72.1 218 
 PTB  HZ EP        021 21.91                             134   -0.8910 96.7 296 
 PTB  HN ES        021 36.86                             134   -0.7310 96.7 296 
 PTB  HZ I         021 41.90        20.3 0.30            135           96.7 296 
 BRR  HZ IP     C  021 23.42                             131   -0.0610  105 357 
 BRR  HN ES        021 39.39                             131    0.5910  105 357 
 BRR  HZ I         021 46.51        18.6 0.22            134            105 357 
 NOR  HZ EP        021 27.34                             120   -0.60 9  149 244 
 NOR  HN ES        021 46.31                             120   -0.44 9  149 244 
 NOR  HZ I         021 48.98        30.4 0.44            122            149 244 
 ROSC BZ EP   4    021 31.11                             118    1.18 0  163 206 
 ROSC BN ES        021 50.88                             118    0.59 9  163 206 
 ROSC BZ I         022  1.28        14.0 0.64            120            163 206 
 CHI  HZ EP        021 30.49                             117   -0.18 9  170 182 
 CHI  HN ES        021 52.06                             117    0.46 9  170 182 
 CHI  HZ I         021 54.11        16.4 0.32            120            170 182 
 ZAR  HZ EP        021 32.86                             112   -0.35 9  197 318 
 ZAR  HN ES        021 55.93                             112   -0.19 9  197 318 
 ZAR  HZ I         021 58.03        49.5 0.42            115            197 318 
 HEL  HZ EP        021 35.20                             111    0.55 8  206 271 
 HEL  HN ES        021 58.70                             111    0.01 8  206 271 
 HEL  HZ I         022  3.50         8.5 0.28            114            206 271 
 GUY2CHZ EP        021 35.71                             110   -0.08 8  215 241 
 GUY2CHN ES        022  1.63                             110    0.92 8  215 241 
 GUY2CHZ I         022  8.27        11.8 0.40                           215 241 
 OCA  HZ EP        021 37.16                             108   -0.29 8  233   9 
 OCA  HN ES        022  4.28                             108    0.62 8  233   9 
 OCA  HZ I         022  9.54        16.0 0.16            111            233   9 
 RREF HZ EP        021 38.75                             109    0.71 8  233 233 
 RREF HN ES        022  5.40                             109    0.68 8  233 233 
 RREF HZ I         022 11.31        11.1 0.44            111            233 233 
 TOL  SZ EP        021 40.35                             106    0.32 8  253 226 
 TOL  SN ES        022  7.97                             106   -0.29 8  253 226 
 TOL  SZ I         022 14.02        14.1 0.32            109            253 226 
 URE  HZ EP   4    021 40.75                             105   -0.98 0  271 311 
 URE  HN ES   4    022  8.46                             105   -2.82 0  271 311 
 URE  HZ I         022 10.92        25.7 0.24            107            271 311 
 SML  HZ EP        021 44.62                             103    0.04 7  295 351 
 SML  HN ES        022 17.11                             103    0.76 7  295 351 
 SML  HZ I         022 21.15        17.9 0.07            106            295 351 
 PRA  HZ EP        021 44.94                             103   -0.60 7  303 207 
 PRA  HN ES        022 17.20                             103   -0.86 7  303 207 
 PRA  HZ I         022 23.96        18.4 0.28            105            303 207 
 ORTC HZ EP        021 45.53                             102   -0.23 7  305 215 
 ORTC HN ES        022 17.93                             102   -0.53 7  305 215 
 ORTC HZ I         022 24.80        11.5 0.42            105            305 215 
                                                                                
