 2017  727 0357 28.4 L   6.863 -73.143143.2  RSN 24 0.6 2.5LRSN                1
 GAP= 65        1.06       3.4     2.7  5.4  0.7922E+00  0.4545E+01  0.2998E+01E
 Epicentro: LOS SANTOS - SANTANDER                                             3
 ACTION:UPD 17-08-30 15:37 OP:rebc STATUS:               ID:20170727035728 L   I
 OLDACT:UP  17-07-27 14:28 OP:and  STATUS:               ID:20170727034737d    3
 OLDACT:UP  17-07-27 14:27 OP:and  STATUS:               ID:20170727034737d    3
 OLDACT:UP  17-07-27 14:26 OP:and  STATUS:               ID:20170727034737d    3
 OLDACT:UP  17-07-27 14:25 OP:and  STATUS:               ID:20170727034737d    3
 OLDACT:UP  17-07-27 14:23 OP:and  STATUS:               ID:20170727034737d    3
 OLDACT:UP  17-07-27 14:22 OP:and  STATUS:               ID:20170727034737d    3
 OLDACT:UP  17-07-27 14:22 OP:and  STATUS:               ID:20170727034737d    3
 OLDACT:UP  17-07-27 14:21 OP:and  STATUS:               ID:20170727034737d    3
 OLDACT:UP  17-07-27 14:19 OP:and  STATUS:               ID:20170727034737d    3
 OLDACT:DUP 17-07-27 14:16 OP:and  STATUS:               ID:20170727034737d    3
 OLDACT:UP  17-07-27 14:15 OP:and  STATUS:               ID:20170727034736d    3
 OLDACT:DUP 17-07-27 14:13 OP:and  STATUS:               ID:20170727034736d    3
 OLDACT:UP  17-07-27 14:12 OP:and  STATUS:               ID:20170727034735     3
 OLDACT:UP  17-07-27 14:11 OP:and  STATUS:               ID:20170727034735     3
 OLDACT:REG 17-07-27 12:19 OP:and  STATUS:               ID:20170727034735     3
 2017-07-27-0348-00M.COL___371                                                 6
 STAT SP IPHASW D HRMM SECON CODA AMPLIT PERI AZIMU VELO AIN AR TRES W  DIS CAZ7
 BAR2 EZ IP     C  357 47.74                             168   -0.1210 30.3 188 
 BAR2 EZ ES        358  2.58                             168   -0.4810 30.3 188 
 BAR2 EZ I         358  4.17        71.3 0.50            165           30.3 188 
 BRR  HZ IP     C  357 49.32                             153    0.2310 68.5 293 
 BRR  HE ES   2    358  6.32                             153    1.07 5 68.5 293 
 BRR  HZ I         358 10.65        57.7 0.14            153           68.5 293 
 PAM  EZ IP     C  357 50.50                             151    0.5110 71.9  43 
 PAM  EN ES        358  7.02                             151    0.1610 71.9  43 
 PAM  EZ I         358  9.35        98.4 0.46            156           71.9  43 
 RUS  HZ IP     C  357 51.95                             141   -0.4410  108 176 
 RUS  HN ES        358 10.94                             141   -0.1910  108 176 
 RUS  HZ I         358 12.98        23.8 0.38            141            108 176 
 PTB  HZ EP   2    357 54.31                             131   -0.99 5  150 256 
 PTB  HN ES        358 15.47                             131   -0.84 9  150 256 
 PTB  HZ I         358 22.87        35.7 0.36            131            150 256 
 TAM  HZ IP     C  357 56.20                             129    0.20 9  157 107 
 TAM  HN ES        358 18.01                             129    0.46 9  157 107 
 TAM  HZ I         358 27.64        16.9 0.36            132            157 107 
 SPBC HZ IP     C  357 56.83                             127   -0.39 9  169 218 
 SPBC HN ES        358 18.95                             127   -0.78 9  169 218 
 YPLC HZ IP     C  357 58.54                             125   -0.04 9  183 152 
 YPLC HN ES        358 22.24                             125    0.10 9  183 152 
 YPLC HZ I         358 25.41        19.3 0.34            126            183 152 
 ZAR  HZ EP        358  0.48                             122    0.06 9  202 290 
 ZAR  HN ES        358 25.68                             122    0.26 9  202 290 
 ZAR  HZ I         358 32.56        54.1 0.36            123            202 290 
 TABC EZ EP        358  5.60                             118    0.96 8  236 210 
 TABC EZ ES   2    358 34.60                             118    1.68 4  236 210 
 TABC EZ I         358 38.99        25.3 0.44            118            236 210 
 NOR  HZ EP        358  3.80                             117   -0.63 8  239 233 
 NOR  HN ES        358 32.79                             117    0.23 8  239 233 
 NOR  HZ I         358 37.26        25.7 0.28            118            239 233 
 ROSC BZ EP   3    358  8.02                             115    0.99 2  259 210 
 ROSC BN ES   4    358 39.79                             115    2.60 0  259 210 
 ROSC BZ I         358 45.37        29.8 0.55            116            259 210 
 HEL  HZ EP   3    358  9.81                             114    1.12 2  274 254 
 HEL  HN ES        358 41.01                             114    0.87 8  274 254 
 HEL  HZ I         358 46.59        29.1 0.36            115            274 254 
 URE  HZ EP   3    358  7.60                             113   -1.47 2  282 291 
 URE  HN ES        358 40.68                             113   -0.13 7  282 291 
 URE  HZ I         358 47.57        30.0 0.28            114            282 291 
 GUY2CHZ EP   3    358 13.27                             111    0.91 2  306 234 
 GUY2CHN ES   4    358 50.88                             111    4.21 0  306 234 
 GUY2CHZ I         358 56.40        27.3 0.32                           306 234 
 PTGC HZ IP   3    358 11.30                             110   -1.54 2  315 159 
 PTGC HN ES   4    358 44.92                             110   -2.61 0  315 159 
 PTGC HZ I         358 51.26        11.7 0.50            112            315 159 
 LL6C HZ EP   3    358 11.85                             110   -1.31 2  318 357 
 CBOC HZ EP   2    358 16.25                             109    0.78 3  336 251 
 CBOC HN ES        358 53.10                             109    0.89 7  336 251 
 CBOC HZ I         359  4.06         7.8 0.62            110            336 251 
 DBB  EZ EP   1    358 15.42                             109   -0.31 5  339 273 
 DBB  EN ES   3    358 51.17                             109   -1.51 2  339 273 
 DBB  EZ I         358 55.90         7.9 0.52            110            339 273 
 PRA  HZ EP        358 21.87                             106   -0.67 6  398 209 
 PRA  HN ES   2    359  3.78                             106   -1.01 3  398 209 
 PRA  HZ I         359  8.49        11.1 0.20            106            398 209 
 ORTC HZ EP        358 22.55                             105   -0.34 6  401 216 
 ORTC HT ES        359  6.07                             105    0.65 6  401 216 
 ORTC HZ I         359 10.84        14.1 0.40            106            401 216 
 SJC  HZ EP   3    358 21.70                             105   -1.48 1  404 326 
 SJC  HN ES   4    359  2.34                             105   -3.60 0  404 326 
 SJC  HZ I         359  6.55        11.0 0.64            107            404 326 
 PAL  HZ EP        358 23.77                             105   -0.14 6  410 238 
 PAL  HE ES   4    359  9.39                             105    2.16 0  410 238 
 PAL  HZ I         359 12.10         5.1 0.18            106            410 238 
 MACC HZ EP   4    358 35.31                             101   -2.54 0  528 189 
 MACC HN ES   4    359 27.58                             101   -4.47 0  528 189 
 MACC HZ I         359 49.44         3.7 0.50            102            528 189 
                                                                                
