 2015  127 0031 55.5 L   6.795 -73.140142.8  RSN  7 0.4 1.6LRSN                1
 GAP=201        0.98       4.5     6.7  7.5  0.1516E+02 -0.4086E+01 -0.2342E+01E
 Epicentro: LOS SANTOS - SANTANDER                                             3
 ACTION:UPD 15-03-02 15:42 OP:nd   STATUS:               ID:20150127003155 L   I
 OLDACT:REG 15-01-27 12:54 OP:cam  STATUS:               ID:20150127002817     3
 2015-01-27-0028-17M.COL___274                                                 6
 STAT SP IPHASW D HRMM SECON CODA AMPLIT PERI AZIMU VELO AIN AR TRES W  DIS CAZ7
 BRR  HZ EP        032 16.73                             152    0.3210 72.1 299 
 BRR  HZ I         032 32.80        10.0 0.28            141           72.1 299 
 BRR  HN ES        032 32.84                             152    0.1510 72.1 299 
 RUS  HZ EP        032 19.12                             143    0.1810 99.9 176 
 RUS  HN ES        032 37.08                             143   -0.1210 99.9 176 
 RUS  HZ I         032 39.96         1.9 0.46            126           99.9 176 
 PTB  HZ EP   1    032 21.65                             131   -0.65 7  148 259 
 PTB  HN ES        032 42.61                             131   -0.58 9  148 259 
 PTB  HZ I         032 50.19         5.3 0.44            117            148 259 
 ZAR  HE ES        032 53.93                             122    0.84 9  205 292 
 SML  HZ EP   1    032 32.08                             117    0.00 6  245 335 
 SML  HN ES        032 59.96                             117   -0.62 8  245 335 
 SML  HZ I         033 11.29         5.0 0.22            105            245 335 
 CHI  HZ EP        032 33.12                             116    0.10 8  248 195 
 CHI  HN I         033  9.60         3.2 0.56            104            248 195 
 GUY2CHZ EP        032 39.04                             112    0.02 7  301 235 
                                                                                
