 2013  627 0523  2.1 L   6.739 -73.218152.1  RSN  4 0.4 1.2LRSN                1
 GAP=167        0.83       7.0     7.4  9.0  0.1600E+02 -0.7581E+01  0.8518E+00E
 Epicentro: VILLANUEVA - SANTANDER                                             3
 ACTION:UPD 14-01-08 09:57 OP:ep   STATUS:               ID:20130627052302 L   I
 OLDACT:REG 13-06-27 06:39 OP:jn   STATUS:               ID:20130627051960d    3
 2013-06-27-0519-59M.COL___266                                                 6
 STAT SP IPHASW D HRMM SECON CODA AMPLIT PERI AZIMU VELO AIN AR TRES W  DIS CAZ7
 GIR2 SZ EP        523 22.19                             165   -0.4910 37.7   4 
 BRR  HZ EP        523 23.83                             155    0.0810 68.1 307 
 BRR  HN ES        523 40.95                             155    0.2910 68.1 307 
 BRR  HZ I         523 42.21         3.9 0.44            155           68.1 307 
 RUS  HZ EP   1    523 26.33                             147    0.28 7 94.7 171 
 RUS  HN ES   1    523 44.74                             147   -0.02 7 94.7 171 
 RUS  HZ I         523 46.15         2.8 0.24            147           94.7 171 
 PTB  HZ EP        523 29.10                             135    0.32 9  139 261 
 PTB  HN ES   1    523 48.98                             135   -0.63 7  139 261 
 PTB  HZ I         523 51.81         1.4 0.28            136            139 261 
                                                                                
