 2017  627 0749 20.7 L   6.673 -73.198134.2  RSN  4 0.3 1.0LRSN                1
 GAP=219        0.67       7.2     4.7  5.9  0.1225E+02  0.8971E+01  0.2190E+01E
 Epicentro: VILLANUEVA - SANTANDER                                             3
 ACTION:UPD 17-09-14 16:55 OP:jn   STATUS:               ID:20170627074920 L   I
 OLDACT:REG 17-06-27 13:11 OP:and  STATUS:               ID:20170627074740     3
 2017-06-27-0748-00M.COL___352                                                 6
 STAT SP IPHASW D HRMM SECON CODA AMPLIT PERI AZIMU VELO AIN AR TRES W  DIS CAZ7
 BAR2 EZ IP     C  749 38.66                             176   -0.0310 9.10 169 
 BAR2 EZ ES        749 53.08                             176    0.3310 9.10 169 
 BAR2 EZ I         749 54.83         4.1 0.18            173           9.10 169 
 BRR  HZ EP        749 40.59                             149   -0.1910 74.4 310 
 BRR  HN ES        749 56.13                             149   -0.3310 74.4 310 
 BRR  HZ I         749 58.02         2.5 0.13            151           74.4 310 
 PTB  HZ EP        749 46.10                             131    0.11 9  140 264 
 PTB  HN ES        750  5.52                             131   -0.22 9  140 264 
 PTB  HZ I         750  8.54         0.9 0.12            132            140 264 
 ZAR  HZ EP   2    749 52.39                             120   -0.05 4  205 296 
 ZAR  HN ES        750 17.70                             120    0.47 9  205 296 
                                                                                
