 2011 1027 0744 49.7 L   6.741 -73.082154.0  RSN  4 0.1 1.7LRSN                1
 GAP=226        0.33       6.9    12.0  4.6  0.6652E+02 -0.1079E+02 -0.7492E+01E
 Epicentro: JORDAN - SANTANDER                                                 3
 ACTION:UPD 12-07-13 16:06 OP:ep   STATUS:               ID:20111027074449 L   I
 2011-10-27-0743-17S.COL___177                                                 6
 STAT SP IPHASW D HRMM SECON CODA AMPLIT PERI AZIMU VELO AIN AR TRES W  DIS CAZ7
 BAR2 SZ EP   1    745 10.24                             172   -0.04 7 19.8 214 
 BAR2 SZ ES   2    745 26.49                             172    0.17 5 19.8 214 
 BAR2 SZ I         745 27.17        12.8 0.36                          19.8 214 
 BTL  SZ EP   2    745 10.76                             169    0.31 5 28.4 314 
 BTL  SZ ES   2    745 26.38                             169   -0.24 5 28.4 314 
 BRR  HZ IP     C  745 12.25                             151   -0.0410 80.5 300 
 BRR  HZ I         745 12.53        20.3 0.15                          80.5 300 
 BRR  HN ES   2    745 29.99                             151    0.09 5 80.5 300 
 RUS  HZ EP   2    745 13.74                             147   -0.09 5 93.8 180 
 RUS  HN ES   2    745 32.65                             147    0.01 5 93.8 180 
 RUS  HZ I         745 34.26         2.4 0.39                          93.8 180 
                                                                                
