 2017  927 0904 37.4 L   6.781 -73.136147.2  RSN  8 0.3 1.5LRSN                1
 GAP=139        0.72       3.2     3.9  5.7  0.1967E+01  0.2145E+01  0.1155E+01E
 Epicentro: LOS SANTOS - SANTANDER                                             3
 ACTION:UPD 17-10-05 19:16 OP:rebc STATUS:               ID:20170927090437 L   I
 OLDACT:UP  17-09-27 18:54 OP:edw  STATUS:               ID:20170927085738     3
 OLDACT:UP  17-09-27 18:52 OP:edw  STATUS:               ID:20170927085738     3
 OLDACT:REG 17-09-27 13:00 OP:edw  STATUS:               ID:20170927085738     3
 2017-09-27-0858-00M.COL___447                                                 6
 STAT SP IPHASW D HRMM SECON CODA AMPLIT PERI AZIMU VELO AIN AR TRES W  DIS CAZ7
 CCALAHE EP        9 5 15.22                                                    
 BAR2 EZ EP        9 4 57.00                             171   -0.1910 21.5 194 
 BAR2 EZ ES        9 5 12.33                             171   -0.2910 21.5 194 
 BAR2 EZ I         9 5 14.73         9.7 0.50            169           21.5 194 
 BRR  HZ EP        9 4 58.73                             152   -0.1110 73.1 300 
 BRR  HN ES        9 5 15.76                             152    0.2210 73.1 300 
 BRR  HZ I         9 5 18.40         5.7 0.32            152           73.1 300 
 PAM  EZ EP        9 4 60.00                             151    0.1510 78.3  38 
 RUS  HZ EP        9 5  1.40                             145    0.2310 98.5 177 
 RUS  HN ES        9 5 19.93                             145    0.2410 98.5 177 
 RUS  HZ I         9 5 20.89         4.8 0.32            145           98.5 177 
 ZAR  HE ES        9 5 35.37                             122   -0.30 8  206 293 
 NOR  HZ EP   4    9 5 11.30                             119   -1.90 0  234 235 
 NOR  HE ES        9 5 41.55                             119    0.44 8  234 235 
 NOR  HZ I         9 5 43.80         2.7 0.28            120            234 235 
 CHI  HZ EP   4    9 5 12.89                             118   -2.13 0  247 196 
 CHI  HE ES        9 5 43.82                             118   -0.52 8  247 196 
 CHI  HZ I         9 5 48.16         1.3 0.34            118            247 196 
 GUY2CHE ES   4    9 5 58.84                             113    3.74 0  301 235 
                                                                                
