 2012 1127 0732 22.7 L   6.800 -73.181142.8  RSN  9 0.3 1.9LRSN                1
 GAP=176        0.80       2.4     4.2  5.4  0.1840E+01  0.6153E+01 -0.4103E+00E
 Epicentro: LOS SANTOS - SANTANDER                                             3
 ACTION:UPD 12-12-05 15:36 OP:}ep  STATUS:               ID:20121127073222 L   I
 2012-11-27-0730-00M.COL___234                                                 6
 STAT SP IPHASW D HRMM SECON CODA AMPLIT PERI AZIMU VELO AIN AR TRES W  DIS CAZ7
 BAR2 SZ EP        732 42.18                             170    0.2210 23.0 180 
 BAR2 SZ ES        732 56.88                             170   -0.1110 23.0 180 
 BAR2 SZ I         732 59.00        37.9 0.32                          23.0 180 
 GIR2 SZ EP        732 42.29                             167    0.2910 30.8 357 
 RUS  HZ EP        732 46.20                             143    0.0210  101 174 
 RUS  HN ES        733  4.38                             143   -0.1210  101 174 
 RUS  HN I         733  5.53        13.1 0.20                           101 174 
 PTB  HZ EP        732 48.91                             132   -0.16 9  144 259 
 PTB  HN ES        733  9.57                             132   -0.08 9  144 259 
 PTB  HN I         733 14.25         9.5 0.26                           144 259 
 OCA  HN ES        733 12.75                             129    0.15 9  160 355 
 ZAR  HZ EP        732 53.80                             122   -0.77 9  200 293 
 ZAR  HN ES        733 19.96                             122    0.52 9  200 293 
 ZAR  HN I         733 29.38         8.8 0.28                           200 293 
 SML  HZ EP        732 59.21                             117    0.23 8  242 336 
 SML  HN ES        733 26.84                             117   -0.44 8  242 336 
 SML  HN I         733 33.53        13.1 0.10                           242 336 
 CHI  HZ EP        733  0.27                             117    0.14 8  248 194 
 CHI  HN ES        733 28.98                             117   -0.34 8  248 194 
 CHI  HN I         733 31.95         3.0 0.34                           248 194 
 PRA  HN ES        733 58.10                             106    0.71 6  390 209 
 PRA  HN I         734  3.31         1.3 0.44                           390 209 
                                                                                
