 2017 1027 0028  0.6 L   6.781 -73.149145.1  RSN  6 0.6 1.4LRSN                1
 GAP=137        1.37       6.9     6.1  9.9  0.3768E+01  0.1190E+02  0.7144E+00E
 Epicentro: LOS SANTOS - SANTANDER                                             3
 ACTION:UPD 17-11-07 19:37 OP:rebc STATUS:               ID:20171027002800 L   I
 OLDACT:UP  17-10-27 13:35 OP:dani STATUS:               ID:20171027001743d    3
 OLDACT:UP  17-10-27 13:34 OP:dani STATUS:               ID:20171027001743d    3
 OLDACT:UP  17-10-27 13:33 OP:dani STATUS:               ID:20171027001743d    3
 OLDACT:DUP 17-10-27 13:30 OP:dani STATUS:               ID:20171027001743d    3
 OLDACT:REG 17-10-27 12:26 OP:dani STATUS:               ID:20171027001742     3
 2017-10-27-0018-00M.COL___459                                                 6
 STAT SP IPHASW D HRMM SECON CODA AMPLIT PERI AZIMU VELO AIN AR TRES W  DIS CAZ7
 BAR2 EZ EP        028 19.24                             171   -0.8910 21.2 190 
 BAR2 EZ ES        028 34.84                             171   -0.5110 21.2 190 
 BAR2 EZ I         028 37.78         7.2 0.38            170           21.2 190 
 BRR  HZ EP        028 22.19                             152    0.4510 71.9 300 
 BRR  HN ES        028 38.98                             152    0.7710 71.9 300 
 BRR  HZ I         028 42.20         6.9 0.29            151           71.9 300 
 PAM  EZ EP        028 22.96                             150    0.0810 79.3  39 
 PAM  EN ES        028 40.08                             150   -0.1610 79.3  39 
 PAM  EZ I         028 42.46         2.8 0.66            155           79.3  39 
 RUS  HZ EP        028 24.50                             144    0.3410 98.5 176 
 RUS  HN ES        028 43.22                             144    0.7010 98.5 176 
 RUS  HZ I         028 44.64         1.4 0.47            148           98.5 176 
 PTB  HZ EP        028 27.03                             132   -0.44 9  147 260 
 PTB  HN ES        028 47.77                             132   -0.64 9  147 260 
 PTB  HZ I         028 55.26         2.9 0.62            133            147 260 
 ZAR  HZ EP   3    028 34.63                             122    1.56 2  205 293 
 ZAR  HN ES        028 58.50                             122    0.12 9  205 293 
 ZAR  HZ I         029  4.17         4.1 0.41            124            205 293 
                                                                                
