 2017  727 0836 40.8 L   6.788 -73.111148.8  RSN  7 0.4 1.2LRSN                1
 GAP=221        0.73       4.3     5.7  5.4  0.3890E+01 -0.4656E+01  0.1530E+01E
 Epicentro: LOS SANTOS - SANTANDER                                             3
 ACTION:UPD 17-08-30 15:37 OP:rebc STATUS:               ID:20170727083640 L   I
 OLDACT:UP  17-07-27 16:44 OP:and  STATUS:               ID:20170727082740     3
 OLDACT:UP  17-07-27 16:43 OP:and  STATUS:               ID:20170727082740     3
 OLDACT:UP  17-07-27 16:42 OP:and  STATUS:               ID:20170727082740     3
 OLDACT:UP  17-07-27 16:42 OP:and  STATUS:               ID:20170727082740     3
 OLDACT:UP  17-07-27 16:42 OP:and  STATUS:               ID:20170727082740     3
 OLDACT:REG 17-07-27 12:35 OP:and  STATUS:               ID:20170727082740     3
 2017-07-27-0828-00M.COL___371                                                 6
 STAT SP IPHASW D HRMM SECON CODA AMPLIT PERI AZIMU VELO AIN AR TRES W  DIS CAZ7
 BAR2 EZ EP        837  0.70                             171   -0.0910 23.1 200 
 BAR2 EZ ES        837 16.09                             171   -0.2910 23.1 200 
 BAR2 EZ I         837 17.04         3.9 0.28            170           23.1 200 
 BRR  HZ EP        837  2.53                             152    0.0210 75.2 298 
 BRR  HN ES        837 19.56                             152    0.1310 75.2 298 
 BRR  HZ I         837 21.39         2.0 0.06            151           75.2 298 
 RUS  HZ EP   2    837  5.14                             145    0.39 5 99.1 178 
 RUS  HN ES        837 23.97                             145    0.5510 99.1 178 
 RUS  HZ I         837 24.35         3.6 0.24            145           99.1 178 
 PTB  HZ EP   9    837  7.27                             132   -1.07 0  151 260 
 PTB  HN ES        837 28.91                             133    0.17 9  151 260 
 PTB  HZ I         837 30.32         1.1 0.16            132            151 260 
 SPBC HZ EP        837  9.77                             130    0.10 9  165 220 
 SPBC HN ES        837 31.69                             130   -0.50 9  165 220 
 SPBC HZ I         837 34.37         3.6 0.09            130            165 220 
 GUY2CHZ EP   4    837 27.36                             113    2.54 0  304 235 
 GUY2CHN ES   3    838  0.54                             113    1.38 2  304 235 
 GUY2CHZ I         838 13.57         0.8 0.56                           304 235 
 PTGC HZ EP   3    837 23.84                             112   -0.67 2  306 159 
 PTGC HN ES   2    837 57.77                             112   -0.82 4  306 159 
                                                                                
