 2013  527 0202  1.2 L   6.788 -73.186141.7  RSN  4 0.2 1.4LRSN                1
 GAP=232        0.54       4.3     4.2  5.5  0.9124E+01 -0.2650E+01 -0.1067E+01E
 Epicentro: LOS SANTOS - SANTANDER                                             3
 ACTION:UPD 13-06-20 09:54 OP:ep   STATUS:               ID:20130527020201 L   I
 2013-05-27-0200-00M.COL___261                                                 6
 STAT SP IPHASW D HRMM SECON CODA AMPLIT PERI AZIMU VELO AIN AR TRES W  DIS CAZ7
 BAR2 SZ EP        2 2 20.25                             171   -0.0510 21.6 179 
 BAR2 SZ I         2 2 37.01         7.9 0.36            171           21.6 179 
 BRR  HZ EP        2 2 21.43                             153   -0.2910 68.0 301 
 BRR  HN ES        2 2 37.92                             153    0.1910 68.0 301 
 BRR  HZ I         2 2 43.83         7.5 0.32            152           68.0 301 
 RUS  HZ EP        2 2 24.78                             143    0.3010 99.6 173 
 RUS  HN ES        2 2 42.49                             143   -0.1510 99.6 173 
 RUS  HZ I         2 2 43.98         2.7 0.22            149           99.6 173 
 PTB  HZ EP        2 2 27.44                             132    0.04 9  143 259 
 PTB  HN ES        2 2 47.82                             132   -0.03 9  143 259 
 PTB  HZ I         2 2 50.62         3.4 0.18            137            143 259 
                                                                                
