 2016  327 0952 57.4 L   6.820 -73.190148.0  RSN  8 0.3 1.5LRSN                1
 GAP=179        0.82       2.8     4.3  6.2  0.2431E+01  0.7773E+01 -0.1678E+01E
 Epicentro: ZAPATOCA - SANTANDER                                               3
 ACTION:UPD 16-05-13 21:28 OP:cam  STATUS:               ID:20160327095257 L   I
 OLDACT:REG 16-03-27 13:40 OP:ak   STATUS:               ID:20160327094745     3
 2016-03-27-0947-45M.COL___293                                                 6
 STAT SP IPHASW D HRMM SECON CODA AMPLIT PERI AZIMU VELO AIN AR TRES W  DIS CAZ7
 BAR2 EZ EP        953 16.95                             170   -0.3410 25.2 178 
 BAR2 EZ ES        953 32.53                             170   -0.3110 25.2 178 
 BAR2 EZ I         953 34.42         4.8 0.22            166           25.2 178 
 RUS  HZ EP        953 21.45                             144   -0.0710  103 173 
 RUS  HE ES        953 40.96                             144    0.5910  103 173 
 PTB  HZ EP        953 23.85                             133   -0.26 9  143 258 
 PTB  HN ES        953 44.73                             133   -0.26 9  143 258 
 PTB  HZ I         953 52.36                             132            143 258 
 OCA  HZ EP   2    953 26.29                             131    0.71 5  158 355 
 OCA  HN ES        953 47.69                             131    0.09 9  158 355 
 SPBC HZ EP        953 25.97                             130    0.07 9  162 217 
 SPBC HE ES        953 48.02                             130   -0.15 9  162 217 
 SPBC HZ I         953 55.09         8.4 0.18            130            162 217 
 ZAR  HZ EP        953 29.24                             124   -0.15 9  199 292 
 ZAR  HN ES        953 55.09                             124    0.71 9  199 292 
 ZAR  HZ I         954  3.23         3.9 0.28            124            199 292 
 CHI  HN ES        954  5.03                             117    0.17 8  250 194 
 MON  HZ EP   4    953 44.43                             109   -1.41 0  348 309 
 MON  HE ES        954 23.46                             109   -0.19 6  348 309 
 MON  HZ I         954 25.03         0.6 0.31            111            348 309 
                                                                                
