 2013  327 0620 50.1 L   6.699 -73.226149.1  RSN  4 0.3 0.9LRSN                1
 GAP=208        0.68       7.2     8.0 10.6  0.3109E+02 -0.2591E+02 -0.1759E+02E
 Epicentro: VILLANUEVA - SANTANDER                                             3
 ACTION:UPD 13-04-09 14:05 OP:ep   STATUS:               ID:20130327062050 L   I
 2013-03-27-0620-00M.COL___245                                                 6
 STAT SP IPHASW D HRMM SECON CODA AMPLIT PERI AZIMU VELO AIN AR TRES W  DIS CAZ7
 BAR2 SZ EP   2    621  9.61                             175   -0.40 5 12.7 158 
 BRR  HZ EP        621 11.37                             153   -0.2310 70.2 310 
 BRR  HN ES   1    621 28.65                             153    0.32 7 70.2 310 
 BRR  HZ I         621 29.33         2.3 0.64            153           70.2 310 
 RUS  HZ EP   1    621 14.10                             147    0.57 7 90.5 170 
 RUS  HN ES   1    621 31.53                             147   -0.25 7 90.5 170 
 RUS  HZ I         621 33.61         0.9 0.28            146           90.5 170 
 PTB  HN ES   1    621 36.93                             135   -0.05 7  137 263 
 PTB  HZ I         621 40.35         0.8 0.18            133            137 263 
                                                                                
