 2010  527 0611 37.8 L   6.809 -72.879140.9  RSN  7 0.4 2.0LRSN                1
 GAP=197        0.93       5.3    12.9  9.5 -0.4912E+02  0.2907E+02 -0.2404E+01E
 Epicentro: SAN ANDRES - SANTANDER                                             3
 ACTION:UP  10-08-24 10:07 OP:vdl  STATUS:               ID:20100527061137 L   I
 2010-05-27-0609-32S.COL___108                                                 6
 STAT SP IPHASW D HRMM SECON CODA AMPLIT PERI AZIMU VELO SNR AR TRES W  DIS CAZ7
 BAR2 SZ EP        611 57.01                             163    -0.310   41 235 
 BAR2 SZ ES   1    612 12.41                             163    -0.2 7   41 235 
 GUE  SZ EP        612  2.41                             139     0.710  113 357 
 GUE  SZ ES   2    612 20.49                             139     0.0 5  113 357 
 GRA  SZ ES   2    612 21.46                             137     0.5 5  119   4 
 OCA  SZ EP        612  5.78                             127    -0.4 9  165 343 
 OCA  SZ ES   1    612 28.10                             127    -0.3 7  165 343 
 CHI  HN ES   1    612 46.43                             115     0.0 6  259 201 
 CHI  HZ I         612 50.37         4.4 0.67                           259 201 
 ROSC BN ES   1    612 48.84                             114     0.3 6  270 216 
 ROSC BZ I         612 51.52         3.8 0.38                           270 216 
 RREF BZ EP   1    612 25.70                             108    -0.7 5  345 232 
 RREF BN ES        613  4.81                             108     0.4 7  345 232 
 RREF BZ I         613  6.56         6.2 0.24                           345 232 
                                                                                
