 2014  827 0602 54.5 L   6.797 -73.116147.5  RSN 21 0.5 2.3LRSN                1
 GAP= 73        1.12       2.7     3.1  5.3 -0.6140E+00  0.4315E+01  0.2607E+01E
 Epicentro: LOS SANTOS - SANTANDER                                             3
 ACTION:UPD 14-09-15 21:53 OP:nd   STATUS:               ID:20140827060254 L   I
 OLDACT:REG 14-08-27 13:05 OP:fm   STATUS:               ID:20140827055814     3
 2014-08-27-0558-14M.COL___257                                                 6
 STAT SP IPHASW D HRMM SECON CODA AMPLIT PERI AZIMU VELO AIN AR TRES W  DIS CAZ7
 BAR2 SZ EP     C  6 3 14.40                             170    0.0010 23.8 198 
 BAR2 SZ ES   1    6 3 29.89                             170    0.01 7 23.8 198 
 BAR2 SZ I         6 3 31.14        57.8 0.28            168           23.8 198 
 BRR  HZ EP        6 3 16.30                             152    0.2410 74.2 298 
 BRR  HN ES        6 3 33.72                             152    0.8810 74.2 298 
 BRR  HZ I         6 3 36.02        26.8 0.18            151           74.2 298 
 PAM  SZ EP        6 3 17.22                             152    0.3810 75.6  37 
 PAM  SN ES        6 3 34.39                             152    0.1610 75.6  37 
 PAM  SZ I         6 3 36.57        30.5 0.48            156           75.6  37 
 RUS  HZ EP        6 3 18.26                             144   -0.1810  100 178 
 RUS  HN ES        6 3 36.77                             144   -0.3010  100 178 
 RUS  HZ I         6 3 39.92        10.9 0.44            146            100 178 
 PTB  HZ EP        6 3 21.04                             132   -0.91 9  151 259 
 PTB  HN ES        6 3 42.75                             132   -0.57 9  151 259 
 PTB  HZ I         6 3 48.39        39.4 0.40            132            151 259 
 TAM  HZ EP        6 3 22.54                             132    0.47 9  152 105 
 TAM  HN ES        6 3 43.43                             132   -0.10 9  152 105 
 TAM  HZ I         6 3 45.67        12.3 0.41            136            152 105 
 OCA  HZ EP   1    6 3 23.03                             130   -0.03 7  161 352 
 OCA  HN ES        6 3 44.63                             130   -0.67 9  161 352 
 OCA  HZ I         6 3 50.36        18.6 0.24            133            161 352 
 SPBC HZ EP        6 3 23.34                             129   -0.02 9  165 220 
 SPBC HN ES        6 3 45.87                             129    0.04 9  165 220 
 SPBC HZ I         6 3 52.43        51.0 0.24            130            165 220 
 ZAR  HZ EP        6 3 26.93                             122   -0.50 8  207 292 
 ZAR  HN ES        6 3 52.66                             122   -0.42 8  207 292 
 ZAR  HZ I         6 3 58.90        33.3 0.58            124            207 292 
 NOR  HZ EP        6 3 29.97                             119   -0.68 8  237 235 
 NOR  HN ES        6 3 58.93                             119    0.12 8  237 235 
 NOR  HZ I         6 4  2.08        20.4 0.20            120            237 235 
 SML  HZ EP        6 3 31.11                             118   -0.34 8  245 335 
 SML  HN ES        6 4  0.36                             118    0.13 8  245 335 
 SML  HZ I         6 4  4.05        32.1 0.24            120            245 335 
 CHI  HZ EP        6 3 32.34                             117   -0.07 8  249 196 
 CHI  HN ES        6 4  1.18                             117   -0.76 8  249 196 
 CHI  HZ I         6 4  5.89         9.6 0.40            119            249 196 
 ROSC BZ EP        6 3 33.85                             117    0.93 8  254 212 
 ROSC BN ES   4    6 4  4.82                             117    1.97 0  254 212 
 ROSC BZ I         6 4 12.32        22.6 0.40            118            254 212 
 HEL  HZ EP        6 3 35.77                             115    0.58 8  275 256 
 HEL  HE ES        6 4  7.58                             115    0.68 8  275 256 
 HEL  HZ I         6 4 13.15        12.4 0.34            116            275 256 
 URE  HN ES   4    6 4  4.78                             114   -3.65 0  287 292 
 URE  HZ I         6 4 15.25        13.8 0.32            115            287 292 
 GUY2CHZ EP        6 3 38.59                             112    0.07 7  304 235 
 GUY2CHN ES   4    6 4 15.59                             112    2.77 0  304 235 
 GUY2CHZ I         6 4 21.25        21.2 0.78                           304 235 
 CBOC HZ EP        6 3 42.12                             110    0.24 7  337 252 
 CBOC HN ES        6 4 19.71                             110    0.91 7  337 252 
 CBOC HZ I         6 4 26.05         3.7 0.36            111            337 252 
 MON  HZ EP   4    6 3 41.34                             109   -2.60 0  356 308 
 MON  HN ES   4    6 4 20.23                             109   -2.23 0  356 308 
 MON  HZ I         6 4 22.81         5.1 0.42            110            356 308 
 PRA  HZ EP        6 3 48.78                             107    0.49 6  393 210 
 PRA  HN ES        6 4 29.43                             107   -0.78 6  393 210 
 PRA  HZ I         6 4 35.01        10.0 0.52            108            393 210 
 ORTC HZ EP   1    6 3 49.01                             107    0.28 4  397 217 
 ORTC HN ES        6 4 31.67                             107    0.68 6  397 217 
 ORTC HZ I         6 4 37.33         6.8 0.42            108            397 217 
 SJC  HN ES   4    6 4 28.07                             106   -5.91 0  411 327 
 SJC  HZ I         6 4 35.04         2.8 0.24            107            411 327 
                                                                                
