 2017  527 0342 19.0 L   6.733 -73.238147.6  RSN  6 0.5 1.5LRSN                1
 GAP=199        1.26       6.3     6.7  9.7  0.1709E+02 -0.7102E+01  0.8801E+01E
 Epicentro: VILLANUEVA - SANTANDER                                             3
 ACTION:UPD 17-06-16 13:39 OP:jn   STATUS:               ID:20170527034219 L   I
 OLDACT:UP  17-05-28 00:52 OP:nlst STATUS:               ID:20170527034219 L   3
 OLDACT:REG 17-05-27 13:51 OP:ar   STATUS:               ID:20170527033742     3
 2017-05-27-0338-00M.COL___341                                                 6
 STAT SP IPHASW D HRMM SECON CODA AMPLIT PERI AZIMU VELO AIN AR TRES W  DIS CAZ7
 BRR  HZ EP        342 40.81                             154    0.7510 66.7 308 
 BRR  HN ES        342 56.61                             154    0.0910 66.7 308 
 BRR  HZ I         342 57.25         4.8 0.40            154           66.7 308 
 RUS  HZ EP        342 41.97                             146   -0.4910 94.5 170 
 RUS  HE ES        343  0.23                             146   -0.5610 94.5 170 
 RUS  HZ I         343  0.85         3.1 0.22            145           94.5 170 
 PTB  HZ EP        342 44.34                             135   -0.72 9  136 261 
 PTB  HN ES        343  5.17                             135   -0.26 9  136 261 
 PTB  HZ I         343 12.36         4.6 0.30            133            136 261 
 SPBC HZ EP        342 46.36                             132   -0.10 9  151 218 
 SPBC HE ES        343  8.73                             132    0.81 9  151 218 
 SPBC HZ I         343 14.40         5.4 0.20            130            151 218 
 YPLC HZ EP        342 49.37                             127    0.60 9  176 147 
 YPLC HE ES        343 12.03                             127    0.01 9  176 147 
 YPLC HZ I         343 15.49         2.8 0.58            128            176 147 
 CHI  HZ EP        342 55.38                             119   -0.32 8  239 193 
 CHI  HN ES        343 24.65                             119    0.28 8  239 193 
                                                                                
