 2011  427 0257 58.3 L   6.798 -73.137144.0  RSN 13 0.4 2.8LRSN                1
 GAP=115        0.93       3.4     5.7  6.8 -0.2487E+01  0.1228E+02  0.5099E+01E
 Epicentro: LOS SANTOS - SANTANDER                                             3
 ACTION:UP  11-06-22 15:33 OP:REBC STATUS:               ID:20110427025758 L   I
 2011-04-27-0256-42S.COL___137                                                 6
 STAT SP IPHASW D HRMM SECON CODA AMPLIT PERI AZIMU VELO SNR AR TRES W  DIS CAZ7
 BAR2 SZ IP        258 17.53                             170    -0.210   23 192 
 BAR2 SZ I         258 17.87       265.0 0.11                            23 192 
 BAR2 SZ ES   2    258 31.81                             170    -1.0 5   23 192 
 BRR  HZ EP   1    258 19.46                             152     0.2 7   72 298 
 BRR  HZ I         258 19.83       287.1 0.10                            72 298 
 BRR  HE ES   1    258 36.42                             152     0.7 7   72 298 
 PAM  SZ EP   1    258 20.45                             151     0.1 7   77  39 
 PAM  SN ES   1    258 37.43                             151     0.0 7   77  39 
 PAM  SZ I         258 38.03        52.4 0.37                            77  39 
 RUS  HZ EP   1    258 21.35                             144    -0.5 7  100 177 
 RUS  HZ I         258 22.17        74.2 0.22                           100 177 
 RUS  HE ES   1    258 40.04                             144    -0.2 7  100 177 
 BRI  SZ EP   1    258 22.23                             141     0.2 7  108  20 
 BRI  SZ ES   1    258 40.80                             141     0.3 7  108  20 
 BRI  SZ I         258 42.55       162.9 0.33                           108  20 
 GRA  SZ EP   1    258 23.45                             137     0.1 7  126  17 
 GRA  SZ ES   1    258 42.78                             137    -0.2 7  126  17 
 GRA  SZ I         258 44.19       143.8 0.34                           126  17 
 OCA  SZ EP   1    258 26.02                             129    -0.5 7  161 353 
 OCA  SZ ES   2    258 47.95                             129    -0.6 5  161 353 
 OCA  SZ I         258 51.91       108.0 0.23                           161 353 
 YOP  SZ EP   1    258 28.12                             126     0.0 7  178 154 
 YOP  SZ I         258 29.29        59.1 0.15                           178 154 
 YOP  SN ES   1    258 52.16                             126     0.7 7  178 154 
 NOR  SZ EP   1    258 33.54                             118    -0.5 6  235 235 
 NOR  SN ES   2    259  1.40                             118    -0.4 4  235 235 
 NOR  SZ I         259  4.67        16.5 0.26                           235 235 
 ROSC BZ EP   1    258 37.13                             116     0.8 6  253 211 
 ROSC BZ I         259 15.25       107.9 0.37                           253 211 
 HEL  HZ EP   1    258 38.38                             114    -0.1 6  273 256 
 HEL  HZ I         259 18.07        49.2 0.28                           273 256 
 DBB  SZ EP   1    258 46.40                             109     0.6 5  340 274 
 DBB  SZ I         259 26.38         8.6 0.37                           340 274 
 PRA  HZ EP   1    258 51.37                             106    -0.4 4  392 210 
 PRA  HE ES   2    259 33.79                             106     0.3 3  392 210 
                                                                                
