 2017  927 0845 23.4 L   6.184 -73.768101.2  RSN  4 0.2 1.3LRSN                1
 GAP=207        0.46       3.9     4.9  7.4  0.1525E+02  0.2922E+02  0.1691E+02E
 Epicentro: LANDAZURI - SANTANDER                                              3
 ACTION:UPD 17-10-05 19:16 OP:rebc STATUS:               ID:20170927084523 L   I
 OLDACT:REG 17-09-27 12:58 OP:edw  STATUS:               ID:20170927083740     3
 2017-09-27-0838-00M.COL___447                                                 6
 STAT SP IPHASW D HRMM SECON CODA AMPLIT PERI AZIMU VELO AIN AR TRES W  DIS CAZ7
 BAR2 EZ EP        845 41.00                             139    0.0710 79.0  55 
 BAR2 EZ ES        845 54.58                             139    0.0010 79.0  55 
 BAR2 EZ I         845 56.25         9.9 0.56            143           79.0  55 
 RUS  HZ EP        845 41.76                             138    0.2110 82.4 113 
 RUS  HE ES        845 55.56                             138   -0.1310 82.4 113 
 BRR  HZ EP        845 42.31                             131   -0.3110  102   3 
 BRR  HN ES        845 57.72                             131    0.1310  102   3 
 BRR  HZ I         845 59.00         2.7 0.14            134            102   3 
 ZAR  HZ EP        845 51.66                             113    0.02 9  188 320 
 ZAR  HN ES        846 13.65                             113    0.01 9  188 320 
 ZAR  HZ I         846 15.77         3.1 0.12            115            188 320 
                                                                                
