 2010  927 0350 33.2 L   6.789 -73.126149.3  RSN  7 0.6 2.1LRSN                1
 GAP=161        1.58       8.1    14.9 16.2 -0.1360E+01 -0.5604E+02  0.3917E+02E
 Epicentro: LOS SANTOS - SANTANDER                                             3
 ACTION:UP  11-02-18 11:05 OP:tino STATUS:               ID:20100927035033 L   I
 2010-09-27-0346-53S.COL___121                                                 6
 STAT SP IPHASW D HRMM SECON CODA AMPLIT PERI AZIMU VELO SNR AR TRES W  DIS CAZ7
 BTL  SZ EP        350 54.52                             171     1.310   21 313 
 BRR  HZ EP        350 54.43                             152    -0.410   74 299 
 BRR  HN ES        351 11.95                             152     0.210   74 299 
 BRR  HZ I         351 14.81        31.4 0.26                            74 299 
 RUS  HZ EP        350 57.01                             145    -0.210   99 177 
 RUS  HN ES   1    351 15.44                             145    -0.5 7   99 177 
 RUS  HZ I         351 17.17        17.2 0.87                            99 177 
 GUE  SZ EP   1    350 57.85                             140    -0.4 7  117  11 
 GRA  SZ ES   2    351 17.71                             138    -1.1 5  126  16 
 CHI  HZ EP        351 10.93                             118    -0.1 8  248 196 
 CHI  HZ I         351 12.64         7.3 0.55                           248 196 
 CHI  HN ES   1    351 40.50                             118     0.0 6  248 196 
 HEL  HN ES   2    351 44.77                             115    -0.7 4  274 256 
 HEL  HZ I         351 51.19         9.5 1.35                           274 256 
                                                                                
