 2015  527 0426 45.6 L   6.048 -73.696112.3  RSN 11 0.3 1.5LRSN                1
 GAP= 77        0.78       2.4     2.4  5.1 -0.2073E+01  0.3408E+01 -0.2326E+01E
 Epicentro: VELEZ - SANTANDER                                                  3
 ACTION:UPD 15-09-10 22:07 OP:cam  STATUS:               ID:20150527042645 L   I
 OLDACT:REG 15-05-27 12:40 OP:spq  STATUS:               ID:20150527041749     3
 2015-05-27-0417-49M.COL___294                                                 6
 STAT SP IPHASW D HRMM SECON CODA AMPLIT PERI AZIMU VELO AIN AR TRES W  DIS CAZ7
 SPBC HZ EP        427  2.76                             150    0.1110 60.4 224 
 SPBC HN ES        427 16.28                             150    0.3210 60.4 224 
 SPBC HZ I         427 17.71        15.6 0.26            153           60.4 224 
 RUS  HZ EP     D  427  3.83                             146   -0.0110 70.0 104 
 RUS  HE ES   1    427 17.81                             146   -0.28 7 70.0 104 
 RUS  HZ I         427 23.15         3.2 0.58            150           70.0 104 
 BAR2 EZ EP        427  4.58                             141    0.1710 82.8  43 
 BAR2 EZ ES   1    427 19.11                             141    0.01 7 82.8  43 
 BAR2 EZ I         427 20.23        14.1 0.32            144           82.8  43 
 BRR  HZ EP        427  6.92                             130   -0.1110  117 359 
 BRR  HN ES        427 24.13                             130    0.3710  117 359 
 BRR  HZ I         427 26.90         4.9 0.44            133            117 359 
 NOR  HZ EP        427  9.58                             125    0.21 9  141 248 
 NOR  HN ES        427 27.72                             125   -0.20 9  141 248 
 NOR  HZ I         427 30.67         5.0 0.32            128            141 248 
 CHI  HZ EP   1    427 10.94                             122   -0.57 7  157 181 
 CHI  HE ES   1    427 31.63                             122   -0.11 7  157 181 
 CHI  HZ I         427 34.68         3.2 0.31            126            157 181 
 PAM  SZ EP        427 14.21                             118    0.10 9  180  38 
 PAM  SE ES        427 35.93                             118   -0.43 9  180  38 
 PAM  SZ I         427 39.80         3.3 0.46            121            180  38 
 HEL  HZ EP   1    427 16.68                             114    0.19 6  203 275 
 HEL  HE ES        427 39.61                             114   -0.98 9  203 275 
 HEL  HZ I         427 44.49         3.0 0.48            118            203 275 
 ZAR  HZ EP        427 16.31                             114    0.11 9  205 321 
 ZAR  HE ES        427 39.97                             114   -0.10 9  205 321 
 ZAR  HZ I         427 45.26         2.9 0.40            117            205 321 
 GUY2CHZ EP        427 17.22                             114    0.31 8  206 244 
 GUY2CHN ES   1    427 41.57                             114    0.22 6  206 244 
 GUY2CHZ I         427 46.14         3.4 0.52                           206 244 
 CBOC HZ EP   1    427 22.95                             108    0.59 6  257 266 
                                                                                
