 2017 1127 0928 11.9 L   6.383 -73.674100.0  RSN  8 0.6 1.6LRSN                1
 GAP= 81        1.09       3.2     3.2  7.3 -0.1649E+00  0.1108E+00 -0.2945E+01E
 Epicentro: SANTA HELENA DEL OPON - SANTANDER                                  3
 ACTION:UPD 17-12-12 20:01 OP:rebc STATUS:               ID:20171127092811 L   I
 OLDACT:UP  17-11-27 17:59 OP:dhb  STATUS:               ID:20171127092743     3
 OLDACT:REG 17-11-27 12:40 OP:dhb  STATUS:               ID:20171127092743     3
 2017-11-27-0928-00M.COL___471                                                 6
 STAT SP IPHASW D HRMM SECON CODA AMPLIT PERI AZIMU VELO AIN AR TRES W  DIS CAZ7
 BAR2 EZ IP     D  928 27.83                             148    0.0110 59.1  67 
 BAR2 EZ ES        928 40.45                             148    0.2110 59.1  67 
 BAR2 EZ I         928 41.97        25.7 0.26            148           59.1  67 
 PTB  HZ EP        928 28.89                             136   -0.8710 88.2 281 
 PTB  HE ES        928 43.52                             136   -0.1610 88.2 281 
 PTB  HZ I         928 44.19         5.4 0.48            136           88.2 281 
 SPBC HZ EP        928 30.02                             135   -0.1710 92.0 209 
 SPBC HE ES        928 45.10                             135    0.6510 92.0 209 
 SPBC HZ I         928 48.20         6.6 0.34            136           92.0 209 
 NOR  HZ EP        928 36.63                             117   -0.38 9  160 236 
 NOR  HE ES        928 56.73                             117    0.14 9  160 236 
 NOR  HZ I         928 59.22         3.1 0.16            119            160 236 
 ZAR  HZ EP        928 39.03                             114   -0.02 9  179 313 
 ZAR  HE ES        929  0.47                             114    0.24 9  179 313 
 ZAR  HZ I         929  5.42         5.2 0.22            115            179 313 
 YPLC HZ EP        928 38.70                             114   -0.52 9  180 127 
 YPLC HE ES        929  0.54                             114    0.02 9  180 127 
 YPLC HZ I         929  2.79        11.4 0.32            116            180 127 
 OCA  HZ EP        928 43.16                             110    0.56 8  209  11 
 OCA  HN ES        929  6.62                             110    0.08 8  209  11 
 OCA  HZ I         929 11.92        11.2 0.26            111            209  11 
 GUY2CHZ EP   2    928 45.92                             108    0.85 4  227 236 
 GUY2CHN ES   3    929 14.52                             108    3.58 2  227 236 
 GUY2CHZ I         929 15.66         1.6 0.32                           227 236 
                                                                                
