 2011 1027 0543 43.7 L   6.781 -73.084148.6  RSN 11 0.3 2.1LRSN                1
 GAP=145        0.40       2.2     2.8  4.0 -0.1657E+01  0.3063E+01  0.9760E+00E
 Epicentro: LOS SANTOS - SANTANDER                                             3
 ACTION:UPD 12-07-13 16:06 OP:ep   STATUS:               ID:20111027054343 L   I
 2011-10-27-0542-10S.COL___177                                                 6
 STAT SP IPHASW D HRMM SECON CODA AMPLIT PERI AZIMU VELO AIN AR TRES W  DIS CAZ7
 BAR2 SZ IP        544  3.62                             171   -0.0910 23.5 208 
 BAR2 SZ ES   2    544 18.79                             171   -0.50 5 23.5 208 
 BAR2 SZ I         544 20.45        20.0 0.27                          23.5 208 
 PAM  SZ EP        544  6.42                             152    0.3010 75.0  34 
 PAM  SN ES   2    544 23.71                             152    0.14 5 75.0  34 
 BRR  HZ EP        544  5.49                             151   -0.1110 78.2 298 
 BRR  HN ES   2    544 23.09                             151    0.44 5 78.2 298 
 BRR  HZ I         544 25.25        24.2 0.09                          78.2 298 
 RUS  HZ EP   1    544  7.46                             145   -0.14 7 98.2 180 
 RUS  HN ES   2    544 26.21                             145    0.00 5 98.2 180 
 RUS  HZ I         544 28.69        11.1 0.56                          98.2 180 
 OCA  SZ EP   1    544 12.32                             130   -0.24 7  163 351 
 OCA  SZ ES   2    544 35.19                             130    0.15 5  163 351 
 OCA  SZ I         544 38.93        20.6 0.37                           163 351 
 ZAR  HZ EP   2    544 16.90                             122   -0.21 4  211 292 
 ZAR  HE ES   2    544 42.64                             122   -0.49 4  211 292 
 ZAR  HZ I         544 49.23        11.6 0.68                           211 292 
 NOR  SZ EP   2    544 19.89                             119   -0.21 4  239 236 
 NOR  SE ES   2    544 48.32                             119   -0.14 4  239 236 
 ROSC BZ EP   2    544 22.35                             117    0.14 4  255 213 
 ROSC BN ES   2    544 52.54                             117    0.33 4  255 213 
 ROSC BZ I         544 59.61        10.6 0.54                           255 213 
 HEL  HZ EP   2    544 24.99                             115    0.21 4  278 257 
 HEL  HE ES   2    544 57.09                             115    0.31 4  278 257 
 HEL  HZ I         545  1.70         4.8 0.28                           278 257 
 RREF HZ EP   2    544 30.59                             111    0.15 3  326 230 
 RREF HN ES   2    545  7.37                             111    0.50 3  326 230 
 RREF HZ I         545 13.21         8.7 0.27                           326 230 
 PRA  HZ EP   1    544 37.57                             107    0.03 4  394 211 
 PRA  HE ES   2    545 19.44                             107   -0.07 3  394 211 
                                                                                
