 2015  827 0650 57.1 L   6.765 -73.158155.3  RSN  5 0.3 1.3LRSN                1
 GAP=181        0.70       3.8     6.5  8.6  0.5337E+01  0.8249E+01  0.9706E+00E
 Epicentro: LOS SANTOS - SANTANDER                                             3
 ACTION:UPD 15-09-15 23:05 OP:cam  STATUS:               ID:20150827065057 L   I
 OLDACT:REG 15-08-27 12:49 OP:spq  STATUS:               ID:20150827064749     3
 2015-08-27-0647-49M.COL___349                                                 6
 STAT SP IPHASW D HRMM SECON CODA AMPLIT PERI AZIMU VELO AIN AR TRES W  DIS CAZ7
 BRR  HZ EP        651 19.53                             154    0.1710 72.0 302 
 BRR  HN ES        651 37.09                             154    0.3910 72.0 302 
 BRR  HZ I         651 41.94         2.9 0.44            153           72.0 302 
 RUS  HE ES   1    651 40.31                             147   -0.33 7 96.8 175 
 RUS  HZ I         651 41.76         1.5 0.42            152           96.8 175 
 SPBC HZ EP   1    651 26.32                             132    0.29 7  159 219 
 SPBC HN ES   1    651 48.35                             132   -0.22 7  159 219 
 SPBC HZ I         651 50.98         3.0 0.34            136            159 219 
 OCA  HE ES   1    651 49.07                             131   -0.40 7  164 354 
 OCA  HZ I         651 54.18         3.0 0.52            133            164 354 
 ZAR  HE ES        651 55.76                             124   -0.31 9  204 293 
 ZAR  HZ I         652  0.84         2.4 0.43            126            204 293 
                                                                                
