 2014  127 0410 35.0 L   6.784 -73.133144.8  RSN  5 0.4 1.2LRSN                1
 GAP=139        0.93       5.1     4.9  7.3 -0.3074E+01  0.3974E+01  0.3732E+01E
 Epicentro: LOS SANTOS - SANTANDER                                             3
 ACTION:UPD 14-03-13 09:58 OP:ep   STATUS:               ID:20140127041035 L   I
 OLDACT:REG 14-01-27 08:14 OP:stll STATUS:               ID:20140127040808     3
 2014-01-27-0408-08M.COL___234                                                 6
 STAT SP IPHASW D HRMM SECON CODA AMPLIT PERI AZIMU VELO AIN AR TRES W  DIS CAZ7
 BAR2 SZ ES        411 10.19                             171    0.4710 22.0 195 
 BAR2 SZ I         411 11.05         4.1 0.16            172           22.0 195 
 BRR  HN ES        411 13.04                             152    0.3310 73.3 299 
 BRR  HZ I         411 17.01         2.7 0.16            150           73.3 299 
 PAM  SZ EP        410 57.40                             150    0.2210 77.8  38 
 PAM  SN ES        411 13.90                             150   -0.5410 77.8  38 
 PAM  SZ I         411 15.17         1.8 0.18            152           77.8  38 
 RUS  HZ EP        410 58.64                             144    0.0710 98.8 177 
 RUS  HN ES        411 16.69                             144   -0.2210 98.8 177 
 PTB  HZ EP        411  2.16                             131    0.13 9  149 260 
 PTB  HN ES        411 22.57                             131   -0.51 9  149 260 
 PTB  HZ I         411 24.48         2.3 0.18            132            149 260 
                                                                                
