 2012  327 0158  5.0 L   7.254 -73.984 20.5  RSN  7 0.4 1.8LRSN                1
 GAP=109        0.98       3.3     2.6  4.5  0.1362E+01 -0.3955E+01 -0.5905E+01E
 ACTION:UP  12-03-31 23:23 OP:EP   STATUS:               ID:20120327015805 L   I
 2012-03-27-0150-00M.COL___196                                                 6
 STAT SP IPHASW D HRMM SECON CODA AMPLIT PERI AZIMU VELO SNR AR TRES W  DIS CAZ7
 BRR  HZ IP     D  158 11.54                             118     0.110   34 118 
 BRR  HE ES   1    158 16.38                             118     0.0 7   34 118 
 BRR  HZ I         158 17.55        95.4 0.12                            34 118 
 PTB  HZ EP        158 20.00                             100    -0.210   95 213 
 PTB  HN ES   1    158 31.19                             100    -0.8 7   95 213 
 ZAR  HZ EP        158 21.34                             100     0.410  100 285 
 ZAR  HN ES   1    158 33.71                             100     0.3 7  100 285 
 ZAR  HZ I         158 35.14        15.4 0.12                           100 285 
 BAR2 SZ EP        158 23.35                              99    -0.110  115 129 
 BAR2 SZ I         158 38.13        18.3 0.34                           115 129 
 OCA  SZ EP        158 25.56                              56     0.110  131  34 
 OCA  SZ ES   1    158 40.45                              56    -1.0 7  131  34 
 PAM  SZ EP        158 27.43                              56     0.2 9  142  86 
 PAM  SE ES   2    158 44.24                              56    -0.3 5  142  86 
 RUS  HZ EP        158 32.35                              56     0.3 9  181 146 
 RUS  HN ES   1    158 53.59                              56     0.5 7  181 146 
                                                                                
