 2012 1227 0859 57.1 L   6.090 -73.714113.0  RSN  6 0.5 1.4LRSN                1
 GAP=166        0.87       6.1     4.4  9.7  0.6987E+01  0.2109E+02  0.8710E+01E
 Epicentro: BOLIVAR - SANTANDER                                                3
 ACTION:UPD 13-01-04 14:30 OP:ep   STATUS:               ID:20121227085957 L   I
 2012-12-27-0900-00M.COL___243                                                 6
 STAT SP IPHASW D HRMM SECON CODA AMPLIT PERI AZIMU VELO AIN AR TRES W  DIS CAZ7
 RUS  HZ EP   1    9 0 15.50                             145   -0.12 7 73.1 107 
 RUS  HN ES   1    9 0 29.76                             145   -0.33 7 73.1 107 
 BAR2 SZ EP   1    9 0 16.15                             142    0.33 7 80.8  47 
 BAR2 SZ ES   1    9 0 30.62                             142    0.17 7 80.8  47 
 BAR2 SZ I         9 0 32.20        10.5 0.36                          80.8  47 
 PTB  HZ EP   1    9 0 16.56                             136   -0.16 7 96.0 301 
 PTB  HN ES   1    9 0 31.64                             136   -0.42 7 96.0 301 
 PTB  HZ I         9 0 33.82         3.4 0.10                          96.0 301 
 BRR  HZ EP   1    9 0 18.25                             131    0.11 7  112   0 
 BRR  HN ES   1    9 0 35.25                             131    0.67 7  112   0 
 BRR  HZ I         9 0 45.36         2.8 0.42                           112   0 
 ZAR  HZ EP   1    9 0 26.71                             115   -0.47 6  200 321 
 ZAR  HE ES   1    9 0 49.80                             115   -0.86 6  200 321 
 ZAR  HZ I         9 0 52.94         3.4 0.16                           200 321 
 HEL  HZ EP   1    9 0 27.95                             115    0.19 6  201 273 
 HEL  HN ES   1    9 0 52.55                             115    0.85 6  201 273 
 HEL  HZ I         9 0 55.76         3.1 0.28                           201 273 
                                                                                
