 2015  827 0227 34.3 L   6.794 -73.079148.3  RSN  6 0.2 1.4LRSN                1
 GAP=145        0.57       2.5     4.0  5.2 -0.8729E+00 -0.1578E+00 -0.1722E+01E
 Epicentro: LOS SANTOS - SANTANDER                                             3
 ACTION:UPD 15-09-15 23:05 OP:cam  STATUS:               ID:20150827022734 L   I
 OLDACT:REG 15-08-27 12:35 OP:spq  STATUS:               ID:20150827021747     3
 2015-08-27-0217-47M.COL___355                                                 6
 STAT SP IPHASW D HRMM SECON CODA AMPLIT PERI AZIMU VELO AIN AR TRES W  DIS CAZ7
 BAR2 EZ EP        227 54.07                             170   -0.1710 25.1 207 
 BAR2 EZ ES   1    228 10.07                             170    0.25 7 25.1 207 
 BAR2 EZ I         228 11.76         5.5 0.24            171           25.1 207 
 PAM  EZ EP     D  227 56.95                             152    0.4210 73.4  35 
 PAM  EN ES   1    228 13.53                             152   -0.36 7 73.4  35 
 PAM  EZ I         228 16.28         2.7 0.40            154           73.4  35 
 BRR  HZ EP        227 55.86                             151   -0.2310 78.0 296 
 BRR  HN ES        228 13.23                             151    0.1210 78.0 296 
 BRR  HZ I         228 16.68         3.7 0.40            150           78.0 296 
 RUS  HZ EP   1    227 58.28                             145    0.07 7 99.7 180 
 RUS  HE ES        228 16.80                             145   -0.0810 99.7 180 
 RUS  HZ I         228 17.87         2.7 0.32            148           99.7 180 
 SPBC HE ES        228 26.03                             129   -0.03 9  167 221 
 SPBC HZ I         228 27.68         4.5 0.24            131            167 221 
 SML  HE ES   1    228 40.38                             118   -0.06 6  247 334 
 SML  HZ I         228 43.40         2.4 0.34            119            247 334 
                                                                                
