 2011  627 0915  7.4 L   6.755 -73.102147.8  RSN 10 0.4 2.5LRSN                1
 GAP=161        0.89       5.2     7.8  5.4 -0.2608E+02  0.2070E+01  0.2436E+01E
 Epicentro: LOS SANTOS - SANTANDER                                             3
 ACTION:UP  11-07-14 19:08 OP:ep   STATUS:               ID:20110627091507 L   I
 2011-06-27-0913-33S.COL___140                                                 6
 STAT SP IPHASW D HRMM SECON CODA AMPLIT PERI AZIMU VELO SNR AR TRES W  DIS CAZ7
 BAR2 SZ IP        915 27.29                             172     0.110   20 206 
 BAR2 SZ ES   1    915 41.97                             172    -0.7 7   20 206 
 BAR2 SZ I         915 45.28        43.6 0.42                            20 206 
 BTL  SZ IP        915 27.51                             170     0.210   26 315 
 BTL  SZ ES   1    915 43.03                             170     0.2 7   26 315 
 GIR2 SZ IP        915 27.41                             165    -0.110   37 344 
 GIR2 SZ ES   1    915 42.85                             165    -0.3 7   37 344 
 BRR  HZ IP     C  915 29.10                             151     0.010   78 300 
 BRR  HZ I         915 29.42        71.9 0.16                            78 300 
 BRR  HN ES   1    915 46.64                             151     0.5 7   78 300 
 RUS  HN ES   2    915 49.24                             146    -0.1 5   95 179 
 BRI  SZ EP        915 31.79                             141     0.110  112  18 
 BRI  SZ ES   1    915 51.31                             141     0.6 7  112  18 
 GRA  SZ IP        915 33.06                             137     0.010  129  15 
 GRA  SZ I         915 34.20        31.2 0.33                           129  15 
 GRA  SZ ES   1    915 53.18                             137     0.0 7  129  15 
 OCA  SZ EP        915 35.73                             129    -0.6 9  166 352 
 OCA  SZ I         916  4.06        24.0 0.20                           166 352 
 NOR  SZ EP        915 43.23                             119    -0.1 8  236 236 
 NOR  SN ES   1    916 11.11                             119    -0.3 6  236 236 
 PRA  HZ EP        916  1.25                             107     0.5 6  390 211 
 PRA  HN ES   2    916 44.00                             107     1.6 3  390 211 
 PRA  HZ I         916 45.00        14.3 0.42                           390 211 
                                                                                
