 2011  527 0648 40.1 L   6.657 -72.908 41.7  RSN  6 0.2 1.8LRSN                1
 GAP=187        0.51       2.4    15.2 15.9  0.9689E+00 -0.2285E+03 -0.3617E+01E
 Epicentro: MOLAGAVITA - SANTANDER                                             3
 ACTION:UP  11-06-29 08:56 OP:tino STATUS:               ID:20110527064840 L   I
 2011-05-27-0640-00M.COL___116                                                 6
 STAT SP IPHASW D HRMM SECON CODA AMPLIT PERI AZIMU VELO SNR AR TRES W  DIS CAZ7
 BAR2 SZ EP   1    648 47.95                             136    -0.3 7   31 257 
 BAR2 SZ ES   1    648 54.67                             136     0.1 7   31 257 
 BAR2 SZ I         648 55.67       113.5 0.38                            31 257 
 BTL  SZ EP   1    648 50.30                             119     0.3 7   49 306 
 GIR2 SZ EP        648 50.41                             114    -0.210   56 326 
 GIR2 SZ ES   2    648 58.80                             114     0.0 5   56 326 
 RUS  HZ EP   1    648 54.65                             100     0.0 7   87 193 
 RUS  HN ES   2    649  6.07                             100     0.1 5   87 193 
 RUS  HZ I         649  9.00        10.8 0.22                            87 193 
 BRI  SZ EP   1    648 58.16                              94     0.1 7  118   6 
 BRI  SZ I         649 19.46        16.9 0.44                           118   6 
 GRA  SZ EP   1    649  0.52                              92     0.2 7  136   5 
 GRA  SZ I         649 22.19        13.7 0.38                           136   5 
                                                                                
