 2015 1027 0158 28.0 L   6.786 -73.139148.0  RSN 11 0.4 1.9LRSN                1
 GAP=138        1.05       3.3     5.1  6.5 -0.8764E+00  0.1156E+02 -0.1327E+01E
 Epicentro: LOS SANTOS - SANTANDER                                             3
 ACTION:UPD 15-12-22 20:43 OP:cam  STATUS:               ID:20151027015828 L   I
 OLDACT:REG 15-10-27 12:25 OP:mh   STATUS:               ID:20151027015735     3
 2015-10-27-0157-35M.COL___310                                                 6
 STAT SP IPHASW D HRMM SECON CODA AMPLIT PERI AZIMU VELO AIN AR TRES W  DIS CAZ7
 BAR2 EZ EP        158 47.87                             171    0.0110 21.9 193 
 BAR2 EZ ES        159  3.06                             171   -0.3010 21.9 193 
 BAR2 EZ I         159  3.85        17.0 0.26            169           21.9 193 
 BRR  HZ EP        158 49.78                             152    0.3210 72.7 299 
 BRR  HN ES        159  6.48                             152    0.2710 72.7 299 
 BRR  HZ I         159 12.78         9.4 0.12            149           72.7 299 
 PAM  EZ EP     D  158 50.73                             151    0.2510 78.1  38 
 PAM  EN ES        159  7.79                             151   -0.2410 78.1  38 
 PAM  EZ I         159  9.84         8.8 0.46            156           78.1  38 
 RUS  HZ EP   1    158 51.89                             145    0.05 7 99.0 176 
 RUS  HN ES        159 10.00                             145   -0.4510 99.0 176 
 RUS  HZ I         159 10.97         5.9 0.44            148           99.0 176 
 SPBC HZ EP        158 56.88                             130    0.29 9  162 220 
 SPBC HN ES   1    159 19.32                             130    0.42 7  162 220 
 SPBC HZ I         159 20.78        11.5 0.20            131            162 220 
 OCA  HN ES        159 19.97                             130    1.00 9  162 353 
 OCA  HZ I         159 21.78        29.2 0.22            132            162 353 
 ZAR  HZ EP   1    159  0.33                             123   -0.39 6  205 292 
 ZAR  HN ES        159 25.78                             123   -0.46 8  205 292 
 ZAR  HZ I         159 32.60         7.7 0.44            123            205 292 
 NOR  HZ EP        159  3.99                             119    0.17 8  234 235 
 NOR  HN ES   1    159 32.09                             119    0.32 6  234 235 
 NOR  HZ I         159 39.49         4.7 0.16            120            234 235 
 SML  HZ EP        159  4.24                             118   -0.69 8  245 335 
 SML  HN ES        159 33.00                             118   -0.74 8  245 335 
 SML  HZ I         159 35.96        16.2 0.10            119            245 335 
 URE  HN ES   4    159 40.58                             114   -0.97 0  285 292 
 GUY2CHZ EP   4    159 13.02                             113    1.35 0  301 235 
 GUY2CHN ES   4    159 48.23                             113    2.49 0  301 235 
 GUY2CHZ I         159 52.91         2.2 0.42                           301 235 
 SJC  HZ EP   4    159 21.76                             106   -2.07 0  411 327 
 SJC  HN ES   4    2 0  3.18                             106   -4.20 0  411 327 
 SJC  HZ I         2 0  7.34         1.6 0.42            107            411 327 
                                                                                
