 2010 1227 0648 44.3 L   6.780 -73.056153.4  RSN  5 0.2 1.7LRSN                1
 GAP=192        0.41       2.4     3.6  4.7 -0.2571E+01  0.6159E+01 -0.3909E+01E
 Epicentro: LOS SANTOS - SANTANDER                                             3
 ACTION:UP  11-01-14 15:27 OP:pat  STATUS:               ID:20101227064844 L   I
 2010-12-27-0640-00M.COL___132                                                 6
 STAT SP IPHASW D HRMM SECON CODA AMPLIT PERI AZIMU VELO SNR AR TRES W  DIS CAZ7
 BAR2 SZ EP        649  4.98                             170     0.110   25 214 
 BAR2 SZ ES   1    649 20.99                             170     0.0 7   25 214 
 RUS  HZ EP   1    649  8.87                             146     0.2 7   98 182 
 RUS  HZ I         649  9.66         3.8 0.23                            98 182 
 RUS  HN ES   1    649 27.58                             146    -0.1 7   98 182 
 OCA  SZ EP        649 13.41                             131    -0.2 9  164 350 
 OCA  SZ ES   1    649 36.52                             131     0.1 7  164 350 
 OCA  SZ I         649 39.55         8.4 0.14                           164 350 
 NOR  SN ES   1    649 49.81                             119    -0.3 6  242 236 
 HEL  HZ EP   2    649 26.16                             115     0.2 4  281 257 
 HEL  HN ES   1    649 58.61                             115     0.2 6  281 257 
 HEL  HZ I         650  3.88         4.0 0.41                           281 257 
                                                                                
