 2010  927 0512 16.7 L   6.805 -73.100139.0  RSN 10 0.5 2.4LRSN                1
 GAP=164        1.10       4.2     6.6  7.1 -0.8262E+01  0.3643E+01  0.3387E+01E
 Epicentro: LOS SANTOS - SANTANDER                                             3
 ACTION:UP  11-02-18 11:05 OP:tino STATUS:               ID:20100927051216 L   I
 2010-09-27-0508-01S.COL___121                                                 6
 STAT SP IPHASW D HRMM SECON CODA AMPLIT PERI AZIMU VELO SNR AR TRES W  DIS CAZ7
 BAR2 SZ EP        512 35.50                             169    -0.110   25 201 
 BAR2 SZ ES   1    512 49.90                             169    -0.4 7   25 201 
 BAR2 SZ I         512 53.95        42.8 0.32                            25 201 
 BRR  HZ EP        512 37.10                             150    -0.310   76 296 
 BRR  HN ES        512 53.97                             150     0.410   76 296 
 BRR  HZ I         512 56.34        47.3 0.08                            76 296 
 RUS  HZ EP        512 40.00                             142     0.210  101 179 
 RUS  HN ES   1    512 58.27                             142     0.4 7  101 179 
 RUS  HZ I         513  0.32        40.2 0.22                           101 179 
 GUE  SZ EP   1    512 40.46                             139    -0.2 7  115  10 
 GRA  SZ EP        512 41.17                             136     0.010  124  15 
 GRA  SZ ES   1    513  0.69                             136     0.4 7  124  15 
 GRA  SZ I         513  2.03        50.8 0.42                           124  15 
 OCA  SZ EP        512 43.96                             128    -0.6 9  160 351 
 OCA  SZ I         513 10.15        32.5 0.11                           160 351 
 NOR  SZ EP   1    512 52.18                             117    -0.4 6  239 235 
 NOR  SN ES   2    513 18.86                             117    -1.7 4  239 235 
 CHI  HZ EP        512 54.18                             116    -0.1 8  251 196 
 CHI  HN ES   1    513 23.75                             116     0.2 6  251 196 
 CHI  HZ I         513 27.07        16.8 0.06                           251 196 
 HEL  HZ EP   1    512 57.81                             113     0.6 6  277 256 
 HEL  HN ES   1    513 28.64                             113    -0.1 6  277 256 
 HEL  HZ I         513 34.48        11.9 0.70                           277 256 
 RREF HZ EP        513  4.08                             109     1.0 7  326 230 
 RREF HN ES   2    513 38.99                             109    -0.2 3  326 230 
 RREF HZ I         513 47.99        16.5 0.75                           326 230 
                                                                                
