 2015 1227 0756 57.9 L   6.599 -73.526 95.3  RSN  6 0.3 1.1LRSN                1
 GAP=105        0.43       3.2     4.0  6.6 -0.1282E+01  0.1870E+02 -0.3910E+01E
 Epicentro: EL CARMEN - SANTANDER                                              3
 ACTION:UPD 16-02-04 15:08 OP:cam  STATUS:               ID:20151227075657 L   I
 OLDACT:UP  15-12-27 17:05 OP:dnl  STATUS:               ID:20151227074752d    3
 OLDACT:DUP 15-12-27 16:57 OP:dnl  STATUS:               ID:20151227074752d    3
 OLDACT:DUP 15-12-27 16:47 OP:dnl  STATUS:               ID:20151227074751d    3
 2015-12-27-0747-50M.COL___334                                                 6
 STAT SP IPHASW D HRMM SECON CODA AMPLIT PERI AZIMU VELO AIN AR TRES W  DIS CAZ7
 BAR2 EZ EP   2    757 11.66                             157   -0.39 5 38.0  91 
 BAR2 EZ ES        757 23.16                             157    0.0410 38.0  91 
 BAR2 EZ I         757 25.90         4.4 0.19            168           38.0  91 
 RUS  HZ EP   4    757 14.94                             133   -1.37 0 92.2 148 
 RUS  HE ES   2    757 30.66                             133   -0.04 5 92.2 148 
 RUS  HZ I         757 31.71         1.6 0.19            146           92.2 148 
 PTB  HZ EP   2    757 16.57                             129   -0.12 5  103 266 
 PTB  HN ES   2    757 31.36                             129   -0.01 5  103 266 
 PTB  HZ I         757 37.56         1.8 0.10            129            103 266 
 SPBC HZ EP   2    757 19.09                             124    0.55 5  121 210 
 SPBC HN ES   2    757 34.62                             124   -0.05 5  121 210 
 SPBC HZ I         757 36.35         4.5 0.09            129            121 210 
 ZAR  HZ EP   2    757 24.16                             114   -0.38 4  177 304 
 ZAR  HE ES   4    757 47.06                             114    1.70 0  177 304 
 ZAR  HZ I         757 53.03         1.6 0.15            115            177 304 
 SML  HZ EP   4    757 31.20                             106   -1.88 0  251 346 
 SML  HE ES   2    758  0.94                             106    0.40 4  251 346 
 SML  HZ I         758  6.06         2.6 0.09            107            251 346 
                                                                                
