 2010 1127 0840 30.0 L   6.811 -73.128148.0  RSN  7 0.2 1.7LRSN                1
 GAP=160        0.43       2.2     4.1  5.1 -0.2449E+01 -0.3134E+01  0.1663E+01E
 Epicentro: LOS SANTOS - SANTANDER                                             3
 ACTION:UP  10-12-17 16:55 OP:REBC STATUS:               ID:20101127084030 L   I
 2010-11-27-0839-34S.COL___132                                                 6
 STAT SP IPHASW D HRMM SECON CODA AMPLIT PERI AZIMU VELO SNR AR TRES W  DIS CAZ7
 BTL  SZ EP   1    840 49.82                             172     0.0 7   20 308 
 BAR2 SZ IP        840 49.86                             170    -0.110   25 194 
 BAR2 SZ I         841  7.40         9.8 0.00                            25 194 
 BRR  HZ EP   1    840 51.53                             153     0.0 7   72 297 
 BRR  HN ES   1    841  8.40                             153     0.2 7   72 297 
 BRR  HZ I         841 10.69        10.7 0.27                            72 297 
 RUS  HZ EP   1    840 53.97                             144    -0.1 7  102 177 
 RUS  HE ES   1    841 13.02                             144     0.2 7  102 177 
 RUS  HZ I         841 14.34         8.9 0.16                           102 177 
 GRA  SZ IP        840 55.42                             138     0.110  124  17 
 GRA  SZ ES   1    841 14.94                             138    -0.1 7  124  17 
 GRA  SZ I         841 16.16         7.3 0.25                           124  17 
 CHI  HZ EP   2    841  8.64                             117     0.6 4  250 196 
 CHI  HN ES   1    841 37.49                             117    -0.2 6  250 196 
 CHI  HZ I         841 46.23         2.2 1.08                           250 196 
 HEL  HN ES   2    841 41.95                             115    -0.3 4  274 256 
                                                                                
