 2010  527 0102 41.5 L   6.804 -73.151124.0  RSN  5 0.6 1.4LRSN                1
 GAP=176        1.21       6.7    32.9 12.3 -0.1408E+03  0.1311E+03 -0.1582E+02E
 Epicentro: LOS SANTOS - SANTANDER                                             3
 ACTION:UP  10-08-24 10:07 OP:vdl  STATUS:               ID:20100527010241 L   I
 2010-05-27-0059-16S.COL___108                                                 6
 STAT SP IPHASW D HRMM SECON CODA AMPLIT PERI AZIMU VELO SNR AR TRES W  DIS CAZ7
 BAR2 SZ EP   1    1 2 58.11                             168    -0.4 7   24 189 
 BAR2 SZ ES   1    1 3 11.26                             168    -0.5 7   24 189 
 GIR2 SZ EP        1 2 58.52                             165     0.010   31 351 
 GUE  SZ EP        1 3  4.32                             134     0.110  116  12 
 GUE  SZ ES   1    1 3 22.68                             134     0.7 7  116  12 
 OCA  SZ EP        1 3  7.93                             124    -0.2 9  160 353 
 OCA  SZ ES   1    1 3 29.00                             124     0.1 7  160 353 
 CHI  HZ EP   1    1 3 17.11                             112    -1.0 6  249 195 
 CHI  HN ES   1    1 3 48.17                             112     1.5 6  249 195 
 CHI  HZ I         1 3 50.91         2.0 0.16                           249 195 
                                                                                
