 2017 1127 0907 11.4 L   6.869 -73.140140.5  RSN 22 0.8 2.2LRSN                1
 GAP= 65        1.66       3.2     3.9  7.3 -0.8360E+00  0.9048E+01 -0.6111E+00E
 Epicentro: LOS SANTOS - SANTANDER                                             3
 ACTION:UPD 17-12-12 20:01 OP:rebc STATUS:               ID:20171127090711 L   I
 OLDACT:UP  17-11-27 17:51 OP:dhb  STATUS:               ID:20171127085749d    3
 OLDACT:DUP 17-11-27 17:43 OP:dhb  STATUS:               ID:20171127085749d    3
 2017-11-27-0858-00M.COL___477                                                 6
 STAT SP IPHASW D HRMM SECON CODA AMPLIT PERI AZIMU VELO AIN AR TRES W  DIS CAZ7
 BAR2 EZ IP     D  9 7 30.62                             167    0.0610 31.0 189 
 BAR2 EZ ES        9 7 45.26                             167   -0.2610 31.0 189 
 BAR2 EZ I         9 7 47.46        47.2 0.32            167           31.0 189 
 PAM  EZ IP     D  9 7 33.43                             152    0.7610 71.2  43 
 PAM  EE ES        9 7 50.25                             152    0.9810 71.2  43 
 PAM  EZ I         9 7 52.29        33.6 0.48            156           71.2  43 
 RUS  HZ EP        9 7 34.65                             140   -0.5410  108 177 
 RUS  HN ES        9 7 53.34                             140   -0.4210  108 177 
 PTB  HZ EP        9 7 37.38                             130   -0.75 9  150 256 
 PTB  HN ES        9 7 58.29                             130   -0.71 9  150 256 
 PTB  HZ I         9 8  3.84        19.7 0.30            131            150 256 
 OCA  HZ EP        9 7 38.52                             130   -0.05 9  153 353 
 OCA  HE ES        9 7 60.00                             130    0.22 9  153 353 
 OCA  HZ I         9 8  4.75        47.8 0.26            132            153 353 
 TAM  HZ IP     D  9 7 39.10                             129    0.31 9  157 108 
 TAM  HE ES        9 7 59.88                             129   -0.29 9  157 108 
 TAM  HZ I         9 8  0.81        10.7 0.46            133            157 108 
 SPBC HZ EP        9 7 39.70                             127   -0.40 9  170 218 
 SPBC HE ES        9 8  2.05                             127   -0.45 9  170 218 
 SPBC HZ I         9 8  9.78        26.6 0.24            128            170 218 
 YPLC HZ IP     D  9 7 41.35                             124   -0.10 9  183 153 
 YPLC HN ES        9 8  5.12                             124    0.23 9  183 153 
 YPLC HZ I         9 8  8.02        11.6 0.28            127            183 153 
 ZAR  HZ EP        9 7 43.32                             121    0.06 9  202 290 
 ZAR  HN ES        9 8  7.49                             121   -0.63 9  202 290 
 ZAR  HZ I         9 8 14.17        21.8 0.22            122            202 290 
 NOR  HZ EP        9 7 46.95                             117   -0.41 8  240 233 
 NOR  HN ES        9 8 16.41                             117    1.00 8  240 233 
 NOR  HZ I         9 8 19.03        11.4 0.24            118            240 233 
 CHI  HZ EP        9 7 49.52                             115   -0.10 8  256 195 
 CHI  HE ES        9 8 19.48                             115    0.03 8  256 195 
 CHI  HZ I         9 8 26.79         4.7 0.28            117            256 195 
 HEL  HZ EP        9 7 52.16                             113    0.54 8  275 254 
 HEL  HE ES        9 8 24.89                             113    1.89 8  275 254 
 HEL  HZ I         9 8 29.97         9.4 0.38            115            275 254 
 DRL03HZ EP        9 7 53.81                             113    1.92 7  281 352 
 DRL03HE ES        9 8 22.88                             113   -0.61 7  281 352 
 URE  HZ EP        9 7 50.69                             113   -1.26 7  282 290 
 URE  HE ES        9 8 22.48                             113   -1.12 7  282 290 
 URE  HZ I         9 8 30.71        10.5 0.32            114            282 290 
 GUY2CHZ EP        9 7 56.46                             111    1.14 7  306 234 
 GUY2CHE ES        9 8 30.22                             111    0.63 7  306 234 
 GUY2CHZ I         9 8 39.11         6.1 0.34                           306 234 
 PTGC HZ EP        9 7 54.14                             110   -1.66 7  316 159 
 PTGC HE ES   3    9 8 27.76                             110   -2.68 2  316 159 
 PTGC HZ I         9 8 30.25         6.1 0.38            112            316 159 
 LL6C HZ EP        9 7 55.81                             110   -0.17 7  317 357 
 LL6C HE ES        9 8 31.58                             110    0.81 7  317 357 
 LL6C HZ I         9 8 41.16         9.0 0.74            112            317 357 
 ELA  HZ EP        9 7 59.80                             109    1.15 7  335 229 
 ELA  HE ES        9 8 36.07                             109    0.56 7  335 229 
 ELA  HZ I         9 8 47.26         5.7 0.28            110            335 229 
 CBOC HZ EP        9 7 58.48                             109    0.05 7  337 251 
 CBOC HE ES        9 8 34.10                             109   -1.03 7  337 251 
 CBOC HZ I         9 8 46.85         3.4 0.60            110            337 251 
 PRA  HZ EP        9 8  5.05                             105   -0.50 6  399 209 
 PRA  HE ES        9 8 48.23                             105    0.44 6  399 209 
 PRA  HZ I         9 8 52.62         8.1 0.68            107            399 209 
 ORTC HZ EP        9 8  5.92                             105    0.02 6  402 216 
 ORTC HN ES        9 8 49.86                             105    1.44 6  402 216 
 ORTC HZ I         9 8 53.48         5.0 0.52            107            402 216 
 SJC  HZ EP        9 8  4.86                             105   -1.20 6  403 326 
 SJC  HN ES        9 8 47.78                             105   -0.93 6  403 326 
 SJC  HZ I         9 8 49.92         4.4 0.58            107            403 326 
                                                                                
