 2010  727 0101 46.8 L   6.810 -73.040138.8  RSN  6 0.3 1.7LRSN                1
 GAP=170        0.78       4.2     8.6  7.8 -0.2316E+01 -0.1803E+02 -0.9890E+01E
 Epicentro: CEPITA - SANTANDER                                                 3
 ACTION:UPD 10-12-01 15:20 OP:pat  STATUS:               ID:20100727010146 L   I
 2010-07-27-0058-16S.COL___123                                                 6
 STAT SP IPHASW D HRMM SECON CODA AMPLIT PERI AZIMU VELO AIN AR TRES W  DIS CAZ7
 BAR2 SZ EP        1 2  5.75                             168     0.110   29 213 
 BAR2 SZ ES   1    1 2 20.08                             168    -0.4 7   29 213 
 BRR  HZ IP     C  1 2  7.55                             148    -0.210   81 294 
 BRR  HZ I         1 2  7.91        23.8 0.07                            81 294 
 BRR  HE ES   1    1 2 24.52                             148     0.4 7   81 294 
 RUS  HZ EP   1    1 2 10.05                             142     0.1 7  102 183 
 RUS  HN ES   1    1 2 27.97                             142     0.0 7  102 183 
 RUS  HZ I         1 2 29.46         3.9 0.26                           102 183 
 GUE  SZ EP   1    1 2 10.18                             138    -0.4 7  113   6 
 GRA  SZ EP        1 2 11.52                             136     0.510  122  12 
 GRA  SZ ES   1    1 2 29.98                             136     0.0 7  122  12 
 GRA  SZ I         1 2 32.20         6.6 0.65                           122  12 
 OCA  SZ EP   1    1 2 14.25                             128    -0.3 7  161 349 
 OCA  SZ I         1 2 39.55         6.8 0.43                           161 349 
                                                                                
