 2014  727 0841 20.3 L   6.834 -73.166145.5  RSN  9 0.3 1.9LRSN                1
 GAP=132        0.81       2.6     4.4  5.7 -0.3594E+01  0.1111E+02 -0.4095E+01E
 Epicentro: LOS SANTOS - SANTANDER                                             3
 ACTION:UPD 15-03-16 20:47 OP:nd   STATUS:               ID:20140727084120 L   I
 OLDACT:UP  14-07-27 16:49 OP:mh   STATUS:               ID:20140727083807d    3
 OLDACT:DUP 14-07-27 16:49 OP:mh   STATUS:               ID:20140727083807d    3
 2014-07-27-0838-06M.COL___260                                                 6
 STAT SP IPHASW D HRMM SECON CODA AMPLIT PERI AZIMU VELO AIN AR TRES W  DIS CAZ7
 BAR2 SZ EP        841 39.77                             169   -0.2410 26.8 184 
 BAR2 SZ ES        841 55.13                             169   -0.2310 26.8 184 
 BAR2 SZ I         841 56.77        19.6 0.22            169           26.8 184 
 PAM  SZ EP        841 43.12                             151    0.6810 76.0  43 
 PAM  SN ES        841 59.80                             151    0.1210 76.0  43 
 PAM  SZ I         842  2.76         8.1 0.15            156           76.0  43 
 RUS  HZ EP        841 44.25                             143   -0.1010  105 175 
 RUS  HN ES        842  3.09                             143    0.0110  105 175 
 RUS  HZ I         842  5.15         6.6 0.23            146            105 175 
 PTB  HZ EP   4    841 45.83                             132   -1.33 0  146 257 
 PTB  HN ES   1    842  8.08                             132   -0.00 7  146 257 
 PTB  HZ I         842 11.31         9.1 0.46            132            146 257 
 OCA  HZ EP        841 47.67                             130   -0.58 9  156 354 
 OCA  HN ES        842  9.99                             130   -0.04 9  156 354 
 OCA  HZ I         842 14.89         9.5 0.12            133            156 354 
 SPBC HZ EP   1    841 49.44                             129    0.47 7  165 218 
 SPBC HN ES   1    842 11.00                             129   -0.30 7  165 218 
 SPBC HZ I         842 19.86                             130            165 218 
 NOR  HN ES        842 24.48                             118    0.49 8  235 233 
 SML  HZ EP        841 56.28                             118   -0.19 8  239 335 
 SML  HN ES        842 24.96                             118    0.30 8  239 335 
 SML  HZ I         842 28.63        13.0 0.06            120            239 335 
 HEL  HZ EP        842  0.12                             115   -0.28 8  271 255 
 HEL  HN ES   4    842 35.41                             115    3.75 0  271 255 
 HEL  HZ I         842 38.62         3.8 0.35            116            271 255 
 GUY2CHN ES   4    842 39.78                             112    1.76 0  302 234 
                                                                                
