 2013 1127 0749 15.3 L   6.749 -73.141143.9  RSN  4 0.3 1.6LRSN                1
 GAP=158        0.83       8.4     5.1  6.7 -0.2108E+02  0.3086E+01  0.5051E+01E
 Epicentro: LOS SANTOS - SANTANDER                                             3
 ACTION:UPD 14-01-09 16:31 OP:ep   STATUS:               ID:20131127074915 L   I
 OLDACT:REG 13-11-27 08:22 OP:stll STATUS:               ID:20131127074806     3
 2013-11-27-0748-06M.COL___231                                                 6
 STAT SP IPHASW D HRMM SECON CODA AMPLIT PERI AZIMU VELO AIN AR TRES W  DIS CAZ7
 BAR2 SZ EP        749 34.73                             173    0.1510 18.0 195 
 BAR2 SZ ES        749 49.76                             173    0.1210 18.0 195 
 BAR2 SZ I         749 51.31        16.4 0.18            169           18.0 195 
 BRR  HZ EP        749 36.64                             151    0.2310 74.4 302 
 BRR  HN ES        749 53.31                             151    0.4210 74.4 302 
 BRR  HZ I         749 54.10         5.7 0.12            150           74.4 302 
 PAM  SZ EP        749 37.69                             149    0.1510 81.5  37 
 PAM  SZ I         749 37.87         9.1 0.18            153           81.5  37 
 PAM  SN ES        749 54.40                             149   -0.5110 81.5  37 
 PTB  HZ EP        749 41.84                             132   -0.20 9  147 261 
 PTB  HN ES        750  2.48                             132   -0.44 9  147 261 
 PTB  HZ I         750  9.42         2.4 0.16            130            147 261 
                                                                                
