 2012  527 0511  8.6 L   6.813 -73.152142.5  RSN 11 0.3 2.3LRSN                1
 GAP=181        0.70       2.4     3.6  4.5 -0.7098E+00  0.4694E+01 -0.2356E+00E
 Epicentro: LOS SANTOS - SANTANDER                                             3
 ACTION:UP  12-07-05 12:08 OP:pat  STATUS:               ID:20120527051108 L   I
 2012-05-27-0510-00M.COL___198                                                 6
 STAT SP IPHASW D HRMM SECON CODA AMPLIT PERI AZIMU VELO SNR AR TRES W  DIS CAZ7
 BAR2 SZ EP        511 28.17                             170     0.310   25 188 
 BAR2 SZ ES        511 42.98                             170     0.110   25 188 
 BAR2 SZ I         511 44.49        41.0 0.23                            25 188 
 RUS  HZ EP        511 32.05                             143    -0.110  102 176 
 RUS  HE ES   1    511 50.19                             143    -0.3 7  102 176 
 RUS  HZ I         511 52.25        18.0 0.32                           102 176 
 PTB  HZ EP   1    511 35.09                             131    -0.2 7  147 258 
 PTB  HE ES   1    511 55.65                             131    -0.4 7  147 258 
 PTB  HZ I         512  1.64        18.4 0.29                           147 258 
 OCA  HZ EP   1    511 36.73                             129     0.2 7  159 353 
 OCA  HN ES   1    511 58.45                             129     0.2 7  159 353 
 OCA  HZ I         512  3.71        45.7 0.51                           159 353 
 ZAR  HZ EP   1    511 40.61                             122    -0.1 6  203 292 
 ZAR  HN ES   1    512  5.62                             122    -0.1 6  203 292 
 ZAR  HZ I         512 12.55        21.5 0.47                           203 292 
 NOR  SZ EP   1    511 43.96                             118    -0.2 6  235 234 
 NOR  SE ES   1    512 12.28                             118     0.4 6  235 234 
 CHI  HZ EP        511 46.31                             116     0.1 8  250 195 
 CHI  HZ I         511 47.13        10.4 0.16                           250 195 
 CHI  HN ES   1    512 15.63                             116     0.0 6  250 195 
 HEL  HZ EP   1    511 49.20                             114     0.6 6  272 255 
 HEL  HE ES   1    512 19.79                             114     0.0 6  272 255 
 HEL  HZ I         512 27.31        14.2 0.37                           272 255 
 RREF HZ EP   1    511 55.48                             110     0.8 5  322 229 
 RREF HN ES   1    512 30.44                             110    -0.1 5  322 229 
 RREF HZ I         512 40.84        10.9 0.28                           322 229 
 COD  HZ EP   1    511 56.38                             108    -0.3 5  347 355 
 COD  HZ I         512  8.46        10.6 0.78                           347 355 
 COD  HN ES   1    512 33.69                             108    -0.5 5  347 355 
 PRA  HZ EP        512  1.31                             106    -0.8 6  393 209 
 PRA  HN ES   1    512 43.96                             106     0.1 4  393 209 
                                                                                
