 2016  127 0501  0.7 L   6.829 -73.149146.8  RSN 30 0.5 2.6LRSN                1
 GAP= 53        1.11       2.2     2.6  4.6 -0.1210E+01  0.2995E+01 -0.3897E+00E
 Epicentro: LOS SANTOS - SANTANDER                                             3
 ACTION:UPD 16-03-09 23:28 OP:cam  STATUS:               ID:20160127050100 L   I
 OLDACT:REG 16-01-27 16:01 OP:ak   STATUS:               ID:20160127045748     3
 2016-01-27-0457-48M.COL___328                                                 6
 STAT SP IPHASW D HRMM SECON CODA AMPLIT PERI AZIMU VELO AIN AR TRES W  DIS CAZ7
 BAR2 EZ EP        5 1 20.71                             169    0.1510 26.4 188 
 BAR2 EZ ES        5 1 35.31                             169   -0.7210 26.4 188 
 BAR2 EZ I         5 1 36.88       109.2 0.26            171           26.4 188 
 PAM  EZ EP        5 1 23.77                             151    0.8310 75.1  41 
 PAM  EN ES        5 1 40.66                             151    0.4110 75.1  41 
 PAM  EZ I         5 1 43.52        33.6 0.40            152           75.1  41 
 RUS  HZ EP        5 1 24.70                             143   -0.1310  104 176 
 RUS  HN ES        5 1 43.15                             143   -0.4710  104 176 
 RUS  HZ I         5 1 44.46        46.5 0.28            145            104 176 
 PTB  HZ EP        5 1 27.25                             132   -0.58 9  148 258 
 PTB  HN ES        5 1 48.53                             132   -0.42 9  148 258 
 PTB  HZ I         5 1 55.45        51.7 0.22            132            148 258 
 TAM  HZ EP        5 1 29.11                             130    0.50 9  156 106 
 TAM  HZ I         5 1 50.06        17.2 0.34            132            156 106 
 TAM  HE ES        5 1 50.41                             130    0.06 9  156 106 
 OCA  HZ EP        5 1 28.97                             130    0.14 9  157 353 
 OCA  HN ES        5 1 51.43                             130    0.69 9  157 353 
 OCA  HZ I         5 2  0.39        76.4 0.26            130            157 353 
 SPBC HZ EP        5 1 29.56                             129    0.02 9  165 218 
 SPBC HN ES        5 1 52.01                             129    0.01 9  165 218 
 SPBC HZ I         5 1 56.72        69.8 0.12            130            165 218 
 ZAR  HZ EP        5 1 33.38                             123    0.28 9  203 291 
 ZAR  HN ES        5 1 58.40                             123    0.06 9  203 291 
 ZAR  HZ I         5 2  5.13        33.9 0.15            123            203 291 
 NOR  HZ EP        5 1 36.62                             118   -0.08 8  236 234 
 NOR  HN ES        5 2  4.39                             118   -0.37 8  236 234 
 NOR  HZ I         5 2 11.97        28.3 0.18            119            236 234 
 SML  HZ EP        5 1 36.95                             118   -0.15 8  241 335 
 SML  HN ES        5 2  5.30                             118   -0.16 8  241 335 
 SML  HZ I         5 2  9.74        49.3 0.08            118            241 335 
 CHI  HZ EP        5 1 38.94                             117    0.12 8  252 195 
 CHI  HN ES        5 2  8.30                             117   -0.23 8  252 195 
 CHI  HZ I         5 2 10.62        33.2 0.36            118            252 195 
 ROSC BZ EP        5 1 40.37                             116    1.17 8  255 211 
 ROSC BN ES   4    5 2 11.68                             116    2.48 0  255 211 
 ROSC BZ I         5 2 15.44        67.5 0.40            117            255 211 
 HEL  HZ EP        5 1 42.06                             115    1.00 8  273 255 
 HEL  HN ES        5 2 12.98                             115    0.47 8  273 255 
 HEL  HZ I         5 2 18.88        17.8 0.40            115            273 255 
 URE  HZ EP        5 1 40.95                             114   -0.75 7  282 291 
 URE  HN ES   4    5 2 11.84                             114   -1.80 0  282 291 
 URE  HZ I         5 2 22.94        39.4 0.16            114            282 291 
 SOCV BZ EP        5 1 42.71                             112   -0.96 7  300  57 
 SOCV BN ES   4    5 2 14.47                             112   -2.69 0  300  57 
 GUY2CHZ EP        5 1 44.87                             112    0.29 7  303 234 
 GUY2CHN ES        5 2 19.82                             112    1.05 7  303 234 
 GUY2CHZ I         5 2 26.97        19.3 0.34                           303 234 
 VIL  SZ EP        5 1 45.00                             112    0.45 7  306 191 
 VIL  SN ES        5 2 18.60                             112   -0.13 7  306 191 
 PTGC HZ EP   9    5 1 43.40                             111   -1.60 0  312 159 
 PTGC HN ES        5 2 17.59                                   -0.33 7  312 159 
 PTGC HZ I         5 2 20.01        15.7 0.44            112            312 159 
 LL6C HZ EP        5 1 46.09                             111   -0.03 7  322 358 
 LL6C HN ES        5 2 21.39                             111   -0.13 7  322 358 
 LL6C HZ I         5 2 26.71         7.8 0.50            111            322 358 
 CBOC HZ EP        5 1 48.15                             110    0.37 7  334 252 
 CBOC HN ES        5 2 23.76                             110   -0.71 7  334 252 
 DBB  SZ EP        5 1 47.87                             110   -0.33 7  339 274 
 DBB  SZ ES        5 2 24.50                             110   -0.71 7  339 274 
 MON  HZ EP   9    5 1 47.66                             109   -1.87 0  351 308 
 MON  HN ES        5 2 25.89                                    0.18 6  351 308 
 MON  HZ I         5 2 41.53        16.1 0.54            109            351 308 
 ANIL HZ EP   9    5 1 52.03                             108    1.21 0  359 224 
 ANIL HN ES        5 2 31.60                                    0.51 6  359 224 
 ANIL HZ I         5 2 36.23        43.6 0.34            109            359 224 
 SDV  BZ EP        5 1 50.24                             108   -0.37 6  359  51 
 SDV  BN ES   4    5 2 26.57                             108   -2.94 0  359  51 
 SDV  BZ I         5 2 29.64         6.4 0.40            109            359  51 
 PRA  HZ EP        5 1 53.94                             106   -0.67 6  395 209 
 PRA  HN ES        5 2 36.40                             106   -0.22 6  395 209 
 PRA  HZ I         5 2 41.00        20.0 0.52            107            395 209 
 ORTC HZ EP        5 1 54.25                             106   -0.73 6  398 216 
 ORTC HN ES        5 2 37.68                             106    0.40 6  398 216 
 ORTC HZ I         5 2 43.82        10.9 0.50            107            398 216 
 SJC  HZ EP   4    5 1 54.36                             106   -1.64 0  406 327 
 SJC  HN ES   4    5 2 36.19                             106   -2.92 0  406 327 
 SJC  HZ I         5 2 40.06         4.9 0.15            106            406 327 
 PAL  HZ EP        5 1 56.10                             106    0.00 6  407 239 
 PAL  HN ES        5 2 39.38                             106    0.11 6  407 239 
 PAL  HZ I         5 2 44.71         6.5 0.38            106            407 239 
 CRJC HZ EP        5 2  1.20                             103   -1.69 5  464   4 
 CRJC HN ES   4    5 2 47.87                             103   -3.50 0  464   4 
 CRJC HZ I         5 2 53.49         8.4 0.35            104            464   4 
 MACC HZ EP   4    5 2  8.01                             102   -1.84 0  524 189 
 MACC HN ES   4    5 2 59.45                             102   -4.30 0  524 189 
 MACC HZ I         5 3  0.64         4.0 0.09            102            524 189 
                                                                                
