 2015  627 0257 27.0 L   6.825 -73.092151.7  RSN 12 0.3 2.2LRSN                1
 GAP=189        0.74       1.9     4.0  4.1  0.4759E-01  0.3974E+01  0.1040E+01E
 Epicentro: LOS SANTOS - SANTANDER                                             3
 ACTION:UPD 15-09-10 22:15 OP:cam  STATUS:               ID:20150627025727 L   I
 OLDACT:UP  15-06-27 15:34 OP:mh   STATUS:               ID:20150627024747     3
 OLDACT:UP  15-06-27 14:25 OP:mh   STATUS:               ID:20150627024747     3
 OLDACT:UP  15-06-27 14:25 OP:mh   STATUS:               ID:20150627024747     3
 OLDACT:REG 15-06-27 12:43 OP:mh   STATUS:               ID:20150627024747     3
 2015-06-27-0247-47M.COL___322                                                 6
 STAT SP IPHASW D HRMM SECON CODA AMPLIT PERI AZIMU VELO AIN AR TRES W  DIS CAZ7
 BAR2 EZ EP        257 47.68                             169    0.2510 27.6 201 
 BAR2 EZ ES        258  3.19                             169   -0.1810 27.6 201 
 BAR2 EZ I         258  3.96        50.1 0.20            166           27.6 201 
 BRR  HZ EP   1    257 49.47                             152    0.46 7 75.2 294 
 BRR  HN ES        258  6.66                             152    0.4710 75.2 294 
 BRR  HZ I         258  8.91        15.7 0.28            149           75.2 294 
 RUS  HZ EP        257 51.54                             144    0.0310  103 179 
 RUS  HN ES        258 10.28                             144   -0.3610  103 179 
 RUS  HZ I         258 11.52        15.4 0.28            144            103 179 
 OCA  HZ EP        257 55.42                             131   -0.17 9  158 351 
 OCA  HN ES        258 18.22                             131    0.32 9  158 351 
 OCA  HZ I         258 21.65        24.6 0.09            131            158 351 
 ZAR  HZ EP   1    257 59.69                             123   -0.59 6  209 291 
 ZAR  HN ES        258 25.74                             123   -0.52 8  209 291 
 ZAR  HZ I         258 31.38        13.4 0.32            122            209 291 
 NOR  HZ EP        258  3.59                             119   -0.16 8  241 235 
 NOR  HE ES        258 32.24                             119   -0.19 8  241 235 
 NOR  HZ I         258 34.79        12.4 0.28            118            241 235 
 SML  HZ EP        258  3.96                             119    0.01 8  244 334 
 SML  HN ES        258 32.49                             119   -0.30 8  244 334 
 SML  HZ I         258 37.24        13.8 0.10            118            244 334 
 CHI  HZ EP        258  5.23                             118   -0.26 8  253 196 
 CHI  HN ES        258 35.43                             118   -0.09 8  253 196 
 CHI  HZ I         258 45.10         5.7 0.60            117            253 196 
 TOL  SZ EP   1    258 16.20                             110    0.01 5  350 225 
 TOL  SN ES        258 55.18                             110    0.60 6  350 225 
 TOL  SZ I         258 59.90         6.7 0.62            109            350 225 
 PRA  HZ EP   1    258 21.28                             107   -0.06 4  397 210 
 PRA  HE ES        259  3.70                             107   -0.04 6  397 210 
 PRA  HZ I         259  9.66         5.7 0.26            107            397 210 
 ORTC HZ EP        258 22.44                             107    0.65 6  401 217 
 ORTC HN ES        259  5.09                             107    0.56 6  401 217 
 ORTC HZ I         259 10.66         3.1 0.18            107            401 217 
 SJC  HZ EP   4    258 22.04                             107   -0.82 0  410 326 
 SJC  HN ES   4    259  3.11                             107   -3.33 0  410 326 
 SJC  HZ I         259  8.89         2.3 0.62            106            410 326 
                                                                                
