 2016 1127 0347 25.8 L   6.813 -73.179143.3  RSN  5 0.3 1.5LRSN                1
 GAP=139        0.74       4.1     4.0  5.5 -0.4821E+01  0.3055E+00  0.8873E+01E
 Epicentro: ZAPATOCA - SANTANDER                                               3
 ACTION:UPD 17-10-26 21:12 OP:lp   STATUS:               ID:20161127034725 L   I
 OLDACT:REG 16-11-27 12:44 OP:dani STATUS:               ID:20161127033743     3
 2016-11-27-0338-00M.COL___349                                                 6
 STAT SP IPHASW D HRMM SECON CODA AMPLIT PERI AZIMU VELO AIN AR TRES W  DIS CAZ7
 BAR2 EZ EP        347 44.79                             170   -0.3210 24.5 181 
 BAR2 EZ ES        347 59.98                             170   -0.2210 24.5 181 
 BAR2 EZ I         348  7.63         6.2 0.52            167           24.5 181 
 BRR  HZ EP        347 46.71                             153    0.3010 67.2 299 
 BRR  HN ES        348  2.92                             153    0.3910 67.2 299 
 BRR  HZ I         348  7.08         7.9 0.30            156           67.2 299 
 PAM  EZ EP     D  347 47.87                             150    0.0810 78.7  42 
 PAM  EN ES        348  4.94                             150   -0.0310 78.7  42 
 PAM  EZ I         348  6.53         4.6 0.16            159           78.7  42 
 PTB  HZ EP        347 51.78                             132   -0.44 9  144 258 
 PTB  HN ES        348 12.67                             132   -0.19 9  144 258 
 PTB  HZ I         348 20.44         4.3 0.28            135            144 258 
 CHI  HZ EP        348  3.56                             116    0.19 8  249 194 
 CHI  HN ES        348 33.08                             116    0.37 8  249 194 
 CHI  HZ I         348 36.25         1.4 0.22            121            249 194 
                                                                                
