 2017 1127 0323 29.3 L   6.855 -73.151143.7  RSN 37 0.9 2.6LRSN                1
 GAP= 56        1.56       2.5     3.2  6.2 -0.1394E+01  0.5905E+01 -0.1615E+01E
 Epicentro: LOS SANTOS - SANTANDER                                             3
 ACTION:UPD 17-12-12 20:00 OP:rebc STATUS:               ID:20171127032329 L   I
 OLDACT:UP  17-11-27 14:57 OP:dhb  STATUS:               ID:20171127031744     3
 OLDACT:REG 17-11-27 12:12 OP:dhb  STATUS:               ID:20171127031744     3
 2017-11-27-0318-00M.COL___495                                                 6
 STAT SP IPHASW D HRMM SECON CODA AMPLIT PERI AZIMU VELO AIN AR TRES W  DIS CAZ7
 BAR2 EZ IP     C  323 48.85                             168   -0.0110 29.2 187 
 BAR2 EZ ES        324  3.48                             168   -0.6110 29.2 187 
 BAR2 EZ I         324  5.30       174.9 0.18            167           29.2 187 
 PAM  EZ EP        323 51.67                             151    0.5810 73.2  43 
 PAM  EN ES        324  8.70                             151    0.6410 73.2  43 
 PAM  EZ I         324 10.82        65.9 0.48            154           73.2  43 
 RUS  HZ IP     C  323 52.88                             142   -0.4610  107 176 
 RUS  HE ES        324 11.29                             142   -0.7710  107 176 
 RUS  HZ I         324 12.40        68.0 0.26            142            107 176 
 PTB  HZ EP        323 55.72                             131   -0.49 9  149 257 
 PTB  HN ES        324 16.62                             131   -0.55 9  149 257 
 PTB  HZ I         324 23.87        37.4 0.42            131            149 257 
 OCA  HZ EP        323 57.00                             130    0.08 9  154 353 
 OCA  HN ES        324 18.72                             130    0.28 9  154 353 
 OCA  HZ I         324 23.39       157.1 0.26            131            154 353 
 TAM  HZ IP     C  323 57.24                             129    0.18 9  157 107 
 TAM  HN ES        324 18.51                             129   -0.17 9  157 107 
 TAM  HZ I         324 21.76        15.3 0.22            131            157 107 
 SPBC HZ IP     C  323 57.86                             128   -0.24 9  168 218 
 SPBC HE ES        324 20.43                             128   -0.11 9  168 218 
 SPBC HZ I         324 23.14        66.8 0.14            128            168 218 
 YPLC HZ IP     C  323 59.34                             125   -0.20 9  182 152 
 YPLC HE ES        324 23.44                             125    0.35 9  182 152 
 YPLC HZ I         324 24.11        23.8 0.24            126            182 152 
 ZAR  HZ EP        324  1.73                             122    0.36 9  201 291 
 ZAR  HE ES        324 26.97                             122    0.61 9  201 291 
 ZAR  HZ I         324 33.04        64.1 0.38            122            201 291 
 TABC EZ EP        324  7.18                             118    1.68 8  235 210 
 TABC EZ ES        324 33.96                             118    0.26 8  235 210 
 TABC EZ I         324 40.50        57.3 0.68            118            235 210 
 NOR  HZ IP     C  324  5.29                             117    0.00 8  238 233 
 NOR  HN ES        324 32.94                             117   -0.39 8  238 233 
 NOR  HZ I         324 37.92        45.6 0.24            118            238 233 
 CHI  HZ EP        324  7.19                             116   -0.36 8  254 195 
 CHI  HE ES        324 37.34                             116   -0.01 8  254 195 
 CHI  HZ I         324 43.51        30.0 0.52            116            254 195 
 ROSC BZ EP        324  8.75                             116    0.86 8  258 210 
 ROSC BN ES        324 38.95                             116    0.99 8  258 210 
 ROSC BZ I         324 45.69        41.5 0.35            116            258 210 
 HEL  HZ EP        324 10.10                             114    0.54 8  273 255 
 HEL  HE ES        324 40.53                             114   -0.41 8  273 255 
 HEL  HZ I         324 48.05        25.5 0.54            114            273 255 
 URE  HZ EP        324  9.36                             113   -0.65 7  281 291 
 URE  HN ES        324 40.34                             113   -1.39 7  281 291 
 URE  HZ I         324 49.38        26.2 0.16            113            281 291 
 DRL03HZ EP        324 10.63                             113    0.46 7  283 353 
 DRL03HE ES        324 43.52                             113    1.50 7  283 353 
 GUY2CHZ EP        324 13.28                             111    0.08 7  304 234 
 GUY2CHE ES        324 48.45                             111    1.03 7  304 234 
 GUY2CHZ I         324 55.47        26.0 0.56                           304 234 
 VIL  EZ EP        324 12.42                             111   -0.90 7  309 191 
 VIL  EE ES        324 46.38                             111   -1.25 7  309 191 
 VIL  EZ I         324 50.79        29.9 0.36            112            309 191 
 PTGC HZ IP   2 C  324 12.09                             111   -1.68 3  315 159 
 PTGC HE ES   4    324 45.15                             111   -3.27 0  315 159 
 PTGC HZ I         324 52.36        13.1 0.60            111            315 159 
 LL6C HZ EP        324 13.38                             110   -0.88 7  319 358 
 LL6C HE ES        324 50.87                             110    1.57 7  319 358 
 LL6C HZ I         325  2.87        13.9 0.64            111            319 358 
 ELA  HZ EP        324 17.62                             109    1.11 7  333 229 
 ELA  HE ES        324 53.78                             109    0.47 7  333 229 
 ELA  HZ I         325  0.74        22.6 0.56            110            333 229 
 CBOC HZ EP        324 16.88                             109    0.55 7  335 251 
 CBOC HE ES        324 50.86                             109   -2.12 7  335 251 
 CBOC HZ I         325  2.20         6.7 0.36            109            335 251 
 DBB  EZ EP        324 17.44                             109    0.81 7  339 273 
 DBB  HN ES        324 52.33                             109   -1.18 7  339 273 
 DBB  EZ I         324 53.94        14.5 0.16            109            339 273 
 ARGC HZ EP        324 18.94                             108    0.70 6  353 340 
 ARGC HE ES        324 57.21                             108    0.83 6  353 340 
 ARGC HZ I         325  4.56         7.7 0.68            109            353 340 
 SDV  BZ EP        324 18.44                             108   -0.47 6  357  51 
 SDV  B2 ES        324 56.38                             108   -1.19 6  357  51 
 SDV  BZ I         325  0.38         4.9 0.45            109            357  51 
 ANIL HZ EP        324 20.74                             108    1.22 6  361 224 
 ANIL HE ES        324 58.47                             108   -0.20 6  361 224 
 APAC HZ EP        324 22.93                             106   -0.25 6  396 287 
 APAC HE ES        325  5.10                             106   -0.08 6  396 287 
 APAC HZ I         325 13.32         5.5 0.26            106            396 287 
 PRA  HZ EP        324 22.36                             106   -1.02 6  397 209 
 PRA  HE ES        325  5.55                             106    0.03 6  397 209 
 PRA  HZ I         325  9.81        35.7 0.74            106            397 209 
 ORTC HZ EP        324 23.32                             106   -0.41 6  400 216 
 ORTC HE ES        325  7.80                             106    1.65 6  400 216 
 ORTC HZ I         325 13.19        16.7 0.66            106            400 216 
 SJC  HZ EP        324 22.67                             105   -1.54 6  404 327 
 SJC  HE ES        325  5.56                             105   -1.44 6  404 327 
 SJC  HZ I         325  8.62        10.2 0.52            106            404 327 
 PAL  HZ EP        324 24.69                             105   -0.06 6  408 238 
 PAL  HN ES        325  8.51                             105    0.55 6  408 238 
 PAL  HZ I         325 18.29         6.9 0.26            106            408 238 
 SMAR HZ EP   1    324 34.51                             102    0.07 3  491 346 
 SMAR HE ES   3    325 22.19                             102   -3.03 1  491 346 
 CAP2 HZ EP        324 35.92                             102   -0.18 4  505 293 
 CAP2 HE ES   2    325 25.60                             102   -2.58 2  505 293 
 CAP2 HZ I         325 29.04         6.8 0.68            102            505 293 
 MACC HZ EP   4    325 20.07                             101   41.37 0  526 188 
 MACC HE ES   4    326 12.59                             101   39.78 0  526 188 
 MACC HZ I         326 23.37         5.3 0.42            101            526 188 
 URI  HZ EP        324 39.59                             100   -2.02 4  551  13 
 URI  HN ES        325 37.64                             100   -0.33 4  551  13 
 URI  HZ I         325 41.75         3.3 0.66            101            551  13 
 CONO HZ EP        324 50.38                              99    0.16 3  617 216 
 CONO HE ES        325 53.85                              99    0.54 3  617 216 
 CONO HZ I         326 22.73         2.3 0.50             99            617 216 
 POP2 HZ EP        324 52.00                              99    2.17 3  617 220 
                                                                                
