 2016 1127 0952 27.7 L   6.759 -73.157144.9  RSN  9 0.3 1.9LRSN                1
 GAP=151        0.81       3.2     3.7  5.3 -0.1265E+01  0.3944E+01  0.6286E+01E
 Epicentro: LOS SANTOS - SANTANDER                                             3
 ACTION:UPD 17-10-26 21:12 OP:lp   STATUS:               ID:20161127095227 L   I
 OLDACT:REG 16-11-27 13:10 OP:dani STATUS:               ID:20161127094714     3
 2016-11-27-0948-00M.COL___349                                                 6
 STAT SP IPHASW D HRMM SECON CODA AMPLIT PERI AZIMU VELO AIN AR TRES W  DIS CAZ7
 BAR2 EZ IP        952 47.22                             172    0.1110 18.7 189 
 BAR2 EZ ES        953  2.10                             172   -0.1810 18.7 189 
 BAR2 EZ I         953  5.07        21.3 0.34            169           18.7 189 
 BRR  HZ IP        952 49.09                             152    0.3010 72.4 302 
 BRR  HE ES        953  5.98                             152    0.7110 72.4 302 
 BRR  HZ I         953 11.72         8.5 0.12            152           72.4 302 
 PAM  EZ EP     C  952 49.91                             149   -0.1410 81.6  38 
 PAM  EN ES        953  7.32                             149   -0.1910 81.6  38 
 PAM  EZ I         953  9.60        11.1 0.62            156           81.6  38 
 PTB  HZ EP        952 54.33                             132   -0.05 9  146 260 
 PTB  HN ES        953 14.75                             132   -0.47 9  146 260 
 PTB  HZ I         953 17.42        10.1 0.14            133            146 260 
 ZAR  HZ EP        952 59.80                             122   -0.32 9  205 293 
 ZAR  HN ES        953 25.20                             122   -0.23 9  205 293 
 ZAR  HZ I         953 32.18         7.7 0.50            124            205 293 
 CHI  HZ EP        953  4.95                             117    0.14 8  244 195 
 CHI  HN ES        953 33.31                             117   -0.47 8  244 195 
 CHI  HZ I         953 42.79         3.0 0.54            119            244 195 
 ROSC BE ES        953 34.82                             117    0.26 8  248 211 
 ROSC BZ I         953 41.95         6.7 0.40            118            248 211 
 PRA  HZ EP        953 21.12                             107    0.49 6  388 210 
 PRA  HN EP   4    953 21.57                             107    0.94 0  388 210 
 PRA  HE ES        954  2.24                             107    0.30 6  388 210 
 PRA  HZ I         954  7.22         3.2 0.30            108            388 210 
 SJC  HE ES   4    954  3.05                             105   -4.11 0  412 327 
 SJC  HZ I         954  8.24         1.4 0.36            108            412 327 
                                                                                
