 2011  727 0326 20.7 L   6.914 -72.984143.6  RSN  5 0.2 1.3LRSN                1
 GAP=201        0.51       6.8     8.0  7.5 -0.3059E+02 -0.2688E+02  0.2558E+02E
 Epicentro: PIEDECUESTA - SANTANDER                                            3
 ACTION:UPD 12-07-25 14:03 OP:epov STATUS:               ID:20110727032620 L   I
 2011-07-27-0324-46S.COL___141                                                 6
 STAT SP IPHASW D HRMM SECON CODA AMPLIT PERI AZIMU VELO AIN AR TRES W  DIS CAZ7
 GIR2 SZ EP   1    326 39.75                             168   -0.31 7 29.5 308 
 GIR2 SZ ES   1    326 55.08                             168   -0.09 7 29.5 308 
 BTL  SZ EP   1    326 40.79                             167    0.53 7 31.4 271 
 BAR2 SZ EP   1    326 40.50                             163   -0.09 7 41.8 212 
 BAR2 SZ I         326 58.28         4.0 0.34                          41.8 212 
 BRR  HZ EP   1    326 42.28                             148   -0.06 7 83.3 285 
 BRR  HN ES   1    326 59.24                             148    0.01 7 83.3 285 
 BRR  HZ I         327  3.11         6.5 0.22                          83.3 285 
 GRA  SZ EP   2    326 44.25                             141   -0.16 5  109  10 
 GRA  SZ ES   1    327  2.99                             141    0.08 7  109  10 
 GRA  SZ I         327  5.66         1.8 0.27                           109  10 
                                                                                
