 2017  727 0651 50.6 L   6.816 -73.076145.9  RSN  7 0.7 1.4LRSN                1
 GAP=145        0.88       5.0     7.2  6.9  0.1537E+01  0.4618E+01  0.5481E+01E
 Epicentro: LOS SANTOS - SANTANDER                                             3
 ACTION:UPD 17-08-30 15:37 OP:rebc STATUS:               ID:20170727065150 L   I
 OLDACT:UP  17-07-27 15:47 OP:and  STATUS:               ID:20170727064738     3
 OLDACT:UP  17-07-27 15:47 OP:and  STATUS:               ID:20170727064738     3
 OLDACT:UP  17-07-27 15:46 OP:and  STATUS:               ID:20170727064738     3
 OLDACT:UP  17-07-27 15:46 OP:and  STATUS:               ID:20170727064738     3
 OLDACT:UP  17-07-27 15:45 OP:and  STATUS:               ID:20170727064738     3
 OLDACT:UP  17-07-27 15:45 OP:and  STATUS:               ID:20170727064738     3
 OLDACT:REG 17-07-27 12:30 OP:and  STATUS:               ID:20170727064738     3
 2017-07-27-0648-00M.COL___371                                                 6
 STAT SP IPHASW D HRMM SECON CODA AMPLIT PERI AZIMU VELO AIN AR TRES W  DIS CAZ7
 BAR2 EZ EP        652 10.19                             169   -0.1110 27.4 205 
 BAR2 EZ ES        652 25.60                             169   -0.0810 27.4 205 
 BAR2 EZ I         652 28.03         8.9 0.30            164           27.4 205 
 PAM  EZ IP   3 C  652 13.19                             153    0.75 2 71.3  36 
 PAM  EN ES   2    652 29.32                             153   -0.18 5 71.3  36 
 PAM  EZ I         652 33.28         3.5 0.26            146           71.3  36 
 BRR  HZ EP        652 12.00                             151   -0.0810 77.3 295 
 BRR  HN ES        652 29.20                             151    0.3410 77.3 295 
 BRR  HZ I         652 32.85         5.5 0.24            137           77.3 295 
 RUS  HZ EP        652 14.43                             144   -0.0110  102 180 
 RUS  HN ES        652 33.53                             144    0.4810  102 180 
 RUS  HZ I         652 34.12         3.3 0.36            140            102 180 
 PTB  HZ EP   3    652 16.81                             131   -1.45 2  156 259 
 PTB  HZ I         652 39.04         1.5 0.16            121            156 259 
 SPBC HZ EP        652 19.22                             129   -0.45 9  169 221 
 SPBC HN ES        652 42.10                             129   -0.27 9  169 221 
 SPBC HZ I         652 47.44         5.1 0.22            121            169 221 
 GUY2CHZ EP   3    652 39.05                             112    4.04 2  308 235 
 GUY2CHN ES   4    653 13.70                             112    4.03 0  308 235 
 GUY2CHZ I         653 16.99         1.1 0.24                           308 235 
                                                                                
