 2013  127 0306 36.8 L   6.797 -73.154148.0  RSN 11 0.5 2.3LRSN                1
 GAP= 71        1.26       3.6     4.0  6.7  0.4647E+00  0.3570E+01  0.1382E+01E
 Epicentro: LOS SANTOS - SANTANDER                                             3
 ACTION:UPD 13-02-15 09:17 OP:ep   STATUS:               ID:20130127030636 L   I
 2013-01-27-0258-49M.COL___186                                                 6
 STAT SP IPHASW D HRMM SECON CODA AMPLIT PERI AZIMU VELO AIN AR TRES W  DIS CAZ7
 BAR2 SZ IP        3 6 56.79                             171    0.1110 22.8 188 
 BAR2 SZ ES        3 7 11.81                             171   -0.3810 22.8 188 
 BAR2 SZ I         3 7 12.91        40.9 0.26            169           22.8 188 
 BRR  HZ IP     C  3 6 58.61                             153    0.4710 70.5 299 
 BRR  HZ I         3 6 58.78        31.5 0.24            151           70.5 299 
 BRR  HN ES        3 7 15.66                             153    0.8610 70.5 299 
 BRR  HE I         3 7 16.47        83.8 0.26            151           70.5 299 
 PAM  SZ IP        3 6 59.76                             151    0.4610 78.3  40 
 PAM  SZ I         3 6 59.98        33.5 0.20            153           78.3  40 
 PAM  SN ES        3 7 16.50                             151   -0.3510 78.3  40 
 RUS  HZ EP        3 7  0.78                             144    0.0310  100 175 
 RUS  HN ES        3 7 19.07                             144   -0.3610  100 175 
 RUS  HE I         3 7 20.72        35.0 0.50            144            100 175 
 PTB  HZ EP        3 7  3.39                             133   -0.46 9  147 259 
 PTB  HN ES        3 7 24.50                             133   -0.46 9  147 259 
 PTB  HE I         3 7 30.20        26.3 0.34            131            147 259 
 TAM  HZ IP     C  3 7  5.14                             131    0.41 9  156 105 
 TAM  HZ I         3 7  5.27         8.0 0.18            133            156 105 
 TAM  HN ES        3 7 26.54                             131    0.03 9  156 105 
 OCA  HZ EP        3 7  5.17                             130   -0.13 9  160 353 
 OCA  HN ES        3 7 26.91                             130   -0.62 9  160 353 
 ZAR  HZ EP        3 7  9.79                             123    0.48 9  203 292 
 ZAR  HN ES        3 7 35.17                             123    0.51 9  203 292 
 ZAR  HE I         3 7 40.56        53.4 0.34            122            203 292 
 CHI  HZ IP     C  3 7 15.05                             117    0.50 8  248 195 
 CHI  HZ I         3 7 15.51         6.3 0.38            117            248 195 
 CHI  HN ES        3 7 44.15                             117    0.14 8  248 195 
 CHI  HN I         3 7 48.90        10.2 0.30            117            248 195 
 ROSC BN ES        3 7 44.19                             117   -0.52 8  252 211 
 SJC  HN EP        3 7 30.52                             106   -1.88 6  409 327 
                                                                                
