 2016  727 0421  5.9 L   6.874 -72.983147.4  RSN  4 0.3 1.2LRSN                1
 GAP=257        0.68       7.8     8.9  6.2  0.5802E+02 -0.1247E+02 -0.1476E+02E
 Epicentro: CEPITA - SANTANDER                                                 3
 ACTION:UPD 17-03-29 16:55 OP:lp   STATUS:               ID:20160727042105 L   I
 OLDACT:DUP 16-07-27 16:04 OP:edw  STATUS:               ID:20160727041760d    3
 OLDACT:UP  16-07-27 16:02 OP:edw  STATUS:               ID:20160727041759     3
 OLDACT:REG 16-07-27 13:02 OP:edw  STATUS:               ID:20160727041759     3
 2016-07-27-0417-59S.COL___340                                                 6
 STAT SP IPHASW D HRMM SECON CODA AMPLIT PERI AZIMU VELO AIN AR TRES W  DIS CAZ7
 BAR2 EZ EP        421 25.94                             165   -0.1610 38.1 215 
 BAR2 EZ ES        421 42.26                             165    0.3910 38.1 215 
 BRR  HZ EP        421 28.04                             148    0.0210 84.6 288 
 BRR  HN ES        421 44.93                             148   -0.3410 84.6 288 
 BRR  HZ I         421 47.97         4.1 0.44            146           84.6 288 
 RUS  HZ EP        421 30.65                             142    0.2310  109 186 
 RUS  HN ES        421 49.30                             142   -0.2610  109 186 
 RUS  HZ I         421 50.06         0.8 0.26            141            109 186 
 ZAR  HZ EP   2    421 39.61                             121   -0.29 4  218 288 
 ZAR  HN ES        422  6.67                             121    0.25 8  218 288 
 ZAR  HN I         422  9.40         3.7 0.30            120            218 288 
                                                                                
