 2010  827 0415 40.8 L   6.158 -73.834  4.0  RSN  4 0.5 1.4LRSN                1
 GAP=162        0.83       4.9     5.7 12.4  0.7090E+01  0.4388E+02  0.2918E+00E
 Epicentro: LANDAZURI - SANTANDER                                              3
 ACTION:UP  10-09-07 10:58 OP:vdl  STATUS:               ID:20100827041540 L   I
 2010-08-27-0414-01S.COL___120                                                 6
 STAT SP IPHASW D HRMM SECON CODA AMPLIT PERI AZIMU VELO SNR AR TRES W  DIS CAZ7
 RUS  HZ IP     D  415 55.45                              90     0.210   88 109 
 RUS  HZ I         415 55.99         4.2 0.09                            88 109 
 RUS  HN ES   2    416  5.85                              90    -0.7 5   88 109 
 BRR  HZ EP   2    415 57.71                              90     0.2 5  106   7 
 BRR  HE ES   2    416  9.89                              90    -0.6 5  106   7 
 BRR  HZ I         416 12.21         9.4 0.34                           106   7 
 HEL  HZ EP   2    416 10.55                              56     0.6 4  188 271 
 HEL  HE ES   2    416 32.14                              56    -0.6 4  188 271 
 HEL  HZ I         416 34.79         4.4 0.24                           188 271 
 GRA  SZ ES   2    416 40.55                              56     0.6 4  222  31 
 GRA  SZ I         416 43.14         5.2 0.36                           222  31 
                                                                                
