 2012  527 0229 20.9 L   6.755 -73.188141.0  RSN  8 0.3 2.4LRSN                1
 GAP=133        0.69       2.9     3.3  5.4 -0.2544E+01  0.8414E+01 -0.2932E+01E
 Epicentro: VILLANUEVA - SANTANDER                                             3
 ACTION:UP  12-07-05 12:08 OP:pat  STATUS:               ID:20120527022920 L   I
 2012-05-27-0224-50M.COL___188                                                 6
 STAT SP IPHASW D HRMM SECON CODA AMPLIT PERI AZIMU VELO SNR AR TRES W  DIS CAZ7
 BAR2 SZ EP        229 40.20                             172     0.310   18 178 
 BAR2 SZ ES   1    229 54.97                             172     0.3 7   18 178 
 BAR2 SZ I         229 56.20        64.7 0.34                            18 178 
 PAM  SZ EP        229 43.26                             148     0.210   84  40 
 PAM  SE ES        230  0.28                             148    -0.110   84  40 
 RUS  HZ EP        229 43.91                             144     0.010   96 173 
 RUS  HE ES        230  1.50                             144    -0.310   96 173 
 RUS  HZ I         230  4.03        41.9 0.61                            96 173 
 PTB  HZ EP        229 47.16                             132     0.2 9  142 260 
 PTB  HE ES   1    230  7.20                             132    -0.1 7  142 260 
 PTB  HZ I         230  8.98        21.2 0.11                           142 260 
 OCA  HZ EP        229 48.92                             128    -0.4 9  165 355 
 OCA  HN ES   1    230 11.07                             128    -0.4 7  165 355 
 OCA  HZ I         230 14.45        34.1 0.45                           165 355 
 ZAR  HZ EP   1    229 52.89                             122     0.1 6  202 294 
 ZAR  HE ES   1    230 18.21                             122     0.5 6  202 294 
 ZAR  HZ I         230 26.32        25.9 0.37                           202 294 
 NOR  SZ EP   1    229 55.55                             118    -0.1 6  228 235 
 NOR  SN ES   1    230 22.63                             118    -0.1 6  228 235 
 HEL  HZ EP   1    230  0.52                             114     0.3 6  266 257 
 HEL  HE ES   1    230 30.42                             114    -0.5 6  266 257 
 HEL  HZ I         230 39.68        11.3 0.27                           266 257 
                                                                                
