 2011 1227 0938 54.9 L   6.798 -73.133151.9  RSN 10 0.3 2.3LRSN                1
 GAP=138        0.70       2.9     4.3  5.0 -0.6949E+00  0.6662E+01  0.2094E+01E
 Epicentro: LOS SANTOS - SANTANDER                                             3
 ACTION:UPD 12-07-13 16:18 OP:ep   STATUS:               ID:20111227093854 L   I
 2011-12-27-0936-59S.COL___189                                                 6
 STAT SP IPHASW D HRMM SECON CODA AMPLIT PERI AZIMU VELO AIN AR TRES W  DIS CAZ7
 BAR2 SZ IP        939 15.19                             171   -0.0610 23.4 193 
 BAR2 SZ ES   1    939 30.70                             171   -0.44 7 23.4 193 
 BAR2 SZ I         939 33.26        42.5 0.32                          23.4 193 
 GIR2 SZ EP   1    939 15.41                             168    0.11 7 31.8 348 
 GIR2 SZ ES   1    939 31.32                             168    0.10 7 31.8 348 
 BRR  HZ EP        939 17.14                             153    0.3710 72.5 298 
 BRR  HN ES   1    939 34.57                             153    0.73 7 72.5 298 
 BRR  HZ I         939 36.71        60.7 0.18                          72.5 298 
 PAM  SZ EP   1    939 18.10                             152    0.39 7 76.7  39 
 PAM  SE ES   1    939 35.34                             152   -0.18 7 76.7  39 
 PAM  SZ I         939 37.40        25.9 0.37                          76.7  39 
 RUS  HZ EP   1    939 19.02                             145   -0.20 7  100 177 
 RUS  HN ES   1    939 38.03                             145   -0.17 7  100 177 
 RUS  HZ I         939 38.87        13.1 0.27                           100 177 
 PTB  HZ EP   1    939 21.79                             133   -0.68 7  149 259 
 OCA  SZ EP   1    939 23.88                             131    0.17 7  161 353 
 OCA  SZ ES   1    939 45.79                             131   -0.41 7  161 353 
 OCA  SZ I         939 49.23        24.9 0.26                           161 353 
 ZAR  HZ EP   1    939 27.63                             123   -0.24 6  205 292 
 ZAR  HN ES   1    939 53.13                             123   -0.47 6  205 292 
 ZAR  HZ I         939 59.04        29.1 0.29                           205 292 
 NOR  SZ EP   1    939 31.01                             120   -0.07 6  236 235 
 NOR  SE ES   1    939 59.67                             120    0.36 6  236 235 
 CHI  HZ EP   1    939 33.20                             118    0.26 6  249 195 
 CHI  HN ES   1    940  2.71                             118    0.08 6  249 195 
 CHI  HZ I         940 12.13        11.7 0.56                           249 195 
                                                                                
