 2011  727 0803  9.4 L   6.812 -73.039134.9  RSN  5 0.4 1.3LRSN                1
 GAP=198        0.93      11.7    12.4 11.0 -0.5346E+01 -0.6181E+02 -0.5231E+02E
 Epicentro: CEPITA - SANTANDER                                                 3
 ACTION:UPD 12-07-25 14:03 OP:epov STATUS:               ID:20110727080309 L   I
 2011-07-27-0801-52S.COL___141                                                 6
 STAT SP IPHASW D HRMM SECON CODA AMPLIT PERI AZIMU VELO AIN AR TRES W  DIS CAZ7
 BAR2 SZ EP   1    8 3 27.71                             168   -0.13 8 29.0 213 
 BAR2 SZ ES   1    8 3 42.46                             168    0.22 8 29.0 213 
 BAR2 SZ I         8 3 43.84         5.4 0.22                          29.0 213 
 GIR2 SZ ES   1    8 3 41.71                             165   -0.54 8 34.1 330 
 BRR  HZ EP   1    8 3 29.55                             147   -0.45 8 81.2 294 
 BRR  HN ES   1    8 3 46.43                             147    0.35 8 81.2 294 
 BRR  HZ I         8 3 50.69         3.6 0.08                          81.2 294 
 BRI  SZ EP        8 3 32.45                             140    0.5810  104  15 
 GRA  SZ EP   1    8 3 32.81                             135   -0.49 7  121  12 
                                                                                
