 2013  527 0601 58.9 L   6.836 -73.133140.6  RSN  8 0.4 1.4LRSN                1
 GAP=184        1.06       4.0     6.8  8.3  0.3469E+01  0.4532E+01 -0.1273E+02E
 Epicentro: LOS SANTOS - SANTANDER                                             3
 ACTION:UPD 13-06-20 09:54 OP:ep   STATUS:               ID:20130527060158 L   I
 2013-05-27-0600-00M.COL___261                                                 6
 STAT SP IPHASW D HRMM SECON CODA AMPLIT PERI AZIMU VELO AIN AR TRES W  DIS CAZ7
 BAR2 SZ IP     D  6 2 18.35                             168    0.3110 27.5 191 
 BAR2 SZ ES        6 2 32.67                             168   -0.2710 27.5 191 
 BAR2 SZ I         6 2 36.02         6.1 0.36            172           27.5 191 
 GIR2 SZ EP        6 2 18.28                             168    0.3910 27.6 346 
 GIR2 SZ I         6 2 37.85         4.1 0.24            165           27.6 346 
 BRR  HZ IP     C  6 2 20.22                             152    0.7310 70.6 295 
 BRR  HN ES   2    6 2 36.64                             152    1.11 5 70.6 295 
 BRR  HZ I         6 2 40.68         6.0 0.28            151           70.6 295 
 RUS  HZ EP        6 2 22.63                             141    0.1610  104 177 
 RUS  HN ES        6 2 40.43                             141   -0.4010  104 177 
 RUS  HZ I         6 2 41.98         6.0 0.38            145            104 177 
 PTB  HZ EP        6 2 24.96                             130   -0.72 9  150 257 
 PTB  HN ES        6 2 46.51                             130   -0.04 9  150 257 
 PTB  HZ I         6 2 52.17         5.0 0.18            131            150 257 
 OCA  HZ EP        6 2 26.33                             129   -0.15 9  156 352 
 OCA  HN ES        6 2 47.57                             129   -0.40 9  156 352 
 OCA  HZ I         6 2 54.25         7.2 0.22            128            156 352 
 SML  HZ EP        6 2 35.03                             116    0.09 8  241 335 
 SML  HN ES        6 3  2.81                             116   -0.22 8  241 335 
 SML  HZ I         6 3 11.92         0.1 0.37            117            241 335 
 PRA  HZ EP   4    6 2 53.15                             105    0.38 0  396 209 
 PRA  HN ES   4    6 3 30.41                             105   -4.35 0  396 209 
 PRA  HZ I         6 3 39.05         1.7 0.58            106            396 209 
                                                                                
