 2015  627 0931 24.5 L   6.850 -73.120144.8  RSN  5 0.4 1.8LRSN                1
 GAP=220        0.96       5.3     7.4  6.8  0.7543E+01  0.1280E+02 -0.5062E+01E
 Epicentro: LOS SANTOS - SANTANDER                                             3
 ACTION:UPD 15-09-10 22:15 OP:cam  STATUS:               ID:20150627093124 L   I
 OLDACT:UP  15-06-27 17:07 OP:mher STATUS:               ID:20150627092749     3
 OLDACT:UP  15-06-27 17:06 OP:mher STATUS:               ID:20150627092749     3
 OLDACT:REG 15-06-27 13:11 OP:mh   STATUS:               ID:20150627092749     3
 2015-06-27-0927-49M.COL___310                                                 6
 STAT SP IPHASW D HRMM SECON CODA AMPLIT PERI AZIMU VELO AIN AR TRES W  DIS CAZ7
 BAR2 EZ EP        931 43.96                             168   -0.1610 29.3 194 
 BAR2 EZ ES        931 59.25                             168   -0.2010 29.3 194 
 BAR2 EZ I         932  0.66        10.1 0.34            168           29.3 194 
 BRR  HZ EP        931 45.78                             152    0.2610 71.4 294 
 BRR  HN ES        932  2.27                             152    0.3310 71.4 294 
 BRR  HZ I         932  3.98         9.3 0.64            149           71.4 294 
 ZAR  HZ EP        931 57.60                             122    0.68 9  205 290 
 ZAR  HN ES        932 22.02                             122   -0.21 9  205 290 
 ZAR  HZ I         932 27.69         5.3 0.58            122            205 290 
 SML  HZ EP        931 59.82                             118   -0.81 8  240 334 
 SML  HN ES        932 28.80                             118   -0.04 8  240 334 
 SML  HZ I         932 32.07        10.8 0.10            118            240 334 
 GUY2CHZ EP        932  9.05                             112    0.39 7  307 234 
 GUY2CHN ES   1    932 42.34                             112   -0.79 5  307 234 
 GUY2CHZ I         932 53.95         3.1 0.46                           307 234 
                                                                                
