 2012 1027 0848 32.1 L   6.802 -73.116142.0  RSN  8 0.4 2.7LRSN                1
 GAP=140        0.77       4.0     5.0  5.9  0.2819E+01  0.3120E+01  0.3029E+01E
 Epicentro: LOS SANTOS - SANTANDER                                             3
 ACTION:UPD 12-11-22 17:06 OP:ep   STATUS:               ID:20121027084832 L   I
 2012-10-27-0840-00M.COL___228                                                 6
 STAT SP IPHASW D HRMM SECON CODA AMPLIT PERI AZIMU VELO AIN AR TRES W  DIS CAZ7
 BAR2 SZ EP        848 51.27                             170   -0.0410 24.3 197 
 BAR2 SZ ES   1    849  5.73                             170   -0.56 7 24.3 197 
 GIR2 SZ EP   1    848 51.25                             167   -0.10 7 31.8 344 
 BRR  HZ EP        848 53.05                             151    0.0310 74.0 297 
 BRR  HN ES        849  9.90                             151    0.5810 74.0 297 
 BRR  HN I         849 10.52       181.8 0.18                          74.0 297 
 PAM  SZ EP   1    848 54.11                             151    0.31 7 75.2  38 
 PAM  SN ES   1    849 11.02                             151    0.31 7 75.2  38 
 PAM  SN I         849 11.98       114.6 0.46                          75.2  38 
 RUS  HZ EP   1    848 55.35                             143   -0.15 7  101 178 
 RUS  HN ES   2    849 13.73                             143   -0.01 5  101 178 
 RUS  HN I         849 15.53        27.6 0.38                           101 178 
 OCA  HZ EP   1    848 59.59                             129   -0.56 7  160 352 
 OCA  HN ES   2    849 21.06                             129   -0.96 5  160 352 
 OCA  HN I         849 24.10       130.1 0.24                           160 352 
 ZAR  HZ EP   1    849  5.02                             121    0.40 6  207 292 
 ZAR  HN ES   1    849 29.57                             121   -0.41 6  207 292 
 ZAR  HN I         849 33.58        45.9 0.40                           207 292 
 CHI  HZ EP   1    849  9.96                             116    0.23 6  250 196 
 CHI  HN ES   2    849 38.68                             116   -0.38 4  250 196 
 CHI  HN I         849 44.74        14.4 0.38                           250 196 
                                                                                
