 2010 1027 0516  9.0 L   6.803 -73.103135.4  RSN  6 0.3 1.4LRSN                1
 GAP=163        0.75       4.4     9.8  7.8 -0.1548E+02 -0.3229E+01 -0.1855E+01E
 Epicentro: LOS SANTOS - SANTANDER                                             3
 ACTION:UP  11-02-18 11:12 OP:tino STATUS:               ID:20101027051609 L   I
 2010-10-27-0512-33S.COL___128                                                 6
 STAT SP IPHASW D HRMM SECON CODA AMPLIT PERI AZIMU VELO SNR AR TRES W  DIS CAZ7
 BTL  SZ EP        516 27.63                             170     0.310   22 305 
 BAR2 SZ EP   1    516 27.23                             169    -0.2 7   25 201 
 BAR2 SZ ES   1    516 41.36                             169    -0.4 7   25 201 
 BAR2 SZ I         516 43.06         8.9 0.23                            25 201 
 BRR  HZ IP     C  516 29.03                             149    -0.210   75 297 
 BRR  HZ I         516 29.30         7.9 0.19                            75 297 
 BRR  HN ES   2    516 45.62                             149     0.5 5   75 297 
 RUS  HZ EP   2    516 31.62                             142    -0.1 5  101 179 
 RUS  HN ES   2    516 50.06                             142     0.6 5  101 179 
 RUS  HZ I         516 51.56         2.3 0.24                           101 179 
 GRA  SZ IP        516 33.01                             135    -0.210  124  15 
 GRA  SZ ES   1    516 52.32                             135     0.3 7  124  15 
 GRA  SZ I         516 53.12         4.9 0.39                           124  15 
 CHI  HZ EP   2    516 47.02                             115     0.7 4  250 196 
 CHI  HE ES   2    517 15.17                             115    -0.2 4  250 196 
 CHI  HZ I         517 20.52         1.2 0.63                           250 196 
                                                                                
