 2017  627 0816 13.4 L   6.733 -73.148148.2  RSN  5 0.4 1.2LRSN                1
 GAP=250        0.61       4.4     4.5  5.3 -0.1738E+01  0.4601E+01 -0.1630E+00E
 Epicentro: LOS SANTOS - SANTANDER                                             3
 ACTION:UPD 17-09-14 16:55 OP:jn   STATUS:               ID:20170627081613 L   I
 OLDACT:UP  17-06-27 15:00 OP:dhb  STATUS:               ID:20170627080745d    3
 OLDACT:DUP 17-06-27 14:44 OP:dhb  STATUS:               ID:20170627080745d    3
 OLDACT:REG 17-06-27 13:13 OP:and  STATUS:               ID:20170627080744     3
 2017-06-27-0808-00M.COL___352                                                 6
 STAT SP IPHASW D HRMM SECON CODA AMPLIT PERI AZIMU VELO AIN AR TRES W  DIS CAZ7
 BAR2 EZ EP        816 33.20                             174   -0.0110 16.1 194 
 BAR2 EZ ES        816 48.40                             174   -0.2510 16.1 194 
 BAR2 EZ I         816 50.22         4.5 0.31            171           16.1 194 
 BRR  HZ EP        816 35.31                             152    0.2910 74.7 304 
 BRR  HE ES        816 52.12                             152    0.2510 74.7 304 
 BRR  HZ I         816 53.98         2.7 0.12            148           74.7 304 
 PTB  HZ EP        816 40.37                             133   -0.06 9  146 262 
 PTB  HN ES        817  1.40                             133   -0.11 9  146 262 
 PTB  HZ I         817  3.71         0.7 0.14            131            146 262 
 SPBC HZ EP   3    816 42.99                             131    1.44 2  157 221 
 SPBC HE ES        817  3.51                             131    0.01 9  157 221 
 SPBC HZ I         817  7.57         3.0 0.10            130            157 221 
 ZAR  HZ EP   2    816 45.57                             122   -0.71 4  207 294 
 ZAR  HN ES   2    817 11.42                             122   -0.50 4  207 294 
 ZAR  HZ I         817 18.68         1.6 0.26            122            207 294 
                                                                                
