 2015 1227 0551 18.4 L   6.824 -73.160145.7  RSN 20 0.5 2.2LRSN                1
 GAP=134        1.03       2.5     3.7  5.0 -0.1717E+01  0.4849E+01  0.1919E+01E
 Epicentro: LOS SANTOS - SANTANDER                                             3
 ACTION:UPD 16-02-04 15:08 OP:cam  STATUS:               ID:20151227055118 L   I
 OLDACT:REG 15-12-27 12:45 OP:dnl  STATUS:               ID:20151227054749     3
 2015-12-27-0547-49M.COL___334                                                 6
 STAT SP IPHASW D HRMM SECON CODA AMPLIT PERI AZIMU VELO AIN AR TRES W  DIS CAZ7
 BAR2 EZ EP     C  551 38.05                             169   -0.0610 25.8 186 
 BAR2 EZ ES        551 53.18                             169   -0.2810 25.8 186 
 BAR2 EZ I         551 54.26        38.3 0.21            169           25.8 186 
 BRR  HZ IP     C  551 39.83                             153    0.4010 68.6 297 
 BRR  HE ES        551 56.95                             153    1.1410 68.6 297 
 BRR  HZ I         552  1.26        15.8 0.09            144           68.6 297 
 PAM  EZ EP     C  551 41.10                             151    0.5210 76.4  42 
 PAM  EE ES        551 57.76                             151   -0.1010 76.4  42 
 PAM  EZ I         552  0.25        14.3 0.34            145           76.4  42 
 RUS  HZ EP        551 42.22                             143   -0.1610  103 175 
 RUS  HN ES        552  0.94                             143   -0.1210  103 175 
 RUS  HZ I         552  1.74        19.3 0.23            138            103 175 
 PTB  HZ EP        551 44.65                             132   -0.66 9  147 258 
 PTB  HN ES        552  5.92                             132   -0.35 9  147 258 
 PTB  HZ I         552  7.63        17.4 0.09            124            147 258 
 OCA  HZ EP        551 46.33                             130   -0.14 9  157 354 
 OCA  HN ES        552  8.08                             130   -0.26 9  157 354 
 OCA  HZ I         552 16.68        25.5 0.26            121            157 354 
 SPBC HZ EP        551 46.92                             129   -0.12 9  164 218 
 SPBC HE ES        552  9.28                             129   -0.06 9  164 218 
 SPBC HZ I         552 14.82        23.1 0.20            122            164 218 
 ZAR  HZ EP   4    551 51.97                             123    1.35 0  202 292 
 ZAR  HN ES        552 15.58                             123   -0.15 9  202 292 
 ZAR  HZ I         552 17.87        11.5 0.08            114            202 292 
 NOR  HZ EP   2    551 53.90                             118   -0.29 4  235 234 
 NOR  HN ES        552 21.52                             118   -0.57 8  235 234 
 NOR  HZ I         552 29.33        10.4 0.14            112            235 234 
 SML  HZ EP        551 54.39                             118   -0.33 8  241 335 
 SML  HN ES        552 22.70                             118   -0.33 8  241 335 
 SML  HZ I         552 27.02        21.6 0.09            110            241 335 
 CHI  HZ EP     C  551 56.31                             117   -0.06 8  251 195 
 CHI  HE ES        552 25.78                             117   -0.18 8  251 195 
 CHI  HZ I         552 27.96        11.9 0.39            111            251 195 
 ROSC BZ EP   4    551 58.05                             116    1.33 0  254 210 
 ROSC BN ES   4    552 29.05                             116    2.47 0  254 210 
 ROSC BZ I         552 32.97        17.9 0.38            110            254 210 
 HEL  HZ EP   2    551 59.61                             115    1.06 4  271 255 
 HEL  HE ES        552 29.90                             115    0.06 8  271 255 
 HEL  HZ I         552 36.40         7.0 0.31            108            271 255 
 URE  HE ES   4    552 28.57                             114   -2.48 0  281 292 
 URE  HZ I         552 40.37        11.2 0.17            107            281 292 
 GUY2CHZ EP        552  2.16                             112    0.09 7  301 234 
 GUY2CHE ES   2    552 36.03                             112   -0.08 4  301 234 
 GUY2CHZ I         552 44.39         6.1 0.23                           301 234 
 ANIL HZ EP        552  9.63                             108    1.30 6  358 224 
 ANIL HE ES   4    552 49.00                             108    1.75 0  358 224 
 ANIL HZ I         552 53.65        15.8 0.25            103            358 224 
 PRA  HZ EP        552 12.01                             106   -0.13 6  394 209 
 PRA  HN ES        552 53.51                             106   -0.52 6  394 209 
 PRA  HZ I         553  2.05         5.5 0.34            101            394 209 
 ORTC HZ EP        552 13.13                             106    0.63 6  397 216 
 ORTC HN ES        552 55.97                             106    1.30 6  397 216 
 ORTC HZ I         553  2.11         3.7 0.24            101            397 216 
 PAL  HZ EP   2    552 13.06                             106   -0.54 3  406 239 
 PAL  HE ES        552 56.65                             106    0.02 6  406 239 
 PAL  HZ I         553  2.32         2.6 0.55            101            406 239 
 SJC  HZ EP   4    552 12.28                             106   -1.35 0  406 327 
 SJC  HN ES   4    552 54.76                             106   -1.92 0  406 327 
 SJC  HZ I         552 59.67         2.0 0.61            100            406 327 
                                                                                
