 2012  227 0906 58.7 L   6.733 -73.181145.5  RSN  4 0.4 1.2LRSN                1
 GAP=228        0.86       8.5     8.4  8.9  0.3372E+02  0.5931E+01 -0.3427E+01E
 ACTION:UP  12-03-07 16:34 OP:epov STATUS:               ID:20120227090658 L   I
 2012-02-27-0900-00M.COL___192                                                 6
 STAT SP IPHASW D HRMM SECON CODA AMPLIT PERI AZIMU VELO AIN AR TRES W  DIS CAZ7
 BAR2 SZ EP   1    9 7 18.19                             174   -0.01 7 15.6 181 
 BAR2 SZ I         9 7 18.44         2.5 0.07                          15.6 181 
 BAR2 SZ ES   1    9 7 32.55                             174   -0.83 7 15.6 181 
 BRR  HZ EP        9 7 20.01                             152    0.1210 71.8 305 
 BRR  HZ I         9 7 20.46         4.0 0.14                          71.8 305 
 BRR  HN ES   1    9 7 36.93                             152    0.54 7 71.8 305 
 RUS  HZ EP   1    9 7 21.99                             146    0.03 7 93.6 173 
 RUS  HZ I         9 7 38.96         3.8 0.66                          93.6 173 
 RUS  HN ES   1    9 7 40.60                             146    0.52 7 93.6 173 
 PTB  HZ EP   1    9 7 24.81                             133   -0.41 7  143 261 
 PTB  HN ES   1    9 7 45.77                             133   -0.11 7  143 261 
                                                                                
