 2011  527 0223 22.4 L   6.761 -73.202154.2  RSN  7 0.5 1.7LRSN                1
 GAP=153        1.06       6.3    13.9 10.5 -0.1056E+01 -0.2707E+02 -0.4083E+01E
 Epicentro: VILLANUEVA - SANTANDER                                             3
 ACTION:UP  11-06-29 08:56 OP:tino STATUS:               ID:20110527022322 L   I
 2011-05-27-0221-42S.COL___115                                                 6
 STAT SP IPHASW D HRMM SECON CODA AMPLIT PERI AZIMU VELO SNR AR TRES W  DIS CAZ7
 BTL  SZ EP   1    223 43.04                             173     0.1 7   19 338 
 BAR2 SZ EP   1    223 42.73                             173    -0.2 7   19 173 
 BAR2 SZ I         223 58.95         8.2 0.22                            19 173 
 GIR2 SZ EP   2    223 43.43                             167     0.2 5   35   2 
 GIR2 SZ ES   1    223 58.53                             167    -0.9 7   35   2 
 BRR  HZ EP   1    223 44.63                             155     0.3 7   68 304 
 BRR  HZ I         223 46.10        12.0 0.10                            68 304 
 BRR  HN ES   1    224  1.68                             155     0.3 7   68 304 
 RUS  HZ EP   1    223 47.03                             146     0.3 7   97 172 
 RUS  HN ES   1    224  5.81                             146     0.1 7   97 172 
 RUS  HZ I         224  6.46         7.3 0.18                            97 172 
 GRA  SZ EP   1    223 48.59                             137    -0.3 7  132  19 
 GRA  SZ ES   1    224 10.41                             137     0.8 7  132  19 
 GRA  SZ I         224 12.87         3.8 0.38                           132  19 
 OCA  SZ EP   1    223 51.18                             131    -0.6 7  164 355 
 OCA  SZ I         224 11.20         7.1 0.44                           164 355 
                                                                                
