 2017 1227 0310 40.9 L   6.807 -73.136148.4  RSN 13 0.5 1.9LRSN                1
 GAP= 66        1.07       2.9     3.0  5.7 -0.4648E+00  0.4063E+01  0.1230E+01E
 Epicentro: LOS SANTOS - SANTANDER                                             3
 ACTION:UPD 18-01-04 13:24 OP:rebc STATUS:               ID:20171227031040 L   I
 OLDACT:REG 17-12-27 12:59 OP:osc  STATUS:               ID:20171227030102     3
 2017-12-27-0308-00M.COL___454                                                 6
 STAT SP IPHASW D HRMM SECON CODA AMPLIT PERI AZIMU VELO AIN AR TRES W  DIS CAZ7
 BAR2 EZ EP        311  0.57                             170   -0.2910 24.3 192 
 BAR2 EZ ES        311 15.79                             170   -0.6410 24.3 192 
 BAR2 EZ I         311 19.72        14.9 0.48            170           24.3 192 
 PAM  EZ EP        311  3.14                             152   -0.1810 76.1  39 
 PAM  EN ES        311 20.66                             152   -0.1510 76.1  39 
 PAM  EZ I         311 22.84         9.5 0.60            156           76.1  39 
 PTB  HZ EP        311  7.05                             132   -1.13 9  149 259 
 PTB  HE ES        311 29.68                             132    0.21 9  149 259 
 PTB  HZ I         311 33.62         6.3 0.19            134            149 259 
 TAM  HZ EP        311  8.60                             131   -0.11 9  154 105 
 TAM  HN ES        311 30.57                             131    0.16 9  154 105 
 OCA  HZ EP        311  9.68                             130    0.33 9  160 353 
 OCA  HN ES        311 32.35                             130    0.80 9  160 353 
 SPBC HZ EP        311  9.59                             129   -0.13 9  164 219 
 SPBC HE ES        311 32.82                             129    0.63 9  164 219 
 SPBC HZ I         311 38.29        12.2 0.34            131            164 219 
 YPLC HZ EP        311 10.85                             127   -0.05 9  177 152 
 YPLC HE ES        311 35.04                             127    0.73 9  177 152 
 YPLC HZ I         311 35.81        10.2 0.24            131            177 152 
 ZAR  HZ EP        311 13.63                             123    0.05 9  205 292 
 ZAR  HN ES        311 38.95                             123   -0.13 9  205 292 
 ZAR  HZ I         311 44.66        16.4 0.30            125            205 292 
 URE  HZ EP   9    311 18.93                             114   -3.24 0  284 292 
 URE  HE ES        311 51.58                                    0.46 7  284 292 
 DRL03HZ EP        311 22.42                             114   -0.14 7  288 353 
 DRL03HE ES        311 55.05                             114   -0.01 7  288 353 
 GUY2CHZ EP        311 25.49                             113    0.72 7  302 235 
 GUY2CHN ES        311 58.68                             113   -0.32 7  302 235 
 GUY2CHZ I         312  6.53         4.0 0.36                           302 235 
 CBOC HZ EP        311 28.10                             110    0.04 7  335 252 
 CBOC HE ES        312  5.31                             110    0.46 7  335 252 
 PRA  HZ EP        311 34.07                             107   -0.58 6  393 210 
 PRA  HE ES        312 16.64                             107    0.07 6  393 210 
 SJC  HZ EP   4    311 34.37                             106   -2.17 0  409 327 
 SJC  HE ES   4    312 16.61                             106   -3.32 0  409 327 
                                                                                
