 2013  527 0133 41.2 L   6.795 -73.183140.6  RSN 15 0.4 2.4LRSN 2.8WRSN        1
 SPEC AVERAGE  MO 13.3 ST  1.5 OM  1.8 f0 3.61 R0.4449 AL 1.94 WI 14.2 MW  2.8 3
 SPEC SD       MO  0.3 ST  1.1 OM  0.3 f00.603 R0.0846 AL      WI      MW  0.2 3
 GAP=110        1.01       3.1     3.7  4.9  0.2028E+00  0.4873E+01  0.2141E+01E
 Epicentro: LOS SANTOS - SANTANDER                                             3
 SPEC PTB HH N MO 13.6 ST  2.4 OM  1.9 f0 3.70 R0.4200 AL 1.97 WI 16.6 MW  3.0 3
 SPEC PTB HH N T 13426 K 0.000 GD  201 VS 4.20 DE 3.20 Q0300.0 QA 0.60 VS 4.20 3
 SPEC RUS HH N MO 13.3 ST  1.0 OM  1.7 f0 3.45 R0.4504 AL 2.19 WI  8.0 MW  2.8 3
 SPEC RUS HH N T 13421 K 0.000 GD  172 VS 4.20 DE 3.20 Q0300.0 QA 0.60 VS 4.20 3
 SPEC PRA HH N MO 13.3 ST  1.5 OM  1.3 f0 3.93 R0.3954 AL 1.93 WI 19.5 MW  2.8 3
 SPEC PRA HH N T 13513 K 0.000 GD  413 VS 4.20 DE 3.20 Q0300.0 QA 0.60 VS 4.20 3
 SPECGUY2CHH N MO 13.7 ST  1.2 OM  1.8 f0 2.78 R0.5589 AL 2.72 WI 20.8 MW  3.1 3
 SPECGUY2CHH N T 13457 K 0.000 GD  328 VS 4.20 DE 3.20 Q0300.0 QA 0.60 VS 4.20 3
 SPEC HEL HH N MO 13.4 ST0.390 OM  1.5 f0 2.41 R0.6448 AL 1.94 WI 21.5 MW  2.9 3
 SPEC HEL HH N T 13450 K 0.000 GD  302 VS 4.20 DE 3.20 Q0300.0 QA 0.60 VS 4.20 3
 SPEC NOR HH N MO 13.5 ST  3.3 OM  1.7 f0 4.39 R0.3540 AL 1.75 WI 23.6 MW  3.0 3
 SPEC NOR HH N T 13439 K 0.000 GD  270 VS 4.20 DE 3.20 Q0300.0 QA 0.60 VS 4.20 3
 SPEC OCA HH N MO 13.6 ST  2.6 OM  1.9 f0 3.75 R0.4144 AL 2.01 WI 18.2 MW  3.0 3
 SPEC OCA HH N T 13429 K 0.000 GD  212 VS 4.20 DE 3.20 Q0300.0 QA 0.60 VS 4.20 3
 SPEC PAM SH N MO 13.0 ST0.326 OM  1.4 f0 3.02 R0.5146 AL 2.47 WI  6.3 MW  2.6 3
 SPEC PAM SH N T 13419 K 0.000 GD  162 VS 4.20 DE 3.20 Q0300.0 QA 0.60 VS 4.20 3
 SPEC BRR HH N MO 13.4 ST  2.6 OM  1.8 f0 4.48 R0.3469 AL 2.32 WI 10.5 MW  2.9 3
 SPEC BRR HH N T 13417 K 0.000 GD  156 VS 4.20 DE 3.20 Q0300.0 QA 0.60 VS 4.20 3
 SPEC GIR2SH Z MO 12.7 ST0.151 OM  1.1 f0 3.06 R0.5078 AL 0.67 WI  9.8 MW  2.4 3
 SPEC GIR2SH Z T 13414 K 0.000 GD  144 VS 4.20 DE 3.20 Q0300.0 QA 0.60 VS 4.20 3
 SPEC BAR2SH Z MO 13.0 ST0.766 OM  1.5 f0 3.88 R0.4005 AL 2.17 WI  8.0 MW  2.6 3
 SPEC BAR2SH Z T 13413 K 0.000 GD  142 VS 4.20 DE 3.20 Q0300.0 QA 0.60 VS 4.20 3
 ACTION:UPD 13-06-20 09:54 OP:ep   STATUS:               ID:20130527013341 L   I
 2013-05-27-0130-00M.COL___261                                                 6
 STAT SP IPHASW D HRMM SECON CODA AMPLIT PERI AZIMU VELO AIN AR TRES W  DIS CAZ7
 BAR2 SZ IP     D  134  0.45                             170    0.2910 22.4 180 
 BAR2 SZ ES        134 14.35                             170   -0.6210 22.4 180 
 BAR2 SZ I         134 16.91        60.6 0.22            169           22.4 180 
 GIR2 SZ EP        134  0.41                             167    0.1810 31.4 358 
 GIR2 SZ ES        134 15.06                             167   -0.0410 31.4 358 
 GIR2 SZ I         134 16.66        23.8 0.28            165           31.4 358 
 BRR  HZ IP     C  134  2.25                             153    0.6810 67.8 301 
 BRR  HN ES        134 17.71                             153    0.2310 67.8 301 
 BRR  HZ I         134 23.09        48.0 0.18            148           67.8 301 
 PAM  SZ IP     C  134  3.38                             149    0.3510 80.5  42 
 PAM  SN ES        134 19.92                             149   -0.1610 80.5  42 
 PAM  SZ I         134 21.97        18.5 0.38            152           80.5  42 
 RUS  HZ IP     C  134  4.43                             143    0.0310  100 174 
 RUS  HN ES        134 22.58                             143    0.0610  100 174 
 RUS  HZ I         134 24.21        30.7 0.22            144            100 174 
 PTB  HZ EP     C  134  6.96                             132   -0.38 9  144 259 
 PTB  HN ES        134 27.68                             132   -0.06 9  144 259 
 PTB  HZ I         134 35.31        38.7 0.32            129            144 259 
 OCA  HZ EP   4    134  7.61                             128   -1.48 0  160 355 
 OCA  HN ES   2    134 30.55                             128   -0.32 5  160 355 
 OCA  HZ I         134 35.15        28.7 0.42            129            160 355 
 YOP  SZ EP        134 11.19                             125    0.20 9  180 152 
 YOP  SN ES   4    134 31.77                             125   -2.47 0  180 152 
 YOP  SZ I         134 38.19        38.7 0.36            127            180 152 
 ZAR  HZ EP        134 12.26                             122   -0.64 9  200 293 
 ZAR  HN ES        134 38.66                             122    1.00 9  200 293 
 ZAR  HZ I         134 48.61        20.3 0.34            121            200 293 
 NOR  HZ EP        134 16.32                             118    0.12 8  231 234 
 NOR  HN ES        134 43.20                             118   -0.33 8  231 234 
 NOR  HZ I         134 49.34        22.6 0.34            117            231 234 
 SML  HZ EP        134 17.10                             116   -0.28 8  243 336 
 SML  HN ES        134 44.87                             116   -0.75 8  243 336 
 SML  HZ I         134 49.91        27.5 0.24            116            243 336 
 HEL  HZ EP   4    134 22.13                             114    1.47 0  268 256 
 HEL  HN ES   4    134 51.08                             114   -0.38 0  268 256 
 HEL  HZ I         135  0.11        16.7 0.28            114            268 256 
 GUY2CHZ EP   4    134 25.75                             112    1.63 0  297 234 
 GUY2CHN ES   4    134 59.04                             112    1.42 0  297 234 
 GUY2CHZ I         135  8.45        12.0 0.58                           297 234 
 COD  HZ EP   4    134 28.00                             108   -1.37 0  348 355 
 COD  HN ES   4    135  5.01                             108   -1.95 0  348 355 
 COD  HZ I         135 14.04         4.2 0.54            108            348 355 
 PRA  HZ EP        134 34.22                             106    0.00 6  389 209 
 PRA  HN ES        135 15.14                             106   -0.46 6  389 209 
 PRA  HZ I         135 22.86        12.3 0.72            106            389 209 
                                                                                
