 2015  527 1223  3.0 L   6.765 -73.117139.6  RSN  7 0.4 1.9LRSN                1
 GAP=142        1.03       4.7     5.0  6.6 -0.7902E+01  0.1141E+02  0.3031E+01E
 Epicentro: LOS SANTOS - SANTANDER                                             3
 ACTION:UPD 15-09-10 22:07 OP:cam  STATUS:               ID:20150527122303 L   I
 OLDACT:REG 15-05-27 21:19 OP:ar   STATUS:               ID:20150527121750d    3
 2015-05-27-1217-49M.COL___291                                                 6
 STAT SP IPHASW D HRMM SECON CODA AMPLIT PERI AZIMU VELO AIN AR TRES W  DIS CAZ7
 BAR2 EZ EP     C 1223 21.67                             171   -0.1710 20.5 201 
 BAR2 EZ ES       1223 35.96                             171   -0.5710 20.5 201 
 BAR2 EZ I        1223 37.23        22.8 0.28            169           20.5 201 
 BRR  HZ EP     C 1223 23.56                             150   -0.2110 75.9 300 
 BRR  HN ES       1223 40.53                             150    0.5610 75.9 300 
 BRR  HZ I        1223 45.06        18.2 0.12            147           75.9 300 
 PAM  SZ EP       1223 24.73                             149    0.0910 78.5  36 
 PAM  SN ES       1223 41.47                             149   -0.0410 78.5  36 
 PAM  SZ I        1223 43.68        19.4 0.44            153           78.5  36 
 RUS  HZ EP       1223 25.73                             144   -0.1310 96.6 178 
 RUS  HN ES       1223 43.97                             144    0.2810 96.6 178 
 RUS  HZ I        1223 44.82         8.8 0.24            147           96.6 178 
 SPBC HZ EP       1223 30.78                             128   -0.17 9  162 221 
 SPBC HN ES       1223 53.24                             128    0.49 9  162 221 
 SPBC HZ I        1223 56.28        11.1 0.24            129            162 221 
 OCA  HN ES   4   1223 51.99                             127   -1.29 0  164 352 
 NOR  HZ EP       1223 38.41                             117   -0.02 8  235 236 
 NOR  HE ES       1224  5.98                             117   -0.08 8  235 236 
 NOR  HZ I        1224 12.53         7.9 0.22            118            235 236 
 HEL  HZ EP       1223 44.08                             113    0.92 8  274 257 
 HEL  HN ES       1224 13.54                             113   -0.94 8  274 257 
 HEL  HZ I        1224 21.28         5.3 0.34            114            274 257 
                                                                                
