 2011  827 1147 29.0 L   6.771 -73.065153.4  RSN  6 0.1 1.8LRSN                1
 GAP=204        0.30       2.5     4.8  3.4 -0.9546E+00  0.4378E+01 -0.4811E+00E
 Epicentro: LOS SANTOS - SANTANDER                                             3
 ACTION:UPD 12-07-13 15:54 OP:ep   STATUS:               ID:20110827114729 L   I
 2011-08-27-1145-18S.COL___161                                                 6
 STAT SP IPHASW D HRMM SECON CODA AMPLIT PERI AZIMU VELO AIN AR TRES W  DIS CAZ7
 BAR2 SZ EP   1   1147 49.58                             171    0.02 7 23.6 213 
 BAR2 SZ ES   1   1148  5.55                             171   -0.04 7 23.6 213 
 BAR2 SZ I        1148  7.15        12.4 0.24                          23.6 213 
 GIR2 SZ EP   1   1147 49.68                             166   -0.06 7 36.9 337 
 BRR  HZ EP   1   1147 51.50                             151   -0.02 7 80.6 298 
 BRR  HZ I        1147 53.20        24.8 0.39                          80.6 298 
 RUS  HZ EP   1   1147 53.46                             146    0.18 7 97.1 181 
 RUS  HN ES   1   1148 12.22                             146    0.01 7 97.1 181 
 RUS  HZ I        1148 13.18         4.1 0.25                          97.1 181 
 NOR  SE ES   2   1148 34.61                             119    0.17 4  240 236 
 CHI  HZ EP   1   1148  6.97                             119   -0.10 6  248 197 
 CHI  HE ES   2   1148 36.50                             119   -0.26 4  248 197 
 CHI  HZ I        1148 41.10         5.4 0.50                           248 197 
                                                                                
