 2016  827 1541 58.0 L   6.817 -73.100144.3  RSN 12 0.6 2.2LRSN                1
 GAP=122        1.32       4.0     5.3  7.1 -0.4392E+01  0.8599E+01  0.1282E+01E
 Epicentro: LOS SANTOS - SANTANDER                                             3
 ACTION:UPD 16-10-29 15:40 OP:rebc STATUS:               ID:20160827154158 L   I
 OLDACT:UP  16-08-28 00:03 OP:ar   STATUS:               ID:20160827153732     3
 OLDACT:REG 16-08-27 21:42 OP:ar   STATUS:               ID:20160827153732     3
 2016-08-27-1538-00M.COL___365                                                 6
 STAT SP IPHASW D HRMM SECON CODA AMPLIT PERI AZIMU VELO AIN AR TRES W  DIS CAZ7
 BAR2 EZ EP       1542 17.48                             169   -0.0510 26.5 200 
 BAR2 EZ ES       1542 32.35                             169   -0.4110 26.5 200 
 BAR2 EZ I        1542 33.04        50.1 0.34                          26.5 200 
 PAM  EZ EP       1542 20.40                             152    0.6110 72.7  37 
 PAM  EE ES       1542 37.30                             152    0.5110 72.7  37 
 PAM  EZ I        1542 39.21        68.4 0.46                          72.7  37 
 BRR  HZ EP       1542 19.25                             151    0.0510 74.8 295 
 BRR  HE ES       1542 36.23                             151    0.4910 74.8 295 
 BRR  HZ I        1542 39.30        46.0 0.34                          74.8 295 
 RUS  HZ EP       1542 21.71                             143   -0.0210  102 179 
 RUS  HN ES       1542 40.44                             143    0.1910  102 179 
 RUS  HZ I        1542 41.79        19.1 0.32                           102 179 
 PTB  HZ EP       1542 24.40                             131   -0.94 9  153 259 
 PTB  HE ES   4   1542 44.58                             131   -2.09 0  153 259 
 PTB  HZ I        1542 47.92        11.9 0.12                           153 259 
 OCA  HZ EP       1542 25.88                             130   -0.21 9  159 351 
 OCA  HN ES       1542 47.15                             130   -0.84 9  159 351 
 OCA  HZ I        1542 53.54        35.0 0.18                           159 351 
 SPBC HZ EP       1542 26.64                             128   -0.20 9  168 220 
 SPBC HN ES   4   1542 47.95                             128   -1.38 0  168 220 
 SPBC HZ I        1542 53.61        25.2 0.14                           168 220 
 ZAR  HZ EP       1542 31.72                             122    0.95 8  208 291 
 ZAR  HN ES       1542 56.11                             122   -0.21 8  208 291 
 ZAR  HZ I        1543  1.85        23.4 0.54                           208 291 
 NOR  HZ EP   4   1542 37.26                             118    3.05 0  240 235 
 NOR  HE ES       1543  1.78                             118   -0.67 8  240 235 
 NOR  HZ I        1543  3.59         9.4 0.20                           240 235 
 CHI  HZ EP   4   1542 37.65                             116    1.68 0  252 196 
 CHI  HN ES       1543  5.09                             116   -0.49 8  252 196 
 CHI  HZ I        1543  8.32         5.1 0.36                           252 196 
 SOCV BZ EP       1542 40.01                             112   -0.38 7  296  57 
 SOCV BN ES   4   1543 11.64                             112   -1.81 0  296  57 
 GUY2CHZ EP       1542 43.10                             112    0.97 7  306 235 
 GUY2CHE ES       1543 17.35                             112    0.79 7  306 235 
 GUY2CHZ I        1543 25.72         3.8 0.42                           306 235 
                                                                                
