 2011 1127 1622 33.4 L   6.766 -73.101140.5  RSN  4 0.3 1.2LRSN                1
 GAP=144        0.60       4.3     6.9  7.3 -0.3757E+01 -0.1308E+02  0.4406E+01E
 Epicentro: LOS SANTOS - SANTANDER                                             3
 ACTION:UPD 12-07-13 16:12 OP:ep   STATUS:               ID:20111127162233 L   I
 2011-11-27-1620-04S.COL___160                                                 6
 STAT SP IPHASW D HRMM SECON CODA AMPLIT PERI AZIMU VELO AIN AR TRES W  DIS CAZ7
 BAR2 SZ EP   1   1622 52.02                             171   -0.30 7 21.2 205 
 BAR2 SZ ES   1   1623  6.62                             171   -0.48 7 21.2 205 
 BAR2 SZ I        1623  8.17         3.6 0.25                          21.2 205 
 BRR  HE ES   1   1623 10.88                             149    0.22 7 77.4 299 
 PAM  SZ EP   1   1622 55.08                             150    0.06 7 77.4  35 
 PAM  SN ES   1   1623 12.06                             150    0.14 7 77.4  35 
 PAM  SZ I        1623 14.39         3.3 0.35                          77.4  35 
 RUS  HZ EP   1   1622 56.27                             144   -0.03 7 96.5 179 
 RUS  HN ES   1   1623 14.59                             144    0.39 7 96.5 179 
 RUS  HZ I        1623 15.54         2.6 0.47                          96.5 179 
                                                                                
