 2017  727 1046  3.2 L   6.825 -73.110138.7  RSN  9 0.6 1.7LRSN                1
 GAP=103        1.44       5.3     4.9  8.2  0.4893E+01  0.2039E+01  0.4609E+01E
 Epicentro: LOS SANTOS - SANTANDER                                             3
 ACTION:UPD 17-08-30 15:37 OP:rebc STATUS:               ID:20170727104603 L   I
 OLDACT:REG 17-07-27 20:40 OP:ar   STATUS:               ID:20170727103740     3
 2017-07-27-1038-00M.COL___371                                                 6
 STAT SP IPHASW D HRMM SECON CODA AMPLIT PERI AZIMU VELO AIN AR TRES W  DIS CAZ7
 BAR2 EZ EP       1046 21.58                             168   -0.5110 26.9 197 
 BAR2 EZ ES       1046 36.25                             168   -0.5510 26.9 197 
 BAR2 EZ I        1046 38.33        11.7 0.30            169           26.9 197 
 PAM  EZ EP       1046 24.62                             151    0.2110 72.8  39 
 PAM  EN ES       1046 41.10                             151    0.1610 72.8  39 
 PAM  EZ I        1046 43.46        15.1 0.52            152           72.8  39 
 BRR  HZ IP     C 1046 23.62                             150   -0.1310 73.5 295 
 BRR  HN ES       1046 40.41                             150    0.6510 73.5 295 
 RUS  HZ EP       1046 26.76                             142    0.2810  103 178 
 RUS  HN ES       1046 44.20                             142   -0.4210  103 178 
 RUS  HZ I        1046 45.68         3.9 0.32            143            103 178 
 TAM  HZ EP       1046 29.95                             129   -0.11 9  152 106 
 PTB  HZ EP       1046 29.46                             129   -0.58 9  152 258 
 PTB  HE ES       1046 50.19                             129   -0.77 9  152 258 
 PTB  HZ I        1046 52.08         4.9 0.16            130            152 258 
 SPBC HZ EP       1046 31.11                             126   -0.53 9  168 219 
 SPBC HE ES       1046 55.06                             126    1.25 9  168 219 
 SPBC HE IS       1046 55.31                             126            168 219 
 YPLC HZ EP       1046 32.19                             125   -0.38 9  177 153 
 YPLC HE ES       1046 56.26                             125    0.80 9  177 153 
 YPLC HZ I        1046 59.42         5.1 0.56            126            177 153 
 ZAR  HZ EP       1046 36.37                             120    0.87 8  207 291 
 ZAR  HE ES       1047  0.71                             120    0.03 8  207 291 
 ZAR  HZ I        1047  5.70         7.2 0.34            121            207 291 
                                                                                
