 2017  527 1323  1.7 L   6.801 -73.098150.7  RSN 11 0.4 2.2LRSN                1
 GAP=243        0.94       4.4     5.1  6.7  0.4897E+01  0.5140E+01  0.2451E+01E
 Epicentro: LOS SANTOS - SANTANDER                                             3
 ACTION:UPD 17-06-16 13:39 OP:jn   STATUS:               ID:20170527132301 L   I
 OLDACT:UP  17-05-28 01:38 OP:dnl  STATUS:               ID:20170527131742     3
 OLDACT:REG 17-05-27 23:03 OP:dnl  STATUS:               ID:20170527131742     3
 2017-05-27-1318-00M.COL___344                                                 6
 STAT SP IPHASW D HRMM SECON CODA AMPLIT PERI AZIMU VELO AIN AR TRES W  DIS CAZ7
 BRR  HZ IP     C 1323 24.02                             152    0.3410 75.8 297 
 BRR  HE ES       1323 41.44                             152    0.6410 75.8 297 
 BRR  HZ I        1323 50.22        17.9 0.28            148           75.8 297 
 RUS  HZ EP       1323 25.94                             145   -0.0310  101 179 
 RUS  HN ES       1323 44.72                             145   -0.1610  101 179 
 RUS  HZ I        1323 45.85        10.2 0.48            138            101 179 
 PTB  HZ EP       1323 29.04                             132   -0.54 9  153 259 
 PTB  HN ES       1323 50.45                             132   -0.84 9  153 259 
 PTB  HZ I        1323 56.06        24.9 0.48            126            153 259 
 SPBC HZ EP       1323 31.00                             130    0.05 9  167 220 
 SPBC HN ES       1323 54.02                             130    0.29 9  167 220 
 SPBC HZ I        1324  0.22        36.3 0.36            123            167 220 
 ZAR  HZ EP       1323 35.00                             123   -0.00 8  209 292 
 ZAR  HE ES       1324  0.40                             123   -0.55 8  209 292 
 ZAR  HZ I        1324  6.57        19.6 0.54            118            209 292 
 NOR  HZ EP       1323 38.16                             119   -0.07 8  239 235 
 NOR  HN ES       1324  6.94                             119    0.26 8  239 235 
 NOR  HZ I        1324 13.22        13.4 0.24            114            239 235 
 CHI  HZ EP   2   1323 40.12                             118    0.23 4  250 196 
 CHI  HN ES   4   1324 11.72                             118    2.08 0  250 196 
 CHI  HZ I        1324 15.42         6.0 0.24            113            250 196 
 ROSC BZ EP   4   1323 41.99                             118    1.55 0  256 212 
 ROSC BZ I        1324 20.05        20.4 0.35            112            256 212 
 CBOC HZ EP   2   1323 50.01                             111    0.57 3  339 252 
 CBOC HN ES       1324 27.34                             111    0.70 7  339 252 
 CBOC HZ I        1324 34.91         2.7 0.58            106            339 252 
 ANIL HZ EP   4   1323 50.25                             109   -1.93 0  361 225 
 ANIL HN ES       1324 31.44                             109   -0.08 6  361 225 
 PAL  HZ EP   2   1323 57.68                             107    0.08 3  410 239 
 PAL  HN ES   4   1324 33.49                             107   -7.69 0  410 239 
 PAL  HZ I        1324 43.66         2.8 0.60            102            410 239 
                                                                                
