 2010  227 1757 40.8 L   6.794 -73.096147.2  RSN  6 0.3 2.0LRSN                1
 GAP=188        0.65       3.3     6.4  5.5 -0.3765E+00  0.5652E+01  0.1320E+01E
 Epicentro: LOS SANTOS - SANTANDER                                             3
 ACTION:UP  10-08-24 09:51 OP:vdl  STATUS:               ID:20100227175740 L   I
 2010-02-27-1756-33S.COL___093                                                 6
 STAT SP IPHASW D HRMM SECON CODA AMPLIT PERI AZIMU VELO SNR AR TRES W  DIS CAZ7
 BAR2 SZ EP       1758  0.77                             170     0.110   24 204 
 BAR2 SZ ES   2   1758 15.87                             170    -0.2 5   24 204 
 BRR  HZ EP       1758  2.59                             151     0.210   76 297 
 BRR  HN ES   1   1758 19.58                             151     0.3 7   76 297 
 BRR  HZ I        1758 22.42        20.1 0.07                            76 297 
 RUS  BZ EP       1758  4.84                             145     0.210  100 179 
 RUS  BZ I        1758  6.21         5.1 0.21                           100 179 
 RUS  BN ES   1   1758 22.93                             145    -0.3 7  100 179 
 OCA  SZ EP       1758  9.41                             130     0.0 9  162 351 
 OCA  SZ ES   2   1758 30.84                             130    -0.8 5  162 351 
 OCA  SZ I        1758 35.98        17.3 0.35                           162 351 
 RREF BZ EP       1758 27.20                             111    -0.3 7  326 230 
 RREF BN ES   1   1759  3.74                             111    -0.1 5  326 230 
 RREF BZ I        1759 13.34         5.7 0.16                           326 230 
 PRA  HZ EP       1758 34.29                             107    -0.4 6  394 210 
 PRA  HZ I        1759 22.46         4.3 0.20                           394 210 
                                                                                
