 2016  927 1012 11.1 L   6.793 -73.137143.4  RSN 10 0.5 1.9LRSN                1
 GAP=138        1.33       4.4     5.6  8.0 -0.3019E+01  0.1002E+02 -0.2867E+01E
 Epicentro: LOS SANTOS - SANTANDER                                             3
 ACTION:UPD 17-08-17 21:16 OP:lp   STATUS:               ID:20160927101211 L   I
 OLDACT:UP  16-09-27 21:40 OP:dani STATUS:               ID:20160927100745     3
 OLDACT:REG 16-09-27 20:04 OP:dani STATUS:               ID:20160927100745     3
 2016-09-27-1008-00M.COL___351                                                 6
 STAT SP IPHASW D HRMM SECON CODA AMPLIT PERI AZIMU VELO AIN AR TRES W  DIS CAZ7
 BAR2 EZ EP     C 1012 30.45                             171    0.0510 22.7 193 
 BAR2 EZ ES       1012 45.30                             171   -0.1810 22.7 193 
 BAR2 EZ I        1012 46.64        20.0 0.22            171           22.7 193 
 BRR  HZ EP       1012 32.36                             152    0.3310 72.4 299 
 BRR  HN ES       1012 49.29                             152    0.9110 72.4 299 
 BRR  HZ I        1012 53.43        17.6 0.10            151           72.4 299 
 PAM  EZ EP       1012 33.32                             150    0.2910 77.4  39 
 PAM  EN ES       1012 50.17                             150    0.0110 77.4  39 
 PAM  EZ I        1012 52.92        13.0 0.57            154           77.4  39 
 RUS  HZ EP       1012 34.74                             144    0.2110 99.7 177 
 RUS  HN ES       1012 52.63                             144   -0.1910 99.7 177 
 RUS  HZ I        1012 53.71         4.8 0.20            147           99.7 177 
 PTB  HZ EP       1012 37.16                             131   -0.76 9  149 259 
 PTB  HN ES       1012 57.74                             131   -1.11 9  149 259 
 PTB  HZ I        1013  0.92        14.1 0.32            133            149 259 
 OCA  HZ EP       1012 39.14                             129   -0.14 9  161 353 
 OCA  HN ES       1013  0.42                             129   -0.87 9  161 353 
 SPBC HZ EP       1012 39.52                             128    0.13 9  163 219 
 SPBC HE ES       1013  1.70                             128    0.23 9  163 219 
 SPBC HZ I        1013  5.11        12.3 0.22            131            163 219 
 ZAR  HZ EP       1012 43.81                             122    0.33 8  205 292 
 ZAR  HN ES       1013  9.47                             122    0.71 8  205 292 
 ZAR  HZ I        1013 12.77         9.2 0.26            123            205 292 
 URE  HZ EP   4   1012 55.29                             113    3.13 0  285 292 
 GUY2CHZ EP   4   1012 57.07                             112    2.46 0  302 235 
 GUY2CHZ I        1013 35.85         4.9 0.26                           302 235 
 SJC  HZ EP   4   1013  5.30                             105   -1.39 0  410 327 
 SJC  HN ES   4   1013 46.57                             105   -3.51 0  410 327 
 SJC  HZ I        1013 49.76         1.5 0.33            107            410 327 
                                                                                
