 2017  227 1154  7.5 L   6.790 -73.128146.0  RSN  9 0.4 1.7LRSN                1
 GAP=139        0.96       3.6     4.1  5.7  0.5687E+00  0.3932E+01  0.5133E+01E
 Epicentro: LOS SANTOS - SANTANDER                                             3
 ACTION:UPD 17-05-24 15:41 OP:jn   STATUS:               ID:20170227115407 L   I
 OLDACT:REG 17-02-27 20:40 OP:lv   STATUS:               ID:20170227114745     3
 2017-02-27-1148-00M.COL___366                                                 6
 STAT SP IPHASW D HRMM SECON CODA AMPLIT PERI AZIMU VELO AIN AR TRES W  DIS CAZ7
 BAR2 EZ IP     C 1154 26.78                             171   -0.3710 22.7 195 
 BAR2 EZ ES       1154 42.56                             171    0.0910 22.7 195 
 BAR2 EZ I        1154 43.40         7.4 0.12            169           22.7 195 
 BRR  HZ EP       1154 28.70                             152   -0.1010 73.4 299 
 BRR  HE ES       1154 46.26                             152    0.8510 73.4 299 
 BRR  HZ I        1154 49.98        16.2 0.22            149           73.4 299 
 PAM  EZ EP       1154 29.65                             151   -0.0710 77.0  38 
 PAM  EN ES       1154 46.93                             151   -0.1210 77.0  38 
 PAM  EZ I        1154 49.01         9.9 0.26            154           77.0  38 
 RUS  HZ EP       1154 30.89                             144   -0.3010 99.4 177 
 RUS  HN ES       1154 49.68                             144    0.0110 99.4 177 
 RUS  HZ I        1154 50.05         6.6 0.28            146           99.4 177 
 PTB  HZ EP   4   1154 33.43                             132   -1.21 0  149 259 
 PTB  HN ES       1154 55.11                             132   -0.70 9  149 259 
 PTB  HZ I        1155  1.01         7.3 0.26            131            149 259 
 ZAR  HZ EP       1154 40.71                             122    0.52 8  206 292 
 ZAR  HN ES       1155  5.29                             122   -0.39 8  206 292 
 ZAR  HZ I        1155 10.99        12.4 0.26            122            206 292 
 CHI  HZ EP       1154 45.38                             117    0.22 8  248 196 
 CHI  HE ES       1155 14.78                             117    0.25 8  248 196 
 CHI  HZ I        1155 17.21         1.4 0.09            118            248 196 
 HEL  HZ EP   9   1154 49.47                             115    1.57 0  274 256 
 HEL  HN ES       1155 21.07                                    0.09 8  274 256 
 PRA  HZ EP       1155  1.77                             107    0.74 6  392 210 
 PRA  HE ES       1155 42.66                             107   -0.13 6  392 210 
 PRA  HZ I        1155 46.35         2.0 0.28            107            392 210 
                                                                                
