 2012  627 1644 33.1 L   6.807 -73.180142.8  RSN  5 0.3 1.6LRSN                1
 GAP=132        0.41       4.8     4.3  6.0  0.2392E+01  0.1095E+02  0.5038E+01E
 Epicentro: LOS SANTOS - SANTANDER                                             3
 ACTION:UPD 12-08-06 17:53 OP:ep   STATUS:               ID:20120627164433 L   I
 2012-06-27-1640-00M.COL___201                                                 6
 STAT SP IPHASW D HRMM SECON CODA AMPLIT PERI AZIMU VELO AIN AR TRES W  DIS CAZ7
 BAR2 SZ EP   3   1644 52.19                             170   -0.20 3 23.8 181 
 BAR2 SZ ES   2   1645  7.39                             170   -0.04 5 23.8 181 
 BAR2 SZ I        1645 10.33        11.1 0.36                          23.8 181 
 BRR  HZ EP   3   1644 54.58                             153    0.85 3 67.5 299 
 PAM  SN ES   2   1645 12.19                             150   -0.10 5 79.2  42 
 PAM  SN I        1645 13.61         7.8 0.24                          79.2  42 
 RUS  HZ EP       1644 56.52                             143   -0.1310  102 174 
 RUS  HN ES   2   1645 15.36                             143    0.35 5  102 174 
 PTB  HZ EP       1644 59.63                             132    0.12 9  144 258 
 PTB  HN ES   2   1645 19.82                             132   -0.29 5  144 258 
 PTB  HZ I        1645 24.60         3.8 0.14                           144 258 
                                                                                
