 2015  527 1914 21.3 L   6.759 -73.099146.4  RSN  5 0.4 1.7LRSN                1
 GAP=144        1.00       5.7     7.9  8.1 -0.7433E+01 -0.1105E+02  0.4725E+01E
 Epicentro: LOS SANTOS - SANTANDER                                             3
 ACTION:UPD 15-09-10 22:07 OP:cam  STATUS:               ID:20150527191421 L   I
 OLDACT:REG 15-05-27 22:08 OP:ar   STATUS:               ID:20150527190746     3
 2015-05-27-1907-46M.COL___307                                                 6
 STAT SP IPHASW D HRMM SECON CODA AMPLIT PERI AZIMU VELO AIN AR TRES W  DIS CAZ7
 BAR2 EZ EP       1914 40.73                             172   -0.2410 20.6 207 
 BAR2 EZ ES       1914 55.69                             172   -0.6110 20.6 207 
 BAR2 EZ I        1914 58.38        10.7 0.34            166           20.6 207 
 BRR  HE ES       1915  0.26                             150    0.4810 77.9 300 
 PAM  SZ EP       1914 43.55                             151   -0.0810 77.9  34 
 RUS  HZ EP       1914 45.21                             145    0.4210 95.8 179 
 RUS  HN ES       1915  3.54                             145    0.4410 95.8 179 
 RUS  HZ I        1915  4.86         5.8 0.34            143           95.8 179 
 SPBC HZ EP       1914 49.59                             129   -0.25 9  163 221 
 SPBC HE ES       1915 11.86                             129   -0.24 9  163 221 
 SPBC HZ I        1915 18.72         9.7 0.20            127            163 221 
                                                                                
