 2013 1127 1533 26.6 L   6.812 -73.152150.5  RSN  8 0.5 2.0LRSN                1
 GAP=147        0.98       6.0     6.3  7.5 -0.1567E+02  0.1341E+02 -0.6789E+01E
 Epicentro: LOS SANTOS - SANTANDER                                             3
 ACTION:UPD 14-01-09 16:31 OP:ep   STATUS:               ID:20131127153326 L   I
 OLDACT:UP  13-11-27 16:37 OP:cam  STATUS:               ID:20131127153000     3
 OLDACT:REG 13-11-27 15:16 OP:cam  STATUS:               ID:20131127153000     3
 2013-11-27-1530-00M.COL___282                                                 6
 STAT SP IPHASW D HRMM SECON CODA AMPLIT PERI AZIMU VELO AIN AR TRES W  DIS CAZ7
 BAR2 SZ EP   1   1533 46.54                             170   -0.27 7 24.5 188 
 BAR2 SZ ES   1   1534  2.47                             170   -0.12 7 24.5 188 
 BAR2 SZ I        1534  4.30        22.9 0.34            171           24.5 188 
 BRR  HZ EP       1533 48.59                             154    0.4010 70.0 298 
 BRR  HE ES   1   1534  5.90                             154    0.87 7 70.0 298 
 BRR  HZ I        1534  8.38        15.7 0.32            144           70.0 298 
 PAM  SZ EP   1   1533 49.39                             152    0.11 7 76.9  41 
 PAM  SN ES   1   1534  6.79                             152   -0.19 7 76.9  41 
 PAM  SZ I        1534  8.78         7.6 0.58            146           76.9  41 
 PTB  HZ EP       1533 53.22                             133   -0.69 9  147 258 
 PTB  HN ES       1534 14.64                             133   -0.58 9  147 258 
 PTB  HZ I        1534 16.63        17.3 0.12            125            147 258 
 SPBC HZ EP   2   1533 55.58                             130    0.07 5  164 219 
 ZAR  HZ EP   1   1533 59.15                             124   -0.08 6  203 292 
 ZAR  HZ I        1534 30.71        11.5 0.24            116            203 292 
 NOR  HZ EP   1   1534  3.13                             119    0.52 6  235 234 
 NOR  HN ES   1   1534 31.49                             119    0.77 6  235 234 
 NOR  HZ I        1534 34.89         8.0 0.18            113            235 234 
 SML  HZ EP       1534  3.60                             119    0.27 8  242 335 
 SML  HN ES   1   1534 31.57                             119   -0.42 6  242 335 
 SML  HZ I        1534 34.30        16.0 0.10            112            242 335 
                                                                                
