 2012  327 1329 40.5 L   6.710 -73.362126.7  RSN  7 0.4 2.1LRSN                1
 GAP= 88        0.70       4.9     4.3  6.7  0.1508E+01  0.6264E+01  0.2625E+00E
 ACTION:UP  12-03-31 23:23 OP:EP   STATUS:               ID:20120327132940 L   I
 2012-03-27-1327-43M.COL___175                                                 6
 STAT SP IPHASW D HRMM SECON CODA AMPLIT PERI AZIMU VELO SNR AR TRES W  DIS CAZ7
 BAR2 SZ EP   2   1329 57.80                             169     0.0 5   24 123 
 BAR2 SZ ES   1   1330 11.39                             169     0.0 7   24 123 
 BAR2 SZ I        1330 12.26        47.9 0.37                            24 123 
 BRR  HZ EP   1   1329 58.79                             154    -0.1 7   59 319 
 BRR  HZ I        1329 58.85        55.0 0.13                            59 319 
 BRR  HE ES   1   1330 13.32                             154     0.1 7   59 319 
 RUS  HZ EP   1   1330  2.08                             141     0.1 7   95 161 
 RUS  HE ES   2   1330 19.37                             141     0.6 5   95 161 
 PAM  SZ EP   1   1330  2.34                             139    -0.1 7  101  46 
 PAM  SN ES   2   1330 19.28                             139    -0.3 5  101  46 
 PTB  HZ EP   2   1330  2.78                             133    -0.8 5  122 261 
 PTB  HN ES   2   1330 20.83                             133    -0.8 5  122 261 
 PTB  HZ I        1330 25.50        10.0 0.35                           122 261 
 ZAR  HZ EP   1   1330 10.31                             120     0.4 7  187 298 
 ZAR  HN ES   2   1330 33.61                             120     0.8 4  187 298 
 ZAR  HZ I        1330 37.01        10.8 0.38                           187 298 
 NOR  SE ES   2   1330 37.36                             117     0.0 4  210 233 
                                                                                
