 2011  227 1814 11.1 L   6.909 -73.465132.0  RSN  5 0.3 1.7LRSN                1
 GAP=180        0.71       3.3    15.6  9.2 -0.2440E+02  0.9870E+02 -0.1081E+02E
 Epicentro: SAN VICENTE DE CHUCURI - SANTANDER                                 3
 ACTION:UP  11-03-28 15:11 OP:jfem STATUS:               ID:20110227181411 L   I
 2011-02-27-1812-41S.COL___135                                                 6
 STAT SP IPHASW D HRMM SECON CODA AMPLIT PERI AZIMU VELO SNR AR TRES W  DIS CAZ7
 BAR2 SZ EP       1814 29.86                             160     0.110   47 138 
 BAR2 SZ ES   1   1814 44.61                             160     0.2 7   47 138 
 BAR2 SZ I        1814 48.41        16.7 0.44                            47 138 
 RUS  HZ EP       1814 34.65                             136    -0.410  120 159 
 RUS  HN ES   1   1814 53.63                             136    -0.2 7  120 159 
 RUS  HZ I        1814 54.96         4.9 0.37                           120 159 
 GRA  SZ EP       1814 35.64                             133     0.110  130  34 
 GRA  SZ ES   1   1814 54.82                             133     0.2 7  130  34 
 GRA  SZ I        1814 56.07        13.9 0.35                           130  34 
 OCA  SZ EP       1814 37.07                             129    -0.1 9  148   6 
 OCA  SZ ES   2   1814 56.95                             129    -0.5 5  148   6 
 OCA  SZ I        1814 59.57         6.4 0.27                           148   6 
 CHI  HZ EP       1814 48.84                             114     0.2 8  254 187 
 CHI  HE ES   2   1815 18.66                             114     0.8 4  254 187 
 CHI  HZ I        1815 23.82         3.9 0.34                           254 187 
                                                                                
