 2012  227 1204 21.3 L   5.915 -73.775102.6  RSN  8 0.3 1.6LRSN                1
 GAP= 86        0.56       2.4     2.8  6.3 -0.2563E+01  0.8316E+01 -0.2805E+00E
 ACTION:UP  12-03-07 16:34 OP:epov STATUS:               ID:20120227120421 L   I
 2012-02-27-1200-00M.COL___192                                                 6
 STAT SP IPHASW D HRMM SECON CODA AMPLIT PERI AZIMU VELO AIN AR TRES W  DIS CAZ7
 RUS  HZ EP       12 4 38.99                             141   -0.0810 76.6  92 
 RUS  HZ I        12 4 39.55         8.2 0.30                          76.6  92 
 RUS  HN ES   1   12 4 52.90                             141   -0.05 7 76.6  92 
 BAR2 SZ EP       12 4 40.51                             132   -0.1310 99.5  41 
 BAR2 SZ ES       12 4 55.78                             132    0.0310 99.5  41 
 NOR  SZ EP       12 4 42.76                             124   -0.3010  127 252 
 NOR  SN ES   1   12 5  0.29                             124    0.23 7  127 252 
 BRR  HZ EP       12 4 44.02                             123    0.5610  132   3 
 BRR  HE ES   2   12 5  0.23                             123   -0.54 5  132   3 
 BRR  HZ I        12 5  1.61        15.4 0.11                           132   3 
 CHI  HZ EP       12 4 44.99                             121   -0.08 9  142 178 
 CHI  HN ES   1   12 5  3.85                             121    0.23 7  142 178 
 CHI  HZ I        12 5 11.39         3.6 0.36                           142 178 
 GIR2 SZ EP   2   12 4 44.59                             121   -0.29 5  144  27 
 HEL  HZ EP   2   12 4 50.75                             112   -0.19 4  197 279 
 HEL  HZ I        12 4 56.14         4.6 0.45                           197 279 
 RREF HZ EP   1   12 4 52.54                             111    0.05 6  207 237 
 RREF HN ES   2   12 5 16.90                             111    0.06 4  207 237 
 RREF HZ I        12 5 22.76         3.2 0.20                           207 237 
                                                                                
