 2013  327 1214 38.2 L   6.783 -73.145142.0  RSN 12 0.5 2.7LRSN                1
 GAP= 72        1.03       4.2     3.5  5.3  0.6749E+00  0.3977E+01  0.5421E+01E
 Epicentro: LOS SANTOS - SANTANDER                                             3
 ACTION:UPD 13-04-09 14:05 OP:ep   STATUS:               ID:20130327121438 L   I
 2013-03-27-1210-00M.COL___245                                                 6
 STAT SP IPHASW D HRMM SECON CODA AMPLIT PERI AZIMU VELO AIN AR TRES W  DIS CAZ7
 BAR2 SZ EP       1214 57.17                             171   -0.1310 21.5 191 
 BAR2 SZ ES       1215 12.16                             171   -0.0710 21.5 191 
 BAR2 SZ I        1215 13.31       199.6 0.18            168           21.5 191 
 GIR2 SZ EP       1214 57.25                             166   -0.1910 33.2 351 
 GIR2 SZ ES       1215 12.36                             166   -0.1110 33.2 351 
 BRR  HZ IP     C 1214 59.04                             152    0.0810 72.2 300 
 BRR  HN ES       1215 16.03                             152    0.8510 72.2 300 
 BRR  HN I        1215 16.22       187.8 0.26            150           72.2 300 
 PAM  SZ EP       1214 59.98                             150   -0.0810 78.8  39 
 PAM  SE ES       1215 17.07                             150   -0.0810 78.8  39 
 PAM  SE I        1215 19.91        56.3 0.40            153           78.8  39 
 RUS  HZ EP       1215  1.14                             144   -0.2610 98.7 176 
 RUS  HN ES       1215 19.84                             144    0.3110 98.7 176 
 RUS  HN I        1215 21.31        93.7 0.24            143           98.7 176 
 PTB  HZ EP       1215  3.74                             131   -1.06 9  147 260 
 PTB  HN ES       1215 24.92                             131   -0.65 9  147 260 
 PTB  HN I        1215 29.54        58.9 0.22            130            147 260 
 TAM  HZ IP     D 1215  5.48                             130   -0.01 9  155 104 
 TAM  HN ES   2   1215 27.33                             130    0.53 5  155 104 
 ZAR  HZ EP   1   1215 11.12                             122    0.67 6  205 293 
 ZAR  HN ES   1   1215 35.73                             122    0.10 6  205 293 
 ZAR  HN I        1215 42.61        61.3 0.24            121            205 293 
 CHI  HZ EP   1   1215 15.41                             117   -0.04 6  247 195 
 CHI  HN ES   1   1215 44.97                             117    0.43 6  247 195 
 CHI  HN I        1215 51.14        34.1 0.32            116            247 195 
 HEL  HZ EP   1   1215 19.43                             114    1.29 6  272 256 
 HEL  HE ES   1   1215 49.57                             114    0.24 6  272 256 
 HEL  HE I        1215 57.40        22.1 0.34            114            272 256 
 DBB  SZ EP   1   1215 25.68                             109    0.17 5  340 275 
 DBB  SZ ES   1   1216  2.41                             109   -0.04 5  340 275 
 DBB  SZ I        1216  5.41        10.7 0.38            109            340 275 
 PRA  HZ EP       1215 31.58                             106    0.22 6  390 210 
                                                                                
