 2011  127 1232 54.7 L   6.752 -73.180139.3  RSN 18 0.4 3.4LRSN                1
 GAP=133        0.95       2.7     4.6  6.6 -0.7245E+00  0.1240E+02  0.3174E+01E
 Epicentro: VILLANUEVA - SANTANDER                                             3
 ACTION:UP  11-02-08 08:43 OP:pat  STATUS:               ID:20110127123254 L   I
 2011-01-27-1231-05S.COL___138                                                 6
 STAT SP IPHASW D HRMM SECON CODA AMPLIT PERI AZIMU VELO SNR AR TRES W  DIS CAZ7
 BAR2 SZ IP       1233 13.46                             173     0.010   18 181 
 BAR2 SZ ES   2   1233 27.26                             173    -0.8 5   18 181 
 BAR2 SZ I        1233 29.80       839.1 0.30                            18 181 
 BTL  SZ IP       1233 13.62                             171     0.110   21 332 
 GIR2 SZ EP       1233 13.52                             164    -0.210   36 358 
 URB  SZ ES   2   1233 30.10                             157     0.2 5   56 342 
 RUS  HZ EP       1233 17.17                             144    -0.310   96 174 
 RUS  HN ES       1233 35.10                             144    -0.110   96 174 
 RUS  HZ I        1233 37.42       412.2 0.41                            96 174 
 GUE  SZ EP   1   1233 18.59                                    -0.7 7  123  13 
 GRA  SZ IP       1233 20.28                             134     0.410  132  18 
 GRA  SZ ES       1233 39.92                             134     0.410  132  18 
 GRA  SZ I        1233 41.01       575.7 0.19                           132  18 
 OCA  SZ ES       1233 44.80                             127    -0.2 9  165 355 
 OCA  SZ I        1233 49.88       638.6 0.31                           165 355 
 YOP  SZ EP       1233 23.91                             125    -0.1 9  176 151 
 YOP  SE ES       1233 47.22                             125     0.4 9  176 151 
 YOP  SZ I        1233 51.29       144.7 0.15                           176 151 
 NOR  SZ EP       1233 29.12                             118    -0.3 8  229 235 
 NOR  SE ES       1233 56.72                             118     0.3 8  229 235 
 CHI  HZ EP       1233 31.32                             116     0.0 8  242 195 
 CHI  HE ES   2   1233 59.92                             116     0.0 4  242 195 
 CHI  HZ I        1234 10.66       131.3 0.17                           242 195 
 ROSC BZ EP   3   1233 32.85                             116     1.1 2  246 211 
 ROSC BN ES   3   1234  0.87                             116     0.2 2  246 211 
 ROSC BZ I        1234  8.44       272.0 0.39                           246 211 
 HEL  HZ EP       1233 34.46                             114     0.5 8  267 257 
 HEL  HN ES   2   1234  4.32                             114    -0.4 4  267 257 
 HEL  HZ I        1234 11.91       177.1 0.24                           267 257 
 VIL  SZ EP   2   1233 36.93                             111     0.0 4  296 189 
 VIL  SZ I        1234 18.40        69.3 0.56                           296 189 
 DBB  SZ EP       1233 41.23                             108    -0.3 7  336 275 
 TOL  SZ EP       1233 42.83                             108     0.9 7  337 225 
 SJA  SZ EP       1233 47.08                             105    -1.2 6  394 193 
 SJA  SZ I        1234 37.25       157.3 0.47                           394 193 
 MARA HZ EP   3   1234  4.49                             100    -0.3 1  531 216 
 MARA HZ I        1235 22.29        16.5 0.88                           531 216 
                                                                                
