 2014  527 1026 11.4 L   6.751 -73.205148.0  RSN  6 0.4 1.3LRSN                1
 GAP=227        1.01       7.8     7.0  8.1  0.3386E+02  0.8287E+01  0.1039E+01E
 Epicentro: VILLANUEVA - SANTANDER                                             3
 ACTION:UPD 15-03-16 17:01 OP:nd   STATUS:               ID:20140527102611 L   I
 OLDACT:UP  14-05-27 20:16 OP:cam  STATUS:               ID:20140527102000     3
 OLDACT:UP  14-05-27 20:16 OP:cam  STATUS:               ID:20140527102000     3
 OLDACT:REG 14-05-27 19:41 OP:cam  STATUS:               ID:20140527102000     3
 2014-05-27-1020-00M.COL___276                                                 6
 STAT SP IPHASW D HRMM SECON CODA AMPLIT PERI AZIMU VELO AIN AR TRES W  DIS CAZ7
 BAR2 SZ EP       1026 30.91                             173   -0.3410 17.7 172 
 BAR2 SZ ES       1026 46.12                             173   -0.5810 17.7 172 
 BAR2 SZ I        1026 46.86         9.3 0.26            178           17.7 172 
 BRR  HZ EP     C 1026 32.69                             154   -0.0010 68.5 305 
 BRR  HN ES       1026 49.96                             154    0.7010 68.5 305 
 BRR  HZ I        1026 56.76         5.0 0.28            150           68.5 305 
 RUS  HZ EP       1026 35.59                             146    0.5010 95.9 172 
 RUS  HE ES       1026 53.65                             146    0.1210 95.9 172 
 RUS  HZ I        1026 54.97         1.6 0.30            152           95.9 172 
 PTB  HZ EP       1026 37.74                             134   -0.20 9  140 260 
 PTB  HN ES       1026 58.58                             134   -0.03 9  140 260 
 PTB  HZ I        1027  1.61         1.9 0.16            135            140 260 
 ZAR  HZ EP   4   1026 45.30                             123    1.66 0  200 294 
 ZAR  HN ES       1027  8.51                             123   -0.25 9  200 294 
 ZAR  HZ I        1027 16.27         1.8 0.68            124            200 294 
 SML  HZ EP   4   1026 49.60                             118    1.15 0  246 337 
 SML  HE ES   4   1027 14.01                             118   -3.30 0  246 337 
 SML  HZ I        1027 22.70         2.2 0.10            118            246 337 
                                                                                
