 2017  827 1436 43.7 L   6.777 -73.093142.0  RSN  4 0.3 1.5LRSN                1
 GAP=144        0.73       3.8     5.7  5.9 -0.5405E+00 -0.2338E+01  0.8618E+00E
 Epicentro: LOS SANTOS - SANTANDER                                             3
 ACTION:UPD 17-09-04 20:25 OP:rebc STATUS:               ID:20170827143643 L   I
 OLDACT:REG 17-08-27 20:40 OP:osc  STATUS:               ID:20170827142741     3
 2017-08-27-1428-00M.COL___417                                                 6
 STAT SP IPHASW D HRMM SECON CODA AMPLIT PERI AZIMU VELO AIN AR TRES W  DIS CAZ7
 BAR2 EZ EP       1437  2.64                             170   -0.2110 22.7 206 
 BAR2 EZ ES       1437 17.28                             170   -0.5110 22.7 206 
 BAR2 EZ I        1437 18.51        12.2 0.18            172           22.7 206 
 PAM  EZ EP       1437  5.44                             151    0.0410 75.8  35 
 PAM  EE ES       1437 22.49                             151    0.1510 75.8  35 
 PAM  EZ I        1437 24.54         5.7 0.50            150           75.8  35 
 BRR  HZ EP       1437  4.61                             150   -0.1910 77.5 298 
 BRR  HE ES       1437 21.59                             150    0.3210 77.5 298 
 RUS  HZ EP       1437  6.97                             144    0.1110 97.8 179 
 RUS  HE ES       1437 25.24                             144    0.3010 97.8 179 
 RUS  HZ I        1437 25.99         3.7 0.32            145           97.8 179 
                                                                                
