 2017  827 1122 54.0 L   6.802 -73.130147.0  RSN 11 0.4 1.8LRSN                1
 GAP=113        0.96       3.3     3.7  5.6 -0.5931E+00  0.5120E+01  0.4419E+01E
 Epicentro: LOS SANTOS - SANTANDER                                             3
 ACTION:UPD 17-09-04 20:25 OP:rebc STATUS:               ID:20170827112254 L   I
 OLDACT:UP  17-08-27 22:33 OP:osc  STATUS:               ID:20170827111746     3
 OLDACT:REG 17-08-27 20:25 OP:osc  STATUS:               ID:20170827111746     3
 2017-08-27-1118-00M.COL___411                                                 6
 STAT SP IPHASW D HRMM SECON CODA AMPLIT PERI AZIMU VELO AIN AR TRES W  DIS CAZ7
 BAR2 EZ EP       1123 13.59                             170   -0.2310 23.9 194 
 BAR2 EZ ES       1123 28.88                             170   -0.3810 23.9 194 
 BAR2 EZ I        1123 31.39        18.8 0.32            170           23.9 194 
 BRR  HZ EP       1123 15.44                             152    0.0510 72.6 298 
 BRR  HE ES       1123 32.68                             152    0.6210 72.6 298 
 BRR  HZ I        1123 36.30        11.2 0.24            153           72.6 298 
 PAM  EZ EP       1123 16.52                             151    0.2210 76.1  39 
 PAM  EE ES       1123 33.74                             151    0.0710 76.1  39 
 PAM  EZ I        1123 36.65        10.0 0.30            155           76.1  39 
 RUS  HZ EP       1123 17.63                             144   -0.2810  101 177 
 RUS  HN ES       1123 36.42                             144   -0.1210  101 177 
 RUS  HZ I        1123 37.66         5.9 0.28            145            101 177 
 SPBC HN ES       1123 44.98                             129   -0.17 9  164 219 
 YPLC HZ EP       1123 24.05                             127    0.20 9  176 152 
 YPLC HE ES   4   1123 48.57                             127    1.46 0  176 152 
 YPLC HZ I        1123 48.95        10.8 0.24            129            176 152 
 ZAR  HZ EP       1123 26.41                             122   -0.30 8  206 292 
 ZAR  HE ES       1123 51.73                             122   -0.48 8  206 292 
 ZAR  HZ I        1123 56.90         5.4 0.26            124            206 292 
 CHI  HZ EP       1123 31.98                             117    0.11 8  249 196 
 CHI  HN ES       1124  1.41                             117    0.02 8  249 196 
 CHI  HZ I        1124  6.20         3.7 0.36            119            249 196 
 ROSC BZ EP   4   1123 33.93                             117    1.59 0  254 211 
 ROSC BN ES       1124  3.12                             117    0.90 8  254 211 
 ROSC BZ I        1124  8.26         8.6 0.35            118            254 211 
 HEL  HZ EP   4   1123 35.66                             115    1.16 0  274 256 
 HEL  HN ES       1124  6.71                             115    0.64 8  274 256 
 GUY2CHZ EP       1123 38.03                             112    0.16 7  303 235 
 GUY2CHN ES       1124 11.14                             112   -0.93 7  303 235 
 GUY2CHZ I        1124 19.91         4.1 0.66                           303 235 
                                                                                
