 2012  227 1957 24.2 L   6.755 -73.127144.4  RSN  5 0.2 1.9LRSN                1
 GAP=141        0.45       3.1     3.2  4.9  0.1338E+01 -0.2116E+01  0.2142E+01E
 ACTION:UP  12-03-07 16:34 OP:epov STATUS:               ID:20120227195724 L   I
 2012-02-27-1950-00M.COL___192                                                 6
 STAT SP IPHASW D HRMM SECON CODA AMPLIT PERI AZIMU VELO AIN AR TRES W  DIS CAZ7
 BAR2 SZ EP   2   1957 43.20                             172   -0.42 5 19.0 199 
 BAR2 SZ I        1958  0.07        13.8 0.20                          19.0 199 
 BRR  HZ EP       1957 45.68                             151    0.1910 75.5 301 
 BRR  HE ES       1958  2.12                             151    0.0610 75.5 301 
 BRR  HZ I        1958  5.16        18.4 0.37                          75.5 301 
 PAM  SZ EP   1   1957 46.53                             150    0.06 7 80.0  36 
 PAM  SE ES   2   1958  3.44                             150   -0.37 5 80.0  36 
 RUS  HZ EP       1957 47.59                             145    0.1010 95.5 177 
 RUS  HN ES   1   1958  5.66                             145    0.03 7 95.5 177 
 PTB  HZ EP   1   1957 50.88                             131   -0.32 7  149 261 
 PTB  HN ES   1   1958 12.11                             131   -0.12 7  149 261 
                                                                                
