 2017  927 1705 11.4 L   6.788 -73.120136.0  RSN  8 0.6 1.7LRSN                1
 GAP=140        1.18       5.0     5.5  7.2 -0.2564E+00  0.1575E+02  0.6467E+01E
 Epicentro: LOS SANTOS - SANTANDER                                             3
 ACTION:UPD 17-10-05 19:16 OP:rebc STATUS:               ID:20170927170511 L   I
 OLDACT:REG 17-09-27 20:58 OP:dhb  STATUS:               ID:20170927165736     3
 2017-09-27-1658-00M.COL___450                                                 6
 STAT SP IPHASW D HRMM SECON CODA AMPLIT PERI AZIMU VELO AIN AR TRES W  DIS CAZ7
 BAR2 EZ EP       17 5 29.53                             170   -0.3210 22.7 197 
 BAR2 EZ ES       17 5 43.93                             170   -0.3110 22.7 197 
 BAR2 EZ I        17 5 45.43        11.5 0.25            167           22.7 197 
 BRR  HZ IP     C 17 5 31.72                             150    0.0310 74.3 298 
 BRR  HN ES       17 5 48.34                             150    0.8210 74.3 298 
 BRR  HZ I        17 5 50.17        10.5 0.27            148           74.3 298 
 PAM  EZ IP     D 17 5 32.57                             150    0.0210 76.7  37 
 PAM  EE ES       17 5 49.34                             150    0.3110 76.7  37 
 PAM  EZ I        17 5 51.58         8.1 0.16            153           76.7  37 
 RUS  HZ EP       17 5 34.00                             142   -0.1010 99.1 178 
 RUS  HN ES       17 5 51.70                             142   -0.1010 99.1 178 
 RUS  HZ I        17 5 52.81         8.6 0.17            143           99.1 178 
 ZAR  HZ EP       17 5 42.74                             120   -0.82 8  207 292 
 ZAR  HN ES       17 6  8.18                             120   -0.46 8  207 292 
 ZAR  HZ I        17 6 14.03         8.0 0.52            120            207 292 
 NOR  HZ EP       17 5 46.17                             116   -0.59 8  236 235 
 NOR  HE ES       17 6 14.25                             116   -0.08 8  236 235 
 NOR  HZ I        17 6 20.91         3.1 0.12            116            236 235 
 GUY2CHZ EP       17 5 55.61                             110    0.85 7  303 235 
 GUY2CHN ES   2   17 6 30.44                             110    1.87 4  303 235 
 GUY2CHZ I        17 6 34.87         1.9 0.23                           303 235 
 PRA  HZ EP       17 6  5.43                             105    0.79 6  392 210 
 PRA  HE ES   3   17 6 48.95                             105    2.79 1  392 210 
 PRA  HZ I        17 6 54.55         2.2 0.34            106            392 210 
                                                                                
