 2017  327 1520 11.9 L   6.749 -73.173153.2  RSN  4 0.1 1.6LRSN                1
 GAP=135        0.33       2.5     2.8  3.9  0.4305E+01 -0.3778E+01 -0.3523E+01E
 Epicentro: LOS SANTOS - SANTANDER                                             3
 ACTION:UPD 17-05-25 18:46 OP:jn   STATUS:               ID:20170327152011 L   I
 OLDACT:REG 17-03-27 21:50 OP:lv   STATUS:               ID:20170327151751     3
 2017-03-27-1518-00M.COL___366                                                 6
 STAT SP IPHASW D HRMM SECON CODA AMPLIT PERI AZIMU VELO AIN AR TRES W  DIS CAZ7
 BRR  HZ EP       1520 33.89                             154    0.0610 71.5 304 
 BRR  HE ES       1520 51.03                             154    0.0610 71.5 304 
 BRR  HZ I        1520 54.18         7.1 0.17            147           71.5 304 
 PAM  EZ EP       1520 35.18                             150   -0.0610 83.7  39 
 PAM  EZ I        1520 54.26         8.8 0.37            131           83.7  39 
 RUS  HZ EP       1520 36.05                             147    0.0610 95.3 174 
 RUS  HN ES       1520 54.75                             147   -0.0610 95.3 174 
 RUS  HZ I        1520 55.84         2.3 0.29            149           95.3 174 
 ZAR  HZ EP   4   1520 47.79                             124    3.05 0  203 294 
 ZAR  HN ES       1521 10.30                             124   -0.08 9  203 294 
 ZAR  HZ I        1521 16.40         5.1 0.05            120            203 294 
                                                                                
