 2017  327 1307 19.9 L   6.767 -73.490109.4  RSN 24 0.6 2.7LRSN                1
 GAP= 66        1.14       3.2     3.4  5.8 -0.7007E+00  0.8758E+01  0.5413E+01E
 Epicentro: EL CARMEN - SANTANDER                                              3
 ACTION:UPD 17-05-25 18:46 OP:jn   STATUS:               ID:20170327130719 L   I
 OLDACT:DUP 17-03-28 00:02 OP:lv   STATUS:               ID:20170327125746d    3
 2017-03-27-1258-00M.COL___360                                                 6
 STAT SP IPHASW D HRMM SECON CODA AMPLIT PERI AZIMU VELO AIN AR TRES W  DIS CAZ7
 BAR2 EZ IP     C 13 7 35.55                             159   -0.2110 39.1 120 
 BAR2 EZ ES       13 7 47.84                             159   -0.2810 39.1 120 
 BAR2 EZ I        13 7 48.61       374.7 0.24            158           39.1 120 
 BRR  HZ IP     C 13 7 35.31                             156   -0.3710 44.9 327 
 BRR  HN ES       13 7 48.12                             156    0.1410 44.9 327 
 RUS  HZ EP       13 7 40.08                             133   -0.7610  107 155 
 RUS  HN ES   4   13 7 55.99                             133   -1.17 0  107 155 
 RUS  HZ I        13 7 57.22        88.6 0.16            130            107 155 
 PAM  EZ EP       13 7 40.90                             132   -0.0510  108  54 
 PAM  EN ES       13 7 57.99                             132    0.6410  108  54 
 PTB  HZ EP   4   13 7 38.54                             131   -1.94 0  110 257 
 PTB  HN ES   4   13 7 53.00                             131   -3.52 0  110 257 
 PTB  HZ I    4   13 7 54.32       120.1 0.05            128            110 257 
 SPBC HZ EP   4   13 7 41.95                             124   -1.47 0  139 208 
 SPBC HN ES   4   13 7 59.49                             124   -2.25 0  139 208 
 SPBC HZ I        13 8  4.91        92.2 0.10            121            139 208 
 ZAR  HZ EP       13 7 46.91                             118    0.25 9  171 298 
 ZAR  HN ES       13 8  8.03                             118    0.51 9  171 298 
 HEL  HZ EP       13 7 54.14                             110   -0.05 8  234 254 
 HEL  HN ES   4   13 8 19.69                             110   -1.23 0  234 254 
 HEL  HZ I        13 8 23.31        21.1 0.22            107            234 254 
 CHI  HZ EP       13 7 54.89                             109    0.24 8  238 186 
 CHI  HN ES   4   13 8 22.90                             109    1.16 0  238 186 
 CHI  HZ I        13 8 30.67        25.4 0.50            107            238 186 
 URE  HZ EP   4   13 7 54.30                             108   -1.31 0  251 296 
 URE  HN ES   4   13 8 21.54                             108   -1.91 0  251 296 
 URE  HZ I        13 8 31.02        17.0 0.16            106            251 296 
 RECRCHN ES   4   13 8 34.35                             105    2.10 0  287 226 
 VIL  EZ EP       13 8  0.65                             105   -0.25 7  294 184 
 VIL  EN ES   4   13 8 36.18                             105    3.32 0  294 184 
 VIL  EZ I        13 8 39.50        68.2 0.65            103            294 184 
 CBOC HZ EP       13 8  1.89                             104    0.71 7  296 250 
 CBOC HN ES       13 8 33.27                             104   -0.09 7  296 250 
 ELA  HZ EP       13 8  2.10                             104    0.21 7  299 225 
 ELA  HN ES       13 8 34.66                             104    0.03 7  299 225 
 ELA  HZ I        13 8 42.86        14.8 0.57            102            299 225 
 DBB  EZ EP       13 8  1.17                             104   -0.55 7  302 275 
 DBB  EN ES       13 8 33.95                             104   -0.37 7  302 275 
 DBB  EZ I        13 8 36.36        16.5 0.21            102            302 275 
 PTGC HZ EP   4   13 8  2.48                             103   -1.44 0  321 152 
 PTGC HN ES   4   13 8 35.72                             103   -2.51 0  321 152 
 ANIL HZ EP       13 8  5.83                             102    0.63 7  329 220 
 ANIL HN ES       13 8 41.03                             102    0.51 7  329 220 
 ANIL HZ I        13 8 47.15        54.2 0.06            100            329 220 
 ARGC HZ EP   4   13 8  9.93                             101    2.36 0  352 346 
 ARGC HN ES   4   13 8 45.87                             101    1.14 0  352 346 
 APAC HZ EP       13 8  8.47                             101   -0.48 6  363 290 
 APAC HN ES       13 8 46.26                             101   -0.94 6  363 290 
 APAC HZ I        13 8 49.58        11.2 0.23             99            363 290 
 ORTC HZ I        13 8 57.18        15.0 0.33             98            371 212 
 PRA  HN ES       13 8 49.25                             100    0.27 6  371 205 
 PRA  HZ I        13 8 57.31        22.5 0.18             98            371 205 
 ORTC HN ES       13 8 51.03                             100    2.10 6  371 212 
 PRA  HZ EP       13 8  9.36                             100   -0.60 6  371 205 
 ORTC HZ EP       13 8  9.84                             100   -0.09 6  371 212 
 PAL  HZ EP       13 8  8.91                             100   -1.10 6  372 237 
 PAL  HN ES       13 8 48.71                             100   -0.37 6  372 237 
 SJC  HZ EP   4   13 8 12.09                              99   -0.49 0  393 332 
 SJC  HN ES   4   13 8 51.58                              99   -2.07 0  393 332 
 SJC  HZ I        13 9  4.76         9.6 0.22             97            393 332 
 VALLCHZ EP       13 8 15.51                              98    0.37 6  415   4 
 VALLCHN ES   4   13 9  0.07                              98    1.86 0  415   4 
 CRJC HZ EP       13 8 22.64                              96    0.09 5  475   8 
 CRJC HN ES       13 9 12.06                              96    0.66 5  475   8 
 CRJC HZ I        13 9 18.97        18.7 0.07             94            475   8 
 MACC HN ES   4   13 9 16.05                              95   -3.27 0  513 184 
 MACC HZ I        13 9 22.18         5.0 0.24             93            513 184 
 GARC HZ EP   4   13 8 30.56                              94   -1.65 0  553 204 
 GARC HN ES   4   13 9 26.15                              94   -2.45 0  553 204 
 GARC HZ I        13 9 31.72        11.8 0.05             92            553 204 
 URI  HZ EP   4   13 8 32.96                              94   -0.99 0  570  17 
 URI  HN ES   4   13 9 28.80                              94   -2.90 0  570  17 
 URI  HZ I        13 9 33.37         2.3 0.34             92            570  17 
                                                                                
