 2013  827 1143 38.5 L   6.796 -73.187137.4  RSN  4 0.4 1.3LRSN                1
 GAP=233        1.17       8.9     8.5  9.4  0.3863E+02  0.9145E+01  0.4158E+01E
 Epicentro: LOS SANTOS - SANTANDER                                             3
 ACTION:UPD 14-01-14 09:07 OP:ep   STATUS:               ID:20130827114338 L   I
 OLDACT:REG 13-08-27 15:24 OP:nd   STATUS:               ID:20130827113959     3
 2013-08-27-1139-59M.COL___270                                                 6
 STAT SP IPHASW D HRMM SECON CODA AMPLIT PERI AZIMU VELO AIN AR TRES W  DIS CAZ7
 BAR2 SZ EP       1143 57.14                             170   -0.0210 22.5 179 
 BAR2 SZ ES       1144 10.84                             170   -0.8410 22.5 179 
 BAR2 SZ I        1144 12.98         4.6 0.32            169           22.5 179 
 BRR  HZ EP       1143 58.87                             152    0.2810 67.4 301 
 BRR  HN ES       1144 14.72                             152    0.5110 67.4 301 
 BRR  HZ I        1144 20.92         9.6 0.48            151           67.4 301 
 RUS  HZ EP       1144  1.44                             142   -0.0510  101 173 
 RUS  HN ES       1144 19.97                             142    0.5910  101 173 
 RUS  HZ I        1144 21.69         1.4 0.16            145            101 173 
 PTB  HZ EP       1144  3.99                             131   -0.43 9  143 259 
 PTB  HN ES       1144 24.50                             131   -0.11 9  143 259 
 PTB  HZ I        1144 29.91         2.6 0.18            132            143 259 
                                                                                
