 2011 1027 1852 40.2 L   6.782 -73.071146.6  RSN  5 0.1 1.7LRSN                1
 GAP=147        0.40       3.2     4.0  5.2 -0.8785E+00 -0.1608E+01  0.5798E+01E
 Epicentro: LOS SANTOS - SANTANDER                                             3
 ACTION:UPD 12-07-13 16:06 OP:ep   STATUS:               ID:20111027185240 L   I
 2011-10-27-1848-41S.COL___176                                                 6
 STAT SP IPHASW D HRMM SECON CODA AMPLIT PERI AZIMU VELO AIN AR TRES W  DIS CAZ7
 BAR2 SZ EP       1852 59.94                             170   -0.0110 24.4 210 
 BAR2 SZ I        1853  0.28        14.9 0.36                          24.4 210 
 BTL  SZ EP       1853  0.10                             170    0.1010 26.5 305 
 PAM  SZ EP       1853  2.33                             152    0.0210 74.0  34 
 PAM  SN ES   1   1853 19.48                             152   -0.07 7 74.0  34 
 BRR  HZ EP       1853  1.67                             150   -0.2510 79.4 297 
 BRR  HE ES   1   1853 19.00                             150    0.14 7 79.4 297 
 BRR  HZ I        1853 22.28        15.7 0.16                          79.4 297 
 RUS  HZ EP       1853  4.02                             144    0.1410 98.4 181 
 RUS  HN ES   2   1853 22.16                             144   -0.18 5 98.4 181 
 RUS  HZ I        1853 24.05         3.4 0.38                          98.4 181 
                                                                                
