 2015 1227 1929  2.1 L   6.810 -73.220132.9  RSN  5 0.2 1.4LRSN                1
 GAP=126        0.62       2.7     3.2  5.3 -0.9812E+00  0.5920E+01 -0.3100E+01E
 Epicentro: ZAPATOCA - SANTANDER                                               3
 ACTION:UPD 16-02-04 15:08 OP:cam  STATUS:               ID:20151227192902 L   I
 OLDACT:REG 15-12-27 21:42 OP:cara STATUS:               ID:20151227192750     3
 2015-12-27-1927-50M.COL___331                                                 6
 STAT SP IPHASW D HRMM SECON CODA AMPLIT PERI AZIMU VELO AIN AR TRES W  DIS CAZ7
 BAR2 EZ EP       1929 19.94                             169   -0.2710 24.4 170 
 BAR2 EZ ES       1929 34.03                             169   -0.3010 24.4 170 
 BAR2 EZ I        1929 36.05         4.0 0.40            171           24.4 170 
 PAM  EZ IP       1929 23.24                             147   -0.0310 82.1  44 
 PAM  EN ES       1929 40.16                             147    0.3810 82.1  44 
 PAM  EZ I        1929 41.99         9.1 0.58            150           82.1  44 
 RUS  HZ EP       1929 24.73                             140   -0.0310  103 172 
 RUS  HN ES       1929 42.50                             140    0.0710  103 172 
 RUS  HZ I        1929 43.76         3.8 0.26            143            103 172 
 PTB  HZ EP       1929 27.57                             130    0.25 9  140 258 
 PTB  HN ES       1929 47.15                             130    0.16 9  140 258 
 PTB  HZ I        1929 50.33         4.5 0.32            132            140 258 
 SML  HN ES       1930  4.96                             115   -0.27 8  239 337 
                                                                                
