 2017  427 1414 44.6 L   6.772 -73.224148.9  RSN  5 0.2 1.9LRSN                1
 GAP=249        0.54       3.1     4.6  5.1  0.2145E+00 -0.4536E+01  0.5511E+01E
 Epicentro: ZAPATOCA - SANTANDER                                               3
 ACTION:UPD 17-05-30 21:16 OP:jn   STATUS:               ID:20170427141444 L   I
 OLDACT:UP  17-04-27 23:16 OP:dani STATUS:               ID:20170427140704d    3
 OLDACT:DUP 17-04-27 23:14 OP:dani STATUS:               ID:20170427140704d    3
 OLDACT:UP  17-04-27 23:13 OP:dani STATUS:               ID:20170427140703     3
 OLDACT:UP  17-04-27 23:13 OP:dani STATUS:               ID:20170427140703     3
 OLDACT:REG 17-04-27 21:16 OP:dani STATUS:               ID:20170427140703     3
 2017-04-27-1408-00M.COL___377                                                 6
 STAT SP IPHASW D HRMM SECON CODA AMPLIT PERI AZIMU VELO AIN AR TRES W  DIS CAZ7
 BRR  HZ EP       1415  5.54                             155   -0.2210 65.4 305 
 BRR  HN ES       1415 22.47                             155    0.2010 65.4 305 
 BRR  HZ I        1415 23.14        12.0 0.26            149           65.4 305 
 PTB  HZ EP       1415 10.85                             135   -0.15 9  139 259 
 PTB  HN ES       1415 31.34                             135   -0.27 9  139 259 
 PTB  HZ I        1415 38.70        12.1 0.28            130            139 259 
 ZAR  HZ EP       1415 16.70                             124    0.16 9  197 294 
 ZAR  HN ES       1415 41.60                             124    0.13 9  197 294 
 ZAR  HZ I        1415 47.90         7.2 0.31            122            197 294 
 NOR  HZ EP       1415 19.90                             120    0.34 8  226 234 
 NOR  HN ES       1415 46.75                             120   -0.09 8  226 234 
 NOR  HZ I        1415 52.51         5.3 0.40            118            226 234 
 CHI  HZ EP   1   1415 21.64                             118   -0.27 6  244 193 
 CHI  HE ES   1   1415 51.32                             118    0.31 6  244 193 
 CHI  HZ I        1415 54.85         7.3 0.38            118            244 193 
                                                                                
