 2017  727 1445  9.0 L   6.733 -73.184143.1  RSN  5 0.4 1.3LRSN                1
 GAP=203        1.13       8.8     7.8  8.4  0.3678E+02 -0.2603E+00  0.3134E+01E
 Epicentro: VILLANUEVA - SANTANDER                                             3
 ACTION:UPD 17-08-30 15:37 OP:rebc STATUS:               ID:20170727144509 L   I
 OLDACT:REG 17-07-27 21:18 OP:ar   STATUS:               ID:20170727143739     3
 2017-07-27-1438-00M.COL___386                                                 6
 STAT SP IPHASW D HRMM SECON CODA AMPLIT PERI AZIMU VELO AIN AR TRES W  DIS CAZ7
 BAR2 EZ EP       1445 27.68                             174   -0.4810 15.5 179 
 BAR2 EZ ES       1445 42.55                             174   -0.5710 15.5 179 
 BAR2 EZ I        1445 43.61         7.8 0.22            168           15.5 179 
 BRR  HZ EP       1445 30.27                             152    0.4010 71.5 305 
 BRR  HN ES       1445 46.63                             152    0.4810 71.5 305 
 RUS  HN ES       1445 50.25                             145    0.3410 93.6 173 
 PTB  HZ EP       1445 34.68                             133   -0.56 9  142 261 
 PTB  HE ES       1445 55.76                             133    0.04 9  142 261 
 PTB  HZ I        1446  0.91         1.7 0.16            129            142 261 
 YPLC HZ EP       1445 38.53                             127    0.37 9  172 149 
                                                                                
