 2010 1227 1604 56.4 L   6.780 -73.174140.6  RSN 13 0.5 3.6LRSN                1
 GAP=134        0.86       3.7     5.9  6.8 -0.5189E+01  0.1105E+02  0.4691E+01E
 Epicentro: LOS SANTOS - SANTANDER                                             3
 ACTION:UP  11-01-14 15:27 OP:pat  STATUS:               ID:20101227160456 L   I
 2010-12-27-1600-00M.COL___136                                                 6
 STAT SP IPHASW D HRMM SECON CODA AMPLIT PERI AZIMU VELO SNR AR TRES W  DIS CAZ7
 BTL  SZ EP   1   16 5 15.54                             172     0.2 7   18 326 
 BTL  SZ ES   2   16 5 30.71                             172     0.6 5   18 326 
 BAR2 SZ IP       16 5 15.34                             171     0.010   21 183 
 BAR2 SZ ES   2   16 5 30.25                             171     0.1 5   21 183 
 BAR2 SZ I        16 5 33.25       882.5 0.28                            21 183 
 GIR2 SZ ES   2   16 5 30.32                             166    -0.1 5   33 356 
 RUS  HZ IP     D 16 5 19.33                             143    -0.210   99 174 
 RUS  HN ES   2   16 5 37.32                             143    -0.2 5   99 174 
 RUS  HZ I        16 5 39.34       660.3 0.23                            99 174 
 GRA  SZ IP       16 5 21.22                             135    -0.210  129  18 
 GRA  SZ ES   2   16 5 40.68                             135    -0.3 5  129  18 
 GRA  SZ I        16 5 42.07       810.7 0.29                           129  18 
 OCA  SZ EP   1   16 5 24.99                             128     0.5 7  162 354 
 OCA  SZ ES   2   16 5 46.54                             128     0.1 5  162 354 
 OCA  SZ I        16 5 51.50       534.9 0.49                           162 354 
 YOP  SZ EP   1   16 5 26.14                             125     0.1 7  178 152 
 YOP  SN ES   2   16 5 48.23                             125    -0.9 4  178 152 
 YOP  SZ I        16 5 50.84       429.4 0.31                           178 152 
 NOR  SZ EP   1   16 5 31.18                             118    -0.3 6  231 235 
 NOR  SN ES   2   16 5 59.15                             118     0.4 4  231 235 
 ROSC BZ EP   1   16 5 34.95                             116     1.1 6  249 211 
 ROSC BN ES   2   16 6  4.05                             116     1.0 4  249 211 
 ROSC BZ I        16 6 13.73       408.2 0.40                           249 211 
 HEL  HZ EP   1   16 5 36.12                             114     0.2 6  268 256 
 HEL  HN ES   2   16 6  5.38                             114    -1.4 4  268 256 
 HEL  HZ I        16 6 14.27       193.6 0.37                           268 256 
 VIL  SZ EP   1   16 5 38.77                             111    -0.3 5  299 189 
 VIL  SE ES   2   16 6 13.43                             111     1.0 4  299 189 
 VIL  SZ I        16 6 16.23       189.2 0.55                           299 189 
 RREF HZ EP   1   16 5 41.66                             110    -0.2 5  318 229 
 RREF HN ES   2   16 6 16.68                             110    -0.7 3  318 229 
 RREF HZ I        16 6 27.69       250.0 0.41                           318 229 
 PRA  HZ EP   1   16 5 48.80                             106    -0.5 4  388 209 
 PRA  HN ES   2   16 6 31.07                             106     0.4 3  388 209 
                                                                                
