 2016  927 1336 18.4 L   6.502 -73.585100.8  RSN  7 0.5 1.6LRSN                1
 GAP= 89        1.34       4.9     5.0 10.4 -0.5412E-01  0.1709E+02  0.6527E+01E
 Epicentro: SANTA HELENA DEL OPON - SANTANDER                                  3
 ACTION:UPD 17-08-17 21:16 OP:lp   STATUS:               ID:20160927133618 L   I
 OLDACT:UP  16-09-27 23:23 OP:dani STATUS:               ID:20160927132745     3
 OLDACT:REG 16-09-27 20:51 OP:dani STATUS:               ID:20160927132745     3
 2016-09-27-1328-00M.COL___363                                                 6
 STAT SP IPHASW D HRMM SECON CODA AMPLIT PERI AZIMU VELO AIN AR TRES W  DIS CAZ7
 BAR2 EZ EP     D 1336 33.33                             154   -0.2710 45.6  77 
 BAR2 EZ ES       1336 44.86                             154   -0.5910 45.6  77 
 BRR  HZ EP     D 1336 34.23                             143   -0.4910 68.4 348 
 BRR  HE ES       1336 48.31                             143    0.8710 68.4 348 
 BRR  HZ I        1336 57.44        11.7 0.30            144           68.4 348 
 RUS  HZ EP       1336 36.54                             136   -0.3710 87.3 140 
 RUS  HE ES       1336 51.87                             136    0.5310 87.3 140 
 RUS  HZ I        1336 53.44         3.9 0.20            146           87.3 140 
 PTB  HZ IP   4 D 1336 36.09                             132   -0.96 0 96.5 273 
 PTB  HE ES       1336 51.07                             132   -0.5310 96.5 273 
 PTB  HZ I        1336 52.49        12.6 0.28            136           96.5 273 
 SPBC HZ EP       1336 38.70                             129    0.4410  108 210 
 SPBC HN ES       1336 54.10                             129    0.3510  108 210 
 SPBC HZ I        1336 57.06        24.8 0.27            136            108 210 
 NOR  HE ES       1337  5.82                             114   -0.43 9  176 234 
 ZAR  HZ EP       1336 45.99                             114    0.52 9  178 308 
 ZAR  HE ES   4   1337  8.73                             114    2.14 0  178 308 
 ZAR  HZ I        1337 13.61         4.7 0.09            118            178 308 
                                                                                
