 2012  827 1634 19.0 L   6.778 -73.181141.8  RSN  6 0.4 2.0LRSN                1
 GAP=133        0.83       5.2     6.2  7.3 -0.1549E+01  0.8929E+01  0.2253E+01E
 Epicentro: LOS SANTOS - SANTANDER                                             3
 ACTION:UPD 12-09-10 11:58 OP:ep   STATUS:               ID:20120827163419 L   I
 2012-08-27-1630-00M.COL___217                                                 6
 STAT SP IPHASW D HRMM SECON CODA AMPLIT PERI AZIMU VELO AIN AR TRES W  DIS CAZ7
 BAR2 SZ EP       1634 38.27                             171    0.1810 20.5 181 
 BAR2 SZ ES   1   1634 52.90                             171   -0.08 7 20.5 181 
 BAR2 SZ I        1634 54.16        28.4 0.30                          20.5 181 
 BRR  HZ EP       1634 40.09                             152    0.5010 69.1 302 
 BRR  HZ I        1634 40.28        37.8 0.32                          69.1 302 
 BRR  HN ES   1   1634 55.99                             152    0.33 7 69.1 302 
 PAM  SZ EP       1634 41.10                             149    0.0410 81.8  41 
 PAM  SZ I        1634 41.34        20.8 0.22                          81.8  41 
 PAM  SN ES   1   1634 57.66                             149   -0.61 7 81.8  41 
 RUS  HZ EP       1634 42.31                             144    0.1110 98.5 174 
 RUS  HN ES   1   1635  0.31                             144    0.01 7 98.5 174 
 RUS  HZ I        1635  2.33         9.5 0.30                          98.5 174 
 PTB  HZ EP       1634 44.56                             132   -0.69 9  143 260 
 PTB  HN ES   3   1635  5.22                             132   -0.50 2  143 260 
 CHI  HN ES   3   1635 24.65                             117   -0.40 2  245 194 
                                                                                
