 2012  527 1501 58.9 L   6.894 -73.160145.0  RSN  4 0.3 1.4LRSN                1
 GAP=182        0.73       6.4     7.8 11.5  0.2844E+01  0.3342E+02 -0.1736E+02E
 Epicentro: BETULIA - SANTANDER                                                3
 ACTION:UP  12-07-05 12:08 OP:pat  STATUS:               ID:20120527150158 L   I
 2012-05-27-1500-00M.COL___197                                                 6
 STAT SP IPHASW D HRMM SECON CODA AMPLIT PERI AZIMU VELO SNR AR TRES W  DIS CAZ7
 BAR2 SZ EP   1   15 2 19.05                             166     0.4 7   33 184 
 BAR2 SZ I        15 2 19.32         6.6 0.21                            33 184 
 BAR2 SZ ES   1   15 2 34.35                             166     0.3 7   33 184 
 RUS  HN ES   1   15 2 41.90                             141    -0.5 7  111 176 
 PTB  HZ EP   1   15 2 25.81                             132     0.0 7  149 255 
 PTB  HN ES   1   15 2 46.94                             132     0.1 7  149 255 
 PTB  HZ I        15 2 49.18         2.9 0.11                           149 255 
 OCA  HE ES   2   15 2 46.89                             131    -0.5 5  150 353 
                                                                                
