 2011  127 1055  8.9 L   6.750 -73.079134.0  RSN  4 0.4 1.2LRSN                1
 GAP=167        1.10       7.6    34.7 13.7 -0.1271E+03 -0.1787E+02 -0.1309E+01E
 Epicentro: LOS SANTOS - SANTANDER                                             3
 ACTION:UP  11-02-08 08:43 OP:pat  STATUS:               ID:20110127105508 L   I
 2011-01-27-1053-28S.COL___138                                                 6
 STAT SP IPHASW D HRMM SECON CODA AMPLIT PERI AZIMU VELO SNR AR TRES W  DIS CAZ7
 BAR2 SZ EP       1055 26.55                             171    -0.510   21 213 
 BAR2 SZ ES   1   1055 40.99                             171    -0.3 7   21 213 
 BAR2 SZ I        1055 42.49         5.3 0.32                            21 213 
 BTL  SZ EP       1055 27.75                             168     0.510   28 312 
 RUS  HZ EP       1055 30.86                             143    -0.210   95 180 
 RUS  HN ES   1   1055 49.00                             143     0.6 7   95 180 
 RUS  HZ I        1055 50.94         3.2 0.24                            95 180 
 GRA  SZ EP   3   1055 34.11                             134     0.7 2  129  14 
 GRA  SZ ES   1   1055 52.58                             134     0.0 7  129  14 
 GRA  SZ I        1055 54.87         2.0 0.32                           129  14 
                                                                                
