 2012 1127 1238 46.2 L   6.771 -73.127142.0  RSN  5 0.2 1.9LRSN                1
 GAP=140        0.55       3.2     3.9  7.2  0.2390E+01  0.1114E+02 -0.3320E+01E
 Epicentro: LOS SANTOS - SANTANDER                                             3
 ACTION:UPD 12-12-05 15:36 OP:}ep  STATUS:               ID:20121127123846 L   I
 2012-11-27-1230-00M.COL___234                                                 6
 STAT SP IPHASW D HRMM SECON CODA AMPLIT PERI AZIMU VELO AIN AR TRES W  DIS CAZ7
 BAR2 SZ EP       1239  5.27                             171   -0.0410 20.7 197 
 GIR2 SZ EP       1239  5.59                             166    0.0810 34.8 348 
 PAM  SZ EP   1   1239  7.91                             150   -0.16 7 78.6  37 
 PAM  SZ I        1239  8.71         7.7 0.19                          78.6  37 
 PAM  SN ES   1   1239 25.22                             150    0.08 7 78.6  37 
 RUS  HZ EP       1239  9.06                             144   -0.2610 97.3 177 
 RUS  HE ES       1239 27.54                             144    0.1710 97.3 177 
 RUS  HE I        1239 28.67        18.5 0.24                          97.3 177 
 ZAR  HZ EP   1   1239 19.29                             121    0.58 6  207 293 
 ZAR  HE ES       1239 43.90                             121   -0.19 8  207 293 
 ZAR  HZ I        1239 50.18         7.7 0.37                           207 293 
                                                                                
