 2012  627 1705 52.5 L   6.752 -73.174154.8  RSN  4 0.2 1.2LRSN                1
 GAP=230        0.39       6.5     7.5 10.4  0.5015E+01  0.3702E+02 -0.2571E+02E
 Epicentro: VILLANUEVA - SANTANDER                                             3
 ACTION:UPD 12-08-06 17:53 OP:ep   STATUS:               ID:20120627170552 L   I
 2012-06-27-1700-00M.COL___201                                                 6
 STAT SP IPHASW D HRMM SECON CODA AMPLIT PERI AZIMU VELO AIN AR TRES W  DIS CAZ7
 BAR2 SZ EP   1   17 6 12.93                             174   -0.14 7 17.7 183 
 BAR2 SZ I        17 6 29.16         4.7 0.16                          17.7 183 
 BRR  HZ EP       17 6 14.75                             154    0.1610 71.3 304 
 BRR  HE ES   3   17 6 31.30                             154   -0.55 2 71.3 304 
 RUS  HN ES   2   17 6 35.72                             147    0.00 5 95.5 174 
 PTB  HZ EP       17 6 19.75                             135   -0.07 9  144 261 
 PTB  HN ES   3   17 6 41.45                             135    0.29 2  144 261 
 PTB  HZ I        17 6 49.07         1.1 0.26                           144 261 
                                                                                
