 2017 1127 1848 41.8 L   6.807 -73.126137.3  RSN  4 0.2 1.2LRSN                1
 GAP=140        0.54       3.2     3.4  5.2 -0.3782E+01  0.1824E+01 -0.9449E-01E
 Epicentro: LOS SANTOS - SANTANDER                                             3
 ACTION:UPD 17-12-12 20:01 OP:rebc STATUS:               ID:20171127184841 L   I
 OLDACT:REG 17-11-27 20:46 OP:dani STATUS:               ID:20171127184736     3
 2017-11-27-1848-00M.COL___486                                                 6
 STAT SP IPHASW D HRMM SECON CODA AMPLIT PERI AZIMU VELO AIN AR TRES W  DIS CAZ7
 BAR2 EZ ES       1849 15.18                             169    0.1510 24.6 195 
 PAM  EZ EP       1849  3.33                             150    0.2910 75.3  39 
 PAM  EN ES       1849 19.35                             150   -0.2310 75.3  39 
 PAM  EZ I        1849 22.48         4.0 0.64            149           75.3  39 
 RUS  HZ EP       1849  4.63                             142   -0.2010  101 177 
 RUS  HN ES       1849 22.79                             142    0.0410  101 177 
 RUS  HZ I        1849 23.37         2.5 0.46            144            101 177 
 PTB  HN ES       1849 28.99                             129   -0.05 9  150 259 
                                                                                
