 2011 1127 1118 50.7 L   6.776 -73.071137.9  RSN  5 0.4 1.5LRSN                1
 GAP=147        0.71       5.6     7.7  7.2 -0.5117E+00 -0.4537E+01  0.9549E+01E
 Epicentro: LOS SANTOS - SANTANDER                                             3
 ACTION:UPD 12-07-13 16:12 OP:ep   STATUS:               ID:20111127111850 L   I
 2011-11-27-1116-03S.COL___160                                                 6
 STAT SP IPHASW D HRMM SECON CODA AMPLIT PERI AZIMU VELO AIN AR TRES W  DIS CAZ7
 BAR2 SZ IP       1119  9.27                             170   -0.1310 23.8 211 
 BAR2 SZ ES   1   1119 23.52                             170   -0.45 7 23.8 211 
 BAR2 SZ I        1119 25.76         5.7 0.23                          23.8 211 
 PAM  SZ EP   1   1119 12.19                             150    0.27 7 74.6  33 
 PAM  SZ I        1119 12.31         5.7 0.14                          74.6  33 
 PAM  SE ES   2   1119 28.74                             150    0.28 5 74.6  33 
 BRR  HZ EP   1   1119 11.02                             148   -0.51 7 79.7 297 
 BRR  HE ES   1   1119 28.17                             148    0.39 7 79.7 297 
 BRR  HZ I        1119 28.64         8.8 0.12                          79.7 297 
 RUS  HZ EP   1   1119 13.34                             143   -0.14 7 97.7 181 
 RUS  HZ I        1119 14.52         3.9 0.17                          97.7 181 
 RUS  HN ES   2   1119 31.78                             143    0.54 5 97.7 181 
 CTAU SZ EP   1   1119 23.79                             121    0.42 6  205 212 
                                                                                
