 2016 1227 1029 49.4 L   6.706 -73.118146.2  RSN  6 0.4 1.1LRSN                1
 GAP=144        0.97       5.0     5.0  6.9  0.5236E+01  0.1273E+02  0.1637E+01E
 Epicentro: JORDAN - SANTANDER                                                 3
 ACTION:UPD 17-01-11 20:19 OP:rebc STATUS:               ID:20161227102949 L   I
 OLDACT:REG 16-12-27 20:12 OP:cog  STATUS:               ID:20161227102740     3
 2016-12-27-1028-00M.COL___372                                                 6
 STAT SP IPHASW D HRMM SECON CODA AMPLIT PERI AZIMU VELO AIN AR TRES W  DIS CAZ7
 BAR2 EZ EP       1030  9.35                             174    0.3710 14.5 209 
 BAR2 EZ ES     D 1030 23.50                             174   -0.7210 14.5 209 
 BRR  HZ EP       1030 11.48                             150    0.3710 79.2 304 
 BRR  HN ES       1030 28.23                             150    0.2210 79.2 304 
 BRR  HZ I        1030 28.81         6.0 0.56            151           79.2 304 
 PAM  EN ES       1030 29.80                             149    0.0210 83.9  33 
 RUS  HN EP       1030 12.67                             147    0.1610 90.0 178 
 RUS  HZ EP       1030 13.64                                           90.0 178 
 RUS  HN ES       1030 30.62                             147    0.1210 90.0 178 
 RUS  HZ I        1030 33.91         0.7 0.35            146           90.0 178 
 PTB  HZ EP       1030 16.03                             132   -0.55 9  149 263 
 PTB  HN ES       1030 38.02                             132    0.29 9  149 263 
 PTB  HZ I        1030 42.33         1.5 0.22            132            149 263 
 ZAR  HZ EP       1030 22.11                             121   -0.53 8  211 294 
 ZAR  HE ES       1030 48.62                             121    0.10 8  211 294 
                                                                                
