 2011  527 1327 32.0 L   6.976 -73.062135.5  RSN  4 0.4 1.4LRSN                1
 GAP=182        0.83      10.0    14.2 14.3 -0.4815E+02 -0.3136E+02 -0.1409E+00E
 Epicentro: PIEDECUESTA - SANTANDER                                            3
 ACTION:UP  11-06-29 08:56 OP:tino STATUS:               ID:20110527132732 L   I
 2011-05-27-1326-38S.COL___115                                                 6
 STAT SP IPHASW D HRMM SECON CODA AMPLIT PERI AZIMU VELO SNR AR TRES W  DIS CAZ7
 BTL  SZ EP   1   1327 50.83                             170     0.4 7   24 254 
 BAR2 SZ EP   1   1327 50.63                             161    -0.5 7   44 197 
 BAR2 SZ ES   2   1328  6.20                             161     0.2 5   44 197 
 BAR2 SZ I        1328 11.23         5.8 0.45                            44 197 
 BRR  HZ EP   1   1327 52.00                             150    -0.2 7   73 281 
 BRR  HZ I        1327 52.78         8.8 0.12                            73 281 
 BRR  HN ES   2   1328  8.11                             150     0.2 5   73 281 
 GRA  SZ EP   2   1327 55.42                             140     0.8 5  104  16 
 GRA  SZ ES   2   1328 11.77                             140    -0.5 5  104  16 
 GRA  SZ I        1328 17.18         3.0 0.29                           104  16 
                                                                                
