 2011  227 1535 18.7 L   6.783 -73.122148.1  RSN  4 0.3 1.5LRSN                1
 GAP=178        0.56       7.6    33.4  7.8 -0.2227E+03 -0.1371E+03  0.2724E+02E
 Epicentro: LOS SANTOS - SANTANDER                                             3
 ACTION:UP  11-03-28 15:11 OP:jfem STATUS:               ID:20110227153518 L   I
 2011-02-27-1533-24S.COL___135                                                 6
 STAT SP IPHASW D HRMM SECON CODA AMPLIT PERI AZIMU VELO SNR AR TRES W  DIS CAZ7
 BAR2 SZ EP       1535 38.53                             170     0.010   22 198 
 BAR2 SZ ES   1   1535 54.28                             170     0.2 7   22 198 
 BAR2 SZ I        1535 56.47        10.2 0.27                            22 198 
 RUS  HZ EP       1535 42.54                             145     0.010   99 178 
 RUS  HN ES   3   1536  0.75                             145    -0.4 2   99 178 
 RUS  HZ I        1536  2.97         3.4 0.39                            99 178 
 GRA  SZ EP       1535 44.38                             137     0.210  127  16 
 GRA  SZ ES   1   1536  3.75                             137    -0.4 7  127  16 
 GRA  SZ I        1536  5.04         4.9 0.31                           127  16 
 CHI  HN ES   3   1536 24.93                             117    -0.9 2  248 196 
 CHI  HZ I        1536 31.18         1.9 0.40                           248 196 
                                                                                
