 2011  627 1548 49.4 L   6.780 -73.084147.9  RSN  6 0.2 1.5LRSN                1
 GAP=163        0.44       3.7     6.4  5.6  0.1480E+01 -0.1367E+02 -0.2084E+01E
 Epicentro: LOS SANTOS - SANTANDER                                             3
 ACTION:UP  11-07-14 19:08 OP:ep   STATUS:               ID:20110627154849 L   I
 2011-06-27-1544-29S.COL___140                                                 6
 STAT SP IPHASW D HRMM SECON CODA AMPLIT PERI AZIMU VELO SNR AR TRES W  DIS CAZ7
 BAR2 SZ EP   1   1549  9.10                             171    -0.2 7   23 208 
 BAR2 SZ ES   2   1549 24.93                             171     0.1 5   23 208 
 BAR2 SZ I        1549 25.28         7.5 0.16                            23 208 
 BTL  SZ EP       1549  9.44                             170     0.110   25 307 
 BTL  SZ ES   2   1549 24.88                             170     0.0 5   25 307 
 BRR  HZ EP   1   1549 11.11                             151    -0.1 7   78 298 
 BRR  HE ES   1   1549 28.23                             151     0.0 7   78 298 
 BRR  HZ I        1549 29.75        10.4 0.25                            78 298 
 RUS  HZ EP   2   1549 12.95                             145    -0.3 5   98 180 
 RUS  HE ES   2   1549 31.92                             145     0.2 5   98 180 
 RUS  HZ I        1549 33.14         3.1 0.44                            98 180 
 BRI  SZ EP   2   1549 13.97                             142     0.5 5  108  17 
 GRA  SZ EP   2   1549 15.07                             137     0.2 5  126  14 
 GRA  SZ ES   2   1549 34.33                             137    -0.4 5  126  14 
 GRA  SZ I        1549 38.33         3.7 0.26                           126  14 
                                                                                
