 2012  127 1017 41.9 L   6.777 -73.121138.7  RSN  9 0.4 1.8LRSN                1
 GAP=141        0.97       4.6     5.1  6.7  0.4619E+00  0.8209E+01  0.8504E+01E
 Epicentro: LOS SANTOS - SANTANDER                                             3
 ACTION:UP  12-02-03 08:21 OP:REBC STATUS:               ID:20120127101741 L   I
 2012-01-27-1010-00M.COL___188                                                 6
 STAT SP IPHASW D HRMM SECON CODA AMPLIT PERI AZIMU VELO SNR AR TRES W  DIS CAZ7
 BAR2 SZ IP       1018  0.75                             171     0.110   22 198 
 BAR2 SZ ES   1   1018 15.05                             171    -0.3 7   22 198 
 BAR2 SZ I        1018 17.99        22.5 0.34                            22 198 
 GIR2 SZ EP       1018  0.82                             166     0.010   34 347 
 GIR2 SZ ES   1   1018 15.46                             166    -0.2 7   34 347 
 BRR  HZ EP       1018  2.61                             150     0.110   75 299 
 BRR  HZ I        1018  3.02        13.9 0.12                            75 299 
 BRR  HE ES   1   1018 19.01                             150     0.4 7   75 299 
 PAM  SZ EP       1018  3.47                             150     0.010   78  37 
 PAM  SE ES   1   1018 20.08                             150    -0.1 7   78  37 
 RUS  HZ EP       1018  4.84                             143     0.010   98 178 
 RUS  HE ES   1   1018 23.09                             143     0.4 7   98 178 
 RUS  HZ I        1018 24.78         5.6 0.34                            98 178 
 PTB  HZ EP       1018  7.61                             130    -0.9 9  150 260 
 PTB  HE ES   1   1018 29.29                             130     0.0 7  150 260 
 PTB  HZ I        1018 31.46         6.4 0.14                           150 260 
 ZAR  HZ EP   2   1018 15.77                             120     1.5 4  208 292 
 ZAR  HE ES   1   1018 39.71                             120     0.2 6  208 292 
 ZAR  HZ I        1018 44.97         6.0 0.26                           208 292 
 CHI  HZ EP   1   1018 18.93                             116    -0.1 6  247 196 
 CHI  HN ES   1   1018 48.18                             116     0.1 6  247 196 
 CHI  HZ I        1018 54.21         2.6 0.38                           247 196 
 RREF HZ EP       1018 28.19                             109     0.4 7  322 230 
 RREF HZ I        1019 11.05         3.0 0.50                           322 230 
                                                                                
