 2016  927 1701  3.2 L   6.787 -73.137142.7  RSN  9 0.3 1.9LRSN                1
 GAP=138        0.74       3.1     3.1  4.8  0.9787E-01  0.3371E+01  0.2015E+01E
 Epicentro: LOS SANTOS - SANTANDER                                             3
 ACTION:UPD 17-08-17 21:17 OP:lp   STATUS:               ID:20160927170103 L   I
 OLDACT:UP  16-09-28 00:19 OP:dani STATUS:               ID:20160927165745     3
 OLDACT:REG 16-09-27 21:17 OP:dani STATUS:               ID:20160927165745     3
 2016-09-27-1658-00M.COL___363                                                 6
 STAT SP IPHASW D HRMM SECON CODA AMPLIT PERI AZIMU VELO AIN AR TRES W  DIS CAZ7
 BAR2 EZ EP     C 17 1 22.27                             171   -0.2210 22.1 193 
 BAR2 EZ ES       17 1 37.03                             171   -0.4610 22.1 193 
 BAR2 EZ I        17 1 38.20        23.0 0.28            167           22.1 193 
 BRR  HZ EP     C 17 1 24.02                             151   -0.1410 72.7 299 
 BRR  HN ES       17 1 41.04                             151    0.5710 72.7 299 
 BRR  HZ I        17 1 50.70        21.0 0.36            150           72.7 299 
 PAM  EZ EP       17 1 25.17                             150    0.0010 77.9  38 
 PAM  EE ES       17 1 42.28                             150    0.0110 77.9  38 
 PAM  EZ I        17 1 43.85        12.8 0.18            156           77.9  38 
 RUS  HZ EP       17 1 26.67                             144    0.0810 99.1 177 
 RUS  HN ES       17 1 45.08                             144    0.2810 99.1 177 
 RUS  HZ I        17 1 46.46         8.0 0.27            144           99.1 177 
 PTB  HZ EP   4   17 1 28.95                             131   -1.08 0  148 259 
 PTB  HE ES       17 1 50.54                             131   -0.38 9  148 259 
 PTB  HZ I        17 1 52.86         9.3 0.10            131            148 259 
 ZAR  HZ EP       17 1 35.83                             121    0.19 8  206 292 
 ZAR  HE ES       17 2  0.91                             121   -0.01 8  206 292 
 ZAR  HZ I        17 2  6.05        15.6 0.44            122            206 292 
 NOR  HE ES       17 2  6.51                             118   -0.02 8  235 235 
 NOR  HZ I        17 2 12.75         7.1 0.31            119            235 235 
 CHI  HZ EP       17 1 40.53                             117   -0.12 8  248 195 
 CHI  HE ES   2   17 2 10.81                             117    0.98 4  248 195 
 CHI  HZ I        17 2 20.55         2.9 0.57            118            248 195 
 GUY2CHZ EP   4   17 1 49.60                             112    2.89 0  301 235 
 GUY2CHZ I        17 2 30.74         3.1 0.26                           301 235 
                                                                                
