 2010  827 1518 34.1 L   6.778 -73.034146.0  RSN  6 0.2 1.6LRSN                1
 GAP=177        0.71       6.1    10.9 10.9  0.2416E+02 -0.8261E+02 -0.2695E+02E
 Epicentro: CEPITA - SANTANDER                                                 3
 ACTION:UP  10-09-07 10:58 OP:vdl  STATUS:               ID:20100827151834 L   I
 2010-08-27-1516-22S.COL___119                                                 6
 STAT SP IPHASW D HRMM SECON CODA AMPLIT PERI AZIMU VELO SNR AR TRES W  DIS CAZ7
 BAR2 SZ ES   2   1519  9.02                             170    -0.2 5   26 219 
 BAR2 SZ I        1519 10.22         7.4 0.16                            26 219 
 BTL  SZ EP       1518 54.16                             168     0.210   30 301 
 BTN  SZ EP       1518 56.06                             149    -0.410   83 355 
 BRR  HZ EP       1518 55.76                             149    -0.310   83 296 
 BRR  HZ I        1518 56.09        17.1 0.48                            83 296 
 BRR  HN ES       1519 13.26                             149     0.210   83 296 
 RUS  HZ EP   1   1518 57.81                             145     0.1 7   98 183 
 RUS  HN ES   2   1519 16.09                             145     0.0 5   98 183 
 GUE  SZ EP       1518 59.18                             140     0.310  117   6 
 GUE  SZ I        1519  0.34         2.6 0.11                           117   6 
                                                                                
