 2014  627 1117 24.0 L   6.827 -73.128144.7  RSN 10 0.4 2.2LRSN                1
 GAP=185        0.93       2.8     4.3  5.6 -0.5677E+00  0.7267E+01  0.1647E+01E
 Epicentro: LOS SANTOS - SANTANDER                                             3
 ACTION:UPD 14-07-01 22:57 OP:nd   STATUS:               ID:20140627111724 L   I
 OLDACT:REG 14-06-27 22:36 OP:carl STATUS:               ID:20140627110814     3
 2014-06-27-1108-14M.COL___259                                                 6
 STAT SP IPHASW D HRMM SECON CODA AMPLIT PERI AZIMU VELO AIN AR TRES W  DIS CAZ7
 BAR2 SZ EP       1117 43.87                             169    0.2810 26.6 193 
 BAR2 SZ ES       1117 59.27                             169    0.4110 26.6 193 
 BAR2 SZ I        1118  0.77        22.3 0.42            168           26.6 193 
 RUS  HZ EP       1117 47.90                             143    0.0210  103 177 
 RUS  HN ES       1118  6.54                             143    0.0610  103 177 
 RUS  HZ I        1118  9.44        18.6 0.38            146            103 177 
 PTB  HZ EP       1117 50.60                             131   -0.52 9  150 258 
 PTB  HN ES       1118 11.64                             131   -0.63 9  150 258 
 PTB  HZ I        1118 19.46        18.4 0.28            132            150 258 
 OCA  HZ EP       1117 52.10                             130    0.11 9  158 352 
 OCA  HN ES       1118 13.50                             130   -0.31 9  158 352 
 OCA  HZ I        1118 19.63        20.2 0.22            132            158 352 
 ZAR  HZ EP       1117 56.59                             122    0.13 9  205 291 
 ZAR  HN ES       1118 22.20                             122    0.43 9  205 291 
 ZAR  HZ I        1118 28.83        14.1 0.36            123            205 291 
 NOR  HZ EP       1117 59.35                             118   -0.69 8  238 234 
 NOR  HN ES       1118 28.22                             118    0.08 8  238 234 
 NOR  HZ I        1118 30.12        12.0 0.36            120            238 234 
 CHI  HZ EP       1118  1.66                             117   -0.37 8  252 195 
 CHI  HN ES       1118 31.08                             117   -0.59 8  252 195 
 CHI  HZ I        1118 36.80         7.7 0.28            119            252 195 
 GUY2CHZ EP       1118  8.62                             112    0.67 7  304 235 
 GUY2CHN ES       1118 42.37                             112    0.16 7  304 235 
 GUY2CHZ I        1118 50.59        10.7 0.74                           304 235 
 RREF HZ EP   4   1118 10.40                             110   -0.10 0  325 229 
 RREF HN ES   4   1118 48.91                             110    2.15 0  325 229 
 TOL  SZ EP       1118 13.42                             109    0.79 6  347 225 
 TOL  SN ES       1118 51.07                             109    0.52 6  347 225 
 TOL  SZ I        1118 56.10        18.3 0.38            111            347 225 
 PRA  HZ EP       1118 17.92                             106    0.00 6  396 210 
 PRA  HN ES       1118 59.95                             106   -0.01 6  396 210 
 PRA  HZ I        1119  5.21         7.8 0.24            108            396 210 
                                                                                
