 2013  327 1310 18.4 L   6.761 -73.167141.6  RSN  7 0.5 2.2LRSN                1
 GAP=232        1.13       6.1     7.3  8.3  0.2304E+02  0.9679E+01  0.9379E+01E
 Epicentro: LOS SANTOS - SANTANDER                                             3
 ACTION:UPD 13-04-09 14:05 OP:ep   STATUS:               ID:20130327131018 L   I
 2013-03-27-1310-00M.COL___245                                                 6
 STAT SP IPHASW D HRMM SECON CODA AMPLIT PERI AZIMU VELO AIN AR TRES W  DIS CAZ7
 BAR2 SZ EP       1310 37.16                             172   -0.3310 18.8 185 
 BAR2 SZ ES   1   1310 51.98                             172   -0.36 7 18.8 185 
 BAR2 SZ I        1310 52.88        37.5 0.34            169           18.8 185 
 BRR  HZ EP       1310 38.93                             152   -0.2210 71.3 302 
 BRR  HN ES       1310 56.01                             152    0.7110 71.3 302 
 BRR  HN I        1310 56.44        61.0 0.32            150           71.3 302 
 RUS  HZ EP       1310 41.58                             144    0.0910 96.5 174 
 RUS  HN ES   1   1310 59.64                             144    0.17 7 96.5 174 
 RUS  HN I        1311  0.54        18.6 0.26            144           96.5 174 
 PTB  HZ EP       1310 43.96                             132   -0.83 9  145 260 
 PTB  HN ES       1311  4.93                             132   -0.41 9  145 260 
 PTB  HN I        1311  7.73        21.2 0.20            130            145 260 
 ZAR  HZ EP       1310 51.44                             122    0.87 9  204 294 
 ZAR  HN ES       1311 15.51                             122   -0.11 9  204 294 
 ZAR  HN I        1311 19.38        15.7 0.66            121            204 294 
 CHI  HZ EP   1   1310 55.57                             117    0.17 6  244 195 
 CHI  HN ES       1311 24.73                             117    0.51 8  244 195 
 CHI  HN I        1311 27.18        11.4 0.46            117            244 195 
 PRA  HZ EP   2   1311 11.45                             106    0.20 3  387 210 
                                                                                
