 2012  127 1444 26.4 L   6.774 -73.156140.4  RSN  7 0.3 1.9LRSN                1
 GAP=136        0.84       5.0     5.7  6.6  0.1065E+01  0.7292E+01  0.4258E+01E
 Epicentro: LOS SANTOS - SANTANDER                                             3
 ACTION:UP  12-02-03 08:21 OP:REBC STATUS:               ID:20120127144426 L   I
 2012-01-27-1440-00M.COL___188                                                 6
 STAT SP IPHASW D HRMM SECON CODA AMPLIT PERI AZIMU VELO SNR AR TRES W  DIS CAZ7
 BAR2 SZ EP       1444 45.34                             171     0.010   20 188 
 BAR2 SZ ES   1   1444 59.88                             171    -0.2 7   20 188 
 BAR2 SZ I        1445  3.36        27.4 0.60                            20 188 
 GIR2 SZ EP       1444 45.36                             166    -0.110   34 353 
 GIR2 SZ ES   1   1445  0.24                             166    -0.2 7   34 353 
 BRR  HZ EP       1444 47.33                             151     0.310   72 301 
 BRR  HN ES   1   1445  3.70                             151     0.6 7   72 301 
 BRR  HZ I        1445  6.20        25.4 0.14                            72 301 
 PAM  SZ EP       1444 48.18                             149     0.010   80  39 
 PAM  SN ES   1   1445  4.94                             149    -0.3 7   80  39 
 RUS  HZ EP       1444 49.76                             143     0.310   98 175 
 RUS  HE ES   1   1445  7.41                             143     0.0 7   98 175 
 RUS  HZ I        1445  9.52        13.7 0.28                            98 175 
 PTB  HZ EP       1444 52.27                             131    -0.5 9  146 260 
 PTB  HN ES   3   1445 12.28                             131    -1.1 2  146 260 
 PTB  HZ I        1445 16.35         6.6 0.34                           146 260 
 ZAR  HN ES   2   1445 23.50                             121     0.0 4  204 293 
 ZAR  HZ I        1445 30.51         7.8 0.30                           204 293 
                                                                                
