 2013  827 1921 26.8 L   6.582 -73.457117.7  RSN  4 0.3 1.1LRSN                1
 GAP=116        0.73       4.7     4.1  6.4  0.8965E+01  0.7884E+01  0.6877E+01E
 Epicentro: EL CARMEN DE CHUCURI - SANTANDER                                   3
 ACTION:UPD 14-01-14 09:07 OP:ep   STATUS:               ID:20130827192126 L   I
 OLDACT:DUP 13-08-28 00:21 OP:stll STATUS:               ID:20130827191901d    3
 2013-08-27-1919-59M.COL___270                                                 6
 STAT SP IPHASW D HRMM SECON CODA AMPLIT PERI AZIMU VELO AIN AR TRES W  DIS CAZ7
 BAR2 SZ EP       1921 43.14                             165   -0.0910 30.3  88 
 BAR2 SZ ES       1921 55.58                             165   -0.4910 30.3  88 
 BAR2 SZ I        1921 57.74         4.5 0.38            168           30.3  88 
 BRR  HZ EP       1921 44.67                             149    0.1410 64.6 334 
 BRR  HN ES       1921 58.72                             149    0.3410 64.6 334 
 RUS  HZ EP       1921 46.85                             141    0.0910 86.7 152 
 RUS  HZ I        1921 47.27         2.3 0.18            143           86.7 152 
 RUS  HN ES       1922  2.67                             141    0.3110 86.7 152 
 PTB  HZ EP       1921 47.79                             134   -0.2910  111 268 
 PTB  HN ES       1922  4.69                             134   -0.0210  111 268 
 PTB  HZ I        1922  7.97         1.9 0.14            134            111 268 
                                                                                
