 2017  927 1746 37.0 L   6.838 -73.114142.5  RSN 11 0.6 2.0LRSN                1
 GAP=113        1.21       4.0     4.5  6.6  0.1993E+01  0.8898E+01  0.8516E+01E
 Epicentro: LOS SANTOS - SANTANDER                                             3
 ACTION:UPD 17-10-05 19:16 OP:rebc STATUS:               ID:20170927174637 L   I
 OLDACT:REG 17-09-27 21:03 OP:dhb  STATUS:               ID:20170927173443     3
 2017-09-27-1738-00M.COL___450                                                 6
 STAT SP IPHASW D HRMM SECON CODA AMPLIT PERI AZIMU VELO AIN AR TRES W  DIS CAZ7
 BAR2 EZ IP     D 1746 56.31                             168   -0.0110 28.2 196 
 BAR2 EZ ES       1747 11.46                             168    0.0510 28.2 196 
 BAR2 EZ I        1747 12.86        23.6 0.12            168           28.2 196 
 PAM  EZ EP       1746 59.12                             152    0.6010 71.9  39 
 PAM  EN ES       1747 15.00                             152   -0.3210 71.9  39 
 PAM  EZ I        1747 18.96        12.0 0.50            155           71.9  39 
 BRR  HZ IP     D 1746 58.07                             151    0.2310 72.5 294 
 BRR  HN ES       1747 14.32                             151    0.2010 72.5 294 
 BRR  HZ I        1747 18.46        23.9 0.33            151           72.5 294 
 RUS  HZ EP       1747  0.52                             142   -0.1810  105 178 
 RUS  HE ES       1747 19.51                             142    0.3010  105 178 
 RUS  HZ I        1747 20.14        16.9 0.35            144            105 178 
 YPLC HZ EP       1747  6.89                             125    0.15 9  179 153 
 YPLC HE ES       1747 29.65                             125   -0.30 9  179 153 
 YPLC HZ I        1747 31.87        15.1 0.47            128            179 153 
 ZAR  HZ EP       1747  8.69                             121   -0.70 8  206 291 
 ZAR  HE ES       1747 34.15                             121   -0.52 8  206 291 
 ZAR  HZ I        1747 39.81        13.4 0.37            122            206 291 
 NOR  HZ EP       1747 12.77                             117   -0.32 8  240 234 
 NOR  HN ES       1747 40.69                             117   -0.57 8  240 234 
 NOR  HZ I        1747 45.32         7.1 0.31            118            240 234 
 CHI  HZ EP       1747 14.66                             116   -0.38 8  254 196 
 CHI  HN ES       1747 44.32                             116   -0.41 8  254 196 
 CHI  HZ I        1747 47.35         5.6 0.41            117            254 196 
 GUY2CHZ EP       1747 22.42                             111    1.38 7  307 235 
 GUY2CHN ES       1747 56.93                             111    1.53 7  307 235 
 GUY2CHZ I        1748  4.13         5.3 0.35                           307 235 
 ELA  HZ EP   9   1747 27.25                             109    2.94 0  335 229 
 ELA  HN ES       1748  4.10                                   -0.07 7  335 229 
 ELA  HZ I        1748  7.84         5.8 0.10            110            335 229 
 PRA  HZ EP       1747 30.92                             106   -0.10 6  397 210 
 PRA  HE ES       1748 12.45                             106   -0.72 6  397 210 
 PRA  HZ I        1748 16.44         3.7 0.22            107            397 210 
                                                                                
