 2017 1027 1037 33.7 L   6.885 -73.059147.7  RSN  5 0.3 1.3LRSN                1
 GAP=143        0.87       4.7     4.9  6.4  0.4861E+01  0.6619E+01 -0.1522E+00E
 Epicentro: PIEDECUESTA - SANTANDER                                            3
 ACTION:UPD 17-11-07 19:37 OP:rebc STATUS:               ID:20171027103733 L   I
 OLDACT:DUP 17-10-27 21:26 OP:dhb  STATUS:               ID:20171027101819d    3
 2017-10-27-1028-00M.COL___435                                                 6
 STAT SP IPHASW D HRMM SECON CODA AMPLIT PERI AZIMU VELO AIN AR TRES W  DIS CAZ7
 BAR2 EZ IP     C 1037 54.01                             166    0.1910 35.1 203 
 BAR2 EZ ES       1038  9.54                             166    0.0010 35.1 203 
 BAR2 EZ I        1038 11.78         4.4 0.30            161           35.1 203 
 PAM  EZ EP       1037 55.91                             156    0.5510 64.1  38 
 PAM  EN ES       1038 11.76                             156   -0.5210 64.1  38 
 PAM  EZ I        1038 14.37         3.9 0.18            165           64.1  38 
 BRR  HE ES       1038 12.62                             151    0.4310 76.2 289 
 BRR  HZ I        1038 18.37         6.6 0.38            151           76.2 289 
 RUS  HZ EP       1037 58.14                             142   -0.1410  110 181 
 RUS  HN ES       1038 17.38                             142   -0.1010  110 181 
 RUS  HZ I        1038 28.86         1.9 0.32            141            110 181 
 ZAR  HZ EP       1038  6.50                             122   -0.33 8  210 289 
 ZAR  HE ES       1038 32.46                             122   -0.23 8  210 289 
 ZAR  HZ I        1038 37.76         1.1 0.14            125            210 289 
                                                                                
