 2014  227 1253 38.3 L   6.559 -73.422122.5  RSN  8 0.2 1.6LRSN                1
 GAP= 98        0.54       2.8     2.4  4.4  0.7106E+00  0.3879E+01  0.2571E+00E
 Epicentro: HATO - SANTANDER                                                   3
 ACTION:UPD 14-03-10 08:14 OP:ep   STATUS:               ID:20140227125338 L   I
 OLDACT:UP  14-02-27 16:52 OP:cam  STATUS:               ID:20140227124818     3
 OLDACT:UP  14-02-27 16:46 OP:cam  STATUS:               ID:20140227124818     3
 OLDACT:REG 14-02-27 15:23 OP:cam  STATUS:               ID:20140227124818     3
 2014-02-27-1248-18M.COL___227                                                 6
 STAT SP IPHASW D HRMM SECON CODA AMPLIT PERI AZIMU VELO AIN AR TRES W  DIS CAZ7
 BAR2 SZ EP       1253 55.30                             167    0.1010 26.7  82 
 BAR2 SZ ES       1254  8.43                             167    0.0210 26.7  82 
 BAR2 SZ I        1254  9.63        23.1 0.52            170           26.7  82 
 RUS  HZ EP       1253 58.40                             144   -0.0510 82.7 153 
 RUS  HN ES       1254 14.28                             144    0.1010 82.7 153 
 RUS  HZ I        1254 15.57         2.4 0.14            145           82.7 153 
 PTB  HZ EP       1254  0.20                             134   -0.1310  114 269 
 PTB  HE ES       1254 17.77                             134    0.2310  114 269 
 PTB  HZ I        1254 19.26         8.2 0.42            135            114 269 
 SPBC HZ EP   4   1254  3.09                             132    1.85 0  123 216 
 SPBC HN ES       1254 18.69                             132   -0.4710  123 216 
 SPBC HZ I        1254 24.89        10.9 0.26            132            123 216 
 ZAR  HE ES   1   1254 30.59                             119   -0.11 7  189 303 
 CHI  HZ EP   1   1254 11.43                             115    0.27 6  216 189 
 SML  HZ EP   2   1254 15.03                             111   -0.31 4  258 344 
 GUY2CHZ EP   4   1254 18.11                             111    1.84 0  261 236 
 GUY2CHN ES       1254 46.18                             111    0.27 8  261 236 
 GUY2CHN I        1254 52.07         3.0 0.26                           261 236 
                                                                                
