 2016  927 1507 24.1 L   6.549 -73.535109.6  RSN 12 0.6 2.0LRSN                1
 GAP= 64        1.41       3.9     4.4  8.3 -0.2135E+01  0.1612E+02  0.8100E+00E
 Epicentro: EL CARMEN - SANTANDER                                              3
 ACTION:UPD 17-08-17 21:17 OP:lp   STATUS:               ID:20160927150724 L   I
 OLDACT:UP  16-09-27 23:46 OP:dani STATUS:               ID:20160927145750d    3
 OLDACT:UP  16-09-27 23:46 OP:dani STATUS:               ID:20160927145750d    3
 OLDACT:DUP 16-09-27 23:40 OP:dani STATUS:               ID:20160927145750d    3
 OLDACT:UP  16-09-27 23:39 OP:dani STATUS:               ID:20160927145749d    3
 OLDACT:DUP 16-09-27 23:34 OP:dani STATUS:               ID:20160927145749d    3
 OLDACT:UP  16-09-27 23:34 OP:dani STATUS:               ID:20160927145748     3
 OLDACT:UP  16-09-27 23:33 OP:dani STATUS:               ID:20160927145748     3
 OLDACT:UP  16-09-27 23:32 OP:dani STATUS:               ID:20160927145748     3
 OLDACT:UP  16-09-27 23:32 OP:dani STATUS:               ID:20160927145748     3
 OLDACT:REG 16-09-27 21:07 OP:dani STATUS:               ID:20160927145748     3
 2016-09-27-1458-00M.COL___357                                                 6
 STAT SP IPHASW D HRMM SECON CODA AMPLIT PERI AZIMU VELO AIN AR TRES W  DIS CAZ7
 BAR2 EZ EP     C 15 7 40.02                             159    0.0810 39.3  83 
 BAR2 EZ ES       15 7 52.36                             159    0.0410 39.3  83 
 BRR  HZ EP       15 7 40.87                             147   -0.1410 64.8 342 
 BRR  HE ES       15 7 54.52                             147    0.3010 64.8 342 
 BRR  HZ I        15 7 57.52        19.2 0.14            149           64.8 342 
 RUS  HZ EP       15 7 43.18                             139   -0.2510 88.1 145 
 RUS  HN ES       15 7 58.97                             139    0.4410 88.1 145 
 RUS  HZ I        15 8  0.22        16.5 0.35            141           88.1 145 
 PTB  HZ EP       15 7 42.88                             134   -1.0610  102 269 
 PTB  HE ES   2   15 7 58.01                             134   -1.43 5  102 269 
 PTB  HZ I        15 7 59.27        29.2 0.13            134            102 269 
 SPBC HZ EP       15 7 44.92                             130   -0.3710  116 211 
 SPBC HN ES       15 8  1.76                             130   -0.0810  116 211 
 SPBC HZ I        15 8  6.91        26.6 0.07            131            116 211 
 PAM  EZ EP       15 7 46.70                             128   -0.2210  127  47 
 PAM  EE ES       15 8  4.43                             128   -0.3210  127  47 
 PAM  EZ I        15 8  6.07        11.4 0.35            131            127  47 
 ZAR  HZ EP       15 7 51.82                             117    0.08 9  180 306 
 ZAR  HN ES       15 8 14.75                             117    1.42 9  180 306 
 ZAR  HZ I        15 8 16.67        32.3 0.30            118            180 306 
 NOR  HZ EP       15 7 51.88                             116   -0.35 9  184 234 
 NOR  HE ES       15 8 13.81                             116   -0.39 9  184 234 
 NOR  HZ I        15 8 16.91        22.9 0.17            117            184 234 
 CHI  HN ES       15 8 21.68                             112    0.76 8  213 186 
 CHI  HZ I        15 8 26.40         3.5 0.35            114            213 186 
 HEL  HZ EP       15 7 58.07                             111    0.89 8  224 260 
 HEL  HE ES       15 8 22.78                             111   -0.22 8  224 260 
 HEL  HZ I        15 8 30.51         8.6 0.30            112            224 260 
 GUY2CHZ EP       15 8  1.08                             109    0.79 8  250 234 
 GUY2CHE ES   4   15 8 31.17                             109    2.63 0  250 234 
 GUY2CHZ I        15 8 38.03         8.7 0.39                           250 234 
 SJC  HZ EP       15 8 18.32                              99   -0.73 6  412 334 
 SJC  HE ES   4   15 8 59.28                              99   -2.65 0  412 334 
 SJC  HZ I        15 9  5.67         1.8 0.45            100            412 334 
                                                                                
