 2010  327 1329 23.0 L   6.808 -73.061150.0  RSN  4 0.2 1.5LRSN                1
 GAP=247        0.40       8.9    13.1  9.8  0.7162E+02 -0.2800E+02  0.1674E+02E
 Epicentro: LOS SANTOS - SANTANDER                                             3
 ACTION:UP  10-08-24 09:56 OP:vdl  STATUS:               ID:20100327132923 L   I
 2010-03-27-1325-44S.COL___098                                                 6
 STAT SP IPHASW D HRMM SECON CODA AMPLIT PERI AZIMU VELO SNR AR TRES W  DIS CAZ7
 BAR2 SZ EP       1329 43.16                             169     0.010   28 210 
 BRR  HZ EP   1   1329 45.18                             150     0.1 7   79 295 
 BRR  HE ES   2   1330  2.06                             150    -0.2 5   79 295 
 BRR  HZ I        1330  5.33         8.6 0.13                            79 295 
 RUS  HZ EP   3   1329 46.61                             144    -0.6 2  101 181 
 RUS  HZ I        1329 56.10         3.8 0.24                           101 181 
 RUS  HE ES   3   1330  6.36                             144     0.3 2  101 181 
 CHI  HZ EP   2   1330  1.32                             117     0.1 4  252 197 
 CHI  HZ I        1330 36.22         1.9 0.18                           252 197 
                                                                                
