 2014 1027 1313  9.8 L   6.770 -73.131147.9  RSN  9 0.4 2.0LRSN                1
 GAP=140        1.01       5.0     5.0  6.3 -0.8627E+01  0.4619E+01  0.1060E+02E
 Epicentro: LOS SANTOS - SANTANDER                                             3
 ACTION:UPD 14-11-29 23:57 OP:nd   STATUS:               ID:20141027131309 L   I
 OLDACT:REG 14-10-30 10:49 OP:mh   STATUS:               ID:20141027130744     3
 2014-10-27-1307-44M.COL___274                                                 6
 STAT SP IPHASW D HRMM SECON CODA AMPLIT PERI AZIMU VELO AIN AR TRES W  DIS CAZ7
 BAR2 SZ EP       1313 29.60                             172   -0.0110 20.5 196 
 BAR2 SZ ES       1313 45.03                             172   -0.0510 20.5 196 
 BAR2 SZ I        1313 46.43        29.5 0.11            170           20.5 196 
 BRR  HZ EP       1313 31.49                             152    0.1610 74.2 300 
 BRR  HN ES       1313 48.56                             152    0.4210 74.2 300 
 BRR  HZ I        1313 50.99        21.4 0.14            154           74.2 300 
 PAM  SZ EP       1313 32.63                             151    0.3110 79.0  37 
 PAM  SN ES       1313 49.75                             151   -0.1510 79.0  37 
 PAM  SZ I        1313 52.25         8.9 0.62            154           79.0  37 
 RUS  HZ EP       1313 33.30                             145   -0.2010 97.2 177 
 RUS  HN ES   1   1313 52.11                             145    0.11 7 97.2 177 
 RUS  HZ I        1313 53.81        13.1 0.24            146           97.2 177 
 PTB  HZ EP       1313 36.17                             132   -0.84 9  149 260 
 PTB  HN ES       1313 57.71                             132   -0.54 9  149 260 
 PTB  HZ I        1313 58.98        10.2 0.14            134            149 260 
 SPBC HZ EP       1313 38.38                             130    0.08 9  162 220 
 SPBC HN ES   1   1314  0.38                             130   -0.16 7  162 220 
 SPBC HZ I        1314  5.12        10.7 0.36            131            162 220 
 GUY2CHZ EP       1313 54.30                             113    0.88 7  301 235 
 GUY2CHN ES       1314 28.15                             113    0.69 7  301 235 
 GUY2CHZ I        1314 35.36         4.8 0.32                           301 235 
 RREF HZ EP   9   1313 53.00                             111   -2.91 0  321 230 
 RREF HN ES   4   1314 29.18                                    0.20 0  321 230 
 RREF HZ I        1314 34.77         4.5 0.24            113            321 230 
 PRA  HZ EP       1314  2.31                             107   -0.82 6  390 210 
 PRA  HN ES       1314 45.18                             107    0.43 6  390 210 
 PRA  HZ I        1314 48.54         3.4 0.28            108            390 210 
                                                                                
