 2014 1227 1022 13.2 L   6.809 -73.162148.7  RSN 11 0.4 2.0LRSN                1
 GAP=134        1.05       2.7     4.1  5.5 -0.1329E+01  0.5092E+01 -0.5550E-01E
 Epicentro: LOS SANTOS - SANTANDER                                             3
 ACTION:UPD 15-02-10 17:07 OP:nd   STATUS:               ID:20141227102213 L   I
 OLDACT:REG 14-12-27 21:58 OP:carl STATUS:               ID:20141227101736     3
 2014-12-27-1017-36M.COL___262                                                 6
 STAT SP IPHASW D HRMM SECON CODA AMPLIT PERI AZIMU VELO AIN AR TRES W  DIS CAZ7
 BAR2 EZ EP       1022 33.35                             170    0.1010 24.1 185 
 BAR2 EZ ES       1022 48.27                             170   -0.5710 24.1 185 
 BAR2 EZ I        1022 49.95        21.6 0.50            170           24.1 185 
 BRR  HZ EP       1022 35.27                             154    0.6710 69.1 298 
 BRR  HN ES       1022 52.37                             154    1.1110 69.1 298 
 BRR  HZ I        1022 53.02        14.5 0.24            154           69.1 298 
 PAM  SZ EP       1022 36.14                             151    0.3410 77.7  41 
 PAM  SN ES       1022 53.01                             151   -0.3710 77.7  41 
 PAM  SZ I        1022 55.57        21.4 0.50            152           77.7  41 
 RUS  HZ EP       1022 37.40                             144    0.0310  102 175 
 RUS  HN ES       1022 56.12                             144   -0.0710  102 175 
 RUS  HZ I        1022 57.19        17.8 0.32            144            102 175 
 PTB  HZ EP       1022 40.13                             133   -0.19 9  146 258 
 PTB  HN ES       1023  1.03                             133   -0.40 9  146 258 
 PTB  HZ I        1023  2.75         7.5 0.32            133            146 258 
 OCA  HZ EP       1022 41.29                             130   -0.38 9  159 354 
 OCA  HN ES       1023  4.02                             130    0.18 9  159 354 
 OCA  HZ I        1023  8.21        10.7 0.54            131            159 354 
 SPBC HZ EP       1022 42.31                             130    0.37 9  163 218 
 SPBC HN ES       1023  4.06                             130   -0.27 9  163 218 
 SPBC HZ I        1023  6.75        21.2 0.36            130            163 218 
 ZAR  HZ EP       1022 45.35                             123   -0.33 9  202 292 
 ZAR  HN ES       1023 11.02                             123    0.05 9  202 292 
 NOR  HZ EP       1022 49.18                             119    0.12 8  234 234 
 NOR  HE ES       1023 16.86                             119   -0.13 8  234 234 
 NOR  HZ I        1023 20.71         7.1 0.20            119            234 234 
 SML  HZ EP       1022 49.71                             118   -0.15 8  242 336 
 SML  HN ES       1023 17.75                             118   -0.67 8  242 336 
 SML  HZ I        1023 22.37        16.0 0.10            119            242 336 
 CHI  HZ EP       1022 51.37                             118    0.20 8  249 195 
 CHI  HN ES       1023 20.69                             118   -0.05 8  249 195 
 CHI  HZ I        1023 30.55         4.3 0.40            118            249 195 
                                                                                
