 2014  727 1620 52.1 L   6.739 -73.127149.4  RSN  8 0.4 1.7LRSN                1
 GAP=161        0.80       4.0     4.2  6.2 -0.2261E+01  0.3812E+01  0.4616E+01E
 Epicentro: LOS SANTOS - SANTANDER                                             3
 ACTION:UPD 15-03-16 20:47 OP:nd   STATUS:               ID:20140727162052 L   I
 OLDACT:REG 14-07-28 00:24 OP:fm   STATUS:               ID:20140727161949     3
 2014-07-27-1619-49M.COL___272                                                 6
 STAT SP IPHASW D HRMM SECON CODA AMPLIT PERI AZIMU VELO AIN AR TRES W  DIS CAZ7
 BAR2 SZ EP   1   1621 11.73                             173   -0.35 7 17.4 200 
 BAR2 SZ ES   1   1621 27.67                             173    0.02 7 17.4 200 
 BAR2 SZ I        1621 30.17         6.7 0.36            170           17.4 200 
 BRR  HZ EP       1621 14.30                             152    0.3510 76.3 302 
 BRR  HN ES       1621 31.43                             152    0.4510 76.3 302 
 BRR  HZ I        1621 36.72         8.5 0.16            154           76.3 302 
 PAM  SZ EP   1   1621 15.30                             150    0.34 7 81.5  35 
 PAM  SN ES   1   1621 32.28                             150   -0.50 7 81.5  35 
 PAM  SZ I        1621 34.58         6.7 0.52            157           81.5  35 
 PTB  HZ EP       1621 19.28                             133   -0.17 9  149 262 
 PTB  HN ES       1621 40.19                             133   -0.59 9  149 262 
 PTB  HZ I        1621 42.57         7.1 0.12            135            149 262 
 SPBC HN ES   1   1621 42.90                             131    0.20 7  159 221 
 SPBC HZ I        1621 47.96         7.7 0.20            132            159 221 
 ZAR  HZ EP       1621 25.45                             123    0.20 8  209 294 
 ZAR  HE ES       1621 50.89                             123   -0.21 8  209 294 
 ZAR  HZ I        1621 53.01         5.0 0.12            126            209 294 
 NOR  HZ EP   4   1621 25.55                             119   -2.27 0  233 236 
 NOR  HE ES   1   1621 55.94                             119    0.26 6  233 236 
 NOR  HZ I        1622  1.66         3.9 0.28            122            233 236 
 CHI  HZ EP   1   1621 28.85                             118   -0.53 6  243 196 
 CHI  HN ES   1   1621 58.83                             118    0.39 6  243 196 
 CHI  HZ I        1622  2.93         2.5 0.32            121            243 196 
                                                                                
