 2016 1127 1616 49.6 L   7.068 -73.803 26.1  RSN  4 0.4 1.0LRSN                1
 GAP=195        1.03       5.0     3.1  3.7 -0.7651E+01 -0.2631E+01  0.4421E+01E
 Epicentro: BARRANCABERMEJA - SANTANDER                                        3
 ACTION:UPD 17-10-26 21:12 OP:lp   STATUS:               ID:20161127161649 L   I
 OLDACT:REG 16-11-27 20:52 OP:ar   STATUS:               ID:20161127160644     3
 2016-11-27-1607-00M.COL___346                                                 6
 STAT SP IPHASW D HRMM SECON CODA AMPLIT PERI AZIMU VELO AIN AR TRES W  DIS CAZ7
 BRR  HZ IP     C 1616 53.77                             155   -0.4110 10.9  66 
 BRR  HE ES       1616 58.11                             155    0.3810 10.9  66 
 BRR  HZ I        1616 58.52        22.5 0.10            149           10.9  66 
 BAR2 EZ EP       1617  3.24                              93   -0.7010 86.4 127 
 BAR2 EZ ES       1617 15.37                              93    0.2710 86.4 127 
 BAR2 EZ I        1617 18.32         5.0 0.50             91           86.4 127 
 PTB  HZ EP       1617  4.35                              92   -0.2710 92.9 231 
 PTB  HN ES       1617 16.72                              92    0.4110 92.9 231 
 PTB  HZ I        1617 17.39         2.9 0.50             91           92.9 231 
 PAM  EZ EP       1617  9.41                              61    0.1010  126  76 
 PAM  EN ES       1617 24.89                              61    0.2510  126  76 
 PAM  EZ I        1617 26.68         3.1 0.38             61            126  76 
                                                                                
