 2011  627 1335 47.9 L   6.840 -73.094142.6  RSN  9 0.4 2.2LRSN                1
 GAP=161        0.76       4.7     6.4  5.9 -0.1267E+02  0.3672E+01  0.1480E+01E
 Epicentro: LOS SANTOS - SANTANDER                                             3
 ACTION:UP  11-07-14 19:08 OP:ep   STATUS:               ID:20110627133547 L   I
 2011-06-27-1332-13S.COL___140                                                 6
 STAT SP IPHASW D HRMM SECON CODA AMPLIT PERI AZIMU VELO SNR AR TRES W  DIS CAZ7
 BTL  SZ EP       1336  7.21                             171     0.110   21 295 
 BTL  SZ ES   1   1336 22.48                             171     0.4 7   21 295 
 BAR2 SZ ES   2   1336 21.50                             168    -0.9 5   29 200 
 BAR2 SZ I        1336 23.40        42.1 0.28                            29 200 
 BRR  HZ EP       1336  8.76                             151    -0.110   74 293 
 BRR  HE ES   1   1336 25.35                             151     0.1 7   74 293 
 BRR  HZ I        1336 26.39        54.6 0.17                            74 293 
 BRI  SZ EP   1   1336 11.13                             142     0.1 7  102  19 
 BRI  SZ ES   2   1336 29.52                             142     0.5 5  102  19 
 RUS  HZ EP   1   1336 11.87                             142     0.3 7  105 179 
 RUS  HN ES   2   1336 29.93                             142    -0.2 5  105 179 
 RUS  HZ I        1336 32.33        13.6 0.24                           105 179 
 GRA  SZ EP   1   1336 12.32                             138     0.0 7  120  16 
 GRA  SZ ES   1   1336 31.07                             138    -0.4 7  120  16 
 OCA  SZ EP   1   1336 15.23                             130    -0.4 7  157 351 
 OCA  SZ I        1336 40.77        23.7 0.44                           157 351 
 NOR  SZ EP   1   1336 23.78                             117    -0.4 6  242 234 
 HEL  HZ EP   1   1336 29.40                             114     0.7 6  279 255 
 HEL  HN ES   2   1336 59.89                             114    -0.6 4  279 255 
 HEL  HZ I        1337  7.26         8.0 0.53                           279 255 
                                                                                
