 2012  727 1204  2.0 L   6.752 -73.148141.9  RSN  7 0.4 2.0LRSN                1
 GAP=138        1.05       6.0     5.4  8.5 -0.3091E+01  0.1387E+02 -0.4758E+01E
 Epicentro: LOS SANTOS - SANTANDER                                             3
 ACTION:UPD 12-08-14 11:45 OP:ep   STATUS:               ID:20120727120402 L   I
 2012-07-27-1200-00M.COL___215                                                 6
 STAT SP IPHASW D HRMM SECON CODA AMPLIT PERI AZIMU VELO AIN AR TRES W  DIS CAZ7
 BAR2 SZ EP       12 4 21.19                             172     0.110   18 192 
 BAR2 SZ ES   1   12 4 36.14                             172     0.2 7   18 192 
 BAR2 SZ I        12 4 36.99        25.8 0.25            171             18 192 
 BRR  HZ EP       12 4 23.21                             151     0.410   74 302 
 BRR  HN ES   1   12 4 39.95                             151     0.8 7   74 302 
 BRR  HZ I        12 4 41.74        33.5 0.28            149             74 302 
 PAM  SZ EP       12 4 24.14                             149     0.110   82  37 
 PAM  SN ES   1   12 4 40.62                             149    -0.7 7   82  37 
 RUS  HZ EP   1   12 4 25.25                             145     0.3 7   95 176 
 RUS  HN ES   1   12 4 42.42                             145    -0.5 7   95 176 
 RUS  HZ I        12 4 45.33         8.0 0.27            148             95 176 
 PTB  HZ EP       12 4 28.13                             131    -0.4 9  147 261 
 PTB  HN ES   1   12 4 48.67                             131    -0.6 7  147 261 
 PTB  HZ I        12 4 52.01        12.7 0.18            131            147 261 
 ZAR  HZ EP       12 4 34.30                             121    -0.1 8  206 294 
 ZAR  HN ES   1   12 4 59.17                             121    -0.5 6  206 294 
 ZAR  HZ I        12 5  7.59         8.5 0.22            122            206 294 
 NOR  SN ES   1   12 5  4.94                             118     0.4 6  231 235 
