 2010  827 1356 44.0 L   6.754 -73.083147.3  RSN  9 0.4 2.1LRSN                1
 GAP=166        0.93       4.2     8.4  8.7 -0.9184E+01 -0.2069E+02  0.7522E+01E
 Epicentro: LOS SANTOS - SANTANDER                                             3
 ACTION:UP  10-09-07 10:58 OP:vdl  STATUS:               ID:20100827135644 L   I
 2010-08-27-1352-27S.COL___119                                                 6
 STAT SP IPHASW D HRMM SECON CODA AMPLIT PERI AZIMU VELO SNR AR TRES W  DIS CAZ7
 BAR2 SZ EP       1357  3.58                             172    -0.210   21 212 
 BAR2 SZ I        1357 20.13        40.1 0.25                            21 212 
 BTL  SZ EP       1357  3.83                             170    -0.110   27 312 
 BRR  HZ EP       1357  5.34                             151    -0.510   80 299 
 BRR  HZ I        1357  5.66        34.1 0.18                            80 299 
 BRR  HN ES       1357 23.05                             151     0.210   80 299 
 RUS  HZ EP       1357  7.45                             146    -0.110   95 180 
 RUS  HN ES   1   1357 25.97                             146     0.1 7   95 180 
 RUS  HZ I        1357 27.52        10.1 0.50                            95 180 
 GUE  SZ EP       1357  8.90                             139    -0.310  120   8 
 GRA  SZ EP       1357 10.40                             137     0.710  129  14 
 CHI  HZ EP   1   1357 21.77                             118     0.3 6  246 197 
 CHI  HN ES   1   1357 51.06                             118     0.4 6  246 197 
 CHI  HZ I        1357 58.56         4.8 0.88                           246 197 
 RREF HZ EP   2   1357 31.22                             111     0.8 3  324 231 
 RREF HN ES   2   1358  7.05                             111     0.4 3  324 231 
 RREF HZ I        1358 12.93         6.5 0.18                           324 231 
 PRA  HZ EP   1   1357 36.96                             107    -0.5 4  391 211 
 PRA  HN ES   1   1358 19.18                             107     0.0 4  391 211 
 PRA  HZ I        1358 25.36         6.9 0.66                           391 211 
                                                                                
