 2011  127 1600 21.9 L   6.604 -72.592 90.0  RSN  4 0.1 1.5LRSN                1
 GAP=266        0.34       7.1    37.8 34.5  0.2025E+03 -0.1288E+04 -0.1855E+03E
 Epicentro: CARCASI - SANTANDER                                                3
 ACTION:UP  11-02-08 08:43 OP:pat  STATUS:               ID:20110127160021 L   I
 2011-01-27-1557-31S.COL___137                                                 6
 STAT SP IPHASW D HRMM SECON CODA AMPLIT PERI AZIMU VELO SNR AR TRES W  DIS CAZ7
 BAR2 SZ IP       16 0 37.21                             139    -0.110   65 269 
 BAR2 SZ ES   1   16 0 49.35                             139     0.1 7   65 269 
 BAR2 SZ I        16 0 50.97        29.2 0.34                            65 269 
 BTL  SZ IP       16 0 38.80                             132     0.110   82 295 
 BTL  SZ ES   2   16 0 51.69                             132    -0.1 5   82 295 
 GIR2 SZ EP       16 0 38.78                             131     0.010   85 308 
 RUS  HZ EP   2   16 0 40.32                             128     0.1 5   96 215 
 RUS  HZ I        16 0 57.99         2.5 0.47                            96 215 
                                                                                
