 2017  127 1552 52.1 L   6.797 -73.178144.7  RSN  6 0.3 1.7LRSN                1
 GAP=133        0.69       3.9     3.8  5.8 -0.1102E+00  0.2513E+01  0.3138E+01E
 Epicentro: LOS SANTOS - SANTANDER                                             3
 ACTION:UPD 17-05-22 16:04 OP:jn   STATUS:               ID:20170127155252 L   I
 OLDACT:REG 17-01-27 21:33 OP:dnl  STATUS:               ID:20170127154743     3
 2017-01-27-1548-00M.COL___340                                                 6
 STAT SP IPHASW D HRMM SECON CODA AMPLIT PERI AZIMU VELO AIN AR TRES W  DIS CAZ7
 BAR2 EZ EP       1553 11.47                             171   -0.1610 22.6 181 
 BAR2 EZ ES       1553 26.49                             171   -0.3310 22.6 181 
 BAR2 EZ I        1553 27.91         8.0 0.18            172           22.6 181 
 BRR  HZ EP       1553 13.32                             153    0.3110 68.3 300 
 BRR  HN ES       1553 29.60                             153    0.3110 68.3 300 
 BRR  HZ I        1553 32.05         9.0 0.40            150           68.3 300 
 PAM  EZ EP   2   1553 14.60                             150    0.20 5 79.9  41 
 PAM  EN ES       1553 31.60                             150   -0.1610 79.9  41 
 PAM  EZ I        1553 33.69         5.0 0.54            151           79.9  41 
 RUS  HZ EP       1553 15.65                             144   -0.1310  101 174 
 RUS  HE ES       1553 34.62                             144    0.4010  101 174 
 RUS  HZ I        1553 36.05        10.5 0.86            146            101 174 
 PTB  HZ EP   2   1553 18.29                             132   -0.41 5  144 259 
 PTB  HN ES       1553 39.18                             132   -0.23 9  144 259 
 PTB  HZ I        1553 41.95         5.8 0.20            131            144 259 
 ZAR  HE ES   4   1553 51.97                             123    2.78 0  201 293 
 ZAR  HZ I        1553 56.59         6.9 0.44            121            201 293 
                                                                                
