 2015  427 1014 37.0 L   7.235 -73.309117.6  RSN 12 0.5 2.2LRSN                1
 GAP=195        1.13       4.8     6.1  7.1 -0.2740E+00  0.3922E+01  0.3793E+00E
 Epicentro: LEBRIJA - SANTANDER                                                3
 ACTION:UPD 15-06-03 16:58 OP:cam  STATUS:               ID:20150427101437 L   I
 OLDACT:UP  15-04-28 02:26 OP:ak   STATUS:               ID:20150427100748     3
 OLDACT:REG 15-04-27 20:22 OP:ak   STATUS:               ID:20150427100748     3
 2015-04-27-1007-48M.COL___268                                                 6
 STAT SP IPHASW D HRMM SECON CODA AMPLIT PERI AZIMU VELO AIN AR TRES W  DIS CAZ7
 BRR  HZ EP       1014 53.77                             157    0.0610 46.7 252 
 BRR  HE ES       1015  6.96                             157    0.1810 46.7 252 
 BRR  HZ I        1015 21.27        24.2 0.30            145           46.7 252 
 BAR2 EZ EP       1014 55.75                             146    0.1910 72.5 169 
 BAR2 EZ ES   1   1015  9.87                             146   -0.21 7 72.5 169 
 PTB  HZ EP       1015  1.24                             125   -0.60 9  148 239 
 PTB  HN ES       1015 21.87                             125    0.62 9  148 239 
 PTB  HZ I        1015 31.56        15.6 0.23            125            148 239 
 RUS  HZ EP   1   1015  2.55                             125   -0.14 7  151 170 
 RUS  HN ES   4   1015 21.24                             125   -1.53 0  151 170 
 RUS  HZ I        1015 22.20        15.0 0.24            133            151 170 
 ZAR  HZ EP       1015  4.70                             120    0.28 9  173 280 
 ZAR  HN ES   1   1015 25.60                             120   -0.24 7  173 280 
 ZAR  HZ I        1015 42.65        19.3 0.34            121            173 280 
 SML  HZ EP       1015  5.83                             117   -0.62 9  192 334 
 SML  HE ES   4   1015 27.95                             117   -1.51 0  192 334 
 SML  HZ I        1015 32.37        15.2 0.10            121            192 334 
 SPBC HZ EP       1015  7.23                             117    0.45 9  194 206 
 SPBC HN ES       1015 29.38                             117   -0.66 9  194 206 
 SPBC HZ I        1015 35.54        28.8 0.30            121            194 206 
 NOR  HZ EP       1015 14.36                             110    1.07 8  253 223 
 NOR  HN ES       1015 40.87                             110   -0.76 8  253 223 
 NOR  HZ I        1015 51.12        15.6 0.20            114            253 223 
 HEL  HN ES   4   1015 47.45                             109    1.36 0  271 245 
 HEL  HZ I        1015 57.27        13.3 0.34            112            271 245 
 CHI  HZ EP   4   1015 16.51                             107   -1.75 0  292 189 
 CHI  HN ES   4   1015 46.09                             107   -4.38 0  292 189 
 CHI  HZ I        1015 51.62         7.8 0.34            113            292 189 
 MON  HE ES   4   1015 51.80                             106   -1.67 0  311 303 
 GUY2CHZ EP   4   1015 23.15                             105    1.74 0  318 226 
 GUY2CHN ES   4   1015 57.61                             105    1.53 0  318 226 
 GUY2CHZ I        1016  7.95        10.6 0.66                           318 226 
 TOL  SZ EP       1015 27.52                             102    0.37 6  368 217 
 TOL  SN ES       1016  6.07                             102   -0.22 6  368 217 
 TOL  SZ I        1016 11.02        10.1 0.78            107            368 217 
                                                                                
