 2013  327 1611 27.9 L   6.797 -73.144148.0  RSN 12 0.5 2.8LRSN 3.2WRSN        1
 SPEC AVERAGE  MO 13.9 ST 11.2 OM  2.3 f0 4.84 R0.4284 AL 2.21 WI 46.7 MW  3.2 3
 SPEC SD       MO  0.3 ST 12.2 OM  0.6 f0 1.52 R0.1710 AL      WI      MW  0.2 3
 GAP= 71        1.07       3.5     3.8  5.7  0.1134E+01  0.2069E+01  0.5062E+00E
 Epicentro: LOS SANTOS - SANTANDER                                             3
 SPEC OCA HH N MO 14.2 ST 17.7 OM  2.2 f0 5.30 R0.3434 AL 2.01 WI 41.7 MW  3.4 3
 SPEC OCA HH N T161216 K 0.050 GD  218 VS 5.20 DE 3.20 Q0750.0 QA 1.50 VS 5.20 3
 SPEC RUS HH N MO 13.5 ST  3.4 OM  1.6 f0 5.17 R0.3520 AL 1.79 WI 63.5 MW  3.0 3
 SPEC RUS HH N T1612 9 K 0.050 GD  178 VS 5.20 DE 3.20 Q0750.0 QA 1.50 VS 5.20 3
 SPEC PAM SH N MO 13.6 ST  8.2 OM  1.7 f0 6.58 R0.2766 AL 3.30 WI 57.1 MW  3.0 3
 SPEC PAM SH N T1612 6 K 0.050 GD  167 VS 5.20 DE 3.20 Q0750.0 QA 1.50 VS 5.20 3
 SPEC COD HH N MO 13.6 ST0.893 OM  1.3 f0 3.25 R0.5600 AL 1.51 WI 28.9 MW  3.0 3
 SPEC COD HH N T161253 K 0.050 GD  379 VS 5.20 DE 3.20 Q0750.0 QA 1.50 VS 5.20 3
 SPEC CHI HH N MO 14.1 ST  1.4 OM  2.0 f0 2.43 R0.7490 AL 1.97 WI 65.7 MW  3.4 3
 SPEC CHI HH N T161233 K 0.050 GD  288 VS 5.20 DE 3.20 Q0750.0 QA 1.50 VS 5.20 3
 SPEC BRR HH N MO 14.3 ST 35.3 OM  2.4 f0 6.29 R0.2893 AL 2.69 WI 23.4 MW  3.5 3
 SPEC BRR HH N T1612 6 K 0.050 GD  164 VS 5.20 DE 3.20 Q0750.0 QA 1.50 VS 5.20 3
 ACTION:UPD 13-04-09 14:05 OP:ep   STATUS:               ID:20130327161127 L   I
 2013-03-27-1610-00M.COL___245                                                 6
 STAT SP IPHASW D HRMM SECON CODA AMPLIT PERI AZIMU VELO AIN AR TRES W  DIS CAZ7
 BAR2 SZ EP       1611 47.72                             171   -0.0810 23.1 191 
 BAR2 SZ ES       1612  2.99                             171   -0.3310 23.1 191 
 BAR2 SZ I        1612  4.41       115.2 0.38            171           23.1 191 
 GIR2 SZ EP       1611 47.87                             167    0.0210 31.6 350 
 GIR2 SZ ES   1   1612  2.97                             167   -0.44 7 31.6 350 
 GIR2 SZ I        1612  4.87        53.1 0.58            165           31.6 350 
 BRR  HZ IP     C 1611 49.60                             153    0.2810 71.5 299 
 BRR  HN ES       1612  7.17                             153    1.1510 71.5 299 
 BRR  HN I        1612  7.27       178.5 0.30            150           71.5 299 
 PAM  SZ IP     C 1611 50.53                             151    0.1610 77.5  39 
 PAM  SN ES       1612  7.88                             151    0.0010 77.5  39 
 PAM  SN I        1612  8.84        62.7 0.22            152           77.5  39 
 RUS  HZ EP       1611 51.58                             144   -0.2810  100 176 
 RUS  HN ES       1612 10.43                             144   -0.1010  100 176 
 RUS  HN I        1612 12.25        33.7 0.22            146            100 176 
 PTB  HZ EP       1611 54.67                             132   -0.40 9  148 259 
 PTB  HN ES   1   1612 15.58                             132   -0.68 7  148 259 
 PTB  HN I        1612 20.96       134.9 0.54            132            148 259 
 TAM  HZ IP     D 1611 55.91                             131    0.17 9  155 105 
 TAM  HN ES       1612 17.75                             131    0.31 9  155 105 
 TAM  HN I        1612 18.28        84.7 0.34            133            155 105 
 OCA  HZ EP   1   1611 56.31                             130   -0.11 7  161 353 
 OCA  HN ES       1612 18.07                             130   -0.60 9  161 353 
 OCA  HN I        1612 24.95       135.1 0.24            130            161 353 
 ZAR  HZ EP   2   1612  0.19                             123   -0.34 4  204 292 
 ZAR  HE ES   1   1612 25.96                             123   -0.02 6  204 292 
 ZAR  HE I        1612 31.98        91.2 0.18            122            204 292 
 CHI  HZ EP   1   1612  5.74                             118    0.04 6  248 195 
 CHI  HN ES   1   1612 35.05                             118   -0.14 6  248 195 
 CHI  HN I        1612 37.48        38.9 0.30            118            248 195 
 HEL  HZ EP   1   1612  9.78                             115    1.53 6  272 256 
 COD  HZ EP   1   1612 15.56                             109   -0.85 5  349 355 
 COD  HN ES   1   1612 54.50                             109    0.26 5  349 355 
 COD  HN I        1612 58.38        13.7 0.58            109            349 355 
                                                                                
