 2013  627 1804  2.8 L   6.823 -73.151145.6  RSN 13 0.5 2.3LRSN                1
 GAP=135        1.01       3.4     4.5  6.5 -0.1566E+00  0.9036E+01  0.5299E+01E
 Epicentro: LOS SANTOS - SANTANDER                                             3
 ACTION:UPD 14-01-08 09:57 OP:ep   STATUS:               ID:20130627180402 L   I
 OLDACT:REG 13-06-27 18:04 OP:carl STATUS:               ID:20130627175959     3
 2013-06-27-1759-59M.COL___266                                                 6
 STAT SP IPHASW D HRMM SECON CODA AMPLIT PERI AZIMU VELO AIN AR TRES W  DIS CAZ7
 BAR2 SZ EP       18 4 22.38                             170   -0.0410 25.7 188 
 BAR2 SZ ES   1   18 4 36.82                             170   -0.94 7 25.7 188 
 BAR2 SZ I        18 4 38.99        25.3 0.18            169           25.7 188 
 GIR2 SZ EP       18 4 22.38                             168    0.0310 28.7 351 
 BRR  HZ EP       18 4 24.17                             153    0.3710 69.5 297 
 BRR  HN ES   1   18 4 41.27                             153    1.07 7 69.5 297 
 BRR  HN I        18 4 41.68       101.3 0.34            151           69.5 297 
 PAM  SZ EP       18 4 25.13                             151    0.2610 75.9  41 
 PAM  SN ES       18 4 42.21                             151    0.1010 75.9  41 
 PAM  SZ I        18 4 44.18        28.2 0.46            154           75.9  41 
 RUS  HZ EP       18 4 26.79                             143    0.1110  103 176 
 RUS  HN ES   1   18 4 45.50                             143    0.16 7  103 176 
 RUS  HZ I        18 4 46.89        27.6 0.32            144            103 176 
 PTB  HZ EP       18 4 28.95                             132   -0.75 9  148 258 
 PTB  HN ES   1   18 4 50.19                             132   -0.53 7  148 258 
 PTB  HZ I        18 4 52.54        29.0 0.12            131            148 258 
 OCA  HN ES   1   18 4 51.99                             130   -0.71 7  158 353 
 OCA  HN I        18 4 55.93        52.0 0.66            131            158 353 
 ZAR  HZ EP   1   18 4 35.05                             123    0.01 6  203 292 
 ZAR  HE ES       18 5  0.68                             123    0.46 9  203 292 
 ZAR  HZ I        18 5  8.19        12.5 0.26            122            203 292 
 NOR  HZ EP       18 4 38.32                             118   -0.26 8  236 234 
 NOR  HE ES   1   18 5  6.48                             118   -0.04 6  236 234 
 NOR  HZ I        18 5 11.44        10.8 0.26            119            236 234 
 SML  HZ EP   1   18 4 38.79                             118   -0.31 6  241 335 
 SML  HE ES   1   18 5  7.24                             118   -0.21 6  241 335 
 SML  HZ I        18 5 10.74        26.3 0.10            118            241 335 
 CHI  HZ EP       18 4 40.87                             117    0.18 8  251 195 
 CHI  HN ES   1   18 5  9.78                             117   -0.50 6  251 195 
 CHI  HZ I        18 5 13.93         5.0 0.36            118            251 195 
 GUY2CHZ EP   4   18 4 47.21                             112    0.74 0  302 234 
 GUY2CHE ES   4   18 5 23.16                             112    2.60 0  302 234 
 GUY2CHZ I        18 5 28.56         7.6 0.54                           302 234 
 PRA  HZ EP       18 4 56.82                             106    0.33 6  394 209 
 PRA  HN ES   1   18 5 39.67                             106    1.27 4  394 209 
 PRA  HZ I        18 5 44.31         5.7 0.24            107            394 209 
                                                                                
