 2013  127 1252 59.5 L   6.169 -73.800  4.0  RSN  4 0.3 1.2LRSN                1
 GAP=188        0.65       3.2     2.2  5.8  0.3036E+01 -0.2588E+01 -0.5328E+01E
 Epicentro: LANDAZURI - SANTANDER                                              3
 ACTION:UPD 13-02-15 09:17 OP:ep   STATUS:               ID:20130127125259 L   I
 2013-01-27-1250-00M.COL___240                                                 6
 STAT SP IPHASW D HRMM SECON CODA AMPLIT PERI AZIMU VELO AIN AR TRES W  DIS CAZ7
 BAR2 SZ EP   1   1253 13.28                              47    0.41 7 82.9  56 
 BAR2 SZ ES   1   1253 22.83                              47   -0.49 7 82.9  56 
 BAR2 SZ I        1253 26.34         7.1 0.36            117           82.9  56 
 PTB  HZ EP   1   1253 12.59                              47   -0.13 7 83.3 299 
 PTB  HN ES   1   1253 22.84                              47   -0.21 7 83.3 299 
 PTB  HZ I        1253 25.28        13.8 0.14            117           83.3 299 
 RUS  HZ EP   1   1253 13.87                              47    0.40 7 85.1 111 
 RUS  HN ES   1   1253 24.10                              47   -0.28 7 85.1 111 
 RUS  HZ I        1253 25.71         6.6 0.14            118           85.1 111 
 BRR  HZ EP   1   1253 15.93                              47    0.07 7  104   5 
 BRR  HN ES   1   1253 28.87                              47    0.23 7  104   5 
                                                                                
