 2011 1227 1634  4.9 L   6.771 -73.128140.6  RSN 19 0.4 3.2LRSN                1
 GAP=116        0.56       2.5     3.5  4.7 -0.1306E+01  0.5038E+01  0.3376E+01E
 Epicentro: LOS SANTOS - SANTANDER                                             3
 ACTION:UPD 12-07-13 16:18 OP:ep   STATUS:               ID:20111227163404 L   I
 2011-12-27-1630-00M.COL___187                                                 6
 STAT SP IPHASW D HRMM SECON CODA AMPLIT PERI AZIMU VELO AIN AR TRES W  DIS CAZ7
 BAR2 SZ EP       1634 23.95                             171    0.1410 20.7 197 
 BAR2 SZ ES   2   1634 38.58                             171   -0.02 5 20.7 197 
 BAR2 SZ I        1634 40.27       616.5 0.25                          20.7 197 
 GIR2 SZ EP   1   1634 24.02                             165    0.00 7 34.8 348 
 BRR  HZ EP   1   1634 25.69                             151    0.04 7 74.5 300 
 BRR  HN ES   2   1634 42.56                             151    0.70 5 74.5 300 
 BRR  HZ I        1634 46.89       366.1 0.17                          74.5 300 
 PAM  SZ EP   1   1634 26.75                             149    0.15 7 78.6  37 
 PAM  SZ I        1634 27.17       275.8 0.21                          78.6  37 
 PAM  SN ES   2   1634 42.96                             149   -0.60 5 78.6  37 
 RUS  HZ EP   1   1634 27.93                             144    0.07 7 97.3 177 
 RUS  HN ES   2   1634 45.56                             144   -0.24 5 97.3 177 
 RUS  HZ I        1634 47.47       133.2 0.22                          97.3 177 
 BRI  SZ EP   1   1634 28.45                             140    0.01 7  111  19 
 OCA  SZ EP   1   1634 32.80                             128   -0.30 7  164 353 
 OCA  SZ ES   2   1634 55.32                             128    0.19 5  164 353 
 OCA  SZ I        1634 57.97       253.0 0.25                           164 353 
 YOP  SZ EP   1   1634 34.28                             126    0.12 7  175 153 
 YOP  SZ I        1634 34.99        52.9 0.16                           175 153 
 ZAR  HZ EP   1   1634 36.73                             121   -0.56 6  207 293 
 ZAR  HN ES   2   1635  2.02                             121   -0.57 4  207 293 
 ZAR  HZ I        1635  8.40       117.1 0.15                           207 293 
 NOR  SZ EP   1   1634 40.07                             117   -0.20 6  234 235 
 NOR  SN ES   2   1635  7.25                             117   -0.64 4  234 235 
 CHI  HZ EP   1   1634 42.15                             116    0.15 6  246 196 
 CHI  HN ES   2   1635 10.74                             116   -0.23 4  246 196 
 CHI  HZ I        1635 18.71        60.3 0.43                           246 196 
 HEL  HZ EP   1   1634 45.75                             114    0.80 6  273 257 
 HEL  HZ I        1635 23.16        63.1 0.35                           273 257 
 VIL  SZ EP   1   1634 47.60                             111   -0.14 5  301 192 
 VIL  SZ I        1635 26.01        54.8 0.28                           301 192 
 GUY  SZ EP   1   1634 48.55                             111    0.07 5  303 236 
 GUY  SN ES   2   1635 22.68                             111    0.18 4  303 236 
 GUY  SZ I        1635 30.66        79.5 0.46                           303 236 
 RREF HZ EP   1   1634 51.06                             110    0.34 5  321 230 
 RREF HN ES   2   1635 27.12                             110    0.63 3  321 230 
 RREF HZ I        1635 33.88        67.0 0.26                           321 230 
 TOL  SZ EP   1   1634 53.51                             108    0.69 5  343 225 
 PRA  HZ EP   1   1634 57.53                             106   -0.47 4  390 210 
 PRA  HN ES   2   1635 38.65                             106   -0.80 3  390 210 
 PRA  HZ I        1635 45.49       248.8 0.24                           390 210 
 PAL  HZ EP   2   1634 59.42                             105   -0.44 3  406 240 
 PAL  HZ I        1635  1.22        56.1 0.12                           406 240 
 YOT  HZ EP   1   1635  6.92                             102   -0.78 4  471 229 
                                                                                
