 2017  527 1557 44.0 L   6.838 -73.127155.9  RSN 16 0.5 2.2LRSN                1
 GAP=186        1.08       4.1     4.4  6.2  0.6323E+01 -0.2054E+01  0.5359E+00E
 Epicentro: LOS SANTOS - SANTANDER                                             3
 ACTION:UPD 17-06-16 13:39 OP:jn   STATUS:               ID:20170527155744 L   I
 OLDACT:UP  17-05-28 03:14 OP:edw  STATUS:               ID:20170527154738d    3
 OLDACT:UP  17-05-28 03:13 OP:edw  STATUS:               ID:20170527154738d    3
 OLDACT:UP  17-05-28 03:12 OP:edw  STATUS:               ID:20170527154738d    3
 OLDACT:DUP 17-05-28 03:01 OP:edw  STATUS:               ID:20170527154738d    3
 OLDACT:UP  17-05-28 03:01 OP:edw  STATUS:               ID:20170527154737     3
 OLDACT:UP  17-05-28 03:00 OP:edw  STATUS:               ID:20170527154737     3
 OLDACT:REG 17-05-27 23:30 OP:dnl  STATUS:               ID:20170527154737     3
 2017-05-27-1548-00M.COL___344                                                 6
 STAT SP IPHASW D HRMM SECON CODA AMPLIT PERI AZIMU VELO AIN AR TRES W  DIS CAZ7
 BRR  HZ EP       1558  6.58                             154    0.3710 71.2 295 
 BRR  HN ES       1558 23.81                             154    0.2410 71.2 295 
 BRR  HZ I        1558 28.53        12.0 0.18            152           71.2 295 
 RUS  HZ EP       1558  8.87                             145   -0.1410  105 177 
 RUS  HN ES       1558 28.00                             145   -0.5410  105 177 
 RUS  HZ I        1558 28.69        38.7 0.30            145            105 177 
 PTB  HZ EP   9   1558 11.62                             134   -0.41 0  151 257 
 PTB  HN ES       1558 32.53                             132   -0.98 9  151 257 
 PTB  HZ I        1558 39.54        16.4 0.40            133            151 257 
 SPBC HZ EP       1558 13.60                             130   -0.08 9  168 219 
 SPBC HE ES       1558 36.70                             130   -0.16 9  168 219 
 SPBC HZ I        1558 41.72        25.9 0.50            130            168 219 
 YPLC HZ EP     D 1558 15.27                             128    0.50 9  180 153 
 YPLC HN ES       1558 39.41                             128    0.61 9  180 153 
 YPLC HZ I        1558 40.16        25.9 0.28            131            180 153 
 ZAR  HZ EP       1558 17.63                             124    0.50 9  204 291 
 ZAR  HN ES       1558 42.67                             124   -0.33 9  204 291 
 ZAR  HZ I        1558 48.28         9.0 0.40            125            204 291 
 TABC EZ EP   4   1558 22.45                             121    1.62 0  235 211 
 TABC EZ ES   2   1558 50.48                             121    0.91 4  235 211 
 NOR  HZ EP       1558 20.74                             120    0.00 8  239 234 
 NOR  HN ES       1558 49.27                             120   -0.15 8  239 234 
 NOR  HZ I        1558 53.49        11.9 0.20            120            239 234 
 CHI  HZ EP       1558 22.45                             118   -0.29 8  253 195 
 CHI  HN ES       1558 52.33                             118   -0.65 8  253 195 
 CHI  HZ I        1558 55.81         9.9 0.44            120            253 195 
 ROSC BZ EP   4   1558 25.27                             118    2.11 0  257 211 
 ROSC BN ES   4   1558 52.76                             118   -0.97 0  257 211 
 ROSC BZ I        1558 59.27        11.8 0.50            119            257 211 
 HEL  HN ES   4   1558 56.05                             116   -1.04 0  275 255 
 HEL  HZ I        1559  2.38         7.8 0.48            117            275 255 
 VIL  EZ EP       1558 28.23                             113   -0.14 7  308 192 
 PTGC HZ EP       1558 28.00                             113   -0.65 7  312 159 
 PTGC HN ES   4   1559  1.42                             113   -2.08 0  312 159 
 ELA  HN ES   4   1559 10.28                             112    1.26 0  333 229 
 CBOC HZ EP   4   1558 33.18                             111    1.49 0  337 252 
 CBOC HN ES       1559  8.55                             111   -0.36 7  337 252 
 DBB  EN ES   4   1559  7.20                             111   -2.40 0  341 274 
 ANIL HE ES   4   1559 17.21                             110    2.96 0  362 224 
 ORTC HZ EP       1558 39.16                             108    0.38 6  400 216 
 ORTC HN ES       1559 22.72                             108    1.18 6  400 216 
 ORTC HZ I        1559 26.06         4.5 0.50            109            400 216 
 SJC  HZ EP       1558 39.00                             107   -0.60 6  407 326 
 SJC  HN ES   4   1559 19.97                             107   -3.03 0  407 326 
 SJC  HZ I        1559 24.42         3.0 0.62            108            407 326 
                                                                                
