 2010 1127 1639 30.4 L   6.763 -73.075146.7  RSN  9 0.4 1.9LRSN                1
 GAP=167        0.73       3.5     7.1  6.6 -0.5437E+01  0.7769E+00 -0.9453E+00E
 Epicentro: LOS SANTOS - SANTANDER                                             3
 ACTION:UP  10-12-17 16:55 OP:REBC STATUS:               ID:20101127163930 L   I
 2010-11-27-1636-47S.COL___132                                                 6
 STAT SP IPHASW D HRMM SECON CODA AMPLIT PERI AZIMU VELO SNR AR TRES W  DIS CAZ7
 BAR2 SZ EP   1   1639 50.39                             171     0.2 8   22 212 
 BAR2 SZ ES   2   1640  5.88                             171     0.3 5   22 212 
 BAR2 SZ I        1640  7.14        18.6 0.29                            22 212 
 BRR  HZ EP   1   1639 51.64                             150    -0.6 8   80 298 
 BRR  HZ I        1639 52.49        15.8 0.19                            80 298 
 BRR  HE ES   1   1640  9.20                             150     0.0 8   80 298 
 RUS  HZ EP   1   1639 54.03                             145     0.1 8   96 181 
 RUS  HN ES   1   1640 12.09                             145    -0.2 8   96 181 
 RUS  HZ I        1640 14.24         6.4 0.30                            96 181 
 GRA  SZ IP       1639 56.13                             137     0.210  128  14 
 GRA  SZ I        1639 57.56        10.1 0.29                           128  14 
 GRA  SZ ES   2   1640 15.08                             137    -0.7 5  128  14 
 OCA  SZ EP   1   1639 59.10                             129    -0.2 7  165 351 
 OCA  SZ ES   2   1640 22.70                             129     0.9 5  165 351 
 OCA  SZ I        1640 25.53        13.8 0.32                           165 351 
 NOR  SZ EP   2   1640  6.11                             118    -0.6 4  239 236 
 CHI  HZ EP   2   1640  8.24                             117     0.3 4  247 197 
 CHI  HN ES   2   1640 37.65                             117     0.4 4  247 197 
 CHI  HZ I        1640 41.31         3.4 0.57                           247 197 
 HEL  HZ EP   2   1640 11.71                             114     0.3 4  279 257 
 RREF HZ EP   2   1640 16.46                             111    -0.5 4  325 231 
 RREF HN ES   2   1640 53.81                             111     0.5 4  325 231 
 RREF HZ I        1640 59.91         5.2 0.32                           325 231 
                                                                                
