 2017 1127 1718 57.7 L   6.395 -73.686 98.0  RSN 19 0.7 2.3LRSN                1
 GAP= 51        1.57       3.0     3.2  7.6 -0.4587E+00  0.3725E+01 -0.2660E+01E
 Epicentro: SANTA HELENA DEL OPON - SANTANDER                                  3
 ACTION:UPD 17-12-12 20:01 OP:rebc STATUS:               ID:20171127171857 L   I
 OLDACT:UP  17-11-27 22:19 OP:dani STATUS:               ID:20171127171327     3
 OLDACT:UP  17-11-27 22:17 OP:dani STATUS:               ID:20171127171327     3
 OLDACT:UP  17-11-27 22:17 OP:dani STATUS:               ID:20171127171327     3
 OLDACT:UP  17-11-27 22:16 OP:dani STATUS:               ID:20171127171327     3
 OLDACT:UP  17-11-27 22:16 OP:dani STATUS:               ID:20171127171327     3
 OLDACT:REG 17-11-27 20:38 OP:dani STATUS:               ID:20171127171327     3
 2017-11-27-1718-00M.COL___489                                                 6
 STAT SP IPHASW D HRMM SECON CODA AMPLIT PERI AZIMU VELO AIN AR TRES W  DIS CAZ7
 BAR2 EZ EP       1719 13.72                             147    0.2410 59.8  69 
 BAR2 EZ ES       1719 26.43                             147    0.6610 59.8  69 
 PTB  HZ EP     C 1719 14.71                             135   -0.5610 86.7 281 
 PTB  HN ES       1719 28.06                             135   -0.9010 86.7 281 
 PTB  HZ I        1719 31.48        67.0 0.10            136           86.7 281 
 RUS  HZ EP     D 1719 15.48                             136   -0.4510 86.8 130 
 RUS  HN ES       1719 29.82                             136   -0.3110 86.8 130 
 RUS  HZ I        1719 33.22        27.2 0.50            137           86.8 130 
 SPBC HZ EP       1719 15.82                             134   -0.0810 92.7 208 
 SPBC HN ES       1719 30.40                             134    0.3310 92.7 208 
 SPBC HZ I        1719 32.80       105.3 0.28            134           92.7 208 
 PAM  EZ EP       1719 22.04                             119   -0.21 9  151  46 
 PAM  EE ES       1719 41.52                             119    0.14 9  151  46 
 PAM  EZ I        1719 42.24        12.5 0.48            121            151  46 
 NOR  HZ EP   3   1719 22.01                             117   -0.68 2  160 235 
 NOR  HN ES       1719 42.41                             117    0.25 9  160 235 
 NOR  HZ I        1719 44.92        35.8 0.24            117            160 235 
 ZAR  HZ EP       1719 24.85                             115    0.29 9  177 313 
 ZAR  HN ES       1719 46.02                             115    0.53 9  177 313 
 ZAR  HZ I        1719 51.00        56.1 0.20            115            177 313 
 YPLC HZ EP       1719 24.82                             114   -0.33 9  182 127 
 YPLC HN ES       1719 46.55                             114    0.02 9  182 127 
 YPLC HZ I        1719 48.52        26.8 0.26            114            182 127 
 CHI  HZ EP       1719 26.65                             113   -0.45 9  195 182 
 CHI  HN ES       1719 50.26                             113    0.26 9  195 182 
 CHI  HZ I        1719 52.92         7.7 0.42            112            195 182 
 HEL  HZ EP       1719 28.98                             111    0.81 9  205 264 
 HEL  HN ES       1719 52.69                             111    0.77 9  205 264 
 HEL  HZ I        1719 55.27        14.8 0.24            111            205 264 
 OCA  HZ EP       1719 27.86                             111   -0.34 8  208  11 
 OCA  HN ES       1719 52.37                             111    0.40 8  208  11 
 TAM  HZ EP       1719 27.62                             111   -0.65 8  210  89 
 TAM  HE ES   4   1719 49.09                             111   -3.00 0  210  89 
 TAM  HZ I        1719 53.17        28.5 0.82            111            210  89 
 GUY2CHZ EP       1719 31.79                             109    1.00 8  227 235 
 GUY2CHN ES   4   1720  0.15                             109    3.58 0  227 235 
 GUY2CHZ I        1720  2.97        13.2 0.30                           227 235 
 VIL  EZ EP       1719 32.93                             107   -0.46 8  252 180 
 VIL  EN ES   3   1720  2.90                             107    1.69 2  252 180 
 VIL  EZ I        1720  3.57        18.4 0.60            106            252 180 
 URE  HZ EP       1719 32.14                             107   -1.19 8  253 306 
 URE  HN ES       1719 58.86                             107   -2.25 8  253 306 
 URE  HZ I        1720  4.55        24.9 0.12            106            253 306 
 CBOC HZ EP       1719 35.92                             106    1.10 8  264 257 
 CBOC HE ES   4   1720  1.80                             106   -1.95 0  264 257 
 CBOC HZ I        1720  2.48         7.1 0.26            105            264 257 
 PRA  HZ EP       1719 41.41                             103   -0.53 7  325 204 
 PRA  HN ES       1720 16.96                             103    0.54 7  325 204 
 PRA  HZ I        1720 24.64         8.0 0.18            101            325 204 
 DRL03HZ EP       1719 42.82                             103    0.08 7  332   4 
 DRL03HN ES       1720 19.49                             103    1.64 7  332   4 
 LL6C HZ EP       1719 48.11                             101    0.52 6  372   7 
 LL6C HN ES   3   1720 27.97                             101    1.50 2  372   7 
                                                                                
