 2017  227 1641 46.2 L   6.803 -73.143144.1  RSN  5 0.2 1.6LRSN                1
 GAP=277        0.56       4.8     4.0  4.6  0.4639E+01  0.6057E+01  0.3910E+01E
 Epicentro: LOS SANTOS - SANTANDER                                             3
 ACTION:UPD 17-05-24 15:41 OP:jn   STATUS:               ID:20170227164146 L   I
 OLDACT:REG 17-02-27 20:57 OP:lv   STATUS:               ID:20170227163743     3
 2017-02-27-1638-00M.COL___376                                                 6
 STAT SP IPHASW D HRMM SECON CODA AMPLIT PERI AZIMU VELO AIN AR TRES W  DIS CAZ7
 BAR2 EZ EP       1642  5.54                             170   -0.0610 23.7 191 
 BAR2 EZ ES       1642 21.02                             170    0.2610 23.7 191 
 BAR2 EZ I        1642 21.98        11.8 0.18            168           23.7 191 
 BRR  HE ES   4   1642 21.50                             152   -2.00 0 71.3 298 
 RUS  HZ EP       1642  9.53                             143   -0.2410  101 176 
 RUS  HN ES       1642 28.09                             143   -0.0910  101 176 
 RUS  HZ I        1642 29.32         2.4 0.32            145            101 176 
 PTB  HZ EP       1642 13.30                             132    0.27 9  148 259 
 PTB  HN ES       1642 33.70                             132   -0.28 9  148 259 
 PTB  HZ I        1642 38.04         3.1 0.19            129            148 259 
 ZAR  HN ES   4   1642 44.70                             122    0.94 0  204 292 
 ZAR  HZ I        1642 50.11         4.1 0.24            121            204 292 
 PRA  HZ EP       1642 39.85                             106    0.17 6  392 210 
 PRA  HN ES       1643 21.65                             106    0.24 6  392 210 
 PRA  HZ I        1643 26.03         2.0 0.54            107            392 210 
                                                                                
