 2017 1227 1542 27.7 L   6.775 -73.174144.5  RSN  5 0.3 1.7LRSN                1
 GAP=143        0.63       5.1     3.3  6.8 -0.5871E+01  0.7315E+01 -0.5410E-01E
 Epicentro: LOS SANTOS - SANTANDER                                             3
 ACTION:UPD 18-01-04 13:24 OP:rebc STATUS:               ID:20171227154227 L   I
 OLDACT:DUP 17-12-27 22:47 OP:mg   STATUS:               ID:20171227153738d    3
 OLDACT:UP  17-12-27 22:47 OP:mg   STATUS:               ID:20171227153737     3
 OLDACT:REG 17-12-27 21:07 OP:mg   STATUS:               ID:20171227153737     3
 2017-12-27-1538-00M.COL___435                                                 6
 STAT SP IPHASW D HRMM SECON CODA AMPLIT PERI AZIMU VELO AIN AR TRES W  DIS CAZ7
 BAR2 EZ EP       1542 47.23                             172    0.1510 20.2 183 
 BAR2 EZ ES   2   1543  2.86                             172    0.63 5 20.2 183 
 BAR2 EZ I        1543  4.70        14.3 0.26             47           20.2 183 
 PAM  EZ EP       1542 50.05                             149    0.0510 81.6  40 
 PAM  EN ES       1543  7.16                             149   -0.2610 81.6  40 
 PAM  EZ I        1543  9.95         8.9 0.44             47           81.6  40 
 PTB  HZ EP       1542 53.91                             132   -0.29 9  144 260 
 PTB  HN ES       1543 14.66                             132   -0.24 9  144 260 
 PTB  HZ I        1543 20.53         3.2 0.10             47            144 260 
 SPBC HE ES   2   1543 17.47                             129   -0.05 5  159 219 
 SPBC HZ I        1543 53.73        17.0 0.20             37            159 219 
 ZAR  HZ EP   1   1543  0.27                             122    0.43 6  202 293 
 ZAR  HE ES       1543 25.21                             122    0.28 9  202 293 
 ZAR  HZ I        1543 31.14         4.1 0.14             47            202 293 
                                                                                
