 2014  627 1010  3.3 L   6.810 -73.161139.1  RSN 15 0.5 2.1LRSN                1
 GAP=134        1.19       2.8     4.3  6.2 -0.2973E+01  0.1040E+02  0.5453E+00E
 Epicentro: LOS SANTOS - SANTANDER                                             3
 ACTION:UPD 14-07-01 22:57 OP:nd   STATUS:               ID:20140627101003 L   I
 OLDACT:REG 14-06-27 22:34 OP:carl STATUS:               ID:20140627100819     3
 2014-06-27-1008-19M.COL___259                                                 6
 STAT SP IPHASW D HRMM SECON CODA AMPLIT PERI AZIMU VELO AIN AR TRES W  DIS CAZ7
 BAR2 SZ EP       1010 22.17                             170    0.0110 24.2 186 
 BAR2 SZ ES       1010 37.09                             170    0.2310 24.2 186 
 BAR2 SZ I        1010 38.15        50.2 0.16            168           24.2 186 
 PAM  SZ EP       1010 25.22                             149    0.3910 77.6  41 
 PAM  SN ES       1010 41.90                             149    0.2810 77.6  41 
 PAM  SZ I        1010 44.67        19.4 0.50            154           77.6  41 
 RUS  HZ EP       1010 26.04                             142   -0.4710  102 175 
 RUS  HN ES       1010 44.20                             142   -0.4010  102 175 
 RUS  HZ I        1010 45.33        11.1 0.22            143            102 175 
 PTB  HZ EP       1010 29.00                             131   -0.62 9  146 258 
 PTB  HN ES       1010 49.47                             131   -0.66 9  146 258 
 PTB  HZ I        1010 52.64        25.8 0.14            130            146 258 
 OCA  HZ EP       1010 31.20                             128    0.21 9  159 354 
 OCA  HE ES       1010 52.75                             128    0.18 9  159 354 
 OCA  HZ I        1010 55.63        15.6 0.32            130            159 354 
 SPBC HZ EP       1010 31.20                             127   -0.09 9  163 218 
 SPBC HN ES       1010 52.39                             127   -0.73 9  163 218 
 SPBC HZ I        1010 56.78        15.2 0.20            127            163 218 
 ZAR  HZ EP       1010 35.35                             121    0.22 9  202 292 
 ZAR  HN ES       1011  0.63                             121    0.69 9  202 292 
 ZAR  HZ I        1011  6.53        14.0 0.56            121            202 292 
 NOR  HZ EP       1010 38.65                             117    0.06 8  234 234 
 NOR  HN ES       1011  6.52                             117    0.42 8  234 234 
 NOR  HZ I        1011 11.70        12.6 0.46            117            234 234 
 SML  HZ EP       1010 38.71                             116   -0.68 8  242 336 
 SML  HE ES       1011  7.28                             116   -0.24 8  242 336 
 SML  HZ I        1011 10.17        17.5 0.24            117            242 336 
 CHI  HZ EP       1010 40.47                             116   -0.25 8  249 195 
 CHI  HE ES       1011 11.15                             116    1.25 8  249 195 
 CHI  HZ I        1011 16.31         3.1 0.30            117            249 195 
 HEL  HZ EP       1010 43.13                             113    0.08 8  271 255 
 HEL  HE ES       1011 13.24                             113   -0.80 8  271 255 
 HEL  HZ I        1011 21.09         8.0 0.34            114            271 255 
 GUY2CHZ EP       1010 46.32                             111   -0.22 7  300 234 
 GUY2CHN ES       1011 21.63                             111    1.37 7  300 234 
 RREF HZ EP       1010 49.21                             110    0.09 7  321 229 
 RREF HE ES       1011 24.78                             110   -0.06 7  321 229 
 RREF HZ I        1011 36.17         5.3 0.26            110            321 229 
 TOL  SZ EP       1010 52.24                             108    0.97 7  343 224 
 TOL  SE ES       1011 28.89                             108    0.22 7  343 224 
 TOL  SZ I        1011 43.54         7.8 0.46            109            343 224 
 PRA  HZ EP       1010 56.03                             105   -0.60 6  392 209 
 PRA  HN ES       1011 37.95                             105   -0.27 6  392 209 
 PRA  HZ I        1011 45.42         3.4 0.28            106            392 209 
                                                                                
