 2014  327 1423 11.8 L   6.792 -73.168142.0  RSN 12 0.4 2.1LRSN                1
 GAP=134        0.85       2.4     3.6  5.1 -0.1499E+01  0.6536E+01 -0.1404E+01E
 Epicentro: LOS SANTOS - SANTANDER                                             3
 ACTION:UPD 14-04-09 23:20 OP:nd   STATUS:               ID:20140327142311 L   I
 OLDACT:UP  14-03-27 19:10 OP:mh   STATUS:               ID:20140327141813     3
 OLDACT:UP  14-03-27 19:09 OP:mh   STATUS:               ID:20140327141813     3
 OLDACT:REG 14-03-27 15:34 OP:mh   STATUS:               ID:20140327141813     3
 2014-03-27-1418-13M.COL___253                                                 6
 STAT SP IPHASW D HRMM SECON CODA AMPLIT PERI AZIMU VELO AIN AR TRES W  DIS CAZ7
 BAR2 SZ EP       1423 31.01                             171    0.0610 22.1 184 
 BAR2 SZ ES       1423 45.54                             171   -0.3510 22.1 184 
 BAR2 SZ I        1423 46.98        40.4 0.10            171           22.1 184 
 BRR  HZ EP     C 1423 33.06                             152    0.6210 69.5 300 
 BRR  HN ES   1   1423 48.32                             152   -0.22 7 69.5 300 
 BRR  HZ I        1423 54.76        25.6 0.17            149           69.5 300 
 PAM  SZ EP     C 1423 34.03                             149    0.2710 79.7  41 
 PAM  SN ES       1423 50.92                             149    0.0410 79.7  41 
 PAM  SZ I        1423 53.66        15.8 0.33            153           79.7  41 
 RUS  HN ES       1423 53.41                             143    0.0910 99.9 175 
 RUS  HZ I        1423 54.47         8.4 0.15            147           99.9 175 
 PTB  HZ EP       1423 37.85                             132   -0.37 9  145 259 
 PTB  HN ES       1423 58.40                             132   -0.42 9  145 259 
 PTB  HZ I        1424  2.58        14.2 0.20            131            145 259 
 OCA  HZ EP       1423 39.50                             128   -0.38 9  161 354 
 OCA  HN ES       1424  2.12                             128    0.34 9  161 354 
 OCA  HZ I        1424  6.35        23.2 0.26            129            161 354 
 ZAR  HZ EP       1423 44.05                             122    0.26 9  202 293 
 ZAR  HN ES   1   1424  9.63                             122    0.88 6  202 293 
 ZAR  HZ I        1424 16.08        16.6 0.27            122            202 293 
 NOR  HN ES       1424 14.50                             118   -0.01 8  232 234 
 SML  HZ EP   1   1423 47.51                             117   -0.68 6  244 336 
 SML  HN ES       1424 16.40                             117   -0.18 8  244 336 
 SML  HZ I        1424 24.00        22.2 0.07            118            244 336 
 CHI  HZ EP       1423 49.25                             116    0.13 8  247 195 
 CHI  HN ES       1424 18.18                             116   -0.05 8  247 195 
 CHI  HZ I        1424 23.84         3.3 0.31            119            247 195 
 URE  HZ EP   1   1423 51.75                             113   -0.71 6  282 292 
 URE  HN ES   4   1424 23.01                             113   -1.17 0  282 292 
 URE  HZ I        1424 33.84        11.1 0.20            114            282 292 
 GUY2CHZ EP   4   1423 56.75                             112    1.81 0  299 235 
 GUY2CHN ES   2   1424 29.32                             112    0.73 4  299 235 
 GUY2CHZ I        1424 39.89         3.2 0.41                           299 235 
 SJC  HZ EP   4   1424  5.54                             105   -1.63 0  409 327 
 SJC  HN ES   4   1424 46.33                             105   -4.03 0  409 327 
                                                                                
