 2011 1227 1239  1.8 L   6.819 -73.195128.4  RSN  5 0.2 1.3LRSN                1
 GAP=130        0.44       4.8     3.6 11.6  0.2102E+01  0.1753E+01 -0.2131E+02E
 Epicentro: ZAPATOCA - SANTANDER                                               3
 ACTION:UPD 12-07-13 16:18 OP:ep   STATUS:               ID:20111227123901 L   I
 2011-12-27-1238-41S.COL___146                                                 6
 STAT SP IPHASW D HRMM SECON CODA AMPLIT PERI AZIMU VELO AIN AR TRES W  DIS CAZ7
 BAR2 SZ EP   1   1239 19.36                             168   -0.01 7 25.1 177 
 PAM  SZ EP   1   1239 22.43                             147    0.11 7 79.4  44 
 RUS  HZ EP   1   1239 23.86                             139   -0.22 7  103 173 
 RUS  HN ES   2   1239 41.47                             139    0.00 5  103 173 
 RUS  HZ I        1239 43.55         3.3 0.30                           103 173 
 PTB  HZ EP   1   1239 27.15                             129    0.23 7  143 258 
 PTB  HN ES   2   1239 46.76                             129    0.23 5  143 258 
 PTB  HZ I        1239 48.79         3.8 0.12                           143 258 
 ZAR  HN ES   2   1239 55.96                             119   -0.55 4  198 292 
                                                                                
