 2016  427 1854  3.9 L   6.736 -73.117139.3  RSN 11 0.4 2.0LRSN                1
 GAP=143        0.91       3.3     3.7  5.6 -0.2167E+01  0.8113E+01  0.9537E+00E
 Epicentro: JORDAN - SANTANDER                                                 3
 ACTION:UPD 16-05-05 14:24 OP:rebc STATUS:               ID:20160427184744 L   I
 OLDACT:UPD 16-04-28 00:33 OP:Ak   STATUS:               ID:20160427184744 L   3
 2016-04-27-1847-44M.COL___316                                                 6
 STAT SP IPHASW D HRMM SECON CODA AMPLIT PERI AZIMU VELO AIN AR TRES W  DIS CAZ7
 BAR2 EZ IP     C 1854 22.76                             173    0.1010 17.4 204 
 BAR2 EZ ES       1854 37.38                             173    0.1110 17.4 204 
 BAR2 EZ I        1854 39.76        23.8 0.22            170           17.4 204 
 PAM  EZ EP       1854 25.75                             148    0.0710 81.2  35 
 PAM  EN ES       1854 42.61                             148   -0.0510 81.2  35 
 PAM  EZ I        1854 45.21        18.3 0.52            153           81.2  35 
 RUS  HZ EP       1854 26.75                             145    0.2410 93.3 178 
 RUS  HE ES       1854 44.21                             145    0.0810 93.3 178 
 RUS  HZ I        1854 46.03         9.4 0.20            147           93.3 178 
 PTB  HZ EP       1854 29.61                             130   -0.93 9  150 262 
 PTB  HN ES       1854 50.61                             130   -0.69 9  150 262 
 PTB  HZ I        1854 52.76        19.7 0.16            131            150 262 
 SPBC HZ EP       1854 31.62                             128    0.02 9  160 221 
 SPBC HN ES       1854 53.12                             128   -0.06 9  160 221 
 SPBC HZ I        1854 59.55        12.3 0.09            130            160 221 
 ZAR  HZ EP       1854 36.86                             120    0.32 8  210 294 
 ZAR  HE ES       1855  2.30                             120    0.32 8  210 294 
 ZAR  HZ I        1855  9.90        10.5 0.23            122            210 294 
 NOR  HZ EP       1854 39.14                             117    0.02 8  233 236 
 NOR  HN ES       1855  7.11                             117    0.54 8  233 236 
 NOR  HZ I        1855  8.71        11.5 0.14            119            233 236 
 CHI  HZ EP       1854 39.96                             116   -0.65 8  243 196 
 CHI  HN ES       1855  9.12                             116   -0.10 8  243 196 
 CHI  HZ I        1855 14.42         3.2 0.34            119            243 196 
 HEL  HZ EP   2   1854 43.95                             113   -0.01 4  273 257 
 HEL  HN ES   2   1855 14.84                             113   -0.36 4  273 257 
 HEL  HZ I        1855 21.78         7.6 0.28            115            273 257 
 URE  HZ EP   2   1854 46.17                             112    0.86 4  289 293 
 URE  HN ES   4   1855 15.61                             112   -1.99 0  289 293 
 URE  HZ I        1855 18.13         7.7 0.12            113            289 293 
 GUY2CHZ EP   2   1854 47.89                             111    0.82 4  300 236 
 GUY2CHE ES       1855 21.43                             111    0.71 7  300 236 
 GUY2CHZ I        1855 28.18         4.4 0.24                           300 236 
                                                                                
