 2011  427 1820 41.9 L   6.808 -73.114142.4  RSN  6 0.3 1.8LRSN                1
 GAP=140        0.67       4.0     5.1  5.6 -0.8719E+01  0.3245E+01 -0.1655E+01E
 Epicentro: LOS SANTOS - SANTANDER                                             3
 ACTION:UP  11-06-22 15:33 OP:REBC STATUS:               ID:20110427182041 L   I
 2011-04-27-1816-49S.COL___137                                                 6
 STAT SP IPHASW D HRMM SECON CODA AMPLIT PERI AZIMU VELO SNR AR TRES W  DIS CAZ7
 BAR2 SZ EP       1821  1.00                             169    -0.110   25 198 
 BAR2 SZ ES   1   1821 16.03                             169    -0.1 7   25 198 
 BAR2 SZ I        1821 19.39        14.9 0.32                            25 198 
 PAM  SZ EP       1821  3.86                             151     0.310   74  38 
 PAM  SN ES   1   1821 20.03                             151    -0.4 7   74  38 
 BRR  HZ EP   1   1821  2.88                             151     0.1 7   74 297 
 BRR  HZ I        1821  5.15        21.6 0.07                            74 297 
 BRR  HN ES   1   1821 19.24                             151     0.1 7   74 297 
 RUS  HZ EP   1   1821  5.06                             143    -0.3 7  101 178 
 RUS  HN ES   1   1821 24.06                             143     0.4 7  101 178 
 RUS  HZ I        1821 24.85         8.0 0.30                           101 178 
 GRA  SZ EP       1821  6.78                             137     0.110  124  16 
 GRA  SZ I        1821 27.71         8.4 0.28                           124  16 
 NOR  SZ EP   1   1821 17.33                             117    -0.4 6  238 235 
 NOR  SN ES   1   1821 45.89                             117     0.1 6  238 235 
                                                                                
