 2017  127 1758 25.9 L   6.888 -73.106138.0  RSN  4 0.3 1.3LRSN                1
 GAP=146        0.81       5.4     5.7  8.6 -0.7103E+01  0.2488E+02 -0.1118E+01E
 Epicentro: PIEDECUESTA - SANTANDER                                            3
 ACTION:UPD 17-05-22 16:04 OP:jn   STATUS:               ID:20170127175825 L   I
 OLDACT:REG 17-01-27 21:50 OP:dnl  STATUS:               ID:20170127175744     3
 2017-01-27-1758-00M.COL___340                                                 6
 STAT SP IPHASW D HRMM SECON CODA AMPLIT PERI AZIMU VELO AIN AR TRES W  DIS CAZ7
 BAR2 EZ EP       1758 45.52                             165    0.6210 33.8 194 
 BAR2 EZ ES       1758 59.92                             165    0.2210 33.8 194 
 BAR2 EZ I        1759  2.06         7.4 0.16            168           33.8 194 
 PAM  EZ EP   4   1758 48.35                             153    1.63 0 67.1  42 
 PAM  EN ES       1759  2.67                             153   -0.2710 67.1  42 
 PAM  EZ I        1759  7.60         3.2 0.56            155           67.1  42 
 RUS  HZ EP   2   1758 49.51                             139   -0.16 5  110 179 
 RUS  HN ES       1759  7.89                             139   -0.2910  110 179 
 RUS  HZ I        1759  9.71         1.8 0.24            145            110 179 
 PTB  HZ EP       1758 52.66                             129   -0.23 9  154 256 
 PTB  HE ES       1759 13.85                             129   -0.06 9  154 256 
 PTB  HZ I        1759 19.85         2.5 0.38            131            154 256 
                                                                                
