 2016 1227 1259 19.0 L   6.794 -73.093137.5  RSN  7 0.6 1.4LRSN                1
 GAP=144        1.29       5.7     6.1  8.4 -0.1634E+00  0.2035E+02  0.3401E+01E
 Epicentro: LOS SANTOS - SANTANDER                                             3
 ACTION:UPD 17-01-11 20:19 OP:rebc STATUS:               ID:20161227125919 L   I
 OLDACT:REG 16-12-27 20:23 OP:cog  STATUS:               ID:20161227125747     3
 2016-12-27-1258-00M.COL___372                                                 6
 STAT SP IPHASW D HRMM SECON CODA AMPLIT PERI AZIMU VELO AIN AR TRES W  DIS CAZ7
 BAR2 EZ EP       1259 37.54                             169   -0.1610 24.3 204 
 BAR2 EZ ES       1259 51.82                             169   -0.4310 24.3 204 
 BAR2 EZ I        1259 53.17         6.5 0.32            167           24.3 204 
 PAM  EZ EP       1259 40.28                             150    0.0810 74.4  36 
 PAM  EE ES       1259 57.10                             150    0.4010 74.4  36 
 PAM  EZ I        1259 58.92         4.0 0.18            157           74.4  36 
 BRR  HZ EP       1259 38.60                             149   -1.0310 76.7 297 
 BRR  HN ES       1259 56.36                             149    0.6710 76.7 297 
 BRR  HZ I        13 0  1.94        11.6 0.40            151           76.7 297 
 RUS  HZ EP       1259 41.61                             142   -0.3110 99.6 179 
 RUS  HN ES       13 0  0.01                             142    0.2510 99.6 179 
 RUS  HZ I        13 0  6.73         1.2 0.42            144           99.6 179 
 PTB  HZ EP       1259 45.48                             129   -0.39 9  153 260 
 PTB  HN ES   3   13 0  5.02                             129   -1.78 2  153 260 
 PTB  HZ I        13 0  8.96         3.9 0.10            131            153 260 
 ZAR  HZ EP     D 1259 52.21                             120    0.65 8  210 292 
 ZAR  HN ES       13 0 16.53                             120   -0.39 8  210 292 
 NOR  HZ EP       1259 55.36                             116    0.58 8  239 235 
 NOR  HN ES       13 0 23.26                             116    0.61 8  239 235 
 NOR  HZ I        13 0 28.50         2.0 0.20            119            239 235 
                                                                                
