 2015  227 1212 47.5 L   6.770 -73.152141.8  RSN  6 0.5 2.2LRSN                1
 GAP=151        0.93       5.2     5.9  7.6 -0.9272E+01  0.1220E+02 -0.4313E+01E
 Epicentro: LOS SANTOS - SANTANDER                                             3
 ACTION:UPD 15-04-30 21:29 OP:nd   STATUS:               ID:20150227121247 L   I
 OLDACT:UP  15-02-27 23:46 OP:mh   STATUS:               ID:20150227120749     3
 OLDACT:REG 15-02-27 21:14 OP:mh   STATUS:               ID:20150227120749     3
 2015-02-27-1207-49M.COL___293                                                 6
 STAT SP IPHASW D HRMM SECON CODA AMPLIT PERI AZIMU VELO AIN AR TRES W  DIS CAZ7
 BAR2 EZ EP       1213  6.71                             172    0.1410 20.0 190 
 BAR2 EZ ES   1   1213 21.08                             172   -0.38 7 20.0 190 
 BAR2 EZ I        1213 23.36        33.1 0.40            172           20.0 190 
 BRR  HZ EP       1213  8.28                             151    0.0210 72.2 301 
 BRR  HN ES   1   1213 25.08                             151    0.61 7 72.2 301 
 BRR  HZ I        1213 26.22        24.2 0.20            151           72.2 301 
 PAM  SZ EP       1213  9.61                             149    0.1510 80.4  38 
 PAM  SN ES   1   1213 26.41                             149   -0.20 7 80.4  38 
 PAM  SZ I        1213 29.12        27.9 0.44            152           80.4  38 
 SPBC HZ EP       1213 15.37                             129   -0.02 9  160 220 
 SPBC HE ES       1213 36.99                             129   -0.17 9  160 220 
 SPBC HZ I        1213 42.32        17.9 0.26            130            160 220 
 ZAR  HZ EP       1213 20.40                             121    0.67 9  205 293 
 ZAR  HN ES   1   1213 44.23                             121   -0.66 6  205 293 
 SML  HZ EP   1   1213 23.08                             116   -1.10 6  246 336 
 SML  HN ES   4   1213 50.79                             116   -2.01 0  246 336 
 SML  HZ I        1213 56.76        18.6 0.10            118            246 336 
                                                                                
