 2013  927 1125 55.3 L   6.770 -73.137138.8  RSN 11 0.6 2.2LRSN 2.7WRSN        1
 SPEC AVERAGE  MO 13.1 ST 91.6 OM  1.4 f0 14.7 R0.2408 AL 0.00 WI 20.0 MW  2.7 3
 SPEC SD       MO  0.2 ST172.9 OM  0.3 f0 12.4 R0.1602 AL      WI      MW  0.1 3
 GAP=120        1.45       4.6     4.9  8.0 -0.9039E+01  0.2460E+01  0.9262E+00E
 Epicentro: LOS SANTOS - SANTANDER                                             3
 SPEC BAR2SH Z MO 13.5 ST  3.4 OM  1.7 f0 5.51 R0.3492 AL-0.00 WI 20.0 MW  3.0 3
 SPEC BAR2SH Z T112626 K 0.050 GD  140 VS 5.20 DE 3.20 Q0750.0 QA 1.50 VS 5.20 3
 SPEC PAM SH Z MO 13.3 ST0.612 OM  1.4 f0 3.74 R0.5144 AL-0.00 WI 20.0 MW  2.8 3
 SPEC PAM SH Z T112632 K 0.050 GD  159 VS 5.20 DE 3.20 Q0750.0 QA 1.50 VS 5.20 3
 SPEC RUS HH Z MO 12.9 ST  1.5 OM  1.0 f0 6.76 R0.2846 AL-0.00 WI 20.0 MW  2.5 3
 SPEC RUS HH Z T112634 K 0.050 GD  169 VS 5.20 DE 3.20 Q0750.0 QA 1.50 VS 5.20 3
 SPEC PTB HH Z MO 13.1 ST475.9 OM  1.1 f0 40.0 R0.0481 AL-0.00 WI 20.0 MW  2.7 3
 SPEC PTB HH Z T112640 K 0.050 GD  202 VS 5.20 DE 3.20 Q0750.0 QA 1.50 VS 5.20 3
 SPEC SPBCHH Z MO 13.1 ST 54.3 OM  1.1 f0 19.1 R0.1007 AL-0.00 WI 20.0 MW  2.7 3
 SPEC SPBCHH Z T112642 K 0.050 GD  212 VS 5.20 DE 3.20 Q0750.0 QA 1.50 VS 5.20 3
 SPEC NOR HH Z MO 13.0 ST 13.8 OM  0.9 f0 13.0 R0.1480 AL-0.00 WI 20.0 MW  2.6 3
 SPEC NOR HH Z T112656 K 0.050 GD  272 VS 5.20 DE 3.20 Q0750.0 QA 1.50 VS 5.20 3
 OLDACT:REG 13-09-27 16:28 OP:stll STATUS:               ID:20130927111838     3
 ACTION:UPD 13-10-22 09:25 OP:ep   STATUS:               ID:20130927112555 L   I
 OLDACT:UP  13-09-27 17:57 OP:stll STATUS:               ID:20130927111838     3
 2013-09-27-1118-38M.COL___241                                                 6
 STAT SP IPHASW D HRMM SECON CODA AMPLIT PERI AZIMU VELO AIN AR TRES W  DIS CAZ7
 BAR2 SZ IP     D 1126 14.47                             171    0.4210 20.3 194 
 BAR2 SZ ES       1126 27.73                             171   -0.9310 20.3 194 
 BAR2 SZ I        1126 30.62        40.4 0.36            172           20.3 194 
 BRR  HZ IP     C 1126 16.36                             150    0.5010 73.6 300 
 BRR  HN ES       1126 32.83                             150    0.9410 73.6 300 
 BRR  SZ I        1126 38.48        26.9 0.36            151           73.6 300 
 PAM  SZ IP     C 1126 17.53                             149    0.6110 79.4  38 
 PAM  SN ES       1126 33.97                             149    0.1910 79.4  38 
 PAM  SZ I        1126 36.38        32.8 0.58            152           79.4  38 
 RUS  HZ EP       1126 18.53                             143    0.3910 97.2 176 
 RUS  HN ES       1126 36.08                             143    0.1410 97.2 176 
 RUS  SZ I        1126 37.73        17.6 0.74            146           97.2 176 
 PTB  HZ EP       1126 21.06                             130   -0.69 9  148 260 
 PTB  HE ES       1126 41.79                             130   -0.58 9  148 260 
 PTB  SZ I        1126 44.34        22.4 0.16            133            148 260 
 CAPV BZ IP     D 1126 22.63                             130    0.28 9  151  37 
 CAPV BZ ES       1126 43.32                             130   -0.12 9  151  37 
 SPBC HZ EP       1126 23.21                             128    0.11 9  161 220 
 SPBC HN ES       1126 44.39                             128   -0.38 9  161 220 
 SPBC SZ I        1126 47.28        14.9 0.18            130            161 220 
 OCA  HE ES       1126 44.32                             127   -1.03 9  164 353 
 ZAR  HN ES       1126 53.14                             120    0.47 8  206 293 
 NOR  HZ EP       1126 30.53                             117    0.01 8  234 235 
 NOR  HN ES       1126 58.01                             117    0.02 8  234 235 
 NOR  SZ I        1127  0.17        13.5 0.22            120            234 235 
 SOCV BZ EP       1126 37.03                             111   -1.15 7  302  56 
                                                                                
