 2011 1127 1516 19.5 L   6.968 -73.020140.2  RSN  4 0.4 1.2LRSN                1
 GAP=143        0.64       8.5    14.2 12.4  0.4824E+02 -0.9150E+02 -0.2381E+02E
 Epicentro: PIEDECUESTA - SANTANDER                                            3
 ACTION:UPD 12-07-13 16:12 OP:ep   STATUS:               ID:20111127151619 L   I
 2011-11-27-1513-41S.COL___160                                                 6
 STAT SP IPHASW D HRMM SECON CODA AMPLIT PERI AZIMU VELO AIN AR TRES W  DIS CAZ7
 BAR2 SZ EP   1   1516 39.62                             161    0.46 7 45.2 203 
 BAR2 SZ ES   2   1516 54.55                             161    0.08 5 45.2 203 
 BAR2 SZ I        1516 56.10         4.9 0.46                          45.2 203 
 PAM  SZ EP   2   1516 39.65                             158   -0.27 5 54.3  41 
 BRR  HZ EP   2   1516 39.77                             149   -0.72 5 77.9 281 
 BRR  HZ I        1516 40.95         4.4 0.51                          77.9 281 
 BRR  HE ES   2   1516 56.99                             149    0.15 5 77.9 281 
 RUS  HZ EP   1   1516 44.33                             138    0.14 7  119 183 
 RUS  HN ES   2   1517  2.84                             138   -0.59 5  119 183 
 RUS  HZ I        1517  3.70         1.4 0.37                           119 183 
                                                                                
