 2011  927 1800 57.8 L   6.778 -73.056145.1  RSN  4 0.1 1.7LRSN                1
 GAP=238        0.32       5.5     9.4  4.3  0.4386E+02 -0.2091E+02 -0.1204E+02E
 Epicentro: LOS SANTOS - SANTANDER                                             3
 ACTION:UPD 12-07-13 16:00 OP:ep   STATUS:               ID:20110927180057 L   I
 2011-09-27-1759-29S.COL___165                                                 6
 STAT SP IPHASW D HRMM SECON CODA AMPLIT PERI AZIMU VELO AIN AR TRES W  DIS CAZ7
 BAR2 SZ EP       18 1 17.47                             170    0.0810 24.8 214 
 BAR2 SZ ES   1   18 1 32.55                             170   -0.11 7 24.8 214 
 BAR2 SZ I        18 1 34.00        14.0 0.17                          24.8 214 
 BTL  SZ EP   2   18 1 17.56                             169    0.10 5 28.1 304 
 BRR  HZ EP       18 1 19.38                             149   -0.0910 81.1 297 
 BRR  HN ES   1   18 1 36.46                             149    0.09 7 81.1 297 
 BRR  HZ I        18 1 42.44        15.3 0.36                          81.1 297 
 RUS  HZ EP   1   18 1 21.27                             144   -0.03 7 98.0 182 
 RUS  HE ES   1   18 1 39.66                             144    0.03 7 98.0 182 
 RUS  HZ I        18 1 41.58         3.6 0.38                          98.0 182 
                                                                                
