 2016  927 1056 54.5 L   6.792 -73.143145.0  RSN 11 0.4 2.3LRSN                1
 GAP= 71        1.05       3.0     3.2  5.5 -0.7159E+00  0.4119E+01  0.1885E+01E
 Epicentro: LOS SANTOS - SANTANDER                                             3
 ACTION:UPD 17-08-17 21:16 OP:lp   STATUS:               ID:20160927105654 L   I
 OLDACT:REG 16-09-27 20:07 OP:dani STATUS:               ID:20160927104749     3
 2016-09-27-1048-00M.COL___351                                                 6
 STAT SP IPHASW D HRMM SECON CODA AMPLIT PERI AZIMU VELO AIN AR TRES W  DIS CAZ7
 BAR2 EZ EP     D 1057 13.85                             171   -0.1710 22.6 191 
 BAR2 EZ ES       1057 28.80                             171   -0.4510 22.6 191 
 BAR2 EZ I        1057 29.73        51.4 0.28            170           22.6 191 
 BRR  HZ IP     D 1057 15.79                             152    0.1910 71.9 299 
 BRR  HN ES       1057 33.06                             152    0.9910 71.9 299 
 BRR  HZ I        1057 36.04        33.2 0.16            151           71.9 299 
 PAM  EZ EP       1057 16.71                             150    0.0510 77.8  39 
 PAM  EE ES       1057 34.25                             150    0.3110 77.8  39 
 PAM  EZ I        1057 34.84        21.4 0.18            154           77.8  39 
 RUS  HZ EP       1057 17.80                             144   -0.3110 99.7 176 
 RUS  HN ES       1057 36.42                             144   -0.1110 99.7 176 
 RUS  HZ I        1057 37.02        23.3 0.48            145           99.7 176 
 TAM  HZ EP       1057 22.10                             130    0.04 9  155 105 
 TAM  HE ES       1057 43.82                             130    0.25 9  155 105 
 TAM  HZ I        1057 44.55        22.5 0.48            133            155 105 
 OCA  HZ EP       1057 22.42                             129   -0.41 9  161 353 
 OCA  HE ES       1057 44.17                             129   -0.76 9  161 353 
 SPBC HZ EP       1057 22.83                             129   -0.06 9  163 219 
 SPBC HE ES       1057 44.39                             129   -0.65 9  163 219 
 SPBC HZ I        1057 49.09        29.8 0.20            129            163 219 
 ZAR  HZ EP       1057 26.94                             122   -0.01 9  205 292 
 ZAR  HE ES       1057 52.48                             122    0.21 9  205 292 
 ZAR  HZ I        1057 58.26        41.2 0.54            123            205 292 
 NOR  HZ EP       1057 30.46                             118    0.31 8  234 235 
 NOR  HE ES       1057 58.25                             118    0.28 8  234 235 
 NOR  HZ I        1058  4.15        24.7 0.20            119            234 235 
 CHI  HZ EP       1057 32.78                             117    0.71 8  248 195 
 CHI  HN ES       1058  1.32                             117   -0.06 8  248 195 
 CHI  HZ I        1058  4.69         5.7 0.21            118            248 195 
 HEL  HZ EP       1057 35.03                             115    0.35 8  272 256 
 HEL  HE ES       1058  5.48                             115   -0.54 8  272 256 
                                                                                
