 2017  227 1121 55.9 L   6.792 -73.176146.8  RSN 10 0.4 2.2LRSN                1
 GAP=100        1.05       4.0     3.4  5.7  0.1730E+01  0.2632E+01  0.1262E+01E
 Epicentro: LOS SANTOS - SANTANDER                                             3
 ACTION:UPD 17-05-24 15:41 OP:jn   STATUS:               ID:20170227112155 L   I
 OLDACT:REG 17-02-27 20:38 OP:lv   STATUS:               ID:20170227111745     3
 2017-02-27-1118-00M.COL___364                                                 6
 STAT SP IPHASW D HRMM SECON CODA AMPLIT PERI AZIMU VELO AIN AR TRES W  DIS CAZ7
 BAR2 EZ EP       1122 15.62                             171    0.0310 22.1 182 
 BAR2 EZ ES       1122 30.80                             171   -0.1910 22.1 182 
 BAR2 EZ I        1122 32.31        64.3 0.17            170           22.1 182 
 BRR  HZ IP     D 1122 17.41                             154    0.4210 68.8 301 
 BRR  HN ES       1122 34.10                             154    0.6310 68.8 301 
 BRR  HZ I        1122 37.09        32.1 0.20            152           68.8 301 
 PAM  EZ EP       1122 18.62                             150    0.2610 80.2  41 
 PAM  EN ES       1122 35.66                             150   -0.2510 80.2  41 
 PAM  EZ I        1122 38.67        16.9 0.32            153           80.2  41 
 RUS  HZ EP       1122 19.58                             144   -0.0910 99.9 174 
 RUS  HN ES       1122 37.74                             144   -0.5010 99.9 174 
 RUS  HZ I        1122 39.70        19.9 0.26            145           99.9 174 
 PTB  HZ EP       1122 22.12                             133   -0.49 9  144 259 
 PTB  HN ES       1122 43.11                             133   -0.36 9  144 259 
 PTB  HZ I        1122 45.99        19.1 0.14            132            144 259 
 TAM  HZ EP       1122 24.01                             130    0.11 9  158 104 
 TAM  HN ES       1122 45.81                             130    0.04 9  158 104 
 TAM  HZ I        1122 47.16        13.3 0.44            133            158 104 
 ZAR  HZ EP       1122 27.80                             123   -0.30 9  201 293 
 ZAR  HE ES       1122 53.72                             123    0.48 9  201 293 
 ZAR  HZ I        1122 58.82        24.4 0.26            123            201 293 
 CHI  HZ EP       1122 33.95                             118    0.52 8  247 194 
 CHI  HN ES       1123  3.26                             118    0.53 8  247 194 
 CHI  HZ I        1123  6.79        10.1 0.39            118            247 194 
 ROSC BZ EP   9   1122 35.31                             117    1.54 0  250 210 
 ROSC BN ES       1123  5.60                                    0.72 8  250 210 
 ROSC BZ I        1123 10.35        28.5 0.40            118            250 210 
 URE  HZ EP       1122 35.82                             114   -0.86 7  281 292 
 URE  HN ES   4   1123  5.74                             114   -2.78 0  281 292 
 URE  HZ I        1123 13.94         7.6 0.12            114            281 292 
                                                                                
