 2017  527 1809 31.0 L   6.784 -73.136149.7  RSN  6 0.4 1.8LRSN                1
 GAP=212        0.98       5.7     5.4  7.7  0.5768E+01 -0.4963E+01  0.5422E+01E
 Epicentro: LOS SANTOS - SANTANDER                                             3
 ACTION:UPD 17-06-16 13:39 OP:jn   STATUS:               ID:20170527180931 L   I
 OLDACT:REG 17-05-28 00:08 OP:dnl  STATUS:               ID:20170527180745     3
 2017-05-27-1808-00M.COL___344                                                 6
 STAT SP IPHASW D HRMM SECON CODA AMPLIT PERI AZIMU VELO AIN AR TRES W  DIS CAZ7
 BRR  HZ EP       18 9 52.84                             153    0.1410 72.9 299 
 BRR  HN ES       1810  9.98                             153    0.3810 72.9 299 
 RUS  HZ EP       18 9 54.64                             145   -0.4010 98.8 177 
 RUS  HN ES       1810 13.69                             145   -0.0710 98.8 177 
 RUS  HZ I        1810 14.43         5.4 0.48            143           98.8 177 
 PTB  HZ EP       18 9 58.26                             133   -0.12 9  148 260 
 PTB  HN ES       1810 18.81                             133   -0.90 9  148 260 
 PTB  HZ I        1810 25.93         5.8 0.46            130            148 260 
 SPBC HZ EP       18 9 59.68                             130   -0.08 9  162 220 
 SPBC HN ES       1810 22.67                             130    0.50 9  162 220 
 SPBC HZ I        1810 26.35        18.9 0.20            127            162 220 
 YPLC HZ EP       1810  0.92                             128    0.01 9  175 151 
 NOR  HZ EP       1810  7.50                             119    0.54 8  235 235 
 NOR  HE ES       1810 35.18                             119    0.18 8  235 235 
 NOR  HZ I        1810 41.06         4.9 0.14            118            235 235 
                                                                                
