 2016 1227 1236  8.6 L   6.766 -73.171143.7  RSN  7 0.3 1.6LRSN                1
 GAP=135        0.83       3.7     3.4  5.3 -0.5896E+00  0.5863E+01  0.1009E+01E
 Epicentro: LOS SANTOS - SANTANDER                                             3
 ACTION:UPD 17-01-11 20:19 OP:rebc STATUS:               ID:20161227123608 L   I
 OLDACT:REG 16-12-27 20:21 OP:cog  STATUS:               ID:20161227122745     3
 2016-12-27-1228-00M.COL___372                                                 6
 STAT SP IPHASW D HRMM SECON CODA AMPLIT PERI AZIMU VELO AIN AR TRES W  DIS CAZ7
 BAR2 EZ EP       1236 27.68                             172   -0.1910 19.3 184 
 BAR2 EZ ES       1236 42.96                             172    0.0310 19.3 184 
 BAR2 EZ I        1236 56.41         7.2 0.36            172           19.3 184 
 BRR  HZ EP       1236 29.72                             152    0.2610 70.7 302 
 BRR  HE ES       1236 46.43                             152    0.6710 70.7 302 
 BRR  HZ I        1236 60.00         9.3 0.64            155           70.7 302 
 PAM  EZ EP       1236 30.73                             149   -0.1110 82.0  39 
 PAM  EN ES       1236 47.84                             149   -0.3810 82.0  39 
 RUS  HZ EP       1236 31.79                             144   -0.0710 97.1 174 
 RUS  HN ES       1236 50.18                             144    0.1510 97.1 174 
 PTB  HZ EP       1236 35.09                             132    0.04 9  144 260 
 PTB  HN ES       1236 55.25                             132   -0.46 9  144 260 
 PTB  HZ I        1236 58.53         6.3 0.12            138            144 260 
 ZAR  HZ EP       1236 40.99                             122    0.23 9  203 293 
 ZAR  HN ES       1237  5.53                             122   -0.34 9  203 293 
 NOR  HZ EP       1236 44.18                             119    0.48 8  230 235 
 NOR  HN ES       1237 10.75                             119   -0.35 8  230 235 
 NOR  HZ I        1237 18.87         2.4 0.20            126            230 235 
                                                                                
