 2012  527 1521 47.6 L   6.750 -73.203146.8  RSN  6 0.3 1.9LRSN                1
 GAP=177        0.58       4.5     4.7  7.1  0.4504E+01  0.9979E+01 -0.1766E+01E
 Epicentro: VILLANUEVA - SANTANDER                                             3
 ACTION:UP  12-07-05 12:08 OP:pat  STATUS:               ID:20120527152147 L   I
 2012-05-27-1520-00M.COL___197                                                 6
 STAT SP IPHASW D HRMM SECON CODA AMPLIT PERI AZIMU VELO SNR AR TRES W  DIS CAZ7
 BAR2 SZ EP   1   1522  7.20                             173    -0.1 7   18 173 
 BAR2 SZ ES   1   1522 22.84                             173     0.2 7   18 173 
 BAR2 SZ I        1522 24.11        23.2 0.16                            18 173 
 RUS  HZ EP   1   1522 11.42                             145     0.3 7   96 172 
 RUS  HN ES   1   1522 29.20                             145    -0.3 7   96 172 
 RUS  HZ I        1522 30.77        13.5 0.46                            96 172 
 PTB  HZ EP   1   1522 14.02                             134     0.0 7  141 261 
 PTB  HN ES   1   1522 34.50                             134    -0.1 7  141 261 
 PTB  HZ I        1522 39.94         8.1 0.23                           141 261 
 OCA  HN ES   2   1522 38.46                             129    -0.5 5  165 356 
 ZAR  HN ES   2   1522 45.32                             123     0.5 4  200 294 
 RREF HN ES   2   1523  7.71                             112    -0.4 3  313 229 
 RREF HZ I        1523 18.64         4.7 0.28                           313 229 
                                                                                
