 2017  727 1707 39.2 L   6.318 -73.566116.7  RSN  7 0.4 1.7LRSN                1
 GAP= 86        1.06       4.5     4.0  8.2 -0.9685E+00  0.1243E+02 -0.9743E+01E
 Epicentro: SANTA HELENA DEL OPON - SANTANDER                                  3
 ACTION:UPD 17-08-30 15:37 OP:rebc STATUS:               ID:20170727170740dL   I
 OLDACT:REG 17-07-27 21:27 OP:ar   STATUS:               ID:20170727165738     3
 2017-07-27-1658-00M.COL___386                                                 6
 STAT SP IPHASW D HRMM SECON CODA AMPLIT PERI AZIMU VELO AIN AR TRES W  DIS CAZ7
 BAR2 EZ EP       17 7 56.85                             154    0.4110 52.2  54 
 BAR2 EZ ES       17 8  9.86                             154   -0.0710 52.2  54 
 BAR2 EZ I        17 8 11.25        37.3 0.36            157           52.2  54 
 RUS  HZ EP       17 7 58.22                             147    0.2610 71.2 131 
 RUS  HN ES       17 8 12.59                             147   -0.0310 71.2 131 
 RUS  HZ I        17 8 13.99         5.6 0.24            150           71.2 131 
 BRR  HZ EP       17 7 58.50                             140   -0.0310 88.7 350 
 BRR  HN ES   4   17 8 16.36                             140    2.72 0 88.7 350 
 SPBC HN ES       17 8 14.03                             139   -0.3810 92.5 217 
 SPBC HZ I        17 8 16.19        17.3 0.38            141           92.5 217 
 PTB  HZ EP       17 7 58.66                             136   -0.9410  101 284 
 PTB  HN ES       17 8 15.61                             136    0.0710  101 284 
 PTB  HZ I        17 8 16.63         7.7 0.16            137            101 284 
 NOR  HZ EP       17 8  5.72                             121   -0.20 9  167 240 
 NOR  HN ES       17 8 27.59                             121    0.79 9  167 240 
 NOR  HZ I        17 8 28.41         5.4 0.18            123            167 240 
 ZAR  HZ EP       17 8  8.73                             117    0.05 9  193 312 
 ZAR  HN ES       17 8 31.94                             117    0.24 9  193 312 
 ZAR  HZ I        17 8 36.46         8.8 0.28            118            193 312 
                                                                                
