 2016  327 1621 33.7 L   6.822 -73.183142.0  RSN 14 0.4 2.2LRSN                1
 GAP=131        0.79       2.8     3.2  4.9 -0.1142E+01  0.6223E+01  0.1396E+01E
 Epicentro: ZAPATOCA - SANTANDER                                               3
 ACTION:UPD 16-05-13 21:28 OP:cam  STATUS:               ID:20160327162133 L   I
 OLDACT:REG 16-03-27 20:42 OP:dnl  STATUS:               ID:20160327161749     3
 2016-03-27-1617-49M.COL___304                                                 6
 STAT SP IPHASW D HRMM SECON CODA AMPLIT PERI AZIMU VELO AIN AR TRES W  DIS CAZ7
 BAR2 EZ EP       1621 52.79                             169   -0.1110 25.4 180 
 BAR2 EZ ES       1622  7.68                             169   -0.2210 25.4 180 
 BAR2 EZ I        1622  9.00        40.2 0.24            170           25.4 180 
 PAM  EZ EP       1621 55.79                             150    0.2410 78.3  43 
 PAM  EN ES       1622 13.03                             150    0.4210 78.3  43 
 PAM  EZ I        1622 15.59        15.3 0.44            153           78.3  43 
 RUS  HZ EP       1621 56.99                             142   -0.2810  103 174 
 RUS  HN ES       1622 15.65                             142   -0.0210  103 174 
 RUS  HZ I        1622 17.05        15.6 0.44            145            103 174 
 PTB  HZ EP       1621 59.18                             132   -0.84 9  144 258 
 PTB  HN ES       1622 20.53                             132   -0.03 9  144 258 
 PTB  HZ I        1622 22.37        16.1 0.09            131            144 258 
 OCA  HZ EP   3   1622  1.23                             129   -0.20 2  157 355 
 OCA  HN ES   2   1622 22.80                             129   -0.28 5  157 355 
 OCA  HZ I        1622 31.29        28.6 0.26            130            157 355 
 SPBC HZ EP       1622  1.67                             128   -0.16 9  163 217 
 SPBC HN ES       1622 23.98                             128    0.19 9  163 217 
 SPBC HZ I        1622 28.90        24.4 0.13            129            163 217 
 ZAR  HZ EP       1622  5.57                             122    0.18 9  199 292 
 ZAR  HE ES       1622 30.24                             122    0.12 9  199 292 
 ZAR  HZ I        1622 33.24        11.4 0.10            122            199 292 
 NOR  HZ EP       1622  8.93                             118   -0.06 8  233 233 
 NOR  HE ES   2   1622 36.85                             118    0.33 4  233 233 
 NOR  HZ I        1622 44.08        11.0 0.16            118            233 233 
 CHI  HZ EP       1622 11.10                             116   -0.21 8  250 194 
 CHI  HN ES       1622 40.82                             116    0.15 8  250 194 
 CHI  HZ I        1622 42.72        12.7 0.38            118            250 194 
 ROSC BZ EP   4   1622 12.70                             116    1.10 0  253 210 
 ROSC BE ES   4   1622 43.70                             116    2.53 0  253 210 
 ROSC BZ I        1622 47.54        20.1 0.35            117            253 210 
 HEL  HZ EP   2   1622 14.36                             114    1.03 4  269 255 
 HEL  HE ES   2   1622 43.34                             114   -0.91 4  269 255 
 HEL  HZ I        1622 52.39         6.4 0.28            115            269 255 
 GUY2CHZ EP   2   1622 17.18                             112    0.28 4  299 234 
 GUY2CHE ES   2   1622 50.82                             112    0.22 4  299 234 
 GUY2CHZ I        1623  0.65         5.9 0.22                           299 234 
 ANIL HZ EP   2   1622 23.67                             108    0.46 3  356 224 
 ANIL HE ES       1623  2.96                             108    1.12 6  356 224 
 ANIL HZ I        1623  8.38        16.1 0.32            109            356 224 
 SJC  HZ EP   4   1622 27.09                             105   -1.53 0  405 327 
 SJC  HE ES   4   1623  8.15                             105   -3.32 0  405 327 
 SJC  HZ I        1623 14.43         2.1 0.35            106            405 327 
                                                                                
