 2013  727 1220 59.8 L   6.792 -73.140146.3  RSN  6 0.2 1.7LRSN                1
 GAP=237        0.42       2.8     3.1  3.7  0.3209E+01  0.1064E+01  0.1865E+00E
 Epicentro: LOS SANTOS - SANTANDER                                             3
 ACTION:UPD 13-08-12 10:40 OP:ep   STATUS:               ID:20130727122059 L   I
 OLDACT:REG 13-07-27 14:52 OP:mh   STATUS:               ID:20130727121959     3
 2013-07-27-1219-59M.COL___267                                                 6
 STAT SP IPHASW D HRMM SECON CODA AMPLIT PERI AZIMU VELO AIN AR TRES W  DIS CAZ7
 BAR2 SZ EP   1   1221 19.61                             171    0.09 7 22.5 192 
 BAR2 SZ ES   1   1221 34.95                             171    0.09 7 22.5 192 
 BAR2 SZ I        1221 35.92         7.1 0.24            165           22.5 192 
 BRR  HZ EP   1   1221 21.04                             152   -0.06 7 72.2 299 
 BRR  HN ES       1221 37.69                             152    0.0110 72.2 299 
 BRR  HN I        1221 41.57        20.3 0.18            149           72.2 299 
 RUS  HZ EP   1   1221 23.81                             144    0.24 7 99.6 176 
 RUS  HN ES       1221 41.88                             144   -0.2010 99.6 176 
 RUS  HZ I        1221 43.23         3.5 0.26            143           99.6 176 
 PTB  HE ES       1221 48.09                             132    0.10 9  148 259 
 PTB  HE I        1221 52.86        13.3 0.64            130            148 259 
 PTB  HE E      C 1222  8.24                                            148 259 
 SPBC HZ EP   1   1221 28.55                             129    0.20 7  163 219 
 SPBC HN ES   1   1221 50.51                             129   -0.07 7  163 219 
 SPBC HZ I        1221 56.75         6.5 0.24            128            163 219 
 ZAR  HZ EP   1   1221 32.02                             122   -0.40 6  205 292 
                                                                                
