 2015  327 1402 36.0 L   6.757 -73.151139.3  RSN  6 0.4 1.8LRSN                1
 GAP=138        1.01       4.8     5.2  7.2 -0.7728E+01  0.8483E+01  0.4145E+00E
 Epicentro: LOS SANTOS - SANTANDER                                             3
 ACTION:UPD 15-04-30 16:29 OP:nd   STATUS:               ID:20150327140236 L   I
 OLDACT:REG 15-03-27 20:28 OP:stll STATUS:               ID:20150327135747     3
 2015-03-27-1357-47M.COL___281                                                 6
 STAT SP IPHASW D HRMM SECON CODA AMPLIT PERI AZIMU VELO AIN AR TRES W  DIS CAZ7
 BAR2 EZ IP     C 14 2 54.93                             172    0.1710 18.5 191 
 BAR2 EZ ES       14 3  9.50                             172    0.1110 18.5 191 
 BAR2 EZ I        14 3 10.89        17.9 0.18            171           18.5 191 
 BRR  HZ IP     C 14 2 56.88                             151    0.3110 73.1 302 
 BRR  HZ I        14 2 57.10        16.1 0.24            152           73.1 302 
 BRR  HE ES       14 3 13.01                             151    0.4110 73.1 302 
 PAM  SZ IP       14 2 57.96                             148    0.1710 81.5  38 
 PAM  SZ I        14 2 58.05         9.1 0.24            150           81.5  38 
 PAM  SN ES       14 3 14.43                             148   -0.3510 81.5  38 
 RUS  HE ES       14 3 16.17                             144   -0.3610 95.8 176 
 RUS  HZ I        14 3 18.23        10.7 0.30            144           95.8 176 
 PTB  HZ EP       14 3  1.60                             131   -0.72 9  146 261 
 PTB  HN ES       14 3 22.30                             131   -0.54 9  146 261 
 PTB  HZ I        14 3 24.51         9.8 0.28            131            146 261 
 SPBC HZ EP       14 3  3.90                             128    0.28 9  159 220 
 SPBC HN ES       14 3 25.62                             128    0.46 9  159 220 
                                                                                
