 2013  527 1100 11.4 L   6.382 -73.483115.2  RSN 13 0.5 2.1LRSN                1
 GAP= 67        1.10       3.3     3.5  6.1 -0.1626E+01  0.9213E+01  0.4144E+01E
 Epicentro: CONTRATACION - SANTANDER                                           3
 ACTION:UPD 13-06-20 09:54 OP:ep   STATUS:               ID:20130527110011 L   I
 OLDACT:UP  13-05-27 23:51 OP:Juan STATUS:               ID:20130527110011 L   3
 2013-05-27-1058-51M.COL___212                                                 6
 STAT SP IPHASW D HRMM SECON CODA AMPLIT PERI AZIMU VELO AIN AR TRES W  DIS CAZ7
 BAR2 SZ IP       11 0 28.21                             159    0.2510 40.5  55 
 BAR2 SZ ES       11 0 41.06                             159    0.1810 40.5  55 
 BAR2 SZ I        11 0 41.94        79.1 0.16            154           40.5  55 
 RUS  HZ EP       11 0 30.07                             147    0.1110 69.9 141 
 RUS  HN ES       11 0 44.17                             147   -0.2610 69.9 141 
 RUS  HE I        11 0 45.44        12.0 0.64            149           69.9 141 
 GIR2 SZ IP     C 11 0 30.62                             142    0.2010 83.4  23 
 GIR2 SZ ES       11 0 45.10                             142   -0.1610 83.4  23 
 BRR  HZ IP     C 11 0 30.05                             141   -0.2210 84.1 342 
 BRR  HN ES       11 0 45.10                             141    0.1010 84.1 342 
 BRR  HE I        11 0 51.54        34.1 0.26            130           84.1 342 
 PTB  HZ EP   4   11 0 30.95                             133   -1.42 0  109 279 
 PTB  HN I        11 0 52.24        34.2 0.28            124            109 279 
 PAM  SZ EP       11 0 35.84                             127    0.24 9  137  39 
 PAM  SN ES       11 0 53.99                             127   -0.48 9  137  39 
 NOR  HZ EP       11 0 39.33                             118    0.03 9  178 240 
 NOR  HE ES   4   11 0 58.54                             118   -2.52 0  178 240 
 NOR  HN I        11 1  4.28        27.3 0.16            113            178 240 
 TAM  HZ EP       11 0 40.53                             117    0.28 9  187  88 
 TAM  HZ I        11 0 41.04        19.5 0.68            114            187  88 
 ZAR  HZ EP       11 0 40.91                             116   -0.19 9  195 309 
 ZAR  HE ES       11 1  5.29                             116    1.02 9  195 309 
 ZAR  HN I        11 1 10.80        22.7 0.18            110            195 309 
 HEL  HZ EP       11 0 44.80                             112   -0.33 8  227 265 
 HEL  HN ES       11 1 10.43                             112   -1.01 8  227 265 
 HEL  HE I        11 1 14.69         6.9 0.26            108            227 265 
 GUY2CHZ EP       11 0 47.71                             110    0.48 8  245 239 
 GUY2CHE ES       11 1 15.60                             110    0.43 8  245 239 
 GUY2CHN I        11 1 22.68         3.6 0.44                           245 239 
 SML  HZ EP       11 0 49.23                             107   -0.92 8  275 346 
 SML  HN I        11 1 28.90        17.3 0.10            104            275 346 
 PRA  HZ EP       11 0 57.75                             104    0.68 7  334 208 
 PRA  HN ES       11 1 31.99                             104   -0.70 7  334 208 
 PRA  HE I        11 1 40.00         3.5 0.46            102            334 208 
 SOCV BZ EP   4   11 0 59.02                             102   -0.96 0  358  54 
                                                                                
