 2011  527 1524  1.2 L   6.797 -73.021145.2  RSN  5 0.3 1.6LRSN                1
 GAP=173        0.64       5.6    10.4  8.1  0.1492E+01 -0.5101E+01 -0.1124E+02E
 Epicentro: CEPITA - SANTANDER                                                 3
 ACTION:UP  11-06-29 08:56 OP:tino STATUS:               ID:20110527152401 L   I
 2011-05-27-1520-00M.COL___116                                                 6
 STAT SP IPHASW D HRMM SECON CODA AMPLIT PERI AZIMU VELO SNR AR TRES W  DIS CAZ7
 BAR2 SZ EP   1   1524 20.77                             168    -0.2 7   29 218 
 BAR2 SZ I        1524 21.06         7.2 0.18                            29 218 
 BAR2 SZ ES   1   1524 36.38                             168     0.1 7   29 218 
 BTL  SZ EP       1524 21.40                             168     0.410   30 296 
 BRR  HZ EP       1524 22.88                             148    -0.210   84 294 
 BRR  HZ I        1524 25.34        20.8 0.33                            84 294 
 BRR  HE ES   2   1524 40.08                             148     0.0 5   84 294 
 RUS  HZ EP   2   1524 24.80                             144    -0.1 5  100 184 
 RUS  HZ I        1524 26.07         3.7 0.29                           100 184 
 RUS  HE ES   2   1524 43.02                             144    -0.4 5  100 184 
 GRA  SZ EP   2   1524 26.36                             137     0.2 5  123  11 
 GRA  SZ ES   2   1524 45.23                             137    -0.4 5  123  11 
 GRA  SZ I        1524 48.66         6.2 0.27                           123  11 
                                                                                
