 2010 1027 1502  9.2 L   6.796 -73.120150.7  RSN  5 0.2 1.6LRSN                1
 GAP=167        0.40       3.5     4.8  6.3 -0.2822E+01  0.7996E+00 -0.6798E+00E
 Epicentro: LOS SANTOS - SANTANDER                                             3
 ACTION:UP  11-02-18 11:12 OP:tino STATUS:               ID:20101027150209 L   I
 2010-10-27-1500-19S.COL___127                                                 6
 STAT SP IPHASW D HRMM SECON CODA AMPLIT PERI AZIMU VELO SNR AR TRES W  DIS CAZ7
 BAR2 SZ EP   1   15 2 29.15                             171    -0.2 7   24 197 
 BRR  HZ EP   1   15 2 31.06                             152     0.1 7   74 298 
 BRR  HN ES   2   15 2 48.18                             152     0.1 5   74 298 
 BRR  HZ I        15 2 55.76        13.1 0.87                            74 298 
 RUS  HZ EP   1   15 2 33.63                             145     0.3 7  100 178 
 RUS  HN ES   2   15 2 52.11                             145    -0.1 5  100 178 
 RUS  HZ I        15 2 54.10         3.2 0.28                           100 178 
 GUE  SZ EP   1   15 2 34.31                             140     0.0 7  116  11 
 NOR  SZ EP   1   15 2 45.32                             119    -0.1 6  237 235 
 NOR  SN ES   2   15 3 13.65                             119     0.0 4  237 235 
                                                                                
