 2013  527 1709 31.3 L   6.780 -73.181149.9  RSN  4 0.3 1.4LRSN                1
 GAP=232        0.87       7.1     6.9  8.0  0.2434E+02 -0.4593E+01 -0.1994E+01E
 Epicentro: LOS SANTOS - SANTANDER                                             3
 ACTION:UPD 13-06-20 09:54 OP:ep   STATUS:               ID:20130527170931 L   I
 2013-05-27-1708-39M.COL___217                                                 6
 STAT SP IPHASW D HRMM SECON CODA AMPLIT PERI AZIMU VELO AIN AR TRES W  DIS CAZ7
 BAR2 SZ EP       17 9 51.23                             172   -0.1810 20.7 180 
 BAR2 SZ ES       1710  6.57                             172   -0.5010 20.7 180 
 BAR2 SZ I        1710  7.72         5.5 0.22            172           20.7 180 
 BRR  HZ EP       17 9 53.03                             154    0.2210 69.0 302 
 BRR  HN ES       1710  9.90                             154    0.3410 69.0 302 
 RUS  HZ EP       17 9 55.21                             145   -0.1510 98.7 174 
 RUS  HN ES       1710 14.57                             145    0.4710 98.7 174 
 PTB  HN ES       1710 19.03                             134   -0.24 9  144 259 
                                                                                
