 2017  627 1154  6.2 L   6.022 -73.959 94.6  RSN  8 0.2 1.7LRSN                1
 GAP=143        0.55       2.0     1.9  4.1 -0.1874E+01  0.1370E+01 -0.1816E+01E
 Epicentro: EL PENON - SANTANDER                                               3
 ACTION:UPD 17-09-14 16:55 OP:jn   STATUS:               ID:20170627115406 L   I
 OLDACT:REG 17-06-27 20:45 OP:osc  STATUS:               ID:20170627114745     3
 2017-06-27-1148-00M.COL___343                                                 6
 STAT SP IPHASW D HRMM SECON CODA AMPLIT PERI AZIMU VELO AIN AR TRES W  DIS CAZ7
 SPBC HE ES       1154 31.06                             154   -0.2710 42.7 197 
 SPBC HZ I        1154 32.26        19.4 0.10            155           42.7 197 
 PTB  HZ EP   4 D 1154 21.36                             137   -1.42 0 79.4 316 
 PTB  HE ES       1154 36.03                             137    0.2810 79.4 316 
 PTB  HZ I        1154 36.73         6.5 0.24            138           79.4 316 
 BAR2 EZ EP     C 1154 25.68                             128    0.1110  107  54 
 BAR2 EZ ES       1154 40.91                             128    0.2010  107  54 
 BAR2 EZ I        1154 42.80        35.3 0.66            129            107  54 
 NOR  HZ EP   4   1154 25.06                             126   -0.87 0  113 243 
 NOR  HE ES       1154 41.25                             126   -0.1010  113 243 
 NOR  HZ I        1154 42.38        10.6 0.14            127            113 243 
 BRR  HZ EP       1154 26.53                             123   -0.3810  123  13 
 BRR  HN ES       1154 43.08                             123   -0.0010  123  13 
 HEL  HN ES       1154 53.92                             114    0.03 9  175 276 
 HEL  HZ I        1154 55.72         5.1 0.32            115            175 276 
 GUY2CHZ EP       1154 33.79                             114    0.20 9  179 241 
 GUY2CHN ES       1154 55.15                             114    0.17 9  179 241 
 GUY2CHZ I        1155  0.41         3.5 0.48                           179 241 
 ZAR  HZ EP   2   1154 34.25                             112   -0.07 4  191 329 
 ZAR  HE ES       1154 56.06                             112   -0.22 9  191 329 
 ZAR  HZ I        1154 57.95         8.6 0.30            113            191 329 
                                                                                
