 2014 1227 1559  6.2 L   7.446 -73.184135.2  RSN  7 0.5 2.0LRSN                1
 GAP=135        1.19       4.5     5.1  8.2  0.5022E+01  0.9455E+01 -0.5155E+01E
 Epicentro: EL PLAYON - SANTANDER                                              3
 ACTION:UPD 15-02-10 17:07 OP:nd   STATUS:               ID:20141227155907dL   I
 OLDACT:DUP 14-12-27 23:04 OP:carl STATUS:               ID:20141227155753d    3
 2014-12-27-1557-52M.COL___265                                                 6
 STAT SP IPHASW D HRMM SECON CODA AMPLIT PERI AZIMU VELO AIN AR TRES W  DIS CAZ7
 PAM  SZ EP       1559 26.60                             157    0.5810 54.7 102 
 PAM  SE ES       1559 41.74                             157    0.2410 54.7 102 
 PAM  SZ I        1559 44.33        19.0 0.26            160           54.7 102 
 BRR  HZ IP     C 1559 26.37                             151    0.2810 69.3 237 
 BRR  HN ES       1559 41.82                             151    0.2110 69.3 237 
 BRR  HZ I        1559 42.20        23.7 0.12            153           69.3 237 
 BAR2 EZ EP       1559 28.20                             143    0.1110 94.4 180 
 BAR2 EZ ES       1559 44.87                             143   -0.3110 94.4 180 
 BAR2 EZ I        1559 45.79        44.6 0.12            147           94.4 180 
 RUS  HZ EP       1559 35.23                             125   -0.08 9  172 176 
 RUS  HE ES       1559 57.27                             125   -0.76 9  172 176 
 RUS  HZ I        1559 58.38         3.9 0.30            129            172 176 
 PTB  HZ EP       1559 34.59                             125   -0.15 9  173 235 
 PTB  HN ES       1559 56.78                             125   -0.23 9  173 235 
 PTB  HZ I        16 0  0.46         7.9 0.16            127            173 235 
 SML  HZ EP       1559 35.18                             124   -0.17 9  179 327 
 SML  HN ES       1559 56.97                             124   -1.12 9  179 327 
 SML  HZ I        16 0  4.71        11.9 0.10            124            179 327 
 ZAR  HZ EP       1559 36.41                             123    0.44 9  185 272 
 ZAR  HN ES       1559 59.92                             123    0.72 9  185 272 
 ZAR  HZ I        16 0  3.03        10.9 0.22            124            185 272 
                                                                                
