 2017  927 1915 39.4 L   5.967 -73.768118.3  RSN 17 0.6 2.2LRSN                1
 GAP= 66        1.37       2.9     3.3  7.8 -0.3284E+01  0.5655E+01  0.1903E+01E
 Epicentro: BOLIVAR - SANTANDER                                                3
 ACTION:UPD 17-10-05 19:16 OP:rebc STATUS:               ID:20170927191539 L   I
 OLDACT:REG 17-09-27 21:11 OP:dhb  STATUS:               ID:20170927190742     3
 2017-09-27-1908-00M.COL___453                                                 6
 STAT SP IPHASW D HRMM SECON CODA AMPLIT PERI AZIMU VELO AIN AR TRES W  DIS CAZ7
 RUS  HZ IP     D 1915 58.38                             145   -0.3310 76.3  96 
 RUS  HN ES       1916 12.87                             145   -0.9010 76.3  96 
 RUS  HZ I        1916 14.44        75.3 0.04            148           76.3  96 
 BAR2 EZ IP     D 1915 59.93                             138    0.1910 94.8  43 
 BAR2 EZ ES       1916 15.32                             138   -0.2810 94.8  43 
 TABC EZ IP     D 1916  2.30                             132    0.4210  116 205 
 TABC EZ ES       1916 19.99                             132    0.5810  116 205 
 TABC EZ I        1916 24.61        30.2 0.35            135            116 205 
 BRR  HZ EP       1916  2.32                             129    0.1510  126   3 
 BRR  HE ES       1916 20.14                             129    0.2210  126   3 
 BRR  HZ I        1916 23.13        41.4 0.12            134            126   3 
 NOR  HZ EP       1916  2.23                             129   -0.3610  130 250 
 NOR  HE ES       1916 20.66                             129   -0.0110  130 250 
 NOR  HZ I        1916 21.62        70.0 0.16            132            130 250 
 ROSC BZ EP       1916  4.43                             127    0.53 9  139 206 
 ROSC BE ES       1916 24.25                             127    1.24 9  139 206 
 ROSC BZ I        1916 28.18        16.0 0.29            129            139 206 
 CHI  HZ EP       1916  4.32                             125   -0.51 9  148 178 
 CHI  HE ES   2   1916 23.28                             125   -1.39 5  148 178 
 CHI  HZ I        1916 30.83        12.1 0.23            127            148 178 
 YPLC HZ EP       1916  6.78                             121    0.53 9  166 112 
 YPLC HE ES       1916 27.98                             121    0.79 9  166 112 
 YPLC HZ I        1916 31.78        36.5 0.07            124            166 112 
 PAM  EZ EP       1916  9.91                             117    0.35 9  192  38 
 PAM  EN ES       1916 33.10                             117    0.02 9  192  38 
 PAM  EZ I        1916 38.33         9.5 0.18            121            192  38 
 GUY2CHZ EP       1916  9.97                             117    0.13 9  195 245 
 GUY2CHE ES       1916 33.50                             117   -0.07 9  195 245 
 GUY2CHZ I        1916 42.74        11.6 0.50                           195 245 
 VIL  EZ EP       1916 10.25                             115   -0.27 8  205 178 
 VIL  EE ES       1916 33.61                             115   -1.18 8  205 178 
 VIL  EZ I        1916 37.42        22.7 0.51            118            205 178 
 ZAR  HZ EP       1916 10.24                             115   -0.33 8  207 325 
 ZAR  HE ES       1916 34.78                             115   -0.10 8  207 325 
 ZAR  HZ I        1916 37.35        20.3 0.41            119            207 325 
 ELA  HZ EP       1916 13.03                             114    0.56 8  218 236 
 ELA  HE ES       1916 37.45                             114   -0.82 8  218 236 
 ELA  HZ I        1916 43.32         8.2 0.43            117            218 236 
 ANIL HN EP   4   1916 17.71                             111    2.66 0  244 228 
 ANIL HE ES       1916 43.43                             111    0.58 8  244 228 
 URE  HZ EP   9   1916 17.03                             108   -1.52 0  277 315 
 URE  HE ES       1916 46.56                                   -1.00 7  277 315 
 URE  HZ I        1916 48.77        14.7 0.12            111            277 315 
 PRA  HZ EP       1916 18.01                             108   -0.68 7  278 207 
 PRA  HE ES       1916 48.80                             108   -0.53 7  278 207 
 PRA  HZ I        1916 54.65        18.0 0.15            110            278 207 
 ORTC HZ EP       1916 18.57                             108   -0.36 7  280 216 
 ORTC HE ES       1916 50.08                             108    0.31 7  280 216 
 ORTC HZ I        1916 55.81         6.3 0.19            110            280 216 
                                                                                
