 2011  327 1251 33.9 L   6.725 -73.136148.0  RSN  5 0.2 1.7LRSN                1
 GAP=184        0.52       4.7     6.2  5.8 -0.1374E+02 -0.3285E+01 -0.1449E+01E
 Epicentro: JORDAN - SANTANDER                                                 3
 ACTION:UP  11-06-16 14:36 OP:jfem STATUS:               ID:20110327125133 L   I
 2011-03-27-1249-28S.COL___138                                                 6
 STAT SP IPHASW D HRMM SECON CODA AMPLIT PERI AZIMU VELO SNR AR TRES W  DIS CAZ7
 BAR2 SZ EP       1251 53.45                             174    -0.210   16 200 
 BAR2 SZ ES   1   1252  9.23                             174     0.2 7   16 200 
 BAR2 SZ I        1252  9.49        10.6 0.20                            16 200 
 BRR  HZ EP   1   1251 55.36                             151    -0.2 7   76 304 
 BRR  HE ES   1   1252 12.41                             151    -0.1 7   76 304 
 BRR  HZ I        1252 13.86        13.2 0.33                            76 304 
 GRA  SZ EP   1   1252  0.25                             136     0.3 7  133  16 
 GRA  SZ ES   1   1252 20.31                             136     0.0 7  133  16 
 GRA  SZ I        1252 21.08         4.8 0.44                           133  16 
 OCA  SZ EP   2   1252  3.23                             129     0.1 5  169 353 
 OCA  SZ I        1252 27.43         6.6 0.16                           169 353 
 NOR  SN ES   2   1252 37.48                             119     0.5 4  231 236 
                                                                                
