 2017  827 1114 21.6 L   6.698 -73.105146.1  RSN  4 0.3 1.0LRSN                1
 GAP=146        0.54       3.2     4.4  4.9 -0.4815E+00 -0.7009E+00 -0.2712E+01E
 Epicentro: JORDAN - SANTANDER                                                 3
 ACTION:UPD 17-09-04 20:25 OP:rebc STATUS:               ID:20170827111421 L   I
 OLDACT:REG 17-08-27 20:24 OP:osc  STATUS:               ID:20170827110736     3
 2017-08-27-1108-00M.COL___411                                                 6
 STAT SP IPHASW D HRMM SECON CODA AMPLIT PERI AZIMU VELO AIN AR TRES W  DIS CAZ7
 BAR2 EZ EP       1114 41.40                             174    0.3210 14.5 216 
 BAR2 EZ ES       1114 56.37                             174    0.0610 14.5 216 
 BAR2 EZ I        1114 57.41         2.9 0.28            172           14.5 216 
 BRR  HZ EP       1114 43.10                             149   -0.2210 81.0 304 
 BRR  HE ES       1115  0.31                             149    0.0210 81.0 304 
 PAM  EZ EP       1114 44.32                             149    0.1110 83.9  32 
 PAM  EE ES       1115  1.72                             149   -0.1610 83.9  32 
 RUS  HZ EP   3   1114 43.41                             147   -1.14 2 89.1 178 
 RUS  HN ES       1115  2.42                             147   -0.0510 89.1 178 
 RUS  HZ I        1115  5.43         1.3 0.28            146           89.1 178 
                                                                                
