 2014 1127 1729 56.9 L   6.761 -73.218135.0  RSN  4 0.6 1.2LRSN                1
 GAP=223        1.49      11.6    11.5 12.5  0.7372E+02  0.3370E+02  0.2046E+02E
 Epicentro: ZAPATOCA - SANTANDER                                               3
 ACTION:UPD 14-12-19 15:48 OP:nd   STATUS:               ID:20141127172956 L   I
 OLDACT:REG 14-11-28 00:32 OP:spq  STATUS:               ID:20141127172746     3
 2014-11-27-1727-46M.COL___303                                                 6
 STAT SP IPHASW D HRMM SECON CODA AMPLIT PERI AZIMU VELO AIN AR TRES W  DIS CAZ7
 BAR2 SZ ES       1730 28.44                             172   -0.9810 19.1 168 
 BAR2 SZ I        1730 31.05         4.8 0.48            168           19.1 168 
 BRR  HZ EP       1730 17.05                             152    0.3910 66.6 305 
 BRR  HN ES       1730 32.59                             152    0.5510 66.6 305 
 RUS  HZ EP       1730 19.06                             142   -0.3210 97.2 171 
 RUS  HE ES       1730 37.73                             142    0.8310 97.2 171 
 RUS  HZ I        1730 38.32         1.9 0.30            142           97.2 171 
 PTB  HZ EP       1730 21.92                             131   -0.31 9  139 260 
 PTB  HN ES       1730 41.75                             131   -0.22 9  139 260 
 PTB  HZ I        1730 46.03         3.1 0.12            130            139 260 
                                                                                
