 2013 1227 1623 45.8 L   6.803 -73.130151.0  RSN  8 0.4 1.9LRSN                1
 GAP=202        1.09       4.3     6.3  7.2  0.6657E+01  0.1221E+02  0.1140E+00E
 Epicentro: LOS SANTOS - SANTANDER                                             3
 ACTION:UPD 14-01-13 10:21 OP:ep   STATUS:               ID:20131227162345 L   I
 OLDACT:REG 13-12-27 14:23 OP:jn   STATUS:               ID:20131227162000     3
 2013-12-27-1620-00M.COL___285                                                 6
 STAT SP IPHASW D HRMM SECON CODA AMPLIT PERI AZIMU VELO AIN AR TRES W  DIS CAZ7
 BAR2 SZ EP       1624  6.31                             170    0.2110 24.0 194 
 BAR2 SZ ES       1624 21.09                             170   -0.8210 24.0 194 
 BAR2 SZ I        1624 22.83        25.7 0.20            166           24.0 194 
 BRR  HZ EP       1624  8.24                             153    0.6210 72.6 298 
 BRR  HN ES       1624 25.44                             153    0.8310 72.6 298 
 BRR  HZ I        1624 26.29        10.9 0.14            150           72.6 298 
 RUS  HZ EP       1624  9.89                             145   -0.2210  101 177 
 RUS  HN ES       1624 29.10                             145    0.0510  101 177 
 RUS  HZ I        1624 30.39         6.1 0.34            144            101 177 
 PTB  HZ EP       1624 12.96                             133   -0.42 9  150 259 
 PTB  HN ES   2   1624 34.31                             133   -0.57 5  150 259 
 PTB  HZ I        1624 37.05         7.3 0.16            131            150 259 
 SPBC HZ EP       1624 15.25                             130    0.39 9  165 219 
 SPBC HN ES       1624 37.61                             130    0.11 9  165 219 
 SPBC HZ I        1624 44.47        14.2 0.40            129            165 219 
 ZAR  HZ EP   1   1624 18.64                             123   -0.13 6  206 292 
 ZAR  HN ES       1624 44.27                             123   -0.19 8  206 292 
 ZAR  HZ I        1624 50.51         7.8 0.38            123            206 292 
 NOR  HZ EP       1624 22.06                             119    0.03 8  236 235 
 NOR  HN ES       1624 50.15                             119   -0.13 8  236 235 
 NOR  HZ I        1624 53.88         7.0 0.26            119            236 235 
 SML  HN ES       1624 51.10                             118   -0.53 8  244 335 
                                                                                
