 2013  427 1309 29.0 L   6.522 -72.899  4.0  RSN  5 0.3 1.6LRSN                1
 GAP=251        0.74       4.7    10.3 10.3  0.4019E+02  0.8118E+02  0.3184E+02E
 Epicentro: SAN JOAQUIN - SANTANDER                                            3
 ACTION:UPD 13-05-22 14:41 OP:EP   STATUS:               ID:20130427130929 L   I
 2013-04-27-1307-38M.COL___214                                                 6
 STAT SP IPHASW D HRMM SECON CODA AMPLIT PERI AZIMU VELO AIN AR TRES W  DIS CAZ7
 BAR2 SZ IP   4 C 13 9 33.17                              47   -1.54 0 32.3 284 
 BAR2 SZ ES   4   13 9 37.30                              47   -1.88 0 32.3 284 
 BAR2 SZ I        13 9 37.65        37.0 0.13             47           32.3 284 
 RUS  HZ EP       13 9 41.05                              47   -0.0210 72.5 196 
 RUS  HN ES   1   13 9 50.20                              47   -0.30 7 72.5 196 
 RUS  HZ I        13 9 51.52         9.8 0.18             47           72.5 196 
 BRR  HZ EP       13 9 46.35                              47    0.0010  111 306 
 BRR  HE ES   1   13 9 59.36                              47   -0.54 7  111 306 
 BRR  HZ I        1310 17.01        12.0 0.40             47            111 306 
 PTB  HZ IP     C 13 9 56.23                              47    0.54 9  172 271 
 PTB  HN ES   1   1310 16.63                              47    0.10 7  172 271 
 PTB  HZ I        1310 18.44        33.2 0.18             47            172 271 
 NOR  HZ EP   4   1310  7.25                              37    2.64 0  243 244 
 NOR  HN ES   4   1310 35.32                              37    2.91 0  243 244 
 NOR  HZ I        1310 37.28         2.8 0.50             37            243 244 
                                                                                
