 2013  527 1009 18.0 L   6.845 -73.141148.1  RSN 24 0.6 3.2LRSN 3.4WRSN        1
 SPEC AVERAGE  MO 14.2 ST  3.9 OM  2.3 f0 2.96 R0.6666 AL 1.41 WI 24.4 MW  3.4 3
 SPEC SD       MO  0.4 ST  3.8 OM  0.4 f00.485 R0.1247 AL      WI      MW  0.3 3
 GAP= 47        1.40       2.9     3.3  6.0 -0.9967E+00  0.3764E+01  0.1361E+01E
 Epicentro: LOS SANTOS - SANTANDER                                             3
 SPEC PRA HH E MO 13.9 ST  1.7 OM  1.6 f0 3.29 R0.5848 AL 1.16 WI 22.7 MW  3.2 3
 SPEC PRA HH E T101052 K 0.050 GD  423 VS 5.20 DE 3.20 Q0750.0 QA 1.50 VS 5.20 3
 SPECGUY2CHH N MO 14.1 ST  1.3 OM  1.9 f0 2.50 R0.7708 AL 1.84 WI 31.1 MW  3.4 3
 SPECGUY2CHH N T101036 K 0.050 GD  340 VS 5.20 DE 3.20 Q0750.0 QA 1.50 VS 5.20 3
 SPEC HEL HH E MO 14.1 ST  1.5 OM  1.9 f0 2.78 R0.6921 AL 1.08 WI 29.4 MW  3.3 3
 SPEC HEL HH E T101028 K 0.050 GD  311 VS 5.20 DE 3.20 Q0750.0 QA 1.50 VS 5.20 3
 SPEC CHI HH E MO 14.1 ST  1.8 OM  2.0 f0 2.75 R0.6996 AL 1.76 WI 30.2 MW  3.4 3
 SPEC CHI HH E T101025 K 0.050 GD  294 VS 5.20 DE 3.20 Q0750.0 QA 1.50 VS 5.20 3
 SPEC NOR HH N MO 14.7 ST 10.3 OM  2.6 f0 3.17 R0.6069 AL 1.83 WI 19.2 MW  3.8 3
 SPEC NOR HH N T101021 K 0.050 GD  280 VS 5.20 DE 3.20 Q0750.0 QA 1.50 VS 5.20 3
 SPEC TAM HH E MO 13.9 ST0.864 OM  1.9 f0 2.59 R0.7429 AL 1.10 WI 16.4 MW  3.2 3
 SPEC TAM HH E T1010 8 K 0.050 GD  215 VS 5.20 DE 3.20 Q0750.0 QA 1.50 VS 5.20 3
 SPEC OCA HH E MO 14.4 ST  7.0 OM  2.4 f0 3.54 R0.5435 AL 1.47 WI 35.3 MW  3.5 3
 SPEC OCA HH E T1010 7 K 0.050 GD  214 VS 5.20 DE 3.20 Q0750.0 QA 1.50 VS 5.20 3
 SPEC PTB HH E MO 14.3 ST  5.8 OM  2.3 f0 3.62 R0.5315 AL 1.63 WI 29.6 MW  3.5 3
 SPEC PTB HH E T1010 5 K 0.050 GD  210 VS 5.20 DE 3.20 Q0750.0 QA 1.50 VS 5.20 3
 SPEC RUS HH N MO 14.1 ST  1.2 OM  2.2 f0 2.44 R0.7885 AL 1.35 WI 24.0 MW  3.4 3
 SPEC RUS HH N T10 959 K 0.050 GD  182 VS 5.20 DE 3.20 Q0750.0 QA 1.50 VS 5.20 3
 SPEC PAM SH E MO 14.1 ST0.823 OM  2.2 f0 2.21 R0.8706 AL 1.44 WI 17.9 MW  3.3 3
 SPEC PAM SH E T10 957 K 0.050 GD  165 VS 5.20 DE 3.20 Q0750.0 QA 1.50 VS 5.20 3
 SPEC BRR HH N MO 14.6 ST 10.9 OM  2.7 f0 3.58 R0.5374 AL 1.90 WI 20.6 MW  3.7 3
 SPEC BRR HH N T10 956 K 0.050 GD  163 VS 5.20 DE 3.20 Q0750.0 QA 1.50 VS 5.20 3
 SPEC BAR2SH Z MO 14.1 ST  1.3 OM  2.2 f0 2.62 R0.7344 AL 0.81 WI 22.7 MW  3.3 3
 SPEC BAR2SH Z T10 952 K 0.050 GD  150 VS 5.20 DE 3.20 Q0750.0 QA 1.50 VS 5.20 3
 ACTION:UPD 13-06-20 09:54 OP:ep   STATUS:               ID:20130527100917 L   I
 OLDACT:UP  13-06-17 15:46 OP:ep   STATUS:               ID:20130527100917 L   3
 OLDACT:UP  13-05-27 23:51 OP:Juan STATUS:               ID:20130527100917 L   3
 2013-05-27-1008-50M.COL___210                                                 6
 STAT SP IPHASW D HRMM SECON CODA AMPLIT PERI AZIMU VELO AIN AR TRES W  DIS CAZ7
 GIR2 SZ EP       10 9 37.79                             169   -0.0110 26.5 347 
 GIR2 SZ ES   4   10 9 52.45                             169   -0.82 0 26.5 347 
 BAR2 SZ IP     D 10 9 37.80                             169   -0.1910 28.4 189 
 BAR2 SZ ES       10 9 53.03                             169   -0.5810 28.4 189 
 BAR2 SZ I        10 9 54.23       151.7 0.22            168           28.4 189 
 BRR  HZ IP     C 10 9 39.61                             153    0.3310 69.4 295 
 BRR  HN ES       10 9 56.13                             153    0.2410 69.4 295 
 BRR  HE I        10 9 57.29       386.9 0.48            150           69.4 295 
 PAM  SZ IP     C 10 9 40.78                             152    0.5810 73.2  42 
 PAM  SN ES       10 9 57.80                             152    0.2710 73.2  42 
 PAM  SE I        10 9 59.96       157.0 0.46            155           73.2  42 
 BRI  SZ EP   4   10 9 43.58                             143    1.86 0  104  21 
 BRI  SZ ES   4   1010  3.61                             143    3.36 0  104  21 
 RUS  HZ IP     C 10 9 41.77                             143   -0.5410  106 177 
 RUS  HE ES       1010  0.56                             143   -0.7410  106 177 
 RUS  HN I        1010  2.30       169.0 0.30            144            106 177 
 CAPV BZ EP       10 9 45.74                             133    0.56 9  145  39 
 CAPV BZ ES       1010  6.65                             133    0.26 9  145  39 
 PTB  HZ EP   4   10 9 44.32                             132   -0.95 0  149 257 
 PTB  HN ES   4   1010  5.07                             132   -1.50 0  149 257 
 PTB  HE I        1010 11.12       280.8 0.60            130            149 257 
 OCA  HZ EP       10 9 46.13                             131    0.12 9  155 353 
 OCA  HN ES       1010  8.47                             131    0.59 9  155 353 
 OCA  HE I        1010 11.19       295.0 0.22            131            155 353 
 TAM  HZ IP     D 10 9 46.18                             131    0.27 9  156 107 
 TAM  HZ I        10 9 46.32        77.4 0.36            134            156 107 
 TAM  HE ES       1010  8.07                             131    0.37 9  156 107 
 YOP  SZ EP       10 9 48.52                             126   -0.08 9  183 154 
 YOP  SE ES       1010 11.90                             126   -0.59 9  183 154 
 ZAR  HZ EP       10 9 50.47                             123    0.03 9  203 291 
 ZAR  HE ES       1010 15.30                             123   -0.46 9  203 291 
 CTAU SZ EP   4   10 9 52.53                             123    0.96 0  207 209 
 CTAU SZ ES   4   1010 19.52                             123    1.74 0  207 209 
 CTAB SZ EP   4   10 9 55.22                             119    0.87 0  235 210 
 CTAB SZ ES       1010 23.55                             119    0.83 8  235 210 
 NOR  HZ EP       10 9 54.00                             119   -0.20 8  238 234 
 NOR  HE ES   4   1010 20.82                             119   -1.64 0  238 234 
 NOR  HN I        1010 31.95       197.5 0.22            118            238 234 
 SML  HZ EP       10 9 54.39                             118    0.12 8  239 335 
 SML  HN ES       1010 22.38                             118   -0.20 8  239 335 
 SML  HE I        1010 30.61       209.1 0.26            118            239 335 
 CHI  HZ EP       10 9 56.11                             117   -0.23 8  254 195 
 CHI  HN ES       1010 25.25                             117   -1.02 8  254 195 
 CHI  HE I        1010 29.99        79.4 0.48            117            254 195 
 CROSAEE EP       10 9 57.97                             117    1.33 8  257 211 
 CROSAEE I        10 9 58.66        74.8 0.21                           257 211 
 CROSAEN ES       1010 28.23                             117    1.43 8  257 211 
 HEL  HZ EP       10 9 58.80                             115    0.30 8  274 255 
 HEL  HN ES       1010 30.21                             115    0.09 8  274 255 
 HEL  HE I        1010 37.02        70.8 0.42            114            274 255 
 URE  HZ EP       10 9 58.19                             114   -0.82 7  283 291 
 URE  HE ES       1010 29.17                             114   -1.85 7  283 291 
 URE  HE I        1010 40.58        79.0 0.22            114            283 291 
 SOCV BZ EP       1010  0.16                             113   -0.61 7  298  58 
 SOCV BZ ES   4   1010 31.32                             113   -2.83 0  298  58 
 GUY2CHZ EP       1010  2.17                             112    0.10 7  305 234 
 GUY2CHE ES       1010 37.10                             112    0.64 7  305 234 
 GUY2CHN I        1010 43.46        65.5 0.42                           305 234 
 RREF HZ EP   4   1010  6.06                             111    1.42 0  325 229 
 RREF HE ES       1010 41.47                             111    0.44 7  325 229 
 RREF HZ I        1010 52.10        29.3 0.56            111            325 229 
 SDV  BZ EP       1010  7.33                             109   -0.36 6  357  51 
 SDV  BE ES   4   1010 44.68                             109   -1.78 0  357  51 
 PRA  HZ EP   4   1010 11.20                             107   -0.92 0  397 209 
 PRA  HN ES       1010 53.68                             107   -0.67 6  397 209 
 PRA  HE I        1010 58.89        65.2 0.44            107            397 209 
 ELOV BZ EP       1010 11.96                             106   -1.02 6  405  87 
                                                                                
