 2015  827 1357 21.7 L   6.859 -73.260136.0  RSN  5 0.5 1.6LRSN                1
 GAP=114        1.11       5.4     6.0  9.9 -0.6102E+01  0.3202E+02 -0.1142E+02E
 Epicentro: ZAPATOCA - SANTANDER                                               3
 ACTION:UPD 15-09-15 23:05 OP:cam  STATUS:               ID:20150827135721 L   I
 OLDACT:UP  15-09-01 11:27 OP:ar   STATUS:               ID:20150827135721 L   3
 OLDACT:UP  15-08-28 00:18 OP:ak   STATUS:               ID:20150827134748     3
 OLDACT:REG 15-08-27 21:37 OP:ak   STATUS:               ID:20150827134748     3
 2015-08-27-1347-48M.COL___361                                                 6
 STAT SP IPHASW D HRMM SECON CODA AMPLIT PERI AZIMU VELO AIN AR TRES W  DIS CAZ7
 BAR2 EZ EP       1357 40.06                             167   -0.3110 30.7 164 
 BAR2 EZ ES       1357 55.32                             167    0.4110 30.7 164 
 BAR2 EZ I        1357 57.00         8.0 0.21            173           30.7 164 
 PAM  EZ EP       1357 42.68                             148   -0.5010 81.6  49 
 PAM  EN ES       1357 59.96                             148    0.0510 81.6  49 
 PAM  EZ I        1358  2.23         6.2 0.48            148           81.6  49 
 ZAR  HE ES       1358 14.97                             122   -0.78 9  190 292 
 SML  HZ EP       1357 56.70                             117    0.09 8  233 337 
 SML  HN ES       1358 24.63                             117    0.81 8  233 337 
 SML  HZ I        1358 32.57         5.1 0.09            117            233 337 
 GUY2CHZ EP   1   1358  4.79                             111    0.61 5  295 232 
 GUY2CHN ES       1358 37.61                             111    0.31 7  295 232 
 GUY2CHZ I        1358 46.02         2.1 0.28                           295 232 
                                                                                
