 2014  527 1821 47.1 L   6.801 -73.143150.0  RSN 10 0.4 2.3LRSN                1
 GAP= 71        1.00       3.4     3.9  5.7 -0.5782E+00  0.5522E+01 -0.6303E+00E
 Epicentro: LOS SANTOS - SANTANDER                                             3
 ACTION:UPD 15-03-16 17:01 OP:nd   STATUS:               ID:20140527182147 L   I
 OLDACT:UP  14-05-27 22:10 OP:cam  STATUS:               ID:20140527182000     3
 OLDACT:UP  14-05-27 22:10 OP:cam  STATUS:               ID:20140527182000     3
 OLDACT:UP  14-05-27 22:10 OP:cam  STATUS:               ID:20140527182000     3
 OLDACT:UP  14-05-27 22:09 OP:cam  STATUS:               ID:20140527182000     3
 OLDACT:REG 14-05-27 20:09 OP:cam  STATUS:               ID:20140527182000     3
 2014-05-27-1820-00M.COL___276                                                 6
 STAT SP IPHASW D HRMM SECON CODA AMPLIT PERI AZIMU VELO AIN AR TRES W  DIS CAZ7
 BAR2 SZ EP       1822  7.18                             171   -0.1010 23.5 191 
 BAR2 SZ ES       1822 22.68                             171   -0.3110 23.5 191 
 BAR2 SZ I        1822 24.85        31.3 0.24            171           23.5 191 
 BRR  HZ EP       1822  9.03                             153    0.2710 71.4 298 
 BRR  HN ES       1822 26.37                             153    0.7510 71.4 298 
 BRR  HZ I        1822 30.33        29.2 0.44            150           71.4 298 
 PAM  SZ EP       1822  9.99                             152    0.2010 77.1  39 
 PAM  SN ES       1822 27.46                             152    0.0110 77.1  39 
 PAM  SZ I        1822 29.36        27.8 0.52            155           77.1  39 
 RUS  HZ EP       1822 11.44                             145    0.1310  101 176 
 RUS  HE ES       1822 29.66                             145   -0.5110  101 176 
 RUS  HZ I        1822 30.74        14.7 0.34            149            101 176 
 PTB  HZ EP       1822 14.13                             133   -0.36 9  148 259 
 PTB  HN ES   1   1822 34.98                             133   -0.84 7  148 259 
 PTB  HZ I        1822 42.69        18.6 0.48            133            148 259 
 TAM  HZ EP   1   1822 15.33                             132    0.20 7  155 105 
 SPBC HZ EP       1822 16.13                             130    0.14 9  163 219 
 SPBC HE ES       1822 39.19                             130    0.69 9  163 219 
 SPBC HZ I        1822 43.19        24.1 0.36            132            163 219 
 ZAR  HZ EP       1822 19.55                             123   -0.34 9  204 292 
 ZAR  HE ES       1822 45.65                             123    0.21 9  204 292 
 ZAR  HZ I        1822 51.36        17.6 0.32            124            204 292 
 SML  HZ EP   1   1822 23.55                             118   -0.46 6  244 335 
 SML  HE ES       1822 52.34                             118   -0.43 8  244 335 
 SML  HZ I        1823  0.05        36.6 0.22            120            244 335 
 GUY2CHZ EP   1   1822 31.80                             113    0.82 5  302 235 
 GUY2CHN ES       1823  4.79                             113   -0.39 7  302 235 
 GUY2CHZ I        1823 13.61         8.2 0.28                           302 235 
                                                                                
