 2017  927 1858 38.6 L   6.759 -73.162143.8  RSN  5 0.3 1.4LRSN                1
 GAP=232        0.70       4.2     4.7  5.6  0.8731E+01  0.9684E+01  0.5555E+01E
 Epicentro: LOS SANTOS - SANTANDER                                             3
 ACTION:UPD 17-10-05 19:16 OP:rebc STATUS:               ID:20170927185838 L   I
 OLDACT:REG 17-09-27 21:10 OP:dhb  STATUS:               ID:20170927185744     3
 2017-09-27-1858-00M.COL___453                                                 6
 STAT SP IPHASW D HRMM SECON CODA AMPLIT PERI AZIMU VELO AIN AR TRES W  DIS CAZ7
 BAR2 EZ EP       1858 58.50                             172    0.5710 18.6 187 
 BAR2 EZ ES       1859 13.11                             172    0.1210 18.6 187 
 BAR2 EZ I        1859 14.62         3.2 0.19            168           18.6 187 
 BRR  HZ EP       1858 59.23                             152   -0.3710 71.9 302 
 BRR  HN ES       1859 15.92                             152   -0.0410 71.9 302 
 BRR  HZ I        1859 22.43         7.6 0.52            149           71.9 302 
 RUS  HZ EP       1859  1.73                             145   -0.1410 96.2 175 
 RUS  HN ES       1859 19.76                             145   -0.2410 96.2 175 
 RUS  HZ I        1859 21.37         2.4 0.30            147           96.2 175 
 ZAR  HE ES       1859 36.15                             122   -0.02 9  204 293 
 ZAR  HZ I        1859 41.10         3.8 0.15            123            204 293 
 NOR  HZ EP       1859 13.81                             119    0.01 8  231 235 
 NOR  HN ES       1859 41.39                             119    0.15 8  231 235 
 NOR  HZ I        1859 47.50         1.9 0.19            119            231 235 
                                                                                
