 2014  827 1154 24.8 L   6.866 -73.147138.2  RSN  8 0.5 2.0LRSN                1
 GAP=133        1.35       4.6     5.7  8.5  0.1593E+01  0.1293E+02 -0.6472E+01E
 Epicentro: LOS SANTOS - SANTANDER                                             3
 ACTION:UPD 14-09-15 21:53 OP:nd   STATUS:               ID:20140827115424 L   I
 OLDACT:REG 14-08-27 21:42 OP:stll STATUS:               ID:20140827114816     3
 2014-08-27-1148-16M.COL___263                                                 6
 STAT SP IPHASW D HRMM SECON CODA AMPLIT PERI AZIMU VELO AIN AR TRES W  DIS CAZ7
 BAR2 SZ EP       1154 43.63                             167   -0.0310 30.5 187 
 BAR2 SZ ES       1154 58.05                             167   -0.3410 30.5 187 
 BAR2 SZ I        1154 59.14        33.4 0.34            169           30.5 187 
 BRR  HZ IP     C 1154 45.34                             152    0.4410 67.9 293 
 BRR  HN ES       1155  0.93                             152    0.3210 67.9 293 
 BRR  HZ I        1155  5.19        15.4 0.36            151           67.9 293 
 PAM  SZ IP     C 1154 46.54                             151    0.6910 72.0  43 
 PAM  SZ I        1154 46.65        17.7 0.16            153           72.0  43 
 PAM  SN ES       1155  2.56                             151    0.2610 72.0  43 
 RUS  HZ EP       1154 48.84                             140    0.5110  108 176 
 RUS  HN ES       1155  6.08                             140   -0.6410  108 176 
 PTB  HZ EP       1154 50.42                             130   -0.83 9  149 256 
 PTB  HE ES       1155 11.74                             130   -0.17 9  149 256 
 PTB  HZ I        1155 14.56        10.0 0.12            130            149 256 
 OCA  HN ES       1155 12.31                             129   -0.58 9  153 353 
 OCA  HZ I        1155 15.09         9.1 0.24            130            153 353 
 ZAR  HZ EP       1154 56.66                             121    0.23 9  201 290 
 ZAR  HN ES       1155 22.14                             121    1.01 9  201 290 
 ZAR  HZ I        1155 24.90         7.7 0.28            122            201 290 
 SML  HZ EP       1154 59.70                             116   -0.54 8  237 335 
 SML  HN ES       1155 27.32                             116   -0.60 8  237 335 
 SML  HZ I        1155 31.04         8.2 0.10            117            237 335 
                                                                                
