 2012  727 1456  6.7 L   6.747 -73.176144.6  RSN  7 0.4 1.8LRSN                1
 GAP=135        0.90       5.9     5.1  8.8  0.1669E+01  0.1757E+01 -0.8443E+01E
 Epicentro: VILLANUEVA - SANTANDER                                             3
 ACTION:UPD 12-08-14 11:45 OP:ep   STATUS:               ID:20120727145606 L   I
 2012-07-27-1450-00M.COL___215                                                 6
 STAT SP IPHASW D HRMM SECON CODA AMPLIT PERI AZIMU VELO AIN AR TRES W  DIS CAZ7
 BAR2 SZ EP   1   1456 25.97                             173    -0.1 7   17 182 
 BAR2 SZ ES   1   1456 41.03                             173    -0.1 7   17 182 
 BAR2 SZ I        1456 44.33        14.7 0.26            173             17 182 
 BRR  HZ EP       1456 27.98                             152     0.310   71 304 
 BRR  HN ES   1   1456 44.72                             152     0.6 7   71 304 
 BRR  HZ I        1456 49.47        17.4 0.20            151             71 304 
 PAM  SZ EP       1456 28.94                             148    -0.210   84  39 
 RUS  HZ EP   1   1456 30.32                             145     0.4 7   95 174 
 RUS  HN ES   1   1456 47.61                             145    -0.4 7   95 174 
 RUS  HZ I        1456 51.27         5.6 0.53            151             95 174 
 PTB  HZ EP   1   1456 33.07                             133    -0.1 7  143 261 
 PTB  HN ES   1   1456 53.61                             133    -0.2 7  143 261 
 PTB  HZ I        1456 59.92         6.8 0.24            135            143 261 
 ZAR  HN ES   1   1457  3.38                             122    -0.8 6  203 294 
 ZAR  HZ I        1457 10.46         5.9 0.17            125            203 294 
 NOR  SN ES   1   1457  9.24                             119     0.3 6  229 235 
