 2014  427 1821 20.6 L   6.791 -73.133147.3  RSN 10 0.5 2.3LRSN                1
 GAP=139        1.12       3.4     4.6  6.6 -0.2615E+01  0.7626E+01  0.1971E+01E
 Epicentro: LOS SANTOS - SANTANDER                                             3
 ACTION:UPD 14-05-13 23:11 OP:nd   STATUS:               ID:20140427182120 L   I
 OLDACT:REG 14-04-27 21:43 OP:nd   STATUS:               ID:20140427182000     3
 2014-04-27-1820-00M.COL___270                                                 6
 STAT SP IPHASW D HRMM SECON CODA AMPLIT PERI AZIMU VELO AIN AR TRES W  DIS CAZ7
 BRR  HZ EP       1821 42.25                             152    0.2910 72.9 299 
 BRR  HN ES       1821 59.41                             152    0.7510 72.9 299 
 PAM  SZ EP       1821 43.12                             151    0.2010 77.3  38 
 PAM  SN ES       1822  0.48                             151    0.1110 77.3  38 
 PAM  SZ I        1822  2.70        17.5 0.48            155           77.3  38 
 RUS  HZ EP       1821 44.21                             144   -0.1610 99.5 177 
 RUS  HN ES       1822  2.63                             144   -0.3210 99.5 177 
 PTB  HZ EP       1821 46.75                             132   -1.00 9  149 259 
 PTB  HN ES       1822  8.24                             132   -0.72 9  149 259 
 PTB  HZ I        1822 11.73        14.8 0.12            133            149 259 
 SPBC HZ EP       1821 49.28                             129    0.11 9  163 220 
 SPBC HN ES       1822 11.30                             129   -0.20 9  163 220 
 SPBC HZ I        1822 18.54        28.1 0.28            130            163 220 
 ZAR  HZ EP       1821 53.51                             122    0.24 8  206 292 
 ZAR  HN ES       1822 18.68                             122   -0.11 8  206 292 
 ZAR  HZ I        1822 24.64        14.1 0.32            124            206 292 
 NOR  HZ EP       1821 56.04                             119   -0.39 8  235 235 
 NOR  HN ES       1822 24.33                             119   -0.08 8  235 235 
 NOR  HZ I        1822 28.65        18.3 0.24            120            235 235 
 SML  HZ EP       1821 57.23                             118   -0.20 8  245 335 
 SML  HN ES       1822 25.96                             118   -0.23 8  245 335 
 SML  HZ I        1822 27.83        17.9 0.26            120            245 335 
 GUY2CHZ EP       1822  5.06                             113    0.77 7  302 235 
 GUY2CHN ES       1822 39.47                             113    1.06 7  302 235 
 GUY2CHZ I        1822 45.32         9.4 0.36                           302 235 
 PRA  HZ EP       1822 14.63                             107    0.53 6  392 210 
 PRA  HN ES       1822 55.99                             107    0.12 6  392 210 
 PRA  HZ I        1823  2.15         8.1 0.28            108            392 210 
                                                                                
