 2016  327 1154 60.0 L   6.759 -73.168144.0  RSN 10 0.4 1.8LRSN                1
 GAP=136        0.95       4.2     4.0  6.7 -0.2356E+01  0.1143E+02 -0.4546E+00E
 Epicentro: LOS SANTOS - SANTANDER                                             3
 ACTION:UPD 16-05-13 21:28 OP:cam  STATUS:               ID:20160327115460 L   I
 OLDACT:REG 16-03-27 20:35 OP:dnl  STATUS:               ID:20160327114745     3
 2016-03-27-1147-45M.COL___300                                                 6
 STAT SP IPHASW D HRMM SECON CODA AMPLIT PERI AZIMU VELO AIN AR TRES W  DIS CAZ7
 BAR2 EZ EP     D 1155 19.40                             172    0.1210 18.5 185 
 BAR2 EZ ES       1155 34.50                             172    0.1510 18.5 185 
 BAR2 EZ I        1155 35.66        15.3 0.19            170           18.5 185 
 PAM  EZ EP       1155 22.50                             149    0.2110 82.4  39 
 PAM  EN ES       1155 39.62                             149   -0.0910 82.4  39 
 PAM  EZ I        1155 42.04        17.0 0.44            154           82.4  39 
 RUS  HZ EP       1155 23.04                             145   -0.1810 96.3 174 
 RUS  HN ES       1155 41.38                             145    0.0210 96.3 174 
 RUS  HZ I        1155 42.72         9.2 0.30            147           96.3 174 
 PTB  HZ EP       1155 26.14                             132   -0.34 9  145 260 
 PTB  HN ES       1155 46.49                             132   -0.68 9  145 260 
 PTB  HZ I        1155 52.42         8.2 0.16            132            145 260 
 ZAR  HZ EP       1155 31.51                             122   -0.72 9  204 294 
 ZAR  HN ES       1155 58.10                             122    0.70 9  204 294 
 ZAR  HZ I        1156  3.55        11.5 0.30            123            204 294 
 NOR  HZ EP       1155 35.93                             119    0.85 8  230 235 
 NOR  HE ES       1156  2.77                             119    0.29 8  230 235 
 NOR  HZ I        1156  9.01         5.6 0.44            119            230 235 
 CHI  HZ EP   2   1155 36.86                             117   -0.15 4  244 195 
 CHI  HE ES   2   1156  5.45                             117   -0.46 4  244 195 
 CHI  HZ I        1156  9.06         2.4 0.36            119            244 195 
 HEL  HZ EP   4   1155 41.02                             115    1.33 0  269 257 
 HEL  HN ES   2   1156 10.75                             115    0.07 4  269 257 
 HEL  HZ I        1156 18.52         3.5 0.28            116            269 257 
 GUY2CHZ EP   4   1155 45.23                             112    2.27 0  297 235 
 GUY2CHN ES   2   1156 16.58                             112    0.08 4  297 235 
 GUY2CHZ I        1156 25.80         3.9 0.64                           297 235 
 MON  HZ EP   4   1155 46.97                             108   -2.02 0  355 309 
 MON  HN ES   4   1156 25.65                             108   -1.59 0  355 309 
 MON  HZ I        1156 27.23         2.0 0.15            109            355 309 
                                                                                
