 2015  727 1514  6.3 L   6.609 -73.547102.1  RSN  4 0.5 1.9LRSN                1
 GAP=173        1.25      10.5     5.9 14.2 -0.4743E+00  0.2278E+02 -0.1037E+03E
 Epicentro: EL CARMEN - SANTANDER                                              3
 ACTION:UPD 15-09-08 21:50 OP:cam  STATUS:               ID:20150727151406 L   I
 OLDACT:DUP 15-07-28 01:27 OP:stll STATUS:               ID:20150727150752d    3
 OLDACT:REG 15-07-27 23:08 OP:stll STATUS:               ID:20150727150750     3
 2015-07-27-1507-50M.COL___331                                                 6
 STAT SP IPHASW D HRMM SECON CODA AMPLIT PERI AZIMU VELO AIN AR TRES W  DIS CAZ7
 BAR2 EZ IP     D 1514 21.56                             157    0.1510 40.3  93 
 BAR2 EZ I        1514 21.74        24.0 0.36            160           40.3  93 
 BAR2 EZ ES       1514 33.24                             157    0.0810 40.3  93 
 CPBEREZ EP   4   1514 24.37                             131   -1.13 0  101 266 
 CPBEREN ES       1514 39.87                             131   -0.5710  101 266 
 ZAR  HZ EP       1514 33.89                             115    0.81 9  175 304 
 ZAR  HN ES       1514 54.37                             115    0.43 9  175 304 
 ZAR  HZ I        1514 59.57         6.3 0.26            116            175 304 
 SML  HZ EP       1514 40.62                             106   -0.98 8  249 347 
 SML  HN ES       1515  9.02                             106   -0.08 8  249 347 
 SML  HN I        1515 13.36        14.4 0.10            107            249 347 
                                                                                
