 2017  127 1201 58.8 L   6.821 -73.151136.0  RSN  5 0.4 1.3LRSN                1
 GAP=135        0.96       5.4     5.0  8.1 -0.5501E+01  0.9271E+01 -0.2802E+01E
 Epicentro: LOS SANTOS - SANTANDER                                             3
 ACTION:UPD 17-05-22 16:03 OP:jn   STATUS:               ID:20170127120158 L   I
 OLDACT:REG 17-01-27 21:22 OP:dnl  STATUS:               ID:20170127115745     3
 2017-01-27-1158-00M.COL___337                                                 6
 STAT SP IPHASW D HRMM SECON CODA AMPLIT PERI AZIMU VELO AIN AR TRES W  DIS CAZ7
 BAR2 EZ EP   2   12 2 17.56                             169    0.22 5 25.5 188 
 BAR2 EZ ES       12 2 31.89                             169    0.1110 25.5 188 
 BAR2 EZ I        12 2 35.05         5.7 0.36            172           25.5 188 
 BRR  HZ EP   2   12 2 19.50                             151    0.66 5 69.6 297 
 BRR  HE ES       12 2 34.99                             151    0.5510 69.6 297 
 BRR  HZ I        12 2 40.74         7.6 0.26            153           69.6 297 
 PAM  EZ EP       12 2 20.31                             150    0.3810 76.0  41 
 PAM  EE ES       12 2 35.76                             150   -0.6310 76.0  41 
 PAM  EZ I        12 2 39.62         2.2 0.30            153           76.0  41 
 RUS  HZ EP   3   12 2 22.10                             141    0.28 2  103 176 
 RUS  HN ES       12 2 39.80                             141    0.0610  103 176 
 RUS  HZ I        12 2 41.89         2.3 0.28            147            103 176 
 PTB  HZ EP       12 2 24.60                             130   -0.41 9  148 258 
 PTB  HN ES       12 2 45.03                             130   -0.40 9  148 258 
 PTB  HZ I        12 2 47.21         2.5 0.36            134            148 258 
                                                                                
