 2011  127 1752 14.1 L   6.828 -73.158141.7  RSN  5 0.1 1.5LRSN                1
 GAP=226        0.35       4.1     6.0  4.6 -0.3134E+01  0.7281E+01 -0.1451E+01E
 Epicentro: LOS SANTOS - SANTANDER                                             3
 ACTION:UP  11-02-08 08:43 OP:pat  STATUS:               ID:20110127175214 L   I
 2011-01-27-1748-56S.COL___138                                                 6
 STAT SP IPHASW D HRMM SECON CODA AMPLIT PERI AZIMU VELO SNR AR TRES W  DIS CAZ7
 BTL  SZ EP   1   1752 33.06                             173    -0.1 7   16 310 
 BAR2 SZ EP   1   1752 33.54                             169     0.2 7   26 186 
 BAR2 SZ ES   1   1752 48.27                             169     0.0 7   26 186 
 BAR2 SZ I        1752 49.63        10.3 0.27                            26 186 
 RUS  HZ EP   1   1752 37.58                             142    -0.1 7  104 175 
 RUS  HZ I        1752 38.77         4.0 0.17                           104 175 
 RUS  HN ES   1   1752 56.15                             142     0.0 7  104 175 
 NOR  SN ES   2   1753 17.46                             117     0.0 4  236 234 
 CHI  HZ EP   2   1752 51.92                             116     0.0 4  251 195 
 CHI  HZ I        1753  5.91         1.7 0.40                           251 195 
                                                                                
