 2013  327 1953 48.9 L   6.759 -73.159144.7  RSN  6 0.3 1.9LRSN                1
 GAP=137        0.73       4.2     3.8  5.9  0.5203E+00  0.1766E+01 -0.2652E+01E
 Epicentro: LOS SANTOS - SANTANDER                                             3
 ACTION:UPD 13-04-09 14:05 OP:ep   STATUS:               ID:20130327195348 L   I
 2013-03-27-1950-00M.COL___245                                                 6
 STAT SP IPHASW D HRMM SECON CODA AMPLIT PERI AZIMU VELO AIN AR TRES W  DIS CAZ7
 BAR2 SZ EP   1   1954  8.28                             172   -0.04 7 18.7 188 
 BAR2 SZ ES       1954 23.27                             172   -0.1910 18.7 188 
 BAR2 SZ I        1954 24.59        19.3 0.22            171           18.7 188 
 BRR  HZ IP     C 1954 10.19                             152    0.2010 72.2 302 
 BRR  HN ES       1954 26.83                             152    0.3910 72.2 302 
 BRR  HN I        1954 31.26        14.1 0.16            148           72.2 302 
 PAM  SZ EP       1954 11.26                             149   -0.0110 81.8  38 
 PAM  SN ES   1   1954 28.38                             149   -0.34 7 81.8  38 
 PAM  SN I        1954 29.01        18.3 0.50            151           81.8  38 
 RUS  HZ EP   1   1954 12.41                             145    0.17 7 96.2 175 
 RUS  HN ES       1954 30.65                             145    0.2210 96.2 175 
 RUS  HN I        1954 31.27         6.2 0.22            148           96.2 175 
 PTB  HZ EP   1   1954 15.17                             132   -0.41 7  146 260 
 PTB  HN ES       1954 35.89                             132   -0.49 9  146 260 
 PTB  HN I        1954 39.71         6.8 0.28            131            146 260 
 ZAR  HE ES   2   1954 47.40                             122    0.80 4  204 293 
 ZAR  HE I        1954 54.13        12.0 0.32            121            204 293 
                                                                                
