 2013  527 1426 22.6 L   6.776 -73.150145.7  RSN  6 0.4 1.8LRSN                1
 GAP=137        1.19       6.1     6.1  7.8 -0.4315E+01  0.5428E+01  0.5588E+01E
 Epicentro: LOS SANTOS - SANTANDER                                             3
 ACTION:UPD 13-06-20 09:54 OP:ep   STATUS:               ID:20130527142622 L   I
 2013-05-27-1418-53M.COL___214                                                 6
 STAT SP IPHASW D HRMM SECON CODA AMPLIT PERI AZIMU VELO AIN AR TRES W  DIS CAZ7
 BAR2 SZ EP       1426 42.42                             172    0.2210 20.6 190 
 BAR2 SZ I        1426 42.55        10.6 0.40            172           20.6 190 
 BAR2 SZ ES       1426 58.10                             172    0.6310 20.6 190 
 GIR2 SZ EP       1426 42.42                             166    0.0510 33.8 352 
 GIR2 SZ ES       1426 57.56                             166   -0.2010 33.8 352 
 BRR  HZ EP       1426 44.17                             152    0.3510 72.0 301 
 BRR  HN ES       1427  0.91                             152    0.5610 72.0 301 
 BRR  HN I        1427  2.04        22.0 0.16            152           72.0 301 
 PAM  SZ EP       1426 45.37                             150    0.3910 79.8  39 
 PAM  SN ES       1427  1.52                             150   -0.9010 79.8  39 
 PAM  SE I        1427  7.22        10.3 0.16            152           79.8  39 
 RUS  HZ EP       1426 46.14                             144   -0.0510 98.0 176 
 RUS  HN ES       1427  4.36                             144   -0.2110 98.0 176 
 RUS  HE I        1427  6.13         6.8 0.26            147           98.0 176 
 PTB  HZ EP       1426 49.18                             132   -0.32 9  147 260 
 PTB  HN ES       1427  9.83                             132   -0.63 9  147 260 
 PTB  HE I        1427 15.93         7.0 0.14            133            147 260 
                                                                                
