 2012 1127 1920 39.2 L   6.810 -73.161142.0  RSN  8 0.2 2.4LRSN                1
 GAP=134        0.48       2.0     2.5  3.6 -0.6062E+00  0.3884E+01  0.1000E+01E
 Epicentro: LOS SANTOS - SANTANDER                                             3
 ACTION:UPD 12-12-05 15:36 OP:}ep  STATUS:               ID:20121127192039 L   I
 2012-11-27-1920-00M.COL___234                                                 6
 STAT SP IPHASW D HRMM SECON CODA AMPLIT PERI AZIMU VELO AIN AR TRES W  DIS CAZ7
 BAR2 SZ EP       1920 58.46                             170    0.0310 24.2 186 
 BAR2 SZ ES       1921 13.82                             170    0.4210 24.2 186 
 BAR2 SZ I        1921 15.35        59.8 0.12                          24.2 186 
 GIR2 SZ EP       1920 58.25                             168   -0.1710 29.9 353 
 GIR2 SZ I        1921 15.73        29.3 0.13                          29.9 353 
 PAM  SZ EP       1921  1.11                             150    0.0510 77.6  41 
 PAM  SZ I        1921  1.39        62.6 0.14                          77.6  41 
 PAM  SN ES       1921 17.95                             150   -0.1410 77.6  41 
 RUS  HZ EP       1921  2.58                             143   -0.1210  102 175 
 RUS  HE ES   1   1921 20.79                             143   -0.22 7  102 175 
 RUS  HE I        1921 23.52        36.6 0.32                           102 175 
 ZAR  HZ EP       1921 11.19                             122   -0.04 9  202 292 
 ZAR  HE ES       1921 36.26                             122    0.08 9  202 292 
 ZAR  HZ I        1921 41.02        28.0 0.19                           202 292 
 NOR  HZ EP   1   1921 14.96                             118    0.29 6  234 234 
 NOR  HN ES       1921 42.01                             118   -0.30 8  234 234 
 NOR  HZ I        1921 44.45        19.5 0.16                           234 234 
 CHI  HZ EP   1   1921 17.05                             116    0.26 6  249 195 
 CHI  HE ES   1   1921 46.19                             116    0.10 6  249 195 
 PRA  HZ EP   1   1921 32.56                             106   -0.08 4  392 209 
 PRA  HN ES   1   1922 14.28                             106   -0.02 4  392 209 
                                                                                
