 2014 1127 1732 47.2 L   6.718 -73.197144.2  RSN  4 0.6 1.4LRSN                1
 GAP=225        1.49      13.1    11.4 12.9  0.8029E+02  0.3103E+02  0.3605E+02E
 Epicentro: VILLANUEVA - SANTANDER                                             3
 ACTION:UPD 14-12-19 15:48 OP:nd   STATUS:               ID:20141127173247 L   I
 OLDACT:DUP 14-11-28 03:26 OP:stll STATUS:               ID:20141127172747d    3
 OLDACT:REG 14-11-28 00:32 OP:spq  STATUS:               ID:20141127172746     3
 2014-11-27-1727-46M.COL___303                                                 6
 STAT SP IPHASW D HRMM SECON CODA AMPLIT PERI AZIMU VELO AIN AR TRES W  DIS CAZ7
 BAR2 SZ EP       1733  6.35                             174   -0.1510 14.0 173 
 BAR2 SZ ES       1733 20.54                             174   -1.0110 14.0 173 
 BAR2 SZ I        1733 22.73         4.6 0.12            169           14.0 173 
 BRR  HN ES       1733 25.44                             152    0.8710 71.3 307 
 RUS  HZ EP       1733 10.48                             146    0.2610 92.1 172 
 RUS  HE ES       1733 28.71                             146    0.5510 92.1 172 
 RUS  HZ I        1733 31.46         1.9 0.60            144           92.1 172 
 PTB  HZ EP       1733 13.06                             133   -0.35 9  141 262 
 PTB  HN ES       1733 33.61                             133   -0.23 9  141 262 
 PTB  HZ I        1733 35.78         6.7 0.92            133            141 262 
                                                                                
