 2017 1227 1742 31.0 L   6.825 -73.191146.8  RSN  5 0.2 1.7LRSN                1
 GAP=112        0.45       3.5     2.2  5.3 -0.1181E+01  0.1656E+01  0.4948E+01E
 Epicentro: ZAPATOCA - SANTANDER                                               3
 ACTION:UPD 18-01-04 13:24 OP:rebc STATUS:               ID:20171227174231 L   I
 OLDACT:UP  17-12-28 00:06 OP:mg   STATUS:               ID:20171227173735     3
 OLDACT:REG 17-12-27 21:34 OP:mg   STATUS:               ID:20171227173735     3
 2017-12-27-1738-00M.COL___451                                                 6
 STAT SP IPHASW D HRMM SECON CODA AMPLIT PERI AZIMU VELO AIN AR TRES W  DIS CAZ7
 BAR2 EZ EP       1742 50.81                             170   -0.0410 25.8 178 
 BAR2 EZ ES   2   1743  6.22                             170   -0.08 5 25.8 178 
 BAR2 EZ I        1743  7.29        19.2 0.22            171           25.8 178 
 PAM  EZ EP       1742 53.65                             151    0.2010 78.6  44 
 PAM  EN ES       1743 10.81                             151   -0.1110 78.6  44 
 PAM  EZ I        1743 13.56         5.9 0.57            152           78.6  44 
 PTB  HZ EP   1   1742 57.63                             133   -0.08 7  143 257 
 PTB  HN ES       1743 18.50                             133   -0.01 9  143 257 
 PTB  HZ I        1743 22.47         3.0 0.18            133            143 257 
 YPLC HZ EP   2   1743  0.79                             126   -0.61 4  182 150 
 YPLC HE ES   2   1743 25.58                             126    0.51 4  182 150 
 YPLC HZ I        1743 26.27         6.5 0.30            129            182 150 
 ZAR  HN ES   1   1743 27.96                             123    0.08 6  198 292 
 ZAR  HZ I        1743 35.07         3.9 0.33            123            198 292 
                                                                                
