 2015  527 1419  4.6 L   6.809 -73.121148.5  RSN  4 0.3 1.7LRSN                1
 GAP=139        0.92       5.1     7.4  7.5 -0.8878E+00 -0.3570E+01  0.1761E+01E
 Epicentro: LOS SANTOS - SANTANDER                                             3
 ACTION:UPD 15-09-10 22:07 OP:cam  STATUS:               ID:20150527141904 L   I
 OLDACT:REG 15-05-27 21:31 OP:ar   STATUS:               ID:20150527141747     3
 2015-05-27-1417-47M.COL___291                                                 6
 STAT SP IPHASW D HRMM SECON CODA AMPLIT PERI AZIMU VELO AIN AR TRES W  DIS CAZ7
 BAR2 EZ EP       1419 24.35                             170   -0.2310 24.9 196 
 BAR2 EZ ES       1419 39.65                             170   -0.5210 24.9 196 
 BAR2 EZ I        1419 41.90         7.9 0.52            171           24.9 196 
 BRR  HZ EP       1419 26.12                             152   -0.0210 73.2 297 
 BRR  HE ES       1419 43.19                             152    0.2310 73.2 297 
 BRR  HZ I        1419 44.16        14.8 0.38            154           73.2 297 
 PAM  SZ EP       1419 27.31                             152    0.3610 74.9  38 
 PAM  SN ES       1419 44.36                             152   -0.0310 74.9  38 
 PAM  SZ I        1419 46.02         8.6 0.56            153           74.9  38 
 RUS  HZ EP       1419 28.32                             144   -0.3510  101 178 
 RUS  HN ES       1419 48.02                             144    0.5710  101 178 
 RUS  HZ I        1419 48.39         5.7 0.22            146            101 178 
                                                                                
