 2013  627 1550 39.2 L   6.826 -73.148148.5  RSN  6 0.5 1.9LRSN                1
 GAP=239        0.90       5.9     7.1  8.1  0.9164E+01  0.1154E+02  0.1492E+02E
 Epicentro: LOS SANTOS - SANTANDER                                             3
 ACTION:UPD 14-01-08 09:57 OP:ep   STATUS:               ID:20130627155039 L   I
 OLDACT:REG 13-06-27 18:02 OP:carl STATUS:               ID:20130627154959     3
 2013-06-27-1549-59M.COL___266                                                 6
 STAT SP IPHASW D HRMM SECON CODA AMPLIT PERI AZIMU VELO AIN AR TRES W  DIS CAZ7
 BAR2 SZ EP   1   1550 59.09                             170   -0.0810 26.1 188 
 BAR2 SZ ES   1   1551 14.27                             170   -0.5110 26.1 188 
 BAR2 SZ I        1551 16.73        12.1 0.42            166           26.1 188 
 BRR  HZ EP   1   1551  0.59                             153    0.0710 69.6 297 
 BRR  HN ES   1   1551 18.14                             153    0.9710 69.6 297 
 BRR  HN I        1551 20.45        26.0 0.20            151           69.6 297 
 RUS  HZ EP   1   1551  3.23                             144   -0.1510  103 176 
 RUS  HE ES   1   1551 22.02                             144   -0.2610  103 176 
 RUS  HZ I        1551 24.44         7.7 0.34            145            103 176 
 PTB  HZ EP   1   1551  6.33                             132   -0.05 9  148 258 
 PTB  HN ES   1   1551 27.03                             132   -0.57 9  148 258 
 PTB  HZ I        1551 34.36         9.6 0.50            132            148 258 
 NOR  HZ EP   1   1551 14.91                             119   -0.29 8  236 234 
 NOR  HN ES   1   1551 43.05                             119   -0.26 8  236 234 
 NOR  HZ I        1551 46.64         6.9 0.18            120            236 234 
 CHI  HZ EP   1   1551 17.36                             117    0.06 7  251 195 
 CHI  HN ES       1551 47.80                             117    0.7510  251 195 
 CHI  HN I        1551 48.77         5.8 0.30            120            251 195 
                                                                                
