 2013  327 1441 47.5 L   6.835 -73.166152.0  RSN  6 0.3 2.2LRSN                1
 GAP=238        0.62       6.4     6.3  7.1  0.2498E+02 -0.2395E+01 -0.5872E+01E
 Epicentro: LOS SANTOS - SANTANDER                                             3
 ACTION:UPD 13-04-09 14:05 OP:ep   STATUS:               ID:20130327144147 L   I
 2013-03-27-1440-00M.COL___245                                                 6
 STAT SP IPHASW D HRMM SECON CODA AMPLIT PERI AZIMU VELO AIN AR TRES W  DIS CAZ7
 BAR2 SZ EP   1   1442  7.66                             170   -0.33 7 26.9 184 
 BRR  HZ EP   1   1442  9.11                             155   -0.05 7 67.4 297 
 BRR  HN ES   1   1442 26.14                             155    0.11 7 67.4 297 
 BRR  HN I        1442 26.44        36.1 0.38            133           67.4 297 
 RUS  HZ EP   2   1442 12.11                             144   -0.07 5  105 175 
 RUS  HN ES   1   1442 31.66                             144    0.25 7  105 175 
 RUS  HN I        1442 32.34        11.5 0.58            115            105 175 
 PTB  HZ EP   1   1442 14.32                             134   -0.57 7  146 257 
 PTB  HN ES   1   1442 36.04                             134   -0.19 7  146 257 
 PTB  HN I        1442 40.53        19.8 0.26            109            146 257 
 ZAR  HZ EP   1   1442 20.54                             124    0.50 6  201 291 
 ZAR  HN ES   1   1442 45.59                             124    0.20 6  201 291 
 ZAR  HN I        1442 49.84        27.4 0.42            105            201 291 
 CHI  HZ EP   2   1442 26.65                             118    0.73 4  252 194 
 CHI  HN I        1442 58.63         6.4 0.40            100            252 194 
                                                                                
