 2013  827 1317  9.9 L   6.743 -73.176148.7  RSN  4 0.4 1.5LRSN                1
 GAP=240        1.01      10.0     7.7  8.9  0.4918E+02  0.4440E+01 -0.2590E+02E
 Epicentro: VILLANUEVA - SANTANDER                                             3
 ACTION:UPD 14-01-14 09:07 OP:ep   STATUS:               ID:20130827131709 L   I
 OLDACT:REG 13-08-27 15:33 OP:nd   STATUS:               ID:20130827130959     3
 2013-08-27-1309-59M.COL___270                                                 6
 STAT SP IPHASW D HRMM SECON CODA AMPLIT PERI AZIMU VELO AIN AR TRES W  DIS CAZ7
 BAR2 SZ EP       1317 30.04                             173    0.2710 16.7 182 
 BAR2 SZ ES       1317 45.04                             173   -0.2310 16.7 182 
 BAR2 SZ I        1317 47.19         9.3 0.52            175           16.7 182 
 RUS  HZ EP       1317 33.86                             146    0.3310 94.7 174 
 RUS  HN ES       1317 51.84                             146   -0.1210 94.7 174 
 RUS  HZ I        1317 53.21         3.0 0.22            150           94.7 174 
 PTB  HZ EP       1317 36.84                             133    0.13 9  143 261 
 PTB  HN ES       1317 57.48                             133   -0.15 9  143 261 
 PTB  HZ I        1318  0.19         5.3 0.16            134            143 261 
 ZAR  HZ EP       1317 41.54                             123   -0.93 9  203 294 
 ZAR  HN ES       1318  8.46                             123    0.59 9  203 294 
 ZAR  HZ I        1318 14.52         3.4 0.44            124            203 294 
                                                                                
