 2013 1027 1032 14.9 L   6.799 -73.141145.7  RSN  7 0.3 1.7LRSN                1
 GAP=183        0.74       3.4     4.4  6.4  0.1036E+01  0.6716E+01 -0.9178E+01E
 Epicentro: LOS SANTOS - SANTANDER                                             3
 ACTION:UPD 13-11-25 09:23 OP:ep   STATUS:               ID:20131027103214 L   I
 OLDACT:REG 13-10-27 17:26 OP:nd   STATUS:               ID:20131027102839     3
 2013-10-27-1028-39M.COL___215                                                 6
 STAT SP IPHASW D HRMM SECON CODA AMPLIT PERI AZIMU VELO AIN AR TRES W  DIS CAZ7
 BAR2 SZ EP       1032 34.83                             170    0.2810 23.3 191 
 BAR2 SZ ES       1032 49.86                             170    0.0110 23.3 191 
 BAR2 SZ I        1032 52.49         8.3 0.26            170           23.3 191 
 BRR  HZ EP       1032 36.66                             152    0.5610 71.7 298 
 BRR  HN ES   2   1032 53.00                             152    0.39 5 71.7 298 
 BRR  HZ I        1032 58.27         4.7 0.14            149           71.7 298 
 RUS  HN ES       1032 57.00                             144   -0.1710  100 176 
 PTB  HZ EP       1032 41.45                             132   -0.49 9  148 259 
 PTB  HN ES       1033  2.92                             132   -0.08 9  148 259 
 PTB  HZ I        1033  9.88         3.5 0.44            133            148 259 
 OCA  HZ EP   2   1032 43.63                             130    0.37 5  160 353 
 OCA  HN ES       1033  4.90                             130   -0.45 9  160 353 
 OCA  HZ I        1033  9.25         6.5 0.46            132            160 353 
 ZAR  HZ EP   2   1032 47.64                             122    0.21 4  205 292 
 ZAR  HN ES       1033 12.89                             122    0.12 9  205 292 
 ZAR  HZ I        1033 18.93         6.4 0.34            124            205 292 
 SML  HZ EP       1032 51.36                             117   -0.23 8  244 335 
 SML  HN ES   2   1033 20.47                             117    0.28 4  244 335 
 SML  HZ I        1033 22.65         5.4 0.10            120            244 335 
                                                                                
