 2016  927 1724 41.6 L   6.792 -73.178146.5  RSN  6 0.3 1.7LRSN                1
 GAP=233        0.76       5.4     5.3  5.2  0.1736E+02  0.5421E+01  0.1361E+01E
 Epicentro: LOS SANTOS - SANTANDER                                             3
 ACTION:UPD 17-08-17 21:17 OP:lp   STATUS:               ID:20160927172441 L   I
 OLDACT:DUP 16-09-28 00:33 OP:dani STATUS:               ID:20160927171751d    3
 OLDACT:DUP 16-09-28 00:31 OP:dani STATUS:               ID:20160927171750d    3
 2016-09-27-1718-00M.COL___363                                                 6
 STAT SP IPHASW D HRMM SECON CODA AMPLIT PERI AZIMU VELO AIN AR TRES W  DIS CAZ7
 BAR2 EZ EP       1725  1.14                             171   -0.1010 22.0 181 
 BAR2 EZ ES       1725 16.33                             171   -0.2710 22.0 181 
 BAR2 EZ I        1725 18.93        17.4 0.30            173           22.0 181 
 BRR  HZ EP       1725  2.99                             154    0.3610 68.5 301 
 BRR  HN ES       1725 19.10                             154    0.0210 68.5 301 
 BRR  HZ I        1725 23.16         7.2 0.26            152           68.5 301 
 RUS  HZ EP       1725  5.45                             144    0.1210100.0 174 
 RUS  HN ES       1725 24.06                             144    0.1810100.0 174 
 RUS  HZ I        1725 25.19         7.5 0.33            148          100.0 174 
 PTB  HZ EP       1725  8.02                             133   -0.23 9  144 259 
 PTB  HN ES       1725 28.83                             133   -0.24 9  144 259 
 PTB  HZ I        1725 31.47         5.4 0.13            134            144 259 
 SPBC HZ EP       1725 10.00                             130    0.17 9  160 218 
 ZAR  HZ EP       1725 13.15                             123   -0.59 9  201 293 
 ZAR  HE ES       1725 39.38                             123    0.53 9  201 293 
 ZAR  HZ I        1725 44.82         5.0 0.23            124            201 293 
                                                                                
