 2017  927 1443 22.9 L   6.780 -73.143143.3  RSN  7 0.4 1.8LRSN                1
 GAP=138        0.86       3.8     4.1  5.5 -0.1624E+00  0.8807E+01  0.2433E+01E
 Epicentro: LOS SANTOS - SANTANDER                                             3
 ACTION:UPD 17-10-05 19:16 OP:rebc STATUS:               ID:20170927144322 L   I
 OLDACT:REG 17-09-27 20:45 OP:dhb  STATUS:               ID:20170927143742     3
 2017-09-27-1438-00M.COL___450                                                 6
 STAT SP IPHASW D HRMM SECON CODA AMPLIT PERI AZIMU VELO AIN AR TRES W  DIS CAZ7
 BAR2 EZ IP     C 1443 42.00                             171   -0.1410 21.2 192 
 BAR2 EZ ES       1443 56.72                             171   -0.4610 21.2 192 
 BAR2 EZ I        1443 58.00        26.4 0.17            171           21.2 192 
 BRR  HZ IP     D 1443 43.84                             152    0.0310 72.6 300 
 BRR  HN ES       1444  0.65                             152    0.5010 72.6 300 
 BRR  HZ I        1444  4.80        10.2 0.11            149           72.6 300 
 PAM  EZ EP       1443 44.88                             150   -0.0110 78.9  38 
 PAM  EN ES       1444  1.92                             150   -0.1610 78.9  38 
 PAM  EZ I        1444  4.00        10.9 0.41            153           78.9  38 
 RUS  HZ EP       1443 46.40                             144    0.2010 98.4 176 
 RUS  HE ES       1444  4.73                             144    0.3310 98.4 176 
 RUS  HZ I        1444  5.55        11.4 0.32            148           98.4 176 
 ZAR  HZ EP       1443 55.83                             122    0.58 9  205 293 
 ZAR  HE ES       1444 20.14                             122   -0.38 9  205 293 
 ZAR  HZ I        1444 26.78         6.6 0.28            122            205 293 
 NOR  HZ EP       1443 58.33                             118    0.00 8  234 235 
 NOR  HN ES       1444 25.84                             118   -0.16 8  234 235 
 NOR  HZ I        1444 28.84         3.6 0.21            119            234 235 
 GUY2CHZ EP       1444  5.50                             112   -0.73 7  300 235 
 GUY2CHN ES   3   1444 41.67                             112    1.60 2  300 235 
 GUY2CHZ I        1444 50.77         2.3 0.28                           300 235 
                                                                                
