 2012  827 1101 16.7 L   6.692 -73.191146.3  RSN  5 0.3 1.8LRSN                1
 GAP=173        0.47       6.3     4.7  4.9  0.2215E+01  0.3884E+01  0.1701E+01E
 Epicentro: VILLANUEVA - SANTANDER                                             3
 ACTION:UPD 12-09-10 11:58 OP:ep   STATUS:               ID:20120827110116 L   I
 2012-08-27-1100-00M.COL___218                                                 6
 STAT SP IPHASW D HRMM SECON CODA AMPLIT PERI AZIMU VELO AIN AR TRES W  DIS CAZ7
 BAR2 SZ EP       11 1 36.35                             176    0.1710 11.1 175 
 BAR2 SZ ES   1   11 1 51.14                             176   -0.26 7 11.1 175 
 BAR2 SZ I        11 1 53.57        11.2 0.24                          11.1 175 
 GIR2 SZ EP       11 1 36.69                             163   -0.0810 42.7 360 
 GIR2 SZ ES   3   11 1 51.67                             163   -0.77 2 42.7 360 
 BRR  HZ EP       11 1 38.05                             152    0.0310 73.6 309 
 BRR  HZ I        11 1 38.24        16.3 0.12                          73.6 309 
 BRR  HN ES   1   11 1 54.95                             152    0.28 7 73.6 309 
 RUS  HN ES   3   11 1 58.44                             147    0.79 2 89.2 172 
 PTB  HZ EP       11 1 42.98                             133   -0.10 9  141 263 
 PTB  HN ES   2   11 2  3.48                             133   -0.19 5  141 263 
                                                                                
