 2014  527 1644  9.3 L   5.846 -73.863120.1  RSN  4 0.3 1.6LRSN                1
 GAP=141        0.79       5.4     4.7  7.6 -0.2825E+01 -0.9216E+01 -0.6731E+01E
 Epicentro: SUCRE - SANTANDER                                                  3
 ACTION:UPD 15-03-16 17:01 OP:nd   STATUS:               ID:20140527164409 L   I
 OLDACT:UP  14-05-27 21:22 OP:cam  STATUS:               ID:20140527164000     3
 OLDACT:REG 14-05-27 20:05 OP:cam  STATUS:               ID:20140527164000     3
 2014-05-27-1640-00M.COL___276                                                 6
 STAT SP IPHASW D HRMM SECON CODA AMPLIT PERI AZIMU VELO AIN AR TRES W  DIS CAZ7
 SPBC HZ EP       1644 25.71                             164   -0.1810 31.6 227 
 SPBC HN ES       1644 39.04                             164    0.2310 31.6 227 
 SPBC HZ I        1644 40.64        13.1 0.14            166           31.6 227 
 RUS  HZ EP   1   1644 28.99                             142   -0.54 7 86.5  87 
 PTB  HZ EP       1644 30.41                             137    0.4010  101 319 
 PTB  HN ES       1644 45.77                             137   -0.3910  101 319 
 PTB  HZ I        1644 51.72         3.6 0.32            136            101 319 
 BAR2 SZ EP       1644 31.42                             134    0.1810  112  42 
 BAR2 SZ ES       1644 48.41                             134    0.0710  112  42 
 BAR2 SZ I        1644 50.46        18.6 0.40            136            112  42 
                                                                                
