 2013  727 1618 59.3 L   6.789 -73.155150.0  RSN 10 0.4 2.4LRSN                1
 GAP=136        0.82       3.3     4.3  5.7 -0.1022E+01  0.5752E+01  0.3218E+00E
 Epicentro: LOS SANTOS - SANTANDER                                             3
 ACTION:UPD 13-08-12 10:40 OP:ep   STATUS:               ID:20130727161859 L   I
 OLDACT:UP  13-07-27 19:58 OP:mh   STATUS:               ID:20130727161750     3
 OLDACT:UP  13-07-27 19:58 OP:mh   STATUS:               ID:20130727161750     3
 OLDACT:UP  13-07-27 19:57 OP:mh   STATUS:               ID:20130727161750     3
 OLDACT:REG 13-07-27 18:58 OP:mh   STATUS:               ID:20130727161750     3
 2013-07-27-1617-50M.COL___231                                                 6
 STAT SP IPHASW D HRMM SECON CODA AMPLIT PERI AZIMU VELO AIN AR TRES W  DIS CAZ7
 BAR2 SZ EP   1   1619 19.39                             171   -0.06 7 22.0 188 
 BAR2 SZ I        1619 36.20        24.8 0.38            170           22.0 188 
 GIR2 SZ EP   1   1619 19.77                             167    0.23 7 32.3 352 
 GIR2 SZ ES   1   1619 35.42                             167    0.13 7 32.3 352 
 GIR2 SZ I        1619 37.66        11.7 0.36            167           32.3 352 
 BRR  HZ EP   1   1619 21.30                             153    0.38 7 70.9 300 
 BRR  HN ES       1619 38.59                             153    0.8310 70.9 300 
 BRR  HN I        1619 42.99        65.7 0.20            152           70.9 300 
 PAM  SZ EP   1   1619 22.19                             151    0.10 7 79.0  40 
 PAM  SN ES   1   1619 39.51                             151   -0.34 7 79.0  40 
 PAM  SN I        1619 40.64        22.5 0.70            151           79.0  40 
 RUS  HZ EP   1   1619 23.35                             145   -0.07 7 99.4 175 
 RUS  HN ES   1   1619 41.72                             145   -0.49 7 99.4 175 
 RUS  HN I        1619 42.68        30.1 0.36            144           99.4 175 
 PTB  HZ EP   1   1619 26.22                             133   -0.32 7  147 259 
 PTB  HN ES   1   1619 47.20                             133   -0.56 7  147 259 
 PTB  HN I        1619 47.91        27.7 0.26            132            147 259 
 SPBC HZ EP   1   1619 28.37                             130    0.36 7  162 219 
 SPBC HN ES   1   1619 50.18                             130   -0.20 7  162 219 
 SPBC HN I        1619 55.60        57.2 0.30            129            162 219 
 ZAR  HZ EP       1619 32.15                             124    0.14 9  204 293 
 ZAR  HE ES   1   1619 57.19                             124   -0.30 6  204 293 
 ZAR  HZ I        1620  3.21        18.0 0.58            122            204 293 
 NOR  HZ EP   1   1619 35.50                             120    0.35 6  233 235 
 NOR  HN ES   1   1620  3.01                             120   -0.07 6  233 235 
 NOR  HN I        1620 10.83        35.8 0.16            118            233 235 
 SML  HZ EP   1   1619 35.98                             118   -0.29 6  244 336 
 SML  HN ES       1620  4.46                             118   -0.62 8  244 336 
 SML  HN I        1620 11.89        40.2 0.10            117            244 336 
                                                                                
