 2012  627 1602 59.0 L   6.739 -73.144145.8  RSN  5 0.4 1.6LRSN                1
 GAP=139        0.75       7.1     6.7  7.3 -0.5654E+01  0.8055E+01 -0.4629E+01E
 Epicentro: JORDAN - SANTANDER                                                 3
 ACTION:UPD 12-08-06 17:53 OP:ep   STATUS:               ID:20120627160259 L   I
 2012-06-27-1600-00M.COL___201                                                 6
 STAT SP IPHASW D HRMM SECON CODA AMPLIT PERI AZIMU VELO AIN AR TRES W  DIS CAZ7
 BAR2 SZ EP       16 3 18.75                             173    0.2010 16.8 194 
 BAR2 SZ I        16 3 18.88        13.1 0.40                          16.8 194 
 BAR2 SZ ES   1   16 3 33.53                             173   -0.24 7 16.8 194 
 BRR  HZ EP       16 3 20.72                             151    0.3310 74.8 303 
 BRR  HZ I        16 3 20.96        18.5 0.32                          74.8 303 
 BRR  HN ES   1   16 3 37.35                             151    0.31 7 74.8 303 
 PAM  SZ EP       16 3 21.61                             149    0.0510 82.6  36 
 PAM  SZ I        16 3 22.00         3.0 0.36                          82.6  36 
 PAM  SN ES   2   16 3 38.33                             149   -0.81 5 82.6  36 
 RUS  HZ EP   3   16 3 22.53                             146    0.22 2 93.9 176 
 RUS  HN ES   2   16 3 40.63                             146    0.16 5 93.9 176 
 PTB  HZ EP       16 3 25.37                             132   -0.54 9  147 261 
 PTB  HZ I        16 3 52.47         3.5 0.30                           147 261 
                                                                                
