 2016 1027 1006 47.2 L   6.727 -73.220149.5  RSN  5 0.2 1.2LRSN                1
 GAP=217        0.50       3.7     3.2  4.7  0.5241E+00  0.2770E+01 -0.5230E+01E
 Epicentro: VILLANUEVA - SANTANDER                                             3
 ACTION:UPD 16-11-09 19:23 OP:rebc STATUS:               ID:20161027100647 L   I
 OLDACT:DUP 16-10-27 21:11 OP:edw  STATUS:               ID:20161027095742d    3
 2016-10-27-0958-00M.COL___337                                                 6
 STAT SP IPHASW D HRMM SECON CODA AMPLIT PERI AZIMU VELO AIN AR TRES W  DIS CAZ7
 BAR2 EZ EP       10 7  6.77                             174   -0.3610 15.5 164 
 BAR2 EZ ES       10 7 22.76                             174    0.0710 15.5 164 
 BAR2 EZ I        10 7 23.02         4.2 0.16            172           15.5 164 
 BRR  HZ EP       10 7  8.66                             154    0.0610 68.7 308 
 RUS  HZ EP       10 7 10.86                             147    0.0510 93.5 171 
 RUS  HN ES       10 7 29.36                             147    0.1210 93.5 171 
 RUS  HZ I        10 7 30.87         2.4 0.24            148           93.5 171 
 PTB  HZ EP       10 7 13.86                             135    0.24 9  138 261 
 PTB  HN ES       10 7 34.19                             135   -0.06 9  138 261 
 PTB  HZ I        10 7 40.99         2.0 0.14            134            138 261 
 SPBC HN ES       10 7 36.42                             132   -0.13 9  152 218 
 GUY2CHE ES   4   10 8  5.12                             114    2.27 0  290 235 
                                                                                
