 2013  127 1842 20.6 L   6.652 -73.504120.0  RSN  4 0.2 1.0LRSN                1
 GAP=125        0.45       4.1     3.7  6.1  0.7159E+01  0.3818E+01  0.6580E+01E
 Epicentro: EL CARMEN DE CHUCURI - SANTANDER                                   3
 ACTION:UPD 13-02-15 09:17 OP:ep   STATUS:               ID:20130127184220 L   I
 2013-01-27-1840-00M.COL___241                                                 6
 STAT SP IPHASW D HRMM SECON CODA AMPLIT PERI AZIMU VELO AIN AR TRES W  DIS CAZ7
 BAR2 SZ ES   1   1842 50.48                             162   -0.29 7 36.2 101 
 BRR  HZ EP   1   1842 38.05                             154   -0.04 7 55.3 335 
 BRR  HN ES   1   1842 51.96                             154    0.24 7 55.3 335 
 RUS  HZ EP   1   1842 41.53                             139   -0.03 7 96.0 151 
 RUS  HN ES   1   1842 58.12                             139    0.22 7 96.0 151 
 RUS  HZ I        1843  0.02         1.1 0.22            138           96.0 151 
 PTB  HN ES   1   1842 58.11                             136   -0.10 7  106 263 
 PTB  HZ I        1842 59.77         3.5 0.14            135            106 263 
                                                                                
