 2016  127 1522 12.5 L   6.806 -73.183140.4  RSN  5 0.4 1.3LRSN                1
 GAP=132        0.90       5.2     4.4  8.7 -0.3366E+01  0.1578E+02 -0.1160E+02E
 Epicentro: ZAPATOCA - SANTANDER                                               3
 ACTION:UPD 16-03-09 23:28 OP:cam  STATUS:               ID:20160127152212 L   I
 OLDACT:REG 16-01-27 21:20 OP:cara STATUS:               ID:20160127151750     3
 2016-01-27-1517-50M.COL___331                                                 6
 STAT SP IPHASW D HRMM SECON CODA AMPLIT PERI AZIMU VELO AIN AR TRES W  DIS CAZ7
 BAR2 EZ IP       1522 31.34                             170   -0.1510 23.6 180 
 BAR2 EZ ES       1522 46.47                             170    0.1710 23.6 180 
 BAR2 EZ I        1522 48.18         5.1 0.26            171           23.6 180 
 PAM  EZ EP       1522 33.90                             149   -0.3910 79.6  42 
 PAM  EE ES       1522 51.39                             149    0.1210 79.6  42 
 PAM  EZ I        1522 53.59         2.5 0.46            153           79.6  42 
 RUS  HE ES       1522 54.07                             142    0.0910  102 174 
 RUS  HZ I        1522 54.50         2.8 0.22            147            102 174 
 PTB  HZ EP       1522 39.25                             132    0.57 9  144 258 
 PTB  HN ES       1522 58.48                             132   -0.62 9  144 258 
 PTB  HZ I        1523  5.50         3.1 0.26            133            144 258 
 ZAR  HE ES       1523  9.17                             122    0.28 9  200 292 
                                                                                
