 2015  427 1504 21.7 L   6.818 -73.172138.9  RSN 11 0.5 2.2LRSN                1
 GAP=199        1.08       3.4     5.1  6.0  0.9391E+00  0.6059E+01  0.2045E+01E
 Epicentro: LOS SANTOS - SANTANDER                                             3
 ACTION:UPD 15-06-03 16:58 OP:cam  STATUS:               ID:20150427150421 L   I
 OLDACT:REG 15-04-27 20:52 OP:ak   STATUS:               ID:20150427145750     3
 2015-04-27-1457-50M.COL___273                                                 6
 STAT SP IPHASW D HRMM SECON CODA AMPLIT PERI AZIMU VELO AIN AR TRES W  DIS CAZ7
 BAR2 EZ EP       15 4 40.50                             169   -0.0210 25.0 183 
 BAR2 EZ ES       15 4 55.62                             169    0.4010 25.0 183 
 BAR2 EZ I        15 4 59.04        29.8 0.21            168           25.0 183 
 BRR  HZ EP       15 4 42.51                             153    0.6210 67.7 298 
 BRR  HN ES       15 4 57.19                             153   -0.4610 67.7 298 
 BRR  HZ I        15 5  4.22        15.7 0.08            151           67.7 298 
 RUS  HZ EP   2   15 4 44.96                             142    0.03 5  103 175 
 RUS  HN ES   2   15 5  3.60                             142    0.53 5  103 175 
 RUS  HZ I        15 5  5.94        18.1 0.40            145            103 175 
 PTB  HZ EP       15 4 47.52                             131   -0.35 9  145 258 
 PTB  HN ES       15 5  7.74                             131   -0.56 9  145 258 
 PTB  HZ I        15 5 15.82        28.2 0.32            132            145 258 
 SPBC HZ EP       15 4 49.53                             127   -0.11 9  163 218 
 SPBC HN ES       15 5 11.51                             127    0.06 9  163 218 
 SPBC HZ I        15 5 14.39        26.8 0.28            129            163 218 
 ZAR  HZ EP       15 4 53.29                             121   -0.03 9  201 292 
 ZAR  HN ES       15 5 18.81                             121    0.80 9  201 292 
 ZAR  HZ I        15 5 25.76        10.2 0.22            123            201 292 
 SML  HZ EP       15 4 56.88                             116   -0.71 8  241 336 
 SML  HN ES       15 5 25.46                             116   -0.15 8  241 336 
 SML  HZ I        15 5 32.01        20.8 0.10            119            241 336 
 CHI  HZ EP       15 4 58.86                             116   -0.28 8  250 194 
 CHI  HN ES       15 5 27.74                             116   -0.62 8  250 194 
 CHI  HZ I        15 5 37.77         6.2 0.26            119            250 194 
 HEL  HN ES       15 5 32.48                             114    0.29 8  270 255 
 HEL  HZ I        15 5 39.47         9.8 0.38            116            270 255 
 GUY2CHZ EP       15 5  5.42                             111    0.58 7  300 234 
 GUY2CHN ES       15 5 37.79                             111   -0.72 7  300 234 
 GUY2CHZ I        15 5 44.87         7.8 0.36                           300 234 
 TOL  SZ EP       15 5 10.49                             108    0.89 7  343 224 
 TOL  SN ES       15 5 47.47                             108    0.49 7  343 224 
 TOL  SZ I        15 5 53.02         5.9 0.26            110            343 224 
 MON  HZ EP   4   15 5  7.09                             108   -2.92 0  350 308 
 MON  HN ES   4   15 5 46.45                             108   -1.26 0  350 308 
                                                                                
