 2014  127 1422 45.9 L   6.691 -73.200138.5  RSN  5 0.3 1.6LRSN                1
 GAP=220        0.89       6.6     6.4  7.2  0.2116E+02  0.7484E+01  0.3239E+01E
 Epicentro: VILLANUEVA - SANTANDER                                             3
 ACTION:UPD 14-03-13 09:59 OP:ep   STATUS:               ID:20140127142245 L   I
 OLDACT:REG 14-01-27 18:28 OP:nd   STATUS:               ID:20140127142000     3
 2014-01-27-1420-00M.COL___285                                                 6
 STAT SP IPHASW D HRMM SECON CODA AMPLIT PERI AZIMU VELO AIN AR TRES W  DIS CAZ7
 BAR2 SZ EP       1423  4.37                             175   -0.1310 11.1 170 
 BAR2 SZ ES       1423 18.40                             175   -0.5710 11.1 170 
 BAR2 SZ I        1423 20.67        18.0 0.28            174           11.1 170 
 BRR  HZ EP       1423  6.29                             151   -0.1110 72.9 309 
 BRR  HN ES       1423 22.94                             151    0.5810 72.9 309 
 BRR  HZ I        1423 25.92         7.6 0.50            153           72.9 309 
 RUS  HZ EP       1423  8.41                             146    0.2510 89.2 172 
 RUS  HN ES       1423 25.77                             146    0.2810 89.2 172 
 RUS  HZ I        1423 27.74         2.3 0.24            148           89.2 172 
 PTB  HZ EP       1423 11.43                             132   -0.17 9  140 263 
 PTB  HN ES       1423 31.44                             132   -0.17 9  140 263 
 PTB  HZ I        1423 33.23         4.6 0.15            134            140 263 
 SJC  HZ EP   4   1423 38.80                             104   -3.29 0  416 329 
 SJC  HN ES   4   1424 19.23                             104   -6.66 0  416 329 
 SJC  HZ I        1424 23.04         1.8 0.68            107            416 329 
                                                                                
