 2012  327 1836 26.5 L   6.789 -73.193136.8  RSN  5 0.2 1.5LRSN                1
 GAP=131        0.43       4.2     3.5  6.2 -0.1914E+01  0.8227E+01 -0.5793E+01E
 ACTION:UP  12-03-31 23:23 OP:EP   STATUS:               ID:20120327183626 L   I
 2012-03-27-1829-41M.COL___178                                                 6
 STAT SP IPHASW D HRMM SECON CODA AMPLIT PERI AZIMU VELO SNR AR TRES W  DIS CAZ7
 BAR2 SZ EP   2   1836 44.78                             170    -0.3 5   22 177 
 BAR2 SZ ES   2   1836 59.64                             170     0.1 5   22 177 
 PAM  SZ EP   1   1836 48.10                             148     0.0 7   82  42 
 PAM  SN ES   2   1837  4.77                             148    -0.1 5   82  42 
 RUS  HZ EP   2   1836 49.47                             142     0.1 5  100 173 
 RUS  HN ES   2   1837  7.41                             142     0.2 5  100 173 
 RUS  HZ I        1837  9.91         2.0 0.28                           100 173 
 PTB  HZ EP   1   1836 52.11                             131    -0.2 7  142 259 
 PTB  HN ES   2   1837 12.08                             131    -0.3 5  142 259 
 PTB  HZ I        1837 18.01         4.3 0.27                           142 259 
 ZAR  HZ EP   2   1836 58.43                             121     0.5 4  200 293 
 ZAR  HN ES   2   1837 22.80                             121     0.3 4  200 293 
 ZAR  HZ I        1837 28.86         7.9 0.40                           200 293 
                                                                                
