 2017  227 1510 10.0 L   6.772 -73.206138.8  RSN  4 0.2 1.3LRSN                1
 GAP=238        0.58       5.7     4.3  5.5  0.1595E+02  0.3583E+01 -0.4038E+01E
 Epicentro: ZAPATOCA - SANTANDER                                               3
 ACTION:UPD 17-05-24 15:41 OP:jn   STATUS:               ID:20170227151010 L   I
 OLDACT:REG 17-02-27 20:50 OP:lv   STATUS:               ID:20170227150744     3
 2017-02-27-1508-00M.COL___373                                                 6
 STAT SP IPHASW D HRMM SECON CODA AMPLIT PERI AZIMU VELO AIN AR TRES W  DIS CAZ7
 BAR2 EZ EP       1510 29.06                             171    0.2910 20.1 172 
 BAR2 EZ ES       1510 43.22                             171   -0.1610 20.1 172 
 BAR2 EZ I        1510 45.07         5.6 0.25            171           20.1 172 
 RUS  HZ EP       1510 32.58                             143   -0.3610 98.2 172 
 RUS  HN ES       1510 50.99                             143    0.1910 98.2 172 
 RUS  HZ I        1510 51.92         2.7 0.39            144           98.2 172 
 PTB  HZ EP       1510 35.87                             132    0.08 9  141 260 
 PTB  HN ES       1510 55.84                             132   -0.03 9  141 260 
 PTB  HZ I        1510 57.70         2.5 0.26            133            141 260 
 ZAR  HN ES       1511  6.06                             121   -0.01 9  199 294 
                                                                                
