 2012 1127 1540 28.9 L   6.792 -73.163147.7  RSN  9 0.3 2.3LRSN                1
 GAP=135        0.55       2.4     2.8  3.8 -0.1108E+01  0.4145E+01  0.9962E+00E
 Epicentro: LOS SANTOS - SANTANDER                                             3
 ACTION:UPD 12-12-05 15:36 OP:}ep  STATUS:               ID:20121127154028 L   I
 2012-11-27-1540-00M.COL___234                                                 6
 STAT SP IPHASW D HRMM SECON CODA AMPLIT PERI AZIMU VELO AIN AR TRES W  DIS CAZ7
 BAR2 SZ EP       1540 48.81                             171    0.0310 22.2 185 
 BAR2 SZ ES       1541  4.24                             171   -0.0210 22.2 185 
 BAR2 SZ I        1541  8.11        39.9 0.45                          22.2 185 
 GIR2 SZ EP       1540 49.08                             167    0.2210 31.9 354 
 PAM  SZ EP       1540 51.66                             150    0.1810 79.3  40 
 PAM  SN ES       1541  8.92                             150   -0.1410 79.3  40 
 PAM  SZ I        1541 11.12        17.2 0.20                          79.3  40 
 RUS  HZ EP       1540 52.65                             144   -0.1810 99.9 175 
 RUS  HE ES       1541 11.55                             144    0.0810 99.9 175 
 RUS  HE I        1541 12.84        29.6 0.25                          99.9 175 
 PTB  HZ EP       1540 55.62                             133   -0.26 9  146 259 
 PTB  HN ES   1   1541 16.31                             133   -0.58 7  146 259 
 PTB  HZ I        1541 22.71        26.7 0.21                           146 259 
 ZAR  HZ EP   1   1541  1.13                             123   -0.23 6  203 293 
 ZAR  HN ES   1   1541 27.09                             123    0.44 6  203 293 
 ZAR  HZ I        1541 33.27        22.3 0.20                           203 293 
 NOR  HZ EP   1   1541  4.66                             119    0.10 6  233 234 
 NOR  HE ES   1   1541 32.94                             119    0.60 6  233 234 
 CHI  HZ EP       1541  6.73                             118    0.13 8  247 195 
 CHI  HZ I        1541  9.48         8.4 0.39                           247 195 
 CHI  HN ES   1   1541 35.89                             118   -0.09 6  247 195 
 PRA  HZ EP   1   1541 22.00                             107   -0.33 4  390 209 
 PRA  HN ES   1   1542  4.07                             107    0.10 4  390 209 
 PRA  HZ I        1542  9.36         7.4 0.29                           390 209 
                                                                                
