 2012 1027 1152 29.4 L   7.152 -73.138148.7  RSN  4 0.2 1.7LRSN                1
 GAP=150        0.43      12.1     2.8  4.1 -0.9519E+01  0.3250E+01 -0.7059E+01E
 Epicentro: BUCARAMANGA - SANTANDER                                            3
 ACTION:UPD 12-11-22 17:06 OP:ep   STATUS:               ID:20121027115229 L   I
 2012-10-27-1150-00M.COL___228                                                 6
 STAT SP IPHASW D HRMM SECON CODA AMPLIT PERI AZIMU VELO AIN AR TRES W  DIS CAZ7
 GIR2 SZ EP   2   1152 49.13                             176    0.11 5 10.1 217 
 GIR2 SZ ES   2   1153  3.72                             176   -0.63 5 10.1 217 
 PAM  SZ EP       1152 50.61                             160   -0.0410 52.7  67 
 PAM  SN ES       1153  7.32                             160    0.0810 52.7  67 
 PAM  SZ I        1153  8.55         6.2 0.34                          52.7  67 
 BRR  HZ EP       1152 50.42                             156   -0.0210 63.6 266 
 BRR  HZ I        1152 50.97        17.4 0.11                          63.6 266 
 BRR  HN ES       1153  7.05                             156    0.1810 63.6 266 
 ZAR  HZ EP   1   1153  0.86                             125   -0.09 6  194 281 
 ZAR  HN ES   1   1153 25.51                             125   -0.08 6  194 281 
 ZAR  HZ I        1153 26.95         5.5 0.16                           194 281 
                                                                                
