 2013  927 1037 32.5 L   6.801 -73.165147.2  RSN 10 0.6 1.6LRSN 2.1WRSN        1
 SPEC AVERAGE  MO 12.3 ST 55.6 OM  1.2 f0 24.5 R0.1300 AL 0.00 WI 20.0 MW  2.1 3
 SPEC SD       MO  0.2 ST 54.9 OM  0.8 f0 15.5 R0.0819 AL      WI      MW  0.1 3
 GAP=134        1.37       4.5     6.2  8.6  0.3389E+01  0.4725E+01  0.2880E+01E
 Epicentro: LOS SANTOS - SANTANDER                                             3
 SPEC BAR2SH Z MO 12.4 ST110.5 OM  0.6 f0 40.0 R0.0481 AL-0.00 WI 20.0 MW  2.2 3
 SPEC BAR2SH Z T1038 5 K 0.050 GD  149 VS 5.20 DE 3.20 Q0750.0 QA 1.50 VS 5.20 3
 SPEC RUS HH Z MO 12.1 ST0.617 OM  0.2 f0 9.08 R0.2119 AL-0.00 WI 20.0 MW  2.0 3
 SPEC RUS HH Z T103813 K 0.050 GD  178 VS 5.20 DE 3.20 Q0750.0 QA 1.50 VS 5.20 3
 OLDACT:REG 13-09-27 16:25 OP:stll STATUS:               ID:20130927102838     3
 ACTION:UPD 13-10-22 09:25 OP:ep   STATUS:               ID:20130927103732 L   I
 OLDACT:UP  13-09-27 17:20 OP:stll STATUS:               ID:20130927102838     3
 2013-09-27-1028-38M.COL___241                                                 6
 STAT SP IPHASW D HRMM SECON CODA AMPLIT PERI AZIMU VELO AIN AR TRES W  DIS CAZ7
 BAR2 SZ EP       1037 52.47                             171    0.1410 23.1 185 
 BAR2 SZ ES       1038  7.17                             171   -0.6110 23.1 185 
 BAR2 SZ I        1038  8.72        10.5 0.40            170           23.1 185 
 BRR  HZ EP       1037 54.38                             153    0.6510 69.3 299 
 BRR  HN ES       1038 11.25                             153    0.9810 69.3 299 
 BRR  SZ I        1038 17.94         8.4 1.66            154           69.3 299 
 PAM  SZ EP       1037 55.29                             151    0.3110 78.7  41 
 PAM  SZ I        1037 55.51         5.8 0.24            155           78.7  41 
 RUS  HZ EP       1037 56.45                             144    0.0110  101 175 
 RUS  HN ES       1038 14.91                             144   -0.1810  101 175 
 PTB  HZ EP       1037 58.92                             133   -0.51 9  146 259 
 PTB  HN ES       1038 19.83                             133   -0.58 9  146 259 
 SPBC HZ EP       1038  1.33                             130    0.31 9  162 218 
 SPBC HN ES       1038 23.54                             130    0.30 9  162 218 
 SPBC SZ I        1038 31.00         5.3 0.50            132            162 218 
 ZAR  HE ES       1038 29.52                             123   -0.56 9  202 292 
 SML  HN ES       1038 37.09                             118   -0.59 8  243 336 
 CHI  HZ EP       1038  9.70                             117   -0.56 8  248 195 
 CHI  HE ES       1038 39.21                             117   -0.47 8  248 195 
 RREF HN ES       1038 55.68                             111    1.23 7  320 229 
                                                                                
