 2011  827 1114 21.5 L   6.750 -73.107141.4  RSN  8 0.3 1.8LRSN                1
 GAP=187        0.60       2.6     5.4  4.6 -0.1197E+01  0.5233E+01  0.1940E+01E
 Epicentro: LOS SANTOS - SANTANDER                                             3
 ACTION:UPD 12-07-13 15:54 OP:ep   STATUS:               ID:20110827111421 L   I
 2011-08-27-1100-00M.COL___162                                                 6
 STAT SP IPHASW D HRMM SECON CODA AMPLIT PERI AZIMU VELO AIN AR TRES W  DIS CAZ7
 BAR2 SZ EP   1   1114 40.29                             172   -0.26 7 19.3 206 
 BAR2 SZ ES   1   1114 55.23                             172   -0.16 7 19.3 206 
 BAR2 SZ I        1114 57.05        27.6 0.24                          19.3 206 
 GIR2 SZ EP   1   1114 40.64                             164   -0.23 7 37.6 345 
 GIR2 SZ ES   1   1114 56.34                             164    0.39 7 37.6 345 
 BRR  HZ EP   1   1114 42.17                             150   -0.42 7 77.7 301 
 BRR  HE ES   1   1114 58.90                             150   -0.11 7 77.7 301 
 BRR  HZ I        1115  1.06         9.9 0.20                          77.7 301 
 RUS  HZ EP   1   1114 44.24                             145   -0.19 7 94.8 178 
 RUS  HN ES   1   1115  2.44                             145    0.14 7 94.8 178 
 RUS  HZ I        1115  4.12         6.1 0.29                          94.8 178 
 OCA  SZ EP   1   1114 50.72                             128    0.64 7  166 352 
 OCA  SZ ES   1   1115 12.40                             128    0.05 7  166 352 
 OCA  SZ I        1115 17.13         9.4 0.41                           166 352 
 NOR  SZ EP   1   1114 56.77                             118   -0.27 6  235 236 
 NOR  SN ES   1   1115 24.88                             118    0.13 6  235 236 
 CHI  HZ EP   1   1114 58.37                             117   -0.16 6  244 196 
 CHI  HN ES   1   1115 27.97                             117    0.58 6  244 196 
 CHI  HZ I        1115 35.82         3.9 0.40                           244 196 
 HEL  HZ EP   2   1115  2.21                             114    0.37 4  275 257 
 HEL  HZ I        1115 38.18         3.5 0.49                           275 257 
                                                                                
