 2011 1227 1431 53.7 L   6.786 -73.159138.2  RSN 12 0.4 2.2LRSN                1
 GAP=135        0.57       3.4     3.8  5.6 -0.1423E+01  0.9169E+01  0.4654E+01E
 Epicentro: LOS SANTOS - SANTANDER                                             3
 ACTION:UPD 12-07-13 16:18 OP:ep   STATUS:               ID:20111227143153 L   I
 2011-12-27-1430-00M.COL___187                                                 6
 STAT SP IPHASW D HRMM SECON CODA AMPLIT PERI AZIMU VELO AIN AR TRES W  DIS CAZ7
 BAR2 SZ EP       1432 12.47                             171    0.1310 21.6 187 
 BAR2 SZ ES   2   1432 26.26                             171   -0.66 5 21.6 187 
 BAR2 SZ I        1432 35.16        53.4 0.60                          21.6 187 
 GIR2 SZ EP   1   1432 12.41                             166   -0.05 7 32.6 353 
 BRR  HZ EP   1   1432 14.11                             151    0.15 7 70.7 300 
 BRR  HE ES   2   1432 30.34                             151    0.54 5 70.7 300 
 BRR  HZ I        1432 34.88        33.0 0.12                          70.7 300 
 PAM  SZ EP   1   1432 15.11                             149   -0.09 7 79.5  40 
 PAM  SZ I        1432 15.47        39.1 0.14                          79.5  40 
 PAM  SN ES   2   1432 32.47                             149    0.46 5 79.5  40 
 RUS  HZ EP   1   1432 16.25                             143   -0.31 7 99.2 175 
 RUS  HN ES   2   1432 34.50                             143    0.06 5 99.2 175 
 RUS  HZ I        1432 37.11        16.6 0.30                          99.2 175 
 ZAR  HZ EP   1   1432 25.03                             121   -0.50 6  203 293 
 ZAR  HN ES   2   1432 50.08                             121   -0.32 4  203 293 
 ZAR  HZ I        1432 56.54        22.8 0.23                           203 293 
 NOR  SZ EP   1   1432 28.53                             117   -0.20 6  233 235 
 NOR  SN ES   2   1432 55.71                             117   -0.38 4  233 235 
 CHI  HZ EP   1   1432 30.88                             116    0.14 6  247 195 
 CHI  HN ES   2   1432 59.72                             116    0.05 4  247 195 
 CHI  HZ I        1433  8.12        10.2 0.47                           247 195 
 HEL  HZ EP   1   1432 32.87                             113   -0.42 6  270 256 
 HEL  HN ES   2   1433  4.54                             113    0.33 4  270 256 
 GUY  SZ EP   1   1432 37.44                             111    0.49 5  301 235 
 GUY  SN ES   2   1433 10.70                             111   -0.02 4  301 235 
 GUY  SZ I        1433 22.38        11.0 0.51                           301 235 
 RREF HZ EP   1   1432 39.95                             110    0.71 5  320 229 
 RREF HN ES   2   1433 15.61                             110    0.82 3  320 229 
 RREF HZ I        1433 25.55         7.6 0.57                           320 229 
 PRA  HN ES   2   1433 27.40                             105   -0.64 3  390 209 
                                                                                
