 2011  327 1703 34.2 L   6.354 -73.649 96.8  RSN  7 0.3 2.0LRSN                1
 GAP=120        0.71       3.5     4.8 11.3 -0.5347E+01  0.6345E+01  0.7002E+01E
 Epicentro: SANTA HELENA DEL OPON - SANTANDER                                  3
 ACTION:UP  11-06-16 14:36 OP:jfem STATUS:               ID:20110327170334 L   I
 2011-03-27-1701-21S.COL___138                                                 6
 STAT SP IPHASW D HRMM SECON CODA AMPLIT PERI AZIMU VELO SNR AR TRES W  DIS CAZ7
 BAR2 SZ EP   1   17 3 49.93                             147     0.2 7   58  63 
 BAR2 SZ I        17 4  3.89        72.3 0.10                            58  63 
 BRR  HZ EP   2   17 3 50.97                             136    -0.4 5   84 355 
 BRR  HN ES   2   17 4  4.77                             136     0.0 5   84 355 
 BRR  HZ I        17 4 12.24        16.8 0.16                            84 355 
 CHI  HE ES   1   17 4 25.23                             113    -0.3 7  191 183 
 GRA  SZ EP   1   17 4  3.44                             112     0.5 7  193  29 
 GRA  SZ I        17 4 33.68         8.2 0.29                           193  29 
 HEL  HZ EP   1   17 4  4.85                             111    -0.2 6  209 265 
 HEL  HN ES   1   17 4 29.26                             111     0.2 6  209 265 
 HEL  HZ I        17 4 31.92         8.1 0.33                           209 265 
 OCA  SZ EP   1   17 4  4.48                             110    -0.6 6  212  10 
 OCA  SZ I        17 4 36.62        17.4 0.37                           212  10 
 PRA  HZ EP   1   17 4 18.63                             103     0.5 5  323 205 
 PRA  HN ES   1   17 4 52.23                             103    -0.1 5  323 205 
                                                                                
