 2011  727 1855  5.4 L   6.815 -73.045141.6  RSN  4 0.4 1.8LRSN                1
 GAP=249        0.64       5.7     7.6  6.6  0.1341E+02  0.1351E+02  0.9427E+01E
 Epicentro: LOS SANTOS - SANTANDER                                             3
 ACTION:UPD 12-07-25 14:03 OP:epov STATUS:               ID:20110727185505 L   I
 2011-07-27-1852-25S.COL___142                                                 6
 STAT SP IPHASW D HRMM SECON CODA AMPLIT PERI AZIMU VELO AIN AR TRES W  DIS CAZ7
 BAR2 SZ EP   1   1855 24.34                             168   -0.30 7 29.0 212 
 BAR2 SZ ES   1   1855 39.43                             168   -0.23 7 29.0 212 
 BAR2 SZ I        1855 41.30        23.6 0.15                          29.0 212 
 BRR  HZ EP   1   1855 26.66                             149    0.02 7 80.5 294 
 BRR  HE ES   1   1855 43.44                             149    0.22 7 80.5 294 
 BRR  HZ I        1855 45.19        11.1 0.15                          80.5 294 
 RUS  HZ EP   1   1855 28.66                             142   -0.18 7  102 182 
 RUS  HN ES   1   1855 47.54                             142    0.41 7  102 182 
 RUS  HZ I        1855 48.56         8.0 0.25                           102 182 
 RREF HZ EP   1   1855 53.15                             109    0.70 5  331 230 
 RREF HE ES   1   1856 28.63                             109   -0.53 5  331 230 
                                                                                
