 2013  827 1612 48.7 L   6.681 -73.234146.4  RSN  4 0.4 1.4LRSN                1
 GAP=198        0.90       8.1    10.3  7.6  0.5475E+02  0.1090E+02  0.5385E+01E
 Epicentro: BARICHARA - SANTANDER                                              3
 ACTION:UPD 14-01-14 09:07 OP:ep   STATUS:               ID:20130827161248 L   I
 OLDACT:REG 13-08-27 15:46 OP:nd   STATUS:               ID:20130827160959     3
 2013-08-27-1609-59M.COL___270                                                 6
 STAT SP IPHASW D HRMM SECON CODA AMPLIT PERI AZIMU VELO AIN AR TRES W  DIS CAZ7
 BAR2 SZ EP       1613  7.93                             175   -0.2610 11.4 150 
 BAR2 SZ ES       1613 22.86                             175   -0.5610 11.4 150 
 BAR2 SZ I        1613 24.13         6.4 0.24            175           11.4 150 
 BRR  HZ EP       1613  9.71                             153   -0.1410 70.8 312 
 BRR  HN ES       1613 26.91                             153    0.5310 70.8 312 
 BRR  HZ I        1613 33.81         7.9 0.40            150           70.8 312 
 RUS  HZ EP       1613 11.90                             147    0.2410 88.8 169 
 RUS  HN ES       1613 29.91                             147    0.3110 88.8 169 
 RUS  HZ I        1613 31.47         2.7 0.22            152           88.8 169 
 PTB  HZ EP   1   1613 14.65                             134    0.01 7  136 263 
 PTB  HN ES   2   1613 34.35                             134   -0.56 5  136 263 
 PTB  HZ I        1613 38.17         2.6 0.10            134            136 263 
                                                                                
