 2013 1227 1613 53.3 L   6.802 -73.154149.8  RSN 11 0.5 2.3LRSN                1
 GAP=135        1.21       3.4     5.1  6.7 -0.2160E+01  0.7443E+01  0.1568E+01E
 Epicentro: LOS SANTOS - SANTANDER                                             3
 ACTION:UPD 14-01-13 10:21 OP:ep   STATUS:               ID:20131227161353 L   I
 OLDACT:REG 13-12-27 14:22 OP:jn   STATUS:               ID:20131227161000     3
 2013-12-27-1610-00M.COL___285                                                 6
 STAT SP IPHASW D HRMM SECON CODA AMPLIT PERI AZIMU VELO AIN AR TRES W  DIS CAZ7
 BAR2 SZ IP     D 1614 13.46                             171    0.0210 23.4 188 
 BAR2 SZ ES       1614 29.13                             171    0.0110 23.4 188 
 BAR2 SZ I        1614 29.75        64.4 0.34            169           23.4 188 
 BRR  HZ IP     C 1614 15.32                             153    0.4610 70.3 299 
 BRR  HN ES       1614 32.88                             153    1.2310 70.3 299 
 PAM  SZ EP     C 1614 16.23                             151    0.2410 77.8  40 
 PAM  SN ES       1614 33.69                             151    0.0310 77.8  40 
 PAM  SZ I        1614 33.98         7.7 0.22            154           77.8  40 
 RUS  HZ EP       1614 17.41                             145   -0.0810  101 176 
 RUS  HN ES       1614 35.45                             145   -0.8910  101 176 
 RUS  HZ I        1614 37.26        21.2 0.24            145            101 176 
 PTB  HZ EP       1614 20.23                             133   -0.32 9  147 259 
 PTB  HN ES       1614 41.16                             133   -0.62 9  147 259 
 PTB  HZ I        1614 47.33        28.0 0.42            132            147 259 
 OCA  HN ES   1   1614 43.43                             131   -0.79 7  160 353 
 OCA  HZ I        1614 48.63        23.8 0.32            131            160 353 
 SPBC HZ EP       1614 22.43                             130    0.33 9  163 219 
 SPBC HN ES       1614 44.41                             130   -0.13 9  163 219 
 SPBC HZ I        1614 48.49        30.8 0.24            130            163 219 
 ZAR  HN ES   1   1614 51.38                             123    0.00 6  203 292 
 NOR  HZ EP       1614 29.35                             119    0.12 8  234 234 
 NOR  HN ES       1614 57.07                             119   -0.16 8  234 234 
 NOR  HZ I        1615  2.77        15.7 0.28            119            234 234 
 SML  HZ EP       1614 29.61                             118   -0.50 8  243 335 
 SML  HN ES       1614 58.45                             118   -0.36 8  243 335 
 SML  HZ I        1615  2.02        43.6 0.24            119            243 335 
 CHI  HZ EP       1614 31.71                             118    0.46 8  249 195 
 CHI  HN ES       1615  1.25                             118    0.43 8  249 195 
 CHI  HZ I        1615  6.36         5.7 0.24            118            249 195 
                                                                                
