 2012  127 1532 52.7 L   6.741 -73.155141.0  RSN  4 0.2 1.3LRSN                1
 GAP=163        0.34       4.7    10.3  4.1 -0.3702E+02  0.2910E+01 -0.2042E+01E
 Epicentro: JORDAN - SANTANDER                                                 3
 ACTION:UP  12-02-03 08:21 OP:REBC STATUS:               ID:20120127153252 L   I
 2012-01-27-1530-00M.COL___188                                                 6
 STAT SP IPHASW D HRMM SECON CODA AMPLIT PERI AZIMU VELO SNR AR TRES W  DIS CAZ7
 BAR2 SZ EP       1533 11.57                             173    -0.110   17 190 
 BAR2 SZ ES   1   1533 26.52                             173     0.1 7   17 190 
 BAR2 SZ I        1533 29.34         5.6 0.58                            17 190 
 GIR2 SZ EP   3   1533 12.67                             164     0.6 2   38 353 
 GIR2 SZ ES   3   1533 26.87                             164    -0.2 2   38 353 
 PAM  SZ EP       1533 14.83                             148     0.010   83  37 
 PAM  SN ES   1   1533 31.99                             148     0.0 7   83  37 
 RUS  HZ EP   2   1533 15.45                             145    -0.1 5   94 175 
 RUS  HN ES   2   1533 33.47                             145     0.1 5   94 175 
 RUS  HZ I        1533 35.42         2.9 0.38                            94 175 
                                                                                
