 2014  727 1726 34.6 L   5.741 -73.908106.7  RSN 21 0.5 2.2LRSN                1
 GAP=131        1.04       2.2     3.1  5.5 -0.5905E+00  0.1497E+01 -0.4832E+00E
 Epicentro: ALBANIA - SANTANDER                                                3
 ACTION:UPD 15-03-16 20:47 OP:nd   STATUS:               ID:20140727172634 L   I
 OLDACT:DUP 14-07-28 00:32 OP:fm   STATUS:               ID:20140727171813d    3
 2014-07-27-1718-12M.COL___272                                                 6
 STAT SP IPHASW D HRMM SECON CODA AMPLIT PERI AZIMU VELO AIN AR TRES W  DIS CAZ7
 SPBC HZ EP       1726 49.28                             168    0.0310 20.7 242 
 SPBC HN ES       1727  0.96                             168    0.2710 20.7 242 
 SPBC HZ I        1727  2.09        93.1 0.34            167           20.7 242 
 PTB  HZ EP       1726 53.83                             131   -0.8510  107 326 
 PTB  HN ES   1   1727  9.49                             131   -0.87 7  107 326 
 PTB  HZ I        1727 13.29        24.9 0.24            130            107 326 
 NOR  HZ EP       1726 54.80                             131   -0.0410  108 260 
 NOR  HN ES       1727 10.65                             131    0.0110  108 260 
 NOR  HZ I        1727 12.89        72.9 0.16            130            108 260 
 ROSC BZ EP   1   1726 54.76                             131   -0.66 7  110 205 
 ROSC BN ES   1   1727 11.95                             131    0.28 7  110 205 
 ROSC BZ I        1727 17.55        29.8 0.40            131            110 205 
 BAR2 SZ EP       1726 56.82                             127    0.2810  124  40 
 BAR2 SZ ES   1   1727 14.24                             127    0.56 7  124  40 
 BAR2 SZ I        1727 16.23        35.2 0.20            127            124  40 
 CHI  HZ EP       1726 56.70                             127   -0.1610  124 171 
 CHI  HN ES       1727 13.62                             127   -0.6110  124 171 
 CHI  HZ I        1727 18.80        16.2 0.30            127            124 171 
 BRR  HZ EP       1727  0.06                             120    0.89 9  153   8 
 BRR  HN ES       1727 18.67                             120    0.32 9  153   8 
 BRR  HZ I        1727 21.99        28.6 0.40            120            153   8 
 GUY2CHZ EP       1727  2.10                             117    0.31 9  171 251 
 GUY2CHN ES   4   1727 24.79                             117    1.77 0  171 251 
 GUY2CHZ I        1727 31.68        18.3 0.54                           171 251 
 VIL  SZ EP       1727  2.17                             115   -0.32 9  182 172 
 VIL  SE ES       1727 24.21                             115   -0.05 9  182 172 
 VIL  SZ I        1727 28.39        18.5 0.34            116            182 172 
 RREF HZ EP       1727  3.51                             115    0.06 9  185 240 
 RREF HN ES   1   1727 26.97                             115    0.99 7  185 240 
 RREF HZ I        1727 30.09        26.1 0.34            115            185 240 
 HEL  HZ EP   1   1727  2.66                             115   -0.63 7  186 286 
 HEL  HN ES       1727 25.83                             115    0.14 9  186 286 
 HEL  HZ I        1727 33.36         9.5 0.62            114            186 286 
 TOL  SZ EP       1727  5.13                             113    0.11 9  202 231 
 TOL  SE ES   1   1727 28.89                             113    0.12 6  202 231 
 TOL  SZ I        1727 32.64        37.8 0.56            112            202 231 
 ANIL HZ EP   1   1727  6.94                             111    0.42 6  216 230 
 ANIL HN ES   4   1727 32.87                             111    1.43 0  216 230 
 ANIL HZ I        1727 37.39        39.4 0.34            111            216 230 
 ZAR  HZ EP       1727  6.10                             110   -0.57 8  220 332 
 ZAR  HN ES       1727 31.68                             110   -0.02 8  220 332 
 ZAR  HZ I        1727 37.69        21.3 0.16            110            220 332 
 CBOC HZ EP   1   1727  8.76                             109    0.37 6  233 273 
 CBOC HN ES   1   1727 34.18                             109   -0.58 6  233 273 
 CBOC HZ I        1727 39.35         4.8 0.16            109            233 273 
 PRA  HZ EP   4   1727  8.42                             108   -1.61 0  249 206 
 PRA  HN ES   1   1727 37.84                             108    0.15 6  249 206 
 PRA  HZ I        1727 41.28         8.2 0.32            107            249 206 
 ORTC HZ EP   4   1727  8.61                             107   -1.66 0  251 216 
 ORTC HN ES   1   1727 39.04                             107    0.92 6  251 216 
 ORTC HZ I        1727 41.91         9.8 0.76            107            251 216 
 OCA  HN ES   4   1727 46.69                             105    1.52 0  284  13 
 OCA  HZ I        1727 57.00         9.7 0.30            105            284  13 
 URE  HN ES   4   1727 43.00                             105   -2.30 0  286 321 
 URE  HZ I        1727 46.86        14.9 0.18            104            286 321 
 SML  HZ EP   1   1727 20.21                             101   -0.38 5  339 357 
 SML  HN ES   4   1727 54.35                             101   -2.14 0  339 357 
 SML  HZ I        1728  5.04         8.4 0.10            101            339 357 
 MACC HN ES   4   1728  4.52                              98   -4.61 0  398 179 
 SJC  HZ EP   4   1727 32.67                              95   -5.11 0  480 343 
 SJC  HN ES   4   1728 22.58                              95   -4.50 0  480 343 
 SJC  HZ I        1728 29.36         3.6 0.46             95            480 343 
                                                                                
