 2015 1227 1854 59.5 L   6.780 -73.174143.3  RSN  5 0.2 1.4LRSN                1
 GAP=134        0.59       3.1     2.7  5.0 -0.1883E+00  0.4153E+01 -0.1343E+01E
 Epicentro: LOS SANTOS - SANTANDER                                             3
 ACTION:UPD 16-02-04 15:08 OP:cam  STATUS:               ID:20151227185459 L   I
 OLDACT:REG 15-12-27 21:41 OP:cara STATUS:               ID:20151227184751     3
 2015-12-27-1847-51M.COL___334                                                 6
 STAT SP IPHASW D HRMM SECON CODA AMPLIT PERI AZIMU VELO AIN AR TRES W  DIS CAZ7
 BAR2 EZ EP       1855 18.61                             171   -0.1710 20.7 183 
 BAR2 EZ ES       1855 33.61                             171   -0.2110 20.7 183 
 BAR2 EZ I        1855 34.85         6.3 0.14            172           20.7 183 
 PAM  EZ IP       1855 21.75                             149    0.0710 81.1  40 
 PAM  EE ES       1855 38.99                             149    0.0110 81.1  40 
 PAM  EZ I        1855 40.76         4.1 0.42            151           81.1  40 
 RUS  HZ EP       1855 22.87                             144    0.0010 98.6 174 
 RUS  HN ES       1855 41.44                             144    0.3510 98.6 174 
 RUS  HZ I        1855 43.22         2.9 0.36            147           98.6 174 
 PTB  HZ EP       1855 25.77                             132   -0.18 9  144 259 
 PTB  HN ES       1855 46.38                             132   -0.20 9  144 259 
 PTB  HZ I        1855 49.43         2.6 0.14            132            144 259 
 ZAR  HE ES       1855 57.00                             122    0.40 9  202 293 
 ZAR  HZ I        1856  2.64         5.8 0.48            123            202 293 
                                                                                
