 2015  727 1550  7.4 L   5.976 -73.657130.2  RSN  4 0.2 1.8LRSN                1
 GAP=214        0.50       3.5     3.0  5.6 -0.5259E+01  0.5306E+01 -0.3040E+01E
 Epicentro: VELEZ - SANTANDER                                                  3
 ACTION:UPD 15-09-08 21:50 OP:cam  STATUS:               ID:20150727155007 L   I
 OLDACT:REG 15-07-27 23:09 OP:stll STATUS:               ID:20150727154747     3
 2015-07-27-1547-47M.COL___331                                                 6
 STAT SP IPHASW D HRMM SECON CODA AMPLIT PERI AZIMU VELO AIN AR TRES W  DIS CAZ7
 BAR2 EZ EP       1550 28.47                             145    0.2910 86.0  38 
 BAR2 EZ ES       1550 44.26                             145   -0.1610 86.0  38 
 BAR2 EZ I        1550 45.41        13.1 0.16            148           86.0  38 
 NOR  HZ EP       1550 32.55                             129   -0.06 9  142 251 
 NOR  HE ES       1550 52.27                             129   -0.02 9  142 251 
 NOR  HZ I        1550 56.16         9.2 0.52            131            142 251 
 ZAR  HE ES       1551  5.39                             117    0.10 8  214 322 
 ZAR  HZ I        1551  8.23         5.4 0.30            119            214 322 
 SML  HN EP       1550 51.09                             108   -0.29 7  316 352 
                                                                                
