 2010  227 1600 51.1 L   6.806 -73.065146.8  RSN  4 0.3 2.0LRSN                1
 GAP=191        0.43       5.3    11.3 10.1  0.3162E+02 -0.6973E+02 -0.3074E+02E
 Epicentro: LOS SANTOS - SANTANDER                                             3
 ACTION:UP  10-08-24 09:51 OP:vdl  STATUS:               ID:20100227160051 L   I
 2010-02-27-1558-49S.COL___093                                                 6
 STAT SP IPHASW D HRMM SECON CODA AMPLIT PERI AZIMU VELO SNR AR TRES W  DIS CAZ7
 BAR2 SZ EP       16 1 10.90                             169     0.010   27 209 
 BAR2 SZ ES   3   16 1 27.20                             169     0.8 2   27 209 
 BRR  HZ EP       16 1 12.82                             150     0.010   79 295 
 BRR  HZ I        16 1 20.60        11.8 0.52                            79 295 
 BRR  HE ES   2   16 1 29.66                             150    -0.1 5   79 295 
 RUS  BZ EP   2   16 1 15.12                             144     0.2 5  101 181 
 RUS  BN ES   3   16 1 32.59                             144    -1.0 2  101 181 
 OCA  SZ EP       16 1 19.50                             130     0.0 9  161 350 
 OCA  SZ ES   3   16 1 41.39                             130    -0.3 2  161 350 
 OCA  SZ I        16 1 45.65        18.5 0.90                           161 350 
                                                                                
