 2013  727 1853 53.5 L   6.820 -73.174142.4  RSN 10 0.5 2.3LRSN                1
 GAP=132        1.01       3.7     5.6  8.4 -0.5231E+01  0.1331E+02 -0.3720E+01E
 Epicentro: LOS SANTOS - SANTANDER                                             3
 ACTION:UPD 13-08-12 10:40 OP:ep   STATUS:               ID:20130727185353 L   I
 OLDACT:REG 13-07-27 15:02 OP:mh   STATUS:               ID:20130727184959     3
 2013-07-27-1849-59M.COL___266                                                 6
 STAT SP IPHASW D HRMM SECON CODA AMPLIT PERI AZIMU VELO AIN AR TRES W  DIS CAZ7
 BAR2 SZ EP       1854 12.84                             169    0.0610 25.2 182 
 BAR2 SZ ES   1   1854 27.49                             169   -0.31 7 25.2 182 
 BAR2 SZ I        1854 28.67        19.6 0.10            170           25.2 182 
 GIR2 SZ EP     C 1854 12.98                             168    0.2610 28.7 356 
 GIR2 SZ I        1854 29.82        12.2 0.14            162           28.7 356 
 BRR  HZ IP     C 1854 14.79                             153    0.7110 67.4 298 
 BRR  HN ES   1   1854 30.93                             153    0.81 7 67.4 298 
 BRR  HN I        1854 35.70        45.3 0.14            146           67.4 298 
 PAM  SZ EP       1854 15.75                             150    0.3510 77.8  42 
 PAM  SN ES   1   1854 32.36                             150   -0.10 7 77.8  42 
 PAM  SN I        1854 33.61        29.5 0.22            149           77.8  42 
 RUS  HZ EP   1   1854 16.95                             142   -0.16 7  103 174 
 RUS  HN ES   1   1854 34.76                             142   -0.76 7  103 174 
 RUS  HN I        1854 36.73        31.7 0.34            144            103 174 
 OCA  HN ES       1854 42.43                             129   -0.59 9  158 354 
 OCA  HN I        1854 43.61        62.0 0.16            126            158 354 
 SPBC HZ EP   1   1854 21.91                             128    0.18 7  163 218 
 SPBC HN ES       1854 43.59                             128   -0.15 9  163 218 
 SPBC HN I        1854 44.67        33.9 0.28            126            163 218 
 ZAR  HZ EP   4   1854 27.52                             122    2.17 0  200 292 
 ZAR  HE ES   4   1854 52.88                             122    2.70 0  200 292 
 ZAR  HE I        1854 59.94        30.6 0.24            118            200 292 
 SML  HZ EP   1   1854 29.04                             117   -0.55 6  240 336 
 SML  HN ES   1   1854 57.13                             117   -0.61 6  240 336 
 SML  HN I        1855  8.06        22.8 0.10            114            240 336 
 HEL  HE ES       1855  4.04                             114   -0.25 8  270 255 
 HEL  HE I        1855 12.09         6.1 0.26            112            270 255 
 GUY2CHZ EP   4   1854 38.53                             112    1.71 0  300 234 
 GUY2CHN ES   4   1855 12.29                             112    1.70 0  300 234 
                                                                                
