 2014 1227 1559  6.2 L   7.443 -73.186135.3  RSN  7 0.5 2.0LRSN                1
 GAP=135        1.15       4.5     5.0  9.1  0.3393E+01  0.1158E+02 -0.8348E+01E
 Epicentro: EL PLAYON - SANTANDER                                              3
 ACTION:UPD 15-02-10 17:07 OP:nd   STATUS:               ID:20141227155906 L   I
 OLDACT:REG 14-12-27 22:06 OP:carl STATUS:               ID:20141227155752     3
 2014-12-27-1557-52M.COL___265                                                 6
 STAT SP IPHASW D HRMM SECON CODA AMPLIT PERI AZIMU VELO AIN AR TRES W  DIS CAZ7
 PAM  SZ EP       1559 26.59                             157    0.5310 54.9 102 
 PAM  SN ES       1559 41.84                             157    0.2910 54.9 102 
 PAM  SZ I        1559 44.37        19.0 0.26            151           54.9 102 
 BRR  HZ IP     C 1559 26.37                             151    0.2810 68.9 237 
 BRR  HN ES       1559 41.57                             151   -0.0310 68.9 237 
 BRR  HZ I        1559 42.21        23.7 0.12            143           68.9 237 
 BAR2 EZ EP       1559 28.22                             143    0.1310 94.0 180 
 BAR2 EZ ES       1559 44.84                             143   -0.3310 94.0 180 
 BAR2 EZ I        1559 45.75        44.6 0.12            134           94.0 180 
 RUS  HN ES       1559 57.22                             125   -0.77 9  172 176 
 RUS  HZ I        1559 58.36         3.9 0.30            116            172 176 
 PTB  HZ EP       1559 34.70                             125   -0.01 9  172 235 
 PTB  HN ES       1559 57.00                             125    0.04 9  172 235 
 PTB  HZ I        16 0  0.29         7.9 0.16            115            172 235 
 SML  HZ EP       1559 35.20                             124   -0.18 9  179 327 
 SML  HN ES       1559 57.22                             124   -0.92 9  179 327 
 SML  HZ I        16 0  4.76        11.9 0.10            114            179 327 
 ZAR  HN ES       1559 59.93                             123    0.76 9  185 272 
 ZAR  HZ I        16 0  3.03        10.9 0.22            113            185 272 
                                                                                
