 2017 1027 1015 57.4 L   6.846 -73.178141.7  RSN 18 0.6 2.0LRSN                1
 GAP=107        1.29       3.3     4.0  6.0  0.1525E+01  0.6350E+01  0.4170E+01E
 Epicentro: ZAPATOCA - SANTANDER                                               3
 ACTION:UPD 17-11-07 19:37 OP:rebc STATUS:               ID:20171027101557 L   I
 OLDACT:UP  17-10-27 21:00 OP:dhb  STATUS:               ID:20171027100740d    3
 OLDACT:DUP 17-10-27 20:49 OP:dhb  STATUS:               ID:20171027100740d    3
 OLDACT:REG 17-10-27 19:25 OP:dhb  STATUS:               ID:20171027100739     3
 2017-10-27-1008-00M.COL___435                                                 6
 STAT SP IPHASW D HRMM SECON CODA AMPLIT PERI AZIMU VELO AIN AR TRES W  DIS CAZ7
 BAR2 EZ IP     D 1016 16.57                             168   -0.0910 28.1 181 
 BAR2 EZ ES       1016 31.56                             168   -0.1210 28.1 181 
 BAR2 EZ I        1016 32.63        17.3 0.34            168           28.1 181 
 BRR  HZ IP     C 1016 18.44                             154    0.6210 65.7 296 
 BRR  HE ES       1016 33.96                             154    0.2310 65.7 296 
 BRR  HZ I        1016 38.60        15.7 0.40            152           65.7 296 
 PAM  EZ EP       1016 19.53                             150    0.4210 75.9  44 
 PAM  EN ES       1016 36.37                             150    0.3310 75.9  44 
 PAM  EZ I        1016 38.76        30.0 0.52            154           75.9  44 
 RUS  HZ EP       1016 20.51                             141   -0.6610  106 174 
 RUS  HN ES       1016 39.22                             141   -0.4810  106 174 
 RUS  HZ I        1016 40.79        13.1 0.20            143            106 174 
 PTB  HZ EP       1016 23.72                             132   -0.11 9  145 257 
 PTB  HE ES       1016 44.47                             132    0.03 9  145 257 
 PTB  HZ I        1016 46.61         3.7 0.13            131            145 257 
 SPBC HZ IP     C 1016 25.58                             128   -0.20 9  165 217 
 SPBC HN ES       1016 47.57                             128   -0.34 9  165 217 
 SPBC HZ I        1016 50.14        15.0 0.34            128            165 217 
 YPLC HZ IP     D 1016 27.00                             125   -0.53 9  183 151 
 YPLC HE ES       1016 51.47                             125    0.45 9  183 151 
 YPLC HZ I        1016 53.77        11.5 0.28            127            183 151 
 ZAR  HZ EP       1016 29.14                             122    0.08 9  199 291 
 ZAR  HE ES       1016 54.06                             122    0.32 9  199 291 
 ZAR  HZ I        1017  1.03         7.0 0.16            123            199 291 
 TABC EZ EP       1016 33.68                             118    0.47 8  233 209 
 TABC EZ ES       1017  1.49                             118    0.36 8  233 209 
 TABC EZ I        1017  8.36         8.7 0.54            119            233 209 
 NOR  HZ EP       1016 33.52                             118    0.59 8  235 233 
 NOR  HN ES       1017  0.27                             118   -0.36 8  235 233 
 NOR  HZ I        1017  7.62         3.7 0.28            118            235 233 
 CHI  HZ EP       1016 34.71                             116   -0.62 8  253 194 
 CHI  HE ES       1017  5.01                             116    0.10 8  253 194 
 CHI  HZ I        1017  7.60         5.7 0.42            117            253 194 
 ROSC BZ EP       1016 37.21                             116    1.61 8  255 210 
 ROSC BE ES       1017  4.52                             116   -0.87 8  255 210 
 ROSC BZ I        1017  8.67        11.7 0.30            116            255 210 
 URE  HZ EP   4   1016 41.47                             113    3.77 0  279 291 
 URE  HN ES       1017  7.91                             113   -1.22 7  279 291 
 URE  HZ I        1017 18.44         6.9 0.18            114            279 291 
 GUY2CHZ EP   2   1016 42.64                             111    1.79 4  301 234 
 GUY2CHE ES   4   1017 18.59                             111    3.86 0  301 234 
 GUY2CHZ I        1017 27.01         2.7 0.40                           301 234 
 PTGC HZ EP   2   1016 39.80                             110   -1.98 3  315 158 
 PTGC HE ES   4   1017 13.81                             110   -2.58 0  315 158 
 PTGC HZ I        1017 18.63        14.4 0.42            112            315 158 
 PRA  HZ EP       1016 50.42                             106   -0.69 6  395 209 
 PRA  HE ES       1017 33.12                             106    0.12 6  395 209 
 PRA  HZ I        1017 37.32         3.8 0.44            107            395 209 
 ORTC HZ EP       1016 51.53                             106    0.09 6  397 215 
 ORTC HE ES       1017 34.61                             106    1.03 6  397 215 
 ORTC HZ I        1017 37.39         2.3 0.22            106            397 215 
 SJC  HZ EP       1016 51.48                             105   -0.63 6  403 327 
 SJC  HE ES       1017 34.44                             105   -0.34 6  403 327 
 SJC  HZ I        1017 36.62         1.3 0.29            106            403 327 
                                                                                
