 2013  127 1234 56.5 L   7.279 -73.145135.8  RSN  5 0.3 1.6LRSN                1
 GAP=189        0.68       9.1     5.4  8.0 -0.1028E+02  0.4032E+01  0.2213E+02E
 Epicentro: RIONEGRO - SANTANDER                                               3
 ACTION:UPD 13-02-15 09:17 OP:ep   STATUS:               ID:20130127123456 L   I
 2013-01-27-1230-00M.COL___240                                                 6
 STAT SP IPHASW D HRMM SECON CODA AMPLIT PERI AZIMU VELO AIN AR TRES W  DIS CAZ7
 PAM  SN ES   1   1235 31.17                             159   -0.39 7 49.7  82 
 BRR  HZ EP   1   1235 16.68                             153    0.39 7 65.4 253 
 BRR  HN ES   1   1235 31.89                             153    0.20 7 65.4 253 
 BAR2 SZ EP   1   1235 17.41                             149    0.14 7 76.1 183 
 BAR2 SZ ES   1   1235 33.71                             149    0.28 7 76.1 183 
 BAR2 SZ I        1235 34.35         9.2 0.20            148           76.1 183 
 RUS  HZ EP   1   1235 23.71                             129   -0.19 7  154 177 
 PTB  HE ES   1   1235 45.75                             126   -0.58 7  166 241 
 PTB  HZ I        1235 47.11         3.3 0.52            126            166 241 
                                                                                
