 2010  327 1648 58.4 L   7.060 -73.474105.7  RSN  5 0.3 1.8LRSN                1
 GAP=141        0.53       7.5     8.6  5.5  0.4769E+02  0.3276E+01  0.6629E+01E
 Epicentro: SAN VICENTE DE CHUCURI - SANTANDER                                 3
 ACTION:UP  10-08-24 09:56 OP:vdl  STATUS:               ID:20100327164858 L   I
 2010-03-27-1646-45S.COL___098                                                 6
 STAT SP IPHASW D HRMM SECON CODA AMPLIT PERI AZIMU VELO SNR AR TRES W  DIS CAZ7
 BRR  HZ IP       1649 12.83                             165    -0.110   27 281 
 BRR  HN ES   1   1649 24.45                             165     0.1 7   27 281 
 BRR  HZ I        1649 25.39        27.1 0.11                            27 281 
 BAR2 SZ IP       1649 15.16                             148     0.210   61 148 
 BAR2 SZ ES   1   1649 27.78                             148    -0.2 7   61 148 
 OCA  SZ ES   3   1649 38.06                             124    -0.4 2  132   7 
 OCA  SZ I        1649 40.24        22.9 0.12                           132   7 
 RUS  HZ EP   1   1649 21.94                             124     0.1 7  136 161 
 RUS  HN ES   3   1649 38.86                             124    -1.3 2  136 161 
 RUS  HZ I        1649 41.66         5.7 0.39                           136 161 
 DBB  SZ EP   2   1649 39.89                             103    -0.2 4  302 269 
                                                                                
