 2017  127 1313 59.7 L   6.766 -73.164143.9  RSN  7 0.4 1.9LRSN                1
 GAP=136        0.91       3.7     4.0  6.5  0.1068E+01  0.5484E+01  0.3401E+01E
 Epicentro: LOS SANTOS - SANTANDER                                             3
 ACTION:UPD 17-05-22 16:04 OP:jn   STATUS:               ID:20170127131854dL   I
 OLDACT:UP  17-01-28 23:49 OP:dani STATUS:               ID:20170127131854dL   3
 OLDACT:DUP 17-01-28 23:43 OP:dani STATUS:               ID:20170127131854dL   3
 OLDACT:UP  17-01-27 23:17 OP:dnl  STATUS:               ID:20170127130748     3
 OLDACT:REG 17-01-27 21:28 OP:dnl  STATUS:               ID:20170127130748     3
 2017-01-27-1308-00M.COL___346                                                 6
 STAT SP IPHASW D HRMM SECON CODA AMPLIT PERI AZIMU VELO AIN AR TRES W  DIS CAZ7
 BAR2 EZ EP       1314 18.92                             172   -0.0710 19.4 186 
 BAR2 EZ ES       1314 33.54                             172   -0.5210 19.4 186 
 BAR2 EZ I        1314 35.10        31.4 0.32            169           19.4 186 
 BRR  HZ EP       1314 20.68                             152    0.0710 71.4 302 
 BRR  HN ES       1314 37.76                             152    0.8010 71.4 302 
 BRR  HZ I        1314 40.97        19.3 0.39            150           71.4 302 
 PAM  EZ EP       1314 21.86                             149   -0.0710 81.5  39 
 PAM  EN ES       1314 39.11                             149   -0.1810 81.5  39 
 PAM  EZ I        1314 41.13        19.5 0.42            153           81.5  39 
 RUS  HZ EP       1314 23.07                             144    0.1010 97.0 175 
 RUS  HE ES       1314 41.46                             144    0.3110 97.0 175 
 RUS  HZ I        1314 42.35         5.5 0.30            144           97.0 175 
 PTB  HZ EP       1314 26.21                             132   -0.02 9  145 260 
 PTB  HN ES       1314 46.47                             132   -0.49 9  145 260 
 PTB  HZ I        1314 52.32         7.7 0.13            130            145 260 
 ZAR  HZ EP   3   1314 33.48                             122    1.54 2  204 293 
 ZAR  HE ES       1314 56.94                             122   -0.18 9  204 293 
 ZAR  HZ I        1315  3.83        13.0 0.34            121            204 293 
 CHI  HZ EP   3   1314 35.19                             117   -1.62 2  245 195 
 CHI  HN ES       1315  6.00                             117    0.22 8  245 195 
 CHI  HZ I        1315 14.53         3.9 0.23            117            245 195 
                                                                                
