 2014  427 1802 31.0 L   6.823 -73.184143.6  RSN  5 0.4 1.7LRSN                1
 GAP=131        1.05       4.3     5.3  8.0  0.1219E+00  0.6159E+01 -0.5057E+01E
 Epicentro: ZAPATOCA - SANTANDER                                               3
 ACTION:UPD 14-05-13 23:11 OP:nd   STATUS:               ID:20140427180231 L   I
 OLDACT:REG 14-04-27 21:42 OP:nd   STATUS:               ID:20140427180000     3
 2014-04-27-1800-00M.COL___270                                                 6
 STAT SP IPHASW D HRMM SECON CODA AMPLIT PERI AZIMU VELO AIN AR TRES W  DIS CAZ7
 BRR  HZ EP       18 2 51.06                             154   -0.6110 66.2 298 
 BRR  HN ES       18 3  8.19                             154    0.4210 66.2 298 
 BRR  HZ I        18 3 13.26        10.5 0.36            151           66.2 298 
 PAM  SZ EP       18 2 53.45                             150    0.3810 78.3  43 
 PAM  SN ES       18 3 10.20                             150   -0.0710 78.3  43 
 PAM  SZ I        18 3 12.74         7.2 0.50            153           78.3  43 
 RUS  HZ EP       18 2 55.32                             143    0.5410  103 174 
 RUS  HN ES       18 3 12.79                             143   -0.5210  103 174 
 RUS  HZ I        18 3 14.10         5.0 0.38            149            103 174 
 PTB  HZ EP       18 2 57.23                             132   -0.26 9  144 258 
 PTB  HN ES       18 3 18.38                             132    0.26 9  144 258 
 PTB  HZ I        18 3 24.78         4.9 0.44            133            144 258 
 SML  HZ EP       18 3  7.33                             117    0.23 8  240 336 
 SML  HN ES       18 3 34.78                             117   -0.45 8  240 336 
 SML  HZ I        18 3 44.48         9.1 0.22            119            240 336 
                                                                                
