 2015  327 1619 54.0 L   6.831 -73.166144.2  RSN  6 0.6 1.9LRSN                1
 GAP=133        1.51       6.2     7.5 10.0  0.1436E+01  0.1330E+02 -0.1245E+02E
 Epicentro: LOS SANTOS - SANTANDER                                             3
 ACTION:UPD 15-04-30 16:29 OP:nd   STATUS:               ID:20150327161954 L   I
 OLDACT:REG 15-03-27 20:32 OP:stll STATUS:               ID:20150327161750     3
 2015-03-27-1617-50M.COL___281                                                 6
 STAT SP IPHASW D HRMM SECON CODA AMPLIT PERI AZIMU VELO AIN AR TRES W  DIS CAZ7
 BAR2 EZ IP     C 1620 13.68                             169    0.2210 26.4 184 
 BAR2 EZ ES       1620 28.22                             169   -0.4610 26.4 184 
 BAR2 EZ I        1620 29.78        19.4 0.24            168           26.4 184 
 BRR  HZ IP     C 1620 15.50                             153    0.7710 67.7 297 
 BRR  HN ES       1620 31.85                             153    0.9110 67.7 297 
 PAM  SZ IP     C 1620 16.59                             151    0.6510 76.3  42 
 PAM  SZ I        1620 16.74        31.7 0.18            153           76.3  42 
 PAM  SN ES       1620 32.87                             151   -0.2110 76.3  42 
 RUS  HZ EP       1620 17.62                             142   -0.1910  104 175 
 RUS  HZ I        1620 18.09         6.7 0.48            143            104 175 
 RUS  HN ES       1620 35.90                             142   -0.5210  104 175 
 PTB  HZ EP       1620 20.52                             132   -0.14 9  146 257 
 PTB  HN ES       1620 41.33                             132   -0.16 9  146 257 
 PTB  HZ I        1620 46.54        12.3 0.10            131            146 257 
 SML  HZ EP       1620 30.07                             117    0.01 8  240 335 
 SML  HE ES       1620 56.77                             117   -1.45 8  240 335 
                                                                                
