 2013  227 1101 39.3 L   6.779 -73.169147.2  RSN  9 0.4 1.8LRSN                1
 GAP=135        0.86       3.4     5.0  6.6  0.1516E+01  0.7849E+01  0.2481E+00E
 Epicentro: LOS SANTOS - SANTANDER                                             3
 ACTION:UPD 13-03-12 09:36 OP:ep   STATUS:               ID:20130227110139 L   I
 2013-02-27-1100-00M.COL___226                                                 6
 STAT SP IPHASW D HRMM SECON CODA AMPLIT PERI AZIMU VELO AIN AR TRES W  DIS CAZ7
 BAR2 SZ EP   1   11 1 59.27                             172    0.20 7 20.7 184 
 BAR2 SZ ES   1   11 2 14.34                             172   -0.13 7 20.7 184 
 BRR  HZ EP     C 11 2  1.08                             153    0.5210 70.1 301 
 BRR  HN ES   1   11 2 18.05                             153    0.92 7 70.1 301 
 BRR  HZ I        11 2 22.17        17.5 0.42            152           70.1 301 
 PAM  SZ EP   1   11 2  2.05                             150    0.16 7 80.8  40 
 PAM  SN ES   1   11 2 19.27                             150   -0.22 7 80.8  40 
 PAM  SZ I        11 2 22.74         5.5 0.42            153           80.8  40 
 RUS  HZ EP   1   11 2  2.96                             145   -0.10 7 98.5 174 
 RUS  HN ES   1   11 2 20.99                             145   -0.59 7 98.5 174 
 RUS  HZ I        11 2 23.08        10.8 0.37            149           98.5 174 
 PTB  HZ EP   1   11 2  5.91                             133   -0.23 7  145 260 
 PTB  HN ES   1   11 2 26.35                             133   -0.70 7  145 260 
 PTB  HZ I        11 2 29.78         8.9 0.19            134            145 260 
 OCA  HN ES   1   11 2 30.14                             130   -0.10 7  162 354 
 OCA  HZ I        11 2 36.17         9.9 0.36            132            162 354 
 ZAR  HZ EP   1   11 2 11.89                             123    0.19 6  203 293 
 ZAR  HN ES   1   11 2 37.00                             123    0.04 6  203 293 
 ZAR  HZ I        11 2 43.87         9.2 0.62            124            203 293 
 SML  HZ EP   1   11 2 15.47                             118   -0.67 6  245 336 
 SML  HN ES   1   11 2 44.24                             118   -0.61 6  245 336 
 CHI  HZ EP   1   11 2 17.12                             118    0.34 6  246 195 
 CHI  HN ES   1   11 2 46.25                             118    0.24 6  246 195 
 CHI  HZ I        11 2 50.12         3.6 0.42            121            246 195 
                                                                                
