 2011  927 1251 36.5 L   6.760 -73.056134.5  RSN  5 0.3 1.7LRSN                1
 GAP=192        0.73       7.6    13.2  9.6  0.6950E+02 -0.8492E+02 -0.4458E+02E
 Epicentro: LOS SANTOS - SANTANDER                                             3
 ACTION:UPD 12-07-13 16:00 OP:ep   STATUS:               ID:20110927125136 L   I
 2011-09-27-1248-08S.COL___165                                                 6
 STAT SP IPHASW D HRMM SECON CODA AMPLIT PERI AZIMU VELO AIN AR TRES W  DIS CAZ7
 BAR2 SZ EP       1251 55.01                             169    0.2810 23.2 217 
 BAR2 SZ ES   1   1252  8.71                             169   -0.27 7 23.2 217 
 BAR2 SZ I        1252 11.50        14.3 0.24                          23.2 217 
 BTL  SZ EP       1251 55.20                             167    0.3210 29.2 307 
 BRR  HZ EP       1251 56.75                             146   -0.3410 82.0 298 
 BRR  HZ I        1252 10.34        16.5 0.55                          82.0 298 
 BRR  HE ES       1252 13.37                             146    0.1910 82.0 298 
 RUS  HZ EP   1   1251 58.94                             143    0.17 7 95.9 182 
 RUS  HN ES   2   1252 15.53                             143   -0.64 5 95.9 182 
 RUS  HZ I        1252 19.26         4.7 0.29                          95.9 182 
 OCA  SZ EP       1252  4.20                             126   -0.29 9  166 350 
 OCA  SZ I        1252 28.69         6.9 0.18                           166 350 
                                                                                
