 2011  127 1032 29.5 L   6.731 -73.365146.0  RSN  5 0.4 1.4LRSN                1
 GAP=196        0.72       5.7    29.0 10.2 -0.3767E+02  0.3465E+02 -0.2220E+02E
 Epicentro: GALAN - SANTANDER                                                  3
 ACTION:UP  11-02-08 08:43 OP:pat  STATUS:               ID:20110127103229 L   I
 2011-01-27-1029-45S.COL___138                                                 6
 STAT SP IPHASW D HRMM SECON CODA AMPLIT PERI AZIMU VELO SNR AR TRES W  DIS CAZ7
 BTL  SZ EP   2   1032 50.04                             170     0.9 5   23  27 
 BTL  SZ ES   2   1033  4.31                             170    -0.2 5   23  27 
 BAR2 SZ EP       1032 48.84                             169    -0.310   25 128 
 BAR2 SZ I        1032 49.40         7.3 0.58                            25 128 
 RUS  HZ EP       1032 53.18                             144     0.110   98 161 
 RUS  HN ES   1   1033 11.51                             144     0.1 7   98 161 
 RUS  HZ I        1033 13.92         2.7 0.34                            98 161 
 GRA  SZ EP       1032 56.16                             133     0.0 9  142  26 
 CHI  HZ EP   3   1033  4.89                             118    -0.9 2  236 190 
 CHI  HN ES   3   1033 34.83                             118     0.7 2  236 190 
 CHI  HZ I        1033 40.60         1.7 0.58                           236 190 
                                                                                
