 2011  427 1307  4.2 L   6.772 -73.105139.9  RSN  5 0.2 1.7LRSN                1
 GAP=161        0.57       3.9     5.1  6.0 -0.5315E-01 -0.7814E+00 -0.3725E+01E
 Epicentro: LOS SANTOS - SANTANDER                                             3
 ACTION:UP  11-06-22 15:33 OP:REBC STATUS:               ID:20110427130704 L   I
 2011-04-27-1300-00M.COL___137                                                 6
 STAT SP IPHASW D HRMM SECON CODA AMPLIT PERI AZIMU VELO SNR AR TRES W  DIS CAZ7
 BAR2 SZ EP       13 7 22.98                             171    -0.110   22 203 
 BAR2 SZ ES   1   13 7 37.53                             171    -0.3 7   22 203 
 BAR2 SZ I        13 7 39.03        15.5 0.21                            22 203 
 BRR  HZ EP       13 7 24.88                             150    -0.210   77 299 
 BRR  HE ES   1   13 7 41.67                             150     0.4 7   77 299 
 BRR  HZ I        13 7 46.25        19.3 0.14                            77 299 
 RUS  HZ EP   1   13 7 27.45                             144     0.3 7   97 179 
 RUS  HN ES   1   13 7 45.11                             144     0.1 7   97 179 
 RUS  HZ I        13 7 46.25         4.4 0.24                            97 179 
 BRI  SZ EP   1   13 7 27.69                             140     0.0 7  110  18 
 NOR  SN ES   1   13 8  7.44                             117    -0.1 6  237 236 
                                                                                
