 2015 1227 1515 51.0 L   7.486 -73.314120.2  RSN  9 0.4 2.2LRSN                1
 GAP=133        0.90       2.7     3.3  5.6  0.1133E+01  0.5650E+01  0.3096E+00E
 Epicentro: EL PLAYON - SANTANDER                                              3
 ACTION:UPD 16-02-04 15:08 OP:cam  STATUS:               ID:20151227151551 L   I
 OLDACT:REG 15-12-27 20:50 OP:cara STATUS:               ID:20151227150751     3
 2015-12-27-1507-51M.COL___334                                                 6
 STAT SP IPHASW D HRMM SECON CODA AMPLIT PERI AZIMU VELO AIN AR TRES W  DIS CAZ7
 BRR  HZ IP     C 1516  8.96                             151    0.1810 60.7 226 
 BRR  HN ES       1516 22.81                             151    0.1510 60.7 226 
 BRR  HZ I        1516 23.29        31.7 0.34            149           60.7 226 
 PAM  EZ EP       1516 10.50                             148    0.4610 69.7 103 
 PAM  EN ES       1516 25.30                             148    0.4010 69.7 103 
 PAM  EZ I        1516 26.99        20.3 0.50            151           69.7 103 
 BAR2 EZ EP       1516 11.83                             138   -0.0810 99.9 172 
 BAR2 EZ ES       1516 27.79                             138   -0.4410 99.9 172 
 BAR2 EZ I        1516 28.89        43.8 0.18            137           99.9 172 
 PTB  HZ EP       1516 17.29                             122   -0.35 9  164 230 
 PTB  HE ES       1516 38.08                             122   -0.35 9  164 230 
 PTB  HZ I        1516 40.77        14.9 0.16            122            164 230 
 SML  HZ EP       1516 17.86                             122   -0.14 9  168 330 
 SML  HN ES       1516 38.43                             122   -0.64 9  168 330 
 ZAR  HZ EP       1516 18.79                             121    0.49 9  170 270 
 ZAR  HN ES       1516 39.91                             121    0.30 9  170 270 
 ZAR  HZ I        1516 45.16        19.9 0.24            121            170 270 
 RUS  HZ EP       1516 19.53                             120   -0.20 9  178 172 
 RUS  HN ES       1516 41.63                             120   -0.52 9  178 172 
 SPBC HZ EP       1516 23.56                             114   -0.15 8  219 203 
 SPBC HN ES       1516 49.39                             114    0.16 8  219 203 
 SPBC HZ I        1516 57.65        16.1 0.10            114            219 203 
 NOR  HZ EP       1516 30.17                             109    0.37 8  273 219 
 NOR  HN ES       1517  0.53                             109    0.47 8  273 219 
 NOR  HZ I        1517  5.51        10.4 0.18            109            273 219 
                                                                                
