 2015  127 1002  5.5 L   6.811 -73.140145.3  RSN 10 0.3 1.5LRSN                1
 GAP=137        0.72       2.6     3.3  4.8 -0.1975E+00  0.2582E+01  0.1266E+01E
 Epicentro: LOS SANTOS - SANTANDER                                             3
 ACTION:UPD 15-03-02 15:42 OP:nd   STATUS:               ID:20150127100205 L   I
 OLDACT:REG 15-01-27 18:47 OP:spq  STATUS:               ID:20150127095746     3
 2015-01-27-0957-46M.COL___280                                                 6
 STAT SP IPHASW D HRMM SECON CODA AMPLIT PERI AZIMU VELO AIN AR TRES W  DIS CAZ7
 BAR2 EZ EP       10 2 24.94                             170   -0.1910 24.6 191 
 BAR2 EZ ES   1   10 2 40.32                             170   -0.10 7 24.6 191 
 BAR2 EZ I        10 2 41.99         3.6 0.14            169           24.6 191 
 BRR  HZ EP   1   10 2 26.68                             152    0.05 7 71.1 297 
 BRR  HN ES       10 2 43.69                             152    0.6110 71.1 297 
 BRR  HZ I        10 2 48.09         7.8 0.23            151           71.1 297 
 PAM  SZ EP     C 10 2 27.82                             151    0.2010 76.1  40 
 PAM  SN ES       10 2 44.70                             151   -0.1510 76.1  40 
 PAM  SZ I        10 2 46.69         9.2 0.56            155           76.1  40 
 RUS  HZ EP   1   10 2 29.54                             143    0.22 7  102 176 
 RUS  HE ES   1   10 2 47.65                             143   -0.23 7  102 176 
 RUS  HZ I        10 2 49.15         4.6 0.18            145            102 176 
 PTB  HE ES   1   10 2 53.27                             132   -0.33 7  149 258 
 PTB  HZ I        10 2 55.12         3.9 0.44            132            149 258 
 SPBC HZ EP   1   10 2 34.41                             129    0.29 7  164 219 
 SPBC HN ES       10 2 55.95                             129   -0.47 9  164 219 
 SPBC HZ I        10 2 59.76         6.0 0.13            129            164 219 
 ZAR  HZ EP   1   10 2 38.28                             122    0.33 6  204 292 
 ZAR  HE ES       10 3  3.27                             122    0.03 9  204 292 
 ZAR  HZ I        10 3  9.48         3.6 0.40            123            204 292 
 SML  HZ EP   1   10 2 41.50                             117   -0.54 6  243 335 
 SML  HE ES   1   10 3  9.92                             117   -0.59 6  243 335 
 CHI  HZ EP       10 2 43.47                             117    0.12 8  250 195 
 CHI  HN ES   1   10 3 13.26                             117    0.42 6  250 195 
 CHI  HZ I        10 3 18.37         1.5 0.32            118            250 195 
 GUY2CHZ EP   4   10 2 51.29                             112    2.04 0  302 235 
 GUY2CHE ES   4   10 3 25.46                             112    2.11 0  302 235 
 GUY2CHZ I        10 3 34.47         1.5 0.60                           302 235 
                                                                                
