 2016  527 1120  0.8 L   6.808 -73.124150.0  RSN 19 0.5 2.7LRSN                1
 GAP=139        1.16       3.4     4.4  5.7 -0.4156E+01  0.7951E+01  0.2567E+01E
 Epicentro: LOS SANTOS - SANTANDER                                             3
 ACTION:UPD 16-08-18 17:49 OP:cam  STATUS:               ID:20160527112000 L   I
 OLDACT:UP  16-06-01 05:07 OP:dnl  STATUS:               ID:20160527112000 L   3
 OLDACT:REG 16-05-27 20:19 OP:ar   STATUS:               ID:20160527111745     3
 2016-05-27-1117-45M.COL___311                                                 6
 STAT SP IPHASW D HRMM SECON CODA AMPLIT PERI AZIMU VELO AIN AR TRES W  DIS CAZ7
 BAR2 EZ EP     D 1120 20.95                             170   -0.0410 24.7 195 
 BAR2 EZ ES       1120 36.64                             170   -0.0810 24.7 195 
 BAR2 EZ I        1120 38.78       107.0 0.30            169           24.7 195 
 BRR  HZ EP       1120 22.79                             153    0.2710 72.9 297 
 BRR  HE ES       1120 39.90                             153    0.4410 72.9 297 
 BRR  HZ I        1120 43.95        71.3 0.26            150           72.9 297 
 PAM  EZ EP     C 1120 23.74                             152    0.3810 75.2  39 
 PAM  EN ES       1120 41.03                             152    0.0810 75.2  39 
 PAM  EZ I        1120 44.05        50.8 0.34            154           75.2  39 
 RUS  HZ EP     D 1120 24.92                             144   -0.1210  101 177 
 RUS  HN ES       1120 43.69                             144   -0.2410  101 177 
 RUS  HZ I        1120 44.87        42.2 0.28            146            101 177 
 PTB  HZ EP       1120 27.64                             132   -0.72 9  150 259 
 PTB  HN ES       1120 49.01                             132   -0.83 9  150 259 
 PTB  HZ I        1120 51.35        42.4 0.16            131            150 259 
 OCA  HZ EP       1120 29.10                             131   -0.31 9  160 352 
 OCA  HN ES       1120 51.81                             131    0.09 9  160 352 
 OCA  HZ I        1120 54.58        80.8 0.16            131            160 352 
 SPBC HZ EP       1120 29.93                             130    0.08 9  165 219 
 SPBC HE ES       1120 52.38                             130   -0.11 9  165 219 
 SPBC HZ I        1120 56.86        65.9 0.16            129            165 219 
 NOR  HZ EP       1120 37.10                             119    0.04 8  237 235 
 NOR  HN ES       1121  4.82                             119   -0.50 8  237 235 
 NOR  HZ I        1121 10.52        28.8 0.24            119            237 235 
 CHI  HZ EP       1120 39.28                             118    0.37 8  250 196 
 CHI  HN ES       1121  8.57                             118   -0.05 8  250 196 
 CHI  HZ I        1121 13.82        18.7 0.30            118            250 196 
 ROSC BZ EP   4   1120 41.28                             117    1.89 0  255 211 
 ROSC BN ES   4   1121 11.73                             117    2.26 0  255 211 
 ROSC BZ I        1121 15.66        63.6 0.40            118            255 211 
 HEL  HZ EP   2   1120 42.22                             115    0.69 4  275 256 
 HEL  HN ES       1121 15.32                             115    2.04 8  275 256 
 HEL  HZ I        1121 21.29        19.6 0.36            115            275 256 
 URE  HZ EP       1120 41.48                             114   -0.83 7  286 292 
 URE  HN ES   4   1121 11.64                             114   -3.03 0  286 292 
 URE  HZ I        1121 19.30        18.4 0.16            114            286 292 
 CBOC HZ EP   2   1120 48.60                             110    0.40 3  336 252 
 CBOC HN ES       1121 25.28                             110    0.12 7  336 252 
 DBB  SZ EP       1120 48.25                             110   -0.49 7  342 274 
 DBB  SZ ES   4   1121 24.50                             110   -1.61 0  342 274 
 DBB  SZ I        1121 28.63        50.1 0.46            110            342 274 
 ANIL HZ EP   4   1120 52.04                             109    0.99 0  360 225 
 ANIL HN ES   4   1121 31.69                             109    1.46 0  360 225 
 PRA  HZ EP       1120 54.74                             107    0.03 6  394 210 
 PRA  HE ES       1121 37.34                             107    0.59 6  394 210 
 PRA  HZ I        1121 43.23        25.9 0.40            107            394 210 
 ORTC HZ EP       1120 55.58                             107    0.45 6  398 216 
 ORTC HN ES       1121 38.03                             107    0.54 6  398 216 
 ORTC HZ I        1121 44.85        12.7 0.38            107            398 216 
 PAL  HZ EP   2   1120 56.36                             106   -0.05 3  408 239 
 PAL  HN ES       1121 38.98                             106   -0.80 6  408 239 
 PAL  HZ I        1121 42.92         4.6 0.18            107            408 239 
 SJC  HZ EP   4   1120 55.16                             106   -1.43 0  410 327 
 SJC  HE ES   4   1121 36.18                             106   -3.92 0  410 327 
 SJC  HZ I        1121 50.72         7.6 0.78            107            410 327 
 CRJC HZ EP   4   1121  1.33                             104   -1.99 0  467   3 
 CRJC HE ES   4   1121 48.63                             104   -3.44 0  467   3 
 CRJC HZ I        1121 59.72         9.1 0.20            104            467   3 
                                                                                
