 2010  327 1119 36.6 L   6.809 -73.071145.1  RSN  4 0.2 1.3LRSN                1
 GAP=246        0.40       6.9    11.1  5.8  0.5933E+02 -0.2261E+02 -0.6303E+01E
 Epicentro: LOS SANTOS - SANTANDER                                             3
 ACTION:UP  10-08-24 09:56 OP:vdl  STATUS:               ID:20100327111936 L   I
 2010-03-27-1117-04S.COL___098                                                 6
 STAT SP IPHASW D HRMM SECON CODA AMPLIT PERI AZIMU VELO SNR AR TRES W  DIS CAZ7
 BAR2 SZ IP       1119 56.16                             169     0.010   27 207 
 BAR2 SZ ES   2   1120 11.17                             169    -0.3 5   27 207 
 BRR  HZ EP   1   1119 58.11                             150     0.1 7   78 295 
 BRR  HE ES   1   1120 14.82                             150     0.0 7   78 295 
 BRR  HZ I        1120 18.24         8.7 0.14                            78 295 
 RUS  HZ EP   2   1120  0.45                             143     0.2 5  101 181 
 RUS  HN ES   2   1120 19.07                             143     0.3 5  101 181 
 RUS  HZ I        1120 20.38         1.7 0.24                           101 181 
 CHI  HZ EP   2   1120 14.24                             116    -0.3 4  252 197 
                                                                                
