 2010 1127 1957 43.2 L   6.787 -73.094144.9  RSN 13 0.4 2.4LRSN                1
 GAP=164        0.84       3.1     5.7  6.0 -0.6567E+01  0.5424E+01  0.2699E+01E
 Epicentro: LOS SANTOS - SANTANDER                                             3
 ACTION:UP  10-12-17 16:55 OP:REBC STATUS:               ID:20101127195743 L   I
 2010-11-27-1952-07S.COL___132                                                 6
 STAT SP IPHASW D HRMM SECON CODA AMPLIT PERI AZIMU VELO SNR AR TRES W  DIS CAZ7
 BAR2 SZ EP   1   1958  2.71                             170    -0.1 7   24 205 
 BAR2 SZ ES   1   1958 17.99                             170     0.0 7   24 205 
 BAR2 SZ I        1958 20.51        72.0 0.42                            24 205 
 BTL  SZ IP       1958  2.96                             170     0.210   24 307 
 BRR  HZ IP     C 1958  4.49                             151    -0.110   77 297 
 BRR  HZ I        1958  4.73        80.6 0.10                            77 297 
 BRR  HE ES   1   1958 21.33                             151     0.0 7   77 297 
 RUS  HZ IP     D 1958  6.74                             144     0.010   99 179 
 RUS  HN ES   1   1958 24.99                             144    -0.2 7   99 179 
 RUS  HZ I        1958 26.95        26.3 0.18                            99 179 
 GRA  SZ IP       1958  8.50                             137     0.110  126  15 
 GRA  SZ ES   1   1958 28.29                             137     0.3 7  126  15 
 GRA  SZ I        1958 28.95        28.1 0.49                           126  15 
 OCA  SZ EP   1   1958 11.04                             129    -0.6 7  162 351 
 OCA  SZ ES   1   1958 33.88                             129     0.0 7  162 351 
 OCA  SZ I        1958 37.64        33.8 0.31                           162 351 
 NOR  SZ EP   1   1958 18.85                             118    -0.5 6  239 236 
 NOR  SN ES   1   1958 46.91                             118    -0.6 6  239 236 
 CHI  HZ EP   1   1958 20.97                             117     0.1 6  249 197 
 CHI  HE ES   1   1958 49.64                             117    -0.6 6  249 197 
 CHI  HZ I        1958 56.50        20.1 0.41                           249 197 
 ROSC BZ EP   1   1958 22.68                             116     1.2 6  255 212 
 ROSC BN ES   1   1958 52.20                             116     0.9 6  255 212 
 ROSC BZ I        1958 56.86        22.0 0.30                           255 212 
 HEL  HZ EP   2   1958 23.72                             114    -0.3 4  277 256 
 HEL  HN ES   2   1958 56.38                             114     0.6 4  277 256 
 HEL  HZ I        1959  2.88        15.9 0.48                           277 256 
 GUY  SZ EP   2   1958 26.65                             112    -0.6 4  305 236 
 GUY  SN ES   2   1959  1.94                             112     0.3 4  305 236 
 RREF HZ EP   2   1958 30.27                             110     0.5 3  325 230 
 PRA  HZ EP   1   1958 36.82                             106    -0.1 4  394 210 
                                                                                
