 2012  827 1330 29.0 L   6.839 -73.162140.0  RSN  8 0.4 2.1LRSN                1
 GAP=133        0.75       5.2     4.2  8.9 -0.7483E+00  0.1148E+02  0.1732E+02E
 Epicentro: LOS SANTOS - SANTANDER                                             3
 ACTION:UPD 12-09-10 11:58 OP:ep   STATUS:               ID:20120827133029 L   I
 2012-08-27-1330-00M.COL___218                                                 6
 STAT SP IPHASW D HRMM SECON CODA AMPLIT PERI AZIMU VELO AIN AR TRES W  DIS CAZ7
 GIR2 SZ EP       1330 47.84                             168    0.0210 26.8 353 
 BAR2 SZ EP       1330 48.03                             168    0.0510 27.3 185 
 BAR2 SZ I        1331  7.55        16.2 0.32                          27.3 185 
 BRR  HZ EP       1330 49.45                             152    0.1710 67.6 296 
 BRR  HN ES   3   1331  6.36                             152    1.23 2 67.6 296 
 BRR  HZ I        1331  9.79        36.7 0.14                          67.6 296 
 PAM  SZ EP       1330 50.12                             150   -0.3210 75.4  43 
 PAM  SN ES   1   1331  7.22                             150    0.03 7 75.4  43 
 PAM  SZ I        1331  9.26        24.3 0.54                          75.4  43 
 RUS  HN ES   3   1331 11.15                             141    0.33 2  105 175 
 PTB  HZ EP       1330 54.82                             130   -0.55 9  147 257 
 PTB  HN ES   1   1331 15.81                             130   -0.17 7  147 257 
 PTB  HZ I        1331 22.49        13.7 0.18                           147 257 
 ZAR  HZ EP       1331  1.30                             121    0.61 9  201 291 
 ZAR  HN ES   1   1331 25.19                             121   -0.25 6  201 291 
 ZAR  HZ I        1331 30.55        43.2 0.34                           201 291 
 CHI  HZ EP       1331  7.16                             115    0.42 8  252 195 
 CHI  HZ I        1331  9.37         4.0 0.14                           252 195 
 CHI  HN ES   2   1331 35.77                             115   -0.45 4  252 195 
                                                                                
