 2010  127 1807 17.1 L   6.811 -73.029143.1  RSN  6 0.2 2.1LRSN                1
 GAP=215        0.41       3.5     7.4  4.2 -0.6729E+01  0.9134E+01  0.1276E+01E
 Epicentro: CEPITA - SANTANDER                                                 3
 ACTION:UP  10-08-24 09:46 OP:vdl  STATUS:               ID:20100127180717 L   I
 2010-01-27-1805-51S.COL___095                                                 6
 STAT SP IPHASW D HRMM SECON CODA AMPLIT PERI AZIMU VELO SNR AR TRES W  DIS CAZ7
 BAR2 SZ IP       18 7 36.55                             168     0.010   30 215 
 BAR2 SZ ES   1   18 7 51.55                             168    -0.2 7   30 215 
 GIR2 SZ EP       18 7 36.65                             166     0.110   35 328 
 GIR2 SZ ES   2   18 7 51.69                             166     0.0 5   35 328 
 RUS  BZ EP   1   18 7 40.48                             143    -0.2 7  102 183 
 RUS  BE ES   1   18 7 59.32                             143     0.3 7  102 183 
 RUS  BZ I        18 8  0.20        23.2 0.29                           102 183 
 CHI  HZ EP   2   18 7 55.18                             116     0.0 4  253 198 
 CHI  HZ I        18 8 27.82         6.9 0.79                           253 198 
 RREF BZ EP   2   18 8  4.60                             110     0.2 3  332 231 
 RREF BN ES   2   18 8 41.54                             110     0.3 3  332 231 
 PRA  HZ EP   2   18 8 11.43                             106     0.0 3  400 211 
 PRA  HE ES   2   18 8 52.97                             106    -0.8 3  400 211 
                                                                                
