 2015  127 1107 33.9 L   6.792 -73.166146.5  RSN  9 0.3 1.5LRSN                1
 GAP=134        0.60       2.7     3.5  4.9 -0.3214E+01  0.6697E+01 -0.3684E+00E
 Epicentro: LOS SANTOS - SANTANDER                                             3
 ACTION:UPD 15-03-02 15:42 OP:nd   STATUS:               ID:20150127110733 L   I
 OLDACT:REG 15-01-27 19:05 OP:spq  STATUS:               ID:20150127105744     3
 2015-01-27-1057-44M.COL___278                                                 6
 STAT SP IPHASW D HRMM SECON CODA AMPLIT PERI AZIMU VELO AIN AR TRES W  DIS CAZ7
 BAR2 EZ EP       11 7 53.44                             171   -0.1310 22.1 185 
 BAR2 EZ ES   1   11 8  9.03                             171    0.10 7 22.1 185 
 BAR2 EZ I        11 8 11.76         7.9 0.32            170           22.1 185 
 BRR  HZ EP       11 7 55.38                             153    0.3610 69.7 300 
 PAM  SZ EP       11 7 56.31                             150    0.0210 79.5  40 
 PAM  SE ES       11 8 13.68                             150   -0.1010 79.5  40 
 PAM  SZ I        11 8 15.85         4.6 0.58            154           79.5  40 
 RUS  HZ EP       11 7 57.59                             144   -0.0610 99.9 175 
 RUS  HE ES   1   11 8 16.18                             144   -0.00 7 99.9 175 
 RUS  HZ I        11 8 16.99         4.1 0.20            146           99.9 175 
 PTB  HZ EP       11 8  0.44                             133   -0.25 9  145 259 
 PTB  HE ES   1   11 8 21.97                             133    0.37 7  145 259 
 PTB  HZ I        11 8 23.47         7.5 0.12            134            145 259 
 NOR  HZ EP   1   11 8 10.07                             119    0.68 6  232 234 
 NOR  HE ES       11 8 36.62                             119   -0.48 8  232 234 
 NOR  HZ I        11 8 42.15         2.6 0.40            120            232 234 
 SML  HZ EP   1   11 8 10.40                             117   -0.13 6  244 336 
 SML  HE ES   2   11 8 38.73                             117   -0.39 4  244 336 
 CHI  HZ EP   1   11 8 11.76                             117    0.30 6  247 195 
 CHI  HN ES   1   11 8 40.60                             117   -0.17 6  247 195 
 CHI  HZ I        11 8 43.97         1.6 0.42            119            247 195 
 GUY2CHZ EP   4   11 8 18.77                             113    1.52 0  299 235 
 GUY2CHE ES   4   11 8 54.35                             113    3.27 0  299 235 
 GUY2CHZ I        11 8 57.41         1.7 0.58                           299 235 
                                                                                
