 2012 1227 1833 12.9 L   6.718 -73.178159.1  RSN  5 0.2 1.7LRSN                1
 GAP=227        0.46       4.1     3.6  5.6  0.2164E+01  0.4228E+00  0.1104E+00E
 Epicentro: VILLANUEVA - SANTANDER                                             3
 ACTION:UPD 13-01-04 14:30 OP:ep   STATUS:               ID:20121227183314 L   I
 2012-12-27-1830-00M.COL___243                                                 6
 STAT SP IPHASW D HRMM SECON CODA AMPLIT PERI AZIMU VELO AIN AR TRES W  DIS CAZ7
 BAR2 SZ EP       1833 33.70                             175   -0.2510 13.9 182 
 BAR2 SZ I        1833 50.16        13.2 0.35                          13.9 182 
 BRR  HZ EP   1   1833 35.76                             154    0.21 7 73.0 306 
 BRR  HZ I        1833 51.33        14.5 0.49                          73.0 306 
 BRR  HE ES   1   1833 53.40                             154    0.15 7 73.0 306 
 RUS  HZ EP   1   1833 37.68                             149    0.31 7 91.9 173 
 RUS  HN ES   1   1833 56.44                             149   -0.04 7 91.9 173 
 RUS  HN I        1833 58.02         5.8 0.29                          91.9 173 
 PTB  HZ EP       1833 40.41                             136   -0.09 9  143 262 
 PTB  HN ES   1   1834  1.92                             136   -0.15 7  143 262 
 PTB  HZ I        1834  5.11         4.2 0.16                           143 262 
 NOR  HN ES   1   1834 16.51                             122    0.13 6  227 236 
                                                                                
