 2017  527 1508 58.3 L   6.718 -73.119140.0  RSN  6 0.4 1.7LRSN                1
 GAP=234        0.81       5.0     6.1  8.4  0.1540E+02  0.1091E+02  0.4695E+01E
 Epicentro: JORDAN - SANTANDER                                                 3
 ACTION:UPD 17-06-16 13:39 OP:jn   STATUS:               ID:20170527150858 L   I
 OLDACT:UP  17-05-28 02:07 OP:dnl  STATUS:               ID:20170527145744d    3
 OLDACT:UP  17-05-28 02:07 OP:dnl  STATUS:               ID:20170527145744d    3
 OLDACT:DUP 17-05-28 02:05 OP:dnl  STATUS:               ID:20170527145744d    3
 OLDACT:UP  17-05-28 02:04 OP:dnl  STATUS:               ID:20170527145743d    3
 OLDACT:DUP 17-05-28 02:00 OP:dnl  STATUS:               ID:20170527145743d    3
 OLDACT:UP  17-05-28 01:59 OP:dnl  STATUS:               ID:20170527145742     3
 OLDACT:REG 17-05-27 23:14 OP:dnl  STATUS:               ID:20170527145742     3
 2017-05-27-1458-00M.COL___350                                                 6
 STAT SP IPHASW D HRMM SECON CODA AMPLIT PERI AZIMU VELO AIN AR TRES W  DIS CAZ7
 BRR  HZ IP     C 15 9 18.64                             149   -0.6310 78.4 303 
 BRR  HN ES       15 9 35.72                             149    0.1010 78.4 303 
 BRR  HZ I        15 9 39.56        17.5 0.42            146           78.4 303 
 RUS  HZ EP       15 9 21.06                             146    0.2310 91.4 178 
 RUS  HN ES       15 9 38.52                             146    0.1210 91.4 178 
 RUS  HZ I        15 9 40.93         4.2 0.30            142           91.4 178 
 PTB  HZ EP   4   15 9 23.60                             131   -1.35 0  149 262 
 PTB  HN ES   4   15 9 44.52                             131   -1.20 0  149 262 
 PTB  HZ I        15 9 50.29         5.6 0.52            127            149 262 
 ZAR  HZ EP   2   15 9 31.72                             120    0.68 4  210 294 
 ZAR  HE ES       15 9 56.95                             120    0.37 8  210 294 
 ZAR  HZ I        15 9 59.96         5.0 0.32            120            210 294 
 NOR  HE ES       1510  0.51                             118   -0.30 8  232 237 
 NOR  HZ I        1510  9.40         3.3 0.24            116            232 237 
 CHI  HZ EP   2   15 9 34.81                             117   -0.02 4  241 196 
 CHI  HN ES   4   1510  4.69                             117    1.38 0  241 196 
 CHI  HZ I        1510  8.34         3.4 0.26            117            241 196 
                                                                                
