 2012  727 1705 26.9 L   6.792 -73.142145.5  RSN  8 0.4 2.2LRSN                1
 GAP=137        0.97       5.0     5.2  7.4  0.2525E-01  0.8306E+01 -0.1095E+01E
 Epicentro: LOS SANTOS - SANTANDER                                             3
 ACTION:UPD 12-08-14 11:45 OP:ep   STATUS:               ID:20120727170526 L   I
 2012-07-27-1700-00M.COL___215                                                 6
 STAT SP IPHASW D HRMM SECON CODA AMPLIT PERI AZIMU VELO AIN AR TRES W  DIS CAZ7
 BAR2 SZ EP       17 5 46.57                             171     0.110   23 191 
 BAR2 SZ ES   1   17 6  1.54                             171    -0.2 7   23 191 
 BAR2 SZ I        17 6  4.46        39.9 0.43            167             23 191 
 BRR  HZ EP       17 5 48.32                             152     0.310   72 299 
 BRR  HZ I        17 5 48.47        48.8 0.22            150             72 299 
 BRR  HN ES   1   17 6  5.31                             152     0.8 7   72 299 
 PAM  SZ EP       17 5 49.39                             151     0.310   78  39 
 PAM  SN ES   1   17 6  5.94                             151    -0.5 7   78  39 
 RUS  HZ EP       17 5 50.62                             144     0.110  100 176 
 RUS  HN ES   1   17 6  8.98                             144     0.0 7  100 176 
 RUS  HZ I        17 6 10.65        22.7 0.34            146            100 176 
 PTB  HZ EP       17 5 53.33                             132    -0.5 9  148 259 
 PTB  HN ES   1   17 6 14.21                             132    -0.7 7  148 259 
 PTB  HZ I        17 6 21.63        11.0 0.31            131            148 259 
 OCA  HZ EP   1   17 5 54.62                             129    -0.6 7  161 353 
 OCA  HN ES   2   17 6 16.90                             129    -0.5 5  161 353 
 ZAR  HZ EP   1   17 5 59.77                             122     0.4 6  205 292 
 ZAR  HN ES   1   17 6 24.90                             122     0.2 6  205 292 
 ZAR  HZ I        17 6 30.44        18.8 0.32            123            205 292 
 NOR  SZ EP   1   17 6  2.65                             118     0.1 6  234 235 
