 2011  727 1150 18.5 L   6.797 -73.065139.8  RSN  9 0.3 2.6LRSN                1
 GAP=147        0.60       2.2     3.9  4.3 -0.3108E+01  0.5166E+01 -0.2540E+00E
 Epicentro: LOS SANTOS - SANTANDER                                             3
 ACTION:UPD 12-07-25 14:03 OP:epov STATUS:               ID:20110727115018 L   I
 2011-07-27-1149-12S.COL___143                                                 6
 STAT SP IPHASW D HRMM SECON CODA AMPLIT PERI AZIMU VELO AIN AR TRES W  DIS CAZ7
 BAR2 SZ EP       1150 37.56                             169    0.0810 26.0 210 
 BAR2 SZ ES   1   1150 52.24                             169   -0.03 7 26.0 210 
 BAR2 SZ I        1150 53.65        82.6 0.27                          26.0 210 
 PAM  SZ EP   1   1150 40.39                             151    0.60 7 72.4  34 
 PAM  SN ES   1   1150 56.87                             151    0.49 7 72.4  34 
 BRR  HZ EP       1150 39.33                             149   -0.1710 79.3 296 
 BRR  HN ES   1   1150 56.06                             149    0.18 7 79.3 296 
 BRR  HZ I        1150 56.98       129.1 0.09                          79.3 296 
 RUS  HZ EP   1   1150 41.61                             143   -0.02 7  100 181 
 RUS  HN ES       1150 59.45                             143   -0.2210  100 181 
 RUS  HZ I        1151  2.17        24.6 0.20                           100 181 
 BRI  SZ EP   1   1150 41.81                             141    0.17 7  106  16 
 BRI  SZ ES   1   1150 59.60                             141   -0.08 7  106  16 
 BRI  SZ I        1151  5.59        64.6 0.39                           106  16 
 GRA  SZ EP   1   1150 43.10                             136    0.05 7  124  13 
 GRA  SZ ES       1151  1.90                             136   -0.2910  124  13 
 GRA  SZ I        1151  3.97        55.1 0.36                           124  13 
 OCA  SZ EP   1   1150 46.16                             128   -0.36 7  162 350 
 OCA  SZ ES   1   1151  8.06                             128   -0.31 7  162 350 
 OCA  SZ I        1151 10.98        53.5 0.14                           162 350 
 HEL  HZ EP   1   1150 59.98                             113    0.60 6  281 256 
 HEL  HN ES   1   1151 31.43                             113    0.17 6  281 256 
 PRA  HZ EP   1   1151 11.95                             105   -0.37 4  396 211 
 PRA  HN ES   1   1151 54.08                             105   -0.20 4  396 211 
                                                                                
