 2015  427 1250 14.3 L   6.789 -73.175139.8  RSN 12 0.5 2.2LRSN                1
 GAP=198        1.19       3.7     5.4  6.8  0.3103E+01  0.6899E+01 -0.3293E+00E
 Epicentro: LOS SANTOS - SANTANDER                                             3
 ACTION:UPD 15-06-03 16:58 OP:cam  STATUS:               ID:20150427125014 L   I
 OLDACT:REG 15-04-27 20:38 OP:ak   STATUS:               ID:20150427124750     3
 2015-04-27-1247-50M.COL___274                                                 6
 STAT SP IPHASW D HRMM SECON CODA AMPLIT PERI AZIMU VELO AIN AR TRES W  DIS CAZ7
 BAR2 EZ IP     C 1250 33.21                             171    0.0510 21.8 182 
 BAR2 EZ ES       1250 47.41                             171   -0.4810 21.8 182 
 BAR2 EZ I        1250 49.30        40.7 0.26            170           21.8 182 
 BRR  HZ EP       1250 35.13                             152    0.4710 69.0 301 
 BRR  HN ES       1250 51.64                             152    1.0910 69.0 301 
 BRR  HZ I        1251  1.04        21.5 0.35            151           69.0 301 
 RUS  HZ EP       1250 36.93                             143   -0.4510 99.7 174 
 RUS  HE ES   2   1250 54.99                             143   -0.41 5 99.7 174 
 RUS  HZ I        1250 57.26        14.4 0.32            147           99.7 174 
 PTB  HZ EP       1250 40.40                             131   -0.05 9  144 259 
 PTB  HN ES       1251  0.01                             131   -0.85 9  144 259 
 PTB  HZ I        1251  3.70        23.9 0.14            132            144 259 
 SPBC HZ EP       1250 42.39                             128    0.35 9  160 218 
 SPBC HN ES       1251  4.11                             128    0.42 9  160 218 
 ZAR  HZ EP       1250 46.38                             121    0.30 9  202 293 
 ZAR  HN ES       1251 11.05                             121    0.17 9  202 293 
 ZAR  HZ I        1251 17.86        18.0 0.21            123            202 293 
 NOR  HZ EP       1250 49.73                             118    0.42 8  231 234 
 NOR  HN ES       1251 16.61                             118   -0.02 8  231 234 
 NOR  HZ I        1251 22.74        17.8 0.44            120            231 234 
 SML  HZ EP       1250 50.13                             116   -0.42 8  243 336 
 SML  HE ES       1251 18.37                             116   -0.47 8  243 336 
 SML  HZ I        1251 22.90        21.1 0.10            119            243 336 
 CHI  HZ EP   1   1250 51.79                             116    0.35 6  247 195 
 CHI  HN ES       1251 19.98                             116   -0.44 8  247 195 
 CHI  HZ I        1251 23.99         5.3 0.32            120            247 195 
 HEL  HZ EP       1250 54.37                             114    0.56 8  269 256 
 HEL  HN ES       1251 24.13                             114   -0.51 8  269 256 
 HEL  HZ I        1251 32.38        10.8 0.38            116            269 256 
 MON  HZ EP   4   1251  0.21                             108   -2.64 0  352 309 
 MON  HN ES       1251 39.92                             108   -0.81 6  352 309 
 MON  HZ I        1251 42.33         3.6 0.25            110            352 309 
 SJC  HZ EP   4   1251  8.17                             105   -1.40 0  408 327 
 SJC  HN ES   4   1251 49.56                             105   -3.12 0  408 327 
 SJC  HZ I        1251 53.63         5.0 0.56            107            408 327 
                                                                                
