 2015 1027 1006 13.9 L   6.823 -73.122151.7  RSN 27 0.4 2.7LRSN                1
 GAP=120        0.83       2.0     3.8  3.9 -0.7299E+00  0.4052E+01  0.3421E+00E
 Epicentro: LOS SANTOS - SANTANDER                                             3
 ACTION:UPD 15-12-22 20:43 OP:cam  STATUS:               ID:20151027100613 L   I
 OLDACT:REG 15-10-27 22:11 OP:ar   STATUS:               ID:20151027095744     3
 2015-10-27-0957-44M.COL___313                                                 6
 STAT SP IPHASW D HRMM SECON CODA AMPLIT PERI AZIMU VELO AIN AR TRES W  DIS CAZ7
 BAR2 EZ EP     D 10 6 34.26                             170   -0.0110 26.4 195 
 BAR2 EZ ES       10 6 49.97                             170   -0.2210 26.4 195 
 BAR2 EZ I        10 6 50.93        64.7 0.18            167           26.4 195 
 BRR  HZ IP     D 10 6 36.08                             153    0.3610 72.3 296 
 BRR  HZ EP     D 10 6 36.09                             153           72.3 296 
 BRR  HE ES       10 6 53.38                             153    0.6110 72.3 296 
 BRR  HZ I        10 6 57.13        53.2 0.30            147           72.3 296 
 PAM  EZ EP       10 6 37.26                             153    0.7510 73.8  39 
 PAM  EN ES       10 6 54.23                             153    0.0510 73.8  39 
 PAM  EZ I        10 6 56.34       111.8 0.50            154           73.8  39 
 RUS  HZ EP       10 6 38.52                             144    0.1510  103 178 
 RUS  HN ES       10 6 57.30                             144   -0.1910  103 178 
 RUS  HZ I        10 6 58.10        40.2 0.32            145            103 178 
 OCA  HZ EP       10 6 42.32                             131   -0.12 9  158 352 
 OCA  HN ES       10 7  4.23                             131   -0.50 9  158 352 
 OCA  HZ I        10 7  8.73        72.8 0.40            129            158 352 
 SPBC HZ EP       10 6 43.23                             130    0.07 9  167 219 
 SPBC HE ES       10 7  5.47                             130   -0.54 9  167 219 
 SPBC HZ I        10 7  7.82        66.2 0.36            128            167 219 
 ZAR  HZ EP       10 6 46.76                             123   -0.09 8  206 291 
 ZAR  HN ES   2   10 7 12.43                             123   -0.15 4  206 291 
 ZAR  HZ I        10 7 18.31        30.9 0.26            120            206 291 
 NOR  HN ES   4   10 7 21.64                             119    2.88 0  238 234 
 NOR  HZ I        10 7 22.29        64.6 0.38            117            238 234 
 SML  HZ EP       10 6 50.57                             119   -0.13 8  242 334 
 SML  HN ES       10 7 19.15                             119   -0.28 8  242 334 
 SML  HZ I        10 7 22.63        48.3 0.30            117            242 334 
 CHI  HZ EP       10 6 52.50                             118    0.27 8  252 196 
 CHI  HN ES       10 7 21.72                             118   -0.44 8  252 196 
 CHI  HZ I        10 7 25.28        23.6 0.42            117            252 196 
 ROSC BZ EP   4   10 6 54.30                             118    1.61 0  256 211 
 ROSC BN ES   2   10 7 23.02                             118    0.04 4  256 211 
 ROSC BZ I        10 7 27.92        37.5 0.40            116            256 211 
 HEL  HZ EP   4 C 10 7 13.48                             116   18.75 0  275 255 
 HEL  HN ES   4   10 7 25.88                             116   -0.72 0  275 255 
 HEL  HZ I        10 7 26.61       136.7 0.24            114            275 255 
 URE  HN ES   4   10 7 26.81                             115   -0.97 0  285 291 
 URE  HZ I        10 7 38.04        16.0 0.22            112            285 291 
 GUY2CHZ EP   4   10 6 59.92                             113    1.77 0  305 235 
 GUY2CHN ES   4   10 7 37.57                             113    4.87 0  305 235 
 GUY2CHZ I        10 7 39.25        33.6 0.22                           305 235 
 VIL  SZ EP   2   10 6 58.79                             113    0.90 4  306 192 
 VIL  SN ES   2   10 7 32.25                             113    0.01 4  306 192 
 VIL  SZ I        10 7 35.00       968.0 0.42            112            306 192 
 PTGC HZ EP       10 6 57.53                             113   -0.62 7  310 159 
 PTGC HN ES   4   10 7 31.06                             113   -1.64 0  310 159 
 PTGC HZ I        10 7 33.27        34.3 0.40            113            310 159 
 CBOC HE ES   4   10 7 43.09                             111    4.61 0  337 252 
 CBOC HZ I        10 7 43.59         9.2 0.18            109            337 252 
 DBB  SZ EP       10 7  1.71                             110   -0.15 7  342 274 
 DBB  SZ ES   4   10 7 37.07                             110   -2.23 0  342 274 
 DBB  SZ I        10 7 42.27        43.4 0.28            109            342 274 
 MON  HZ EP   9   10 7  1.38                             110   -1.77 0  354 308 
 MON  HN ES       10 7 39.76                                   -0.07 6  354 308 
 MON  HZ I        10 7 53.87         7.0 0.52            108            354 308 
 ARGC HZ EP   2   10 7  4.05                             109    0.47 3  358 340 
 ARGC HN ES   2   10 7 42.13                             109   -0.22 3  358 340 
 ARGC HZ I        10 7 55.97         6.9 0.38            108            358 340 
 ANIL HN ES   4   10 7 46.62                             109    2.95 0  361 225 
 ANIL HZ I        10 8  0.64        54.9 0.30            108            361 225 
 ORTC HZ EP       10 7  8.67                             107    0.26 6  399 216 
 ORTC HE ES       10 7 50.84                             107   -0.11 6  399 216 
 ORTC HZ I        10 7 51.44        12.5 0.12            106            399 216 
 SJC  HZ EP       10 7  8.46                             107   -1.08 6  409 326 
 SJC  HN ES   4   10 7 49.50                             107   -3.47 0  409 326 
 SJC  HZ I        10 7 57.04         5.3 0.42            105            409 326 
 PAL  HZ EP       10 7  9.93                             107    0.29 6  409 239 
 PAL  HN ES       10 7 54.06                             107    0.92 6  409 239 
 PAL  HZ I        10 7 57.92         6.1 0.70            106            409 239 
 CRJC HZ EP   4   10 7 14.53                             104   -1.68 0  465   3 
 CRJC HN ES   4   10 8  2.74                             104   -2.11 0  465   3 
 CRJC HZ I        10 8  9.55         9.4 0.22            104            465   3 
 MACC HZ EP   4   10 7 21.69                             102   -1.38 0  523 189 
 MACC HN ES   4   10 8 13.82                             102   -3.23 0  523 189 
 MACC HZ I        10 8 21.77         4.5 0.68            102            523 189 
 URI  HZ EP   4   10 7 25.00                             101   -1.64 0  554  13 
 URI  HE ES       10 8 23.34                             101   -0.06 4  554  13 
 URI  HZ I        10 8 34.02         2.1 0.70            101            554  13 
                                                                                
