 2012 1027 1730 46.2 L   6.754 -74.272 60.0  RSN  5 0.1 1.5LRSN                1
 GAP=196        0.35       5.5     2.9 10.7  0.1402E+02  0.2246E+02  0.4823E+02E
 Epicentro: PUERTO PARRA - SANTANDER                                           3
 ACTION:UPD 12-11-22 17:06 OP:ep   STATUS:               ID:20121027173046 L   I
 2012-10-27-1730-00M.COL___231                                                 6
 STAT SP IPHASW D HRMM SECON CODA AMPLIT PERI AZIMU VELO AIN AR TRES W  DIS CAZ7
 BRR  HZ EP       1730 59.47                             123   -0.0210 73.2  58 
 BRR  HE ES   1   1731  9.73                             123   -0.09 7 73.2  58 
 BRR  HZ I        1731 11.71        25.5 0.17                          73.2  58 
 ZAR  HZ EP       1731  2.75                             112   -0.1610  104 322 
 ZAR  HN ES       1731 16.04                             112    0.1210  104 322 
 ZAR  HZ I        1731 19.05         9.5 0.11                           104 322 
 BAR2 SZ EP   2   1731  5.47                             108    0.23 5  122  98 
 BAR2 SZ I        1731 21.54         7.9 0.30                           122  98 
 GIR2 SZ EP   1   1731  5.54                             108    0.11 7  124  73 
 RUS  HZ EP   2   1731 10.30                             103   -0.09 5  162 126 
 RUS  HN ES   2   1731 29.28                             103    0.06 5  162 126 
 RUS  HZ I        1731 31.20         2.7 0.23                           162 126 
                                                                                
