 2014  627 1402  7.0 L   6.808 -73.104149.2  RSN 13 0.5 2.4LRSN                1
 GAP=141        1.13       3.1     4.7  5.7 -0.2356E+01  0.9795E+01  0.2501E+01E
 Epicentro: LOS SANTOS - SANTANDER                                             3
 ACTION:UPD 14-07-01 22:57 OP:nd   STATUS:               ID:20140627140207 L   I
 OLDACT:REG 14-06-27 22:40 OP:carl STATUS:               ID:20140627135816     3
 2014-06-27-1358-16M.COL___262                                                 6
 STAT SP IPHASW D HRMM SECON CODA AMPLIT PERI AZIMU VELO AIN AR TRES W  DIS CAZ7
 BAR2 SZ IP     C 14 2 27.03                             170   -0.0210 25.4 200 
 BAR2 SZ ES       14 2 42.82                             170    0.1010 25.4 200 
 BAR2 SZ I        14 2 43.71        33.4 0.22            167           25.4 200 
 PAM  SZ EP       14 2 29.72                             152    0.3710 73.9  37 
 PAM  SN ES       14 2 47.14                             152    0.3310 73.9  37 
 PAM  SZ I        14 2 49.18        34.2 0.20            157           73.9  37 
 BRR  HZ EP       14 2 28.92                             152    0.2210 74.9 296 
 BRR  HN ES       14 2 46.34                             152    0.6910 74.9 296 
 BRR  HZ I        14 2 49.03        23.1 0.44            150           74.9 296 
 RUS  HZ EP       14 2 30.89                             144   -0.2110  101 179 
 RUS  HN ES       14 2 49.39                             144   -0.5410  101 179 
 RUS  HZ I        14 2 51.05        13.2 0.40            145            101 179 
 PTB  HN ES   4   14 2 55.04                             132   -1.18 0  152 259 
 SPBC HZ EP       14 2 35.94                             129   -0.13 9  167 220 
 SPBC HN ES       14 2 58.66                             129   -0.11 9  167 220 
 SPBC HZ I        14 3  3.04        35.5 0.14            129            167 220 
 ZAR  HZ EP       14 2 39.71                             123   -0.33 8  208 291 
 ZAR  HE ES       14 3  5.33                             123   -0.51 8  208 291 
 ZAR  HZ I        14 3 11.31        30.2 0.30            123            208 291 
 NOR  HZ EP       14 2 43.16                             119   -0.19 8  239 235 
 NOR  HN ES       14 3 10.94                             119   -0.79 8  239 235 
 NOR  HZ I        14 3 14.59        16.6 0.32            119            239 235 
 SML  HZ EP       14 2 43.72                             118   -0.19 8  245 334 
 SML  HN ES       14 3 11.91                             118   -0.82 8  245 334 
 SML  HZ I        14 3 15.53        34.0 0.24            119            245 334 
 CHI  HZ EP       14 2 45.19                             118    0.11 8  251 196 
 CHI  HN ES       14 3 13.97                             118   -0.84 8  251 196 
 CHI  HZ I        14 3 23.07         8.4 0.60            118            251 196 
 GUY2CHZ EP       14 2 51.48                             113    0.27 7  305 235 
 GUY2CHN ES       14 3 26.01                             113    0.28 7  305 235 
 GUY2CHZ I        14 3 33.83        18.6 0.74                           305 235 
 RREF HZ EP       14 2 54.12                             111    0.40 7  326 230 
 RREF HN ES       14 3 30.51                             111    0.32 7  326 230 
 RREF HZ I        14 3 38.63        11.8 0.50            112            326 230 
 TOL  SZ EP       14 2 56.29                             110    0.49 6  347 225 
 TOL  SN ES       14 3 35.58                             110    1.68 6  347 225 
 TOL  SZ I        14 3 44.10        24.2 0.72            110            347 225 
 PRA  HZ EP       14 3  1.52                             107    0.56 6  395 210 
 PRA  HN ES       14 3 42.72                             107   -0.36 6  395 210 
 PRA  HZ I        14 3 48.85        11.4 0.34            108            395 210 
                                                                                
