 2011 1227 1321 20.5 L   6.764 -73.143147.6  RSN 10 0.3 2.3LRSN                1
 GAP=139        0.52       2.7     3.9  5.0 -0.1754E+01  0.5026E+01  0.1836E+01E
 Epicentro: LOS SANTOS - SANTANDER                                             3
 ACTION:UPD 12-07-13 16:18 OP:ep   STATUS:               ID:20111227132120 L   I
 2011-12-27-1320-00M.COL___187                                                 6
 STAT SP IPHASW D HRMM SECON CODA AMPLIT PERI AZIMU VELO AIN AR TRES W  DIS CAZ7
 BAR2 SZ EP   1   1321 40.33                             172    0.07 7 19.5 193 
 BAR2 SZ ES   2   1321 54.95                             172   -0.73 5 19.5 193 
 BAR2 SZ I        1321 56.65        34.0 0.26                          19.5 193 
 BRR  HZ EP   1   1321 41.83                             152   -0.12 7 73.5 301 
 BRR  HN ES   2   1321 59.41                             152    0.71 5 73.5 301 
 BRR  HZ I        1322  0.56        28.3 0.17                          73.5 301 
 PAM  SZ EP       1321 43.22                             150    0.1610 80.3  38 
 PAM  SZ I        1321 43.59        35.9 0.19                          80.3  38 
 PAM  SN ES   2   1322  0.49                             150   -0.18 5 80.3  38 
 RUS  HZ EP   1   1321 44.52                             145    0.39 7 96.6 176 
 RUS  HE ES   2   1322  2.50                             145   -0.07 5 96.6 176 
 RUS  HZ I        1322  3.40        13.2 0.35                          96.6 176 
 OCA  SZ EP   1   1321 49.21                             129   -0.10 7  164 353 
 OCA  SZ ES   2   1322 11.51                             129   -0.28 5  164 353 
 OCA  SZ I        1322 15.89        23.3 0.20                           164 353 
 ZAR  HZ EP   1   1321 52.90                             123   -0.34 6  206 293 
 ZAR  HN ES   2   1322 19.23                             123    0.45 4  206 293 
 ZAR  HZ I        1322 25.16        19.9 0.48                           206 293 
 NOR  SZ EP   1   1321 55.98                             119   -0.12 6  233 235 
 NOR  SN ES   2   1322 23.72                             119   -0.17 4  233 235 
 CHI  HZ EP   1   1321 57.63                             118   -0.25 6  245 195 
 CHI  HE ES   2   1322 27.43                             118    0.39 4  245 195 
 CHI  HZ I        1322 33.79         7.3 0.32                           245 195 
 RREF HN ES   2   1322 41.79                             111   -0.50 3  319 230 
 PRA  HZ EP   1   1322 13.90                             107    0.22 4  389 210 
 PRA  HZ I        1323  2.72        17.0 0.27                           389 210 
                                                                                
