 2017  727 1243  5.1 L   6.828 -73.167148.3  RSN 11 0.5 2.2LRSN                1
 GAP= 75        1.15       4.1     3.3  6.3  0.1051E+01  0.1907E+01  0.2950E+01E
 Epicentro: LOS SANTOS - SANTANDER                                             3
 ACTION:UPD 17-08-30 15:37 OP:rebc STATUS:               ID:20170727124305 L   I
 OLDACT:UP  17-07-28 00:39 OP:ar   STATUS:               ID:20170727123744     3
 OLDACT:UP  17-07-28 00:37 OP:ar   STATUS:               ID:20170727123744     3
 OLDACT:REG 17-07-27 21:03 OP:ar   STATUS:               ID:20170727123744     3
 2017-07-27-1238-00M.COL___386                                                 6
 STAT SP IPHASW D HRMM SECON CODA AMPLIT PERI AZIMU VELO AIN AR TRES W  DIS CAZ7
 BAR2 EZ IP     C 1243 24.81                             170   -0.2510 26.1 184 
 BAR2 EZ ES       1243 40.58                             170   -0.0710 26.1 184 
 BAR2 EZ I        1243 41.21        37.1 0.38            167           26.1 184 
 BRR  HZ EP       1243 26.57                             154    0.2810 67.6 297 
 BRR  HN ES       1243 43.73                             154    0.8810 67.6 297 
 BRR  HZ I        1243 46.51        34.4 0.44            154           67.6 297 
 PAM  EZ EP       1243 27.71                             151    0.2110 76.6  42 
 PAM  EN ES       1243 44.69                             151   -0.3110 76.6  42 
 PAM  EZ I        1243 46.54        24.6 0.52            156           76.6  42 
 RUS  HZ EP       1243 29.36                             143    0.0610  104 175 
 RUS  HN ES       1243 47.65                             143   -0.5510  104 175 
 RUS  HZ I        1243 52.38         7.4 0.28            144            104 175 
 PTB  HZ EP       1243 31.61                             133   -0.47 9  146 257 
 PTB  HN ES       1243 52.47                             133   -0.69 9  146 257 
 PTB  HZ I        1243 54.76        16.3 0.14            133            146 257 
 TAM  HZ EP       1243 33.31                             130    0.08 9  158 106 
 TAM  HE ES       1243 55.12                             130   -0.08 9  158 106 
 SPBC HZ EP       1243 34.05                             129    0.20 9  164 218 
 SPBC HE ES       1243 55.89                             129   -0.41 9  164 218 
 SPBC HZ I        1244  3.94        19.4 0.18            130            164 218 
 YPLC HZ EP       1243 35.35                             127   -0.07 9  181 151 
 YPLC HE ES       1243 59.80                             127    0.70 9  181 151 
 YPLC HZ I        1244  2.00        14.4 0.24            128            181 151 
 ZAR  HZ EP   4   1243 39.49                             123    2.16 0  201 292 
 ZAR  HN ES       1244  2.97                             123    0.48 9  201 292 
 ZAR  HZ I        1244  8.07        17.1 0.28            125            201 292 
 NOR  HZ EP       1243 41.65                             119    0.72 8  235 233 
 NOR  HN ES       1244  8.92                             119    0.02 8  235 233 
 NOR  HZ I        1244 14.68        12.2 0.20            120            235 233 
 SJC  HZ EP       1243 59.01                             106   -1.24 6  405 327 
 SJC  HN ES   4   1244 39.81                             106   -3.48 0  405 327 
 SJC  HZ I        1244 43.03         4.4 0.60            108            405 327 
                                                                                
