 2016  627 1833 25.7 L   6.803 -73.137147.9  RSN 18 0.4 2.4LRSN                1
 GAP= 72        0.94       2.9     2.5  4.9  0.1625E+00  0.3699E+01  0.3672E+01E
 Epicentro: LOS SANTOS - SANTANDER                                             3
 ACTION:UPD 16-07-21 22:23 OP:rebc STATUS:               ID:20160627183325 L   I
 OLDACT:UP  16-06-28 00:13 OP:edw  STATUS:               ID:20160627182747     3
 OLDACT:UP  16-06-28 00:06 OP:edw  STATUS:               ID:20160627182747     3
 OLDACT:REG 16-06-27 20:55 OP:edw  STATUS:               ID:20160627182747     3
 2016-06-27-1827-47M.COL___342                                                 6
 STAT SP IPHASW D HRMM SECON CODA AMPLIT PERI AZIMU VELO AIN AR TRES W  DIS CAZ7
 BRR  HZ EP       1833 47.41                             153    0.2910 71.9 298 
 BRR  HN ES       1834  4.62                             153    0.7910 71.9 298 
 BRR  HZ I        1834  8.62        46.4 0.24                          71.9 298 
 PAM  EZ EP       1833 48.33                             151    0.2310 76.5  39 
 PAM  EN ES       1834  5.65                             151    0.0910 76.5  39 
 PAM  EZ I        1834  7.72        32.5 0.16                          76.5  39 
 RUS  HZ EP       1833 49.43                             144   -0.2610  101 177 
 RUS  HN ES       1834  8.04                             144   -0.3510  101 177 
 RUS  HZ I        1834  9.27        20.9 0.28                           101 177 
 PTB  HZ EP       1833 52.38                             132   -0.56 9  149 259 
 PTB  HN ES       1834 13.54                             132   -0.64 9  149 259 
 TAM  HZ EP       1833 53.18                             131   -0.30 9  154 105 
 TAM  HN ES       1834 15.45                             131    0.31 9  154 105 
 SPBC HZ EP       1833 54.34                             129   -0.11 9  164 219 
 SPBC HN ES       1834 16.60                             129   -0.27 9  164 219 
 SPBC HZ I        1834 18.69        61.6 0.12                           164 219 
 ZAR  HZ EP       1833 58.41                             123    0.04 9  205 292 
 ZAR  HN ES       1834 23.07                             123   -0.77 9  205 292 
 ZAR  HZ I        1834 28.70        29.8 0.50                           205 292 
 NOR  HZ EP       1834  1.53                             119   -0.14 8  236 235 
 NOR  HE ES       1834 29.98                             119    0.27 8  236 235 
 NOR  HZ I        1834 33.57        29.1 0.20                           236 235 
 CHI  HZ EP       1834  3.60                             117    0.01 8  249 195 
 CHI  HN ES       1834 32.62                             117   -0.51 8  249 195 
 CHI  HZ I        1834 36.58        11.0 0.40                           249 195 
 HEL  HZ EP       1834  6.83                             115    0.69 8  273 256 
 HEL  HE ES       1834 38.32                             115    0.64 8  273 256 
 HEL  HZ I        1834 43.76        14.8 0.34                           273 256 
 URE  HN ES       1834 39.07                             114   -0.08 7  285 292 
 SOCV BZ EP   4   1834  8.17                             113   -0.57 0  300  57 
 SOCV BN ES   4   1834 38.98                             113   -3.33 0  300  57 
 GUY2CHZ EP       1834  9.73                             113    0.20 7  302 235 
 GUY2CHN ES       1834 44.36                             113    0.66 7  302 235 
 GUY2CHZ I        1834 51.99        13.2 0.26                           302 235 
 CBOC HZ EP       1834 12.98                             110    0.15 7  335 252 
 CBOC HE ES   4   1834 48.24                             110   -1.34 0  335 252 
 DBB  SZ EP       1834 13.34                             110   -0.04 7  340 274 
 DBB  SZ ES       1834 49.77                             110   -0.79 7  340 274 
 ANIL HZ EP   4   1834 18.85                             109    3.15 0  358 225 
 ANIL HN ES   4   1834 56.67                             109    1.97 0  358 225 
 PRA  HZ EP       1834 19.62                             107    0.22 6  393 210 
 PRA  HN ES       1835  1.70                             107    0.43 6  393 210 
 PRA  HZ I        1835  6.59        17.6 0.28                           393 210 
 ORTC HZ EP       1834 19.54                             107   -0.26 6  396 216 
 ORTC HN ES       1835  2.43                             107    0.44 6  396 216 
 PAL  HZ EP       1834 20.96                             106   -0.10 6  407 239 
 PAL  HE ES       1835  4.87                             106    0.64 6  407 239 
 SJC  HZ EP   9   1834 19.62                             106   -1.75 0  409 327 
 SJC  HN ES       1835  2.78                             107   -0.25 6  409 327 
 SJC  HZ I        1835  8.94         4.0 0.34                           409 327 
 CRJC HZ EP   4   1834 25.81                             104   -2.41 0  467   3 
 CRJC HE ES   4   1835 14.60                             104   -2.38 0  467   3 
                                                                                
