 2011 1027 1206 31.2 L   5.881 -73.785 95.5  RSN  4 0.4 1.4LRSN                1
 GAP=165        0.75       6.3     5.5 20.6 -0.1417E+02  0.2102E+02 -0.1169E+02E
 Epicentro: JESUS MARIA - SANTANDER                                            3
 ACTION:UPD 12-07-13 16:06 OP:ep   STATUS:               ID:20111027120631 L   I
 2011-10-27-1204-17S.COL___177                                                 6
 STAT SP IPHASW D HRMM SECON CODA AMPLIT PERI AZIMU VELO AIN AR TRES W  DIS CAZ7
 RUS  HZ EP       12 6 48.43                             139   -0.0310 77.7  89 
 RUS  HZ I        12 6 48.92         2.8 0.16                          77.7  89 
 BAR2 SZ ES   3   12 7  5.01                             129   -0.29 2  103  40 
 NOR  SZ EP       12 6 51.98                             123   -0.3410  125 254 
 NOR  SE ES   2   12 7  9.54                             123    0.79 5  125 254 
 BRR  HZ EP       12 6 53.72                             121    0.36 9  136   3 
 BRR  HE ES   2   12 7  9.98                             121   -0.64 5  136   3 
 BRR  HZ I        12 7 15.86        11.1 0.48                           136   3 
                                                                                
