 2011  927 1153 17.3 L   6.773 -73.339120.4  RSN  4 0.2 1.6LRSN                1
 GAP=156        0.48      13.5    10.6  5.0  0.1307E+03 -0.6759E+01 -0.1224E+02E
 Epicentro: ZAPATOCA - SANTANDER                                               3
 ACTION:UPD 12-07-13 16:00 OP:ep   STATUS:               ID:20110927115317 L   I
 2011-09-27-1148-36S.COL___165                                                 6
 STAT SP IPHASW D HRMM SECON CODA AMPLIT PERI AZIMU VELO AIN AR TRES W  DIS CAZ7
 BTL  SZ EP       1153 33.74                             171   -0.0110 17.9  26 
 BAR2 SZ EP       1153 34.18                             167    0.2310 26.5 139 
 BAR2 SZ ES       1153 46.82                             167   -0.1310 26.5 139 
 BAR2 SZ I        1153 48.67        18.7 0.47                          26.5 139 
 BRR  HZ EP       1153 34.56                             154   -0.2310 55.3 312 
 BRR  HE ES       1153 48.58                             154    0.1310 55.3 312 
 BRR  HZ I        1153 49.38         9.4 0.11                          55.3 312 
 ZAR  HN ES   2   1154  8.78                             119   -0.01 4  186 295 
 ZAR  HZ I        1154 11.75         2.9 0.24                           186 295 
                                                                                
