 2012 1127 1820 21.1 L   6.813 -73.180147.6  RSN  5 0.2 1.5LRSN                1
 GAP=144        0.44       3.1     3.2  4.0 -0.3708E+01  0.3726E+01  0.7739E+00E
 Epicentro: LOS SANTOS - SANTANDER                                             3
 ACTION:UPD 12-12-05 15:36 OP:}ep  STATUS:               ID:20121127182021 L   I
 2012-11-27-1820-00M.COL___234                                                 6
 STAT SP IPHASW D HRMM SECON CODA AMPLIT PERI AZIMU VELO AIN AR TRES W  DIS CAZ7
 BAR2 SZ EP       1820 41.09                             170    0.1210 24.4 180 
 BAR2 SZ I        1820 41.29        10.2 0.24                          24.4 180 
 BAR2 SZ ES   1   1820 56.74                             170    0.26 7 24.4 180 
 PAM  SZ EP       1820 43.73                             151    0.1310 78.8  42 
 PAM  SE ES       1821  0.95                             151   -0.2010 78.8  42 
 PAM  SZ I        1821  3.36         6.1 0.54                          78.8  42 
 RUS  HZ EP   1   1820 44.86                             144   -0.30 7  102 174 
 RUS  HE ES   1   1821  3.89                             144   -0.03 7  102 174 
 RUS  HE I        1821  5.15         4.6 0.24                           102 174 
 PTB  HZ EP       1820 47.97                             133    0.06 9  144 258 
 PTB  HN ES   1   1821  8.67                             133   -0.15 7  144 258 
 PTB  HZ I        1821 11.27         3.2 0.18                           144 258 
 CHI  HZ EP   1   1820 58.95                             117    0.01 6  249 194 
                                                                                
