 2012  827 1738 45.5 L   6.771 -73.115141.7  RSN  6 0.3 1.7LRSN                1
 GAP=142        0.78       4.8     6.2  6.1 -0.1233E+01  0.6485E+01  0.3755E+01E
 Epicentro: LOS SANTOS - SANTANDER                                             3
 ACTION:UPD 12-09-10 11:58 OP:ep   STATUS:               ID:20120827173845 L   I
 2012-08-27-1730-00M.COL___218                                                 6
 STAT SP IPHASW D HRMM SECON CODA AMPLIT PERI AZIMU VELO AIN AR TRES W  DIS CAZ7
 BAR2 SZ EP       1739  4.66                             171    0.0510 21.1 201 
 BAR2 SZ ES   1   1739 19.22                             171   -0.29 7 21.1 201 
 BAR2 SZ I        1739 22.09        13.6 0.24                          21.1 201 
 GIR2 SZ EP       1739  4.79                             165   -0.0310 35.1 346 
 GIR2 SZ ES   1   1739 19.70                             165   -0.18 7 35.1 346 
 BRR  HZ EP       1739  6.77                             150    0.2710 75.7 299 
 BRR  HN ES   1   1739 23.41                             150    0.55 7 75.7 299 
 BRR  HZ I        1739 24.05        11.9 0.18                          75.7 299 
 PAM  SZ EP       1739  7.47                             150    0.1410 77.8  36 
 PAM  SN ES   1   1739 23.96                             150   -0.38 7 77.8  36 
 PAM  SZ I        1739 27.01        16.9 0.70                          77.8  36 
 RUS  HZ EP       1739  8.93                             144    0.3110 97.2 178 
 RUS  HN ES   1   1739 26.64                             144   -0.01 7 97.2 178 
 RUS  HZ I        1739 28.30         6.4 0.32                          97.2 178 
 PTB  HZ EP       1739 11.75                             130   -0.66 9  151 260 
 PTB  HZ I        1739 36.48         3.6 0.22                           151 260 
                                                                                
