 2015  127 1822 47.0 L   6.842 -73.122146.0  RSN 16 0.3 2.2LRSN                1
 GAP=106        0.75       2.9     2.5  4.2 -0.5415E+00  0.2241E+01  0.3390E+01E
 Epicentro: LOS SANTOS - SANTANDER                                             3
 ACTION:UPD 15-03-02 15:42 OP:nd   STATUS:               ID:20150127182247 L   I
 OLDACT:REG 15-01-27 20:17 OP:spq  STATUS:               ID:20150127181746     3
 2015-01-27-1817-46M.COL___277                                                 6
 STAT SP IPHASW D HRMM SECON CODA AMPLIT PERI AZIMU VELO AIN AR TRES W  DIS CAZ7
 BAR2 EZ EP       1823  6.50                             168   -0.2710 28.4 194 
 BAR2 EZ ES   1   1823 22.31                             168    0.12 7 28.4 194 
 BAR2 EZ I        1823 27.36        21.6 0.12            165           28.4 194 
 BRR  HZ EP       1823  8.01                             152   -0.1810 71.5 294 
 BRR  HE ES       1823 25.20                             152    0.4810 71.5 294 
 BRR  HZ I        1823 31.15        31.1 0.26            154           71.5 294 
 PAM  SZ EP     C 1823  8.85                             153   -0.0910 72.1  40 
 PAM  SE ES       1823 25.95                             153   -0.1010 72.1  40 
 PAM  SZ I        1823 26.62        36.7 0.22            159           72.1  40 
 RUS  HZ EP       1823 10.63                             143   -0.4710  105 178 
 RUS  HN ES       1823 29.78                             143   -0.1210  105 178 
 RUS  HZ I        1823 31.12        10.0 0.40            143            105 178 
 TAM  HZ EP       1823 14.78                             131    0.20 9  154 107 
 TAM  HE ES   1   1823 36.53                             131    0.44 7  154 107 
 TAM  HZ I        1823 44.06        10.9 0.42            135            154 107 
 SPBC HZ EP       1823 16.24                             128    0.22 9  168 219 
 SPBC HN ES       1823 38.93                             128    0.28 9  168 219 
 SPBC HZ I        1823 42.90        33.4 0.24            129            168 219 
 ZAR  HZ EP   4   1823 20.47                             122    0.93 0  205 291 
 ZAR  HE ES       1823 44.65                             122   -0.27 9  205 291 
 ZAR  HZ I        1823 49.99        47.4 0.28            125            205 291 
 NOR  HZ EP       1823 23.00                             118   -0.26 8  240 234 
 NOR  HN ES       1823 50.89                             118   -0.66 8  240 234 
 NOR  HZ I        1823 57.98        20.9 0.20            120            240 234 
 CHI  HZ EP       1823 25.17                             117   -0.10 8  254 195 
 CHI  HN ES   1   1823 55.17                             117    0.04 6  254 195 
 CHI  HZ I        1824  0.35         6.1 0.24            118            254 195 
 HEL  HZ EP   1   1823 28.01                             114    0.37 6  276 255 
 HEL  HE ES   1   1823 59.95                             114    0.62 6  276 255 
 HEL  HZ I        1824  5.37        14.4 0.56            116            276 255 
 GUY2CHZ EP   1   1823 31.96                             112    0.80 5  306 234 
 GUY2CHE ES   4   1824  7.44                             112    1.83 0  306 234 
 GUY2CHZ I        1824 14.97        14.4 0.70                           306 234 
 RREF HZ EP   4   1823 35.74                             111    2.02 0  327 229 
 RREF HN ES   4   1824 13.11                             111    2.94 0  327 229 
 RREF HZ I        1824 18.64         8.8 0.32            112            327 229 
 DBB  SZ EP   1   1823 34.53                             109   -0.22 5  342 273 
 DBB  SZ ES   4   1824  8.52                             109   -3.48 0  342 273 
 TOL  SZ EP   1   1823 36.22                             109    0.36 5  349 224 
 TOL  SE ES   4   1824 16.08                             109    2.11 0  349 224 
 TOL  SZ I        1824 21.71         8.1 0.38            111            349 224 
 MON  HE ES   4   1824 11.90                             109   -2.18 0  353 308 
 MON  HZ I        1824 13.73         2.7 0.30            111            353 308 
 ORTC HZ EP       1823 42.00                             106    0.45 6  401 216 
 ORTC HE ES   4   1824 26.48                             106    2.39 0  401 216 
 ORTC HZ I        1824 31.45         5.0 0.30            108            401 216 
                                                                                
