 2017 1027 1800  6.2 L   6.762 -73.151146.1  RSN 10 0.5 1.6LRSN                1
 GAP=113        1.03       3.7     3.9  6.1  0.3747E+01  0.4633E+01  0.5218E+01E
 Epicentro: LOS SANTOS - SANTANDER                                             3
 ACTION:UPD 17-11-07 19:37 OP:rebc STATUS:               ID:20171027180006 L   I
 OLDACT:UP  17-10-28 00:46 OP:osc  STATUS:               ID:20171027175742d    3
 OLDACT:DUP 17-10-27 23:56 OP:osc  STATUS:               ID:20171027175742d    3
 2017-10-27-1758-00M.COL___450                                                 6
 STAT SP IPHASW D HRMM SECON CODA AMPLIT PERI AZIMU VELO AIN AR TRES W  DIS CAZ7
 BAR2 EZ EP       18 0 25.56                             172   -0.2010 19.1 191 
 BAR2 EZ ES       18 0 41.38                             172    0.3410 19.1 191 
 BAR2 EZ I        18 0 42.18        17.5 0.18            171           19.1 191 
 BRR  HZ EP       18 0 27.34                             152   -0.1010 72.8 302 
 BRR  HN ES       18 0 44.39                             152    0.3510 72.8 302 
 BRR  HZ I        18 0 46.92         9.6 0.26            151           72.8 302 
 PAM  EZ EP       18 0 28.53                             150   -0.1010 81.0  38 
 PAM  EN ES       18 0 45.92                             150   -0.2410 81.0  38 
 PAM  EZ I        18 0 47.74         6.8 0.44            153           81.0  38 
 RUS  HZ EP       18 0 29.48                             145   -0.1710 96.4 176 
 RUS  HN ES       18 0 47.72                             145   -0.2610 96.4 176 
 RUS  HZ I        18 0 49.66         5.8 0.24            146           96.4 176 
 PTB  HZ EP       18 0 32.29                             132   -0.75 9  146 260 
 PTB  HE ES       18 0 54.03                             132    0.02 9  146 260 
 PTB  HZ I        18 0 59.00         3.4 0.11            132            146 260 
 YPLC HZ EP       18 0 35.99                             127    0.34 9  173 151 
 YPLC HE ES       18 0 58.50                             127   -0.15 9  173 151 
 ZAR  HZ EP       18 0 39.45                             122    0.70 9  205 293 
 ZAR  HN ES       18 1  3.93                             122   -0.23 9  205 293 
 ZAR  HZ I        18 1 10.15         5.2 0.26            123            205 293 
 NOR  HE ES   2   18 1 10.43                             119    1.18 4  232 235 
 CHI  HZ EP       18 0 44.12                             118    0.69 8  244 195 
 CHI  HN ES       18 1 12.73                             118    0.24 8  244 195 
 CHI  HZ I        18 1 16.59         2.2 0.52            119            244 195 
 GUY2CHN ES   2   18 1 21.17                             113   -2.07 4  298 235 
                                                                                
