 2013  227 1222 36.4 L   6.808 -73.186135.4  RSN  8 0.4 1.4LRSN                1
 GAP=131        0.72       3.4     5.1  8.1  0.2191E+01  0.2047E+02  0.8360E+00E
 Epicentro: ZAPATOCA - SANTANDER                                               3
 ACTION:UPD 13-03-12 09:36 OP:ep   STATUS:               ID:20130227122236 L   I
 2013-02-27-1220-00M.COL___226                                                 6
 STAT SP IPHASW D HRMM SECON CODA AMPLIT PERI AZIMU VELO AIN AR TRES W  DIS CAZ7
 BAR2 SZ ES   1   1223  8.86                             169   -0.31 7 23.8 179 
 BRR  HZ EP   1   1222 56.51                             152    0.29 7 66.9 300 
 BRR  HZ I        1223 11.03         9.6 0.40            145           66.9 300 
 BRR  HN ES   1   1223 11.79                             152    0.14 7 66.9 300 
 PAM  SN ES   1   1223 14.47                             148    0.18 7 79.7  42 
 RUS  HN ES   1   1223 16.95                             141   -0.14 7  102 174 
 RUS  HZ I        1223 17.75         2.4 0.50            135            102 174 
 PTB  HZ EP   1   1223  1.40                             130   -0.78 7  144 258 
 PTB  HN ES   1   1223 22.18                             130   -0.08 7  144 258 
 PTB  HZ I        1223 24.13         3.1 0.20            123            144 258 
 ZAR  HN ES   1   1223 32.57                             121    0.39 6  200 292 
 SML  HN ES   1   1223 39.96                             115   -0.15 6  241 336 
 CHI  HN ES   1   1223 43.14                             115    0.65 6  248 194 
                                                                                
