 2013  727 1905  6.2 L   6.775 -73.167144.2  RSN  8 0.4 2.2LRSN                1
 GAP=135        0.97       4.5     4.6  7.2  0.6791E+00  0.6960E+01 -0.5306E+01E
 Epicentro: LOS SANTOS - SANTANDER                                             3
 ACTION:UPD 13-08-12 10:40 OP:ep   STATUS:               ID:20130727190506 L   I
 OLDACT:UP  13-07-27 18:37 OP:mh   STATUS:               ID:20130727185959     3
 OLDACT:UP  13-07-27 18:37 OP:mh   STATUS:               ID:20130727185959     3
 OLDACT:UP  13-07-27 18:36 OP:mh   STATUS:               ID:20130727185959     3
 OLDACT:UP  13-07-27 18:36 OP:mh   STATUS:               ID:20130727185959     3
 OLDACT:UP  13-07-27 18:36 OP:mh   STATUS:               ID:20130727185959     3
 OLDACT:UP  13-07-27 18:36 OP:mh   STATUS:               ID:20130727185959     3
 OLDACT:REG 13-07-27 15:02 OP:mh   STATUS:               ID:20130727185959     3
 2013-07-27-1859-59M.COL___267                                                 6
 STAT SP IPHASW D HRMM SECON CODA AMPLIT PERI AZIMU VELO AIN AR TRES W  DIS CAZ7
 BAR2 SZ EP       19 5 25.86                             172    0.2510 20.3 185 
 BAR2 SZ ES   1   19 5 40.37                             172   -0.36 7 20.3 185 
 BAR2 SZ I        19 5 42.21        19.4 0.18            173           20.3 185 
 GIR2 SZ EP       19 5 25.96                             166    0.1810 33.7 355 
 GIR2 SZ I        19 5 43.40        11.4 0.64            164           33.7 355 
 BRR  HZ IP     C 19 5 27.77                             152    0.6010 70.6 301 
 BRR  HN ES       19 5 43.95                             152    0.4410 70.6 301 
 BRR  HN I        19 5 48.72        57.0 0.18            149           70.6 301 
 PAM  SZ EP   1   19 5 28.81                             149    0.31 7 80.9  40 
 PAM  SN ES       19 5 45.54                             149   -0.3210 80.9  40 
 PAM  SN I        19 5 46.74        33.5 0.48            148           80.9  40 
 RUS  HZ EP   1   19 5 29.82                             144    0.18 7 98.1 175 
 RUS  HN ES   1   19 5 47.57                             144   -0.34 7 98.1 175 
 RUS  HN I        19 5 48.83        13.8 0.24            145           98.1 175 
 PTB  HZ EP   1   19 5 32.42                             132   -0.40 7  145 260 
 PTB  HN ES       19 5 53.00                             132   -0.56 9  145 260 
 PTB  HN I        19 5 58.64        24.9 0.42            130            145 260 
 ZAR  HZ EP   1   19 5 38.22                             122   -0.24 6  203 293 
 ZAR  HE ES   1   19 6  4.37                             122    0.77 6  203 293 
 ZAR  HE I        19 6  9.55        60.2 0.22            120            203 293 
 SML  HZ EP   1   19 5 42.25                             117   -0.68 6  245 336 
 SML  HE ES       19 6 11.06                             117   -0.50 8  245 336 
 SML  HE I        19 6 15.73        21.8 0.10            115            245 336 
                                                                                
