 2012  627 1535 51.9 L   6.501 -73.602107.3  RSN  4 0.1 1.3LRSN                1
 GAP=133        0.39       7.0     3.1  6.2 -0.2801E+01  0.9517E+01 -0.5208E+01E
 Epicentro: SANTA HELENA DEL OPON - SANTANDER                                  3
 ACTION:UPD 12-08-06 17:53 OP:ep   STATUS:               ID:20120627153551 L   I
 2012-06-27-1530-00M.COL___201                                                 6
 STAT SP IPHASW D HRMM SECON CODA AMPLIT PERI AZIMU VELO AIN AR TRES W  DIS CAZ7
 BAR2 SZ EP       1536  8.02                             154    0.1310 47.5  78 
 BAR2 SZ ES   1   1536 20.23                             154   -0.15 7 47.5  78 
 BAR2 SZ I        1536 21.65        10.7 0.36                          47.5  78 
 BRR  HZ EP       1536  8.83                             145    0.0110 68.1 350 
 RUS  HZ EP   3   1536 11.19                             138    0.13 2 88.4 140 
 PTB  HZ EP       1536 10.79                             135   -0.1310 94.6 273 
 PTB  HN ES   2   1536 26.02                             135    0.25 5 94.6 273 
 PTB  HZ I        1536 26.95         2.3 0.40                          94.6 273 
                                                                                
