 2013 1227 1413 12.5 L   6.799 -73.179146.8  RSN 10 0.4 1.9LRSN                1
 GAP=132        0.98       3.2     4.6  5.8  0.2202E+00  0.6591E+01  0.3979E+00E
 Epicentro: LOS SANTOS - SANTANDER                                             3
 ACTION:UPD 14-01-13 10:21 OP:ep   STATUS:               ID:20131227141312 L   I
 OLDACT:REG 13-12-27 14:18 OP:jn   STATUS:               ID:20131227141000     3
 2013-12-27-1410-00M.COL___285                                                 6
 STAT SP IPHASW D HRMM SECON CODA AMPLIT PERI AZIMU VELO AIN AR TRES W  DIS CAZ7
 BAR2 SZ EP     C 1413 32.21                             171   -0.0110 22.9 181 
 BAR2 SZ ES       1413 47.71                             171    0.0910 22.9 181 
 BAR2 SZ I        1413 53.20        20.1 0.50            171           22.9 181 
 BRR  HZ EP       1413 34.21                             154    0.6510 68.0 300 
 BRR  HN ES       1413 50.56                             154    0.5510 68.0 300 
 BRR  HZ I        1413 53.96        13.8 0.34            152           68.0 300 
 PAM  SN ES   1   1413 52.11                             150   -0.36 7 79.8  42 
 PAM  SZ I        1413 54.27        22.5 0.56            155           79.8  42 
 RUS  HZ EP       1413 36.12                             144   -0.2310  101 174 
 RUS  HN ES       1413 54.87                             144   -0.1010  101 174 
 RUS  HZ I        1413 55.73         8.1 0.30            148            101 174 
 PTB  HZ EP       1413 38.96                             133   -0.25 9  144 259 
 PTB  HN ES       1413 59.97                             133   -0.08 9  144 259 
 PTB  HZ I        1414  3.03        10.4 0.16            134            144 259 
 SPBC HZ EP       1413 41.38                             130    0.54 9  161 218 
 SPBC HN ES       1414  2.19                             130   -0.76 9  161 218 
 SPBC HZ I        1414  5.76        12.5 0.30            132            161 218 
 ZAR  HN ES   1   1414  9.80                             123    0.06 6  201 293 
 ZAR  HZ I        1414 20.39         6.7 0.16            124            201 293 
 NOR  HZ EP       1413 48.61                             119    0.66 8  232 234 
 NOR  HN ES       1414 15.31                             119   -0.30 8  232 234 
 NOR  HZ I        1414 19.32         7.8 0.20            121            232 234 
 SML  HZ EP       1413 48.49                             118   -0.52 8  242 336 
 SML  HN ES       1414 17.11                             118   -0.39 8  242 336 
 CHI  HZ EP   1   1413 50.45                             117    0.33 6  248 194 
 CHI  HN ES   1   1414 19.27                             117   -0.22 6  248 194 
 CHI  HZ I        1414 22.77         3.5 0.50            120            248 194 
                                                                                
