 2017 1027 1236 10.2 L   6.891 -73.106146.2  RSN  5 0.3 1.2LRSN                1
 GAP=137        0.83       4.6     4.4  6.1 -0.2160E+01  0.3406E+01  0.1925E+01E
 Epicentro: PIEDECUESTA - SANTANDER                                            3
 ACTION:UPD 17-11-07 19:37 OP:rebc STATUS:               ID:20171027123610 L   I
 OLDACT:DUP 17-10-27 22:33 OP:dhb  STATUS:               ID:20171027122738d    3
 OLDACT:REG 17-10-27 19:47 OP:dhb  STATUS:               ID:20171027122737     3
 2017-10-27-1228-00M.COL___435                                                 6
 STAT SP IPHASW D HRMM SECON CODA AMPLIT PERI AZIMU VELO AIN AR TRES W  DIS CAZ7
 BAR2 EZ EP       1236 29.82                             166   -0.3010 34.1 194 
 BAR2 EZ ES       1236 45.13                             166   -0.5510 34.1 194 
 BAR2 EZ I        1236 46.51         3.8 0.24            164           34.1 194 
 PAM  EZ EP       1236 32.26                             154    0.4110 66.9  42 
 PAM  EN ES       1236 48.79                             154    0.0410 66.9  42 
 PAM  EZ I        1236 51.05         6.0 0.26            158           66.9  42 
 BRR  HZ EP       1236 31.24                             153   -0.1210 71.1 290 
 BRR  HE ES       1236 48.03                             153    0.1410 71.1 290 
 BRR  HZ I        1236 51.14         6.5 0.25            156           71.1 290 
 RUS  HZ EP       1236 34.64                             141   -0.0610  110 179 
 RUS  HN ES       1236 54.25                             141    0.4210  110 179 
 RUS  HZ I        1237  0.93         1.4 0.54            141            110 179 
 PTB  HZ EP       1236 37.48                             131   -0.29 9  154 255 
 PTB  HE ES       1236 59.60                             131    0.31 9  154 255 
 PTB  HZ I        1237  0.54         0.9 0.18            133            154 255 
                                                                                
