 2013  927 1958 40.9 L   6.728 -73.161142.2  RSN  5 0.4 1.7LRSN                1
 GAP=138        1.08       5.6     5.5  7.9 -0.2709E+01  0.5472E+01  0.1291E+01E
 Epicentro: VILLANUEVA - SANTANDER                                             3
 ACTION:UPD 13-10-22 09:25 OP:ep   STATUS:               ID:20130927195840 L   I
 OLDACT:REG 13-09-27 17:01 OP:stll STATUS:               ID:20130927194845     3
 2013-09-27-1948-45M.COL___247                                                 6
 STAT SP IPHASW D HRMM SECON CODA AMPLIT PERI AZIMU VELO AIN AR TRES W  DIS CAZ7
 BAR2 SZ EP       1958 59.75                             174   -0.1910 15.2 189 
 BAR2 SZ ES       1959 15.37                             174    0.5610 15.2 189 
 BAR2 SZ I        1959 16.48        22.6 0.18            172           15.2 189 
 BRR  HZ EP       1959  2.09                             151    0.2910 74.0 305 
 BRR  HN ES       1959 18.52                             151    0.4010 74.0 305 
 PAM  SZ EP       1959  3.08                             148   -0.0910 84.7  37 
 PAM  SN ES       1959 20.06                             148   -0.5010 84.7  37 
 RUS  HZ EP       1959  4.23                             145    0.5110 92.8 175 
 RUS  HZ I        1959  5.07         5.0 0.46            145           92.8 175 
 RUS  HN ES       1959 21.13                             145   -0.4110 92.8 175 
 PTB  HZ EP       1959  7.25                             132   -0.03 9  145 262 
 PTB  HN ES       1959 27.26                             132   -0.62 9  145 262 
 PTB  HZ I        1959 30.48         6.7 0.20            132            145 262 
                                                                                
