 2015  627 1504  6.9 L   6.817 -73.105149.2  RSN 18 0.4 2.7LRSN                1
 GAP=187        0.84       2.0     3.4  4.1 -0.7710E-02  0.4536E+01  0.1022E+01E
 Epicentro: LOS SANTOS - SANTANDER                                             3
 ACTION:UPD 15-09-10 22:15 OP:cam  STATUS:               ID:20150627150406 L   I
 OLDACT:REG 15-06-27 20:58 OP:drio STATUS:               ID:20150627145749     3
 2015-06-27-1457-49M.COL___325                                                 6
 STAT SP IPHASW D HRMM SECON CODA AMPLIT PERI AZIMU VELO AIN AR TRES W  DIS CAZ7
 BAR2 EZ EP       15 4 27.18                             170    0.1710 26.2 199 
 BAR2 EZ ES       15 4 41.94                             170   -0.7510 26.2 199 
 BAR2 EZ I        15 4 45.12        67.2 0.24            168           26.2 199 
 BRR  HZ EP       15 4 29.12                             152    0.5210 74.4 296 
 BRR  HE ES       15 4 46.39                             152    0.8610 74.4 296 
 BRR  HZ I        15 4 48.90        69.0 0.20            150           74.4 296 
 RUS  HZ EP       15 4 30.97                             144   -0.1410  102 179 
 RUS  HE ES       15 4 49.74                             144   -0.2510  102 179 
 RUS  HZ I        15 4 53.15        27.1 0.42            147            102 179 
 OCA  HZ EP       15 4 35.47                             131    0.10 9  159 351 
 OCA  HE ES       15 4 57.69                             131    0.12 9  159 351 
 OCA  HZ I        15 5  6.42        81.0 0.32            133            159 351 
 ZAR  HZ EP       15 4 39.64                             123   -0.29 8  208 291 
 ZAR  HE ES       15 5  5.71                             123    0.02 8  208 291 
 ZAR  HZ I        15 5 12.28        71.7 0.28            123            208 291 
 NOR  HZ EP       15 4 43.03                             119   -0.31 8  239 235 
 NOR  HE ES       15 5 11.87                             119    0.11 8  239 235 
 NOR  HZ I        15 5 19.03        35.7 0.26            120            239 235 
 SML  HZ EP       15 4 43.51                             118   -0.24 8  244 334 
 SML  HN ES       15 5 12.10                             118   -0.39 8  244 334 
 SML  HZ I        15 5 18.78        70.7 0.10            120            244 334 
 CHI  HZ EP       15 4 45.29                             117    0.18 8  252 196 
 CHI  HE ES       15 5 14.88                             117   -0.04 8  252 196 
 CHI  HZ I        15 5 22.53        21.3 0.34            120            252 196 
 ROSC BZ EP       15 4 45.78                             117    0.15 8  257 212 
 ROSC BN ES       15 5 16.07                             117    0.22 8  257 212 
 ROSC BZ I        15 5 20.46        35.9 0.45            119            257 212 
 HEL  HZ EP       15 4 47.95                             115    0.13 7  277 256 
 HEL  HN ES       15 5 19.50                             115   -0.24 7  277 256 
 HEL  HZ I        15 5 26.18        22.0 0.30            116            277 256 
 URE  HZ EP       15 4 47.89                             114   -0.64 7  287 291 
 URE  HN ES       15 5 20.86                             114   -0.14 7  287 291 
 URE  HZ I        15 5 32.17        33.7 0.18            115            287 291 
 GUY2CHZ EP       15 4 51.98                             113    0.78 7  306 235 
 GUY2CHE ES       15 5 26.10                             113    0.34 7  306 235 
 GUY2CHZ I        15 5 32.11        21.4 0.36                           306 235 
 CBOC HZ EP       15 4 54.70                             110    0.19 7  338 252 
 CBOC HE ES       15 5 31.20                             110   -0.45 7  338 252 
 CBOC HZ I        15 5 36.58         7.6 0.24            112            338 252 
 DBB  SZ EP       15 4 54.63                             110   -0.39 7  344 274 
 DBB  SZ ES   3   15 5 31.14                             110   -1.41 2  344 274 
 TOL  SZ EP       15 4 56.19                             110    0.38 6  348 225 
 TOL  SN ES       15 5 33.58                             110   -0.38 6  348 225 
 TOL  SZ I        15 5 39.89        16.0 0.24            111            348 225 
 PRA  HZ EP       15 5  1.25                             107    0.26 6  396 210 
 PRA  HN ES       15 5 42.80                             107   -0.38 6  396 210 
 PRA  HZ I        15 5 46.53        21.9 0.54            109            396 210 
 ORTC HZ EP       15 5  1.37                             107   -0.05 6  400 217 
 ORTC HN ES       15 5 44.23                             107    0.28 6  400 217 
 ORTC HZ I        15 5 50.78        12.7 0.72            108            400 217 
 SJC  HZ EP   4   15 5  1.30                             106   -1.39 0  410 326 
 SJC  HN ES   4   15 5 43.45                             106   -2.75 0  410 326 
 SJC  HZ I        15 5 47.15        10.1 0.44            108            410 326 
                                                                                
