 2014  327 1506 57.5 L   6.778 -73.233152.9  RSN  5 0.4 1.7LRSN                1
 GAP=239        0.76       4.0     8.8  8.5 -0.3303E+01 -0.2194E+02  0.4230E+01E
 Epicentro: ZAPATOCA - SANTANDER                                               3
 ACTION:UPD 14-04-09 23:20 OP:nd   STATUS:               ID:20140327150657 L   I
 OLDACT:UP  14-03-27 19:30 OP:mh   STATUS:               ID:20140327145819d    3
 OLDACT:UP  14-03-27 19:30 OP:mh   STATUS:               ID:20140327145819d    3
 OLDACT:UP  14-03-27 19:29 OP:mh   STATUS:               ID:20140327145819d    3
 OLDACT:DUP 14-03-27 19:20 OP:mh   STATUS:               ID:20140327145819d    3
 2014-03-27-1458-18M.COL___253                                                 6
 STAT SP IPHASW D HRMM SECON CODA AMPLIT PERI AZIMU VELO AIN AR TRES W  DIS CAZ7
 BRR  HZ EP   1   15 7 19.09                             156    0.05 7 64.2 305 
 BRR  HN ES       15 7 35.77                             156   -0.0910 64.2 305 
 BRR  HZ I        15 7 39.31        10.9 0.47            153           64.2 305 
 PTB  HZ EP   1   15 7 23.93                             136   -0.24 7  138 259 
 PTB  HN ES       15 7 44.55                             136   -0.44 9  138 259 
 PTB  HZ I        15 7 47.85         5.6 0.14            134            138 259 
 SPBC HZ EP       15 7 25.69                             132   -0.12 9  155 217 
 SPBC HN ES   1   15 7 48.68                             132    0.77 7  155 217 
 SPBC HZ I        15 7 52.96         6.9 0.14            132            155 217 
 ZAR  HN ES   1   15 7 55.15                             125    0.50 6  196 294 
 ZAR  HZ I        15 8  0.65         5.1 0.26            125            196 294 
 SML  HN ES       15 8  3.25                             119    0.15 8  242 338 
                                                                                
