 2011 1027 1652 47.9 L   6.772 -73.140136.9  RSN  5 0.1 1.6LRSN                1
 GAP=139        0.36       3.6     4.9  6.6 -0.5893E+01  0.1432E+02 -0.3004E+01E
 Epicentro: LOS SANTOS - SANTANDER                                             3
 ACTION:UPD 12-07-13 16:06 OP:ep   STATUS:               ID:20111027165247 L   I
 2011-10-27-1650-41S.COL___176                                                 6
 STAT SP IPHASW D HRMM SECON CODA AMPLIT PERI AZIMU VELO AIN AR TRES W  DIS CAZ7
 BAR2 SZ EP       1653  6.38                             171   -0.0110 20.5 193 
 BAR2 SZ I        1653  6.74         7.6 0.34                          20.5 193 
 BTL  SZ EP       1653  6.61                             171    0.2010 21.5 319 
 BRR  HZ EP       1653  8.06                             150   -0.1410 73.3 300 
 BRR  HZ I        1653  8.49         9.8 0.14                          73.3 300 
 BRR  HN ES   3   1653 24.33                             150    0.27 2 73.3 300 
 PAM  SZ EP       1653  9.28                             148    0.0010 79.4  38 
 PAM  SE ES   1   1653 25.91                             148   -0.07 7 79.4  38 
 RUS  HZ EP   3   1653 10.78                             143    0.24 2 97.5 176 
 RUS  HZ I        1653 10.81         6.6 0.66                          97.5 176 
 RUS  HE ES   2   1653 28.07                             143   -0.14 5 97.5 176 
                                                                                
