 2016  127 1003 10.7 L   6.825 -73.120150.2  RSN 14 0.4 2.2LRSN                1
 GAP=139        0.85       2.0     3.2  4.3 -0.1617E+01  0.3897E+01 -0.9299E+00E
 Epicentro: LOS SANTOS - SANTANDER                                             3
 ACTION:UPD 16-03-09 23:28 OP:cam  STATUS:               ID:20160127100310 L   I
 OLDACT:REG 16-01-27 20:27 OP:cara STATUS:               ID:20160127095747     3
 2016-01-27-0957-47M.COL___328                                                 6
 STAT SP IPHASW D HRMM SECON CODA AMPLIT PERI AZIMU VELO AIN AR TRES W  DIS CAZ7
 BAR2 EZ IP     D 10 3 30.98                             169    0.0610 26.7 195 
 BAR2 EZ ES       10 3 46.28                             169   -0.4310 26.7 195 
 BAR2 EZ I        10 3 48.63        29.3 0.28            171           26.7 195 
 PAM  EZ EP     C 10 3 33.71                             153    0.5610 73.4  39 
 PAM  EN ES       10 3 51.14                             153    0.4610 73.4  39 
 PAM  EZ I        10 3 53.13        25.8 0.48            154           73.4  39 
 RUS  HZ EP       10 3 34.92                             144   -0.1510  103 178 
 RUS  HE ES       10 3 53.85                             144   -0.2310  103 178 
 RUS  HZ I        10 3 55.01        10.1 0.34            147            103 178 
 PTB  HZ EP       10 3 37.95                             132   -0.37 9  151 258 
 PTB  HN ES       10 3 59.43                             132   -0.44 9  151 258 
 PTB  HZ I        10 4  6.54        19.6 0.28            132            151 258 
 OCA  HZ EP       10 3 38.72                             131   -0.41 9  158 352 
 OCA  HN ES       10 4  1.54                             131    0.23 9  158 352 
 OCA  HZ I        10 4  9.40        29.0 0.34            131            158 352 
 SPBC HZ IP     C 10 3 40.04                             129    0.14 9  167 219 
 SPBC HE ES       10 4  3.06                             129    0.37 9  167 219 
 SPBC HZ I        10 4  4.38        28.5 0.12            131            167 219 
 ZAR  HZ EP       10 3 44.13                             123    0.54 8  206 291 
 ZAR  HN ES       10 4  9.69                             123    0.44 8  206 291 
 ZAR  HZ I        10 4 14.55        17.1 0.32            123            206 291 
 NOR  HZ IP       10 3 47.12                             119    0.02 8  239 234 
 NOR  HN ES       10 4 15.41                             119   -0.09 8  239 234 
 NOR  HZ I        10 4 18.23         9.9 0.40            120            239 234 
 SML  HZ EP       10 3 47.10                             118   -0.32 8  242 334 
 SML  HN ES       10 4 15.84                             118   -0.24 8  242 334 
 SML  HZ I        10 4 19.43        18.8 0.10            119            242 334 
 CHI  HZ EP       10 3 48.85                             118   -0.16 8  252 196 
 CHI  HN ES       10 4 18.82                             118   -0.08 8  252 196 
 CHI  HZ I        10 4 24.39         5.0 0.44            119            252 196 
 HEL  HZ EP       10 3 52.32                             115    0.81 7  276 255 
 HEL  HN ES       10 4 23.02                             115   -0.33 7  276 255 
 HEL  HZ I        10 4 29.67         8.6 0.28            116            276 255 
 GUY2CHZ EP   9   10 3 56.35                             113    1.41 0  305 235 
 GUY2CHE ES       10 4 31.09                                    0.22 7  305 235 
 GUY2CHZ I        10 4 37.83        12.8 0.74                           305 235 
 LL6C HZ EP       10 3 55.79                             111   -0.49 7  322 357 
 LL6C HN ES       10 4 31.51                             111   -0.33 7  322 357 
 LL6C HZ I        10 4 47.24         6.2 0.58            112            322 357 
 PRA  HZ EP       10 4  4.80                             107   -0.01 6  396 210 
 PRA  HE ES       10 4 47.37                             107    0.34 6  396 210 
 PRA  HZ I        10 4 52.80         7.6 0.42            108            396 210 
                                                                                
