 2010  927 1614 35.6 L   6.771 -73.133152.0  RSN  4 0.1 1.7LRSN                1
 GAP=166        0.40       3.9     5.8  6.8  0.3497E+01 -0.1362E+02  0.1560E+01E
 Epicentro: LOS SANTOS - SANTANDER                                             3
 ACTION:UP  11-02-18 11:06 OP:tino STATUS:               ID:20100927161435 L   I
 2010-09-27-1610-29S.COL___122                                                 6
 STAT SP IPHASW D HRMM SECON CODA AMPLIT PERI AZIMU VELO SNR AR TRES W  DIS CAZ7
 BRR  HZ EP   1   1614 57.38                             153    -0.2 7   74 300 
 BRR  HZ I        1614 57.88        25.7 0.23                            74 300 
 BRR  HN ES   1   1615 14.81                             153     0.1 7   74 300 
 RUS  HZ EP   1   1614 59.89                             146     0.2 7   97 177 
 RUS  HN ES   2   1615 18.33                             146    -0.2 5   97 177 
 RUS  HZ I        1615 19.58         3.2 0.28                            97 177 
 GUE  SZ EP   2   1615  1.01                             140    -0.1 5  119  11 
 NOR  SN ES   2   1615 39.66                             120    -0.1 4  234 235 
                                                                                
