 2014 1127 1434 47.9 L   6.735 -73.098151.8  RSN  4 0.3 1.1LRSN                1
 GAP=238        0.60       5.8     6.1  5.6  0.1834E+02  0.2867E+01  0.1501E+01E
 Epicentro: JORDAN - SANTANDER                                                 3
 ACTION:UPD 14-12-19 15:48 OP:nd   STATUS:               ID:20141127143447 L   I
 OLDACT:DUP 14-11-27 23:45 OP:spq  STATUS:               ID:20141127142752d    3
 2014-11-27-1427-50M.COL___303                                                 6
 STAT SP IPHASW D HRMM SECON CODA AMPLIT PERI AZIMU VELO AIN AR TRES W  DIS CAZ7
 BAR2 SZ EP   1   1435  7.57                             173   -0.55 7 18.3 210 
 BAR2 SZ ES   1   1435 23.82                             173   -0.11 7 18.3 210 
 BAR2 SZ I        1435 26.30         2.6 0.20            159           18.3 210 
 BRR  HZ EP       1435 10.25                             151    0.1310 79.3 301 
 BRR  HN ES       1435 27.61                             151    0.1310 79.3 301 
 RUS  HZ EP   1   1435 12.17                             147    0.47 7 93.2 179 
 RUS  HE ES   1   1435 30.31                             147    0.01 7 93.2 179 
 RUS  HZ I        1435 36.07         1.2 0.38            140           93.2 179 
 PTB  HZ EP       1435 15.52                             133   -0.15 9  152 262 
 PTB  HE ES   1   1435 37.32                             133   -0.05 7  152 262 
 PTB  HZ I        1435 43.66         2.5 0.38            129            152 262 
                                                                                
