 2015  227 1623 29.5 L   7.108 -73.739 94.6  RSN 11 0.5 2.3LRSN                1
 GAP= 79        1.20       3.4     3.6  7.2 -0.2381E+01  0.6016E+01 -0.2727E+01E
 Epicentro: BARRANCABERMEJA - SANTANDER                                        3
 ACTION:UPD 15-04-30 21:29 OP:nd   STATUS:               ID:20150227162329 L   I
 OLDACT:UP  15-02-28 00:08 OP:mh   STATUS:               ID:20150227161735     3
 OLDACT:UP  15-02-28 00:08 OP:mh   STATUS:               ID:20150227161735     3
 OLDACT:REG 15-02-27 22:01 OP:mh   STATUS:               ID:20150227161735     3
 2015-02-27-1617-35M.COL___296                                                 6
 STAT SP IPHASW D HRMM SECON CODA AMPLIT PERI AZIMU VELO AIN AR TRES W  DIS CAZ7
 BRR  HZ EP       1623 42.53                             178    0.2310 3.04  93 
 BRR  HN ES       1623 52.72                             178    0.4510 3.04  93 
 BRR  HZ I        1623 53.43        66.1 0.12            178           3.04  93 
 BAR2 EZ EP       1623 47.17                             136    0.3510 84.0 133 
 BAR2 EZ ES       1624  0.10                             136   -0.2310 84.0 133 
 BAR2 EZ I        1624  1.77        71.1 0.42            139           84.0 133 
 PTB  HZ EP       1623 47.49                             130   -0.6010  101 232 
 PTB  HN ES       1624  1.93                             130   -0.6510  101 232 
 PTB  HZ I        1624  4.38        28.3 0.18            132            101 232 
 PAM  SZ EP   1   1623 50.16                             125   -0.18 7  118  77 
 PAM  SN ES       1624  6.58                             125    0.0010  118  77 
 PAM  SZ I        1624 10.49        29.7 0.34            128            118  77 
 ZAR  HZ EP   1   1623 51.76                             122    0.72 7  131 289 
 ZAR  HE ES       1624  8.41                             122    0.5810  131 289 
 ZAR  HZ I        1624 12.54        50.5 0.28            123            131 289 
 OCA  HZ EP       1623 52.04                             121    0.5210  133  20 
 OCA  HN ES       1624  8.24                             121   -0.4410  133  20 
 SML  HZ EP   1   1623 56.72                             112   -0.95 7  191 349 
 SML  HN ES       1624 19.18                             112   -0.45 9  191 349 
 SML  HZ I        1624 22.86        53.5 0.10            113            191 349 
 URE  HZ EP   4   1624  1.45                             110    1.49 0  210 290 
 URE  HN ES   4   1624 22.24                             110   -1.46 0  210 290 
 GUY2CHZ EP   1   1624  8.83                             105    0.64 6  275 221 
 GUY2CHN ES   4   1624 38.27                             105   -0.09 0  275 221 
 GUY2CHZ I        1624 47.35         7.1 0.62                           275 221 
 MON  HZ EP   4   1624  8.52                             104    0.19 0  281 311 
 MON  HN ES   4   1624 38.66                             104    0.05 0  281 311 
 MON  HZ I        1624 41.03        10.7 0.22            105            281 311 
 RREF HZ EP   4   1624 11.53                             103   -0.07 0  302 216 
 RREF HN ES       1624 43.93                             103   -0.50 7  302 216 
 TOL  SZ EP       1624 15.32                             102    0.80 7  329 212 
 TOL  SN ES   4   1624 50.87                             102    1.25 0  329 212 
                                                                                
