 2017  827 1940 31.3 L   7.388 -73.190135.6  RSN  7 0.3 1.6LRSN                1
 GAP=182        0.68       3.6     3.1  4.7  0.1511E+01  0.5124E+01  0.1693E+01E
 Epicentro: EL PLAYON - SANTANDER                                              3
 ACTION:UPD 17-09-04 20:25 OP:rebc STATUS:               ID:20170827194031 L   I
 OLDACT:REG 17-08-27 21:32 OP:osc  STATUS:               ID:20170827193741     3
 2017-08-27-1938-00M.COL___417                                                 6
 STAT SP IPHASW D HRMM SECON CODA AMPLIT PERI AZIMU VELO AIN AR TRES W  DIS CAZ7
 PAM  EZ EP       1940 51.20                             157    0.0610 54.4  96 
 PAM  EE ES       1941  6.73                             157    0.0910 54.4  96 
 PAM  EZ I        1941  9.03         7.4 0.24            158           54.4  96 
 BRR  HZ EP       1940 50.82                             153   -0.1810 65.5 242 
 BRR  HE ES       1941  6.20                             153   -0.1910 65.5 242 
 BRR  HZ I        1941  6.94        20.3 0.10            152           65.5 242 
 BAR2 EZ EP       1940 52.89                             145    0.1310 88.0 179 
 BAR2 EZ ES       1941  9.42                             145   -0.1110 88.0 179 
 BAR2 EZ I        1941 10.38        13.9 0.15            145           88.0 179 
 RUS  HZ EP       1940 59.56                             126   -0.24 9  166 176 
 RUS  HE ES       1941 22.15                             126    0.10 9  166 176 
 RUS  HZ I        1941 28.05         1.1 0.20            127            166 176 
 ZAR  HZ EP       1941  0.86                             123   -0.18 9  185 274 
 ZAR  HE ES       1941 24.62                             123    0.36 9  185 274 
 ZAR  HZ I        1941 27.30         4.8 0.16            124            185 274 
 SPBC HE ES   2   1941 31.23                             119    1.02 4  215 207 
 GUY2CHZ EP       1941 19.39                             108    0.56 7  339 225 
 GUY2CHE ES       1941 55.31                             108   -0.61 7  339 225 
                                                                                
