 2017  727 1928 37.0 L   7.229 -73.271121.3  RSN  4 0.2 1.8LRSN                1
 GAP=253        0.46       4.6     3.1  4.0  0.7078E+01  0.6388E+00 -0.5869E+01E
 Epicentro: RIONEGRO - SANTANDER                                               3
 ACTION:UPD 17-08-30 15:37 OP:rebc STATUS:               ID:20170727192837 L   I
 OLDACT:REG 17-07-27 22:00 OP:ar   STATUS:               ID:20170727191743     3
 2017-07-27-1918-00M.COL___383                                                 6
 STAT SP IPHASW D HRMM SECON CODA AMPLIT PERI AZIMU VELO AIN AR TRES W  DIS CAZ7
 BRR  HZ EP       1928 54.20                             156   -0.1810 50.6 255 
 BRR  HN ES       1929  7.81                             156   -0.1210 50.6 255 
 BAR2 EZ EP       1928 55.98                             148    0.0610 71.1 172 
 BAR2 EZ ES       1929 10.81                             148    0.1510 71.1 172 
 BAR2 EZ I        1929 11.83        36.3 0.28            146           71.1 172 
 PTB  HZ EP       1929  2.27                             125   -0.23 9  152 240 
 PTB  HN ES       1929 22.37                             125    0.00 9  152 240 
 PTB  HZ I        1929 25.26         2.7 0.62            123            152 240 
 ZAR  HZ EP       1929  5.39                             120    0.23 9  178 280 
 ZAR  HN ES       1929 27.24                             120    0.13 9  178 280 
 ZAR  HZ I        1929 30.10         8.2 0.38            120            178 280 
                                                                                
