 2015  227 1104 30.7 L   6.801 -73.139147.1  RSN 12 0.5 2.6LRSN                1
 GAP=137        1.04       3.3     5.0  5.5 -0.5921E+01  0.5699E+01  0.2613E+01E
 Epicentro: LOS SANTOS - SANTANDER                                             3
 ACTION:UPD 15-04-30 21:29 OP:nd   STATUS:               ID:20150227110430 L   I
 OLDACT:UP  15-02-27 23:10 OP:mh   STATUS:               ID:20150227105749     3
 OLDACT:REG 15-02-27 21:10 OP:mh   STATUS:               ID:20150227105749     3
 2015-02-27-1057-49M.COL___294                                                 6
 STAT SP IPHASW D HRMM SECON CODA AMPLIT PERI AZIMU VELO AIN AR TRES W  DIS CAZ7
 BAR2 EZ EP       11 4 50.60                             170    0.1310 23.6 192 
 BAR2 EZ ES       11 5  5.81                             170   -0.1010 23.6 192 
 BAR2 EZ I        11 5  7.07        33.5 0.38            169           23.6 192 
 BRR  HZ EP       11 4 52.59                             153    0.5810 71.8 298 
 BRR  HN ES       11 5  8.76                             153    0.1210 71.8 298 
 BRR  HZ I        11 5 15.30     23178.7 0.02            149           71.8 298 
 PAM  SZ EP       11 4 53.48                             151    0.4810 76.8  39 
 PAM  SE ES       11 5 10.60                             151    0.1810 76.8  39 
 PAM  SZ I        11 5 12.87        20.1 0.23            155           76.8  39 
 RUS  HZ EP       11 4 54.42                             144   -0.1510  101 176 
 RUS  HN ES   1   11 5 12.38                             144   -0.82 7  101 176 
 RUS  HZ I        11 5 14.49        15.3 0.42            147            101 176 
 PTB  HZ EP       11 4 57.19                             132   -0.63 9  148 259 
 PTB  HN ES       11 5 18.59                             132   -0.40 9  148 259 
 PTB  HZ I        11 5 24.55        33.6 0.38            131            148 259 
 OCA  HZ EP       11 4 59.12                             130    0.03 9  160 353 
 OCA  HN ES   1   11 5 21.05                             130   -0.20 7  160 353 
 OCA  HZ I        11 5 26.34        28.9 0.30            131            160 353 
 SPBC HZ EP       11 4 59.48                             129    0.15 9  164 219 
 SPBC HN ES       11 5 21.78                             129    0.10 9  164 219 
 SPBC HZ I        11 5 28.64        63.9 0.32            130            164 219 
 SML  HZ EP   1   11 5  6.58                             118   -0.82 6  244 335 
 SML  HE ES   1   11 5 35.58                             118   -0.47 6  244 335 
 SML  HZ I        11 5 40.16        37.2 0.10            119            244 335 
 ROSC BZ EP   4   11 5  8.54                             117   -0.38 0  253 211 
 ROSC BN ES   4   11 5 40.71                             117    1.96 0  253 211 
 URE  HZ EP   4   11 5  9.58                             114   -2.30 0  284 292 
 URE  HN ES   4   11 5 42.28                             114   -1.74 0  284 292 
 GUY2CHZ EP   4   11 5 14.72                             112    0.30 0  302 235 
 GUY2CHN ES   4   11 5 51.44                             112    2.90 0  302 235 
 GUY2CHZ I        11 5 57.60        15.9 0.30                           302 235 
 TOL  SZ EP       11 5 19.59                             109    0.53 7  344 225 
 TOL  SN ES       11 5 58.17                             109    1.38 7  344 225 
 TOL  SZ I        11 6  3.53        11.0 0.54            111            344 225 
 PRA  HZ EP       11 5 23.68                             107   -0.62 6  392 210 
 PRA  HN ES       11 6  5.48                             107   -0.64 6  392 210 
 PRA  HZ I        11 6 11.08        12.5 0.54            108            392 210 
 ORTC HZ EP       11 5 24.47                             106   -0.23 6  396 216 
 ORTC HN ES       11 6  7.22                             106    0.38 6  396 216 
 ORTC HZ I        11 6 11.74         6.0 0.20            108            396 216 
 PAL  HZ EP   4   11 5 25.75                             106   -0.21 0  406 239 
 PAL  HN ES   4   11 6  7.59                             106   -1.49 0  406 239 
                                                                                
