 2010  927 1329 18.6 L   6.767 -73.114149.7  RSN  4 0.2 1.6LRSN                1
 GAP=223        0.47      10.7    17.6  8.5  0.1610E+03 -0.8194E+02 -0.4438E+02E
 Epicentro: LOS SANTOS - SANTANDER                                             3
 ACTION:UP  11-02-18 11:06 OP:tino STATUS:               ID:20100927132918 L   I
 2010-09-27-1326-40S.COL___122                                                 6
 STAT SP IPHASW D HRMM SECON CODA AMPLIT PERI AZIMU VELO SNR AR TRES W  DIS CAZ7
 BAR2 SZ ES   2   1329 53.98                             172    -0.3 5   21 202 
 BAR2 SZ I        1329 55.87         8.4 0.15                            21 202 
 BTL  SZ EP   1   1329 38.90                             171     0.2 7   24 315 
 BRR  HZ EP   1   1329 40.38                             152     0.0 7   76 300 
 BRR  HZ I        1329 41.72         8.5 0.66                            76 300 
 BRR  HN ES   1   1329 57.47                             152     0.0 7   76 300 
 RUS  HZ EP   2   1329 42.13                             146    -0.3 5   97 178 
 RUS  HN ES   2   1330  1.32                             146     0.3 5   97 178 
 RUS  HZ I        1330  2.01         3.9 0.28                            97 178 
                                                                                
