 2013  527 1314 38.1 L   6.761 -73.190148.0  RSN  4 0.3 1.6LRSN                1
 GAP=229        0.80       6.3     6.0  6.4  0.1851E+02  0.3621E+01  0.1103E+01E
 Epicentro: VILLANUEVA - SANTANDER                                             3
 ACTION:UPD 13-06-20 09:54 OP:ep   STATUS:               ID:20130527131438 L   I
 2013-05-27-1308-50M.COL___211                                                 6
 STAT SP IPHASW D HRMM SECON CODA AMPLIT PERI AZIMU VELO AIN AR TRES W  DIS CAZ7
 BAR2 SZ EP       1314 57.74                             172   -0.1810 18.7 177 
 BAR2 SZ ES       1315 12.88                             172   -0.5010 18.7 177 
 BAR2 SZ I        1315 14.25         5.9 0.20            169           18.7 177 
 BRR  HZ EP       1314 59.60                             154    0.2110 69.2 304 
 BRR  HN ES       1315 16.34                             154    0.3510 69.2 304 
 BRR  HE I        1315 18.79        11.9 0.22            151           69.2 304 
 RUS  HZ EP       1315  1.73                             145   -0.0810 96.7 173 
 RUS  HN ES       1315 20.73                             145    0.4410 96.7 173 
 RUS  HE I        1315 21.64         5.9 0.44            145           96.7 173 
 PTB  HZ EP       1315  4.69                             134   -0.07 9  142 260 
 PTB  HN ES       1315 25.34                             134   -0.20 9  142 260 
 PTB  HN I        1315 30.68         6.7 0.40            132            142 260 
                                                                                
