 2016  927 1945 16.2 L   6.771 -73.157138.0  RSN  5 0.5 1.5LRSN                1
 GAP=136        1.04       6.1     4.9 12.2 -0.2972E+01  0.8019E+01  0.1996E+01E
 Epicentro: LOS SANTOS - SANTANDER                                             3
 ACTION:UPD 17-08-17 21:17 OP:lp   STATUS:               ID:20160927194516 L   I
 OLDACT:REG 16-09-27 21:33 OP:dani STATUS:               ID:20160927193744     3
 2016-09-27-1938-00M.COL___360                                                 6
 STAT SP IPHASW D HRMM SECON CODA AMPLIT PERI AZIMU VELO AIN AR TRES W  DIS CAZ7
 PAM  EZ EP       1945 37.60                             148   -0.2310 80.6  39 
 PAM  EE ES   2   1945 54.88                             148    0.21 5 80.6  39 
 PAM  EZ I        1945 56.79         8.0 0.17            156           80.6  39 
 RUS  HZ EP       1945 39.15                             143    0.1510 97.5 175 
 RUS  HN ES   2   1945 57.36                             143    0.60 5 97.5 175 
 RUS  HZ I        1945 59.73         2.4 0.34            149           97.5 175 
 PTB  HZ EP       1945 41.65                             130   -0.76 9  146 260 
 PTB  HE ES       1946  2.21                             130   -0.62 9  146 260 
 PTB  HZ I        1946 10.06         6.9 0.50            134            146 260 
 ZAR  HZ EP       1945 48.59                             120    0.40 9  204 293 
 ZAR  HN ES       1946 13.71                             120    0.59 9  204 293 
 ZAR  HZ I        1946 19.76         4.3 0.29            125            204 293 
 NOR  HZ EP       1945 51.53                             117    0.31 8  232 235 
 NOR  HE ES       1946 18.77                             117    0.26 8  232 235 
 NOR  HZ I        1946 24.67         2.9 0.13            122            232 235 
                                                                                
