 2013  927 1819 28.7 L   6.707 -73.146143.5  RSN  5 0.4 1.6LRSN                1
 GAP=140        1.01       5.3     5.2  7.4 -0.2425E+01  0.4831E+01  0.8881E+00E
 Epicentro: VILLANUEVA - SANTANDER                                             3
 OLDACT:REG 13-09-27 16:58 OP:stll STATUS:               ID:20130927181845     3
 ACTION:UPD 13-10-22 09:25 OP:ep   STATUS:               ID:20130927181928 L   I
 OLDACT:UP  13-09-27 20:07 OP:stll STATUS:               ID:20130927181845     3
 2013-09-27-1818-45M.COL___247                                                 6
 STAT SP IPHASW D HRMM SECON CODA AMPLIT PERI AZIMU VELO AIN AR TRES W  DIS CAZ7
 BAR2 SZ EP       1819 48.22                             174    0.3410 13.3 198 
 BAR2 SZ ES       1820  2.99                             174    0.1410 13.3 198 
 BAR2 SZ I        1820  6.30         7.1 0.16            172           13.3 198 
 BRR  HZ EP       1819 50.09                             150    0.1810 76.6 305 
 BRR  HZ I        1819 51.54         8.8 0.14            149           76.6 305 
 BRR  HN ES       1820  7.04                             150    0.5810 76.6 305 
 PAM  SZ EP       1819 50.93                             148   -0.2410 85.6  35 
 PAM  SN ES       1820  8.29                             148   -0.4210 85.6  35 
 PAM  SZ I        1820 10.30         6.4 0.50            152           85.6  35 
 RUS  HZ EP       1819 51.98                             146    0.4910 90.3 176 
 RUS  HN ES       1820  8.97                             146   -0.3110 90.3 176 
 RUS  SZ I        1820 11.50         4.0 1.24            148           90.3 176 
 PTB  HZ EP       1819 54.97                             132   -0.35 9  146 263 
 PTB  HN ES       1820 15.58                             132   -0.51 9  146 263 
 PTB  SZ I        1820 23.77         6.9 0.30            132            146 263 
                                                                                
