 2017 1027 1203 24.0 L   6.837 -73.133146.0  RSN 12 0.6 1.8LRSN                1
 GAP=112        1.30       4.6     4.8  7.0  0.5112E+01  0.4188E+01  0.5194E+01E
 Epicentro: LOS SANTOS - SANTANDER                                             3
 ACTION:UPD 17-11-07 19:37 OP:rebc STATUS:               ID:20171027120324 L   I
 OLDACT:REG 17-10-27 19:43 OP:dhb  STATUS:               ID:20171027115739     3
 2017-10-27-1158-00M.COL___426                                                 6
 STAT SP IPHASW D HRMM SECON CODA AMPLIT PERI AZIMU VELO AIN AR TRES W  DIS CAZ7
 BAR2 EZ IP     C 12 3 43.60                             169   -0.2010 27.6 191 
 BAR2 EZ ES       12 3 58.85                             169   -0.3610 27.6 191 
 BAR2 EZ I        12 4  0.20        13.8 0.36            173           27.6 191 
 BRR  HZ IP     C 12 3 45.50                             153    0.3110 70.6 295 
 BRR  HE ES       12 4  2.36                             153    0.6810 70.6 295 
 BRR  HZ I        12 4  5.51         8.8 0.24            152           70.6 295 
 PAM  EZ EP       12 3 46.56                             152    0.5110 73.4  41 
 PAM  EZ I        12 4  5.70         7.4 0.48            148           73.4  41 
 RUS  HZ EP       12 3 47.53                             143   -0.5810  105 177 
 RUS  HN ES       12 4  6.72                             143   -0.1610  105 177 
 RUS  HZ I        12 4  9.65         5.7 0.20            145            105 177 
 PTB  HZ EP       12 3 50.30                             132   -0.94 9  150 257 
 PTB  HE ES       12 4 12.19                             132   -0.25 9  150 257 
 PTB  HZ I        12 4 17.47         7.0 0.56            132            150 257 
 SPBC HZ EP   1   12 3 52.59                             128   -0.36 7  167 218 
 SPBC HN ES       12 4 14.81                             128   -0.68 9  167 218 
 SPBC HZ I        12 4 21.52        12.4 0.38            130            167 218 
 YPLC HZ IP     C 12 3 53.86                             126   -0.29 9  180 152 
 YPLC HN ES       12 4 18.31                             126    0.69 9  180 152 
 YPLC HZ I        12 4 20.48         5.1 0.32            126            180 152 
 ZAR  HZ EP       12 3 57.11                             122    0.62 9  204 291 
 ZAR  HE ES       12 4 21.60                             122   -0.19 9  204 291 
 ZAR  HZ I        12 4 28.30         6.3 0.48            122            204 291 
 NOR  HZ EP       12 3 59.49                             118   -0.68 8  238 234 
 NOR  HN ES       12 4 28.59                             118    0.25 8  238 234 
 NOR  HZ I        12 4 34.06         5.9 0.14            118            238 234 
 CHI  HZ EP       12 4  1.94                             117   -0.29 8  253 195 
 CHI  HE ES       12 4 32.59                             117    0.59 8  253 195 
 CHI  HZ I        12 4 36.56         2.5 0.28            117            253 195 
 GUY2CHZ EP       12 4  8.85                             112    0.79 7  305 234 
 GUY2CHE ES   2   12 4 44.03                             112    1.64 4  305 234 
 GUY2CHZ I        12 4 49.99         5.1 0.42                           305 234 
 PRA  HZ EP       12 4 17.95                             106   -0.12 6  396 209 
 PRA  HE ES       12 5  1.58                             106    1.37 6  396 209 
 PRA  HZ I        12 5  6.12         3.3 0.24            106            396 209 
                                                                                
