 2010  627 1624 39.1 L   6.759 -73.097146.2  RSN  6 0.2 2.0LRSN                1
 GAP=162        0.40       2.6     4.5  4.2 -0.3668E+01 -0.7582E+00 -0.7114E+00E
 Epicentro: LOS SANTOS - SANTANDER                                             3
 ACTION:UP  10-08-24 10:13 OP:vdl  STATUS:               ID:20100627162439 L   I
 2010-06-27-1621-03S.COL___118                                                 6
 STAT SP IPHASW D HRMM SECON CODA AMPLIT PERI AZIMU VELO SNR AR TRES W  DIS CAZ7
 BAR2 SZ EP   1   1624 58.75                             171     0.0 7   21 207 
 BAR2 SZ ES   1   1625 13.85                             171    -0.2 7   21 207 
 BRR  HZ IP     C 1625  0.67                             150     0.010   78 300 
 BRR  HZ I        1625  2.61        23.6 0.04                            78 300 
 BRR  HE ES   1   1625 17.64                             150     0.1 7   78 300 
 RUS  HZ EP   2   1625  2.40                             145    -0.1 5   96 179 
 RUS  HE ES   2   1625 20.97                             145     0.1 5   96 179 
 BRI  SZ EP   1   1625  3.47                             141     0.3 7  111  17 
 BRI  SZ ES   1   1625 22.10                             141     0.1 7  111  17 
 GRA  SZ ES   1   1625 24.34                             136    -0.2 7  129  15 
 OCA  SZ EP   2   1625  7.50                             129    -0.4 5  165 351 
 OCA  SZ I        1625 32.47         9.1 0.21                           165 351 
                                                                                
