 2013  127 1953 31.9 L   6.039 -73.712116.1  RSN  4 0.3 1.2LRSN                1
 GAP=201        0.64       6.0     4.5  9.7  0.1172E+02  0.1420E+02  0.1426E+02E
 Epicentro: BOLIVAR - SANTANDER                                                3
 ACTION:UPD 13-02-15 09:17 OP:ep   STATUS:               ID:20130127195331 L   I
 2013-01-27-1950-00M.COL___241                                                 6
 STAT SP IPHASW D HRMM SECON CODA AMPLIT PERI AZIMU VELO AIN AR TRES W  DIS CAZ7
 RUS  HZ EP   1   1953 50.89                             147    0.20 7 71.5 103 
 RUS  HN ES   1   1954  5.13                             147   -0.19 7 71.5 103 
 RUS  HZ I        1954  6.36         1.8 0.50            149           71.5 103 
 BAR2 SZ EP   1   1953 51.66                             141    0.37 7 84.7  44 
 BAR2 SZ ES   1   1954  6.32                             141   -0.06 7 84.7  44 
 PTB  HZ EP   1   1953 51.60                             136   -0.54 7 99.2 304 
 PTB  HE ES   1   1954  8.24                             136    0.34 7 99.2 304 
 PTB  HZ I        1954  8.78         6.4 0.52            139           99.2 304 
 BRR  HN ES   1   1954 10.69                             131   -0.13 7  118   0 
                                                                                
