 2012  627 1713 33.2 L   7.262 -73.124144.8  RSN  5 0.2 1.7LRSN                1
 GAP=162        0.33       5.7     3.9  5.3 -0.3698E+01  0.4512E+01 -0.1370E+02E
 Epicentro: RIONEGRO - SANTANDER                                               3
 ACTION:UPD 12-08-06 17:53 OP:ep   STATUS:               ID:20120627171333 L   I
 2012-06-27-1710-00M.COL___201                                                 6
 STAT SP IPHASW D HRMM SECON CODA AMPLIT PERI AZIMU VELO AIN AR TRES W  DIS CAZ7
 PAM  SZ EP   2   1713 53.94                             161    0.16 5 47.6  80 
 PAM  SN ES   2   1714  9.70                             161   -0.17 5 47.6  80 
 BRR  HZ EP       1713 53.95                             154   -0.0310 67.2 255 
 BRR  HZ I        1713 54.38        13.6 0.12                          67.2 255 
 BRR  HN ES   1   1714 10.30                             154    0.07 7 67.2 255 
 BAR2 SZ ES   1   1714 11.59                             151    0.03 7 74.3 185 
 BAR2 SZ I        1714 12.94         8.5 0.24                          74.3 185 
 PTB  HN ES   3   1714 23.71                             128   -0.61 2  168 242 
 ZAR  HZ EP   3   1714  4.62                             124    0.19 2  193 278 
                                                                                
