 2016 1227 1931 16.8 L   6.538 -73.531111.7  RSN  8 0.5 1.8LRSN                1
 GAP= 64        0.93       3.8     4.2  7.5 -0.4713E+01  0.1776E+02 -0.3595E+01E
 Epicentro: EL CARMEN - SANTANDER                                              3
 ACTION:UPD 17-01-11 20:19 OP:rebc STATUS:               ID:20161227193116 L   I
 OLDACT:UP  16-12-28 00:10 OP:cog  STATUS:               ID:20161227192745     3
 OLDACT:REG 16-12-27 20:59 OP:cog  STATUS:               ID:20161227192745     3
 2016-12-27-1928-00M.COL___369                                                 6
 STAT SP IPHASW D HRMM SECON CODA AMPLIT PERI AZIMU VELO AIN AR TRES W  DIS CAZ7
 BAR2 EZ EP       1931 33.21                             160    0.3610 39.0  81 
 BAR2 EZ ES       1931 45.08                             160   -0.3310 39.0  81 
 BRR  HZ EP       1931 34.15                             147    0.1510 66.1 342 
 BRR  HE ES   3   1931 49.08                             147    1.63 2 66.1 342 
 RUS  HZ EP       1931 36.27                             140    0.0610 86.8 145 
 RUS  HN ES       1931 51.83                             140    0.4510 86.8 145 
 RUS  HZ I        1931 53.45         8.3 0.36            140           86.8 145 
 PTB  HZ EP       1931 36.00                             134   -0.8410  102 270 
 PTB  HN ES   3   1931 51.19                             134   -1.32 2  102 270 
 PTB  HZ I        1931 55.85        14.3 0.10            136            102 270 
 PAM  EZ EP       1931 39.73                             128   -0.0810  128  46 
 PAM  EN ES       1931 57.59                             128   -0.2110  128  46 
 PAM  EZ I        1931 58.65        11.7 0.18            132            128  46 
 ZAR  HZ EP       1931 45.05                             117    0.39 9  181 306 
 ZAR  HE ES   3   1932  7.62                             117    1.19 2  181 306 
 NOR  HZ EP       1931 44.86                             117   -0.13 9  183 234 
 NOR  HN ES       1932  7.19                             117    0.17 9  183 234 
 NOR  HZ I        1932  9.31        12.7 0.16            118            183 234 
 CHI  HZ EP       1931 48.67                             113    0.01 8  212 186 
 CHI  HN ES   4   1932 15.35                             113    1.80 0  212 186 
 CHI  HZ I        1932 19.74         4.0 0.44            114            212 186 
 ANIL HZ EP   4   1932  5.40                             104    5.91 0  307 223 
 ANIL HE ES   4   1932 28.21                             104   -4.61 0  307 223 
                                                                                
