 2010  727 1957 28.9 L   6.763 -73.106145.1  RSN  5 0.3 1.7LRSN                1
 GAP=163        0.57       5.3    11.0  9.7  0.1571E+02 -0.5320E+02 -0.2399E+02E
 Epicentro: LOS SANTOS - SANTANDER                                             3
 ACTION:UPD 10-12-01 15:20 OP:pat  STATUS:               ID:20100727195728 L   I
 2010-07-27-1953-15S.COL___122                                                 6
 STAT SP IPHASW D HRMM SECON CODA AMPLIT PERI AZIMU VELO AIN AR TRES W  DIS CAZ7
 BAR2 SZ EP   1   1957 48.35                             172     0.0 7   21 204 
 BAR2 SZ ES   2   1958  3.35                             172    -0.2 5   21 204 
 BAR2 SZ I        1958  4.89        16.7 0.19                            21 204 
 BRR  HZ EP   1   1957 50.04                             151    -0.3 7   77 300 
 BRR  HE ES   2   1958  7.27                             151     0.3 5   77 300 
 BRR  HZ I        1958 12.80        12.4 0.31                            77 300 
 RUS  HZ EP   1   1957 52.36                             145     0.1 7   96 178 
 RUS  HE ES   2   1958 10.52                             145     0.0 5   96 178 
 RUS  HZ I        1958 11.59         4.5 0.51                            96 178 
 GUE  SZ EP   1   1957 54.23                             138     0.4 7  120  10 
 GRA  SZ EP   1   1957 53.98                             136    -0.3 7  128  15 
                                                                                
