 2011  727 1400 43.3 L   6.136 -73.726106.3  RSN  5 0.3 1.8LRSN                1
 GAP=130        0.52       2.7     6.7 11.1  0.1846E+01  0.5239E+02  0.1299E+02E
 Epicentro: LANDAZURI - SANTANDER                                              3
 ACTION:UPD 12-07-25 14:03 OP:epov STATUS:               ID:20110727140043 L   I
 2011-07-27-1359-55S.COL___141                                                 6
 STAT SP IPHASW D HRMM SECON CODA AMPLIT PERI AZIMU VELO AIN AR TRES W  DIS CAZ7
 BAR2 SZ EP   1   14 1  1.30                             141    0.04 7 78.5  50 
 BAR2 SZ ES   1   14 1 15.32                             141    0.07 7 78.5  50 
 BAR2 SZ I        14 1 18.43        28.4 0.65                          78.5  50 
 BRR  HZ EP   1   14 1  3.37                             131   -0.02 7  107   1 
 BRR  HZ I        14 1  7.31        16.5 0.33                           107   1 
 BRR  HN ES   1   14 1 18.80                             131   -0.25 7  107   1 
 CHI  HZ EP   1   14 1  9.75                             118   -0.17 7  167 180 
 CHI  HN ES   1   14 1 30.88                             118    0.21 7  167 180 
 CHI  HZ I        14 1 39.42         5.6 0.46                           167 180 
 HEL  HZ EP   1   14 1 13.96                             113    0.45 6  200 272 
 HEL  HZ I        14 1 41.64         6.4 0.30                           200 272 
 PRA  HE ES   2   14 1 55.61                             103   -0.86 4  297 206 
                                                                                
