 2015  127 1140 17.2 L   6.797 -73.116149.5  RSN 17 0.4 2.1LRSN                1
 GAP= 68        0.86       2.8     3.2  5.2 -0.7564E+00  0.1201E+01  0.3917E+01E
 Epicentro: LOS SANTOS - SANTANDER                                             3
 ACTION:UPD 15-03-02 15:42 OP:nd   STATUS:               ID:20150127114017 L   I
 OLDACT:DUP 15-01-27 21:36 OP:spq  STATUS:               ID:20150127113751d    3
 2015-01-27-1137-50M.COL___277                                                 6
 STAT SP IPHASW D HRMM SECON CODA AMPLIT PERI AZIMU VELO AIN AR TRES W  DIS CAZ7
 BAR2 EZ EP       1140 37.10                             171   -0.1510 23.8 198 
 BAR2 EZ ES   1   1140 52.41                             171   -0.51 7 23.8 198 
 BAR2 EZ I        1140 53.89        13.9 0.48            167           23.8 198 
 BRR  HZ EP   1   1140 39.15                             152    0.26 7 74.3 298 
 BRR  HN ES       1140 56.67                             152    0.8410 74.3 298 
 BRR  HZ I        1141  0.42        18.9 0.26            149           74.3 298 
 PAM  SZ EP       1140 39.83                             152    0.1610 75.6  37 
 PAM  SE ES       1140 57.11                             152   -0.1110 75.6  37 
 PAM  SZ I        1140 59.16        24.2 0.54            155           75.6  37 
 RUS  HZ EP       1140 41.01                             145   -0.2410  100 178 
 RUS  HE ES       1141  0.00                             145   -0.0310  100 178 
 RUS  HZ I        1141  1.54         9.8 0.32            143            100 178 
 TAM  HZ EP     D 1140 45.27                             132    0.43 9  152 105 
 OCA  HN ES   1   1141  8.00                             130   -0.19 7  161 352 
 OCA  HZ I        1141 10.34         9.5 0.05            131            161 352 
 SPBC HZ EP       1140 46.08                             129   -0.05 9  165 220 
 SPBC HN ES       1141  8.43                             129   -0.28 9  165 220 
 SPBC HZ I        1141 14.31        24.8 0.26            128            165 220 
 ZAR  HE ES       1141 15.46                             123   -0.47 8  207 292 
 ZAR  HZ I        1141 20.91        14.1 0.30            121            207 292 
 NOR  HZ EP   1   1140 53.44                             119    0.06 6  237 235 
 NOR  HE ES       1141 21.67                             119    0.04 8  237 235 
 NOR  HZ I        1141 26.70         9.4 0.18            118            237 235 
 SML  HE ES   1   1141 22.31                             118   -0.74 6  245 335 
 SML  HZ I        1141 28.55        18.8 0.24            118            245 335 
 CHI  HZ EP       1140 55.39                             118    0.25 8  249 196 
 CHI  HN ES   1   1141 24.77                             118    0.02 6  249 196 
 CHI  HZ I        1141 30.21         4.2 0.26            117            249 196 
 HEL  HZ EP   4   1140 59.53                             115    1.62 0  275 256 
 HEL  HE ES   1   1141 29.96                             115    0.26 6  275 256 
 HEL  HZ I        1141 35.62         6.6 0.24            114            275 256 
 GUY2CHZ EP   4   1141  2.50                             113    1.27 0  304 235 
 GUY2CHE ES   4   1141 38.50                             113    2.90 0  304 235 
 GUY2CHZ I        1141 43.95         5.9 0.58                           304 235 
 PTGC HZ EP   1   1141  0.14                             112   -0.88 5  307 159 
 PTGC HN ES   4   1141 33.52                             112   -1.71 0  307 159 
 PTGC HZ I        1141 42.28        17.5 0.44            112            307 159 
 RREF HZ EP   1   1141  4.54                             111    0.81 5  324 230 
 RREF HE ES   4   1141 43.21                             111    3.15 0  324 230 
 RREF HZ I        1141 49.26         6.7 0.34            111            324 230 
 TOL  SZ EP   4   1141  6.97                             110    1.16 0  346 225 
 TOL  SN ES   4   1141 46.34                             110    2.58 0  346 225 
 TOL  SZ I        1141 51.72         6.7 0.82            109            346 225 
 MON  HN ES   4   1141 43.26                             109   -1.96 0  356 308 
 MON  HZ I        1141 44.62         1.6 0.30            109            356 308 
                                                                                
