 2015  227 1327  1.0 L   6.831 -73.189148.0  RSN  7 0.5 2.0LRSN                1
 GAP=150        1.10       4.0     5.9  7.7 -0.8587E+01  0.3683E+01  0.6705E+01E
 Epicentro: ZAPATOCA - SANTANDER                                               3
 ACTION:UPD 15-04-30 21:29 OP:nd   STATUS:               ID:20150227132701 L   I
 OLDACT:UP  15-02-27 23:51 OP:mh   STATUS:               ID:20150227131746     3
 OLDACT:REG 15-02-27 21:41 OP:mh   STATUS:               ID:20150227131746     3
 2015-02-27-1317-46M.COL___287                                                 6
 STAT SP IPHASW D HRMM SECON CODA AMPLIT PERI AZIMU VELO AIN AR TRES W  DIS CAZ7
 BRR  HZ EP       1327 22.24                             155    0.1910 65.3 298 
 BRR  HE ES       1327 39.30                             155    0.8110 65.3 298 
 BRR  HZ I        1327 42.73        16.5 0.28            153           65.3 298 
 PAM  SZ EP       1327 23.68                             151    0.2110 78.0  44 
 PAM  SN ES       1327 40.56                             151   -0.4510 78.0  44 
 PAM  SZ I        1327 42.78        27.6 0.50            155           78.0  44 
 PTB  HZ EP       1327 27.16                             133   -0.61 9  144 257 
 PTB  HN ES   1   1327 48.33                             133   -0.34 7  144 257 
 PTB  HZ I        1327 50.22        10.3 0.42            133            144 257 
 SPBC HZ EP       1327 29.63                             130    0.01 9  163 217 
 SPBC HN ES       1327 51.80                             130   -0.17 9  163 217 
 SPBC HZ I        1327 58.28        15.0 0.42            130            163 217 
 NOR  HZ EP       1327 37.57                             119    0.93 8  233 233 
 NOR  HN ES       1328  4.28                             119   -0.17 8  233 233 
 NOR  HZ I        1328 10.83         6.2 0.14            120            233 233 
 SML  HZ EP       1327 37.07                             118   -0.11 8  239 336 
 SML  HN ES       1328  5.00                             118   -0.42 8  239 336 
 SML  HZ I        1328 15.02         9.3 0.26            120            239 336 
 CHI  HZ EP       1327 39.39                             117    0.36 8  251 194 
 CHI  HN ES       1328  8.20                             117   -0.51 8  251 194 
 CHI  HZ I        1328 15.90         2.6 0.30            119            251 194 
                                                                                
