 2011  827 1810 44.8 L   7.411 -73.184132.4  RSN  6 0.3 2.3LRSN                1
 GAP=111        0.58       2.9     4.7  5.5 -0.3587E+01  0.7081E+01 -0.3545E+01E
 Epicentro: EL PLAYON - SANTANDER                                              3
 ACTION:UPD 12-07-13 15:54 OP:ep   STATUS:               ID:20110827181044 L   I
 2011-08-27-1806-05S.COL___161                                                 6
 STAT SP IPHASW D HRMM SECON CODA AMPLIT PERI AZIMU VELO AIN AR TRES W  DIS CAZ7
 PAM  SZ EP   1   1811  4.61                             157    0.29 7 54.1  98 
 PAM  SE ES   1   1811 19.10                             157   -0.42 7 54.1  98 
 BRR  HZ IP     D 1811  4.34                             151    0.0310 67.2 240 
 BRR  HN ES   1   1811 19.82                             151    0.32 7 67.2 240 
 BRR  HZ I        1811 21.56        42.2 0.09                          67.2 240 
 BAR2 SZ EP   1   1811  6.31                             144    0.13 7 90.5 180 
 BAR2 SZ ES   1   1811 22.76                             144   -0.07 7 90.5 180 
 BAR2 SZ I        1811 23.91        42.1 0.14                          90.5 180 
 OCA  SZ EP   1   1811  6.58                             143    0.35 7 92.8 351 
 OCA  SZ ES   1   1811 22.75                             143   -0.17 7 92.8 351 
 OCA  SZ I        1811 24.95        26.3 0.18                          92.8 351 
 NOR  SN ES   1   1811 54.82                             111   -0.61 6  276 222 
 COD  HZ EP   1   1811 24.78                             111   -0.11 6  281 354 
 COD  HZ I        1811 34.34        11.1 0.72                           281 354 
 COD  HE ES   2   1811 55.74                             111   -0.40 4  281 354 
                                                                                
