 2013  227 1102 11.7 L   6.757 -73.217140.1  RSN  6 0.3 1.6LRSN                1
 GAP=223        0.59       4.7     6.5  8.9  0.1822E+02  0.3077E+02  0.1478E+02E
 Epicentro: VILLANUEVA - SANTANDER                                             3
 ACTION:UPD 13-03-12 09:36 OP:ep   STATUS:               ID:20130227110211 L   I
 2013-02-27-1100-00M.COL___226                                                 6
 STAT SP IPHASW D HRMM SECON CODA AMPLIT PERI AZIMU VELO AIN AR TRES W  DIS CAZ7
 BAR2 SZ ES   1   11 2 44.81                             172   -0.42 7 18.6 168 
 BRR  HZ EP   1   11 2 31.80                             153   -0.16 7 67.0 305 
 BRR  HN ES   1   11 2 48.22                             153    0.43 7 67.0 305 
 RUS  HN ES   1   11 2 52.73                             144    0.28 7 96.7 171 
 RUS  HZ I        11 2 54.51         4.6 0.36            137           96.7 171 
 PTB  HN ES   1   11 2 57.17                             132   -0.27 7  139 260 
 PTB  HZ I        11 3  2.77         7.7 0.30            124            139 260 
 ZAR  HN E        11 3  7.87                                            199 294 
 ZAR  HN ES   1   11 3  7.87                             122    0.10 6  199 294 
 ZAR  HZ I        11 3 15.15         7.0 0.26            116            199 294 
 CHI  HN ES   1   11 3 16.99                             117    0.06 6  242 194 
 CHI  HZ I        11 3 23.40         2.3 0.30            111            242 194 
                                                                                
