 2016 1027 1719 42.0 L   6.777 -73.098144.3  RSN 12 0.3 2.2LRSN                1
 GAP= 97        1.00       4.1     5.0  5.5 -0.7350E+01 -0.5539E+01  0.4536E+01E
 Epicentro: LOS SANTOS - SANTANDER                                             3
 ACTION:UPD 16-11-09 19:23 OP:rebc STATUS:               ID:20161027171942 L   I
 OLDACT:UP  16-10-27 23:39 OP:dani STATUS:               ID:20161027171744     3
 OLDACT:UP  16-10-27 23:38 OP:dani STATUS:               ID:20161027171744     3
 OLDACT:REG 16-10-27 20:37 OP:edw  STATUS:               ID:20161027171744     3
 2016-10-27-1718-00M.COL___349                                                 6
 STAT SP IPHASW D HRMM SECON CODA AMPLIT PERI AZIMU VELO AIN AR TRES W  DIS CAZ7
 BAR2 EZ EP     D 1720  1.19                             171   -0.2810 22.4 205 
 BAR2 EZ ES       1720 16.53                             171   -0.0910 22.4 205 
 BAR2 EZ I        1720 17.91        68.6 0.24            166           22.4 205 
 PAM  EZ EP       1720  4.11                             152    0.0910 76.2  35 
 PAM  EE ES       1720 21.03                             152   -0.1410 76.2  35 
 PAM  EZ I        1720 22.17        16.8 0.21            155           76.2  35 
 BRR  HZ EP       1720  3.13                             151   -0.2310 77.0 298 
 BRR  HN ES       1720 20.37                             151    0.3710 77.0 298 
 BRR  HZ I        1720 24.18        34.3 0.26            147           77.0 298 
 RUS  HZ EP       1720  5.08                             144   -0.3610 97.8 179 
 RUS  HE ES       1720 24.16                             144    0.4710 97.8 179 
 RUS  HZ I        1720 25.55        14.5 0.26            144           97.8 179 
 TAM  HZ EP       1720  9.60                             132    0.54 9  149 105 
 PTB  HZ EP   9   1720  7.79                             131   -1.52 0  152 260 
 PTB  HN ES       1720 29.23                             131    0.16 9  152 260 
 PTB  HZ I        1720 34.88        20.7 0.50            128            152 260 
 SPBC HZ EP   2   1720  9.96                             129   -0.59 5  165 221 
 SPBC HN ES       1720 32.51                             129   -0.29 9  165 221 
 SPBC HZ I        1720 40.19        31.7 0.16            127            165 221 
 NOR  HZ EP   9   1720 16.87                             118   -1.11 0  238 236 
 NOR  HE ES       1720 45.33                             118    0.42 8  238 236 
 NOR  HZ I        1720 49.55        11.1 0.50            117            238 236 
 CHI  HZ EP       1720 19.19                             117   -0.35 8  248 197 
 CHI  HN ES       1720 48.76                             117   -0.03 8  248 197 
 CHI  HZ I        1720 52.19         7.6 0.50            117            248 197 
 ROSC BZ EP   9   1720 21.28                             117    1.14 0  253 212 
 ROSC BN ES       1720 52.17                             116    1.17 8  253 212 
 ROSC BZ I        1720 55.58        25.2 0.57            116            253 212 
 HEL  HZ EP       1720 23.24                             114    0.57 7  277 257 
 HEL  HN ES   4   1720 55.73                             114    1.36 0  277 257 
 HEL  HZ I        1720 59.35         9.6 0.56            113            277 257 
 GUY2CHZ EP   4   1720 24.66                             112   -1.24 0  304 236 
 GUY2CHE ES   4   1721  3.82                             112    3.71 0  304 236 
 GUY2CHZ I        1721 12.85         9.6 0.54                           304 236 
 SJC  HZ EP   4   1720 35.40                             106   -2.74 0  414 327 
 URI  HZ EP   4   1720 51.88                             101   -3.28 0  558  12 
                                                                                
