 2010 1127 1142 36.6 L   6.799 -72.988146.2  RSN  5 0.2 1.6LRSN                1
 GAP=176        0.45       4.7    10.2  6.4  0.1162E+02 -0.2046E+02 -0.4631E-01E
 Epicentro: CEPITA - SANTANDER                                                 3
 ACTION:UP  10-12-17 16:55 OP:REBC STATUS:               ID:20101127114236 L   I
 2010-11-27-1138-52S.COL___132                                                 6
 STAT SP IPHASW D HRMM SECON CODA AMPLIT PERI AZIMU VELO SNR AR TRES W  DIS CAZ7
 BAR2 SZ EP   2   1142 56.71                             167     0.3 5   32 223 
 BAR2 SZ ES   2   1143 12.21                             167     0.3 5   32 223 
 BAR2 SZ I        1143 13.60        14.8 0.19                            32 223 
 BRR  HZ EP   2   1142 58.48                             147    -0.2 5   87 293 
 BRR  HZ I        1142 58.98        11.3 0.07                            87 293 
 BRR  HE ES   2   1143 15.97                             147     0.0 5   87 293 
 RUS  HZ EP   2   1143  0.41                             144     0.1 5  101 186 
 RUS  HE ES   2   1143 18.52                             144    -0.4 5  101 186 
 RUS  HZ I        1143 20.81         4.5 0.46                           101 186 
 GRA  SZ EP   2   1143  1.38                             138    -0.1 5  122  10 
 GRA  SZ I        1143  2.28         4.1 0.41                           122  10 
 CHI  HZ EP   1   1143 14.93                             117     0.1 6  254 199 
 CHI  HZ I        1143 47.87         2.0 0.44                           254 199 
                                                                                
