 2011  927 1814 35.5 L   7.443 -73.286118.0  RSN  4 0.1 1.8LRSN                1
 GAP=261        0.36      11.6     8.1  8.9  0.8377E+02 -0.5629E+02 -0.8287E+02E
 Epicentro: EL PLAYON - SANTANDER                                              3
 ACTION:UPD 12-07-13 16:00 OP:ep   STATUS:               ID:20110927181435 L   I
 2011-09-27-1810-46S.COL___165                                                 6
 STAT SP IPHASW D HRMM SECON CODA AMPLIT PERI AZIMU VELO AIN AR TRES W  DIS CAZ7
 BTL  SZ EP   1   1814 53.45                             153    0.22 7 58.0 178 
 BRR  HZ EP       1814 52.89                             152   -0.1110 59.9 232 
 BRR  HE ES   1   1815  6.65                             152    0.00 7 59.9 232 
 BRR  HZ I        1815  8.90        23.9 0.23                          59.9 232 
 BAR2 SZ EP       1814 55.74                             139   -0.0510 94.7 173 
 BAR2 SZ ES   1   1815 11.64                             139    0.01 7 94.7 173 
 BAR2 SZ I        1815 12.85        15.9 0.21                          94.7 173 
 ZAR  HN ES   2   1815 24.59                             120    0.13 4  174 272 
 ZAR  HZ I        1815 33.24         4.4 0.17                           174 272 
                                                                                
