 2017 1227 1554 37.2 L   6.747 -73.149134.7  RSN 10 0.4 2.1LRSN                1
 GAP=103        0.67       3.4     2.2  5.5 -0.3795E+00  0.1650E+01  0.7887E+01E
 Epicentro: LOS SANTOS - SANTANDER                                             3
 ACTION:UPD 18-01-04 13:24 OP:rebc STATUS:               ID:20171227155437 L   I
 OLDACT:UP  17-12-27 23:00 OP:mg   STATUS:               ID:20171227154657     3
 OLDACT:REG 17-12-27 21:09 OP:mg   STATUS:               ID:20171227154657     3
 2017-12-27-1548-00M.COL___435                                                 6
 STAT SP IPHASW D HRMM SECON CODA AMPLIT PERI AZIMU VELO AIN AR TRES W  DIS CAZ7
 BAR2 EZ IP     C 1554 55.57                             172    0.2110 17.5 192 
 BAR2 EZ ES   2   1555  9.97                             172    0.42 5 17.5 192 
 BAR2 EZ I        1555 11.65        53.2 0.20            168           17.5 192 
 PAM  EZ EP     D 1554 58.43                             147   -0.1010 82.2  37 
 PAM  EN ES       1555 15.14                             147   -0.0510 82.2  37 
 PAM  EZ I        1555 16.91        15.9 0.18            153           82.2  37 
 PTB  HZ EP   2   1555  2.45                             130   -0.68 5  146 261 
 PTB  HN ES       1555 22.96                             130   -0.42 9  146 261 
 PTB  HZ I        1555 30.17         8.1 0.08            129            146 261 
 TAM  HZ EP       1555  3.34                             128   -0.55 9  154 103 
 TAM  HE ES       1555 25.00                             128    0.27 9  154 103 
 SPBC HZ EP   1   1555  4.63                             127    0.25 7  158 220 
 SPBC HE ES   1   1555 25.43                             127   -0.18 7  158 220 
 YPLC HZ EP       1555  5.98                             125    0.29 9  172 150 
 YPLC HE ES   1   1555 27.69                             125   -0.24 7  172 150 
 YPLC HZ I        1555 30.59        11.7 0.28            127            172 150 
 ZAR  HZ EP   2   1555  9.26                             120    0.13 4  206 294 
 ZAR  HE ES   1   1555 34.74                             120    0.69 6  206 294 
 ZAR  HZ I        1555 40.31        19.4 0.28            121            206 294 
 GUY2CHZ EP   2   1555 20.00                             110    0.12 4  298 236 
 GUY2CHE ES   2   1555 53.53                             110    0.34 4  298 236 
 GUY2CHZ I        1556  0.84         8.3 0.34                           298 236 
 PRA  HZ EP       1555 30.12                             105    0.41 6  387 210 
 PRA  HE ES   3   1556 11.97                             105    1.28 1  387 210 
 PRA  HZ I        1556 20.15         6.9 0.40            106            387 210 
 ORTC HZ EP       1555 29.83                             105   -0.32 6  391 217 
 ORTC HE ES   2   1556 11.58                             105    0.10 3  391 217 
 ORTC HZ I        1556 18.88         4.9 0.30            106            391 217 
                                                                                
