 2012  727 1202 19.2 L   6.779 -73.196149.5  RSN  5 0.1 1.4LRSN                1
 GAP=230        0.40       4.9     5.1  6.2  0.1840E+02 -0.6597E+01 -0.5881E+01E
 Epicentro: ZAPATOCA - SANTANDER                                               3
 ACTION:UPD 12-08-14 11:45 OP:ep   STATUS:               ID:20120727120219 L   I
 2012-07-27-1200-00M.COL___215                                                 6
 STAT SP IPHASW D HRMM SECON CODA AMPLIT PERI AZIMU VELO AIN AR TRES W  DIS CAZ7
 BAR2 SZ EP   1   12 2 39.16                             172    -0.1 7   21 176 
 BAR2 SZ I        12 2 56.73         4.7 0.26            154             21 176 
 BRR  HZ EP   1   12 2 40.84                             154     0.3 7   68 302 
 BRR  HN ES   1   12 2 57.22                             154     0.0 7   68 302 
 RUS  HZ EP   1   12 2 43.16                             145    -0.1 7   99 173 
 RUS  HN ES   1   12 3  1.94                             145     0.0 7   99 173 
 RUS  HZ I        12 3  2.89         2.2 0.23            138             99 173 
 PTB  HN ES   2   12 3  7.00                             134     0.2 5  142 259 
 ZAR  HN ES   1   12 3 16.46                             124    -0.2 6  200 293 
 ZAR  HZ I        12 3 22.83         3.7 0.42            114            200 293 
