 2012  627 1222 24.4 L   6.780 -73.151140.1  RSN 10 0.5 2.3LRSN                1
 GAP=137        0.88       4.2     4.8  6.7 -0.4078E+00  0.1249E+02  0.3423E+01E
 Epicentro: LOS SANTOS - SANTANDER                                             3
 ACTION:UPD 12-08-06 17:53 OP:ep   STATUS:               ID:20120627122224 L   I
 2012-06-27-1220-00M.COL___201                                                 6
 STAT SP IPHASW D HRMM SECON CODA AMPLIT PERI AZIMU VELO AIN AR TRES W  DIS CAZ7
 BAR2 SZ IP       1222 43.33                             171    0.0510 21.0 189 
 BAR2 SZ ES   1   1222 57.66                             171   -0.36 7 21.0 189 
 BAR2 SZ I        1223  2.09        27.6 0.32                          21.0 189 
 BRR  HZ IP     D 1222 45.07                             151    0.1210 71.8 300 
 BRR  HN ES   1   1223  1.74                             151    0.74 7 71.8 300 
 BRR  HZ I        1223  4.08        52.5 0.60                          71.8 300 
 PAM  SZ EP       1222 46.09                             149   -0.0410 79.5  39 
 PAM  SZ I        1222 46.34        35.0 0.20                          79.5  39 
 PAM  SN ES   1   1223  2.97                             149   -0.11 7 79.5  39 
 RUS  HZ EP       1222 47.38                             143   -0.0410 98.4 176 
 RUS  HN ES   1   1223  5.49                             143    0.10 7 98.4 176 
 RUS  HZ I        1223  7.59        17.8 0.64                          98.4 176 
 PTB  HZ EP       1222 49.85                             131   -0.95 9  147 260 
 PTB  HN ES   3   1223 10.49                             131   -0.91 2  147 260 
 PTB  HZ I        1223 18.10        14.7 0.28                           147 260 
 OCA  HZ EP   3   1222 51.24                             128   -1.22 2  162 353 
 OCA  HZ I        1223 16.83        41.3 0.16                           162 353 
 ZAR  HZ EP       1222 57.20                             121    0.71 9  204 293 
 ZAR  HN ES   1   1223 21.18                             121   -0.36 6  204 293 
 ZAR  HZ I        1223 26.86        26.0 0.38                           204 293 
 NOR  SZ EP       1222 59.77                             117    0.17 8  233 235 
 NOR  SN ES   1   1223 26.84                             117   -0.22 6  233 235 
 CHI  HZ EP   3   1223  2.17                             116    0.65 2  246 195 
 CHI  HN ES   2   1223 31.34                             116    0.85 4  246 195 
 CHI  HZ I        1223 37.91         8.5 0.44                           246 195 
 PRA  HZ EP   2   1223 18.03                             106    0.58 3  390 210 
 PRA  HN ES   2   1223 59.24                             106    0.40 3  390 210 
 PRA  HZ I        1224  7.07        26.9 0.24                           390 210 
                                                                                
