 2017 1227 1624  4.7 L   6.864 -73.298117.1  RSN  8 0.4 1.9LRSN                1
 GAP=119        0.68       3.5     2.9  7.3  0.3919E+00  0.8372E+01  0.1057E+02E
 Epicentro: BETULIA - SANTANDER                                                3
 ACTION:UPD 18-01-04 13:24 OP:rebc STATUS:               ID:20171227162404 L   I
 OLDACT:UP  17-12-27 23:08 OP:mg   STATUS:               ID:20171227161744     3
 OLDACT:UP  17-12-27 23:07 OP:mg   STATUS:               ID:20171227161744     3
 OLDACT:REG 17-12-27 21:12 OP:mg   STATUS:               ID:20171227161744     3
 2017-12-27-1618-00M.COL___444                                                 6
 STAT SP IPHASW D HRMM SECON CODA AMPLIT PERI AZIMU VELO AIN AR TRES W  DIS CAZ7
 BAR2 EZ IP     D 1624 20.67                             163   -0.5010 32.7 157 
 BAR2 EZ ES   2   1624 34.18                             163    0.16 5 32.7 157 
 BAR2 EZ I        1624 34.94        35.4 0.18            164           32.7 157 
 PAM  EZ EP       1624 24.31                             142   -0.1610 84.5  51 
 PAM  EN ES       1624 40.14                             142    0.2510 84.5  51 
 PAM  EZ I        1624 42.99        12.9 0.30            146           84.5  51 
 PTB  HN ES   1   1624 46.24                             128    0.00 7  133 254 
 PTB  HZ I        1624 49.77         6.3 0.16            128            133 254 
 SPBC HZ EPg      1624 30.83                             122    0.09 9  159 213 
 SPBC HZ EP       1624 30.83                             122    0.09 9  159 213 
 SPBC HN ES   2   1624 50.51                             122   -0.54 5  159 213 
 SPBC HZ I        1624 53.95        12.9 0.09            123            159 213 
 ZAR  HZ EP   2   1624 32.61                             118   -0.85 4  186 292 
 ZAR  HN ES       1624 56.10                             118    0.21 9  186 292 
 ZAR  HZ I        1625  0.22        14.8 0.24            119            186 292 
 YPLC HE ES   1   1624 57.45                             117    0.31 7  191 148 
 YPLC HZ I        1624 59.21        17.5 0.41            119            191 148 
 GUY2CHZ EP   1   1624 46.74                             107    0.68 5  292 232 
 GUY2CHN ES   3   1625 17.25                             107   -1.08 2  292 232 
 GUY2CHZ I        1625 21.81         2.3 0.34                           292 232 
 PRA  HE ES   2   1625 38.51                             101    0.41 3  390 207 
 PRA  HZ I        1625 46.36         2.3 0.28            102            390 207 
                                                                                
