 2016 1227 1212 36.0 L   6.815 -73.162144.0  RSN 11 0.4 2.7LRSN                1
 GAP=103        0.90       3.5     3.0  5.2 -0.1613E+01  0.9100E+00  0.6743E+01E
 Epicentro: LOS SANTOS - SANTANDER                                             3
 ACTION:UPD 17-01-11 20:19 OP:rebc STATUS:               ID:20161227121236 L   I
 OLDACT:REG 16-12-27 20:20 OP:cog  STATUS:               ID:20161227120741     3
 2016-12-27-1208-00M.COL___372                                                 6
 STAT SP IPHASW D HRMM SECON CODA AMPLIT PERI AZIMU VELO AIN AR TRES W  DIS CAZ7
 BAR2 EZ EP       1212 55.39                             170   -0.0710 24.7 185 
 BAR2 EZ ES       1213 10.42                             170   -0.2110 24.7 185 
 BAR2 EZ I        1213 11.82        91.0 0.20            165           24.7 185 
 BRR  HZ EP       1212 57.20                             153    0.3610 68.8 298 
 BRR  HN ES       1213 13.50                             153    0.4210 68.8 298 
 BRR  HZ I        1213 16.56        92.0 0.12            153           68.8 298 
 PAM  EZ EP       1212 58.27                             150    0.2310 77.3  41 
 PAM  EE ES       1213 15.37                             150    0.1510 77.3  41 
 PAM  EZ I        1213 17.59       105.2 0.64            157           77.3  41 
 RUS  HZ EP       1212 59.44                             143   -0.2910  102 175 
 RUS  HN ES       1213 17.60                             143   -0.6210  102 175 
 RUS  HZ I        1213 19.92        58.6 0.36            142            102 175 
 PTB  HZ EP       1213  1.87                             132   -0.84 9  146 258 
 PTB  HN ES       1213 23.23                             132   -0.29 9  146 258 
 PTB  HZ I        1213 28.75        72.8 0.22            132            146 258 
 TAM  HZ EP       1213  3.71                             130   -0.05 9  157 105 
 TAM  HN ES       1213 25.52                             130    0.12 9  157 105 
 TAM  HZ I        1213 26.20        41.8 0.56            132            157 105 
 NOR  HZ EP       1213 11.72                             118    0.13 8  234 234 
 NOR  HE ES       1213 39.64                             118    0.31 8  234 234 
 NOR  HZ I        1213 45.49        47.2 0.18            118            234 234 
 CHI  HZ EP       1213 13.69                             117   -0.05 8  250 195 
 CHI  HN ES       1213 43.67                             117    0.50 8  250 195 
 CHI  HZ I        1213 51.03        26.1 0.42            117            250 195 
 ROSC BZ EP   3   1213 14.81                             116    0.71 2  253 210 
 ROSC BN ES   3   1213 44.19                             116    0.40 2  253 210 
 ROSC BZ I        1213 51.37        51.8 0.40            116            253 210 
 VIL  EZ EP       1213 19.42                             112   -0.08 7  305 191 
 VIL  EN ES       1213 54.19                             112    0.78 7  305 191 
 VIL  EZ I        1214  4.04        31.1 0.66            112            305 191 
 PTGC HZ EP   4   1213 18.73                             111   -1.32 0  311 158 
 PTGC HN ES   4   1213 52.15                             111   -2.24 0  311 158 
 PTGC HZ I        1213 54.75        29.3 0.60            112            311 158 
                                                                                
