 2010 1027 1039 29.7 L   6.768 -73.111143.5  RSN  4 0.5 1.3LRSN                1
 GAP=163        1.06       8.3    17.5 15.4  0.1639E+00 -0.6828E+02 -0.1746E+02E
 Epicentro: LOS SANTOS - SANTANDER                                             3
 ACTION:UP  11-02-18 11:12 OP:tino STATUS:               ID:20101027103929 L   I
 2010-10-27-1036-27S.COL___127                                                 6
 STAT SP IPHASW D HRMM SECON CODA AMPLIT PERI AZIMU VELO SNR AR TRES W  DIS CAZ7
 BAR2 SZ EP   1   1039 48.48                             171    -0.5 7   21 202 
 BAR2 SZ ES   2   1040  4.16                             171     0.1 5   21 202 
 BAR2 SZ I        1040  6.80         4.3 0.48                            21 202 
 BRR  HZ EP   1   1039 50.46                             151    -0.4 7   76 299 
 BRR  HZ I        1039 51.96         8.7 0.34                            76 299 
 BRR  HN ES   2   1040  7.77                             151     0.4 5   76 299 
 RUS  HZ EP   1   1039 52.90                             144     0.0 7   97 178 
 RUS  HN ES   2   1040 11.46                             144     0.4 5   97 178 
 RUS  HZ I        1040 12.33         1.3 0.38                            97 178 
 GRA  SZ EP   1   1039 55.77                             136     0.9 7  128  15 
 GRA  SZ ES   2   1040 13.76                             136    -0.8 5  128  15 
 GRA  SZ I        1040 15.81         3.2 0.32                           128  15 
                                                                                
