 2010  327 1106 32.7 L   6.860 -73.054145.1  RSN  4 0.4 1.5LRSN                1
 GAP=251        0.61       7.2    16.1  8.3  0.6314E+02  0.2018E+01  0.1263E+02E
 Epicentro: LOS SANTOS - SANTANDER                                             3
 ACTION:UP  10-08-24 09:56 OP:vdl  STATUS:               ID:20100327110632 L   I
 2010-03-27-1104-06S.COL___098                                                 6
 STAT SP IPHASW D HRMM SECON CODA AMPLIT PERI AZIMU VELO SNR AR TRES W  DIS CAZ7
 BAR2 SZ EP   2   11 6 52.73                             167     0.3 5   33 206 
 BAR2 SZ ES   2   11 7  7.21                             167    -0.7 5   33 206 
 BRR  HZ EP   1   11 6 54.12                             150     0.0 7   78 291 
 BRR  HZ I        11 7 11.05         6.1 0.16                            78 291 
 BRR  HE ES   2   11 7 11.14                             150     0.3 5   78 291 
 RUS  HZ EP   2   11 6 57.13                             142     0.3 5  107 182 
 RUS  HN ES   2   11 7 16.12                             142     0.4 5  107 182 
 RUS  HZ I        11 7 16.49         5.3 0.16                           107 182 
 CHI  HZ EP   1   11 7 10.97                             116    -0.4 6  258 197 
 CHI  HN ES   2   11 7 41.56                             116     0.1 4  258 197 
 CHI  HZ I        11 7 43.78         2.4 0.57                           258 197 
                                                                                
