 2012  427 1414 28.5 L   6.781 -73.141150.6  RSN 11 0.4 2.6LRSN                1
 GAP=138        0.81       4.1     4.2  5.6 -0.1122E+01  0.6526E+01 -0.5417E+00E
 Epicentro: LOS SANTOS - SANTANDER                                             3
 ACTION:UP  12-07-05 11:56 OP:tino STATUS:               ID:20120427141428 L   I
 2012-04-27-1410-00M.COL___189                                                 6
 STAT SP IPHASW D HRMM SECON CODA AMPLIT PERI AZIMU VELO AIN AR TRES W  DIS CAZ7
 BAR2 SZ EP   1   1414 48.69                             172     0.0 7   21 192 
 BAR2 SZ ES   1   1415  4.39                             172     0.0 7   21 192 
 BAR2 SZ I        1415  6.35        45.3 0.24                            21 192 
 BRR  HZ EP   1   1414 50.63                             153     0.4 7   73 300 
 BRR  HZ I        1414 50.95       123.9 0.14                            73 300 
 BRR  HN ES   1   1415  8.06                             153     0.9 7   73 300 
 PAM  SZ EP   1   1414 51.48                             151     0.2 7   79  38 
 PAM  SZ I        1414 51.87        34.4 0.18                            79  38 
 PAM  SN ES   1   1415  8.56                             151    -0.5 7   79  38 
 RUS  HZ EP       1414 52.48                             145    -0.110   98 176 
 RUS  HN ES   1   1415 11.22                             145    -0.1 7   98 176 
 PTB  HZ EP   1   1414 55.41                             133    -0.4 7  148 260 
 PTB  HN ES   1   1415 16.81                             133    -0.4 7  148 260 
 PTB  HZ I        1415 24.14        39.2 0.39                           148 260 
 OCA  SZ EP   1   1414 57.60                             130     0.2 7  162 353 
 ZAR  HZ EP   1   1415  1.23                             123    -0.1 6  205 293 
 ZAR  HN ES   1   1415 26.92                             123    -0.1 6  205 293 
 ZAR  HZ I        1415 33.24        31.4 0.14                           205 293 
 HEL  HZ EP   1   1415  9.26                             116     0.3 6  272 256 
 HEL  HN ES   1   1415 39.96                             116    -0.5 6  272 256 
 HEL  HZ I        1415 48.44        21.6 0.36                           272 256 
 DBB  SZ EP   1   1415 16.06                             110    -0.2 5  340 275 
 COD  HZ EP   1   1415 16.85                             110    -0.4 5  350 355 
 COD  HZ I        1416  0.96        15.5 0.33                           350 355 
 PRA  HZ EP   1   1415 22.32                             107     0.3 4  390 210 
 PRA  HN ES   1   1416  4.22                             107     0.5 4  390 210 
 PRA  HZ I        1416  8.77        25.4 0.20                           390 210 
                                                                                
