 2012 1227 1359 50.6 L   7.052 -73.049154.0  RSN  6 0.3 1.8LRSN                1
 GAP=258        0.71       8.8     6.4  6.5  0.1351E+02  0.4516E-01 -0.1584E+02E
 Epicentro: FLORIDABLANCA - SANTANDER                                          3
 ACTION:UPD 13-01-04 14:30 OP:ep   STATUS:               ID:20121227135950 L   I
 2012-12-27-1400-00M.COL___243                                                 6
 STAT SP IPHASW D HRMM SECON CODA AMPLIT PERI AZIMU VELO AIN AR TRES W  DIS CAZ7
 GIR2 SZ EP       14 0 10.74                             174   -0.1810 16.3 281 
 BAR2 SZ EP       14 0 11.95                             160   -0.1310 52.9 196 
 BAR2 SZ ES       14 0 28.76                             160   -0.1110 52.9 196 
 BAR2 SZ I        14 0 31.37        11.7 0.25                          52.9 196 
 BRR  HZ EP       14 0 12.63                             153   -0.1010 73.5 275 
 BRR  HZ I        14 0 15.15        17.4 0.37                          73.5 275 
 BRR  HN ES   1   14 0 30.56                             153    0.54 7 73.5 275 
 RUS  HZ EP   1   14 0 17.91                             138    0.70 7  128 182 
 PTB  HZ EP       14 0 19.61                             130   -0.21 9  166 250 
 PTB  HZ I        14 0 20.54         8.1 0.07                           166 250 
 PTB  HN ES   1   14 0 42.42                             130   -0.23 7  166 250 
 ZAR  HZ EP   1   14 0 24.05                             124    0.33 6  206 284 
 ZAR  HZ I        14 0 54.37         3.5 0.21                           206 284 
                                                                                
