 2016  527 1400 35.6 L   6.813 -73.169146.7  RSN 10 0.4 2.0LRSN                1
 GAP=133        0.75       3.4     3.8  5.0 -0.4567E+01  0.7277E+01  0.8833E+00E
 Epicentro: LOS SANTOS - SANTANDER                                             3
 *BAR2-RUS-PTB                                                                 3
 ACTION:UPD 16-08-18 17:49 OP:cam  STATUS:               ID:20160527140036dL   I
 OLDACT:DUP 16-05-27 21:49 OP:dnl  STATUS:               ID:20160527135744d    3
 OLDACT:REG 16-05-27 20:39 OP:ar   STATUS:               ID:20160527135743     3
 2016-05-27-1357-43M.COL___322                                                 6
 STAT SP IPHASW D HRMM SECON CODA AMPLIT PERI AZIMU VELO AIN AR TRES W  DIS CAZ7
 BAR2 EZ EP       14 0 55.37                             170   -0.0310 24.5 183 
 BAR2 EZ ES       14 1 10.37                             170   -0.4410 24.5 183 
 BAR2 EZ I        14 1 11.97        30.5 0.22            169           24.5 183 
 PAM  EZ EP     C 14 0 58.31                             151    0.3310 78.0  42 
 PAM  EN ES       14 1 15.57                             151    0.1610 78.0  42 
 PAM  EZ I        14 1 16.15        11.9 0.22            154           78.0  42 
 RUS  HZ EP       14 0 59.41                             144   -0.1910  102 175 
 RUS  HN ES       14 1 18.16                             144   -0.1310  102 175 
 RUS  HZ I        14 1 19.04        10.1 0.22            146            102 175 
 PTB  HZ EP       14 1  2.15                             132   -0.33 9  146 258 
 PTB  HE ES       14 1 23.94                             132    0.53 9  146 258 
 OCA  HZ EP   2   14 1  3.30                             130   -0.56 5  159 354 
 OCA  HN ES   2   14 1 25.85                             130   -0.02 5  159 354 
 OCA  HZ I        14 1 32.61        28.2 0.34            130            159 354 
 NOR  HZ EP       14 1 11.53                             119    0.24 8  233 234 
 NOR  HN ES       14 1 39.77                             119    0.68 8  233 234 
 NOR  HZ I        14 1 48.86         6.0 0.18            119            233 234 
 CHI  HZ EP   2   14 1 13.76                             117    0.29 4  249 195 
 CHI  HN ES   2   14 1 42.69                             117   -0.28 4  249 195 
 CHI  HZ I        14 1 48.06         6.2 0.26            119            249 195 
 HEL  HZ EP   2   14 1 15.45                             115   -0.21 4  270 255 
 HEL  HN ES   2   14 1 45.87                             115   -1.01 4  270 255 
 HEL  HZ I        14 1 53.48         6.9 0.32            115            270 255 
 URE  HZ EP   2   14 1 15.74                             114   -0.68 4  281 292 
 URE  HN ES   4   14 1 45.85                             114   -2.39 0  281 292 
 URE  HZ I        14 1 51.33         7.5 0.14            114            281 292 
 PRA  HZ EP       14 1 29.27                             107    0.08 6  392 209 
 PRA  HE ES       14 2 10.63                             107   -0.33 6  392 209 
                                                                                
