 2016  427 1238 15.3 L   6.786 -73.169147.5  RSN  4 0.1 1.5LRSN                1
 GAP=141        0.43       2.7     2.6  3.6 -0.2109E+01  0.2446E+01 -0.9241E+00E
 Epicentro: LOS SANTOS - SANTANDER                                             3
 ACTION:UPD 16-05-05 14:24 OP:rebc STATUS:               ID:20160427122741 L   I
 OLDACT:UPD 16-04-27 22:52 OP:Ak   STATUS:               ID:20160427122741 L   3
 2016-04-27-1227-41M.COL___306                                                 6
 STAT SP IPHASW D HRMM SECON CODA AMPLIT PERI AZIMU VELO AIN AR TRES W  DIS CAZ7
 BAR2 EZ IP       1238 35.16                             171    0.0610 21.4 184 
 BAR2 EZ ES       1238 50.47                             171   -0.0810 21.4 184 
 BAR2 EZ I        1238 53.54         5.9 0.26            171           21.4 184 
 PAM  EZ IP       1238 37.98                             150    0.1110 80.2  40 
 PAM  EE ES       1238 55.43                             150   -0.0410 80.2  40 
 PAM  EZ I        1238 57.18         9.5 0.56            154           80.2  40 
 RUS  HZ EP       1238 39.21                             145    0.0910 99.2 175 
 RUS  HE ES       1238 57.67                             145   -0.0310 99.2 175 
 RUS  HZ I        1238 58.89         2.8 0.34            149           99.2 175 
 PTB  HZ EP       1238 41.85                             133   -0.31 9  145 259 
 PTB  HN ES       1239  3.29                             133    0.18 9  145 259 
 PTB  HZ I        1239  9.53         4.0 0.38            133            145 259 
                                                                                
