 2016  227 1111 23.4 L   6.154 -73.637110.8  RSN  4 0.2 1.2LRSN                1
 GAP=185        0.49       2.8     3.4  4.3 -0.5220E+01  0.1768E+01  0.1952E+01E
 Epicentro: LA PAZ - SANTANDER                                                 3
 ACTION:UPD 16-03-04 21:29 OP:rebc STATUS:               ID:20160227111123 L   I
 OLDACT:REG 16-02-27 19:37 OP:drio STATUS:               ID:20160227110750     3
 2016-02-27-1107-50M.COL___306                                                 6
 STAT SP IPHASW D HRMM SECON CODA AMPLIT PERI AZIMU VELO AIN AR TRES W  DIS CAZ7
 RUS  HZ EP       1111 41.47                             147    0.1010 67.8 115 
 RUS  HE ES       1111 55.32                             147   -0.0710 67.8 115 
 RUS  HZ I        1111 56.47         1.4 0.30            145           67.8 115 
 BAR2 EZ EP       1111 41.37                             146    0.2210 69.9  46 
 BAR2 EZ ES       1111 54.89                             146   -0.1110 69.9  46 
 BAR2 EZ I        1111 56.29         8.4 0.20            149           69.9  46 
 SPBC HZ EP       1111 40.87                             144   -0.3310 73.4 221 
 SPBC HN ES       1111 55.25                             144    0.1810 73.4 221 
 SPBC HZ I        1111 57.15         6.2 0.20            143           73.4 221 
 CHI  HZ EP       1111 50.51                             119   -0.00 9  169 184 
 CHI  HN ES       1112 11.67                             119    0.02 9  169 184 
 CHI  HZ I        1112 18.67         1.6 0.48            119            169 184 
                                                                                
