 2014  927 1240  5.3 L   7.450 -73.217130.3  RSN  6 0.5 1.8LRSN                1
 GAP=134        1.21       5.2     5.2  9.3  0.1242E+01  0.1573E+02 -0.1412E+02E
 Epicentro: EL PLAYON - SANTANDER                                              3
 ACTION:UPD 14-10-03 23:09 OP:nd   STATUS:               ID:20140927124005 L   I
 OLDACT:UP  14-09-27 21:47 OP:cam  STATUS:               ID:20140927124000     3
 OLDACT:REG 14-09-27 20:51 OP:cam  STATUS:               ID:20140927124000     3
 2014-09-27-1240-00M.COL___252                                                 6
 STAT SP IPHASW D HRMM SECON CODA AMPLIT PERI AZIMU VELO AIN AR TRES W  DIS CAZ7
 PAM  SZ EP       1240 24.99                             155    0.2010 58.4 102 
 PAM  SN ES       1240 40.32                             155    0.3510 58.4 102 
 PAM  SZ I        1240 41.23         9.6 0.16            159           58.4 102 
 BRR  HZ EP     C 1240 24.66                             151    0.1310 66.6 235 
 BRR  HN ES       1240 39.72                             151    0.2010 66.6 235 
 BRR  HN I        1240 43.78        24.2 0.48            152           66.6 235 
 BAR2 SZ EP       1240 27.00                             142    0.2110 94.9 178 
 BAR2 SZ ES       1240 42.88                             142   -0.6610 94.9 178 
 BAR2 SZ I        1240 43.91        15.5 0.14            145           94.9 178 
 PTB  HZ EP       1240 33.10                             124   -0.16 9  170 234 
 PTB  HN ES       1240 54.39                             124   -0.67 9  170 234 
 PTB  HZ I        1240 56.26         5.1 0.24            126            170 234 
 SML  HZ EP       1240 33.53                             123   -0.38 9  177 328 
 SML  HN ES       1240 55.51                             123   -0.70 9  177 328 
 SML  HZ I        1240 56.91         9.6 0.10            125            177 328 
 ZAR  HZ EP       1240 34.86                             122    0.46 9  181 272 
 ZAR  HN ES       1240 58.01                             122    0.93 9  181 272 
 ZAR  HZ I        1240 59.33         7.2 0.10            124            181 272 
                                                                                
