 2017  927 1416 34.2 L   6.809 -73.151142.7  RSN 16 0.6 2.4LRSN                1
 GAP=111        1.06       3.3     3.8  5.4  0.7169E+00  0.6589E+01  0.6237E+01E
 Epicentro: LOS SANTOS - SANTANDER                                             3
 ACTION:UPD 17-10-05 19:16 OP:rebc STATUS:               ID:20170927141634 L   I
 OLDACT:UP  17-09-27 23:11 OP:dhb  STATUS:               ID:20170927140139     3
 OLDACT:UP  17-09-27 23:08 OP:dhb  STATUS:               ID:20170927140139     3
 OLDACT:REG 17-09-27 20:43 OP:dhb  STATUS:               ID:20170927140139     3
 2017-09-27-1408-00M.COL___450                                                 6
 STAT SP IPHASW D HRMM SECON CODA AMPLIT PERI AZIMU VELO AIN AR TRES W  DIS CAZ7
 BAR2 EZ IP     D 1416 53.20                             170   -0.3010 24.2 188 
 BAR2 EZ ES       1417  8.00                             170   -0.5410 24.2 188 
 BAR2 EZ I        1417  9.61        47.0 0.20            167           24.2 188 
 BRR  HZ IP     C 1416 55.06                             152    0.0810 70.2 298 
 BRR  HZ E      C 1416 55.09                                           70.2 298 
 BRR  HN ES       1417 12.00                             152    0.8310 70.2 298 
 BRR  HZ I        1417 15.40        36.6 0.24            149           70.2 298 
 PAM  HZ IP     C 1416 56.28                             150    0.1910 77.1  40 
 PAM  EE ES       1417 13.31                             150    0.1610 77.1  40 
 PAM  HZ I        1417 15.67        68.8 0.28            155           77.1  40 
 RUS  HZ EP       1416 57.53                             143   -0.2110  102 176 
 RUS  HN ES       1417 16.07                             143   -0.0210  102 176 
 RUS  HZ I        1417 17.11        37.2 0.38            144            102 176 
 YPLC HZ IP     D 1417  3.66                             126   -0.25 9  178 151 
 YPLC HN ES       1417 27.31                             126    0.25 9  178 151 
 YPLC HZ I        1417 30.57        24.4 0.27            128            178 151 
 ZAR  HZ EP       1417  6.43                             122    0.06 9  203 292 
 ZAR  HE ES       1417 30.78                             122   -0.66 9  203 292 
 ZAR  HZ I        1417 37.41        24.0 0.17            122            203 292 
 NOR  HZ IP     D 1417  9.47                             118   -0.31 8  235 234 
 NOR  HE ES       1417 36.53                             118   -0.98 8  235 234 
 NOR  HZ I        1417 43.23         8.5 0.25            118            235 234 
 CHI  HZ EP       1417 11.48                             116   -0.35 8  249 195 
 CHI  HE ES       1417 41.51                             116    0.34 8  249 195 
 CHI  HZ I        1417 44.34        12.4 0.43            117            249 195 
 ROSC BZ EP   9   1417 13.89                             116    1.66 0  253 211 
 ROSC BN ES       1417 43.29                                   -0.25 8  253 211 
 ROSC BZ I        1417 46.86        24.5 0.44            116            253 211 
 URE  HZ EP   4   1417 18.75                             113    3.71 0  283 292 
 URE  HE ES   3   1417 44.54                             113   -2.33 2  283 292 
 URE  HZ I        1417 55.07        12.7 0.19            113            283 292 
 GUY2CHZ EP       1417 18.62                             112    0.93 7  301 235 
 GUY2CHE ES   2   1417 52.67                             112    1.07 4  301 235 
 GUY2CHZ I        1418  3.93         4.6 0.53                           301 235 
 VIL  EZ EP       1417 17.88                             111    0.29 7  304 191 
 VIL  EN ES   2   1417 49.75                             111   -1.67 4  304 191 
 VIL  EZ I        1417 54.09        19.5 0.49            112            304 191 
 ELA  HZ EP   4   1417 23.43                             110    2.47 0  329 229 
 ELA  HE ES       1417 58.31                             110    0.90 7  329 229 
 ELA  HZ I        1418  6.45         4.9 0.25            110            329 229 
 ANIL HZ EP       1417 24.47                             108    0.53 6  358 224 
 ANIL HE ES       1418  2.82                             108    0.11 6  358 224 
 ANIL HZ I        1418 11.86        25.8 0.33            108            358 224 
 PRA  HZ EP       1417 27.18                             106   -0.52 6  393 209 
 PRA  HE ES       1418  9.40                             106   -0.01 6  393 209 
 PRA  HZ I        1418 14.21         8.4 0.21            107            393 209 
 ORTC HZ EP       1417 28.25                             106    0.17 6  396 216 
 ORTC HN ES   2   1418 11.14                             106    1.04 3  396 216 
 ORTC HZ I        1418 14.21         5.3 0.50            106            396 216 
                                                                                
