 2011 1127 1035 47.7 L   6.794 -72.999140.6  RSN  4 0.3 1.2LRSN                1
 GAP=220        0.61       6.8    13.0  7.4  0.6057E+02 -0.3614E+02 -0.1388E+02E
 Epicentro: CEPITA - SANTANDER                                                 3
 ACTION:UPD 12-07-13 16:12 OP:ep   STATUS:               ID:20111127103547 L   I
 2011-11-27-1020-00M.COL___181                                                 6
 STAT SP IPHASW D HRMM SECON CODA AMPLIT PERI AZIMU VELO AIN AR TRES W  DIS CAZ7
 BAR2 SZ EP   1   1036  6.71                             168   -0.14 7 30.1 222 
 BAR2 SZ I        1036  7.34         5.4 0.42                          30.1 222 
 BAR2 SZ ES   1   1036 22.12                             168    0.31 7 30.1 222 
 GIR2 SZ EP   1   1036  7.01                             164    0.06 7 38.1 326 
 GIR2 SZ ES   2   1036 21.71                             164   -0.28 5 38.1 326 
 BRR  HZ EP   1   1036  8.89                             147   -0.31 7 86.0 294 
 BRR  HE ES   1   1036 26.13                             147    0.14 7 86.0 294 
 BRR  HZ I        1036 30.37         3.0 0.19                          86.0 294 
 RUS  HZ EP   1   1036 11.36                             143    0.47 7  100 185 
 RUS  HE ES   1   1036 28.60                             143   -0.39 7  100 185 
 RUS  HZ I        1036 30.73         1.9 0.30                           100 185 
                                                                                
