 2012  527 1324 10.1 L   6.823 -73.184132.5  RSN  5 0.3 1.9LRSN                1
 GAP=179        0.83       5.0     7.4  9.2  0.2678E+01  0.2224E+02 -0.1547E+01E
 Epicentro: ZAPATOCA - SANTANDER                                               3
 ACTION:UP  12-07-05 12:08 OP:pat  STATUS:               ID:20120527132410 L   I
 2012-05-27-1320-00M.COL___197                                                 6
 STAT SP IPHASW D HRMM SECON CODA AMPLIT PERI AZIMU VELO SNR AR TRES W  DIS CAZ7
 BAR2 SZ EP   1   1324 28.65                             169     0.4 7   25 180 
 BAR2 SZ I        1324 29.01        17.7 0.37                            25 180 
 BAR2 SZ ES   1   1324 42.54                             169     0.2 7   25 180 
 RUS  HZ EP   1   1324 33.10                             140     0.3 7  103 174 
 RUS  HZ I        1324 33.98         9.3 0.13                           103 174 
 RUS  HE ES   1   1324 49.91                             140    -0.6 7  103 174 
 PTB  HZ EP   1   1324 35.35                             129    -0.3 7  144 258 
 PTB  HN ES   1   1324 55.82                             129     0.2 7  144 258 
 PTB  HZ I        1324 59.04         8.5 0.17                           144 258 
 OCA  HN ES   1   1324 57.95                             127    -0.3 7  157 355 
 RREF HZ EP   1   1324 55.55                             108     0.0 5  320 229 
 RREF HZ I        1325 40.70         5.4 0.26                           320 229 
                                                                                
