 2016  127 1031 23.6 L   6.815 -73.128147.1  RSN 15 0.4 2.3LRSN                1
 GAP=138        0.89       2.4     3.2  4.7 -0.1496E+01  0.5988E+01 -0.3020E-01E
 Epicentro: LOS SANTOS - SANTANDER                                             3
 ACTION:UPD 16-03-09 23:28 OP:cam  STATUS:               ID:20160127103123 L   I
 OLDACT:REG 16-01-27 20:31 OP:cara STATUS:               ID:20160127102748     3
 2016-01-27-1027-48M.COL___325                                                 6
 STAT SP IPHASW D HRMM SECON CODA AMPLIT PERI AZIMU VELO AIN AR TRES W  DIS CAZ7
 BAR2 EZ IP       1031 43.39                             170   -0.0910 25.4 194 
 BAR2 EZ ES       1031 58.74                             170   -0.2110 25.4 194 
 BAR2 EZ I        1032  0.35        27.1 0.32            170           25.4 194 
 PAM  EZ IP     C 1031 46.27                             152    0.4110 74.9  39 
 PAM  EN ES       1032  3.57                             152    0.3910 74.9  39 
 PAM  EZ I        1032  5.57        25.6 0.58            155           74.9  39 
 RUS  HZ IP       1031 47.81                             144    0.1710  102 177 
 RUS  HN ES       1032  6.36                             144    0.0010  102 177 
 RUS  HZ I        1032  8.63        20.4 0.52            148            102 177 
 PTB  HZ EP       1031 50.19                             132   -0.73 9  150 258 
 PTB  HN ES       1032 11.64                             132   -0.56 9  150 258 
 PTB  HZ I        1032 18.92        30.8 0.40            132            150 258 
 OCA  HZ EP       1031 51.34                             130   -0.58 9  159 352 
 OCA  HN ES       1032 14.12                             130    0.14 9  159 352 
 OCA  HZ I        1032 24.05        26.4 0.14            132            159 352 
 SPBC HZ EP       1031 52.33                             129   -0.16 9  166 219 
 SPBC HN ES       1032 14.94                             129   -0.04 9  166 219 
 SPBC HZ I        1032 19.43        35.5 0.22            131            166 219 
 ZAR  HZ EP       1031 56.67                             122    0.38 9  205 292 
 ZAR  HN ES       1032 21.56                             122   -0.20 9  205 292 
 ZAR  HZ I        1032 27.91        19.9 0.48            123            205 292 
 NOR  HZ EP       1031 59.36                             118   -0.36 8  237 234 
 NOR  HN ES       1032 28.16                             118    0.29 8  237 234 
 NOR  HZ I        1032 29.57        11.9 0.28            120            237 234 
 SML  HZ EP       1031 59.98                             118   -0.29 8  243 335 
 SML  HN ES   2   1032 29.32                             118    0.49 4  243 335 
 SML  HZ I        1032 35.87        27.9 0.10            119            243 335 
 CHI  HZ EP       1032  1.44                             117   -0.21 8  251 195 
 CHI  HE ES       1032 31.09                             117   -0.20 8  251 195 
 CHI  HZ I        1032 36.68         8.5 0.24            120            251 195 
 HEL  HZ EP       1032  4.99                             115    0.81 8  274 256 
 HEL  HN ES       1032 36.33                             115    0.54 8  274 256 
 HEL  HZ I        1032 41.69        11.6 0.30            116            274 256 
 GUY2CHZ EP       1032  7.98                             112    0.38 7  304 235 
 GUY2CHE ES   4   1032 45.17                             112    3.28 0  304 235 
 GUY2CHZ I        1032 50.04        10.8 0.72                           304 235 
 CBOC HZ EP       1032 11.01                             110    0.13 7  336 252 
 CBOC HN ES       1032 48.36                             110    0.63 7  336 252 
 CBOC HZ I        1032 53.90         3.7 0.36            112            336 252 
 DBB  SZ ES       1032 48.32                             109   -0.29 7  341 274 
 ORTC HZ EP       1032 17.52                             106   -0.38 6  398 216 
 ORTC HN ES       1033  0.88                             106    0.66 6  398 216 
 ORTC HZ I        1033  7.24         4.5 0.20            108            398 216 
                                                                                
