 2011  827 1613 39.8 L   6.749 -73.096138.7  RSN  6 0.2 1.8LRSN                1
 GAP=145        0.43       2.9     4.1  4.1 -0.4576E+00 -0.8133E+00  0.1131E+01E
 Epicentro: LOS SANTOS - SANTANDER                                             3
 ACTION:UPD 12-07-13 15:54 OP:ep   STATUS:               ID:20110827161339 L   I
 2011-08-27-1609-00S.COL___160                                                 6
 STAT SP IPHASW D HRMM SECON CODA AMPLIT PERI AZIMU VELO AIN AR TRES W  DIS CAZ7
 BAR2 SZ EP   1   1613 58.47                             172   -0.06 7 19.7 209 
 BAR2 SZ ES   1   1614 13.01                             172   -0.11 7 19.7 209 
 BAR2 SZ I        1614 14.50        19.6 0.29                          19.7 209 
 GIR2 SZ EP   1   1613 58.63                             164   -0.23 7 38.1 344 
 GIR2 SZ ES   1   1614 13.84                             164    0.13 7 38.1 344 
 PAM  SZ EP   1   1614  1.48                             149    0.11 7 78.7  34 
 PAM  SE ES   2   1614 18.34                             149    0.17 5 78.7  34 
 BRR  HZ EP   1   1614  0.34                             149   -0.33 7 78.8 300 
 BRR  HE ES   1   1614 17.07                             149    0.14 7 78.8 300 
 BRR  HZ I        1614 21.69        28.7 0.14                          78.8 300 
 RUS  HZ EP   1   1614  2.78                             144    0.33 7 94.7 179 
 RUS  HN ES   1   1614 19.96                             144   -0.13 7 94.7 179 
 RUS  HZ I        1614 21.74         4.9 0.30                          94.7 179 
 NOR  SN ES   2   1614 43.19                             117    0.24 4  236 236 
                                                                                
