 2013  327 1805  6.3 L   6.749 -73.138144.1  RSN  6 0.3 2.2LRSN                1
 GAP=140        0.77       4.4     3.5  5.7  0.2452E+00  0.4470E+01 -0.1084E+01E
 Epicentro: LOS SANTOS - SANTANDER                                             3
 ACTION:UPD 13-04-09 14:05 OP:ep   STATUS:               ID:20130327180506 L   I
 2013-03-27-1800-00M.COL___245                                                 6
 STAT SP IPHASW D HRMM SECON CODA AMPLIT PERI AZIMU VELO AIN AR TRES W  DIS CAZ7
 BAR2 SZ EP       18 5 25.72                             173    0.1310 18.0 196 
 BAR2 SZ ES       18 5 40.59                             173   -0.0810 18.0 196 
 BAR2 SZ I        18 5 41.32        34.9 0.32            171           18.0 196 
 BRR  HZ EP       18 5 27.44                             151    0.0010 74.8 302 
 BRR  HE ES       18 5 44.46                             151    0.5110 74.8 302 
 BRR  HE I        18 5 44.87        48.3 0.24            147           74.8 302 
 PAM  SZ EP       18 5 28.58                             149    0.0410 81.3  37 
 PAM  SN ES       18 5 45.53                             149   -0.3810 81.3  37 
 PAM  SN I        18 5 46.37        27.4 0.44            150           81.3  37 
 RUS  HZ EP   1   18 5 29.71                             145    0.27 7 94.9 176 
 RUS  HZ ES   1   18 5 47.77                             145    0.24 7 94.9 176 
 PTB  HZ EP   1   18 5 32.73                             132   -0.35 7  148 261 
 PTB  HN ES       18 5 53.39                             132   -0.61 9  148 261 
 PTB  HN I        18 5 58.53        14.0 0.36            130            148 261 
 ZAR  HZ EP   1   18 5 38.86                             122   -0.04 6  207 293 
 ZAR  HE ES       18 6  4.66                             122    0.29 8  207 293 
 ZAR  HE I        18 6 11.61        21.1 0.16            120            207 293 
                                                                                
