 2012  627 1107 50.0 L   6.747 -73.174145.9  RSN  6 0.5 1.8LRSN                1
 GAP=135        0.89       6.3     6.2  9.0  0.4038E+01  0.2754E+01  0.9268E+00E
 Epicentro: VILLANUEVA - SANTANDER                                             3
 ACTION:UPD 12-08-06 17:53 OP:ep   STATUS:               ID:20120627110750 L   I
 2012-06-27-1100-00M.COL___201                                                 6
 STAT SP IPHASW D HRMM SECON CODA AMPLIT PERI AZIMU VELO AIN AR TRES W  DIS CAZ7
 BAR2 SZ EP   2   11 8  9.42                             173   -0.08 5 17.2 183 
 BAR2 SZ ES   2   11 8 24.04                             173   -0.69 5 17.2 183 
 BAR2 SZ I        11 8 26.03        24.8 0.18                          17.2 183 
 BRR  HZ EP   2   11 8 11.40                             153    0.26 5 71.5 304 
 BRR  HZ I        11 8 11.68        12.8 0.32                          71.5 304 
 BRR  HN ES   1   11 8 28.57                             153    0.91 7 71.5 304 
 PAM  SZ EP       11 8 12.56                             149   -0.0310 83.9  39 
 PAM  SZ I        11 8 12.71         5.8 0.22                          83.9  39 
 PAM  SN ES   2   11 8 29.40                             149   -0.84 5 83.9  39 
 RUS  HZ EP       11 8 13.54                             146    0.2010 95.1 174 
 RUS  HN ES   1   11 8 31.77                             146    0.21 7 95.1 174 
 RUS  HZ I        11 8 33.38         8.0 0.20                          95.1 174 
 PTB  HZ EP       11 8 16.32                             133   -0.25 9  144 261 
 PTB  HN ES   2   11 8 36.17                             133   -1.15 5  144 261 
 PTB  HZ I        11 8 43.11         5.2 0.54                           144 261 
 ZAR  HN ES   2   11 8 47.61                             123    0.00 4  203 294 
 ZAR  HZ I        11 8 52.89         7.4 0.30                           203 294 
                                                                                
