 2016 1027 1301 12.2 L   6.813 -73.389116.4  RSN  4 0.3 1.3LRSN                1
 GAP=185        0.72       5.0     4.3  6.0  0.1080E+02  0.5985E+01  0.7075E+01E
 Epicentro: SAN VICENTE DE CHUCURI - SANTANDER                                 3
 ACTION:UPD 16-11-09 19:23 OP:rebc STATUS:               ID:20161027130112 L   I
 OLDACT:UP  16-10-27 23:44 OP:edw  STATUS:               ID:20161027125745     3
 OLDACT:REG 16-10-27 20:18 OP:edw  STATUS:               ID:20161027125745     3
 2016-10-27-1258-00M.COL___334                                                 6
 STAT SP IPHASW D HRMM SECON CODA AMPLIT PERI AZIMU VELO AIN AR TRES W  DIS CAZ7
 BAR2 EZ EP       13 1 28.26                             163   -0.3210 33.5 137 
 BAR2 EZ ES       13 1 41.58                             163    0.1910 33.5 137 
 BAR2 EZ I        13 1 42.53        15.4 0.38            164           33.5 137 
 BRR  HZ EP       13 1 28.75                             156   -0.1110 48.3 312 
 BRR  HN ES       13 1 41.96                             156    0.0610 48.3 312 
 RUS  HZ EP       13 1 33.63                             135   -0.1010  107 162 
 RUS  HN ES       13 1 50.60                             135    0.0510  107 162 
 PTB  HZ EP       13 1 34.95                             130    0.5610  122 256 
 PTB  HN ES       13 1 51.42                             130   -0.3110  122 256 
 PTB  HZ I        13 1 55.79         1.6 0.13            129            122 256 
                                                                                
