 2010 1027 1924  5.4 L   6.821 -73.008143.3  RSN  5 0.4 1.6LRSN                1
 GAP=180        0.84       8.4    17.6 12.3  0.5368E+02 -0.1068E+03 -0.3479E+02E
 Epicentro: CEPITA - SANTANDER                                                 3
 ACTION:UP  11-02-18 11:12 OP:tino STATUS:               ID:20101027192405 L   I
 2010-10-27-1919-22S.COL___127                                                 6
 STAT SP IPHASW D HRMM SECON CODA AMPLIT PERI AZIMU VELO SNR AR TRES W  DIS CAZ7
 BTL  SZ EP   1   1924 24.22                             168    -0.7 7   31 291 
 BTL  SZ ES   2   1924 39.68                             168    -0.4 5   31 291 
 BAR2 SZ EP   1   1924 24.63                             167    -0.3 7   32 217 
 BAR2 SZ ES   2   1924 40.39                             167     0.2 5   32 217 
 BAR2 SZ I        1924 41.76        10.0 0.42                            32 217 
 BRR  HZ EP   1   1924 27.07                             148     0.0 7   84 292 
 BRR  HN ES   2   1924 44.44                             148     0.5 5   84 292 
 BRR  HZ I        1924 45.91        14.1 0.25                            84 292 
 RUS  HZ EP   1   1924 29.29                             143     0.2 7  103 185 
 RUS  HE ES   2   1924 47.97                             143     0.4 5  103 185 
 RUS  HZ I        1924 48.93         4.0 0.21                           103 185 
 GUE  SZ EP   1   1924 30.05                             140     0.5 7  112   5 
                                                                                
