 2010  927 1313 17.1 L   6.739 -73.239147.1  RSN  4 0.4 1.6LRSN                1
 GAP=169        0.83      15.6    29.0 12.9  0.3614E+03 -0.7678E+02 -0.3904E+02E
 Epicentro: VILLANUEVA - SANTANDER                                             3
 ACTION:UP  11-02-18 11:06 OP:tino STATUS:               ID:20100927131317 L   I
 2010-09-27-1310-42S.COL___122                                                 6
 STAT SP IPHASW D HRMM SECON CODA AMPLIT PERI AZIMU VELO SNR AR TRES W  DIS CAZ7
 BAR2 SZ EP   2   1313 36.16                             173    -0.6 5   17 159 
 BAR2 SZ I        1313 36.64         8.8 0.11                            17 159 
 BAR2 SZ ES   2   1313 51.67                             173    -0.5 5   17 159 
 BTL  SZ EP       1313 37.24                             171     0.410   20 351 
 BRR  HZ EP   1   1313 37.87                             155    -0.3 7   66 308 
 BRR  HE ES   2   1313 54.68                             155     0.1 5   66 308 
 BRR  HZ I        1313 57.45        15.6 0.30                            66 308 
 RUS  HZ EP   1   1313 40.36                             146    -0.2 7   95 170 
 RUS  HZ I        1313 41.61         4.2 0.10                            95 170 
 RUS  HE ES   2   1313 59.47                             146     0.5 5   95 170 
                                                                                
