 2010  327 1732 50.8 L   6.822 -73.052145.2  RSN  7 0.3 2.1LRSN                1
 GAP=193        0.44       6.6     8.0  5.0  0.2366E+02  0.2033E+02  0.4786E+01E
 Epicentro: LOS SANTOS - SANTANDER                                             3
 ACTION:UP  10-08-24 09:56 OP:vdl  STATUS:               ID:20100327173250 L   I
 2010-03-27-1730-32S.COL___098                                                 6
 STAT SP IPHASW D HRMM SECON CODA AMPLIT PERI AZIMU VELO SNR AR TRES W  DIS CAZ7
 BAR2 SZ EP       1733 10.47                             168     0.010   29 210 
 BAR2 SZ ES   1   1733 25.63                             168    -0.2 7   29 210 
 BRR  HZ EP   1   1733 12.44                             150     0.1 7   80 293 
 BRR  HE ES   2   1733 29.28                             150     0.1 5   80 293 
 BRR  HZ I        1733 34.14        20.8 0.14                            80 293 
 RUS  HZ EP   3   1733 15.03                             143     0.4 2  103 182 
 RUS  HN ES   3   1733 33.57                             143     0.3 2  103 182 
 OCA  SZ ES   3   1733 40.88                             129     0.0 2  159 349 
 OCA  SZ I        1733 48.38        22.4 0.20                           159 349 
 HEL  HZ EP   2   1733 32.81                             114     0.7 4  283 256 
 DBB  SZ EP       1733 39.09                             109    -0.3 6  350 274 
 PRA  HZ EP   2   1733 44.78                             106    -0.3 3  399 211 
 PRA  HZ I        1734 30.58         2.8 0.54                           399 211 
                                                                                
