 2011 1027 1706 52.4 L   6.580 -73.396118.9  RSN  5 0.2 1.8LRSN                1
 GAP=174        0.44       2.8     3.9  4.3  0.1121E+01 -0.7371E+00  0.7794E+00E
 Epicentro: HATO - SANTANDER                                                   3
 ACTION:UPD 12-07-13 16:06 OP:ep   STATUS:               ID:20111027170652 L   I
 2011-10-27-1704-02S.COL___176                                                 6
 STAT SP IPHASW D HRMM SECON CODA AMPLIT PERI AZIMU VELO AIN AR TRES W  DIS CAZ7
 BAR2 SZ EP       17 7  8.87                             168    0.0210 23.6  87 
 BAR2 SZ ES   1   17 7 21.40                             168   -0.25 7 23.6  87 
 BAR2 SZ I        17 7 22.81        31.4 0.46                          23.6  87 
 BTL  SZ EP       17 7  9.65                             160    0.2510 40.0  21 
 BRR  HZ EP       17 7 10.42                             148   -0.1210 68.0 329 
 BRR  HN ES   1   17 7 24.71                             148    0.05 7 68.0 329 
 BRR  HZ I        17 7 27.17        19.3 0.40                          68.0 329 
 RUS  HZ EP       17 7 12.15                             143   -0.1610 83.5 156 
 RUS  HZ I        17 7 12.61         5.7 0.20                          83.5 156 
 RUS  HN ES   2   17 7 28.16                             143    0.34 5 83.5 156 
 PAM  SZ EP       17 7 14.85                             133    0.0610  114  42 
 PAM  SN ES   1   17 7 32.22                             133   -0.01 7  114  42 
                                                                                
