 2013  127 1353 59.3 L   6.512 -73.743102.9  RSN  6 0.4 1.5LRSN                1
 GAP= 93        0.77       4.1     3.6  9.5  0.1575E+00  0.2209E+01  0.1606E+02E
 Epicentro: SANTA HELENA DEL OPON - SANTANDER                                  3
 ACTION:UPD 13-02-15 09:17 OP:ep   STATUS:               ID:20130127135359 L   I
 2013-01-27-1350-00M.COL___240                                                 6
 STAT SP IPHASW D HRMM SECON CODA AMPLIT PERI AZIMU VELO AIN AR TRES W  DIS CAZ7
 BAR2 SZ EP   1   1354 16.13                             146    0.36 7 62.7  82 
 BAR2 SZ ES   1   1354 28.45                             146   -0.16 7 62.7  82 
 BAR2 SZ I        1354 30.17        21.0 0.42            146           62.7  82 
 BRR  HN ES   1   1354 29.16                             145    0.75 7 65.9   3 
 PTB  HZ EP       1354 16.62                             139   -0.0410 78.9 272 
 PTB  HN ES   1   1354 29.71                             139   -0.48 7 78.9 272 
 PTB  HZ I        1354 30.20        13.9 0.26            142           78.9 272 
 RUS  HZ EP   1   1354 18.99                             133   -0.12 7  100 133 
 RUS  HE ES   1   1354 34.46                             133   -0.10 7  100 133 
 RUS  HZ I        1354 35.37         2.1 0.56            133            100 133 
 PAM  SN ES   1   1354 42.33                             120   -0.48 7  147  52 
 PAM  SZ I        1354 44.04         4.2 0.18            121            147  52 
 CHI  HN ES   1   1354 54.92                             111    0.33 6  208 180 
                                                                                
