 2016 1027 1143 54.0 L   6.769 -73.156147.0  RSN  6 0.2 1.5LRSN                1
 GAP=137        0.65       3.1     3.3  4.7 -0.2522E+01  0.1844E+01  0.7354E+00E
 Epicentro: LOS SANTOS - SANTANDER                                             3
 ACTION:UPD 16-11-09 19:23 OP:rebc STATUS:               ID:20161027114354 L   I
 OLDACT:UP  16-10-27 22:20 OP:edw  STATUS:               ID:20161027113747d    3
 OLDACT:UP  16-10-27 22:20 OP:edw  STATUS:               ID:20161027113747d    3
 OLDACT:DUP 16-10-27 22:14 OP:edw  STATUS:               ID:20161027113747d    3
 2016-10-27-1138-00M.COL___337                                                 6
 STAT SP IPHASW D HRMM SECON CODA AMPLIT PERI AZIMU VELO AIN AR TRES W  DIS CAZ7
 BAR2 EZ EP       1144 13.69                             172   -0.0310 19.8 188 
 BAR2 EZ ES       1144 28.85                             172   -0.2510 19.8 188 
 BAR2 EZ I        1144 30.30        15.2 0.82            172           19.8 188 
 BRR  HZ EP       1144 15.29                             152   -0.0410 71.9 301 
 BRR  HN ES       1144 32.50                             152    0.5410 71.9 301 
 PAM  EZ EP       1144 16.51                             150   -0.0510 80.7  39 
 PAM  EN ES       1144 33.94                             150   -0.2110 80.7  39 
 PAM  EZ I        1144 35.78         4.6 0.48            152           80.7  39 
 RUS  HZ EP       1144 18.05                             145    0.4010 97.3 175 
 RUS  HN ES       1144 36.19                             145    0.1010 97.3 175 
 RUS  HZ I        1144 37.49         4.9 0.32            147           97.3 175 
 PTB  HZ EP       1144 20.79                             133   -0.13 9  146 260 
 PTB  HN ES       1144 41.70                             133   -0.21 9  146 260 
 PTB  HZ I        1144 46.49         3.0 0.14            133            146 260 
 SPBC HZ EP   2   1144 22.04                             130   -0.25 5  160 219 
 SPBC HN ES       1144 44.21                             130   -0.13 9  160 219 
                                                                                
