 2010  627 1359 37.2 L   6.922 -72.892137.9  RSN  4 0.2 1.5LRSN                1
 GAP=208        0.41       6.7    11.5  9.1  0.5928E+02 -0.7716E+02 -0.4246E+02E
 Epicentro: GUACA - SANTANDER                                                  3
 ACTION:UP  10-08-24 10:13 OP:vdl  STATUS:               ID:20100627135937 L   I
 2010-06-27-1356-03S.COL___118                                                 6
 STAT SP IPHASW D HRMM SECON CODA AMPLIT PERI AZIMU VELO SNR AR TRES W  DIS CAZ7
 BAR2 SZ EP   1   1359 57.03                             160     0.3 7   49 221 
 BAR2 SZ ES   2   14 0 11.76                             160    -0.2 5   49 221 
 BRR  HZ IP     C 1359 58.89                             144    -0.110   93 283 
 BRR  HE ES   1   14 0 15.98                             144     0.1 7   93 283 
 BRR  HZ I        14 0 17.01         7.3 0.44                            93 283 
 RUS  HZ EP   2   14 0  1.30                             138    -0.1 5  116 191 
 RUS  HE ES   2   14 0 20.19                             138    -0.1 5  116 191 
 RUS  HZ I        14 0 20.79         4.4 0.17                           116 191 
 OCA  SZ EP   2   14 0  4.15                             129    -0.1 5  153 342 
 OCA  SZ I        14 0 14.92         4.1 0.36                           153 342 
                                                                                
