 2012 1227 1719 37.6 L   6.705 -73.155152.9  RSN  4 0.2 1.5LRSN                1
 GAP=200        0.43       8.6     4.6  7.3 -0.1349E+02 -0.1459E+02  0.4048E+02E
 Epicentro: VILLANUEVA - SANTANDER                                             3
 ACTION:UPD 13-01-04 14:30 OP:ep   STATUS:               ID:20121227171937 L   I
 2012-12-27-1714-50M.COL___224                                                 6
 STAT SP IPHASW D HRMM SECON CODA AMPLIT PERI AZIMU VELO AIN AR TRES W  DIS CAZ7
 BAR2 SZ EP       1719 58.04                             175    0.0910 12.9 194 
 BAR2 SZ I        1719 58.71         8.8 0.18                          12.9 194 
 GIR2 SZ EP   1   1719 58.10                             164   -0.34 7 41.5 354 
 BRR  HZ IP     D 1719 59.91                             152    0.1010 76.0 306 
 BRR  HZ I        1720  4.17         7.7 0.29                          76.0 306 
 BRR  HE ES       1720 17.16                             152    0.0510 76.0 306 
 PTB  HZ EP       1720  4.97                             134    0.03 9  145 263 
 PTB  HE ES   1   1720 26.12                             134   -0.14 7  145 263 
 PTB  HZ I        1720 30.86         2.3 0.23                           145 263 
                                                                                
