 2017 1127 1240 31.9 L   6.801 -73.141138.7  RSN  4 0.4 1.4LRSN                1
 GAP=259        0.94      10.0     6.8 10.6  0.1299E+02  0.3182E+02 -0.8528E+01E
 Epicentro: LOS SANTOS - SANTANDER                                             3
 ACTION:UPD 17-12-12 20:01 OP:rebc STATUS:               ID:20171127124031 L   I
 OLDACT:UP  17-11-27 21:21 OP:dani STATUS:               ID:20171127123742     3
 OLDACT:UP  17-11-27 21:21 OP:dani STATUS:               ID:20171127123742     3
 OLDACT:UP  17-11-27 21:20 OP:dani STATUS:               ID:20171127123742     3
 OLDACT:REG 17-11-27 19:58 OP:dani STATUS:               ID:20171127123742     3
 2017-11-27-1238-00M.COL___486                                                 6
 STAT SP IPHASW D HRMM SECON CODA AMPLIT PERI AZIMU VELO AIN AR TRES W  DIS CAZ7
 BAR2 EZ EP       1240 50.97                             170    0.3010 23.5 191 
 BAR2 EZ ES       1241  5.34                             170    0.0210 23.5 191 
 BAR2 EZ I        1241  7.44         9.5 0.28            166           23.5 191 
 PTB  HZ EP       1240 57.81                             130   -0.52 9  148 259 
 PTB  HN ES       1241 18.51                             130   -0.45 9  148 259 
 PTB  HZ I        1241 24.59         2.1 0.34            131            148 259 
 ZAR  HN ES       1241 29.24                             121    0.33 9  204 292 
 NOR  HN ES   1   1241 35.59                             117    0.74 6  235 235 
                                                                                
