 2014  727 1248 23.3 L   6.772 -73.137154.3  RSN  5 0.3 1.6LRSN                1
 GAP=219        0.53       7.6     4.9  6.1  0.9965E+01 -0.9846E+00 -0.2332E+02E
 Epicentro: LOS SANTOS - SANTANDER                                             3
 ACTION:UPD 15-03-16 20:47 OP:nd   STATUS:               ID:20140727124823 L   I
 OLDACT:REG 14-07-27 20:11 OP:fm   STATUS:               ID:20140727123813     3
 2014-07-27-1238-13M.COL___262                                                 6
 STAT SP IPHASW D HRMM SECON CODA AMPLIT PERI AZIMU VELO AIN AR TRES W  DIS CAZ7
 BAR2 SZ EP   1   1248 44.03                             172    0.16 7 20.5 194 
 BAR2 SZ ES   1   1248 59.61                             172   -0.33 7 20.5 194 
 BAR2 SZ I        1249  0.29         5.2 0.26            161           20.5 194 
 BRR  HZ EP   1   1248 45.86                             153    0.39 7 73.6 300 
 BRR  HN ES   1   1249  2.99                             153    0.20 7 73.6 300 
 BRR  HZ I        1249  4.58         8.3 0.44            146           73.6 300 
 PTB  HN ES   1   1249 12.45                             134   -0.13 7  148 260 
 PTB  HZ I        1249 19.33         5.3 0.40            127            148 260 
 ZAR  HZ EP   1   1248 56.40                             124   -0.09 6  206 293 
 ZAR  HE ES   1   1249 22.41                             124    0.01 6  206 293 
 ZAR  HZ I        1249 28.35         3.9 0.24            120            206 293 
 SML  HZ EP   1   1249  0.32                             119   -0.40 6  247 335 
                                                                                
