 2011 1127 1851 43.1 L   6.783 -73.045134.6  RSN  4 0.3 1.3LRSN                1
 GAP=151        0.70       6.6    11.7 14.4  0.4058E+02 -0.1033E+03 -0.4044E+02E
 Epicentro: LOS SANTOS - SANTANDER                                             3
 ACTION:UPD 12-07-13 16:12 OP:ep   STATUS:               ID:20111127185143 L   I
 2011-11-27-1851-24S.COL___160                                                 6
 STAT SP IPHASW D HRMM SECON CODA AMPLIT PERI AZIMU VELO AIN AR TRES W  DIS CAZ7
 BAR2 SZ EP   1   1852  0.99                             168   -0.42 7 26.0 216 
 BAR2 SZ I        1852  1.15         2.7 0.07                          26.0 216 
 PAM  SZ EP   1   1852  3.90                             150    0.11 7 72.4  32 
 PAM  SZ I        1852  4.15         3.7 0.15                          72.4  32 
 BRR  HZ EP   1   1852  4.21                             147    0.51 7 82.0 296 
 BRR  HE ES   1   1852 19.59                             147   -0.21 7 82.0 296 
 BRR  HZ I        1852 22.30        13.0 0.34                          82.0 296 
 RUS  HZ EP   1   1852  5.26                             142   -0.31 7 98.5 182 
 RUS  HN ES   1   1852 23.45                             142    0.31 7 98.5 182 
 RUS  HZ I        1852 24.03         1.9 0.42                          98.5 182 
                                                                                
