 2016  927 1501 55.4 L   6.801 -73.157150.5  RSN  8 0.3 2.0LRSN                1
 GAP=135        0.75       2.7     3.4  5.1 -0.4888E+00  0.4836E+01  0.2936E+01E
 Epicentro: LOS SANTOS - SANTANDER                                             3
 ACTION:UPD 17-08-17 21:16 OP:lp   STATUS:               ID:20160927150155 L   I
 OLDACT:UP  16-09-27 23:39 OP:dani STATUS:               ID:20160927145749d    3
 OLDACT:DUP 16-09-27 23:34 OP:dani STATUS:               ID:20160927145749d    3
 OLDACT:UP  16-09-27 23:34 OP:dani STATUS:               ID:20160927145748     3
 OLDACT:UP  16-09-27 23:33 OP:dani STATUS:               ID:20160927145748     3
 OLDACT:UP  16-09-27 23:32 OP:dani STATUS:               ID:20160927145748     3
 OLDACT:UP  16-09-27 23:32 OP:dani STATUS:               ID:20160927145748     3
 OLDACT:REG 16-09-27 21:07 OP:dani STATUS:               ID:20160927145748     3
 2016-09-27-1458-00M.COL___357                                                 6
 STAT SP IPHASW D HRMM SECON CODA AMPLIT PERI AZIMU VELO AIN AR TRES W  DIS CAZ7
 BRR  HZ EP       15 2 17.35                             154    0.3210 70.0 299 
 BRR  HN ES       15 2 34.40                             154    0.5210 70.0 299 
 BRR  HZ I        15 2 37.02        15.5 0.17            147           70.0 299 
 PAM  EZ EP       15 2 18.28                             151    0.0910 78.2  40 
 PAM  EE ES       15 2 35.64                             151   -0.3110 78.2  40 
 PAM  EZ I        15 2 37.47        26.0 0.51            151           78.2  40 
 RUS  HZ EP       15 2 19.76                             145    0.1010  101 175 
 RUS  HE ES       15 2 38.37                             145   -0.1910  101 175 
 RUS  HZ I        15 2 39.30        13.4 0.24            143            101 175 
 PTB  HZ EP       15 2 22.41                             133   -0.26 9  147 259 
 PTB  HZ I        15 2 45.98         8.8 0.13            128            147 259 
 SPBC HZ EP       15 2 24.24                             130    0.02 9  162 219 
 SPBC HE ES       15 2 46.64                             130   -0.04 9  162 219 
 SPBC HZ I        15 2 51.60        15.8 0.13            126            162 219 
 ZAR  HZ EP       15 2 27.63                             124   -0.43 9  203 292 
 ZAR  HE ES       15 2 53.20                             124   -0.32 9  203 292 
 ZAR  HZ I        15 2 59.93         6.1 0.29            119            203 292 
 NOR  HZ EP       15 2 31.94                             120    0.61 8  234 234 
 NOR  HE ES       15 2 59.22                             120   -0.11 8  234 234 
 NOR  HZ I        15 3  4.92        10.0 0.15            116            234 234 
 CHI  HZ EP       15 2 33.46                             118    0.10 8  248 195 
 CHI  HE ES       15 3  2.75                             118   -0.20 8  248 195 
 CHI  HZ I        15 3  8.00         3.8 0.52            116            248 195 
                                                                                
