 2010  327 1855  4.1 L   6.782 -73.064144.4  RSN  6 0.2 1.8LRSN                1
 GAP=191        0.46       3.9     8.2  4.7  0.1657E+02 -0.3285E+01  0.2454E+01E
 Epicentro: LOS SANTOS - SANTANDER                                             3
 ACTION:UP  10-08-24 09:56 OP:vdl  STATUS:               ID:20100327185504 L   I
 2010-03-27-1851-46S.COL___098                                                 6
 STAT SP IPHASW D HRMM SECON CODA AMPLIT PERI AZIMU VELO SNR AR TRES W  DIS CAZ7
 BAR2 SZ EP       1855 23.47                             170    -0.110   25 212 
 BAR2 SZ ES   1   1855 38.69                             170    -0.1 7   25 212 
 BRR  HZ IP       1855 25.45                             150    -0.210   80 297 
 BRR  HN ES   1   1855 42.56                             150     0.1 7   80 297 
 BRR  HZ I        1855 45.68        13.0 0.11                            80 297 
 RUS  HZ EP   1   1855 27.85                             144     0.3 7   98 181 
 RUS  HE ES   2   1855 46.05                             144     0.2 5   98 181 
 RUS  HZ I        1855 47.44         9.1 0.25                            98 181 
 OCA  SZ ES   2   1855 55.11                             129     0.3 5  164 350 
 CHI  HZ EP   1   1855 41.56                             117    -0.2 6  249 197 
 CHI  HZ I        1856 18.60         2.9 0.47                           249 197 
 PRA  HZ EP   3   1855 58.40                             106     0.5 1  395 211 
 PRA  HE ES   3   1856 40.20                             106     0.4 1  395 211 
 PRA  HZ I        1856 45.19         3.3 0.37                           395 211 
                                                                                
