 2017  927 1321 43.6 L   6.828 -73.169136.0  RSN  5 0.5 1.5LRSN                1
 GAP=132        0.95       4.5     5.0  7.9 -0.3307E+01  0.1892E+02 -0.1289E+00E
 Epicentro: LOS SANTOS - SANTANDER                                             3
 ACTION:UPD 17-10-05 19:16 OP:rebc STATUS:               ID:20170927132143 L   I
 OLDACT:REG 17-09-27 20:37 OP:dhb  STATUS:               ID:20170927131742     3
 2017-09-27-1318-00M.COL___450                                                 6
 STAT SP IPHASW D HRMM SECON CODA AMPLIT PERI AZIMU VELO AIN AR TRES W  DIS CAZ7
 BAR2 EZ EP       1322  1.65                             169   -0.4810 26.1 183 
 BAR2 EZ ES       1322 16.29                             169   -0.2810 26.1 183 
 BAR2 EZ I        1322 25.23         5.8 0.22            171           26.1 183 
 PAM  EZ EP       1322  4.67                             149   -0.0810 76.8  43 
 PAM  EN ES       1322 21.63                             149    0.3910 76.8  43 
 PAM  EZ I        1322 23.92         8.5 0.55            156           76.8  43 
 RUS  HZ EP       1322  6.39                             141   -0.2710  104 175 
 RUS  HE ES       1322 25.11                             141    0.4610  104 175 
 RUS  HZ I        1322 26.49         6.0 0.26            149            104 175 
 ZAR  HZ EP   2   1322 16.56                             121    1.50 4  200 292 
 ZAR  HE ES       1322 39.47                             121   -0.12 9  200 292 
 ZAR  HZ I        1322 46.21         2.4 0.11            125            200 292 
 NOR  HZ EP       1322 18.59                             117   -0.17 8  234 233 
 NOR  HN ES       1322 46.45                             117    0.28 8  234 233 
 NOR  HZ I        1322 47.72         2.5 0.18            122            234 233 
                                                                                
