 2011 1127 1640 58.7 L   6.758 -73.121146.4  RSN  5 0.2 1.8LRSN                1
 GAP=142        0.40       2.7     3.3  4.2 -0.2389E+01  0.1360E+01  0.1211E+01E
 Epicentro: LOS SANTOS - SANTANDER                                             3
 ACTION:UPD 12-07-13 16:12 OP:ep   STATUS:               ID:20111127164058 L   I
 2011-11-27-1638-22S.COL___160                                                 6
 STAT SP IPHASW D HRMM SECON CODA AMPLIT PERI AZIMU VELO AIN AR TRES W  DIS CAZ7
 BAR2 SZ EP       1641 18.23                             172   -0.0710 19.5 200 
 BAR2 SZ ES   1   1641 33.32                             172   -0.30 7 19.5 200 
 BAR2 SZ I        1641 34.96        29.2 0.23                          19.5 200 
 BRR  HZ EP   1   1641 20.14                             151   -0.01 7 75.9 301 
 BRR  HE ES   1   1641 37.14                             151    0.23 7 75.9 301 
 BRR  HZ I        1641 41.13        12.3 0.13                          75.9 301 
 PAM  SZ EP   1   1641 21.15                             150    0.08 7 79.4  36 
 PAM  SZ I        1641 21.30         6.7 0.15                          79.4  36 
 PAM  SE ES   1   1641 38.50                             150   -0.05 7 79.4  36 
 RUS  HZ EP   1   1641 22.12                             145   -0.01 7 95.8 177 
 RUS  HN ES   1   1641 40.71                             145    0.26 7 95.8 177 
 RUS  HZ I        1641 42.05         6.5 0.27                          95.8 177 
 NOR  SN ES   1   1642  2.11                             119   -0.13 6  234 236 
                                                                                
