 2014 1027 1151 57.4 L   6.827 -73.164146.4  RSN  6 0.3 1.6LRSN                1
 GAP=133        1.20       6.9     6.3  8.9 -0.2957E+01 -0.4361E+00 -0.1471E+01E
 Epicentro: LOS SANTOS - SANTANDER                                             3
 ACTION:UPD 14-11-29 23:57 OP:nd   STATUS:               ID:20141027115157 L   I
 OLDACT:REG 14-10-30 10:46 OP:mh   STATUS:               ID:20141027114738     3
 2014-10-27-1147-38M.COL___268                                                 6
 STAT SP IPHASW D HRMM SECON CODA AMPLIT PERI AZIMU VELO AIN AR TRES W  DIS CAZ7
 BAR2 SZ EP       1152 17.32                             169    0.1110 26.0 185 
 BAR2 SZ ES       1152 32.66                             169    0.0410 26.0 185 
 BRR  HZ EP   1   1152 18.41                             154   -0.08 7 68.1 297 
 BRR  HN ES       1152 34.48                             154   -0.4210 68.1 297 
 PAM  SZ EP       1152 20.13                             152    0.4610 76.4  42 
 PAM  SN ES   1   1152 37.39                             152    0.39 7 76.4  42 
 PAM  SZ I        1152 39.18         7.8 0.48            154           76.4  42 
 RUS  HZ EP       1152 21.27                             143   -0.2110  104 175 
 RUS  HN ES       1152 40.13                             143   -0.1010  104 175 
 RUS  HZ I        1152 41.57         3.1 0.52            145            104 175 
 PTB  HZ EP       1152 24.04                             133   -0.30 9  146 258 
 PTB  HN ES       1152 45.54                             133    0.22 9  146 258 
 PTB  HZ I        1152 51.09         4.2 0.49            133            146 258 
 GUY2CHZ EP   9   1152 42.64                             113    1.55 0  301 234 
 GUY2CHN ES       1153 18.43                                    1.75 7  301 234 
 GUY2CHZ I        1153 23.80         2.8 0.38                           301 234 
                                                                                
