 2016  827 1322 23.9 L   6.802 -73.141145.2  RSN 16 0.4 2.8LRSN                1
 GAP= 71        1.00       2.8     2.7  4.8 -0.9194E+00  0.3669E+01  0.1581E+01E
 Epicentro: LOS SANTOS - SANTANDER                                             3
 ACTION:UPD 16-10-29 15:40 OP:rebc STATUS:               ID:20160827132223 L   I
 OLDACT:UP  16-08-27 23:43 OP:ar   STATUS:               ID:20160827131732     3
 OLDACT:REG 16-08-27 21:32 OP:ar   STATUS:               ID:20160827131732     3
 2016-08-27-1318-00M.COL___374                                                 6
 STAT SP IPHASW D HRMM SECON CODA AMPLIT PERI AZIMU VELO AIN AR TRES W  DIS CAZ7
 BAR2 EZ EP       1322 43.37                             170   -0.0710 23.6 191 
 BAR2 EZ ES       1322 58.36                             170   -0.3410 23.6 191 
 BAR2 EZ I        1323  0.50       122.2 0.24                          23.6 191 
 BRR  HZ EP       1322 44.30                             152   -0.6910 71.6 298 
 BRR  HE ES       1323  2.42                             152    0.9710 71.6 298 
 BRR  HZ I        1323  6.30        88.2 0.12                          71.6 298 
 PAM  EZ EP       1322 46.23                             151    0.2310 76.9  39 
 PAM  EE ES       1323  3.39                             151    0.1310 76.9  39 
 PAM  EZ I        1323  5.39       156.0 0.56                          76.9  39 
 RUS  HZ EP       1322 47.50                             144   -0.0810  101 176 
 RUS  HN ES       1323  6.02                             144   -0.0510  101 176 
 RUS  HZ I        1323  6.74        78.7 0.22                           101 176 
 PTB  HZ EP       1322 50.46                             132   -0.39 9  148 259 
 PTB  HE ES       1323 11.56                             132   -0.33 9  148 259 
 PTB  HZ I        1323 16.43        77.3 0.24                           148 259 
 TAM  HZ IP     C 1322 51.61                             131    0.15 9  155 105 
 TAM  HE ES       1323 13.28                             131    0.30 9  155 105 
 OCA  HZ EP       1322 51.80                             130   -0.33 9  160 353 
 OCA  HN ES       1323 13.58                             130   -0.59 9  160 353 
 SPBC HZ EP       1322 52.42                             129    0.04 9  164 219 
 SPBC HE ES       1323 14.87                             129    0.26 9  164 219 
 SPBC HZ I        1323 17.94       117.4 0.10                           164 219 
 ZAR  HZ EP       1322 56.25                             122   -0.08 9  205 292 
 ZAR  HN ES       1323 22.08                             122    0.44 9  205 292 
 ZAR  HZ I        1323 30.32        69.8 0.14                           205 292 
 NOR  HZ EP       1322 59.75                             118    0.12 8  235 235 
 NOR  HN ES       1323 27.91                             118    0.39 8  235 235 
 NOR  HZ I        1323 30.35        61.4 0.30                           235 235 
 CHI  HZ EP       1323  1.62                             117    0.04 8  249 195 
 CHI  HN ES       1323 30.48                             117   -0.51 8  249 195 
 CHI  HZ I        1323 38.86        29.6 0.60                           249 195 
 HEL  HZ EP       1323  4.79                             115    0.66 8  273 256 
 HEL  HN ES       1323 34.78                             115   -0.74 8  273 256 
 HEL  HZ I        1323 42.02        59.8 0.34                           273 256 
 GUY2CHZ EP       1323  7.94                             112    0.42 7  302 235 
 GUY2CHN ES       1323 41.11                             112   -0.46 7  302 235 
 GUY2CHZ I        1323 47.84        35.8 0.28                           302 235 
 CBOC HZ EP       1323 10.70                             110   -0.14 7  334 252 
 CBOC HN ES       1323 48.03                             110    0.57 7  334 252 
 CBOC HZ I        1323 51.24        18.0 0.58                           334 252 
 DBB  EZ EP       1323 11.96                             109    0.57 7  340 274 
 DBB  EZ ES   4   1323 47.08                             109   -1.37 0  340 274 
 DBB  EZ I        1323 55.50        16.6 0.44                           340 274 
 ANIL HZ EP   4   1323 15.11                             108    1.39 0  358 225 
 ANIL HN ES   4   1323 54.46                             108    1.86 0  358 225 
 ANIL HZ I        1323 59.32        60.9 0.36                           358 225 
                                                                                
