 2016  327 1800 29.6 L   6.813 -73.147143.2  RSN  9 0.3 1.9LRSN                1
 GAP=136        0.61       2.3     3.0  4.7 -0.4406E+00  0.5458E+01 -0.1144E+01E
 Epicentro: LOS SANTOS - SANTANDER                                             3
 ACTION:UPD 16-05-13 21:28 OP:cam  STATUS:               ID:20160327180029 L   I
 OLDACT:REG 16-03-27 20:44 OP:dnl  STATUS:               ID:20160327175745     3
 2016-03-27-1757-45M.COL___304                                                 6
 STAT SP IPHASW D HRMM SECON CODA AMPLIT PERI AZIMU VELO AIN AR TRES W  DIS CAZ7
 BAR2 EZ EP   3   18 0 49.25                             170    0.25 2 24.7 189 
 BAR2 EZ ES       18 1  3.97                             170   -0.1310 24.7 189 
 BAR2 EZ I        18 1  5.18        19.7 0.30            168           24.7 189 
 PAM  EN ES       18 1  8.62                             151    0.0210 76.4  40 
 PAM  EZ I        18 1 11.20        10.9 0.44            152           76.4  40 
 RUS  HZ EP       18 0 53.37                             143    0.1110  102 176 
 RUS  HE ES       18 1 11.87                             143    0.2010  102 176 
 RUS  HZ I        18 1 13.45         6.3 0.16            142            102 176 
 PTB  HZ EP       18 0 56.15                             131   -0.27 9  148 258 
 PTB  HN ES       18 1 16.95                             131   -0.35 9  148 258 
 PTB  HZ I        18 1 19.40         9.1 0.12            129            148 258 
 OCA  HZ EP       18 0 57.29                             129   -0.33 9  159 353 
 OCA  HE ES       18 1 19.57                             129    0.12 9  159 353 
 OCA  HZ I        18 1 22.24        29.1 0.24            129            159 353 
 SPBC HN ES   3   18 1 19.91                             128   -0.29 2  164 219 
 SPBC HZ I        18 1 23.04         9.2 0.09            127            164 219 
 ZAR  HZ EP   4   18 1  3.11                             122    1.25 0  203 292 
 ZAR  HN ES       18 1 27.50                             122    0.52 9  203 292 
 ZAR  HZ I        18 1 33.76         7.5 0.10            121            203 292 
 CHI  HZ EP   2   18 1  7.88                             116    0.53 4  250 195 
 CHI  HN ES   3   18 1 35.91                             116   -0.85 2  250 195 
 CHI  HZ I        18 1 44.80         5.0 0.34            115            250 195 
 HEL  HZ EP   2   18 1 10.10                             114    0.35 4  272 255 
 HEL  HN ES   3   18 1 42.18                             114    1.14 2  272 255 
 HEL  HZ I        18 1 45.72         3.3 0.26            113            272 255 
                                                                                
