 2010  527 1631 39.5 L   6.771 -73.085132.8  RSN  7 0.3 2.1LRSN                1
 GAP=183        0.46       4.4     6.8  7.0 -0.1918E+02  0.2694E+02 -0.6682E+01E
 Epicentro: LOS SANTOS - SANTANDER                                             3
 ACTION:UP  10-08-24 10:07 OP:vdl  STATUS:               ID:20100527163139 L   I
 2010-05-27-1627-48S.COL___108                                                 6
 STAT SP IPHASW D HRMM SECON CODA AMPLIT PERI AZIMU VELO SNR AR TRES W  DIS CAZ7
 BAR2 SZ EP   1   1631 57.20                             170    -0.3 7   23 209 
 BAR2 SZ ES   2   1632 11.53                             170    -0.1 5   23 209 
 GUE  SZ EP   1   1632  3.25                             136     0.1 7  118   9 
 GRA  SZ ES   2   1632 22.88                             134     0.3 5  127  14 
 CHI  HN ES   2   1632 45.32                             114     0.2 4  247 197 
 CHI  HZ I        1632 52.86         5.0 0.08                           247 197 
 HEL  HZ EP   1   1632 19.53                             111    -0.2 6  278 257 
 HEL  HE ES   2   1632 51.24                             111     0.2 4  278 257 
 HEL  HZ I        1632 56.83         9.4 0.41                           278 257 
 RREF BZ EP   1   1632 25.74                             108     0.3 5  325 231 
 RREF BN ES   2   1633  1.65                             108     0.4 3  325 231 
 RREF BZ I        1633  9.79         8.1 0.31                           325 231 
 DBB  SZ EP   2   1632 26.67                             107    -0.6 3  346 275 
                                                                                
