 2012  627 1007 24.9 L   6.789 -73.164142.9  RSN 11 0.4 2.2LRSN                1
 GAP=135        0.64       2.9     3.4  4.6 -0.1509E+01  0.3056E+01  0.2980E+01E
 Epicentro: LOS SANTOS - SANTANDER                                             3
 ACTION:UPD 12-08-06 17:53 OP:ep   STATUS:               ID:20120627100724 L   I
 2012-06-27-1000-00M.COL___201                                                 6
 STAT SP IPHASW D HRMM SECON CODA AMPLIT PERI AZIMU VELO AIN AR TRES W  DIS CAZ7
 BAR2 SZ EP       10 7 44.24                             171    0.0810 21.9 185 
 BAR2 SZ ES   1   10 7 59.15                             171   -0.03 7 21.9 185 
 BAR2 SZ I        10 8  2.07        41.3 0.32                          21.9 185 
 BRR  HZ EP       10 7 46.02                             152    0.3510 70.0 300 
 BRR  HN ES   1   10 8  2.32                             152    0.44 7 70.0 300 
 BRR  HZ I        10 8  6.80        23.9 0.52                          70.0 300 
 PAM  SZ EP       10 7 47.06                             149    0.1210 79.6  40 
 PAM  SZ I        10 7 47.45        25.2 0.18                          79.6  40 
 PAM  SN ES   1   10 8  4.27                             149    0.13 7 79.6  40 
 RUS  HZ EP       10 7 48.15                             143   -0.1510 99.6 175 
 RUS  HN ES   1   10 8  6.15                             143   -0.40 7 99.6 175 
 RUS  HZ I        10 8  8.15        16.5 0.36                          99.6 175 
 PTB  HZ EP   1   10 7 50.93                             132   -0.50 7  146 259 
 PTB  HN ES   1   10 8 11.49                             132   -0.64 7  146 259 
 PTB  HZ I        10 8 17.09         8.8 0.16                           146 259 
 OCA  HZ EP   2   10 7 52.54                             129   -0.54 5  161 354 
 OCA  HE ES   2   10 8 14.23                             129   -0.83 5  161 354 
 OCA  HZ I        10 8 22.48        25.9 0.38                           161 354 
 ZAR  HZ EP   2   10 7 56.88                             122   -0.13 4  203 293 
 ZAR  HN ES   2   10 8 22.20                             122    0.14 4  203 293 
 ZAR  HZ I        10 8 27.43        14.3 0.26                           203 293 
 NOR  SZ EP       10 8  0.31                             118    0.10 8  232 234 
 NOR  SN ES   1   10 8 28.15                             118    0.39 6  232 234 
 CHI  HZ EP   2   10 8  2.57                             117    0.31 4  247 195 
 CHI  HN ES   2   10 8 31.59                             117    0.19 4  247 195 
 CHI  HZ I        10 8 36.93         8.2 0.40                           247 195 
 VIL  SZ EP   2   10 8  7.67                             112   -0.34 4  302 191 
 VIL  SZ I        10 8 50.60         6.9 0.36                           302 191 
 PRA  HZ EP       10 8 18.20                             106    0.11 6  390 209 
 PRA  HN ES   2   10 9  0.54                             106    0.97 3  390 209 
 PRA  HZ I        10 9  5.98        26.9 0.48                           390 209 
                                                                                
