 2010  227 1231 13.1 L   6.836 -73.099139.4  RSN  8 0.6 2.2LRSN                1
 GAP=188        0.96       4.7    11.6  8.5  0.1529E+01  0.2562E+02  0.4721E+01E
 Epicentro: LOS SANTOS - SANTANDER                                             3
 ACTION:UP  10-08-24 09:51 OP:vdl  STATUS:               ID:20100227123113 L   I
 2010-02-27-1229-10S.COL___094                                                 6
 STAT SP IPHASW D HRMM SECON CODA AMPLIT PERI AZIMU VELO SNR AR TRES W  DIS CAZ7
 BAR2 SZ EP       1231 31.99                             167    -0.110   29 199 
 BAR2 SZ ES   2   1231 46.61                             167    -0.2 5   29 199 
 BRR  HZ EP       1231 34.04                             149     0.310   74 294 
 BRR  HE ES   2   1231 50.64                             149     0.8 5   74 294 
 BRR  HZ I        1231 54.85        43.6 0.25                            74 294 
 RUS  BZ EP       1231 36.46                             141     0.010  104 179 
 RUS  BN ES   1   1231 54.54                             141    -0.2 7  104 179 
 RUS  BZ I        1231 56.16        14.7 0.30                           104 179 
 OCA  SZ EP       1231 40.05                             129    -0.5 9  157 351 
 OCA  SZ ES   2   1232  1.75                             129    -0.3 5  157 351 
 OCA  SZ I        1232  6.47        34.5 0.14                           157 351 
 CHI  HZ EP       1231 51.22                             115     0.2 8  254 196 
 CHI  HN ES   3   1232 19.92                             115    -0.6 2  254 196 
 CHI  HZ I        1232 23.78         5.3 0.40                           254 196 
 RREF BZ EP   2   1232  0.67                             109     1.0 3  328 229 
 RREF BN ES   3   1232 35.81                             109    -0.2 2  328 229 
 RREF BZ I        1232 44.08         6.6 0.34                           328 229 
 TOL  SZ EP       1232  2.51                             108     0.7 6  350 225 
 TOL  SZ ES   2   1232 37.81                             108    -2.0 3  350 225 
 PRA  HZ EP       1232  6.73                             105    -0.3 6  398 210 
 PRA  HE ES   3   1232 48.22                             105    -1.0 1  398 210 
 PRA  HZ I        1232 54.19         4.9 0.29                           398 210 
                                                                                
