 2017  427 1031 53.3 L   6.807 -73.219152.0  RSN  6 0.4 1.5LRSN                1
 GAP=252        0.74       3.7     6.2  7.0  0.2157E+01 -0.1071E+02  0.8470E+01E
 Epicentro: ZAPATOCA - SANTANDER                                               3
 ACTION:UPD 17-05-30 21:16 OP:jn   STATUS:               ID:20170427103153 L   I
 OLDACT:UP  17-04-27 21:47 OP:dani STATUS:               ID:20170427102742d    3
 OLDACT:UP  17-04-27 21:47 OP:dani STATUS:               ID:20170427102742d    3
 OLDACT:DUP 17-04-27 21:44 OP:dani STATUS:               ID:20170427102742d    3
 2017-04-27-1028-00M.COL___372                                                 6
 STAT SP IPHASW D HRMM SECON CODA AMPLIT PERI AZIMU VELO AIN AR TRES W  DIS CAZ7
 BRR  HZ EP       1032 14.58                             156   -0.1410 63.8 301 
 BRR  HN ES       1032 31.67                             156    0.2310 63.8 301 
 BRR  HZ I        1032 31.95         6.5 0.52            144           63.8 301 
 PTB  HZ EP       1032 19.69                             135   -0.39 9  140 258 
 PTB  HN ES       1032 40.66                             135   -0.33 9  140 258 
 PTB  HZ I        1032 47.56         4.4 0.38            126            140 258 
 SPBC HE ES       1032 44.50                             132    0.35 9  159 217 
 ZAR  HZ EP   3   1032 26.80                             125    1.45 2  196 293 
 ZAR  HN ES       1032 50.51                             125    0.14 9  196 293 
 ZAR  HZ I        1032 59.87         3.4 0.18            119            196 293 
 NOR  HZ EP       1032 29.29                             121    0.55 8  229 233 
 NOR  HN ES       1032 56.22                             121   -0.17 8  229 233 
 NOR  HZ I        1033  2.68         2.4 0.06            116            229 233 
 CHI  HZ EP       1032 30.91                             119   -0.29 8  247 193 
 CHI  HN ES       1033  0.79                             119    0.02 8  247 193 
 CHI  HZ I        1033  2.96         1.4 0.18            116            247 193 
                                                                                
