 2012  127 1646 27.0 L   6.797 -73.135143.5  RSN  6 0.4 1.3LRSN                1
 GAP=138        0.70       4.9     7.7  8.7 -0.7370E+01 -0.1672E+02  0.1227E+02E
 Epicentro: LOS SANTOS - SANTANDER                                             3
 ACTION:UP  12-02-03 08:21 OP:REBC STATUS:               ID:20120127164627 L   I
 2012-01-27-1640-00M.COL___188                                                 6
 STAT SP IPHASW D HRMM SECON CODA AMPLIT PERI AZIMU VELO SNR AR TRES W  DIS CAZ7
 BAR2 SZ EP       1646 46.06                             170    -0.210   23 193 
 BAR2 SZ I        1647  2.26         8.0 0.42                            23 193 
 GIR2 SZ ES   3   1647  0.58                             167    -0.9 2   32 348 
 BRR  HN ES   1   1647  4.50                             152     0.2 7   72 298 
 PAM  SZ EP       1646 48.86                             150     0.010   77  39 
 PAM  SN ES   1   1647  6.12                             150     0.1 7   77  39 
 RUS  HZ EP       1646 50.79                             143     0.310  100 177 
 RUS  HE ES   1   1647  8.59                             143    -0.2 7  100 177 
 RUS  HZ I        1647 10.53         2.5 0.30                           100 177 
 PTB  HZ EP   3   1646 52.60                             131    -1.2 2  149 259 
 PTB  HZ I        1647 16.02         1.7 0.56                           149 259 
                                                                                
