 2012 1227 1159 48.1 L   6.809 -73.137147.9  RSN 13 0.3 2.8LRSN                1
 GAP=184        0.71       2.8     3.7  4.7  0.1965E+01  0.2541E+01  0.1569E+01E
 Epicentro: LOS SANTOS - SANTANDER                                             3
 ACTION:UPD 13-01-04 14:30 OP:ep   STATUS:               ID:20121227115948 L   I
 2012-12-27-1200-00M.COL___243                                                 6
 STAT SP IPHASW D HRMM SECON CODA AMPLIT PERI AZIMU VELO AIN AR TRES W  DIS CAZ7
 BAR2 SZ EP       12 0  8.10                             170    0.1410 24.5 192 
 BAR2 SZ ES   1   12 0 23.11                             170   -0.38 7 24.5 192 
 BAR2 SZ I        12 0 24.68       159.9 0.33                          24.5 192 
 GIR2 SZ EP     C 12 0  8.11                             168    0.1510 30.5 348 
 BRR  HZ IP     C 12 0  9.86                             153    0.4110 71.6 297 
 BRR  HN ES       12 0 26.63                             153    0.4810 71.6 297 
 BRR  HZ I        12 0 29.28        81.2 0.15                          71.6 297 
 RUS  HZ EP       12 0 12.12                             144    0.0410  102 177 
 RUS  HE ES   1   12 0 30.27                             144   -0.55 7  102 177 
 RUS  HE I        12 0 36.29        54.9 0.26                           102 177 
 PTB  HZ EP       12 0 14.86                             132   -0.44 9  149 259 
 PTB  HE ES   1   12 0 36.02                             132   -0.53 7  149 259 
 PTB  HZ I        12 0 37.73        66.0 0.40                           149 259 
 OCA  HZ EP   1   12 0 16.20                             130   -0.25 7  159 353 
 OCA  HE ES   1   12 0 38.37                             130   -0.23 7  159 353 
 OCA  HZ I        12 0 42.93        73.0 0.27                           159 353 
 ZAR  HZ EP   1   12 0 20.78                             123    0.09 6  205 292 
 ZAR  HE ES       12 0 46.11                             123   -0.04 9  205 292 
 ZAR  HZ I        12 0 52.23        63.8 0.56                           205 292 
 SML  HZ EP   2   12 0 24.50                             118   -0.24 4  243 335 
 SML  HE ES   2   12 0 52.99                             118   -0.37 4  243 335 
 CHI  HZ EP   1   12 0 26.12                             117    0.12 6  250 195 
 CHI  HN ES   1   12 0 56.20                             117    0.60 6  250 195 
 CHI  HN I        12 0 58.70        90.4 0.33                           250 195 
 ROSC BZ EP   4   12 0 28.11                             117    1.67 0  254 211 
 ROSC BN ES   4   12 0 57.64                             117    1.26 0  254 211 
 ROSC BZ I        12 1  4.39        35.5 0.60                           254 211 
 HEL  HZ EP   1   12 0 28.74                             115    0.23 6  273 256 
 HEL  HN ES   1   12 1  0.11                             115    0.05 6  273 256 
 HEL  HZ I        12 1  6.37        31.3 0.43                           273 256 
 TOL  SZ EP   1   12 0 35.94                             110   -0.61 5  345 225 
 MON  HZ EP   4   12 0 35.46                             109   -1.69 0  354 308 
 ANIL HZ EP   1   12 0 38.43                             109    0.33 5  359 225 
                                                                                
