 2015 1227 1411 39.6 L   6.828 -73.058130.4  RSN  4 0.2 1.2LRSN                1
 GAP=147        0.66       3.4     5.3  5.7 -0.3109E+01 -0.7978E+01  0.5633E+01E
 Epicentro: LOS SANTOS - SANTANDER                                             3
 ACTION:UPD 16-02-04 15:08 OP:cam  STATUS:               ID:20151227141139 L   I
 OLDACT:REG 15-12-27 20:35 OP:cara STATUS:               ID:20151227140750     3
 2015-12-27-1407-50M.COL___328                                                 6
 STAT SP IPHASW D HRMM SECON CODA AMPLIT PERI AZIMU VELO AIN AR TRES W  DIS CAZ7
 BAR2 EZ EP       1411 57.39                             167   -0.1510 29.5 208 
 BAR2 EZ ES       1412 11.98                             167    0.4410 29.5 208 
 BAR2 EZ I        1412 13.14         3.6 0.14            169           29.5 208 
 PAM  EZ EP       1411 59.95                             151    0.2710 69.0  35 
 PAM  EN ES       1412 15.10                             151   -0.2510 69.0  35 
 PAM  EZ I        1412 19.29         4.8 0.40            150           69.0  35 
 BRR  HN ES       1412 15.04                             147   -0.1210 78.5 293 
 RUS  HZ EP       1412  2.02                             139   -0.0810  104 182 
 RUS  HZ EPg      1412  2.23                             139    0.1310  104 182 
 RUS  HE ES       1412 19.41                             139   -0.2410  104 182 
 RUS  HZ I        1412 21.45         3.1 0.30            142            104 182 
                                                                                
