 2014  827 1914  4.1 L   6.822 -73.125142.0  RSN  7 0.5 1.8LRSN                1
 GAP=138        1.32       4.6     6.6  8.7  0.2562E-02  0.1082E+02 -0.6940E+01E
 Epicentro: LOS SANTOS - SANTANDER                                             3
 ACTION:UPD 14-09-15 21:53 OP:nd   STATUS:               ID:20140827191404 L   I
 OLDACT:REG 14-08-27 21:58 OP:stll STATUS:               ID:20140827190819     3
 2014-08-27-1908-19M.COL___262                                                 6
 STAT SP IPHASW D HRMM SECON CODA AMPLIT PERI AZIMU VELO AIN AR TRES W  DIS CAZ7
 BAR2 SZ EP       1914 23.66                             169    0.2810 26.2 194 
 BAR2 SZ ES       1914 38.00                             169   -0.3910 26.2 194 
 BAR2 SZ I        1914 39.32        11.2 0.22            170           26.2 194 
 BRR  HZ EP       1914 25.72                             151    0.7810 72.1 296 
 BRR  HN ES       1914 42.03                             151    0.8710 72.1 296 
 PAM  SZ EP       1914 26.36                             151    0.6010 74.1  39 
 PAM  SZ I        1914 26.51        15.3 0.24            151           74.1  39 
 PAM  SN ES       1914 42.38                             151   -0.2410 74.1  39 
 RUS  HZ EP       1914 27.61                             142   -0.0910  103 177 
 RUS  HN ES       1914 45.64                             142   -0.4210  103 177 
 RUS  HZ I        1914 46.49         3.0 0.24            144            103 177 
 PTB  HZ EP       1914 30.36                             130   -0.70 9  150 258 
 PTB  HN ES       1914 51.99                             130   -0.06 9  150 258 
 PTB  HZ I        1914 53.82        13.4 0.88            130            150 258 
 OCA  HN ES       1914 53.11                             129   -0.55 9  158 352 
 SML  HZ EP       1914 40.57                             117    0.14 8  242 335 
 SML  HN ES       1915  8.14                             117   -0.59 8  242 335 
 SML  HZ I        1915 15.40         6.7 0.10            116            242 335 
                                                                                
