 2013  227 1202 30.7 L   6.828 -73.168134.5  RSN  4 0.1 1.3LRSN                1
 GAP=243        0.33       4.4     3.5  5.1  0.8626E+01  0.5259E+01 -0.4801E+01E
 Epicentro: LOS SANTOS - SANTANDER                                             3
 ACTION:UPD 13-03-12 09:36 OP:ep   STATUS:               ID:20130227120230 L   I
 2013-02-27-1200-00M.COL___226                                                 6
 STAT SP IPHASW D HRMM SECON CODA AMPLIT PERI AZIMU VELO AIN AR TRES W  DIS CAZ7
 BAR2 SZ EP   1   12 2 48.91                             168   -0.12 7 26.1 184 
 BAR2 SZ ES   1   12 3  3.35                             168    0.02 7 26.1 184 
 BAR2 SZ I        12 3  6.57         5.5 0.50            171           26.1 184 
 RUS  HE ES   1   12 3 11.54                             140    0.07 7  104 175 
 PTB  HZ EP   1   12 2 56.66                             130    0.07 7  146 257 
 PTB  HN ES   1   12 3 16.68                             130   -0.12 7  146 257 
 PTB  HZ I        12 3 19.02         2.5 0.15            134            146 257 
 ZAR  HN ES   1   12 3 26.63                             120    0.10 6  201 292 
                                                                                
