 2010 1127 1351 52.5 L   6.793 -73.142139.2  RSN  7 0.2 1.7LRSN                1
 GAP=159        0.34       1.6     3.5  3.1 -0.1102E+01  0.9677E+00 -0.1001E+00E
 Epicentro: LOS SANTOS - SANTANDER                                             3
 ACTION:UP  10-12-17 16:55 OP:REBC STATUS:               ID:20101127135152 L   I
 2010-11-27-1348-14S.COL___132                                                 6
 STAT SP IPHASW D HRMM SECON CODA AMPLIT PERI AZIMU VELO SNR AR TRES W  DIS CAZ7
 BAR2 SZ IP       1352 11.36                             170     0.010   23 192 
 BAR2 SZ ES   1   1352 26.07                             170     0.0 7   23 192 
 BAR2 SZ I        1352 27.50        11.7 0.16                            23 192 
 BRR  HZ EP   1   1352 13.09                             151     0.1 7   72 299 
 BRR  HE ES   1   1352 28.95                             151    -0.1 7   72 299 
 BRR  HZ I        1352 34.84        15.4 0.20                            72 299 
 RUS  HZ EP   2   1352 15.31                             143    -0.3 5  100 176 
 RUS  HN ES   1   1352 33.59                             143     0.0 7  100 176 
 RUS  HZ I        1352 35.26         7.5 0.23                           100 176 
 GRA  SZ EP   2   1352 17.60                             135     0.3 5  126  17 
 GRA  SZ ES   1   1352 36.63                             135     0.1 7  126  17 
 GRA  SZ I        1352 38.14         8.5 0.43                           126  17 
 OCA  SZ EP   1   1352 20.20                             128    -0.2 7  161 353 
 OCA  SZ ES   2   1352 42.06                             128    -0.1 5  161 353 
 OCA  SZ I        1352 48.66        11.0 0.49                           161 353 
 CHI  HZ EP   2   1352 29.64                             116    -0.2 4  248 195 
 CHI  HN ES   2   1352 58.86                             116     0.0 4  248 195 
 CHI  HZ I        1353  2.37         2.5 0.50                           248 195 
 RREF HZ EP   2   1352 38.71                             110     0.3 3  322 230 
 RREF HN ES   2   1353 14.21                             110     0.1 3  322 230 
 RREF HZ I        1353 23.31         2.4 0.22                           322 230 
                                                                                
