 2011  727 1343 57.5 L   6.801 -73.129143.6  RSN 15 0.5 3.0LRSN                1
 GAP=127        1.06       4.0     6.9  6.6 -0.1243E+02  0.9932E+01  0.2327E+00E
 Epicentro: LOS SANTOS - SANTANDER                                             3
 ACTION:UP  12-07-25 14:03 OP:epov STATUS:               ID:20110727134357 L   I
 OLDACT:UPD 12-07-12 22:06 OP:ep   STATUS:               ID:20110727134357 L   3
 2011-07-27-1342-23S.COL___143                                                 6
 STAT SP IPHASW D HRMM SECON CODA AMPLIT PERI AZIMU VELO AIN AR TRES W  DIS CAZ7
 BAR2 SZ IP       1344 17.21                             170    0.3110 23.8 194 
 BAR2 SZ ES   1   1344 31.87                             170   -0.14 7 23.8 194 
 BAR2 SZ I        1344 33.87       352.6 0.13                          23.8 194 
 BRR  HZ EP   1   1344 19.01                             152    0.49 7 72.8 298 
 BRR  HE ES   1   1344 34.90                             152   -0.01 7 72.8 298 
 BRR  HZ I        1344 40.71       245.9 0.14                          72.8 298 
 PAM  SZ EP   1   1344 20.13                             151    0.70 7 76.2  39 
 PAM  SN ES   1   1344 36.78                             151    0.26 7 76.2  39 
 RUS  HZ EP   1   1344 21.07                             143    0.02 7  101 177 
 RUS  HN ES   1   1344 39.28                             143   -0.13 7  101 177 
 RUS  HZ I        1344 41.57       109.9 0.36                           101 177 
 BRI  SZ EP       1344 21.75                             141    0.6010  108  20 
 BRI  SZ I        1344 45.55        96.5 0.44                           108  20 
 GRA  SZ IP       1344 21.25                             137   -1.2710  125  17 
 GRA  SZ I        1344 45.20        74.9 0.36                           125  17 
 OCA  SZ EP       1344 25.70                             129    0.02 9  160 352 
 OCA  SZ ES   1   1344 47.10                             129   -0.54 7  160 352 
 OCA  SZ I        1344 51.09       104.8 0.30                           160 352 
 CHI  HZ EP   1   1344 35.15                             117   -0.01 6  249 196 
 CHI  HN ES   1   1345  4.35                             117   -0.17 6  249 196 
 CHI  HZ I        1345  8.45        81.6 0.48                           249 196 
 ROSC BZ EP   1   1344 35.49                             116   -0.14 6  254 211 
 ROSC BN ES   1   1345  4.89                             116   -0.47 6  254 211 
 ROSC BZ I        1345 11.84       213.4 0.43                           254 211 
 HEL  HZ EP   1   1344 38.83                             114    1.01 6  274 256 
 RREF HZ EP   1   1344 44.40                             110    0.67 5  323 230 
 RREF HE ES   1   1345 18.85                             110   -0.93 5  323 230 
 RREF HZ I        1345 29.31        76.4 0.34                           323 230 
 DBB  SZ EP   1   1344 45.21                             109    0.09 5  341 274 
 TOL  SZ EP   1   1344 46.01                             109    0.17 5  345 225 
 SDV  BZ EP   1   1344 46.79                             108   -0.52 5  359  50 
 SDV  BZ I        1344 47.39        32.4 0.35                           359  50 
 PRA  HZ EP   1   1344 50.62                             106   -0.46 4  393 210 
                                                                                
