 2014 1127 1303  6.5 L   6.788 -73.134149.5  RSN 14 0.4 1.8LRSN                1
 GAP=139        0.90       3.5     3.5  5.6 -0.1455E+01  0.3967E+01  0.4712E+01E
 Epicentro: LOS SANTOS - SANTANDER                                             3
 ACTION:UPD 14-12-19 15:48 OP:nd   STATUS:               ID:20141127130306 L   I
 OLDACT:REG 14-11-27 16:56 OP:spq  STATUS:               ID:20141127125745     3
 2014-11-27-1257-45M.COL___306                                                 6
 STAT SP IPHASW D HRMM SECON CODA AMPLIT PERI AZIMU VELO AIN AR TRES W  DIS CAZ7
 BAR2 SZ EP       13 3 26.54                             171   -0.0610 22.3 194 
 BAR2 SZ ES   1   13 3 41.80                             171   -0.44 7 22.3 194 
 BAR2 SZ I        13 3 43.22        13.2 0.24            168           22.3 194 
 BRR  HZ EP       13 3 28.45                             153    0.2610 72.9 299 
 BRR  HN ES       13 3 45.89                             153    0.8210 72.9 299 
 BRR  HZ I        13 3 50.24         8.8 0.20            150           72.9 299 
 PAM  SZ EP       13 3 29.39                             151    0.2310 77.6  38 
 PAM  SN ES       13 3 46.69                             151   -0.1210 77.6  38 
 PAM  SZ I        13 3 48.71         8.5 0.48            156           77.6  38 
 RUS  HZ EP       13 3 30.39                             145   -0.1710 99.2 177 
 RUS  HE ES   1   13 3 49.08                             145   -0.22 7 99.2 177 
 RUS  HZ I        13 3 50.17         5.1 0.30            146           99.2 177 
 PTB  HZ EP       13 3 33.47                             133   -0.43 9  149 259 
 PTB  HE ES       13 3 54.90                             133   -0.35 9  149 259 
 PTB  HZ I        13 4  0.48         7.8 0.64            132            149 259 
 SPBC HZ EP       13 3 35.55                             130    0.24 9  163 220 
 SPBC HE ES       13 3 57.56                             130   -0.19 9  163 220 
 SPBC HZ I        13 3 59.98        12.1 0.22            130            163 220 
 ZAR  HZ EP       13 3 39.09                             123   -0.31 8  206 292 
 ZAR  HE ES       13 4  4.34                             123   -0.69 8  206 292 
 ZAR  HZ I        13 4 10.27         8.0 0.38            123            206 292 
 NOR  HZ EP       13 3 42.66                             119    0.14 8  235 235 
 NOR  HN ES       13 4 11.03                             119    0.45 8  235 235 
 NOR  HZ I        13 4 16.51         5.8 0.20            120            235 235 
 CHI  HZ EP       13 3 44.58                             118    0.23 8  248 196 
 CHI  HE ES   1   13 4 13.81                             118   -0.03 6  248 196 
 CHI  HZ I        13 4 19.87         2.2 0.25            119            248 196 
 HEL  HZ EP   4   13 3 48.16                             115    1.11 0  273 256 
 HEL  HN ES       13 4 19.10                             115    0.46 8  273 256 
 HEL  HZ I        13 4 27.11         4.5 0.32            116            273 256 
 GUY2CHZ EP   4   13 3 48.65                             113   -1.71 0  301 235 
 GUY2CHN ES   4   13 4 27.80                             113    3.27 0  301 235 
 GUY2CHZ I        13 4 33.41         4.0 0.72                           301 235 
 TOL  SN ES   4   13 4 34.51                             110    1.81 0  343 225 
 TOL  SZ I        13 4 37.64         6.2 0.26            111            343 225 
 MON  HN ES   4   13 4 32.64                             109   -1.75 0  355 308 
 MON  HZ I        13 4 34.15         1.6 0.28            110            355 308 
 SJC  HZ EP   4   13 4  0.63                             106   -1.80 0  411 327 
 SJC  HN ES   4   13 4 42.84                             106   -3.19 0  411 327 
 SJC  HZ I        13 4 49.36         1.4 0.46            107            411 327 
                                                                                
