 2012  727 1709 49.8 L   6.775 -73.160139.0  RSN  6 0.2 1.7LRSN                1
 GAP=136        0.54       3.7     3.3  4.7  0.3024E+01  0.2889E+01 -0.2642E+01E
 Epicentro: LOS SANTOS - SANTANDER                                             3
 ACTION:UPD 12-08-14 11:45 OP:ep   STATUS:               ID:20120727170949 L   I
 2012-07-27-1710-00M.COL___215                                                 6
 STAT SP IPHASW D HRMM SECON CODA AMPLIT PERI AZIMU VELO AIN AR TRES W  DIS CAZ7
 BAR2 SZ EP       1710  8.63                             171     0.110   20 187 
 BAR2 SZ I        1710  8.99        14.7 0.15            166             20 187 
 BAR2 SZ ES   1   1710 23.19                             171     0.0 7   20 187 
 BRR  HZ EP   1   1710 10.42                             151     0.2 7   71 301 
 BRR  HZ I        1710 10.62        20.4 0.20            149             71 301 
 BRR  HN ES   1   1710 26.37                             151     0.2 7   71 301 
 PAM  SZ EP   1   1710 11.47                             148     0.0 7   81  39 
 PAM  SN ES   2   1710 28.10                             148    -0.3 5   81  39 
 RUS  HZ EP   1   1710 12.68                             143     0.0 7   98 175 
 RUS  HN ES   1   1710 30.54                             143     0.0 7   98 175 
 RUS  HZ I        1710 32.23         7.1 0.31            142             98 175 
 PTB  HZ EP   1   1710 15.57                             131    -0.5 7  146 260 
 PTB  HN ES   1   1710 36.52                             131     0.0 7  146 260 
 PTB  HZ I        1710 42.58         4.7 0.25            129            146 260 
 ZAR  HZ EP       1710 22.10                             121     0.3 9  204 293 
 ZAR  HN ES   1   1710 46.37                             121    -0.4 6  204 293 
