 2014  127 1150 10.4 L   6.867 -73.370116.7  RSN 11 0.4 1.8LRSN                1
 GAP= 91        0.88       2.6     3.8  6.1 -0.8586E+00  0.9339E+01 -0.3822E+01E
 Epicentro: SAN VICENTE DE CHUCURI - SANTANDER                                 3
 ACTION:UPD 14-03-13 09:59 OP:ep   STATUS:               ID:20140127115010 L   I
 OLDACT:REG 14-01-27 18:14 OP:nd   STATUS:               ID:20140127115000     3
 2014-01-27-1150-00M.COL___285                                                 6
 STAT SP IPHASW D HRMM SECON CODA AMPLIT PERI AZIMU VELO AIN AR TRES W  DIS CAZ7
 BAR2 SZ EP     D 1150 27.38                             161    0.3810 36.8 146 
 BAR2 SZ ES       1150 40.01                             161    0.0710 36.8 146 
 BAR2 SZ I        1150 41.81        67.6 0.26            165           36.8 146 
 PAM  SZ EP       1150 30.72                             140    0.0810 90.7  55 
 PAM  SN ES       1150 46.60                             140    0.2010 90.7  55 
 PAM  SZ I        1150 49.48        15.9 0.44            145           90.7  55 
 RUS  HZ EP       1150 32.11                             133   -0.3510  112 164 
 RUS  HN ES       1150 49.50                             133   -0.1410  112 164 
 RUS  HZ I        1150 52.71         5.6 0.28            137            112 164 
 PTB  HZ EP       1150 32.63                             129   -0.3810  125 253 
 PTB  HN ES       1150 50.51                             129   -0.1210  125 253 
 PTB  HZ I        1150 57.28         8.9 0.44            130            125 253 
 OCA  HZ EP       1150 35.52                             124   -0.27 9  152   2 
 OCA  HN ES       1150 55.14                             124   -0.43 9  152   2 
 OCA  HZ I        1151  2.96        10.9 0.20            126            152   2 
 ZAR  HZ EP       1150 39.00                             119    0.64 9  178 293 
 ZAR  HN ES   4   1151  2.00                             119    1.86 0  178 293 
 ZAR  HZ I        1151  4.34         7.6 0.16            120            178 293 
 SML  HZ EP       1150 43.30                             112   -0.45 8  227 340 
 SML  HN ES       1151 10.24                             112    0.49 8  227 340 
 SML  HZ I        1151 13.99        17.4 0.10            114            227 340 
 CHI  HZ EP       1150 47.37                             110    0.45 8  251 189 
 CHI  HN ES   4   1151 13.97                             110   -1.41 0  251 189 
 CHI  HZ I        1151 18.94         3.3 0.28            112            251 189 
 GUY2CHZ EP   4   1150 52.89                             107    1.82 0  286 231 
 GUY2CHN ES   4   1151 21.49                             107   -1.29 0  286 231 
 GUY2CHZ I        1151 29.77         2.1 0.58                           286 231 
 PRA  HZ EP   4   1151  2.07                             101   -0.43 0  387 206 
 PRA  HN ES   4   1151 42.63                             101   -0.49 0  387 206 
 PRA  HZ I        1151 50.67         2.2 0.58            103            387 206 
 SJC  HZ EP   4   1151  0.02                             101   -2.84 0  390 329 
 SJC  HN ES   4   1151 40.60                             101   -3.16 0  390 329 
 SJC  HZ I        1151 44.56         1.6 0.66            103            390 329 
                                                                                
