 2016  827 1102  3.6 L   6.781 -73.149148.7  RSN 14 0.4 2.0LRSN                1
 GAP= 99        0.88       3.1     3.0  4.7 -0.1222E+01  0.2121E+01  0.2798E+01E
 Epicentro: LOS SANTOS - SANTANDER                                             3
 ACTION:UPD 16-10-29 15:39 OP:rebc STATUS:               ID:20160827110203 L   I
 OLDACT:UP  16-08-27 22:19 OP:ar   STATUS:               ID:20160827105741     3
 OLDACT:REG 16-08-27 21:23 OP:ar   STATUS:               ID:20160827105741     3
 2016-08-27-1058-00M.COL___371                                                 6
 STAT SP IPHASW D HRMM SECON CODA AMPLIT PERI AZIMU VELO AIN AR TRES W  DIS CAZ7
 BAR2 EZ EP       11 2 23.42                             171   -0.1410 21.2 190 
 BAR2 EZ ES       11 2 38.57                             171   -0.5410 21.2 190 
 BAR2 EZ I        11 2 39.83        35.8 0.20                          21.2 190 
 BRR  HZ EP       11 2 25.31                             153    0.1910 71.9 300 
 BRR  HE ES       11 2 42.77                             153    0.8810 71.9 300 
 BRR  HZ I        11 2 49.96        13.7 0.34                          71.9 300 
 PAM  EZ EP       11 2 26.36                             151    0.1110 79.2  39 
 PAM  EE ES       11 2 43.85                             151   -0.0610 79.2  39 
 PAM  EZ I        11 2 45.50        16.4 0.52                          79.2  39 
 RUS  HZ EP       11 2 27.39                             145   -0.1210 98.5 176 
 RUS  HN ES       11 2 46.40                             145    0.2510 98.5 176 
 RUS  HZ I        11 2 47.17        13.1 0.26                          98.5 176 
 PTB  HZ EP       11 2 30.26                             133   -0.49 9  147 260 
 PTB  HE ES       11 2 51.59                             133   -0.33 9  147 260 
 PTB  HZ I        11 2 53.69        10.0 0.16                           147 260 
 TAM  HZ EP       11 2 31.65                             131    0.14 9  155 104 
 SPBC HZ EP       11 2 32.42                             130    0.25 9  161 219 
 SPBC HN ES       11 2 54.40                             130   -0.03 9  161 219 
 SPBC HZ I        11 2 56.92        33.1 0.16                           161 219 
 ZAR  HZ EP       11 2 35.74                             123   -0.56 9  204 293 
 ZAR  HN ES       11 3  1.63                             123   -0.16 9  204 293 
 ZAR  HZ I        11 3  3.94         8.1 0.20                           204 293 
 NOR  HZ EP       11 2 39.27                             119   -0.08 8  233 235 
 NOR  HN ES       11 3  7.01                             119   -0.22 8  233 235 
 NOR  HZ I        11 3 12.98         9.0 0.14                           233 235 
 CHI  HZ EP       11 2 41.49                             118    0.24 8  247 195 
 CHI  HN ES       11 3 10.57                             118   -0.03 8  247 195 
 CHI  HZ I        11 3 18.95         4.8 0.52                           247 195 
 HEL  HZ EP   2   11 2 45.07                             115    1.19 4  271 256 
 HEL  HN ES   4   11 3 17.00                             115    1.71 0  271 256 
 HEL  HZ I        11 3 21.36         5.2 0.32                           271 256 
 URE  HZ EP   4   11 2 43.79                             114   -1.09 0  284 292 
 URE  HN ES   4   11 3 13.00                             114   -4.06 0  284 292 
 URE  HZ I        11 3 25.91         4.1 0.16                           284 292 
 GUY2CHZ EP   4   11 2 48.68                             113    1.49 0  300 235 
 GUY2CHE ES       11 3 21.71                             113    0.53 7  300 235 
 GUY2CHZ I        11 3 29.98         5.1 0.26                           300 235 
 PRA  HZ EP   2   11 2 56.89                             107   -0.12 3  390 210 
 PRA  HN ES   4   11 3 37.32                             107   -1.33 0  390 210 
 PRA  HZ I        11 3 44.07         2.7 0.30                           390 210 
                                                                                
