 2016  927 1948 47.9 L   6.798 -73.129149.1  RSN 10 0.4 2.1LRSN                1
 GAP=139        0.92       3.4     4.2  6.6 -0.1393E+01  0.9004E+01  0.3407E+01E
 Epicentro: LOS SANTOS - SANTANDER                                             3
 ACTION:UPD 17-08-17 21:17 OP:lp   STATUS:               ID:20160927194847 L   I
 OLDACT:UP  16-09-28 01:07 OP:dani STATUS:               ID:20160927193745d    3
 OLDACT:DUP 16-09-28 01:04 OP:dani STATUS:               ID:20160927193745d    3
 OLDACT:REG 16-09-27 21:33 OP:dani STATUS:               ID:20160927193744     3
 2016-09-27-1938-00M.COL___360                                                 6
 STAT SP IPHASW D HRMM SECON CODA AMPLIT PERI AZIMU VELO AIN AR TRES W  DIS CAZ7
 BAR2 EZ EP       1949  7.74                             171   -0.1810 23.5 194 
 BAR2 EZ I        1949 23.73        30.9 0.14            172           23.5 194 
 BRR  HZ EP       1949  9.69                             152    0.2010 72.9 298 
 BRR  HN ES       1949 26.63                             152    0.2910 72.9 298 
 BRR  HZ I        1949 29.43        26.1 0.30            152           72.9 298 
 PAM  EZ EP       1949 10.66                             152    0.2610 76.4  38 
 PAM  EE ES       1949 27.95                             152   -0.0110 76.4  38 
 PAM  EZ I        1949 30.57        20.3 0.64            151           76.4  38 
 RUS  HZ EP       1949 11.84                             144   -0.1110  100 177 
 RUS  HN ES       1949 30.31                             144   -0.4010  100 177 
 RUS  HZ I        1949 31.69         9.8 0.28            146            100 177 
 PTB  HZ EP       1949 14.64                             132   -0.65 9  149 259 
 PTB  HE ES   4   1949 35.14                             132   -1.51 0  149 259 
 PTB  HZ I        1949 37.88        18.0 0.18            133            149 259 
 SPBC HZ EP       1949 17.23                             130    0.49 9  164 220 
 SPBC HN ES       1949 38.95                             130   -0.29 9  164 220 
 SPBC HZ I        1949 41.41        21.2 0.38            130            164 220 
 ZAR  HZ EP       1949 20.34                             123   -0.39 8  206 292 
 ZAR  HE ES       1949 46.57                             123    0.22 8  206 292 
 ZAR  HZ I        1949 52.78        22.7 0.42            123            206 292 
 NOR  HZ EP       1949 24.09                             119    0.13 8  236 235 
 NOR  HN ES       1949 51.73                             119   -0.36 8  236 235 
 NOR  HZ I        1949 58.11        10.0 0.35            119            236 235 
 CHI  HZ EP   4   1949 24.06                             118   -1.75 0  249 196 
 CHI  HN ES       1949 56.23                             118    0.85 8  249 196 
 GUY2CHZ EP   4   1949 34.44                             113    2.63 0  303 235 
 GUY2CHN ES   2   1950  6.87                             113    0.81 4  303 235 
                                                                                
