 2011  527 1638 39.5 L   6.770 -73.107143.8  RSN  7 0.3 1.8LRSN                1
 GAP=160        0.58       3.9     6.5  7.0 -0.1133E+02  0.2856E+00  0.1080E+00E
 Epicentro: LOS SANTOS - SANTANDER                                             3
 ACTION:UP  11-06-29 08:56 OP:tino STATUS:               ID:20110527163839 L   I
 2011-05-27-1637-16S.COL___115                                                 6
 STAT SP IPHASW D HRMM SECON CODA AMPLIT PERI AZIMU VELO SNR AR TRES W  DIS CAZ7
 BAR2 SZ EP   1   1638 58.47                             171    -0.4 7   21 203 
 BAR2 SZ ES   2   1639 13.57                             171    -0.4 5   21 203 
 BAR2 SZ I        1639 15.99        14.1 0.19                            21 203 
 BTL  SZ EP       1638 59.14                             170     0.210   24 313 
 BRR  HZ EP   1   1639  0.95                             150     0.2 7   77 299 
 BRR  HZ I        1639  1.30        35.2 0.17                            77 299 
 BRR  HN ES   2   1639 17.65                             150     0.3 5   77 299 
 RUS  HZ EP   1   1639  3.03                             144     0.2 7   97 178 
 RUS  HN ES   2   1639 21.38                             144     0.3 5   97 178 
 RUS  HZ I        1639 22.75         5.7 0.39                            97 178 
 BRI  SZ EP   1   1639  3.36                             141     0.0 7  110  18 
 GRA  SZ EP   1   1639  4.55                             136    -0.2 7  128  15 
 GRA  SZ ES   1   1639 24.49                             136     0.0 7  128  15 
 GRA  SZ I        1639 26.59         7.2 0.30                           128  15 
 NOR  SZ EP   2   1639 15.67                             118     0.3 4  236 236 
 NOR  SN ES   2   1639 42.66                             118    -0.6 4  236 236 
                                                                                
