 2011  927 1145 14.0 L   6.804 -73.137141.3  RSN 15 0.3 2.6LRSN                1
 GAP=137        0.61       2.8     3.9  4.0 -0.2504E+01  0.3878E+01  0.1068E+01E
 Epicentro: LOS SANTOS - SANTANDER                                             3
 ACTION:UPD 12-07-13 16:00 OP:ep   STATUS:               ID:20110927114514 L   I
 2011-09-27-1144-28S.COL___165                                                 6
 STAT SP IPHASW D HRMM SECON CODA AMPLIT PERI AZIMU VELO AIN AR TRES W  DIS CAZ7
 BTL  SZ EP       1145 33.31                             172    0.2710 19.2 311 
 BAR2 SZ IP       1145 33.15                             170    0.0210 24.0 192 
 BAR2 SZ ES   1   1145 47.41                             170   -0.62 7 24.0 192 
 BAR2 SZ I        1145 51.74        82.1 0.56                          24.0 192 
 GIR2 SZ EP       1145 33.12                             167   -0.0410 31.0 348 
 GIR2 SZ ES   2   1145 47.73                             167   -0.35 5 31.0 348 
 BRR  HZ IP     C 1145 34.91                             152    0.1810 71.8 298 
 BRR  HZ I        1145 35.31        85.0 0.12                          71.8 298 
 BRR  HE ES   1   1145 51.55                             152    0.68 7 71.8 298 
 PAM  SZ EP       1145 35.95                             150    0.2510 76.4  39 
 PAM  SN ES   2   1145 52.53                             150   -0.08 5 76.4  39 
 RUS  HZ EP   2   1145 37.03                             143   -0.34 5  101 177 
 RUS  HN ES   2   1145 55.66                             143    0.08 5  101 177 
 BRI  SZ EP       1145 37.58                             141    0.1510  108  20 
 GUE  SZ EP   2   1145 38.17                             139   -0.10 5  116  12 
 OCA  SZ EP       1145 41.54                             129   -0.42 9  160 353 
 OCA  SZ I        1146  8.07        56.9 0.20                           160 353 
 ZAR  HZ EP       1145 45.96                             121   -0.30 9  205 292 
 ZAR  HN ES   2   1146 11.14                             121   -0.26 4  205 292 
 ZAR  HZ I        1146 17.04        58.5 0.26                           205 292 
 NOR  SZ EP       1145 49.34                             117   -0.28 8  236 235 
 CHI  HZ EP       1145 51.57                             116    0.01 8  249 195 
 CHI  HE ES   2   1146 21.31                             116    0.47 4  249 195 
 CHI  HZ I        1146 23.93        12.3 0.30                           249 195 
 HEL  HZ EP   1   1145 54.41                             114    0.27 6  273 256 
 HEL  HZ I        1146 32.36        17.6 0.36                           273 256 
 RREF HZ EP   3   1146  0.50                             110    0.40 2  323 229 
 PRA  HZ EP   1   1146  7.25                             106   -0.25 4  393 210 
 PRA  HE ES   1   1146 49.24                             106    0.02 4  393 210 
                                                                                
