 2011 1127 1305 17.7 L   6.800 -73.109151.9  RSN  4 0.4 1.7LRSN                1
 GAP=141        0.88       6.5     9.6  9.2 -0.1504E+01 -0.5744E+01  0.3169E+01E
 Epicentro: LOS SANTOS - SANTANDER                                             3
 ACTION:UPD 12-07-13 16:12 OP:ep   STATUS:               ID:20111127130517 L   I
 2011-11-27-1303-03S.COL___160                                                 6
 STAT SP IPHASW D HRMM SECON CODA AMPLIT PERI AZIMU VELO AIN AR TRES W  DIS CAZ7
 BAR2 SZ EP       13 5 37.87                             170   -0.2410 24.3 200 
 BAR2 SZ ES   1   13 5 53.29                             170   -0.73 7 24.3 200 
 BAR2 SZ I        13 5 54.71        16.4 0.30                          24.3 200 
 PAM  SZ I        13 6  0.09         7.9 0.23                          74.9  37 
 BRR  HE ES   1   13 5 57.22                             152    0.30 7 74.9 297 
 PAM  SE ES   1   13 5 58.24                             153    0.06 7 74.9  37 
 BRR  HZ EP   1   13 5 39.78                             152    0.04 7 74.9 297 
 BRR  HZ I        13 5 40.05        21.6 0.20                          74.9 297 
 PAM  SZ EP   1   13 5 40.81                             153    0.35 7 74.9  37 
 RUS  HZ EP   1   13 5 41.74                             145   -0.33 7  100 178 
 RUS  HZ I        13 5 42.90         3.3 0.12                           100 178 
 RUS  HN ES   1   13 6  1.79                             145    0.74 7  100 178 
                                                                                
