 2016 1027 1352 20.3 L   6.840 -73.166141.8  RSN  5 0.2 1.3LRSN                1
 GAP=132        0.64       3.7     3.7  5.3 -0.3704E+01  0.6506E+01 -0.2807E+01E
 Epicentro: ZAPATOCA - SANTANDER                                               3
 ACTION:UPD 16-11-09 19:23 OP:rebc STATUS:               ID:20161027135220 L   I
 OLDACT:UP  16-10-27 23:51 OP:edw  STATUS:               ID:20161027134745     3
 OLDACT:REG 16-10-27 20:20 OP:edw  STATUS:               ID:20161027134745     3
 2016-10-27-1348-00M.COL___349                                                 6
 STAT SP IPHASW D HRMM SECON CODA AMPLIT PERI AZIMU VELO AIN AR TRES W  DIS CAZ7
 BAR2 EZ EP       1352 39.54                             168   -0.0210 27.5 184 
 BAR2 EZ ES       1352 54.64                             168    0.0710 27.5 184 
 BAR2 EZ I        1352 56.11         7.8 0.42            168           27.5 184 
 BRR  HZ EP       1352 41.28                             153    0.4810 67.2 296 
 PAM  EZ EP       1352 42.14                             151    0.1510 75.5  43 
 PAM  EN ES       1352 58.63                             151   -0.2810 75.5  43 
 RUS  HZ EP       1352 43.81                             142   -0.2010  105 175 
 RUS  HN ES       1353  2.64                             142    0.1310  105 175 
 RUS  HZ I        1353  3.68         2.0 0.38            143            105 175 
 PTB  HZ EP       1352 46.56                             131   -0.28 9  147 257 
 PTB  HN ES       1353  7.43                             131   -0.11 9  147 257 
 PTB  HZ I        1353 12.36         2.4 0.30            131            147 257 
                                                                                
