 2010  927 1112 51.5 L   6.785 -73.095140.0  RSN 12 0.4 2.6LRSN                1
 GAP=164        0.99       4.2     7.8  8.3 -0.8201E+01  0.9852E+01 -0.3929E+01E
 Epicentro: LOS SANTOS - SANTANDER                                             3
 ACTION:UP  11-02-18 11:05 OP:tino STATUS:               ID:20100927111251 L   I
 2010-09-27-1110-37S.COL___122                                                 6
 STAT SP IPHASW D HRMM SECON CODA AMPLIT PERI AZIMU VELO SNR AR TRES W  DIS CAZ7
 BAR2 SZ IP       1113 10.56                             170     0.110   24 205 
 BAR2 SZ ES   1   1113 25.13                             170    -0.1 7   24 205 
 BAR2 SZ I        1113 26.34       138.2 0.27                            24 205 
 BTL  SZ EP       1113 11.23                             170     0.810   24 308 
 GIR2 SZ EP   1   1113  9.78                             166    -0.8 7   34 341 
 BRR  HZ IP     C 1113 12.52                             149     0.210   77 298 
 BRR  HZ I        1113 12.98       189.6 0.13                            77 298 
 BRR  HN ES   2   1113 29.34                             149     0.7 5   77 298 
 RUS  HZ EP       1113 14.46                             143    -0.110   99 179 
 RUS  HN ES   1   1113 32.16                             143    -0.4 7   99 179 
 RUS  HZ I        1113 33.77        42.9 0.25                            99 179 
 GUE  SZ EP   1   1113 15.72                             138     0.0 7  117   9 
 GUE  SZ I        1113 16.58        29.6 0.11                           117   9 
 GRA  SZ EP       1113 16.51                             136     0.310  126  15 
 GRA  SZ I        1113 17.97       102.9 0.25                           126  15 
 OCA  SZ EP   1   1113 19.05                             128    -0.5 7  163 351 
 OCA  SZ ES   1   1113 40.77                             128    -0.7 7  163 351 
 OCA  SZ I        1113 48.26        60.4 0.27                           163 351 
 NOR  SZ EP   2   1113 27.17                             117    -0.1 4  238 236 
 NOR  SN ES   2   1113 55.28                             117     0.0 4  238 236 
 CHI  HZ EP   1   1113 29.05                             116     0.2 6  249 197 
 CHI  HN ES   2   1113 57.47                             116    -0.6 4  249 197 
 CHI  HZ I        1114  2.19         9.8 0.35                           249 197 
 HEL  HZ EP   2   1113 31.75                             113    -0.2 4  277 256 
 HEL  HN ES   2   1114  3.42                             113    -0.1 4  277 256 
 HEL  HZ I        1114 10.44        26.8 0.36                           277 256 
 RREF HZ EP   2   1113 38.19                             109     0.4 3  325 230 
 RREF HE ES   2   1114 13.31                             109    -0.5 3  325 230 
 RREF HZ I        1114 18.79        12.4 0.45                           325 230 
                                                                                
