 2012  127 1455 59.9 L   6.681 -73.195138.0  RSN  4 0.4 1.0LRSN                1
 GAP=172        0.58      12.4     9.3 10.4  0.1067E+02  0.5432E+02  0.1145E+02E
 Epicentro: VILLANUEVA - SANTANDER                                             3
 ACTION:UP  12-02-03 08:21 OP:REBC STATUS:               ID:20120127145559 L   I
 2012-01-27-1450-00M.COL___188                                                 6
 STAT SP IPHASW D HRMM SECON CODA AMPLIT PERI AZIMU VELO SNR AR TRES W  DIS CAZ7
 BAR2 SZ EP       1456 18.67                             175     0.210   10 172 
 BAR2 SZ ES   2   1456 32.81                             175     0.0 5   10 172 
 GIR2 SZ ES   3   1456 32.98                             161    -1.1 2   44   0 
 BRR  HZ EP       1456 20.47                             151     0.010   74 310 
 BRR  HE ES   3   1456 37.07                             151     0.7 2   74 310 
 PTB  HZ EP       1456 25.31                             132    -0.3 9  140 264 
 PTB  HE ES   3   1456 46.08                             132     0.5 2  140 264 
 PTB  HZ I        1456 48.32         1.3 0.52                           140 264 
                                                                                
