 2012 1127 1004 39.7 L   6.850 -73.209140.1  RSN  6 0.2 1.9LRSN                1
 GAP=169        0.45       3.0     3.6  4.3  0.1844E+00  0.3983E+01  0.2048E+01E
 Epicentro: ZAPATOCA - SANTANDER                                               3
 ACTION:UPD 12-12-05 15:36 OP:}ep  STATUS:               ID:20121127100439 L   I
 2012-11-27-1000-00M.COL___234                                                 6
 STAT SP IPHASW D HRMM SECON CODA AMPLIT PERI AZIMU VELO AIN AR TRES W  DIS CAZ7
 GIR2 SZ EP       10 4 58.76                             169    0.1910 25.4   4 
 BAR2 SZ EP       10 4 59.01                             168    0.2210 28.6 174 
 BAR2 SZ ES   1   10 5 13.42                             168   -0.25 7 28.6 174 
 BAR2 SZ I        10 5 16.19        16.7 0.15                          28.6 174 
 RUS  HZ EP       10 5  3.12                             141   -0.2710  107 172 
 RUS  HN ES   1   10 5 21.92                             141    0.08 7  107 172 
 RUS  HN I        10 5 23.54        13.4 0.33                           107 172 
 PTB  HZ EP       10 5  5.58                             132   -0.13 9  142 256 
 PTB  HN ES   1   10 5 26.04                             132    0.06 7  142 256 
 PTB  HZ I        10 5 29.45        10.1 0.32                           142 256 
 CHI  HZ EP   1   10 5 17.40                             116   -0.11 6  252 193 
 CHI  HE ES   1   10 5 47.30                             116    0.32 6  252 193 
 PRA  HZ EP   1   10 5 33.16                             105   -0.06 4  393 208 
 PRA  HN ES   1   10 6 14.87                             105   -0.08 4  393 208 
 PRA  HZ I        10 6 21.63         2.4 0.25                           393 208 
                                                                                
