 2017  527 1531 24.2 L   6.773 -73.135143.3  RSN 19 0.5 2.5LRSN                1
 GAP=171        0.95       3.4     3.4  5.8  0.4173E+01  0.2150E+01  0.2601E-01E
 Epicentro: LOS SANTOS - SANTANDER                                             3
 ACTION:UPD 17-06-16 13:39 OP:jn   STATUS:               ID:20170527153124 L   I
 OLDACT:UP  17-05-28 02:46 OP:edw  STATUS:               ID:20170527152736     3
 OLDACT:UP  17-05-28 02:46 OP:edw  STATUS:               ID:20170527152736     3
 OLDACT:REG 17-05-27 23:15 OP:dnl  STATUS:               ID:20170527152736     3
 2017-05-27-1528-00M.COL___350                                                 6
 STAT SP IPHASW D HRMM SECON CODA AMPLIT PERI AZIMU VELO AIN AR TRES W  DIS CAZ7
 BRR  HZ IP     C 1531 45.39                             151    0.1410 73.7 300 
 BRR  HN ES       1532  2.37                             151    0.7210 73.7 300 
 BRR  HZ I        1532  4.01        75.4 0.14            149           73.7 300 
 RUS  HZ EP     C 1531 47.52                             144    0.0010 97.6 177 
 RUS  HN ES       1532  5.84                             144    0.1610 97.6 177 
 RUS  HZ I        1532  7.12        58.8 0.32            144           97.6 177 
 PTB  HZ EP     D 1531 50.54                             132   -0.51 9  148 260 
 PTB  HN ES       1532 11.33                             132   -0.64 9  148 260 
 PTB  HZ I        1532 13.34        48.8 0.22            130            148 260 
 SPBC HZ EP   4   1531 50.29                             129   -2.10 0  162 220 
 SPBC HN ES       1532 14.47                             129    0.11 9  162 220 
 SPBC HZ I        1532 21.29        38.5 0.32            128            162 220 
 YPLC HZ EP       1531 53.90                             127    0.37 9  174 151 
 YPLC HN ES       1532 15.73                             127   -0.66 9  174 151 
 YPLC HZ I        1532 20.17        26.9 0.40            126            174 151 
 ZAR  HZ EP     C 1531 56.46                             122   -0.28 8  206 293 
 ZAR  HN ES       1532 22.42                             122    0.32 8  206 293 
 ZAR  HZ I        1532 28.02        59.7 0.38            120            206 293 
 NOR  HZ EP       1532  0.01                             118    0.28 8  234 235 
 NOR  HN ES       1532 26.69                             118   -0.74 8  234 235 
 NOR  HZ I        1532 31.19        23.7 0.62            117            234 235 
 CHI  HZ EP       1532  1.75                             117    0.24 8  246 196 
 CHI  HN ES       1532 30.57                             117   -0.03 8  246 196 
 CHI  HZ I        1532 36.82        10.7 0.42            116            246 196 
 ROSC BZ EP   4   1531 59.64                             117   -2.36 0  251 212 
 ROSC BN ES   4   1532 34.41                             117    2.94 0  251 212 
 ROSC BZ I        1532 36.52        18.0 0.45            116            251 212 
 HEL  HZ EP   4   1532  6.00                             114    1.64 0  273 256 
 HEL  HN ES       1532 35.78                             114    0.11 8  273 256 
 HEL  HZ I        1532 42.70        22.0 0.46            113            273 256 
 LL1C HZ EP   4   1532  9.95                             111    1.89 0  310 351 
 LL1C HN ES   4   1532 46.68                             111    4.43 0  310 351 
 LL6C HN EP   4   1531 47.86                             110   -22.3 0  328 357 
 LL6C HN ES   4   1532 23.52                             110   -22.5 0  328 357 
 ELA  HZ EP   4   1532 14.00                             110    3.14 0  328 230 
 ELA  HN ES   4   1532 44.89                             110   -2.34 0  328 230 
 ELA  HZ I        1532 54.46        10.8 0.62            109            328 230 
 CBOC HZ EP   2   1532 11.61                             110    0.54 3  334 253 
 CBOC HN ES       1532 48.18                             110    0.58 7  334 253 
 CBOC HZ I        1532 49.39         7.3 0.46            109            334 253 
 DBB  EZ EP   2   1532 12.29                             109    0.52 3  341 275 
 DBB  EN ES       1532 48.02                             109   -0.82 7  341 275 
 DBB  EZ I        1532 50.57        12.9 0.40            108            341 275 
 ANIL HN ES       1532 52.99                             108    0.54 6  356 225 
 ARGC HZ EP       1532 13.63                             108   -0.53 6  362 340 
 ARGC HN ES   4   1532 49.90                             108   -3.20 0  362 340 
 ARGC HZ I        1533 12.05        16.8 0.36            107            362 340 
 ORTC HZ EP       1532 18.43                             106    0.56 6  394 217 
 ORTC HN ES   4   1533  2.54                             106    2.83 0  394 217 
 ORTC HZ I        1533  6.58        11.1 0.36            105            394 217 
 APAC HZ EP   4   1532 16.61                             106   -1.96 0  400 288 
 APAC HN ES   2   1533  0.56                             106   -0.40 3  400 288 
 APAC HZ I        1533  4.49        10.3 0.36            105            400 288 
 PAL  HZ EP   2   1532 19.72                             106    0.47 3  405 240 
 PAL  HN ES   2   1533  1.92                             106   -0.24 3  405 240 
 SJC  HZ EP   4   1532 17.78                             105   -2.29 0  412 327 
 SJC  HN ES   4   1532 59.75                             105   -3.88 0  412 327 
 SJC  HZ I        1533  2.87         6.7 0.62            105            412 327 
 CAP2 HN ES   4   1533 18.67                             102   -5.48 0  510 294 
                                                                                
