 2016  527 1127 28.8 L   6.775 -73.144136.0  RSN  4 0.3 1.1LRSN                1
 GAP=276        0.42       7.9     6.0  7.8  0.1273E+02  0.1393E+02 -0.1812E+01E
 Epicentro: LOS SANTOS - SANTANDER                                             3
 ACTION:UPD 16-08-18 17:49 OP:cam  STATUS:               ID:20160527112728 L   I
 OLDACT:DUP 16-05-27 21:23 OP:dnl  STATUS:               ID:20160527111746d    3
 OLDACT:REG 16-05-27 20:19 OP:ar   STATUS:               ID:20160527111745     3
 2016-05-27-1117-45M.COL___311                                                 6
 STAT SP IPHASW D HRMM SECON CODA AMPLIT PERI AZIMU VELO AIN AR TRES W  DIS CAZ7
 BAR2 EZ ES   2   1128  1.81                             171    0.28 5 20.7 192 
 BAR2 EZ I        1128  3.72         5.8 0.14            165           20.7 192 
 RUS  HZ EP   2   1127 51.22                             143   -0.15 5 97.9 176 
 RUS  HN ES   2   1128  8.79                             143   -0.21 5 97.9 176 
 RUS  HZ I        1128 11.16         1.5 0.24            145           97.9 176 
 PTB  HZ EP   2   1127 54.74                             130   -0.19 5  147 260 
 PTB  HN ES   2   1128 15.21                             130   -0.13 5  147 260 
 PTB  HZ I        1128 21.11         1.2 0.29            130            147 260 
 SPBC HZ EP   3   1127 57.37                             127    1.02 2  161 220 
 SPBC HE ES   2   1128 18.03                             127    0.17 5  161 220 
 SPBC HZ I        1128 21.18         2.7 0.12            128            161 220 
                                                                                
