 2013 1227 1028 42.9 L   6.423 -73.760 97.6  RSN  6 0.1 1.4LRSN                1
 GAP= 95        0.39       2.0     1.4  4.2  0.1959E+00 -0.6297E-01 -0.1128E+01E
 Epicentro: SANTA HELENA DEL OPON - SANTANDER                                  3
 ACTION:UPD 14-01-13 10:21 OP:ep   STATUS:               ID:20131227102842 L   I
 OLDACT:REG 13-12-27 14:35 OP:jn   STATUS:               ID:20131227102737     3
 2013-12-27-1027-37M.COL___235                                                 6
 STAT SP IPHASW D HRMM SECON CODA AMPLIT PERI AZIMU VELO AIN AR TRES W  DIS CAZ7
 BAR2 SZ EP       1028 59.34                             143    0.2210 66.6  74 
 BAR2 SZ ES       1029 11.86                             143    0.1110 66.6  74 
 BAR2 SZ I        1029 13.50        20.1 0.16            147           66.6  74 
 PTB  HZ EP       1028 59.70                             138    0.0010 78.0 280 
 PTB  HN ES       1029 12.77                             138   -0.0210 78.0 280 
 PTB  HZ I        1029 15.88         6.3 0.22            142           78.0 280 
 SPBC HE ES   1   1029 14.98                             134   -0.11 7 91.9 202 
 SPBC HZ I        1029 18.19         4.7 0.20            137           91.9 202 
 RUS  HZ EP       1029  1.84                             133    0.0110 95.2 128 
 RUS  HN ES       1029 16.48                             133   -0.0910 95.2 128 
 RUS  HZ I        1029 19.23         3.9 0.28            137           95.2 128 
 PAM  SE ES   1   1029 26.99                             118   -0.33 7  155  49 
 PAM  SZ I        1029 28.94         3.7 0.22            122            155  49 
 ZAR  HE ES   2   1029 28.99                             116   -0.05 5  169 314 
                                                                                
