 2012  727 1908 38.1 L   6.760 -73.161143.8  RSN  5 0.5 1.6LRSN                1
 GAP=136        1.05      10.2     7.6 10.8 -0.3039E+02  0.1243E+02 -0.1520E+02E
 Epicentro: LOS SANTOS - SANTANDER                                             3
 ACTION:UPD 12-08-14 11:45 OP:ep   STATUS:               ID:20120727190838 L   I
 2012-07-27-1900-00M.COL___215                                                 6
 STAT SP IPHASW D HRMM SECON CODA AMPLIT PERI AZIMU VELO AIN AR TRES W  DIS CAZ7
 BAR2 SZ ES   1   19 9 12.31                             173    -0.1 7   19 187 
 BAR2 SZ I        19 9 13.39        12.0 0.24            172             19 187 
 BRR  HZ EP   1   19 8 59.62                             152     0.5 7   72 302 
 BRR  HN ES   1   19 9 16.12                             152     0.7 7   72 302 
 BRR  HZ I        19 9 17.69        11.0 0.29            150             72 302 
 PAM  SZ EP       19 9  0.44                             149     0.110   82  38 
 PAM  SN ES   1   19 9 17.20                             149    -0.6 7   82  38 
 RUS  HN ES   2   19 9 19.89                             145     0.4 5   96 175 
 PTB  HZ EP   1   19 9  4.30                             132    -0.4 7  145 260 
 PTB  HZ I        19 9  6.97         2.4 0.26            131            145 260 
 PTB  HN ES   1   19 9 24.82                             132    -0.6 7  145 260 
