 2014 1227 1104 45.1 L   6.592 -73.557116.1  RSN  4 0.2 1.6LRSN                1
 GAP=121        0.48       3.1     2.6  4.7  0.2792E+01  0.4023E+01  0.1942E+01E
 Epicentro: EL CARMEN - SANTANDER                                              3
 ACTION:UPD 15-02-10 17:07 OP:nd   STATUS:               ID:20141227110445 L   I
 OLDACT:REG 14-12-27 21:58 OP:carl STATUS:               ID:20141227105749     3
 2014-12-27-1057-49M.COL___262                                                 6
 STAT SP IPHASW D HRMM SECON CODA AMPLIT PERI AZIMU VELO AIN AR TRES W  DIS CAZ7
 BAR2 EZ EP       11 5  1.87                             159    0.0910 41.4  90 
 BAR2 EZ ES       11 5 14.75                             159   -0.0510 41.4  90 
 BAR2 EZ I        11 5 15.95        16.0 0.44            166           41.4  90 
 BRR  HZ EP       11 5  2.56                             151    0.1910 59.5 343 
 BRR  HE ES       11 5 15.74                             151   -0.1110 59.5 343 
 BRR  HZ I        11 5 21.90         9.2 0.36            151           59.5 343 
 RUS  HN ES       11 5 21.35                             139    0.0010 93.4 146 
 PTB  HZ EP       11 5  5.03                             136   -0.2810 99.6 267 
 PTB  HN ES       11 5 21.25                             136    0.1610 99.6 267 
 PTB  HZ I        11 5 25.26         4.9 0.16            139           99.6 267 
                                                                                
