 2012  727 1317 19.2 L   6.774 -73.157147.3  RSN  7 0.4 2.1LRSN                1
 GAP=234        0.83       5.3     5.5  6.8  0.1053E+02  0.8821E+01  0.5062E+01E
 Epicentro: LOS SANTOS - SANTANDER                                             3
 ACTION:UPD 12-08-14 11:45 OP:ep   STATUS:               ID:20120727131719 L   I
 2012-07-27-1310-00M.COL___215                                                 6
 STAT SP IPHASW D HRMM SECON CODA AMPLIT PERI AZIMU VELO AIN AR TRES W  DIS CAZ7
 BAR2 SZ EP       1317 38.96                             172     0.010   20 188 
 BAR2 SZ ES   1   1317 54.13                             172    -0.2 7   20 188 
 BAR2 SZ I        1317 55.71        39.0 0.22            170             20 188 
 BRR  HZ EP       1317 40.80                             152     0.310   72 301 
 BRR  HZ I        1317 41.10        60.2 0.14            149             72 301 
 BRR  HN ES   1   1317 57.29                             152     0.1 7   72 301 
 RUS  HZ EP       1317 42.80                             145    -0.110   98 175 
 RUS  HZ I        1317 44.02         6.2 0.19            147             98 175 
 RUS  HN ES   1   1318  1.61                             145     0.2 7   98 175 
 PTB  HZ EP   1   1317 45.80                             132    -0.3 7  146 260 
 PTB  HN ES   1   1318  6.68                             132    -0.5 7  146 260 
 PTB  HZ I        1318 12.75        16.8 0.40            131            146 260 
 ZAR  HZ EP   1   1317 51.45                             122    -0.3 6  204 293 
 ZAR  HN ES   1   1318 17.03                             122    -0.1 6  204 293 
 ZAR  HZ I        1318 23.30        13.3 0.33            122            204 293 
 NOR  SZ EP       1317 55.34                             119     0.6 8  232 235 
 NOR  SN ES   1   1318 23.06                             119     0.6 6  232 235 
 CHI  HZ EP   2   1317 55.80                             118    -0.9 4  246 195 
 CHI  HN ES   2   1318 25.08                             118    -0.8 4  246 195 
