 2013  527 1232 53.9 L   6.836 -73.152150.0  RSN 31 0.5 3.8LRSN 4.0WRSN        1
 SPEC AVERAGE  MO 15.1 ST  8.6 OM  3.3 f0 2.05 R1.0584 AL 1.46 WI 39.3 MW  4.0 3
 SPEC SD       MO  0.2 ST  9.7 OM  0.3 f00.742 R0.3612 AL      WI      MW  0.2 3
 GAP= 47        1.14       2.3     2.4  4.0 -0.7538E+00  0.1624E+01  0.6988E+00E
 Epicentro: LOS SANTOS - SANTANDER                                             3
 SPEC ZAR HH E MO 15.2 ST 13.4 OM  3.1 f0 2.44 R0.7885 AL 0.64 WI 38.6 MW  4.1 3
 SPEC ZAR HH E T123351 K 0.050 GD  251 VS 5.20 DE 3.20 Q0750.0 QA 1.50 VS 5.20 3
 SPEC YOP SH E MO 15.3 ST  1.6 OM  3.3 f0 1.06 R1.8151 AL 1.54 WI 43.5 MW  4.2 3
 SPEC YOP SH E T123344 K 0.050 GD  236 VS 5.20 DE 3.20 Q0750.0 QA 1.50 VS 5.20 3
 SPEC PRA HH E MO 14.9 ST  3.3 OM  2.6 f0 1.88 R1.0234 AL 1.46 WI 42.4 MW  3.9 3
 SPEC PRA HH E T123429 K 0.050 GD  422 VS 5.20 DE 3.20 Q0750.0 QA 1.50 VS 5.20 3
 SPEC RREFHH Z MO 14.9 ST  3.4 OM  2.7 f0 1.86 R1.0344 AL 1.68 WI 46.4 MW  3.9 3
 SPEC RREFHH Z T123418 K 0.050 GD  357 VS 5.20 DE 3.20 Q0750.0 QA 1.50 VS 5.20 3
 SPEC VIL SH E MO 15.6 ST  8.4 OM  3.4 f0 1.50 R1.2827 AL 2.06 WI 44.6 MW  4.3 3
 SPEC VIL SH E T123412 K 0.050 GD  341 VS 5.20 DE 3.20 Q0750.0 QA 1.50 VS 5.20 3
 SPEC PTB HH E MO 14.9 ST  2.4 OM  2.9 f0 1.69 R1.1385 AL 0.74 WI 52.2 MW  3.9 3
 SPEC PTB HH E T123342 K 0.050 GD  210 VS 5.20 DE 3.20 Q0750.0 QA 1.50 VS 5.20 3
 SPEC RUS HH E MO 15.1 ST  1.4 OM  3.2 f0 1.17 R1.6444 AL 1.71 WI 45.6 MW  4.0 3
 SPEC RUS HH E T123334 K 0.050 GD  183 VS 5.20 DE 3.20 Q0750.0 QA 1.50 VS 5.20 3
 SPEC PAM SH N MO 15.1 ST  3.9 OM  3.2 f0 1.72 R1.1186 AL 1.62 WI 24.1 MW  4.0 3
 SPEC PAM SH N T123333 K 0.050 GD  167 VS 5.20 DE 3.20 Q0750.0 QA 1.50 VS 5.20 3
 SPEC HEL HH E MO 14.9 ST  3.4 OM  2.7 f0 1.95 R0.9867 AL 1.13 WI 59.5 MW  3.9 3
 SPEC HEL HH E T1234 3 K 0.050 GD  310 VS 5.20 DE 3.20 Q0750.0 QA 1.50 VS 5.20 3
 SPEC CHI HH E MO 15.0 ST  3.5 OM  2.9 f0 1.72 R1.1186 AL 1.72 WI 33.4 MW  4.0 3
 SPEC CHI HH E T1234 1 K 0.050 GD  293 VS 5.20 DE 3.20 Q0750.0 QA 1.50 VS 5.20 3
 SPEC OCA HH E MO 15.1 ST 16.5 OM  3.1 f0 2.75 R0.6996 AL 1.08 WI 32.6 MW  4.0 3
 SPEC OCA HH E T123343 K 0.050 GD  216 VS 5.20 DE 3.20 Q0750.0 QA 1.50 VS 5.20 3
 SPEC BRR HH E MO 15.2 ST 38.0 OM  3.3 f0 3.41 R0.5642 AL 2.15 WI 32.1 MW  4.1 3
 SPEC BRR HH E T123332 K 0.050 GD  164 VS 5.20 DE 3.20 Q0750.0 QA 1.50 VS 5.20 3
 SPEC BAR2SH Z MO 14.7 ST 12.3 OM  2.8 f0 3.53 R0.5450 AL 1.49 WI 16.2 MW  3.7 3
 SPEC BAR2SH Z T123329 K 0.050 GD  152 VS 5.20 DE 3.20 Q0750.0 QA 1.50 VS 5.20 3
 ACTION:UPD 13-06-20 09:54 OP:ep   STATUS:               ID:20130527123253 L   I
 OLDACT:UP  13-06-17 15:54 OP:ep   STATUS:               ID:20130527123253 L   3
 OLDACT:UP  13-06-17 15:53 OP:ep   STATUS:               ID:20130527123253 L   3
 OLDACT:UP  13-05-27 23:51 OP:Juan STATUS:               ID:20130527123253 L   3
 2013-05-27-1228-50M.COL___211                                                 6
 STAT SP IPHASW D HRMM SECON CODA AMPLIT PERI AZIMU VELO AIN AR TRES W  DIS CAZ7
 GIR2 SZ IP     D 1233 14.34                             169    0.3410 27.2 350 
 GIR2 SZ ES       1233 30.03                             169    0.3710 27.2 350 
 BAR2 SZ EP       1233 14.29                             169    0.1410 27.2 187 
 BAR2 SZ ES       1233 28.98                             169   -0.9410 27.2 187 
 BAR2 SZ I        1233 30.54       676.3 0.22            169           27.2 187 
 BRR  HZ EP       1233 16.13                             154    0.7310 68.7 296 
 BRR  HN ES       1233 32.54                             154    0.3910 68.7 296 
 BRR  HE I        1233 33.85      1863.3 0.22            152           68.7 296 
 PAM  SZ IP     D 1233 17.05                             152    0.6010 74.8  42 
 PAM  SE ES       1233 34.14                             152    0.1310 74.8  42 
 PAM  SN I        1233 35.66       894.1 0.32            154           74.8  42 
 BRI  SZ IP   4   1233 20.40                             143    2.44 0  105  22 
 BRI  SZ ES   4   1233 40.13                             143    3.41 0  105  22 
 RUS  HZ EP       1233 18.24                             143   -0.1410  105 176 
 RUS  HN ES       1233 36.94                             143   -0.5210  105 176 
 RUS  HE I        1233 38.91       862.8 0.28            144            105 176 
 CAPV BZ EP       1233 22.24                             133    0.81 9  147  39 
 CAPV BZ ES       1233 42.31                             133   -0.57 9  147  39 
 PTB  HZ EP       1233 20.60                             133   -0.65 9  148 257 
 PTB  HN ES       1233 41.97                             133   -0.59 9  148 257 
 PTB  HE I        1233 44.09       529.0 0.28            131            148 257 
 OCA  HZ EP       1233 22.40                             131    0.21 9  156 353 
 OCA  HN ES       1233 43.53                             131   -0.71 9  156 353 
 OCA  HE I        1233 47.71       997.7 0.22            131            156 353 
 TAM  HZ IP     D 1233 22.63                             131    0.53 9  157 106 
 TAM  HZ I        1233 22.78       466.6 0.30            133            157 106 
 TAM  HN ES       1233 44.01                             131   -0.07 9  157 106 
 YOP  SZ IP     D 1233 25.03                             126    0.37 9  183 154 
 YOP  SN ES       1233 48.86                             126    0.23 9  183 154 
 YOP  SE I        1233 52.41       498.6 0.32            127            183 154 
 ZAR  HZ EP       1233 26.59                             123    0.16 9  202 291 
 ZAR  HN ES       1233 51.90                             123    0.12 9  202 291 
 ZAR  HE I        1234  0.28       911.3 0.22            122            202 291 
 CTAB SZ EP   4   1233 31.58                             120    1.33 0  233 210 
 CTAB SZ ES   4   1234  0.48                             120    1.89 0  233 210 
 NOR  HZ EP       1233 30.04                             119   -0.05 8  236 234 
 NOR  HE ES       1233 57.66                             119   -0.64 8  236 234 
 NOR  HN I        1234  4.58       850.9 0.16            118            236 234 
 SML  HZ EP       1233 30.74                             119    0.37 8  240 335 
 SML  HN ES       1233 58.90                             119    0.11 8  240 335 
 SML  HE I        1234  7.09       446.4 0.28            118            240 335 
 CHI  HZ EP       1233 32.32                             117    0.06 8  252 195 
 CHI  HN ES       1234  1.57                             117   -0.59 8  252 195 
 CHI  HE I        1234  9.97       390.9 0.64            117            252 195 
 CROSAEE EP   4   1233 34.42                             117    1.89 0  255 211 
 CROSAEN ES   4   1234  4.14                             117    1.49 0  255 211 
 CROSAEZ I        1234  7.62       271.1 0.38                           255 211 
 HEL  HZ EP       1233 34.91                             115    0.52 8  272 255 
 HEL  HN ES       1234  6.43                             115    0.48 8  272 255 
 HEL  HE I        1234 13.55       337.3 0.38            115            272 255 
 URE  HZ EP       1233 33.93                             114   -1.03 7  282 291 
 URE  HN ES       1234  6.36                             114   -0.61 7  282 291 
 SOCV BZ EP       1233 36.63                             113   -0.37 7  300  58 
 SOCV BZ ES   4   1234  8.38                             113   -2.21 0  300  58 
 GUY2CHZ EP       1233 38.27                             113    0.35 7  303 234 
 GUY2CHE ES       1234 12.90                             113    0.66 7  303 234 
 GUY2CHN I        1234 24.07       251.3 0.54                           303 234 
 VIL  SZ EP       1233 37.51                             112   -0.45 7  307 191 
 VIL  SN ES   4   1234 11.33                             112   -0.98 0  307 191 
 VIL  SE I        1234 15.92       769.2 0.62            112            307 191 
 RREF HZ EP       1233 40.83                             111    0.34 7  324 229 
 RREF HN ES       1234 17.75                             111    0.95 7  324 229 
 RREF HZ I        1234 26.31       238.3 0.40            111            324 229 
 COD  HZ EP       1233 41.72                             110   -0.29 7  344 355 
 COD  HN ES       1234 19.21                             110   -0.30 7  344 355 
 COD  HE I        1234 27.88        68.9 0.42            110            344 355 
 ARGC HZ EP   4   1233 44.27                             109    0.99 0  355 340 
 ARGC HN ES   4   1234 22.90                             109    1.12 0  355 340 
 ARGC HE I        1234 30.48       127.5 0.44            109            355 340 
 SDV  BZ EP       1233 43.78                             109   -0.12 6  358  51 
 SDV  BE ES   4   1234 21.10                             109   -1.78 0  358  51 
 PRA  HZ EP       1233 47.64                             107   -0.32 6  395 209 
 PRA  HN ES       1234 29.52                             107   -0.58 6  395 209 
 PRA  HE I        1234 35.71       301.3 0.34            107            395 209 
 ELOV BZ EP       1233 48.51                             106   -0.64 6  406  87 
 PAL  HZ EP       1233 49.78                             106    0.38 6  407 239 
 PAL  HN ES       1234 33.60                             106    0.94 6  407 239 
 YOT  HZ EP   4   1233 56.53                             104   -0.80 0  474 228 
 GUA  SZ EP   4   1233 56.37                             103   -1.31 0  478 173 
 SMAR HZ EP       1233 58.57                             103   -0.86 4  493 346 
 SMAR HN ES   4   1234 47.45                             103   -3.07 0  493 346 
 SMAR HE I        1234 48.41        77.2 0.40            103            493 346 
 DABV BZ EP       1234  3.11                             102   -0.72 4  530  31 
 DABV BZ ES   4   1234 55.94                             102   -2.41 0  530  31 
 MARA HZ EP       1234  4.71                             102   -0.68 4  540 215 
 MAL  SZ EP   4   1234  9.35                             101    2.07 0  559 236 
 FLO2 HZ EP       1234 16.82                              99   -0.70 2  644 206 
                                                                                
