 2016  127 1047 33.6 L   6.810 -73.141147.2  RSN 10 0.3 1.6LRSN                1
 GAP=137        0.75       2.5     3.2  4.5 -0.1095E+01  0.4853E+01 -0.4884E+00E
 Epicentro: LOS SANTOS - SANTANDER                                             3
 ACTION:UPD 16-03-09 23:28 OP:cam  STATUS:               ID:20160127104733 L   I
 OLDACT:REG 16-01-27 20:32 OP:cara STATUS:               ID:20160127103749     3
 2016-01-27-1037-49M.COL___325                                                 6
 STAT SP IPHASW D HRMM SECON CODA AMPLIT PERI AZIMU VELO AIN AR TRES W  DIS CAZ7
 BAR2 EZ EP       1047 53.38                             170   -0.0610 24.5 191 
 BAR2 EZ ES       1048  9.22                             170    0.3210 24.5 191 
 BAR2 EZ I        1048  9.71         9.8 0.14            168           24.5 191 
 PAM  EZ IP       1047 56.22                             151    0.3110 76.2  40 
 PAM  EN ES       1048 13.34                             151    0.0410 76.2  40 
 PAM  EZ I        1048 15.68         3.8 0.60            155           76.2  40 
 RUS  HZ EP       1047 57.38                             144   -0.2010  102 176 
 RUS  HN ES       1048 16.09                             144   -0.1910  102 176 
 RUS  HZ I        1048 17.05         2.7 0.24            144            102 176 
 PTB  HZ EP       1048  0.32                             132   -0.44 9  148 258 
 PTB  HN ES       1048 21.36                             132   -0.57 9  148 258 
 PTB  HZ I        1048 26.91         4.3 0.60            132            148 258 
 SPBC HZ EP       1048  2.21                             129   -0.12 9  164 219 
 SPBC HN ES       1048 24.67                             129   -0.06 9  164 219 
 SPBC HZ I        1048 26.41         7.1 0.20            129            164 219 
 ZAR  HN ES       1048 31.93                             123    0.40 9  204 292 
 ZAR  HZ I        1048 33.79         4.3 0.28            123            204 292 
 NOR  HZ EP       1048  9.70                             119    0.17 8  236 234 
 NOR  HN ES       1048 38.10                             119    0.54 8  236 234 
 NOR  HZ I        1048 42.58         4.3 0.34            119            236 234 
 SML  HZ EP       1048 10.15                             118   -0.08 8  243 335 
 SML  HE ES       1048 38.52                             118   -0.27 8  243 335 
 CHI  HZ EP       1048 11.51                             117   -0.01 8  250 195 
 CHI  HN ES   4   1048 42.54                             117    1.45 0  250 195 
 CHI  HZ I        1048 47.71         1.4 0.28            118            250 195 
 GUY2CHZ EP       1048 17.93                             112    0.53 7  302 235 
 GUY2CHN ES   4   1048 53.51                             112    1.95 0  302 235 
 GUY2CHZ I        1048 59.96         3.8 0.36                           302 235 
                                                                                
