 2015 1227 1500 28.3 L   6.819 -73.170139.1  RSN  4 0.2 1.5LRSN                1
 GAP=199        0.61       3.7     5.1  7.4  0.3003E+01  0.1538E+02 -0.1081E+02E
 Epicentro: LOS SANTOS - SANTANDER                                             3
 ACTION:UPD 16-02-04 15:08 OP:cam  STATUS:               ID:20151227150027 L   I
 OLDACT:UP  16-01-29 20:31 OP:nlst STATUS:               ID:20151227150027 L   3
 OLDACT:REG 15-12-27 20:49 OP:cara STATUS:               ID:20151227145749     3
 2015-12-27-1457-49M.COL___331                                                 6
 STAT SP IPHASW D HRMM SECON CODA AMPLIT PERI AZIMU VELO AIN AR TRES W  DIS CAZ7
 BAR2 EZ EP   1   15 0 46.71                             169   -0.45 7 25.1 183 
 BAR2 EZ ES       15 1  1.72                             169   -0.1610 25.1 183 
 BAR2 EZ I        15 1  5.09         6.1 0.48            170           25.1 183 
 RUS  HN ES       15 1 10.03                             142    0.3110  103 175 
 RUS  HZ I        15 1 10.80         3.8 0.32            145            103 175 
 PTB  HZ EP       15 0 54.49                             131   -0.03 9  146 258 
 PTB  HN ES       15 1 14.94                             131   -0.04 9  146 258 
 PTB  HZ I        15 1 17.31         6.0 0.14            134            146 258 
 SML  HN ES       15 1 32.50                             116    0.25 8  241 336 
                                                                                
