 2017  327 1009 50.5 L   6.779 -73.162139.5  RSN  7 0.3 1.7LRSN                1
 GAP=135        0.71       3.6     3.2  4.7 -0.2369E+00  0.4990E+01 -0.9329E+00E
 Epicentro: LOS SANTOS - SANTANDER                                             3
 ACTION:UPD 17-05-25 18:45 OP:jn   STATUS:               ID:20170327100950 L   I
 OLDACT:REG 17-03-27 21:26 OP:lv   STATUS:               ID:20170327100747     3
 2017-03-27-1008-00M.COL___348                                                 6
 STAT SP IPHASW D HRMM SECON CODA AMPLIT PERI AZIMU VELO AIN AR TRES W  DIS CAZ7
 BAR2 EZ EP       1010  9.23                             171   -0.1010 20.8 186 
 BAR2 EZ ES       1010 24.02                             171    0.0110 20.8 186 
 BAR2 EZ I        1010 25.03        10.6 0.18            172           20.8 186 
 BRR  HZ EP       1010 11.24                             151    0.2810 70.8 301 
 BRR  HN ES       1010 27.23                             151    0.3210 70.8 301 
 BRR  HZ I        1010 31.16         5.5 0.14            152           70.8 301 
 PAM  EZ EP       1010 12.20                             149   -0.0410 80.3  39 
 PAM  EN ES       1010 28.92                             149   -0.2710 80.3  39 
 PAM  EZ I        1010 31.04        12.0 0.58            151           80.3  39 
 RUS  HZ EP       1010 13.50                             143    0.0210 98.4 175 
 RUS  HN ES       1010 31.64                             143    0.2310 98.4 175 
 RUS  HZ I        1010 33.41         3.6 0.38            146           98.4 175 
 PTB  HZ EP       1010 16.33                             131   -0.44 9  146 260 
 PTB  HN ES       1010 36.82                             131   -0.43 9  146 260 
 PTB  HZ I        1010 39.79         5.9 0.08            133            146 260 
 URE  HZ EP       1010 31.69                             112    0.50 7  283 292 
 URE  HN ES   4   1011  1.44                             112   -1.49 0  283 292 
 URE  HZ I        1011  2.64         3.9 0.11            114            283 292 
 DBB  EN ES       1011 14.32                             108    0.08 7  338 275 
 DBB  EZ I        1011 15.35         3.9 0.19            110            338 275 
 SJC  HZ EP   4   1010 44.05                             105   -1.93 0  410 327 
 SJC  HN ES   4   1011 24.72                             105   -4.54 0  410 327 
                                                                                
