 2017  527 1816 39.9 L   6.799 -73.093140.5  RSN  6 0.4 1.7LRSN                1
 GAP=217        1.07       5.8     5.2  9.2  0.1259E+02 -0.4177E+01  0.3436E+01E
 Epicentro: LOS SANTOS - SANTANDER                                             3
 ACTION:UPD 17-06-16 13:39 OP:jn   STATUS:               ID:20170527181639 L   I
 OLDACT:DUP 17-05-28 01:41 OP:ar   STATUS:               ID:20170527180746d    3
 OLDACT:REG 17-05-28 00:08 OP:dnl  STATUS:               ID:20170527180745     3
 2017-05-27-1808-00M.COL___344                                                 6
 STAT SP IPHASW D HRMM SECON CODA AMPLIT PERI AZIMU VELO AIN AR TRES W  DIS CAZ7
 BRR  HZ EP       1817  0.79                             150   -0.0310 76.4 296 
 BRR  HN ES       1817 17.48                             150    0.3710 76.4 296 
 BRR  HZ I        1817 21.25        13.2 0.36            152           76.4 296 
 RUS  HZ EP       1817  3.07                             143   -0.0710  100 179 
 RUS  HN ES       1817 20.57                             143   -0.6710  100 179 
 RUS  HZ I        1817 23.31         5.0 0.32            142            100 179 
 PTB  HZ EP       1817  6.20                             130   -0.80 9  153 259 
 PTB  HN ES       1817 28.13                             130    0.01 9  153 259 
 PTB  HZ I        1817 29.65         5.1 0.18            131            153 259 
 SPBC HZ EP       1817  8.34                             127   -0.04 9  167 221 
 SPBC HE ES       1817 31.07                             127    0.49 9  167 221 
 SPBC HZ I        1817 44.05         9.9 0.12            128            167 221 
 YPLC HZ EP       1817  9.76                             126    0.70 9  174 153 
 YPLC HE ES       1817 31.85                             126    0.06 9  174 153 
 YPLC HZ I        1817 36.03         7.0 0.26            128            174 153 
 NOR  HN ES       1817 44.04                             117    0.14 8  239 235 
                                                                                
