 2015  727 1620 20.2 L   6.667 -73.190142.1  RSN  4 0.1 1.6LRSN                1
 GAP=236        0.44       5.1     5.3  4.1  0.2096E+02  0.8292E+01  0.9003E+00E
 Epicentro: VILLANUEVA - SANTANDER                                             3
 ACTION:UPD 15-09-08 21:50 OP:cam  STATUS:               ID:20150727162020 L   I
 OLDACT:REG 15-07-27 23:09 OP:stll STATUS:               ID:20150727161747     3
 2015-07-27-1617-47M.COL___330                                                 6
 STAT SP IPHASW D HRMM SECON CODA AMPLIT PERI AZIMU VELO AIN AR TRES W  DIS CAZ7
 BAR2 EZ EP       1620 39.35                             176    0.1910 8.34 175 
 BAR2 EZ I        1620 39.48        13.6 0.40            174           8.34 175 
 BAR2 EZ ES       1620 53.82                             176   -0.1510 8.34 175 
 RUS  HZ EP       1620 42.64                             147    0.0510 86.5 172 
 RUS  HZ I        1620 44.07         3.2 0.26            147           86.5 172 
 RUS  HN ES       1621  0.09                             147    0.0210 86.5 172 
 CPBEREZ EP       1620 46.12                             133   -0.11 9  141 264 
 ZAR  HZ EP       1620 52.35                             121   -0.21 8  206 296 
 ZAR  HN ES       1621 18.01                             121    0.19 8  206 296 
 ZAR  HZ I        1621 23.43         6.8 0.58            120            206 296 
                                                                                
