 2016  427 1248 37.6 L   6.800 -73.183146.0  RSN  6 0.3 1.7LRSN                1
 GAP=143        0.68       3.2     3.7  4.7 -0.4670E+01  0.3600E+01  0.1918E+01E
 Epicentro: ZAPATOCA - SANTANDER                                               3
 ACTION:UPD 16-05-05 14:24 OP:rebc STATUS:               ID:20160427123747 L   I
 OLDACT:UPD 16-04-27 22:52 OP:Ak   STATUS:               ID:20160427123747 L   3
 2016-04-27-1237-47M.COL___312                                                 6
 STAT SP IPHASW D HRMM SECON CODA AMPLIT PERI AZIMU VELO AIN AR TRES W  DIS CAZ7
 BAR2 EZ IP       1248 57.08                             171   -0.2110 22.9 180 
 BAR2 EZ ES       1249 12.97                             171    0.3610 22.9 180 
 BAR2 EZ I        1249 14.84        10.2 0.32            169           22.9 180 
 PAM  EZ IP       1249  0.12                             150    0.0810 80.1  42 
 PAM  EN ES       1249 17.38                             150   -0.1310 80.1  42 
 PAM  EZ I        1249 20.07         9.5 0.30            154           80.1  42 
 RUS  HZ EP       1249  1.13                             144   -0.3010  101 174 
 RUS  HN ES       1249 20.00                             144    0.0010  101 174 
 RUS  HZ I        1249 21.28         3.2 0.22            144            101 174 
 PTB  HZ EP       1249  4.62                             133    0.36 9  144 259 
 PTB  HN ES       1249 24.61                             133   -0.41 9  144 259 
 PTB  HZ I        1249 27.29         7.1 0.14            134            144 259 
 SPBC HZ EP       1249  6.03                             130    0.12 9  161 218 
 SPBC HE ES       1249 28.18                             130    0.22 9  161 218 
 SPBC HZ I        1249 32.69        10.8 0.40            131            161 218 
 CHI  HZ EP       1249 15.48                             117    0.25 8  248 194 
 CHI  HE ES       1249 44.23                             117   -0.32 8  248 194 
 CHI  HZ I        1249 49.69         3.5 0.30            119            248 194 
                                                                                
