 2016 1027 1037 56.2 L   6.771 -73.200146.5  RSN  6 0.4 1.3LRSN                1
 GAP=131        0.96       4.8     4.9  7.4 -0.7005E+01  0.6718E+01 -0.2241E+01E
 Epicentro: ZAPATOCA - SANTANDER                                               3
 ACTION:UPD 16-11-09 19:23 OP:rebc STATUS:               ID:20161027103756 L   I
 OLDACT:UP  16-10-27 21:28 OP:edw  STATUS:               ID:20161027102745d    3
 OLDACT:DUP 16-10-27 21:25 OP:edw  STATUS:               ID:20161027102745d    3
 2016-10-27-1028-00M.COL___337                                                 6
 STAT SP IPHASW D HRMM SECON CODA AMPLIT PERI AZIMU VELO AIN AR TRES W  DIS CAZ7
 BAR2 EZ EP       1038 15.97                             172    0.0910 19.9 174 
 BAR2 EZ ES       1038 31.53                             172    0.3210 19.9 174 
 BAR2 EZ I        1038 32.05         6.0 0.48            172           19.9 174 
 BRR  HZ EP       1038 17.57                             154    0.3110 67.7 303 
 BRR  HN ES       1038 33.89                             154    0.2310 67.7 303 
 BRR  HZ I        1038 36.79         6.1 0.42            154           67.7 303 
 PAM  EZ EP       1038 18.84                             149   -0.0610 83.7  41 
 PAM  EN ES       1038 35.97                             149   -0.6210 83.7  41 
 PAM  EZ I        1038 36.79         2.9 0.24            152           83.7  41 
 RUS  HZ EP   2   1038 20.12                             145    0.25 5 98.0 172 
 RUS  HN ES       1038 38.64                             145    0.3410 98.0 172 
 RUS  HZ I        1038 41.20         1.4 0.42            146           98.0 172 
 PTB  HZ EP       1038 22.79                             134    0.12 9  141 260 
 PTB  HN ES       1038 43.23                             134   -0.07 9  141 260 
 PTB  HZ I        1038 46.36         2.8 0.14            134            141 260 
 SPBC HN ES       1038 45.17                             130   -0.84 9  157 218 
                                                                                
