 2013  627 1620 14.4 L   6.780 -73.128153.6  RSN  5 0.4 1.8LRSN                1
 GAP=238        0.90       7.4     6.7  7.5  0.3451E+01  0.1773E+02  0.8142E+01E
 Epicentro: LOS SANTOS - SANTANDER                                             3
 ACTION:UPD 14-01-08 09:57 OP:ep   STATUS:               ID:20130627162014 L   I
 OLDACT:REG 13-06-27 18:02 OP:carl STATUS:               ID:20130627161959     3
 2013-06-27-1619-59M.COL___266                                                 6
 STAT SP IPHASW D HRMM SECON CODA AMPLIT PERI AZIMU VELO AIN AR TRES W  DIS CAZ7
 BAR2 SZ EP   1   1620 35.00                             172    0.04 7 21.6 196 
 BAR2 SZ ES       1620 50.85                             172   -0.1310 21.6 196 
 BAR2 SZ I        1620 51.78        10.1 0.42            170           21.6 196 
 BRR  HZ EP   1   1620 36.55                             153   -0.02 7 73.9 299 
 BRR  HN ES   1   1620 54.58                             153    0.73 7 73.9 299 
 BRR  HN I        1620 58.61        25.2 0.18            152           73.9 299 
 RUS  HZ EP   1   1620 39.12                             146    0.33 7 98.3 177 
 RUS  HN ES   1   1620 57.57                             146   -0.23 7 98.3 177 
 RUS  HZ I        1621  0.17         6.1 0.48            148           98.3 177 
 PTB  HZ EP       1620 41.69                             133   -0.48 9  149 260 
 PTB  HN ES   1   1621  3.03                             133   -0.78 7  149 260 
 PTB  HZ I        1621  6.28         7.1 0.16            134            149 260 
 NOR  HZ EP       1620 50.81                             120    0.16 8  235 235 
 NOR  HE ES       1621 19.44                             120    0.53 8  235 235 
 NOR  HZ I        1621 23.21         4.5 0.18            121            235 235 
                                                                                
