 2017 1027 1231 33.3 L   6.713 -73.199143.5  RSN  5 0.4 1.5LRSN                1
 GAP=224        1.02       7.6     7.0  7.4  0.3269E+02  0.9006E+01 -0.2947E+01E
 Epicentro: VILLANUEVA - SANTANDER                                             3
 ACTION:UPD 17-11-07 19:37 OP:rebc STATUS:               ID:20171027123133 L   I
 OLDACT:REG 17-10-27 19:47 OP:dhb  STATUS:               ID:20171027122737     3
 2017-10-27-1228-00M.COL___435                                                 6
 STAT SP IPHASW D HRMM SECON CODA AMPLIT PERI AZIMU VELO AIN AR TRES W  DIS CAZ7
 BAR2 EZ EP       1231 52.03                             174   -0.4710 13.5 172 
 BAR2 EZ ES       1232  7.16                             174   -0.3210 13.5 172 
 BAR2 EZ I        1232  8.50        11.8 0.22            173           13.5 172 
 BRR  HZ IP     C 1231 53.96                             152   -0.2610 71.5 308 
 BRR  HN ES       1232 10.90                             152    0.3610 71.5 308 
 BRR  HZ I        1232 13.89         9.4 0.42            150           71.5 308 
 RUS  HZ EP       1231 56.47                             146    0.2710 91.6 172 
 RUS  HN ES       1232 14.54                             146    0.4810 91.6 172 
 RUS  HZ I        1232 15.57         4.1 0.22            148           91.6 172 
 PTB  HZ EP       1231 59.00                             133   -0.41 9  140 262 
 PTB  HN ES       1232 19.37                             133   -0.41 9  140 262 
 PTB  HZ I        1232 23.00         2.0 0.22            133            140 262 
 ZAR  HZ EP       1232  5.98                             122    0.54 9  203 295 
 ZAR  HE ES       1232 30.88                             122    0.37 9  203 295 
 ZAR  HZ I        1232 36.37         4.9 0.28            123            203 295 
                                                                                
