 2011 1127 1441 13.3 L   6.783 -73.089143.8  RSN  4 0.3 1.2LRSN                1
 GAP=145        0.57       5.5     9.1  7.6  0.2486E+02 -0.3266E+02 -0.1544E+02E
 Epicentro: LOS SANTOS - SANTANDER                                             3
 ACTION:UPD 12-07-13 16:12 OP:ep   STATUS:               ID:20111127144113 L   I
 2011-11-27-1438-24S.COL___159                                                 6
 STAT SP IPHASW D HRMM SECON CODA AMPLIT PERI AZIMU VELO AIN AR TRES W  DIS CAZ7
 BAR2 SZ EP   1   1441 32.53                             170   -0.20 7 23.5 206 
 BAR2 SZ ES   1   1441 47.52                             170   -0.34 7 23.5 206 
 BAR2 SZ I        1441 49.05         6.9 0.17                          23.5 206 
 PAM  SZ EP   1   1441 35.42                             151    0.22 7 75.1  35 
 PAM  SZ I        1441 36.16         1.2 0.20                          75.1  35 
 BRR  HZ EP   1   1441 34.32                             150   -0.33 7 77.6 298 
 BRR  HZ I        1441 36.47         5.5 0.45                          77.6 298 
 BRR  HN ES   1   1441 51.62                             150    0.34 7 77.6 298 
 RUS  HZ EP   1   1441 36.88                             144    0.14 7 98.5 180 
 RUS  HN ES   1   1441 55.18                             144    0.18 7 98.5 180 
 RUS  HZ I        1441 56.26         1.3 0.26                          98.5 180 
                                                                                
