 2015  127 1320 50.0 L   6.753 -73.119140.0  RSN  9 0.3 1.7LRSN                1
 GAP=142        0.65       2.9     3.1  4.5 -0.1074E+01  0.4426E+01  0.2980E+01E
 Epicentro: LOS SANTOS - SANTANDER                                             3
 ACTION:UPD 15-03-02 15:42 OP:nd   STATUS:               ID:20150127132050 L   I
 OLDACT:REG 15-01-27 19:28 OP:spq  STATUS:               ID:20150127131748     3
 2015-01-27-1317-48M.COL___274                                                 6
 STAT SP IPHASW D HRMM SECON CODA AMPLIT PERI AZIMU VELO AIN AR TRES W  DIS CAZ7
 BAR2 EZ EP       1321  8.77                             172   -0.0710 19.1 201 
 BAR2 EZ ES   1   1321 23.56                             172    0.01 7 19.1 201 
 BAR2 EZ I        1321 24.52        13.2 0.38            170           19.1 201 
 BRR  HZ EP   1   1321 11.03                             150    0.21 7 76.3 301 
 BRR  HE ES       1321 27.50                             150    0.4310 76.3 301 
 BRR  HZ I        1321 32.64        12.9 0.18            149           76.3 301 
 PAM  SZ EP       1321 11.64                             149   -0.1010 79.8  36 
 PAM  SN ES       1321 28.48                             149   -0.2210 79.8  36 
 PAM  SZ I        1321 30.10         5.8 0.18            154           79.8  36 
 RUS  HZ EP       1321 12.82                             144    0.0410 95.2 178 
 RUS  HN ES   1   1321 30.88                             144    0.32 7 95.2 178 
 RUS  HZ I        1321 32.02         5.7 0.26            147           95.2 178 
 SPBC HZ EP       1321 17.73                             128   -0.11 9  161 221 
 SPBC HE ES   1   1321 38.93                             128   -0.64 7  161 221 
 SPBC HZ I        1321 45.24        14.6 0.28            130            161 221 
 ZAR  HZ EP   1   1321 22.74                             120    0.19 6  209 293 
 ZAR  HN ES       1321 47.53                             120   -0.43 8  209 293 
 ZAR  HZ I        1321 51.92         6.4 0.42            122            209 293 
 NOR  HZ EP       1321 25.45                             117    0.13 8  234 236 
 NOR  HE ES       1321 52.77                             117   -0.11 8  234 236 
 NOR  HZ I        1321 55.10         4.1 0.29            119            234 236 
 GUY2CHZ EP   4   1321 34.76                             111    1.49 0  301 236 
 GUY2CHE ES   4   1322 10.08                             111    3.05 0  301 236 
 GUY2CHZ I        1322 14.20         1.9 0.23                           301 236 
 CBOC HZ EP       1321 37.33                             109    0.52 7  335 253 
                                                                                
