 2016 1027 1238 22.0 L   6.799 -73.068149.2  RSN 12 0.4 2.2LRSN                1
 GAP=147        1.09       4.7     5.4  5.9 -0.3899E+01  0.7268E+01  0.8097E+01E
 Epicentro: LOS SANTOS - SANTANDER                                             3
 ACTION:UPD 16-11-09 19:23 OP:rebc STATUS:               ID:20161027123822 L   I
 OLDACT:UP  16-10-27 23:39 OP:edw  STATUS:               ID:20161027123744     3
 OLDACT:UP  16-10-27 23:38 OP:edw  STATUS:               ID:20161027123744     3
 OLDACT:UP  16-10-27 23:37 OP:edw  STATUS:               ID:20161027123744     3
 OLDACT:REG 16-10-27 20:16 OP:edw  STATUS:               ID:20161027123744     3
 2016-10-27-1238-00M.COL___334                                                 6
 STAT SP IPHASW D HRMM SECON CODA AMPLIT PERI AZIMU VELO AIN AR TRES W  DIS CAZ7
 BAR2 EZ IP     C 1238 41.90                             170   -0.2010 26.2 209 
 BAR2 EZ ES       1238 57.23                             170   -0.5610 26.2 209 
 BAR2 EZ I        1238 58.57        44.2 0.52            167           26.2 209 
 PAM  EZ EP     C 1238 44.55                             152    0.2610 72.2  34 
 PAM  EN ES       1239  1.95                             152    0.2710 72.2  34 
 PAM  EZ I        1239  4.02        30.9 0.56            156           72.2  34 
 BRR  HZ IP     C 1238 43.74                             150   -0.2310 78.9 296 
 BRR  HN ES       1239  1.34                             150    0.2410 78.9 296 
 RUS  HZ EP       1238 45.89                             144   -0.1810  100 181 
 RUS  HN ES       1239  4.75                             144   -0.1010  100 181 
 RUS  HZ I        1239  7.18        10.8 0.32            144            100 181 
 PTB  HZ EP   9   1238 48.64                             131   -1.38 0  156 259 
 PTB  HN ES       1239  9.61                             132   -0.88 9  156 259 
 PTB  HZ I        1239 11.60        11.9 0.12            130            156 259 
 SPBC HZ EP       1238 50.88                             128   -0.40 9  169 221 
 SPBC HN ES   4   1239 12.42                             128   -1.71 0  169 221 
 SPBC HZ I        1239 16.99        24.7 0.22            128            169 221 
 NOR  HZ EP       1238 58.22                             118   -0.46 8  242 236 
 NOR  HN ES   4   1239 25.94                             118   -1.35 0  242 236 
 NOR  HZ I        1239 34.03         8.7 0.50            118            242 236 
 CHI  HZ EP       1239  0.13                             117   -0.01 8  251 197 
 CHI  HN ES       1239 30.76                             117    0.87 8  251 197 
 HEL  HZ EP       1239  4.32                             114    1.01 7  280 256 
 HEL  HN ES       1239 35.64                             114    0.11 7  280 256 
 HEL  HZ I        1239 41.24         9.2 0.30            115            280 256 
 GUY2CHZ EP       1239  6.82                             112    0.26 7  308 236 
 GUY2CHN ES   4   1239 45.05                             112    3.73 0  308 236 
 GUY2CHZ I        1239 49.18         7.9 0.28                           308 236 
 LL6C HZ EP   4   1238 48.03                             110   -19.9 0  325 356 
 LL6C HN ES   4   1239 23.81                             110   -19.9 0  325 356 
 ANIL HE ES   4   1239 53.76                             108    1.63 0  363 225 
 PRA  HZ EP       1239 15.67                             106   -0.47 6  396 211 
 PRA  HN ES   4   1239 59.56                             106    1.19 0  396 211 
 PRA  HZ I        1240  3.71         4.7 0.24            107            396 211 
 SJC  HZ EP   4   1239 15.88                             106   -2.36 0  414 326 
 SJC  HN ES   4   1239 56.91                             106   -5.20 0  414 326 
 SJC  HZ I        1240  1.62         5.0 0.42            107            414 326 
                                                                                
