 2017 1027 1027  7.8 L   6.824 -73.283113.7  RSN  7 0.3 0.9LRSN                1
 GAP=108        0.84       3.1     3.0  5.4  0.8876E-02  0.5019E+01  0.1139E+01E
 Epicentro: ZAPATOCA - SANTANDER                                               3
 ACTION:UPD 17-11-07 19:37 OP:rebc STATUS:               ID:20171027102707 L   I
 OLDACT:DUP 17-10-27 21:17 OP:dhb  STATUS:               ID:20171027100911d    3
 OLDACT:REG 17-10-27 19:29 OP:dhb  STATUS:               ID:20171027100910     3
 2017-10-27-1018-00M.COL___435                                                 6
 STAT SP IPHASW D HRMM SECON CODA AMPLIT PERI AZIMU VELO AIN AR TRES W  DIS CAZ7
 BAR2 EZ EP       1027 23.47                             165   -0.2110 27.9 157 
 BAR2 EZ ES       1027 35.88                             165   -0.2110 27.9 157 
 BAR2 EZ I        1027 38.86         2.7 0.17            169           27.9 157 
 BRR  HN ES       1027 38.11                             151    0.3210 56.8 303 
 PAM  EZ EP       1027 27.21                             141   -0.1210 86.0  48 
 PAM  EE ES       1027 42.45                             141   -0.1410 86.0  48 
 PAM  EZ I        1027 45.76         2.2 0.26            144           86.0  48 
 RUS  HZ EP       1027 28.90                             134   -0.0310  105 168 
 RUS  HN ES       1027 45.98                             134    0.5510  105 168 
 RUS  HZ I        1027 49.78         1.1 0.32            139            105 168 
 PTB  HZ EP       1027 31.34                             127    0.4410  134 256 
 PTB  HE ES       1027 48.91                             127   -0.0410  134 256 
 PTB  HZ I        1027 52.59         0.9 0.44            128            134 256 
 SPBC HZ EP       1027 32.96                             122   -0.34 9  156 214 
 SPBC HE ES       1027 52.84                             122   -0.38 9  156 214 
 ZAR  HZ EP       1027 37.20                             116    0.51 9  189 293 
 ZAR  HE ES       1027 58.86                             116   -0.39 9  189 293 
 ZAR  HZ I        1028  9.15         1.6 0.26            118            189 293 
                                                                                
