 2016  727 1644 29.6 L   6.765 -73.137147.4  RSN 11 0.4 1.9LRSN                1
 GAP=139        0.88       3.3     3.6  5.8 -0.8639E+00  0.3684E+01  0.4551E+01E
 Epicentro: LOS SANTOS - SANTANDER                                             3
 ACTION:UPD 17-03-29 16:55 OP:lp   STATUS:               ID:20160727164429 L   I
 OLDACT:REG 16-07-27 21:02 OP:ar   STATUS:               ID:20160727163743     3
 2016-07-27-1637-43M.COL___347                                                 6
 STAT SP IPHASW D HRMM SECON CODA AMPLIT PERI AZIMU VELO AIN AR TRES W  DIS CAZ7
 BAR2 EZ EP       1644 49.30                             172   -0.0210 19.8 195 
 BAR2 EZ ES       1645  4.85                             172    0.1210 19.8 195 
 BAR2 EZ I        1645  7.16        19.0 0.28            169           19.8 195 
 BRR  HZ EP       1644 51.28                             152    0.2410 73.9 301 
 BRR  HN ES       1645  8.13                             152    0.3410 73.9 301 
 BRR  HZ I        1645  9.95        15.0 0.12            150           73.9 301 
 PAM  EZ EP       1644 52.43                             150    0.3310 79.8  37 
 PAM  EN ES       1645  9.36                             150   -0.3110 79.8  37 
 PAM  EZ I        1645 11.54        15.6 0.54            155           79.8  37 
 RUS  HZ EP       1644 52.94                             145   -0.2610 96.7 176 
 RUS  HN IS       1645 11.41                             145   -0.2310 96.7 176 
 RUS  HN ES       1645 11.41                             145           96.7 176 
 PTB  HZ EP   2   1644 56.14                             132   -0.54 5  148 260 
 PTB  HN ES       1645 17.04                             132   -0.79 9  148 260 
 PTB  HZ I        1645 24.32         7.1 0.44            131            148 260 
 ZAR  HZ EP   2   1645  2.24                             122   -0.11 4  206 293 
 ZAR  HN ES       1645 28.19                             122    0.26 8  206 293 
 ZAR  HZ I        1645 32.65         6.1 0.11            122            206 293 
 NOR  HZ EP   2   1645  4.60                             119   -0.63 4  233 235 
 NOR  HN ES       1645 33.28                             119    0.23 8  233 235 
 NOR  HZ I        1645 40.86         5.3 0.24            119            233 235 
 CHI  HZ EP   2   1645  6.74                             118   -0.24 4  245 196 
 CHI  HN ES       1645 36.98                             118    0.81 8  245 196 
 CHI  HZ I        1645 40.38         5.7 0.40            118            245 196 
 GUY2CHZ EP   9   1645 15.46                             113    2.37 0  300 235 
 GUY2CHN ES       1645 50.13                                    0.72 7  300 235 
 GUY2CHZ I        1645 56.74         2.8 0.34                           300 235 
 PRA  HZ EP   2   1645 22.11                             107   -0.70 3  389 210 
 PRA  HE ES       1646  4.28                             107   -0.06 6  389 210 
 PRA  HZ I        1646  8.27         3.3 0.26            107            389 210 
 SJC  HZ EP   9   1645 23.45                             106   -2.17 0  413 327 
 SJC  HN ES       1646  6.89                                   -0.28 6  413 327 
                                                                                
