 2012  827 1046 38.6 L   6.534 -73.378131.5  RSN  6 0.4 1.9LRSN                1
 GAP=115        0.87       5.9     6.2  8.0  0.1634E+02  0.2000E+02  0.1057E+02E
 Epicentro: HATO - SANTANDER                                                   3
 ACTION:UPD 12-09-10 11:58 OP:ep   STATUS:               ID:20120827104638 L   I
 2012-08-27-1040-00M.COL___218                                                 6
 STAT SP IPHASW D HRMM SECON CODA AMPLIT PERI AZIMU VELO AIN AR TRES W  DIS CAZ7
 BAR2 SZ EP       1046 56.43                             170   -0.0710 22.5  73 
 BAR2 SZ ES   1   1047 10.25                             170   -0.21 7 22.5  73 
 BAR2 SZ I        1047 11.15        14.1 0.30                          22.5  73 
 GIR2 SZ EP       1046 57.88                             153   -0.1010 63.6  19 
 GIR2 SZ ES   1   1047 12.43                             153   -0.67 7 63.6  19 
 BRR  HZ EP       1046 58.56                             149    0.2010 73.3 330 
 BRR  HZ I        1046 58.77        61.6 0.12                          73.3 330 
 BRR  HN ES   1   1047 14.56                             149    0.79 7 73.3 330 
 RUS  HZ EP       1046 59.60                             148    0.2310 78.1 155 
 RUS  HN ES   1   1047 15.91                             148    0.34 7 78.1 155 
 PTB  HZ EP       1047  1.35                             135   -0.5010  119 270 
 PTB  HZ I        1047  2.41         6.1 0.18                           119 270 
 PTB  HN ES   2   1047 19.37                             135   -0.62 5  119 270 
 ZAR  HZ EP   2   1047  9.57                             120    0.38 4  195 303 
 ZAR  HN ES   1   1047 33.44                             120    0.40 6  195 303 
 ZAR  HZ I        1047 40.79         5.4 0.32                           195 303 
                                                                                
