 2012  127 1911 32.8 L   6.782 -73.159147.7  RSN 14 0.4 2.9LRSN                1
 GAP=136        1.12       5.3     7.6  7.8 -0.3814E+01  0.2636E+02  0.4581E+01E
 Epicentro: LOS SANTOS - SANTANDER                                             3
 ACTION:UP  12-02-03 08:21 OP:REBC STATUS:               ID:20120127191132 L   I
 2012-01-27-1910-00M.COL___188                                                 6
 STAT SP IPHASW D HRMM SECON CODA AMPLIT PERI AZIMU VELO SNR AR TRES W  DIS CAZ7
 BAR2 SZ IP       1911 52.73                             171     0.110   21 187 
 BAR2 SZ I        1911 52.90       222.3 0.40                            21 187 
 BAR2 SZ ES   1   1912  7.47                             171    -0.6 7   21 187 
 GIR2 SZ IP       1911 52.84                             167     0.110   33 353 
 BRR  HZ IP     D 1911 54.64                             153     0.510   71 300 
 BRR  HE ES   1   1912 11.74                             153     0.9 7   71 300 
 BRR  HZ I        1912 14.45       201.2 0.14                            71 300 
 PAM  SZ EP       1911 55.51                             150     0.110   80  39 
 PAM  SN ES   1   1912 12.75                             150    -0.2 7   80  39 
 RUS  HZ EP       1911 56.56                             145    -0.110   99 175 
 RUS  HN ES   1   1912 15.12                             145    -0.1 7   99 175 
 RUS  HZ I        1912 16.01        63.4 0.42                            99 175 
 PTB  HZ EP       1911 59.01                             133    -0.8 9  146 259 
 PTB  HZ I        1912 26.55        60.8 0.36                           146 259 
 OCA  SZ EP       1912  1.37                             130    -0.1 9  162 354 
 OCA  SZ I        1912 28.06        53.4 0.27                           162 354 
 ZAR  HZ EP       1912  4.70                             123    -0.6 9  203 293 
 ZAR  HZ I        1912 41.34        92.9 0.34                           203 293 
 NOR  SZ EP       1912  8.56                             119     0.1 8  232 235 
 CHI  HZ EP       1912 10.76                             118     0.4 8  246 195 
 CHI  HZ I        1912 49.63        37.9 0.42                           246 195 
 HEL  HZ EP   1   1912 13.39                             115     0.5 6  270 256 
 HEL  HZ I        1912 49.82        28.6 0.32                           270 256 
 GUY  SZ EP   2   1912 16.31                             113    -0.2 4  301 235 
 GUY  SZ I        1912 58.94        65.3 0.38                           301 235 
 RREF HZ EP   3   1912 19.41                             111     0.6 2  319 229 
 RREF HE ES   3   1912 53.73                             111    -0.9 2  319 229 
 RREF HZ I        1913  5.05        59.1 0.28                           319 229 
 PRA  HZ EP       1912 26.48                             107     0.4 6  390 210 
                                                                                
