 2012  127 1328 48.0 L   6.260 -73.753101.2  RSN  5 0.4 1.4LRSN                1
 GAP=173        1.07       7.7     8.4 15.0  0.2289E+02  0.6330E+02  0.1490E+02E
 Epicentro: LANDAZURI - SANTANDER                                              3
 ACTION:UP  12-02-03 08:21 OP:REBC STATUS:               ID:20120127132848 L   I
 2012-01-27-1320-00M.COL___188                                                 6
 STAT SP IPHASW D HRMM SECON CODA AMPLIT PERI AZIMU VELO SNR AR TRES W  DIS CAZ7
 BAR2 SZ EP       1329  5.37                             141     0.310   73  60 
 BAR2 SZ ES   1   1329 18.29                             141    -0.1 7   73  60 
 BAR2 SZ I        1329 19.97        17.3 0.38                            73  60 
 PTB  HZ EP       1329  5.37                             137    -0.210   84 292 
 PTB  HZ I        1329 22.75         2.4 0.38                            84 292 
 RUS  HZ EP   1   1329  6.51                             137     0.2 7   85 119 
 RUS  HN ES   1   1329 20.49                             137    -0.1 7   85 119 
 BRR  HZ EP       1329  7.04                             133     0.610   94   3 
 BRR  HE ES   1   1329 20.79                             133     0.0 7   94   3 
 GIR2 SZ EP       1329  7.38                             129    -0.710  110  34 
                                                                                
