 2012  227 1143 46.3 L   6.746 -73.167154.8  RSN  6 0.1 1.6LRSN                1
 GAP=179        0.33       3.9     4.4  4.1  0.1261E+02  0.1323E+01  0.4823E+00E
 ACTION:UP  12-03-07 16:34 OP:epov STATUS:               ID:20120227114346 L   I
 2012-02-27-1140-00M.COL___192                                                 6
 STAT SP IPHASW D HRMM SECON CODA AMPLIT PERI AZIMU VELO AIN AR TRES W  DIS CAZ7
 BAR2 SZ EP   2   1144  6.55                             173   -0.35 5 17.1 186 
 BAR2 SZ I        1144 24.31         5.3 0.25                          17.1 186 
 GIR2 SZ EP   2   1144  7.24                             166    0.05 5 36.9 355 
 BRR  HZ EP       1144  8.48                             154    0.0110 72.2 304 
 BRR  HZ I        1144 10.20        13.0 0.27                          72.2 304 
 BRR  HE ES   1   1144 25.88                             154    0.10 7 72.2 304 
 RUS  HZ EP       1144 10.59                             147    0.0410 94.8 174 
 RUS  HN ES   1   1144 29.41                             147   -0.06 7 94.8 174 
 PTB  HZ EP       1144 13.78                             135    0.07 9  144 261 
 ZAR  HE ES   1   1144 44.98                             124   -0.16 6  204 294 
 ZAR  HZ I        1144 47.59         2.9 0.19                           204 294 
                                                                                
