 2010  727 1339 15.4 L   6.890 -73.067143.4  RSN  4 0.1 1.8LRSN                1
 GAP=172        0.39       4.6     8.4  7.3  0.9062E+01 -0.3242E+02 -0.6859E+01E
 Epicentro: PIEDECUESTA - SANTANDER                                            3
 ACTION:UPD 10-12-01 15:20 OP:pat  STATUS:               ID:20100727133915 L   I
 2010-07-27-1334-30S.COL___122                                                 6
 STAT SP IPHASW D HRMM SECON CODA AMPLIT PERI AZIMU VELO AIN AR TRES W  DIS CAZ7
 BAR2 SZ EP   1   1339 34.83                             166    -0.2 7   35 201 
 BAR2 SZ ES   2   1339 50.30                             166    -0.1 5   35 201 
 BRR  HZ EP   1   1339 36.37                             151    -0.1 7   75 289 
 BRR  HZ I        1339 37.78        12.3 0.14                            75 289 
 BRR  HE ES   2   1339 53.14                             151     0.2 5   75 289 
 GUE  SZ EP   1   1339 39.06                             142     0.1 7  105   9 
 RUS  HZ EP   1   1339 39.79                             141     0.2 7  110 181 
                                                                                
