 2010  327 1911 12.4 L   6.786 -73.053151.3  RSN 10 0.4 2.5LRSN                1
 GAP=192        0.62       2.8     6.3  5.0  0.1898E+01  0.7486E+01  0.3261E+01E
 Epicentro: LOS SANTOS - SANTANDER                                             3
 ACTION:UP  10-08-24 09:56 OP:vdl  STATUS:               ID:20100327191112 L   I
 2010-03-27-1909-00S.COL___098                                                 6
 STAT SP IPHASW D HRMM SECON CODA AMPLIT PERI AZIMU VELO SNR AR TRES W  DIS CAZ7
 BAR2 SZ IP       1911 32.63                             170    -0.110   26 214 
 BAR2 SZ ES   2   1911 48.11                             170    -0.5 5   26 214 
 BRR  HZ EP   1   1911 34.68                             150     0.0 7   81 296 
 BRR  HE ES   1   1911 51.98                             150    -0.1 7   81 296 
 BRR  HZ I        1911 56.61        50.5 0.29                            81 296 
 RUS  HZ EP       1911 36.52                             145     0.010   99 182 
 RUS  HN ES   1   1911 55.50                             145     0.1 7   99 182 
 RUS  HZ I        1911 56.58        24.3 0.29                            99 182 
 OCA  SZ EP   1   1911 41.11                             130    -0.3 7  163 350 
 OCA  SZ ES   1   1912  4.58                             130     0.5 7  163 350 
 CHI  HZ EP       1911 50.68                             118     0.2 8  250 198 
 CHI  HE ES   2   1912 20.12                             118    -0.2 4  250 198 
 CHI  HZ I        1912 26.03        14.4 0.42                           250 198 
 ROSC BZ EP   2   1911 50.90                             117    -0.3 4  257 213 
 ROSC BN ES   2   1912 22.34                             117     0.8 4  257 213 
 ROSC BZ I        1912 27.15        23.5 0.37                           257 213 
 HEL  HZ EP   1   1911 54.42                             115     0.5 6  282 257 
 HEL  HN ES   3   1912 25.68                             115    -0.6 2  282 257 
 HEL  HZ I        1912 31.10        13.6 0.25                           282 257 
 DBB  SZ EP   1   1912  0.48                             110    -0.8 5  350 274 
 TOL  SZ EP   1   1912  1.88                             110     0.3 5  350 226 
 PRA  HZ EP   1   1912  6.26                             107    -0.3 4  396 211 
 PRA  HN ES   2   1912 48.79                             107     0.0 3  396 211 
 PRA  HZ I        1912 53.97        21.2 0.34                           396 211 
                                                                                
