 2011 1027 1222 55.2 L   6.225 -73.775 88.1  RSN  8 0.4 1.8LRSN                1
 GAP=114        0.58       3.6     4.1 16.6 -0.4048E+01  0.4544E+02 -0.1129E+02E
 Epicentro: LANDAZURI - SANTANDER                                              3
 ACTION:UPD 12-07-13 16:06 OP:ep   STATUS:               ID:20111027122255 L   I
 2011-10-27-1220-12S.COL___177                                                 6
 STAT SP IPHASW D HRMM SECON CODA AMPLIT PERI AZIMU VELO AIN AR TRES W  DIS CAZ7
 BAR2 SZ EP       1223 11.57                             138    0.2310 77.2  58 
 BAR2 SZ I        1223 26.72        48.5 0.18                          77.2  58 
 RUS  HZ EP       1223 11.99                             135   -0.3910 85.0 116 
 RUS  HZ I        1223 12.52         9.0 0.10                          85.0 116 
 RUS  HE ES   2   1223 26.14                             135    0.35 5 85.0 116 
 BRR  HZ EP       1223 13.01                             129    0.0910 97.8   4 
 BRR  HZ I        1223 21.76        16.5 0.10                          97.8   4 
 NOR  SZ EP       1223 17.75                             119    0.20 9  141 239 
 NOR  SE ES   3   1223 34.18                             119   -0.81 2  141 239 
 PAM  SZ EP   3   1223 22.63                             114    1.19 2  171  44 
 PAM  SE ES   1   1223 41.52                             114   -0.40 7  171  44 
 ZAR  HE ES   2   1223 43.69                             112    0.19 4  184 320 
 ZAR  HZ I        1223 46.28        11.9 0.38                           184 320 
 HEL  HZ EP   3   1223 23.32                             111   -0.60 2  194 269 
 HEL  HE ES   3   1223 46.22                             111   -0.11 2  194 269 
 HEL  HZ I        1223 48.88         6.6 0.26                           194 269 
 RREF HZ EP   3   1223 27.49                             108   -0.68 2  228 230 
 RREF HZ I        1224  0.35         5.3 0.28                           228 230 
                                                                                
