 2013  927 1726  7.5 L   6.765 -73.116146.1  RSN  9 0.7 1.8LRSN 2.4WRSN        1
 SPEC AVERAGE  MO 12.7 ST  7.3 OM  1.0 f0 12.5 R0.2691 AL 0.00 WI 20.0 MW  2.4 3
 SPEC SD       MO  0.3 ST  5.8 OM  0.4 f0 7.38 R0.2383 AL      WI      MW  0.2 3
 GAP=142        1.52       6.1     6.5  8.5 -0.1445E+02  0.7340E+01  0.9517E+01E
 Epicentro: LOS SANTOS - SANTANDER                                             3
 SPEC BRR HH Z MO 12.9 ST  9.8 OM  1.0 f0 12.7 R0.1515 AL-0.00 WI 20.0 MW  2.5 3
 SPEC BRR HH Z T172644 K 0.050 GD  164 VS 5.20 DE 3.20 Q0750.0 QA 1.50 VS 5.20 3
 SPEC PAM SH Z MO 12.6 ST  1.0 OM  0.7 f0 7.53 R0.2555 AL-0.00 WI 20.0 MW  2.3 3
 SPEC PAM SH Z T172645 K 0.050 GD  165 VS 5.20 DE 3.20 Q0750.0 QA 1.50 VS 5.20 3
 SPEC RUS HH Z MO 12.2 ST 15.0 OM  0.3 f0 24.5 R0.0785 AL-0.00 WI 20.0 MW  2.1 3
 SPEC RUS HH Z T172647 K 0.050 GD  175 VS 5.20 DE 3.20 Q0750.0 QA 1.50 VS 5.20 3
 SPEC NOR HH Z MO 12.7 ST 10.8 OM  0.6 f0 15.0 R0.1283 AL-0.00 WI 20.0 MW  2.4 3
 SPEC NOR HH Z T1727 9 K 0.050 GD  276 VS 5.20 DE 3.20 Q0750.0 QA 1.50 VS 5.20 3
 SPEC CHI HH Z MO 12.9 ST0.096 OM  0.8 f0 2.63 R0.7316 AL-0.00 WI 20.0 MW  2.6 3
 SPEC CHI HH Z T172712 K 0.050 GD  286 VS 5.20 DE 3.20 Q0750.0 QA 1.50 VS 5.20 3
 SPECGUY2CHH Z MO 13.0 ST  0.2 OM  0.8 f0 3.07 R 0.627 AL-0.00 WI 20.0 MW  2.6 3
 SPECGUY2CHH Z T172725 K 0.050 GD335.5 VS 5.20 DE 3.20 Q0750.0 QA 1.50 VS 5.20 3
 OLDACT:REG 13-09-27 16:57 OP:stll STATUS:               ID:20130927171850     3
 ACTION:UPD 13-10-22 09:25 OP:ep   STATUS:               ID:20130927172607 L   I
 OLDACT:UP  13-09-27 19:51 OP:stll STATUS:               ID:20130927171850     3
 2013-09-27-1718-50M.COL___247                                                 6
 STAT SP IPHASW D HRMM SECON CODA AMPLIT PERI AZIMU VELO AIN AR TRES W  DIS CAZ7
 BAR2 SZ EP       1726 27.12                             172    0.0310 20.5 201 
 BAR2 SZ ES       1726 42.38                             172   -0.0010 20.5 201 
 BAR2 SZ I        1726 43.54        12.3 0.40            168           20.5 201 
 BRR  HZ EP       1726 28.93                             151    0.0010 76.0 300 
 BRR  HN ES       1726 46.42                             151    0.7510 76.0 300 
 PAM  SZ EP       1726 29.91                             150    0.1310 78.4  36 
 PAM  SN ES       1726 47.35                             150    0.1710 78.4  36 
 PAM  SZ I        1726 49.12         9.1 0.48            155           78.4  36 
 RUS  HZ EP       1726 30.98                             145    0.0110 96.6 178 
 RUS  HN ES       1726 49.28                             145   -0.0110 96.6 178 
 RUS  SZ I        1726 51.77         6.7 0.64            143           96.6 178 
 CAPV BZ EP       1726 34.84                             132   -0.15 9  150  36 
 PTB  HZ EP       1726 33.90                             132   -0.80 9  150 261 
 PTB  HN ES       1726 54.57                             132   -1.37 9  150 261 
 PTB  SZ I        1727  0.71         9.4 0.34            132            150 261 
 NOR  HZ EP       1726 43.44                             119    0.17 8  235 236 
 NOR  HE ES       1727 10.69                             119   -0.51 8  235 236 
 NOR  SZ I        1727 19.77         5.5 0.14            119            235 236 
 CHI  HZ EP       1726 44.63                             117   -0.25 8  246 196 
 CHI  HN ES       1727 13.83                             117   -0.23 8  246 196 
 CHI  SZ I        1727 24.41         3.7 1.14            118            246 196 
 GUY2CHZ EP       1726 52.05                             112    0.90 7  302 236 
 GUY2CHN ES       1727 27.16                             112    1.93 7  302 236 
 GUY2CSZ I        1727 36.33         3.5 0.72                           302 236 
                                                                                
