 2013  427 1221 21.3 L   6.395 -73.706 98.7  RSN  4 0.3 1.4LRSN                1
 GAP=148        0.66       5.3     2.9  8.3  0.2985E+01  0.6281E+01 -0.4542E+00E
 Epicentro: SANTA HELENA DEL OPON - SANTANDER                                  3
 ACTION:UPD 13-05-22 14:41 OP:EP   STATUS:               ID:20130427122121 L   I
 2013-04-27-1220-00M.COL___249                                                 6
 STAT SP IPHASW D HRMM SECON CODA AMPLIT PERI AZIMU VELO AIN AR TRES W  DIS CAZ7
 BAR2 SZ EP       1221 37.45                             146    0.2310 61.9  69 
 BAR2 SZ I        1221 52.41        12.1 0.28             47           61.9  69 
 PTB  HZ EP       1221 38.41                             136   -0.2610 84.5 281 
 PTB  HN ES   1   1221 52.32                             136    0.06 7 84.5 281 
 PTB  HZ I        1221 55.19         6.4 0.44             47           84.5 281 
 RUS  HZ EP       1221 39.32                             136   -0.3510 88.5 129 
 RUS  HN ES       1221 54.12                             136    0.0910 88.5 129 
 NOR  HZ EP       1221 46.45                             118    0.40 9  158 235 
 NOR  HN ES   1   1222  5.25                             118   -0.15 7  158 235 
 NOR  HZ I        1222  9.16         2.7 0.16             47            158 235 
                                                                                
