 2013  727 1648 48.8 L   6.791 -73.158138.3  RSN 10 0.5 2.3LRSN                1
 GAP=135        0.94       3.9     5.0  8.4 -0.4933E+01  0.1971E+02 -0.1083E+02E
 Epicentro: LOS SANTOS - SANTANDER                                             3
 ACTION:UPD 13-08-12 10:40 OP:ep   STATUS:               ID:20130727164848 L   I
 OLDACT:UP  13-07-27 20:05 OP:mh   STATUS:               ID:20130727164750     3
 OLDACT:UP  13-07-27 20:05 OP:mh   STATUS:               ID:20130727164750     3
 OLDACT:REG 13-07-27 18:58 OP:mh   STATUS:               ID:20130727164750     3
 2013-07-27-1647-50M.COL___234                                                 6
 STAT SP IPHASW D HRMM SECON CODA AMPLIT PERI AZIMU VELO AIN AR TRES W  DIS CAZ7
 BAR2 SZ EP   1   1649  7.04                             171   -0.50 7 22.2 187 
 BAR2 SZ ES   1   1649 21.69                             171   -0.44 7 22.2 187 
 BAR2 SZ I        1649 25.19        17.5 0.36            171           22.2 187 
 GIR2 SZ EP       1649  7.86                             166    0.2210 32.0 353 
 GIR2 SZ I        1649 24.84        13.5 0.12            161           32.0 353 
 BRR  HZ IP     C 1649  9.68                             151    0.5510 70.4 300 
 BRR  HN ES   4   1649 26.68                             151    1.72 0 70.4 300 
 BRR  HN I        1649 30.34        93.2 0.14            147           70.4 300 
 PAM  SZ EP   1 C 1649 10.57                             149    0.21 7 79.0  40 
 PAM  SN ES   1   1649 27.46                             149    0.32 7 79.0  40 
 PAM  SN I        1649 28.59        28.0 0.22            151           79.0  40 
 RUS  HZ EP   1   1649 11.77                             142   -0.02 7 99.7 175 
 RUS  HN ES       1649 29.65                             142   -0.0510 99.7 175 
 RUS  HN I        1649 30.74        25.0 0.26            147           99.7 175 
 PTB  HZ EP       1649 14.35                             130   -0.70 9  146 259 
 PTB  HN ES   1   1649 35.34                             130   -0.16 7  146 259 
 PTB  HZ I        1649 43.48        11.0 0.28            130            146 259 
 SPBC HZ EP   1   1649 16.63                             128    0.02 7  162 219 
 SPBC HN ES   1   1649 38.23                             128   -0.04 7  162 219 
 SPBC HN I        1649 44.53        54.7 0.18            129            162 219 
 ZAR  HZ EP   1   1649 21.68                             121    0.98 6  203 293 
 ZAR  HE ES   1   1649 45.97                             121    0.41 6  203 293 
 ZAR  HZ I        1649 51.79        23.7 0.32            120            203 293 
 NOR  HE ES       1649 51.59                             117    0.24 8  233 234 
 NOR  HE I        1649 59.31        25.9 0.22            118            233 234 
 SML  HZ EP   1   1649 24.43                             116   -0.65 6  244 336 
 SML  HN ES   1   1649 52.57                             116   -0.78 6  244 336 
 SML  HN I        1650  3.29        57.3 0.10            116            244 336 
                                                                                
