 2017 1227 1750 37.7 L   6.787 -73.167132.7  RSN  5 0.3 1.8LRSN                1
 GAP=144        0.77       4.5     3.8  7.7 -0.6066E+01  0.9640E+01 -0.3305E+01E
 Epicentro: LOS SANTOS - SANTANDER                                             3
 ACTION:UPD 18-01-04 13:24 OP:rebc STATUS:               ID:20171227175037 L   I
 OLDACT:DUP 17-12-28 00:09 OP:mg   STATUS:               ID:20171227174742d    3
 2017-12-27-1748-00M.COL___451                                                 6
 STAT SP IPHASW D HRMM SECON CODA AMPLIT PERI AZIMU VELO AIN AR TRES W  DIS CAZ7
 BAR2 EZ EP       1750 55.59                             170   -0.0810 21.6 184 
 BAR2 EZ ES   2   1751  9.90                             170    0.17 5 21.6 184 
 BAR2 EZ I        1751 11.41        11.5 0.23            172           21.6 184 
 PAM  EZ EP       1750 58.64                             147   -0.0210 80.0  40 
 PAM  EN ES       1751 15.32                             147    0.2710 80.0  40 
 PAM  EZ I        1751 17.82        10.1 0.62            151           80.0  40 
 PTB  HZ EP       1751  3.31                             129   -0.02 9  145 259 
 PTB  HN ES       1751 22.99                             129   -0.38 9  145 259 
 PTB  HZ I        1751 26.01         6.8 0.16            132            145 259 
 OCA  HZ EP       1751  5.30                             126    0.21 9  161 354 
 OCA  HE ES       1751 25.93                             126   -0.57 9  161 354 
 OCA  HZ I        1751 27.25        20.9 0.15            129            161 354 
 ZAR  HZ EP   2   1751  9.10                             120    0.00 4  202 293 
 ZAR  HN ES       1751 34.24                             120    0.61 9  202 293 
 ZAR  HZ I        1751 38.16         4.7 0.12            122            202 293 
                                                                                
