 2012  127 1101 54.6 L   6.375 -73.659101.4  RSN 16 0.4 2.4LRSN                1
 GAP= 64        1.00       2.9     3.6  7.3 -0.7008E+00  0.1084E+02  0.5952E+01E
 Epicentro: SANTA HELENA DEL OPON - SANTANDER                                  3
 ACTION:UP  12-02-03 08:21 OP:REBC STATUS:               ID:20120127110154 L   I
 2012-01-27-1100-00M.COL___188                                                 6
 STAT SP IPHASW D HRMM SECON CODA AMPLIT PERI AZIMU VELO SNR AR TRES W  DIS CAZ7
 BAR2 SZ IP       11 2 10.89                             147     0.310   58  66 
 BAR2 SZ ES   1   11 2 23.43                             147     0.4 7   58  66 
 BAR2 SZ I        11 2 25.00       350.3 0.22                            58  66 
 BRR  HZ IP     C 11 2 11.89                             138    -0.110   81 356 
 BRR  HZ I        11 2 12.18        79.2 0.12                            81 356 
 BRR  HN ES   1   11 2 25.57                             138     0.1 7   81 356 
 RUS  HZ IP     D 11 2 12.69                             137    -0.110   83 130 
 RUS  HZ I        11 2 13.11        49.2 0.30                            83 130 
 RUS  HN ES   1   11 2 26.66                             137    -0.3 7   83 130 
 PTB  HZ IP     C 11 2 11.85                             135    -0.910   90 282 
 PTB  HN ES   3   11 2 27.09                             135     0.2 2   90 282 
 PTB  HZ I        11 2 28.56        72.2 0.30                            90 282 
 GIR2 SZ IP       11 2 13.29                             133     0.110   93  33 
 PAM  SZ EP       11 2 19.00                             119    -0.3 9  150  45 
 PAM  SN ES   1   11 2 37.71                             119    -0.8 7  150  45 
 NOR  SZ EP   2   11 2 19.62                             117    -0.3 5  161 236 
 NOR  SE ES   2   11 2 39.41                             117    -0.2 5  161 236 
 YOP  SZ EP       11 2 22.12                             114     0.4 9  178 129 
 ZAR  HZ EP       11 2 21.94                             113    -0.1 9  181 313 
 ZAR  HN ES   2   11 2 44.16                             113     0.8 4  181 313 
 CHI  HZ EP       11 2 23.78                             112    -0.1 9  193 182 
 CHI  HN ES   1   11 2 47.54                             112     0.8 7  193 182 
 CHI  HZ I        11 2 50.05         9.5 0.24                           193 182 
 HEL  HZ EP       11 2 25.80                             110     0.3 8  208 264 
 HEL  HZ I        11 2 53.30        19.0 0.42                           208 264 
 OCA  SZ EP       11 2 26.17                             110     0.8 8  209  10 
 OCA  SZ I        11 2 56.95        47.6 0.27                           209  10 
 GUY  SZ EP       11 2 28.59                             108     0.4 8  230 236 
 GUY  SE ES   2   11 2 54.69                             108     0.3 4  230 236 
 GUY  SZ I        11 2 58.68        22.8 0.44                           230 236 
 RREF HZ EP       11 2 30.41                             106    -0.1 8  248 229 
 RREF HN ES   3   11 2 58.78                             106     0.3 2  248 229 
 RREF HZ I        11 3  7.68         9.0 0.36                           248 229 
 VIL  SZ EP       11 2 30.05                             105    -0.1 8  250 181 
 VIL  SE ES   3   11 2 57.98                             105     0.1 2  250 181 
 PRA  HZ EP       11 2 38.47                             100    -0.3 7  324 205 
 PRA  HN ES   1   11 3 12.41                             100    -0.9 5  324 205 
                                                                                
