 2011  827 1213 12.4 L   6.771 -73.103143.2  RSN 10 0.3 2.7LRSN                1
 GAP=129        0.59       2.7     3.8  4.1 -0.3075E+01  0.2993E+01  0.1252E+01E
 Epicentro: LOS SANTOS - SANTANDER                                             3
 ACTION:UPD 12-07-13 15:54 OP:ep   STATUS:               ID:20110827121312 L   I
 2011-08-27-1210-04S.COL___161                                                 6
 STAT SP IPHASW D HRMM SECON CODA AMPLIT PERI AZIMU VELO AIN AR TRES W  DIS CAZ7
 BAR2 SZ IP       1213 31.78                             171    0.0910 21.6 204 
 BAR2 SZ ES   1   1213 46.08                             171   -0.65 7 21.6 204 
 BAR2 SZ I        1213 47.69       158.5 0.25                          21.6 204 
 BRR  HZ IP     C 1213 33.69                             150    0.0810 76.9 299 
 BRR  HZ I        1213 34.16       171.6 0.10                          76.9 299 
 BRR  HN ES   1   1213 50.64                             150    0.49 7 76.9 299 
 PAM  SZ EP   1   1213 34.67                             150    0.34 7 77.1  35 
 PAM  SN ES   1   1213 51.58                             150    0.16 7 77.1  35 
 RUS  HZ EP   1   1213 35.79                             144    0.14 7 97.1 179 
 RUS  HN ES   1   1213 53.82                             144    0.04 7 97.1 179 
 RUS  HZ I        1213 55.32        50.8 0.26                          97.1 179 
 OCA  SZ EP   1   1213 40.54                             128   -0.34 7  164 352 
 OCA  SZ ES   1   1214  2.88                             128   -0.21 7  164 352 
 OCA  SZ I        1214  5.72        88.3 0.32                           164 352 
 NOR  SZ EP   1   1213 48.28                             118    0.08 6  237 236 
 NOR  SN ES   1   1214 15.81                             118   -0.32 6  237 236 
 CHI  HZ EP   1   1213 49.56                             117   -0.20 6  247 196 
 CHI  HZ I        1214 25.38        18.8 0.37                           247 196 
 HEL  HZ EP   1   1213 53.08                             114    0.17 6  276 257 
 HEL  HE ES   2   1214 23.92                             114   -0.59 4  276 257 
 HEL  HZ I        1214 32.68        26.8 0.29                           276 257 
 SDV  BZ EP   1   1214  1.54                             108   -0.63 5  359  49 
 PRA  HZ EP   1   1214  6.22                             106    0.44 4  392 210 
 PRA  HN ES   1   1214 47.62                             106    0.20 4  392 210 
                                                                                
