 2012  727 1358  5.6 L   6.781 -73.184144.8  RSN  4 0.3 1.3LRSN                1
 GAP=232        0.65       7.8     6.3  7.8  0.1900E+02  0.6213E+01 -0.8012E+01E
 Epicentro: LOS SANTOS - SANTANDER                                             3
 ACTION:UPD 12-08-14 11:45 OP:ep   STATUS:               ID:20120727135805 L   I
 2012-07-27-1350-00M.COL___215                                                 6
 STAT SP IPHASW D HRMM SECON CODA AMPLIT PERI AZIMU VELO AIN AR TRES W  DIS CAZ7
 BAR2 SZ EP       1358 25.16                             171     0.010   21 179 
 BAR2 SZ ES   1   1358 39.85                             171    -0.5 7   21 179 
 BRR  HZ EP   2   1358 26.96                             153     0.4 5   69 302 
 BRR  HN ES   2   1358 43.25                             153     0.4 5   69 302 
 RUS  HZ EP   2   1358 28.80                             144    -0.4 5   99 174 
 RUS  HN ES   1   1358 47.94                             144     0.4 7   99 174 
 RUS  HZ I        1358 48.86         2.9 0.17            142             99 174 
 PTB  HZ EP   1   1358 32.01                             133    -0.1 7  143 259 
 PTB  HN ES   1   1358 52.66                             133    -0.1 7  143 259 
 PTB  HZ I        1358 55.99         3.4 0.25            130            143 259 
