 2014 1127 1453 58.1 L   7.422 -73.188132.3  RSN 15 0.3 2.0LRSN                1
 GAP=109        0.63       2.3     2.5  4.0 -0.5947E+00  0.3410E+01  0.1568E+01E
 Epicentro: EL PLAYON - SANTANDER                                              3
 ACTION:UPD 14-12-19 15:48 OP:nd   STATUS:               ID:20141127145358 L   I
 OLDACT:REG 14-11-27 17:06 OP:spq  STATUS:               ID:20141127144747     3
 2014-11-27-1447-47M.COL___306                                                 6
 STAT SP IPHASW D HRMM SECON CODA AMPLIT PERI AZIMU VELO AIN AR TRES W  DIS CAZ7
 PAM  SZ EP       1454 17.85                             156    0.2810 54.7 100 
 PAM  SN ES       1454 33.00                             156    0.2110 54.7 100 
 PAM  SZ I        1454 34.03        29.7 0.20            160           54.7 100 
 BRR  HZ EP       1454 17.60                             151    0.0510 67.5 239 
 BRR  HN ES       1454 32.87                             151    0.1210 67.5 239 
 BRR  HZ I        1454 33.68        42.4 0.12            147           67.5 239 
 OCA  HZ EP       1454 19.15                             143   -0.2110 91.5 351 
 OCA  HN ES       1454 35.82                             143   -0.1510 91.5 351 
 OCA  HZ I        1454 38.68        12.6 0.30            145           91.5 351 
 BAR2 SZ EP       1454 19.58                             143    0.0910 91.7 180 
 BAR2 SZ ES   1   1454 35.82                             143   -0.39 7 91.7 180 
 BAR2 SZ I        1454 36.71        14.8 0.10            141           91.7 180 
 RUS  HZ EP   1   1454 26.96                             125    0.24 7  169 176 
 RUS  HN ES   1   1454 48.52                             125   -0.55 7  169 176 
 PTB  HZ EP       1454 26.11                             124   -0.11 9  171 235 
 PTB  HE ES       1454 47.87                             124   -0.31 9  171 235 
 PTB  HZ I        1454 50.35        15.5 0.32            123            171 235 
 ZAR  HZ EP       1454 27.52                             122   -0.09 9  185 273 
 ZAR  HN ES       1454 50.83                             122    0.17 9  185 273 
 ZAR  HZ I        1454 55.38        14.8 0.42            121            185 273 
 SPBC HE ES   1   1454 57.95                             117    0.63 6  219 207 
 SPBC HZ I        1455  3.32        11.6 0.22            116            219 207 
 NOR  HZ EP       1454 37.69                             111   -0.10 7  277 222 
 NOR  HE ES   1   1455  8.33                             111   -0.46 6  277 222 
 NOR  HZ I        1455 12.88         4.4 0.16            111            277 222 
 HEL  HZ EP   1   1454 39.96                             110    0.03 5  292 242 
 HEL  HE ES   1   1455 13.25                             110    0.66 5  292 242 
 HEL  HZ I        1455 20.82         5.5 0.36            110            292 242 
 MON  HZ EP   4   1454 39.90                             109   -1.76 0  312 299 
 MON  HN ES   4   1455 14.22                             109   -1.45 0  312 299 
 MON  HZ I        1455 15.85         2.5 0.50            109            312 299 
 GUY2CHZ EP   4   1454 47.04                             107    1.22 0  342 225 
 GUY2CHN ES   4   1455 26.81                             107    3.73 0  342 225 
 GUY2CHZ I        1455 35.11         3.4 0.62                           342 225 
 SJC  HN ES   4   1455 21.67                             106   -2.26 0  351 321 
 SJC  HZ I        1455 23.56         2.2 0.44            106            351 321 
 RREF HZ EP   4   1454 50.59                             105    1.64 0  367 221 
 RREF HE ES   4   1455 31.49                             105    2.84 0  367 221 
 RREF HZ I        1455 38.15         3.5 0.32            105            367 221 
 TOL  SN ES   4   1455 35.25                             104    1.94 0  393 217 
 TOL  SZ I        1455 41.67         7.0 0.34            104            393 217 
                                                                                
