 2011 1127 1204 21.1 L   6.760 -73.102139.9  RSN  6 0.1 1.7LRSN                1
 GAP=144        0.33       4.0     5.8  5.9 -0.4199E+00  0.6162E+01  0.1094E+02E
 Epicentro: LOS SANTOS - SANTANDER                                             3
 ACTION:UPD 12-07-13 16:12 OP:ep   STATUS:               ID:20111127120421 L   I
 2011-11-27-1201-03S.COL___160                                                 6
 STAT SP IPHASW D HRMM SECON CODA AMPLIT PERI AZIMU VELO AIN AR TRES W  DIS CAZ7
 BAR2 SZ ES   2   12 4 54.48                             171   -0.23 5 20.6 206 
 BAR2 SZ I        12 4 55.73        14.4 0.30                          20.6 206 
 BRR  HN ES   2   12 4 58.40                             149    0.08 5 77.5 300 
 BRR  HZ I        12 4 59.33        22.1 0.12                          77.5 300 
 PAM  SE ES   2   12 4 59.66                             150    0.04 5 78.0  35 
 PAM  SZ I        12 5  1.15         2.8 0.51                          78.0  35 
 RUS  HN ES   2   12 5  1.95                             144    0.17 5 96.0 179 
 CHI  HZ EP   2   12 4 58.04                             116   -0.14 4  246 197 
 CHI  HZ I        12 4 58.53         3.4 0.13                           246 197 
 PRA  HZ EP   2   12 5 14.35                             106    0.07 3  391 211 
                                                                                
