 2017  127 1727 59.7 L   6.718 -73.222151.5  RSN  5 0.4 1.6LRSN                1
 GAP=214        0.89       7.1     6.9  7.8  0.2770E+02  0.1600E+02 -0.9051E+00E
 Epicentro: VILLANUEVA - SANTANDER                                             3
 ACTION:UPD 17-05-22 16:04 OP:jn   STATUS:               ID:20170127172759 L   I
 OLDACT:REG 17-01-27 21:49 OP:dnl  STATUS:               ID:20170127172748     3
 2017-01-27-1728-00M.COL___340                                                 6
 STAT SP IPHASW D HRMM SECON CODA AMPLIT PERI AZIMU VELO AIN AR TRES W  DIS CAZ7
 BAR2 EZ EP   2   1728 19.70                             174   -0.19 5 14.6 163 
 BAR2 EZ ES       1728 35.04                             174   -0.5910 14.6 163 
 BAR2 EZ I        1728 35.67        12.9 0.28            173           14.6 163 
 BRR  HZ EP       1728 21.43                             154    0.0510 69.2 308 
 BRR  HZ I        1728 37.38        14.1 0.32            149           69.2 308 
 BRR  HE ES       1728 38.70                             154    0.4310 69.2 308 
 RUS  HZ EP   2   1728 24.17                             147    0.68 5 92.6 170 
 RUS  HE ES       1728 42.39                             147    0.3610 92.6 170 
 RUS  HZ I        1728 43.91         3.0 0.56            145           92.6 170 
 PTB  HZ EP       1728 25.78                             135   -0.52 9  138 262 
 PTB  HE ES       1728 46.93                             135   -0.10 9  138 262 
 PTB  HZ I        1728 51.68         4.2 0.14            132            138 262 
 ZAR  HZ EP   2   1728 32.47                             124    0.34 4  200 295 
 ZAR  HE ES       1728 57.56                             124    0.15 9  200 295 
 ZAR  HZ I        1729  0.01         4.6 0.28            119            200 295 
                                                                                
