 2017 1127 1454 26.0 L   6.810 -73.131142.7  RSN  4 0.4 1.3LRSN                1
 GAP=245        0.93      10.0     7.2  8.9  0.4320E+02  0.6527E+01 -0.1683E+02E
 Epicentro: LOS SANTOS - SANTANDER                                             3
 ACTION:UPD 17-12-12 20:01 OP:rebc STATUS:               ID:20171127145426 L   I
 OLDACT:UP  17-11-27 21:59 OP:dani STATUS:               ID:20171127144744     3
 OLDACT:UP  17-11-27 21:59 OP:dani STATUS:               ID:20171127144744     3
 OLDACT:UP  17-11-27 21:58 OP:dani STATUS:               ID:20171127144744     3
 OLDACT:REG 17-11-27 20:10 OP:dani STATUS:               ID:20171127144744     3
 2017-11-27-1448-00M.COL___498                                                 6
 STAT SP IPHASW D HRMM SECON CODA AMPLIT PERI AZIMU VELO AIN AR TRES W  DIS CAZ7
 BAR2 EZ EP       1454 45.39                             169    0.1210 24.8 193 
 BAR2 EZ ES       1455  0.01                             169   -0.3110 24.8 193 
 BAR2 EZ I        1455  1.38         6.3 0.18            166           24.8 193 
 RUS  HZ EP       1454 49.72                             143    0.2110  102 177 
 RUS  HN ES       1455  8.19                             143    0.3310  102 177 
 RUS  HZ I        1455  9.96         2.4 0.30            142            102 177 
 PTB  HZ EP       1454 52.26                             131   -0.60 9  150 259 
 PTB  HN ES       1455 13.66                             131   -0.17 9  150 259 
 PTB  HZ I        1455 15.44         2.6 0.14            131            150 259 
 ZAR  HE ES   1   1455 24.36                             121    0.79 6  205 292 
                                                                                
