 2010  627 1055 31.7 L   6.068 -73.317161.7  RSN 12 0.4 2.2LRSN                1
 GAP=109        0.81       3.2     6.4  6.0 -0.9959E+01  0.1122E+02 -0.1800E+01E
 Epicentro: GAMBITA - SANTANDER                                                3
 ACTION:UP  10-08-24 10:13 OP:vdl  STATUS:               ID:20100627105531 L   I
 2010-06-27-1052-08S.COL___118                                                 6
 STAT SP IPHASW D HRMM SECON CODA AMPLIT PERI AZIMU VELO SNR AR TRES W  DIS CAZ7
 RUS  HZ IP     D 1055 53.89                             168     0.010   32 127 
 RUS  HZ I        1055 54.48        37.7 0.36                            32 127 
 RUS  HN ES   1   1056 11.45                             168     0.3 7   32 127 
 BAR2 SZ IP       1055 54.09                             159    -0.310   60  14 
 BAR2 SZ ES   1   1056 11.24                             159    -0.9 7   60  14 
 BRR  HZ IP     D 1055 57.94                             141    -0.110  123 339 
 BRR  HZ I        1055 59.33        21.8 0.12                           123 339 
 BRR  HN ES   1   1056 19.00                             141     0.5 7  123 339 
 CHI  HZ EP   1   1056  2.12                             132     0.0 7  166 196 
 CHI  HZ I        1056  2.87        12.1 0.44                           166 196 
 CHI  HE ES   1   1056 25.99                             132     0.1 7  166 196 
 ROSC BN ES   2   1056 28.06                             130     0.6 4  175 219 
 ROSC BZ I        1056 33.98        11.1 0.34                           175 219 
 BRI  SZ IP       1056  4.14                             128    -0.1 9  191  17 
 BRI  SZ ES   1   1056 29.93                             128     0.4 7  191  17 
 GUE  SZ EP   1   1056  5.37                             127     0.1 6  200  13 
 GRA  SZ ES   2   1056 33.68                             125     1.1 4  209  16 
 OCA  SZ EP   1   1056  8.83                             121    -0.3 6  240 360 
 OCA  SZ ES   1   1056 38.45                             121     0.2 6  240 360 
 OCA  SZ I        1056 43.66        18.6 0.51                           240 360 
 HEL  HZ EP   1   1056  9.91                             121     0.0 6  245 273 
 HEL  HN ES   2   1056 39.26                             121    -0.5 4  245 273 
 HEL  HZ I        1056 50.25        10.3 0.44                           245 273 
 TOL  SZ EP   2   1056 13.79                             117     0.6 4  276 234 
 PRA  HZ IP     C 1056 16.90                             114     0.0 7  313 214 
 PRA  HE ES   1   1056 51.98                             114    -0.1 5  313 214 
 PRA  HZ I        1056 54.91         9.0 0.32                           313 214 
                                                                                
