 2017  627 1756 59.0 L   6.889 -73.280122.7  RSN 12 0.5 2.2LRSN                1
 GAP=143        1.20       4.2     4.2  6.4  0.4123E+01  0.4055E+01  0.5960E+01E
 Epicentro: BETULIA - SANTANDER                                                3
 ACTION:UPD 17-09-14 16:55 OP:jn   STATUS:               ID:20170627175659 L   I
 OLDACT:REG 17-06-27 21:34 OP:osc  STATUS:               ID:20170627174738     3
 2017-06-27-1748-00M.COL___367                                                 6
 STAT SP IPHASW D HRMM SECON CODA AMPLIT PERI AZIMU VELO AIN AR TRES W  DIS CAZ7
 BAR2 EZ EP       1757 16.12                             163   -0.1210 34.6 162 
 BAR2 EZ ES       1757 29.19                             163   -0.4710 34.6 162 
 BRR  HZ EP     D 1757 16.50                             155   -0.2210 53.5 297 
 BRR  HN ES       1757 30.61                             155    0.1110 53.5 297 
 BRR  HZ I        1757 31.45        63.4 0.12            154           53.5 297 
 PTB  HZ IP   4 D 1757 21.34                             129   -1.73 0  136 254 
 PTB  HE ES       1757 42.66                             129    0.85 9  136 254 
 PTB  HZ I        1757 44.37        16.7 0.14            129            136 254 
 SPBC HZ EP       1757 25.02                             123   -0.80 9  163 213 
 SPBC HE ES       1757 46.75                             123    0.05 9  163 213 
 SPBC HZ I        1757 53.51        23.1 0.26            123            163 213 
 ZAR  HZ EP       1757 28.64                             119    0.41 9  187 291 
 ZAR  HN ES       1757 51.35                             119    0.36 9  187 291 
 ZAR  HZ I        1757 53.75        24.2 0.28            119            187 291 
 YPLC HZ EP       1757 29.09                             118    0.12 9  193 149 
 YPLC HN ES       1757 52.88                             118    0.57 9  193 149 
 YPLC HZ I        1757 55.17        58.7 0.38            119            193 149 
 NOR  HZ EP       1757 32.50                             114   -0.41 8  229 230 
 NOR  HE ES       1757 58.58                             114   -0.74 8  229 230 
 NOR  HZ I        1757 59.57         9.4 0.28            114            229 230 
 CHI  HZ EP       1757 36.10                             111   -0.18 8  255 191 
 CHI  HE ES       1758  5.78                             111    0.45 8  255 191 
 CHI  HZ I        1758  6.02         5.0 0.54            112            255 191 
 GUY2CHZ EP       1757 41.87                             108    0.86 7  295 232 
 GUY2CHE ES       1758 12.91                             108   -0.82 7  295 232 
 GUY2CHZ I        1758 19.74         8.2 0.38                           295 232 
 CBOC HZ EP       1757 43.93                             106    0.08 7  323 250 
 CBOC HN ES       1758 18.77                             106   -0.02 7  323 250 
 CBOC HZ I        1758 20.71         5.7 0.24            106            323 250 
 SJC  HZ EP   9   1757 50.24                             102   -1.76 0  393 328 
 SJC  HE ES       1758 30.01                                   -1.53 6  393 328 
 SJC  HZ I        1758 39.38         3.8 0.32            102            393 328 
 CRJC HZ EP       1758  0.22                             100    0.28 5  459   5 
 CRJC HN ES   2   1758 46.22                             100   -1.22 2  459   5 
                                                                                
