 2010  627 1403 48.7 L   6.808 -73.120144.9  RSN 16 0.5 3.1LRSN                1
 GAP=128        1.19       3.9     7.1  6.9 -0.1245E+02  0.7310E+01  0.4991E+01E
 Epicentro: LOS SANTOS - SANTANDER                                             3
 ACTION:UP  10-08-24 10:13 OP:vdl  STATUS:               ID:20100627140348 L   I
 2010-06-27-1400-03S.COL___118                                                 6
 STAT SP IPHASW D HRMM SECON CODA AMPLIT PERI AZIMU VELO SNR AR TRES W  DIS CAZ7
 BAR2 SZ IP       14 4  7.99                             170    -0.310   25 196 
 BAR2 SZ ES   1   14 4 23.55                             170     0.0 7   25 196 
 BRR  HZ IP     C 14 4  9.66                             152    -0.210   73 297 
 BRR  HZ I        14 4 11.04       416.4 0.11                            73 297 
 BRR  HN ES   1   14 4 26.29                             152    -0.1 7   73 297 
 RUS  HZ IP     D 14 4 12.20                             143    -0.210  101 178 
 RUS  HN ES   1   14 4 30.51                             143    -0.4 7  101 178 
 RUS  HZ I        14 4 32.76        78.1 0.70                           101 178 
 BRI  SZ IP       14 4 12.28                             142    -0.110  107  20 
 BRI  SZ ES   1   14 4 30.96                             142     0.1 7  107  20 
 GUE  SZ IP       14 4 13.68                             140     0.510  115  11 
 GUE  SZ ES   1   14 4 32.29                             140    -0.1 7  115  11 
 GRA  SZ IP       14 4 14.52                             137     0.810  124  16 
 GRA  SZ ES   1   14 4 33.82                             137     0.6 7  124  16 
 OCA  SZ IP       14 4 15.91                             129    -1.0 9  160 352 
 OCA  SZ ES   1   14 4 39.11                             129     0.2 7  160 352 
 OCA  SZ I        14 4 42.97       257.9 0.32                           160 352 
 CHI  HZ EP   1   14 4 26.39                             117    -0.1 6  250 196 
 CHI  HE ES   1   14 4 56.02                             117     0.0 6  250 196 
 CHI  HZ I        14 4 59.94        45.5 0.74                           250 196 
 ROSC BZ EP   1   14 4 27.79                             116     0.8 6  255 211 
 ROSC BZ I        14 5  2.73        45.6 0.45                           255 211 
 CVER SZ IP       14 4 30.03                             114     0.8 8  274 203 
 HEL  HZ EP   1   14 4 29.27                             114     0.1 6  275 256 
 HEL  HE ES   2   14 5  0.22                             114    -0.6 4  275 256 
 HEL  HZ I        14 5  7.00        86.6 0.44                           275 256 
 RREF HZ EP   1   14 4 35.78                             110     0.7 5  324 230 
 RREF HN ES   2   14 5 11.68                             110     0.4 3  324 230 
 RREF HZ I        14 5 25.07        62.2 0.84                           324 230 
 DBB  SZ IP       14 4 35.88                             109    -0.6 7  342 274 
 TOL  SZ EP   1   14 4 38.38                             109     1.2 5  346 225 
 SDV  BZ IP     C 14 4 37.37                             108    -1.0 6  358  50 
 SDV  BZ I        14 5 18.56        28.2 0.63                           358  50 
 PRA  HZ IP     C 14 4 41.95                             106    -0.5 6  394 210 
 PRA  HE ES   1   14 5 24.09                             106    -0.3 4  394 210 
 PRA  HZ I        14 5 31.76        58.8 0.38                           394 210 
                                                                                
