 2014  227 1348 22.4 L   6.818 -73.150146.2  RSN  7 0.3 2.3LRSN                1
 GAP=135        0.72       3.5     3.3  5.3 -0.9714E+00  0.5837E+01 -0.5813E+01E
 Epicentro: LOS SANTOS - SANTANDER                                             3
 ACTION:UPD 14-03-10 08:14 OP:ep   STATUS:               ID:20140227134822 L   I
 OLDACT:UP  14-02-27 18:44 OP:cam  STATUS:               ID:20140227134746     3
 OLDACT:REG 14-02-27 18:36 OP:cam  STATUS:               ID:20140227134746     3
 2014-02-27-1347-46M.COL___227                                                 6
 STAT SP IPHASW D HRMM SECON CODA AMPLIT PERI AZIMU VELO AIN AR TRES W  DIS CAZ7
 BAR2 SZ EP       1348 42.13                             170    0.0410 25.2 188 
 BAR2 SZ ES       1348 57.07                             170   -0.4010 25.2 188 
 BAR2 SZ I        1348 58.15        46.0 0.26            171           25.2 188 
 PAM  SZ EP       1348 44.94                             151    0.3810 76.1  41 
 PAM  SN ES       1349  1.99                             151    0.1310 76.1  41 
 PAM  SZ I        1349  3.92        69.5 0.50            153           76.1  41 
 RUS  HZ EP       1348 46.33                             143    0.0210  103 176 
 RUS  HN ES       1349  5.16                             143    0.1810  103 176 
 RUS  HZ I        1349  6.74        15.9 0.30            146            103 176 
 PTB  HZ EP       1348 49.16                             132   -0.21 9  148 258 
 PTB  HN ES       1349 10.26                             132   -0.17 9  148 258 
 PTB  HZ I        1349 13.09        24.7 0.48            133            148 258 
 OCA  HN EP       1348 50.07                             130   -0.45 9  158 353 
 ZAR  HZ EP       1348 54.89                             123    0.16 9  203 292 
 ZAR  HN ES       1349 20.42                             123    0.46 9  203 292 
 ZAR  HZ I        1349 25.99        17.3 0.14            123            203 292 
 SML  HZ EP   2   1348 58.34                             118   -0.47 4  242 335 
 SJC  HZ EP   4   1349 16.33                             106   -1.39 0  407 327 
                                                                                
