 2015  627 1330 54.8 L   7.420 -73.162131.4  RSN  5 0.3 2.0LRSN                1
 GAP=192        0.62       2.6     3.9  4.7 -0.5329E+00  0.4430E+01  0.9757E+00E
 Epicentro: EL PLAYON - SANTANDER                                              3
 ACTION:UPD 15-09-10 22:15 OP:cam  STATUS:               ID:20150627133054 L   I
 OLDACT:REG 15-06-27 20:34 OP:drio STATUS:               ID:20150627132748     3
 2015-06-27-1327-48M.COL___322                                                 6
 STAT SP IPHASW D HRMM SECON CODA AMPLIT PERI AZIMU VELO AIN AR TRES W  DIS CAZ7
 BRR  HZ EP       1331 14.48                             150    0.1810 69.8 240 
 BRR  HN ES       1331 29.80                             150    0.2710 69.8 240 
 BAR2 EZ EP       1331 16.32                             143    0.2210 91.5 181 
 BAR2 EZ ES       1331 32.45                             143   -0.2810 91.5 181 
 BAR2 EZ I        1331 33.64        23.7 0.42            144           91.5 181 
 OCA  HZ EP       1331 16.00                             143   -0.0310 92.2 349 
 OCA  HN ES       1331 32.37                             143   -0.2410 92.2 349 
 ZAR  HZ EP       1331 24.51                             121   -0.05 9  187 273 
 ZAR  HN ES       1331 47.90                             121    0.11 9  187 273 
 ZAR  HZ I        1331 52.30        10.1 0.12            121            187 273 
 GUY2CHZ EP       1331 42.91                             106    0.19 7  344 225 
 GUY2CHN ES       1332 19.50                             106   -0.62 7  344 225 
 GUY2CHZ I        1332 28.82         3.5 0.34                           344 225 
                                                                                
