 2011  927 1519  9.0 L   6.771 -73.114137.4  RSN  5 0.1 1.6LRSN                1
 GAP=224        0.37       4.2     4.8  3.7  0.1547E+02 -0.1932E+01 -0.3830E+01E
 Epicentro: LOS SANTOS - SANTANDER                                             3
 ACTION:UPD 12-07-13 16:00 OP:ep   STATUS:               ID:20110927151909 L   I
 2011-09-27-1515-10S.COL___165                                                 6
 STAT SP IPHASW D HRMM SECON CODA AMPLIT PERI AZIMU VELO AIN AR TRES W  DIS CAZ7
 BAR2 SZ EP       1519 27.50                             171   -0.0710 21.2 201 
 BAR2 SZ ES       1519 41.95                             171   -0.1110 21.2 201 
 BAR2 SZ I        1519 44.34         8.1 0.31                          21.2 201 
 BTL  SZ EP       1519 27.82                             170    0.2010 23.5 314 
 BRR  HZ EP       1519 29.40                             149   -0.1110 75.8 299 
 BRR  HZ I        1519 43.86        17.0 0.43                          75.8 299 
 BRR  HE ES   1   1519 45.63                             149    0.10 7 75.8 299 
 RUS  HZ EP   1   1519 31.64                             143   -0.03 7 97.2 178 
 RUS  HZ I        1519 32.45         2.6 0.23                          97.2 178 
 RUS  HE ES   1   1519 49.47                             143    0.10 7 97.2 178 
 ZAR  HN ES   1   1520  6.61                             120   -0.02 6  208 293 
 ZAR  HZ I        1520  9.85         3.8 0.31                           208 293 
                                                                                
