 2011  227 1347  9.5 L   6.830 -73.081136.7  RSN  4 0.2 1.3LRSN                1
 GAP=165        0.47       4.4    20.5  6.0 -0.5895E+02 -0.4064E+02  0.1475E+01E
 Epicentro: LOS SANTOS - SANTANDER                                             3
 ACTION:UP  11-03-28 15:11 OP:jfem STATUS:               ID:20110227134708 L   I
 2011-02-27-1344-35S.COL___135                                                 6
 STAT SP IPHASW D HRMM SECON CODA AMPLIT PERI AZIMU VELO SNR AR TRES W  DIS CAZ7
 BAR2 SZ EP       1347 28.07                             168    -0.110   29 203 
 BAR2 SZ ES   1   1347 42.82                             168     0.1 7   29 203 
 BAR2 SZ I        1347 44.63         6.3 0.24                            29 203 
 RUS  HZ EP       1347 32.52                             141    -0.110  104 180 
 RUS  HN ES   3   1347 50.80                             141     0.2 2  104 180 
 RUS  HZ I        1347 52.28         2.4 0.29                           104 180 
 GRA  SZ EP       1347 33.71                             136     0.210  121  15 
 GRA  SZ ES   2   1347 51.77                             136    -0.4 5  121  15 
 GRA  SZ I        1347 54.68         3.4 0.21                           121  15 
 OCA  SZ EP   2   1347 36.77                             128    -0.1 5  158 350 
                                                                                
