 2010  827 1906 16.3 L   6.801 -73.086152.0  RSN 11 0.5 2.4LRSN                1
 GAP=171        0.92       3.5     7.3  6.7  0.9307E-01 -0.2211E+01  0.1504E+00E
 Epicentro: LOS SANTOS - SANTANDER                                             3
 ACTION:UP  10-09-07 10:58 OP:vdl  STATUS:               ID:20100827190616 L   I
 2010-08-27-1901-01S.COL___119                                                 6
 STAT SP IPHASW D HRMM SECON CODA AMPLIT PERI AZIMU VELO SNR AR TRES W  DIS CAZ7
 BAR2 SZ EP       19 6 36.56                             170    -0.110   26 205 
 BAR2 SZ ES   2   19 6 52.58                                     0.0 5   26 205 
 BAR2 SZ I        19 6 53.48        34.4 0.43                            26 205 
 GIR2 SZ EP   1   19 6 36.98                             167     0.3 7   33 339 
 BRR  HZ EP       19 6 38.44                             152     0.010   77 296 
 BRR  HZ I        19 6 38.76        98.0 0.21                            77 296 
 BRR  HN ES       19 6 55.79                             152     0.110   77 296 
 RUS  HZ EP       19 6 40.44                             145    -0.210  101 180 
 RUS  HN ES       19 6 59.65                             145     0.010  101 180 
 RUS  HZ I        19 7  0.21        18.2 0.34                           101 180 
 GUE  SZ EP       19 6 41.66                             141     0.210  115   9 
 OCA  SZ EP       19 6 44.66                             131    -0.5 9  161 351 
 OCA  SZ ES   1   19 7  7.98                             131     0.3 7  161 351 
 OCA  SZ I        19 7 11.88        41.0 0.14                           161 351 
 CHI  HZ EP       19 6 54.58                             118     0.1 8  251 197 
 CHI  HZ I        19 6 56.06        10.6 0.49                           251 197 
 CHI  HN ES   1   19 7 24.32                             118     0.0 6  251 197 
 HEL  HN ES   2   19 7 27.96                             115    -1.7 4  278 256 
 HEL  HZ I        19 7 34.95        16.3 0.42                           278 256 
 RREF HN ES   2   19 7 41.63                             112     1.7 3  327 230 
 RREF HZ I        19 7 48.26        15.7 0.94                           327 230 
 DBB  SZ EP   1   19 7  4.85                             110     0.1 5  346 274 
 PRA  HZ EP   1   19 7 10.98                             107     0.6 4  395 210 
 PRA  HZ I        19 7 11.81         6.8 0.11                           395 210 
                                                                                
