 2017  127 1318 53.8 L   6.760 -72.901101.3  RSN  4 0.2 0.9LRSN                1
 GAP=173        0.60       2.8     4.1  7.6 -0.2211E+01 -0.5070E+01 -0.1872E+01E
 Epicentro: SAN ANDRES - SANTANDER                                             3
 ACTION:UPD 17-05-22 16:04 OP:jn   STATUS:               ID:20170127131853 L   I
 OLDACT:UP  17-01-27 23:17 OP:dnl  STATUS:               ID:20170127130748     3
 OLDACT:REG 17-01-27 21:28 OP:dnl  STATUS:               ID:20170127130748     3
 2017-01-27-1308-00M.COL___346                                                 6
 STAT SP IPHASW D HRMM SECON CODA AMPLIT PERI AZIMU VELO AIN AR TRES W  DIS CAZ7
 BAR2 EZ EP   2   1319  8.29                             159   -0.26 5 36.2 239 
 BAR2 EZ ES       1319 20.36                             159    0.2810 36.2 239 
 BAR2 EZ I        1319 26.60         2.7 0.40            159           36.2 239 
 PAM  EZ EP       1319 11.05                             144    0.2810 67.9  19 
 PAM  EN ES       1319 23.81                             144   -0.2310 67.9  19 
 PAM  EZ I        1319 24.02         1.8 0.18            153           67.9  19 
 BRR  HN ES       1319 27.06                             132   -0.1010 97.6 293 
 RUS  HZ EP   4   1319 11.84                             132   -1.39 0 98.0 192 
 RUS  HN ES       1319 28.26                             132   -0.1610 98.0 192 
 RUS  HZ I        1319 31.98         2.1 0.34            136           98.0 192 
                                                                                
