 2011  327 1237 51.1 L   6.693 -73.102135.4  RSN  4 0.1 1.7LRSN                1
 GAP=205        0.35       3.1     4.1  3.8 -0.6961E+01 -0.2785E+01  0.6272E+00E
 Epicentro: JORDAN - SANTANDER                                                 3
 ACTION:UP  11-06-16 14:36 OP:jfem STATUS:               ID:20110327123751 L   I
 2011-03-27-1234-43S.COL___138                                                 6
 STAT SP IPHASW D HRMM SECON CODA AMPLIT PERI AZIMU VELO SNR AR TRES W  DIS CAZ7
 BAR2 SZ EP       1238  9.24                             174    -0.110   14 219 
 BAR2 SZ ES   1   1238 23.55                             174     0.0 7   14 219 
 BAR2 SZ I        1238 25.10        11.8 0.05                            14 219 
 BRR  HE ES   1   1238 27.82                             147    -0.1 7   82 304 
 BRR  HZ I        1238 29.30        13.0 0.20                            82 304 
 GRA  SZ EP       1238 16.35                             132     0.1 9  136  14 
 GRA  SZ ES   1   1238 36.01                             132     0.0 7  136  14 
 GRA  SZ I        1238 38.76         4.8 0.51                           136  14 
 NOR  SZ EP   2   1238 25.70                             116    -0.2 4  232 238 
 NOR  SN ES   2   1238 53.49                             116     0.3 4  232 238 
                                                                                
