 2010  827 1344 23.0 L   6.784 -73.105148.7  RSN 22 0.5 3.9LRSN                1
 GAP=124        1.33       4.0     6.9  6.4 -0.1095E+02  0.9840E+01  0.4976E+01E
 Epicentro: LOS SANTOS - SANTANDER                                             3
 ACTION:UP  10-09-07 10:58 OP:vdl  STATUS:               ID:20100827134423 L   I
 2010-08-27-1340-12S.COL___119                                                 6
 STAT SP IPHASW D HRMM SECON CODA AMPLIT PERI AZIMU VELO SNR AR TRES W  DIS CAZ7
 BAR2 SZ IP       1344 42.98                             171     0.010   23 202 
 BTL  SZ IP       1344 43.14                             171     0.110   23 310 
 BAR2 SZ ES   1   1344 58.44                             171    -0.1 7   23 202 
 BAR2 SZ I        1344 59.77       962.5 0.52                            23 202 
 GIR2 SZ EP       1344 43.04                             166    -0.110   34 343 
 GIR2 SZ ES   1   1344 58.31                             166    -0.5 7   34 343 
 BRR  HZ EP       1344 44.89                             151     0.110   76 298 
 BRR  HN ES   1   1345  2.20                                     0.5 7   76 298 
 BRR  HZ I        1345  4.13       749.3 0.33                            76 298 
 BTN  SZ IP       1344 46.21                             148     0.610   82   0 
 BTN  SZ ES   1   1345  3.22                             148     0.1 7   82   0 
 BTN  SZ I        1345  6.76      3527.9 0.51                            82   0 
 RUS  HZ IP     D 1344 46.80                             144    -0.110   99 179 
 RUS  HN ES       1345  5.03                             144    -0.510   99 179 
 RUS  HZ I        1345  7.00       393.5 0.18                            99 179 
 GUE  SZ EP       1344 47.99                             138    -0.110  117  10 
 GRA  SZ IP       1344 49.77                             136     1.210  126  15 
 GRA  SZ ES   1   1345  8.57                             136     0.1 7  126  15 
 GRA  SZ I        1345 10.53       707.0 0.15                           126  15 
 OCA  SZ EP       1344 51.33                             128    -0.5 9  163 352 
 OCA  SZ ES   1   1345 13.45                             128    -0.8 7  163 352 
 OCA  SZ I        1345 19.55       587.8 0.09                           163 352 
 CHI  HZ EP   1   1345  0.82                             116     0.0 6  248 196 
 CHI  HN ES   1   1345 30.65                             116     0.3 6  248 196 
 CHI  HZ I        1345 36.45       259.3 0.03                           248 196 
 ROSC BZ EP       1345  2.44                             116     1.0 8  254 212 
 ROSC BZ I        1345 37.60       404.1 0.70                           254 212 
 CVER SZ EP       1345  4.21                             114     0.7 8  272 203 
 CVER SZ I        1345  6.02       470.8 0.55                           272 203 
 HEL  HZ EP       1345  2.89                             114    -0.9 7  276 256 
 HEL  HN ES   1   1345 35.43                             114    -0.2 6  276 256 
 HEL  HZ I        1345 41.97       235.4 0.29                           276 256 
 GUY  SZ EP       1345  7.36                             111     0.3 7  304 236 
 GUY  SZ I        1345 50.50      1053.7 0.50                           304 236 
 RREF HZ EP       1345  8.82                             110    -0.7 7  324 230 
 RREF HN ES   1   1345 46.43                             110     0.6 5  324 230 
 RREF HZ I        1345 54.70       423.8 0.38                           324 230 
 DBB  SZ EP       1345 10.67                             109    -0.5 7  344 274 
 TOL  SZ EP       1345 11.71                             109     0.1 6  345 225 
 SDV  BZ EP       1345 12.09                             108    -0.8 6  358  49 
 ANIL HZ EP       1345 13.48                             108     0.3 6  359 225 
 ANIL HN ES   2   1345 51.86                             108    -0.4 3  359 225 
 ANIL HZ I        1345 59.68       680.7 0.14                           359 225 
 PRA  HZ EP       1345 15.91                             106    -0.8 6  393 210 
 PRA  HE ES       1345 59.08                             106     0.5 6  393 210 
 PRA  HZ I        1346  4.85       376.9 0.50                           393 210 
 GUA  SZ EP       1345 24.99                             103    -1.0 5  472 174 
 HORQ SZ EP   1   1345 33.17                             101    -0.6 3  534 227 
                                                                                
