 2012  127 1730 38.7 L   6.733 -73.115145.4  RSN  6 0.3 1.4LRSN                1
 GAP=143        0.77       6.8     7.0  7.8 -0.9106E+01  0.1333E+02  0.1198E+02E
 Epicentro: JORDAN - SANTANDER                                                 3
 ACTION:UP  12-02-03 08:21 OP:REBC STATUS:               ID:20120127173038 L   I
 2012-01-27-1730-00M.COL___188                                                 6
 STAT SP IPHASW D HRMM SECON CODA AMPLIT PERI AZIMU VELO SNR AR TRES W  DIS CAZ7
 BAR2 SZ EP       1730 58.31                             173     0.110   17 206 
 BAR2 SZ ES   1   1731 13.25                             173    -0.1 7   17 206 
 BAR2 SZ I        1731 15.45         8.0 0.50                            17 206 
 GIR2 SZ EP   3   1730 58.42                             164    -0.2 2   39 347 
 GIR2 SZ ES   3   1731 14.04                             164     0.0 2   39 347 
 BRR  HZ EP       1731  0.52                             150     0.310   78 302 
 BRR  HN ES   2   1731 17.47                             150     0.5 5   78 302 
 PAM  SZ EP       1731  1.23                             149     0.110   81  34 
 PAM  SN ES   1   1731 18.14                             149    -0.5 7   81  34 
 RUS  HZ EP       1731  2.01                             146     0.110   93 178 
 RUS  HZ I        1731 22.11         2.6 0.74                            93 178 
 PTB  HZ EP       1731  5.28                             131    -0.5 9  150 262 
 PTB  HZ I        1731 30.24         2.8 0.10                           150 262 
                                                                                
