 2014  627 1703 20.9 L   6.784 -73.167139.2  RSN  7 0.3 1.8LRSN                1
 GAP=135        0.85       3.8     3.7  6.4 -0.3239E+01  0.9556E+01 -0.5353E+00E
 Epicentro: LOS SANTOS - SANTANDER                                             3
 ACTION:UPD 14-07-01 22:57 OP:nd   STATUS:               ID:20140627170320 L   I
 OLDACT:REG 14-06-27 22:42 OP:carl STATUS:               ID:20140627165813     3
 2014-06-27-1658-13M.COL___256                                                 6
 STAT SP IPHASW D HRMM SECON CODA AMPLIT PERI AZIMU VELO AIN AR TRES W  DIS CAZ7
 BAR2 SZ EP       17 3 39.67                             171   -0.0510 21.3 184 
 BAR2 SZ ES       17 3 54.92                             171    0.5310 21.3 184 
 BAR2 SZ I        17 3 55.64        13.0 0.16            169           21.3 184 
 PAM  SZ EP       17 3 42.57                             149   -0.0510 80.2  40 
 PAM  SN ES       17 3 59.36                             149   -0.1910 80.2  40 
 PAM  SZ I        17 4  1.75        21.0 0.60            152           80.2  40 
 RUS  HZ EP       17 3 44.08                             143    0.1610 99.0 175 
 RUS  HN ES       17 4  1.75                             143   -0.1110 99.0 175 
 RUS  HZ I        17 4  3.31         8.6 0.24            143           99.0 175 
 PTB  HZ EP       17 3 46.72                             131   -0.39 9  145 259 
 PTB  HN ES       17 4  7.00                             131   -0.54 9  145 259 
 PTB  HZ I        17 4  9.50         8.2 0.14            132            145 259 
 SPBC HN ES       17 4  9.98                             128   -0.30 9  160 219 
 SPBC HZ I        17 4 17.89         6.7 0.52            129            160 219 
 ZAR  HN ES       17 4 18.07                             121    0.43 9  203 293 
 GUY2CHZ EP       17 4  4.34                             111    0.44 7  298 235 
 GUY2CHN ES       17 4 37.86                             111    0.44 7  298 235 
 GUY2CHZ I        17 4 46.96         2.6 0.40                           298 235 
                                                                                
