 2016 1127 1012 39.0 L   5.917 -73.606130.0  RSN  7 0.5 1.5LRSN                1
 GAP=154        1.18       3.5     6.0 10.0 -0.1750E+01  0.1218E+02  0.7424E+01E
 Epicentro: BARBOSA - SANTANDER                                                3
 ACTION:UPD 17-10-26 21:12 OP:lp   STATUS:               ID:20161127101239 L   I
 OLDACT:UP  16-11-27 23:13 OP:ar   STATUS:               ID:20161127100744     3
 OLDACT:UP  16-11-27 23:10 OP:ar   STATUS:               ID:20161127100744     3
 OLDACT:REG 16-11-27 19:18 OP:ar   STATUS:               ID:20161127100744     3
 2016-11-27-1008-00M.COL___343                                                 6
 STAT SP IPHASW D HRMM SECON CODA AMPLIT PERI AZIMU VELO AIN AR TRES W  DIS CAZ7
 BAR2 EZ ES       1013 16.84                             144    0.5210 88.1  32 
 BAR2 EZ I        1013 17.52        17.0 0.40            147           88.1  32 
 PTB  HZ EP       1013  1.68                             136   -0.2510  117 306 
 PTB  HE ES       1013 19.59                             136   -0.1910  117 306 
 PTB  HZ I        1013 20.74         3.1 0.14            138            117 306 
 BRR  HZ EP       1013  3.82                             132    0.5410  132 355 
 BRR  HE ES       1013 21.72                             132   -0.4610  132 355 
 BRR  HZ I        1013 25.30         4.3 0.14            135            132 355 
 CHI  HZ EP       1013  4.58                             130   -0.28 9  143 186 
 CHI  HN ES       1013 24.49                             130   -0.51 9  143 186 
 CHI  HZ I        1013 27.78         3.2 0.34            131            143 186 
 NOR  HZ EP       1013  4.78                             129    0.19 9  145 254 
 NOR  HN ES       1013 25.47                             129    0.96 9  145 254 
 NOR  HZ I        1013 27.08         5.6 0.20            130            145 254 
 ZAR  HZ EP       1013 12.55                             117    0.04 8  223 322 
 ZAR  HN ES       1013 37.88                             117   -0.73 8  223 322 
 ZAR  HZ I        1013 39.56         2.3 0.36            119            223 322 
 PRA  HZ EP   2   1013 20.12                             111    0.90 4  282 210 
 PRA  HN ES       1013 50.30                             111   -0.26 7  282 210 
 PRA  HZ I        1013 56.22         2.6 0.26            112            282 210 
                                                                                
