 2017 1027 1453 11.8 L   6.766 -73.129137.7  RSN  7 0.4 1.5LRSN                1
 GAP=140        1.00       4.3     4.1  6.5 -0.8369E+00  0.8613E+01  0.1371E+01E
 Epicentro: LOS SANTOS - SANTANDER                                             3
 ACTION:UPD 17-11-07 19:37 OP:rebc STATUS:               ID:20171027145311 L   I
 OLDACT:REG 17-10-27 19:59 OP:dhb  STATUS:               ID:20171027144739     3
 2017-10-27-1448-00M.COL___450                                                 6
 STAT SP IPHASW D HRMM SECON CODA AMPLIT PERI AZIMU VELO AIN AR TRES W  DIS CAZ7
 BAR2 EZ IP     C 1453 30.16                             171   -0.2510 20.1 197 
 BAR2 EZ ES       1453 45.00                             171    0.0810 20.1 197 
 BAR2 EZ I        1453 45.94        10.5 0.34            172           20.1 197 
 BRR  HZ EP       1453 32.08                             150   -0.2210 74.6 300 
 BRR  HN ES       1453 48.90                             150    0.6110 74.6 300 
 BRR  HZ I        1453 52.87        13.9 0.40            148           74.6 300 
 PAM  EZ IP     D 1453 33.17                             149   -0.1210 79.2  37 
 PAM  EZ ES       1453 49.70                             149   -0.3510 79.2  37 
 PAM  EZ I        1453 52.68         3.8 0.40            151           79.2  37 
 RUS  HZ EP       1453 34.79                             143    0.3010 96.7 177 
 RUS  HN ES       1453 52.39                             143    0.2010 96.7 177 
 RUS  HZ I        1453 53.81         5.4 0.34            147           96.7 177 
 PTB  HZ IP   2 D 1453 37.06                             130   -1.18 5  149 260 
 PTB  HE ES       1453 58.12                             130   -0.74 9  149 260 
 PTB  HZ I        1454  0.14         2.4 0.12            130            149 260 
 ZAR  HZ EP       1453 44.72                             120    0.65 8  207 293 
 ZAR  HE ES       1454  9.44                             120    0.20 8  207 293 
 ZAR  HZ I        1454 16.07         5.5 0.28            121            207 293 
 NOR  HZ EP       1453 47.23                             117    0.22 8  234 235 
 NOR  HE ES       1454 14.32                             117   -0.15 8  234 235 
 NOR  HZ I        1454 18.34         1.3 0.16            118            234 235 
                                                                                
