 2012  227 1409 24.8 L   6.759 -73.101141.8  RSN  5 0.1 1.7LRSN                1
 GAP=144        0.42       2.9     4.9  4.1  0.7139E+01 -0.9552E+01 -0.4679E+01E
 ACTION:UP  12-03-07 16:34 OP:epov STATUS:               ID:20120227140924 L   I
 2012-02-27-1405-38S.COL___174                                                 6
 STAT SP IPHASW D HRMM SECON CODA AMPLIT PERI AZIMU VELO AIN AR TRES W  DIS CAZ7
 BAR2 SZ EP       14 9 43.87                             171   -0.0610 20.5 206 
 BAR2 SZ ES       14 9 58.67                             171   -0.1610 20.5 206 
 BAR2 SZ I        1410  0.22        16.9 0.28                          20.5 206 
 GIR2 SZ EP   1   14 9 44.10                             165   -0.11 7 36.9 344 
 BRR  HZ EP       14 9 45.77                             150   -0.1810 77.7 300 
 BRR  HN ES       1410  2.60                             150    0.1810 77.7 300 
 BRR  HZ I        1410  6.88        13.2 0.19                          77.7 300 
 PAM  SZ EP       14 9 46.80                             150    0.1310 78.1  35 
 RUS  HZ EP       14 9 47.94                             144    0.0910 95.8 179 
 RUS  HE ES       1410  5.87                             144    0.0710 95.8 179 
 RUS  HZ I        1410  7.94         5.1 0.51                          95.8 179 
                                                                                
