 2013  727 1506 56.7 L   6.799 -73.131145.0  RSN 15 0.5 2.7LRSN                1
 GAP= 72        0.91       2.7     3.1  5.2 -0.1804E+00  0.3051E+01  0.5970E+00E
 Epicentro: LOS SANTOS - SANTANDER                                             3
 ACTION:UPD 13-08-12 10:40 OP:ep   STATUS:               ID:20130727150656 L   I
 OLDACT:DUP 13-07-27 17:50 OP:mh   STATUS:               ID:20130727145960d    3
 2013-07-27-1459-59M.COL___266                                                 6
 STAT SP IPHASW D HRMM SECON CODA AMPLIT PERI AZIMU VELO AIN AR TRES W  DIS CAZ7
 BAR2 SZ IP     C 15 7 16.31                             170    0.1110 23.5 194 
 BAR2 SZ ES   1   15 7 31.52                             170    0.07 7 23.5 194 
 BAR2 SZ I        15 7 32.98        50.1 0.24            168           23.5 194 
 GIR2 SZ EP   1   15 7 16.44                             167    0.18 7 31.7 347 
 GIR2 SZ ES   1   15 7 31.27                             167   -0.27 7 31.7 347 
 GIR2 SZ I        15 7 33.13        30.5 0.40            166           31.7 347 
 BRR  HZ EP   1   15 7 18.15                             152    0.34 7 72.7 298 
 BRR  HN ES   1   15 7 35.24                             152    0.93 7 72.7 298 
 BRR  HN I        15 7 39.79       102.5 0.20            150           72.7 298 
 PAM  SZ EP       15 7 19.18                             151    0.4410 76.4  39 
 PAM  SN ES   1   15 7 36.08                             151    0.12 7 76.4  39 
 PAM  SN I        15 7 36.82        67.4 0.44            155           76.4  39 
 RUS  HZ EP       15 7 20.18                             144   -0.1410  100 177 
 RUS  HN ES       15 7 38.97                             144    0.1910  100 177 
 RUS  HN I        15 7 39.46        43.5 0.32            145            100 177 
 PTB  HZ EP   1   15 7 23.04                             132   -0.67 7  149 259 
 PTB  HN ES       15 7 44.31                             132   -0.50 9  149 259 
 PTB  HN I        15 7 49.36        55.4 0.24            131            149 259 
 TAM  HZ EP   1   15 7 24.47                             131    0.34 7  153 105 
 TAM  HN ES   1   15 7 45.02                             131   -0.53 7  153 105 
 TAM  HN I        15 7 46.92        65.2 0.32            135            153 105 
 OCA  HZ EP   1   15 7 25.09                             129    0.15 7  161 353 
 OCA  HE ES   1   15 7 46.46                             129   -0.54 7  161 353 
 OCA  HE I        15 7 50.40       123.1 0.16            131            161 353 
 SPBC HZ EP   1   15 7 25.31                             129    0.12 7  164 219 
 SPBC HN ES   1   15 7 47.24                             129   -0.20 7  164 219 
 SPBC HN I        15 7 53.51       113.3 0.36            129            164 219 
 ZAR  HZ EP   1   15 7 28.92                             122   -0.30 6  206 292 
 ZAR  HE ES       15 7 54.69                             122    0.08 8  206 292 
 ZAR  HE I        15 8  0.11       109.1 0.34            122            206 292 
 NOR  HZ EP   1   15 7 32.34                             118   -0.14 6  236 235 
 NOR  HN ES   1   15 8  0.70                             118    0.28 6  236 235 
 NOR  HN I        15 8  6.57        55.6 0.20            119            236 235 
 SML  HZ EP   1   15 7 33.12                             117   -0.21 6  245 335 
 SML  HN ES   1   15 8  0.94                             117   -0.99 6  245 335 
 SML  HN I        15 8  4.72        79.8 0.30            118            245 335 
 CHI  HZ EP   1   15 7 34.34                             117   -0.01 6  249 196 
 CHI  HN ES       15 8  3.12                             117   -0.63 8  249 196 
 CHI  HN I        15 8  7.54        28.1 0.26            118            249 196 
 HEL  HZ EP   1   15 7 38.41                             114    1.40 6  274 256 
 HEL  HN ES   1   15 8  8.80                             114    0.32 6  274 256 
 HEL  HN I        15 8 17.40        16.6 0.26            115            274 256 
 GUY2CHE ES   4   15 8 16.64                             112    2.16 0  302 235 
 GUY2CHE I        15 8 22.47        35.2 0.64                           302 235 
 SJC  HZ EP   4   15 7 50.23                             106   -2.08 0  410 327 
 SJC  HN ES   4   15 8 30.32                             106   -5.41 0  410 327 
                                                                                
