 2011  727 1323 49.7 L   6.780 -73.132141.0  RSN  5 0.2 1.9LRSN                1
 GAP=157        0.41       2.0     4.0  3.7 -0.6428E+00 -0.2398E+01  0.1761E+01E
 Epicentro: LOS SANTOS - SANTANDER                                             3
 ACTION:UPD 12-07-25 14:03 OP:epov STATUS:               ID:20110727132349 L   I
 2011-07-27-1322-56S.COL___141                                                 6
 STAT SP IPHASW D HRMM SECON CODA AMPLIT PERI AZIMU VELO AIN AR TRES W  DIS CAZ7
 BAR2 SZ IP       1324  8.79                             171    0.0610 21.5 195 
 BAR2 SZ ES   1   1324 23.33                             171   -0.24 7 21.5 195 
 BAR2 SZ I        1324 25.46        22.2 0.21                          21.5 195 
 BRR  HZ EP       1324 10.71                             151    0.2210 73.5 299 
 BRR  HN ES       1324 26.60                             151   -0.0910 73.5 299 
 BRR  HZ I        1324 32.62        17.0 0.13                          73.5 299 
 RUS  HZ EP   1   1324 12.74                             143   -0.09 7 98.3 177 
 RUS  HN ES   1   1324 31.11                             143    0.25 7 98.3 177 
 RUS  HZ I        1324 32.64         7.0 0.31                          98.3 177 
 BRI  SZ EP   1   1324 13.20                             140   -0.08 7  110  20 
 BRI  SZ ES   1   1324 31.65                             140    0.00 7  110  20 
 BRI  SZ I        1324 33.90        17.4 0.24                           110  20 
 CHI  HZ EP   1   1324 26.66                             116   -0.30 6  247 196 
 CHI  HN ES   1   1324 56.03                             116    0.02 6  247 196 
 CHI  HZ I        1325  2.00         4.5 0.31                           247 196 
                                                                                
