 2010  927 1043 59.6 L   6.780 -73.116138.1  RSN  8 0.4 2.1LRSN                1
 GAP=168        0.71       4.0     6.8  7.0 -0.6647E+01  0.1219E+02 -0.2447E+01E
 Epicentro: LOS SANTOS - SANTANDER                                             3
 ACTION:UP  11-02-18 11:05 OP:tino STATUS:               ID:20100927104359 L   I
 2010-09-27-1041-31S.COL___122                                                 6
 STAT SP IPHASW D HRMM SECON CODA AMPLIT PERI AZIMU VELO SNR AR TRES W  DIS CAZ7
 BAR2 SZ EP   2   1044 17.97                             170    -0.3 5   22 200 
 BAR2 SZ ES   1   1044 33.13                             170     0.2 7   22 200 
 BAR2 SZ I        1044 35.60        35.0 0.13                            22 200 
 BRR  HZ EP   2   1044 20.30                             150     0.1 5   75 299 
 BRR  HE ES   2   1044 36.10                             150    -0.1 5   75 299 
 BRR  HZ I        1044 38.70        32.3 0.13                            75 299 
 RUS  HZ EP   1   1044 22.07                             143    -0.4 7   98 178 
 RUS  HE ES   2   1044 40.53                             143     0.3 5   98 178 
 RUS  HZ I        1044 42.37        18.4 0.27                            98 178 
 GUE  SZ EP   2   1044 23.97                             137     0.2 5  118  10 
 OCA  SZ EP   1   1044 27.23                             128    -0.4 7  163 352 
 OCA  SZ ES   1   1044 49.69                             128     0.3 7  163 352 
 OCA  SZ I        1044 55.98        13.7 0.42                           163 352 
 NOR  SN ES   2   1045  1.95                             117    -0.8 4  236 235 
 HEL  HZ EP   3   1044 40.04                             113     0.3 2  275 256 
 HEL  HE ES   2   1045 10.68                             113    -0.4 4  275 256 
 HEL  HZ I        1045 17.24         5.6 0.42                           275 256 
 RREF HZ EP   1   1044 46.28                             109     0.7 5  323 230 
 RREF HE ES   2   1045 22.29                             109     0.9 3  323 230 
 RREF HZ I        1045 31.63         7.7 0.26                           323 230 
                                                                                
