 2013  827 1848 17.1 L   5.909 -73.776106.7  RSN  6 0.2 1.6LRSN                1
 GAP=111        0.58       2.1     2.4  5.1 -0.1796E+01  0.6512E+00 -0.2501E+01E
 Epicentro: JESUS MARIA - SANTANDER                                            3
 ACTION:UPD 14-01-14 09:07 OP:ep   STATUS:               ID:20130827184817 L   I
 OLDACT:UP  13-09-05 16:28 OP:ep   STATUS:               ID:20130827184817 L   3
 OLDACT:REG 13-08-27 15:56 OP:nd   STATUS:               ID:20130827183959     3
 2013-08-27-1839-59M.COL___269                                                 6
 STAT SP IPHASW D HRMM SECON CODA AMPLIT PERI AZIMU VELO AIN AR TRES W  DIS CAZ7
 SPBC HZ EP       1848 32.31                             156   -0.3310 43.4 229 
 SPBC HZ I        1848 32.87         9.2 0.18            156           43.4 229 
 SPBC HN ES       1848 44.75                             156    0.0110 43.4 229 
 RUS  HZ EP       1848 35.03                             142   -0.3010 76.8  91 
 RUS  HZ I        1848 35.55         3.3 0.28            144           76.8  91 
 RUS  HN ES       1848 49.41                             142   -0.1110 76.8  91 
 BAR2 SZ EP       1848 37.08                             133    0.1810  100  41 
 BAR2 SZ ES       1848 52.59                             133    0.2710  100  41 
 BAR2 SZ I        1848 53.77        14.8 0.46            135            100  41 
 NOR  HN ES       1848 56.45                             126    0.0910  127 253 
 NOR  HN I        1848 58.62        12.7 0.14            126            127 253 
 BRR  HZ EP       1848 39.79                             124    0.1210  133   3 
 BRR  HE ES       1848 57.12                             124   -0.1410  133   3 
 CHI  HE ES       1849  0.07                             123    0.24 9  142 178 
                                                                                
