 2010  427 1132 59.6 L   6.800 -73.042152.8  RSN 11 0.5 3.4LRSN                1
 GAP=186        0.94       4.5     9.0  7.4 -0.1368E+02  0.9630E+01  0.7807E+01E
 Epicentro: LOS SANTOS - SANTANDER                                             3
 ACTION:UPD 10-08-24 10:01 OP:vdl  STATUS:               ID:20100427113308 L   I
 2010-04-27-1128-53S.COL___104                                                 6
 STAT SP IPHASW D HRMM SECON CODA AMPLIT PERI AZIMU VELO AIN AR TRES W  DIS CAZ7
 BAR2 SZ IP       1133 20.32                             169     0.110   28 214 
 BAR2 SZ ES   1   1133 35.64                             169    -0.6 7   28 214 
 BRR  HZ IP     C 1133 22.77                             150     0.610   82 295 
 BRR  HE ES   1   1133 39.96                             150     0.3 7   82 295 
 BRR  HZ I        1133 43.67       323.1 0.50                            82 295 
 OCA  SZ IP       1133 28.69                             130     0.0 9  162 349 
 OCA  SZ ES   1   1133 50.81                             130    -0.5 7  162 349 
 OCA  SZ I        1133 55.82       400.5 0.39                           162 349 
 CHI  HZ EP   1   1133 38.47                             118     0.4 6  252 198 
 CHI  HN ES   1   1134  7.52                             118    -0.5 6  252 198 
 CHI  HZ I        1134 11.26        81.4 0.54                           252 198 
 HEL  HZ EP   2   1133 40.98                             115    -0.5 4  283 256 
 HEL  HN ES   2   1134 13.94                             115    -0.1 4  283 256 
 HEL  HZ I        1134 18.37        60.0 0.40                           283 256 
 RREF BZ EP   1   1133 46.55                             111    -0.5 5  331 231 
 RREF BE ES   1   1134 23.58                             111    -0.5 5  331 231 
 RREF BZ I        1134 32.88       139.0 0.30                           331 231 
 DBB  SZ EP   1   1133 48.04                             110    -0.7 5  351 274 
 TOL  SZ EP   1   1133 49.68                             110     0.6 5  352 226 
 ANIL BZ EP   1   1133 51.50                             109     0.8 5  365 226 
 ANIL BE ES   2   1134 30.68                             109     0.2 3  365 226 
 ANIL BZ I        1134 34.16       195.2 0.42                           365 226 
 PRA  HZ EP   1   1133 53.77                             107    -0.3 4  398 211 
 PRA  HE ES   1   1134 36.50                             107     0.0 4  398 211 
 PRA  HZ I        1134 42.05       110.6 0.28                           398 211 
 URI  HZ EP   2   1134 10.55                             101    -2.0 2  554  12 
 URI  HZ I        1134 11.24        13.7 0.40                           554  12 
                                                                                
