 2012 1227 1706 56.9 L   6.769 -73.132148.1  RSN  4 0.3 1.5LRSN                1
 GAP=237        0.66       6.7     6.5  8.3  0.2013E+02 -0.4805E+01 -0.6833E+01E
 Epicentro: LOS SANTOS - SANTANDER                                             3
 ACTION:UPD 13-01-04 14:30 OP:ep   STATUS:               ID:20121227170656 L   I
 2012-12-27-1700-00M.COL___243                                                 6
 STAT SP IPHASW D HRMM SECON CODA AMPLIT PERI AZIMU VELO AIN AR TRES W  DIS CAZ7
 BAR2 SZ EP       17 7 16.77                             172    0.0410 20.4 196 
 BAR2 SZ I        17 7 17.25         7.1 0.34                          20.4 196 
 BRR  HZ EP       17 7 18.50                             152    0.0610 74.2 300 
 BRR  HZ I        17 7 22.15        10.0 0.25                          74.2 300 
 BRR  HN ES   1   17 7 35.21                             152   -0.06 7 74.2 300 
 RUS  HZ EP   1   17 7 21.10                             145    0.49 7 97.1 177 
 RUS  HE ES   1   17 7 38.82                             145   -0.30 7 97.1 177 
 RUS  HE I        17 7 40.31         3.9 0.16                          97.1 177 
 PTB  HZ EP       17 7 23.71                             132   -0.40 9  149 260 
 PTB  HE ES   1   17 7 45.72                             132    0.37 7  149 260 
 PTB  HZ I        17 7 47.19         2.1 0.10                           149 260 
                                                                                
