 2010  627 1601 47.4 L   6.776 -73.008148.0  RSN  4 0.3 1.5LRSN                1
 GAP=250        0.47       5.8    10.4  8.0  0.2995E+02 -0.1165E+02  0.9643E+01E
 Epicentro: CEPITA - SANTANDER                                                 3
 ACTION:UP  10-08-24 10:13 OP:vdl  STATUS:               ID:20100627160147 L   I
 2010-06-27-1558-19S.COL___118                                                 6
 STAT SP IPHASW D HRMM SECON CODA AMPLIT PERI AZIMU VELO SNR AR TRES W  DIS CAZ7
 BAR2 SZ EP   2   16 2  7.39                             169     0.0 5   28 224 
 BRR  HZ EP   1   16 2  9.93                             148     0.3 7   86 295 
 BRR  HN ES   1   16 2 26.89                             148    -0.2 7   86 295 
 BRR  HZ I        16 2 29.69         5.9 0.38                            86 295 
 RUS  HZ EP   2   16 2 11.06                             145    -0.1 5   98 185 
 RUS  HZ I        16 2 12.27         2.8 0.16                            98 185 
 RUS  HN ES   2   16 2 29.68                             145    -0.1 5   98 185 
 PRA  HZ EP   2   16 2 40.91                             106    -0.7 3  397 212 
 PRA  HZ I        16 2 50.82         1.7 0.48                           397 212 
 PRA  HE ES   2   16 3 24.36                             106     0.4 3  397 212 
                                                                                
