 2013 1027 1716 58.2 L   6.811 -73.164141.0  RSN 17 0.5 2.3LRSN                1
 GAP=134        1.18       3.1     4.2  5.9 -0.2827E+01  0.6342E+01 -0.7120E+00E
 Epicentro: LOS SANTOS - SANTANDER                                             3
 ACTION:UPD 13-11-25 09:24 OP:ep   STATUS:               ID:20131027171658 L   I
 OLDACT:DUP 13-10-27 19:02 OP:nd   STATUS:               ID:20131027170840d    3
 2013-10-27-1708-39M.COL___227                                                 6
 STAT SP IPHASW D HRMM SECON CODA AMPLIT PERI AZIMU VELO AIN AR TRES W  DIS CAZ7
 BAR2 SZ IP     C 1717 17.47                             170    0.2210 24.2 185 
 BAR2 SZ ES       1717 32.13                             170    0.0010 24.2 185 
 BAR2 SZ I        1717 34.20        48.3 0.22            167           24.2 185 
 BRR  HZ EP       1717 19.33                             152    0.6610 68.9 298 
 BRR  HN ES       1717 34.75                             152    0.0810 68.9 298 
 BRR  HZ I        1717 39.77        37.1 0.30            152           68.9 298 
 PAM  SZ EP       1717 20.23                             150    0.3310 77.8  41 
 PAM  SN ES       1717 37.14                             150    0.2810 77.8  41 
 PAM  SZ I        1717 39.63        69.5 0.56            147           77.8  41 
 RUS  HZ EP       1717 21.31                             142   -0.2410  102 175 
 RUS  HN ES       1717 39.73                             142   -0.0610  102 175 
 RUS  HZ I        1717 41.80        19.1 0.20            138            102 175 
 PTB  HZ EP       1717 24.36                             131   -0.23 9  146 258 
 PTB  HN ES       1717 44.81                             131   -0.40 9  146 258 
 PTB  HZ I        1717 48.76        17.6 0.30            129            146 258 
 OCA  HZ EP       1717 25.93                             129   -0.05 9  159 354 
 OCA  HN ES       1717 46.91                             129   -0.76 9  159 354 
 OCA  HZ I        1717 52.40        32.9 0.28            126            159 354 
 SPBC HZ EP       1717 26.37                             128    0.10 9  163 218 
 SPBC HN ES       1717 48.08                             128   -0.12 9  163 218 
 SPBC HZ I        1717 51.24        46.7 0.40            124            163 218 
 ZAR  HZ EP       1717 30.12                             122    0.05 9  202 292 
 ZAR  HN ES       1717 55.50                             122    0.55 9  202 292 
 NOR  HZ EP       1717 33.57                             118    0.04 8  234 234 
 NOR  HN ES       1718  0.40                             118   -0.70 8  234 234 
 NOR  HZ I        1718  8.26        15.9 0.32            115            234 234 
 CHI  HZ EP       1717 35.61                             116   -0.07 8  249 195 
 CHI  HN ES       1718  4.60                             116   -0.33 8  249 195 
 CHI  HZ I        1718  8.65         8.5 0.56            113            249 195 
 ROSC BZ EP   4   1717 38.34                             116    2.31 0  253 211 
 ROSC BN ES   4   1718  7.02                             116    1.46 0  253 211 
 HEL  HZ EP       1717 39.64                             114    1.68 8  270 255 
 HEL  HN ES       1718  8.84                             114   -0.16 8  270 255 
 HEL  HZ I        1718 16.17         8.6 0.40            111            270 255 
 GUY2CHZ EP   4   1717 42.25                             111    0.80 0  300 234 
 GUY2CHN ES   4   1718 17.73                             111    2.51 0  300 234 
 GUY2CHZ I        1718 25.49        13.8 0.40                           300 234 
 PTGC HZ EP   4   1717 40.30                             110   -1.72 0  311 158 
 PTGC HZ I        1718  7.06        21.4 0.38            107            311 158 
 PTGC HN ES   4   1718 12.41                             110   -3.82 0  311 158 
 COD  HZ EP       1717 44.87                             108   -1.33 6  347 355 
 COD  HN ES       1718 23.45                             108   -0.22 6  347 355 
 COD  HZ I        1718 31.46         6.4 0.60            106            347 355 
 PRA  HZ EP   4   1717 51.28                             106   -0.25 0  392 209 
 PRA  HN ES   4   1718 32.25                             106   -0.91 0  392 209 
 PRA  HZ I        1718 38.77         7.0 0.26            103            392 209 
 ORTC HZ EP   4   1717 51.66                             105   -0.24 0  395 216 
 ORTC HN ES   4   1718 35.47                             105    1.65 0  395 216 
 ORTC HZ I        1718 42.18         6.3 0.24            103            395 216 
 SJC  HZ EP   4   1717 51.53                             105   -1.80 0  407 327 
 SJC  HN ES   4   1718 31.09                             105   -5.27 0  407 327 
 SJC  HZ I        1718 37.12         5.3 0.54            103            407 327 
                                                                                
