 2017  127 1300 25.6 L   6.805 -73.143145.1  RSN  6 0.3 1.5LRSN                1
 GAP=137        0.71       3.8     3.3  5.5  0.2790E+00  0.4729E+01 -0.1523E+01E
 Epicentro: LOS SANTOS - SANTANDER                                             3
 OLDACT:REG 17-01-27 21:27 OP:dnl  STATUS:               ID:20170127125745     3
 OLDACT:UP  17-01-27 23:04 OP:dnl  STATUS:               ID:20170127125745     3
 OLDACT:UP  17-01-27 23:04 OP:dnl  STATUS:               ID:20170127125745     3
 OLDACT:UP  17-01-27 23:03 OP:dnl  STATUS:               ID:20170127125745     3
 OLDACT:UP  17-01-27 23:02 OP:dnl  STATUS:               ID:20170127125745     3
 OLDACT:UP  17-01-27 23:01 OP:dnl  STATUS:               ID:20170127125745     3
 OLDACT:UP  17-01-27 23:00 OP:dnl  STATUS:               ID:20170127125745     3
 OLDACT:UP  17-01-27 23:05 OP:dnl  STATUS:               ID:20170127125745     3
 ACTION:UPD 17-05-22 16:03 OP:jn   STATUS:               ID:20170127130025 L   I
 OLDACT:DUP 17-01-27 23:08 OP:dnl  STATUS:               ID:20170127125746d    3
 OLDACT:UP  17-01-27 23:06 OP:dnl  STATUS:               ID:20170127125745     3
 2017-01-27-1258-00M.COL___340                                                 6
 STAT SP IPHASW D HRMM SECON CODA AMPLIT PERI AZIMU VELO AIN AR TRES W  DIS CAZ7
 BAR2 EZ EP       13 0 45.01                             170   -0.1210 23.9 191 
 BAR2 EZ ES       13 0 59.92                             170   -0.4710 23.9 191 
 BAR2 EZ I        13 1  1.81         8.4 0.34            171           23.9 191 
 BRR  HZ EP   2   13 0 47.62                             152    0.97 5 71.2 298 
 BRR  HN ES       13 1  3.25                             152    0.1610 71.2 298 
 BRR  HZ I        13 1  8.57        12.6 0.32            150           71.2 298 
 PAM  EZ EP       13 0 47.76                             151    0.0810 76.7  40 
 PAM  EN ES       13 1  4.92                             151    0.0110 76.7  40 
 PAM  EZ I        13 1  6.63         2.9 0.22            154           76.7  40 
 RUS  HZ EP   2   13 0 49.10                             143   -0.19 5  101 176 
 RUS  HN ES       13 1  8.19                             143    0.4010  101 176 
 RUS  HZ I        13 1  9.22         2.1 0.14            148            101 176 
 PTB  HZ EP       13 0 52.17                             132   -0.35 9  148 259 
 PTB  HN ES       13 1 13.55                             132    0.01 9  148 259 
 PTB  HZ I        13 1 16.88         5.7 0.14            132            148 259 
 ZAR  HZ EP   2   13 0 57.78                             122   -0.20 4  204 292 
 ZAR  HE ES       13 1 23.37                             122    0.11 9  204 292 
 ZAR  HZ I        13 1 30.42         3.0 0.19            123            204 292 
                                                                                
