 2013  927 1933 46.0 L   5.908 -74.224 71.5  RSN  6 0.3 1.2LRSN                1
 GAP=148        0.90       3.5     2.9 10.0 -0.5407E+01 -0.1040E+02  0.9809E+01E
 Epicentro: FLORIAN - SANTANDER                                                3
 ACTION:UPD 13-10-22 09:25 OP:ep   STATUS:               ID:20130927193346 L   I
 OLDACT:REG 13-09-27 17:00 OP:stll STATUS:               ID:20130927192845     3
 2013-09-27-1928-45M.COL___247                                                 6
 STAT SP IPHASW D HRMM SECON CODA AMPLIT PERI AZIMU VELO AIN AR TRES W  DIS CAZ7
 PTB  HZ EP       1933 59.56                             129   -0.6210 74.4 340 
 PTB  HN ES       1934 11.29                             129    0.0210 74.4 340 
 PTB  HZ I        1934 14.03         7.9 0.30            132           74.4 340 
 NOR  HZ EP       1934  0.62                             126   -0.2410 80.9 242 
 NOR  HN ES       1934 12.57                             126    0.0810 80.9 242 
 RUS  HZ EP       1934  5.80                             114   -0.5110  126  91 
 RUS  HZ I        1934  7.02         3.3 0.34            117            126  91 
 RUS  HN ES       1934 22.56                             114    0.3710  126  91 
 BAR2 SZ ES       1934 23.76                             111   -0.21 9  138  57 
 BRR  HZ EP       1934  8.16                             110    0.42 9  144  23 
 BRR  HN ES       1934 25.10                             110    0.37 9  144  23 
 GUY2CHZ EP       1934  8.91                             110    0.23 9  147 239 
 GUY2CHZ I        1934  9.81         2.4 0.48                           147 239 
 GUY2CHN ES       1934 26.64                             110    0.23 9  147 239 
                                                                                
