 2014 1127 1349 31.2 L   6.774 -73.133144.0  RSN 11 0.4 1.9LRSN                1
 GAP=139        0.82       3.1     3.4  5.2 -0.7406E+00  0.3851E+01  0.3718E+01E
 Epicentro: LOS SANTOS - SANTANDER                                             3
 ACTION:UPD 14-12-19 15:48 OP:nd   STATUS:               ID:20141127134931 L   I
 OLDACT:REG 14-11-27 17:01 OP:spq  STATUS:               ID:20141127134747     3
 2014-11-27-1347-47M.COL___303                                                 6
 STAT SP IPHASW D HRMM SECON CODA AMPLIT PERI AZIMU VELO AIN AR TRES W  DIS CAZ7
 BAR2 SZ EP       1349 50.50                             171   -0.1110 20.9 195 
 BAR2 SZ ES   1   1350  5.64                             171   -0.08 7 20.9 195 
 BAR2 SZ I        1350  8.09        14.9 0.48            170           20.9 195 
 BRR  HZ EP       1349 52.43                             152    0.0810 73.8 300 
 BRR  HN ES       1350  9.50                             152    0.6810 73.8 300 
 BRR  HZ I        1350 10.98        15.8 0.34            150           73.8 300 
 PAM  SZ EP       1349 53.32                             150   -0.0310 78.7  37 
 PAM  SE ES       1350 10.45                             150   -0.1510 78.7  37 
 PAM  SZ I        1350 12.54        16.0 0.58            153           78.7  37 
 RUS  HZ EP       1349 54.46                             144   -0.1510 97.7 177 
 RUS  HN ES       1350 13.22                             144    0.3810 97.7 177 
 RUS  HZ I        1350 13.99         8.4 0.28            145           97.7 177 
 PTB  HZ EP       1349 57.55                             132   -0.60 9  149 260 
 PTB  HE ES       1350 18.52                             132   -0.61 9  149 260 
 PTB  HZ I        1350 20.92         8.4 0.12            131            149 260 
 SPBC HZ EP       1349 59.51                             129    0.02 9  162 220 
 SPBC HN ES       1350 21.46                             129   -0.05 9  162 220 
 SPBC HZ I        1350 23.99        11.7 0.30            129            162 220 
 ZAR  HZ EP   1   1350  4.17                             122    0.35 6  206 293 
 ZAR  HN ES       1350 29.22                             122   -0.01 8  206 293 
 ZAR  HZ I        1350 34.83         6.4 0.44            122            206 293 
 CHI  HZ EP       1350  8.66                             117    0.07 8  246 196 
 CHI  HE ES   1   1350 37.23                             117   -0.49 6  246 196 
 CHI  HZ I        1350 41.85         2.2 0.54            118            246 196 
 GUY2CHZ EP   4   1350 15.93                             112    1.21 0  301 235 
 GUY2CHN ES   1   1350 49.15                             112    0.52 5  301 235 
 GUY2CHZ I        1350 55.53         3.7 0.34                           301 235 
 TOL  SZ EP   1   1350 19.76                             109    0.45 5  342 225 
 TOL  SN ES   1   1350 57.48                             109    0.67 5  342 225 
 TOL  SZ I        1351  4.21         7.8 0.78            110            342 225 
 SJC  HZ EP   4   1350 25.50                             105   -1.62 0  412 327 
 SJC  HN ES   4   1351  8.00                             105   -2.70 0  412 327 
 SJC  HZ I        1351 14.43         1.7 0.44            106            412 327 
                                                                                
