 2013  727 1929 29.0 L   6.755 -73.182142.9  RSN  5 0.5 2.1LRSN                1
 GAP=230        0.92       8.3     7.3 11.0  0.3606E+02 -0.1091E+02 -0.2396E+02E
 Epicentro: VILLANUEVA - SANTANDER                                             3
 ACTION:UPD 13-08-12 10:40 OP:ep   STATUS:               ID:20130727192929 L   I
 OLDACT:REG 13-07-27 18:59 OP:mh   STATUS:               ID:20130727192849     3
 2013-07-27-1928-49M.COL___234                                                 6
 STAT SP IPHASW D HRMM SECON CODA AMPLIT PERI AZIMU VELO AIN AR TRES W  DIS CAZ7
 BAR2 SZ EP   1   1929 47.31                             173   -0.92 7 18.0 180 
 BAR2 SZ I        1930  4.01        10.2 0.46            171           18.0 180 
 BRR  HZ EP       1929 49.80                             152   -0.0310 70.4 304 
 BRR  HN ES   1   1930  6.28                             152    0.22 7 70.4 304 
 BRR  HN I        1930  9.85        27.6 0.16            153           70.4 304 
 RUS  HZ EP   1   1929 52.41                             145    0.23 7 96.0 173 
 RUS  HN ES   1   1930 10.71                             145    0.48 7 96.0 173 
 RUS  HN I        1930 12.24         9.0 0.22            148           96.0 173 
 PTB  HZ EP   1   1929 55.05                             132   -0.29 7  143 260 
 PTB  HN ES       1930 15.56                             132   -0.29 9  143 260 
 PTB  HN I        1930 18.96        18.2 0.16            137            143 260 
 ZAR  HZ EP   1   1930  1.93                             122    0.81 6  202 294 
 ZAR  HE ES       1930 26.28                             122    0.13 9  202 294 
 ZAR  HE I        1930 31.46        35.9 0.24            123            202 294 
                                                                                
