 2010 1027 1156 37.9 L   6.742 -73.133148.6  RSN  7 0.4 1.7LRSN                1
 GAP=161        0.69       5.0     7.7  7.6 -0.1140E+02  0.1132E+01 -0.2937E+00E
 Epicentro: JORDAN - SANTANDER                                                 3
 ACTION:UP  11-02-18 11:12 OP:tino STATUS:               ID:20101027115637 L   I
 2010-10-27-1152-10S.COL___127                                                 6
 STAT SP IPHASW D HRMM SECON CODA AMPLIT PERI AZIMU VELO SNR AR TRES W  DIS CAZ7
 BAR2 SZ EP   1   1156 57.70                             173    -0.1 7   17 199 
 BAR2 SZ I        1156 58.21        17.5 0.28                            17 199 
 BAR2 SZ ES   2   1157 12.75                             173    -0.5 5   17 199 
 BRR  HZ EP   1   1156 59.59                             152     0.0 7   76 302 
 BRR  HE ES   2   1157 16.97                             152     0.4 5   76 302 
 RUS  HZ EP   1   1157  1.59                             146     0.1 7   94 177 
 RUS  HN ES   2   1157 20.23                             146     0.4 5   94 177 
 RUS  HZ I        1157 21.46         4.4 0.39                            94 177 
 GUE  SZ EP   1   1157  2.75                             138    -0.6 7  123  11 
 GRA  SZ EP   1   1157  4.52                             136     0.6 7  132  16 
 NOR  SZ EP   1   1157 13.57                             119     0.0 6  232 236 
 NOR  SN ES   2   1157 41.24                             119    -0.1 4  232 236 
 CHI  HZ EP   1   1157 15.04                             118    -0.1 6  243 196 
                                                                                
