 2017 1227 1436 56.2 L   6.719 -73.138144.3  RSN  4 0.4 1.9LRSN                1
 GAP=164        0.83       8.0     4.4  8.6 -0.1151E+02  0.1308E+02  0.2587E+01E
 Epicentro: JORDAN - SANTANDER                                                 3
 ACTION:UPD 18-01-04 13:24 OP:rebc STATUS:               ID:20171227143656 L   I
 OLDACT:REG 17-12-27 20:59 OP:mg   STATUS:               ID:20171227142736     3
 2017-12-27-1428-00M.COL___435                                                 6
 STAT SP IPHASW D HRMM SECON CODA AMPLIT PERI AZIMU VELO AIN AR TRES W  DIS CAZ7
 BAR2 EZ EP       1437 15.91                             174    0.3910 14.9 199 
 BAR2 EZ ES   2   1437 31.18                             174    0.59 5 14.9 199 
 BAR2 EZ I        1437 31.87        16.6 0.26            174           14.9 199 
 PAM  EZ EP       1437 18.83                             148    0.1510 84.0  35 
 PAM  EN ES       1437 35.84                             148   -0.3610 84.0  35 
 PAM  EZ I        1437 37.58         9.3 0.38            149           84.0  35 
 PTB  HZ EP       1437 22.70                             132   -0.30 9  147 262 
 PTB  HN ES       1437 43.53                             132   -0.37 9  147 262 
 PTB  HZ I        1437 46.10         7.7 0.14            132            147 262 
 ZAR  HZ EP       1437 28.90                             121   -0.11 8  208 294 
 ZAR  HE ES       1437 55.05                             121    0.46 8  208 294 
 ZAR  HZ I        1438  0.68        10.0 0.32            122            208 294 
                                                                                
