 2013  827 1303 46.9 L   6.735 -73.203146.6  RSN  5 0.3 1.8LRSN                1
 GAP=226        0.68       5.1     4.7  5.0  0.1495E+02  0.3558E+01 -0.1600E+01E
 Epicentro: VILLANUEVA - SANTANDER                                             3
 ACTION:UPD 14-01-14 09:07 OP:ep   STATUS:               ID:20130827130346 L   I
 OLDACT:REG 13-08-27 15:33 OP:nd   STATUS:               ID:20130827125959     3
 2013-08-27-1259-59M.COL___270                                                 6
 STAT SP IPHASW D HRMM SECON CODA AMPLIT PERI AZIMU VELO AIN AR TRES W  DIS CAZ7
 BAR2 SZ EP       13 4  6.19                             173   -0.3610 16.0 172 
 BAR2 SZ ES       13 4 21.70                             173   -0.1410 16.0 172 
 BRR  HZ IP     C 13 4  8.21                             153    0.1110 69.7 306 
 BRR  HN ES       13 4 24.81                             153    0.2110 69.7 306 
 BRR  HZ I        13 4 29.93        14.6 0.26            152           69.7 306 
 RUS  HZ EP       13 4 10.31                             146   -0.0110 94.1 172 
 RUS  HN ES       13 4 28.78                             146    0.2210 94.1 172 
 RUS  HZ I        13 4 29.69         3.8 0.38            150           94.1 172 
 PTB  HZ EP       13 4 13.09                             134   -0.23 9  140 261 
 PTB  HN ES       13 4 33.88                             134   -0.00 9  140 261 
 PTB  HZ I        13 4 36.82        13.6 0.32            135            140 261 
 ZAR  HZ EP       13 4 19.69                             123    0.55 9  201 295 
 ZAR  HN ES       13 4 43.93                             123   -0.32 9  201 295 
 ZAR  HZ I        13 4 50.29         9.9 0.32            124            201 295 
                                                                                
