 2012  827 1124 21.6 L   7.367 -73.218133.9  RSN  4 0.1 1.6LRSN                1
 GAP=293        0.34       6.0     3.4  3.3 -0.5685E+00  0.1668E+01 -0.2636E+01E
 Epicentro: EL PLAYON - SANTANDER                                              3
 ACTION:UPD 12-09-10 11:58 OP:ep   STATUS:               ID:20120827112421 L   I
 2012-08-27-1120-00M.COL___218                                                 6
 STAT SP IPHASW D HRMM SECON CODA AMPLIT PERI AZIMU VELO AIN AR TRES W  DIS CAZ7
 GIR2 SZ EP       1124 39.84                             166   -0.1010 32.0 175 
 GIR2 SZ ES   1   1124 54.19                             166   -0.01 7 32.0 175 
 BRR  HZ EP       1124 41.07                             154    0.0910 61.7 242 
 BRR  HZ I        1124 43.77        13.3 0.32                          61.7 242 
 BRR  HN ES   1   1124 56.06                             154    0.00 7 61.7 242 
 BAR2 SZ EP       1124 42.95                             145    0.1310 85.8 177 
 BAR2 SZ ES   2   1124 59.16                             145   -0.17 5 85.8 177 
 BAR2 SZ I        1125  0.43        10.3 0.16                          85.8 177 
 PTB  HZ EP       1124 49.19                             126   -0.12 9  165 236 
 PTB  HN ES   2   1125 11.00                             126    0.11 5  165 236 
 PTB  HZ I        1125 13.82         1.9 0.34                           165 236 
                                                                                
