 2016  827 1426 52.4 L   6.818 -73.116150.0  RSN 19 0.5 2.8LRSN                1
 GAP=103        1.08       2.9     3.6  5.0 -0.1388E+01  0.2620E+01  0.1950E+01E
 Epicentro: LOS SANTOS - SANTANDER                                             3
 ACTION:UPD 16-10-29 15:40 OP:rebc STATUS:               ID:20160827142652 L   I
 OLDACT:UP  16-08-27 23:56 OP:ar   STATUS:               ID:20160827141738     3
 OLDACT:REG 16-08-27 21:39 OP:ar   STATUS:               ID:20160827141738     3
 2016-08-27-1418-00M.COL___374                                                 6
 STAT SP IPHASW D HRMM SECON CODA AMPLIT PERI AZIMU VELO AIN AR TRES W  DIS CAZ7
 BAR2 EZ EP       1427 12.55                             170    0.0010 26.0 196 
 BAR2 EZ ES       1427 28.38                             170    0.0810 26.0 196 
 BAR2 EZ I        1427 29.12        85.3 0.54                          26.0 196 
 BRR  HZ IP     C 1427 14.36                             153    0.2910 73.2 296 
 BRR  HE ES       1427 31.83                             153    0.8210 73.2 296 
 BRR  HZ I        1427 34.37       204.5 0.88                          73.2 296 
 PAM  EZ EP       1427 15.37                             153    0.5610 73.8  39 
 PAM  EE ES       1427 32.49                             153    0.1510 73.8  39 
 PAM  EZ I        1427 34.20        63.9 0.32                          73.8  39 
 RUS  HZ EP       1427 16.52                             144   -0.1310  102 178 
 RUS  HE ES       1427 35.24                             144   -0.3710  102 178 
 RUS  HZ I        1427 37.17        33.4 0.28                           102 178 
 PTB  HZ EP       1427 19.67                             132   -0.32 9  151 258 
 PTB  HE ES       1427 41.01                             132   -0.54 9  151 258 
 PTB  HZ I        1427 47.86        91.2 0.42                           151 258 
 OCA  HZ EP       1427 20.70                             131   -0.15 9  159 352 
 OCA  HE ES       1427 42.53                             131   -0.55 9  159 352 
 OCA  HZ I        1427 47.63       132.2 0.32                           159 352 
 SPBC HZ EP       1427 21.50                             129   -0.02 9  167 219 
 SPBC HN ES       1427 43.91                             129   -0.36 9  167 219 
 SPBC HZ I        1427 46.48        82.4 0.22                           167 219 
 ZAR  HZ EP       1427 25.68                             123    0.37 8  206 291 
 ZAR  HN ES       1427 50.58                             123   -0.44 8  206 291 
 ZAR  HZ I        1427 55.82        95.0 0.44                           206 291 
 NOR  HZ EP       1427 28.65                             119   -0.09 8  239 235 
 NOR  HE ES   4   1427 56.34                             119   -0.78 0  239 235 
 NOR  HZ I        1428  1.93        34.7 0.20                           239 235 
 CHI  HZ EP       1427 30.69                             118    0.10 8  251 196 
 CHI  HN ES       1428  0.07                             118   -0.34 8  251 196 
 CHI  HZ I        1428  6.00        23.9 0.34                           251 196 
 HEL  HZ EP       1427 33.90                             115    0.71 7  276 256 
 HEL  HN ES       1428  4.97                             115   -0.07 7  276 256 
 HEL  HZ I        1428 10.75        34.5 0.40                           276 256 
 URE  HZ EP       1427 32.96                             114   -0.93 7  286 291 
 URE  HN ES   4   1428  3.13                             114   -3.15 0  286 291 
 URE  HZ I        1428 13.24        37.7 0.26                           286 291 
 SOCV BZ EP       1427 35.03                             113   -0.14 7  297  57 
 GUY2CHZ EP       1427 37.67                             113    1.08 7  305 235 
 GUY2CHE ES   4   1428 13.38                             113    2.29 0  305 235 
 GUY2CHZ I        1428 19.47        27.4 0.72                           305 235 
 VIL  EZ EP   4   1427 39.20                             113    2.94 0  306 192 
 VIL  EE ES       1428 11.12                             113    0.61 7  306 192 
 VIL  EZ I        1428 17.46        33.5 0.46                           306 192 
 PTGC HZ EP       1427 35.75                             112   -0.73 7  309 159 
 PTGC HN ES   4   1428  7.96                             112   -2.94 0  309 159 
 ELA  HZ EP   4   1427 41.96                             111    2.15 0  333 230 
 ELA  HN ES       1428 17.29                             111    0.45 7  333 230 
 ELA  HZ I        1428 24.03        20.6 0.36                           333 230 
 ANIL HZ EP   4   1427 44.28                             109    1.53 0  361 225 
 ANIL HN ES   4   1428 25.01                             109    2.95 0  361 225 
 ANIL HZ I        1428 26.44        56.8 0.52                           361 225 
 CRJC HZ EP   4   1427 53.16                             104   -1.55 0  465   3 
 CRJC HN ES   4   1428 39.76                             104   -3.60 0  465   3 
 CRJC HZ I        1428 45.45        12.1 0.20                           465   3 
                                                                                
