 2011  527 1506 41.2 L   6.765 -73.085143.7  RSN 11 0.5 2.0LRSN                1
 GAP=146        0.78       5.1     8.2  7.2 -0.2141E+02  0.1155E+02  0.1279E+01E
 Epicentro: LOS SANTOS - SANTANDER                                             3
 ACTION:UP  11-06-29 08:56 OP:tino STATUS:               ID:20110527150641 L   I
 2011-05-27-1505-33S.COL___115                                                 6
 STAT SP IPHASW D HRMM SECON CODA AMPLIT PERI AZIMU VELO SNR AR TRES W  DIS CAZ7
 BAR2 SZ EP       15 7  0.76                             171     0.210   22 209 
 BAR2 SZ ES   1   15 7 15.47                             171    -0.2 7   22 209 
 BAR2 SZ I        15 7 17.66        26.3 0.15                            22 209 
 BTL  SZ EP       15 7  0.95                             169     0.310   26 310 
 PAM  SZ EP   2   15 7  3.44                             151     0.3 5   77  34 
 BRR  HZ EP   2   15 7  2.13                             150    -0.4 5   79 299 
 BRR  HN ES   2   15 7 20.09                             150     0.8 5   79 299 
 BRR  HZ I        15 7 23.41        24.8 0.16                            79 299 
 RUS  HZ EP   1   15 7  4.45                             144     0.0 7   96 180 
 RUS  HN ES   2   15 7 22.48                             144    -0.1 5   96 180 
 RUS  HZ I        15 7 24.92        13.0 0.49                            96 180 
 BRI  SZ EP   2   15 7  4.68                             141    -0.3 5  110  17 
 GRA  SZ EP   1   15 7  6.43                             136     0.0 7  128  14 
 GRA  SZ ES   1   15 7 25.38                             136    -0.7 7  128  14 
 GRA  SZ I        15 7 27.29        14.0 0.26                           128  14 
 NOR  SZ EP   1   15 7 16.58                             118    -0.6 6  238 236 
 NOR  SN ES   2   15 7 44.41                             118    -0.8 4  238 236 
 HEL  HZ EP   2   15 7 22.62                             114     0.7 4  278 257 
 TOL  SZ EP   2   15 7 30.33                             109     0.7 3  346 226 
 PRA  HZ EP   2   15 7 34.61                             106     0.0 3  392 211 
 PRA  HN ES   2   15 8 15.62                             106    -0.7 3  392 211 
                                                                                
