 2013  927 1928 42.3 L   6.791 -73.143146.1  RSN  5 0.4 1.8LRSN                1
 GAP=137        1.03       5.6     5.3  9.0 -0.3147E+01  0.3387E+01  0.7621E+01E
 Epicentro: LOS SANTOS - SANTANDER                                             3
 ACTION:UPD 13-10-22 09:25 OP:ep   STATUS:               ID:20130927192842 L   I
 OLDACT:REG 13-09-27 17:00 OP:stll STATUS:               ID:20130927191845     3
 2013-09-27-1918-45M.COL___247                                                 6
 STAT SP IPHASW D HRMM SECON CODA AMPLIT PERI AZIMU VELO AIN AR TRES W  DIS CAZ7
 BAR2 SZ EP       1929  2.31                             171    0.3710 22.4 191 
 BAR2 SZ I        1929 18.08        11.1 0.26            167           22.4 191 
 BRR  HZ IP     C 1929  3.68                             152    0.1610 72.0 299 
 BRR  HZ I        1929  3.89        15.1 0.32            154           72.0 299 
 BRR  HN ES       1929 20.68                             152    0.6010 72.0 299 
 PAM  SZ EP       1929  4.67                             151    0.0910 78.0  39 
 PAM  SZ I        1929  4.84        21.2 0.18            150           78.0  39 
 PAM  SN ES       1929 21.40                             151   -0.5610 78.0  39 
 RUS  HZ EP       1929  6.27                             144    0.2710 99.6 176 
 RUS  HN ES       1929 24.38                             144   -0.1210 99.6 176 
 RUS  HZ I        1929 26.51         5.0 0.28            140           99.6 176 
 PTB  HZ EP       1929  8.74                             132   -0.56 9  148 259 
 PTB  HN ES       1929 29.98                             132   -0.38 9  148 259 
 PTB  HZ I        1929 32.14         9.7 0.42            131            148 259 
                                                                                
