 2017  327 1759 22.8 L   6.785 -73.166144.0  RSN  8 0.4 1.6LRSN                1
 GAP=135        1.02       4.9     5.2  6.8 -0.3935E+01  0.5702E+01  0.7788E+01E
 Epicentro: LOS SANTOS - SANTANDER                                             3
 ACTION:UPD 17-05-25 18:46 OP:jn   STATUS:               ID:20170327175922 L   I
 OLDACT:UP  17-03-28 01:35 OP:dnl  STATUS:               ID:20170327175745     3
 OLDACT:UP  17-03-28 01:35 OP:dnl  STATUS:               ID:20170327175745     3
 OLDACT:UP  17-03-28 01:28 OP:dnl  STATUS:               ID:20170327175745     3
 OLDACT:REG 17-03-27 22:00 OP:lv   STATUS:               ID:20170327175745     3
 2017-03-27-1758-00M.COL___366                                                 6
 STAT SP IPHASW D HRMM SECON CODA AMPLIT PERI AZIMU VELO AIN AR TRES W  DIS CAZ7
 BAR2 EZ EP       1759 41.89                             171   -0.3110 21.3 185 
 BAR2 EZ ES       1759 56.87                             171   -0.4510 21.3 185 
 BAR2 EZ I        1759 58.03        16.4 0.32            169           21.3 185 
 BRR  HZ EP       1759 43.78                             153    0.0610 70.1 301 
 BRR  HN ES       18 0  0.90                             153    0.8810 70.1 301 
 BRR  HZ I        18 0  1.67         7.4 0.50            146           70.1 301 
 PAM  EZ EP       1759 45.06                             150    0.0410 80.1  40 
 PAM  EN ES       18 0  2.27                             150   -0.0610 80.1  40 
 PAM  EZ I        18 0  2.71         5.1 0.20            151           80.1  40 
 RUS  HZ EP       1759 46.51                             144    0.2210 99.1 175 
 RUS  HN ES       18 0  4.77                             144    0.1710 99.1 175 
 RUS  HZ I        18 0  7.41         3.2 0.12            144           99.1 175 
 PTB  HZ EP       1759 48.98                             132   -0.44 9  145 259 
 PTB  HN ES       18 0  9.67                             132   -0.49 9  145 259 
 PTB  HZ I        18 0 16.42         5.5 0.62            128            145 259 
 ZAR  HZ EP   4   1759 56.72                             122    1.71 0  203 293 
 ZAR  HN ES   4   18 0 18.70                             122   -1.41 0  203 293 
 ZAR  HZ I        18 0 26.78         4.8 0.62            119            203 293 
 PRA  HZ EP       18 0 16.11                             106    0.13 6  389 209 
 PRA  HN ES       18 0 58.10                             106    0.66 6  389 209 
 PRA  HZ I        18 1  4.50         2.8 0.30            105            389 209 
 SJC  HZ EP   4   18 0 16.33                             105   -2.02 0  409 327 
 SJC  HN ES   4   18 0 57.49                             105   -4.18 0  409 327 
 SJC  HZ I        18 1 12.05         1.2 0.54            104            409 327 
                                                                                
