 2012 1027 1629 36.3 L   6.752 -73.132143.9  RSN 11 0.4 3.0LRSN                1
 GAP= 67        0.93       4.2     4.3  6.0  0.3107E+01  0.2868E+01  0.1015E+02E
 Epicentro: LOS SANTOS - SANTANDER                                             3
 ACTION:UPD 12-11-22 17:06 OP:ep   STATUS:               ID:20121027162936 L   I
 2012-10-27-1624-48M.COL___205                                                 6
 STAT SP IPHASW D HRMM SECON CODA AMPLIT PERI AZIMU VELO AIN AR TRES W  DIS CAZ7
 BAR2 SZ IP       1629 55.64                             172   -0.0210 18.5 198 
 BAR2 SZ ES       1630 10.46                             172   -0.2710 18.5 198 
 BAR2 SZ I        1630 12.47       348.9 0.34                          18.5 198 
 GIR2 SZ EP       1629 55.81                             165   -0.1510 36.8 349 
 BRR  HZ IP     C 1629 57.57                             151    0.0510 75.2 302 
 BRR  HZ I        1629 57.90       334.9 0.13                          75.2 302 
 BRR  HN ES       1630 14.87                             151    0.8310 75.2 302 
 PAM  SZ EP       1629 58.53                             149   -0.0310 80.6  36 
 PAM  SE ES       1630 15.66                             149   -0.2310 80.6  36 
 PAM  SZ I        1630 18.27       278.4 0.56                          80.6  36 
 RUS  HZ EP       1629 59.47                             145   -0.0610 95.2 177 
 RUS  HZ I        1630 19.99        56.0 0.26                          95.2 177 
 RUS  HN I        1630 20.09       131.1 0.25                          95.2 177 
 TAM  HZ EP       1630  3.77                             131    0.16 9  152 103 
 TAM  HZ I        1630  3.96       182.9 0.38                           152 103 
 YOP  SZ EP   1   1630  6.06                             127    0.34 7  173 153 
 YOP  SZ I        1630  7.31        61.9 0.35                           173 153 
 YOP  SE ES   1   1630 28.75                             127    0.12 7  173 153 
 ZAR  HZ EP   1   1630  8.29                             121   -0.74 6  208 293 
 ZAR  HN ES   1   1630 33.72                             121   -0.80 6  208 293 
 ZAR  HZ I        1630 44.53       133.3 0.34                           208 293 
 CHI  HZ EP       1630 13.56                             117    0.13 8  244 196 
 CHI  HN ES   1   1630 41.45                             117   -0.91 6  244 196 
 CHI  HZ I        1630 50.81        45.1 0.57                           244 196 
 ROSC BZ EP   1   1630 14.57                             117    0.61 6  249 212 
 ROSC BZ I        1630 53.77        72.2 0.52                           249 212 
 HEL  HZ EP   1   1630 17.07                             114    0.58 6  272 257 
 HEL  HZ I        1630 54.32        66.3 0.44                           272 257 
                                                                                
