 2011 1027 1556 32.6 L   6.782 -73.121138.4  RSN  7 0.3 2.0LRSN                1
 GAP=140        0.65       5.2     6.4  7.0  0.1136E+02 -0.1642E+02 -0.1159E+02E
 Epicentro: LOS SANTOS - SANTANDER                                             3
 ACTION:UPD 12-07-13 16:06 OP:ep   STATUS:               ID:20111027155632 L   I
 2011-10-27-1553-36S.COL___177                                                 6
 STAT SP IPHASW D HRMM SECON CODA AMPLIT PERI AZIMU VELO AIN AR TRES W  DIS CAZ7
 BTL  SZ EP   3   1556 52.08                             170    0.77 2 22.1 313 
 BAR2 SZ EP       1556 51.23                             170   -0.0710 22.1 198 
 BAR2 SZ ES   1   1557  5.40                             170   -0.50 7 22.1 198 
 BAR2 SZ I        1557  7.06        20.4 0.28                          22.1 198 
 BRR  HZ EP       1556 53.07                             150   -0.0710 74.5 299 
 BRR  HZ I        1557  6.70        30.1 0.38                          74.5 299 
 BRR  HE ES   1   1557  9.73                             150    0.56 7 74.5 299 
 PAM  SZ EP       1556 54.11                             149    0.1010 77.3  37 
 RUS  HZ EP       1556 55.64                             143    0.1810 98.5 178 
 RUS  HZ I        1557 15.55        12.6 0.27                          98.5 178 
 OCA  SZ EP       1557  0.41                             127   -0.15 9  163 352 
 OCA  SZ I        1557 26.68         9.7 0.17                           163 352 
 ZAR  HN ES   2   1557 29.56                             120   -0.54 4  207 292 
                                                                                
