 2011  527 1905  8.5 L   6.759 -73.106142.3  RSN  7 0.3 2.2LRSN                1
 GAP=144        0.64       3.3     4.5  4.8 -0.5286E+01 -0.1467E+01 -0.2545E+00E
 Epicentro: LOS SANTOS - SANTANDER                                             3
 ACTION:UP  11-06-29 08:56 OP:tino STATUS:               ID:20110527190508 L   I
 2011-05-27-1900-58S.COL___112                                                 6
 STAT SP IPHASW D HRMM SECON CODA AMPLIT PERI AZIMU VELO SNR AR TRES W  DIS CAZ7
 BAR2 SZ EP   1   19 5 27.54                             171    -0.1 7   20 205 
 BAR2 SZ ES   1   19 5 42.58                             171     0.0 7   20 205 
 BAR2 SZ I        19 5 44.18        48.5 0.29                            20 205 
 BRR  HZ EP       19 5 29.62                             150     0.010   77 300 
 BRR  HE ES       19 5 46.31                             150     0.210   77 300 
 BRR  HZ I        19 5 50.75        45.9 0.11                            77 300 
 PAM  SZ EP       19 5 30.63                             150     0.210   78  35 
 PAM  SN ES   1   19 5 46.83                             150    -0.7 7   78  35 
 RUS  HZ EP   1   19 5 31.84                             144     0.3 7   96 178 
 RUS  HN ES   1   19 5 49.67                             144     0.1 7   96 178 
 RUS  HZ I        19 5 51.37        16.3 0.19                            96 178 
 BRI  SZ EP       19 5 32.40                             140     0.110  111  18 
 GRA  SZ EP       19 5 33.70                             135     0.010  129  15 
 GRA  SZ I        19 5 35.14        24.1 0.24                           129  15 
 GRA  SZ ES   1   19 5 53.39                             135     0.0 7  129  15 
 NOR  SZ EP   1   19 5 43.69                             117    -0.5 6  236 236 
 NOR  SN ES   2   19 6 11.47                             117    -0.5 4  236 236 
                                                                                
