 2016 1227 1205 28.0 L   6.742 -73.170144.6  RSN  6 0.4 1.4LRSN                1
 GAP=136        1.15       5.7     5.1  7.8  0.2975E+01  0.9883E+01 -0.2242E+01E
 Epicentro: LOS SANTOS - SANTANDER                                             3
 ACTION:UPD 17-01-11 20:19 OP:rebc STATUS:               ID:20161227120528 L   I
 OLDACT:DUP 16-12-28 01:09 OP:cog  STATUS:               ID:20161227115747d    3
 2016-12-27-1158-00M.COL___372                                                 6
 STAT SP IPHASW D HRMM SECON CODA AMPLIT PERI AZIMU VELO AIN AR TRES W  DIS CAZ7
 BAR2 EZ EP       12 5 47.45                             173    0.0810 16.6 185 
 BAR2 EZ ES       12 6  2.06                             173   -0.4310 16.6 185 
 BAR2 EZ I        12 6 10.91         7.5 0.74            172           16.6 185 
 BRR  HZ EP       12 5 49.38                             152    0.3010 72.2 304 
 BRR  HN ES       12 6  6.59                             152    1.0710 72.2 304 
 PAM  EZ EP       12 5 50.38                             148   -0.1210 84.1  38 
 PAM  EE ES       12 6  7.63                             148   -0.4310 84.1  38 
 PAM  EZ I        12 6  9.59         4.6 0.42            155           84.1  38 
 RUS  HZ EP       12 5 51.60                             145    0.4010 94.5 174 
 RUS  HN ES       12 6  9.32                             145    0.0210 94.5 174 
 RUS  HZ I        12 6 11.25         4.3 0.36            148           94.5 174 
 PTB  HZ EP       12 5 54.50                             132   -0.03 9  144 261 
 PTB  HN ES       12 6 14.62                             132   -0.60 9  144 261 
 PTB  HZ I        12 6 20.77         3.1 0.14            136            144 261 
 ZAR  HZ EP       12 6  0.13                             122   -0.24 9  204 294 
 ZAR  HE ES       12 6 25.38                             122   -0.24 9  204 294 
                                                                                
