 2016  227 1331 58.1 L   6.816 -73.199126.0  RSN  6 0.5 1.9LRSN                1
 GAP=132        1.14      10.0     5.6 13.0 -0.1413E+02  0.2404E+02  0.3466E+02E
 Epicentro: ZAPATOCA - SANTANDER                                               3
 ACTION:UPD 16-03-04 21:29 OP:rebc STATUS:               ID:20160227133158 L   I
 OLDACT:UP  16-02-27 22:04 OP:drio STATUS:               ID:20160227132750     3
 OLDACT:UP  16-02-27 21:59 OP:drio STATUS:               ID:20160227132750     3
 OLDACT:REG 16-02-27 19:46 OP:drio STATUS:               ID:20160227132750     3
 2016-02-27-1327-50M.COL___318                                                 6
 STAT SP IPHASW D HRMM SECON CODA AMPLIT PERI AZIMU VELO AIN AR TRES W  DIS CAZ7
 BAR2 EZ EP       1332 14.92                             168   -0.4410 24.8 176 
 PAM  EZ EP       1332 17.81                             146   -0.5810 80.0  44 
 PAM  EE ES       1332 34.88                             146    0.6310 80.0  44 
 PAM  EZ I        1332 36.85        17.1 0.62             47           80.0  44 
 PTB  HZ EP   4   1332 20.16                             129   -2.82 0  142 258 
 PTB  HN ES       1332 42.49                             129    0.09 9  142 258 
 PTB  HZ I        1332 48.35         9.1 0.24             47            142 258 
 SPBC HZ EP   4   1332 23.96                             125   -0.94 0  161 217 
 ZAR  HZ EP       1332 28.88                             119    0.23 9  198 292 
 ZAR  HN ES       1332 52.19                             119   -0.31 9  198 292 
 ZAR  HZ I        1332 59.36        12.8 0.36             47            198 292 
 NOR  HZ EP   4   1332 31.06                             115   -1.26 0  231 233 
 NOR  HZ I        1333  6.68         4.7 0.40             37            231 233 
 GUY2CHZ EP       1332 41.13                             109    0.72 7  297 234 
 GUY2CHE ES   4   1333 15.53                             109    2.10 0  297 234 
 GUY2CHZ I        1333 21.69         3.5 0.24                           297 234 
 MON  HZ EP   4   1332 47.18                             105    1.48 0  348 309 
 MON  HN ES   4   1333 21.02                             105   -1.83 0  348 309 
                                                                                
