 2015  127 1009  9.0 L   6.764 -73.128137.0  RSN  5 0.1 1.0LRSN                1
 GAP=140        0.29       2.0     2.3  4.0 -0.1768E+01  0.2287E+01  0.3235E-01E
 Epicentro: LOS SANTOS - SANTANDER                                             3
 ACTION:UPD 15-03-02 15:42 OP:nd   STATUS:               ID:20150127100909 L   I
 OLDACT:REG 15-01-27 18:47 OP:spq  STATUS:               ID:20150127100746     3
 2015-01-27-1007-46M.COL___280                                                 6
 STAT SP IPHASW D HRMM SECON CODA AMPLIT PERI AZIMU VELO AIN AR TRES W  DIS CAZ7
 BAR2 EZ EP   1   10 9 27.41                             171   -0.05 7 19.9 198 
 BRR  HZ EP   1   10 9 29.45                             150    0.07 7 74.9 301 
 PAM  SZ EP       10 9 30.30                             149   -0.0710 79.3  37 
 PAM  SN ES       10 9 47.10                             149    0.0310 79.3  37 
 PAM  SZ I        10 9 49.39         3.6 0.58            152           79.3  37 
 RUS  HZ EP   1   10 9 31.63                             143    0.08 7 96.5 177 
 RUS  HN ES   1   10 9 49.14                             143   -0.03 7 96.5 177 
 RUS  HZ I        10 9 50.73         0.9 0.38            146           96.5 177 
 PTB  HE ES   1   10 9 55.90                             130   -0.01 7  149 260 
 PTB  HZ I        10 9 57.21         1.8 0.20            133            149 260 
                                                                                
