 2011 1127 1817 31.6 L   6.761 -73.132150.3  RSN  6 0.4 1.7LRSN                1
 GAP=140        0.80       4.6     6.6  7.6 -0.7552E+01  0.6897E+01 -0.3371E+01E
 Epicentro: LOS SANTOS - SANTANDER                                             3
 ACTION:UPD 12-07-13 16:12 OP:ep   STATUS:               ID:20111127181731 L   I
 2011-11-27-1816-33S.COL___160                                                 6
 STAT SP IPHASW D HRMM SECON CODA AMPLIT PERI AZIMU VELO AIN AR TRES W  DIS CAZ7
 BAR2 SZ EP   1   1817 51.46                             172   -0.26 7 19.5 197 
 BAR2 SZ ES   1   1818  7.37                             172   -0.04 7 19.5 197 
 BAR2 SZ I        1818  9.07         9.2 0.25                          19.5 197 
 BRR  HZ EP   1   1817 53.47                             152    0.02 7 74.7 301 
 BRR  HZ I        1817 53.68        22.9 0.15                          74.7 301 
 BRR  HN ES   1   1818 10.87                             152    0.38 7 74.7 301 
 PAM  SZ EP   1   1817 54.35                             151   -0.11 7 79.8  37 
 PAM  SN ES   1   1818 11.65                             151   -0.63 7 79.8  37 
 PAM  SZ I        1818 13.63         7.6 0.54                          79.8  37 
 RUS  HZ EP   1   1817 55.54                             146    0.03 7 96.2 177 
 RUS  HZ I        1817 56.64         2.6 0.16                          96.2 177 
 RUS  HN ES   1   1818 14.72                             146    0.57 7 96.2 177 
 OCA  SZ EP   1   1818  1.34                             130    0.64 7  165 353 
 OCA  SZ ES   2   1818 23.41                             130    0.02 5  165 353 
 OCA  SZ I        1818 27.35         7.1 0.15                           165 353 
 NOR  SN ES   1   1818 34.70                             120   -0.76 6  233 236 
                                                                                
