 2017  227 1859 50.3 L   6.726 -73.144137.0  RSN  7 0.3 1.9LRSN                1
 GAP=140        0.80       3.9     3.5  5.9  0.1045E+01  0.4460E+01 -0.9325E-01E
 Epicentro: JORDAN - SANTANDER                                                 3
 ACTION:UPD 17-05-24 15:41 OP:jn   STATUS:               ID:20170227185950 L   I
 OLDACT:REG 17-02-27 21:07 OP:lv   STATUS:               ID:20170227185746     3
 2017-02-27-1858-00M.COL___376                                                 6
 STAT SP IPHASW D HRMM SECON CODA AMPLIT PERI AZIMU VELO AIN AR TRES W  DIS CAZ7
 BAR2 EZ EP       19 0  9.02                             173    0.2410 15.4 196 
 BAR2 EZ ES       19 0 23.35                             173    0.1910 15.4 196 
 BAR2 EZ I        19 0 25.01        26.3 0.23            173           15.4 196 
 BRR  HZ EP       19 0 10.90                             149    0.0810 75.6 304 
 BRR  HN ES       19 0 26.95                             149    0.1610 75.6 304 
 BRR  HZ I        19 0 29.32        10.8 0.20            149           75.6 304 
 PAM  EZ EP       19 0 11.89                             147   -0.1510 83.7  36 
 PAM  EN ES       19 0 28.66                             147   -0.3010 83.7  36 
 PAM  EZ I        19 0 30.90        13.3 0.51            150           83.7  36 
 RUS  HZ EP       19 0 13.09                             144    0.4510 92.4 176 
 RUS  HN ES       19 0 29.86                             144   -0.1810 92.4 176 
 RUS  HZ I        19 0 33.27        10.1 0.18            147           92.4 176 
 PTB  HZ EP       19 0 16.03                             130   -0.47 9  147 262 
 PTB  HN ES       19 0 36.48                             130   -0.43 9  147 262 
 PTB  HZ I        19 0 39.57         7.1 0.15            131            147 262 
 ZAR  HZ EP   4   19 0 24.33                             120    1.74 0  207 294 
 ZAR  HE ES       19 0 48.15                             120    0.41 8  207 294 
 ZAR  HZ I        19 0 54.51        10.6 0.13            121            207 294 
 CBOC HZ E      D 1910 49.43                                            331 253 
                                                                                
