 2017  227 1325 49.1 L   6.822 -73.173149.2  RSN 23 0.4 2.9LRSN                1
 GAP= 63        1.07       3.4     3.1  4.8 -0.7855E+00  0.1817E+01  0.3680E+01E
 Epicentro: ZAPATOCA - SANTANDER                                               3
 ACTION:UPD 17-05-24 15:41 OP:jn   STATUS:               ID:20170227132549 L   I
 OLDACT:REG 17-02-27 20:45 OP:lv   STATUS:               ID:20170227131723     3
 2017-02-27-1318-00M.COL___370                                                 6
 STAT SP IPHASW D HRMM SECON CODA AMPLIT PERI AZIMU VELO AIN AR TRES W  DIS CAZ7
 BAR2 EZ IP     D 1326  9.23                             170    0.0910 25.4 182 
 BAR2 EZ ES       1326 24.22                             170   -0.5910 25.4 182 
 BAR2 EZ I        1326 25.35       221.4 0.32            171           25.4 182 
 BRR  HZ EP       1326 11.11                             154    0.7410 67.4 298 
 BRR  HE ES       1326 26.84                             154   -0.1610 67.4 298 
 BRR  HZ I        1326 31.18       110.5 0.21            150           67.4 298 
 PAM  EZ EP       1326 12.26                             151    0.6210 77.5  42 
 PAM  EN ES       1326 29.26                             151   -0.0010 77.5  42 
 PAM  EZ I        1326 31.45       218.7 0.52            147           77.5  42 
 RUS  HZ EP       1326 13.21                             144   -0.1310  103 174 
 RUS  HN ES       1326 32.21                             144   -0.0710  103 174 
 PTB  HZ EP       1326 15.81                             133   -0.28 9  145 258 
 PTB  HN ES       1326 37.08                             133   -0.10 9  145 258 
 PTB  HZ I        1326 40.03        72.6 0.16            129            145 258 
 TAM  HZ EP       1326 17.65                             130    0.32 9  159 106 
 TAM  HZ I        1326 38.56        41.7 0.44            127            159 106 
 TAM  HN ES       1326 39.25                             130   -0.14 9  159 106 
 CHI  HZ EP       1326 27.45                             117    0.33 8  250 194 
 CHI  HN ES       1326 56.73                             117   -0.08 8  250 194 
 CHI  HZ I        1327  0.27        68.1 0.58            115            250 194 
 ROSC BZ EP   9   1326 29.13                             117    1.70 0  253 210 
 ROSC BN ES       1326 57.91                                   -1.15 8  253 210 
 ROSC BZ I        1327  3.73       123.4 0.40            114            253 210 
 HEL  HZ EP   4   1326 31.43                             115    2.23 0  270 255 
 HEL  HN ES       1327  0.74                             115    0.23 8  270 255 
 HEL  HZ I        1327  7.33        53.0 0.28            112            270 255 
 URE  HZ EP   9   1326 29.15                             114   -0.74 0  280 292 
 URE  HN ES       1327  0.33                                   -0.67 7  280 292 
 URE  HZ I        1327 12.09        55.1 0.22            111            280 292 
 VIL  EZ EP       1326 33.20                             112    0.36 7  305 191 
 VIL  EN ES       1327  7.11                             112    0.12 7  305 191 
 VIL  EZ I        1327  9.98        92.2 0.40            110            305 191 
 PTGC HZ IP     D 1326 32.37                             112   -1.08 7  312 158 
 PTGC HN ES   4   1327  5.48                             112   -2.59 0  312 158 
 PTGC HZ I        1327  8.51        58.4 0.32            109            312 158 
 CBOC HZ EP   4   1326 37.22                             110    1.34 0  332 252 
 CBOC HN ES       1327 12.09                             110   -0.31 7  332 252 
 CBOC HZ I        1327 19.04        14.1 0.42            108            332 252 
 DBB  EZ EP       1326 36.76                             110    0.45 7  336 274 
 DBB  EN ES   4   1327 10.80                             110   -2.38 0  336 274 
 DBB  EZ I        1327 14.77        22.9 0.30            107            336 274 
 PRA  HZ EP       1326 43.23                             107    0.45 6  393 209 
 PRA  HN ES       1327 24.78                             107    0.10 6  393 209 
 PRA  HZ I        1327 31.37        44.2 0.34            104            393 209 
 APAC HZ EP   9   1326 40.86                             107   -2.08 0  395 288 
 APAC HN ES       1327 23.72                                    0.83 6  395 288 
 APAC HZ I        1327 30.06        19.2 0.34            104            395 288 
 ORTC HZ EP       1326 43.42                             107    0.30 6  396 216 
 ORTC HN ES   4   1327 27.03                             107    1.74 0  396 216 
 ORTC HZ I        1327 30.64        34.4 0.24            104            396 216 
 SJC  HZ EP       1326 43.56                             106   -0.74 6  406 327 
 SJC  HN ES   4   1327 24.68                             106   -2.71 0  406 327 
 SJC  HZ I        1327 36.75        17.0 0.32            103            406 327 
 VALLCHZ EP       1326 43.32                             106   -1.20 6  408 359 
 VALLCHN ES   4   1327 26.63                             106   -1.15 0  408 359 
 CRJC HZ EP   4   1326 49.54                             104   -1.85 0  465   4 
 CRJC HN ES   4   1327 36.92                             104   -3.08 0  465   4 
 CRJC HZ I        1327 44.42        21.4 0.24            101            465   4 
 SMAR HZ EP   4   1326 54.82                             103    0.17 0  494 347 
 SMAR HN ES   4   1327 42.40                             103   -3.42 0  494 347 
 SMAR HZ I        1327 45.74        15.8 0.17            100            494 347 
 MACC HZ EP   4   1326 56.32                             102   -1.77 0  523 188 
 MACC HN ES   4   1327 48.14                             102   -3.79 0  523 188 
 MACC HZ I        1327 57.66         7.1 0.25            100            523 188 
 MARO HZ EP       1326 59.94                             101   -0.25 4  537 215 
 MARO HN ES   4   1327 49.90                             101   -5.78 0  537 215 
 MARO HZ I        1328  1.03         7.2 0.32             99            537 215 
                                                                                
