 2010  827 1809 18.8 L   6.734 -73.039141.6  RSN 11 0.5 2.2LRSN                1
 GAP=171        1.27       5.3     8.4  8.3 -0.1023E+02  0.1559E+01  0.3120E+01E
 Epicentro: ARATOCA - SANTANDER                                                3
 ACTION:UP  10-09-07 10:58 OP:vdl  STATUS:               ID:20100827180918 L   I
 2010-08-27-1807-37S.COL___119                                                 6
 STAT SP IPHASW D HRMM SECON CODA AMPLIT PERI AZIMU VELO SNR AR TRES W  DIS CAZ7
 BAR2 SZ EP       18 9 37.82                             171    -0.110   22 226 
 BAR2 SZ I        18 9 38.11        43.9 0.21                            22 226 
 BAR2 SZ ES   1   18 9 52.99                             171     0.2 7   22 226 
 GIR2 SZ EP       18 9 38.19                             163    -0.110   42 336 
 GIR2 SZ ES   3   18 9 53.07                             163    -0.5 2   42 336 
 BRR  HZ EP       18 9 39.96                             147    -0.410   85 299 
 BRR  HZ I        18 9 42.45        36.1 0.06                            85 299 
 BRR  HN ES       18 9 56.88                             147    -0.310   85 299 
 RUS  HZ EP       18 9 41.55                             145    -0.110   93 183 
 RUS  HZ I        18 9 42.79        25.0 0.09                            93 183 
 RUS  HN ES       18 9 59.64                             145     0.210   93 183 
 GUE  SZ EP       18 9 43.39                             137    -0.210  122   6 
 GUE  SZ I        18 9 47.83         7.9 0.44                           122   6 
 GRA  SZ EP       18 9 45.09                             135     1.110  130  12 
 GRA  SZ I        1810  7.39        17.2 0.21                           130  12 
 CHI  HZ EP       18 9 55.62                             116    -0.3 8  245 198 
 CHI  HN ES   2   1810 24.02                             116    -0.8 4  245 198 
 CHI  HZ I        1810 30.89         6.4 0.28                           245 198 
 HEL  HN ES   3   1810 31.59                                    -0.4 2  282 258 
 HEL  HZ I        1810 36.71        13.0 0.39                           282 258 
 GUY  SZ EP   1   1810  2.30                             111    -0.6 5  307 237 
 GUY  SN ES       1810 38.48                             111     1.2 7  307 237 
 GUY  SZ I        1810 43.07        39.7 0.35                           307 237 
 TOL  SZ EP   1   1810  7.37                             108     0.1 5  347 227 
 PRA  HZ EP   1   1810 11.10                             106    -1.1 4  392 212 
 PRA  HN ES   2   1810 54.12                             106     0.4 3  392 212 
 PRA  HZ I        1810 59.04         7.5 0.88                           392 212 
                                                                                
