 2014  227 1431 35.0 L   6.794 -73.169147.0  RSN  8 0.3 2.0LRSN                1
 GAP=134        0.67       2.5     2.9  4.6 -0.5088E+00  0.4863E+01 -0.7695E+00E
 Epicentro: LOS SANTOS - SANTANDER                                             3
 ACTION:UPD 14-03-10 08:14 OP:ep   STATUS:               ID:20140227143135 L   I
 OLDACT:UP  14-02-27 17:16 OP:cam  STATUS:               ID:20140227142818     3
 OLDACT:REG 14-02-27 15:40 OP:cam  STATUS:               ID:20140227142818     3
 2014-02-27-1428-18M.COL___230                                                 6
 STAT SP IPHASW D HRMM SECON CODA AMPLIT PERI AZIMU VELO AIN AR TRES W  DIS CAZ7
 BAR2 SZ EP       1431 54.74                             171   -0.0410 22.3 184 
 BAR2 SZ ES       1432 10.12                             171   -0.0610 22.3 184 
 BAR2 SZ I        1432 11.55        32.2 0.46            171           22.3 184 
 PAM  SZ EP       1431 57.59                             150    0.1010 79.6  41 
 PAM  SN ES       1432 15.25                             150    0.2310 79.6  41 
 PAM  SZ I        1432 16.89        11.5 0.54            153           79.6  41 
 RUS  HZ EP       1431 58.88                             144    0.0210  100 175 
 RUS  HN ES       1432 17.32                             144   -0.1310  100 175 
 RUS  HZ I        1432 19.96         9.3 0.50            147            100 175 
 PTB  HZ EP       1432  1.65                             133   -0.20 9  145 259 
 PTB  HN ES       1432 22.58                             133   -0.19 9  145 259 
 PTB  HZ I        1432 26.15        12.3 0.12            133            145 259 
 ZAR  HZ EP   4   1432  8.82                             123    1.50 0  202 293 
 ZAR  HE ES       1432 33.15                             123    0.63 9  202 293 
 ZAR  HZ I        1432 39.60        11.4 0.24            124            202 293 
 NOR  HZ EP       1432 10.99                             119    0.44 8  232 234 
 NOR  HN ES       1432 38.06                             119   -0.21 8  232 234 
 NOR  HZ I        1432 41.04         7.7 0.26            121            232 234 
 SML  HZ EP   1   1432 11.26                             118   -0.40 6  243 336 
 SML  HN ES       1432 39.75                             118   -0.49 8  243 336 
 SML  HZ I        1432 42.63        12.6 0.30            119            243 336 
 CHI  HZ EP   1   1432 12.81                             117    0.17 6  247 195 
 GUY2CHZ EP   4   1432 20.51                             113    2.11 0  299 235 
 SJC  HZ EP   4   1432 28.94                             106   -1.58 0  408 327 
                                                                                
