 2011  527 1853 55.4 L   6.795 -73.059142.8  RSN  6 0.3 1.8LRSN                1
 GAP=148        0.56       3.5     6.4  6.5 -0.8033E+00 -0.8844E+01 -0.1816E+01E
 Epicentro: LOS SANTOS - SANTANDER                                             3
 ACTION:UP  11-06-29 08:56 OP:tino STATUS:               ID:20110527185355 L   I
 2011-05-27-1849-04S.COL___115                                                 6
 STAT SP IPHASW D HRMM SECON CODA AMPLIT PERI AZIMU VELO SNR AR TRES W  DIS CAZ7
 BAR2 SZ EP       1854 14.65                             169    -0.110   26 211 
 BAR2 SZ ES   2   1854 29.33                             169    -0.5 5   26 211 
 BAR2 SZ I        1854 31.35        21.7 0.12                            26 211 
 BTL  SZ EP       1854 14.93                             169     0.110   27 301 
 PAM  SZ EP   2   1854 16.83                             152    -0.2 5   72  33 
 PAM  SE ES   2   1854 34.09                             152     0.2 5   72  33 
 BRR  HZ EP   1   1854 16.60                             149    -0.2 7   80 296 
 BRR  HZ I        1854 16.94        28.2 0.12                            80 296 
 BRR  HN ES   1   1854 33.60                             149     0.1 7   80 296 
 RUS  HZ EP   1   1854 18.67                             143    -0.2 7  100 182 
 RUS  HN ES   1   1854 37.39                             143     0.3 7  100 182 
 RUS  HZ I        1854 38.62         7.4 0.33                           100 182 
 GRA  SZ EP   1   1854 20.57                             137     0.3 7  124  13 
 GRA  SZ ES   2   1854 39.23                             137    -0.4 5  124  13 
 GRA  SZ I        1854 46.47         3.4 0.21                           124  13 
                                                                                
