 2015 1127 1632  3.1 L   6.768 -73.109134.0  RSN  7 0.5 1.5LRSN                1
 GAP=143        0.95       4.5     4.4  7.6 -0.2934E+01  0.1386E+02 -0.1727E+01E
 Epicentro: LOS SANTOS - SANTANDER                                             3
 ACTION:UPD 15-12-28 16:13 OP:cam  STATUS:               ID:20151127163203 L   I
 OLDACT:REG 15-11-27 20:33 OP:ak   STATUS:               ID:20151127162751     3
 2015-11-27-1627-51M.COL___301                                                 6
 STAT SP IPHASW D HRMM SECON CODA AMPLIT PERI AZIMU VELO AIN AR TRES W  DIS CAZ7
 BAR2 EZ EP       1632 21.13                             171   -0.1810 21.0 203 
 BAR2 EZ ES       1632 35.63                             171    0.1510 21.0 203 
 BAR2 EZ I        1632 36.94        10.7 0.36            171           21.0 203 
 BRR  HZ EP       1632 23.10                             149   -0.2510 76.5 299 
 PAM  EZ EP       1632 23.96                             149   -0.1810 77.8  36 
 PAM  EN ES       1632 40.98                             149    0.4610 77.8  36 
 PAM  EZ I        1632 42.95         4.5 0.56            151           77.8  36 
 RUS  HZ EP       1632 25.26                             143   -0.2110 96.8 178 
 RUS  HN ES       1632 42.87                             143   -0.0110 96.8 178 
 RUS  HZ I        1632 44.45         4.2 0.26            145           96.8 178 
 PTB  HZ EP   1   1632 28.78                             129   -0.71 7  151 260 
 PTB  HE ES       1632 50.14                             129    0.10 9  151 260 
 PTB  HZ I        1632 52.09         5.0 0.38            131            151 260 
 ZAR  HN ES       1633  0.49                             119   -0.05 8  209 293 
 GUY2CHZ EP   2   1632 48.82                             110    2.45 4  302 236 
 GUY2CHN ES       1633 20.46                             110    0.36 7  302 236 
 GUY2CHZ I        1633 26.38         1.9 0.32                           302 236 
                                                                                
