 2010  127 1658  2.0 L   6.795 -73.255148.0  RSN  4 0.1 1.1LRSN                1
 GAP=208        0.35       3.4    19.8  4.9 -0.5274E+02  0.2991E+02 -0.5925E+01E
 Epicentro: ZAPATOCA - SANTANDER                                               3
 ACTION:UP  10-08-24 09:46 OP:vdl  STATUS:               ID:20100127165802 L   I
 2010-01-27-1639-50S.COL___089                                                 6
 STAT SP IPHASW D HRMM SECON CODA AMPLIT PERI AZIMU VELO SNR AR TRES W  DIS CAZ7
 BAR2 SZ EP       1658 22.04                             170     0.110   24 161 
 BAR2 SZ ES   2   1658 37.30                             170    -0.2 5   24 161 
 RUS  HZ EP       1658 26.04                             144     0.010  102 169 
 RUS  HE ES   2   1658 44.83                             144     0.0 5  102 169 
 RUS  HZ I        1658 45.77         1.9 0.38                           102 169 
 GUE  SZ EP       1658 27.07                             139    -0.210  120  18 
 GUE  SZ ES   2   1658 47.11                             139     0.2 5  120  18 
 GRA  SZ EP       1658 27.93                             136     0.110  130  22 
 GRA  SZ ES   2   1658 47.94                             136    -0.1 5  130  22 
                                                                                
