 2013  727 1000 51.2 L   6.829 -73.162143.7  RSN 18 0.4 2.8LRSN 3.0WRSN        1
 SPEC AVERAGE  MO 13.6 ST 14.7 OM  2.2 f0 5.59 R0.3550 AL 0.00 WI 25.8 MW  3.0 3
 SPEC SD       MO  0.2 ST 15.6 OM  0.4 f0 2.75 R0.1852 AL      WI      MW  0.1 3
 GAP= 64        0.86       2.2     2.4  4.4  0.2464E+00  0.2708E+01  0.1139E+01E
 Epicentro: LOS SANTOS - SANTANDER                                             3
 SPEC PRA HH N MO 13.8 ST  3.8 OM  1.8 f0 3.66 R0.4246 AL 0.00 WI 29.2 MW  3.2 3
 SPEC PRA HH N T10 223 K 0.000 GD  419 VS 4.20 DE 3.20 Q0300.0 QA 0.60 VS 4.20 3
 SPEC NOR HH N MO 13.5 ST 40.2 OM  1.7 f0 10.0 R0.1554 AL 0.00 WI 35.4 MW  3.0 3
 SPEC NOR HH N T10 152 K 0.000 GD  275 VS 4.20 DE 3.20 Q0300.0 QA 0.60 VS 4.20 3
 SPEC OCA HH N MO 14.0 ST 28.1 OM  2.3 f0 6.10 R0.2548 AL 0.00 WI 37.9 MW  3.3 3
 SPEC OCA HH N T10 136 K 0.000 GD  212 VS 4.20 DE 3.20 Q0300.0 QA 0.60 VS 4.20 3
 SPEC PTB HH N MO 13.5 ST 14.2 OM  1.8 f0 7.21 R0.2155 AL 0.00 WI 40.0 MW  2.9 3
 SPEC PTB HH N T10 137 K 0.000 GD  205 VS 4.20 DE 3.20 Q0300.0 QA 0.60 VS 4.20 3
 SPEC PAM SH N MO 13.6 ST0.477 OM  2.0 f0 2.16 R0.7194 AL 0.00 WI  9.6 MW  3.0 3
 SPEC PAM SH N T10 129 K 0.000 GD  162 VS 4.20 DE 3.20 Q0300.0 QA 0.60 VS 4.20 3
 SPECGUY2CHH N MO 14.3 ST0.488 OM 2.35 f0 1.31 R1.1842 AL 0.00 WI 33.8 MW  3.5 3
 SPECGUY2CHH N T10 2 8 K 0.000 GD  334 VS 4.20 DE 3.20 Q0300.0 QA 0.60 VS 4.20 3
 SPEC HEL HH Z MO 13.4 ST  2.2 OM  1.5 f0 4.25 R0.3656 AL 0.00 WI 34.7 MW  2.9 3
 SPEC HEL HH Z T10 2 0 K 0.000 GD  306 VS 4.20 DE 3.20 Q0300.0 QA 0.60 VS 4.20 3
 SPEC CHI HH N MO 14.0 ST  2.1 OM  2.1 f0 2.71 R0.5734 AL 0.00 WI 18.9 MW  3.2 3
 SPEC CHI HH N T10 156 K 0.000 GD  289 VS 4.20 DE 3.20 Q0300.0 QA 0.60 VS 4.20 3
 SPEC BRR HH N MO 13.6 ST 38.0 OM  2.0 f0 9.36 R0.1660 AL 0.00 WI 15.9 MW  3.0 3
 SPEC BRR HH N T10 127 K 0.000 GD  159 VS 4.20 DE 3.20 Q0300.0 QA 0.60 VS 4.20 3
 SPEC BAR2SH Z MO 13.4 ST  3.1 OM  1.8 f0 4.85 R0.3204 AL 0.00 WI 10.9 MW  2.9 3
 SPEC BAR2SH Z T10 124 K 0.000 GD  146 VS 4.20 DE 3.20 Q0300.0 QA 0.60 VS 4.20 3
 ACTION:UPD 13-08-12 10:40 OP:ep   STATUS:               ID:20130727100051 L   I
 OLDACT:UP  13-07-27 19:17 OP:mh   STATUS:               ID:20130727095949     3
 OLDACT:REG 13-07-27 18:58 OP:mh   STATUS:               ID:20130727095949     3
 2013-07-27-0959-49M.COL___230                                                 6
 STAT SP IPHASW D HRMM SECON CODA AMPLIT PERI AZIMU VELO AIN AR TRES W  DIS CAZ7
 BAR2 SZ EP       10 1 10.67                             169    0.0210 26.3 185 
 BAR2 SZ ES   1   10 1 26.01                             169    0.19 7 26.3 185 
 BAR2 SZ I        10 1 27.00        85.9 0.30            170           26.3 185 
 GIR2 SZ EP       10 1 10.75                             168    0.2110 27.8 353 
 GIR2 SZ ES   1   10 1 25.19                             168   -0.43 7 27.8 353 
 GIR2 SZ I        10 1 27.47        65.1 0.20            166           27.8 353 
 BRR  HZ IP     C 10 1 12.52                             153    0.5710 68.1 297 
 BRR  HN ES   1   10 1 28.57                             153    0.43 7 68.1 297 
 BRR  HN I        10 1 29.88       271.8 0.30            150           68.1 297 
 BRR  HZ I        10 1 32.10        66.0 0.32                          68.1 297 
 PAM  SZ EP       10 1 13.65                             151    0.5310 76.1  42 
 PAM  SN ES       10 1 30.30                             151    0.0810 76.1  42 
 PAM  SN I        10 1 32.84       111.0 0.54            153           76.1  42 
 RUS  HZ EP       10 1 14.67                             142   -0.3310  104 175 
 RUS  HN ES       10 1 32.93                             142   -0.6310  104 175 
 RUS  HN I        10 1 33.88        49.0 0.40            145            104 175 
 PTB  HZ EP       10 1 17.29                             132   -0.61 9  147 257 
 PTB  HN ES       10 1 38.52                             132   -0.21 9  147 257 
 PTB  HN I        10 1 43.38        92.6 0.28            131            147 257 
 OCA  HZ EP   1   10 1 18.89                             130   -0.14 7  157 354 
 OCA  HN ES   1   10 1 40.51                             130   -0.22 7  157 354 
 OCA  HN I        10 1 49.45       137.5 0.32            130            157 354 
 TAM  HZ EP   1   10 1 19.12                             129    0.16 7  158 106 
 TAM  HN ES       10 1 40.52                             129   -0.09 9  158 106 
 TAM  HN I        10 1 41.45        97.3 0.40            133            158 106 
 SPBC HZ EP   1   10 1 19.62                             128   -0.06 7  165 218 
 SPBC HN ES       10 1 42.02                             128    0.13 9  165 218 
 SPBC HN I        10 1 50.12       117.4 0.38            129            165 218 
 YOP  SZ EP   1   10 1 21.47                             125    0.01 7  183 153 
 YOP  SN ES       10 1 45.53                             125    0.46 9  183 153 
 YOP  SN I        10 1 46.52        54.3 0.44            128            183 153 
 ZAR  HZ EP   1   10 1 22.60                             122   -0.61 6  201 291 
 ZAR  HE ES       10 1 48.13                             122   -0.05 9  201 291 
 ZAR  HZ I        10 1 53.75        51.4 0.28            122            201 291 
 NOR  HZ EP     D 10 1 26.89                             118    0.03 8  235 234 
 NOR  HN ES   1   10 1 55.15                             118    0.48 6  235 234 
 NOR  HN I        10 2  2.06        63.9 0.22            118            235 234 
 SML  HZ EP       10 1 27.10                             117   -0.21 8  240 335 
 SML  HN ES       10 1 55.10                             117   -0.37 8  240 335 
 SML  HZ I        10 2  6.05        41.5 0.22            118            240 335 
 CHI  HZ EP   1   10 1 28.87                             116   -0.21 6  251 195 
 CHI  HN ES   1   10 1 58.19                             116   -0.43 6  251 195 
 CHI  HN I        10 2  0.59        73.2 0.44            118            251 195 
 HEL  HZ EP   1   10 1 32.36                             114    1.16 6  271 255 
 HEL  HN ES       10 2  2.95                             114    0.54 8  271 255 
 HEL  HN I        10 2  8.95        24.5 0.32            115            271 255 
 GUY2CHZ EP   4   10 1 34.10                             112   -0.66 0  302 234 
 GUY2CHN ES   4   10 2 10.77                             112    2.03 0  302 234 
 RREF HZ EP   3   10 1 38.35                             110    1.01 2  323 229 
 RREF HN ES   4   10 2 15.75                             110    2.42 0  323 229 
 PRA  HZ EP   1   10 1 44.45                             106   -0.43 4  394 209 
 PRA  HN ES   1   10 2 25.93                             106   -0.82 4  394 209 
 PRA  HN I        10 2 30.94        27.3 0.70            107            394 209 
 ORTC HZ EP   1   10 1 44.97                             106   -0.26 4  397 216 
 ORTC HN ES   1   10 2 28.15                             106    0.77 4  397 216 
                                                                                
