 2016  827 1158 13.0 L   6.812 -73.137148.3  RSN 18 0.3 2.4LRSN                1
 GAP= 71        0.79       2.1     2.2  3.9 -0.7023E+00  0.9158E+00  0.1062E+01E
 Epicentro: LOS SANTOS - SANTANDER                                             3
 ACTION:UPD 16-10-29 15:39 OP:rebc STATUS:               ID:20160827115813 L   I
 OLDACT:UP  16-08-27 23:06 OP:ar   STATUS:               ID:20160827115733     3
 OLDACT:UP  16-08-27 23:05 OP:ar   STATUS:               ID:20160827115733     3
 OLDACT:REG 16-08-27 21:30 OP:ar   STATUS:               ID:20160827115733     3
 2016-08-27-1158-00M.COL___371                                                 6
 STAT SP IPHASW D HRMM SECON CODA AMPLIT PERI AZIMU VELO AIN AR TRES W  DIS CAZ7
 BAR2 EZ IP     D 1158 32.94                             170   -0.0810 24.8 192 
 BAR2 HN ES       1158 48.41                             170   -0.1810 24.8 192 
 BAR2 EZ I        1158 49.53        75.9 0.22                          24.8 192 
 BRR  HZ EP       1158 34.77                             153    0.2810 71.4 297 
 BRR  HN ES       1158 51.74                             153    0.5310 71.4 297 
 BRR  HZ I        1158 55.76        37.4 0.28                          71.4 297 
 PAM  EZ EP       1158 35.88                             152    0.4410 75.7  40 
 PAM  EE ES       1158 53.04                             152    0.1310 75.7  40 
 PAM  EZ I        1158 56.10        20.2 0.52                          75.7  40 
 RUS  HZ EP       1158 36.93                             144   -0.2110  102 177 
 RUS  HN ES       1158 55.72                             144   -0.2110  102 177 
 RUS  HZ I        1158 57.10        16.3 0.40                           102 177 
 PTB  HZ EP       1158 39.74                             132   -0.59 9  149 258 
 PTB  HE ES       1159  1.39                             132   -0.22 9  149 258 
 PTB  HZ I        1159  7.30        25.0 0.34                           149 258 
 TAM  HZ EP       1158 41.33                             131    0.45 9  155 106 
 TAM  HZ I        1158 56.78        20.6 0.52                           155 106 
 TAM  HN ES       1159  2.34                             131   -0.24 9  155 106 
 OCA  HZ EP       1158 41.09                             130   -0.35 9  159 353 
 OCA  HE ES       1159  3.65                             130    0.06 9  159 353 
 OCA  HZ I        1159  6.38        40.8 0.16                           159 353 
 SPBC HZ EP       1158 41.80                             129   -0.10 9  165 219 
 SPBC HN ES       1159  4.50                             129    0.10 9  165 219 
 SPBC HZ I        1159  8.80        41.2 0.18                           165 219 
 ZAR  HZ EP       1158 45.80                             123    0.10 9  204 292 
 ZAR  HN ES       1159 10.77                             123   -0.40 9  204 292 
 ZAR  HZ I        1159 16.08        26.5 0.36                           204 292 
 NOR  HZ EP       1158 49.14                             119    0.05 8  236 234 
 NOR  HE ES       1159 16.95                             119   -0.26 8  236 234 
 NOR  HZ I        1159 26.24        12.2 0.36                           236 234 
 CHI  HZ EP       1158 51.25                             117    0.19 8  250 195 
 CHI  HN ES       1159 20.46                             117   -0.24 8  250 195 
 CHI  HZ I        1159 24.18        14.5 0.48                           250 195 
 HEL  HZ EP   4   1158 54.52                             115    0.99 0  273 256 
 HEL  HN ES       1159 25.14                             115    0.03 8  273 256 
 HEL  HZ I        1159 30.98        10.9 0.30                           273 256 
 URE  HZ EP   4   1158 49.96                             114   -4.33 0  284 292 
 URE  HN ES   4   1159 23.51                             114   -2.94 0  284 292 
 URE  HZ I        1159 31.27        10.1 0.14                           284 292 
 SOCV BZ EP       1158 55.81                             113   -0.23 7  300  57 
 GUY2CHZ EP   4   1158 52.79                             113   -4.16 0  303 235 
 GUY2CHE ES   4   1159 34.16                             113    2.97 0  303 235 
 GUY2CHZ I        1159 39.11        14.6 0.34                           303 235 
 VIL  EZ EP   4   1158 55.72                             112   -1.03 0  305 192 
 VIL  EE ES       1159 31.10                             112    0.26 7  305 192 
 VIL  EZ I        1159 40.67        26.1 0.38                           305 192 
 ELA  HZ EP   4   1159  5.89                             111    5.70 0  331 229 
 ELA  HN ES   4   1159 38.91                             111    1.95 0  331 229 
 ELA  HZ I        1159 45.55        11.5 0.52                           331 229 
 ANIL HZ EP   4   1159  5.03                             109    1.89 0  359 224 
 ANIL HN ES       1159 43.25                             109    1.04 6  359 224 
 ANIL HZ I        1159 46.92        28.4 0.42                           359 224 
                                                                                
