 2013 1227 1111 38.2 L   6.803 -73.185141.7  RSN  7 0.3 1.7LRSN                1
 GAP=132        0.64       2.2     4.7  4.9 -0.1078E+00  0.1221E+02 -0.5448E+00E
 Epicentro: LOS SANTOS - SANTANDER                                             3
 ACTION:UPD 14-01-13 10:21 OP:ep   STATUS:               ID:20131227111138 L   I
 OLDACT:REG 13-12-27 14:14 OP:jn   STATUS:               ID:20131227111000     3
 2013-12-27-1110-00M.COL___285                                                 6
 STAT SP IPHASW D HRMM SECON CODA AMPLIT PERI AZIMU VELO AIN AR TRES W  DIS CAZ7
 BAR2 SZ EP       1111 57.49                             170    0.1310 23.3 179 
 BAR2 SZ ES       1112 12.27                             170   -0.0210 23.3 179 
 BAR2 SZ I        1112 14.06        26.5 0.24            160           23.3 179 
 PAM  SZ EP       1112  0.46                             149    0.2910 80.0  42 
 PAM  SN ES       1112 17.42                             149    0.1410 80.0  42 
 PAM  SZ I        1112 19.88         5.8 0.56            156           80.0  42 
 RUS  HZ EP       1112  1.51                             143   -0.1210  101 174 
 RUS  HN ES       1112 19.68                             143   -0.2110  101 174 
 RUS  HZ I        1112 22.12         4.8 0.42            140            101 174 
 PTB  HZ EP       1112  4.35                             132   -0.13 9  144 258 
 PTB  HZ I        1112 30.38         7.4 0.26            123            144 258 
 ZAR  HN ES   2   1112 35.67                             122    0.93 4  200 293 
 SML  HZ EP       1112 14.58                             117    0.18 8  242 336 
 SML  HN ES       1112 41.99                             117   -0.62 8  242 336 
 CHI  HZ EP       1112 15.73                             116    0.12 8  248 194 
 CHI  HN ES       1112 44.68                             116   -0.10 8  248 194 
 CHI  HZ I        1112 54.91         2.5 0.38            114            248 194 
                                                                                
