 2011  327 1405 48.8 L   7.238 -73.737 90.5  RSN 21 0.5 3.9LRSN                1
 GAP=118        0.94       3.5     4.1  6.2 -0.5257E+01  0.9657E+01  0.1628E+01E
 Epicentro: PUERTO WILCHES - SANTANDER                                         3
 Evento sentido                                                                2
 Reportado como sentido                                                        3
 BUCARAMANGA, FLORIDABLANCA (SANTANDER)                                        3
 ACTION:UP  11-06-16 14:36 OP:jfem STATUS:               ID:20110327140548 L   I
 2011-03-27-1404-07S.COL___138                                                 6
 STAT SP IPHASW D HRMM SECON CODA AMPLIT PERI AZIMU VELO SNR AR TRES W  DIS CAZ7
 BRR  HZ IP     D 14 6  1.32                             170     0.110   15 169 
 BRR  HZ I        14 6  1.54      8372.8 0.14                            15 169 
 BRR  HE ES   1   14 6 11.17                             170     0.3 7   15 169 
 BTL  SZ IP       14 6  3.91                             143    -0.110   63 124 
 GIR2 SZ ES   2   14 6 14.87                             143    -0.7 5   63 106 
 BAR2 SZ EP       14 6  6.60                             130     0.010   94 139 
 BAR2 SZ ES   1   14 6 20.71                             130     0.1 7   94 139 
 BAR2 SZ I        14 6 23.09      7282.7 0.37                            94 139 
 GUE  SZ EP   1   14 6  8.57                             125     0.2 7  111  54 
 PAM  SZ EP   1   14 6  9.22                             125     0.2 7  115  84 
 PAM  SN ES   1   14 6 25.04                             125     0.2 7  115  84 
 PAM  SZ I        14 6 26.40       905.8 0.25                           115  84 
 OCA  SZ IP       14 6  9.67                             123     0.610  120  23 
 OCA  SZ ES   3   14 6 25.25                             123     0.3 2  120  23 
 OCA  SZ I        14 6 29.81      1374.2 0.58                           120  23 
 GRA  SZ IP   3   14 6  8.45                             122    -1.2 2  125  55 
 GRA  SZ ES   1   14 6 24.88                             122    -1.1 7  125  55 
 GRA  SZ I        14 6 26.47      2128.0 0.20                           125  55 
 NOR  SZ EP   2   14 6 19.59                             107    -1.0 4  223 214 
 NOR  SE ES   2   14 6 45.01                             107    -0.5 4  223 214 
 HEL  HZ EP   1   14 6 20.80                             107    -0.9 6  229 240 
 YOP  SZ EP   1   14 6 24.38                             105     0.0 6  254 145 
 YOP  SN ES   1   14 6 52.28                             105     0.2 6  254 145 
 YOP  SZ I        14 6 59.35       308.0 0.24                           254 145 
 MON  HZ IP   4 C 14 6 25.74                             104    -0.6 0  272 309 
 DBB  SZ EP   1   14 6 26.41                             104    -0.3 6  274 265 
 GUY  SZ EP   2   14 6 28.63                             103     0.0 4  286 219 
 GUY  SZ I        14 7  6.41       426.5 0.24                           286 219 
 CHI  HZ EP   1   14 6 27.91                             103    -0.9 5  288 180 
 CHI  HN ES   1   14 7  0.45                             103     0.4 5  288 180 
 CHI  HZ I        14 7 12.79       157.7 0.34                           288 180 
 RREF HZ EP   1   14 6 32.55                             102     0.4 5  314 215 
 RREF HN ES   1   14 7  5.73                             102    -0.3 5  314 215 
 RREF HZ I        14 7 11.95       254.7 0.29                           314 215 
 TOL  SZ EP   2   14 6 35.09                             101    -0.1 3  342 211 
 VIL  SZ EP   1   14 6 34.84                             101    -0.5 5  346 179 
 VIL  SE ES   2   14 7 11.90                             101     0.1 3  346 179 
 VIL  SZ I        14 7 24.09       384.8 0.58                           346 179 
 ANIL HZ EP   1   14 6 37.37                             100     0.6 5  355 211 
 ANIL HN ES   1   14 7 14.92                             100     0.7 5  355 211 
 ANIL HZ I        14 7 21.40       589.4 0.29                           355 211 
 SDV  BZ EP   1   14 6 41.05                              99     0.5 4  388  62 
 PRA  HZ EP   1   14 6 43.48                              99     0.4 4  410 198 
 HORQ SZ EP       14 6 58.01                              97     0.6 4  524 218 
 FLO2 HZ EP   4   14 7 12.69                              95    -1.1 0  660 199 
                                                                                
