 2016  327 1403 11.0 L   6.790 -73.158144.8  RSN  7 0.3 1.4LRSN                1
 GAP=141        0.45       4.3     5.3  5.8 -0.1519E+02  0.3147E+01  0.2070E+01E
 Epicentro: LOS SANTOS - SANTANDER                                             3
 ACTION:UPD 16-05-13 21:28 OP:cam  STATUS:               ID:20160327140311 L   I
 OLDACT:REG 16-03-27 20:36 OP:dnl  STATUS:               ID:20160327135747     3
 2016-03-27-1357-47M.COL___294                                                 6
 STAT SP IPHASW D HRMM SECON CODA AMPLIT PERI AZIMU VELO AIN AR TRES W  DIS CAZ7
 BAR2 EZ EP   2   14 3 30.63                             171    0.14 5 22.0 187 
 BAR2 EZ ES   2   14 3 45.85                             171    0.16 5 22.0 187 
 BAR2 EZ I        14 3 48.30         5.6 0.38            167           22.0 187 
 PAM  EZ EP       14 3 33.19                             150   -0.0310 79.1  40 
 PAM  EN ES       14 3 50.55                             150    0.0010 79.1  40 
 PAM  EZ I        14 3 52.82         4.1 0.52            155           79.1  40 
 RUS  HZ EP   2   14 3 34.95                             144    0.37 5 99.6 175 
 RUS  HN ES   2   14 3 52.52                             144   -0.46 5 99.6 175 
 RUS  HZ I        14 3 54.83         1.6 0.19            145           99.6 175 
 PTB  HN ES   2   14 3 58.19                             132   -0.42 5  146 259 
 PTB  HZ I        14 4  4.37         3.5 0.12            129            146 259 
 SPBC HZ EP   3   14 3 39.47                             129    0.21 2  161 219 
 SPBC HE ES   2   14 4  1.80                             129    0.50 5  161 219 
 SPBC HZ I        14 4  4.88         5.1 0.22            128            161 219 
 ZAR  HZ EP   4   14 3 45.67                             122    2.38 0  203 293 
 ZAR  HN ES   4   14 4 11.04                             122    2.55 0  203 293 
 ZAR  HZ I        14 4 15.31         2.9 0.27            121            203 293 
 CHI  HZ EP   3   14 3 47.43                             117   -1.06 2  247 195 
 CHI  HN ES   3   14 4 17.49                             117   -0.24 2  247 195 
 CHI  HE I        14 4 24.67         4.0 0.58            117            247 195 
                                                                                
