 2011  327 1533 20.2 L   6.751 -73.067147.4  RSN  5 0.2 1.6LRSN                1
 GAP=203        0.42       4.8     5.1  5.2 -0.1183E+02  0.1433E+01  0.8253E+01E
 Epicentro: LOS SANTOS - SANTANDER                                             3
 ACTION:UP  11-06-16 14:36 OP:jfem STATUS:               ID:20110327153320 L   I
 2011-03-27-1530-25S.COL___138                                                 6
 STAT SP IPHASW D HRMM SECON CODA AMPLIT PERI AZIMU VELO SNR AR TRES W  DIS CAZ7
 BAR2 SZ EP   1   1533 39.99                             171     0.0 7   22 216 
 BAR2 SZ ES   1   1533 55.40                             171    -0.1 7   22 216 
 BAR2 SZ I        1533 58.54         7.7 0.20                            22 216 
 BTL  SZ EP   1   1533 40.49                             168     0.3 7   29 310 
 BRR  HE ES   1   1533 59.32                             149     0.0 7   81 299 
 BRR  HZ I        1534  3.17        13.2 0.17                            81 299 
 GRA  SZ ES   2   1534  5.59                             136    -0.3 5  129  13 
 GRA  SZ I        1534  6.80         3.9 0.30                           129  13 
 NOR  SZ EP   1   1533 56.48                             118     0.0 6  239 237 
 NOR  SE ES   1   1534 24.71                             118    -0.1 6  239 237 
                                                                                
