 2013  927 1109 48.2 L   6.726 -73.161147.7  RSN  5 0.4 1.4LRSN                1
 GAP=138        1.05       5.6     5.4  7.7 -0.2742E+01  0.4902E+01  0.1196E+01E
 Epicentro: VILLANUEVA - SANTANDER                                             3
 ACTION:UPD 13-10-22 09:25 OP:ep   STATUS:               ID:20130927110948 L   I
 OLDACT:REG 13-09-27 16:28 OP:stll STATUS:               ID:20130927110838     3
 2013-09-27-1108-38M.COL___241                                                 6
 STAT SP IPHASW D HRMM SECON CODA AMPLIT PERI AZIMU VELO AIN AR TRES W  DIS CAZ7
 BAR2 SZ EP       1110  7.95                             174   -0.0110 15.0 189 
 BAR2 SZ I        1110  8.14         5.6 0.16            170           15.0 189 
 BAR2 SZ ES       1110 23.51                             174    0.1610 15.0 189 
 BRR  HZ EP       1110 10.12                             152    0.3610 74.0 305 
 BRR  HZ I        1110 10.48         5.6 0.40            149           74.0 305 
 BRR  HN ES       1110 27.15                             152    0.6110 74.0 305 
 PAM  SZ EP       1110 11.37                             149    0.2610 84.8  37 
 PAM  SN ES       1110 28.24                             149   -0.7210 84.8  37 
 RUS  HZ EP       1110 11.79                             146    0.1710 92.6 175 
 RUS  HZ I        1110 12.81         2.8 0.18            146           92.6 175 
 RUS  HN ES       1110 29.82                             146   -0.0410 92.6 175 
 PTB  HZ EP       1110 14.74                             133   -0.35 9  145 262 
 PTB  HN ES       1110 35.48                             133   -0.55 9  145 262 
 PTB  HZ I        1110 43.42         3.6 0.30            130            145 262 
                                                                                
