 2016  927 1023 58.9 L   6.815 -73.144150.0  RSN 17 0.5 2.6LRSN                1
 GAP=119        1.12       3.2     4.6  5.6 -0.4283E+01  0.4060E+01  0.3474E+01E
 Epicentro: LOS SANTOS - SANTANDER                                             3
 ACTION:UPD 17-08-17 21:16 OP:lp   STATUS:               ID:20160927102358 L   I
 OLDACT:UP  16-09-27 21:48 OP:dani STATUS:               ID:20160927101745     3
 OLDACT:UP  16-09-27 21:48 OP:dani STATUS:               ID:20160927101745     3
 OLDACT:UP  16-09-27 21:48 OP:dani STATUS:               ID:20160927101745     3
 OLDACT:REG 16-09-27 20:05 OP:dani STATUS:               ID:20160927101745     3
 2016-09-27-1018-00M.COL___357                                                 6
 STAT SP IPHASW D HRMM SECON CODA AMPLIT PERI AZIMU VELO AIN AR TRES W  DIS CAZ7
 BAR2 EZ EP     D 1024 19.15                             170    0.0410 25.0 190 
 BAR2 EZ ES       1024 34.91                             170    0.0610 25.0 190 
 BAR2 EZ I        1024 36.97        60.8 0.24            168           25.0 190 
 BRR  HZ IP     D 1024 20.91                             154    0.4010 70.6 297 
 BRR  HN ES       1024 37.96                             154    0.6210 70.6 297 
 BRR  HZ I        1024 41.94        90.3 0.50            149           70.6 297 
 PAM  EZ EP       1024 22.14                             152    0.6110 76.0  40 
 PAM  EE ES       1024 39.34                             152    0.2010 76.0  40 
 PAM  EZ I        1024 41.34        94.1 0.52            157           76.0  40 
 RUS  HZ EP     D 1024 23.09                             144   -0.1410  102 176 
 RUS  HE ES       1024 41.84                             144   -0.3410  102 176 
 RUS  HZ I        1024 45.23        21.9 0.42            147            102 176 
 PTB  HZ EP       1024 25.53                             133   -0.77 9  148 258 
 PTB  HN ES       1024 47.05                             133   -0.60 9  148 258 
 PTB  HZ I        1024 53.86        32.9 0.52            131            148 258 
 OCA  HZ EP       1024 27.17                             131   -0.26 9  159 353 
 OCA  HE ES       1024 49.17                             131   -0.48 9  159 353 
 OCA  HZ I        1024 58.96        51.2 0.27            132            159 353 
 SPBC HZ EP       1024 27.92                             130    0.02 9  165 219 
 SPBC HE ES       1024 50.04                             130   -0.45 9  165 219 
 SPBC HZ I        1024 58.58        53.3 0.50            130            165 219 
 ZAR  HZ EP       1024 31.67                             123    0.05 9  204 292 
 ZAR  HE ES   4   1024 55.54                             123   -1.57 0  204 292 
 ZAR  HZ I        1025  3.23        44.6 0.30            123            204 292 
 NOR  HZ EP       1024 34.48                             119   -0.56 8  236 234 
 NOR  HN ES       1025  2.91                             119   -0.29 8  236 234 
 NOR  HZ I        1025 10.67        27.5 0.18            120            236 234 
 CHI  HZ EP       1024 37.54                             118    0.48 8  250 195 
 CHI  HE ES       1025  6.68                             118   -0.11 8  250 195 
 CHI  HZ I        1025  9.16        24.2 0.30            120            250 195 
 ROSC BZ EP       1024 38.05                             117    0.59 8  254 211 
 ROSC BN ES       1025  8.10                             117    0.59 8  254 211 
 ROSC BZ I        1025 12.94        57.9 0.35            119            254 211 
 HEL  HZ EP   4   1024 41.29                             116    1.85 0  273 255 
 HEL  HN ES   4   1025 14.50                             116    3.48 0  273 255 
 HEL  HZ I        1025 20.11        12.2 0.26            116            273 255 
 URE  HZ EP   4   1024 44.09                             114    3.92 0  283 292 
 URE  HN ES   4   1025 17.70                             114    5.38 0  283 292 
 GUY2CHZ EP   4   1024 44.61                             113    1.74 0  302 235 
 GUY2CHN ES   4 D 1025 21.25                             113    4.11 0  302 235 
 GUY2CHZ I        1025 25.05        10.8 0.50                           302 235 
 PTGC HZ EP       1024 42.37                             112   -0.79 7  310 159 
 PTGC HE ES   4   1025 15.53                             112   -2.12 0  310 159 
 PTGC HZ I        1025 18.56        28.7 0.39            115            310 159 
 ELA  HZ EP       1024 46.66                             111    0.55 7  330 229 
 ELA  HN ES       1025 23.84                             111    0.93 7  330 229 
 ELA  HZ I        1025 30.73        13.7 0.40            112            330 229 
 ANIL HZ EP   4   1024 51.43                             109    2.37 0  359 224 
 ANIL HN ES   4   1025 30.14                             109    1.98 0  359 224 
 SJC  HZ EP   4   1024 52.93                             106   -1.56 0  408 327 
 SJC  HN ES   4   1025 34.54                             106   -3.28 0  408 327 
 SJC  HZ I        1025 44.48         5.8 0.28            108            408 327 
 CRJC HZ EP   4   1024 59.48                             104   -1.88 0  466   4 
 CRJC HE ES   4   1025 46.95                             104   -3.09 0  466   4 
 CRJC HZ I        1025 50.07         7.8 0.50            106            466   4 
                                                                                
