 2014  127 1708  4.2 L   6.799 -73.137141.2  RSN  4 0.4 1.5LRSN                1
 GAP=138        0.96       5.0     4.6  9.5 -0.4552E+00  0.1816E+02 -0.4545E+01E
 Epicentro: LOS SANTOS - SANTANDER                                             3
 ACTION:UPD 14-03-13 09:59 OP:ep   STATUS:               ID:20140127170804 L   I
 OLDACT:REG 14-01-27 18:41 OP:nd   STATUS:               ID:20140127170000     3
 2014-01-27-1700-00M.COL___285                                                 6
 STAT SP IPHASW D HRMM SECON CODA AMPLIT PERI AZIMU VELO AIN AR TRES W  DIS CAZ7
 PAM  SZ EP       17 8 26.19                             150    0.3310 76.9  39 
 PAM  SN ES       17 8 42.49                             150   -0.3010 76.9  39 
 PAM  SZ I        17 8 46.30         6.9 0.70            153           76.9  39 
 RUS  HZ EP       17 8 27.76                             143    0.3210  100 177 
 RUS  HN ES       17 8 45.68                             143    0.0710  100 177 
 RUS  HZ I        17 8 48.79         4.2 0.26            146            100 177 
 PTB  HZ EP       17 8 30.27                             131   -0.56 9  149 259 
 PTB  HN ES       17 8 51.42                             131   -0.22 9  149 259 
 PTB  HZ I        17 8 52.96         5.8 0.16            135            149 259 
 ZAR  HZ EP       17 8 36.06                             121   -0.34 9  205 292 
 ZAR  HN ES       17 9  2.23                             121    0.68 9  205 292 
                                                                                
