 2010  627 1058 23.5 L   6.734 -73.072146.7  RSN  5 0.3 1.7LRSN                1
 GAP=203        0.58       7.8     8.6  8.2 -0.2900E+02 -0.2047E+02  0.1006E+01E
 Epicentro: JORDAN - SANTANDER                                                 3
 ACTION:UP  10-08-24 10:13 OP:vdl  STATUS:               ID:20100627105823 L   I
 2010-06-27-1058-28S.COL___118                                                 6
 STAT SP IPHASW D HRMM SECON CODA AMPLIT PERI AZIMU VELO SNR AR TRES W  DIS CAZ7
 BAR2 SZ EP   2   1058 43.27                             172     0.1 5   20 218 
 BAR2 SZ ES   2   1058 58.71                             172     0.2 5   20 218 
 BRR  HZ EP   1   1058 45.23                             149    -0.2 7   82 300 
 BRR  HN ES   1   1059  2.51                             149     0.0 7   82 300 
 BRR  HZ I        1059  4.86         7.0 0.16                            82 300 
 BRI  SZ EP   1   1058 47.87                             140     0.0 7  113  16 
 BRI  SZ ES   2   1059  6.07                             140    -0.7 5  113  16 
 GRA  SZ ES   2   1059  9.97                             136     0.6 5  131  13 
 OCA  SZ EP   2   1058 52.96                             128     0.3 5  169 351 
 OCA  SZ I        1059 20.18         6.5 0.38                           169 351 
                                                                                
