 2017  627 1905  9.8 L   6.805 -73.137140.1  RSN 12 0.4 2.1LRSN                1
 GAP=138        0.95       4.0     3.6  5.6  0.1662E+01  0.5562E+00  0.7654E+01E
 Epicentro: LOS SANTOS - SANTANDER                                             3
 ACTION:UPD 17-09-14 16:55 OP:jn   STATUS:               ID:20170627190509 L   I
 OLDACT:REG 17-06-27 21:49 OP:osc  STATUS:               ID:20170627185746     3
 2017-06-27-1858-00M.COL___367                                                 6
 STAT SP IPHASW D HRMM SECON CODA AMPLIT PERI AZIMU VELO AIN AR TRES W  DIS CAZ7
 BAR2 EZ EP       19 5 28.76                             170    0.0410 24.0 192 
 BAR2 EZ ES       19 5 43.56                             170    0.0410 24.0 192 
 BAR2 EZ I        19 5 45.00        62.0 0.28            167           24.0 192 
 BRR  HZ EP       19 5 30.43                             151    0.1010 71.8 298 
 BRR  HE ES       19 5 46.81                             151    0.4310 71.8 298 
 BRR  HZ I        19 5 50.76        27.7 0.30            153           71.8 298 
 PTB  HZ EP       19 5 35.49                             130   -0.88 9  149 259 
 PTB  HN ES       19 5 56.67                             130   -0.45 9  149 259 
 PTB  HZ I        19 5 58.44         6.6 0.12            132            149 259 
 TAM  HZ IP     D 19 5 37.18                             129    0.27 9  154 105 
 YPLC HZ EP       19 5 38.84                             125   -0.30 9  177 152 
 YPLC HE ES   4   19 6  3.70                             125    1.63 0  177 152 
 YPLC HZ I        19 6  5.99        15.9 0.24            127            177 152 
 ZAR  HZ EP       19 5 42.30                             121    0.39 9  205 292 
 ZAR  HE ES       19 6  6.63                             121   -0.36 9  205 292 
 ZAR  HZ I        19 6  9.14        18.7 0.24            123            205 292 
 NOR  HZ EP       19 5 44.90                             117   -0.38 8  236 234 
 NOR  HE ES       19 6 13.32                             117    0.32 8  236 234 
 NOR  HZ I        19 6 18.65         6.8 0.24            118            236 234 
 CHI  HZ EP       19 5 47.05                             116   -0.18 8  249 195 
 CHI  HN ES       19 6 16.26                             116   -0.20 8  249 195 
 CHI  HZ I        19 6 21.87         7.6 0.28            117            249 195 
 GUY2CHZ EP       19 5 54.06                             111    0.83 7  302 235 
 GUY2CHE ES       19 6 27.15                             111    0.00 7  302 235 
 GUY2CHZ I        19 6 34.75         5.5 0.26                           302 235 
 PTGC HZ EP   9   19 5 51.83                             110   -1.55 0  309 159 
 PTGC HN ES       19 6 25.49                                   -0.37 7  309 159 
 ORTC HZ EP       19 6  3.77                             105    0.16 6  396 216 
 ORTC HN ES       19 6 46.63                             105    1.02 6  396 216 
 ORTC HZ I        19 6 50.15         4.9 0.20            107            396 216 
 SJC  HZ EP   9   19 6  2.24                             105   -2.91 0  409 327 
 SJC  HN ES       19 6 45.32                                   -0.12 6  409 327 
 SJC  HZ I        19 6 48.64         2.6 0.26            107            409 327 
                                                                                
