 2017  927 1223 29.6 L   6.742 -73.148138.0  RSN  5 0.4 1.5LRSN                1
 GAP=233        0.92       5.2     6.1  6.7  0.1438E+02  0.1606E+02  0.4850E+01E
 Epicentro: LOS SANTOS - SANTANDER                                             3
 ACTION:UPD 17-10-05 19:16 OP:rebc STATUS:               ID:20170927122329 L   I
 OLDACT:REG 17-09-27 20:31 OP:dhb  STATUS:               ID:20170927121745     3
 2017-09-27-1218-00M.COL___450                                                 6
 STAT SP IPHASW D HRMM SECON CODA AMPLIT PERI AZIMU VELO AIN AR TRES W  DIS CAZ7
 BAR2 EZ IP     C 1223 47.71                             173   -0.4710 17.0 193 
 BAR2 EZ ES       1224  2.33                             173   -0.3410 17.0 193 
 BAR2 EZ I        1224  3.55         6.7 0.22            165           17.0 193 
 BRR  HZ EP       1223 49.90                             150   -0.2010 74.3 303 
 BRR  HE ES       1224  6.66                             150    0.5710 74.3 303 
 BRR  HZ I        1224  9.58         8.2 0.36            147           74.3 303 
 RUS  HZ EP       1223 52.24                             144    0.1110 94.2 176 
 RUS  HN ES       1224 10.05                             144    0.3510 94.2 176 
 RUS  HZ I        1224 12.06         5.9 0.44            143           94.2 176 
 ZAR  HZ EP       1224  2.19                             120    0.40 8  206 294 
 ZAR  HN ES       1224 26.57                             120   -0.33 8  206 294 
 ZAR  HZ I        1224 32.53         2.3 0.13            120            206 294 
 NOR  HZ EP       1224  4.73                             117    0.26 8  231 236 
 NOR  HN ES       1224 31.33                             117   -0.34 8  231 236 
 NOR  HZ I        1224 38.76         1.8 0.21            117            231 236 
                                                                                
