 2014 1127 1237 19.4 L   6.770 -73.165149.7  RSN  4 0.3 1.2LRSN                1
 GAP=139        0.69       7.2     5.3  8.4 -0.6111E+01  0.7031E+01 -0.2685E+02E
 Epicentro: LOS SANTOS - SANTANDER                                             3
 ACTION:UPD 14-12-19 15:48 OP:nd   STATUS:               ID:20141127123719 L   I
 OLDACT:REG 14-11-27 16:54 OP:spq  STATUS:               ID:20141127122747     3
 2014-11-27-1227-47M.COL___306                                                 6
 STAT SP IPHASW D HRMM SECON CODA AMPLIT PERI AZIMU VELO AIN AR TRES W  DIS CAZ7
 BAR2 SZ EP   1   1237 39.09                             172   -0.34 7 19.7 185 
 BAR2 SZ ES   1   1237 55.21                             172    0.15 7 19.7 185 
 BAR2 SZ I        1237 57.90         4.8 0.48            173           19.7 185 
 PAM  SZ EP       1237 42.28                             150    0.0110 81.3  39 
 RUS  HZ EP   1   1237 42.98                             145   -0.34 7 97.4 175 
 RUS  HN ES   1   1238  2.13                             145    0.16 7 97.4 175 
 RUS  HZ I        1238  3.82         2.5 0.34            148           97.4 175 
 PTB  HZ EP       1237 46.91                             133    0.47 9  145 260 
 PTB  HN ES   1   1238  7.11                             133   -0.43 7  145 260 
 PTB  HZ I        1238  8.99         1.8 0.54            136            145 260 
                                                                                
