 2013  827 1440 32.0 L   6.756 -73.163141.5  RSN  5 0.4 1.6LRSN                1
 GAP=232        1.10       6.4     6.9  8.1  0.1007E+02  0.8311E+01  0.5558E+01E
 Epicentro: LOS SANTOS - SANTANDER                                             3
 ACTION:UPD 14-01-14 09:07 OP:ep   STATUS:               ID:20130827144032 L   I
 OLDACT:REG 13-08-27 15:36 OP:nd   STATUS:               ID:20130827143959     3
 2013-08-27-1439-59M.COL___270                                                 6
 STAT SP IPHASW D HRMM SECON CODA AMPLIT PERI AZIMU VELO AIN AR TRES W  DIS CAZ7
 BAR2 SZ EP       1440 50.81                             172   -0.2510 18.2 187 
 BAR2 SZ ES       1441  5.33                             172   -0.5710 18.2 187 
 BAR2 SZ I        1441  7.26         9.2 0.34            169           18.2 187 
 BRR  HZ EP       1440 52.83                             151    0.0510 72.1 303 
 BRR  HN ES       1441  9.71                             151    0.7510 72.1 303 
 BRR  HZ I        1441 10.15        11.1 0.48            150           72.1 303 
 RUS  HZ EP     C 1440 55.05                             144    0.0210 95.8 175 
 RUS  HN ES       1441 13.21                             144    0.2510 95.8 175 
 RUS  HZ I        1441 14.35         5.4 0.22            144           95.8 175 
 PTB  HZ EP       1440 58.48                             132    0.07 9  145 261 
 PTB  HN ES       1441 18.22                             132   -0.76 9  145 261 
 PTB  HZ I        1441 23.99         3.6 0.26            131            145 261 
 SPBC HZ EP       1440 59.72                             129   -0.02 9  158 220 
 SPBC HN ES       1441 21.79                             129    0.45 9  158 220 
 SPBC HZ I        1441 24.44         7.4 0.20            128            158 220 
                                                                                
