 2016  127 1615  4.9 L   6.803 -73.126145.8  RSN  6 0.3 1.7LRSN                1
 GAP=139        0.66       2.9     4.0  5.3  0.1697E+01  0.5464E+01 -0.5099E+01E
 Epicentro: LOS SANTOS - SANTANDER                                             3
 ACTION:UPD 16-03-09 23:29 OP:cam  STATUS:               ID:20160127161504 L   I
 OLDACT:REG 16-01-27 21:29 OP:cara STATUS:               ID:20160127160748     3
 2016-01-27-1607-48M.COL___315                                                 6
 STAT SP IPHASW D HRMM SECON CODA AMPLIT PERI AZIMU VELO AIN AR TRES W  DIS CAZ7
 BAR2 EZ IP       1615 24.51                             170    0.0110 24.2 195 
 BAR2 EZ ES       1615 39.39                             170   -0.4310 24.2 195 
 BAR2 EZ I        1615 41.88        11.1 0.22            167           24.2 195 
 PAM  EZ EP       1615 27.17                             151    0.2010 75.7  38 
 PAM  EN ES       1615 44.28                             151    0.0610 75.7  38 
 PAM  EZ I        1615 45.92        11.5 0.68            154           75.7  38 
 RUS  HZ EP       1615 28.62                             144   -0.0010  101 177 
 RUS  HN ES       1615 47.37                             144    0.2110  101 177 
 RUS  HZ I        1615 48.78         4.9 0.26            143            101 177 
 ZAR  HN ES       1616  3.04                             122    0.09 8  206 292 
 ZAR  HZ I        1616  7.29         6.7 0.26            121            206 292 
 SML  HZ EP       1615 41.05                             117   -0.49 8  244 335 
 SML  HN ES       1616 10.47                             117    0.31 8  244 335 
 SML  HZ I        1616 15.26         6.9 0.24            117            244 335 
 CHI  HZ EP   9   1615 44.33                             117    1.68 0  250 196 
 CHI  HE ES       1616 14.11                                    0.30 8  250 196 
 CHI  HZ I        1616 19.36         2.4 0.50            116            250 196 
                                                                                
