 2011  827 1943 11.6 L   6.801 -73.078140.6  RSN  7 0.3 2.0LRSN                1
 GAP=190        0.62       3.5     6.1  5.6  0.1129E+01  0.1466E+01  0.2371E+01E
 Epicentro: LOS SANTOS - SANTANDER                                             3
 ACTION:UPD 12-07-13 15:54 OP:ep   STATUS:               ID:20110827194311 L   I
 2011-08-27-1940-22S.COL___161                                                 6
 STAT SP IPHASW D HRMM SECON CODA AMPLIT PERI AZIMU VELO AIN AR TRES W  DIS CAZ7
 BAR2 SZ EP   1   1943 30.68                             169    0.05 7 25.9 207 
 BAR2 SZ ES   1   1943 44.97                             169   -0.53 7 25.9 207 
 BAR2 SZ I        1943 46.60        15.4 0.26                          25.9 207 
 GIR2 SZ EP   1   1943 30.80                             166    0.12 7 33.2 337 
 GIR2 SZ ES   2   1943 45.88                             166    0.29 5 33.2 337 
 BRR  HZ EP   1   1943 32.47                             149   -0.09 7 77.8 296 
 BRR  HZ I        1943 32.92        46.0 0.13                          77.8 296 
 BRR  HE ES   1   1943 49.47                             149    0.54 7 77.8 296 
 RUS  HZ EP   1   1943 35.04                             143    0.23 7  101 180 
 RUS  HN ES   1   1943 52.90                             143   -0.03 7  101 180 
 RUS  HZ I        1943 54.94        11.4 0.32                           101 180 
 OCA  SZ EP   2   1943 39.36                             128   -0.21 5  161 350 
 OCA  SZ ES   2   1944  0.78                             128   -0.63 5  161 350 
 OCA  SZ I        1944  5.98        14.5 0.26                           161 350 
 NOR  SE ES   1   1944 15.41                             117   -0.44 6  241 235 
 CHI  HZ EP   1   1943 49.49                             116    0.26 6  251 197 
 CHI  HZ I        1943 51.68         3.7 0.40                           251 197 
                                                                                
