 2014 1127 1843 50.2 L   6.773 -73.110142.3  RSN 10 0.6 1.8LRSN                1
 GAP=142        1.33       5.3     5.9  7.4 -0.9494E+01  0.1029E+02  0.1137E+02E
 Epicentro: LOS SANTOS - SANTANDER                                             3
 ACTION:UPD 14-12-19 15:48 OP:nd   STATUS:               ID:20141127184350 L   I
 OLDACT:REG 14-11-28 00:37 OP:spq  STATUS:               ID:20141127183745     3
 2014-11-27-1837-45M.COL___313                                                 6
 STAT SP IPHASW D HRMM SECON CODA AMPLIT PERI AZIMU VELO AIN AR TRES W  DIS CAZ7
 BAR2 SZ EP       1844  9.48                             171    0.1410 21.6 202 
 BAR2 SZ ES       1844 24.75                             171    0.4610 21.6 202 
 BAR2 SZ I        1844 27.06        13.0 0.28            168           21.6 202 
 BRR  HZ EP       1844 11.47                             150    0.2510 76.1 299 
 BRR  HN ES       1844 27.97                             150    0.3210 76.1 299 
 PAM  SZ EP       1844 12.23                             150    0.2310 77.3  36 
 PAM  SZ I        1844 12.51        13.9 0.24            155           77.3  36 
 PAM  SE ES       1844 28.80                             150   -0.2310 77.3  36 
 RUS  HZ EP       1844 13.15                             144   -0.1910 97.5 178 
 RUS  HZ I        1844 14.40         3.8 0.12            145           97.5 178 
 RUS  HN ES       1844 31.39                             144   -0.0310 97.5 178 
 PTB  HZ EP       1844 15.99                             131   -1.17 9  151 260 
 PTB  HN ES       1844 37.04                             131   -1.17 9  151 260 
 PTB  HZ I        1844 44.93         9.0 0.42            130            151 260 
 SPBC HZ EP       1844 18.45                             128    0.03 9  163 221 
 SPBC HN ES       1844 40.94                             128    0.48 9  163 221 
 SPBC HZ I        1844 47.57        14.2 0.36            128            163 221 
 CHI  HZ EP       1844 27.58                             117    0.10 8  247 196 
 CHI  HZ I        1844 28.36         2.9 0.46            118            247 196 
 CHI  HE ES       1844 55.41                             117   -1.17 8  247 196 
 GUY2CHZ EP       1844 34.39                             111    0.60 7  303 236 
 GUY2CHN ES       1845  8.52                             111    0.70 7  303 236 
 GUY2CHZ I        1845 16.09         4.9 0.30                           303 236 
 RREF HZ EP       1844 36.43                             110    0.15 7  323 230 
 RREF HN ES       1845 12.87                             110    0.61 7  323 230 
 RREF HZ I        1845 21.09         3.3 0.48            111            323 230 
 TOL  SZ EP       1844 39.02                             109    0.66 7  344 225 
 TOL  SN ES       1845 16.02                             109    0.06 7  344 225 
                                                                                
