 2012  927 1233 20.1 L   7.062 -73.475104.5  RSN  5 0.3 2.0LRSN                1
 GAP=166        0.65       4.8     4.2  6.3  0.3417E+01  0.9127E+00  0.8824E+01E
 Epicentro: SAN VICENTE DE CHUCURI - SANTANDER                                 3
 ACTION:UPD 12-10-22 14:21 OP:ep   STATUS:               ID:20120927123320 L   I
 2012-09-27-1230-00M.COL___217                                                 6
 STAT SP IPHASW D HRMM SECON CODA AMPLIT PERI AZIMU VELO AIN AR TRES W  DIS CAZ7
 BRR  HZ EP       1233 34.32                             165   -0.2010 26.7 281 
 BRR  HN ES   1   1233 45.87                             165    0.08 7 26.7 281 
 BRR  HN I        1233 46.43        68.5 0.18                          26.7 281 
 GIR2 SZ EP       1233 34.87                             162   -0.0110 31.1  87 
 GIR2 SZ ES   1   1233 46.14                             162   -0.29 7 31.1  87 
 BAR2 SZ EP       1233 37.09                             147    0.5010 61.1 148 
 BAR2 SZ ES   1   1233 49.73                             147    0.25 7 61.1 148 
 BAR2 SZ I        1233 51.57        26.4 0.38                          61.1 148 
 PTB  HE ES   1   1233 58.28                             126    0.04 7  123 242 
 PTB  HE I        1234  0.76         8.1 0.22                           123 242 
 RUS  HZ EP   1   1233 43.18                             123   -0.31 7  136 161 
 RUS  HE ES   1   1234  1.42                             123   -0.33 7  136 161 
                                                                                
