 2017  627 1009 30.5 L   6.812 -73.139147.7  RSN 10 0.3 1.8LRSN                1
 GAP=214        0.80       3.3     3.5  4.9  0.3953E+01  0.3048E+00  0.2049E+01E
 Epicentro: LOS SANTOS - SANTANDER                                             3
 ACTION:UPD 17-09-14 16:55 OP:jn   STATUS:               ID:20170627100930 L   I
 OLDACT:REG 17-06-27 20:35 OP:osc  STATUS:               ID:20170627100738     3
 2017-06-27-1008-00M.COL___340                                                 6
 STAT SP IPHASW D HRMM SECON CODA AMPLIT PERI AZIMU VELO AIN AR TRES W  DIS CAZ7
 BAR2 EZ EP     D 10 9 50.23                             170   -0.1210 24.7 191 
 BAR2 EZ ES       1010  5.67                             170   -0.1910 24.7 191 
 BAR2 EZ I        1010  8.05        16.7 0.28            166           24.7 191 
 BRR  HZ EP       10 9 52.00                             153    0.1810 71.2 297 
 BRR  HE ES       1010  8.86                             153    0.3910 71.2 297 
 BRR  HZ I        1010 12.40        15.4 0.16            152           71.2 297 
 PTB  HZ EP       10 9 57.02                             132   -0.65 9  149 258 
 PTB  HE ES       1010 18.65                             132   -0.24 9  149 258 
 PTB  HZ I        1010 19.07         6.5 0.14            132            149 258 
 SPBC HZ EP       10 9 59.25                             129    0.00 9  165 219 
 SPBC HN ES       1010 21.65                             129   -0.04 9  165 219 
 SPBC HZ I        1010 28.38        11.4 0.12            129            165 219 
 YPLC HZ EP       1010  0.66                             127    0.18 9  178 152 
 YPLC HN ES       1010 24.12                             127    0.23 9  178 152 
 YPLC HZ I        1010 25.66        10.0 0.26            128            178 152 
 ZAR  HZ EP       1010  2.90                             123   -0.15 9  204 292 
 ZAR  HE ES       1010 28.49                             123    0.03 9  204 292 
 ZAR  HZ I        1010 33.11         5.0 0.26            124            204 292 
 NOR  HZ EP   9   1010  5.29                             119   -1.16 0  236 234 
 NOR  HE ES       1010 33.60                                    0.25 8  236 234 
 NOR  HZ I        1010 40.93         4.0 0.22            119            236 234 
 CHI  HZ EP       1010  8.70                             117    0.27 8  250 195 
 CHI  HN ES       1010 37.82                             117   -0.21 8  250 195 
 CHI  HZ I        1010 43.92         3.3 0.36            118            250 195 
 GUY2CHZ EP   4   1010 15.68                             113    1.37 0  303 235 
 GUY2CHE ES       1010 49.04                             113    0.53 7  303 235 
 GUY2CHZ I        1011  0.57         3.7 0.42                           303 235 
 PTGC HZ EP   9   1010 13.48                             112   -1.04 0  310 159 
 PTGC HN ES       1010 46.91                                   -0.93 7  310 159 
                                                                                
