 2014  327 1210 10.8 L   6.802 -73.143152.5  RSN  5 0.4 1.8LRSN                1
 GAP=201        0.85       4.0     7.0  9.8  0.2341E+01  0.1030E+02 -0.1601E+02E
 Epicentro: LOS SANTOS - SANTANDER                                             3
 ACTION:UPD 14-04-09 23:20 OP:nd   STATUS:               ID:20140327121010 L   I
 OLDACT:UP  14-03-27 17:58 OP:mh   STATUS:               ID:20140327120818     3
 OLDACT:UP  14-03-27 17:58 OP:mh   STATUS:               ID:20140327120818     3
 OLDACT:REG 14-03-27 15:30 OP:mh   STATUS:               ID:20140327120818     3
 2014-03-27-1208-18M.COL___244                                                 6
 STAT SP IPHASW D HRMM SECON CODA AMPLIT PERI AZIMU VELO AIN AR TRES W  DIS CAZ7
 RUS  HN ES       1210 54.30                             145    0.0510  101 176 
 PTB  HZ EP   1   1210 38.63                             133    0.31 7  148 259 
 PTB  HN ES       1210 59.54                             133   -0.27 9  148 259 
 PTB  HZ I        1211  6.33         6.0 0.07             47            148 259 
 NOR  HZ EP       1210 46.32                             120   -0.61 8  235 234 
 NOR  HN ES   1   1211 16.10                             120    0.96 6  235 234 
 NOR  HZ I        1211 21.96         3.3 0.18             37            235 234 
 SML  HZ EP       1210 48.12                             119    0.34 8  244 335 
 SML  HN ES       1211 16.52                             119   -0.12 8  244 335 
 SML  HZ I        1211 19.43         7.4 0.08             37            244 335 
 CHI  HN ES   1   1211 18.44                             118   -0.16 6  249 195 
 CHI  HZ I        1211 47.79         2.5 0.40             37            249 195 
                                                                                
