 2017  227 1006 18.7 L   6.663 -73.189140.5  RSN  5 0.2 1.2LRSN                1
 GAP=222        0.51       3.7     3.5  3.7  0.7767E+01  0.2624E+01 -0.5226E+00E
 Epicentro: VILLANUEVA - SANTANDER                                             3
 ACTION:UPD 17-05-24 15:41 OP:jn   STATUS:               ID:20170227100618 L   I
 OLDACT:REG 17-02-27 20:34 OP:lv   STATUS:               ID:20170227095741     3
 2017-02-27-0958-00M.COL___364                                                 6
 STAT SP IPHASW D HRMM SECON CODA AMPLIT PERI AZIMU VELO AIN AR TRES W  DIS CAZ7
 BAR2 EZ EP       10 6 37.52                             177    0.0910 7.84 175 
 BAR2 EZ ES       10 6 52.41                             177    0.3410 7.84 175 
 BAR2 EZ I        10 6 53.69         3.8 0.16            175           7.84 175 
 BRR  HZ EP       10 6 39.34                             150   -0.1710 75.9 310 
 BRR  HN ES       10 6 55.49                             150   -0.2910 75.9 310 
 BRR  HZ I        10 6 57.90         6.5 0.42            150           75.9 310 
 RUS  HZ EP       10 6 40.83                             147   -0.0310 86.0 172 
 RUS  HN ES       10 6 58.03                             147   -0.1510 86.0 172 
 RUS  HZ I        10 7  1.41         1.1 0.31            148           86.0 172 
 PTB  HZ EP       10 6 44.52                             132   -0.04 9  141 265 
 PTB  HN ES       10 7  4.82                             132    0.05 9  141 265 
 PTB  HZ I        10 7  6.29         1.6 0.16            133            141 265 
 ZAR  HZ EP       10 6 51.16                             121    0.20 8  206 297 
 ZAR  HN ES       10 7 16.23                             121    0.08 8  206 297 
 ZAR  HZ I        10 7 20.95         1.7 0.15            122            206 297 
                                                                                
