 2017 1027 1042 35.8 L   6.787 -73.156144.4  RSN  6 0.3 1.6LRSN                1
 GAP=136        0.78       3.9     3.5  5.3  0.1417E+01  0.4659E+01 -0.8852E+00E
 Epicentro: LOS SANTOS - SANTANDER                                             3
 ACTION:UPD 17-11-07 19:37 OP:rebc STATUS:               ID:20171027104235 L   I
 OLDACT:UP  17-10-27 21:36 OP:dhb  STATUS:               ID:20171027103129     3
 OLDACT:REG 17-10-27 19:32 OP:dhb  STATUS:               ID:20171027103129     3
 2017-10-27-1038-00M.COL___426                                                 6
 STAT SP IPHASW D HRMM SECON CODA AMPLIT PERI AZIMU VELO AIN AR TRES W  DIS CAZ7
 BAR2 EZ IP     C 1042 55.21                             171    0.0110 21.7 188 
 BAR2 EZ ES       1043 10.00                             171   -0.3610 21.7 188 
 BAR2 EZ I        1043 12.61         8.2 0.22            171           21.7 188 
 BRR  HZ IP     D 1042 56.86                             152    0.1210 70.9 300 
 BRR  HE ES       1043 13.67                             152    0.5610 70.9 300 
 BRR  HZ I        1043 18.94         8.1 0.14            151           70.9 300 
 PAM  EZ IP     D 1042 58.15                             150    0.2110 79.2  40 
 PAM  EN ES       1043 14.95                             150   -0.3010 79.2  40 
 PAM  EZ I        1043 17.30         5.1 0.48            154           79.2  40 
 RUS  HZ EP       1042 59.36                             144    0.0810 99.2 175 
 RUS  HN ES       1043 17.81                             144    0.1810 99.2 175 
 RUS  HZ I        1043 18.82         5.6 0.32            148           99.2 175 
 PTB  HZ EP       1043  1.95                             132   -0.54 9  146 259 
 PTB  HN ES       1043 23.33                             132   -0.00 9  146 259 
 PTB  HZ I        1043 30.07         4.0 0.52            133            146 259 
 ZAR  HZ EP       1043  8.31                             122    0.25 9  204 293 
 ZAR  HN ES       1043 32.98                             122   -0.27 9  204 293 
 ZAR  HZ I        1043 38.71         6.6 0.44            124            204 293 
                                                                                
