 2017  127 1016 38.1 L   6.788 -73.179147.3  RSN  8 0.3 1.8LRSN                1
 GAP=133        0.82       3.3     3.6  5.5  0.1255E+01  0.4296E+01  0.1715E+01E
 Epicentro: LOS SANTOS - SANTANDER                                             3
 ACTION:UPD 17-05-22 16:03 OP:jn   STATUS:               ID:20170127101638 L   I
 OLDACT:REG 17-01-27 21:16 OP:dnl  STATUS:               ID:20170127100742     3
 2017-01-27-1008-00M.COL___334                                                 6
 STAT SP IPHASW D HRMM SECON CODA AMPLIT PERI AZIMU VELO AIN AR TRES W  DIS CAZ7
 BAR2 EZ EP       1016 57.80                             171   -0.0710 21.6 181 
 BAR2 EZ ES       1017 13.02                             171   -0.2810 21.6 181 
 BAR2 EZ I        1017 14.31        15.8 0.18            170           21.6 181 
 BRR  HZ IP     D 1016 59.50                             154    0.2410 68.6 301 
 BRR  HN ES       1017 16.60                             154    0.8210 68.6 301 
 BRR  HZ I        1017 20.44        12.8 0.42            151           68.6 301 
 PAM  EZ EP       1017  0.78                             150    0.1110 80.8  41 
 PAM  EN ES       1017 17.96                             150   -0.3310 80.8  41 
 PAM  EZ I        1017 19.95         9.9 0.52            154           80.8  41 
 RUS  HZ EP       1017  1.98                             144    0.0610 99.6 174 
 RUS  HN ES       1017 20.54                             144    0.0310 99.6 174 
 RUS  HZ I        1017 21.60         6.9 0.36            146           99.6 174 
 PTB  HZ EP   2   1017  4.49                             133   -0.34 5  144 259 
 PTB  HN ES       1017 25.22                             133   -0.47 9  144 259 
 PTB  HZ I        1017 32.46         9.1 0.48            132            144 259 
 ZAR  HZ EP       1017 10.18                             123   -0.15 9  201 293 
 ZAR  HN ES       1017 35.29                             123   -0.19 9  201 293 
 ZAR  HZ I        1017 41.58         5.6 0.26            123            201 293 
 CHI  HZ EP   2   1017 15.93                             118    0.30 4  246 194 
 CHI  HN ES       1017 45.07                             118    0.16 8  246 194 
 CHI  HZ I        1017 48.95         4.4 0.70            119            246 194 
 SJC  HZ EP   4   1017 32.00                             106   -1.59 0  408 327 
 SJC  HN ES   4   1018 13.63                             106   -3.26 0  408 327 
 SJC  HZ I        1018 20.61         1.8 0.34            107            408 327 
                                                                                
