 2014  627 1316 25.0 L   6.809 -73.161145.5  RSN  9 0.4 2.3LRSN                1
 GAP=134        1.01       3.1     4.2  6.3 -0.1398E+01  0.9222E+01 -0.1873E+01E
 Epicentro: LOS SANTOS - SANTANDER                                             3
 ACTION:UPD 14-07-01 22:57 OP:nd   STATUS:               ID:20140627131625 L   I
 OLDACT:REG 14-06-27 22:39 OP:carl STATUS:               ID:20140627130820     3
 2014-06-27-1308-20M.COL___259                                                 6
 STAT SP IPHASW D HRMM SECON CODA AMPLIT PERI AZIMU VELO AIN AR TRES W  DIS CAZ7
 BAR2 SZ EP     C 1316 44.62                             170   -0.0310 24.1 186 
 BAR2 SZ ES       1316 59.95                             170    0.0010 24.1 186 
 BAR2 SZ I        1317  0.85        36.6 0.16            170           24.1 186 
 PAM  SZ EP       1316 47.48                             151    0.2410 77.7  41 
 PAM  SN ES       1317  4.76                             151    0.2010 77.7  41 
 PAM  SZ I        1317  6.88        33.2 0.64            153           77.7  41 
 RUS  HZ EP       1316 48.70                             143   -0.1410  102 175 
 RUS  HN ES       1317  7.24                             143   -0.1710  102 175 
 RUS  HZ I        1317  8.29        19.1 0.32            145            102 175 
 PTB  HZ EP       1316 51.77                             132   -0.08 9  146 258 
 PTB  HN ES       1317 12.23                             132   -0.54 9  146 258 
 PTB  HZ I        1317 14.93        25.2 0.10            131            146 258 
 SPBC HE ES       1317 16.18                             129    0.50 9  163 218 
 ZAR  HZ EP       1316 58.40                             123    1.13 9  202 292 
 ZAR  HE ES       1317 22.90                             123    0.49 9  202 292 
 ZAR  HZ I        1317 29.20        31.7 0.30            122            202 292 
 NOR  HZ EP       1317  0.46                             118   -0.21 8  234 234 
 NOR  HE ES       1317 28.34                             118   -0.12 8  234 234 
 NOR  HZ I        1317 37.32        11.0 0.12            118            234 234 
 SML  HZ EP       1317  1.01                             117   -0.47 8  242 336 
 SML  HE ES       1317 29.13                             117   -0.77 8  242 336 
 SML  HZ I        1317 36.41        20.7 0.22            118            242 336 
 CHI  HZ EP       1317  2.81                             117    0.03 8  249 195 
 CHI  HN ES       1317 31.93                             117   -0.29 8  249 195 
 CHI  HZ I        1317 39.19         7.3 0.48            118            249 195 
 SJC  HZ EP   4   1317 19.22                             106   -1.17 0  407 327 
 SJC  HN ES   4   1318  0.25                             106   -3.31 0  407 327 
                                                                                
