 2011  827 1549 19.8 L   6.768 -73.051145.3  RSN  4 0.3 1.5LRSN                1
 GAP=207        0.58       7.2    13.4  6.9  0.7074E+02 -0.2550E+02 -0.9222E+01E
 Epicentro: LOS SANTOS - SANTANDER                                             3
 ACTION:UPD 12-07-13 15:54 OP:ep   STATUS:               ID:20110827154919 L   I
 2011-08-27-1546-45S.COL___161                                                 6
 STAT SP IPHASW D HRMM SECON CODA AMPLIT PERI AZIMU VELO AIN AR TRES W  DIS CAZ7
 BAR2 SZ EP   1   1549 39.45                             170    0.05 7 24.3 217 
 BAR2 SZ ES   1   1549 54.57                             170   -0.11 7 24.3 217 
 BAR2 SZ I        1549 56.20        12.2 0.23                          24.3 217 
 GIR2 SZ EP   2   1549 39.09                             165   -0.52 5 37.8 335 
 GIR2 SZ ES   2   1549 55.40                             165    0.34 5 37.8 335 
 BRR  HZ EP   1   1549 41.29                             149   -0.26 7 82.1 297 
 BRR  HZ I        1549 42.82         6.9 0.43                          82.1 297 
 BRR  HN ES   1   1549 58.67                             149    0.15 7 82.1 297 
 RUS  HZ EP   1   1549 43.73                             145    0.49 7 96.9 182 
 RUS  HZ I        1549 43.95         1.9 0.18                          96.9 182 
 RUS  HN ES   1   1550  1.29                             145   -0.24 7 96.9 182 
                                                                                
