 2017  227 1518 51.3 L   6.803 -73.200140.0  RSN  5 0.5 1.3LRSN                1
 GAP=232        1.01       8.9     7.6  8.6  0.3788E+02  0.1247E+02  0.1542E+02E
 Epicentro: ZAPATOCA - SANTANDER                                               3
 ACTION:UPD 17-05-24 15:41 OP:jn   STATUS:               ID:20170227151851 L   I
 OLDACT:DUP 17-02-27 23:31 OP:lv   STATUS:               ID:20170227150745d    3
 2017-02-27-1508-00M.COL___373                                                 6
 STAT SP IPHASW D HRMM SECON CODA AMPLIT PERI AZIMU VELO AIN AR TRES W  DIS CAZ7
 BAR2 EZ EP       1519 10.79                             170    0.5410 23.3 175 
 BAR2 EZ ES       1519 25.05                             170    0.0310 23.3 175 
 BAR2 EZ I        1519 26.46         7.1 0.20            166           23.3 175 
 BRR  HN ES       1519 26.93                             153   -0.3810 65.8 301 
 RUS  HZ EP       1519 13.91                             142   -0.6510  101 173 
 RUS  HN ES       1519 32.96                             142    0.2610  101 173 
 RUS  HZ I        1519 34.71         1.9 0.25            141            101 173 
 PTB  HZ EP       1519 17.35                             132    0.07 9  142 258 
 PTB  HN ES       1519 37.57                             132    0.04 9  142 258 
 PTB  HZ I        1519 41.01         3.2 0.16            131            142 258 
 ZAR  HN ES   3   1519 49.46                             122    2.11 2  198 293 
                                                                                
