 2017  527 1436 18.9 L   6.770 -73.143149.3  RSN  4 0.4 1.5LRSN                1
 GAP=235        0.82       6.1     7.1  9.2  0.1530E+02  0.1432E+02  0.1516E+02E
 Epicentro: LOS SANTOS - SANTANDER                                             3
 ACTION:UPD 17-06-16 13:39 OP:jn   STATUS:               ID:20170527143618 L   I
 OLDACT:UP  17-05-28 01:56 OP:dnl  STATUS:               ID:20170527142731     3
 OLDACT:REG 17-05-27 23:09 OP:dnl  STATUS:               ID:20170527142731     3
 2017-05-27-1428-00M.COL___350                                                 6
 STAT SP IPHASW D HRMM SECON CODA AMPLIT PERI AZIMU VELO AIN AR TRES W  DIS CAZ7
 BRR  HZ EP   2   1436 39.48                             152   -1.02 5 73.1 301 
 BRR  HZ I        1436 52.99         9.0 0.32            140           73.1 301 
 BRR  HN ES       1436 57.47                             152    0.0910 73.1 301 
 RUS  HZ EP       1436 43.21                             145    0.4810 97.2 176 
 RUS  HN ES       1437  1.05                             145   -0.3010 97.2 176 
 RUS  HZ I        1437  2.04         3.2 0.24            143           97.2 176 
 ZAR  HZ EP   2   1436 51.87                             123    0.17 4  206 293 
 ZAR  HE ES   4   1437 15.90                             123   -1.42 0  206 293 
 ZAR  HZ I        1437 24.24         2.4 0.10            113            206 293 
 NOR  HZ EP   2   1436 54.02                             119   -0.60 4  233 235 
 NOR  HE ES       1437 22.60                             119    0.08 8  233 235 
 NOR  HZ I        1437 27.45         1.7 0.36            112            233 235 
                                                                                
