 2017  627 1521 39.6 L   6.777 -73.123146.0  RSN  6 0.3 1.7LRSN                1
 GAP=258        1.08       7.4     6.6  7.6 -0.1729E+01  0.1007E+02  0.2594E+01E
 Epicentro: LOS SANTOS - SANTANDER                                             3
 ACTION:UPD 17-09-14 16:55 OP:jn   STATUS:               ID:20170627152139 L   I
 OLDACT:REG 17-06-27 21:11 OP:osc  STATUS:               ID:20170627151739     3
 2017-06-27-1518-00M.COL___352                                                 6
 STAT SP IPHASW D HRMM SECON CODA AMPLIT PERI AZIMU VELO AIN AR TRES W  DIS CAZ7
 BAR2 EZ EP       1521 59.23                             171    0.0310 21.5 198 
 BAR2 EZ ES       1522 14.59                             171    0.0910 21.5 198 
 BAR2 EZ I        1522 17.66         7.6 0.12            168           21.5 198 
 BRR  HZ EP       1522  0.79                             151   -0.1510 74.6 299 
 BRR  HN ES       1522 17.91                             151    0.3010 74.6 299 
 PTB  HZ EP       1522  6.19                             132   -0.55 9  150 260 
 PTB  HN ES       1522 27.33                             132   -0.60 9  150 260 
 PTB  HZ I        1522 29.18         5.1 0.20            131            150 260 
 ZAR  HZ EP       1522 12.45                             122    0.08 8  207 293 
 ZAR  HN ES       1522 38.14                             122    0.19 8  207 293 
 ZAR  HZ I        1522 42.70         7.3 0.12            123            207 293 
 NOR  HZ EP       1522 15.83                             118    0.45 8  235 235 
 NOR  HE ES       1522 43.67                             118    0.36 8  235 235 
 NOR  HZ I        1522 49.39         4.8 0.14            119            235 235 
 GUY2CHZ EP   9   1522 25.71                             112    2.45 0  302 235 
 GUY2CHE ES       1523  1.07                                    1.29 7  302 235 
 GUY2CHZ I        1523  3.87         2.3 0.52                           302 235 
                                                                                
