 2015  327 1259 47.8 L   6.824 -73.179137.4  RSN 11 0.5 2.2LRSN                1
 GAP= 69        1.27       3.6     4.6  6.7 -0.3959E+01  0.6204E+01  0.9561E+00E
 Epicentro: ZAPATOCA - SANTANDER                                               3
 ACTION:UPD 15-04-30 16:29 OP:nd   STATUS:               ID:20150327125947 L   I
 OLDACT:REG 15-03-27 20:26 OP:stll STATUS:               ID:20150327125748     3
 2015-03-27-1257-48M.COL___283                                                 6
 STAT SP IPHASW D HRMM SECON CODA AMPLIT PERI AZIMU VELO AIN AR TRES W  DIS CAZ7
 BAR2 EZ EP       13 0  6.65                             169    0.1910 25.7 181 
 BAR2 EZ ES       13 0 20.63                             169   -0.3910 25.7 181 
 BAR2 EZ I        13 0 22.54        23.3 0.32            171           25.7 181 
 BRR  HZ EP       13 0  8.44                             153    0.6710 66.6 298 
 BRR  HN ES       13 0 24.19                             153    0.8310 66.6 298 
 BRR  HZ I        13 0 29.21        19.4 0.40            152           66.6 298 
 PAM  SZ EP       13 0  9.50                             149    0.3610 77.8  43 
 PAM  SN ES       13 0 25.76                             149   -0.0410 77.8  43 
 PAM  SZ I        13 0 28.54        24.5 0.52            152           77.8  43 
 RUS  HZ EP       13 0 11.13                             141    0.1810  104 174 
 RUS  HN ES       13 0 28.33                             141   -0.6910  104 174 
 RUS  HZ I        13 0 31.25        12.9 0.16            145            104 174 
 PTB  HZ EP       13 0 13.59                             131   -0.20 9  145 257 
 PTB  HN ES       13 0 34.03                             131   -0.05 9  145 257 
 PTB  HZ I        13 0 36.91        22.6 0.10            132            145 257 
 OCA  HN ES       13 0 36.67                             128    0.16 9  157 354 
 OCA  HZ I        13 0 40.45        38.1 0.28            130            157 354 
 TAM  HZ IP     C 13 0 15.14                             128   -0.08 9  159 106 
 TAM  HZ I        13 0 15.53        24.6 0.32            132            159 106 
 SPBC HZ EP       13 0 15.66                             127    0.02 9  163 217 
 SPBC HN ES       13 0 37.49                             127    0.13 9  163 217 
 SPBC HZ I        13 0 43.67        20.2 0.26            130            163 217 
 NOR  HZ EP       13 0 22.70                             117   -0.19 8  233 233 
 NOR  HE ES       13 0 50.18                             117   -0.09 8  233 233 
 SML  HZ EP       13 0 23.08                             116   -0.44 8  240 336 
 SML  HE ES       13 0 50.05                             116   -1.33 8  240 336 
 SML  HZ I        13 0 55.86        20.4 0.10            118            240 336 
 GUY2CHZ EP       13 0 32.02                             111    1.17 7  300 234 
 GUY2CHN ES       13 1  3.72                             111   -0.73 7  300 234 
                                                                                
