 2016  727 1055 57.7 L   6.858 -73.288119.4  RSN 13 0.4 2.1LRSN                1
 GAP=110        0.86       3.0     2.8  4.5 -0.1043E+01  0.4104E+01  0.1521E+01E
 Epicentro: BETULIA - SANTANDER                                                3
 ACTION:UPD 17-03-29 16:55 OP:lp   STATUS:               ID:20160727105557 L   I
 OLDACT:REG 16-07-27 20:29 OP:ar   STATUS:               ID:20160727104743     3
 2016-07-27-1047-43M.COL___341                                                 6
 STAT SP IPHASW D HRMM SECON CODA AMPLIT PERI AZIMU VELO AIN AR TRES W  DIS CAZ7
 BAR2 EZ EP       1056 14.51                             164    0.0710 31.6 158 
 BAR2 HN ES       1056 27.88                             164    0.4110 31.6 158 
 BRR  HZ EP       1056 14.88                             154   -0.2110 54.4 300 
 BRR  HE ES       1056 28.88                             154    0.2610 54.4 300 
 BRR  HZ I        1056 29.88        54.3 0.10            150           54.4 300 
 PAM  EN ES       1056 32.89                             143   -0.3710 84.0  51 
 RUS  HZ EP       1056 19.69                             135   -0.0210  109 168 
 RUS  HN ES       1056 36.87                             135    0.0110  109 168 
 RUS  HZ I        1056 38.20        10.2 0.16            135            109 168 
 PTB  HZ IP   4   1056 19.77                             128   -1.57 0  134 255 
 PTB  HN ES       1056 39.59                             128   -0.1610  134 255 
 PTB  HZ I        1056 41.54        25.3 0.14            127            134 255 
 SPBC HZ EP       1056 24.42                             123    0.48 9  159 213 
 SPBC HN ES       1056 44.01                             123   -0.36 9  159 213 
 SPBC HZ I        1056 46.07        18.7 0.10            122            159 213 
 ZAR  HZ EP       1056 26.70                             118   -0.07 9  187 292 
 ZAR  HN ES       1056 49.49                             118    0.07 9  187 292 
 ZAR  HZ I        1056 51.41        21.4 0.20            116            187 292 
 NOR  HZ EP       1056 30.78                             113   -0.33 8  226 231 
 NOR  HE ES       1056 56.26                             113   -0.89 8  226 231 
 NOR  HZ I        1056 58.66         6.5 0.17            112            226 231 
 HEL  HZ EP       1056 35.80                             110    0.60 8  259 254 
 HEL  HE ES       1057  4.28                             110   -0.14 8  259 254 
 HEL  HZ I        1057  8.77         5.4 0.25            108            259 254 
 URE  HZ EP   4   1056 36.86                             109    1.16 0  267 292 
 URE  HN ES   4   1057  3.04                             109   -2.28 0  267 292 
 URE  HZ I        1057  4.53        13.8 0.18            107            267 292 
 GUY2CHZ EP       1056 39.54                             107    0.30 7  292 232 
 GUY2CHN ES       1057 12.21                             107    0.60 7  292 232 
 GUY2CHZ I        1057 18.12         6.4 0.42                           292 232 
 SOCV BZ EP       1056 40.79                             106   -0.08 7  311  59 
 SOCV BN ES   4   1057 13.08                             106   -1.44 0  311  59 
 LL6C HZ EP   4   1056 38.96                             105   -2.70 0  318   0 
 LL6C HN ES   4   1057 17.05                             105    1.12 0  318   0 
 LL6C HZ I        1057 31.92         3.0 0.54            103            318   0 
                                                                                
