 2016 1227 1212 36.2 L   6.818 -73.165142.1  RSN 16 0.6 2.7LRSN                1
 GAP=104        1.53       5.2     4.4  7.8  0.3017E+00  0.8219E+01  0.1244E+02E
 Epicentro: LOS SANTOS - SANTANDER                                             3
 ACTION:UPD 17-01-11 20:19 OP:rebc STATUS:               ID:20161227121237dL   I
 OLDACT:UP  16-12-27 22:20 OP:cog  STATUS:               ID:20161227120742d    3
 OLDACT:DUP 16-12-27 22:13 OP:cog  STATUS:               ID:20161227120742d    3
 2016-12-27-1208-00M.COL___372                                                 6
 STAT SP IPHASW D HRMM SECON CODA AMPLIT PERI AZIMU VELO AIN AR TRES W  DIS CAZ7
 BAR2 EZ EP       1212 55.37                             170   -0.0810 25.0 184 
 BAR2 HE ES       1213 10.70                             170    0.2610 25.0 184 
 BAR2 EZ I        1213 11.82        91.1 0.20            165           25.0 184 
 BRR  HZ EP       1212 57.19                             153    0.3710 68.4 298 
 BRR  HE ES       1213 13.64                             153    0.7610 68.4 298 
 BRR  HZ I        1213 16.53        92.0 0.12            151           68.4 298 
 PAM  EZ EP       1212 58.27                             150    0.2210 77.3  42 
 PAM  EN ES       1213 14.82                             150   -0.2410 77.3  42 
 PAM  EZ I        1213 17.60       105.6 0.64            157           77.3  42 
 RUS  HZ EP       1212 59.42                             142   -0.3610  103 175 
 RUS  HE ES       1213 18.10                             142   -0.0410  103 175 
 RUS  HZ I        1213 19.95        58.6 0.36            141            103 175 
 PTB  HZ EP       1213  1.86                             131   -0.89 9  146 258 
 PTB  HN ES       1213 21.38                             131   -2.05 9  146 258 
 PTB  HZ I        1213 28.76        72.8 0.22            130            146 258 
 TAM  HZ EP       1213  3.71                             129   -0.15 9  158 105 
 TAM  HN ES       1213 25.46                             129    0.05 9  158 105 
 TAM  HZ I        1213 26.16        41.8 0.56            133            158 105 
 ZAR  HZ EP       1213  7.88                             122   -0.28 9  201 292 
 ZAR  HE ES       1213 33.96                             122    0.90 9  201 292 
 ZAR  HZ I        1213 40.51        69.4 0.42            122            201 292 
 NOR  HZ EP       1213 11.44                             118   -0.25 8  234 234 
 NOR  HN ES       1213 39.40                             118    0.06 8  234 234 
 NOR  HZ I        1213 45.50        47.2 0.18            117            234 234 
 CHI  HZ EP       1213 13.70                             116   -0.18 8  250 195 
 CHI  HE ES       1213 43.23                             116   -0.01 8  250 195 
 CHI  HZ I        1213 51.00        26.1 0.42            116            250 195 
 ROSC BZ EP   4   1213 15.87                             116    1.65 0  253 210 
 ROSC BE ES   4   1213 45.72                             116    1.87 0  253 210 
 GUY2CHZ EP       1213 20.00                             112    0.39 7  301 234 
 GUY2CHN ES       1213 54.57                             112    1.13 7  301 234 
 GUY2CHZ I        1214  1.90        35.5 0.56                           301 234 
 VIL  EZ EP       1213 19.40                             111   -0.25 7  305 191 
 VIL  EN ES       1213 54.44                             111    0.92 7  305 191 
 VIL  EZ I        1214  4.05        31.1 0.66            112            305 191 
 PTGC HZ EP   4   1213 18.72                             111   -1.50 0  311 158 
 PTGC HN ES   4   1213 52.08                             111   -2.45 0  311 158 
 PTGC HZ I        1213 54.92        25.1 0.35            112            311 158 
 ELA  HZ EP   4   1213 24.35                             110    1.46 0  329 229 
 ELA  HN ES   4   1214  0.89                             110    1.60 0  329 229 
 ELA  HZ I        1214  9.18        25.1 0.34            110            329 229 
 CBOC HZ EP       1213 23.28                             109    0.45 7  332 252 
 CBOC HE ES   4   1213 57.07                             109   -2.11 0  332 252 
 CBOC HZ I        1214  8.92        11.2 0.42            110            332 252 
 ANIL HZ EP   4   1213 26.84                             108    0.95 0  357 224 
 ANIL HN ES   4   1214  6.01                             108    1.39 0  357 224 
 ANIL HZ I        1214 13.62        55.1 0.34            108            357 224 
 ORTC HZ EP       1213 30.77                             106    0.70 6  396 216 
 ORTC HN ES   4   1214 10.27                             106   -1.79 0  396 216 
 ORTC HZ I        1214 19.70        18.7 0.30            106            396 216 
                                                                                
