 2010 1227 1218 19.4 L   6.815 -73.151143.6  RSN 10 0.5 2.5LRSN                1
 GAP=158        0.89       4.2     7.1  9.9 -0.1056E+02  0.3199E+02 -0.2250E+01E
 Epicentro: LOS SANTOS - SANTANDER                                             3
 ACTION:UP  11-01-14 15:27 OP:pat  STATUS:               ID:20101227121819 L   I
 2010-12-27-1214-36S.COL___132                                                 6
 STAT SP IPHASW D HRMM SECON CODA AMPLIT PERI AZIMU VELO SNR AR TRES W  DIS CAZ7
 BAR2 SZ EP   1   1218 38.82                             170     0.0 8   25 188 
 BAR2 SZ ES   2   1218 53.81                             170    -0.1 5   25 188 
 BAR2 SZ I        1218 55.28       142.1 0.14                            25 188 
 RUS  HZ EP   1   1218 42.73                             144    -0.3 8  102 176 
 RUS  HN ES   2   1219  1.43                             144    -0.1 5  102 176 
 RUS  HZ I        1219  3.03        37.8 0.22                           102 176 
 GRA  SZ IP       1218 44.62                             137     0.310  124  18 
 GRA  SZ ES   2   1219  3.43                             137    -0.3 5  124  18 
 GRA  SZ I        1219  5.78        31.1 0.33                           124  18 
 OCA  SZ EP   1   1218 47.06                             129    -0.3 7  159 353 
 OCA  SZ ES   2   1219  9.87                             129     0.7 5  159 353 
 OCA  SZ I        1219 12.72        27.7 0.49                           159 353 
 NOR  SZ EP   1   1218 54.94                             118    -0.1 6  235 234 
 NOR  SN ES   2   1219 22.81                             118    -0.1 4  235 234 
 ROSC BZ EP   1   1218 58.18                             116     0.7 6  254 211 
 ROSC BE ES   2   1219 26.58                             116    -0.7 4  254 211 
 ROSC BZ I        1219 33.73        39.7 0.47                           254 211 
 HEL  HZ EP   1   1218 59.99                             114     0.5 6  272 255 
 HEL  HN ES   2   1219 32.02                             114     1.3 4  272 255 
 HEL  HZ I        1219 38.32        12.3 0.26                           272 255 
 RREF HZ EP   1   1219  5.74                             110     0.2 5  322 229 
 RREF HN ES   2   1219 41.79                             110     0.3 4  322 229 
 RREF HZ I        1219 49.59        19.1 0.17                           322 229 
 MON  HE ES   1   1219 44.77                                    -1.3 5  351 308 
 PRA  HZ EP   1   1219 12.19                             106    -0.8 5  393 209 
 PRA  HE ES   2   1219 54.12                             106    -0.6 3  393 209 
                                                                                
