 2013  427 1024  0.5 L   6.805 -73.136149.2  RSN  6 0.3 1.3LRSN                1
 GAP=138        0.69       4.4     4.4  5.3 -0.2348E+01  0.2252E+01  0.2694E+01E
 Epicentro: LOS SANTOS - SANTANDER                                             3
 ACTION:UPD 13-05-22 14:41 OP:EP   STATUS:               ID:20130427102400 L   I
 2013-04-27-1020-00M.COL___249                                                 6
 STAT SP IPHASW D HRMM SECON CODA AMPLIT PERI AZIMU VELO AIN AR TRES W  DIS CAZ7
 BAR2 SZ EP       1024 20.38                             170   -0.1810 24.0 192 
 BAR2 SZ ES   1   1024 36.32                             170    0.11 7 24.0 192 
 BAR2 SZ I        1024 47.52         5.3 0.74            154           24.0 192 
 GIR2 SZ EP       1024 20.51                             168   -0.0710 31.0 348 
 GIR2 SZ ES   1   1024 36.17                             168   -0.07 7 31.0 348 
 BRR  HZ EP       1024 22.46                             153    0.3910 71.9 298 
 BRR  HN ES   1   1024 39.38                             153    0.50 7 71.9 298 
 BRR  HZ I        1024 58.43         8.4 0.30            159           71.9 298 
 PAM  SZ EP       1024 23.20                             152    0.1810 76.3  39 
 PAM  SN ES   1   1024 40.04                             152   -0.55 7 76.3  39 
 PAM  SZ I        1024 42.23         4.0 0.22            166           76.3  39 
 RUS  HZ EP       1024 24.74                             144    0.1110  101 177 
 RUS  HN ES   1   1024 43.53                             144    0.09 7  101 177 
 RUS  HZ I        1025 12.25         1.2 0.36            139            101 177 
 PTB  HZ EP       1024 27.55                             132   -0.31 9  149 259 
 PTB  HN ES   1   1024 48.77                             132   -0.42 7  149 259 
 PTB  HZ I        1024 50.86         3.5 0.10            138            149 259 
                                                                                
