 2015  927 1903 50.3 L   6.820 -73.153146.0  RSN 16 0.5 2.5LRSN                1
 GAP=135        1.00       2.7     3.5  5.2 -0.1352E+01  0.5054E+01  0.2015E+01E
 Epicentro: LOS SANTOS - SANTANDER                                             3
 ACTION:UPD 15-10-28 16:28 OP:cam  STATUS:               ID:20150927190350 L   I
 OLDACT:REG 15-09-27 21:45 OP:ar   STATUS:               ID:20150927185749     3
 2015-09-27-1857-49M.COL___352                                                 6
 STAT SP IPHASW D HRMM SECON CODA AMPLIT PERI AZIMU VELO AIN AR TRES W  DIS CAZ7
 BAR2 EZ EP     D 19 4  9.86                             170   -0.1310 25.3 187 
 BAR2 EZ ES       19 4 25.44                             170    0.0910 25.3 187 
 BAR2 EZ I        19 4 26.06        61.1 0.24            169           25.3 187 
 BRR  HZ EP       19 4 11.59                             153    0.2310 69.5 297 
 BRR  HN ES       19 4 28.72                             153    0.9110 69.5 297 
 BRR  HZ I        19 4 31.68        47.0 0.28            151           69.5 297 
 PAM  EZ EP       19 4 12.70                             151    0.2410 76.2  41 
 PAM  EN ES       19 4 29.58                             151   -0.1710 76.2  41 
 PAM  EZ I        19 4 32.00        44.9 0.46            153           76.2  41 
 RUS  HZ EP       19 4 14.26                             143    0.0410  103 176 
 RUS  HN ES       19 4 33.05                             143    0.1610  103 176 
 RUS  HZ I        19 4 34.02        27.9 0.44            144            103 176 
 PTB  HZ EP       19 4 16.60                             132   -0.64 9  147 258 
 PTB  HN ES       19 4 37.58                             132   -0.69 9  147 258 
 PTB  HZ I        19 4 39.48        32.8 0.42            131            147 258 
 OCA  HZ EP       19 4 17.79                             130   -0.62 9  158 353 
 OCA  HZ I        19 4 23.83        19.5 0.20            130            158 353 
 OCA  HN ES       19 4 40.25                             130   -0.09 9  158 353 
 SPBC HZ EP       19 4 18.87                             129   -0.05 9  164 218 
 SPBC HE ES       19 4 40.91                             129   -0.34 9  164 218 
 SPBC HZ I        19 4 45.42        53.4 0.32            129            164 218 
 ZAR  HZ EP   2   19 4 23.69                             123    1.10 4  203 292 
 ZAR  HN ES       19 4 47.82                             123    0.04 9  203 292 
 ZAR  HZ I        19 4 52.95        38.0 0.32            122            203 292 
 NOR  HZ EP       19 4 26.05                             118   -0.05 8  235 234 
 NOR  HN ES       19 4 54.43                             118    0.40 8  235 234 
 NOR  HZ I        19 4 59.15        19.5 0.18            118            235 234 
 SML  HZ EP   2   19 4 26.28                             118   -0.40 4  241 335 
 SML  HE ES   2   19 4 55.93                             118    0.87 4  241 335 
 SML  HZ I        19 4 58.33        30.9 0.10            118            241 335 
 CHI  HZ EP       19 4 28.04                             117   -0.16 8  251 195 
 CHI  HN ES       19 4 57.40                             117   -0.37 8  251 195 
 CHI  HZ I        19 5  2.34        20.9 0.54            117            251 195 
 ROSC BN ES   4   19 5  0.78                             117    2.34 0  254 211 
 ROSC BZ I        19 5  4.17        54.4 0.45            117            254 211 
 HEL  HZ EP   2   19 4 31.65                             115    1.16 4  272 255 
 HEL  HN ES       19 5  1.89                             115    0.05 8  272 255 
 HEL  HZ I        19 5  7.83        19.4 0.28            115            272 255 
 URE  HE ES   4   19 5  0.22                             114   -2.88 0  282 292 
 GUY2CHZ EP   2   19 4 35.04                             112    1.07 4  302 234 
 GUY2CHN ES   4   19 5 11.33                             112    3.28 0  302 234 
 GUY2CHZ I        19 5 16.21        17.2 0.56                           302 234 
 DBB  SZ ES       19 5 14.07                             110   -0.55 7  339 274 
 DBB  SZ I        19 5 15.38        43.7 0.28            110            339 274 
 ANIL HE ES   4   19 5 22.19                             108    3.03 0  358 224 
 ORTC HZ EP       19 4 44.44                             106    0.08 6  397 216 
 ORTC HN ES       19 5 27.65                             106    1.11 6  397 216 
 ORTC HZ I        19 5 31.17        10.3 0.22            106            397 216 
                                                                                
