 2010  827 1449 36.3 L   6.787 -73.055137.5  RSN  8 0.3 1.8LRSN                1
 GAP=175        0.87       4.3     8.7  6.9  0.1416E+01 -0.1655E+02  0.2492E+01E
 Epicentro: LOS SANTOS - SANTANDER                                             3
 ACTION:UP  10-09-07 10:58 OP:vdl  STATUS:               ID:20100827144936 L   I
 2010-08-27-1448-02S.COL___119                                                 6
 STAT SP IPHASW D HRMM SECON CODA AMPLIT PERI AZIMU VELO SNR AR TRES W  DIS CAZ7
 BAR2 SZ EP       1449 55.18                             169     0.210   26 213 
 BAR2 SZ ES   1   1450  9.53                             169    -0.1 7   26 213 
 BAR2 SZ I        1450 11.32        13.3 0.28                            26 213 
 BTL  SZ EP       1449 55.30                             168     0.210   28 302 
 BTL  SZ ES   1   1450  9.23                             168    -0.4 7   28 302 
 GIR2 SZ EP   1   1449 55.71                             164     0.6 7   36 335 
 BRR  HZ EP       1449 56.89                             147    -0.310   81 296 
 BRR  HN ES       1450 13.78                             147     0.310   81 296 
 BRR  HZ I        1450 17.21        20.1 0.57                            81 296 
 BTN  SZ EP       1449 57.23                             148    -0.410   82 356 
 BTN  SZ ES   1   1450 14.23                             148    -0.1 7   82 356 
 BTN  SZ I        1450 15.46        37.8 0.29                            82 356 
 RUS  HZ EP       1449 59.32                             142     0.210   99 182 
 RUS  HE ES   1   1450 16.71                             142    -0.2 7   99 182 
 RUS  HZ I        1450 19.78         6.7 0.30                            99 182 
 GUE  SZ EP   1   1450  0.34                             137     0.1 7  116   7 
 GUE  SZ I        1450  4.14         2.2 0.07                           116   7 
 PRA  HE ES   1   1451 11.34                             105    -0.6 4  396 211 
 PRA  HZ I        1451 16.03         4.3 0.12                           396 211 
                                                                                
