 2016  927 1721 52.5 L   6.666 -73.239143.1  RSN  5 0.6 1.5LRSN                1
 GAP=189        1.40      10.5    10.3 10.5  0.6774E+02  0.2957E+02  0.2728E+01E
 Epicentro: BARICHARA - SANTANDER                                              3
 ACTION:UPD 17-08-17 21:17 OP:lp   STATUS:               ID:20160927172152 L   I
 OLDACT:DUP 16-09-28 00:31 OP:dani STATUS:               ID:20160927171750d    3
 2016-09-27-1718-00M.COL___363                                                 6
 STAT SP IPHASW D HRMM SECON CODA AMPLIT PERI AZIMU VELO AIN AR TRES W  DIS CAZ7
 BAR2 EZ ES       1722 25.92                             176   -0.6210 10.3 142 
 BAR2 EZ I        1722 28.29         8.3 0.14            177           10.3 142 
 BRR  HZ EP       1722 12.93                             152   -0.4610 71.4 313 
 BRR  HE ES       1722 30.34                             152    0.6710 71.4 313 
 BRR  HZ I        1722 30.88         5.3 0.19            152           71.4 313 
 RUS  HZ EP       1722 14.94                             147   -0.1410 87.3 169 
 RUS  HE ES       1722 33.25                             147    0.5710 87.3 169 
 RUS  HZ I        1722 34.46         3.4 0.31            149           87.3 169 
 PTB  HZ EP       1722 17.63                             134   -0.52 9  135 264 
 PTB  HE ES       1722 38.03                             134   -0.11 9  135 264 
 ZAR  HZ EP       1722 25.51                             122    1.06 9  201 297 
 ZAR  HE ES       1722 49.02                             122   -0.34 9  201 297 
 ZAR  HZ I        1722 54.52         3.1 0.32            123            201 297 
                                                                                
