 2014  127 1059  7.1 L   6.810 -73.152140.3  RSN 17 0.5 2.4LRSN                1
 GAP=135        1.16       3.0     4.6  6.7 -0.2345E+01  0.1070E+02 -0.1304E+01E
 Epicentro: LOS SANTOS - SANTANDER                                             3
 ACTION:UPD 14-03-13 09:59 OP:ep   STATUS:               ID:20140127105907 L   I
 OLDACT:REG 14-01-27 20:28 OP:nd   STATUS:               ID:20140127105844     3
 2014-01-27-1058-44M.COL___218                                                 6
 STAT SP IPHASW D HRMM SECON CODA AMPLIT PERI AZIMU VELO AIN AR TRES W  DIS CAZ7
 BAR2 SZ EP       1059 26.24                             170    0.1710 24.3 188 
 BAR2 SZ ES       1059 40.86                             170   -0.0310 24.3 188 
 BAR2 SZ I        1059 42.31       151.7 0.20            169           24.3 188 
 PAM  SZ EP       1059 29.21                             150    0.5210 77.0  40 
 PAM  SN ES       1059 45.79                             150    0.2410 77.0  40 
 PAM  SZ I        1059 48.64        33.6 0.64            153           77.0  40 
 RUS  HZ EP       1059 30.31                             142   -0.0710  102 176 
 RUS  HN ES       1059 48.77                             142    0.2110  102 176 
 RUS  HZ I        1059 49.85        26.6 0.28            146            102 176 
 PTB  HZ EP       1059 32.82                             131   -0.74 9  147 258 
 PTB  HN ES       1059 53.97                             131   -0.25 9  147 258 
 PTB  HZ I        1059 56.44        26.0 0.56            130            147 258 
 OCA  HZ EP       1059 34.24                             129   -0.61 9  159 353 
 OCA  HN ES       1059 56.06                             129   -0.46 9  159 353 
 OCA  HZ I        11 0  4.25        18.3 0.56            130            159 353 
 SPBC HZ EP       1059 35.18                             128   -0.02 9  164 219 
 SPBC HN ES       1059 56.86                             128   -0.29 9  164 219 
 SPBC HZ I        11 0  2.36        31.0 0.42            129            164 219 
 ZAR  HZ EP       1059 40.51                             121    1.45 9  203 292 
 ZAR  HN ES       11 0  4.88                             121    0.87 9  203 292 
 ZAR  HZ I        11 0 13.14        26.7 0.26            121            203 292 
 NOR  HZ EP       1059 42.56                             117    0.06 8  235 234 
 NOR  HN ES       11 0  9.89                             117   -0.25 8  235 234 
 NOR  HZ I        11 0 15.32        23.2 0.22            118            235 234 
 SML  HZ EP       1059 42.93                             116   -0.33 8  242 335 
 SML  HN ES       11 0 10.91                             116   -0.57 8  242 335 
 SML  HZ I        11 0 17.65        23.3 0.06            117            242 335 
 CHI  HZ EP       1059 44.96                             116    0.38 8  250 195 
 CHI  HN ES       11 0 13.37                             116   -0.46 8  250 195 
 CHI  HZ I        11 0 17.83         7.7 0.70            118            250 195 
 HEL  HZ EP   4   1059 48.21                             114    1.24 0  272 256 
 HEL  HN ES   2   11 0 18.42                             114    0.33 4  272 256 
 HEL  HZ I        11 0 25.13        12.4 0.50            115            272 256 
 URE  HZ EP   4   1059 49.30                             113    1.53 0  283 292 
 URE  HN ES   4   11 0 17.81                             113   -1.70 0  283 292 
 URE  HZ I        11 0 21.77        16.6 0.14            113            283 292 
 GUY2CHZ EP   4   1059 51.16                             111    0.71 0  301 235 
 GUY2CHN ES   4   11 0 24.67                             111    0.39 0  301 235 
 GUY2CHZ I        11 0 32.90        11.9 0.50                           301 235 
 CBOC HZ EP   4   1059 53.16                             109   -0.57 0  333 252 
 CBOC HN ES   4   11 0 29.13                             109   -1.00 0  333 252 
 CBOC HZ I        11 0 31.96         3.8 0.46            110            333 252 
 DBB  SZ EP   4   1059 54.41                             108    0.16 0  339 274 
 DBB  SZ ES   4   11 0 29.66                             108   -1.38 0  339 274 
 DBB  SZ I        11 0 36.22        19.0 0.26            109            339 274 
 PRA  HZ EP   2   11 0  0.38                             106   -0.11 3  393 209 
 PRA  HN ES   2   11 0 42.16                             106    0.01 3  393 209 
 PRA  HZ I        11 0 47.82         7.6 0.30            107            393 209 
 SJC  HZ EP   4   11 0  1.06                             105   -1.25 0  408 327 
 SJC  HN ES   4   11 0 39.24                             105   -6.15 0  408 327 
 SJC  HZ I        11 0 46.33         3.1 0.66            106            408 327 
                                                                                
