 2017 1027 1554  2.5 L   6.821 -73.134141.6  RSN 11 0.5 1.8LRSN                1
 GAP=112        1.04       3.5     3.7  5.7  0.2374E+01  0.5436E+01  0.6365E+01E
 Epicentro: LOS SANTOS - SANTANDER                                             3
 ACTION:UPD 17-11-07 19:37 OP:rebc STATUS:               ID:20171027155402 L   I
 OLDACT:REG 17-10-27 20:05 OP:dhb  STATUS:               ID:20171027154749     3
 2017-10-27-1548-00M.COL___456                                                 6
 STAT SP IPHASW D HRMM SECON CODA AMPLIT PERI AZIMU VELO AIN AR TRES W  DIS CAZ7
 BAR2 EZ IP     C 1554 21.53                             169   -0.1210 25.9 192 
 BAR2 EZ ES       1554 36.19                             169   -0.4210 25.9 192 
 BAR2 EZ I        1554 37.77        15.5 0.24            167           25.9 192 
 BRR  HZ IP     C 1554 23.27                             152    0.1110 71.3 296 
 BRR  HN ES       1554 39.58                             152    0.2610 71.3 296 
 BRR  HZ I        1554 42.16        16.3 0.38            152           71.3 296 
 PAM  EZ IP     C 1554 24.47                             151    0.3910 74.7  40 
 PAM  EE ES       1554 41.17                             151    0.2310 74.7  40 
 PAM  EZ I        1554 43.73         7.2 0.62            155           74.7  40 
 RUS  HZ EP       1554 25.45                             142   -0.5210  103 177 
 RUS  HN ES       1554 44.59                             142    0.2810  103 177 
 RUS  HZ I        1554 46.01         5.7 0.38            143            103 177 
 PTB  HZ EP       1554 28.13                             131   -1.12 9  150 258 
 PTB  HE ES       1554 50.06                             131   -0.09 9  150 258 
 PTB  HZ I        1554 54.88         5.7 0.12            131            150 258 
 YPLC HZ EP       1554 31.99                             125   -0.11 9  178 152 
 YPLC HN ES       1554 55.16                             125   -0.06 9  178 152 
 YPLC HZ I        1554 58.66        10.4 0.26            127            178 152 
 ZAR  HZ EP       1554 34.92                             121    0.25 9  204 291 
 ZAR  HE ES       1554 59.82                             121    0.02 9  204 291 
 ZAR  HZ I        1555  5.29         6.6 0.48            123            204 291 
 NOR  HZ EP       1554 38.20                             117   -0.01 8  237 234 
 NOR  HE ES       1555  6.23                             117    0.13 8  237 234 
 NOR  HZ I        1555  7.52         3.5 0.22            118            237 234 
 CHI  HZ EP       1554 39.94                             116   -0.27 8  251 195 
 CHI  HN ES       1555 10.08                             116    0.42 8  251 195 
 CHI  HZ I        1555 16.39         2.2 0.58            117            251 195 
 GUY2CHZ EP   2   1554 47.98                             111    1.83 4  304 235 
 GUY2CHE ES   4   1555 24.14                             111    3.91 0  304 235 
 GUY2CHZ I        1555 29.69         4.0 0.78                           304 235 
 PRA  HZ EP       1554 56.13                             106   -0.02 6  395 210 
 PRA  HE ES       1555 39.16                             106    1.13 6  395 210 
 PRA  HZ I        1555 44.42         2.8 0.38            107            395 210 
                                                                                
