 2017 1027 1345  8.1 L   6.586 -73.609 63.7  RSN  4 0.3 1.0LRSN                1
 GAP=206        0.73       2.8     4.4  6.5  0.4556E+01 -0.1176E+01  0.1345E+01E
 Epicentro: EL CARMEN - SANTANDER                                              3
 ACTION:UPD 17-11-07 19:37 OP:rebc STATUS:               ID:20171027134508 L   I
 OLDACT:REG 17-10-27 19:52 OP:dhb  STATUS:               ID:20171027133741     3
 2017-10-27-1338-00M.COL___435                                                 6
 STAT SP IPHASW D HRMM SECON CODA AMPLIT PERI AZIMU VELO AIN AR TRES W  DIS CAZ7
 BAR2 EZ EP       1345 19.44                             140   -0.0910 47.1  89 
 BAR2 EZ ES       1345 28.50                             140    0.0610 47.1  89 
 BAR2 EZ I        1345 29.73         5.8 0.40            137           47.1  89 
 BRR  HZ EP       1345 19.74                             132   -0.4610 58.8 349 
 BRR  HN ES       1345 29.89                             132    0.2510 58.8 349 
 BRR  HZ I        1345 30.69        14.0 0.20            132           58.8 349 
 RUS  HZ EP       1345 25.11                             117    0.4310 96.2 143 
 RUS  HN ES       1345 37.35                             117   -0.2510 96.2 143 
 RUS  HZ I        1345 38.98         0.9 0.15            118           96.2 143 
 PAM  EZ EP       1345 28.72                             109    0.1410  131  50 
 PAM  EN ES       1345 44.46                             109   -0.0910  131  50 
 PAM  EZ I        1345 47.85         3.1 0.42            109            131  50 
                                                                                
