 2017 1027 1719 46.9 L   6.848 -73.176134.0  RSN  6 0.5 1.2LRSN                1
 GAP=130        1.09       5.6     5.3  7.8 -0.3032E+01  0.6422E+01  0.3715E+01E
 Epicentro: ZAPATOCA - SANTANDER                                               3
 ACTION:UPD 17-11-07 19:37 OP:rebc STATUS:               ID:20171027171946 L   I
 OLDACT:UP  17-10-28 00:13 OP:dhb  STATUS:               ID:20171027171740     3
 OLDACT:REG 17-10-27 20:16 OP:dhb  STATUS:               ID:20171027171740     3
 2017-10-27-1718-00M.COL___456                                                 6
 STAT SP IPHASW D HRMM SECON CODA AMPLIT PERI AZIMU VELO AIN AR TRES W  DIS CAZ7
 BAR2 EZ EP       1720  5.24                             168   -0.0410 28.2 181 
 BAR2 EZ ES       1720 19.66                             168    0.0810 28.2 181 
 BAR2 EZ I        1720 21.61         4.6 0.20            170           28.2 181 
 BRR  HZ EP       1720  5.81                             153   -0.7010 65.8 296 
 BRR  HE ES       1720 21.66                             153   -0.1210 65.8 296 
 PAM  EZ IP     C 1720  8.06                             150    0.2510 75.7  44 
 PAM  EE ES       1720 24.41                             150    0.3210 75.7  44 
 PAM  EZ I        1720 28.73         2.2 0.56            151           75.7  44 
 RUS  HZ EP       1720  9.24                             140   -0.7410  106 174 
 RUS  HN ES       1720 28.24                             140    0.2910  106 174 
 RUS  HZ I        1720 28.93         3.7 0.40            144            106 174 
 PTB  HZ EP       1720 12.92                             130    0.15 9  146 257 
 PTB  HN ES       1720 33.26                             130    0.34 9  146 257 
 PTB  HZ I        1720 36.78         1.9 0.14            132            146 257 
 GUY2CHZ EP   2   1720 31.79                             110    1.72 4  302 234 
 GUY2CHE ES   4   1721  7.24                             110    3.53 0  302 234 
 GUY2CHZ I        1721 10.31         1.0 0.48                           302 234 
                                                                                
