 2014  327 1138  0.7 L   6.836 -73.127145.1  RSN  8 0.4 2.0LRSN                1
 GAP=185        1.01       3.3     5.9  7.6 -0.9240E+00  0.1186E+02 -0.4922E+01E
 Epicentro: LOS SANTOS - SANTANDER                                             3
 ACTION:UPD 14-04-09 23:20 OP:nd   STATUS:               ID:20140327113800 L   I
 OLDACT:DUP 14-03-27 17:34 OP:mh   STATUS:               ID:20140327112820d    3
 2014-03-27-1128-18M.COL___244                                                 6
 STAT SP IPHASW D HRMM SECON CODA AMPLIT PERI AZIMU VELO AIN AR TRES W  DIS CAZ7
 BAR2 SZ EP       1138 21.14                             169    0.7810 27.6 193 
 BAR2 SZ ES       1138 35.76                             169    0.0810 27.6 193 
 BAR2 SZ I        1138 36.88        45.2 0.28            168           27.6 193 
 RUS  HZ EP       1138 24.11                             143   -0.5710  104 177 
 RUS  HN ES   1   1138 43.23                             143   -0.14 7  104 177 
 RUS  HZ I        1138 45.56         4.9 0.24            146            104 177 
 PTB  HN ES   1   1138 48.70                             131   -0.38 7  151 258 
 OCA  HZ EP       1138 28.22                             130   -0.41 9  157 352 
 OCA  HN ES       1138 50.30                             130   -0.10 9  157 352 
 OCA  HZ I        1138 55.59        14.2 0.14            131            157 352 
 ZAR  HZ EP   1   1138 33.30                             122    0.14 6  205 291 
 ZAR  HN ES   1   1138 59.10                             122    0.62 6  205 291 
 ZAR  HZ I        1139  4.51         8.0 0.16            122            205 291 
 NOR  HZ EP       1138 37.37                             118    0.54 8  239 234 
 NOR  HN ES       1139  4.33                             118   -0.68 8  239 234 
 NOR  HZ I        1139 11.90         3.5 0.23            119            239 234 
 SML  HZ EP       1138 36.94                             118   -0.07 8  241 334 
 SML  HN ES       1139  5.34                             118    0.02 8  241 334 
 SML  HZ I        1139 11.11        12.1 0.07            119            241 334 
 CHI  HN ES   1   1139  9.17                             117    0.57 6  253 195 
 SJC  HZ EP   4   1138 55.18                             106   -0.82 0  407 326 
 SJC  HN ES   4   1139 35.34                             106   -3.78 0  407 326 
                                                                                
