 2013 1227 1533 14.7 L   6.782 -73.109145.8  RSN  9 0.4 1.9LRSN                1
 GAP=142        0.99       3.7     5.0  6.0 -0.1524E+01  0.1099E+02 -0.4905E-01E
 Epicentro: LOS SANTOS - SANTANDER                                             3
 ACTION:UPD 14-01-13 10:21 OP:ep   STATUS:               ID:20131227153314 L   I
 OLDACT:DUP 13-12-27 15:12 OP:jn   STATUS:               ID:20131227153001d    3
 2013-12-27-1530-00M.COL___285                                                 6
 STAT SP IPHASW D HRMM SECON CODA AMPLIT PERI AZIMU VELO AIN AR TRES W  DIS CAZ7
 BAR2 SZ IP     D 1533 34.50                             171    0.1510 22.4 201 
 BAR2 SZ ES       1533 49.23                             171   -0.4210 22.4 201 
 BAR2 SZ I        1533 50.95        26.6 0.20            169           22.4 201 
 BRR  HZ IP     C 1533 36.42                             151    0.2710 75.7 298 
 BRR  HE ES       1533 53.35                             151    0.5010 75.7 298 
 BRR  HZ I        1533 54.75        17.1 0.16            150           75.7 298 
 PAM  SZ EP     C 1533 37.33                             151    0.4310 76.5  36 
 PAM  SN ES       1533 54.34                             151    0.1510 76.5  36 
 PAM  SZ I        1533 55.09        11.3 0.32            154           76.5  36 
 RUS  HZ EP       1533 38.42                             145    0.0910 98.4 178 
 RUS  HN ES       1533 56.24                             145   -0.4910 98.4 178 
 RUS  HZ I        1533 57.90         8.4 0.24            146           98.4 178 
 PTB  HZ EP       1533 41.12                             131   -0.91 9  151 260 
 PTB  HE ES   4   1534  1.36                             131   -1.96 0  151 260 
 PTB  HZ I        1534  6.81        11.8 0.38            131            151 260 
 ZAR  HZ EP   1   1533 48.00                             122    0.35 6  209 292 
 ZAR  HN ES   1   1534 13.46                             122    0.15 6  209 292 
 NOR  HZ EP       1533 50.93                             118    0.24 8  237 235 
 NOR  HN ES       1534 18.79                             118    0.05 8  237 235 
 NOR  HZ I        1534 22.78         8.2 0.18            119            237 235 
 SML  HZ EP       1533 51.14                             117   -0.61 8  247 335 
 SML  HN ES   2   1534 19.88                             117   -0.73 4  247 335 
 CHI  HZ EP   2   1533 53.01                             117    0.67 4  248 196 
 CHI  HN ES   1   1534 22.01                             117    0.34 6  248 196 
                                                                                
