 2017 1227 1443 46.3 L   6.774 -73.161142.9  RSN  5 0.3 1.6LRSN                1
 GAP=147        0.63       5.8     3.7  7.4 -0.1053E+02  0.6450E+01  0.3593E+01E
 Epicentro: LOS SANTOS - SANTANDER                                             3
 ACTION:UPD 18-01-04 13:24 OP:rebc STATUS:               ID:20171227144346 L   I
 OLDACT:REG 17-12-27 21:00 OP:mg   STATUS:               ID:20171227143737     3
 2017-12-27-1438-00M.COL___435                                                 6
 STAT SP IPHASW D HRMM SECON CODA AMPLIT PERI AZIMU VELO AIN AR TRES W  DIS CAZ7
 BAR2 EZ EP       1444  5.71                             172    0.1410 20.2 187 
 BAR2 EZ ES   2   1444 20.62                             172    0.06 5 20.2 187 
 BAR2 EZ I        1444 21.72         8.8 0.22            172           20.2 187 
 PAM  EZ EP       1444  8.69                             149    0.2310 80.7  39 
 PAM  EE ES       1444 25.58                             149   -0.1310 80.7  39 
 PAM  EZ I        1444 27.68         8.1 0.50            150           80.7  39 
 PTB  HZ EP       1444 12.46                             132   -0.41 9  146 260 
 PTB  HN ES       1444 33.36                             132   -0.20 9  146 260 
 PTB  HZ I        1444 35.84         4.1 0.22            131            146 260 
 SPBC HE ES   2   1444 36.54                             129    0.43 5  160 219 
 SPBC HZ I        1444 39.25         9.5 0.17            131            160 219 
 ZAR  HN ES   1   1444 44.12                             122    0.45 6  204 293 
 ZAR  HZ I        1444 52.63         3.2 0.15            121            204 293 
                                                                                
