 2017  727 1033 36.4 L   6.802 -73.055144.0  RSN  5 0.4 1.8LRSN                1
 GAP=148        0.91       4.7     6.6  7.2 -0.5369E+01  0.8480E+01  0.8612E+01E
 Epicentro: LOS SANTOS - SANTANDER                                             3
 ACTION:UPD 17-08-30 15:37 OP:rebc STATUS:               ID:20170727103336 L   I
 OLDACT:UP  17-07-27 22:40 OP:ar   STATUS:               ID:20170727102744d    3
 OLDACT:DUP 17-07-27 22:19 OP:ar   STATUS:               ID:20170727102744d    3
 2017-07-27-1028-00M.COL___371                                                 6
 STAT SP IPHASW D HRMM SECON CODA AMPLIT PERI AZIMU VELO AIN AR TRES W  DIS CAZ7
 BAR2 EZ EP       1033 55.81                             169   -0.0810 27.1 211 
 BAR2 EZ ES       1034 10.84                             169   -0.2610 27.1 211 
 BAR2 EZ I        1034 12.61        12.1 0.20            167           27.1 211 
 PAM  EE ES       1034 14.70                             153   -0.2610 71.2  33 
 BRR  HZ EP       1033 57.78                             149   -0.0910 80.0 295 
 BRR  HN ES       1034 15.10                             149    0.4710 80.0 295 
 RUS  HZ EP       1034  0.06                             143    0.0910  101 182 
 RUS  HN ES       1034 18.85                             143    0.4910  101 182 
 RUS  HZ I        1034 20.27         7.5 0.26            143            101 182 
 SPBC HZ EP       1034  5.64                             127    0.25 9  170 222 
 SPBC HE ES       1034 27.34                             127   -0.67 9  170 222 
 SPBC HZ I        1034 29.58         8.8 0.18            128            170 222 
                                                                                
