 2010  527 1035 51.6 L   6.844 -73.035138.7  RSN  5 0.3 2.4LRSN                1
 GAP=222        0.52       2.9     7.3  5.4 -0.7197E+01  0.2238E+02 -0.4198E+01E
 Epicentro: CEPITA - SANTANDER                                                 3
 ACTION:UP  10-08-24 10:07 OP:vdl  STATUS:               ID:20100527103551 L   I
 2010-05-27-1034-18S.COL___105                                                 6
 STAT SP IPHASW D HRMM SECON CODA AMPLIT PERI AZIMU VELO SNR AR TRES W  DIS CAZ7
 BAR2 SZ EP       1036 10.82                             166     0.210   32 211 
 BAR2 SZ ES       1036 25.43                             166     0.010   32 211 
 OCA  SZ EP   1   1036 19.01                             129    -0.1 7  157 349 
 OCA  SZ ES       1036 40.57                             129     0.0 9  157 349 
 OCA  SZ I        1036 45.71        29.8 0.36                           157 349 
 ROSC BZ EP   2   1036 30.85                             114     0.3 4  263 213 
 ROSC BN ES   2   1037  0.45                             114    -0.5 4  263 213 
 ROSC BZ I        1037  5.60        15.2 0.26                           263 213 
 HEL  HZ EP   2   1036 33.61                             112     0.6 4  285 255 
 HEL  HE ES   2   1037  5.56                             112     0.3 4  285 255 
 HEL  HZ I        1037 10.93        18.8 0.37                           285 255 
 DBB  SZ EP       1036 39.86                             107    -0.4 6  351 273 
                                                                                
