 2012  227 1627 59.7 L   6.759 -73.131145.5  RSN 12 0.3 2.9LRSN                1
 GAP=140        0.62       2.2     2.8  3.4 -0.1262E+00  0.2314E+01  0.9176E+00E
 ACTION:UP  12-03-07 16:34 OP:epov STATUS:               ID:20120227162759 L   I
 2012-02-27-1620-00M.COL___193                                                 6
 STAT SP IPHASW D HRMM SECON CODA AMPLIT PERI AZIMU VELO AIN AR TRES W  DIS CAZ7
 BAR2 SZ IP       1628 19.23                             172    0.0010 19.3 197 
 BAR2 SZ ES       1628 34.24                             172   -0.2210 19.3 197 
 BAR2 SZ I        1628 36.87       210.7 0.28                          19.3 197 
 GIR2 SZ EP       1628 19.32                             165   -0.1610 36.1 349 
 BRR  HZ IP       1628 21.14                             151    0.1010 74.9 301 
 BRR  HN ES       1628 38.36                             151    0.6810 74.9 301 
 BRR  HZ I        1628 40.72       157.6 0.24                          74.9 301 
 PAM  SZ EP       1628 22.03                             150   -0.0210 80.0  37 
 PAM  SN ES   1   1628 39.19                             150   -0.29 7 80.0  37 
 RUS  HZ EP       1628 23.17                             145    0.0710 95.9 177 
 RUS  HE ES       1628 41.25                             145   -0.1010 95.9 177 
 RUS  HZ I        1628 43.27        88.8 0.40                          95.9 177 
 PTB  HZ EP   1   1628 26.30                             132   -0.42 7  149 261 
 PTB  HE ES   1   1628 47.74                             132   -0.06 7  149 261 
 OCA  SZ EP       1628 28.50                             129    0.06 9  165 353 
 ZAR  HZ EP       1628 32.50                             122    0.03 8  207 293 
 ZAR  HE ES       1628 57.61                             122   -0.42 8  207 293 
 ZAR  HZ I        1629  3.87        75.6 0.25                           207 293 
 NOR  SZ EP       1628 35.33                             119    0.05 8  233 236 
 NOR  SE ES   1   1629  2.81                             119   -0.22 6  233 236 
 CHI  HZ EP       1628 37.36                             117    0.41 8  245 196 
 CHI  HE ES   1   1629  6.33                             117    0.32 6  245 196 
 CHI  HZ I        1629 13.90        36.3 0.40                           245 196 
 HEL  HZ EP   1   1628 40.17                             115    0.21 6  273 257 
 PRA  HZ EP       1628 52.71                             107   -0.13 6  389 210 
 PRA  HE ES       1629 34.04                             107   -0.26 6  389 210 
                                                                                
