 2011 1127 1906 15.1 L   6.783 -73.106137.8  RSN  4 0.4 1.5LRSN                1
 GAP=142        0.82       5.6     8.3  9.2 -0.1032E+01 -0.5233E+01  0.1152E+01E
 Epicentro: LOS SANTOS - SANTANDER                                             3
 ACTION:UPD 12-07-13 16:12 OP:ep   STATUS:               ID:20111127190615 L   I
 2011-11-27-1905-15S.COL___160                                                 6
 STAT SP IPHASW D HRMM SECON CODA AMPLIT PERI AZIMU VELO AIN AR TRES W  DIS CAZ7
 BAR2 SZ ES   1   19 6 47.59                             170   -0.71 7 22.7 202 
 BAR2 SZ I        19 6 50.55         7.6 0.27                          22.7 202 
 BRR  HZ EP   1   19 6 35.46                             149   -0.20 7 75.9 298 
 BRR  HZ I        19 6 35.81        13.9 0.10                          75.9 298 
 BRR  HE ES   1   19 6 52.07                             149    0.36 7 75.9 298 
 PAM  SZ EP   1   19 6 36.59                             150    0.20 7 76.2  36 
 PAM  SE ES   1   19 6 53.08                             150    0.08 7 76.2  36 
 PAM  SZ I        19 6 55.88         4.1 0.50                          76.2  36 
 RUS  HZ EP   1   19 6 37.60                             143   -0.30 7 98.5 178 
 RUS  HZ I        19 6 53.91         2.7 0.81                          98.5 178 
 RUS  HN ES   1   19 6 56.28                             143    0.58 7 98.5 178 
                                                                                
