 2012  927 1121 51.8 L   6.802 -73.151146.7  RSN  7 0.5 1.9LRSN                1
 GAP=185        0.91       6.4     7.0  8.2  0.1802E+02  0.1063E+02  0.5211E+01E
 Epicentro: LOS SANTOS - SANTANDER                                             3
 ACTION:UPD 12-10-22 14:21 OP:ep   STATUS:               ID:20120927112151 L   I
 2012-09-27-1120-00M.COL___217                                                 6
 STAT SP IPHASW D HRMM SECON CODA AMPLIT PERI AZIMU VELO AIN AR TRES W  DIS CAZ7
 BAR2 SZ EP   1   1122 11.21                             171   -0.28 7 23.5 189 
 BAR2 SZ ES   1   1122 26.00                             171   -0.89 7 23.5 189 
 BAR2 SZ I        1122 27.85        12.9 0.40                          23.5 189 
 GIR2 SZ EP   1   1122 11.74                             167    0.22 7 31.0 351 
 BRR  HZ EP   1   1122 13.25                             153    0.28 7 70.6 299 
 BRR  HE ES   1   1122 30.46                             153    0.95 7 70.6 299 
 BRR  HE I        1122 33.99        37.4 0.46                          70.6 299 
 RUS  HZ EP   1   1122 15.59                             144   -0.02 7  101 176 
 RUS  HN ES   1   1122 34.58                             144    0.36 7  101 176 
 RUS  HZ I        1122 35.27         4.9 0.26                           101 176 
 PTB  HE ES   1   1122 39.43                             132   -0.38 7  147 259 
 PTB  HE I        1122 44.73         7.6 0.20                           147 259 
 ZAR  HZ EP   1   1122 23.87                             123   -0.33 6  203 292 
 ZAR  HE ES   1   1122 49.22                             123   -0.28 6  203 292 
 ZAR  HE I        1122 55.77        14.7 0.46                           203 292 
 PRA  HZ EP   1   1122 45.28                             107   -0.01 4  392 209 
 PRA  HE ES   1   1123 27.52                             107    0.46 4  392 209 
 PRA  HE I        1123 32.84         2.9 0.58                           392 209 
                                                                                
