 2011  127 1028 45.2 L   6.820 -73.326109.4  RSN  4 0.2 1.5LRSN                1
 GAP=221        0.60       4.6    16.4  6.7 -0.4359E+02  0.6868E+01 -0.1000E+02E
 Epicentro: ZAPATOCA - SANTANDER                                               3
 ACTION:UP  11-02-08 08:43 OP:pat  STATUS:               ID:20110127102845 L   I
 2011-01-27-1025-45S.COL___138                                                 6
 STAT SP IPHASW D HRMM SECON CODA AMPLIT PERI AZIMU VELO SNR AR TRES W  DIS CAZ7
 BTL  SZ EP       1029  0.48                             173     0.210   13  30 
 BTL  SZ ES   2   1029 12.09                             173     0.1 5   13  30 
 BAR2 SZ IP       1029  0.39                             164    -0.310   30 148 
 BAR2 SZ I        1029  0.53        18.2 0.03                            30 148 
 BAR2 SZ ES   1   1029 12.56                             164    -0.2 7   30 148 
 RUS  HZ EP   2   1029  5.82                             133    -0.2 5  106 165 
 RUS  HN ES   2   1029 22.80                             133     0.5 5  106 165 
 RUS  HZ I        1029 26.59         2.4 0.56                           106 165 
 GRA  SZ EP       1029  8.16                             126     0.210  131  26 
 GRA  SZ ES   1   1029 25.63                             126    -0.1 7  131  26 
 GRA  SZ I        1029 26.69         7.1 0.26                           131  26 
                                                                                
