 2011 1027 1442 28.3 L   6.138 -73.753108.0  RSN  6 0.4 1.7LRSN                1
 GAP=133        0.74       4.4     5.1 10.0  0.2422E+01  0.3069E+02 -0.1061E+00E
 Epicentro: LANDAZURI - SANTANDER                                              3
 ACTION:UPD 12-07-13 16:06 OP:ep   STATUS:               ID:20111027144228 L   I
 2011-10-27-1441-00S.COL___177                                                 6
 STAT SP IPHASW D HRMM SECON CODA AMPLIT PERI AZIMU VELO AIN AR TRES W  DIS CAZ7
 RUS  HZ EP       1442 46.71                             141   -0.0610 78.9 110 
 RUS  HE ES   1   1443  1.07                             141   -0.12 7 78.9 110 
 RUS  HZ I        1443  2.01         4.2 0.38                          78.9 110 
 BAR2 SZ EP       1442 46.98                             140    0.4310 80.7  51 
 BAR2 SZ ES   1   1443  0.62                             140   -0.18 7 80.7  51 
 BAR2 SZ I        1443  2.52        38.5 0.20                          80.7  51 
 BRR  HZ EP       1442 48.68                             131    0.2010  107   2 
 BRR  HZ I        1442 59.24        11.9 0.50                           107   2 
 BRR  HN ES   1   1443  4.33                             131    0.10 7  107   2 
 NOR  SZ EP   2   1442 52.34                             123    0.72 5  139 243 
 NOR  SE ES   2   1443  9.37                             123   -0.45 5  139 243 
 PAM  SN ES   3   1443 16.84                             116   -1.08 2  177  41 
 ZAR  HZ EP       1442 56.75                             114   -0.63 9  193 321 
 ZAR  HN ES   3   1443 20.47                             114    0.39 2  193 321 
 ZAR  HZ I        1443 23.76         4.6 0.30                           193 321 
                                                                                
