 2016  227 1814 41.7 L   6.822 -73.191144.2  RSN 18 0.4 2.5LRSN                1
 GAP=130        0.99       2.7     3.7  5.3 -0.2739E+01  0.8141E+01 -0.1052E+01E
 Epicentro: ZAPATOCA - SANTANDER                                               3
 ACTION:UPD 16-03-04 21:29 OP:rebc STATUS:               ID:20160227181441 L   I
 OLDACT:UP  16-02-28 00:01 OP:drio STATUS:               ID:20160227180751     3
 OLDACT:UP  16-02-28 00:01 OP:drio STATUS:               ID:20160227180751     3
 OLDACT:REG 16-02-27 20:13 OP:drio STATUS:               ID:20160227180751     3
 2016-02-27-1807-51M.COL___316                                                 6
 STAT SP IPHASW D HRMM SECON CODA AMPLIT PERI AZIMU VELO AIN AR TRES W  DIS CAZ7
 BAR2 EZ EP       1815  1.04                             170   -0.1310 25.4 178 
 BAR2 EZ ES       1815 16.64                             170    0.2710 25.4 178 
 BAR2 EZ I        1815 19.57        46.2 0.40            167           25.4 178 
 PAM  EZ EP     D 1815  3.91                             150    0.0810 78.9  43 
 PAM  EE ES       1815 21.18                             150    0.0910 78.9  43 
 PAM  EZ I        1815 23.40        45.4 0.46            157           78.9  43 
 RUS  HZ EP       1815  5.23                             143   -0.2610  103 173 
 RUS  HE ES       1815 23.35                             143   -0.7110  103 173 
 RUS  HZ I        1815 24.48        18.1 0.36            145            103 173 
 PTB  HZ EP       1815  8.16                             132    0.03 9  143 258 
 PTB  HN ES       1815 29.15                             132    0.39 9  143 258 
 PTB  HZ I        1815 32.52        39.4 0.16            131            143 258 
 OCA  HZ EP       1815  9.72                             130    0.11 9  157 355 
 OCA  HN ES       1815 31.29                             130   -0.09 9  157 355 
 OCA  HZ I        1815 36.50        61.9 0.18            132            157 355 
 SPBC HZ EP       1815  9.96                             129    0.00 9  162 217 
 SPBC HN ES       1815 32.53                             129    0.53 9  162 217 
 SPBC HZ I        1815 39.23        68.7 0.34            129            162 217 
 ZAR  HZ EP       1815 14.04                             123    0.57 9  199 292 
 ZAR  HE ES   4   1815 39.53                             123    1.28 0  199 292 
 ZAR  HZ I        1815 46.69        32.6 0.32            123            199 292 
 NOR  HZ EP       1815 16.87                             118   -0.18 8  232 233 
 NOR  HE ES       1815 44.70                             118    0.07 8  232 233 
 NOR  HZ I        1815 48.83        38.2 0.18            119            232 233 
 CHI  HZ EP       1815 19.21                             117   -0.21 8  250 194 
 CHI  HN ES       1815 48.18                             117   -0.67 8  250 194 
 CHI  HZ I        1815 56.74        12.0 0.42            119            250 194 
 ROSC BZ EP       1815 20.49                             116    0.81 8  252 210 
 ROSC BE ES   4   1815 53.33                             116    4.03 0  252 210 
 ROSC BZ I        1815 57.06        41.5 0.45            118            252 210 
 HEL  HZ EP   4   1815 23.13                             115    1.77 0  268 255 
 HEL  HE ES       1815 51.88                             115   -0.42 8  268 255 
 HEL  HZ I        1815 58.51        12.9 0.42            115            268 255 
 URE  HZ EP       1815 21.24                             114   -0.83 7  278 292 
 URE  HN ES   4   1815 51.65                             114   -1.91 0  278 292 
 URE  HZ I        1816  3.95        13.4 0.16            115            278 292 
 GUY2CHZ EP       1815 25.93                             112    1.00 7  299 234 
 GUY2CHN ES   4   1816  1.38                             112    2.72 0  299 234 
 GUY2CHZ I        1816  8.30        20.8 0.28                           299 234 
 LL6C HZ EP       1815 27.20                             110    0.17 7  322 358 
 LL6C HE ES   4   1816  0.97                             110   -1.42 0  322 358 
 ELA  HZ EP   4   1815 30.84                             110    2.61 0  327 229 
 ELA  HN ES   4   1816  3.65                             110   -0.87 0  327 229 
 ELA  HZ I        1816 21.11        13.5 0.64            111            327 229 
 CBOC HZ EP   4   1815 29.43                             110    1.35 0  330 251 
 CBOC HE ES       1816  4.19                             110   -0.08 7  330 251 
 CBOC HZ I        1816 15.19         5.3 0.48            111            330 251 
 MON  HZ EP   4   1815 28.49                             109   -1.52 0  348 309 
 MON  HN ES       1816  6.82                             109   -0.88 6  348 309 
 MON  HZ I        1816 10.92         6.7 0.20            110            348 309 
 ANIL HZ EP   4   1815 32.54                             108    1.31 0  356 224 
 ANIL HE ES   4   1816 11.88                             108    2.00 0  356 224 
 ORTC HZ EP       1815 35.56                             106    0.12 6  394 215 
 ORTC HN ES       1816 17.37                             106   -0.00 6  394 215 
 ORTC HZ I        1816 23.78        10.6 0.44            108            394 215 
                                                                                
