 2010  727 1237  3.4 L   6.755 -73.051143.2  RSN  8 0.4 2.2LRSN                1
 GAP=170        0.65       4.3     7.7  6.7 -0.1206E+02  0.1132E+02  0.1040E+01E
 Epicentro: LOS SANTOS - SANTANDER                                             3
 ACTION:UPD 10-12-01 15:20 OP:pat  STATUS:               ID:20100727123703 L   I
 2010-07-27-1234-16S.COL___123                                                 6
 STAT SP IPHASW D HRMM SECON CODA AMPLIT PERI AZIMU VELO AIN AR TRES W  DIS CAZ7
 BAR2 SZ EP   1   1237 22.56                             170    -0.1 7   23 219 
 BAR2 SZ ES   2   1237 37.41                             170    -0.3 5   23 219 
 BAR2 SZ I        1237 38.39        43.9 0.24                            23 219 
 BRR  HZ EP   1   1237 24.74                             148    -0.2 7   83 298 
 BRR  HE ES   2   1237 41.60                             148    -0.2 5   83 298 
 BRR  HZ I        1237 46.27        37.3 0.17                            83 298 
 RUS  HZ EP   1   1237 26.46                             145     0.0 7   95 182 
 RUS  HE ES   2   1237 45.01                             145     0.5 5   95 182 
 RUS  HZ I        1237 46.45        21.1 0.30                            95 182 
 GUE  SZ EP   1   1237 27.93                             138    -0.2 7  120   7 
 GRA  SZ EP   1   1237 28.70                             136     0.1 7  128  12 
 GRA  SZ ES   2   1237 48.82                             136     0.6 5  128  12 
 HEL  HZ EP   1   1237 45.02                             113     0.6 6  281 257 
 RREF HZ EP   1   1237 49.94                             110     0.0 5  327 231 
 RREF HZ I        1238 33.69         6.7 0.25                           327 231 
 PRA  HZ EP   1   1237 56.20                             106    -0.7 4  393 211 
 PRA  HN ES   2   1238 39.57                             106     0.9 3  393 211 
 PRA  HZ I        1238 45.37         4.2 0.23                           393 211 
                                                                                
