 2017  827 1607 32.7 L   6.545 -73.522112.7  RSN  7 0.3 1.5LRSN                1
 GAP= 71        0.70       2.3     2.6  4.9 -0.9807E+00  0.4769E+01  0.9150E+00E
 Epicentro: EL CARMEN - SANTANDER                                              3
 ACTION:UPD 17-09-04 20:25 OP:rebc STATUS:               ID:20170827160732 L   I
 OLDACT:DUP 17-08-27 23:52 OP:osc  STATUS:               ID:20170827155743d    3
 2017-08-27-1558-00M.COL___417                                                 6
 STAT SP IPHASW D HRMM SECON CODA AMPLIT PERI AZIMU VELO AIN AR TRES W  DIS CAZ7
 BAR2 EZ IP     D 16 7 48.94                             160    0.0810 37.9  82 
 BAR2 EZ ES       16 8  1.78                             160    0.3110 37.9  82 
 BAR2 EZ I        16 8  2.98        37.3 0.36            161           37.9  82 
 BRR  HZ EP       16 7 49.77                             148   -0.2410 65.6 341 
 BRR  HE ES       16 8  3.73                             148    0.2210 65.6 341 
 RUS  HZ EP       16 7 52.13                             140   -0.1210 87.0 146 
 RUS  HE ES       16 8  7.56                             140    0.0610 87.0 146 
 RUS  HZ I        16 8 10.89         1.4 0.19            140           87.0 146 
 SPBC HZ EP       16 7 54.34                             131    0.1410  116 212 
 SPBC HE ES       16 8 10.54                             131   -0.4310  116 212 
 SPBC HZ I        16 8 12.72        13.0 0.24            132            116 212 
 PAM  EZ EP       16 7 55.72                             128    0.0210  126  46 
 PAM  EE ES       16 8 13.34                             128   -0.3110  126  46 
 PAM  EZ I        16 8 14.50         3.2 0.15            131            126  46 
 ZAR  HN ES       16 8 22.44                             117   -0.09 9  181 305 
 GUY2CHZ EP       16 8  9.83                             109    0.69 8  251 234 
 GUY2CHE ES       16 8 37.38                             109   -0.20 8  251 234 
 GUY2CHZ I        16 8 43.75         2.4 0.24                           251 234 
                                                                                
