 2016 1027 1650 23.3 L   6.779 -73.149150.8  RSN  4 0.3 0.9LRSN                1
 GAP=137        0.72       4.1     3.9  6.3 -0.1813E+01  0.1997E+01  0.3244E+01E
 Epicentro: LOS SANTOS - SANTANDER                                             3
 ACTION:UPD 16-11-09 19:23 OP:rebc STATUS:               ID:20161027165023 L   I
 OLDACT:REG 16-10-27 20:34 OP:edw  STATUS:               ID:20161027164744     3
 2016-10-27-1648-00M.COL___349                                                 6
 STAT SP IPHASW D HRMM SECON CODA AMPLIT PERI AZIMU VELO AIN AR TRES W  DIS CAZ7
 BRR  HZ EP       1650 45.33                             153    0.2810 72.0 300 
 BRR  HN ES       1651  2.42                             153    0.4110 72.0 300 
 PAM  EZ EP       1650 46.07                             151   -0.1210 79.5  39 
 PAM  EN ES       1651  3.76                             151   -0.2710 79.5  39 
 PAM  EZ I        1651  5.29         2.4 0.56            148           79.5  39 
 RUS  HZ EP       1650 47.51                             145    0.1110 98.2 176 
 RUS  HZ I        1651  5.55         0.8 0.58            133           98.2 176 
 RUS  HN ES       1651  6.23                             145    0.0410 98.2 176 
 PTB  HZ EP       1650 50.56                             133   -0.06 9  147 260 
 PTB  HN ES       1651 11.44                             133   -0.48 9  147 260 
 PTB  HZ I        1651 16.07         0.9 0.17            127            147 260 
                                                                                
