 2012  327 1729 50.0 L   6.769 -73.141152.0  RSN  8 0.4 1.9LRSN                1
 GAP=139        0.59       4.9     4.8  7.2  0.1143E+00  0.8233E+01  0.7125E+01E
 ACTION:UP  12-03-31 23:23 OP:EP   STATUS:               ID:20120327172950 L   I
 2012-03-27-1729-41M.COL___178                                                 6
 STAT SP IPHASW D HRMM SECON CODA AMPLIT PERI AZIMU VELO SNR AR TRES W  DIS CAZ7
 BAR2 SZ EP   2   1730 10.21                             172    -0.1 5   20 193 
 BAR2 SZ ES   2   1730 26.05                             172    -0.1 5   20 193 
 BAR2 SZ I        1730 28.59        13.3 0.12                            20 193 
 BRR  HZ EP   2   1730 12.14                             153     0.2 5   73 301 
 BRR  HZ I        1730 17.29        18.6 0.67                            73 301 
 BRR  HE ES   2   1730 29.81                             153     0.8 5   73 301 
 PAM  SZ EP   2   1730 12.89                             151    -0.1 5   80  38 
 PAM  SE ES   2   1730 30.89                             151     0.0 5   80  38 
 RUS  HZ EP   1   1730 14.08                             146     0.0 7   97 176 
 RUS  HE ES   2   1730 32.80                             146    -0.1 5   97 176 
 RUS  HZ I        1730 33.89         6.9 0.27                            97 176 
 PTB  HZ EP   2   1730 16.87                             134    -0.6 5  148 260 
 PTB  HN ES   2   1730 38.12                             134    -0.7 5  148 260 
 PTB  HZ I        1730 43.29         7.8 0.29                           148 260 
 ZAR  HZ EP   2   1730 22.55                             124    -0.4 4  206 293 
 ZAR  HN ES   2   1730 48.92                             124     0.1 4  206 293 
 ZAR  HZ I        1730 54.83        12.8 0.31                           206 293 
 NOR  SE ES   2   1730 54.34                             120     0.4 4  233 235 
 PRA  HZ EP   2   1730 44.15                             108     0.8 3  389 210 
 PRA  HN ES   2   1731 25.31                             108     0.3 3  389 210 
                                                                                
