 2012  627 1822 41.8 L   6.304 -73.656107.7  RSN  4 0.1 1.5LRSN                1
 GAP=161        0.34       3.8     3.1  6.3  0.4307E+01  0.1144E+02  0.7567E+01E
 Epicentro: SANTA HELENA DEL OPON - SANTANDER                                  3
 ACTION:UPD 12-08-06 17:53 OP:ep   STATUS:               ID:20120627182241 L   I
 2012-06-27-1820-00M.COL___201                                                 6
 STAT SP IPHASW D HRMM SECON CODA AMPLIT PERI AZIMU VELO AIN AR TRES W  DIS CAZ7
 BAR2 SZ IP       1822 58.84                             148    0.1610 61.4  59 
 BAR2 SZ I        1822 58.93        12.6 0.32                          61.4  59 
 BAR2 SZ ES   1   1823 11.81                             148   -0.01 7 61.4  59 
 RUS  HZ EP       1823  0.17                             142   -0.0410 78.1 126 
 RUS  HN ES   3   1823 14.24                             142   -0.31 2 78.1 126 
 RUS  HZ I        1823 17.02         5.6 0.24                          78.1 126 
 BRR  HZ EP       1823  0.31                             137   -0.0810 89.0 356 
 PTB  HZ EP       1823  0.65                             136   -0.0310 92.2 286 
 PTB  HN ES   3   1823 15.63                             136    0.23 2 92.2 286 
 PTB  HZ I        1823 18.11         8.6 0.30                          92.2 286 
                                                                                
