 2013  127 1716 42.5 L   6.807 -72.981142.0  RSN  4 0.5 1.5LRSN                1
 GAP=159        0.94       7.2     9.9 11.5 -0.7279E+01 -0.1213E+01 -0.1097E+02E
 Epicentro: CEPITA - SANTANDER                                                 3
 ACTION:UPD 13-02-15 09:17 OP:ep   STATUS:               ID:20130127171642 L   I
 2013-01-27-1710-00M.COL___241                                                 6
 STAT SP IPHASW D HRMM SECON CODA AMPLIT PERI AZIMU VELO AIN AR TRES W  DIS CAZ7
 BAR2 SZ EP   1   1717  1.58                             166   -0.35 7 32.6 223 
 BAR2 SZ ES   1   1717 17.47                             166    0.41 7 32.6 223 
 BAR2 SZ I        1717 19.54         7.0 0.26            160           32.6 223 
 PAM  SZ EP   1   1717  4.58                             154    0.86 7 66.6  28 
 PAM  SN ES   1   1717 19.71                             154   -0.54 7 66.6  28 
 BRR  HZ EP   1   1717  3.85                             147   -0.43 7 87.3 292 
 BRR  HN ES   1   1717 21.41                             147    0.17 7 87.3 292 
 BRR  HZ I        1717 27.62         6.6 0.70            141           87.3 292 
 RUS  HN ES   1   1717 24.18                             143   -0.12 7  102 186 
                                                                                
