 2011  627 1446  1.7 L   6.824 -73.137151.1  RSN  4 0.1 1.5LRSN                1
 GAP=174        0.38      11.0     9.3  8.5  0.2885E+02 -0.3264E+02 -0.5586E+02E
 Epicentro: LOS SANTOS - SANTANDER                                             3
 ACTION:UP  11-07-14 19:08 OP:ep   STATUS:               ID:20110627144601 L   I
 2011-06-27-1441-20S.COL___140                                                 6
 STAT SP IPHASW D HRMM SECON CODA AMPLIT PERI AZIMU VELO SNR AR TRES W  DIS CAZ7
 BTL  SZ EP   1   1446 21.98                             173     0.1 7   18 306 
 BAR2 SZ ES   2   1446 37.72                             170    -0.1 5   26 191 
 BAR2 SZ I        1446 38.13         4.0 0.29                            26 191 
 BRR  HZ EP   1   1446 23.26                             153    -0.1 7   71 296 
 BRR  HZ I        1446 24.04        10.8 0.35                            71 296 
 BRR  HE ES   2   1446 40.37                             153     0.1 5   71 296 
 GRA  SZ EP   2   1446 27.09                             139    -0.1 5  123  17 
 GRA  SZ I        1446 29.54         4.6 0.44                           123  17 
                                                                                
