 2015 1027 1148  7.8 L   6.820 -73.158148.7  RSN 16 0.4 2.3LRSN                1
 GAP=134        0.93       2.5     3.9  5.2  0.1168E+00  0.6797E+01  0.1147E+00E
 Epicentro: LOS SANTOS - SANTANDER                                             3
 ACTION:UPD 15-12-22 20:43 OP:cam  STATUS:               ID:20151027114807 L   I
 OLDACT:UP  15-11-01 03:32 OP:DRIO STATUS:               ID:20151027114807 L   3
 OLDACT:UP  15-10-28 00:58 OP:ar   STATUS:               ID:20151027114748     3
 OLDACT:REG 15-10-27 22:18 OP:ar   STATUS:               ID:20151027114748     3
 2015-10-27-1147-48M.COL___313                                                 6
 STAT SP IPHASW D HRMM SECON CODA AMPLIT PERI AZIMU VELO AIN AR TRES W  DIS CAZ7
 BAR2 EZ EP     C 1148 27.65                             170   -0.1810 25.3 186 
 BAR2 EZ ES       1148 42.78                             170   -0.6710 25.3 186 
 BAR2 EZ I        1148 44.18        32.6 0.18            168           25.3 186 
 BRR  HZ IP     C 1148 29.42                             154    0.2710 69.0 297 
 BRR  HN ES       1148 46.64                             154    0.8410 69.0 297 
 BRR  HZ I        1148 50.39        29.2 0.34            148           69.0 297 
 PAM  EZ EP       1148 30.60                             152    0.3210 76.5  41 
 PAM  EN ES       1148 47.81                             152   -0.0110 76.5  41 
 PAM  EZ I        1148 49.79        23.6 0.48            149           76.5  41 
 RUS  HZ EP       1148 31.90                             144   -0.1110  103 175 
 RUS  HN ES       1148 50.86                             144   -0.0310  103 175 
 RUS  HZ I        1148 51.25        19.4 0.24            140            103 175 
 OCA  HZ EP   2   1148 35.42                             131   -0.70 5  158 354 
 OCA  HN ES   2   1148 57.79                             131   -0.42 5  158 354 
 OCA  HZ I        1149  4.17        29.1 0.34            126            158 354 
 SPBC HZ EP       1148 36.47                             129   -0.14 9  164 218 
 SPBC HE ES       1148 58.68                             129   -0.41 9  164 218 
 SPBC HZ I        1149  4.81        30.9 0.24            124            164 218 
 ZAR  HZ EP   2   1148 40.14                             123   -0.09 4  202 292 
 ZAR  HE ES       1149  5.55                             123    0.02 9  202 292 
 ZAR  HZ I        1149 11.10        14.6 0.36            118            202 292 
 NOR  HZ EP       1148 44.41                             119    0.68 8  235 234 
 NOR  HN ES       1149 12.16                             119    0.41 8  235 234 
 NOR  HZ I        1149 19.40        16.6 0.16            114            235 234 
 SML  HZ EP       1148 44.61                             118    0.29 8  241 335 
 SML  HN ES       1149 12.58                             118   -0.22 8  241 335 
 SML  HZ I        1149 15.98        19.5 0.10            114            241 335 
 CHI  HZ EP       1148 45.93                             117    0.07 8  250 195 
 CHI  HN ES       1149 15.53                             117   -0.01 8  250 195 
 CHI  HZ I        1149 18.46         9.5 0.32            113            250 195 
 HEL  HZ EP   4   1148 49.90                             115    1.81 0  271 255 
 HEL  HN ES   2   1149 19.27                             115   -0.24 4  271 255 
 URE  HZ EP   1   1148 48.45                             114   -0.34 6  282 292 
 URE  HN ES   4   1149 19.76                             114   -1.00 0  282 292 
 URE  HZ I        1149 30.21        10.2 0.18            110            282 292 
 GUY2CHZ EP   4   1148 53.31                             113    1.74 0  301 234 
 GUY2CHE ES   4   1149 29.52                             113    3.81 0  301 234 
 GUY2CHZ I        1149 32.77         7.6 0.60                           301 234 
 PTGC HZ EP   4   1148 50.43                             112   -1.65 0  311 159 
 PTGC HZ I        1149 16.78        26.3 0.38            108            311 159 
 PTGC HE ES   4   1149 24.18                             112   -2.43 0  311 159 
 DBB  SZ ES   4   1149 30.26                             110   -1.97 0  338 274 
 MON  HZ EP   4   1148 55.04                             109   -1.60 0  351 308 
 MON  HN ES       1149 33.74                             109   -0.99 6  351 308 
 MON  HZ I        1149 48.63         4.5 0.42            105            351 308 
 ORTC HZ EP   4   1149  4.70                             107    2.76 0  396 216 
 ORTC HN ES   4   1149 45.68                             107    1.51 0  396 216 
 ORTC HZ I        1149 51.46         3.9 0.18            103            396 216 
                                                                                
