 2011  927 1009 34.7 L   6.822 -72.981143.9  RSN  4 0.1 1.3LRSN                1
 GAP=158        0.35       3.9     6.6  4.5  0.1736E+02 -0.1461E+02 -0.7099E+01E
 Epicentro: CEPITA - SANTANDER                                                 3
 ACTION:UPD 12-07-13 16:00 OP:ep   STATUS:               ID:20110927100934 L   I
 2011-09-27-1005-16S.COL___165                                                 6
 STAT SP IPHASW D HRMM SECON CODA AMPLIT PERI AZIMU VELO AIN AR TRES W  DIS CAZ7
 BAR2 SZ EP       10 9 54.51                             167    0.1810 33.7 221 
 BAR2 SZ ES   1   1010  9.72                             167    0.05 7 33.7 221 
 BAR2 SZ I        1010 12.57         6.6 0.18                          33.7 221 
 PAM  SZ EP   2   10 9 55.86                             154   -0.13 5 65.1  29 
 BRR  HZ EP       10 9 56.48                             147   -0.0910 86.7 291 
 BRR  HZ I        10 9 57.01         4.7 0.08                          86.7 291 
 BRR  HN ES   1   1010 13.65                             147    0.00 7 86.7 291 
 RUS  HZ EP       10 9 58.43                             143   -0.0110  103 186 
 RUS  HN ES   1   1010 16.85                             143   -0.13 7  103 186 
 RUS  HZ I        1010 19.03         1.7 0.29                           103 186 
                                                                                
