 2011  827 1654  4.5 L   6.765 -73.142142.7  RSN  5 0.4 1.5LRSN                1
 GAP=139        0.82       7.1    12.3  9.7  0.3813E+02 -0.4181E+02 -0.1452E+02E
 Epicentro: LOS SANTOS - SANTANDER                                             3
 ACTION:UPD 12-07-13 15:54 OP:ep   STATUS:               ID:20110827165404 L   I
 2011-08-27-1653-41S.COL___161                                                 6
 STAT SP IPHASW D HRMM SECON CODA AMPLIT PERI AZIMU VELO AIN AR TRES W  DIS CAZ7
 BAR2 SZ ES   1   1654 37.84                             171   -0.79 7 19.7 193 
 BAR2 SZ I        1654 39.67        11.5 0.31                          19.7 193 
 GIR2 SZ ES   2   1654 39.84                             165    0.80 5 35.1 351 
 BRR  HZ EP   1   1654 25.19                             151   -0.23 7 73.4 301 
 BRR  HZ I        1654 25.45        12.0 0.17                          73.4 301 
 BRR  HE ES   1   1654 42.01                             151    0.25 7 73.4 301 
 PAM  SZ EP   1   1654 26.46                             149   -0.08 7 80.1  38 
 RUS  HZ EP   1   1654 27.92                             144    0.27 7 96.7 176 
 RUS  HZ I        1654 28.66         2.0 0.19                          96.7 176 
 RUS  HN ES   1   1654 45.95                             144    0.23 7 96.7 176 
                                                                                
