 2017  727 1714  3.9 L   6.786 -73.157145.3  RSN  9 0.5 2.1LRSN                1
 GAP=136        1.32       5.4     5.4  8.0 -0.3657E+01  0.1007E+02  0.8584E+01E
 Epicentro: LOS SANTOS - SANTANDER                                             3
 ACTION:UPD 17-08-30 15:37 OP:rebc STATUS:               ID:20170727171403 L   I
 OLDACT:UP  17-07-28 01:07 OP:ar   STATUS:               ID:20170727170739     3
 OLDACT:UP  17-07-28 01:06 OP:ar   STATUS:               ID:20170727170739     3
 OLDACT:REG 17-07-27 21:28 OP:ar   STATUS:               ID:20170727170739     3
 2017-07-27-1708-00M.COL___386                                                 6
 STAT SP IPHASW D HRMM SECON CODA AMPLIT PERI AZIMU VELO AIN AR TRES W  DIS CAZ7
 BAR2 EZ EP       1714 23.13                             171   -0.3110 21.6 188 
 BAR2 HN ES       1714 38.53                             171   -0.1510 21.6 188 
 BAR2 EZ I        1714 39.75        51.2 0.16            169           21.6 188 
 BRR  HZ EP       1714 25.15                             153    0.1610 70.9 300 
 BRR  HE ES       1714 41.99                             153    0.5710 70.9 300 
 BRR  HZ I        1714 45.92        34.3 0.42            149           70.9 300 
 PAM  EZ EP       1714 26.16                             150   -0.0310 79.4  40 
 PAM  EE ES       1714 43.75                             150    0.1810 79.4  40 
 PAM  EZ I        1714 45.23        24.9 0.52            155           79.4  40 
 RUS  HZ EP       1714 26.90                             144   -0.6010 99.1 175 
 RUS  HE ES       1714 45.86                             144   -0.0510 99.1 175 
 RUS  HZ I        1714 47.22         8.5 0.26            146           99.1 175 
 PTB  HZ EP       1714 29.89                             132   -0.81 9  146 259 
 PTB  HN ES       1714 50.95                             132   -0.64 9  146 259 
 PTB  HZ I        1714 58.00        11.6 0.20            131            146 259 
 SPBC HZ EP       1714 32.07                             129   -0.11 9  161 219 
 SPBC HE ES       1714 54.82                             129    0.59 9  161 219 
 SPBC HZ I        1714 58.78        22.1 0.44            130            161 219 
 ZAR  HZ EP   4   1714 38.50                             122    2.24 0  204 293 
 ZAR  HN ES       1715  1.61                             122    0.11 9  204 293 
 ZAR  HZ I        1715  7.73        16.0 0.36            123            204 293 
 TABC EZ EP       1714 40.96                             119    1.54 8  228 211 
 NOR  HZ EP       1714 39.67                             119    0.27 8  233 235 
 NOR  HN ES       1715  6.81                             119   -0.28 8  233 235 
 NOR  HZ I        1715 16.56         7.6 0.38            119            233 235 
                                                                                
