 2013 1027 1025 11.0 L   6.795 -73.169138.0  RSN 14 0.5 2.0LRSN                1
 GAP=134        1.27       3.8     4.7  6.6 -0.3701E+01  0.9754E+01  0.2067E+01E
 Epicentro: LOS SANTOS - SANTANDER                                             3
 ACTION:UPD 13-11-25 09:23 OP:ep   STATUS:               ID:20131027102511 L   I
 OLDACT:REG 13-10-27 17:25 OP:nd   STATUS:               ID:20131027101846     3
 2013-10-27-1018-46M.COL___215                                                 6
 STAT SP IPHASW D HRMM SECON CODA AMPLIT PERI AZIMU VELO AIN AR TRES W  DIS CAZ7
 BAR2 SZ IP     D 1025 29.72                             170    0.0010 22.5 184 
 BAR2 SZ ES       1025 44.07                             170   -0.2110 22.5 184 
 BAR2 SZ I        1025 45.81        40.0 0.34            170           22.5 184 
 BRR  HZ IP     C 1025 31.63                             152    0.3910 69.2 300 
 BRR  HN ES       1025 48.26                             152    1.2710 69.2 300 
 BRR  HZ I        1025 49.83        23.5 0.14            151           69.2 300 
 PAM  SZ EP       1025 32.57                             149    0.0110 79.5  41 
 PAM  SN ES       1025 49.40                             149    0.0510 79.5  41 
 PAM  SZ I        1025 51.74        16.7 0.56            151           79.5  41 
 RUS  HZ EP       1025 33.56                             142   -0.4510  100 175 
 RUS  HN ES       1025 52.13                             142    0.2110  100 175 
 RUS  HZ I        1025 53.83        12.8 0.40            143            100 175 
 PTB  HZ EP       1025 36.52                             131   -0.62 9  145 259 
 PTB  HN ES       1025 56.74                             131   -0.76 9  145 259 
 PTB  HZ I        1026  0.81        14.1 0.18            130            145 259 
 SPBC HZ EP       1025 38.58                             128   -0.17 9  161 218 
 SPBC HN ES       1026  0.13                             128   -0.24 9  161 218 
 SPBC HZ I        1026  3.32        14.5 0.20            128            161 218 
 OCA  HZ EP       1025 38.86                             128    0.08 9  161 354 
 OCA  HN ES       1025 59.73                             128   -0.69 9  161 354 
 OCA  HZ I        1026  4.99         5.9 0.14            129            161 354 
 ZAR  HZ EP       1025 42.90                             121    0.14 9  202 293 
 ZAR  HN ES       1026  7.49                             121   -0.02 9  202 293 
 ZAR  HZ I        1026 10.77        11.3 0.30            121            202 293 
 NOR  HZ EP       1025 45.90                             117   -0.17 8  232 234 
 NOR  HN ES       1026 13.09                             117   -0.30 8  232 234 
 NOR  HZ I        1026 14.98         9.9 0.14            117            232 234 
 SML  HZ EP   4   1025 46.13                             116   -1.05 0  243 336 
 SML  HN ES   4   1026 13.53                             116   -1.84 0  243 336 
 SML  HZ I        1026 20.47         7.8 0.26            117            243 336 
 CHI  HZ EP   4   1025 47.71                             116   -0.47 0  247 195 
 CHI  HN ES   4   1026 17.02                             116   -0.14 0  247 195 
 CHI  HZ I        1026 25.28         3.6 0.56            116            247 195 
 HEL  HZ EP       1025 51.54                             113    0.97 8  269 256 
 HEL  HN ES       1026 21.22                             113   -0.19 8  269 256 
 HEL  HZ I        1026 30.09         5.7 0.22            114            269 256 
 GUY2CHZ EP       1025 54.31                             111    0.29 7  299 235 
 GUY2CHN ES   4   1026 28.98                             111    1.43 0  299 235 
 GUY2CHZ I        1026 37.74         6.1 0.72                           299 235 
 PRA  HZ EP       1026  3.72                             105   -0.37 6  390 209 
 PRA  HN ES       1026 47.03                             105    1.55 6  390 209 
 PRA  HZ I        1026 53.06         4.6 0.36            106            390 209 
                                                                                
