 2011  127 1413 35.4 L   6.785 -73.112148.2  RSN  8 0.5 2.5LRSN                1
 GAP=139        1.25       4.9    12.0  8.4 -0.4003E+01 -0.2981E+00  0.5230E+00E
 Epicentro: LOS SANTOS - SANTANDER                                             3
 ACTION:UP  11-02-08 08:43 OP:pat  STATUS:               ID:20110127141335 L   I
 2011-01-27-1412-33S.COL___138                                                 6
 STAT SP IPHASW D HRMM SECON CODA AMPLIT PERI AZIMU VELO SNR AR TRES W  DIS CAZ7
 BTL  SZ IP       1413 56.52                             171     1.310   23 311 
 BAR2 SZ IP       1413 55.14                             171    -0.110   23 200 
 BAR2 SZ I        1413 55.53       110.4 0.08                            23 200 
 BAR2 SZ ES   1   1414 10.36                             171    -0.4 7   23 200 
 BTL  SZ ES   1   1414 11.49                             171     0.7 7   23 311 
 GIR2 SZ IP       1413 55.39                             167     0.010   34 345 
 GIR2 SZ ES   1   1414 10.82                             167    -0.2 7   34 345 
 RUS  HZ IP     D 1413 59.03                             145    -0.210   99 178 
 RUS  HZ I        1413 59.87        23.0 0.21                            99 178 
 RUS  HN ES   1   1414 17.66                             145    -0.2 7   99 178 
 GRA  SZ IP       1414  0.94                             138     0.110  126  16 
 GRA  SZ ES   1   1414 20.59                             138    -0.2 7  126  16 
 GRA  SZ I        1414 21.80        64.1 0.41                           126  16 
 OCA  SZ EP       1414  3.56                             130    -0.5 9  162 352 
 OCA  SZ ES   1   1414 25.88                             130    -0.6 7  162 352 
 OCA  SZ I        1414 30.30        60.3 0.23                           162 352 
 YOP  SZ EP   1   1414  5.49                             127     0.2 7  176 154 
 YOP  SN ES   2   1414 27.88                             127    -0.7 4  176 154 
 YOP  SZ I        1414 33.91        20.3 0.76                           176 154 
 NOR  SZ EP   1   1414 11.28                             119    -0.2 6  237 235 
 NOR  SN ES   2   1414 39.22                             119    -0.4 4  237 235 
                                                                                
