 2011  227 1407 32.9 L   6.814 -73.116136.9  RSN  4 0.1 1.5LRSN                1
 GAP=179        0.31       3.2    14.2  3.5 -0.3841E+02 -0.6120E+01  0.1040E+01E
 Epicentro: LOS SANTOS - SANTANDER                                             3
 ACTION:UP  11-03-28 15:11 OP:jfem STATUS:               ID:20110227140732 L   I
 2011-02-27-1405-43S.COL___135                                                 6
 STAT SP IPHASW D HRMM SECON CODA AMPLIT PERI AZIMU VELO SNR AR TRES W  DIS CAZ7
 BAR2 SZ EP       14 7 51.39                             169    -0.110   26 197 
 BAR2 SZ ES   1   14 8  6.04                             169     0.0 7   26 197 
 BAR2 SZ I        14 8  7.47        15.4 0.28                            26 197 
 RUS  HZ EP       14 7 55.82                             141     0.010  102 178 
 RUS  HN ES   2   14 8 13.84                             141     0.1 5  102 178 
 RUS  HZ I        14 8 15.98         4.2 0.29                           102 178 
 GRA  SZ EP       14 7 57.14                             135     0.010  123  16 
 GRA  SZ ES   1   14 8 16.02                             135     0.0 7  123  16 
 GRA  SZ I        14 8 21.16         5.2 0.35                           123  16 
 CHI  HZ EP   2   14 8 10.64                             115     0.3 4  251 196 
 CHI  HN ES   3   14 8 39.34                             115    -0.2 2  251 196 
 CHI  HZ I        14 8 42.50         1.8 0.23                           251 196 
                                                                                
