 2013  727 1331 47.5 L   6.635 -73.138134.0  RSN  5 0.4 1.8LRSN                1
 GAP=194        0.89      11.4     5.3 10.8 -0.2199E+02  0.2031E+01  0.5911E+02E
 Epicentro: SAN GIL - SANTANDER                                                3
 ACTION:UPD 13-08-12 10:40 OP:ep   STATUS:               ID:20130727133147 L   I
 OLDACT:REG 13-07-27 14:53 OP:mh   STATUS:               ID:20130727132959     3
 2013-07-27-1329-59M.COL___267                                                 6
 STAT SP IPHASW D HRMM SECON CODA AMPLIT PERI AZIMU VELO AIN AR TRES W  DIS CAZ7
 BAR2 SZ EP   1   1332  6.19                             177    0.70 7 6.77 226 
 BRR  HZ EP   1   1332  8.08                             147   -0.02 7 82.1 310 
 BRR  HN ES       1332 24.58                             147    0.4210 82.1 310 
 BRR  HN I        1332 25.64        11.6 0.24            144           82.1 310 
 PAM  SZ EP   1   1332  9.16                             144   -0.31 7 91.8  32 
 PAM  SN ES       1332 26.32                             144   -0.2710 91.8  32 
 PAM  SN I        1332 27.43         7.5 0.44            147           91.8  32 
 PTB  HZ EP   1   1332 13.31                             130   -0.08 7  146 266 
 PTB  HN ES   1   1332 32.71                             130   -0.87 7  146 266 
 PTB  HN I        1332 39.63         5.9 0.52            128            146 266 
 ZAR  HZ EP   1   1332 20.40                             119    0.30 6  212 297 
 ZAR  HE ES   1   1332 45.50                             119   -0.02 6  212 297 
 ZAR  HE I        1332 50.88         8.8 0.48            119            212 297 
                                                                                
