 2015  327 1003 29.5 L   6.804 -73.151136.9  RSN  9 0.6 1.7LRSN                1
 GAP= 71        1.58       5.3     5.7  8.9  0.1188E+01  0.6246E+01 -0.5721E+01E
 Epicentro: LOS SANTOS - SANTANDER                                             3
 ACTION:UPD 15-04-30 16:29 OP:nd   STATUS:               ID:20150327100329 L   I
 OLDACT:REG 15-03-27 20:21 OP:stll STATUS:               ID:20150327095748     3
 2015-03-27-0957-48M.COL___278                                                 6
 STAT SP IPHASW D HRMM SECON CODA AMPLIT PERI AZIMU VELO AIN AR TRES W  DIS CAZ7
 BAR2 EZ EP       10 3 48.27                             170    0.2510 23.6 188 
 BAR2 EZ ES       10 4  2.98                             170    0.4810 23.6 188 
 BAR2 EZ I        10 4  4.38        16.1 0.22            171           23.6 188 
 BRR  HZ EP       10 3 50.08                             151    0.4810 70.4 298 
 BRR  HN ES       10 4  6.66                             151    1.3410 70.4 298 
 BRR  HZ I        10 4 10.53         9.9 0.50            149           70.4 298 
 PAM  SZ EP       10 3 51.13                             149    0.3910 77.5  40 
 PAM  SZ I        10 3 51.46         5.2 0.22            151           77.5  40 
 PAM  SE ES       10 4  6.09                             149   -1.2510 77.5  40 
 RUS  HZ EP       10 3 52.45                             142    0.0810  101 176 
 RUS  HN ES       10 4 10.01                             142   -0.2410  101 176 
 RUS  HZ I        10 4 11.67         5.7 0.22            146            101 176 
 PTB  HZ EP       10 3 55.48                             130   -0.18 9  147 259 
 PTB  HE ES       10 4 14.94                             130   -1.16 9  147 259 
 PTB  HZ I        10 4 19.26         6.1 0.22            131            147 259 
 TAM  HZ EP       10 3 56.54                             128    0.03 9  156 105 
 SPBC HZ EP       10 3 57.26                             127   -0.01 9  163 219 
 SPBC HE ES       10 4 18.71                             127   -0.27 9  163 219 
 SPBC HZ I        10 4 22.78         7.3 0.10            129            163 219 
 ZAR  HZ EP       10 4  1.84                             120    0.58 9  203 292 
 ZAR  HN ES       10 4 25.81                             120   -0.25 9  203 292 
 ZAR  HZ I        10 4 29.24         4.7 0.28            121            203 292 
 SML  HZ EP       10 4  5.38                             116   -0.15 8  243 335 
 SML  HN ES       10 4 33.17                             116   -0.49 8  243 335 
 SML  HZ I        10 4 43.16         4.2 0.24            117            243 335 
                                                                                
