 2012  327 1725 11.6 L   6.781 -73.144141.9  RSN  7 0.4 2.0LRSN                1
 GAP=138        0.61       4.9     5.1  7.3  0.3317E+01  0.9400E+01  0.6606E+01E
 ACTION:UP  12-03-31 23:23 OP:EP   STATUS:               ID:20120327172511 L   I
 2012-03-27-1719-41M.COL___178                                                 6
 STAT SP IPHASW D HRMM SECON CODA AMPLIT PERI AZIMU VELO SNR AR TRES W  DIS CAZ7
 BAR2 SZ EP   1   1725 30.70                             171    -0.1 7   21 192 
 BAR2 SZ ES   2   1725 45.22                             171    -0.5 5   21 192 
 BAR2 SZ I        1725 46.92        45.8 0.32                            21 192 
 BRR  HZ EP   1   1725 32.68                             151     0.2 7   72 300 
 BRR  HN ES   2   1725 49.41                             151     0.7 5   72 300 
 BRR  HZ I        1725 50.44        31.9 0.18                            72 300 
 PAM  SZ EP   2   1725 33.21                             150    -0.3 5   79  38 
 PAM  SN ES   2   1725 50.65                             150     0.0 5   79  38 
 RUS  HZ EP   1   1725 34.93                             144     0.1 7   98 176 
 RUS  HZ I        1725 36.03         9.4 0.15                            98 176 
 RUS  HN ES   2   1725 53.11                             144     0.1 5   98 176 
 PTB  HZ EP   2   1725 37.68                             131    -0.6 5  148 260 
 PTB  HN ES   2   1725 58.48                             131    -0.6 5  148 260 
 PTB  HZ I        1726  5.57         8.1 0.28                           148 260 
 ZAR  HZ EP   2   1725 43.76                             121    -0.2 4  205 293 
 ZAR  HN ES   2   1726  9.23                             121     0.1 4  205 293 
 ZAR  HZ I        1726 16.64        11.3 0.34                           205 293 
 PRA  HZ EP   2   1726  5.52                             106     0.7 3  390 210 
 PRA  HN ES   2   1726 46.74                             106     0.4 3  390 210 
                                                                                
