 2012  227 1503 51.5 L   6.761 -73.125146.4  RSN  9 0.3 2.3LRSN                1
 GAP=141        0.78       3.4     3.8  5.1  0.5391E-01  0.5062E+01  0.2216E+01E
 ACTION:UP  12-03-07 16:34 OP:epov STATUS:               ID:20120227150351 L   I
 2012-02-27-1500-00M.COL___193                                                 6
 STAT SP IPHASW D HRMM SECON CODA AMPLIT PERI AZIMU VELO AIN AR TRES W  DIS CAZ7
 BAR2 SZ EP       15 4 11.33                             172    0.1710 19.7 199 
 BAR2 SZ ES       15 4 26.30                             172   -0.1710 19.7 199 
 BAR2 SZ I        15 4 28.14        76.4 0.25                          19.7 199 
 GIR2 SZ EP       15 4 11.56                             165    0.1610 35.9 348 
 BRR  HZ IP     C 15 4 13.23                             151    0.2610 75.3 301 
 BRR  HZ I        15 4 13.49        95.6 0.14                          75.3 301 
 BRR  HE ES       15 4 30.31                             151    0.6110 75.3 301 
 PAM  SZ EP   1   15 4 14.07                             150    0.15 7 79.3  36 
 PAM  SN ES   1   15 4 30.84                             150   -0.55 7 79.3  36 
 RUS  HZ EP       15 4 15.08                             145    0.0610 96.2 177 
 RUS  HN ES       15 4 33.22                             145   -0.1310 96.2 177 
 RUS  HZ I        15 4 35.22        13.7 0.35                          96.2 177 
 PTB  HZ EP       15 4 18.19                             132   -0.49 9  149 261 
 PTB  HE ES   1   15 4 39.33                             132   -0.53 7  149 261 
 ZAR  HZ EP   1   15 4 23.89                             122   -0.51 6  208 293 
 ZAR  HN ES   1   15 4 49.65                             122   -0.39 6  208 293 
 ZAR  HZ I        15 4 57.03        19.3 0.37                           208 293 
 NOR  SZ EP   1   15 4 27.32                             119    0.09 6  234 236 
 NOR  SE ES       15 4 55.41                             119    0.33 8  234 236 
 CHI  HZ EP   1   15 4 29.23                             118    0.36 6  245 196 
 CHI  HZ I        15 4 32.05         5.8 0.47                           245 196 
 CHI  HN ES   1   15 4 57.78                             118   -0.23 6  245 196 
                                                                                
