 2013  227 1721 55.7 L   6.771 -73.140147.2  RSN  7 0.3 1.9LRSN                1
 GAP=139        0.76       3.4     3.9  5.3  0.2520E+00  0.4364E+01  0.2733E+01E
 Epicentro: LOS SANTOS - SANTANDER                                             3
 ACTION:UPD 13-03-12 09:36 OP:ep   STATUS:               ID:20130227172155 L   I
 2013-02-27-1720-00M.COL___226                                                 6
 STAT SP IPHASW D HRMM SECON CODA AMPLIT PERI AZIMU VELO AIN AR TRES W  DIS CAZ7
 BAR2 SZ EP       1722 15.42                             172   -0.0710 20.3 193 
 BAR2 SZ ES       1722 30.49                             172   -0.4010 20.3 193 
 BAR2 SZ I        1722 31.73        29.8 0.33            168           20.3 193 
 BRR  HZ EP       1722 17.36                             152    0.1910 73.4 300 
 BRR  HE ES       1722 34.53                             152    0.6510 73.4 300 
 BRR  HE I        1722 35.16        64.1 0.19            149           73.4 300 
 PAM  SZ EP       1722 18.39                             150    0.1610 79.5  38 
 PAM  SZ I        1722 18.64        18.3 0.24            153           79.5  38 
 PAM  SN ES       1722 35.51                             150   -0.2710 79.5  38 
 RUS  HZ EP   1   1722 19.42                             145    0.02 7 97.3 176 
 RUS  HE ES       1722 38.06                             145    0.2010 97.3 176 
 RUS  HZ I        1722 39.53         8.4 0.53            142           97.3 176 
 PTB  HZ EP       1722 22.53                             132   -0.30 9  148 260 
 PTB  HE ES   1   1722 43.48                             132   -0.48 7  148 260 
 PTB  HZ I        1722 44.62         7.8 0.21            129            148 260 
 ZAR  HE ES   1   1722 53.79                             122   -0.21 6  206 293 
 ZAR  HZ I        1723  0.77         5.4 0.28            121            206 293 
 CHI  HZ EP   1   1722 33.27                             118    0.07 6  246 196 
 CHI  HE ES   1   1723  2.64                             118    0.22 6  246 196 
 CHI  HZ I        1723 10.91         2.5 0.29            116            246 196 
                                                                                
