 2012  127 1344  5.8 L   6.358 -73.693 97.4  RSN  8 0.4 2.1LRSN                1
 GAP= 62        1.06       3.8     4.0  9.4  0.1827E+01  0.1241E+02  0.7188E+01E
 Epicentro: SANTA HELENA DEL OPON - SANTANDER                                  3
 ACTION:UP  12-02-03 08:21 OP:REBC STATUS:               ID:20120127134405 L   I
 2012-01-27-1340-00M.COL___188                                                 6
 STAT SP IPHASW D HRMM SECON CODA AMPLIT PERI AZIMU VELO SNR AR TRES W  DIS CAZ7
 BAR2 SZ IP       1344 21.73                             145     0.110   62  65 
 BAR2 SZ ES   1   1344 34.49                             145     0.5 7   62  65 
 BAR2 SZ I        1344 35.63       125.4 0.14                            62  65 
 BRR  HZ IP     C 1344 22.72                             137    -0.210   83 359 
 BRR  HZ I        1344 31.31        41.3 0.12                            83 359 
 BRR  HN ES   1   1344 36.97                             137     0.7 7   83 359 
 RUS  HZ EP       1344 23.57                             136    -0.210   85 127 
 RUS  HZ I        1344 23.82        21.3 0.20                            85 127 
 RUS  HN ES   1   1344 37.55                             136    -0.3 7   85 127 
 PTB  HZ EP       1344 22.80                             135    -0.510   87 283 
 PTB  HN ES   1   1344 36.36                             135    -0.6 7   87 283 
 PTB  HZ I        1344 39.99        24.8 0.10                            87 283 
 GIR2 SZ EP       1344 24.17                             132    -0.210   97  35 
 NOR  SZ EP       1344 31.09                             118     0.7 9  157 236 
 NOR  SN ES   1   1344 49.64                             118     0.1 7  157 236 
 ZAR  HZ EP       1344 32.71                             114    -0.2 9  180 314 
 ZAR  HN ES   1   1344 54.56                             114     0.6 7  180 314 
 ZAR  HZ I        1344 56.16        17.2 0.58                           180 314 
 CHI  HZ EP   1   1344 34.97                             113     0.3 7  191 181 
 CHI  HN ES   1   1344 57.35                             113     0.2 7  191 181 
 CHI  HZ I        1345  1.38        12.3 0.30                           191 181 
                                                                                
