 2013  127 1514 17.4 L   6.784 -73.072139.9  RSN  4 0.2 1.3LRSN                1
 GAP=147        0.41       2.9     4.7  5.1 -0.1941E+01 -0.6187E+01  0.2316E+01E
 Epicentro: LOS SANTOS - SANTANDER                                             3
 ACTION:UPD 13-02-15 09:17 OP:ep   STATUS:               ID:20130127151417 L   I
 2013-01-27-1510-00M.COL___241                                                 6
 STAT SP IPHASW D HRMM SECON CODA AMPLIT PERI AZIMU VELO AIN AR TRES W  DIS CAZ7
 BAR2 SZ EP   1   1514 36.22                             170   -0.09 7 24.5 210 
 BAR2 SZ ES   1   1514 51.12                             170    0.03 7 24.5 210 
 BAR2 SZ I        1514 52.78        13.6 0.26            169           24.5 210 
 PAM  SZ EP   1   1514 39.04                             151    0.29 7 73.9  34 
 PAM  SN ES   1   1514 55.27                             151   -0.16 7 73.9  34 
 PAM  SZ I        1514 58.96         2.0 0.60            151           73.9  34 
 BRR  HN ES   1   1514 54.76                             149    0.01 7 79.2 297 
 RUS  HZ EP   1   1514 40.18                             143   -0.21 7 98.6 181 
 RUS  HN ES   1   1514 58.49                             143    0.13 7 98.6 181 
 RUS  HZ I        1515  2.19         1.7 0.44            144           98.6 181 
                                                                                
