 2012 1027 1415 32.9 L   6.775 -73.040147.7  RSN  4 0.1 1.7LRSN                1
 GAP=247        0.32       4.0     6.9  4.0  0.2145E+02 -0.1019E+02 -0.2667E+01E
 Epicentro: CEPITA - SANTANDER                                                 3
 ACTION:UPD 12-11-22 17:06 OP:ep   STATUS:               ID:20121027141532 L   I
 2012-10-27-1410-00M.COL___228                                                 6
 STAT SP IPHASW D HRMM SECON CODA AMPLIT PERI AZIMU VELO AIN AR TRES W  DIS CAZ7
 BAR2 SZ EP       1415 52.92                             170    0.0810 25.7 218 
 BAR2 SZ I        1416 10.91        12.6 0.30                          25.7 218 
 BRR  HZ EP       1415 54.96                             149   -0.0210 82.9 296 
 BRR  HZ I        1415 57.09        21.1 0.35                          82.9 296 
 BRR  HN ES       1416 12.16                             149   -0.0110 82.9 296 
 RUS  HZ EP   1   1415 56.55                             145   -0.12 7 97.7 183 
 RUS  HN ES   1   1416 15.19                             145    0.01 7 97.7 183 
 RUS  HZ I        1416 17.77         2.6 0.27                          97.7 183 
 PRA  HZ EP   1   1416 26.99                             107    0.05 4  396 211 
                                                                                
