 2012  327 1201 24.2 L   6.769 -73.197148.0  RSN  4 0.4 1.3LRSN                1
 GAP=229        0.58       9.1     8.2  9.1  0.3377E+02  0.1674E+01 -0.1445E+01E
 ACTION:UP  12-03-31 23:23 OP:EP   STATUS:               ID:20120327120124 L   I
 2012-03-27-1159-36M.COL___175                                                 6
 STAT SP IPHASW D HRMM SECON CODA AMPLIT PERI AZIMU VELO SNR AR TRES W  DIS CAZ7
 BAR2 SZ EP   1   12 1 43.87                             172    -0.2 7   20 175 
 BAR2 SZ ES   2   12 1 59.00                             172    -0.5 5   20 175 
 BAR2 SZ I        12 2  0.81         4.5 0.30                            20 175 
 BRR  HZ EP   2   12 1 45.52                             154     0.1 5   68 303 
 BRR  HN ES   2   12 2  2.53                             154     0.5 5   68 303 
 RUS  HZ EP   2   12 1 48.49                             145     0.5 5   98 173 
 RUS  HN ES   2   12 2  6.74                             145     0.2 5   98 173 
 PTB  HZ EP   2   12 1 50.45                             134    -0.4 5  142 260 
 PTB  HN ES   2   12 2 11.47                             134    -0.1 5  142 260 
 PTB  HZ I        12 2 15.39         2.3 0.22                           142 260 
                                                                                
