 2011  627 1502 18.5 L   6.263 -73.630111.2  RSN  9 0.3 1.9LRSN                1
 GAP= 87        0.60       2.7     3.1  6.8 -0.7057E+00  0.4641E+01  0.3794E+01E
 Epicentro: SANTA HELENA DEL OPON - SANTANDER                                  3
 ACTION:UP  11-07-14 19:08 OP:ep   STATUS:               ID:20110627150218 L   I
 2011-06-27-1458-57S.COL___140                                                 6
 STAT SP IPHASW D HRMM SECON CODA AMPLIT PERI AZIMU VELO SNR AR TRES W  DIS CAZ7
 BAR2 SZ EP       15 2 35.82                             149     0.110   61  54 
 BAR2 SZ ES   2   15 2 48.86                             149    -0.3 5   61  54 
 BAR2 SZ I        15 2 51.05        36.0 0.36                            61  54 
 RUS  HZ EP   1   15 2 36.56                             144    -0.3 7   73 124 
 RUS  HE ES   2   15 2 51.12                             144    -0.1 5   73 124 
 BTL  SZ EP       15 2 37.34                             140     0.110   83  29 
 BTL  SZ ES   2   15 2 51.32                             140    -0.5 5   83  29 
 BRR  HZ EP   1   15 2 37.68                             136    -0.1 7   94 354 
 BRR  HZ I        15 2 47.20        23.7 0.14                            94 354 
 BRR  HN ES   2   15 2 52.97                             136     0.2 5   94 354 
 NOR  SZ EP   1   15 2 43.68                             121    -0.3 7  158 241 
 NOR  SE ES   2   15 3  3.94                             121     0.1 5  158 241 
 YOP  SZ EP       15 2 44.94                             119    -0.1 9  167 127 
 YOP  SZ I        15 2 45.24        13.2 0.23                           167 127 
 YOP  SE ES   2   15 3  6.51                             119     0.7 5  167 127 
 CHI  HE ES   2   15 3  9.36                             117     0.3 4  181 184 
 CHI  HZ I        15 3 11.57         4.6 0.38                           181 184 
 GRA  SZ EP   2   15 2 48.17                             114    -0.6 4  201  27 
 GRA  SZ ES   1   15 3 13.04                             114     0.6 6  201  27 
 GRA  SZ I        15 3 14.97         9.0 0.32                           201  27 
 HEL  HZ EP   2   15 2 50.30                             113     0.2 4  210 268 
 HEL  HN ES   2   15 3 15.00                             113     0.2 4  210 268 
 HEL  HZ I        15 3 20.34         4.6 0.30                           210 268 
                                                                                
