 2015  827 1639 38.3 L   6.800 -73.141143.1  RSN 15 0.4 2.2LRSN                1
 GAP=137        0.84       2.3     3.5  4.3 -0.1001E+01  0.5598E+01  0.1317E+01E
 Epicentro: LOS SANTOS - SANTANDER                                             3
 ACTION:UPD 15-09-15 23:05 OP:cam  STATUS:               ID:20150827163938 L   I
 OLDACT:UP  15-09-01 11:27 OP:ar   STATUS:               ID:20150827163938 L   3
 OLDACT:REG 15-08-27 21:50 OP:ak   STATUS:               ID:20150827163748     3
 2015-08-27-1637-48M.COL___353                                                 6
 STAT SP IPHASW D HRMM SECON CODA AMPLIT PERI AZIMU VELO AIN AR TRES W  DIS CAZ7
 BAR2 EZ EP       1639 57.71                             170    0.1210 23.5 191 
 BAR2 EZ ES       1640 12.48                             170   -0.1710 23.5 191 
 BAR2 EZ I        1640 15.15        35.6 0.24            167           23.5 191 
 BRR  HZ EP       1639 59.33                             152    0.1610 71.6 298 
 BRR  HN ES       1640 15.86                             152    0.4110 71.6 298 
 PAM  EZ EP       1640  0.58                             150    0.3910 77.0  39 
 PAM  EZ IP       1640  0.58                             150           77.0  39 
 PAM  EN ES       1640 17.41                             150    0.1310 77.0  39 
 PAM  EZ I        1640 19.70        20.5 0.58            156           77.0  39 
 RUS  HZ EP       1640  1.67                             143   -0.1010  101 176 
 RUS  HN ES       1640 19.68                             143   -0.4110  101 176 
 RUS  HZ I        1640 21.43        14.6 0.34            144            101 176 
 SPBC HZ EP       1640  6.78                             128    0.17 9  164 219 
 SPBC HN ES       1640 28.86                             128    0.16 9  164 219 
 SPBC HZ I        1640 33.78        22.4 0.13            128            164 219 
 ZAR  HZ EP       1640 10.46                             122   -0.14 9  204 292 
 ZAR  HN ES       1640 35.85                             122    0.04 9  204 292 
 NOR  HZ EP       1640 13.94                             118    0.04 8  235 235 
 NOR  HN ES       1640 41.19                             118   -0.50 8  235 235 
 NOR  HZ I        1640 46.75        12.5 0.24            118            235 235 
 SML  HZ EP       1640 13.99                             117   -0.79 8  244 335 
 SML  HN ES       1640 42.70                             117   -0.54 8  244 335 
 SML  HZ I        1640 46.52        16.0 0.10            118            244 335 
 CHI  HZ EP       1640 15.78                             116   -0.07 8  249 195 
 CHI  HN ES       1640 45.02                             116   -0.14 8  249 195 
 CHI  HZ I        1640 52.15         6.0 0.52            118            249 195 
 HEL  HZ EP   4   1640 19.91                             114    1.49 0  273 256 
 HEL  HN ES   4   1640 51.25                             114    1.54 0  273 256 
 HEL  HZ I        1640 57.90         8.5 0.36            114            273 256 
 URE  HZ EP   4   1640 17.81                             113   -1.46 0  284 292 
 URE  HN ES   4   1640 48.67                             113   -2.57 0  284 292 
 URE  HZ I        1640 58.35        12.7 0.20            114            284 292 
 GUY2CHZ EP       1640 22.72                             112    0.90 7  302 235 
 GUY2CHN ES       1640 56.02                             112    0.25 7  302 235 
 GUY2CHZ I        1641  4.08        13.5 0.40                           302 235 
 TOL  SZ EP       1640 27.24                             109    0.76 7  344 225 
 TOL  SN ES       1641  3.80                             109   -0.26 7  344 225 
 TOL  SZ I        1641 11.18         7.1 0.36            109            344 225 
 PRA  HZ EP       1640 31.28                             106   -0.47 6  392 210 
 PRA  HN ES       1641 13.20                             106   -0.24 6  392 210 
 PRA  HZ I        1641 20.27         7.9 0.08            107            392 210 
 SJC  HZ EP   4   1640 31.60                             105   -2.19 0  409 327 
 SJC  HN ES   4   1641  9.74                             105   -7.34 0  409 327 
 SJC  HZ I        1641 17.68         3.0 0.36            106            409 327 
                                                                                
