 2012  827 1217 12.0 L   6.587 -74.123  8.4  RSN  5 0.2 1.6LRSN                1
 GAP=138        0.42       1.7     1.1  3.4 -0.2748E+00  0.1713E+00 -0.1309E+00E
 Epicentro: PUERTO PARRA - SANTANDER                                           3
 ACTION:UPD 12-09-10 11:58 OP:ep   STATUS:               ID:20120827121712 L   I
 2012-08-27-1210-00M.COL___218                                                 6
 STAT SP IPHASW D HRMM SECON CODA AMPLIT PERI AZIMU VELO AIN AR TRES W  DIS CAZ7
 PTB  HZ EP       1217 18.03                              47   -0.2310 37.2 262 
 PTB  HN ES   1   1217 23.31                              47    0.15 7 37.2 262 
 PTB  HZ I        1217 23.77        34.1 0.26                          37.2 262 
 BRR  HZ EP       1217 23.78                              47    0.1010 73.3  38 
 BRR  HE ES   1   1217 32.80                              47   -0.02 7 73.3  38 
 BAR2 SZ EP       1217 28.54                              47   -0.0410  104  90 
 BAR2 SZ ES   3   1217 41.08                              47   -0.46 2  104  90 
 BAR2 SZ I        1217 43.95        18.2 0.26                           104  90 
 GIR2 SZ EP   2   1217 30.18                              47   -0.15 5  116  62 
 RUS  HZ EP       1217 34.28                              47    0.24 9  138 124 
 RUS  HZ I        1217 34.48         9.2 0.18                           138 124 
 RUS  HN ES   1   1217 51.15                              47   -0.11 7  138 124 
                                                                                
