 2013  827 1556 27.1 L   7.059 -73.530 99.6  RSN  9 0.4 2.0LRSN                1
 GAP= 72        1.08       2.9     5.0  9.3 -0.1328E+01  0.2215E+02 -0.6200E+01E
 Epicentro: SAN VICENTE DE CHUCURI - SANTANDER                                 3
 ACTION:UPD 14-01-14 09:07 OP:ep   STATUS:               ID:20130827155627 L   I
 OLDACT:DUP 13-08-27 23:06 OP:stll STATUS:               ID:20130827154960d    3
 2013-08-27-1549-59M.COL___270                                                 6
 STAT SP IPHASW D HRMM SECON CODA AMPLIT PERI AZIMU VELO AIN AR TRES W  DIS CAZ7
 BRR  HZ IP     D 1556 41.31                             167    0.5110 20.8 285 
 BRR  HZ I        1556 41.51        18.7 0.10            154           20.8 285 
 BAR2 SZ EP       1556 43.92                             145    0.5710 64.3 143 
 BAR2 SZ ES       1556 56.19                             145    0.1810 64.3 143 
 BAR2 SZ I        1556 57.46        11.3 0.28            153           64.3 143 
 PAM  SZ EP       1556 46.32                             133   -0.0210 96.9  71 
 PAM  SN ES       1557  1.04                             133   -0.3010 96.9  71 
 PAM  SZ I        1557  3.18         8.2 0.20            142           96.9  71 
 PTB  HZ EP   9   1556 46.98                             127   -0.67 0  117 241 
 PTB  HN ES       1557  2.90                                   -0.1010  117 241 
 OCA  HN ES       1557  6.68                             123   -0.0510  133  10 
 OCA  HN I        1557  8.81        53.7 0.36            123            133  10 
 RUS  HN ES       1557  8.31                             122   -0.22 9  138 159 
 ZAR  HZ EP       1556 51.95                             119    0.47 9  154 288 
 ZAR  HN I        1557 15.70        41.3 0.12            115            154 288 
 SPBC HZ EP       1556 52.49                             117   -0.45 9  167 201 
 SPBC HN ES       1557 12.59                             117   -0.49 9  167 201 
 SML  HZ EP       1556 57.23                             112    0.47 9  202 343 
 SML  HN ES       1557 18.98                             112   -0.91 9  202 343 
 SML  HZ I        1557 24.60        20.8 0.10            110            202 343 
                                                                                
