 2016 1127 1133  0.3 L   6.778 -73.138145.2  RSN 12 0.5 2.1LRSN                1
 GAP= 98        1.05       3.9     3.6  6.1 -0.3535E-01  0.1023E+01  0.1147E+02E
 Epicentro: LOS SANTOS - SANTANDER                                             3
 ACTION:UPD 17-10-26 21:12 OP:lp   STATUS:               ID:20161127113300 L   I
 OLDACT:REG 16-11-27 19:25 OP:ar   STATUS:               ID:20161127112745     3
 2016-11-27-1128-00M.COL___343                                                 6
 STAT SP IPHASW D HRMM SECON CODA AMPLIT PERI AZIMU VELO AIN AR TRES W  DIS CAZ7
 BAR2 EZ EP       1133 19.90                             171    0.0510 21.1 194 
 BAR2 EZ ES       1133 34.69                             171   -0.3810 21.1 194 
 BAR2 EZ I        1133 37.55        35.6 0.32            164           21.1 194 
 BRR  HZ EP       1133 21.65                             152    0.1210 73.2 300 
 BRR  HN ES       1133 38.60                             152    0.5310 73.2 300 
 PAM  EZ EP       1133 22.81                             150    0.2410 78.7  38 
 PAM  EN ES       1133 39.91                             150   -0.0010 78.7  38 
 PAM  EZ I        1133 42.07        18.7 0.48            159           78.7  38 
 PTB  HZ EP       1133 26.68                             132   -0.61 9  148 260 
 PTB  HN ES       1133 47.71                             132   -0.61 9  148 260 
 PTB  HZ I        1133 52.63        11.1 0.12            132            148 260 
 TAM  HZ EP       1133 28.30                             131    0.47 9  154 104 
 ZAR  HZ EP       1133 32.41                             122   -0.51 8  206 293 
 ZAR  HN ES       1133 58.15                             122   -0.19 8  206 293 
 ZAR  HZ I        1134  6.20         6.5 0.16            124            206 293 
 NOR  HZ EP       1133 36.77                             118    0.82 8  234 235 
 NOR  HN ES       1134  3.96                             118    0.22 8  234 235 
 NOR  HZ I        1134 11.64         8.3 0.18            119            234 235 
 CHI  HZ EP       1133 38.15                             117    0.38 8  246 196 
 CHI  HN ES       1134  7.57                             117    0.61 8  246 196 
 CHI  HZ I        1134 17.33         4.6 0.34            117            246 196 
 ROSC BZ EP   4   1133 40.93                             117    2.69 0  251 211 
 ROSC BN ES   4   1134 13.49                             117    5.68 0  251 211 
 ROSC BZ I        1134 17.33         8.7 0.35            117            251 211 
 PTGC HZ EP       1133 43.02                             112   -0.84 7  306 159 
 PTGC HN ES       1134 17.10                             112   -0.72 7  306 159 
 PTGC HZ I        1134 28.14        11.9 0.40            113            306 159 
 PRA  HZ EP       1133 53.74                             106    0.11 6  390 210 
 PRA  HN ES       1134 35.29                             106    0.08 6  390 210 
 PRA  HZ I        1134 41.96         5.4 0.44            107            390 210 
 ORTC HZ EP   2   1133 53.61                             106   -0.45 3  394 216 
 ORTC HN ES   2   1134 36.81                             106    0.84 3  394 216 
 ORTC HZ I        1134 43.76         3.2 0.36            107            394 216 
                                                                                
