 2014  227 1015 31.8 L   7.070 -73.120  0.0  RSN  4 0.3 0.7LRSN                1
 GAP=207        0.71       3.2     4.3  7.9  0.6178E+01  0.8893E+01 -0.5780E+01E
 Epicentro: FLORIDABLANCA - SANTANDER                                          3
 ACTION:UPD 14-03-10 08:14 OP:ep   STATUS:               ID:20140227101531 L   I
 OLDACT:REG 14-02-27 15:11 OP:cam  STATUS:               ID:20140227100819     3
 2014-02-27-1008-19M.COL___231                                                 6
 STAT SP IPHASW D HRMM SECON CODA AMPLIT PERI AZIMU VELO AIN AR TRES W  DIS CAZ7
 RUS  HZ EP   1   1015 52.96                              47   -0.21 7  130 178 
 RUS  HN ES       1016 10.04                              47    0.1710  130 178 
 RUS  HZ I        1016 13.22         1.0 0.46            135            130 178 
 PTB  HZ EP   2   1015 56.57                              47   -0.44 5  159 248 
 PTB  HN ES       1016 16.43                              47   -0.2810  159 248 
 PTB  HZ I        1016 19.34         1.5 0.38            125            159 248 
 ZAR  HN ES       1016 26.79                              37    0.54 9  197 284 
 SML  HN ES   1   1016 30.54                              37   -0.31 7  218 331 
                                                                                
