 2013  327 1624 12.6 L   6.772 -73.112145.7  RSN  7 0.3 2.0LRSN                1
 GAP=142        0.66       3.4     3.4  5.1  0.5853E+00  0.3332E+01  0.1795E+01E
 Epicentro: LOS SANTOS - SANTANDER                                             3
 ACTION:UPD 13-04-09 14:05 OP:ep   STATUS:               ID:20130327162412 L   I
 2013-03-27-1620-00M.COL___245                                                 6
 STAT SP IPHASW D HRMM SECON CODA AMPLIT PERI AZIMU VELO AIN AR TRES W  DIS CAZ7
 BAR2 SZ EP   2   1624 31.97                             171   -0.23 5 21.3 201 
 BAR2 SZ ES   1   1624 47.70                             171    0.23 7 21.3 201 
 BAR2 SZ I        1624 48.96        12.4 0.14            171           21.3 201 
 BRR  HZ EP       1624 34.09                             151    0.0610 75.9 299 
 BRR  HE ES       1624 50.90                             151    0.1710 75.9 299 
 BRR  HE I        1624 54.85        22.1 0.34            152           75.9 299 
 PAM  SZ EP       1624 35.05                             151    0.2210 77.6  36 
 PAM  SN ES       1624 51.85                             151   -0.3110 77.6  36 
 PAM  SN I        1624 52.72        29.9 0.46            153           77.6  36 
 RUS  HZ EP       1624 36.33                             145    0.2110 97.3 178 
 RUS  HN ES       1624 54.39                             145   -0.0710 97.3 178 
 RUS  HN I        1624 55.92        11.4 0.42            147           97.3 178 
 PTB  HZ EP       1624 39.31                             131   -0.54 9  151 260 
 PTB  HN ES   1   1625  0.83                             131   -0.27 7  151 260 
 PTB  HN I        1625  1.79        18.9 0.26            133            151 260 
 ZAR  HE ES   1   1625 11.62                             122    0.42 6  209 293 
 CHI  HZ EP   2   1624 50.58                             117    0.49 4  247 196 
                                                                                
