 2013  827 2133 29.8 L   6.876 -73.103150.1  RSN  5 0.4 1.2LRSN                1
 GAP=249        0.96       7.3     6.1  9.3  0.1903E+02  0.7350E+01 -0.1368E+02E
 Epicentro: LOS SANTOS - SANTANDER                                             3
 ACTION:UPD 14-01-14 09:07 OP:ep   STATUS:               ID:20130827213329 L   I
 OLDACT:DUP 13-08-28 02:30 OP:stll STATUS:               ID:20130827212843d    3
 2013-08-27-2128-42M.COL___212                                                 6
 STAT SP IPHASW D HRMM SECON CODA AMPLIT PERI AZIMU VELO AIN AR TRES W  DIS CAZ7
 BAR2 SZ EP       2133 49.92                             167   -0.2110 32.6 196 
 BAR2 SZ ES       2134  6.12                             167    0.1010 32.6 196 
 BAR2 SZ I        2134  7.36         4.4 0.20            166           32.6 196 
 RUS  HZ EP       2133 54.94                             142    0.4010  109 179 
 RUS  HN ES       2134 13.66                             142   -0.2010  109 179 
 RUS  HZ I        2134 15.39         1.6 0.64            143            109 179 
 PTB  HZ EP       2133 57.22                             132   -0.45 9  154 256 
 PTB  HN ES       2134 18.91                             132   -0.53 9  154 256 
 PTB  HZ I        2134 23.95         2.2 0.16            132            154 256 
 SPBC HN ES       2134 23.13                             128    0.44 9  173 218 
 ZAR  HN ES       2134 28.84                             123    0.55 8  206 289 
                                                                                
