 2016  227 2214 53.4 L   6.804 -73.178142.8  RSN 12 0.4 2.7LRSN                1
 GAP=132        0.82       2.3     2.9  4.7 -0.5358E+00  0.5284E+01 -0.9380E-04E
 Epicentro: LOS SANTOS - SANTANDER                                             3
 ACTION:UPD 16-03-04 21:30 OP:rebc STATUS:               ID:20160227221453 L   I
 OLDACT:REG 16-02-28 03:31 OP:cara STATUS:               ID:20160227220750     3
 2016-02-27-2207-50M.COL___319                                                 6
 STAT SP IPHASW D HRMM SECON CODA AMPLIT PERI AZIMU VELO AIN AR TRES W  DIS CAZ7
 BAR2 EZ IP     C 2215 12.56                             170   -0.1110 23.4 181 
 BAR2 EZ ES       2215 27.99                             170    0.2910 23.4 181 
 BAR2 EZ I        2215 28.93        94.7 0.18            169           23.4 181 
 PAM  EZ EP     D 2215 15.27                             150   -0.1510 79.4  42 
 PAM  EZ I        2215 15.57        77.9 0.24            153           79.4  42 
 PAM  EN ES       2215 32.49                             150   -0.1010 79.4  42 
 RUS  HZ EP     C 2215 16.42                             143   -0.4910  101 174 
 RUS  HN ES       2215 35.14                             143   -0.1110  101 174 
 RUS  HZ I        2215 36.35        36.9 0.30            143            101 174 
 PTB  HZ EP       2215 19.46                             132   -0.35 9  144 258 
 PTB  HN ES       2215 40.47                             132    0.05 9  144 258 
 PTB  HZ I        2215 42.11        25.8 0.22            130            144 258 
 OCA  HZ EP       2215 22.09                             129    0.69 9  159 354 
 OCA  HE ES       2215 43.20                             129   -0.04 9  159 354 
 OCA  HZ  AMP     2215 45.61      1191.0 0.16                           159 354 
 SPBC HZ IP       2215 21.51                             129    0.02 9  161 218 
 SPBC HN ES       2215 43.36                             129   -0.04 9  161 218 
 SPBC HZ I        2215 46.14        60.2 0.66            128            161 218 
 ZAR  HZ EP       2215 25.42                             122    0.13 9  201 292 
 ZAR  HN ES       2215 50.69                             122    0.52 9  201 292 
 ZAR  HZ I        2215 58.94        30.0 0.40            121            201 292 
 CHI  HZ EP     D 2215 30.70                             116   -0.18 8  248 194 
 CHI  HN ES       2216  0.45                             116    0.33 8  248 194 
 CHI  HZ I        2216  7.05        12.0 0.42            117            248 194 
 URE  HN ES       2216  4.81                             113   -0.75 7  280 292 
 URE  HZ I        2216 14.77        16.5 0.16            113            280 292 
 GUY2CHZ EP   9   2215 37.63                             112    1.06 0  299 234 
 GUY2CHN ES       2216 11.07                                   -0.23 7  299 234 
 GUY2CHZ I        2216 18.96        24.5 0.30                           299 234 
 DBB  SZ IP       2215 40.23                             109   -0.11 7  336 274 
 DBB  SZ ES       2216 16.51                             109   -0.45 7  336 274 
 DBB  SZ I        2216 19.21        23.4 0.52            109            336 274 
 ANIL HZ EP       2215 43.51                             108    0.67 6  355 224 
 ANIL HN ES       2216 21.97                             108    0.57 6  355 224 
 ANIL HZ I        2216 27.91        29.6 0.28            108            355 224 
                                                                                
