 2015 1127 2207 42.1 L   6.830 -73.153147.3  RSN 13 0.5 2.1LRSN                1
 GAP=134        0.92       3.2     4.0  5.7 -0.2852E+01  0.7578E+01 -0.1961E+01E
 Epicentro: LOS SANTOS - SANTANDER                                             3
 ACTION:UPD 15-12-28 16:13 OP:cam  STATUS:               ID:20151127220742 L   I
 OLDACT:UP  15-11-28 05:23 OP:dnl  STATUS:               ID:20151127215750     3
 OLDACT:REG 15-11-28 03:14 OP:dnl  STATUS:               ID:20151127215750     3
 2015-11-27-2157-50M.COL___313                                                 6
 STAT SP IPHASW D HRMM SECON CODA AMPLIT PERI AZIMU VELO AIN AR TRES W  DIS CAZ7
 BAR2 EZ EP       22 8  1.96                             169   -0.0610 26.4 187 
 BAR2 EZ ES       22 8 17.48                             169   -0.0410 26.4 187 
 BAR2 EZ I        22 8 18.69        15.1 0.10            167           26.4 187 
 BRR  HE ES   1   22 8 20.77                             154    0.92 7 68.9 296 
 BRR  HZ I        22 8 21.35        21.5 0.15            147           68.9 296 
 PAM  EZ EP       22 8  4.92                             151    0.5210 75.4  42 
 PAM  EN ES       22 8 21.52                             151   -0.2510 75.4  42 
 RUS  HZ EP       22 8  6.10                             143   -0.1810  104 176 
 RUS  HN ES       22 8 25.08                             143   -0.0310  104 176 
 RUS  HZ I        22 8 26.70         9.5 0.19            145            104 176 
 PTB  HZ EP       22 8  8.61                             132   -0.60 9  148 258 
 PTB  HE ES       22 8 29.79                             132   -0.54 9  148 258 
 PTB  HZ I        22 8 32.23        21.9 0.16            129            148 258 
 SPBC HZ EP       22 8 11.26                             129    0.32 9  165 218 
 SPBC HN ES       22 8 33.78                             129    0.37 9  165 218 
 SPBC HZ I        22 8 37.46        15.9 0.20            128            165 218 
 ZAR  HZ EP   2   22 8 14.77                             123    0.30 4  202 291 
 ZAR  HE ES   2   22 8 40.71                             123    1.01 4  202 291 
 ZAR  HZ I        22 8 52.55         7.1 0.13            121            202 291 
 NOR  HZ EP   1   22 8 18.73                             119    0.64 6  236 234 
 NOR  HE ES       22 8 45.46                             119   -0.67 8  236 234 
 NOR  HZ I        22 8 54.11         7.0 0.21            117            236 234 
 SML  HZ EP       22 8 18.45                             118   -0.04 8  240 335 
 SML  HE ES       22 8 46.62                             118   -0.22 8  240 335 
 SML  HZ I        22 8 54.98        20.4 0.04            117            240 335 
 HEL  HE ES   2   22 8 54.19                             115    0.34 4  272 255 
 HEL  HZ I        22 9  0.39         6.9 0.84            114            272 255 
 GUY2CHZ EP   4   22 8 28.00                             112    2.05 0  302 234 
 GUY2CHE ES   4   22 9  4.00                             112    3.87 0  302 234 
 GUY2CHZ I        22 9 10.20         5.9 0.39                           302 234 
 PRA  HZ EP   2   22 8 36.47                             107    0.48 3  394 209 
 PRA  HE ES   2   22 9 18.13                             107    0.13 3  394 209 
 PRA  HZ I        22 9 22.85         5.0 0.52            107            394 209 
 SJC  HZ EP   3   22 8 36.30                             106   -1.07 1  406 327 
 SJC  HE ES   4   22 9 17.55                             106   -2.90 0  406 327 
 SJC  HZ I        22 9 20.58         2.8 0.26            106            406 327 
                                                                                
