 2013  427 2344 37.7 L   6.750 -73.154148.0  RSN  5 0.4 1.8LRSN                1
 GAP=182        1.13       7.6     8.0  8.5  0.2261E+02  0.1728E+02  0.1606E+02E
 Epicentro: LOS SANTOS - SANTANDER                                             3
 ACTION:UPD 13-05-22 14:41 OP:EP   STATUS:               ID:20130427234437 L   I
 2013-04-27-2338-35M.COL___211                                                 6
 STAT SP IPHASW D HRMM SECON CODA AMPLIT PERI AZIMU VELO AIN AR TRES W  DIS CAZ7
 BAR2 SZ EP       2344 57.60                             173    0.1210 17.7 190 
 BAR2 SZ ES       2345 12.82                             173   -0.1110 17.7 190 
 GIR2 SZ ES       2345 12.73                             165   -0.7110 36.6 353 
 BRR  HZ EP       2344 59.51                             152    0.3310 73.2 303 
 BRR  HN ES       2345 16.74                             152    0.7910 73.2 303 
 RUS  HZ EP       2345  1.40                             146    0.1310 95.1 175 
 RUS  HN ES       2345 19.82                             146    0.1510 95.1 175 
 RUS  HN I        2345 21.75         7.0 0.42            143           95.1 175 
 PTB  HZ EP       2345  4.09                             133   -0.57 9  146 261 
 PTB  HN ES       2345 25.48                             133   -0.22 9  146 261 
 PTB  HN I        2345 31.09        10.4 0.50            130            146 261 
                                                                                
