 2010 1227 2029 55.4 L   6.805 -72.922142.6  RSN  5 0.4 1.8LRSN                1
 GAP=184        0.76       5.4    26.2 12.3 -0.4692E+02 -0.1879E+03  0.7356E+01E
 Epicentro: CEPITA - SANTANDER                                                 3
 ACTION:UP  11-01-14 15:27 OP:pat  STATUS:               ID:20101227202955 L   I
 2010-12-27-2020-00M.COL___136                                                 6
 STAT SP IPHASW D HRMM SECON CODA AMPLIT PERI AZIMU VELO SNR AR TRES W  DIS CAZ7
 BAR2 SZ EP   2   2030 14.28                             165    -0.8 5   37 231 
 BAR2 SZ I        2030 15.17        18.7 0.11                            37 231 
 BTL  SZ EP   1   2030 15.27                             164     0.1 7   40 288 
 BTL  SZ ES   2   2030 30.54                             164     0.0 5   40 288 
 GIR2 SZ EP   2   2030 14.87                             163    -0.2 5   43 315 
 GIR2 SZ ES   2   2030 30.68                             163     0.2 5   43 315 
 RUS  HZ EP   1   2030 18.86                             143    -0.2 7  102 190 
 RUS  HN ES   1   2030 37.60                             143     0.2 7  102 190 
 RUS  HZ I        2030 39.27         7.6 0.37                           102 190 
 GRA  SZ EP   1   2030 20.52                             138     0.6 7  120   6 
 GRA  SZ ES   2   2030 38.35                             138    -0.7 5  120   6 
 GRA  SZ I        2030 41.29         8.5 0.64                           120   6 
                                                                                
