 2015  627 2253 33.4 L   6.775 -73.137146.7  RSN  5 0.5 1.8LRSN                1
 GAP=184        1.33       6.9    10.5 10.5  0.3718E+02  0.1725E+02 -0.6138E+01E
 Epicentro: LOS SANTOS - SANTANDER                                             3
 ACTION:UPD 15-09-10 22:15 OP:cam  STATUS:               ID:20150627225333 L   I
 OLDACT:DUP 15-06-28 08:20 OP:stll STATUS:               ID:20150627224750d    3
 2015-06-27-2247-47M.COL___328                                                 6
 STAT SP IPHASW D HRMM SECON CODA AMPLIT PERI AZIMU VELO AIN AR TRES W  DIS CAZ7
 BAR2 EZ EP       2253 53.30                             171    0.2210 20.8 194 
 BAR2 EZ ES       2254  7.99                             171   -0.4410 20.8 194 
 BAR2 EZ I        2254 10.83        12.7 0.22            169           20.8 194 
 BRR  HZ EP       2253 55.25                             152    0.4910 73.4 300 
 BRR  HN ES       2254 11.59                             152    0.1710 73.4 300 
 RUS  HZ EP       2253 57.49                             145    0.4710 97.7 176 
 RUS  HE ES       2254 15.22                             145   -0.2410 97.7 176 
 RUS  HZ I        2254 17.95         4.7 0.34            147           97.7 176 
 OCA  HE ES       2254 24.29                             129   -0.10 9  163 353 
 OCA  HZ I        2254 28.89        17.3 0.28            130            163 353 
 ZAR  HZ EP       2254  4.75                             122   -1.34 8  206 293 
 ZAR  HE ES       2254 32.12                             122    0.52 8  206 293 
 ZAR  HZ I        2254 41.55         5.4 0.44            122            206 293 
                                                                                
