 2016  127 2242 48.5 L   6.879 -73.290119.3  RSN  9 0.4 1.7LRSN                1
 GAP=108        0.97       3.3     3.6  7.5 -0.2085E+01  0.1216E+02 -0.2968E+01E
 Epicentro: BETULIA - SANTANDER                                                3
 ACTION:UPD 16-03-09 23:29 OP:cam  STATUS:               ID:20160127224248 L   I
 OLDACT:UP  16-01-28 06:28 OP:mh   STATUS:               ID:20160127223749     3
 OLDACT:REG 16-01-28 05:39 OP:mh   STATUS:               ID:20160127223749     3
 2016-01-27-2237-49M.COL___334                                                 6
 STAT SP IPHASW D HRMM SECON CODA AMPLIT PERI AZIMU VELO AIN AR TRES W  DIS CAZ7
 BAR2 EZ EP     D 2243  5.37                             163    0.1110 33.8 159 
 BAR2 EZ ES       2243 18.54                             163    0.2010 33.8 159 
 PAM  EZ EP       2243  8.77                             143    0.4310 82.7  52 
 PAM  EN ES       2243 24.21                             143    0.3810 82.7  52 
 PAM  EZ I        2243 26.84         6.5 0.34            146           82.7  52 
 RUS  HZ EP       2243 10.52                             134   -0.1410  111 168 
 RUS  HN ES       2243 27.62                             134   -0.3310  111 168 
 RUS  HZ I        2243 30.35         3.5 0.22            137            111 168 
 PTB  HZ EP   4   2243 10.63                             128   -1.49 0  134 254 
 PTB  HE ES       2243 30.10                             128   -0.4610  134 254 
 PTB  HZ I        2243 32.85         9.6 0.40            130            134 254 
 OCA  HZ EP   1   2243 13.71                             125   -0.17 7  150 359 
 OCA  HN ES       2243 32.85                             125   -0.85 9  150 359 
 OCA  HZ I        2243 34.15        25.5 0.28            127            150 359 
 ZAR  HZ EP   1   2243 18.16                             118    0.76 7  186 291 
 ZAR  HN ES       2243 40.14                             118    0.19 9  186 291 
 ZAR  HZ I        2243 42.23         8.0 0.38            121            186 291 
 NOR  HZ EP   1   2243 21.64                             113   -0.36 6  227 230 
 NOR  HN ES   1   2243 48.40                             113    0.25 6  227 230 
 NOR  HZ I        2243 49.17         4.0 0.14            115            227 230 
 HEL  HN ES       2243 55.68                             110    0.42 8  259 253 
 GUY2CHZ EP   2   2243 29.18                             107   -0.95 4  294 232 
 GUY2CHN ES   4   2244  1.44                             107   -1.18 0  294 232 
 GUY2CHZ I        2244  6.52         2.3 0.48                           294 232 
                                                                                
