 2016 1227 2340 40.0 L   6.775 -73.204141.6  RSN  4 0.2 1.3LRSN                1
 GAP=142        0.49       2.8     2.8  4.6 -0.1965E+01  0.2847E+01  0.1819E+01E
 Epicentro: ZAPATOCA - SANTANDER                                               3
 ACTION:UPD 17-01-11 20:19 OP:rebc STATUS:               ID:20161227234040 L   I
 OLDACT:REG 16-12-28 03:41 OP:cara STATUS:               ID:20161227233746     3
 2016-12-27-2338-00M.COL___369                                                 6
 STAT SP IPHASW D HRMM SECON CODA AMPLIT PERI AZIMU VELO AIN AR TRES W  DIS CAZ7
 PAM  EZ EP       2341  2.19                             148    0.0210 83.6  42 
 PAM  EN ES       2341 19.48                             148    0.0210 83.6  42 
 PAM  EZ I        2341 21.11         2.8 0.56            157           83.6  42 
 RUS  HZ EP       2341  2.88                             143   -0.3210 98.5 172 
 RUS  HN ES       2341 21.42                             143    0.1310 98.5 172 
 RUS  HZ I        2341 26.66         5.2 0.42            147           98.5 172 
 PTB  HZ EP       2341  6.22                             132    0.20 9  141 259 
 PTB  HN ES       2341 26.19                             132   -0.12 9  141 259 
 PTB  HZ I        2341 34.68         2.3 0.38            135            141 259 
 CHI  HZ EP       2341 17.15                             117    0.13 8  244 194 
                                                                                
