 2013  927 2103 59.0 L   6.817 -73.158149.4  RSN 10 0.5 2.2LRSN                1
 GAP=134        1.25       3.7     5.0  6.9 -0.1099E+01  0.7615E+01  0.1699E+01E
 Epicentro: LOS SANTOS - SANTANDER                                             3
 ACTION:UPD 13-10-22 09:25 OP:ep   STATUS:               ID:20130927210359 L   I
 OLDACT:REG 13-09-27 21:33 OP:carl STATUS:               ID:20130927205960d    3
 2013-09-27-2059-59M.COL___272                                                 6
 STAT SP IPHASW D HRMM SECON CODA AMPLIT PERI AZIMU VELO AIN AR TRES W  DIS CAZ7
 BAR2 SZ EP       21 4 19.02                             170   -0.0610 25.0 186 
 BAR2 SZ ES       21 4 34.02                             170   -0.7410 25.0 186 
 BAR2 SZ I        21 4 38.24        31.4 0.10            169           25.0 186 
 BRR  HZ EP       21 4 21.06                             154    0.6610 69.1 298 
 BRR  HN ES       21 4 38.15                             154    1.0310 69.1 298 
 BRR  HN I        21 4 38.94        57.0 0.18            152           69.1 298 
 PAM  SZ EP       21 4 22.02                             152    0.4710 76.9  41 
 PAM  SN ES       21 4 39.05                             152   -0.1110 76.9  41 
 PAM  SZ I        21 4 41.27        25.1 0.54            155           76.9  41 
 RUS  HZ EP       21 4 23.08                             144   -0.1410  103 175 
 RUS  HE ES       21 4 42.32                             144    0.1810  103 175 
 RUS  HZ I        21 4 43.40        21.3 0.28            145            103 175 
 PTB  HZ EP       21 4 25.78                             133   -0.37 9  147 258 
 PTB  HN ES       21 4 46.83                             133   -0.52 9  147 258 
 PTB  HZ I        21 4 48.77        19.9 0.12            132            147 258 
 SPBC HZ EP       21 4 28.12                             130    0.31 9  164 218 
 SPBC HE ES       21 4 49.89                             130   -0.41 9  164 218 
 SPBC HZ I        21 4 52.51        27.1 0.28            130            164 218 
 ZAR  HN ES       21 4 57.35                             123    0.56 9  202 292 
 ZAR  HZ I        21 5  7.57        10.0 0.34            124            202 292 
 NOR  HZ EP       21 4 34.75                             119   -0.16 8  235 234 
 NOR  HE ES       21 5  3.04                             119    0.10 8  235 234 
 NOR  HZ I        21 5  9.13        10.2 0.14            120            235 234 
 SML  HZ EP       21 4 35.23                             118   -0.33 8  241 335 
 SML  HN ES       21 5  3.02                             118   -1.08 8  241 335 
 SML  HZ I        21 5  6.58        23.9 0.26            119            241 335 
 CHI  HZ EP       21 4 37.22                             118    0.19 8  250 195 
 CHI  HN ES       21 5  6.71                             118   -0.00 8  250 195 
 CHI  HZ I        21 5 14.49         5.2 0.60            119            250 195 
                                                                                
