 2016  827 2155 46.3 L   6.773 -73.160142.0  RSN  6 0.4 1.7LRSN                1
 GAP=136        0.86       4.3     3.8  7.2  0.1292E+01  0.5322E+01  0.2276E+01E
 Epicentro: LOS SANTOS - SANTANDER                                             3
 ACTION:UPD 16-10-29 15:40 OP:rebc STATUS:               ID:20160827215546 L   I
 OLDACT:DUP 16-08-28 05:05 OP:dnl  STATUS:               ID:20160827214746d    3
 OLDACT:DUP 16-08-28 05:01 OP:dnl  STATUS:               ID:20160827214745d    3
 2016-08-27-2148-00M.COL___368                                                 6
 STAT SP IPHASW D HRMM SECON CODA AMPLIT PERI AZIMU VELO AIN AR TRES W  DIS CAZ7
 BAR2 EZ EP   2   2156  5.37                             172   -0.00 5 20.1 187 
 BAR2 EZ ES   3   2156 19.83                             172   -0.45 2 20.1 187 
 BAR2 EZ I        2156 21.21        15.1 0.30                          20.1 187 
 BRR  HZ EP       2156  7.17                             152    0.1610 71.4 301 
 BRR  HN ES       2156 23.81                             152    0.6210 71.4 301 
 BRR  HZ I        2156 24.58        13.9 0.21                          71.4 301 
 PAM  EZ EP       2156  8.23                             149   -0.0510 80.7  39 
 PAM  EN ES       2156 25.12                             149   -0.3310 80.7  39 
 PAM  EZ I        2156 27.17        11.5 0.52                          80.7  39 
 RUS  HZ EP       2156  9.67                             144    0.2410 97.7 175 
 RUS  HN ES       2156 27.57                             144    0.0710 97.7 175 
 RUS  HZ I        2156 29.90         3.6 0.34                          97.7 175 
 PTB  HZ EP       2156 12.14                             132   -0.59 9  146 260 
 PTB  HE ES       2156 33.05                             132   -0.32 9  146 260 
 PTB  HZ I        2156 35.08         4.4 0.32                           146 260 
 ZAR  HZ EP   2   2156 19.46                             122    1.03 4  204 293 
 ZAR  HN ES       2156 43.43                             122   -0.09 9  204 293 
 ZAR  HZ I        2156 49.69         4.7 0.14                           204 293 
                                                                                
