 2013 1027 2013 36.5 L   6.798 -73.195133.0  RSN  5 0.4 1.3LRSN                1
 GAP=178        0.91       4.1     7.3  9.2  0.5234E+01  0.1599E+02 -0.3354E+01E
 Epicentro: ZAPATOCA - SANTANDER                                               3
 ACTION:UPD 13-11-25 09:24 OP:ep   STATUS:               ID:20131027201336 L   I
 OLDACT:UP  13-10-27 23:29 OP:mh   STATUS:               ID:20131027200840d    3
 OLDACT:DUP 13-10-27 23:23 OP:mh   STATUS:               ID:20131027200840d    3
 2013-10-27-2008-38M.COL___227                                                 6
 STAT SP IPHASW D HRMM SECON CODA AMPLIT PERI AZIMU VELO AIN AR TRES W  DIS CAZ7
 BAR2 SZ ES   1   2014  8.42                             170   -0.24 8 22.8 177 
 BRR  HZ EP   1   2013 56.70                             152    0.73 8 66.6 301 
 BRR  HN ES   1   2014 11.89                             152    0.70 8 66.6 301 
 BRR  HZ I        2014 14.22         5.5 0.34            151           66.6 301 
 RUS  HZ EP   1   2013 59.33                             141    0.32 7  101 173 
 RUS  HN ES       2014 16.46                             141   -0.1310  101 173 
 RUS  HZ I        2014 19.16         1.9 0.33            143            101 173 
 PTB  HZ EP       2014  1.66                             130   -0.26 9  142 258 
 PTB  HN ES   1   2014 21.45                             130   -0.32 7  142 258 
 PTB  HZ I        2014 25.39         3.2 0.25            131            142 258 
 OCA  HN ES       2014 24.69                             127   -0.39 9  160 355 
                                                                                
