 2012 1227 2253 32.8 L   6.804 -73.153150.7  RSN 11 0.4 2.7LRSN                1
 GAP=182        1.10       3.2     4.9  5.5  0.1643E+01  0.6986E+01 -0.2480E+00E
 Epicentro: LOS SANTOS - SANTANDER                                             3
 ACTION:UPD 13-01-04 14:30 OP:ep   STATUS:               ID:20121227225332 L   I
 2012-12-27-2250-00M.COL___243                                                 6
 STAT SP IPHASW D HRMM SECON CODA AMPLIT PERI AZIMU VELO AIN AR TRES W  DIS CAZ7
 BAR2 SZ EP       2253 53.28                             171    0.3010 23.6 188 
 BAR2 SZ ES       2254  8.37                             171   -0.3910 23.6 188 
 BAR2 SZ I        2254  9.83       102.5 0.16                          23.6 188 
 GIR2 SZ EP       2253 53.40                             168    0.4010 30.7 352 
 GIR2 SZ ES       2254  8.38                             168   -0.4110 30.7 352 
 GIR2 SZ I        2254 10.59        46.1 0.34                          30.7 352 
 BRR  HZ EP       2253 55.05                             154    0.6610 70.3 299 
 BRR  HN ES       2254 12.20                             154    0.9410 70.3 299 
 BRR  HN I        2254 12.63        96.8 0.18                          70.3 299 
 RUS  HZ EP       2253 57.11                             145    0.0910  101 176 
 RUS  HN ES       2254 15.80                             145   -0.1610  101 176 
 RUS  HN I        2254 17.65        48.0 0.26                           101 176 
 PTB  HZ EP       2253 59.98                             133   -0.08 9  147 259 
 PTB  HN ES       2254 21.02                             133   -0.35 9  147 259 
 PTB  HN I        2254 26.61        34.2 0.16                           147 259 
 OCA  HZ EP       2254  0.90                             131   -0.50 9  160 353 
 OCA  HN ES       2254 23.62                             131   -0.13 9  160 353 
 OCA  HN I        2254 28.44       120.5 0.30                           160 353 
 ZAR  HZ EP       2254  5.75                             124    0.32 9  203 292 
 ZAR  HN ES       2254 30.99                             124    0.07 9  203 292 
 ZAR  HN I        2254 37.93        49.9 0.32                           203 292 
 SML  HZ EP       2254  9.75                             118    0.17 8  243 335 
 SML  HN ES       2254 37.63                             118   -0.68 8  243 335 
 SML  HN I        2254 45.40        64.6 0.10                           243 335 
 CHI  HZ EP       2254 11.26                             118    0.51 8  249 195 
 CHI  HN ES       2254 39.75                             118   -0.64 8  249 195 
 CHI  HN I        2254 42.98        25.2 0.36                           249 195 
 HEL  HZ EP       2254 12.95                             116   -0.20 8  271 256 
 HEL  HE ES       2254 44.78                             116    0.13 8  271 256 
 HEL  HE I        2254 52.88        11.8 0.18                           271 256 
 URE  HZ EP       2254 13.26                             115   -0.71 7  283 292 
 URE  HN I        2254 54.95        36.0 0.28                           283 292 
                                                                                
