 2015  627 2353 10.5 L   6.786 -73.674 97.8  RSN  8 0.4 1.7LRSN                1
 GAP=113        1.15       4.0     4.6  8.6 -0.2065E+01  0.2062E+02  0.7802E+01E
 Epicentro: EL CARMEN - SANTANDER                                              3
 ACTION:UPD 15-09-10 22:15 OP:cam  STATUS:               ID:20150627235310 L   I
 OLDACT:REG 15-06-28 06:22 OP:stll STATUS:               ID:20150627234749     3
 2015-06-27-2347-49M.COL___328                                                 6
 STAT SP IPHASW D HRMM SECON CODA AMPLIT PERI AZIMU VELO AIN AR TRES W  DIS CAZ7
 BRR  HZ EP       2353 24.42                             158   -0.0810 35.7 353 
 BRR  HN ES       2353 35.78                             158    0.3510 35.7 353 
 BRR  HZ I        2353 37.02        12.5 0.12            157           35.7 353 
 BAR2 EZ EP       2353 26.13                             147    0.0010 58.4 111 
 BAR2 EZ ES       2353 38.18                             147   -0.1510 58.4 111 
 BAR2 EZ I        2353 40.00        17.9 0.16            150           58.4 111 
 ZAR  HZ EP       2353 34.32                             118   -0.21 9  152 301 
 ZAR  HN ES       2353 53.28                             118   -0.01 9  152 301 
 ZAR  HZ I        2353 57.05         6.7 0.28            117            152 301 
 OCA  HN ES       2353 55.89                             116   -0.27 9  165  14 
 OCA  HZ I        2354  0.90         8.4 0.14            116            165  14 
 NOR  HZ EP       2353 38.90                             113    0.22 9  189 224 
 NOR  HE ES       2353 59.90                             113   -0.78 9  189 224 
 NOR  HZ I        2354  4.44         8.2 0.12            112            189 224 
 HEL  HZ EP       2353 42.30                             110    0.20 8  215 252 
 HEL  HN ES       2354  7.50                             110    0.74 8  215 252 
 HEL  HZ I        2354 10.33         7.4 0.38            109            215 252 
 GUY2CHZ EP       2353 47.36                             107    0.53 8  255 227 
 GUY2CHN ES       2354 14.72                             107   -0.46 8  255 227 
 GUY2CHZ I        2354 21.77         5.5 0.78                           255 227 
 MON  HZ EP   9   2353 51.22                             103   -1.73 0  311 315 
 MON  HN ES       2354 22.86                                   -1.49 7  311 315 
                                                                                
