 2014  827 2101  6.8 L   7.191 -73.076156.5  RSN  7 0.4 1.9LRSN                1
 GAP=112        0.99       4.2     5.1  7.9  0.2247E+01  0.1309E+02 -0.6309E+01E
 Epicentro: BUCARAMANGA - SANTANDER                                            3
 ACTION:UPD 14-09-15 21:53 OP:nd   STATUS:               ID:20140827210106 L   I
 OLDACT:UP  14-08-28 05:07 OP:cam  STATUS:               ID:20140827210000     3
 OLDACT:REG 14-08-28 04:25 OP:cam  STATUS:               ID:20140827210000     3
 2014-08-27-2100-00M.COL___282                                                 6
 STAT SP IPHASW D HRMM SECON CODA AMPLIT PERI AZIMU VELO AIN AR TRES W  DIS CAZ7
 PAM  SZ EP       21 1 28.95                             163    0.3010 44.7  68 
 PAM  SN ES       21 1 45.82                             163    0.1110 44.7  68 
 PAM  SZ I        21 1 47.03         7.3 0.22            161           44.7  68 
 BAR2 SZ ES       21 1 46.42                             156   -0.3410 67.2 190 
 BAR2 SZ I        21 1 48.13        17.5 0.14            154           67.2 190 
 BRR  HZ EP       21 1 29.45                             154    0.3810 70.8 263 
 BRR  HN I        21 1 49.06        23.5 0.48            153           70.8 263 
 RUS  HZ EP       21 1 34.05                             136   -0.88 9  144 180 
 RUS  HN ES       21 1 57.25                             136    0.37 9  144 180 
 RUS  HN I        21 1 58.13         4.5 0.42            133            144 180 
 PTB  HZ EP       21 1 36.71                             130    0.19 9  169 245 
 PTB  HN ES       21 1 59.67                             130   -0.06 9  169 245 
 PTB  HZ I        21 2  0.93         7.9 0.18            128            169 245 
 ZAR  HN ES       21 2  5.18                             125    0.17 9  200 280 
 ZAR  HN I        21 2  5.82        11.2 0.14            122            200 280 
 SML  HZ EP       21 1 40.69                             124    0.25 8  209 328 
 SML  HE ES       21 2  6.13                             124   -0.57 8  209 328 
 SML  HZ I        21 2  8.96         8.5 0.10            121            209 328 
                                                                                
