 2012  727 2004 15.8 L   6.748 -73.108141.3  RSN  5 0.1 2.2LRSN                1
 GAP=171        0.30       3.0     2.6  3.2 -0.2137E+01  0.7905E+00  0.1579E+01E
 Epicentro: LOS SANTOS - SANTANDER                                             3
 ACTION:UPD 12-08-14 11:45 OP:ep   STATUS:               ID:20120727200415 L   I
 OLDACT:UP  12-07-30 00:14 OP:MHER STATUS:               ID:20120727200415 L   3
 2012-07-27-2000-00M.COL___215                                                 6
 STAT SP IPHASW D HRMM SECON CODA AMPLIT PERI AZIMU VELO AIN AR TRES W  DIS CAZ7
 BAR2 SZ EP   1   20 4 34.92                             172     0.1 7   19 206 
 BAR2 SZ ES   1   20 4 49.58                             172    -0.1 7   19 206 
 BAR2 SZ I        20 4 50.87        32.1 0.24            172             19 206 
 BRR  HZ EP   1   20 4 36.78                             149    -0.1 7   78 301 
 BRR  HN ES   1   20 4 53.36                             149     0.1 7   78 301 
 BRR  HZ I        20 4 58.02        37.8 0.16            147             78 301 
 PAM  SZ EP   1   20 4 37.74                             149     0.0 7   79  35 
 ZAR  HN ES   2   20 5 14.16                             120     0.0 4  210 293 
 NOR  SZ EP   1   20 4 51.23                             117    -0.1 6  235 236 
 NOR  SN ES   1   20 5 19.08                             117     0.1 6  235 236 
