 2017  427 2307 47.8 L   6.794 -73.150140.4  RSN  5 0.3 1.5LRSN                1
 GAP=136        0.71       3.6     3.2  6.5  0.8095E+00  0.3839E+01  0.3613E+01E
 Epicentro: LOS SANTOS - SANTANDER                                             3
 ACTION:UPD 17-05-30 21:16 OP:jn   STATUS:               ID:20170427230747 L   I
 OLDACT:REG 17-04-28 08:19 OP:cog  STATUS:               ID:20170427225742     3
 2017-04-27-2258-00M.COL___362                                                 6
 STAT SP IPHASW D HRMM SECON CODA AMPLIT PERI AZIMU VELO AIN AR TRES W  DIS CAZ7
 BRR  HN ES       23 8 24.15                             152   -0.2510 71.0 299 
 PAM  EZ EP       23 8  9.50                             150   -0.0110 78.2  40 
 PAM  EN ES       23 8 26.49                             150    0.0610 78.2  40 
 PAM  EZ I        23 8 27.29         4.7 0.24            154           78.2  40 
 RUS  HZ EP       23 8 10.62                             143   -0.3710100.0 176 
 RUS  HN ES       23 8 29.44                             143    0.3710100.0 176 
 RUS  HZ I        23 8 30.39         3.5 0.28            144          100.0 176 
 PTB  HZ EP       23 8 14.45                             131    0.16 9  147 259 
 PTB  HN ES       23 8 34.68                             131   -0.25 9  147 259 
 PTB  HZ I        23 8 41.90         5.9 0.34            131            147 259 
 ZAR  HN ES       23 8 45.29                             121    0.39 9  204 292 
                                                                                
