 2011 1127 2040  0.2 L   6.742 -73.080143.4  RSN  4 0.3 1.4LRSN                1
 GAP=148        0.63       3.6     6.7  8.5  0.1347E+01 -0.2082E+01  0.8697E+00E
 Epicentro: JORDAN - SANTANDER                                                 3
 ACTION:UPD 12-07-13 16:12 OP:ep   STATUS:               ID:20111127204000 L   I
 2011-11-27-2039-33S.COL___160                                                 6
 STAT SP IPHASW D HRMM SECON CODA AMPLIT PERI AZIMU VELO AIN AR TRES W  DIS CAZ7
 PAM  SZ EP   1   2040 21.99                             150   -0.24 7 78.3  32 
 PAM  SN ES   1   2040 39.29                             150   -0.11 7 78.3  32 
 PAM  SZ I        2040 41.80         6.2 0.24                          78.3  32 
 BRR  HZ EP   1   2040 21.21                             149   -0.46 7 80.7 300 
 BRR  HZ I        2040 27.38         7.0 0.12                          80.7 300 
 BRR  HN ES   1   2040 38.39                             149   -0.03 7 80.7 300 
 RUS  HZ EP   1   2040 23.65                             145    0.40 7 93.9 180 
 RUS  HN ES   1   2040 41.27                             145    0.04 7 93.9 180 
 RUS  HZ I        2040 44.19         1.9 0.28                          93.9 180 
 OCA  SZ ES   1   2040 52.01                             128    0.48 7  168 351 
                                                                                
