 2014  927 2041 54.8 L   6.826 -73.186145.0  RSN  6 0.3 1.6LRSN                1
 GAP=130        0.80       3.1     4.2  5.9 -0.3148E+01  0.9005E+01 -0.4703E+01E
 Epicentro: ZAPATOCA - SANTANDER                                               3
 ACTION:UPD 14-10-03 23:09 OP:nd   STATUS:               ID:20140927204154 L   I
 OLDACT:REG 14-09-28 09:37 OP:carl STATUS:               ID:20140927203820     3
 2014-09-27-2038-20M.COL___301                                                 6
 STAT SP IPHASW D HRMM SECON CODA AMPLIT PERI AZIMU VELO AIN AR TRES W  DIS CAZ7
 BAR2 SZ EP       2042 14.16                             169   -0.2010 25.9 179 
 BAR2 SZ ES       2042 30.16                             169    0.5210 25.9 179 
 BAR2 SZ I        2042 30.62        17.7 0.18            171           25.9 179 
 PAM  SZ EP       2042 17.21                             150    0.2610 78.2  43 
 PAM  SN ES       2042 34.12                             150   -0.1310 78.2  43 
 PAM  SZ I        2042 34.89         3.6 0.46            152           78.2  43 
 RUS  HZ EP       2042 18.48                             143   -0.2010  104 174 
 RUS  HE ES       2042 36.87                             143   -0.4710  104 174 
 RUS  HZ I        2042 38.08         3.4 0.42            146            104 174 
 PTB  HZ EP       2042 21.15                             133   -0.18 9  144 257 
 PTB  HN ES       2042 41.85                             133   -0.20 9  144 257 
 PTB  HZ I        2042 45.44         5.9 0.20            133            144 257 
 SPBC HZ EP       2042 23.44                             129    0.28 9  163 217 
 SPBC HN ES       2042 45.63                             129    0.32 9  163 217 
 SML  HZ EP       2042 31.24                             118    0.38 8  239 336 
 SML  HN ES       2042 58.68                             118   -0.34 8  239 336 
 SML  HZ I        2043  4.11         7.2 0.24            118            239 336 
                                                                                
