 2014  127 2334  0.2 L   6.809 -73.148147.6  RSN 10 0.4 2.0LRSN                1
 GAP=201        0.99       3.6     5.5  6.1  0.5331E+01  0.1940E+01  0.1228E+01E
 Epicentro: LOS SANTOS - SANTANDER                                             3
 ACTION:UPD 14-03-13 09:59 OP:ep   STATUS:               ID:20140127233400 L   I
 OLDACT:UP  14-01-27 23:19 OP:cam  STATUS:               ID:20140127233000     3
 OLDACT:REG 14-01-27 21:30 OP:cam  STATUS:               ID:20140127233000     3
 2014-01-27-2330-00M.COL___285                                                 6
 STAT SP IPHASW D HRMM SECON CODA AMPLIT PERI AZIMU VELO AIN AR TRES W  DIS CAZ7
 BAR2 SZ EP       2334 20.14                             170    0.0310 24.3 189 
 BAR2 SZ ES       2334 35.40                             170   -0.2010 24.3 189 
 BAR2 SZ I        2334 36.58        41.4 0.22            169           24.3 189 
 BRR  HZ EP       2334 22.14                             153    0.5910 70.4 298 
 BRR  HN ES       2334 38.97                             153    0.8110 70.4 298 
 BRR  HZ I        2334 42.19        18.6 0.36            152           70.4 298 
 RUS  HZ EP       2334 24.09                             144   -0.1610  102 176 
 RUS  HN ES   1   2334 42.57                             144   -0.40 7  102 176 
 RUS  HZ I        2334 43.69         6.8 0.20            144            102 176 
 PTB  HZ EP       2334 26.92                             133   -0.43 9  148 258 
 PTB  HN ES       2334 47.82                             133   -0.67 9  148 258 
 PTB  HZ I        2334 51.22         9.2 0.12            132            148 258 
 SPBC HZ EP       2334 29.05                             129    0.11 9  164 219 
 SPBC HN ES       2334 51.44                             129    0.12 9  164 219 
 SPBC HZ I        2334 55.47        10.1 0.22            129            164 219 
 ZAR  HE ES       2334 58.25                             123    0.17 9  203 292 
 NOR  HZ EP   1   2334 36.34                             119    0.22 6  235 234 
 NOR  HN ES   2   2335  4.51                             119    0.41 4  235 234 
 SML  HZ EP   1   2334 36.88                             118    0.02 6  243 335 
 SML  HE ES       2335  4.61                             118   -0.80 8  243 335 
 SML  HZ I        2335 10.25        10.2 0.40            119            243 335 
 CHI  HZ EP       2334 38.50                             117    0.36 8  250 195 
 CHI  HE ES   1   2335  7.44                             117   -0.26 6  250 195 
 CHI  HZ I        2335 14.66         5.5 0.52            118            250 195 
 GUY2CHZ EP   4   2334 45.34                             113    1.36 0  302 235 
 PRA  HZ EP   2   2334 54.25                             107    0.33 3  393 209 
 SJC  HZ EP   4   2334 54.42                             106   -1.33 0  408 327 
                                                                                
