 2014  827 2049 45.4 L   5.797 -73.921107.4  RSN  6 0.3 1.3LRSN                1
 GAP=143        0.87       4.6     2.9  6.5 -0.5397E+01  0.3180E+01  0.6315E+00E
 Epicentro: ALBANIA - SANTANDER                                                3
 ACTION:UPD 14-09-15 21:53 OP:nd   STATUS:               ID:20140827204945 L   I
 OLDACT:UP  14-08-28 05:29 OP:cam  STATUS:               ID:20140827204849     3
 OLDACT:REG 14-08-28 05:26 OP:cam  STATUS:               ID:20140827204849     3
 2014-08-27-2048-49M.COL___263                                                 6
 STAT SP IPHASW D HRMM SECON CODA AMPLIT PERI AZIMU VELO AIN AR TRES W  DIS CAZ7
 SPBC HZ EP       2050  0.26                             167    0.0410 23.1 226 
 SPBC HN ES       2050 12.10                             167    0.3210 23.1 226 
 SPBC HZ I        2050 15.14         9.8 0.22            169           23.1 226 
 RUS  HZ EP       2050  5.21                             136    0.2110 93.4  83 
 RUS  HN ES       2050 19.69                             136   -0.5910 93.4  83 
 RUS  HZ I        2050 21.77         1.8 0.32            141           93.4  83 
 PTB  HZ EP       2050  4.72                             133   -0.3210  101 324 
 PTB  HN ES       2050 20.27                             133   -0.0810  101 324 
 PTB  HZ I        2050 25.34         2.4 0.30            135            101 324 
 NOR  HZ EP       2050  5.72                             131    0.0110  108 256 
 NOR  HN ES       2050 21.14                             131   -0.4010  108 256 
 NOR  HZ I        2050 23.55         6.4 0.16            135            108 256 
 BAR2 SZ ES       2050 24.49                             128    0.5110  120  43 
 BAR2 SZ I        2050 26.44        15.1 0.38            132            120  43 
 GUY2CHZ EP       2050 12.79                             117    0.04 9  172 248 
 GUY2CHN ES       2050 34.43                             117    0.37 9  172 248 
 GUY2CHZ I        2050 40.22         1.6 0.34                           172 248 
                                                                                
