 2013  827 2109 10.3 L   6.787 -73.138141.4  RSN 10 0.5 1.6LRSN 2.2WRSN        1
 SPEC AVERAGE  MO 12.3 ST  6.4 OM  1.6 f0 10.9 R0.2088 AL 0.00 WI 20.0 MW  2.2 3
 SPEC SD       MO  0.2 ST  8.0 OM  1.0 f0 7.26 R0.1035 AL      WI      MW  0.1 3
 GAP=138        1.12       4.0     4.1  6.5 -0.3278E+01  0.6428E+01  0.1134E+01E
 Epicentro: LOS SANTOS - SANTANDER                                             3
 SPEC BRR HH Z MO 12.6 ST  1.5 OM  1.0 f0 6.83 R0.2275 AL-0.00 WI 20.0 MW  2.3 3
 SPEC BRR HH Z T21 946 K 0.000 GD  158 VS 4.20 DE 3.20 Q0300.0 QA 0.60 VS 4.20 3
 SPEC RUS HH Z MO 12.1 ST0.174 OM  0.5 f0 4.78 R0.3251 AL-0.00 WI 20.0 MW  2.0 3
 SPEC RUS HH Z T21 950 K 0.000 GD  172 VS 4.20 DE 3.20 Q0300.0 QA 0.60 VS 4.20 3
 SPEC PTB HH Z MO 12.2 ST 17.7 OM  0.5 f0 21.1 R0.0736 AL-0.00 WI 20.0 MW  2.1 3
 SPEC PTB HH Z T21 955 K 0.000 GD  204 VS 4.20 DE 3.20 Q0300.0 QA 0.60 VS 4.20 3
 SPECGUY2CHH Z MO 13.6 ST  0.0 OM  1.7 f00.891 R  1.74 AL-0.00 WI 20.0 MW  3.0 3
 SPECGUY2CHH Z T211027 K       GD332.6 VS 4.20 DE 3.20 Q0300.0 QA 0.60 VS 4.20 3
 2013-08-27-2108-42M.COL___212                                                 6
 OLDACT:REG 13-08-27 22:49 OP:stll STATUS:               ID:20130827210842     3
 ACTION:UPD 14-01-14 09:07 OP:ep   STATUS:               ID:20130827210910 L   I
 OLDACT:UP  13-08-28 02:03 OP:stll STATUS:               ID:20130827210842     3
 STAT SP IPHASW D HRMM SECON CODA AMPLIT PERI AZIMU VELO AIN AR TRES W  DIS CAZ7
 BAR2 SZ EP       21 9 29.08                             171   -0.2610 22.0 193 
 BAR2 SZ ES       21 9 44.08                             171   -0.1310 22.0 193 
 BAR2 SZ I        21 9 46.00         6.2 0.30            170           22.0 193 
 BRR  HZ IP     D 21 9 31.22                             151    0.2010 72.7 299 
 BRR  HN ES       21 9 47.68                             151    0.4710 72.7 299 
 BRR  SZ I        2110  2.93        12.4 0.36            156           72.7 299 
 PAM  SZ IP     D 21 9 32.17                             150    0.1210 78.0  38 
 PAM  SN ES       21 9 49.12                             150    0.0810 78.0  38 
 PAM  SZ I        21 9 50.77         4.9 0.24            159           78.0  38 
 RUS  HZ EP       21 9 33.33                             143   -0.1410 99.1 176 
 RUS  HN ES       21 9 51.67                             143    0.1010 99.1 176 
 RUS  SZ I        2110  9.20         4.7 2.74            148           99.1 176 
 PTB  HZ EP       21 9 35.90                             131   -1.02 9  148 259 
 PTB  HN ES       21 9 57.00                             131   -0.72 9  148 259 
 PTB  SZ I        2110  0.49         4.9 1.18            137            148 259 
 CAPV BZ EP       21 9 37.55                             131    0.19 9  150  37 
 ZAR  HZ EP       21 9 42.95                             121    0.39 8  205 292 
 ZAR  HN ES       2110  7.67                             121   -0.09 8  205 292 
 ZAR  SZ I        2110 13.09         6.5 0.36            129            205 292 
 NOR  HN ES       2110 13.27                             118   -0.11 8  235 235 
 CHI  HN ES       2110 16.75                             116    0.05 8  247 195 
 GUY2CHZ EP       21 9 53.75                             111    0.10 7  301 235 
 GUY2CHN ES       2110 28.85                             111    1.35 7  301 235 
 GUY2CHZ I        2110 36.97         2.2 0.56                           301 235 
                                                                                
