 2010  727 2143 53.1 L   6.750 -73.176148.6  RSN  6 0.4 1.6LRSN                1
 GAP=161        0.67       5.5     9.7  8.0  0.6374E+01 -0.1537E+02 -0.1194E+01E
 Epicentro: VILLANUEVA - SANTANDER                                             3
 ACTION:UPD 10-12-01 15:20 OP:pat  STATUS:               ID:20100727214353 L   I
 2010-07-27-2140-43S.COL___123                                                 6
 STAT SP IPHASW D HRMM SECON CODA AMPLIT PERI AZIMU VELO AIN AR TRES W  DIS CAZ7
 BAR2 SZ EP   1   2144 12.63                             173    -0.3 7   18 183 
 BAR2 SZ I        2144 13.15        10.1 0.12                            18 183 
 BAR2 SZ ES   2   2144 28.24                             173    -0.2 5   18 183 
 GIR2 SZ EP   2   2144 12.91                             165    -0.3 5   36 357 
 BRR  HZ IP     C 2144 14.73                             153     0.210   71 304 
 BRR  HZ I        2144 15.09        13.6 0.09                            71 304 
 BRR  HN ES   1   2144 31.26                             153     0.0 7   71 304 
 RUS  HZ EP   2   2144 16.30                             146    -0.5 5   95 174 
 RUS  HN ES   2   2144 35.91                             146     0.7 5   95 174 
 RUS  HZ I        2144 37.12         6.3 0.39                            95 174 
 GUE  SZ EP   1   2144 18.72                             138     0.2 7  123  13 
 GUE  SZ I        2144 39.43         2.5 0.13                           123  13 
 PRA  HZ EP   2   2144 46.79                             107     0.8 3  386 210 
 PRA  HE ES   2   2145 26.62                             107    -0.6 3  386 210 
                                                                                
