 2016 1127 2146 11.1 L   6.793 -73.166149.0  RSN  5 0.5 1.6LRSN                1
 GAP=144        1.01       7.8     5.8  7.9 -0.1799E+02  0.2076E+01  0.1375E+02E
 Epicentro: LOS SANTOS - SANTANDER                                             3
 ACTION:UPD 17-10-26 21:12 OP:lp   STATUS:               ID:20161127214611 L   I
 OLDACT:UP  16-11-28 09:56 OP:ar   STATUS:               ID:20161127213733     3
 OLDACT:REG 16-11-28 06:45 OP:ar   STATUS:               ID:20161127213733     3
 2016-11-27-2138-00M.COL___352                                                 6
 STAT SP IPHASW D HRMM SECON CODA AMPLIT PERI AZIMU VELO AIN AR TRES W  DIS CAZ7
 BAR2 EZ EP       2146 31.15                             171    0.0010 22.3 185 
 BAR2 EZ ES       2146 46.27                             171   -0.4810 22.3 185 
 BAR2 EZ I        2146 48.88        10.7 0.30            169           22.3 185 
 BRR  HZ EP       2146 32.88                             153    0.3210 69.6 300 
 BRR  HN ES       2146 49.82                             153    0.5610 69.6 300 
 BRR  HZ I        2146 58.78         9.6 0.56            155           69.6 300 
 PAM  EZ EP       2146 33.99                             150    0.1610 79.4  40 
 PAM  EE ES       2146 51.33                             150   -0.1810 79.4  40 
 PAM  EZ I        2146 53.24         7.4 0.46            157           79.4  40 
 PTB  HZ EP       2146 37.79                             133   -0.38 9  145 259 
 PTB  HE ES       2146 58.88                             133   -0.37 9  145 259 
 PTB  HZ I        2147  0.31         3.1 0.36            135            145 259 
 CHI  HZ EP   2   2146 48.92                             118    0.03 4  247 195 
 CHI  HN ES   2   2147 20.02                             118    1.69 4  247 195 
 CHI  HZ I        2147 24.67         2.1 0.18            120            247 195 
                                                                                
