 2010  127 2113 18.5 L   6.815 -73.194137.5  RSN  6 0.3 1.3LRSN                1
 GAP=166        0.58       4.2    18.8  6.8 -0.5220E+02  0.1749E+02  0.1688E+01E
 Epicentro: LOS SANTOS - SANTANDER                                             3
 ACTION:UP  10-08-24 09:46 OP:vdl  STATUS:               ID:20100127211318 L   I
 2010-01-27-2059-50S.COL___088                                                 6
 STAT SP IPHASW D HRMM SECON CODA AMPLIT PERI AZIMU VELO SNR AR TRES W  DIS CAZ7
 BAR2 SZ EP       2113 37.39                             170     0.210   25 177 
 BAR2 SZ ES   2   2113 52.13                             170     0.4 5   25 177 
 GIR2 SZ EP   2   2113 37.13                             167     0.0 5   29   0 
 GIR2 SZ ES   2   2113 51.45                             167    -0.2 5   29   0 
 RUS  HZ EP       2113 41.27                             142    -0.310  103 173 
 RUS  HZ I        2113 42.06         2.3 0.10                           103 173 
 RUS  HN ES   1   2113 59.74                             142     0.1 7  103 173 
 GUE  SZ EP   2   2113 42.83                             138     0.4 5  116  15 
 GUE  SZ ES   3   2114  0.71                             138    -0.4 2  116  15 
 GRA  SZ EP   3   2113 43.77                             135     0.7 2  126  20 
 GRA  SZ ES   1   2114  1.90                             135    -0.3 7  126  20 
 CHI  HZ EP   2   2113 56.21                             115     0.4 4  249 194 
 CHI  HE ES   2   2114 24.24                             115    -0.6 4  249 194 
 CHI  HZ I        2114 31.45         2.2 0.54                           249 194 
                                                                                
