 2011  827 2228 52.3 L   6.808 -73.131138.7  RSN  8 0.2 1.7LRSN                1
 GAP=138        0.42       2.4     3.1  3.7 -0.1604E+01  0.2378E+01  0.3927E+00E
 Epicentro: LOS SANTOS - SANTANDER                                             3
 ACTION:UPD 12-07-13 15:54 OP:ep   STATUS:               ID:20110827222852 L   I
 2011-08-27-2227-07S.COL___161                                                 6
 STAT SP IPHASW D HRMM SECON CODA AMPLIT PERI AZIMU VELO AIN AR TRES W  DIS CAZ7
 BAR2 SZ EP       2229 11.12                             169   -0.0410 24.5 193 
 BAR2 SZ ES   1   2229 26.00                             169    0.17 7 24.5 193 
 BAR2 SZ I        2229 27.56        11.6 0.18                          24.5 193 
 GIR2 SZ EP       2229 11.14                             167   -0.0310 30.8 347 
 BRR  HZ EP       2229 12.86                             151    0.0610 72.2 297 
 BRR  HZ I        2229 14.43        14.1 0.11                          72.2 297 
 BRR  HE ES   1   2229 28.89                             151    0.14 7 72.2 297 
 PAM  SZ EP   1   2229 13.82                             150    0.11 7 75.7  39 
 PAM  SE ES   1   2229 30.04                             150   -0.34 7 75.7  39 
 RUS  HZ EP       2229 15.45                             142   -0.0210  101 177 
 RUS  HE ES   1   2229 33.62                             142    0.12 7  101 177 
 RUS  HZ I        2229 35.73         6.5 0.21                           101 177 
 OCA  SZ EP   2   2229 20.12                             128    0.06 5  160 353 
 OCA  SZ I        2229 46.34         8.0 0.26                           160 353 
 NOR  SZ EP   2   2229 27.71                             117   -0.16 4  237 235 
 NOR  SE ES   1   2229 55.13                             117   -0.45 6  237 235 
 HEL  HZ EP   2   2229 33.02                             113    0.61 4  274 256 
 HEL  HZ I        2229 52.67         3.7 0.43                           274 256 
                                                                                
