 2010  627 2005 36.6 L   6.901 -72.878136.9  RSN  4 0.2 1.5LRSN                1
 GAP=268        0.48       9.9    19.5  9.2  0.1747E+03 -0.1238E+03 -0.6050E+02E
 Epicentro: GUACA - SANTANDER                                                  3
 ACTION:UP  10-08-24 10:13 OP:vdl  STATUS:               ID:20100627200536 L   I
 2010-06-27-2001-05S.COL___118                                                 6
 STAT SP IPHASW D HRMM SECON CODA AMPLIT PERI AZIMU VELO SNR AR TRES W  DIS CAZ7
 BAR2 SZ ES   2   20 6 10.68                             159    -0.3 5   48 225 
 BRR  HZ EP       20 5 58.28                             143    -0.110   95 284 
 BRR  HZ I        20 5 58.53        11.2 0.12                            95 284 
 BRR  HE ES   1   20 6 15.44                             143     0.1 7   95 284 
 RUS  HZ EP   2   20 6  0.93                             138     0.4 5  114 192 
 RUS  HN ES   1   20 6 19.18                             138     0.0 7  114 192 
 RUS  HZ I        20 6 20.32         3.1 0.31                           114 192 
 CHI  HZ EP   2   20 6 15.62                             113    -0.4 4  268 201 
                                                                                
