 2017 1227 2320 39.9 L   6.828 -73.162147.8  RSN 19 0.5 2.5LRSN                1
 GAP= 64        1.14       2.7     3.4  5.8  0.4920E-01  0.4874E+01  0.1141E+01E
 Epicentro: LOS SANTOS - SANTANDER                                             3
 ACTION:UPD 18-01-04 13:25 OP:rebc STATUS:               ID:20171227232039 L   I
 OLDACT:UP  17-12-28 06:40 OP:edw  STATUS:               ID:20171227231740     3
 OLDACT:REG 17-12-28 03:43 OP:edw  STATUS:               ID:20171227231740     3
 2017-12-27-2318-00M.COL___455                                                 6
 STAT SP IPHASW D HRMM SECON CODA AMPLIT PERI AZIMU VELO AIN AR TRES W  DIS CAZ7
 BAR2 EZ EP       2320 59.85                             169    0.0010 26.2 185 
 BAR2 EZ ES       2321 15.26                             169   -0.1410 26.2 185 
 PAM  EZ EP       2321  2.67                             152    0.3910 76.2  42 
 PAM  EN ES       2321 19.96                             152    0.2410 76.2  42 
 PAM  EZ I        2321 22.30        30.9 0.42            155           76.2  42 
 PTB  HZ EP       2321  6.42                             133   -0.53 9  147 257 
 PTB  HN ES       2321 27.26                             133   -0.77 9  147 257 
 PTB  HZ I        2321 29.19        31.5 0.50            133            147 257 
 OCA  HZ EP       2321  8.30                             131    0.22 9  157 354 
 OCA  HN ES       2321 30.72                             131    0.68 9  157 354 
 OCA  HZ I        2321 36.28        57.9 0.20            133            157 354 
 TAM  HZ EP     C 2321  8.27                             130    0.28 9  158 106 
 TAM  HE ES       2321 28.90                             130   -0.99 9  158 106 
 SPBC HZ EP       2321  8.66                             129   -0.04 9  165 218 
 SPBC HN ES       2321 30.88                             129   -0.26 9  165 218 
 SPBC HZ I        2321 37.84        51.7 0.28            130            165 218 
 YPLC HZ EP       2321 10.37                             126    0.16 9  180 151 
 YPLC HE ES       2321 33.96                             126    0.12 9  180 151 
 YPLC HZ I        2321 37.91        35.8 0.42            130            180 151 
 ZAR  HZ EP       2321 12.42                             123    0.22 9  201 292 
 ZAR  HN ES       2321 37.71                             123    0.33 9  201 292 
 ZAR  HZ I        2321 43.36        38.9 0.36            124            201 292 
 ROSC BZ EP   4   2321 20.10                             117    1.76 0  255 210 
 ROSC BN ES   4   2321 50.25                             117    1.94 0  255 210 
 ROSC BZ I        2321 54.89        29.2 0.35            118            255 210 
 CVER HZ EP       2321 20.80                             115    0.17 8  274 202 
 CVER HN ES       2321 52.61                             115    0.23 8  274 202 
 URE  HZ EP       2321 20.21                             114   -0.56 7  281 291 
 URE  HN ES   4   2321 50.63                             114   -2.00 0  281 291 
 URE  HZ I        2322  2.90        31.6 0.22            115            281 291 
 DRL03HZ EP   4   2321 22.04                             114    0.79 0  286 353 
 DRL03HN ES       2321 53.73                             114    0.24 7  286 353 
 GUY2CHZ EP   4   2321 25.42                             113    1.76 0  302 234 
 GUY2CHE ES   4   2322  0.29                             113    2.52 0  302 234 
 GUY2CHZ I        2322  7.71        15.1 0.28                           302 234 
 VIL  EZ EP       2321 23.01                             112   -0.72 7  306 191 
 VIL  EN ES       2321 59.25                             112    1.34 7  306 191 
 VIL  EZ I        2322  0.78        16.8 0.36            114            306 191 
 PTGC HE ES   4   2321 55.10                             112   -3.76 0  312 159 
 DRL02HZ EP       2321 24.96                             111   -0.38 7  322 358 
 DRL02HE ES   4   2321 59.12                             111   -1.65 0  322 358 
 DBB  HZ EP       2321 27.29                             110    0.05 7  337 274 
 DBB  HN ES   4   2322  1.93                             110   -2.23 0  337 274 
 DBB  HZ I        2322  7.87         8.2 0.34            111            337 274 
 PRA  HZ EP       2321 33.97                             107    0.25 6  394 209 
 PRA  HN ES   4   2322 14.80                             107   -0.89 0  394 209 
 PRA  HZ I        2322 19.97        11.9 0.26            108            394 209 
 ORTC HN ES       2322 16.95                             107    0.63 6  397 216 
 SJC  HZ EP       2321 33.90                             106   -1.22 6  406 327 
 SJC  HE ES   4   2322 13.12                             106   -5.06 0  406 327 
 SJC  HZ I        2322 22.77         6.2 0.70            108            406 327 
                                                                                
