 2013  627 2026  6.1 L   6.764 -73.168152.0  RSN  4 0.2 1.4LRSN                1
 GAP=232        0.39       4.6     3.1  4.2  0.4654E+01  0.2736E+01 -0.6230E+01E
 Epicentro: LOS SANTOS - SANTANDER                                             3
 ACTION:UPD 14-01-08 09:57 OP:ep   STATUS:               ID:20130627202606 L   I
 OLDACT:UP  13-06-27 22:51 OP:cam  STATUS:               ID:20130627201959     3
 OLDACT:REG 13-06-27 22:21 OP:cam  STATUS:               ID:20130627201959     3
 2013-06-27-2019-59M.COL___266                                                 6
 STAT SP IPHASW D HRMM SECON CODA AMPLIT PERI AZIMU VELO AIN AR TRES W  DIS CAZ7
 BAR2 SZ EP       2026 26.26                             172   -0.1110 19.0 185 
 BAR2 SZ ES       2026 42.19                             172   -0.0210 19.0 185 
 BRR  HZ EP   2   2026 28.25                             154    0.37 5 71.1 302 
 RUS  HZ EP   2   2026 29.92                             146   -0.25 5 96.8 174 
 RUS  HN ES       2026 49.06                             146    0.0810 96.8 174 
 RUS  HZ I        2026 49.86         3.3 0.38            145           96.8 174 
 PTB  HZ EP       2026 33.36                             134    0.10 9  145 260 
 PTB  HN ES       2026 54.40                             134   -0.08 9  145 260 
 PTB  HZ I        2026 56.87         4.2 0.12            133            145 260 
                                                                                
