 2011  827 2214 44.9 L   6.771 -73.164134.0  RSN  4 0.1 1.3LRSN                1
 GAP=180        0.32       5.2     9.2  4.2  0.4050E+02 -0.1019E+02 -0.5036E+01E
 Epicentro: LOS SANTOS - SANTANDER                                             3
 ACTION:UPD 12-07-13 15:54 OP:ep   STATUS:               ID:20110827221444 L   I
 2011-08-27-2212-41S.COL___161                                                 6
 STAT SP IPHASW D HRMM SECON CODA AMPLIT PERI AZIMU VELO AIN AR TRES W  DIS CAZ7
 BAR2 SZ ES   1   2215 17.33                             171    0.09 7 19.9 186 
 BAR2 SZ I        2215 19.21        11.4 0.33                          19.9 186 
 GIR2 SZ EP   2   2215  3.16                             165   -0.15 5 34.2 355 
 BRR  HZ EP   1   2215  4.93                             150    0.11 7 71.0 302 
 BRR  HN ES   1   2215 20.25                             150   -0.08 7 71.0 302 
 RUS  HZ EP   1   2215  7.33                             142    0.00 7 97.5 175 
 RUS  HZ I        2215  7.84         1.8 0.29                          97.5 175 
 RUS  HE ES   1   2215 24.73                             142   -0.05 7 97.5 175 
                                                                                
