 2011  327 2056 39.6 L   6.769 -73.104146.5  RSN 13 0.4 2.3LRSN                1
 GAP=161        0.67       4.0     5.8  5.4 -0.1204E+02  0.3307E+01  0.8193E+01E
 Epicentro: LOS SANTOS - SANTANDER                                             3
 ACTION:UP  11-06-16 14:36 OP:jfem STATUS:               ID:20110327205639 L   I
 2011-03-27-2055-37S.COL___138                                                 6
 STAT SP IPHASW D HRMM SECON CODA AMPLIT PERI AZIMU VELO SNR AR TRES W  DIS CAZ7
 BAR2 SZ EP   1   2056 58.81                             171    -0.412   21 204 
 BAR2 SZ ES   2   2057 14.49                             171    -0.1 8   21 204 
 BAR2 SZ I        2057 15.42        71.3 0.27                            21 204 
 BTL  SZ EP   1   2056 59.29                             170     0.012   25 313 
 GIR2 SZ EP   1   2056 59.26                             166    -0.212   36 344 
 GIR2 SZ ES   2   2057 15.37                             166     0.4 8   36 344 
 BRR  HZ EP   1   2057  0.99                             151    -0.112   77 299 
 BRR  HZ I        2057  1.27        91.0 0.17                            77 299 
 BRR  HE ES   1   2057 18.06                             151     0.112   77 299 
 PAM  SZ EP   1   2057  2.05                             151     0.212   77  35 
 PAM  SN ES   1   2057 19.40                             151     0.212   77  35 
 GRA  SZ EP   1   2057  4.76                             137    -0.311  128  15 
 GRA  SZ ES   1   2057 25.09                             137     0.211  128  15 
 GRA  SZ I        2057 26.21        19.3 0.30                           128  15 
 OCA  SZ EP   1   2057  8.18                             129    -0.110  164 352 
 OCA  SZ ES   2   2057 30.91                             129     0.2 7  164 352 
 OCA  SZ I        2057 36.07        24.5 0.21                           164 352 
 NOR  SZ EP   1   2057 15.03                             118    -0.5 9  237 236 
 NOR  SN ES   2   2057 42.85                             118    -0.8 6  237 236 
 CHI  HZ EP   1   2057 17.06                             117     0.0 9  247 196 
 CHI  HE ES   2   2057 46.41                             117     0.1 6  247 196 
 CHI  HZ I        2057 50.57         7.7 0.42                           247 196 
 HEL  HZ EP   2   2057 20.81                             115     0.6 6  276 257 
 HEL  HZ I        2057 58.72         7.7 0.40                           276 257 
 DBB  SZ EP   2   2057 27.38                             109    -0.3 5  344 275 
 TOL  SZ EP       2057 28.96                             109     1.010  344 226 
 PRA  HZ EP   1   2057 33.09                             107     0.1 7  391 210 
 PRA  HE ES   2   2058 15.18                             107     0.5 4  391 210 
                                                                                
