 2015 1227 2137 31.5 L   6.056 -73.563120.0  RSN  5 0.2 1.3LRSN                1
 GAP= 97        0.53       3.4     2.8  5.3 -0.2923E+01  0.5044E+00  0.9587E+01E
 Epicentro: GUEPSA - SANTANDER                                                 3
 ACTION:UPD 16-02-04 15:08 OP:cam  STATUS:               ID:20151227213731 L   I
 OLDACT:REG 15-12-28 02:43 OP:ar   STATUS:               ID:20151227212750     3
 2015-12-27-2127-50M.COL___334                                                 6
 STAT SP IPHASW D HRMM SECON CODA AMPLIT PERI AZIMU VELO AIN AR TRES W  DIS CAZ7
 RUS  HZ EP       2137 49.51                             154   -0.1810 56.1 109 
 RUS  HE ES       2138  3.77                             154   -0.1410 56.1 109 
 RUS  HZ I        2138  5.48         1.8 0.26            156           56.1 109 
 BAR2 EZ ES       2138  5.26                             147    0.2110 72.7  35 
 BAR2 EZ I        2138  5.96        12.3 0.40            152           72.7  35 
 PTB  HZ IP   9   2137 51.66                             134   -1.47 0  112 298 
 PTB  HN ES       2138  8.77                                    0.2110  112 298 
 PTB  HZ I        2138 10.69         4.7 0.16            136            112 298 
 NOR  HN ES       2138 17.09                             124   -0.17 9  155 249 
 NOR  HZ I        2138 20.43         5.2 0.44            126            155 249 
 CHI  HZ IP       2137 58.14                             124    0.04 9  159 187 
 CHI  HN ES       2138 19.15                             124    0.27 9  159 187 
 CHI  HZ I        2138 22.43         1.7 0.34            125            159 187 
                                                                                
