 2017 1127 2021 13.2 L   6.795 -73.181136.2  RSN  5 0.1 1.1LRSN                1
 GAP=132        0.42       2.2     2.4  3.6 -0.1479E+01  0.2647E+01 -0.8637E+00E
 Epicentro: LOS SANTOS - SANTANDER                                             3
 ACTION:UPD 17-12-12 20:01 OP:rebc STATUS:               ID:20171127202113 L   I
 OLDACT:UP  17-11-28 07:13 OP:edw  STATUS:               ID:20171127201457     3
 OLDACT:REG 17-11-28 06:46 OP:edw  STATUS:               ID:20171127201457     3
 2017-11-27-2018-00M.COL___495                                                 6
 STAT SP IPHASW D HRMM SECON CODA AMPLIT PERI AZIMU VELO AIN AR TRES W  DIS CAZ7
 BAR2 EZ ES       2021 46.01                             170   -0.0910 22.4 180 
 PAM  EZ EP       2021 34.45                             148   -0.1810 80.3  41 
 PAM  EN ES       2021 51.45                             148    0.1410 80.3  41 
 PAM  EZ I        2021 53.17         3.8 0.74            150           80.3  41 
 RUS  HZ EP       2021 35.95                             142   -0.0910  100 174 
 RUS  HN ES       2021 53.93                             142    0.1010  100 174 
 RUS  HZ I        2021 55.09         1.7 0.28            144            100 174 
 PTB  HZ EP       2021 39.31                             131    0.24 9  144 259 
 PTB  HN ES       2021 59.12                             131   -0.11 9  144 259 
 PTB  HZ I        2022  2.09         2.0 0.46            131            144 259 
 OCA  HN ES   2   2022  2.38                             127    0.02 5  160 355 
                                                                                
