 2017  627 2310 57.6 L   6.845 -73.141148.3  RSN 30 0.6 2.7LRSN                1
 GAP= 94        1.22       2.8     3.2  5.4 -0.1933E+00  0.1670E+01 -0.1068E+01E
 Epicentro: LOS SANTOS - SANTANDER                                             3
 ACTION:UPD 17-09-14 16:55 OP:jn   STATUS:               ID:20170627231057 L   I
 OLDACT:REG 17-06-28 03:36 OP:lv   STATUS:               ID:20170627230739     3
 2017-06-27-2308-00M.COL___370                                                 6
 STAT SP IPHASW D HRMM SECON CODA AMPLIT PERI AZIMU VELO AIN AR TRES W  DIS CAZ7
 BAR2 EZ EP       2311 17.69                             169    0.0810 28.3 189 
 BAR2 EZ ES       2311 32.63                             169   -0.6110 28.3 189 
 BAR2 EZ I        2311 34.08       131.4 0.27            168           28.3 189 
 BRR  HZ EP       2311 19.42                             153    0.5310 69.4 295 
 BRR  HE ES       2311 36.46                             153    0.9410 69.4 295 
 PTB  HZ EP       2311 24.82                             132   -0.06 9  149 257 
 PTB  HN ES       2311 45.61                             132   -0.57 9  149 257 
 PTB  HZ I        2311 48.46        32.2 0.13            131            149 257 
 TAM  HZ IP     D 2311 26.13                             131    0.61 9  156 107 
 TAM  HN ES       2311 47.70                             131    0.37 9  156 107 
 TAM  HZ I        2311 47.92        21.0 0.10            133            156 107 
 SPBC HZ EP       2311 26.74                             129    0.08 9  167 218 
 SPBC HN ES       2311 49.29                             129   -0.06 9  167 218 
 SPBC HZ I        2311 53.50        57.3 0.13            128            167 218 
 YPLC HZ IP     D 2311 28.13                             127    0.18 9  181 152 
 YPLC HN ES       2311 51.20                             127   -0.44 9  181 152 
 YPLC HZ I        2311 54.86        24.4 0.07            128            181 152 
 ZAR  HZ EP       2311 30.20                             123    0.16 9  203 291 
 ZAR  HN ES       2311 55.81                             123    0.44 9  203 291 
 ZAR  HZ I        2312  1.07        52.2 0.07            122            203 291 
 TABC EZ EP   4   2311 35.56                             119    1.61 0  234 210 
 TABC EZ ES       2312  1.37                             119   -0.96 8  234 210 
 TABC EZ I        2312  7.06        48.0 0.52            119            234 210 
 NOR  HZ EP       2311 33.80                             119    0.00 8  238 234 
 NOR  HN ES   4   2312  0.73                             119   -1.33 0  238 234 
 NOR  HZ I        2312  7.43        24.2 0.35            118            238 234 
 CHI  HZ EP       2311 35.92                             117   -0.02 8  254 195 
 CHI  HN ES       2312  5.11                             117   -0.76 8  254 195 
 CHI  HZ I        2312  9.08        49.9 0.84            117            254 195 
 ROSC BZ EP   4   2311 38.03                             117    1.71 0  257 211 
 ROSC BN ES       2312  5.59                             117   -0.95 8  257 211 
 ROSC BZ I        2312 12.55        59.7 0.07            117            257 211 
 HEL  HZ EP       2311 39.52                             115    1.42 8  274 255 
 HEL  HN ES       2312  9.85                             115    0.13 8  274 255 
 HEL  HZ I        2312 15.82                             115            274 255 
 URE  HZ EP   4   2311 37.54                             114   -1.07 0  283 291 
 URE  HN ES   4   2312  8.62                             114   -2.00 0  283 291 
 URE  HZ I        2312 19.47        29.1 0.10            114            283 291 
 GUY2CHZ EP       2311 41.99                             112    0.33 7  305 234 
 GUY2CHN ES   4   2312 14.66                             112   -1.40 0  305 234 
 GUY2CHZ I        2312 23.89        23.7 0.19                           305 234 
 VIL  EZ EP       2311 41.75                             112    0.09 7  308 191 
 VIL  EN ES       2312 15.75                             112   -0.30 7  308 191 
 VIL  EZ I        2312 18.51        55.6 0.20            112            308 191 
 PTGC HZ EP   4   2311 40.83                             112   -1.21 0  313 159 
 PTGC HE ES   4   2312 14.29                             112   -2.44 0  313 159 
 PTGC HZ I        2312 16.25        15.8 0.29            112            313 159 
 LL6C HZ EP       2311 42.31                             111   -0.50 7  320 357 
 LL6C HN ES       2312 18.01                             111   -0.09 7  320 357 
 LL6C HZ I        2312 25.02        17.3 0.67            112            320 357 
 ELA  HZ EP   1   2311 46.99                             110    2.05 5  333 229 
 ELA  HN ES   1   2312 23.14                             110    1.25 5  333 229 
 ELA  HZ I        2312 30.38        24.1 0.57            110            333 229 
 CBOC HZ EP   9   2311 46.22                             110    1.40 0  336 251 
 CBOC HN ES       2312 22.89                                   -0.19 7  336 251 
 DBB  EZ EP       2311 45.23                             110    0.06 7  340 273 
 DBB  EN ES       2312 21.66                             110   -0.63 7  340 273 
 DBB  EZ I        2312 23.19        13.0 0.36            110            340 273 
 ARGC HZ EP       2311 47.13                             109    0.33 6  355 340 
 ARGC HN ES   4   2312 26.71                             109    1.51 0  355 340 
 APAC HN ES   2   2312 33.42                             107   -0.54 3  397 287 
 ORTC HZ EP       2311 52.11                             106    0.03 6  400 216 
 ORTC HN ES       2312 33.78                             106   -0.82 6  400 216 
 ORTC HZ I        2312 39.15        17.0 0.08            107            400 216 
 SJC  HZ EP   4   2311 51.92                             106   -0.83 0  405 327 
 SJC  HN ES   4   2312 33.43                             106   -2.37 0  405 327 
 SJC  HZ I        2312 41.75         8.2 0.25            106            405 327 
 VALLCHZ EP       2311 51.98                             106   -0.73 6  405 358 
 VALLCHN ES   1   2312 34.96                             106   -0.76 4  405 358 
 PAL  HZ EP       2311 53.27                             106    0.11 6  409 239 
 PAL  HN ES   4   2312 34.55                             106   -1.98 0  409 239 
 CRJC HZ EP   4   2311 58.14                             104   -1.40 0  463   4 
 CRJC HN ES       2312 46.71                             104   -1.17 5  463   4 
 CRJC HZ I        2312 51.79        13.2 0.06            104            463   4 
 YOT  HZ EP       2312  0.80                             103   -0.32 5  476 228 
 YOT  HN ES       2312 50.52                             103   -0.16 5  476 228 
 SMAR HZ EP   1   2312  2.57                             103   -0.37 3  492 346 
 SMAR HN ES   4   2312 50.55                             103   -3.38 0  492 346 
 URI  HZ EP   1   2312  8.09                             101   -1.94 3  552  13 
 CONO HZ EP   4   2312 19.01                             100    0.50 0  616 216 
                                                                                
