 2010  227 2133 39.4 L   6.774 -73.090141.0  RSN  7 0.4 2.1LRSN                1
 GAP=241        0.70       6.1     7.7  7.9  0.1004E+02  0.2316E+02  0.1792E+02E
 Epicentro: LOS SANTOS - SANTANDER                                             3
 ACTION:UP  10-08-24 09:51 OP:vdl  STATUS:               ID:20100227213339 L   I
 2010-02-27-2120-00S.COL___094                                                 6
 STAT SP IPHASW D HRMM SECON CODA AMPLIT PERI AZIMU VELO SNR AR TRES W  DIS CAZ7
 BAR2 SZ EP   1   2133 58.20                             170    -0.2 7   23 207 
 BAR2 SZ ES   2   2134 12.61                             170    -0.7 5   23 207 
 BRR  HZ EP   1   2134  0.25                             149    -0.2 7   78 298 
 BRR  HE ES   2   2134 17.50                             149     0.7 5   78 298 
 BRR  HZ I        2134 21.38        23.0 0.16                            78 298 
 RUS  BZ EP   1   2134  2.26                             144    -0.2 7   97 180 
 RUS  BE ES   2   2134 21.27                             144     0.9 5   97 180 
 RUS  BZ I        2134 24.05        11.8 0.37                            97 180 
 CHI  HZ EP   1   2134 16.56                             116    -0.1 6  248 197 
 CHI  HZ I        2134 18.75         5.8 0.24                           248 197 
 CHI  HN ES   2   2134 46.17                             116     0.4 4  248 197 
 HEL  HZ EP   1   2134 20.21                             113     0.3 6  277 257 
 HEL  HE ES   2   2134 51.34                             113    -0.2 4  277 257 
 HEL  HZ I        2134 57.59         6.4 0.53                           277 257 
 RREF BZ EP   1   2134 25.89                             110     0.3 5  325 230 
 RREF BN ES   2   2135  1.18                             110    -0.5 3  325 230 
 RREF BZ I        2135  8.30         6.4 0.34                           325 230 
 PRA  HZ EP   1   2134 33.03                             106     0.2 4  393 211 
 PRA  HE ES   2   2135 13.85                             106    -0.6 3  393 211 
 PRA  HZ I        2135 19.89         4.8 0.48                           393 211 
                                                                                
