 2010  727 2045 16.8 L   6.781 -73.070143.8  RSN  9 0.2 2.2LRSN                1
 GAP=167        0.58       3.0     4.9  5.0 -0.2889E+01  0.1634E+01 -0.4434E-01E
 Epicentro: LOS SANTOS - SANTANDER                                             3
 ACTION:UPD 10-12-01 15:20 OP:pat  STATUS:               ID:20100727204516 L   I
 2010-07-27-2041-36S.COL___122                                                 6
 STAT SP IPHASW D HRMM SECON CODA AMPLIT PERI AZIMU VELO AIN AR TRES W  DIS CAZ7
 BAR2 SZ EP       2045 36.16                             170     0.010   24 211 
 BAR2 SZ ES   1   2045 50.84                             170    -0.5 7   24 211 
 BAR2 SZ I        2045 52.16        27.9 0.40                            24 211 
 GIR2 SZ EP   2   2045 36.21                             165    -0.1 5   36 338 
 BRR  HZ IP     C 2045 37.94                             149    -0.210   80 297 
 BRR  HZ I        2045 38.20        52.4 0.16                            80 297 
 BRR  HN ES   1   2045 55.14                             149     0.2 7   80 297 
 RUS  HZ EP       2045 40.21                             144     0.110   98 181 
 RUS  HE ES   1   2045 58.70                             144     0.3 7   98 181 
 RUS  HZ I        2046  0.50        12.0 0.32                            98 181 
 GUE  SZ EP   1   2045 41.09                             139    -0.2 7  117   8 
 GUE  SZ I        2046  1.70         6.3 0.06                           117   8 
 GRA  SZ EP   1   2045 42.07                             137     0.3 7  126  14 
 GRA  SZ ES   1   2046  1.58                             137     0.2 7  126  14 
 GRA  SZ I        2046  7.32        13.8 0.23                           126  14 
 HEL  HZ EP   2   2045 57.67                             114     0.0 4  280 257 
 HEL  HE ES   2   2046 29.95                             114     0.3 4  280 257 
 HEL  HZ I        2046 36.34         9.0 0.27                           280 257 
 GUY  SZ EP   2   2046  1.21                             111     0.3 4  307 236 
 GUY  SZ I        2046 44.72        26.1 0.40                           307 236 
 PRA  HZ EP   2   2046 10.14                             106    -0.3 3  394 211 
 PRA  HN ES   2   2046 52.43                             106     0.0 3  394 211 
 PRA  HZ I        2046 56.66        11.9 0.46                           394 211 
                                                                                
