 2012  927 2255 39.5 L   7.012 -72.942  4.3  RSN  4 0.3 1.3LRSN                1
 GAP=151        0.80       2.2     2.6  5.7 -0.2539E+01  0.1438E+01  0.4937E+00E
 Epicentro: SANTA BARBARA - SANTANDER                                          3
 ACTION:UPD 12-10-22 14:21 OP:ep   STATUS:               ID:20120927225539 L   I
 2012-09-27-2250-00M.COL___213                                                 6
 STAT SP IPHASW D HRMM SECON CODA AMPLIT PERI AZIMU VELO AIN AR TRES W  DIS CAZ7
 PAM  SZ EP       2255 47.78                              47    0.3310 45.0  37 
 PAM  SZ I        2255 48.01        28.4 0.13                          45.0  37 
 PAM  SN ES       2255 53.22                              47   -0.4110 45.0  37 
 BAR2 SZ EP   1   2255 48.70                              47    0.23 7 53.5 210 
 BAR2 SZ ES       2255 55.09                              47   -0.3610 53.5 210 
 BRR  HZ EP       2255 53.44                              47    0.3410 85.7 277 
 BRR  HZ I        2255 54.52        16.0 0.31                          85.7 277 
 BRR  HN ES       2256  3.50                              47   -0.1910 85.7 277 
 RUS  HZ EP   1   2255 59.99                              47    0.45 7  125 187 
 RUS  HE ES   1   2256 15.00                              47   -0.15 7  125 187 
 RUS  HZ I        2256 16.34         3.3 0.25                           125 187 
                                                                                
