 2010 1227 2219 36.2 L   6.736 -73.184143.6  RSN  8 0.3 3.4LRSN                1
 GAP=276        0.65       6.3     5.0  6.2 -0.7493E+01  0.6232E+01  0.1192E+02E
 Epicentro: VILLANUEVA - SANTANDER                                             3
 ACTION:UP  11-01-14 15:27 OP:pat  STATUS:               ID:20101227221936 L   I
 2010-12-27-2214-59S.COL___122                                                 6
 STAT SP IPHASW D HRMM SECON CODA AMPLIT PERI AZIMU VELO SNR AR TRES W  DIS CAZ7
 BAR2 SZ IP       2219 55.24                             173    -0.210   16 180 
 BAR2 SZ ES   1   2220 10.49                             173     0.1 7   16 180 
 BAR2 SZ I        2220 13.32      1074.0 0.48                            16 180 
 RUS  HE ES   2   2220 17.29                             145     0.1 5   94 173 
 RUS  HZ I        2220 19.16       199.1 0.25                            94 173 
 YOP  SZ EP       2220  5.60                             126     0.0 9  175 151 
 YOP  SZ I        2220  6.50       151.3 0.34                           175 151 
 YOP  SE ES   2   2220 28.79                             126     0.2 4  175 151 
 NOR  SZ EP   1   2220 10.89                             119    -0.1 6  227 235 
 NOR  SN ES   1   2220 38.26                             119     0.1 6  227 235 
 ROSC BZ EP   1   2220 14.24                             117     1.0 6  244 211 
 ROSC BE ES   1   2220 41.98                             117    -0.2 6  244 211 
 ROSC BZ I        2220 51.24       525.3 0.50                           244 211 
 TOL  SZ EP   2   2220 23.18                             109    -0.2 3  335 225 
 PRA  HZ EP   1   2220 28.27                             106    -0.4 4  384 210 
 PRA  HE ES   1   2221  9.06                             106    -0.5 4  384 210 
 PCON HZ EP   1   2220 56.02                              99     0.5 2  604 216 
 PCON HZ I        2222 31.05        18.6 0.45                           604 216 
                                                                                
