 2012 1127 2022 37.9 L   6.803 -73.141146.0  RSN 19 0.4 2.7LRSN                1
 GAP= 71        0.72       2.4     2.7  4.4 -0.2965E+00  0.4239E+01  0.2151E+01E
 Epicentro: LOS SANTOS - SANTANDER                                             3
 ACTION:UPD 12-12-05 15:36 OP:}ep  STATUS:               ID:20121127202237 L   I
 2012-11-27-2020-00M.COL___233                                                 6
 STAT SP IPHASW D HRMM SECON CODA AMPLIT PERI AZIMU VELO AIN AR TRES W  DIS CAZ7
 BAR2 SZ EP       2022 57.44                             170   -0.0910 23.7 191 
 BAR2 SZ ES   1   2023 12.93                             170    0.06 7 23.7 191 
 BAR2 SZ I        2023 14.19       157.0 0.28                          23.7 191 
 GIR2 SZ EP   1   2022 57.49                             167   -0.07 7 31.1 349 
 GIR2 SZ ES   1   2023 13.33                             167    0.40 7 31.1 349 
 GIR2 SZ I        2023 14.64        50.7 0.34                          31.1 349 
 PAM  SZ EP       2023  0.24                             151    0.1710 76.8  39 
 PAM  SN ES   1   2023 17.51                             151    0.11 7 76.8  39 
 PAM  SZ I        2023 19.65        88.5 0.50                          76.8  39 
 RUS  HZ EP     D 2023  1.25                             144   -0.4110  101 176 
 RUS  HE ES   1   2023 20.11                             144   -0.11 7  101 176 
 RUS  HZ I        2023 21.09        42.2 0.38                           101 176 
 PTB  HZ EP   1   2023  4.34                             132   -0.56 7  148 259 
 PTB  HE ES   1   2023 25.40                             132   -0.59 7  148 259 
 PTB  HZ I        2023 31.34        92.2 0.24                           148 259 
 TAM  HZ EP   1   2023  5.56                             131    0.04 7  155 105 
 TAM  HE ES   1   2023 27.25                             131    0.16 7  155 105 
 OCA  HE ES   1   2023 27.80                             130   -0.45 7  160 353 
 OCA  HZ I        2023 33.45        64.9 0.16                           160 353 
 ZAR  HZ EP   1   2023  9.87                             122   -0.49 6  204 292 
 ZAR  HN ES   1   2023 35.56                             122   -0.15 6  204 292 
 ZAR  HZ I        2023 41.89        68.8 0.20                           204 292 
 CTAB SZ EP   1   2023 14.68                             119    1.00 6  230 211 
 NOR  HZ EP   1   2023 13.54                             118   -0.13 6  235 234 
 NOR  HN ES   1   2023 41.87                             118    0.27 6  235 234 
 NOR  HZ I        2023 45.18        46.9 0.22                           235 234 
 SML  HZ EP   1   2023 14.42                             117   -0.08 6  244 335 
 SML  HE ES   1   2023 43.80                             117    0.73 6  244 335 
 CHI  HZ EP   1   2023 15.35                             117   -0.27 6  249 195 
 CHI  HN ES   1   2023 44.88                             117   -0.19 6  249 195 
 CHI  HZ I        2023 50.79        24.5 0.56                           249 195 
 ROSC BZ EP   4   2023 16.89                             117    0.84 0  253 211 
 ROSC BE ES   4   2023 46.77                             117    0.93 0  253 211 
 ROSC BZ I        2023 51.96        56.6 0.40                           253 211 
 HEL  HZ EP   1   2023 18.52                             115    0.37 6  273 256 
 HEL  HN ES   1   2023 50.25                             115    0.67 6  273 256 
 HEL  HZ I        2024  3.14        12.8 0.34                           273 256 
 RREF HZ EP   1   2023 24.90                             111    0.82 5  322 229 
 RREF HN ES   4   2024  2.17                             111    2.04 0  322 229 
 RREF HZ I        2024  5.96        33.4 0.28                           322 229 
 DBB  SZ EP   1   2023 25.00                             109   -0.40 5  340 274 
 MON  HZ EP   4   2023 24.62                             109   -2.28 0  354 308 
 MON  HN ES   4   2024  3.06                             109   -2.09 0  354 308 
 MON  HZ I        2024  5.66        15.8 0.44                           354 308 
 ANIL HZ EP   1   2023 28.01                             108    0.27 5  358 225 
 ANIL HE ES   1   2024  7.10                             108    0.45 5  358 225 
 ANIL HZ I        2024 14.03        27.3 0.46                           358 225 
 PRA  HZ EP   1   2023 30.98                             106   -0.47 4  393 210 
 PRA  HN ES   1   2024 13.37                             106    0.12 4  393 210 
 PRA  HZ I        2024 18.93        33.8 0.60                           393 210 
                                                                                
