 2013  127 2303 19.2 L   6.795 -73.164145.5  RSN  8 0.4 1.7LRSN                1
 GAP=134        0.87       3.8     4.8  7.3  0.4074E+00  0.3548E+01  0.5278E+01E
 Epicentro: LOS SANTOS - SANTANDER                                             3
 ACTION:UPD 13-02-15 09:17 OP:ep   STATUS:               ID:20130127230319 L   I
 2013-01-27-2300-00M.COL___239                                                 6
 STAT SP IPHASW D HRMM SECON CODA AMPLIT PERI AZIMU VELO AIN AR TRES W  DIS CAZ7
 BAR2 SZ EP       23 3 38.66                             171   -0.1510 22.5 185 
 BAR2 SZ ES   1   23 3 54.12                             171    0.04 7 22.5 185 
 BAR2 SZ I        23 3 56.20        18.8 0.26            171           22.5 185 
 BRR  HZ EP       23 3 40.66                             153    0.4010 69.7 300 
 BRR  HE ES   1   23 3 57.48                             153    0.81 7 69.7 300 
 BRR  HZ I        23 4  1.65         8.4 0.42            153           69.7 300 
 PAM  SZ EP       23 3 41.62                             150    0.1010 79.1  40 
 PAM  SN ES   1   23 3 59.14                             150    0.24 7 79.1  40 
 PAM  SZ I        23 4  0.72        10.9 0.46            154           79.1  40 
 RUS  HZ EP       23 3 42.78                             144   -0.1410  100 175 
 RUS  HN ES   1   23 4  0.84                             144   -0.56 7  100 175 
 RUS  HZ I        23 4  2.43         7.2 0.32            146            100 175 
 PTB  HZ EP   1   23 3 46.18                             132    0.20 7  146 259 
 PTB  HN ES   1   23 4  6.31                             132   -0.54 7  146 259 
 PTB  HZ I        23 4  8.72         4.8 0.16            133            146 259 
 OCA  HN ES   1   23 4  8.72                             129   -0.92 7  161 354 
 OCA  HZ I        23 4 12.93         6.5 0.16            132            161 354 
 ZAR  HN ES   1   23 4 16.41                             122   -0.23 6  202 293 
 ZAR  HZ I        23 4 19.19         6.3 0.10            124            202 293 
 CHI  HZ EP   1   23 3 57.03                             117    0.24 6  248 195 
 CHI  HN ES   1   23 4 26.38                             117    0.29 6  248 195 
 CHI  HZ I        23 4 31.90         1.2 0.20            119            248 195 
                                                                                
