 2017 1227 2132 23.2 L   6.759 -73.188135.9  RSN  4 0.1 1.5LRSN                1
 GAP=138        0.43       3.7     2.2  3.8 -0.2849E+01  0.3906E+01 -0.3761E+01E
 Epicentro: LOS SANTOS - SANTANDER                                             3
 ACTION:UPD 18-01-04 13:24 OP:rebc STATUS:               ID:20171227213223 L   I
 OLDACT:UP  17-12-28 05:22 OP:edw  STATUS:               ID:20171227212743d    3
 OLDACT:DUP 17-12-28 05:18 OP:edw  STATUS:               ID:20171227212743d    3
 2017-12-27-2128-00M.COL___448                                                 6
 STAT SP IPHASW D HRMM SECON CODA AMPLIT PERI AZIMU VELO AIN AR TRES W  DIS CAZ7
 BAR2 EZ EP       2132 41.55                             172    0.0410 18.5 178 
 BAR2 EZ ES       2132 56.01                             172    0.1910 18.5 178 
 BAR2 EZ I        2132 58.42         8.8 0.30            174           18.5 178 
 PAM  EZ EP       2132 44.79                             147    0.0410 83.8  40 
 PAM  EE ES       2133  1.43                             147   -0.1710 83.8  40 
 PAM  EZ I        2133  4.18         5.0 0.38            149           83.8  40 
 PTB  HZ EP       2132 48.72                             131   -0.12 9  142 260 
 PTB  HN ES       2133  8.65                             131   -0.21 9  142 260 
 PTB  HZ I        2133 14.38         3.6 0.34            132            142 260 
 ZAR  HZ EP       2132 54.84                             120    0.12 9  202 294 
 ZAR  HN ES       2133 19.47                             120    0.14 9  202 294 
 ZAR  HZ I        2133 26.47         5.7 0.48            122            202 294 
                                                                                
