 2017 1027 2034 33.9 L   6.793 -73.160145.9  RSN  5 0.3 1.2LRSN                1
 GAP=135        0.73       3.4     3.4  7.1 -0.1671E+01  0.6971E+01  0.3733E+00E
 Epicentro: LOS SANTOS - SANTANDER                                             3
 ACTION:UPD 17-11-07 19:37 OP:rebc STATUS:               ID:20171027203433 L   I
 OLDACT:DUP 17-10-28 03:52 OP:lv   STATUS:               ID:20171027202741d    3
 2017-10-27-2028-00M.COL___459                                                 6
 STAT SP IPHASW D HRMM SECON CODA AMPLIT PERI AZIMU VELO AIN AR TRES W  DIS CAZ7
 PAM  EZ EP       2034 56.05                             150   -0.1810 79.0  40 
 PAM  EN ES       2035 13.57                             150   -0.0710 79.0  40 
 RUS  HZ EP       2034 57.65                             144    0.0310 99.9 175 
 RUS  HN ES       2035 16.45                             144    0.3410 99.9 175 
 RUS  HZ I        2035 18.72         2.6 0.42            145           99.9 175 
 PTB  HZ EP       2035  0.91                             132    0.18 9  146 259 
 PTB  HN ES       2035 21.14                             132   -0.51 9  146 259 
 PTB  HZ I        2035 23.46         1.8 0.06            134            146 259 
 SPBC HZ EP       2035  2.14                             129   -0.12 9  162 219 
 SPBC HN ES       2035 24.25                             129   -0.13 9  162 219 
 ZAR  HN ES       2035 31.99                             122    0.52 9  203 293 
                                                                                
