 2017  827 2114 35.1 L   6.795 -73.101139.5  RSN  4 0.4 1.4LRSN                1
 GAP=143        0.97       5.3     7.4  8.6 -0.1814E+01 -0.2461E+01 -0.3988E+01E
 Epicentro: LOS SANTOS - SANTANDER                                             3
 OLDACT:UP  17-08-28 05:31 OP:dnl  STATUS:               ID:20170827210740     3
 OLDACT:UP  17-08-28 05:30 OP:dnl  STATUS:               ID:20170827210740     3
 OLDACT:UP  17-08-28 05:29 OP:dnl  STATUS:               ID:20170827210740     3
 OLDACT:UP  17-08-28 05:28 OP:dnl  STATUS:               ID:20170827210740     3
 OLDACT:REG 17-08-28 04:53 OP:dnl  STATUS:               ID:20170827210740     3
 ACTION:UPD 17-09-04 20:25 OP:rebc STATUS:               ID:20170827211435 L   I
 OLDACT:UP  17-08-28 13:42 OP:nlst STATUS:               ID:20170827211435 L   3
 OLDACT:DUP 17-08-28 05:33 OP:dnl  STATUS:               ID:20170827210741d    3
 OLDACT:UP  17-08-28 05:31 OP:dnl  STATUS:               ID:20170827210740     3
 2017-08-27-2108-00M.COL___417                                                 6
 STAT SP IPHASW D HRMM SECON CODA AMPLIT PERI AZIMU VELO AIN AR TRES W  DIS CAZ7
 BAR2 EZ EP       2114 53.86                             170   -0.1310 24.2 202 
 BAR2 EZ ES       2115  8.03                             170   -0.6910 24.2 202 
 BAR2 EZ I        2115 10.10         8.4 0.24            171           24.2 202 
 PAM  EZ EP       2114 56.59                             151    0.1110 74.7  36 
 PAM  EN ES       2115 13.31                             151    0.1510 74.7  36 
 PAM  EZ I        2115 15.77         2.6 0.26            153           74.7  36 
 BRR  HZ EP       2114 55.49                             150   -0.3610 75.8 297 
 BRR  HN ES       2115 12.49                             150    0.4610 75.8 297 
 BRR  HZ I        2115 16.30         9.4 0.14            150           75.8 297 
 RUS  HZ EP   2   2114 58.30                             143    0.12 5 99.9 179 
 RUS  HE ES       2115 16.61                             143    0.4310 99.9 179 
 RUS  HZ I        2115 17.82         3.7 0.26            146           99.9 179 
                                                                                
