 2014  427 2046  3.6 L   6.769 -73.138143.0  RSN  4 0.3 1.1LRSN                1
 GAP=139        0.89       4.8     4.6  7.9 -0.2408E+01  0.3533E+01  0.4966E+01E
 Epicentro: LOS SANTOS - SANTANDER                                             3
 ACTION:UPD 14-05-13 23:11 OP:nd   STATUS:               ID:20140427204603 L   I
 OLDACT:REG 14-04-28 05:20 OP:stll STATUS:               ID:20140427203816     3
 2014-04-27-2038-16M.COL___251                                                 6
 STAT SP IPHASW D HRMM SECON CODA AMPLIT PERI AZIMU VELO AIN AR TRES W  DIS CAZ7
 BRR  HZ EP       2046 24.94                             151    0.3410 73.6 301 
 BRR  HN ES       2046 41.43                             151    0.4610 73.6 301 
 PAM  SZ EP       2046 25.85                             150    0.1910 79.5  38 
 PAM  SZ I        2046 26.07         4.2 0.26            154           79.5  38 
 PAM  SE ES       2046 42.36                             150   -0.5010 79.5  38 
 RUS  HZ EP       2046 26.87                             144    0.0310 97.1 176 
 RUS  HN ES       2046 45.07                             144    0.1110 97.1 176 
 RUS  HZ I        2046 47.39         1.1 0.38            144           97.1 176 
 PTB  HZ EP       2046 30.06                             131   -0.31 9  148 260 
 PTB  HN ES       2046 50.82                             131   -0.42 9  148 260 
 PTB  HZ I        2046 58.48         2.3 0.50            130            148 260 
                                                                                
