 2011  927 2216  2.2 L   6.557 -73.525112.3  RSN 15 0.4 2.9LRSN                1
 GAP= 53        0.75       2.4     2.9  5.1 -0.9479E+00  0.6003E+01  0.2621E+01E
 Epicentro: EL CARMEN DE CHUCURI - SANTANDER                                   3
 ACTION:UPD 12-07-13 16:00 OP:ep   STATUS:               ID:20110927221602 L   I
 2011-09-27-2214-29S.COL___165                                                 6
 STAT SP IPHASW D HRMM SECON CODA AMPLIT PERI AZIMU VELO AIN AR TRES W  DIS CAZ7
 BAR2 SZ IP       2216 18.63                             160    0.2610 38.1  84 
 BAR2 SZ ES   1   2216 30.92                             160   -0.04 7 38.1  84 
 BAR2 SZ I        2216 32.69       660.4 0.42                          38.1  84 
 BTL  SZ EP       2216 19.13                             155    0.2410 49.1  35 
 BRR  HZ EP       2216 19.36                             148   -0.0710 64.2 341 
 BRR  HN ES   1   2216 33.31                             148    0.48 7 64.2 341 
 BRR  HZ I        2216 38.15       107.0 0.42                          64.2 341 
 RUS  HZ IP     C 2216 21.66                             139   -0.2010 88.3 146 
 RUS  HE ES   1   2216 36.72                             139   -0.45 7 88.3 146 
 PAM  SZ EP       2216 25.06                             128   -0.1010  126  46 
 PAM  SN ES   1   2216 42.75                             128   -0.29 7  126  46 
 ZAR  HZ EP       2216 30.33                             117    0.23 9  180 305 
 ZAR  HZ I        2216 54.96       143.9 0.40                           180 305 
 YOP  SZ EP       2216 30.70                             117    0.38 9  181 137 
 YOP  SE ES   2   2216 52.30                             117    0.09 4  181 137 
 NOR  SZ EP       2216 30.25                             117   -0.46 9  185 234 
 NOR  SN ES   1   2216 52.11                             117   -0.80 7  185 234 
 OCA  SZ EP       2216 31.17                             116    0.07 9  187   7 
 OCA  SZ ES   2   2216 53.60                             116   -0.01 4  187   7 
 OCA  SZ I        2217  2.58        76.6 0.43                           187   7 
 CHI  HZ EP       2216 34.68                             113    0.25 8  214 186 
 CHI  HN ES   2   2217  0.37                             113    0.84 4  214 186 
 HEL  HZ EP       2216 35.46                             112   -0.15 8  225 260 
 HEL  HN ES   2   2217  1.16                             112   -0.48 4  225 260 
 VIL  SZ EP   2   2216 40.90                             107    0.33 4  271 184 
 RREF HZ EP   2   2216 41.68                             107    0.31 4  273 228 
 RREF HN ES   2   2217 12.81                             107    0.91 4  273 228 
 RREF HZ I        2217 16.78        24.7 0.28                           273 228 
 ANIL HZ EP   1   2216 44.94                             104   -0.29 5  309 222 
 ANIL HN ES   1   2217 19.56                             104    0.80 5  309 222 
 ANIL HZ I        2217 28.79        49.3 0.36                           309 222 
 PRA  HZ EP       2216 48.74                             102   -0.90 6  349 206 
 PRA  HN ES   2   2217 27.04                             102    0.44 3  349 206 
                                                                                
