 2013  627 2315 25.3 L   5.797 -73.919108.8  RSN  4 0.2 1.3LRSN                1
 GAP=119        0.45       4.8     1.9  6.0 -0.2921E+01  0.1536E+01  0.1700E+01E
 Epicentro: ALBANIA - SANTANDER                                                3
 ACTION:UPD 14-01-08 09:57 OP:ep   STATUS:               ID:20130627231525 L   I
 OLDACT:UP  13-06-27 23:23 OP:cam  STATUS:               ID:20130627230959     3
 OLDACT:REG 13-06-27 22:45 OP:cam  STATUS:               ID:20130627230959     3
 2013-06-27-2309-59M.COL___266                                                 6
 STAT SP IPHASW D HRMM SECON CODA AMPLIT PERI AZIMU VELO AIN AR TRES W  DIS CAZ7
 RUS  HZ EP       2315 45.28                             137    0.2610 93.2  83 
 RUS  HZ I        2315 45.40         2.1 0.34             47           93.2  83 
 RUS  HN ES       2316  0.27                             137   -0.1210 93.2  83 
 PTB  HZ EP   1   2315 44.92                             133   -0.16 7  101 324 
 PTB  HZ I        2316  3.70         3.6 0.20             47            101 324 
 NOR  HZ EP       2315 45.71                             131   -0.0510  108 256 
 NOR  HZ I        2315 46.44        13.7 0.14             47            108 256 
 NOR  HN ES       2316  1.77                             131    0.0810  108 256 
 CHI  HZ EP   1   2315 48.22                             126   -0.15 7  131 171 
                                                                                
