 2015 1027 2336 45.6 L   6.694 -73.148135.9  RSN  9 0.5 1.9LRSN                1
 GAP=161        1.09       4.7     4.9  7.3 -0.2142E+01  0.1318E+02  0.1177E+02E
 Epicentro: VILLANUEVA - SANTANDER                                             3
 ACTION:UPD 15-12-22 20:43 OP:cam  STATUS:               ID:20151027233645 L   I
 OLDACT:REG 15-10-28 03:27 OP:drio STATUS:               ID:20151027232750     3
 2015-10-27-2327-50M.COL___310                                                 6
 STAT SP IPHASW D HRMM SECON CODA AMPLIT PERI AZIMU VELO AIN AR TRES W  DIS CAZ7
 BAR2 EZ EP       2337  4.23                             175    0.3910 11.8 199 
 BAR2 EZ ES       2337 18.68                             175    0.6010 11.8 199 
 BAR2 EZ I        2337 20.01        16.7 0.18            174           11.8 199 
 BRR  HZ EP       2337  6.13                             149    0.0810 77.3 306 
 BRR  HE ES       2337 22.23                             149    0.2110 77.3 306 
 BRR  HZ I        2337 27.43        15.5 0.28            148           77.3 306 
 PAM  EZ EP       2337  7.11                             146   -0.2810 86.9  35 
 PAM  EE ES       2337 23.74                             146   -0.6610 86.9  35 
 PAM  EZ I        2337 26.33        21.7 0.60            149           86.9  35 
 ZAR  HZ EP       2337 18.15                             120    0.27 8  209 295 
 ZAR  HN ES       2337 42.75                             120   -0.32 8  209 295 
 ZAR  HZ I        2337 49.07        10.9 0.32            121            209 295 
 CHI  HZ EP       2337 22.01                             116    0.52 8  237 196 
 CHI  HN ES       2337 48.62                             116   -0.89 8  237 196 
 SML  HZ EP   4   2337 20.79                             114   -2.06 0  254 336 
 SML  HE ES   4   2337 49.03                             114   -2.89 0  254 336 
 SML  HZ I        2337 54.37         9.8 0.10            116            254 336 
 HEL  HZ EP       2337 24.90                             113   -0.08 8  269 258 
 HEL  HE ES       2337 55.28                             113   -0.43 8  269 258 
 HEL  HZ I        2337 58.42         3.6 0.24            115            269 258 
 GUY2CHZ EP       2337 28.64                             111    0.67 7  294 237 
 GUY2CHN ES       2338  0.76                             111   -0.27 7  294 237 
 GUY2CHZ I        2338  9.42         3.4 0.26                           294 237 
 MON  HZ EP   4   2337 31.53                             106   -3.53 0  361 310 
 MON  HN ES   4   2338 10.82                             106   -2.84 0  361 310 
 MON  HZ I        2338 11.49         2.2 0.16            108            361 310 
 SJC  HZ EP   4   2337 37.97                             104   -4.02 0  419 328 
                                                                                
