 2015 1227 2227 39.9 L   6.785 -73.144147.8  RSN  7 0.3 1.4LRSN                1
 GAP=137        0.67       2.8     3.1  4.5  0.7694E+00  0.2771E+01  0.2991E+01E
 Epicentro: LOS SANTOS - SANTANDER                                             3
 ACTION:UPD 16-02-04 15:08 OP:cam  STATUS:               ID:20151227222739 L   I
 OLDACT:DUP 15-12-28 04:33 OP:ar   STATUS:               ID:20151227221751d    3
 OLDACT:REG 15-12-28 02:47 OP:ar   STATUS:               ID:20151227221750     3
 2015-12-27-2217-50M.COL___334                                                 6
 STAT SP IPHASW D HRMM SECON CODA AMPLIT PERI AZIMU VELO AIN AR TRES W  DIS CAZ7
 BAR2 EZ ES       2228 15.18                             171   -0.0110 21.8 191 
 BAR2 EZ I        2228 15.78        12.2 0.20            169           21.8 191 
 BRR  HZ EP       2228  1.40                             153    0.1110 72.2 300 
 BRR  HN ES       2228 18.52                             153    0.5210 72.2 300 
 BRR  HZ I        2228 19.10         4.2 0.14            151           72.2 300 
 PAM  EZ IP     C 2228  2.29                             151   -0.0810 78.5  39 
 PAM  EN ES       2228 19.74                             151   -0.1710 78.5  39 
 PAM  EZ I        2228 21.47         3.2 0.48            152           78.5  39 
 RUS  HZ EP       2228  3.61                             145   -0.0910 99.0 176 
 RUS  HN ES       2228 22.23                             145   -0.0710 99.0 176 
 RUS  HZ I        2228 23.18         2.9 0.24            143           99.0 176 
 PTB  HZ EP       2228  7.36                             132    0.37 9  148 259 
 PTB  HE ES       2228 27.72                             132   -0.43 9  148 259 
 PTB  HZ I        2228 28.87         2.5 0.22            131            148 259 
 ZAR  HE ES       2228 37.69                             123   -0.32 9  205 293 
 ZAR  HZ I        2228 43.53         4.0 0.28            122            205 293 
 CHI  HZ EP       2228 17.50                             118   -0.02 8  247 195 
 CHI  HN ES       2228 47.03                             118    0.15 8  247 195 
 CHI  HZ I        2228 54.84         1.3 0.56            117            247 195 
                                                                                
