 2012  227 2245 22.1 L   6.770 -73.133147.3  RSN 10 0.4 2.0LRSN                1
 GAP=140        0.67       3.9     4.4  6.2 -0.1777E+01  0.8008E+01  0.1619E+01E
 ACTION:UP  12-03-07 16:34 OP:epov STATUS:               ID:20120227224522 L   I
 2012-02-27-2240-00M.COL___191                                                 6
 STAT SP IPHASW D HRMM SECON CODA AMPLIT PERI AZIMU VELO AIN AR TRES W  DIS CAZ7
 BAR2 SZ EP       2245 41.31                             172   -0.5710 20.4 196 
 BAR2 SZ ES   2   2245 57.27                             172   -0.02 5 20.4 196 
 BAR2 SZ I        2245 58.14        18.5 0.36                          20.4 196 
 BRR  HZ EP       2245 43.94                             152    0.3410 74.0 300 
 BRR  HZ I        2245 44.17        41.8 0.11                          74.0 300 
 BRR  HN ES   2   2246  0.81                             152    0.46 5 74.0 300 
 PAM  SZ EP       2245 44.73                             150    0.1310 79.1  37 
 PAM  SE ES   2   2246  2.09                             150   -0.05 5 79.1  37 
 RUS  HZ EP   1   2245 45.90                             145    0.12 7 97.2 177 
 RUS  HN ES   1   2246  4.38                             145    0.14 7 97.2 177 
 RUS  HZ I        2246  5.43         8.9 0.31                          97.2 177 
 PTB  HZ EP   1   2245 48.71                             132   -0.57 7  149 260 
 PTB  HN ES   2   2246  9.76                             132   -0.71 5  149 260 
 ZAR  HZ EP   1   2245 55.35                             122    0.42 6  207 293 
 ZAR  HN ES   2   2246 20.15                             122   -0.37 4  207 293 
 ZAR  HZ I        2246 26.07         9.1 0.20                           207 293 
 NOR  SZ EP   2   2245 57.90                             119    0.04 4  234 235 
 NOR  SE ES   2   2246 26.39                             119    0.66 4  234 235 
 CHI  HZ EP   1   2245 59.86                             118    0.26 6  246 196 
 CHI  HZ I        2246 48.31         7.8 0.31                           246 196 
 RREF HZ EP   2   2246  7.55                             111   -0.66 3  321 230 
 RREF HN ES   2   2246 44.68                             111    0.53 3  321 230 
 RREF HZ I        2246 53.75         5.6 0.30                           321 230 
 PRA  HZ EP   2   2246 15.05                             107   -0.39 3  390 210 
 PRA  HN ES   2   2246 57.30                             107    0.27 3  390 210 
                                                                                
