 2012 1127 2121 13.7 L   6.741 -73.167153.2  RSN  4 0.2 1.4LRSN                1
 GAP=179        0.38       3.5     3.4  4.9  0.3328E+01  0.4158E+01  0.1979E+01E
 Epicentro: VILLANUEVA - SANTANDER                                             3
 ACTION:UPD 12-12-05 15:36 OP:}ep  STATUS:               ID:20121127212113 L   I
 2012-11-27-2120-00M.COL___234                                                 6
 STAT SP IPHASW D HRMM SECON CODA AMPLIT PERI AZIMU VELO AIN AR TRES W  DIS CAZ7
 GIR2 SZ EP   1   2121 34.28                             166   -0.18 7 37.4 356 
 GIR2 SZ ES   1   2121 50.68                             166    0.05 7 37.4 356 
 GIR2 SZ I        2121 50.79         8.9 0.42                          37.4 356 
 RUS  HZ EP   1   2121 38.05                             147    0.26 7 94.3 174 
 RUS  HZ I        2121 55.80         2.4 0.52                          94.3 174 
 RUS  HE ES   1   2121 56.48                             147   -0.08 7 94.3 174 
 PTB  HZ EP   1   2121 40.90                             134   -0.11 7  144 261 
 PTB  HN ES   1   2122  2.25                             134   -0.03 7  144 261 
 PTB  HZ I        2122  4.06         2.1 0.20                           144 261 
 ZAR  HE ES   2   2122 12.64                             124    0.21 4  204 294 
                                                                                
