 2017  727 2252 12.5 L   6.808 -73.076140.6  RSN  5 0.1 1.8LRSN                1
 GAP=249        0.75       6.0     5.0  6.7  0.1283E+02  0.5656E+01 -0.1879E+01E
 Epicentro: LOS SANTOS - SANTANDER                                             3
 ACTION:UPD 17-08-30 15:37 OP:rebc STATUS:               ID:20170727225212 L   I
 OLDACT:DUP 17-07-28 03:44 OP:lv   STATUS:               ID:20170727224740d    3
 2017-07-27-2248-00M.COL___389                                                 6
 STAT SP IPHASW D HRMM SECON CODA AMPLIT PERI AZIMU VELO AIN AR TRES W  DIS CAZ7
 BAR2 EZ ES       2252 46.34                             169   -0.1010 26.7 206 
 RUS  HZ EP       2252 35.68                             142   -0.0910  101 180 
 RUS  HN ES       2252 54.03                             142    0.0910  101 180 
 PTB  HZ EP   9   2252 39.03                             129   -0.72 0  156 259 
 PTB  HN ES       2252 59.60                                   -0.71 9  156 259 
 PTB  HZ I        2253  1.94         7.9 0.05            128            156 259 
 ZAR  HE ES       2253 10.98                             120    0.07 8  211 291 
 NOR  HN ES       2253 16.95                             116    0.08 8  242 235 
                                                                                
