 2012  627 2214 36.9 L   6.654 -73.139151.0  RSN  5 0.3 1.3LRSN                1
 GAP=227        0.61       7.8     6.2  8.2  0.2415E+02  0.1505E+00 -0.4455E+01E
 Epicentro: VILLANUEVA - SANTANDER                                             3
 ACTION:UPD 12-08-06 17:53 OP:ep   STATUS:               ID:20120627221436 L   I
 2012-06-27-2210-00M.COL___200                                                 6
 STAT SP IPHASW D HRMM SECON CODA AMPLIT PERI AZIMU VELO AIN AR TRES W  DIS CAZ7
 BAR2 SZ EP   1   2214 57.51                             177    0.51 7 8.34 215 
 BAR2 SZ I        2214 57.92         4.8 0.11                          8.34 215 
 BAR2 SZ ES   2   2215 12.27                             177   -0.38 5 8.34 215 
 BRR  HZ EP   1   2214 59.39                             150    0.18 7 80.7 308 
 BRR  HN ES   2   2215 16.32                             150   -0.26 5 80.7 308 
 RUS  HZ EP   1   2214 59.72                             150   -0.42 7 84.4 176 
 RUS  HN ES   2   2215 18.54                             150    0.30 5 84.4 176 
 RUS  HZ I        2215 22.59         2.2 0.38                          84.4 176 
 PTB  HZ EP   1   2215  3.95                             134   -0.25 7  146 265 
 PTB  HE ES   1   2215 25.70                             134    0.23 7  146 265 
 PTB  HZ I        2215 27.77         1.9 0.30                           146 265 
 ZAR  HN ES   2   2215 36.31                             123   -0.32 4  211 296 
 ZAR  HZ I        2215 41.31         3.8 0.26                           211 296 
                                                                                
