 2016  527 2058  9.9 L   6.812 -73.165147.0  RSN 17 0.5 2.7LRSN                1
 GAP=117        1.04       2.5     3.9  4.8 -0.2293E+01  0.4134E+01  0.6118E+00E
 Epicentro: LOS SANTOS - SANTANDER                                             3
 ACTION:UPD 16-08-18 17:50 OP:cam  STATUS:               ID:20160527205809 L   I
 OLDACT:UP  16-05-28 04:01 OP:edw  STATUS:               ID:20160527204745     3
 OLDACT:REG 16-05-28 02:55 OP:edw  STATUS:               ID:20160527204745     3
 2016-05-27-2047-45M.COL___318                                                 6
 STAT SP IPHASW D HRMM SECON CODA AMPLIT PERI AZIMU VELO AIN AR TRES W  DIS CAZ7
 BAR2 EZ EP       2058 29.81                             170    0.1310 24.4 184 
 BAR2 EZ ES       2058 44.59                             170   -0.5410 24.4 184 
 BAR2 EZ I        2058 46.36       105.3 0.26            168           24.4 184 
 BRR  HZ EP       2058 31.50                             154    0.4710 68.7 298 
 BRR  HN ES       2058 48.16                             154    0.6410 68.7 298 
 BRR  HZ I        2058 52.57        76.7 0.28            149           68.7 298 
 PAM  EZ EP       2058 32.60                             151    0.3510 77.8  41 
 PAM  EN ES       2058 50.04                             151    0.3410 77.8  41 
 RUS  HZ EP       2058 33.74                             144   -0.1210  102 175 
 RUS  HE ES       2058 52.35                             144   -0.2210  102 175 
 RUS  HZ I        2058 53.68        58.5 0.38            144            102 175 
 PTB  HZ EP       2058 36.57                             133   -0.22 9  146 258 
 PTB  HN ES       2058 57.16                             133   -0.61 9  146 258 
 PTB  HZ I        2059  3.22        46.5 0.66            130            146 258 
 OCA  HZ EP       2058 37.92                             130   -0.23 9  159 354 
 OCA  HN ES       2059  0.38                             130    0.19 9  159 354 
 OCA  HZ I        2059  3.65       142.3 0.20            130            159 354 
 SPBC HZ EP       2058 38.61                             129    0.16 9  163 218 
 SPBC HN ES       2059  0.38                             129   -0.35 9  163 218 
 SPBC HZ I        2059  2.61        68.2 0.22            128            163 218 
 NOR  HZ EP       2058 45.76                             119    0.18 8  234 234 
 NOR  HN ES       2059 13.36                             119   -0.06 8  234 234 
 NOR  HZ I        2059 20.65        25.6 0.20            118            234 234 
 CHI  HZ EP       2058 48.10                             117    0.37 8  249 195 
 CHI  HN ES       2059 17.28                             117    0.03 8  249 195 
 CHI  HZ I        2059 23.45        20.7 0.36            117            249 195 
 ROSC BZ EP   4   2058 50.19                             117    2.12 0  253 210 
 ROSC BE ES   4   2059 19.38                             117    1.52 0  253 210 
 ROSC BZ I        2059 24.44        62.7 0.40            117            253 210 
 PTGC HZ EP       2058 52.82                             112   -1.20 7  311 158 
 LL6C HZ EP       2058 54.67                             111   -0.81 7  324 358 
 LL6C HN ES       2059 30.74                             111   -0.30 7  324 358 
 DBB  SZ EP       2058 57.96                             110    0.81 7  337 274 
 DBB  SZ ES       2059 33.37                             110   -0.65 7  337 274 
 ANIL HZ EP       2059  0.47                             109    0.80 6  357 224 
 ANIL HN ES       2059 39.20                             109    0.70 6  357 224 
 ANIL HZ I        2059 45.99        50.6 0.36            108            357 224 
 PRA  HZ EP       2059  3.55                             107    0.09 6  392 209 
 PRA  HN ES       2059 45.61                             107    0.37 6  392 209 
 PRA  HZ I        2059 52.04        26.2 0.44            107            392 209 
 SJC  HZ EP   4   2059  3.75                             106   -1.47 0  407 327 
 SJC  HE ES       2059 47.78                             106   -0.60 6  407 327 
 SJC  HZ I        2059 59.74         7.8 0.30            106            407 327 
 CRJC HZ EP   9   2059 10.86                             104   -1.42 0  466   4 
 CRJC HN ES       2059 58.81                             104   -0.72 5  466   4 
 CRJC HZ I        21 0  8.41        11.6 0.76            104            466   4 
                                                                                
