 2014  527 2111 39.1 L   6.689 -73.199136.0  RSN  9 0.3 1.6LRSN                1
 GAP=221        0.69       3.6     4.0  6.3  0.1026E+01  0.6976E+01  0.4251E+01E
 Epicentro: VILLANUEVA - SANTANDER                                             3
 ACTION:UPD 15-03-16 17:01 OP:nd   STATUS:               ID:20140527211139 L   I
 OLDACT:UP  14-05-28 05:11 OP:spq  STATUS:               ID:20140527211000     3
 OLDACT:UP  14-05-28 05:01 OP:spq  STATUS:               ID:20140527211000     3
 OLDACT:REG 14-05-28 03:13 OP:spq  STATUS:               ID:20140527211000     3
 2014-05-27-2110-00M.COL___276                                                 6
 STAT SP IPHASW D HRMM SECON CODA AMPLIT PERI AZIMU VELO AIN AR TRES W  DIS CAZ7
 BAR2 SZ EP       2111 57.22                             175   -0.1410 10.9 170 
 BAR2 SZ ES   1   2112 11.21                             175   -0.39 7 10.9 170 
 BAR2 SZ I        2112 13.41        11.7 0.20            172           10.9 170 
 BRR  HZ EP       2111 59.44                             150    0.1210 73.1 309 
 BRR  HN ES       2112 15.45                             150    0.3610 73.1 309 
 BRR  HZ I        2112 20.80        12.1 0.42            148           73.1 309 
 RUS  HZ EP   1   2112  0.72                             145   -0.34 7 89.0 172 
 RUS  HN ES   1   2112 18.41                             145    0.22 7 89.0 172 
 RUS  HZ I        2112 20.80         3.4 0.34            147           89.0 172 
 PTB  HE ES   1   2112 23.88                             131   -0.55 7  140 263 
 PTB  HZ I        2112 26.13         4.7 0.14            130            140 263 
 SPBC HN ES       2112 26.63                             129    0.37 9  150 220 
 SPBC HZ I        2112 32.80         5.3 0.16            129            150 220 
 ZAR  HE ES   1   2112 35.48                             120   -0.20 6  204 296 
 ZAR  HZ I        2112 41.86         4.6 0.14            121            204 296 
 NOR  HZ EP   1   2112 13.34                             118    0.35 6  223 236 
 NOR  HE ES   1   2112 39.00                             118   -0.43 6  223 236 
 NOR  HZ I        2112 47.99         3.5 0.14            118            223 236 
 SML  HN ES   4   2112 42.56                             115   -2.54 0  253 338 
 SML  HZ I        2112 47.74         6.5 0.28            116            253 338 
 GUY2CHN ES   1   2112 53.57                             111    0.02 5  289 236 
 GUY2CHZ I        2113  5.28         1.9 0.28                           289 236 
                                                                                
