 2017 1227 2300 41.5 L   6.784 -73.171122.8  RSN  4 0.3 1.1LRSN                1
 GAP=143        0.72       6.7     4.1  7.4 -0.1403E+02  0.1669E+02 -0.1848E+02E
 Epicentro: LOS SANTOS - SANTANDER                                             3
 ACTION:UPD 18-01-04 13:25 OP:rebc STATUS:               ID:20171227230041 L   I
 OLDACT:REG 17-12-28 03:41 OP:edw  STATUS:               ID:20171227225740     3
 2017-12-27-2258-00M.COL___463                                                 6
 STAT SP IPHASW D HRMM SECON CODA AMPLIT PERI AZIMU VELO AIN AR TRES W  DIS CAZ7
 BAR2 EZ ES       23 1 11.14                             170   -0.3010 21.2 183 
 PAM  EZ EP       23 1  1.38                             145   -0.1510 80.5  40 
 PAM  EE ES       23 1 17.46                             145    0.2910 80.5  40 
 PTB  HZ EP       23 1  6.45                             127    0.07 9  145 259 
 PTB  HN ES       23 1 26.19                             127    0.39 9  145 259 
 PTB  HZ I        23 1 28.93         2.0 0.12            127            145 259 
 ZAR  HN ES       23 1 36.07                             117   -0.34 9  202 293 
                                                                                
