 2013  427 2201 39.5 L   6.804 -73.119146.4  RSN  4 0.1 1.7LRSN                1
 GAP=159        0.46       4.7     3.8  3.6 -0.4458E+01 -0.1096E+01  0.1481E+01E
 Epicentro: LOS SANTOS - SANTANDER                                             3
 ACTION:UPD 13-05-22 14:41 OP:EP   STATUS:               ID:20130427220139 L   I
 2013-04-27-2158-50M.COL___189                                                 6
 STAT SP IPHASW D HRMM SECON CODA AMPLIT PERI AZIMU VELO AIN AR TRES W  DIS CAZ7
 BAR2 SZ EP       22 1 58.98                             170   -0.2710 24.5 197 
 BAR2 SZ I        22 1 59.09        10.5 0.42            170           24.5 197 
 BAR2 SZ ES       22 2 14.82                             170    0.1810 24.5 197 
 GIR2 SZ EP       22 1 59.40                             167    0.1310 31.5 345 
 GIR2 SZ ES       22 2 14.49                             167   -0.1910 31.5 345 
 BRR  HZ EP       22 2  0.86                             152   -0.0110 73.6 297 
 BRR  HN ES       22 2 17.59                             152    0.0610 73.6 297 
 PAM  SZ EP       22 2  1.80                             152    0.1310 75.1  38 
 PAM  SN ES       22 2 18.93                             152   -0.0210 75.1  38 
                                                                                
