 2017  227 2229 46.4 L   6.778 -73.152147.3  RSN 17 0.5 3.0LRSN 3.6WRSN        1
 SPEC AVERAGE  MO 14.5 ST0.700 OM  2.9 f0 1.28 R1.8502 AL 0.00 WI 30.0 MW  3.6 3
 SPEC SD       MO  0.2 ST  1.1 OM  0.6 f00.745 R0.6294 AL      WI      MW  0.1 3
 GAP= 98        1.21       3.7     3.4  5.9  0.1182E+00  0.6306E+01  0.4810E+01E
 Epicentro: LOS SANTOS - SANTANDER                                             3
 SPEC RUS HH Z MO 14.9 ST0.475 OM  2.9 f0 1.02 R1.8863 AL-0.00 WI 30.0 MW  3.9 3
 SPEC RUS HH Z T223027 K 0.000 GD  177 VS 5.20 DE 3.50 Q0750.0 QA 1.50 VS 5.20 3
 SPEC ZAR HH Z MO 14.3 ST  3.1 OM  2.2 f0 2.91 R0.6612 AL-0.00 WI 30.0 MW  3.5 3
 SPEC ZAR HH Z T223041 K 0.000 GD  251 VS 5.20 DE 3.50 Q0750.0 QA 1.50 VS 5.20 3
 SPEC CHI HH Z MO 14.6 ST0.091 OM  2.4 f00.734 R2.6213 AL-0.00 WI 30.0 MW  3.7 3
 SPEC CHI HH Z T223051 K 0.000 GD  286 VS 5.20 DE 3.50 Q0750.0 QA 1.50 VS 5.20 3
 SPEC ROSCBH Z MO 14.7 ST0.147 OM  2.5 f00.795 R2.4201 AL-0.00 WI 30.0 MW  3.7 3
 SPEC ROSCBH Z T223052 K 0.000 GD  290 VS 5.20 DE 3.50 Q0750.0 QA 1.50 VS 5.20 3
 SPEC HEL HH Z MO 14.3 ST0.198 OM  2.1 f0 1.17 R1.6444 AL-0.00 WI 30.0 MW  3.5 3
 SPEC HEL HH Z T223057 K 0.000 GD  308 VS 5.20 DE 3.50 Q0750.0 QA 1.50 VS 5.20 3
 SPEC CBOCHH Z MO 14.4 ST0.159 OM  2.1 f0 1.03 R1.8680 AL-0.00 WI 30.0 MW  3.5 3
 SPEC CBOCHH Z T2231 6 K 0.000 GD  363 VS 5.20 DE 3.50 Q0750.0 QA 1.50 VS 5.20 3
 OLDACT:UP  17-02-28 05:25 OP:cog  STATUS:               ID:20170227222745     3
 OLDACT:UP  17-02-28 05:24 OP:cog  STATUS:               ID:20170227222745     3
 OLDACT:REG 17-02-28 03:34 OP:cog  STATUS:               ID:20170227222745     3
 ACTION:UPD 17-05-24 15:41 OP:jn   STATUS:               ID:20170227222946 L   I
 OLDACT:UP  17-02-28 05:33 OP:nlst STATUS:               ID:20170227222946 L   3
 2017-02-27-2228-00M.COL___376                                                 6
 STAT SP IPHASW D HRMM SECON CODA AMPLIT PERI AZIMU VELO AIN AR TRES W  DIS CAZ7
 BAR2 EZ EP       2230  6.18                             172   -0.0310 20.8 189 
 BAR2 HN ES       2230 21.49                             172   -0.1310 20.8 189 
 BAR2 EZ I        2230 23.63       403.3 0.22            167           20.8 189 
 BRR  HZ EP       2230  7.99                             153    0.2010 71.8 301 
 BRR  HN ES       2230 25.47                             153    1.0310 71.8 301 
 BRR  HZ I        2230 28.53       176.3 0.32            152           71.8 301 
 PAM  EZ EP       2230  8.90                             150   -0.0610 79.7  39 
 PAM  EN ES       2230 26.27                             150   -0.2510 79.7  39 
 PAM  EZ I        2230 28.71       352.6 0.64            157           79.7  39 
 RUS  HZ EP       2230 10.00                             145   -0.1710 98.2 176 
 RUS  HN ES       2230 28.84                             145    0.1610 98.2 176 
 RUS  HZ I        2230 30.47       176.6 0.40            144           98.2 176 
 PTB  HZ EP       2230 12.70                             133   -0.73 9  147 260 
 PTB  HN ES       2230 34.22                             133   -0.26 9  147 260 
 PTB  HZ I        2230 35.87       149.2 0.12            131            147 260 
 TAM  HZ EP       2230 14.25                             131    0.01 9  155 104 
 TAM  HN ES       2230 36.01                             131    0.08 9  155 104 
 ZAR  HZ EP       2230 18.76                             123   -0.25 9  204 293 
 ZAR  HN ES       2230 43.20                             123   -1.22 9  204 293 
 NOR  HZ EP       2230 21.90                             119   -0.15 8  233 235 
 NOR  HN ES       2230 49.56                             119   -0.26 8  233 235 
 NOR  HZ I        2230 58.04        81.1 0.20            119            233 235 
 CHI  HZ EP       2230 24.04                             118    0.09 8  246 195 
 CHI  HN ES       2230 53.38                             118    0.18 8  246 195 
 CHI  HZ I        2230 57.73        33.2 0.68            118            246 195 
 ROSC BZ EP   4   2230 26.03                             117    1.65 0  250 211 
 ROSC BN ES       2230 53.76                             117   -0.21 8  250 211 
 ROSC BZ I        2231  1.37        66.8 0.40            117            250 211 
 HEL  HZ EP       2230 28.38                             115    1.79 8  271 256 
 HEL  HN ES       2230 58.65                             115    0.74 8  271 256 
 HEL  HZ I        2231  4.94        79.1 0.32            115            271 256 
 URE  HZ EP   4   2230 26.79                             114   -0.82 0  284 292 
 URE  HN ES   4   2230 57.51                             114   -2.22 0  284 292 
 PTGC HZ EP   9   2230 28.96                             112   -1.18 0  307 158 
 PTGC HN ES       2231  2.32                             112   -0.72 7  307 158 
 CBOC HZ EP   4   2230 34.51                             110    1.25 0  332 252 
 CBOC HN ES   4   2231  8.38                             110   -1.39 0  332 252 
 CBOC HZ I        2231 26.56        25.2 0.40            111            332 252 
 DBB  EZ EP       2230 34.13                             110    0.21 7  339 275 
 DBB  EN ES   4   2231  9.68                             110   -1.27 0  339 275 
 PRA  HZ EP       2230 39.55                             107   -0.17 6  390 210 
 PRA  HN ES       2231 20.86                             107   -0.43 6  390 210 
 PRA  HZ I        2231 31.78        27.9 0.34            107            390 210 
 ORTC HZ EP       2230 40.34                             107    0.21 6  393 216 
 ORTC HE ES       2231 21.75                             107   -0.26 6  393 216 
 ORTC HZ I        2231 29.69        30.8 0.50            107            393 216 
 APAC HZ EP   3   2230 39.66                             106   -1.03 1  398 288 
 APAC HN ES       2231 23.17                             106    0.16 6  398 288 
                                                                                
