 2010  527 2312 47.6 L   7.117 -73.753 90.0  RSN  4 0.5 1.8LRSN                1
 GAP=248        0.85       7.9    22.3 29.3 -0.1073E+03  0.5277E+03 -0.1598E+03E
 Epicentro: BARRANCABERMEJA - SANTANDER                                        3
 ACTION:UP  10-08-24 10:07 OP:vdl  STATUS:               ID:20100527231247 L   I
 2010-05-27-2309-41S.COL___108                                                 6
 STAT SP IPHASW D HRMM SECON CODA AMPLIT PERI AZIMU VELO SNR AR TRES W  DIS CAZ7
 BAR2 SZ EP       2313  4.82                             138     0.210   86 133 
 BAR2 SZ ES   2   2313 17.79                             138    -0.2 5   86 133 
 GUE  SZ EP       2313  7.66                             126    -0.510  121  49 
 GUE  SZ ES   3   2313 22.77                             126    -1.5 2  121  49 
 OCA  SZ EP       2313  9.51                             123     0.310  133  21 
 OCA  SZ I        2313 29.80        13.0 0.48                           133  21 
 GRA  SZ EP       2313  9.38                             123    -0.110  135  51 
 GRA  SZ ES   1   2313 27.06                             123     0.5 7  135  51 
                                                                                
