 2012  227 2110 52.8 L   6.761 -73.102151.1  RSN  6 0.3 1.8LRSN                1
 GAP=144        0.52       4.2     3.4  7.1 -0.4508E+01  0.9693E+00  0.2886E+01E
 ACTION:UP  12-03-07 16:34 OP:epov STATUS:               ID:20120227211052 L   I
 2012-02-27-2110-00M.COL___191                                                 6
 STAT SP IPHASW D HRMM SECON CODA AMPLIT PERI AZIMU VELO AIN AR TRES W  DIS CAZ7
 BRR  HZ EP   1   2111 14.70                             151   -0.21 7 77.5 300 
 BRR  HE ES   2   2111 32.44                             151    0.30 5 77.5 300 
 BRR  HZ I        2111 39.10        15.4 0.41                          77.5 300 
 PAM  SZ EP       2111 15.88                             151    0.2410 77.8  35 
 PAM  SN ES   2   2111 33.27                             151   -0.16 5 77.8  35 
 RUS  HZ EP   1   2111 16.81                             146    0.01 7 96.1 179 
 RUS  HN ES   2   2111 35.39                             146   -0.10 5 96.1 179 
 RUS  HZ I        2111 36.38         4.3 0.27                          96.1 179 
 PTB  HZ EP       2111 20.40                             132   -0.20 9  152 261 
 PTB  HN ES   1   2111 41.86                             132   -0.39 7  152 261 
 ZAR  HE ES   2   2111 52.56                             123    0.24 4  210 293 
 ZAR  HZ I        2111 57.80         8.0 0.33                           210 293 
 NOR  SN ES   1   2111 57.76                             119    0.48 6  236 236 
                                                                                
