 2016  627 2017 13.8 L   6.847 -73.326123.6  RSN  6 0.4 2.0LRSN                1
 GAP=114        1.01       4.1     3.8  8.7 -0.6342E+00  0.4536E+01  0.4046E+01E
 Epicentro: ZAPATOCA - SANTANDER                                               3
 ACTION:UPD 16-07-21 22:23 OP:rebc STATUS:               ID:20160627201713 L   I
 OLDACT:REG 16-06-28 03:15 OP:dnl  STATUS:               ID:20160627200748     3
 2016-06-27-2007-48M.COL___345                                                 6
 STAT SP IPHASW D HRMM SECON CODA AMPLIT PERI AZIMU VELO AIN AR TRES W  DIS CAZ7
 BRR  HE EP       2017 31.65                             156    0.1910 51.4 304 
 BRR  HN ES       2017 45.44                             156    0.2010 51.4 304 
 BRR  HE I        2017 46.42        79.9 0.24                          51.4 304 
 PAM  EZ EP       2017 34.39                             143   -0.0610 88.0  52 
 PAM  EE ES       2017 50.34                             143   -0.2310 88.0  52 
 PAM  EZ I        2017 53.47        12.2 0.18                          88.0  52 
 RUS  HZ EP       2017 36.39                             136    0.2710  109 166 
 RUS  HN ES       2017 53.62                             136    0.0810  109 166 
 RUS  HZ I        2017 54.77        10.5 0.18                           109 166 
 PTB  HZ EP       2017 36.51                             130   -0.8010  130 255 
 PTB  HE ES       2017 55.06                             130   -0.5910  130 255 
 PTB  HZ I        2017 57.73        10.6 0.16                           130 255 
 SPBC HN ES       2018  0.70                             125    0.34 9  156 212 
 SPBC HZ I        2018  3.58        17.7 0.10                           156 212 
 ZAR  HZ EP   2   2017 43.33                             120    0.62 4  184 293 
 ZAR  HN ES       2018  5.83                             120    0.56 9  184 293 
 ZAR  HZ I        2018  9.76        12.8 0.26                           184 293 
                                                                                
