 2014  227 2014  6.3 L   6.798 -73.159146.5  RSN 11 0.4 2.2LRSN                1
 GAP=135        1.02       3.0     4.1  5.4 -0.8522E+00  0.5055E+01  0.2303E+01E
 Epicentro: LOS SANTOS - SANTANDER                                             3
 ACTION:UPD 14-03-10 08:14 OP:ep   STATUS:               ID:20140227201406 L   I
 OLDACT:REG 14-02-27 23:10 OP:carl STATUS:               ID:20140227200949     3
 2014-02-27-2009-49M.COL___210                                                 6
 STAT SP IPHASW D HRMM SECON CODA AMPLIT PERI AZIMU VELO AIN AR TRES W  DIS CAZ7
 BAR2 SZ EP       2014 26.15                             171    0.1210 22.9 187 
 BAR2 SZ ES       2014 41.18                             171   -0.2210 22.9 187 
 BAR2 SZ I        2014 42.87        42.4 0.40            169           22.9 187 
 BRR  HN ES       2014 44.60                             153    0.6110 70.1 299 
 PAM  SZ EP       2014 28.96                             151    0.2810 78.5  40 
 PAM  SN ES       2014 46.32                             151    0.2010 78.5  40 
 PAM  SZ I        2014 48.32        21.7 0.46            155           78.5  40 
 RUS  HZ EP       2014 30.09                             144   -0.0410  100 175 
 RUS  HN ES       2014 48.42                             144   -0.2810  100 175 
 RUS  HZ I        2014 50.21         9.0 0.38            145            100 175 
 PTB  HZ EP       2014 33.22                             132    0.01 9  146 259 
 PTB  HN ES       2014 53.85                             132   -0.34 9  146 259 
 PTB  HZ I        2015  1.80        18.5 0.36            132            146 259 
 SPBC HZ EP       2014 35.18                             129    0.41 9  162 219 
 SPBC HN ES       2014 56.35                             129   -0.61 9  162 219 
 SPBC HZ I        2015  5.15        25.7 0.24            129            162 219 
 ZAR  HE ES       2015  4.54                             123    0.61 9  203 292 
 NOR  HZ EP       2014 42.10                             119    0.15 8  233 234 
 NOR  HE ES       2015  9.74                             119    0.00 8  233 234 
 NOR  HZ I        2015 13.99        12.0 0.28            119            233 234 
 SML  HZ EP       2014 41.83                             118   -1.11 8  243 336 
 SML  HN ES       2015 10.89                             118   -0.62 8  243 336 
 SML  HZ I        2015 18.17        21.0 0.10            119            243 336 
 CHI  HZ EP       2014 44.10                             117    0.11 8  248 195 
 CHI  HN ES       2015 13.34                             117   -0.03 8  248 195 
 CHI  HZ I        2015 19.57         4.7 0.44            118            248 195 
 PRA  HZ EP       2015  0.60                             107    0.85 6  391 209 
 PRA  HE ES       2015 41.41                             107   -0.02 6  391 209 
 PRA  HZ I        2015 47.97         7.8 0.34            107            391 209 
 SJC  HZ EP   4   2015  0.47                             106   -1.36 0  409 327 
 SJC  HN ES   4   2015 42.10                             106   -3.04 0  409 327 
                                                                                
