 2015  227 2151 13.1 L   6.838 -73.174145.1  RSN 26 0.5 3.1LRSN                1
 GAP= 68        1.04       2.2     2.6  4.2 -0.1495E+01  0.2496E+01  0.8449E+00E
 Epicentro: ZAPATOCA - SANTANDER                                               3
 ACTION:UPD 15-04-30 21:29 OP:nd   STATUS:               ID:20150227215113 L   I
 OLDACT:UP  15-02-28 02:16 OP:fm   STATUS:               ID:20150227214746     3
 OLDACT:REG 15-02-28 01:48 OP:fm   STATUS:               ID:20150227214746     3
 2015-02-27-2147-46M.COL___299                                                 6
 STAT SP IPHASW D HRMM SECON CODA AMPLIT PERI AZIMU VELO AIN AR TRES W  DIS CAZ7
 BAR2 EZ EP       2151 33.03                             169    0.3110 27.2 182 
 BAR2 EZ ES       2151 47.75                             169   -0.2810 27.2 182 
 BAR2 EZ I        2151 50.83       293.6 0.30            169           27.2 182 
 BRR  HZ EP       2151 34.79                             154    0.8810 66.5 297 
 BRR  HE ES       2151 50.46                             154    0.3210 66.5 297 
 BRR  HZ I        2151 55.82       182.8 0.26            153           66.5 297 
 PAM  SZ EP     C 2151 35.78                             151    0.6110 76.3  43 
 PAM  SE ES       2151 52.92                             151    0.5310 76.3  43 
 PAM  SZ I        2151 55.20       223.7 0.48            154           76.3  43 
 RUS  HZ EP     D 2151 37.00                             142   -0.1010  105 175 
 RUS  HE ES       2151 55.56                             142   -0.2610  105 175 
 RUS  HZ I        2151 56.94       160.6 0.34            144            105 175 
 PTB  HZ EP       2151 39.50                             132   -0.30 9  146 257 
 PTB  HE ES       2152  0.60                             132   -0.04 9  146 257 
 PTB  HZ I        2152  3.34       125.5 0.12            132            146 257 
 OCA  HZ EP       2151 41.23                             130    0.30 9  156 354 
 OCA  HN ES       2152  2.42                             130   -0.22 9  156 354 
 OCA  HZ I        2152  7.06       102.0 0.16            132            156 354 
 TAM  HZ IP     C 2151 41.45                             129    0.35 9  159 106 
 TAM  HN ES       2152  2.64                             129   -0.31 9  159 106 
 SPBC HZ EP       2151 41.90                             129    0.23 9  165 217 
 SPBC HE ES       2152  2.91                             129   -1.04 9  165 217 
 SPBC HZ I        2152  5.75       181.5 0.14            129            165 217 
 NOR  HZ EP       2151 48.81                             118    0.04 8  235 233 
 NOR  HN ES       2152 16.17                             118   -0.43 8  235 233 
 NOR  HZ I        2152 24.86       100.6 0.18            119            235 233 
 SML  HZ EP       2151 49.31                             118    0.18 8  239 336 
 SML  HN ES       2152 17.00                             118   -0.23 8  239 336 
 SML  HZ I        2152 24.27       177.0 0.10            119            239 336 
 CHI  HZ EP     D 2151 50.83                             117   -0.27 8  252 194 
 CHI  HN ES       2152 19.88                             117   -0.87 8  252 194 
 CHI  HZ I        2152 26.71        58.0 0.34            118            252 194 
 ROSC BZ EP       2151 51.58                             116    0.19 8  255 210 
 ROSC BN ES       2152 21.53                             116    0.26 8  255 210 
 ROSC BZ I        2152 27.63       121.1 0.40            117            255 210 
 URE  HZ EP       2151 52.79                             114   -0.84 7  279 291 
 URE  HE ES       2152 24.57                             114   -0.68 7  279 291 
 URE  HZ I        2152 33.56        51.8 0.22            115            279 291 
 GUY2CHZ EP       2151 57.31                             112    0.65 7  301 234 
 GUY2CHN ES       2152 30.79                             112    0.15 7  301 234 
 GUY2CHZ I        2152 39.03        66.4 0.36                           301 234 
 PTGC HZ IP   4 D 2151 56.24                             111   -1.25 0  314 158 
 PTGC HN ES   4   2152 28.59                             111   -3.53 0  314 158 
 PTGC HZ I        2152 34.45        62.1 0.30            113            314 158 
 RREF HZ EP       2152  0.18                             111    0.93 7  322 228 
 RREF HN ES       2152 35.56                             111    0.31 7  322 228 
 RREF HZ I        2152 40.32        59.3 0.24            112            322 228 
 TOL  SZ EP       2152  2.17                             109    0.76 7  344 224 
 TOL  SE ES       2152 39.01                             109   -0.09 7  344 224 
 TOL  SZ I        2152 47.53        51.7 0.46            110            344 224 
 MON  HN ES       2152 38.76                             109   -0.47 6  349 308 
 ANIL HZ EP       2152  3.03                             108    0.07 6  358 224 
 ANIL HN ES       2152 42.35                             108    0.49 6  358 224 
 ANIL HZ I        2152 50.08        17.7 0.26            109            358 224 
 SDV  BZ EP       2152  2.32                             108   -0.76 6  360  51 
 SDV  BN ES       2152 41.22                             108   -0.85 6  360  51 
 SDV  BZ I        2152 43.88        17.1 0.70            110            360  51 
 PRA  HZ EP       2152  6.80                             106   -0.04 6  394 209 
 PRA  HE ES       2152 49.02                             106    0.27 6  394 209 
 PRA  HZ I        2152 55.31        60.2 0.38            107            394 209 
 ORTC HZ EP       2152  6.97                             106   -0.20 6  397 215 
 ORTC HN ES       2152 49.31                             106   -0.04 6  397 215 
 ORTC HZ I        2152 56.89        34.4 0.34            107            397 215 
 PAL  HZ EP       2152  8.27                             106    0.10 6  405 238 
 PAL  HN ES       2152 51.41                             106    0.28 6  405 238 
 PAL  HZ I        2152 54.91        16.6 0.22            107            405 238 
 CRJC HZ EP       2152 13.81                             103   -1.29 5  464   4 
 YOT  HZ EP       2152 16.27                             103    0.10 5  472 228 
 YOT  HE ES       2153  5.34                             103   -0.02 5  472 228 
 MACC HZ EP   4   2152 20.09                             101   -2.13 0  524 188 
 MACC HE ES   4   2153 11.74                             101   -4.40 0  524 188 
 MARA HZ EP       2152 23.61                             101   -0.68 4  539 215 
 GARC HZ EP   4   2152 26.88                             100   -1.73 0  575 207 
 GARC HN ES   4   2153 20.02                             100   -7.49 0  575 207 
                                                                                
