 2016 1127 2152 42.1 L   6.865 -73.147149.4  RSN 21 0.6 2.8LRSN                1
 GAP= 80        1.29       4.8     3.8  6.6 -0.2616E+01  0.5565E+01  0.1231E+02E
 Epicentro: LOS SANTOS - SANTANDER                                             3
 ACTION:UPD 17-10-26 21:12 OP:lp   STATUS:               ID:20161127215242 L   I
 OLDACT:UP  16-11-28 10:10 OP:ar   STATUS:               ID:20161127214743     3
 OLDACT:UP  16-11-28 10:08 OP:ar   STATUS:               ID:20161127214743     3
 OLDACT:REG 16-11-28 06:45 OP:ar   STATUS:               ID:20161127214743     3
 2016-11-27-2148-00M.COL___352                                                 6
 STAT SP IPHASW D HRMM SECON CODA AMPLIT PERI AZIMU VELO AIN AR TRES W  DIS CAZ7
 BAR2 EZ EP       2153  2.04                             168   -0.2410 30.4 187 
 BAR2 EZ ES       2153 17.22                             168   -0.8410 30.4 187 
 BAR2 EZ I        2153 18.33       173.7 0.18            164           30.4 187 
 BRR  HZ EP       2153  3.90                             154    0.4810 68.0 293 
 BRR  HN ES       2153 20.95                             154    0.8610 68.0 293 
 BRR  HZ I        2153 25.16        89.3 0.18            153           68.0 293 
 PAM  EZ EP       2153  4.88                             153    0.5210 72.1  43 
 PAM  EN ES       2153 21.93                             153    0.1810 72.1  43 
 PAM  EZ I        2153 24.13       120.9 0.50            151           72.1  43 
 PTB  HZ EP       2153  8.61                             132   -0.84 9  149 256 
 PTB  HN ES       2153 29.80                             132   -1.02 9  149 256 
 PTB  HZ I        2153 37.28        53.2 0.18            129            149 256 
 TAM  HZ IP     D 2153 10.44                             131    0.22 9  157 107 
 TAM  HZ I        2153 31.34        32.6 0.36            126            157 107 
 TAM  HN ES       2153 32.04                             131   -0.14 9  157 107 
 ZAR  HZ EP       2153 14.43                             123   -0.04 9  201 290 
 ZAR  HN ES       2153 39.87                             123    0.13 9  201 290 
 ZAR  HZ I        2153 45.18        83.0 0.34            120            201 290 
 NOR  HZ EP       2153 18.10                             119   -0.34 8  239 233 
 NOR  HN ES       2153 46.47                             119   -0.35 8  239 233 
 NOR  HZ I        2153 55.31        41.2 0.42            115            239 233 
 CHI  HZ EP       2153 20.24                             117   -0.47 8  256 195 
 CHI  HN ES   4   2153 49.19                             117   -1.66 0  256 195 
 CHI  HZ I        2153 53.03        49.5 0.64            113            256 195 
 ROSC BZ EP       2153 21.94                             117    0.90 8  259 210 
 ROSC BN ES       2153 52.34                             117    0.89 8  259 210 
 ROSC BZ I        2153 56.54       105.1 0.40            113            259 210 
 PTGC HZ EP   4   2153 25.14                             112   -1.70 0  315 159 
 PTGC HN ES   4   2153 58.55                             112   -3.22 0  315 159 
 PTGC HZ I        2154  3.53        30.8 0.28            108            315 159 
 LL6C HZ EP   9   2153  7.55                             111   -19.6 0  318 358 
 LL6C HN ES       2153 41.83                                   -0.85 7  318 358 
 LL6C HZ I        2153 49.84        17.2 0.42            109            318 358 
 ELA  HZ EP   4   2153 31.00                             110    1.41 0  334 229 
 ELA  HZ I        2154 14.67        24.1 0.48            107            334 229 
 CBOC HZ EP       2153 30.32                             110    0.95 7  336 251 
 CBOC HN ES       2154  6.82                             110    0.54 7  336 251 
 CBOC HZ I        2154 11.62        10.9 0.42            107            336 251 
 ANIL HZ EP   4   2153 33.72                             109    1.13 0  362 224 
 ANIL HE ES       2154 12.55                             109    0.55 6  362 224 
 PRA  HZ EP       2153 35.80                             107   -0.63 6  398 209 
 PRA  HN ES       2154 18.69                             107   -0.15 6  398 209 
 PRA  HZ I        2154 22.50        37.3 0.74            104            398 209 
 ORTC HZ EP       2153 36.48                             106   -0.30 6  401 216 
 ORTC HN ES       2154 19.83                             106    0.38 6  401 216 
 ORTC HZ I        2154 23.25        24.4 0.24            104            401 216 
 SJC  HZ EP       2153 36.21                             106   -0.83 6  403 326 
 SJC  HN ES   4   2154 17.37                             106   -2.54 0  403 326 
 SJC  HZ I        2154 29.52        11.4 0.34            104            403 326 
 PAL  HZ EP       2153 37.59                             106   -0.18 6  409 238 
 PAL  HN ES       2154 21.32                             106    0.10 6  409 238 
 PAL  HZ I        2154 26.00        16.4 0.82            103            409 238 
 CRJC HN ES   4   2154 30.22                             104   -1.77 0  460   4 
 CRJC HZ I        2154 37.38        21.7 0.32            102            460   4 
 YOT  HZ EP       2153 44.98                             103   -0.78 5  477 228 
 YOT  HE ES   4   2154 38.74                             103    3.30 0  477 228 
 URI  HZ EP   4   2153 52.52                             101   -1.80 0  550  13 
 URI  HN ES   4   2154 46.92                             101   -3.76 0  550  13 
 URI  HZ I        2154 54.82         2.4 0.44             99            550  13 
                                                                                
