 2015  227 2253 36.2 L   8.213 -72.082  2.9  RSN 13 0.6 2.5LRSN                1
 GAP=136        1.44       3.5     2.2  5.6 -0.2108E+01  0.1030E+01  0.3306E+01E
 ACTION:UP  15-11-14 15:41 OP:tino STATUS:               ID:20150227225336 L   I
 OLDACT:UP  15-10-28 16:29 OP:tino STATUS:               ID:20150227221200     3
 OLDACT:REG 15-08-25 20:11 OP:tino STATUS:               ID:20150227221200     3
 2015-02-27-2211-59S.COL___024                                                 6
 2015-02-27-2248-49M.COL___299                                                 6
 STAT SP IPHASW D HRMM SECON CODA AMPLIT PERI AZIMU VELO AIN AR TRES W  DIS CAZ7
 SA2C HZ IP     D 2253 42.19                              47   -0.5610 37.9 241 
 SA2C HZ  IAML    2253 48.20       427.6 0.26                          37.9 241 
 RNOR1HZ IP     D 2253 42.19                              47   -0.5610 37.9 241 
 RNOR1HN ES       2253 46.77                              47   -1.1010 37.9 241 
 RNOR1HZ  IAML    2253 48.23       168.7 0.24                          37.9 241 
 SA2C HE ES       2253 47.13                              47   -0.7410 37.9 241 
 RNOR2HZ EP   1   2253 42.81                              47   -0.08 7 39.2 259 
 RNOR2HE ES       2253 48.63                              47    0.5310 39.2 259 
 SA1C HZ IP     D 2253 44.19                              47    0.0510 47.5 289 
 SA1C HE ES       2253 49.75                              47   -0.6010 47.5 289 
 SA1C HZ  IAML    2253 51.19       819.2 0.12                          47.5 289 
 RNOR3HZ  IAML    2253 46.07       139.9 0.30                          59.0 226 
 RNOR3HZ IP     C 2253 46.07                              47    0.1610 59.0 226 
 RNOR3HE ES       2253 53.45                              47   -0.0410 59.0 226 
 CCUC3HZ EP       2253 46.18                              47    0.0910 60.1 231 
 PAM  EZ EP       2253 55.68                              47    0.3210  118 215 
 PAM  EE ES       2254 10.70                              47    0.3910  118 215 
 PAM  EZ  IAML    2254 16.05       117.3 0.22                           118 215 
 SOCV BZ EP       2253 57.72                              47    0.26 9  135  87 
 SOCV BN ES       2254 13.31                              47   -0.73 9  135  87 
 OCA  HZ EP       2253 58.07                              47    0.30 9  136 271 
 OCA  HN ES       2254 14.75                              47    0.15 9  136 271 
 OCA  HZ  IAML    2254 17.33       106.9 0.26                           136 271 
 SDV  BZ EP       2254  4.32                              47    0.50 9  176  65 
 SDV  BN ES       2254 25.17                              47   -0.20 9  176  65 
 SDV  BZ  IAML    2254 27.24        35.6 0.25                           176  65 
 TAM  HZ EP   1   2254  7.59                              37    1.02 6  199 171 
 TAM  HE ES       2254 30.42                              37    0.15 9  199 171 
 BAR2 EZ EP   1   2254  8.29                              37   -0.69 6  217 214 
 BAR2 EZ ES   1   2254 36.25                              37    1.69 6  217 214 
 BRR  HZ EP   4   2254 11.33                              37    2.51 0  218 236 
 BRR  HN ES   4   2254 38.13                              37    3.86 0  218 236 
 SML  HZ EP       2254 10.96                              37    0.77 8  229 287 
 SML  HN ES   1   2254 38.02                              37    1.31 6  229 287 
                                                                                
