 2017  427 2132 40.2 L   6.859 -73.267134.4  RSN  7 0.2 1.7LRSN                1
 GAP=110        0.69       2.8     3.0  4.8  0.2422E+00  0.2353E+01  0.2588E+01E
 Epicentro: ZAPATOCA - SANTANDER                                               3
 ACTION:UPD 17-05-30 21:16 OP:jn   STATUS:               ID:20170427213240 L   I
 OLDACT:UP  17-04-28 08:43 OP:cog  STATUS:               ID:20170427212747d    3
 OLDACT:DUP 17-04-28 08:38 OP:cog  STATUS:               ID:20170427212747d    3
 2017-04-27-2128-00M.COL___368                                                 6
 STAT SP IPHASW D HRMM SECON CODA AMPLIT PERI AZIMU VELO AIN AR TRES W  DIS CAZ7
 BRR  HZ EP       2132 59.22                             156   -0.1110 56.3 299 
 BRR  HE ES       2133 14.44                             156    0.2010 56.3 299 
 PAM  EZ EP       2133  1.30                             146   -0.2510 82.2  50 
 PAM  EE ES       2133 18.23                             146    0.0410 82.2  50 
 PAM  EZ I        2133 19.65         8.3 0.24            150           82.2  50 
 RUS  HZ EP       2133  3.36                             139   -0.1510  109 169 
 RUS  HN ES       2133 21.54                             139   -0.1410  109 169 
 RUS  HZ I        2133 22.94         7.3 0.30            140            109 169 
 PTB  HZ EP   9   2133  4.35                             131   -0.86 0  136 255 
 PTB  HN ES       2133 23.21                             132   -0.63 9  136 255 
 PTB  HZ I        2133 27.47         9.8 0.40            132            136 255 
 YPLC HN ES       2133 34.24                             121    0.16 9  189 149 
 ZAR  HZ EP       2133 10.44                             121    0.05 9  189 292 
 ZAR  HE ES   4   2133 34.92                             121    0.99 0  189 292 
 NOR  HZ EP       2133 15.04                             116    0.46 8  228 231 
 NOR  HN ES       2133 41.30                             116   -0.08 8  228 231 
 NOR  HZ I        2133 45.68         4.8 0.38            117            228 231 
                                                                                
