 2012  527 2237 52.6 L   6.869 -73.373118.0  RSN  8 0.4 2.4LRSN                1
 GAP= 90        0.76       3.3     6.6  9.4 -0.4504E+01  0.3797E+02 -0.3677E+01E
 Epicentro: SAN VICENTE DE CHUCURI - SANTANDER                                 3
 ACTION:UP  12-07-05 12:08 OP:pat  STATUS:               ID:20120527223752 L   I
 2012-05-27-2230-00M.COL___198                                                 6
 STAT SP IPHASW D HRMM SECON CODA AMPLIT PERI AZIMU VELO SNR AR TRES W  DIS CAZ7
 BAR2 SZ EP       2238  9.72                             161     0.310   37 145 
 BAR2 SZ ES   2   2238 22.52                             161     0.1 5   37 145 
 PAM  SZ EP       2238 12.95                             140     0.010   91  55 
 PAM  SE ES   1   2238 29.18                             140     0.3 7   91  55 
 RUS  HZ EP   2   2238 14.53                             133    -0.3 5  113 163 
 RUS  HE ES   1   2238 31.86                             133    -0.2 7  113 163 
 RUS  HZ I        2238 33.02        46.8 0.20                           113 163 
 PTB  HZ EP       2238 14.92                             130    -0.410  125 253 
 PTB  HZ I        2238 37.66        27.5 0.44                           125 253 
 OCA  HZ EP       2238 17.93                             124    -0.1 9  152   2 
 OCA  HN ES   1   2238 37.70                             124    -0.2 7  152   2 
 OCA  HZ I        2238 41.07       144.6 0.60                           152   2 
 ZAR  HZ EP   2   2238 21.49                             119     0.9 4  178 293 
 ZAR  HZ I        2238 47.93        43.1 0.32                           178 293 
 HEL  HZ EP   3   2238 30.08                             111     1.0 2  250 253 
 HEL  HZ I        2239  4.21        12.3 0.38                           250 253 
 CHI  HZ EP       2238 29.38                             110     0.2 8  251 189 
 CHI  HZ I        2238 31.44        12.9 0.26                           251 189 
                                                                                
