 2014  427 2001  7.5 L   6.817 -73.167138.4  RSN  8 0.5 1.8LRSN                1
 GAP=181        1.24       4.4     7.8 10.6 -0.1085E+01  0.1122E+02 -0.1502E+02E
 Epicentro: LOS SANTOS - SANTANDER                                             3
 ACTION:UPD 14-05-13 23:11 OP:nd   STATUS:               ID:20140427200107 L   I
 OLDACT:REG 14-04-28 05:18 OP:stll STATUS:               ID:20140427195813     3
 2014-04-27-1958-13M.COL___251                                                 6
 STAT SP IPHASW D HRMM SECON CODA AMPLIT PERI AZIMU VELO AIN AR TRES W  DIS CAZ7
 BRR  HZ IP     C 20 1 28.22                             152    0.5110 68.2 298 
 BRR  HN ES       20 1 44.02                             152    0.5710 68.2 298 
 BRR  HZ I        20 1 48.62        17.6 0.54            148           68.2 298 
 RUS  HE ES       20 1 48.55                             142   -0.2510  103 175 
 PTB  HZ EP       20 1 33.11                             131   -0.61 9  146 258 
 PTB  HZ I        20 1 35.61         6.5 0.28            130            146 258 
 PTB  HN ES       20 1 53.98                             131   -0.18 9  146 258 
 OCA  HE ES       20 1 56.40                             128   -0.15 9  158 354 
 SPBC HN ES       20 1 57.07                             127   -0.20 9  163 218 
 ZAR  HZ EP       20 1 40.16                             121    0.96 9  201 292 
 ZAR  HN ES       20 2  3.83                             121   -0.07 9  201 292 
 ZAR  HZ I        20 2 13.57         7.1 0.68            121            201 292 
 SML  HZ EP       20 1 43.62                             116    0.17 8  241 336 
 SML  HN ES       20 2 10.50                             116   -0.97 8  241 336 
 MAL  SZ E        2010 52.76                                            556 236 
                                                                                
