 2010  327 2154 24.1 L   6.833 -73.024141.3  RSN  6 0.3 2.0LRSN                1
 GAP=195        0.60       2.9     9.4  6.1  0.1413E+01 -0.8282E+01  0.6190E+00E
 Epicentro: CEPITA - SANTANDER                                                 3
 ACTION:UP  10-08-24 09:56 OP:vdl  STATUS:               ID:20100327215424 L   I
 2010-03-27-2152-52S.COL___098                                                 6
 STAT SP IPHASW D HRMM SECON CODA AMPLIT PERI AZIMU VELO SNR AR TRES W  DIS CAZ7
 BAR2 SZ EP   2   2154 42.91                             167    -0.5 5   32 214 
 BAR2 SZ ES   1   2154 58.28                             167    -0.2 7   32 214 
 BRR  HZ IP       2154 45.28                             148    -0.210   82 292 
 BRR  HN ES   1   2155  2.15                             148     0.1 7   82 292 
 BRR  HZ I        2155  2.94        31.6 0.09                            82 292 
 RUS  HZ EP   2   2154 48.01                             142     0.3 5  104 184 
 RUS  HN ES   2   2155  6.31                             142     0.2 5  104 184 
 RUS  HZ I        2155  8.01         9.4 0.32                           104 184 
 OCA  SZ EP   1   2154 52.07                             129     0.1 7  159 348 
 OCA  SZ ES   1   2155 14.00                             129     0.3 7  159 348 
 OCA  SZ I        2155 18.05        19.7 0.39                           159 348 
 CHI  HZ EP   2   2155  2.04                             115    -0.4 4  256 198 
 CHI  HN ES   1   2155 32.77                             115     0.5 6  256 198 
 CHI  HZ I        2155 34.55         2.9 0.49                           256 198 
 PRA  HN ES   2   2156  0.89                             105    -0.3 3  402 211 
 PRA  HZ I        2156  2.95         3.0 0.26                           402 211 
                                                                                
