 2011  527 2128 30.4 L   6.799 -73.095140.0  RSN  9 0.3 2.1LRSN                1
 GAP=143        0.83       3.9     8.3  9.7 -0.1879E+01 -0.2804E+02 -0.6832E+01E
 Epicentro: LOS SANTOS - SANTANDER                                             3
 ACTION:UP  11-06-29 08:56 OP:tino STATUS:               ID:20110527212830 L   I
 2011-05-27-2128-26S.COL___115                                                 6
 STAT SP IPHASW D HRMM SECON CODA AMPLIT PERI AZIMU VELO SNR AR TRES W  DIS CAZ7
 BTL  SZ EP       2128 49.46                             170     0.110   23 305 
 BAR2 SZ EP       2128 49.70                             170     0.310   25 203 
 BAR2 SZ I        2129  5.86        31.7 0.20                            25 203 
 GIR2 SZ EP       2128 49.32                             166    -0.110   33 341 
 PAM  SZ EP       2128 52.20                             151     0.410   74  36 
 BRR  HZ EP       2128 50.94                             150    -0.310   76 297 
 BRR  HN ES   1   2129  8.05                             150     0.5 7   76 297 
 BRR  HZ I        2129 12.24        40.1 0.04                            76 297 
 RUS  HZ EP       2128 53.44                             143    -0.110  100 179 
 RUS  HN ES   1   2129 11.29                             143    -0.4 7  100 179 
 RUS  HZ I        2129 13.40        11.4 0.37                           100 179 
 BRI  SZ EP       2128 53.82                             141     0.210  107  18 
 GRA  SZ IP       2128 55.10                             136     0.110  124  15 
 GRA  SZ I        2128 56.38        10.3 0.33                           124  15 
 GRA  SZ ES   1   2129 13.82                             136    -0.4 7  124  15 
 OCA  SZ EP       2128 58.13                             128    -0.2 9  161 351 
 OCA  SZ ES   2   2129 19.62                             128    -0.6 5  161 351 
 OCA  SZ I        2129 22.88        20.4 0.19                           161 351 
                                                                                
