 2016  227 2315 53.6 L   6.804 -73.142148.6  RSN  8 0.2 2.0LRSN                1
 GAP=137        0.62       2.4     2.7  4.1 -0.7523E+00  0.3735E+01  0.7446E+00E
 Epicentro: LOS SANTOS - SANTANDER                                             3
 ACTION:UPD 16-03-04 21:30 OP:rebc STATUS:               ID:20160227231553 L   I
 OLDACT:REG 16-02-28 03:47 OP:cara STATUS:               ID:20160227230750     3
 2016-02-27-2307-50M.COL___319                                                 6
 STAT SP IPHASW D HRMM SECON CODA AMPLIT PERI AZIMU VELO AIN AR TRES W  DIS CAZ7
 BAR2 EZ IP     D 2316 13.51                             170   -0.1010 23.8 191 
 BAR2 EZ ES       2316 29.28                             170    0.0810 23.8 191 
 BAR2 EZ I        2316 31.91        22.5 0.26            169           23.8 191 
 PAM  EZ IP     D 2316 16.34                             152    0.2310 76.8  39 
 PAM  EN ES       2316 33.62                             152   -0.0310 76.8  39 
 PAM  EZ I        2316 35.61        25.8 0.52            156           76.8  39 
 RUS  HZ EP       2316 17.40                             144   -0.2910  101 176 
 RUS  HN ES       2316 36.57                             144    0.1110  101 176 
 RUS  HZ I        2316 37.79         7.0 0.42            146            101 176 
 PTB  HZ EP       2316 20.48                             133   -0.39 9  148 259 
 PTB  HN ES       2316 41.74                             133   -0.39 9  148 259 
 PTB  HZ I        2316 42.69        14.4 0.20            133            148 259 
 SPBC HZ EP       2316 22.31                             130   -0.09 9  164 219 
 SPBC HE ES       2316 44.92                             130    0.07 9  164 219 
 SPBC HZ I        2316 51.74        18.9 0.20            131            164 219 
 ZAR  HZ EP       2316 26.22                             123   -0.06 9  204 292 
 ZAR  HE ES       2316 52.20                             123    0.44 9  204 292 
 ZAR  HZ I        2316 57.65        12.9 0.60            124            204 292 
 CHI  HZ IP       2316 31.89                             118    0.35 8  249 195 
 CHI  HN ES       2317  1.13                             118    0.02 8  249 195 
 CHI  HZ I        2317  6.24         2.2 0.70            119            249 195 
 GUY2CHZ EP   4   2316 38.66                             113    1.23 0  302 235 
 GUY2CHN ES       2317 11.98                             113    0.37 7  302 235 
 GUY2CHZ I        2317 20.44         8.7 0.74                           302 235 
                                                                                
