 2016  327 2229 38.8 L   6.796 -73.187141.4  RSN  4 0.2 1.4LRSN                1
 GAP=132        0.58       3.0     2.7  5.8 -0.8234E-01  0.6105E+01 -0.1867E+01E
 Epicentro: ZAPATOCA - SANTANDER                                               3
 ACTION:UPD 16-05-13 21:28 OP:cam  STATUS:               ID:20160327222938 L   I
 OLDACT:UP  16-03-28 06:24 OP:mh   STATUS:               ID:20160327222749     3
 OLDACT:REG 16-03-28 04:39 OP:mh   STATUS:               ID:20160327222749     3
 2016-03-27-2227-49M.COL___304                                                 6
 STAT SP IPHASW D HRMM SECON CODA AMPLIT PERI AZIMU VELO AIN AR TRES W  DIS CAZ7
 PAM  EN EP       2230  0.96                             149    0.1610 80.7  42 
 PAM  EZ ES       2230 17.80                             149   -0.1210 80.7  42 
 PAM  EN I        2230 18.87        11.0 0.44            152           80.7  42 
 RUS  HZ EP       2230  1.89                             143   -0.2710  101 173 
 RUS  HN ES       2230 20.57                             143    0.2110  101 173 
 RUS  HZ I        2230 22.77         1.9 0.39            146            101 173 
 PTB  HZ EP       2230  4.79                             132   -0.25 9  143 259 
 PTB  HN ES       2230 25.49                             132    0.01 9  143 259 
 PTB  HZ I        2230 27.25         2.4 0.24            133            143 259 
 ZAR  HZ EP       2230 10.97                             122    0.38 9  200 293 
 ZAR  HN ES       2230 35.27                             122   -0.08 9  200 293 
 ZAR  HZ I        2230 42.10         2.5 0.26            123            200 293 
                                                                                
