 2010  827 2055 30.8 L   6.781 -73.080142.0  RSN 13 0.4 2.4LRSN                1
 GAP=166        0.97       3.8     7.4  6.2 -0.8492E+01  0.6080E+01  0.1790E+01E
 Epicentro: LOS SANTOS - SANTANDER                                             3
 ACTION:UP  10-09-07 10:58 OP:vdl  STATUS:               ID:20100827205530 L   I
 2010-08-27-2053-11S.COL___119                                                 6
 STAT SP IPHASW D HRMM SECON CODA AMPLIT PERI AZIMU VELO SNR AR TRES W  DIS CAZ7
 BAR2 SZ EP       2055 49.83                             170    -0.210   24 209 
 BAR2 SZ ES   1   2056  4.44                             170    -0.5 7   24 209 
 BAR2 SZ I        2056  6.59        51.3 0.30                            24 209 
 BTL  SZ EP       2055 50.12                             170     0.110   26 306 
 BTL  SZ ES   1   2056  5.77                             170     0.7 7   26 306 
 GIR2 SZ EP   1   2055 49.92                             166    -0.2 7   35 339 
 BRR  HZ IP     C 2055 51.69                             150    -0.310   79 297 
 BRR  HZ I        2055 52.05        70.4 0.12                            79 297 
 BRR  HE ES   1   2056  8.31                             150    -0.2 7   79 297 
 RUS  HZ EP       2055 53.76                             144    -0.310   98 180 
 RUS  HN ES   1   2056 12.52                             144     0.4 7   98 180 
 RUS  HZ I        2056 13.76        17.0 0.48                            98 180 
 GUE  SZ EP   1   2055 54.77                             138    -0.5 7  117   8 
 GRA  SZ EP       2055 56.53                             136     0.810  126  14 
 GRA  SZ ES   2   2056 15.47                             136     0.3 5  126  14 
 GRA  SZ I        2056 19.14        19.0 0.37                           126  14 
 OCA  SZ EP   1   2055 58.82                             128    -0.3 7  163 351 
 OCA  SZ ES   1   2056 20.93                             128    -0.3 7  163 351 
 OCA  SZ I        2056 25.07        30.8 0.28                           163 351 
 CHI  HZ EP   1   2056  8.26                             116     0.0 6  249 197 
 CHI  HN ES   2   2056 37.57                             116     0.0 4  249 197 
 CHI  HZ I        2056 43.37         5.5 0.39                           249 197 
 HEL  HZ EP   1   2056 11.62                             114     0.1 6  279 257 
 HEL  HZ I        2056 49.12        16.8 0.38                           279 257 
 GUY  SZ EP   1   2056 15.05                             111     0.3 5  306 236 
 GUY  SE ES   2   2056 49.75                                     0.6 4  306 236 
 GUY  SZ I        2056 55.23        25.2 0.34                           306 236 
 RREF HZ EP   1   2056 17.62                             110     0.4 5  326 230 
 RREF HN ES   2   2056 53.94                             110     0.4 3  326 230 
 RREF HZ I        2057  1.93        13.0 0.37                           326 230 
 PRA  HE ES   1   2057  5.41                             106    -0.8 4  394 211 
 PRA  HZ I        2057 14.14         7.7 0.21                           394 211 
                                                                                
