 2017  127 2240 11.4 L   6.769 -73.155142.5  RSN  9 0.4 2.0LRSN                1
 GAP=137        1.03       4.0     4.6  5.9 -0.2121E+01  0.8521E+01  0.3507E+01E
 Epicentro: LOS SANTOS - SANTANDER                                             3
 ACTION:UPD 17-05-22 16:04 OP:jn   STATUS:               ID:20170127224011 L   I
 OLDACT:UP  17-01-28 03:41 OP:y    STATUS:               ID:20170127223745     3
 OLDACT:REG 17-01-28 02:33 OP:cara STATUS:               ID:20170127223745     3
 2017-01-27-2238-00M.COL___346                                                 6
 STAT SP IPHASW D HRMM SECON CODA AMPLIT PERI AZIMU VELO AIN AR TRES W  DIS CAZ7
 BAR2 EZ IP     C 2240 30.54                             172   -0.0110 19.8 189 
 BAR2 EZ ES       2240 45.37                             172   -0.1310 19.8 189 
 BAR2 EZ I        2240 46.33        27.6 0.22            170           19.8 189 
 BRR  HZ IP     D 2240 32.40                             152    0.1810 72.0 301 
 BRR  HN ES       2240 49.45                             152    0.9710 72.0 301 
 BRR  HZ I        2240 53.38        21.9 0.30            150           72.0 301 
 PAM  EZ IP     D 2240 33.32                             149   -0.1210 80.6  39 
 PAM  EN ES       2240 50.45                             149   -0.2110 80.6  39 
 PAM  EZ I        2240 52.77        16.5 0.38            153           80.6  39 
 RUS  HZ EP       2240 34.88                             144    0.3110 97.3 175 
 RUS  HN ES       2240 52.18                             144   -0.4810 97.3 175 
 RUS  HZ I        2240 53.84        15.9 0.24            146           97.3 175 
 PTB  HZ EP       2240 37.38                             132   -0.55 9  146 260 
 PTB  HN ES       2240 58.22                             132   -0.43 9  146 260 
 PTB  HZ I        2241  0.55        18.2 0.12            131            146 260 
 ZAR  HZ EP       2240 43.35                             122   -0.30 9  204 293 
 ZAR  HN ES   4   2241 10.00                             122    1.18 0  204 293 
 ZAR  HZ I        2241 14.92        14.1 0.36            122            204 293 
 NOR  HZ EP     C 2240 47.11                             118    0.49 8  232 235 
 NOR  HN ES       2241 13.81                             118   -0.30 8  232 235 
 NOR  HZ I        2241 18.51         6.9 0.16            119            232 235 
 CHI  HZ EP       2240 48.88                             117    0.37 8  245 195 
 CHI  HN ES       2241 17.86                             117    0.38 8  245 195 
 CHI  HZ I        2241 24.60         3.1 0.66            118            245 195 
 URE  HN ES   4   2241 25.88                             113    1.61 0  284 293 
 DBB  EZ EP       2240 58.52                             109   -0.12 7  339 275 
 DBB  EN ES   4   2241 33.64                             109   -1.86 0  339 275 
                                                                                
