 2016 1027 2309 32.3 L   6.789 -73.135147.2  RSN  6 0.4 1.6LRSN                1
 GAP=138        1.00       4.9     5.8  8.0  0.5019E+00  0.6744E+01  0.1669E+02E
 Epicentro: LOS SANTOS - SANTANDER                                             3
 ACTION:UPD 16-11-09 19:23 OP:rebc STATUS:               ID:20161027230932 L   I
 OLDACT:REG 16-10-28 05:30 OP:ar   STATUS:               ID:20161027230744     3
 2016-10-27-2308-00M.COL___349                                                 6
 STAT SP IPHASW D HRMM SECON CODA AMPLIT PERI AZIMU VELO AIN AR TRES W  DIS CAZ7
 BAR2 EZ EP   2   23 9 51.54                             171   -0.54 5 22.3 193 
 BAR2 EZ ES       2310  7.47                             171   -0.0410 22.3 193 
 BAR2 EZ I        2310  8.22        12.7 0.18            168           22.3 193 
 BRR  HZ EP       23 9 53.87                             152    0.1810 72.8 299 
 BRR  HN ES       2310 11.14                             152    0.7710 72.8 299 
 PAM  EN ES       2310 11.78                             151   -0.3610 77.6  38 
 PAM  EZ I        2310 14.11         9.3 0.42            152           77.6  38 
 RUS  HZ EP       23 9 56.10                             144    0.0110 99.3 177 
 RUS  HE ES       2310 14.69                             144    0.0310 99.3 177 
 RUS  HZ I        2310 16.36         5.4 0.40            142           99.3 177 
 PTB  HN ES       2310 19.86                             132   -0.78 9  149 259 
 PTB  HZ I        2310 21.63         4.1 0.38            132            149 259 
 CHI  HZ EP       2310 10.13                             117    0.16 8  248 195 
 CHI  HN ES       2310 39.55                             117    0.19 8  248 195 
 CHI  HZ I        2310 47.35         2.0 0.54            117            248 195 
                                                                                
