 2010  527 2353  4.6 L   6.770 -73.148145.6  RSN  8 0.5 2.6LRSN                1
 GAP=174        1.08       6.7    12.2 10.5 -0.4966E+02  0.5578E+02 -0.1300E+02E
 Epicentro: LOS SANTOS - SANTANDER                                             3
 ACTION:UP  10-08-24 10:07 OP:vdl  STATUS:               ID:20100527235304 L   I
 2010-05-27-2350-47S.COL___108                                                 6
 STAT SP IPHASW D HRMM SECON CODA AMPLIT PERI AZIMU VELO SNR AR TRES W  DIS CAZ7
 BAR2 SZ IP       2353 24.13                             172     0.010   20 191 
 BAR2 SZ ES   1   2353 39.34                             172     0.0 7   20 191 
 GUE  SZ EP       2353 28.96                             138    -0.610  120  12 
 GUE  SZ ES   2   2353 48.52                             138    -0.5 5  120  12 
 GRA  SZ IP       2353 30.90                             136     0.810  129  17 
 GRA  SZ ES   1   2353 50.65                             136     0.7 7  129  17 
 OCA  SZ EP       2353 32.64                             129    -0.6 9  164 353 
 OCA  SZ ES   2   2353 55.16                             129    -0.4 5  164 353 
 OCA  SZ I        2354  0.39        68.9 0.29                           164 353 
 CHI  HZ EP   2   2353 41.86                             117    -0.1 4  245 195 
 CHI  HE ES   2   2354 10.44                             117    -0.6 4  245 195 
 CHI  HZ I        2354 19.40        13.6 0.70                           245 195 
 ROSC BZ EP   2   2353 42.65                             117     0.3 4  250 211 
 ROSC BZ I        2354 22.01        20.8 0.39                           250 211 
 HEL  HZ EP       2353 45.04                             115     0.4 8  271 256 
 HEL  HE ES   2   2354 15.97                             115     0.0 4  271 256 
 HEL  HZ I        2354 22.77        22.9 0.49                           271 256 
 RREF BZ EP   2   2353 50.41                             111     0.0 3  319 230 
 RREF BZ I        2354 36.34        26.6 0.21                           319 230 
                                                                                
