 2010  827 2114 42.4 L   6.786 -73.104141.3  RSN 17 0.5 3.3LRSN                1
 GAP=129        1.27       4.4     6.4  6.7 -0.1417E+02  0.2038E+01  0.5924E+01E
 Epicentro: LOS SANTOS - SANTANDER                                             3
 ACTION:UP  10-09-07 10:58 OP:vdl  STATUS:               ID:20100827211442 L   I
 2010-08-27-2112-23S.COL___119                                                 6
 STAT SP IPHASW D HRMM SECON CODA AMPLIT PERI AZIMU VELO SNR AR TRES W  DIS CAZ7
 BAR2 SZ IP       2115  1.39                             171    -0.110   23 202 
 BAR2 SZ ES   1   2115 15.85                             171    -0.5 7   23 202 
 BAR2 SZ I        2115 17.29       508.1 0.20                            23 202 
 GIR2 SZ EP       2115  1.47                             165    -0.110   34 343 
 GIR2 SZ ES   1   2115 15.76                             165    -0.8 7   34 343 
 BRR  HZ IP     C 2115  3.26                             149    -0.110   76 298 
 BRR  HE ES       2115 20.12                             149     0.410   76 298 
 BRR  HZ I        2115 22.71       570.3 0.16                            76 298 
 RUS  HZ EP       2115  5.31                             143    -0.310   99 179 
 RUS  HE ES   1   2115 23.87                             143     0.2 7   99 179 
 RUS  HZ I        2115 25.47       165.9 0.37                            99 179 
 BRI  SZ EP       2115  5.99                             140     0.110  108  18 
 GUE  SZ EP       2115  6.43                             138    -0.310  117  10 
 GRA  SZ IP       2115  8.27                             135     1.010  126  15 
 GRA  SZ ES       2115 27.55                             135     0.910  126  15 
 GRA  SZ I        2115 28.96       288.2 0.42                           126  15 
 OCA  SZ EP   1   2115  9.92                             128    -0.6 7  162 352 
 OCA  SZ ES   2   2115 31.49                             128    -1.0 5  162 352 
 OCA  SZ I        2115 35.12       228.0 0.41                           162 352 
 CHI  HZ EP   1   2115 19.52                             116    -0.3 6  248 196 
 CHI  HN ES   1   2115 48.70                             116    -0.3 6  248 196 
 CHI  HZ I        2115 52.87        56.1 0.34                           248 196 
 ROSC BZ EP   1   2115 21.15                             115     0.8 6  254 212 
 ROSC BZ I        2115 57.08       117.2 0.41                           254 212 
 HEL  HZ EP   1   2115 23.21                             113     0.4 6  276 256 
 HEL  HE ES   1   2115 53.68                             113    -0.7 6  276 256 
 HEL  HZ I        2116  0.21        95.0 0.47                           276 256 
 GUY  SZ EP   1   2115 26.75                             111     0.6 5  304 236 
 GUY  SE ES   1   2116  0.36                             111     0.1 5  304 236 
 GUY  SZ I        2116  8.47       287.0 0.43                           304 236 
 RREF HZ EP       2115 28.68                             110     0.1 7  324 230 
 RREF HN ES   1   2116  4.83                             110     0.1 5  324 230 
 DBB  SZ EP   1   2115 29.59                             108    -0.6 5  344 274 
 DBB  SZ I        2116 10.23        30.3 0.36                           344 274 
 SDV  BZ EP       2115 31.17                             107    -0.8 6  358  50 
 ANIL HZ EP   1   2115 32.81                             107     0.5 5  360 225 
 ANIL HN ES   1   2116 10.38                             107    -0.8 5  360 225 
 ANIL HZ I        2116 18.41       165.9 0.44                           360 225 
 PRA  HZ EP   1   2115 35.16                             105    -0.7 4  393 210 
 PRA  HE ES   1   2116 17.88                             105     0.3 4  393 210 
 PRA  HZ I        2116 24.46        67.3 0.42                           393 210 
                                                                                
