 2012 1127 2334 22.9 L   6.735 -73.151143.4  RSN  6 0.4 1.4LRSN                1
 GAP=139        0.82       5.4     5.1  7.9 -0.9393E+00  0.1134E+02  0.9099E+00E
 Epicentro: JORDAN - SANTANDER                                                 3
 ACTION:UPD 12-12-05 15:36 OP:}ep  STATUS:               ID:20121127233422 L   I
 2012-11-27-2330-00M.COL___234                                                 6
 STAT SP IPHASW D HRMM SECON CODA AMPLIT PERI AZIMU VELO AIN AR TRES W  DIS CAZ7
 BAR2 SZ EP   1   2334 41.83                             173   -0.25 7 16.1 192 
 BAR2 SZ ES   1   2334 56.90                             173   -0.17 7 16.1 192 
 GIR2 SZ EP   1   2334 42.51                             164    0.05 7 38.3 353 
 GIR2 SZ ES   1   2334 58.13                             164    0.37 7 38.3 353 
 GIR2 SZ I        2334 59.55         4.6 0.58                          38.3 353 
 PAM  SZ EP   1   2334 45.42                             148    0.22 7 83.4  37 
 PAM  SE ES   1   2335  2.16                             148   -0.46 7 83.4  37 
 PAM  SZ I        2335  4.80         5.7 0.78                          83.4  37 
 RUS  HZ EP   1   2334 45.78                             145   -0.09 7 93.4 175 
 RUS  HN ES   1   2335  4.36                             145    0.54 7 93.4 175 
 RUS  HZ I        2335  5.74         4.8 0.34                          93.4 175 
 PTB  HZ EP   1   2334 49.40                             132   -0.07 7  146 262 
 PTB  HN ES   1   2335  9.43                             132   -0.80 7  146 262 
 PTB  HZ I        2335 11.93         2.3 0.16                           146 262 
 ZAR  HN ES   1   2335 21.51                             121    0.75 6  206 294 
                                                                                
