 2017  327 2049  0.1 L   6.787 -73.130143.4  RSN  5 0.2 1.8LRSN                1
 GAP=139        0.56       3.1     3.1  5.7 -0.1113E+01 -0.8365E+00  0.2519E+01E
 Epicentro: LOS SANTOS - SANTANDER                                             3
 ACTION:UPD 17-05-25 18:46 OP:jn   STATUS:               ID:20170327204900 L   I
 OLDACT:UP  17-03-28 02:49 OP:cog  STATUS:               ID:20170327204742     3
 OLDACT:REG 17-03-28 02:27 OP:cog  STATUS:               ID:20170327204742     3
 2017-03-27-2048-00M.COL___366                                                 6
 STAT SP IPHASW D HRMM SECON CODA AMPLIT PERI AZIMU VELO AIN AR TRES W  DIS CAZ7
 BAR2 EZ I        2049 35.34        16.0 0.22            171           22.4 195 
 BRR  HZ EP       2049 21.17                             151    0.0010 73.4 299 
 BRR  HN ES       2049 37.90                             151    0.3310 73.4 299 
 PAM  EZ EP       2049 22.22                             150    0.1110 77.4  38 
 PAM  EN ES       2049 38.99                             150   -0.2510 77.4  38 
 PAM  EZ I        2049 41.01        18.4 0.50            152           77.4  38 
 RUS  HZ EP       2049 23.59                             144    0.0310 99.1 177 
 RUS  HN ES       2049 41.86                             144    0.0410 99.1 177 
 RUS  HZ I        2049 43.32         6.1 0.38            145           99.1 177 
 PTB  HZ EP   4   2049 23.97                             131   -3.09 0  149 259 
 PTB  HN ES       2049 47.75                             131   -0.30 9  149 259 
 PTB  HZ I        2049 50.01         5.3 0.18            132            149 259 
                                                                                
