 2013  127 2130 15.3 L   6.789 -73.165137.6  RSN  9 0.3 1.6LRSN                1
 GAP=135        0.68       2.8     3.6  5.7 -0.2509E+00  0.2866E+01  0.3072E+01E
 Epicentro: LOS SANTOS - SANTANDER                                             3
 ACTION:UPD 13-02-15 09:17 OP:ep   STATUS:               ID:20130127213015 L   I
 2013-01-27-2130-00M.COL___241                                                 6
 STAT SP IPHASW D HRMM SECON CODA AMPLIT PERI AZIMU VELO AIN AR TRES W  DIS CAZ7
 BAR2 SZ ES   1   2130 48.73                             171    0.32 7 21.9 185 
 BAR2 SZ I        2130 50.07        28.5 0.20            167           21.9 185 
 BRR  HZ EP     D 2130 35.81                             151    0.3410 70.0 300 
 BRR  HE ES   1   2130 51.42                             151    0.20 7 70.0 300 
 BRR  HZ I        2130 55.68         7.8 0.28            151           70.0 300 
 PAM  SZ EP       2130 36.81                             149    0.0410 79.7  40 
 PAM  SN ES   1   2130 53.48                             149   -0.05 7 79.7  40 
 PAM  SZ I        2130 55.66        11.1 0.46            155           79.7  40 
 RUS  HZ EP     D 2130 37.96                             142   -0.1910 99.5 175 
 RUS  HN ES   1   2130 55.83                             142   -0.17 7 99.5 175 
 RUS  HZ I        2130 58.01         3.1 0.26            142           99.5 175 
 PTB  HZ EP   1   2130 40.92                             131   -0.45 7  145 259 
 PTB  HN ES   1   2131  1.20                             131   -0.53 7  145 259 
 PTB  HZ I        2131  4.42         5.8 0.14            130            145 259 
 OCA  HE ES   1   2131  4.24                             128   -0.48 7  161 354 
 ZAR  HN ES   1   2131 12.11                             121    0.29 6  203 293 
 ZAR  HZ I        2131 14.53         4.7 0.26            122            203 293 
 NOR  HE ES   2   2131 18.01                             117    0.43 4  232 234 
 NOR  HZ I        2131 25.66         2.5 0.14            117            232 234 
 CHI  HZ EP   1   2130 53.01                             116    0.67 6  247 195 
 CHI  HN ES   1   2131 21.02                             116   -0.23 6  247 195 
 CHI  HZ I        2131 29.20         1.4 0.22            116            247 195 
                                                                                
