 2016  327 2042 10.6 L   6.760 -73.124149.4  RSN  6 0.3 1.4LRSN                1
 GAP=141        0.86       3.4     4.1  7.7 -0.1545E+01  0.1054E+02 -0.1214E+01E
 Epicentro: LOS SANTOS - SANTANDER                                             3
 ACTION:UPD 16-05-13 21:28 OP:cam  STATUS:               ID:20160327204210 L   I
 OLDACT:REG 16-03-28 04:36 OP:mh   STATUS:               ID:20160327203749     3
 2016-03-27-2037-49M.COL___304                                                 6
 STAT SP IPHASW D HRMM SECON CODA AMPLIT PERI AZIMU VELO AIN AR TRES W  DIS CAZ7
 PAM  EZ EP       2042 33.52                             151    0.1910 79.4  36 
 PAM  EN ES       2042 50.76                             151   -0.2910 79.4  36 
 PAM  EZ I        2042 51.80         4.2 0.21            156           79.4  36 
 RUS  HZ EP       2042 34.39                             146   -0.0110 96.0 177 
 RUS  HN ES       2042 53.34                             146    0.3810 96.0 177 
 RUS  HZ I        2042 55.41         2.1 0.26            147           96.0 177 
 PTB  HZ EP       2042 37.51                             132   -0.51 9  149 261 
 PTB  HN ES       2042 59.03                             132   -0.36 9  149 261 
 PTB  HZ I        2043  4.48         4.1 0.44            133            149 261 
 SPBC HZ EP   1   2042 39.03                             130   -0.19 7  161 221 
 SPBC HN ES       2043  1.88                             130    0.35 9  161 221 
 SPBC HZ I        2043  4.45         6.8 0.40            131            161 221 
 ZAR  HZ EP       2042 44.27                             123    0.58 8  208 293 
 ZAR  HN ES       2043  9.69                             123    0.19 8  208 293 
 ZAR  HZ I        2043 15.19         3.8 0.44            124            208 293 
 CHI  HE ES       2043 16.96                             118   -0.42 8  245 196 
 CHI  HZ I        2043 22.32         0.9 0.20            120            245 196 
                                                                                
