 2012  927 2101 59.3 L   6.790 -73.091146.9  RSN  5 0.1 1.7LRSN                1
 GAP=144        0.30       2.1     3.0  3.0  0.9798E-01  0.1383E+00 -0.1208E+00E
 Epicentro: LOS SANTOS - SANTANDER                                             3
 ACTION:UPD 12-10-22 14:21 OP:ep   STATUS:               ID:20120927210159 L   I
 2012-09-27-2100-00M.COL___213                                                 6
 STAT SP IPHASW D HRMM SECON CODA AMPLIT PERI AZIMU VELO AIN AR TRES W  DIS CAZ7
 BAR2 SZ EP   1   21 2 18.89                             170   -0.17 7 24.0 205 
 BAR2 SZ ES   1   21 2 34.57                             170    0.09 7 24.0 205 
 BAR2 SZ I        21 2 37.67        11.6 0.23                          24.0 205 
 GIR2 SZ EP   2   21 2 19.17                             166    0.01 5 33.9 341 
 PAM  SZ EP   1   21 2 21.43                             152   -0.02 7 74.6  35 
 PAM  SZ I        21 2 22.24         9.1 0.19                          74.6  35 
 PAM  SN ES   1   21 2 38.75                             152    0.01 7 74.6  35 
 BRR  HZ EP       21 2 20.99                             151    0.1010 77.1 297 
 BRR  HN ES   1   21 2 37.64                             151   -0.10 7 77.1 297 
 BRR  HZ I        21 2 40.29        11.8 0.13                          77.1 297 
 RUS  HZ EP   1   21 2 23.06                             144    0.02 7 99.2 179 
 RUS  HN ES   1   21 2 41.55                             144   -0.02 7 99.2 179 
                                                                                
