 2013 1127 2256 52.5 L   6.690 -73.197147.0  RSN  4 0.5 1.7LRSN                1
 GAP=194        1.17      11.0     9.1 10.0  0.3625E+01  0.1424E+02 -0.1085E+02E
 Epicentro: VILLANUEVA - SANTANDER                                             3
 ACTION:UPD 14-01-09 16:31 OP:ep   STATUS:               ID:20131127225652 L   I
 OLDACT:REG 13-11-28 04:00 OP:nd   STATUS:               ID:20131127225000     3
 2013-11-27-2250-00M.COL___282                                                 6
 STAT SP IPHASW D HRMM SECON CODA AMPLIT PERI AZIMU VELO AIN AR TRES W  DIS CAZ7
 BAR2 SZ EP       2257 11.54                             176   -0.5210 10.9 171 
 BAR2 SZ ES       2257 27.41                             176    0.0710 10.9 171 
 BAR2 SZ I        2257 29.55        10.4 0.26            174           10.9 171 
 BRR  HZ EP       2257 14.06                             152    0.2010 73.3 309 
 BRR  HN ES       2257 30.85                             152    0.3010 73.3 309 
 BRR  HZ I        2257 34.32         8.0 0.72            144           73.3 309 
 PTB  HZ EP       2257 19.71                             134    0.85 9  140 263 
 PTB  HN ES       2257 38.79                             134   -0.66 9  140 263 
 PTB  HZ I        2257 42.21         3.5 0.38            132            140 263 
 SML  HZ EP   2   2257 29.42                             117   -0.71 4  253 338 
 SML  HZ I        2257 41.64         7.0 0.14            112            253 338 
 SML  HN ES   2   2257 58.87                             117   -0.63 4  253 338 
                                                                                
