 2017 1027 2114 40.8 L   6.817 -73.215140.2  RSN  5 0.3 1.4LRSN                1
 GAP=127        0.79       4.1     3.4  8.1 -0.1081E+01  0.5937E+01 -0.2994E+01E
 Epicentro: ZAPATOCA - SANTANDER                                               3
 ACTION:UPD 17-11-07 19:37 OP:rebc STATUS:               ID:20171027211440 L   I
 OLDACT:REG 17-10-28 03:19 OP:leo  STATUS:               ID:20171027210737     3
 2017-10-27-2108-00M.COL___459                                                 6
 STAT SP IPHASW D HRMM SECON CODA AMPLIT PERI AZIMU VELO AIN AR TRES W  DIS CAZ7
 PAM  EZ EP       2115  2.78                             148    0.1410 81.1  45 
 PAM  EN ES       2115 19.56                             148   -0.1310 81.1  45 
 PAM  EZ I        2115 21.81         6.1 0.34            153           81.1  45 
 RUS  HZ EP       2115  3.74                             141   -0.4510  103 172 
 RUS  HN ES       2115 22.73                             141    0.2810  103 172 
 RUS  HZ I        2115 23.81         1.4 0.19            144            103 172 
 PTB  HZ EP       2115  7.01                             132    0.36 9  141 257 
 PTB  HN ES       2115 26.64                             132   -0.19 9  141 257 
 PTB  HZ I        2115 33.67         3.3 0.46            133            141 257 
 ZAR  HN ES       2115 36.46                             122    0.00 9  196 292 
 NOR  HZ EP   9   2115 18.28                             117    2.63 0  230 233 
 NOR  HN ES       2115 44.91                                   -0.56 8  230 233 
 NOR  HZ I        2115 48.25         3.7 0.11            119            230 233 
                                                                                
