 2017 1127 2204 17.1 L   6.380 -73.604109.1  RSN  6 0.3 1.4LRSN                1
 GAP=123        0.88       4.1     3.2  7.7 -0.5619E+01  0.4390E+01 -0.8612E+01E
 Epicentro: SANTA HELENA DEL OPON - SANTANDER                                  3
 ACTION:UPD 17-12-12 20:01 OP:rebc STATUS:               ID:20171127220417 L   I
 OLDACT:UP  17-11-28 07:29 OP:edw  STATUS:               ID:20171127215247d    3
 OLDACT:DUP 17-11-28 07:25 OP:edw  STATUS:               ID:20171127215247d    3
 OLDACT:REG 17-11-28 07:01 OP:edw  STATUS:               ID:20171127215246     3
 2017-11-27-2158-00M.COL___495                                                 6
 STAT SP IPHASW D HRMM SECON CODA AMPLIT PERI AZIMU VELO AIN AR TRES W  DIS CAZ7
 BAR2 EZ EP       22 4 34.05                             153    0.5010 52.3  63 
 BAR2 EZ ES       22 4 46.72                             153    0.3310 52.3  63 
 BAR2 EZ I        22 4 48.30        18.6 0.36            154           52.3  63 
 RUS  HZ EP       22 4 35.55                             142   -0.1310 78.9 133 
 RUS  HN ES       22 4 49.83                             142   -0.3510 78.9 133 
 RUS  HZ I        22 4 51.62         3.6 0.20            144           78.9 133 
 SPBC HN ES       22 4 51.91                             136    0.3110 95.7 213 
 PTB  HZ EP       22 4 36.48                             135    0.0910 95.9 281 
 PTB  HE ES       22 4 51.28                             135   -0.1610 95.9 281 
 PTB  HZ I        22 4 52.67         4.9 0.34            138           95.9 281 
 PAM  EZ EP       22 4 42.00                             123    0.23 9  146  43 
 PAM  EN ES       22 5  0.45                             123   -0.58 9  146  43 
 PAM  EZ I        22 5  1.74         2.2 0.62            125            146  43 
 NOR  HN ES       22 5  3.56                             119   -0.34 9  167 237 
                                                                                
