 2017  327 2156  5.0 L   6.774 -73.116145.6  RSN  6 0.3 1.3LRSN                1
 GAP=142        0.90       4.5     4.1  6.6  0.1507E+01  0.5340E+01  0.3625E+00E
 Epicentro: LOS SANTOS - SANTANDER                                             3
 ACTION:UPD 17-05-25 18:46 OP:jn   STATUS:               ID:20170327215605 L   I
 OLDACT:DUP 17-03-28 02:55 OP:cog  STATUS:               ID:20170327214744d    3
 2017-03-27-2148-00M.COL___366                                                 6
 STAT SP IPHASW D HRMM SECON CODA AMPLIT PERI AZIMU VELO AIN AR TRES W  DIS CAZ7
 BAR2 EZ EP       2156 24.06                             171   -0.4610 21.4 200 
 BAR2 EZ ES       2156 39.53                             171   -0.2510 21.4 200 
 BAR2 EZ I        2156 40.56        10.0 0.12            173           21.4 200 
 BRR  HZ EP       2156 26.52                             151    0.2010 75.4 299 
 BRR  HZ ES       2156 42.92                             151   -0.0810 75.4 299 
 PAM  EZ EP       2156 27.60                             151    0.4410 77.6  36 
 PAM  EZ I        2156 42.20         1.5 0.22            141           77.6  36 
 PAM  EE ES       2156 44.37                             151   -0.1210 77.6  36 
 RUS  HZ EP       2156 28.59                             145    0.1210 97.5 178 
 RUS  HE ES       2156 47.17                             145    0.3610 97.5 178 
 RUS  HZ I        2156 49.07         2.2 0.16            141           97.5 178 
 PTB  HZ EP       2156 31.45                             131   -0.70 9  150 260 
 PTB  HE ES       2156 53.50                             131    0.14 9  150 260 
 PTB  HZ I        2156 55.12         5.8 0.16            129            150 260 
 ZAR  HN ES       2157  3.81                             122    0.37 8  208 293 
                                                                                
