 2016  227 2320 37.8 L   6.828 -73.169142.6  RSN  6 0.3 1.6LRSN                1
 GAP=132        0.74       3.2     3.4  5.5  0.1630E+00  0.5429E+01  0.3215E+01E
 Epicentro: LOS SANTOS - SANTANDER                                             3
 ACTION:UPD 16-03-04 21:30 OP:rebc STATUS:               ID:20160227232037 L   I
 OLDACT:REG 16-02-28 03:50 OP:cara STATUS:               ID:20160227231746     3
 2016-02-27-2317-46M.COL___319                                                 6
 STAT SP IPHASW D HRMM SECON CODA AMPLIT PERI AZIMU VELO AIN AR TRES W  DIS CAZ7
 BAR2 EZ IP       2320 57.21                             169    0.0810 26.1 183 
 BAR2 EZ ES       2321 12.38                             169    0.1910 26.1 183 
 BAR2 EZ I        2321 14.54         6.7 0.11            167           26.1 183 
 PAM  EZ IP       2320 59.80                             150    0.1410 76.8  42 
 PAM  EE ES       2321 16.32                             150   -0.3810 76.8  42 
 PAM  EZ I        2321 17.32         5.0 0.22            154           76.8  42 
 RUS  HZ IP       2321  1.62                             142    0.1210  104 175 
 RUS  HN ES       2321 20.20                             142    0.2310  104 175 
 RUS  HZ I        2321 21.22         2.6 0.40            142            104 175 
 PTB  HZ EP       2321  4.02                             132   -0.34 9  146 257 
 PTB  HN ES       2321 24.61                             132   -0.45 9  146 257 
 PTB  HZ I        2321 27.03         6.5 0.50            131            146 257 
 ZAR  HN ES       2321 35.11                             122    0.55 9  201 292 
 ZAR  HZ I        2321 40.27        11.4 0.40            122            201 292 
 CHI  HZ EP       2321 15.65                             116    0.06 8  251 194 
 CHI  HN ES       2321 44.84                             116   -0.22 8  251 194 
 CHI  HZ I        2321 53.06         2.9 0.36            116            251 194 
                                                                                
