 2011  827 2113  5.9 L   7.463 -73.171129.7  RSN  4 0.2 1.5LRSN                1
 GAP=228        0.56       5.6     4.5  5.5 -0.2594E+01 -0.2330E+01  0.2462E+01E
 Epicentro: EL PLAYON - SANTANDER                                              3
 ACTION:UPD 12-07-13 15:54 OP:ep   STATUS:               ID:20110827211305 L   I
 2011-08-27-2111-15S.COL___161                                                 6
 STAT SP IPHASW D HRMM SECON CODA AMPLIT PERI AZIMU VELO AIN AR TRES W  DIS CAZ7
 PAM  SZ EP   1   2113 24.93                             156   -0.11 7 53.8 105 
 PAM  SE ES   1   2113 39.96                             156   -0.04 7 53.8 105 
 PAM  SZ I        2113 41.98         3.4 0.43                          53.8 105 
 BRR  HZ EP       2113 25.56                             149    0.2310 71.6 237 
 BRR  HN ES       2113 40.30                             149   -0.2010 71.6 237 
 BRR  HZ I        2113 41.85        18.2 0.18                          71.6 237 
 BAR2 SZ EP       2113 27.60                             141    0.2110 96.3 181 
 BAR2 SZ ES   1   2113 44.30                             141    0.12 7 96.3 181 
 BAR2 SZ I        2113 44.83        10.3 0.23                          96.3 181 
 RUS  HZ EP   1   2113 34.25                             123   -0.55 7  174 177 
 RUS  HZ I        2113 35.13         1.5 0.05                           174 177 
 RUS  HE ES   2   2113 57.47                             123    0.10 4  174 177 
                                                                                
