 2014  727 2202 54.6 L   6.755 -73.147143.8  RSN  4 0.4 1.5LRSN                1
 GAP=234        1.16       9.1     8.8  9.3  0.4008E+02  0.7843E+01  0.1392E+01E
 Epicentro: LOS SANTOS - SANTANDER                                             3
 ACTION:UPD 15-03-16 20:47 OP:nd   STATUS:               ID:20140727220254 L   I
 OLDACT:UP  14-07-28 05:22 OP:cam  STATUS:               ID:20140727220000     3
 OLDACT:REG 14-07-28 02:31 OP:cam  STATUS:               ID:20140727220000     3
 2014-07-27-2200-00M.COL___282                                                 6
 STAT SP IPHASW D HRMM SECON CODA AMPLIT PERI AZIMU VELO AIN AR TRES W  DIS CAZ7
 BAR2 SZ EP       22 3 13.69                             172   -0.2410 18.4 192 
 BAR2 SZ ES       22 3 28.26                             172   -0.7310 18.4 192 
 BAR2 SZ I        22 3 30.87         7.9 0.28            173           18.4 192 
 BRR  HZ EP     C 22 3 15.84                             151    0.1410 73.6 302 
 BRR  HN ES       22 3 32.75                             151    0.6110 73.6 302 
 BRR  HZ I        22 3 36.66         9.7 0.34            152           73.6 302 
 RUS  HZ EP       22 3 18.27                             145    0.4410 95.6 176 
 RUS  HE ES       22 3 36.24                             145    0.3110 95.6 176 
 RUS  HZ I        22 3 38.13         1.5 0.58            148           95.6 176 
 PTB  HZ EP       22 3 20.78                             132   -0.56 9  147 261 
 PTB  HN ES       22 3 42.14                             132   -0.04 9  147 261 
 PTB  HZ I        22 3 44.37         6.0 0.14            134            147 261 
                                                                                
