 2017 1127 2342 33.2 L   6.787 -73.180145.2  RSN  5 0.4 1.4LRSN                1
 GAP=142        1.05       5.8     6.1  8.4 -0.1249E+02  0.1495E+02  0.1730E+01E
 Epicentro: LOS SANTOS - SANTANDER                                             3
 ACTION:UPD 17-12-12 20:01 OP:rebc STATUS:               ID:20171127234233 L   I
 OLDACT:UP  17-11-28 10:25 OP:edw  STATUS:               ID:20171127233739     3
 OLDACT:REG 17-11-28 07:08 OP:edw  STATUS:               ID:20171127233739     3
 2017-11-27-2338-00M.COL___495                                                 6
 STAT SP IPHASW D HRMM SECON CODA AMPLIT PERI AZIMU VELO AIN AR TRES W  DIS CAZ7
 BAR2 EZ EP       2342 51.82                             171   -0.9010 21.6 181 
 BAR2 EZ ES       2343  7.87                             171   -0.0810 21.6 181 
 BAR2 EZ I        2343  9.30         7.4 0.28            171           21.6 181 
 PAM  EZ EP       2342 55.89                             149    0.3310 80.9  41 
 PAM  EE ES       2343 12.90                             149   -0.1110 80.9  41 
 PAM  EZ I        2343 14.77         6.4 0.56            152           80.9  41 
 RUS  HZ EP       2342 57.19                             144    0.3810 99.5 174 
 RUS  HN ES       2343 15.50                             144    0.2710 99.5 174 
 RUS  HZ I        2343 17.54         3.6 0.20            146           99.5 174 
 PTB  HZ EP       2343  0.06                             133    0.30 9  144 259 
 PTB  HN ES       2343 20.57                             133    0.09 9  144 259 
 PTB  HZ I        2343 23.52         2.2 0.14            134            144 259 
 PRA  HN ES       2344  7.13                             106   -0.65 6  389 209 
                                                                                
