 2015  527 2208 29.5 L   6.805 -73.154152.9  RSN  4 0.4 1.7LRSN                1
 GAP=135        1.16       6.5     9.5 10.0 -0.1014E+01 -0.5585E+01  0.5413E+01E
 Epicentro: LOS SANTOS - SANTANDER                                             3
 ACTION:UPD 15-09-10 22:07 OP:cam  STATUS:               ID:20150527220829 L   I
 OLDACT:UP  15-05-28 04:06 OP:mh   STATUS:               ID:20150527220749     3
 OLDACT:UP  15-05-28 04:05 OP:mh   STATUS:               ID:20150527220749     3
 OLDACT:REG 15-05-28 03:01 OP:mh   STATUS:               ID:20150527220749     3
 2015-05-27-2207-49M.COL___309                                                 6
 STAT SP IPHASW D HRMM SECON CODA AMPLIT PERI AZIMU VELO AIN AR TRES W  DIS CAZ7
 BAR2 EZ EP       22 8 50.40                             171    0.3710 23.7 188 
 BAR2 EZ ES   1   22 9  6.13                             171    0.11 7 23.7 188 
 BAR2 EZ I        22 9  6.90        13.3 0.20            170           23.7 188 
 BRR  HZ EP       22 8 50.54                             154   -0.8610 70.1 298 
 BRR  HN ES       22 9  8.85                             154    0.3910 70.1 298 
 BRR  HZ I        22 9 17.64        12.5 0.27            149           70.1 298 
 PAM  SZ EP       22 8 53.09                             152    0.5710 77.5  40 
 PAM  SN ES       22 9 10.06                             152   -0.3910 77.5  40 
 PAM  SZ I        22 9 12.93         5.9 0.30            155           77.5  40 
 RUS  HZ EP       22 8 54.08                             145    0.0410  101 176 
 RUS  HN ES       22 9 12.97                             145   -0.1810  101 176 
 RUS  HZ I        22 9 13.96         8.6 0.28            150            101 176 
                                                                                
