 2017  427 2124 30.2 L   6.858 -73.208142.0  RSN  6 0.4 1.8LRSN                1
 GAP=126        1.01       4.6     4.3  9.0 -0.3911E+01  0.1258E+02  0.3683E+01E
 Epicentro: ZAPATOCA - SANTANDER                                               3
 ACTION:UPD 17-05-30 21:16 OP:jn   STATUS:               ID:20170427212430 L   I
 OLDACT:UP  17-04-28 08:37 OP:cog  STATUS:               ID:20170427211744     3
 OLDACT:REG 17-04-28 08:01 OP:cog  STATUS:               ID:20170427211744     3
 2017-04-27-2118-00M.COL___374                                                 6
 STAT SP IPHASW D HRMM SECON CODA AMPLIT PERI AZIMU VELO AIN AR TRES W  DIS CAZ7
 PAM  EZ EP       2124 52.08                             150    0.1010 77.4  46 
 PAM  EN ES       2125  9.30                             150    0.3110 77.4  46 
 PAM  EZ I        2125 11.75         9.4 0.60            156           77.4  46 
 RUS  HZ EP       2124 53.51                             141   -0.5610  108 173 
 RUS  HN ES       2125 12.58                             141   -0.1410  108 173 
 RUS  HZ I        2125 14.80         7.0 0.42            146            108 173 
 PTB  HZ EP       2124 55.69                             132   -0.65 9  142 256 
 PTB  HN ES       2125 17.03                             132    0.27 9  142 256 
 PTB  HZ I        2125 24.73         8.9 0.50            135            142 256 
 SPBC HZ EP       2124 58.73                             128    0.27 9  164 216 
 SPBC HN ES       2125 20.48                             128   -0.06 9  164 216 
 ZAR  HZ EP   4   2125  2.86                             123    1.40 0  195 291 
 ZAR  HN ES       2125 25.47                             123   -0.40 9  195 291 
 NOR  HZ EP       2125  6.28                             118    0.79 8  233 232 
 NOR  HE ES       2125 33.39                             118    0.34 8  233 232 
 NOR  HZ I        2125 37.12         5.4 0.26            122            233 232 
                                                                                
