 2016  227 2015 47.1 L   6.799 -73.182133.1  RSN  6 0.3 1.7LRSN                1
 GAP=132        0.66       2.5     3.3  6.1 -0.3363E+01  0.7396E+01  0.4766E+00E
 Epicentro: ZAPATOCA - SANTANDER                                               3
 ACTION:UPD 16-03-04 21:30 OP:rebc STATUS:               ID:20160227201547 L   I
 OLDACT:DUP 16-02-28 04:40 OP:cara STATUS:               ID:20160227200748d    3
 OLDACT:UP  16-02-28 04:31 OP:cara STATUS:               ID:20160227200747     3
 OLDACT:REG 16-02-28 03:10 OP:cara STATUS:               ID:20160227200747     3
 2016-02-27-2007-47M.COL___316                                                 6
 STAT SP IPHASW D HRMM SECON CODA AMPLIT PERI AZIMU VELO AIN AR TRES W  DIS CAZ7
 PAM  EZ IP     C 2016  8.49                             147    0.3410 80.1  42 
 PAM  EE ES       2016 24.81                             147    0.2310 80.1  42 
 PAM  EZ I        2016 27.49        11.9 0.68            153           80.1  42 
 RUS  HZ EP       2016  9.42                             141   -0.2210  101 174 
 RUS  HN ES       2016 26.92                             141   -0.3010  101 174 
 RUS  HZ I        2016 28.58         7.0 0.50            144            101 174 
 PTB  HZ EP       2016 12.61                             130   -0.07 9  144 259 
 PTB  HN ES       2016 32.44                             130   -0.20 9  144 259 
 PTB  HZ I        2016 35.74         4.8 0.20            131            144 259 
 OCA  HE ES       2016 35.47                             127   -0.27 9  160 355 
 SPBC HZ EP       2016 14.22                             126   -0.17 9  161 218 
 SPBC HN ES       2016 36.07                             126    0.38 9  161 218 
 SPBC HZ I        2016 40.14         7.8 0.18            129            161 218 
 NOR  HZ EP       2016 21.80                             116    0.05 8  231 234 
 NOR  HN ES       2016 49.10                             116    0.31 8  231 234 
 NOR  HZ I        2016 56.76         3.1 0.20            119            231 234 
                                                                                
