 2010  527 2311 20.4 L   6.785 -73.364139.6  RSN  5 0.4 2.0LRSN                1
 GAP=135        0.62       6.3    14.3 13.2 -0.5267E+02  0.7684E+02 -0.1756E+02E
 Epicentro: ZAPATOCA - SANTANDER                                               3
 ACTION:UP  10-08-24 10:07 OP:vdl  STATUS:               ID:20100527231120 L   I
 2010-05-27-2309-41S.COL___108                                                 6
 STAT SP IPHASW D HRMM SECON CODA AMPLIT PERI AZIMU VELO SNR AR TRES W  DIS CAZ7
 BAR2 SZ EP       2311 39.50                             167     0.010   29 137 
 BAR2 SZ ES   3   2311 53.99                             167    -0.3 2   29 137 
 GUE  SZ EP   2   2311 44.24                             136    -1.1 5  125  23 
 GRA  SZ EP       2311 46.33                             133     0.3 9  136  27 
 GRA  SZ ES   2   2312  6.03                             133     0.0 5  136  27 
 OCA  SZ EP   2   2311 48.32                             128     0.0 5  161   2 
 OCA  SZ ES   2   2312 10.13                             128     0.0 5  161   2 
 OCA  SZ I        2312 13.79        10.3 0.58                           161   2 
 RREF BZ EP   2   2312  3.90                             111    -0.2 4  303 227 
 RREF BN ES   3   2312 38.84                             111     0.6 2  303 227 
 RREF BZ I        2312 51.02         5.1 0.43                           303 227 
                                                                                
