 2015  427 2356 54.7 L   6.786 -73.156147.0  RSN  7 0.4 1.7LRSN                1
 GAP=200        0.88       4.8     5.4  6.6  0.9618E+01  0.6487E+01  0.2576E+01E
 Epicentro: LOS SANTOS - SANTANDER                                             3
 ACTION:UPD 15-06-03 16:58 OP:cam  STATUS:               ID:20150427235654 L   I
 OLDACT:REG 15-04-28 04:34 OP:spq  STATUS:               ID:20150427234748     3
 2015-04-27-2347-48M.COL___280                                                 6
 STAT SP IPHASW D HRMM SECON CODA AMPLIT PERI AZIMU VELO AIN AR TRES W  DIS CAZ7
 BAR2 EZ EP   1   2357 14.18                             171   -0.26 7 21.7 188 
 BAR2 EZ ES   1   2357 29.49                             171   -0.35 7 21.7 188 
 BAR2 EZ I        2357 30.60        10.6 0.16            171           21.7 188 
 BRR  HZ EP   1   2357 16.33                             153    0.37 7 71.0 300 
 BRR  HN ES       2357 32.98                             153    0.4310 71.0 300 
 BRR  HZ I        2357 36.55         7.2 0.48            151           71.0 300 
 RUS  HZ EP       2357 18.36                             145   -0.1110 99.2 175 
 RUS  HN ES   1   2357 37.38                             145    0.37 7 99.2 175 
 RUS  HZ I        2357 38.02         2.6 0.25            147           99.2 175 
 PTB  HZ EP       2357 21.30                             133   -0.34 9  146 259 
 PTB  HE ES       2357 41.99                             133   -0.66 9  146 259 
 PTB  HZ I        2357 45.55         5.1 0.18            133            146 259 
 ZAR  HZ EP   1   2357 27.25                             123    0.08 6  204 293 
 ZAR  HE ES       2357 52.91                             123    0.41 9  204 293 
 ZAR  HZ I        2357 57.73         5.2 0.40            123            204 293 
 NOR  HZ EP       2357 30.85                             119    0.55 8  233 235 
 NOR  HE ES   1   2357 57.98                             119   -0.10 6  233 235 
 NOR  HZ I        2358  0.37         4.7 0.22            120            233 235 
 SML  HN ES   1   2357 59.69                             118   -0.50 6  245 336 
 SML  HZ I        2358  2.10         6.0 0.10            119            245 336 
                                                                                
