 2013  927 2059 45.8 L   6.797 -73.143147.1  RSN 10 0.4 1.8LRSN                1
 GAP=137        1.08       3.3     4.5  6.8  0.2784E+00  0.6250E+01  0.2771E+01E
 Epicentro: LOS SANTOS - SANTANDER                                             3
 ACTION:UPD 13-10-22 09:25 OP:ep   STATUS:               ID:20130927205945 L   I
 OLDACT:REG 13-09-27 21:33 OP:carl STATUS:               ID:20130927205959     3
 2013-09-27-2059-59M.COL___272                                                 6
 STAT SP IPHASW D HRMM SECON CODA AMPLIT PERI AZIMU VELO AIN AR TRES W  DIS CAZ7
 BAR2 SZ EP       21 0  5.27                             171   -0.2710 23.1 191 
 BRR  HZ EP       21 0  7.54                             153    0.4710 71.6 299 
 BRR  HN ES       21 0 24.30                             153    0.6010 71.6 299 
 BRR  HN I        21 0 24.96        36.4 0.30            152           71.6 299 
 PAM  SZ EP       21 0  8.54                             151    0.4310 77.4  39 
 PAM  SN ES       21 0 25.22                             151   -0.3310 77.4  39 
 PAM  SZ I        21 0 27.34        10.7 0.44            156           77.4  39 
 RUS  HZ EP       21 0  9.89                             144    0.2810  100 176 
 RUS  HN ES       21 0 27.76                             144   -0.4610  100 176 
 RUS  HZ I        21 0 30.70         3.0 0.42            144            100 176 
 PTB  HZ EP   4   21 0 12.73                             132   -0.12 0  148 259 
 PTB  HN ES       21 0 33.61                             132   -0.38 9  148 259 
 PTB  HZ I        21 0 37.47        10.6 0.30            132            148 259 
 SPBC HZ EP       21 0 15.04                             129    0.69 9  163 219 
 ZAR  HZ EP       21 0 18.23                             123   -0.10 9  204 292 
 ZAR  HN ES       21 0 44.15                             123    0.41 9  204 292 
 ZAR  HZ I        21 0 49.23         7.9 0.26            124            204 292 
 NOR  HZ EP       21 0 20.79                             119   -0.78 8  235 235 
 NOR  HN ES       21 0 49.40                             119   -0.11 8  235 235 
 NOR  HZ I        21 0 56.21         7.0 0.22            119            235 235 
 SML  HZ EP       21 0 22.21                             118   -0.29 8  244 335 
 SML  HE ES       21 0 50.47                             118   -0.69 8  244 335 
 CHI  HZ EP       21 0 23.46                             117   -0.04 8  248 195 
 CHI  HN ES       21 0 53.01                             117    0.06 8  248 195 
 CHI  HZ I        21 1  1.70         2.9 0.32            118            248 195 
                                                                                
