 2017  127 2330  3.5 L   6.689 -72.872  6.8  RSN  9 0.5 1.8LRSN                1
 GAP=138        1.32       5.2     3.4  9.6  0.4066E+01  0.1831E+02  0.2787E+02E
 Epicentro: MOLAGAVITA - SANTANDER                                             3
 ACTION:UPD 17-05-22 16:04 OP:jn   STATUS:               ID:20170127233003 L   I
 OLDACT:UP  17-01-28 03:35 OP:y    STATUS:               ID:20170127232743     3
 OLDACT:UP  17-01-28 03:34 OP:y    STATUS:               ID:20170127232743     3
 OLDACT:REG 17-01-28 02:39 OP:cara STATUS:               ID:20170127232743     3
 2017-01-27-2328-00M.COL___346                                                 6
 STAT SP IPHASW D HRMM SECON CODA AMPLIT PERI AZIMU VELO AIN AR TRES W  DIS CAZ7
 BAR2 EZ IP   9 D 2330  7.41                              93   -2.43 0 36.0 253 
 BAR2 EZ ES       2330 11.36                              47   -0.9810 36.0 253 
 BAR2 EZ I        2330 12.54       174.5 0.28             47           36.0 253 
 PAM  EZ EP       2330 15.40                              91   -0.5010 74.3  15 
 PAM  EN ES       2330 25.22                              91   -0.3310 74.3  15 
 PAM  EZ I        2330 26.12        19.2 0.14             47           74.3  15 
 RUS  HZ EP   4   2330 15.48                              91   -2.97 0 91.2 195 
 RUS  HE ES   4   2330 25.28                              91   -4.81 0 91.2 195 
 RUS  HZ I        2330 25.96        33.8 0.22             47           91.2 195 
 BRR  HZ EP       2330 19.91                              91    0.0710  104 296 
 BRR  HN ES       2330 33.00                              91    0.4310  104 296 
 BRR  HZ I        2330 34.11        24.9 0.36             47            104 296 
 TAM  HZ EP   4   2330 23.75                              91    0.99 0  123 103 
 TAM  HN ES       2330 38.13                              91    0.3610  123 103 
 TAM  HZ I        2330 44.54        13.9 0.36             47            123 103 
 PTB  HZ EP       2330 30.29                              56   -0.28 9  176 265 
 PTB  HN ES       2330 51.60                              56   -0.06 9  176 265 
 ZAR  HZ EP       2330 38.37                              56    0.23 8  237 292 
 ZAR  HN ES       2331  6.08                              56    0.93 8  237 292 
 ZAR  HZ I        2331  7.69        11.9 0.36             37            237 292 
 CHI  HZ EP   4   2330 41.44                              56    1.53 0  247 203 
 CHI  HN ES   4   2331 12.28                              56    4.00 0  247 203 
 CHI  HZ I        2331 17.12         5.6 0.36             37            247 203 
 NOR  HZ EP   4   2330 41.96                              56    1.63 0  254 241 
 NOR  HN ES       2331  8.21                              56   -0.82 8  254 241 
 NOR  HZ I        2331 12.78         3.9 0.52             37            254 241 
 PTGC HN ES   4   2331 20.71                              56    4.33 0  287 163 
                                                                                
