 2015 1227 2225 54.6 L   6.507 -73.614111.3  RSN  6 0.3 1.4LRSN                1
 GAP=133        0.78       4.2     3.4  5.9  0.4358E+01 -0.5046E+00  0.1830E+01E
 Epicentro: SANTA HELENA DEL OPON - SANTANDER                                  3
 ACTION:UPD 16-02-04 15:08 OP:cam  STATUS:               ID:20151227222554 L   I
 OLDACT:REG 15-12-28 02:47 OP:ar   STATUS:               ID:20151227221750     3
 2015-12-27-2217-50M.COL___334                                                 6
 STAT SP IPHASW D HRMM SECON CODA AMPLIT PERI AZIMU VELO AIN AR TRES W  DIS CAZ7
 BAR2 EZ IP     D 2226 11.26                             155    0.1310 48.6  79 
 BAR2 EZ ES       2226 23.72                             155   -0.2910 48.6  79 
 BAR2 EZ I        2226 24.96        19.6 0.32            158           48.6  79 
 BRR  HZ EP       2226 11.95                             146    0.0510 67.2 351 
 BRR  HN ES       2226 25.84                             146    0.4610 67.2 351 
 BRR  HZ I        2226 30.89         4.4 0.42            145           67.2 351 
 RUS  HZ EP       2226 14.68                             138    0.4010 89.8 139 
 RUS  HN ES       2226 29.58                             138   -0.0210 89.8 139 
 RUS  HZ I        2226 30.10         2.8 0.26            144           89.8 139 
 PTB  HZ EP       2226 13.93                             137    0.0310 93.3 272 
 PTB  HN ES       2226 28.62                             137   -0.3110 93.3 272 
 PTB  HZ I        2226 30.43         5.4 0.26            137           93.3 272 
 PAM  EZ EP       2226 18.04                             125   -0.49 9  137  48 
 PAM  EN ES   4   2226 35.45                             125   -1.73 0  137  48 
 PAM  EZ I        2226 37.18         2.5 0.18            127            137  48 
 ZAR  HZ IP   9   2226 24.91                             118    2.97 0  175 308 
 ZAR  HE ES       2226 46.07                                   -0.14 9  175 308 
 ZAR  HZ I        2226 47.83         3.8 0.14            119            175 308 
                                                                                
