 2014  427 2131 50.1 L   6.787 -73.144145.9  RSN  9 0.5 1.9LRSN                1
 GAP=137        1.31       3.8     5.5  8.3 -0.3992E+01  0.8663E+01 -0.3628E+00E
 Epicentro: LOS SANTOS - SANTANDER                                             3
 ACTION:UPD 14-05-13 23:11 OP:nd   STATUS:               ID:20140427213150 L   I
 OLDACT:REG 14-04-28 05:21 OP:stll STATUS:               ID:20140427212816     3
 2014-04-27-2128-16M.COL___251                                                 6
 STAT SP IPHASW D HRMM SECON CODA AMPLIT PERI AZIMU VELO AIN AR TRES W  DIS CAZ7
 BRR  HZ IP     C 2132 11.81                             152    0.4710 72.1 299 
 BRR  HZ I        2132 12.09        18.9 0.22            149           72.1 299 
 BRR  HN ES       2132 28.92                             152    1.0310 72.1 299 
 PAM  SZ EP       2132 12.66                             150    0.2410 78.4  39 
 PAM  SZ I        2132 13.00         7.7 0.24            153           78.4  39 
 PAM  SN ES       2132 29.82                             150    0.0210 78.4  39 
 RUS  HZ EP       2132 13.79                             144    0.0010 99.1 176 
 RUS  HN ES       2132 31.49                             144   -0.7510 99.1 176 
 PTB  HZ EP       2132 16.57                             132   -0.53 9  148 259 
 PTB  HN ES       2132 37.17                             132   -0.97 9  148 259 
 PTB  HZ I        2132 45.16        12.0 0.34            131            148 259 
 SPBC HZ EP       2132 18.77                             129    0.23 9  162 219 
 SPBC HE ES       2132 41.10                             129    0.39 9  162 219 
 SPBC HZ I        2132 43.75        10.1 0.28            129            162 219 
 OCA  HZ EP       2132 18.52                             129   -0.07 9  162 353 
 OCA  HN ES       2132 40.68                             129   -0.11 9  162 353 
 OCA  HZ I        2132 45.84         9.8 0.34            130            162 353 
 ZAR  HN ES       2132 48.18                             122    0.14 9  205 292 
 SML  HZ EP       2132 26.56                             117   -0.36 8  245 335 
 SML  HE ES       2132 55.11                             117   -0.50 8  245 335 
 SML  HZ I        2132 57.82         9.5 0.10            118            245 335 
 RREF HZ EP       2132 37.23                             111    1.04 7  321 230 
 RREF HN ES       2133 11.87                             111   -0.24 7  321 230 
 RREF HZ I        2133 22.11         3.1 0.26            111            321 230 
                                                                                
