 2015  127 2253 39.3 L   6.798 -73.127149.0  RSN 10 0.4 1.8LRSN                1
 GAP=139        1.08       3.6     4.7  6.2 -0.3429E+01  0.7660E+01  0.3278E+01E
 Epicentro: LOS SANTOS - SANTANDER                                             3
 ACTION:UPD 15-03-02 15:43 OP:nd   STATUS:               ID:20150127225339 L   I
 OLDACT:REG 15-01-28 08:08 OP:carl STATUS:               ID:20150127224745     3
 2015-01-27-2247-45M.COL___280                                                 6
 STAT SP IPHASW D HRMM SECON CODA AMPLIT PERI AZIMU VELO AIN AR TRES W  DIS CAZ7
 BAR2 EZ EP       2253 59.29                             171   -0.0510 23.6 195 
 BAR2 EZ ES       2254 14.51                             171   -0.4410 23.6 195 
 BAR2 EZ I        2254 16.05        12.3 0.40            168           23.6 195 
 BRR  HZ EP       2254  1.30                             152    0.3910 73.1 298 
 BRR  HN ES       2254 18.76                             152    0.9910 73.1 298 
 PAM  SZ EP       2254  2.00                             152    0.2010 76.2  38 
 PAM  SN ES       2254 19.38                             152    0.0310 76.2  38 
 PAM  SZ I        2254 21.40        14.6 0.54            157           76.2  38 
 RUS  HZ EP       2254  3.16                             145   -0.2010  100 177 
 RUS  HN ES       2254 22.14                             145    0.0210  100 177 
 RUS  HZ I        2254 24.75         4.8 0.44            145            100 177 
 PTB  HZ EP       2254  6.26                             132   -0.46 9  150 259 
 PTB  HN ES       2254 27.53                             132   -0.57 9  150 259 
 PTB  HZ I        2254 33.20         7.9 0.48            133            150 259 
 SPBC HN ES       2254 30.37                             130   -0.30 9  164 220 
 SPBC HZ I        2254 36.13        14.4 0.26            130            164 220 
 NOR  HZ EP       2254 15.20                             119   -0.20 8  236 235 
 NOR  HN ES       2254 43.95                             119    0.41 8  236 235 
 NOR  HZ I        2254 50.38         4.4 0.32            120            236 235 
 SML  HN ES       2254 44.30                             118   -0.72 8  245 335 
 CHI  HZ EP       2254 17.39                             118    0.16 8  249 196 
 CHI  HN ES       2254 46.79                             118   -0.02 8  249 196 
 CHI  HZ I        2254 51.30         2.2 0.46            119            249 196 
 GUY2CHZ EP       2254 24.09                             113    0.84 7  303 235 
 GUY2CHN ES       2254 57.52                             113    0.01 7  303 235 
 GUY2CHZ I        2255  5.92         4.1 0.42                           303 235 
                                                                                
