 2011 1027 2337 19.8 L   6.770 -73.117134.0  RSN  4 0.2 1.4LRSN                1
 GAP=142        0.38       3.3     4.9  6.0 -0.4716E+01 -0.1845E+01  0.5272E+01E
 Epicentro: LOS SANTOS - SANTANDER                                             3
 ACTION:UPD 12-07-13 16:06 OP:ep   STATUS:               ID:20111027233719 L   I
 2011-10-27-2335-13S.COL___176                                                 6
 STAT SP IPHASW D HRMM SECON CODA AMPLIT PERI AZIMU VELO AIN AR TRES W  DIS CAZ7
 BAR2 SZ EP   2   2337 38.01                             171    0.04 5 20.9 200 
 BAR2 SZ I        2337 50.97         3.9 0.56                          20.9 200 
 BRR  HZ EP   2   2337 40.40                             149    0.44 5 75.5 300 
 BRR  HZ I        2337 45.45        10.2 0.13                          75.5 300 
 BRR  HN ES   2   2337 55.43                             149   -0.25 5 75.5 300 
 PAM  SZ EP       2337 40.76                             148   -0.0610 78.1  36 
 PAM  SN ES   1   2337 57.28                             148    0.06 7 78.1  36 
 RUS  HZ EP   1   2337 42.05                             142   -0.10 7 97.1 178 
 RUS  HN ES   2   2337 59.71                             142    0.12 5 97.1 178 
                                                                                
