 2017  527 2031 49.1 L   6.788 -73.111141.9  RSN 12 0.4 2.1LRSN                1
 GAP=214        1.10       4.3     4.5  7.0  0.7023E+01  0.3969E-01  0.1781E+01E
 Epicentro: LOS SANTOS - SANTANDER                                             3
 ACTION:UPD 17-06-16 13:39 OP:jn   STATUS:               ID:20170527203149 L   I
 OLDACT:UP  17-05-28 05:15 OP:edw  STATUS:               ID:20170527202746d    3
 OLDACT:UP  17-05-28 05:15 OP:edw  STATUS:               ID:20170527202746d    3
 OLDACT:UP  17-05-28 05:14 OP:edw  STATUS:               ID:20170527202746d    3
 OLDACT:DUP 17-05-28 05:00 OP:edw  STATUS:               ID:20170527202746d    3
 2017-05-27-2028-00M.COL___350                                                 6
 STAT SP IPHASW D HRMM SECON CODA AMPLIT PERI AZIMU VELO AIN AR TRES W  DIS CAZ7
 BRR  HZ EP     D 2032 10.00                             150   -0.0510 75.2 298 
 BRR  HN ES       2032 26.99                             150    0.5910 75.2 298 
 BRR  HZ I        2032 30.21        27.8 0.34            150           75.2 298 
 RUS  HZ EP       2032 12.38                             143    0.0410 99.0 178 
 RUS  HN ES       2032 30.81                             143    0.3310 99.0 178 
 RUS  HZ I        2032 31.94        14.4 0.30            144           99.0 178 
 PTB  HZ EP   9   2032 14.79                             130   -1.26 0  151 260 
 PTB  HN ES       2032 35.02                             130   -0.81 9  151 260 
 PTB  HZ I        2032 42.59        12.4 0.38            130            151 260 
 SPBC HZ EP       2032 17.12                             128   -0.30 9  165 220 
 SPBC HN ES       2032 39.26                             128   -0.26 9  165 220 
 SPBC HZ I        2032 44.02        23.7 0.32            128            165 220 
 YPLC HZ IP     C 2032 18.58                             126    0.28 9  174 152 
 YPLC HN ES       2032 40.32                             126   -0.77 9  174 152 
 YPLC HZ I        2032 45.30         9.3 0.28            129            174 152 
 ZAR  HZ EP       2032 22.05                             121    0.35 8  208 292 
 ZAR  HN ES       2032 46.17                             121   -0.96 8  208 292 
 ZAR  HZ I        2032 52.19        10.3 0.40            122            208 292 
 TABC EZ EP   4   2032 25.80                             118    1.11 0  231 212 
 TABC EZ ES       2032 52.89                             118    0.43 8  231 212 
 TABC EZ I        2032 59.50        16.4 0.36            119            231 212 
 NOR  HZ EP       2032 24.44                             117   -0.40 8  237 235 
 NOR  HN ES       2032 52.90                             117    0.17 8  237 235 
 NOR  HZ I        2033  1.53         8.7 0.42            118            237 235 
 CHI  HZ EP       2032 26.66                             116    0.12 8  248 196 
 CHI  HN ES       2032 55.44                             116   -0.31 8  248 196 
 CHI  HZ I        2032 59.21         9.7 0.52            118            248 196 
 ROSC BZ EP       2032 27.30                             116    0.22 8  254 212 
 ROSC BN ES   4   2032 59.14                             116    2.42 0  254 212 
 PTGC HZ EP   4 C 2032 31.29                             111   -1.18 0  306 159 
 PTGC HE ES   4   2033  2.14                             111   -4.17 0  306 159 
 PTGC HZ I        2033  5.59        10.9 0.40            113            306 159 
 CBOC HN ES       2033 13.45                             109    0.49 7  337 253 
                                                                                
