 2015 1127 2159 56.7 L   6.002 -73.884  0.0  RSN  5 0.3 1.3LRSN                1
 GAP=111        0.77       2.0     1.7  5.4 -0.4374E+00 -0.7173E+00 -0.2186E+01E
 Epicentro: EL PENON - SANTANDER                                               3
 ACTION:UPD 15-12-28 16:13 OP:cam  STATUS:               ID:20151127215956 L   I
 OLDACT:UP  15-12-01 10:59 OP:ak   STATUS:               ID:20151127215956 L   3
 OLDACT:DUP 15-11-28 05:25 OP:dnl  STATUS:               ID:20151127215751d    3
 OLDACT:UP  15-11-28 05:23 OP:dnl  STATUS:               ID:20151127215750     3
 OLDACT:REG 15-11-28 03:14 OP:dnl  STATUS:               ID:20151127215750     3
 2015-11-27-2157-50M.COL___313                                                 6
 STAT SP IPHASW D HRMM SECON CODA AMPLIT PERI AZIMU VELO AIN AR TRES W  DIS CAZ7
 SPBC HZ EP       22 0  4.72                              47    0.1010 43.9 208 
 SPBC HN ES       22 0 10.97                              47    0.1810 43.9 208 
 SPBC HZ I        22 0 11.43        35.8 0.10             47           43.9 208 
 PTB  HZ EP   1   22 0 10.53                              47   -0.52 7 86.9 313 
 PTB  HE ES       22 0 22.17                              47   -0.0710 86.9 313 
 PTB  HZ I        22 0 23.62         7.4 0.14             47           86.9 313 
 RUS  HZ EP       22 0 11.87                              47   -0.0710 89.5  98 
 RUS  HN ES       22 0 23.43                              47   -0.3910 89.5  98 
 RUS  HZ I        22 0 25.37         3.8 0.24             47           89.5  98 
 BAR2 EZ ES       22 0 27.07                              47    0.4910  101  50 
 BAR2 EZ I        22 0 31.39         9.1 0.11             47            101  50 
 PAM  EZ EP   2   22 0 28.57                              37    0.65 4  198  41 
 PAM  EN ES   2   22 0 51.86                              37   -0.40 4  198  41 
 PAM  EZ I        22 0 53.85         2.8 0.18             37            198  41 
                                                                                
