 2013  427 2319 59.4 L   6.799 -73.141147.4  RSN  5 0.4 1.7LRSN                1
 GAP=152        0.93      17.8     7.8 13.2 -0.7301E+02 -0.2842E+02  0.1711E+03E
 Epicentro: LOS SANTOS - SANTANDER                                             3
 ACTION:UPD 13-05-22 14:41 OP:EP   STATUS:               ID:20130427231959 L   I
 2013-04-27-2318-40M.COL___208                                                 6
 STAT SP IPHASW D HRMM SECON CODA AMPLIT PERI AZIMU VELO AIN AR TRES W  DIS CAZ7
 BAR2 SZ EP       2320 19.42                             171    0.2310 23.4 191 
 BAR2 SZ I        2320 19.71         6.2 0.34            169           23.4 191 
 GIR2 SZ EP       2320 19.35                             167    0.1210 31.4 349 
 BRR  HZ EP       2320 21.08                             153    0.3710 71.7 298 
 BRR  HN ES       2320 37.52                             153    0.1510 71.7 298 
 BRR  HN I        2320 38.62        20.2 0.28            154           71.7 298 
 PAM  SZ EP       2320 21.89                             151    0.1610 77.1  39 
 PAM  SN ES       2320 38.76                             151   -0.4210 77.1  39 
 PTB  HZ EP       2320 25.81                             132   -0.70 9  148 259 
                                                                                
