 2016  227 2005 36.9 L   6.582 -73.532110.8  RSN 15 0.4 2.9LRSN                1
 GAP= 74        0.99       2.5     2.6  5.4 -0.1135E+01  0.6671E+01 -0.1773E+01E
 Epicentro: EL CARMEN - SANTANDER                                              3
 ACTION:UPD 16-03-04 21:29 OP:rebc STATUS:               ID:20160227200536 L   I
 OLDACT:DUP 16-02-28 04:10 OP:cara STATUS:               ID:20160227195750d    3
 2016-02-27-1957-49M.COL___316                                                 6
 STAT SP IPHASW D HRMM SECON CODA AMPLIT PERI AZIMU VELO AIN AR TRES W  DIS CAZ7
 BAR2 EZ IP     D 20 5 53.05                             159    0.1910 38.7  88 
 BAR2 EZ I        20 5 53.20       485.2 0.34            163           38.7  88 
 BAR2 EZ ES       20 6  5.47                             159    0.1510 38.7  88 
 RUS  HZ EP     D 20 5 56.08                             137   -0.5010 91.0 147 
 RUS  HN ES       20 6 11.98                             137    0.0410 91.0 147 
 RUS  HZ I        20 6 12.95        54.8 0.42            138           91.0 147 
 PTB  HZ IP   9 C 20 5 55.89                             134   -1.00 0  102 267 
 PTB  HN ES       20 6 10.78                                   -0.7210  102 267 
 PTB  HZ I        20 6 12.22       228.8 0.18            132            102 267 
 SPBC HZ EP       20 5 58.42                             129   -0.0910  119 210 
 SPBC HE ES       20 6 14.59                             129   -0.7810  119 210 
 SPBC HZ I        20 6 21.11       183.4 0.10            128            119 210 
 PAM  EZ EP       20 5 59.46                             128   -0.0910  124  48 
 PAM  EZ IP     C 20 5 59.50                             128   -0.0510  124  48 
 PAM  EN ES       20 6 17.53                             128    0.2910  124  48 
 PAM  EZ I        20 6 18.54       101.7 0.42            130            124  48 
 ZAR  HZ EP       20 6  4.80                             117    0.38 9  178 305 
 ZAR  HN ES       20 6 26.21                             117    0.31 9  178 305 
 ZAR  HZ I        20 6 28.95       133.8 0.54            116            178 305 
 NOR  HZ EP       20 6  4.78                             116   -0.60 9  186 233 
 NOR  HN ES       20 6 27.62                             116    0.01 9  186 233 
 NOR  HZ I        20 6 30.16       148.6 0.16            115            186 233 
 CHI  HZ EP       20 6  9.36                             112    0.06 8  217 186 
 CHI  HN ES       20 6 34.65                             112    0.07 8  217 186 
 CHI  HZ I        20 6 41.78        16.4 0.48            112            217 186 
 HEL  HZ EP       20 6 10.14                             111   -0.01 8  225 259 
 HEL  HN ES       20 6 36.56                             111    0.45 8  225 259 
 HEL  HZ I        20 6 40.31        48.6 0.32            110            225 259 
 GUY2CHZ EP       20 6 13.79                             108    0.36 8  252 234 
 GUY2CHN ES       20 6 42.26                             108    0.32 8  252 234 
 GUY2CHZ I        20 6 48.61        43.7 0.58                           252 234 
 URE  HZ EP       20 6 12.58                             107   -0.68 8  256 300 
 URE  HN ES       20 6 41.81                             107    0.17 8  256 300 
 URE  HZ I        20 6 43.40        91.3 0.28            107            256 300 
 CBOC HZ EP       20 6 17.60                             105    0.67 7  286 254 
 CBOC HZ I        20 6 18.91        29.4 0.18            105            286 254 
 CBOC HN ES   4   20 6 45.05                             105   -3.12 0  286 254 
 DBB  SZ EP       20 6 18.66                             104    0.18 7  300 279 
 DBB  SZ ES       20 6 50.09                             104   -0.85 7  300 279 
 DBB  SZ I        20 7  4.87        54.7 0.44            104            300 279 
 ANIL HZ EP       20 6 20.69                             104    0.68 7  311 222 
 ANIL HN ES       20 6 53.89                             104    0.24 7  311 222 
 ANIL HZ I        20 7  3.33        91.4 0.28            103            311 222 
 SJC  HZ EP       20 6 30.70                              98   -0.80 6  409 334 
 SJC  HN ES   4   20 7 11.94                              98   -2.16 0  409 334 
 SJC  HZ I        20 7 21.87        10.5 0.34             99            409 334 
                                                                                
