 2011  727 2321 33.1 L   6.010 -73.809 32.0  RSN  5 0.3 1.9LRSN                1
 GAP=177        0.59       3.2     1.9  9.5 -0.2404E+00  0.8968E+00 -0.2323E+01E
 Epicentro: EL PEON - SANTANDER                                                3
 ACTION:UPD 12-07-25 14:03 OP:epov STATUS:               ID:20110727232133 L   I
 2011-07-27-2320-00M.COL___142                                                 6
 STAT SP IPHASW D HRMM SECON CODA AMPLIT PERI AZIMU VELO AIN AR TRES W  DIS CAZ7
 RUS  HZ EP   1   2321 46.86                              61    0.09 8 81.4  99 
 RUS  HZ I        2321 47.32        25.0 0.17                          81.4  99 
 RUS  HN ES   1   2321 57.47                              61    0.03 8 81.4  99 
 BAR2 SZ EP   1   2321 47.98                              61   -0.14 8 94.6  47 
 BAR2 SZ ES   1   2321 59.26                              61   -0.57 8 94.6  47 
 BAR2 SZ I        2322  1.03        59.5 0.38                          94.6  47 
 BRR  HZ EP       2321 51.42                              61    0.2010  122   5 
 BRR  HE ES   1   2322  5.49                              61    0.13 7  122   5 
 BRR  HZ I        2322  8.03        21.7 0.12                           122   5 
 GIR2 SZ EP   1   2321 53.60                              61    0.38 7  136  30 
 HEL  HZ EP   1   2322  0.56                              61    0.19 7  191 276 
 HEL  HZ I        2322 19.20         8.4 0.50                           191 276 
 HEL  HN ES       2322 21.38                              61   -0.26 9  191 276 
                                                                                
