 2011  827 2340 33.4 L   6.759 -73.153143.0  RSN 15 0.4 3.0LRSN                1
 GAP=114        0.72       2.4     3.6  4.0 -0.1508E+01  0.5284E+01  0.2200E+01E
 Epicentro: LOS SANTOS - SANTANDER                                             3
 ACTION:UPD 12-07-13 15:54 OP:ep   STATUS:               ID:20110827234033 L   I
 2011-08-27-2337-50S.COL___161                                                 6
 STAT SP IPHASW D HRMM SECON CODA AMPLIT PERI AZIMU VELO AIN AR TRES W  DIS CAZ7
 BAR2 SZ EP       2340 52.74                             172    0.1510 18.7 190 
 BAR2 SZ ES       2341  7.52                             172   -0.0610 18.7 190 
 BAR2 SZ I        2341 10.67       293.6 0.23                          18.7 190 
 GIR2 SZ EP       2340 52.82                             165   -0.0310 35.6 353 
 GIR2 SZ ES   1   2341  8.00                             165   -0.04 7 35.6 353 
 BRR  HZ IP     C 2340 54.56                             151    0.2410 72.8 302 
 BRR  HE ES   1   2341 11.24                             151    0.58 7 72.8 302 
 BRR  HZ I        2341 14.00       148.9 0.12                          72.8 302 
 PAM  SZ EP       2340 55.54                             149   -0.0110 81.5  38 
 PAM  SZ I        2340 55.85        71.1 0.14                          81.5  38 
 PAM  SN ES   1   2341 12.48                             149   -0.37 7 81.5  38 
 RUS  HZ EP       2340 56.64                             144    0.1010 96.1 175 
 RUS  HE ES   1   2341 14.55                             144   -0.06 7 96.1 175 
 RUS  HZ I        2341 16.68       168.5 0.24                          96.1 175 
 OCA  SZ EP       2341  1.36                             128   -0.54 9  165 354 
 OCA  SZ ES   1   2341 24.16                             128    0.02 7  165 354 
 OCA  SZ I        2341 28.01        95.6 0.29                           165 354 
 YOP  SE ES   1   2341 26.04                             126    0.18 7  175 152 
 NOR  SZ EP       2341  8.64                             118    0.04 8  231 235 
 NOR  SE ES   1   2341 35.88                             118   -0.18 6  231 235 
 CHI  HZ EP       2341 10.82                             117    0.39 8  244 195 
 CHI  HE ES   1   2341 38.47                             117   -0.85 6  244 195 
 CHI  HZ I        2341 45.75        55.0 0.32                           244 195 
 HEL  HZ EP   1   2341 13.01                             114   -0.23 6  270 257 
 HEL  HN ES   1   2341 43.70                             114   -0.63 6  270 257 
 HEL  HZ I        2341 51.68        58.6 0.23                           270 257 
 GUY  SZ EP   1   2341 17.54                             112    0.78 5  300 236 
 GUY  SZ I        2342  0.38       107.4 0.46                           300 236 
 RREF HZ EP   1   2341 18.90                             111   -0.09 5  318 230 
 RREF HE ES   1   2341 54.96                             111    0.39 5  318 230 
 RREF HZ I        2342  4.90        68.2 0.41                           318 230 
 TOL  SZ EP       2341 21.64                             109    0.55 7  340 225 
 ANIL HZ EP   1   2341 22.99                             108    0.35 5  354 225 
 PRA  HZ EP       2341 25.76                             106   -0.54 6  388 210 
 PRA  HN ES   1   2342  6.82                             106   -0.75 4  388 210 
                                                                                
