 2017  427 2150  6.8 L   5.739 -73.896105.5  RSN 14 0.5 2.3LRSN                1
 GAP= 72        1.27       3.2     3.2  7.2 -0.4640E+00  0.3101E+01 -0.2841E+00E
 Epicentro: ALBANIA - SANTANDER                                                3
 ACTION:UPD 17-05-30 21:16 OP:jn   STATUS:               ID:20170427215006 L   I
 OLDACT:UP  17-04-28 08:55 OP:cog  STATUS:               ID:20170427214740d    3
 OLDACT:UP  17-04-28 08:54 OP:cog  STATUS:               ID:20170427214740d    3
 OLDACT:DUP 17-04-28 08:44 OP:cog  STATUS:               ID:20170427214740d    3
 2017-04-27-2148-00M.COL___368                                                 6
 STAT SP IPHASW D HRMM SECON CODA AMPLIT PERI AZIMU VELO AIN AR TRES W  DIS CAZ7
 SPBC HZ EP       2150 21.33                             167   -0.0010 21.8 244 
 SPBC HN ES       2150 33.00                             167    0.3210 21.8 244 
 SPBC HZ I        2150 34.03        90.4 0.36            165           21.8 244 
 TABC EZ EP       2150 26.47                             138    0.8010 87.4 203 
 TABC EZ I        2150 46.25        38.9 0.32            135           87.4 203 
 RUS  HZ EP       2150 26.03                             136   -0.0310 91.6  79 
 RUS  HN ES       2150 40.49                             136   -0.6010 91.6  79 
 RUS  HZ I        2150 42.95        22.2 0.22            137           91.6  79 
 PTB  HZ EP   9   2150 25.90                             130   -0.97 0  108 325 
 PTB  HN ES       2150 41.54                             131   -0.0310  108 325 
 PTB  HZ I        2150 44.67        33.4 0.52            132            108 325 
 ROSC BZ EP       2150 28.54                             130    0.9810  110 205 
 ROSC BN ES   4   2150 45.45                             130    1.69 0  110 205 
 ROSC BZ I        2150 49.97        34.6 0.40            129            110 205 
 NOR  HZ EP       2150 26.68                             130   -0.3810  110 260 
 NOR  HE ES       2150 42.56                             130   -0.3210  110 260 
 NOR  HZ I        2150 44.79        78.2 0.44            129            110 260 
 CHI  HZ EP       2150 28.45                             126   -0.4810  124 172 
 CHI  HE ES       2150 45.51                             126   -0.6910  124 172 
 CHI  HZ I        2150 50.80        30.6 0.30            125            124 172 
 BRR  HZ EP       2150 31.25                             120   -0.06 9  153   8 
 BRR  HN ES       2150 51.25                             120    0.81 9  153   8 
 BRR  HZ I        2150 53.80        57.3 0.12            121            153   8 
 YPLC HE ES       2150 54.62                             116    0.27 9  172 103 
 HEL  HZ EP   4   2150 36.86                             114    1.28 0  188 286 
 HEL  HE ES       2150 57.39                             114   -0.65 9  188 286 
 HEL  HZ I        2151  1.32        12.8 0.44            114            188 286 
 ELA  HE ES       2151  0.18                             114    0.70 9  193 240 
 ANIL HE ES   4   2151  5.25                             110    1.53 0  217 231 
 PAM  EZ EP   4   2150 39.41                             110   -0.10 0  221  37 
 PAM  EN ES   4   2151  5.88                             110    0.85 0  221  37 
 ZAR  HZ EP       2150 38.29                             110   -0.63 8  221 331 
 ZAR  HN ES       2151  3.92                             110   -0.07 8  221 331 
 ORTC HZ EP       2150 42.47                             107   -0.03 8  252 217 
 ORTC HN ES       2151 10.24                             107   -0.13 8  252 217 
 PTGC HZ EP   9   2150 41.34                             106   -1.99 0  259 131 
 PTGC HN ES       2151  9.68                             107   -0.17 8  259 131 
                                                                                
