 2013 1027 2243 34.5 L   6.788 -73.168146.4  RSN  4 0.4 1.3LRSN                1
 GAP=234        0.88       5.8     5.8  9.3  0.8972E+01  0.3442E+01  0.7692E+01E
 Epicentro: LOS SANTOS - SANTANDER                                             3
 ACTION:UPD 13-11-25 09:24 OP:ep   STATUS:               ID:20131027224334 L   I
 OLDACT:REG 13-10-27 22:42 OP:mh   STATUS:               ID:20131027223845     3
 2013-10-27-2238-45M.COL___230                                                 6
 STAT SP IPHASW D HRMM SECON CODA AMPLIT PERI AZIMU VELO AIN AR TRES W  DIS CAZ7
 BRR  HZ EP       2243 55.99                             153    0.3810 69.7 300 
 BRR  HN ES       2244 12.19                             153    0.1010 69.7 300 
 BRR  HZ I        2244 17.58         5.4 0.26            155           69.7 300 
 RUS  HZ EP       2243 58.24                             144    0.0310 99.4 175 
 RUS  HN ES       2244 16.58                             144   -0.1410 99.4 175 
 RUS  HZ I        2244 18.37         1.8 0.21            150           99.4 175 
 PTB  HZ EP   1   2244  0.42                             133   -0.84 7  145 259 
 PTB  HN ES       2244 21.82                             133   -0.32 9  145 259 
 PTB  HZ I        2244 24.38         3.9 0.14            137            145 259 
 NOR  HE ES       2244 38.10                             119    0.49 8  232 234 
                                                                                
