 2017  127 2028 36.5 L   6.165 -73.638106.4  RSN  4 0.2 1.2LRSN                1
 GAP=128        0.54       3.4     2.1  5.5 -0.1089E+00  0.4966E+01  0.4436E+01E
 Epicentro: LA PAZ - SANTANDER                                                 3
 ACTION:UPD 17-05-22 16:04 OP:jn   STATUS:               ID:20170127202836 L   I
 OLDACT:REG 17-01-28 02:23 OP:cara STATUS:               ID:20170127202744     3
 2017-01-27-2028-00M.COL___346                                                 6
 STAT SP IPHASW D HRMM SECON CODA AMPLIT PERI AZIMU VELO AIN AR TRES W  DIS CAZ7
 RUS  HZ EP       2028 54.00                             145   -0.0910 68.4 116 
 RUS  HN ES       2029  7.63                             145   -0.1610 68.4 116 
 RUS  HZ I        2029 10.04         1.7 0.12            149           68.4 116 
 BAR2 EZ IP       2028 53.93                             145    0.1610 69.1  47 
 BAR2 EZ EP       2028 53.99                                           69.1  47 
 BAR2 EZ ES       2029  7.42                             145    0.1910 69.1  47 
 PTB  HZ EP       2028 55.88                             133   -0.0310 99.5 295 
 PTB  HN ES       2029 10.80                             133   -0.2410 99.5 295 
 PTB  HZ I        2029 13.70         4.0 0.14            137           99.5 295 
 NOR  HZ EP       2029  0.92                             120   -0.15 9  152 244 
 NOR  HN ES       2029 20.57                             120    0.34 9  152 244 
 NOR  HZ I        2029 23.05         7.7 0.16            123            152 244 
                                                                                
