 2011  527 2058 48.9 L   6.816 -73.138141.0  RSN  7 0.4 1.8LRSN                1
 GAP=137        0.82       4.9     7.4  7.7 -0.1090E+02 -0.9566E+01  0.7283E+01E
 Epicentro: LOS SANTOS - SANTANDER                                             3
 ACTION:UP  11-06-29 08:56 OP:tino STATUS:               ID:20110527205848 L   I
 2011-05-27-2057-50S.COL___114                                                 6
 STAT SP IPHASW D HRMM SECON CODA AMPLIT PERI AZIMU VELO SNR AR TRES W  DIS CAZ7
 BTL  SZ EP       2059  8.01                             172     0.110   18 308 
 BTL  SZ ES   2   2059 23.59                             172     0.9 5   18 308 
 BAR2 SZ EP       2059  7.82                             169    -0.210   25 191 
 BAR2 SZ ES   2   2059 22.01                             169    -0.9 5   25 191 
 BAR2 SZ I        2059 25.18        11.4 0.39                            25 191 
 BRR  HZ EP       2059  9.62                             152     0.110   71 297 
 BRR  HN ES   1   2059 25.54                             152    -0.1 7   71 297 
 BRR  HZ I        2059 30.30        28.3 0.16                            71 297 
 PAM  SZ EP       2059 10.58                             150     0.110   75  40 
 PAM  SN ES   1   2059 27.64                             150     0.3 7   75  40 
 RUS  HZ EP       2059 12.18                             142    -0.110  102 177 
 RUS  HN ES   2   2059 30.81                             142     0.2 5  102 177 
 RUS  HZ I        2059 33.31         6.1 0.35                           102 177 
 BRI  SZ EP       2059 12.34                             141     0.210  106  21 
 GRA  SZ ES   1   2059 32.15                             136    -0.6 7  124  17 
 GRA  SZ I        2059 33.92         8.4 0.38                           124  17 
                                                                                
