 2015  727 2344 36.1 L   6.890 -73.256121.9  RSN  5 0.3 1.7LRSN                1
 GAP=119        0.63       2.4     3.2  7.0  0.2407E+00  0.1395E+02 -0.1880E+01E
 Epicentro: BETULIA - SANTANDER                                                3
 ACTION:UPD 15-09-08 21:50 OP:cam  STATUS:               ID:20150727234436 L   I
 OLDACT:REG 15-07-28 05:18 OP:ak   STATUS:               ID:20150727233749     3
 2015-07-27-2337-49M.COL___337                                                 6
 STAT SP IPHASW D HRMM SECON CODA AMPLIT PERI AZIMU VELO AIN AR TRES W  DIS CAZ7
 PAM  EZ EP   1   2344 56.37                             145    0.38 7 79.0  51 
 PAM  EN ES       2345 11.39                             145   -0.0810 79.0  51 
 PAM  EZ I        2345 15.23        15.3 0.20            152           79.0  51 
 RUS  HZ EP       2344 58.44                             135   -0.1510  112 170 
 RUS  HE ES       2345 16.13                             135    0.0410  112 170 
 RUS  HZ I        2345 18.97         3.3 0.43            141            112 170 
 ZAR  HZ EP       2345  5.12                             119   -0.41 9  189 291 
 ZAR  HN ES       2345 28.78                             119    0.32 9  189 291 
 ZAR  HZ I        2345 32.12         9.4 0.30            123            189 291 
 SML  HZ EP       2345 10.11                             113    0.14 8  230 337 
 SML  HN ES       2345 36.15                             113   -0.20 8  230 337 
 HEL  HZ EP   1   2345 14.80                             110    0.58 6  263 253 
 HEL  HE ES       2345 43.72                             110   -0.19 8  263 253 
 HEL  HZ I        2345 48.25         3.6 0.32            115            263 253 
                                                                                
