 2017  227 2114 14.9 L   6.753 -73.165145.4  RSN  5 0.2 1.6LRSN                1
 GAP=136        0.62       3.3     3.2  4.6 -0.1052E+01  0.2160E+01  0.3396E+00E
 Epicentro: LOS SANTOS - SANTANDER                                             3
 ACTION:UPD 17-05-24 15:41 OP:jn   STATUS:               ID:20170227211414 L   I
 OLDACT:UP  17-02-28 05:33 OP:nlst STATUS:               ID:20170227211414 L   3
 OLDACT:REG 17-02-28 03:27 OP:cog  STATUS:               ID:20170227210745     3
 2017-02-27-2108-00M.COL___376                                                 6
 STAT SP IPHASW D HRMM SECON CODA AMPLIT PERI AZIMU VELO AIN AR TRES W  DIS CAZ7
 BAR2 EZ ES       2114 49.78                             173    0.2110 17.9 186 
 BAR2 EZ I        2114 50.68        14.1 0.26            173           17.9 186 
 BRR  HZ EP       2114 36.29                             152    0.2510 72.0 303 
 BRR  HN ES       2114 52.43                             152   -0.1110 72.0 303 
 BRR  HZ I        2114 53.83        13.3 0.38            153           72.0 303 
 PAM  EZ EP       2114 37.44                             149    0.0510 82.7  38 
 PAM  EN ES       2114 54.79                             149   -0.1510 82.7  38 
 PAM  EZ I        2114 57.67         4.2 0.48            150           82.7  38 
 RUS  HZ EP       2114 38.46                             145    0.2210 95.6 175 
 RUS  HN ES       2114 56.24                             145   -0.2210 95.6 175 
 RUS  HZ I        2114 58.07         3.6 0.20            147           95.6 175 
 PTB  HZ EP       2114 41.11                             132   -0.44 9  145 261 
 PTB  HN ES       2115  2.51                             132    0.16 9  145 261 
 PTB  HZ I        2115  4.11         4.9 0.16            134            145 261 
                                                                                
