 2017 1127 2312 36.4 L   6.793 -73.159145.5  RSN  7 0.4 1.7LRSN                1
 GAP=111        0.93       4.2     3.8  6.8 -0.1866E+00  0.4218E+01  0.4217E+01E
 Epicentro: LOS SANTOS - SANTANDER                                             3
 ACTION:UPD 17-12-12 20:01 OP:rebc STATUS:               ID:20171127231236 L   I
 OLDACT:UP  17-11-28 10:17 OP:edw  STATUS:               ID:20171127230745     3
 OLDACT:REG 17-11-28 07:06 OP:edw  STATUS:               ID:20171127230745     3
 2017-11-27-2308-00M.COL___486                                                 6
 STAT SP IPHASW D HRMM SECON CODA AMPLIT PERI AZIMU VELO AIN AR TRES W  DIS CAZ7
 BAR2 EZ EP       2312 55.76                             171   -0.2410 22.4 187 
 BAR2 EZ ES       2313 10.99                             171   -0.2810 22.4 187 
 BAR2 EZ I        2313 12.26        23.9 0.18            170           22.4 187 
 PAM  EZ EP       2312 58.74                             150    0.0410 78.9  40 
 PAM  EN ES       2313 16.37                             150    0.2910 78.9  40 
 PAM  EZ I        2313 18.19         5.3 0.56            152           78.9  40 
 RUS  HZ EP       2312 59.88                             144   -0.2210100.0 175 
 RUS  HE ES       2313 18.60                             144    0.0310100.0 175 
 RUS  HZ I        2313 19.66         6.1 0.30            144          100.0 175 
 PTB  HZ EP       2313  3.59                             132    0.37 9  146 259 
 PTB  HN ES       2313 23.71                             132   -0.41 9  146 259 
 PTB  HZ I        2313 25.35         4.0 0.20            132            146 259 
 YPLC HZ EP       2313  5.57                             127   -0.63 9  177 151 
 YPLC HE ES       2313 30.05                             127    0.62 9  177 151 
 YPLC HZ I        2313 31.06         6.5 0.26            127            177 151 
 ZAR  HN ES   2   2313 34.57                             122    0.63 4  203 292 
 NOR  HN ES       2313 40.16                             119    0.48 8  233 234 
 NOR  HZ I        2313 45.20         3.8 0.34            119            233 234 
                                                                                
