 2015  927 2102  0.9 L   6.820 -73.135142.4  RSN  7 0.4 1.6LRSN                1
 GAP=137        1.06       3.7     5.2  7.8  0.3681E+00  0.1045E+02 -0.1216E+01E
 Epicentro: LOS SANTOS - SANTANDER                                             3
 ACTION:UPD 15-10-28 16:28 OP:cam  STATUS:               ID:20150927210200 L   I
 OLDACT:REG 15-09-28 03:24 OP:drio STATUS:               ID:20150927205749     3
 2015-09-27-2057-49M.COL___352                                                 6
 STAT SP IPHASW D HRMM SECON CODA AMPLIT PERI AZIMU VELO AIN AR TRES W  DIS CAZ7
 BRR  HZ EP       21 2 22.28                             152    0.6410 71.2 296 
 BRR  HE ES       21 2 38.37                             152    0.5210 71.2 296 
 BRR  HZ I        21 2 58.07        13.8 0.36            151           71.2 296 
 PAM  EZ EP       21 2 23.16                             151    0.5910 74.9  40 
 PAM  EN ES       21 2 38.97                             151   -0.5310 74.9  40 
 PAM  EZ I        21 2 42.71         4.0 0.24            160           74.9  40 
 RUS  HZ EP       21 2 24.54                             142    0.1010  103 177 
 RUS  HE ES       21 2 42.53                             142   -0.3010  103 177 
 RUS  HZ I        21 2 43.87         2.6 0.32            152            103 177 
 PTB  HZ EP       21 2 27.20                             131   -0.50 9  149 258 
 PTB  HN ES   4   21 2 47.39                             131   -1.24 0  149 258 
 PTB  HZ I        21 2 55.61         4.7 0.48            135            149 258 
 SPBC HZ EP       21 2 29.18                             128   -0.16 9  166 219 
 SPBC HN ES       21 2 51.60                             128    0.05 9  166 219 
 SPBC HZ I        21 2 57.06         9.1 0.12            135            166 219 
 ZAR  HN ES       21 2 58.07                             122   -0.19 9  204 291 
 SML  HZ EP       21 2 37.07                             117   -0.06 8  242 335 
 SML  HN ES       21 3  4.92                             117   -0.50 8  242 335 
 SML  HZ I        21 3  7.93         5.7 0.32            124            242 335 
                                                                                
