 2015  927 2318 59.1 L   6.805 -73.162144.3  RSN 10 0.4 1.9LRSN                1
 GAP=134        1.09       3.2     4.3  5.9 -0.6029E+00  0.6584E+01  0.5456E+00E
 Epicentro: LOS SANTOS - SANTANDER                                             3
 ACTION:UPD 15-10-28 16:28 OP:cam  STATUS:               ID:20150927231859 L   I
 OLDACT:REG 15-09-28 03:28 OP:drio STATUS:               ID:20150927231747     3
 2015-09-27-2317-47M.COL___349                                                 6
 STAT SP IPHASW D HRMM SECON CODA AMPLIT PERI AZIMU VELO AIN AR TRES W  DIS CAZ7
 BAR2 EZ EP       2319 18.77                             170    0.2210 23.6 185 
 BAR2 EZ ES       2319 33.63                             170   -0.1010 23.6 185 
 BAR2 EZ I        2319 36.43        20.7 0.42            168           23.6 185 
 BRR  HZ EP       2319 20.72                             153    0.7410 69.4 299 
 BRR  HE ES       2319 36.73                             153    0.4610 69.4 299 
 PAM  EZ EP       2319 21.47                             150    0.2710 78.1  41 
 PAM  EN ES       2319 38.32                             150   -0.1210 78.1  41 
 PAM  EZ I        2319 40.80         7.2 0.18            155           78.1  41 
 RUS  HZ EP       2319 22.44                             143   -0.3110  101 175 
 RUS  HN ES       2319 40.57                             143   -0.6210  101 175 
 RUS  HZ I        2319 42.51         6.7 0.36            145            101 175 
 PTB  HZ EP       2319 25.15                             132   -0.64 9  146 258 
 PTB  HN ES       2319 46.29                             132   -0.32 9  146 258 
 PTB  HZ I        2319 53.99        14.6 0.44            131            146 258 
 SPBC HZ EP       2319 27.65                             129    0.24 9  162 218 
 SPBC HN ES       2319 50.26                             129    0.77 9  162 218 
 SPBC HZ I        2319 57.53        14.4 0.22            129            162 218 
 ZAR  HZ EP       2319 31.69                             122    0.44 9  202 292 
 ZAR  HE ES       2319 56.12                             122   -0.21 9  202 292 
 ZAR  HZ I        2320  3.82         7.7 0.46            122            202 292 
 NOR  HZ EP       2319 35.00                             118    0.39 8  234 234 
 NOR  HN ES       2320  1.78                             118   -0.53 8  234 234 
 NOR  HZ I        2320  8.38         5.3 0.16            119            234 234 
 SML  HZ EP       2319 34.92                             117   -0.58 8  242 336 
 SML  HE ES       2320  3.46                             117   -0.44 8  242 336 
 SML  HZ I        2320 13.54        11.5 0.26            118            242 336 
 CHI  HZ EP       2319 36.66                             117   -0.05 8  249 195 
 CHI  HN ES       2320  6.12                             117    0.06 8  249 195 
 CHI  HZ I        2320 15.79         2.9 0.30            118            249 195 
                                                                                
