 2011  627 2255 10.3 L   6.764 -73.144148.0  RSN  6 0.3 1.6LRSN                1
 GAP=185        0.66       6.1     8.6  6.4  0.1417E+02  0.1371E+01  0.5157E+01E
 Epicentro: LOS SANTOS - SANTANDER                                             3
 ACTION:UP  11-07-14 19:08 OP:ep   STATUS:               ID:20110627225510 L   I
 2011-06-27-2251-45S.COL___140                                                 6
 STAT SP IPHASW D HRMM SECON CODA AMPLIT PERI AZIMU VELO SNR AR TRES W  DIS CAZ7
 BAR2 SZ EP   1   2255 30.10                             172     0.0 7   20 193 
 BAR2 SZ I        2255 30.67        10.3 0.44                            20 193 
 BAR2 SZ ES   1   2255 45.99                             172     0.4 7   20 193 
 BTL  SZ EP       2255 30.44                             171     0.210   22 321 
 BTL  SZ ES   2   2255 45.40                             171    -0.3 5   22 321 
 GIR2 SZ EP   1   2255 29.89                             166    -0.5 7   35 351 
 GIR2 SZ ES   2   2255 45.37                             166    -0.6 5   35 351 
 BRR  HZ EP       2255 31.87                             152     0.010   73 301 
 BRR  HN ES   1   2255 48.73                             152     0.1 7   73 301 
 BRR  HZ I        2255 53.06         8.5 0.14                            73 301 
 RUS  HZ EP   1   2255 34.14                             145     0.1 7   97 176 
 RUS  HZ I        2255 35.34         4.6 0.15                            97 176 
 RUS  HN ES   2   2255 52.16                             145    -0.3 5   97 176 
 RREF HN ES   2   2256 31.86                             111    -0.3 3  319 230 
 RREF HZ I        2256 45.22         1.8 0.27                           319 230 
                                                                                
