 2016  927 2255 15.4 L   6.790 -73.151155.5  RSN  7 0.4 1.5LRSN                1
 GAP=136        0.73       6.1     5.7  6.8 -0.3087E+00 -0.4543E+01  0.1196E+02E
 Epicentro: LOS SANTOS - SANTANDER                                             3
 ACTION:UPD 17-08-17 21:17 OP:lp   STATUS:               ID:20160927225515 L   I
 OLDACT:UP  16-09-28 08:02 OP:and  STATUS:               ID:20160927224747     3
 OLDACT:UP  16-09-28 08:00 OP:and  STATUS:               ID:20160927224747     3
 OLDACT:REG 16-09-28 04:29 OP:and  STATUS:               ID:20160927224747     3
 2016-09-27-2248-00M.COL___372                                                 6
 STAT SP IPHASW D HRMM SECON CODA AMPLIT PERI AZIMU VELO AIN AR TRES W  DIS CAZ7
 BAR2 EZ EP   2   2255 36.05                             172   -0.17 5 22.2 189 
 BAR2 EZ ES   2   2255 51.92                             172   -0.51 5 22.2 189 
 BRR  HZ EP       2255 38.00                             154    0.3510 71.2 300 
 BRR  HN ES       2255 55.33                             154    0.3510 71.2 300 
 BRR  HZ I        2256 10.02        15.0 0.32            149           71.2 300 
 PAM  EZ EP   2   2255 38.93                             152    0.16 5 78.6  39 
 PAM  EN ES   2   2255 56.10                             152   -0.87 5 78.6  39 
 PAM  EZ I        2255 57.41         6.1 0.24            156           78.6  39 
 RUS  HZ EP   2   2255 39.73                             146   -0.36 5 99.5 176 
 RUS  HN ES   2   2255 59.80                             146    0.48 5 99.5 176 
 RUS  HZ I        2256  0.28         1.5 0.20            154           99.5 176 
 PTB  HZ EP       2255 42.80                             134   -0.35 9  147 259 
 PTB  HN ES   2   2256  4.11                             134   -0.65 5  147 259 
 PTB  HZ I        2256  9.73         3.8 0.28            134            147 259 
 SPBC HZ EP   2   2255 45.05                             131    0.46 5  162 219 
 SPBC HE ES   2   2256  7.14                             131   -0.19 5  162 219 
 ZAR  HZ EP   9   2255 50.69                             124    2.17 0  204 292 
 ZAR  HN ES       2256 16.26                                   -0.24 9  204 292 
 ZAR  HZ I        2256 21.31         3.8 0.13            125            204 292 
                                                                                
