 2017 1027 2237  4.4 L   6.840 -73.158147.0  RSN 12 0.5 2.4LRSN                1
 GAP=109        1.23       4.0     4.0  6.4  0.3041E+01  0.8721E+01  0.6209E+01E
 Epicentro: LOS SANTOS - SANTANDER                                             3
 ACTION:UPD 17-11-07 19:37 OP:rebc STATUS:               ID:20171027223704 L   I
 OLDACT:REG 17-10-28 03:25 OP:leo  STATUS:               ID:20171027222739     3
 2017-10-27-2228-00M.COL___459                                                 6
 STAT SP IPHASW D HRMM SECON CODA AMPLIT PERI AZIMU VELO AIN AR TRES W  DIS CAZ7
 BAR2 EZ EP       2237 24.24                             169   -0.0110 27.5 186 
 BAR2 EZ ES       2237 39.36                             169   -0.3910 27.5 186 
 BAR2 EZ I        2237 41.32        50.6 0.28            169           27.5 186 
 BRR  HZ EP       2237 25.57                             154    0.0910 68.0 296 
 BRR  HE ES       2237 42.52                             154    0.5710 68.0 296 
 BRR  HZ I        2237 44.83        36.1 0.32            152           68.0 296 
 PAM  EZ EP       2237 27.23                             152    0.6510 74.9  42 
 PAM  EN ES       2237 44.11                             152    0.2110 74.9  42 
 PAM  EZ I        2237 46.42        78.2 0.52            155           74.9  42 
 RUS  HZ EP       2237 28.28                             143   -0.3010  105 175 
 RUS  HN ES       2237 47.01                             143   -0.4510  105 175 
 RUS  HZ I        2237 48.13        63.2 0.32            144            105 175 
 PTB  HZ EP       2237 31.05                             132   -0.36 9  147 257 
 PTB  HE ES       2237 52.24                             132   -0.26 9  147 257 
 PTB  HZ I        2237 56.68        14.6 0.14            132            147 257 
 YPLC HZ EP       2237 34.67                             126   -0.04 9  181 152 
 YPLC HN ES       2237 58.69                             126    0.32 9  181 152 
 YPLC HZ I        2238  1.45        37.5 0.28            128            181 152 
 ZAR  HZ EP       2237 36.44                             123   -0.17 9  201 291 
 ZAR  HE ES       2238  1.91                             123    0.16 9  201 291 
 ZAR  HZ I        2238  9.02        21.8 0.44            123            201 291 
 NOR  HZ EP       2237 40.40                             119    0.06 8  236 233 
 NOR  HN ES       2238  8.70                             119    0.31 8  236 233 
 NOR  HZ I        2238 10.86        15.4 0.28            119            236 233 
 CHI  HZ EP       2237 42.42                             117   -0.15 8  253 195 
 CHI  HN ES       2238 11.34                             117   -1.02 8  253 195 
 CHI  HZ I        2238 15.23        16.7 0.44            118            253 195 
 URE  HZ EP       2237 44.10                             114   -1.08 7  281 291 
 URE  HN ES       2238 16.05                             114   -0.96 7  281 291 
 URE  HZ I        2238 26.96        16.2 0.20            114            281 291 
 GUY2CHZ EP       2237 49.25                             112    1.04 7  303 234 
 GUY2CHN ES       2238 23.53                             112    1.13 7  303 234 
 GUY2CHZ I        2238 34.44        11.5 0.42                           303 234 
 ELA  HZ EP       2237 52.04                             110    0.55 7  331 229 
 ELA  HN ES       2238 28.69                             110    0.44 7  331 229 
 ELA  HZ I        2238 38.33        28.3 0.90            111            331 229 
                                                                                
