 2015  427 2105 25.8 L   6.821 -73.155143.2  RSN 15 0.5 2.3LRSN                1
 GAP= 70        1.06       3.1     3.5  6.0 -0.1988E+01  0.3256E+01  0.1477E+01E
 Epicentro: LOS SANTOS - SANTANDER                                             3
 ACTION:UPD 15-06-03 16:58 OP:cam  STATUS:               ID:20150427210525 L   I
 OLDACT:REG 15-04-28 04:21 OP:spq  STATUS:               ID:20150427205748     3
 2015-04-27-2057-48M.COL___286                                                 6
 STAT SP IPHASW D HRMM SECON CODA AMPLIT PERI AZIMU VELO AIN AR TRES W  DIS CAZ7
 BAR2 EZ EP       21 5 45.16                             169   -0.0310 25.5 187 
 BAR2 EZ ES   1   21 5 59.71                             169   -0.59 7 25.5 187 
 BAR2 EZ I        21 6  0.92        45.1 0.14            169           25.5 187 
 BRR  HZ EP       21 5 47.11                             153    0.5310 69.2 297 
 BRR  HN ES       21 6  3.76                             153    0.9910 69.2 297 
 BRR  HZ I        21 6  5.47        43.9 0.14            151           69.2 297 
 PAM  SZ EP       21 5 47.98                             151    0.2810 76.2  41 
 PAM  SN ES       21 6  4.90                             151    0.1410 76.2  41 
 PAM  SZ I        21 6  7.27        29.3 0.48            153           76.2  41 
 RUS  HZ EP   1   21 5 49.14                             143   -0.36 7  103 176 
 RUS  HN ES       21 6  7.74                             143   -0.2310  103 176 
 PTB  HZ EP       21 5 51.73                             132   -0.80 9  147 258 
 PTB  HN ES       21 6 12.63                             132   -0.74 9  147 258 
 PTB  HZ I        21 6 16.02        31.6 0.26            131            147 258 
 TAM  HZ EP       21 5 53.55                             130    0.10 9  157 106 
 TAM  HE ES   1   21 6 14.84                             130   -0.16 7  157 106 
 TAM  HZ I        21 6 16.34        18.2 0.29            132            157 106 
 OCA  HZ EP   1   21 5 53.40                             129   -0.30 7  158 353 
 OCA  HN ES       21 6 15.13                             129   -0.31 9  158 353 
 OCA  HZ I        21 6 19.33        79.2 0.56            130            158 353 
 SPBC HZ EP       21 5 54.09                             128   -0.15 9  164 218 
 SPBC HE ES   1   21 6 16.52                             128    0.11 7  164 218 
 SPBC HZ I        21 6 22.92        17.2 0.10            128            164 218 
 NOR  HZ EP       21 6  1.89                             118    0.43 8  235 234 
 NOR  HN ES       21 6 29.40                             118    0.14 8  235 234 
 NOR  HZ I        21 6 30.93        15.5 0.16            118            235 234 
 SML  HZ EP       21 6  2.03                             117    0.00 8  241 335 
 SML  HE ES   1   21 6 29.80                             117   -0.46 6  241 335 
 SML  HZ I        21 6 34.06        45.3 0.10            118            241 335 
 CHI  HZ EP   1   21 6  4.59                             116    0.99 6  251 195 
 CHI  HE ES   1   21 6 32.99                             116   -0.08 6  251 195 
 CHI  HZ I        21 6 38.93         4.2 0.40            117            251 195 
 HEL  HZ EP   4   21 6  7.47                             114    1.61 0  272 255 
 HEL  HN ES   1   21 6 36.93                             114   -0.16 6  272 255 
 HEL  HZ I        21 6 47.69        11.5 0.36            114            272 255 
 GUY2CHZ EP   4   21 6 10.72                             112    1.35 0  302 234 
 GUY2CHE ES   1   21 6 43.98                             112    0.64 5  302 234 
 GUY2CHZ I        21 6 50.52        12.7 0.24                           302 234 
 MON  HZ EP   4   21 6 13.00                             108   -1.46 0  351 308 
 MON  HN ES   4   21 6 49.92                             108   -2.48 0  351 308 
 MON  HZ I        21 6 54.34         4.0 0.22            109            351 308 
 SJC  HZ EP   4   21 6 19.53                             105   -1.47 0  407 327 
 SJC  HE ES   4   21 7  1.12                             105   -2.92 0  407 327 
 SJC  HZ I        21 7  4.80         5.7 0.58            106            407 327 
                                                                                
