 2014  127 2216 23.1 L   6.794 -73.129151.6  RSN 18 0.5 2.7LRSN                1
 GAP= 67        0.92       2.7     2.8  4.7  0.2499E+00  0.3845E+01  0.1339E+01E
 Epicentro: LOS SANTOS - SANTANDER                                             3
 ACTION:UPD 14-03-13 09:59 OP:ep   STATUS:               ID:20140127221623 L   I
 OLDACT:DUP 14-01-27 22:02 OP:cam  STATUS:               ID:20140127221002d    3
 OLDACT:REG 14-01-27 21:28 OP:cam  STATUS:               ID:20140127221000     3
 2014-01-27-2210-00M.COL___285                                                 6
 STAT SP IPHASW D HRMM SECON CODA AMPLIT PERI AZIMU VELO AIN AR TRES W  DIS CAZ7
 BAR2 SZ EP       2216 43.31                             171   -0.1210 23.1 195 
 BAR2 SZ ES       2216 58.72                             171   -0.5710 23.1 195 
 BAR2 SZ I        2216 59.52       136.5 0.28            169           23.1 195 
 BRR  HZ EP       2216 45.31                             153    0.3210 73.1 298 
 BRR  HN ES       2217  2.64                             153    0.5810 73.1 298 
 BRR  HZ I        2217  6.10        56.9 0.46            149           73.1 298 
 PAM  SZ IP     C 2216 46.12                             152    0.2110 76.8  38 
 PAM  SN ES       2217  3.49                             152   -0.2110 76.8  38 
 PAM  SZ I        2217  5.49        98.7 0.48            154           76.8  38 
 RUS  HZ IP     D 2216 47.20                             145   -0.1810 99.8 177 
 RUS  HN ES       2217  5.94                             145   -0.3810 99.8 177 
 RUS  HZ I        2217  7.35        34.9 0.34            147           99.8 177 
 PTB  HZ EP       2216 50.21                             133   -0.49 9  149 259 
 PTB  HN ES   4   2217 11.13                             133   -1.10 0  149 259 
 PTB  HZ I        2217 17.16        63.4 0.26            131            149 259 
 TAM  HZ EP     D 2216 51.50                             132    0.42 9  153 105 
 TAM  HN ES       2217 13.26                             132    0.36 9  153 105 
 OCA  HZ EP   2   2216 51.53                             131   -0.43 5  161 353 
 OCA  HN ES   2   2217 13.81                             131   -0.65 5  161 353 
 SPBC HZ EP     C 2216 52.38                             130    0.26 9  164 220 
 SPBC HE ES   2   2217 14.97                             130    0.23 5  164 220 
 SPBC HZ I        2217 19.31        82.6 0.20            130            164 220 
 ZAR  HZ EP   1   2216 57.08                             123    0.94 6  206 292 
 ZAR  HE ES   2   2217 21.83                             123   -0.06 4  206 292 
 ZAR  HZ I        2217 27.59        51.1 0.32            122            206 292 
 NOR  HZ EP       2216 59.30                             119    0.00 8  236 235 
 NOR  HN ES       2217 27.67                             119    0.15 8  236 235 
 NOR  HZ I        2217 31.04        40.2 0.24            119            236 235 
 SML  HZ EP       2216 59.75                             118   -0.46 8  245 335 
 SML  HE ES       2217 29.52                             118    0.37 8  245 335 
 SML  HZ I        2217 35.16        61.8 0.10            118            245 335 
 CHI  HZ EP       2217  1.29                             118    0.17 8  248 196 
 CHI  HN ES       2217 30.89                             118    0.12 8  248 196 
 CHI  HZ I        2217 34.51        16.4 0.60            119            248 196 
 HEL  HZ EP   4   2217  5.61                             116    1.81 0  274 256 
 HEL  HN ES       2217 35.97                             116    0.44 8  274 256 
 HEL  HZ I        2217 41.94        25.4 0.36            115            274 256 
 URE  HZ EP   2   2217  3.60                             114   -1.08 4  286 292 
 URE  HE ES   2   2217 35.24                             114   -1.86 4  286 292 
 URE  HZ I        2217 47.24        24.2 0.34            114            286 292 
 GUY2CHZ EP   4   2217  7.65                             113    0.53 0  302 235 
 GUY2CHE ES   4   2217 44.94                             113    3.50 0  302 235 
 PTGC HZ EP   1   2217  6.21                             113   -0.88 5  307 159 
 DBB  SZ EP   2   2217 10.48                             110   -0.56 3  341 274 
 DBB  SZ ES       2217 48.13                             110   -0.29 7  341 274 
 COD  HZ EP   4   2217 10.55                             110   -1.27 0  349 354 
 COD  HN ES   4   2217 48.28                             110   -1.53 0  349 354 
 COD  HZ I        2217 55.81        13.4 0.78            110            349 354 
 PRA  HZ EP   1   2217 16.86                             107   -0.01 4  392 210 
 PRA  HE ES   2   2217 59.64                             107    0.83 3  392 210 
 PRA  HZ I        2218  5.08        29.4 0.34            108            392 210 
 SJC  HZ EP   4   2217 17.24                             106   -1.81 0  411 327 
                                                                                
