 2012  427 2256 47.6 L   6.698 -73.506111.0  RSN  8 0.2 1.7LRSN                1
 GAP= 78        0.52       2.1     2.2  4.0  0.4958E+00  0.3811E+01  0.2030E+01E
 Epicentro: EL CARMEN DE CHUCURI - SANTANDER                                   3
 ACTION:UPD 12-07-05 11:56 OP:tino STATUS:               ID:20120427225647 L   I
 2012-04-27-2249-41M.COL___177                                                 6
 STAT SP IPHASW D HRMM SECON CODA AMPLIT PERI AZIMU VELO AIN AR TRES W  DIS CAZ7
 BAR2 SZ EP       2257  3.79                             160     0.310   38 108 
 BAR2 SZ ES   1   2257 16.10                             160     0.1 7   38 108 
 BAR2 SZ I        2257 17.06        24.1 0.14                            38 108 
 BRR  HZ EP       2257  3.58                             154    -0.210   51 333 
 BRR  HN ES       2257 16.44                             154     0.010   51 333 
 BRR  HZ I        2257 17.46        19.5 0.18                            51 333 
 RUS  HZ EP       2257  8.24                             135     0.210  101 152 
 RUS  HE ES       2257 23.87                             135    -0.210  101 152 
 RUS  HZ I        2257 27.89         5.0 0.35                           101 152 
 PAM  SZ EP   1   2257  9.11                             131    -0.2 7  114  51 
 PAM  SN ES       2257 26.17                             131     0.010  114  51 
 ZAR  HZ EP   1   2257 14.92                             118     0.3 7  173 301 
 ZAR  HN ES   1   2257 35.71                             118     0.0 7  173 301 
 ZAR  HZ I        2257 38.13         7.9 0.31                           173 301 
 NOR  SZ EP   1   2257 17.36                             115     0.2 6  196 230 
 NOR  SE ES   1   2257 40.35                             115     0.0 6  196 230 
 HEL  HZ EP   1   2257 21.37                             111    -0.1 6  231 256 
 HEL  HZ I        2257 24.26         3.8 0.47                           231 256 
 RREF HZ EP   1   2257 27.69                             106    -0.4 6  285 226 
 RREF HZ I        2258  8.46         2.2 0.27                           285 226 
                                                                                
