 2016  527 2336 21.8 L   6.800 -73.138149.6  RSN 12 0.4 2.1LRSN                1
 GAP=120        0.95       2.9     3.8  5.1 -0.2756E+01  0.1911E+01  0.2948E+01E
 Epicentro: LOS SANTOS - SANTANDER                                             3
 ACTION:UPD 16-08-18 17:50 OP:cam  STATUS:               ID:20160527233621 L   I
 OLDACT:UP  16-05-28 03:57 OP:drio STATUS:               ID:20160527232742     3
 OLDACT:REG 16-05-28 03:38 OP:edw  STATUS:               ID:20160527232742     3
 2016-05-27-2327-42M.COL___322                                                 6
 STAT SP IPHASW D HRMM SECON CODA AMPLIT PERI AZIMU VELO AIN AR TRES W  DIS CAZ7
 BAR2 EZ EP       2336 41.99                             171    0.1210 23.5 192 
 BAR2 EZ ES       2336 57.23                             171   -0.3210 23.5 192 
 BAR2 EZ I        2336 58.44        47.3 0.28            168           23.5 192 
 BRR  HZ EP       2336 43.66                             153    0.2710 72.0 298 
 BRR  HE ES       2337  1.03                             153    0.7910 72.0 298 
 BRR  HZ I        2337  2.08        19.9 0.12            150           72.0 298 
 PAM  EZ EP       2336 44.74                             152    0.3710 76.8  39 
 PAM  EN ES       2337  1.90                             152   -0.0910 76.8  39 
 PAM  EZ I        2337  4.07        22.6 0.52            156           76.8  39 
 RUS  HZ EP       2336 45.87                             145   -0.0310  101 177 
 RUS  HE ES       2337  4.75                             145    0.0210  101 177 
 RUS  HZ I        2337  5.53        10.8 0.26            145            101 177 
 PTB  HZ EP       2336 48.73                             133   -0.41 9  149 259 
 PTB  HN ES       2337  9.90                             133   -0.58 9  149 259 
 PTB  HZ I        2337 16.50        11.9 0.16            131            149 259 
 OCA  HZ EP       2336 50.28                             130   -0.12 9  160 353 
 OCA  HN ES       2337 12.30                             130   -0.42 9  160 353 
 SPBC HZ EP       2336 50.65                             130    0.02 9  164 219 
 SPBC HN ES       2337 13.06                             130   -0.07 9  164 219 
 SPBC HZ I        2337 17.74        30.1 0.20            129            164 219 
 NOR  HZ EP       2336 57.88                             119    0.07 8  235 235 
 NOR  HE ES       2337 25.50                             119   -0.41 8  235 235 
 NOR  HZ I        2337 35.44        10.9 0.42            119            235 235 
 CHI  HZ EP       2337  0.40                             118    0.68 8  249 195 
 CHI  HE ES       2337 29.58                             118    0.27 8  249 195 
 CHI  HZ I        2337 33.19        10.6 0.50            118            249 195 
 HEL  HZ EP   4   2337  0.13                             115   -2.15 0  273 256 
 HEL  HN ES       2337 34.28                             115    0.40 8  273 256 
 HEL  HZ I        2337 39.98         7.8 0.28            115            273 256 
 PTGC HZ EP       2337  5.01                             112   -0.76 7  308 159 
 SJC  HZ EP   4   2337 15.34                             106   -2.18 0  410 327 
 SJC  HE ES   4   2337 57.64                             106   -3.36 0  410 327 
 SJC  HZ I        2338  5.86         3.1 0.42            107            410 327 
                                                                                
