 2010  327 2128 21.5 L   6.791 -72.957151.1  RSN 12 0.5 2.7LRSN                1
 GAP=140        0.83       4.2     7.0  6.3 -0.8282E+01 -0.6470E+01  0.3881E+01E
 Epicentro: CEPITA - SANTANDER                                                 3
 ACTION:UP  10-08-24 09:56 OP:vdl  STATUS:               ID:20100327212821 L   I
 2010-03-27-2124-51S.COL___098                                                 6
 STAT SP IPHASW D HRMM SECON CODA AMPLIT PERI AZIMU VELO SNR AR TRES W  DIS CAZ7
 BAR2 SZ EP   1   2128 42.33                             167     0.3 7   33 229 
 BAR2 SZ ES   1   2128 57.86                             167    -0.2 7   33 229 
 BRR  HZ IP       2128 44.63                             147     0.210   91 293 
 BRR  HZ I        2128 46.47        44.3 0.10                            91 293 
 BRR  HE ES   1   2129  1.90                             147    -0.4 7   91 293 
 RUS  HZ EP   2   2128 46.08                             145     0.3 5  100 188 
 RUS  HN ES   2   2129  4.84                             145     0.1 5  100 188 
 OCA  SZ EP   1   2128 51.37                             130     0.7 7  165 346 
 OCA  SZ ES   1   2129 13.55                             130     0.1 7  165 346 
 OCA  SZ I        2129 18.34        69.1 0.48                           165 346 
 CHI  HZ EP   1   2129  0.28                             118     0.2 6  254 200 
 CHI  HE ES   2   2129 29.52                             118    -0.7 4  254 200 
 HEL  HZ EP   2   2129  4.37                             114     0.1 4  292 257 
 HEL  HZ I        2129 43.28        12.0 0.36                           292 257 
 RREF BZ EP   2   2129 10.12                             111     0.5 3  337 232 
 RREF BN ES   2   2129 46.80                             111    -0.4 3  337 232 
 RREF BZ I        2129 51.04        16.4 0.14                           337 232 
 SDV  BZ IP       2129  9.23                             110    -0.8 7  345  48 
 SDV  BZ I        2129 12.74        24.6 0.18                           345  48 
 TOL  SZ EP   2   2129 12.23                             109     0.6 3  358 227 
 DBB  SZ EP   1   2129 10.33                             109    -1.3 5  360 274 
 ANIL BZ EP   2   2129 14.20                             108     1.0 3  372 227 
 ANIL BE ES   2   2129 53.49                             108     0.0 3  372 227 
 ANIL BZ I        2129 58.84        29.2 0.50                           372 227 
 PRA  HZ EP   1   2129 16.15                             107    -0.2 4  402 212 
 PRA  HN ES   2   2129 58.95                             107    -0.2 3  402 212 
 PRA  HZ I        2130  3.98        14.0 0.42                           402 212 
                                                                                
