 2011  127 2150 51.9 L   6.771 -73.143144.0  RSN  4 0.4 1.6LRSN                1
 GAP=216        0.73       7.2     8.9 12.0 -0.1535E+02  0.4873E+02 -0.1629E+02E
 Epicentro: LOS SANTOS - SANTANDER                                             3
 ACTION:UP  11-02-08 08:43 OP:pat  STATUS:               ID:20110127215051 L   I
 2011-01-27-2148-15S.COL___138                                                 6
 STAT SP IPHASW D HRMM SECON CODA AMPLIT PERI AZIMU VELO SNR AR TRES W  DIS CAZ7
 BTL  SZ EP   1   2151 10.84                             171    -0.4 7   21 320 
 RUS  HZ EP   1   2151 15.55                             144     0.3 7   97 176 
 RUS  HN ES   1   2151 33.70                             144     0.2 7   97 176 
 RUS  HZ I        2151 35.51         7.2 0.32                            97 176 
 NOR  SZ EP   1   2151 27.59                             118     0.2 6  233 235 
 NOR  SN ES   1   2151 55.16                             118     0.1 6  233 235 
 CHI  HZ EP   1   2151 29.32                             117     0.1 6  246 195 
 CHI  HN ES   1   2151 57.58                             117    -0.7 6  246 195 
 CHI  HZ I        2152  2.88         2.4 0.51                           246 195 
                                                                                
