 2015  327 2346 59.2 L   6.784 -73.176152.7  RSN  5 0.4 1.9LRSN                1
 GAP=194        0.89      10.2     4.9  8.5 -0.2198E+02 -0.1651E+01  0.3974E+02E
 Epicentro: LOS SANTOS - SANTANDER                                             3
 ACTION:UPD 15-04-30 16:30 OP:nd   STATUS:               ID:20150327234659 L   I
 OLDACT:UP  15-03-28 09:29 OP:cam  STATUS:               ID:20150327233748     3
 OLDACT:REG 15-03-28 02:36 OP:cam  STATUS:               ID:20150327233748     3
 2015-03-27-2337-48M.COL___290                                                 6
 STAT SP IPHASW D HRMM SECON CODA AMPLIT PERI AZIMU VELO AIN AR TRES W  DIS CAZ7
 BRR  HZ EP       2347 21.11                             154    0.0710 69.2 301 
 BRR  HN ES       2347 38.71                             154    0.6710 69.2 301 
 BRR  HN I        2347 39.85        22.3 0.40            149           69.2 301 
 PAM  SZ EP       2347 22.56                             151    0.1510 80.9  41 
 PAM  SN ES       2347 40.09                             151   -0.3910 80.9  41 
 PAM  SN I        2347 40.53        15.5 0.76            150           80.9  41 
 PTB  HZ EP       2347 26.23                             134   -0.23 9  144 259 
 PTB  HN ES       2347 47.27                             134   -0.42 9  144 259 
 PTB  HZ I        2347 50.71         6.8 0.12            132            144 259 
 ZAR  HZ EP   1   2347 32.02                             124    0.12 6  202 293 
 ZAR  HN ES       2347 57.15                             124   -0.23 9  202 293 
 ZAR  HZ I        2348  3.12         7.9 0.42            122            202 293 
 NOR  HZ EP   1   2347 35.49                             120    0.51 6  231 234 
                                                                                
