 2017 1027 2308 26.4 L   6.862 -73.086147.4  RSN  7 0.5 1.7LRSN                1
 GAP=115        1.10       5.1     5.4  7.9  0.1236E+02  0.1362E+02  0.1178E+02E
 Epicentro: LOS SANTOS - SANTANDER                                             3
 ACTION:UPD 17-11-07 19:37 OP:rebc STATUS:               ID:20171027230826 L   I
 OLDACT:UP  17-10-28 05:07 OP:leo  STATUS:               ID:20171027225741     3
 OLDACT:REG 17-10-28 03:28 OP:leo  STATUS:               ID:20171027225741     3
 2017-10-27-2258-00M.COL___459                                                 6
 STAT SP IPHASW D HRMM SECON CODA AMPLIT PERI AZIMU VELO AIN AR TRES W  DIS CAZ7
 PAM  EZ EP       23 8 47.53                             155   -0.7010 67.9  39 
 PAM  EN ES       23 9  5.47                             155    0.1910 67.9  39 
 PAM  EZ I        23 9  9.02         5.7 0.34            157           67.9  39 
 BRR  HZ EP       23 8 47.99                             152    0.1210 74.3 291 
 BRR  HN ES       23 9  4.93                             152    0.2910 74.3 291 
 BRR  HZ I        23 9  6.21        14.2 0.22            153           74.3 291 
 RUS  HZ EP       23 8 50.37                             142   -0.3910  107 180 
 RUS  HN ES       23 9  9.20                             142   -0.5910  107 180 
 RUS  HZ I        23 9 13.66         4.9 0.30            145            107 180 
 PTB  HZ EP       23 8 54.08                             131   -0.11 9  156 257 
 PTB  HN ES   3   23 9 14.03                             131   -1.86 2  156 257 
 PTB  HZ I        23 9 17.07         4.7 0.10            133            156 257 
 YPLC HZ EP       23 8 56.74                             126    0.16 9  180 154 
 YPLC HN ES       23 9 21.00                             126    0.86 9  180 154 
 ZAR  HZ EP       23 8 59.24                             122   -0.06 8  208 290 
 ZAR  HN ES       23 9 25.24                             122    0.25 8  208 290 
 ZAR  HZ I        23 9 29.37         5.1 0.30            125            208 290 
 GUY2CHZ EP     C 23 9 11.72                             112    0.62 7  311 234 
 GUY2CHN ES   4   23 9 47.07                             112    1.07 0  311 234 
 GUY2CHZ I        23 9 54.63         3.4 0.52                           311 234 
                                                                                
