 2010  827 2018 46.3 L   6.768 -73.051147.8  RSN  5 0.1 1.6LRSN                1
 GAP=175        0.32       3.1     6.1  4.5  0.1070E+02 -0.1478E+02 -0.7298E+01E
 Epicentro: LOS SANTOS - SANTANDER                                             3
 ACTION:UP  10-09-07 10:58 OP:vdl  STATUS:               ID:20100827201846 L   I
 2010-08-27-2016-53S.COL___119                                                 6
 STAT SP IPHASW D HRMM SECON CODA AMPLIT PERI AZIMU VELO SNR AR TRES W  DIS CAZ7
 BAR2 SZ ES   1   2019 21.61                             170    -0.1 7   24 217 
 BAR2 SZ I        2019 22.35         7.1 0.16                            24 217 
 GIR2 SZ EP   2   2019  6.45                             165     0.1 5   38 335 
 BRR  HZ EP   1   2019  8.20                             149    -0.1 7   82 297 
 BRR  HZ I        2019  8.57        12.4 0.12                            82 297 
 BRR  HE ES   1   2019 25.56                             149     0.1 7   82 297 
 RUS  HZ EP   1   2019  9.99                             145     0.0 7   97 182 
 RUS  HN ES   1   2019 28.53                             145     0.1 7   97 182 
 RUS  HZ I        2019 29.43         2.8 0.30                            97 182 
 GUE  SZ EP   1   2019 11.38                             139     0.0 7  118   7 
 GUE  SZ I        2019 44.23         6.7 0.15                           118   7 
                                                                                
