 2011  927 2226 55.3 L   6.775 -73.138140.0  RSN  6 0.3 1.7LRSN                1
 GAP=139        0.51       4.0     5.5  6.5  0.9880E+00 -0.1535E+01  0.6500E+00E
 Epicentro: LOS SANTOS - SANTANDER                                             3
 ACTION:UPD 12-07-13 16:00 OP:ep   STATUS:               ID:20110927222655 L   I
 2011-09-27-2221-10S.COL___165                                                 6
 STAT SP IPHASW D HRMM SECON CODA AMPLIT PERI AZIMU VELO AIN AR TRES W  DIS CAZ7
 BAR2 SZ EP       2227 13.87                             171   -0.2710 20.8 194 
 BAR2 SZ ES   2   2227 28.30                             171   -0.57 5 20.8 194 
 BAR2 SZ I        2227 30.55         9.0 0.26                          20.8 194 
 BTL  SZ EP       2227 14.37                             171    0.2210 21.4 318 
 BRR  HZ EP       2227 15.84                             151   -0.0710 73.3 300 
 BRR  HZ I        2227 18.45        12.1 0.34                          73.3 300 
 BRR  HE ES   2   2227 32.42                             151    0.41 5 73.3 300 
 PAM  SZ EP       2227 16.98                             149    0.0210 79.0  38 
 PAM  SE ES   2   2227 33.93                             149    0.04 5 79.0  38 
 RUS  HZ EP       2227 18.29                             143    0.0610 97.8 176 
 RUS  HE ES   2   2227 36.53                             143    0.37 5 97.8 176 
 ZAR  HN ES   3   2227 52.19                             121   -0.50 2  206 293 
 ZAR  HZ I        2227 54.84         4.0 0.10                           206 293 
                                                                                
