 2013 1027 2215 21.9 L   6.817 -73.142130.7  RSN  5 0.4 1.5LRSN                1
 GAP=136        0.99       4.9     4.7 10.4 -0.4449E+00  0.2086E+02 -0.4499E+01E
 Epicentro: LOS SANTOS - SANTANDER                                             3
 ACTION:UPD 13-11-25 09:24 OP:ep   STATUS:               ID:20131027221521 L   I
 OLDACT:REG 13-10-27 22:41 OP:mh   STATUS:               ID:20131027220845     3
 2013-10-27-2208-45M.COL___230                                                 6
 STAT SP IPHASW D HRMM SECON CODA AMPLIT PERI AZIMU VELO AIN AR TRES W  DIS CAZ7
 BAR2 SZ EP   1   2215 39.63                             168   -0.16 7 25.3 190 
 PAM  SZ EP       2215 42.62                             148    0.1710 75.6  40 
 PAM  SN ES       2215 58.31                             148   -0.1510 75.6  40 
 PAM  SZ I        2216  2.19         4.7 0.39            154           75.6  40 
 RUS  HZ EP       2215 43.91                             140   -0.4610  102 176 
 RUS  HN ES       2216  2.33                             140    0.4410  102 176 
 RUS  HZ I        2216  3.84         3.1 0.24            147            102 176 
 PTB  HZ EP   1   2215 47.07                             128   -0.71 7  149 258 
 PTB  HN ES       2216  7.87                             128   -0.09 9  149 258 
 PTB  HZ I        2216 13.69         3.3 0.18            132            149 258 
 ZAR  HZ EP       2215 54.22                             119    0.82 9  204 292 
 ZAR  HN ES       2216 17.83                             119   -0.12 9  204 292 
 ZAR  HZ I        2216 23.97         7.4 0.32            123            204 292 
                                                                                
