 2010  527 2157 58.4 L   6.140 -73.733110.0  RSN  5 0.3 1.8LRSN                1
 GAP=221        0.39       7.5     6.3  8.4 -0.3186E+02  0.3055E+02 -0.2771E+02E
 Epicentro: LANDAZURI - SANTANDER                                              3
 ACTION:UP  10-08-24 10:07 OP:vdl  STATUS:               ID:20100527215758 L   I
 2010-05-27-2154-14S.COL___108                                                 6
 STAT SP IPHASW D HRMM SECON CODA AMPLIT PERI AZIMU VELO SNR AR TRES W  DIS CAZ7
 BAR2 SZ EP       2158 16.68                             143     0.010   79  51 
 BAR2 SZ ES   2   2158 30.98                             143     0.0 5   79  51 
 GIR2 SZ EP   3   2158 20.36                             129     0.3 2  120  30 
 HEL  HZ EP   2   2158 28.93                             115     0.3 4  199 272 
 HEL  HN ES   3   2158 51.81                             115    -0.5 2  199 272 
 HEL  HZ I        2158 56.97         6.1 0.39                           199 272 
 GUE  SZ EP       2158 29.31                             114    -0.2 8  207  25 
 GUE  SZ ES   2   2158 53.92                             114     0.1 4  207  25 
 GRA  SZ ES   3   2158 56.55                             112     0.8 2  219  28 
                                                                                
