 2010  627 2313 28.0 L   6.766 -73.128142.6  RSN  9 0.4 1.6LRSN                1
 GAP=158        0.73       3.6     7.3  6.7 -0.4640E+01 -0.6055E+01 -0.3940E+01E
 Epicentro: LOS SANTOS - SANTANDER                                             3
 ACTION:UP  10-08-24 10:13 OP:vdl  STATUS:               ID:20100627231328 L   I
 2010-06-27-2311-44S.COL___118                                                 6
 STAT SP IPHASW D HRMM SECON CODA AMPLIT PERI AZIMU VELO SNR AR TRES W  DIS CAZ7
 BAR2 SZ ES   1   2314  1.73                             172    -0.4 7   20 198 
 BRR  HZ IP     D 2313 48.93                             151    -0.110   75 300 
 BRR  HN ES   1   2314  5.58                             151     0.2 7   75 300 
 BRR  HZ I        2314  6.28        22.8 0.40                            75 300 
 RUS  HZ EP   1   2313 50.92                             144    -0.2 7   97 177 
 RUS  HE ES   1   2314  9.61                             144     0.4 7   97 177 
 RUS  HZ I        2314 10.87         4.4 0.36                            97 177 
 BRI  SZ EP   1   2313 51.84                             140     0.0 7  111  19 
 GUE  SZ EP   2   2313 52.51                             138    -0.2 5  120  11 
 GRA  SZ EP       2313 53.22                             136     0.010  129  16 
 GRA  SZ ES   1   2314 13.31                             136     0.4 7  129  16 
 OCA  SZ ES   2   2314 17.76                             128    -0.9 5  164 353 
 OCA  SZ I        2314 21.00         5.1 0.46                           164 353 
 CHI  HE ES   2   2314 33.77                             117    -0.4 4  246 196 
 CHI  HZ I        2314 37.23         1.9 0.17                           246 196 
 HEL  HZ EP   2   2314  8.86                             114     0.7 4  273 257 
 HEL  HZ I        2314 37.02         1.9 0.38                           273 257 
                                                                                
