 2013  227 2149 40.8 L   6.804 -73.165135.8  RSN  9 0.5 2.8LRSN                1
 GAP=134        1.17       3.7     4.9  7.6 -0.2275E+01  0.1484E+02 -0.7663E+00E
 Epicentro: LOS SANTOS - SANTANDER                                             3
 ACTION:UPD 13-03-12 09:36 OP:ep   STATUS:               ID:20130227214940 L   I
 2013-02-27-2147-46M.COL___199                                                 6
 STAT SP IPHASW D HRMM SECON CODA AMPLIT PERI AZIMU VELO AIN AR TRES W  DIS CAZ7
 BAR2 SZ EP       2149 59.35                             170    0.0810 23.4 185 
 BAR2 SZ ES       2150 13.91                             170    0.2610 23.4 185 
 BAR2 SZ I        2150 14.87       146.6 0.34            170           23.4 185 
 BRR  HZ EP       2150  1.27                             151    0.4710 69.1 299 
 BRR  HN I        2150 22.99       162.4 0.16            148           69.1 299 
 PAM  SZ EP       2150  2.24                             148    0.1710 78.5  41 
 PAM  SN ES       2150 19.03                             148    0.4010 78.5  41 
 PAM  SN I        2150 20.13       193.5 0.48            148           78.5  41 
 RUS  HZ EP       2150  3.39                             141   -0.2810  101 175 
 RUS  HN ES       2150 20.92                             141   -0.5510  101 175 
 RUS  HN I        2150 22.69        62.0 0.18            142            101 175 
 PTB  HZ EP       2150  6.01                             130   -0.81 9  146 259 
 PTB  HN ES       2150 26.74                             130   -0.35 9  146 259 
 PTB  HN I        2150 29.27        84.0 0.60            128            146 259 
 OCA  HZ EP       2150  7.93                             127   -0.40 9  160 354 
 OCA  HN ES       2150 29.27                             127   -0.51 9  160 354 
 OCA  HN I        2150 30.03       206.5 0.18            126            160 354 
 ZAR  HZ EP       2150 12.27                             120   -0.16 9  202 292 
 ZAR  HN ES   1   2150 38.16                             120    1.09 6  202 292 
 ZAR  HN I        2150 39.57        80.1 0.50            118            202 292 
 CHI  HZ EP       2150 18.78                             115    0.79 8  248 195 
 CHI  HN ES       2150 47.08                             115    0.12 8  248 195 
 CHI  HN I        2150 49.00        12.9 0.30            114            248 195 
 HEL  HZ EP   1   2150 21.39                             113    1.05 6  270 256 
 HEL  HN ES       2150 51.13                             113   -0.02 8  270 256 
 HEL  HN I        2150 58.90        19.0 0.36            111            270 256 
                                                                                
