 2010  527 2022  7.0 L   6.803 -73.315135.3  RSN  5 0.3 2.0LRSN                1
 GAP=162        0.59       6.0    13.3 10.0 -0.3491E+02  0.6584E+02 -0.3354E+02E
 Epicentro: ZAPATOCA - SANTANDER                                               3
 ACTION:UP  10-08-24 10:07 OP:vdl  STATUS:               ID:20100527202207 L   I
 2010-05-27-2020-20S.COL___108                                                 6
 STAT SP IPHASW D HRMM SECON CODA AMPLIT PERI AZIMU VELO SNR AR TRES W  DIS CAZ7
 BAR2 SZ IP       2022 25.29                             168    -0.110   27 148 
 BAR2 SZ ES   2   2022 39.76                             168    -0.1 5   27 148 
 GUE  SZ IP       2022 30.91                             135    -0.210  122  21 
 GUE  SZ ES   2   2022 49.77                             135    -0.2 5  122  21 
 GRA  SZ IP       2022 32.39                             132     0.510  132  25 
 GRA  SZ ES   2   2022 51.26                             132     0.0 5  132  25 
 OCA  SZ EP       2022 34.29                             127     0.0 9  159 360 
 OCA  SZ I        2022 59.04        11.1 0.28                           159 360 
 MON  HZ EP   3   2022 53.70                             107    -0.1 2  338 310 
 MON  HE ES   3   2023 31.01                             107     0.6 2  338 310 
                                                                                
