 2014  727 2135 17.8 L   6.733 -73.184146.6  RSN  5 0.3 1.4LRSN                1
 GAP=135        0.80       4.0     5.1  7.4  0.6351E+01 -0.9086E+01 -0.1192E+02E
 Epicentro: VILLANUEVA - SANTANDER                                             3
 ACTION:UPD 15-03-16 20:47 OP:nd   STATUS:               ID:20140727213517 L   I
 OLDACT:REG 14-07-28 02:30 OP:cam  STATUS:               ID:20140727213000     3
 2014-07-27-2130-00M.COL___282                                                 6
 STAT SP IPHASW D HRMM SECON CODA AMPLIT PERI AZIMU VELO AIN AR TRES W  DIS CAZ7
 BRR  HZ EP       2135 39.49                             153    0.4010 71.6 305 
 BRR  HN ES       2135 56.03                             153    0.3510 71.6 305 
 BRR  HZ I        2135 57.51         5.2 0.18            150           71.6 305 
 PAM  SZ EP       2135 40.74                             148    0.0810 85.8  39 
 RUS  HZ EP       2135 41.37                             146    0.1910 93.6 173 
 RUS  HE ES       2135 58.95                             146   -0.4310 93.6 173 
 RUS  HZ I        2136  0.63         4.4 0.32            146           93.6 173 
 PTB  HZ EP       2135 44.49                             133    0.11 9  142 261 
 PTB  HN ES       2136  4.88                             133   -0.21 9  142 261 
 PTB  HZ I        2136 11.03         2.3 0.36            132            142 261 
 SML  HZ EP       2135 54.74                             117   -0.32 8  249 337 
 SML  HN ES       2136 23.61                             117   -0.48 8  249 337 
                                                                                
