 2016  127 2221  1.8 L   6.771 -73.157137.3  RSN  6 0.4 1.8LRSN                1
 GAP=149        0.87       4.8     4.5  6.7 -0.6974E+01  0.1175E+02  0.5965E+01E
 Epicentro: LOS SANTOS - SANTANDER                                             3
 ACTION:UPD 16-03-09 23:29 OP:cam  STATUS:               ID:20160127222101 L   I
 OLDACT:REG 16-01-28 05:39 OP:mh   STATUS:               ID:20160127221749     3
 2016-01-27-2217-49M.COL___334                                                 6
 STAT SP IPHASW D HRMM SECON CODA AMPLIT PERI AZIMU VELO AIN AR TRES W  DIS CAZ7
 BAR2 EZ EP   1   2221 19.43                             171   -0.89 7 20.0 188 
 BAR2 EZ ES       2221 34.96                             171    0.1810 20.0 188 
 BAR2 EZ I        2221 36.78        14.1 0.29            169           20.0 188 
 PAM  EZ EP       2221 23.43                             148    0.1210 80.7  39 
 PAM  EN ES       2221 40.17                             148    0.0710 80.7  39 
 PAM  EZ I        2221 42.43        13.6 0.54            154           80.7  39 
 PTB  HZ EP       2221 27.62                             130   -0.28 9  146 260 
 PTB  HN ES   1   2221 48.14                             130   -0.13 7  146 260 
 PTB  HZ I        2221 54.90         5.0 0.36            130            146 260 
 ZAR  HZ EP   1   2221 34.58                             120    0.89 6  204 293 
 ZAR  HE ES       2221 58.43                             120   -0.15 9  204 293 
 ZAR  HZ I        2222  4.63         5.4 0.28            122            204 293 
 NOR  HZ EP   1   2221 36.08                             117   -0.64 6  232 235 
 NOR  HN ES       2222  4.35                             117    0.38 8  232 235 
 NOR  HZ I        2222 11.66         3.9 0.24            118            232 235 
 ANIL HE ES   4   2222 32.03                             107    2.81 0  354 225 
 PRA  HZ EP       2221 54.99                             105    0.37 6  389 210 
 PRA  HN ES       2222 35.94                             105    0.11 6  389 210 
 PRA  HZ I        2222 41.46         3.3 0.30            107            389 210 
                                                                                
