 2017  127 2010 24.4 L   6.768 -73.152144.7  RSN  9 0.3 2.0LRSN                1
 GAP=137        0.77       2.8     3.2  4.4  0.2439E+00  0.4458E+01  0.1792E+01E
 Epicentro: LOS SANTOS - SANTANDER                                             3
 ACTION:UPD 17-05-22 16:04 OP:jn   STATUS:               ID:20170127201024 L   I
 OLDACT:REG 17-01-28 02:22 OP:cara STATUS:               ID:20170127200744     3
 2017-01-27-2008-00M.COL___346                                                 6
 STAT SP IPHASW D HRMM SECON CODA AMPLIT PERI AZIMU VELO AIN AR TRES W  DIS CAZ7
 BAR2 EZ IP     D 2010 43.82                             172    0.0210 19.7 190 
 BAR2 EZ ES       2010 58.74                             172   -0.2110 19.7 190 
 BAR2 EZ I        2011  1.76        17.0 0.34            169           19.7 190 
 BRR  HZ EP       2010 45.92                             152    0.4610 72.3 301 
 BRR  HN ES       2011  2.39                             152    0.4810 72.3 301 
 BRR  HZ I        2011  7.00        15.0 0.16            151           72.3 301 
 PAM  EZ IP     C 2010 46.73                             150    0.0710 80.6  38 
 PAM  EN ES       2011  3.70                             150   -0.3510 80.6  38 
 PAM  EZ I        2011  5.95        12.7 0.54            155           80.6  38 
 RUS  HZ EP       2010 47.80                             144    0.0410 97.1 175 
 RUS  HN ES       2011  6.06                             144    0.0510 97.1 175 
 RUS  HZ I        2011  9.53         7.5 0.24            146           97.1 175 
 PTB  HZ EP       2010 51.02                             132   -0.10 9  146 260 
 PTB  HN ES       2011 11.55                             132   -0.43 9  146 260 
 PTB  HZ I        2011 14.07        17.5 0.13            132            146 260 
 ZAR  HZ EP       2010 56.63                             122   -0.17 9  205 293 
 ZAR  HE ES       2011 22.31                             122    0.20 9  205 293 
 ZAR  HZ I        2011 27.96        17.4 0.28            123            205 293 
 NOR  HZ EP       2011  0.26                             118    0.51 8  232 235 
 NOR  HN ES       2011 27.24                             118   -0.10 8  232 235 
 NOR  HZ I        2011 31.77         8.2 0.29            119            232 235 
 CHI  HZ EP       2011  1.70                             117    0.09 8  245 195 
 CHI  HN ES       2011 30.59                             117   -0.08 8  245 195 
 CHI  HZ I        2011 41.09         3.7 0.30            119            245 195 
 URE  HZ EP       2011  4.71                             113   -0.74 7  284 293 
 URE  HN ES   4   2011 36.20                             113   -1.30 0  284 293 
 URE  HZ I        2011 47.85         7.9 0.16            114            284 293 
                                                                                
