 2017  627 2134  2.0 L   6.753 -73.112135.7  RSN 14 0.4 2.4LRSN                1
 GAP=163        1.15       4.5     3.8  6.3  0.4277E+00  0.3411E+01  0.2927E+01E
 Epicentro: LOS SANTOS - SANTANDER                                             3
 ACTION:UPD 17-09-14 16:55 OP:jn   STATUS:               ID:20170627213402 L   I
 OLDACT:DUP 17-06-28 07:57 OP:lv   STATUS:               ID:20170627212743d    3
 2017-06-27-2128-00M.COL___370                                                 6
 STAT SP IPHASW D HRMM SECON CODA AMPLIT PERI AZIMU VELO AIN AR TRES W  DIS CAZ7
 BAR2 EZ IP     C 2134 20.53                             171    0.1710 19.4 204 
 BAR2 EZ ES       2134 34.76                             171    0.1010 19.4 204 
 BAR2 EZ I        2134 36.60        67.8 0.12            166           19.4 204 
 BRR  HZ IP     C 2134 22.44                             149   -0.0010 77.0 301 
 BRR  HN ES       2134 38.78                             149    0.4110 77.0 301 
 BRR  HZ I        2134 40.61        57.1 0.08            149           77.0 301 
 TAM  HZ EP   1   2134 28.60                             129    0.15 7  150 103 
 TAM  HN ES   1   2134 48.65                             129   -0.42 7  150 103 
 PTB  HZ EP       2134 27.65                             129   -0.79 9  151 261 
 PTB  HN ES       2134 48.45                             129   -0.60 9  151 261 
 PTB  HZ I        2134 54.00        15.7 0.08            129            151 261 
 SPBC HZ EP       2134 29.44                             127   -0.17 9  162 221 
 SPBC HN ES       2134 51.28                             127    0.15 9  162 221 
 SPBC HZ I        2134 55.04         9.0 0.13            126            162 221 
 YPLC HN ES   4   2134 54.27                             125    1.61 0  170 152 
 YPLC HZ I        2134 55.54        17.4 0.14            126            170 152 
 ZAR  HZ EP       2134 34.27                             120   -0.13 8  209 293 
 ZAR  HE ES       2134 59.46                             120   -0.20 8  209 293 
 ZAR  HZ I        2135  5.15        36.7 0.11            121            209 293 
 TABC EZ EP   9   2134 38.32                             117    1.40 0  227 212 
 TABC EZ ES       2135  6.84                                    1.30 8  227 212 
 TABC EZ I        2135 12.62        38.4 0.35            118            227 212 
 NOR  HZ EP       2134 36.58                             116   -0.61 8  235 236 
 NOR  HN ES       2135  4.18                             116   -0.45 8  235 236 
 NOR  HZ I        2135  8.72        32.7 0.42            117            235 236 
 CHI  HZ EP       2134 39.45                             115    0.71 8  245 196 
 CHI  HN ES       2135  7.42                             115    0.04 8  245 196 
 CHI  HZ I        2135 12.02         9.4 0.06            116            245 196 
 HEL  HZ EP       2134 42.98                             113    0.97 8  274 257 
 HEL  HN ES       2135 13.84                             113    0.64 8  274 257 
 HEL  HZ I        2135 19.25        39.6 0.05            113            274 257 
 GUY2CHZ EP   9   2134 46.82                             110    1.63 0  301 236 
 GUY2CHN ES       2135 20.97                                    0.47 7  301 236 
 GUY2CHZ I        2135 27.29        14.4 0.27                           301 236 
 PTGC HZ EP   9   2134 43.83                             110   -0.90 0  303 159 
 PTGC HN ES       2135 17.16                                    0.01 7  303 159 
 CBOC HZ EP       2134 49.24                             108    0.47 7  336 253 
 CBOC HN ES       2135 25.27                             108    0.04 7  336 253 
 CBOC HZ I        2135 28.17         6.6 0.06            109            336 253 
                                                                                
