 2016 1027 2253 35.9 L   6.667 -74.199 12.2  RSN  8 0.3 1.6LRSN                1
 GAP=157        0.85       2.2     1.8  3.6 -0.1690E+01  0.1245E+00 -0.9033E+00E
 Epicentro: PUERTO PARRA - SANTANDER                                           3
 ACTION:UPD 16-11-09 19:23 OP:rebc STATUS:               ID:20161027225335 L   I
 OLDACT:UP  16-10-28 10:14 OP:ar   STATUS:               ID:20161027224746     3
 OLDACT:REG 16-10-28 05:29 OP:ar   STATUS:               ID:20161027224746     3
 2016-10-27-2248-00M.COL___349                                                 6
 STAT SP IPHASW D HRMM SECON CODA AMPLIT PERI AZIMU VELO AIN AR TRES W  DIS CAZ7
 PTB  HZ IP     C 2253 41.43                             106   -0.1010 31.8 244 
 PTB  HN ES       2253 46.00                             106    0.1010 31.8 244 
 PTB  HZ I        2253 46.19        91.4 0.16            111           31.8 244 
 BRR  HZ IP     C 2253 47.62                              97    0.0310 72.6  48 
 BRR  HE ES       2253 56.79                              97    0.1010 72.6  48 
 BRR  HZ I        2253 59.54        19.1 0.24             98           72.6  48 
 SPBC HZ EP       2253 54.08                              94    0.2810  113 173 
 SPBC HN ES       2254  7.62                              94   -0.1110  113 173 
 SPBC HZ I        2254  9.37        12.7 0.18             95            113 173 
 BAR2 EZ EP       2253 53.92                              94    0.0210  113  94 
 BAR2 EZ ES       2254  7.31                              94   -0.6010  113  94 
 BAR2 EZ I        2254  9.61        16.0 0.24             95            113  94 
 RUS  HZ EP       2254  0.20                              93    0.37 9  150 125 
 RUS  HN ES       2254 18.52                              93    0.04 9  150 125 
 RUS  HZ I        2254 19.58         8.6 0.42             56            150 125 
 HEL  HZ EP       2253 59.73                              56   -0.73 9  156 250 
 HEL  HN ES   4   2254 17.79                              56   -1.81 0  156 250 
 HEL  HZ I        2254 18.35         5.9 0.30             56            156 250 
 PAM  EZ EP       2254  4.36                              56    0.58 9  182  66 
 PAM  HN ES       2254 25.41                              56   -0.09 9  182  66 
 PAM  EZ I        2254 27.87         6.9 0.18             56            182  66 
 GUY2CHZ EP   4   2254 10.62                              56    3.91 0  205 219 
 GUY2CHN ES       2254 30.94                              56    0.21 8  205 219 
 GUY2CHZ I        2254 35.72         4.1 0.68                           205 219 
                                                                                
