 2011  627 2116  3.4 L   6.760 -73.098141.5  RSN 10 0.3 2.1LRSN                1
 GAP=163        0.50       2.9     3.8  4.5  0.1558E+01  0.3308E+01  0.2208E+01E
 Epicentro: LOS SANTOS - SANTANDER                                             3
 ACTION:UP  11-07-14 19:08 OP:ep   STATUS:               ID:20110627211603 L   I
 2011-06-27-2112-24S.COL___137                                                 6
 STAT SP IPHASW D HRMM SECON CODA AMPLIT PERI AZIMU VELO SNR AR TRES W  DIS CAZ7
 BAR2 SZ IP       2116 22.43                             171     0.010   21 207 
 BAR2 SZ I        2116 22.79        43.2 0.06                            21 207 
 BAR2 SZ ES   1   2116 37.18                             171    -0.1 7   21 207 
 BTL  SZ EP       2116 22.76                             169     0.210   26 313 
 GIR2 SZ EP   2   2116 22.26                             165    -0.4 5   37 343 
 BRR  HZ IP     C 2116 24.28                             150    -0.210   78 300 
 BRR  HN ES   1   2116 41.11                             150     0.2 7   78 300 
 BRR  HZ I        2116 43.04        33.6 0.10                            78 300 
 RUS  HZ EP   1   2116 26.38                             144     0.0 7   96 179 
 RUS  HN ES   2   2116 44.44                             144     0.1 5   96 179 
 RUS  HZ I        2116 46.18        14.3 0.40                            96 179 
 OCA  SZ EP   2   2116 32.20                             128     0.4 5  165 352 
 OCA  SZ ES   2   2116 53.68                             128    -0.4 5  165 352 
 OCA  SZ I        2116 58.11        13.2 0.22                           165 352 
 YOP  SZ EP   2   2116 32.24                             126    -0.2 4  173 154 
 YOP  SN ES   2   2116 55.41                             126     0.2 4  173 154 
 YOP  SZ I        2116 59.84         7.9 0.42                           173 154 
 NOR  SZ EP   1   2116 38.78                             117    -0.3 6  236 236 
 NOR  SN ES   2   2117  6.68                             117    -0.2 4  236 236 
 HEL  HZ EP   2   2116 44.50                             114     0.7 4  276 257 
 HEL  HE ES   2   2117 15.64                             114     0.3 4  276 257 
 HEL  HZ I        2117 20.82         7.5 0.68                           276 257 
 RREF HZ EP   2   2116 49.63                             110     0.2 3  323 231 
 RREF HN ES   2   2117 24.86                             110    -0.5 3  323 231 
 RREF HZ I        2117 33.64         7.3 0.24                           323 231 
                                                                                
