 2013  827 2300  5.4 L   6.792 -73.109145.0  RSN  7 0.6 1.4LRSN                1
 GAP=142        1.54       6.5     7.3 11.0  0.7366E+01  0.1230E+02 -0.1734E+02E
 Epicentro: LOS SANTOS - SANTANDER                                             3
 ACTION:UPD 14-01-14 09:07 OP:ep   STATUS:               ID:20130827230005 L   I
 OLDACT:REG 13-08-27 22:53 OP:stll STATUS:               ID:20130827225849     3
 2013-08-27-2258-49M.COL___212                                                 6
 STAT SP IPHASW D HRMM SECON CODA AMPLIT PERI AZIMU VELO AIN AR TRES W  DIS CAZ7
 BAR2 SZ EP       23 0 25.36                             170    0.4610 23.6 200 
 BAR2 SZ ES       23 0 39.08                             170   -1.0710 23.6 200 
 BAR2 SZ I        23 0 42.23         5.1 0.16            173           23.6 200 
 BRR  HZ EP       23 0 27.31                             151    0.6510 75.2 298 
 BRR  HN ES       23 0 44.42                             151    1.1510 75.2 298 
 BRR  HZ I        23 0 47.08         7.4 0.26            153           75.2 298 
 PAM  SZ EP   1   23 0 27.87                             151    0.49 7 75.5  37 
 PAM  SN ES       23 0 44.55                             151   -0.0110 75.5  37 
 PAM  SZ I        23 0 47.45         3.1 0.34            152           75.5  37 
 RUS  HZ EP       23 0 28.96                             144    0.0010 99.5 178 
 RUS  HN ES       23 0 47.18                             144   -0.1810 99.5 178 
 RUS  HZ I        23 0 48.93         2.5 0.26            147           99.5 178 
 PTB  HN ES       23 0 53.57                             131   -0.31 9  152 259 
 ZAR  HN ES       23 1  3.62                             121   -0.16 8  208 292 
 SML  HZ EP       23 0 41.56                             117   -0.65 8  246 335 
 SML  HN ES       23 1 10.19                             117   -0.77 8  246 335 
 SML  HZ I        23 1 12.40         5.0 0.10            119            246 335 
                                                                                
