 2012 1227 2357  4.2 L   6.763 -73.161151.8  RSN  5 0.4 1.8LRSN                1
 GAP=233        1.01       8.1     7.6 10.1  0.3948E+02 -0.7663E+01 -0.1018E+02E
 Epicentro: LOS SANTOS - SANTANDER                                             3
 ACTION:UPD 13-01-04 14:30 OP:ep   STATUS:               ID:20121227235704 L   I
 2012-12-27-2350-00M.COL___243                                                 6
 STAT SP IPHASW D HRMM SECON CODA AMPLIT PERI AZIMU VELO AIN AR TRES W  DIS CAZ7
 BAR2 SZ EP       2357 23.63                             173   -0.8310 19.1 187 
 BAR2 SZ I        2357 41.03         9.4 0.26                          19.1 187 
 BRR  HZ EP       2357 26.51                             153    0.5010 71.8 302 
 BRR  HN ES       2357 43.25                             153    0.2110 71.8 302 
 BRR  HN I        2357 44.69        17.3 0.28                          71.8 302 
 RUS  HZ EP       2357 28.56                             146    0.3010 96.7 175 
 RUS  HN ES       2357 47.04                             146    0.0010 96.7 175 
 RUS  HN I        2357 48.82         7.1 0.22                          96.7 175 
 PTB  HZ EP       2357 31.53                             134    0.10 9  145 260 
 PTB  HN ES       2357 52.64                             134   -0.05 9  145 260 
 PTB  HN I        2357 57.73         9.9 0.38                           145 260 
 ZAR  HN ES       2358  2.33                             124   -0.31 9  204 293 
                                                                                
