 2015  527 2303 11.9 L   6.813 -73.126154.5  RSN  9 0.4 2.0LRSN                1
 GAP=138        1.03       3.4     6.4  6.2 -0.9110E+00  0.1098E+02  0.2366E+01E
 Epicentro: LOS SANTOS - SANTANDER                                             3
 ACTION:UPD 15-09-10 22:07 OP:cam  STATUS:               ID:20150527230312 L   I
 OLDACT:UP  15-06-01 11:34 OP:Mher STATUS:               ID:20150527230312 L   3
 OLDACT:UP  15-05-28 04:55 OP:mh   STATUS:               ID:20150527225747     3
 OLDACT:REG 15-05-28 03:03 OP:mh   STATUS:               ID:20150527225747     3
 2015-05-27-2257-47M.COL___275                                                 6
 STAT SP IPHASW D HRMM SECON CODA AMPLIT PERI AZIMU VELO AIN AR TRES W  DIS CAZ7
 BAR2 EZ EP       23 3 32.93                             170    0.2710 25.2 194 
 BAR2 EZ ES       23 3 48.20                             170   -0.6210 25.2 194 
 BAR2 EZ I        23 3 49.03        21.2 0.22            167           25.2 194 
 BRR  HZ EP       23 3 34.76                             154    0.6510 72.5 297 
 BRR  HN ES       23 3 51.90                             154    0.5010 72.5 297 
 BRR  HZ I        23 3 54.64        13.5 0.24            150           72.5 297 
 PAM  SZ EP   1   23 3 34.64                             153   -0.31 7 74.9  39 
 PAM  SN ES   1   23 3 52.81                             153   -0.09 7 74.9  39 
 PAM  SZ I        23 3 54.53        20.9 0.48            157           74.9  39 
 RUS  HZ EP       23 3 37.16                             145    0.5110  102 177 
 RUS  HN ES       23 3 56.07                             145    0.1410  102 177 
 RUS  HZ I        23 3 56.16         9.5 0.20            145            102 177 
 NOR  HZ EP   1   23 3 48.24                             120   -0.23 6  237 234 
 NOR  HN ES       23 4 16.78                             120   -0.18 8  237 234 
 NOR  HZ I        23 4 24.45         8.4 0.20            119            237 234 
 SML  HZ EP       23 3 48.86                             119   -0.17 8  243 335 
 SML  HN ES       23 4 17.28                             119   -0.68 8  243 335 
 SML  HZ I        23 4 20.93        20.1 0.26            119            243 335 
 CHI  HZ EP       23 3 49.96                             119   -0.39 8  251 196 
 CHI  HN ES       23 4 19.62                             119   -0.69 8  251 196 
 CHI  HZ I        23 4 26.27         5.0 0.20            118            251 196 
 GUY2CHZ EP   4   23 3 57.97                             114    1.71 0  304 235 
 GUY2CHN ES   4   23 4 34.09                             114    3.26 0  304 235 
 GUY2CHZ I        23 4 42.94         3.7 0.44                           304 235 
 PRA  HZ EP       23 4  6.35                             108    0.30 6  394 210 
 PRA  HN ES       23 4 48.51                             108    0.26 6  394 210 
 PRA  HZ I        23 4 57.29         3.2 0.44            108            394 210 
                                                                                
