 2014 1227 2235 46.8 L   6.810 -73.166145.0  RSN 13 0.5 1.9LRSN                1
 GAP=134        1.26       3.2     4.6  6.8 -0.1345E+01  0.9533E+01 -0.9240E+00E
 Epicentro: LOS SANTOS - SANTANDER                                             3
 ACTION:UPD 15-02-10 17:07 OP:nd   STATUS:               ID:20141227223546 L   I
 OLDACT:REG 14-12-28 02:44 OP:fm   STATUS:               ID:20141227222741     3
 2014-12-27-2227-41M.COL___265                                                 6
 STAT SP IPHASW D HRMM SECON CODA AMPLIT PERI AZIMU VELO AIN AR TRES W  DIS CAZ7
 BAR2 EZ ES       2236 21.96                             170    0.3510 24.1 184 
 BAR2 EZ I        2236 23.13        11.5 0.12            169           24.1 184 
 BRR  HZ EP       2236  8.36                             153    0.6410 68.7 299 
 BRR  HE ES       2236 24.72                             153    0.6710 68.7 299 
 BRR  HZ I        2236 29.79        22.1 0.14            151           68.7 299 
 PAM  SZ IP     C 2236  9.47                             150    0.5010 78.0  41 
 PAM  SE ES       2236 26.02                             150   -0.2410 78.0  41 
 PAM  SZ I        2236 28.41        11.2 0.46            156           78.0  41 
 RUS  HZ EP       2236 10.19                             143   -0.3810  102 175 
 RUS  HN ES       2236 28.18                             143   -0.9210  102 175 
 RUS  HZ I        2236 31.40         4.7 0.32            145            102 175 
 PTB  HZ EP       2236 13.56                             132    0.04 9  146 258 
 PTB  HE ES       2236 34.26                             132   -0.11 9  146 258 
 PTB  HZ I        2236 40.08         8.7 0.20            132            146 258 
 OCA  HZ EP   1   2236 14.80                             130   -0.12 7  159 354 
 OCA  HN ES       2236 36.65                             130   -0.21 9  159 354 
 OCA  HZ I        2236 40.64        12.9 0.32            132            159 354 
 SPBC HE ES       2236 37.37                             129    0.04 9  163 218 
 SPBC HZ I        2236 45.68        14.6 0.20            130            163 218 
 ZAR  HZ EP       2236 19.33                             122    0.39 9  202 292 
 ZAR  HN ES       2236 44.34                             122    0.34 9  202 292 
 ZAR  HZ I        2236 50.77        14.0 0.38            123            202 292 
 NOR  HZ EP       2236 23.29                             118    0.93 8  234 234 
 NOR  HE ES       2236 49.96                             118   -0.13 8  234 234 
 NOR  HZ I        2236 54.32         7.7 0.42            119            234 234 
 SML  HZ EP       2236 22.93                             117   -0.24 8  242 336 
 SML  HE ES       2236 50.49                             117   -1.05 8  242 336 
 SML  HZ I        2236 57.17        18.2 0.32            119            242 336 
 CHI  HZ EP       2236 25.05                             117    0.54 8  249 195 
 CHI  HE ES       2236 53.51                             117   -0.41 8  249 195 
 CHI  HZ I        2237  1.75         3.3 0.42            119            249 195 
 HEL  HE ES       2236 57.23                             115   -0.70 8  270 255 
 HEL  HZ I        2237  4.95         4.4 0.26            116            270 255 
 MON  HN ES       2237 12.76                             108   -0.70 6  351 308 
 MON  HZ I        2237 18.60         1.4 0.26            110            351 308 
                                                                                
