 2014  127 2228 41.2 L   6.796 -73.136148.7  RSN  9 0.4 2.1LRSN                1
 GAP=138        0.96       3.4     5.5  5.8 -0.1606E+01  0.6172E+01  0.6239E+00E
 Epicentro: LOS SANTOS - SANTANDER                                             3
 ACTION:UPD 14-03-13 09:59 OP:ep   STATUS:               ID:20140127222841 L   I
 OLDACT:UP  14-01-27 23:43 OP:cam  STATUS:               ID:20140127222648     3
 OLDACT:REG 14-01-27 23:39 OP:cam  STATUS:               ID:20140127222648     3
 2014-01-27-2226-48M.COL___249                                                 6
 STAT SP IPHASW D HRMM SECON CODA AMPLIT PERI AZIMU VELO AIN AR TRES W  DIS CAZ7
 BAR2 SZ EP       2229  1.05                             171   -0.1410 23.1 193 
 BAR2 SZ ES       2229 16.54                             171   -0.2410 23.1 193 
 BAR2 SZ I        2229 17.87        39.9 0.48            171           23.1 193 
 BRR  HZ EP       2229  3.03                             153    0.2810 72.4 298 
 BRR  HE ES       2229 20.46                             153    0.9210 72.4 298 
 BRR  HZ I        2229 23.28        18.1 0.44            151           72.4 298 
 PAM  SZ EP       2229  3.98                             152    0.2610 77.0  39 
 PAM  SN ES       2229 21.18                             152   -0.1010 77.0  39 
 PAM  SZ I        2229 23.46        20.1 0.48            154           77.0  39 
 RUS  HZ EP       2229  5.20                             145   -0.0210  100 177 
 RUS  HN ES       2229 23.60                             145   -0.3410  100 177 
 RUS  HZ I        2229 25.04        17.5 0.34            147            100 177 
 PTB  HZ EP   2   2229  8.07                             132   -0.44 5  149 259 
 PTB  HN ES   2   2229 29.20                             132   -0.60 5  149 259 
 PTB  HZ I        2229 32.19         7.7 0.10            133            149 259 
 SPBC HZ EP       2229 10.26                             130    0.29 9  164 219 
 SPBC HN ES       2229 32.26                             130   -0.14 9  164 219 
 SPBC HZ I        2229 35.31        17.1 0.40            131            164 219 
 NOR  HZ EP   2   2229 17.27                             119    0.09 4  235 235 
 SML  HZ EP   1   2229 17.67                             118   -0.43 6  245 335 
 SML  HN ES       2229 46.03                             118   -0.84 8  245 335 
 SML  HZ I        2229 50.55        17.9 0.10            119            245 335 
 CHI  HZ EP       2229 19.31                             118    0.25 8  248 195 
 GUY2CHZ EP   4   2229 27.28                             113    2.25 0  302 235 
                                                                                
