 2016 1127 2239 58.1 L   6.680 -73.138143.2  RSN  5 0.4 1.5LRSN                1
 GAP=173        1.01       8.4     4.9  8.1 -0.9607E+01  0.8128E+01  0.2705E+01E
 Epicentro: VILLANUEVA - SANTANDER                                             3
 ACTION:UPD 17-10-26 21:12 OP:lp   STATUS:               ID:20161127223958 L   I
 OLDACT:REG 16-11-28 06:51 OP:ar   STATUS:               ID:20161127223742     3
 2016-11-27-2238-00M.COL___352                                                 6
 STAT SP IPHASW D HRMM SECON CODA AMPLIT PERI AZIMU VELO AIN AR TRES W  DIS CAZ7
 BAR2 EZ EP       2240 17.51                             175    0.3210 10.9 207 
 BAR2 EZ ES       2240 32.24                             175    0.1210 10.9 207 
 BAR2 EZ I        2240 33.40        12.9 0.20            174           10.9 207 
 BRR  HZ EP       2240 19.68                             149    0.2810 79.1 307 
 BRR  HZ I        2240 36.55         6.7 0.46            145           79.1 307 
 BRR  HE ES       2240 36.61                             149    0.5610 79.1 307 
 PAM  EZ EP       2240 20.69                             147    0.0410 87.6  34 
 PAM  EN ES       2240 37.64                             147   -0.6310 87.6  34 
 PAM  EZ I        2240 39.39         4.7 0.74            142           87.6  34 
 PTB  HZ EP       2240 24.51                             132   -0.20 9  147 264 
 PTB  HN ES       2240 44.88                             132   -0.62 9  147 264 
 PTB  HZ I        2240 48.27         4.0 0.42            126            147 264 
 ZAR  HN ES       2240 56.68                             121    0.03 8  210 295 
 ZAR  HZ I        2240 57.77         2.8 0.14            116            210 295 
                                                                                
