 2017  927 2317 47.7 L   6.810 -73.004147.3  RSN  4 0.4 1.7LRSN                1
 GAP=155        0.74       4.3     6.4  6.9  0.5578E+01  0.1613E+02  0.4947E+01E
 Epicentro: CEPITA - SANTANDER                                                 3
 ACTION:UPD 17-10-05 19:17 OP:rebc STATUS:               ID:20170927231747 L   I
 OLDACT:UP  17-09-28 08:34 OP:leo  STATUS:               ID:20170927230739     3
 OLDACT:REG 17-09-28 06:05 OP:leo  STATUS:               ID:20170927230739     3
 2017-09-27-2308-00M.COL___453                                                 6
 STAT SP IPHASW D HRMM SECON CODA AMPLIT PERI AZIMU VELO AIN AR TRES W  DIS CAZ7
 PAM  EZ EP   3   2318 10.94                             155    1.38 2 67.5  30 
 PAM  EN ES       2318 26.60                             155    0.0110 67.5  30 
 BRR  HZ EP       2318  9.49                             148   -0.3810 84.9 293 
 BRR  HN ES       2318 27.19                             148    0.0510 84.9 293 
 BRR  HZ I        2318 27.86        17.9 0.28            148           84.9 293 
 RUS  HZ EP       2318 11.45                             144   -0.2810  102 185 
 RUS  HE ES       2318 30.69                             144    0.2510  102 185 
 RUS  HZ I        2318 31.59         3.8 0.40            144            102 185 
 ZAR  HZ EP       2318 22.16                             121    0.40 8  218 290 
 ZAR  HN ES   4   2318 46.14                             121   -2.16 0  218 290 
 ZAR  HZ I        2318 48.99         5.8 0.12            121            218 290 
                                                                                
