 2012 1027 2159 18.5 L   6.805 -73.143139.1  RSN  4 0.3 1.6LRSN                1
 GAP=137        0.49       3.9     6.3  7.6 -0.4210E+01  0.1570E+02  0.4779E+01E
 Epicentro: LOS SANTOS - SANTANDER                                             3
 ACTION:UPD 12-11-22 17:06 OP:ep   STATUS:               ID:20121027215918 L   I
 2012-10-27-2158-19M.COL___211                                                 6
 STAT SP IPHASW D HRMM SECON CODA AMPLIT PERI AZIMU VELO AIN AR TRES W  DIS CAZ7
 BAR2 SZ ES   3   2159 51.43                             170   -0.63 2 23.9 191 
 BAR2 SZ I        2159 52.91        15.1 0.30                          23.9 191 
 BRR  HZ IP     C 2159 38.82                             151   -0.1310 71.2 298 
 BRR  HE ES   3   2159 56.03                             151    1.14 2 71.2 298 
 PAM  SZ EP       2159 39.95                             150   -0.0410 76.8  40 
 PAM  SN ES   1   2159 56.78                             150    0.04 7 76.8  40 
 PAM  SN I        2159 58.02        11.4 0.40                          76.8  40 
 RUS  HZ EP       2159 41.85                             142    0.1910  101 176 
 RUS  HN ES   2   2159 59.43                             142   -0.28 5  101 176 
 RUS  HN I        22 0  1.46         4.0 0.14                           101 176 
                                                                                
