 2011  527 2031 49.6 L   6.294 -73.547115.6  RSN  6 0.4 1.4LRSN                1
 GAP=110        0.67       4.7     6.5 10.6 -0.7792E+01  0.3392E+02 -0.7284E+01E
 Epicentro: EL GUACAMAYO - SANTANDER                                           3
 ACTION:UP  11-06-29 08:56 OP:tino STATUS:               ID:20110527203149 L   I
 2011-05-27-2028-47S.COL___114                                                 6
 STAT SP IPHASW D HRMM SECON CODA AMPLIT PERI AZIMU VELO SNR AR TRES W  DIS CAZ7
 BAR2 SZ EP       2032  6.81                             154     0.110   52  51 
 BAR2 SZ ES   2   2032 19.86                             154    -0.3 5   52  51 
 RUS  HZ EP       2032  7.90                             148    -0.110   68 131 
 RUS  HN ES   2   2032 22.33                             148    -0.1 5   68 131 
 RUS  HZ I        2032 23.94         4.9 0.19                            68 131 
 BTL  SZ EP       2032  8.51                             144     0.310   76  24 
 BTL  SZ ES   2   2032 23.14                             144     0.4 5   76  24 
 BRR  HZ EP       2032  9.05                             138     0.010   92 349 
 BRR  HZ I        2032 20.61         9.0 0.29                            92 349 
 NOR  SZ EP   2   2032 16.63                             120     0.3 5  167 241 
 NOR  SN ES   2   2032 36.70                             120    -0.5 5  167 241 
 GRA  SZ ES   2   2032 41.44                             116    -1.1 4  194  25 
                                                                                
