 2011  627 2217 30.0 L   6.768 -73.026149.8  RSN  5 0.2 1.5LRSN                1
 GAP=212        0.52       6.7    11.0  5.4  0.4834E+02 -0.1569E+02 -0.5166E+01E
 Epicentro: CEPITA - SANTANDER                                                 3
 ACTION:UP  11-07-14 19:08 OP:ep   STATUS:               ID:20110627221730 L   I
 2011-06-27-2214-29S.COL___140                                                 6
 STAT SP IPHASW D HRMM SECON CODA AMPLIT PERI AZIMU VELO SNR AR TRES W  DIS CAZ7
 BAR2 SZ EP   1   2217 50.28                             170     0.1 7   26 222 
 BAR2 SZ ES   1   2218  5.94                             170     0.0 7   26 222 
 BAR2 SZ I        2218  7.18         6.7 0.25                            26 222 
 BTL  SZ EP   1   2217 50.52                             168     0.2 7   31 302 
 BTL  SZ ES   2   2218  6.19                             168     0.1 5   31 302 
 GIR2 SZ EP   1   2217 50.49                             165     0.1 7   39 332 
 GIR2 SZ ES   2   2218  5.85                             165    -0.4 5   39 332 
 BRR  HZ IP     D 2217 52.44                             149     0.110   85 296 
 BRR  HZ I        2218  9.27         8.7 0.62                            85 296 
 BRR  HE ES   1   2218  9.66                             149    -0.2 7   85 296 
 RUS  HZ EP   1   2217 53.45                             146    -0.4 7   97 184 
 RUS  HN ES   2   2218 12.84                             146     0.3 5   97 184 
 RUS  HZ I        2218 14.35         3.6 0.32                            97 184 
                                                                                
