 2015 1127 2345 40.9 L   6.774 -73.162145.7  RSN 11 0.5 1.7LRSN                1
 GAP=136        0.86       3.6     3.8  6.3 -0.3663E+00  0.5413E+01  0.1070E+01E
 Epicentro: LOS SANTOS - SANTANDER                                             3
 ACTION:UPD 15-12-28 16:13 OP:cam  STATUS:               ID:20151127234540 L   I
 OLDACT:REG 15-11-28 03:19 OP:dnl  STATUS:               ID:20151127233750     3
 2015-11-27-2337-50M.COL___310                                                 6
 STAT SP IPHASW D HRMM SECON CODA AMPLIT PERI AZIMU VELO AIN AR TRES W  DIS CAZ7
 BAR2 EZ EP       2346  0.58                             172    0.1310 20.2 186 
 BAR2 EZ ES   2   2346 15.91                             172    0.20 5 20.2 186 
 BAR2 EZ I        2346 18.08         9.9 0.34            168           20.2 186 
 BRR  HZ EP       2346  2.46                             152    0.4410 71.0 301 
 BRR  HE ES   1   2346 19.35                             152    0.85 7 71.0 301 
 PAM  EZ EP       2346  3.36                             150    0.0610 80.8  39 
 PAM  EN ES       2346 20.72                             150   -0.0610 80.8  39 
 PAM  EZ I        2346 23.56         7.0 0.41            155           80.8  39 
 RUS  HZ EP       2346  4.29                             144   -0.1510 97.8 175 
 RUS  HN ES       2346 22.42                             144   -0.3910 97.8 175 
 RUS  HZ I        2346 24.41         5.6 0.23            145           97.8 175 
 PTB  HZ EP       2346  7.30                             132   -0.34 9  145 260 
 PTB  HN ES       2346 28.05                             132   -0.45 9  145 260 
 PTB  HZ I        2346 30.81         4.6 0.16            131            145 260 
 SPBC HZ EP   2   2346  9.15                             130    0.09 5  160 219 
 SPBC HE ES   2   2346 31.15                             130    0.11 5  160 219 
 SPBC HZ I        2346 38.38         7.9 0.17            129            160 219 
 ZAR  HN ES       2346 38.42                             122   -0.11 9  203 293 
 ZAR  HZ I        2346 45.55         4.0 0.22            123            203 293 
 NOR  HE ES   2   2346 44.80                             119    0.93 4  232 235 
 NOR  HZ I        2346 51.16         3.8 0.20            119            232 235 
 SML  HZ EP   1   2346 17.51                             117   -0.20 6  246 336 
 SML  HE ES   2   2346 45.12                             117   -1.32 4  246 336 
 SML  HZ I        2346 47.99         6.5 0.09            119            246 336 
 GUY2CHZ EP   4   2346 26.48                             112    2.34 0  298 235 
 GUY2CHN ES   4   2347  0.99                             112    3.12 0  298 235 
 GUY2CHZ I        2347  6.70         3.0 0.41                           298 235 
 PRA  HZ EP       2346 34.83                             107    0.82 6  389 210 
 PRA  HE ES   2   2347 15.67                             107    0.23 3  389 210 
 PRA  HZ I        2347 23.02         3.1 0.30            107            389 210 
                                                                                
