 2016  327 2112 15.6 L   6.776 -73.134146.7  RSN  5 0.3 1.4LRSN                1
 GAP=139        0.69       2.9     3.3  6.4  0.2703E+00  0.7095E+01  0.2330E+01E
 Epicentro: LOS SANTOS - SANTANDER                                             3
 ACTION:UPD 16-05-13 21:28 OP:cam  STATUS:               ID:20160327211215 L   I
 OLDACT:UP  16-03-28 06:15 OP:mh   STATUS:               ID:20160327210745     3
 OLDACT:REG 16-03-28 04:37 OP:mh   STATUS:               ID:20160327210745     3
 2016-03-27-2107-45M.COL___304                                                 6
 STAT SP IPHASW D HRMM SECON CODA AMPLIT PERI AZIMU VELO AIN AR TRES W  DIS CAZ7
 PAM  EZ EP       2112 38.37                             150    0.4210 78.7  38 
 PAM  EN ES       2112 55.28                             150   -0.1310 78.7  38 
 PAM  EZ I        2112 57.42         2.0 0.41            154           78.7  38 
 RUS  HZ EP       2112 39.16                             145   -0.0410 97.8 177 
 RUS  HN ES       2112 57.43                             145   -0.2210 97.8 177 
 RUS  HZ I        2112 59.58         3.5 0.27            145           97.8 177 
 PTB  HZ EP       2112 42.34                             132   -0.33 9  149 260 
 PTB  HN ES       2113  3.81                             132   -0.00 9  149 260 
 PTB  HZ I        2113  5.11         3.7 0.38            132            149 260 
 ZAR  HZ EP   1   2112 47.88                             122   -0.41 6  206 293 
 ZAR  HE ES       2113 14.09                             122    0.27 8  206 293 
 ZAR  HZ I        2113 19.01         5.3 0.39            123            206 293 
 CHI  HZ EP   1   2112 52.86                             117   -0.20 6  246 196 
 CHI  HN ES       2113 22.78                             117    0.46 8  246 196 
 CHI  HZ I        2113 30.39         1.8 0.19            118            246 196 
                                                                                
