 2012  527 2316 16.9 L   6.795 -73.172143.3  RSN  7 0.4 2.0LRSN                1
 GAP=134        0.90       5.0     7.2  8.1 -0.1212E+02  0.2390E+02  0.9625E+00E
 Epicentro: LOS SANTOS - SANTANDER                                             3
 ACTION:UP  12-07-05 12:08 OP:pat  STATUS:               ID:20120527231616 L   I
 2012-05-27-2310-00M.COL___198                                                 6
 STAT SP IPHASW D HRMM SECON CODA AMPLIT PERI AZIMU VELO SNR AR TRES W  DIS CAZ7
 BAR2 SZ EP       2316 36.24                             171     0.110   22 183 
 BAR2 SZ ES   1   2316 51.51                             171     0.3 7   22 183 
 PAM  SZ EP       2316 39.13                             150     0.210   80  41 
 PAM  SN ES   1   2316 56.33                             150     0.1 7   80  41 
 RUS  HZ EP       2316 40.00                             144    -0.310  100 174 
 PTB  HZ EP       2316 43.03                             132    -0.3 9  145 259 
 PTB  HN ES   2   2317  3.65                             132    -0.4 5  145 259 
 OCA  HZ EP       2316 44.59                             129    -0.4 9  161 354 
 CHI  HZ EP       2316 54.48                             117     0.2 8  247 195 
 CHI  HN ES   1   2317 23.14                             117    -0.3 6  247 195 
 CHI  HZ I        2317 33.02         7.2 0.32                           247 195 
 HEL  HZ EP       2316 57.62                             115     1.0 8  269 256 
                                                                                
