 2010  327 2228 12.7 L   6.841 -72.965147.2  RSN  6 0.3 1.9LRSN                1
 GAP=257        0.59       5.1     9.6  5.7  0.1519E+02  0.1257E+02  0.1142E+02E
 Epicentro: CEPITA - SANTANDER                                                 3
 ACTION:UP  10-08-24 09:56 OP:vdl  STATUS:               ID:20100327222812 L   I
 2010-03-27-2224-21S.COL___098                                                 6
 STAT SP IPHASW D HRMM SECON CODA AMPLIT PERI AZIMU VELO SNR AR TRES W  DIS CAZ7
 BAR2 SZ ES   1   2228 48.79                             166     0.3 7   37 221 
 BRR  HZ IP       2228 35.10                             148     0.110   88 290 
 BRR  HE ES   1   2228 52.11                             148    -0.3 7   88 290 
 BRR  HZ I        2228 53.12        14.3 0.13                            88 290 
 RUS  HZ EP   2   2228 36.85                             143    -0.1 5  106 187 
 RUS  HN ES   2   2228 55.32                             143    -0.5 5  106 187 
 RUS  HZ I        2228 56.58         9.5 0.23                           106 187 
 CHI  HZ EP   2   2228 51.35                             116    -0.2 4  259 199 
 CHI  HZ I        2228 53.79         2.7 0.30                           259 199 
 CHI  HN ES   2   2229 22.68                             116     0.8 4  259 199 
 RREF BZ EP   1   2229  1.24                             110     0.3 5  340 231 
 RREF BE ES   2   2229 38.55                             110    -0.1 3  340 231 
 RREF BZ I        2229 47.05         3.3 0.19                           340 231 
 PRA  HZ IP       2229  7.53                             106    -0.4 6  406 212 
 PRA  HN ES   2   2229 50.80                             106    -0.2 3  406 212 
 PRA  HZ I        2229 53.56         4.0 0.50                           406 212 
                                                                                
