 2016 1127 2036 40.1 L   6.849 -73.322116.0  RSN 10 0.5 2.2LRSN                1
 GAP=108        1.15       4.4     3.0  6.5 -0.9832E+00  0.3454E+01  0.1088E+02E
 Epicentro: ZAPATOCA - SANTANDER                                               3
 ACTION:UPD 17-10-26 21:12 OP:lp   STATUS:               ID:20161127203640 L   I
 OLDACT:UP  16-11-28 09:20 OP:ar   STATUS:               ID:20161127202744     3
 OLDACT:UP  16-11-28 09:14 OP:ar   STATUS:               ID:20161127202744     3
 OLDACT:REG 16-11-28 06:37 OP:ar   STATUS:               ID:20161127202744     3
 2016-11-27-2028-00M.COL___352                                                 6
 STAT SP IPHASW D HRMM SECON CODA AMPLIT PERI AZIMU VELO AIN AR TRES W  DIS CAZ7
 BAR2 EZ IP     C 2036 56.31                             163   -0.1210 32.3 151 
 BAR2 EZ ES       2037  9.31                             163    0.1410 32.3 151 
 BRR  HZ IP     C 2036 56.65                             154   -0.2810 51.7 304 
 BRR  HN ES       2037 10.53                             154    0.4710 51.7 304 
 BRR  HZ I        2037 11.88        45.6 0.20            157           51.7 304 
 PAM  EZ EP       2036 59.74                             141   -0.2610 87.6  52 
 PAM  EN ES       2037 15.76                             141    0.2310 87.6  52 
 PAM  EZ I        2037 18.04        50.0 0.22            145           87.6  52 
 PTB  HZ IP   4 C 2037  1.54                             128   -1.53 0  130 255 
 PTB  HN ES       2037 19.88                             128   -1.1010  130 255 
 PTB  HZ I        2037 23.31        46.6 0.40            129            130 255 
 TAM  HZ EP       2037  7.22                             119   -0.49 9  175 105 
 TAM  HN ES       2037 29.16                             119   -0.10 9  175 105 
 TAM  HZ I        2037 31.14        11.5 0.16            121            175 105 
 ZAR  HZ EP       2037  8.46                             118   -0.14 9  184 293 
 ZAR  HN ES       2037 31.39                             118    0.56 9  184 293 
 ZAR  HZ I        2037 33.12        32.6 0.20            120            184 293 
 NOR  HZ EP       2037 12.94                             113    0.03 8  223 230 
 NOR  HE ES       2037 38.08                             113   -0.43 8  223 230 
 NOR  HZ I        2037 45.63        14.6 0.74            113            223 230 
 CHI  HZ EP       2037 17.07                             110    0.63 8  250 191 
 CHI  HN ES       2037 45.62                             110    0.84 8  250 191 
 CHI  HZ I        2037 52.21         5.0 0.26            111            250 191 
 CBOC HZ EP       2037 24.72                             105    0.74 7  317 250 
 CBOC HE ES       2037 58.48                             105    0.27 7  317 250 
 CBOC HZ I        2038  0.90         6.3 0.32            106            317 250 
 PRA  HZ EP   4   2037 30.22                             101   -2.00 0  388 207 
 PRA  HN ES       2038 12.44                             101   -0.44 6  388 207 
 PRA  HZ I        2038 18.72         4.4 0.30            102            388 207 
                                                                                
