 2015  427 2214  7.5 L   6.776 -73.157145.0  RSN  5 0.2 1.6LRSN                1
 GAP=180        0.57       4.3     4.1  8.1 -0.9678E+01  0.6578E+01 -0.4743E+01E
 Epicentro: LOS SANTOS - SANTANDER                                             3
 ACTION:UPD 15-06-03 16:58 OP:cam  STATUS:               ID:20150427221407 L   I
 OLDACT:DUP 15-04-28 08:44 OP:spq  STATUS:               ID:20150427220751d    3
 2015-04-27-2207-50M.COL___281                                                 6
 STAT SP IPHASW D HRMM SECON CODA AMPLIT PERI AZIMU VELO AIN AR TRES W  DIS CAZ7
 BRR  HZ EP       2214 28.87                             152    0.2510 71.4 301 
 PAM  SZ EP       2214 29.90                             150    0.0610 80.3  39 
 PAM  SN ES   1   2214 47.03                             150   -0.21 7 80.3  39 
 PAM  SZ I        2214 49.55         4.6 0.64            152           80.3  39 
 PTB  HZ EP       2214 33.92                             132   -0.36 9  146 260 
 PTB  HN ES       2214 55.06                             132   -0.09 9  146 260 
 PTB  HZ I        2214 57.08         2.6 0.25            134            146 260 
 SPBC HE ES   1   2214 57.96                             129    0.29 7  160 219 
 SPBC HZ I        2215  0.71         8.0 0.36            133            160 219 
 SML  HN ES   1   2215 13.21                             117    0.18 6  246 336 
 SML  HZ I        2215 18.30         4.9 0.10            119            246 336 
                                                                                
