 2011  527 2251 15.4 L   6.747 -73.038138.0  RSN  5 0.3 1.5LRSN                1
 GAP=153        0.50       5.1     6.9  9.3  0.1374E+00 -0.3696E+02 -0.1561E+02E
 Epicentro: ARATOCA - SANTANDER                                                3
 ACTION:UP  11-06-29 08:56 OP:tino STATUS:               ID:20110527225115 L   I
 2011-05-27-2250-39S.COL___113                                                 6
 STAT SP IPHASW D HRMM SECON CODA AMPLIT PERI AZIMU VELO SNR AR TRES W  DIS CAZ7
 PAM  SZ EP   3   2251 36.94                             150     0.3 2   75  30 
 BRR  HZ EP       2251 36.27                             148    -0.310   84 298 
 BRR  HZ I        2251 36.61        10.0 0.09                            84 298 
 BRR  HN ES   1   2251 53.33                             148     0.3 7   84 298 
 RUS  HZ EP   3   2251 38.75                             145     0.8 2   95 183 
 RUS  HN ES   2   2251 55.52                             145     0.0 5   95 183 
 RUS  HZ I        2251 57.70         2.5 0.51                            95 183 
 BRI  SZ EP       2251 38.84                             140     0.110  110  14 
 BRI  SZ ES   3   2251 56.58                             140    -0.3 2  110  14 
 GRA  SZ EP       2251 40.13                             135     0.010  128  12 
 GRA  SZ I        2251 41.59         5.5 0.10                           128  12 
 GRA  SZ ES   3   2251 59.28                             135    -0.2 2  128  12 
                                                                                
