 2014  427 2047 37.9 L   7.140 -73.509 38.5  RSN  6 0.3 1.4LRSN                1
 GAP= 85        0.71       1.8     2.2  4.2 -0.3683E+00 -0.2678E+01 -0.1005E+01E
 Epicentro: SAN VICENTE DE CHUCURI - SANTANDER                                 3
 ACTION:UPD 14-05-13 23:11 OP:nd   STATUS:               ID:20140427204737 L   I
 OLDACT:DUP 14-04-28 06:07 OP:stll STATUS:               ID:20140427203817d    3
 2014-04-27-2038-16M.COL___251                                                 6
 STAT SP IPHASW D HRMM SECON CODA AMPLIT PERI AZIMU VELO AIN AR TRES W  DIS CAZ7
 BRR  HZ IP     C 2047 44.72                             143    0.0110 22.7 261 
 BRR  HN ES       2047 50.09                             143    0.0910 22.7 261 
 BRR  HZ I        2047 51.03        32.4 0.16            138           22.7 261 
 PAM  SZ EP       2047 52.89                              99   -0.1710 92.1  76 
 PAM  SE ES   1   2048  4.55                              99   -0.32 7 92.1  76 
 PAM  SZ I        2048  5.05         4.9 0.12             95           92.1  76 
 OCA  HN ES       2048 11.13                              95    0.0910  123  10 
 OCA  HZ I        2048 15.14        12.0 0.30             93            123  10 
 PTB  HZ EP       2047 56.09                              95   -0.3710  124 238 
 PTB  HE ES       2048 10.79                              95   -0.1210  124 238 
 RUS  HZ EP       2048  0.41                              94    0.66 9  146 161 
 RUS  HZ I        2048  0.91         3.4 0.12             92            146 161 
 RUS  HN ES       2048 16.68                              94   -0.09 9  146 161 
 SML  HZ EP   1   2048  5.52                              81    0.44 6  194 341 
 SML  HN ES       2048 26.20                              81   -0.06 9  194 341 
 SML  HZ I        2048 31.14         7.1 0.28             91            194 341 
                                                                                
