 2017  727 2248 35.3 L   6.741 -73.721 93.9  RSN  5 0.3 1.3LRSN                1
 GAP=112        0.85       4.6     3.4  7.5  0.8373E+01  0.6919E+01  0.1158E+02E
 Epicentro: EL CARMEN - SANTANDER                                              3
 ACTION:UPD 17-08-30 15:37 OP:rebc STATUS:               ID:20170727224835 L   I
 OLDACT:REG 17-07-28 02:55 OP:lv   STATUS:               ID:20170727224739     3
 2017-07-27-2248-00M.COL___389                                                 6
 STAT SP IPHASW D HRMM SECON CODA AMPLIT PERI AZIMU VELO AIN AR TRES W  DIS CAZ7
 BRR  HZ EP       2248 49.06                             155   -0.0510 40.5   1 
 BRR  HN ES       2249  0.21                             155    0.3410 40.5   1 
 BAR2 EZ EP       2248 50.48                             144   -0.3010 61.8 105 
 BAR2 EZ ES       2249  2.40                             144   -0.4610 61.8 105 
 BAR2 EZ I        2249  4.08         7.0 0.17            145           61.8 105 
 PTB  HZ EP       2248 52.06                             135   -0.2210 84.3 255 
 PTB  HN ES       2249  5.32                             135   -0.1910 84.3 255 
 PTB  HZ I        2249  6.48         7.2 0.05            136           84.3 255 
 RUS  HZ EP       2248 56.18                             125    0.1210  117 143 
 RUS  HN ES       2249 12.82                             125    0.5710  117 143 
 RUS  HZ I        2249 14.95         3.5 0.22            126            117 143 
 ZAR  HE ES       2249 17.62                             118    0.26 9  151 304 
                                                                                
