 2017 1027 2125 50.7 L   6.778 -73.154147.7  RSN  5 0.4 1.5LRSN                1
 GAP=137        1.01       5.4     5.3  8.3 -0.3705E+01  0.4858E+01  0.1043E+02E
 Epicentro: LOS SANTOS - SANTANDER                                             3
 ACTION:UPD 17-11-07 19:37 OP:rebc STATUS:               ID:20171027212550 L   I
 OLDACT:REG 17-10-28 03:20 OP:leo  STATUS:               ID:20171027211737     3
 2017-10-27-2118-00M.COL___450                                                 6
 STAT SP IPHASW D HRMM SECON CODA AMPLIT PERI AZIMU VELO AIN AR TRES W  DIS CAZ7
 BRR  HZ EP       2126 12.19                             153    0.1510 71.6 301 
 BRR  HN ES       2126 29.37                             153    0.6610 71.6 301 
 BRR  HZ I        2126 32.10        15.5 0.34            154           71.6 301 
 PAM  EZ EP       2126 13.19                             150   -0.0310 79.8  39 
 PAM  EE ES       2126 30.50                             150   -0.3210 79.8  39 
 PAM  EZ I        2126 32.40         3.5 0.48            152           79.8  39 
 RUS  HZ EP       2126 14.45                             145    0.0210 98.2 175 
 RUS  HN ES       2126 32.92                             145   -0.0610 98.2 175 
 RUS  HZ I        2126 34.12         4.3 0.34            147           98.2 175 
 PTB  HZ EP       2126 17.26                             133   -0.41 9  146 260 
 PTB  HN ES       2126 38.13                             133   -0.60 9  146 260 
 PTB  HZ I        2126 39.03         2.7 0.17            135            146 260 
 SPBC HZ EP       2126 19.63                             130    0.55 9  161 219 
                                                                                
