 2016 1227 2251 38.1 L   6.799 -73.158138.0  RSN 11 0.4 2.0LRSN                1
 GAP=135        0.92       3.3     3.6  5.3 -0.3308E+00  0.6328E+01  0.4190E+01E
 Epicentro: LOS SANTOS - SANTANDER                                             3
 ACTION:UPD 17-01-11 20:19 OP:rebc STATUS:               ID:20161227225138 L   I
 OLDACT:REG 16-12-28 03:38 OP:cara STATUS:               ID:20161227224746     3
 2016-12-27-2248-00M.COL___369                                                 6
 STAT SP IPHASW D HRMM SECON CODA AMPLIT PERI AZIMU VELO AIN AR TRES W  DIS CAZ7
 BAR2 EZ EP       2251 56.87                             170    0.0610 23.0 187 
 BAR2 EZ ES       2252 11.45                             170    0.0710 23.0 187 
 BAR2 EZ I        2252 13.36        35.9 0.48            168           23.0 187 
 BRR  HZ EP       2251 58.87                             151    0.5010 70.1 299 
 BRR  HE ES       2252 14.69                             151    0.5310 70.1 299 
 BRR  HZ I        2252 19.20        20.7 0.10            151           70.1 299 
 PAM  EZ EP       2251 59.61                             149    0.0410 78.3  40 
 PAM  EN ES       2252 16.22                             149   -0.0910 78.3  40 
 PAM  EZ I        2252 21.92         7.4 0.42            155           78.3  40 
 RUS  HZ EP       2252  0.94                             142   -0.1710  101 175 
 RUS  HN ES       2252 18.74                             142   -0.3110  101 175 
 RUS  HZ I        2252 20.46        10.2 0.24            144            101 175 
 PTB  HZ EP       2252  3.55                             130   -0.79 9  146 259 
 PTB  HN ES       2252 24.19                             130   -0.60 9  146 259 
 PTB  HZ I        2252 29.86        10.1 0.16            131            146 259 
 ZAR  HZ EP       2252 10.10                             121    0.16 9  203 292 
 ZAR  HN ES       2252 34.27                             121   -0.49 9  203 292 
 ZAR  HZ I        2252 40.35        14.7 0.50            122            203 292 
 NOR  HZ EP       2252 13.66                             117    0.38 8  234 234 
 NOR  HN ES       2252 41.18                             117    0.47 8  234 234 
 NOR  HZ I        2252 46.15        10.7 0.48            118            234 234 
 CHI  HZ EP       2252 15.25                             115   -0.10 8  248 195 
 CHI  HN ES       2252 44.56                             115    0.18 8  248 195 
 CHI  HZ I        2252 51.59         6.0 0.48            117            248 195 
 GUY2CHZ EP       2252 21.38                             111    0.14 7  300 235 
 GUY2CHN ES       2252 55.15                             111    0.27 7  300 235 
 GUY2CHZ I        2253  3.39         6.0 0.40                           300 235 
 ELA  HE ES   4   2253  0.98                             109    0.26 0  328 229 
 ELA  HZ I        2253 14.39        11.5 0.70            110            328 229 
 SJC  HZ EP   4   2252 30.99                             104   -2.37 0  409 327 
 SJC  HN ES   4   2253 12.04                             104   -4.41 0  409 327 
 SJC  HZ I        2253 16.40         3.5 0.60            106            409 327 
                                                                                
