 2011 1128 0216 58.0 L   6.883 -73.126148.2  RSN  6 0.3 1.7LRSN                1
 GAP=135        0.80       4.3     7.7  6.2 -0.1947E+01  0.2124E+01  0.9396E+00E
 Epicentro: LOS SANTOS - SANTANDER                                             3
 ACTION:UPD 12-07-13 16:12 OP:ep   STATUS:               ID:20111128021658 L   I
 2011-11-28-0215-00S.COL___160                                                 6
 STAT SP IPHASW D HRMM SECON CODA AMPLIT PERI AZIMU VELO AIN AR TRES W  DIS CAZ7
 BAR2 SZ EP        217 18.18                             167   -0.0110 32.7 191 
 BAR2 SZ ES   1    217 33.30                             167   -0.60 7 32.7 191 
 BAR2 SZ I         217 35.03        10.4 0.46                          32.7 191 
 PAM  SZ EP        217 20.46                             154    0.4110 69.1  43 
 PAM  SN ES   1    217 37.33                             154    0.11 7 69.1  43 
 BRR  HZ EP        217 19.40                             154    0.0410 69.4 291 
 BRR  HN ES   1    217 36.47                             154    0.49 7 69.4 291 
 BRR  HZ I         217 38.93        15.4 0.14                          69.4 291 
 RUS  HZ EP        217 22.81                             142    0.1110  110 178 
 RUS  HZ I         217 23.85         3.8 0.22                           110 178 
 RUS  HN ES   1    217 41.79                             142   -0.13 7  110 178 
 OCA  SZ EP        217 25.13                             132   -0.61 9  151 352 
 OCA  SZ I         217 50.63         8.6 0.23                           151 352 
 CHI  HZ EP        217 36.98                             117    0.08 8  258 195 
 CHI  HZ I         218 13.61         4.0 0.28                           258 195 
                                                                                
