 2013  228 0936 49.5 L   6.758 -73.170138.2  RSN  8 0.4 1.3LRSN                1
 GAP=135        0.75       3.9     4.6  7.2  0.1409E+01  0.1081E+02 -0.1293E+01E
 Epicentro: LOS SANTOS - SANTANDER                                             3
 ACTION:UPD 13-03-12 09:36 OP:ep   STATUS:               ID:20130228093649 L   I
 2013-02-28-0930-00M.COL___228                                                 6
 STAT SP IPHASW D HRMM SECON CODA AMPLIT PERI AZIMU VELO AIN AR TRES W  DIS CAZ7
 BAR2 SZ ES   1    937 23.22                             172    0.61 7 18.4 184 
 BRR  HZ EP   1    937 10.40                             151    0.60 7 71.3 303 
 BRR  HN ES   4    937 27.70                             151    2.04 0 71.3 303 
 BRR  HZ I         937 31.53         7.2 0.36            154           71.3 303 
 PAM  SZ EP   1    937 11.41                             148    0.20 7 82.6  39 
 PAM  SN ES   1    937 27.81                             148   -0.36 7 82.6  39 
 PAM  SZ I         937 30.63         5.2 0.62            154           82.6  39 
 RUS  HZ EP   1    937 12.15                             143    0.00 7 96.2 174 
 RUS  HN ES   1    937 29.22                             143   -0.62 7 96.2 174 
 RUS  HZ I         937 34.24         1.7 0.32            148           96.2 174 
 PTB  HZ EP   1    937 15.41                             131   -0.09 7  144 260 
 PTB  HN ES   1    937 35.69                             131   -0.12 7  144 260 
 ZAR  HE ES   1    937 46.17                             121   -0.06 6  203 294 
 CHI  HZ EP   1    937 26.26                             116    0.08 6  243 195 
 SML  HN ES   1    937 54.10                             115   -0.43 6  247 336 
                                                                                
