 2010  728 0905 19.4 L   6.414 -73.544109.8  RSN 11 0.3 2.1LRSN                1
 GAP= 83        0.75       3.9     6.0  7.3 -0.7681E+01  0.1603E+02 -0.4079E+01E
 Epicentro: SANTA HELENA DEL OPON - SANTANDER                                  3
 ACTION:UPD 10-12-01 15:20 OP:pat  STATUS:               ID:20100728090519 L   I
 2010-07-28-0902-46S.COL___123                                                 6
 STAT SP IPHASW D HRMM SECON CODA AMPLIT PERI AZIMU VELO AIN AR TRES W  DIS CAZ7
 BAR2 SZ IP        9 5 35.80                             156     0.310   44  64 
 BAR2 SZ ES   1    9 5 48.32                             156     0.2 7   44  64 
 BAR2 SZ I         9 5 49.74       139.6 0.19                            44  64 
 RUS  HZ IP     D  9 5 37.65                             143    -0.310   77 138 
 RUS  HZ I         9 5 53.63        16.7 0.35                            77 138 
 BRR  HZ IP        9 5 36.99                             142    -0.410   79 346 
 BRR  HZ I         9 5 37.33        48.7 0.15                            79 346 
 BRR  HE ES   2    9 5 51.41                             142     0.0 5   79 346 
 GIR2 SZ EP   1    9 5 38.14                             140     0.2 7   83  28 
 GUE  SZ IP        9 5 46.50                             118    -0.1 9  171  24 
 GRA  SZ IP        9 5 47.91                             116     0.4 9  182  27 
 GRA  SZ I         9 6 14.63        17.3 0.60                           182  27 
 CHI  HN ES   2    9 6 13.18                             114    -0.1 4  198 186 
 CHI  HZ I         9 6 21.24         5.9 0.29                           198 186 
 OCA  SZ EP   1    9 5 49.81                             113    -0.1 6  203   7 
 OCA  SZ I         9 6 20.99        24.4 0.24                           203   7 
 HEL  HZ EP   1    9 5 51.85                             112    -0.3 6  221 264 
 HEL  HZ I         9 6 19.74         5.2 0.26                           221 264 
 RREF HN ES   2    9 6 27.11                             108     0.7 4  261 230 
 RREF HZ I         9 6 32.41         4.5 0.18                           261 230 
 PRA  HE ES   2    9 6 40.39                             102     0.0 3  334 207 
 PRA  HZ I         9 6 44.26         8.3 0.29                           334 207 
                                                                                
