 2013  628 0055  3.3 L   6.232 -73.809  2.6  RSN  4 0.1 1.4LRSN                1
 GAP=180        0.29       1.2     0.8  2.2  0.3508E+00 -0.4836E+00 -0.8154E+00E
 Epicentro: LANDAZURI - SANTANDER                                              3
 ACTION:UPD 14-01-08 09:57 OP:ep   STATUS:               ID:20130628005503 L   I
 OLDACT:REG 13-06-28 07:47 OP:jn   STATUS:               ID:20130628004959     3
 2013-06-28-0049-59M.COL___267                                                 6
 STAT SP IPHASW D HRMM SECON CODA AMPLIT PERI AZIMU VELO AIN AR TRES W  DIS CAZ7
 PTB  HZ EP     D  055 16.11                              47   -0.0110 79.2 295 
 PTB  HN ES   1    055 26.13                              47    0.01 7 79.2 295 
 PTB  HZ I         055 26.78        18.4 0.16             47           79.2 295 
 BAR2 SZ EP        055 16.51                              47    0.0510 80.0  60 
 BAR2 SZ ES        055 26.69                              47   -0.0410 80.0  60 
 BAR2 SZ I         055 27.98        12.7 0.24             47           80.0  60 
 RUS  HZ EP        055 18.10                              47    0.0510 88.7 115 
 RUS  HN ES   1    055 29.51                              47   -0.04 7 88.7 115 
 RUS  HZ I         055 30.54        10.0 0.18             47           88.7 115 
 BRR  HZ EP        055 18.76                              47   -0.0910 97.4   6 
 BRR  HE ES   1    055 31.07                              47    0.09 7 97.4   6 
 BRR  HZ I         055 31.73         6.1 0.14             47           97.4   6 
                                                                                
