 2016 1128 0242 39.9 L   6.771 -73.216158.8  RSN  4 0.2 1.4LRSN                1
 GAP=127        0.43       9.3     5.1  7.0 -0.1283E+02 -0.1349E+02  0.4210E+02E
 Epicentro: ZAPATOCA - SANTANDER                                               3
 ACTION:UPD 17-10-26 21:12 OP:lp   STATUS:               ID:20161128024239 L   I
 OLDACT:UP  16-11-28 13:34 OP:dani STATUS:               ID:20161128023743d    3
 OLDACT:UP  16-11-28 13:34 OP:dani STATUS:               ID:20161128023743d    3
 OLDACT:UP  16-11-28 13:32 OP:dani STATUS:               ID:20161128023743d    3
 OLDACT:UP  16-11-28 13:32 OP:dani STATUS:               ID:20161128023743d    3
 OLDACT:UP  16-11-28 13:31 OP:dani STATUS:               ID:20161128023743d    3
 OLDACT:UP  16-11-28 13:31 OP:dani STATUS:               ID:20161128023743d    3
 OLDACT:DUP 16-11-28 13:29 OP:dani STATUS:               ID:20161128023743d    3
 OLDACT:REG 16-11-28 12:27 OP:dani STATUS:               ID:20161128023742     3
 2016-11-28-0238-00M.COL___348                                                 6
 STAT SP IPHASW D HRMM SECON CODA AMPLIT PERI AZIMU VELO AIN AR TRES W  DIS CAZ7
 BAR2 HZ EP        243  1.09                             172    0.0610 20.1 169 
 BAR2 HZ I         243 16.78         6.5 0.22             37           20.1 169 
 BRR  HZ EP        243  2.27                             156    0.0610 66.2 304 
 BRR  HN ES        243 19.66                             156    0.0410 66.2 304 
 BRR  HZ I         243 22.52         5.1 0.29             47           66.2 304 
 PAM  HZ EP   2    243  3.49                             151   -0.45 5 84.9  42 
 PAM  HZ I         243 22.71         4.7 0.44             37           84.9  42 
 PTB  HZ EP        243  7.28                             137    0.04 9  140 260 
 PTB  HN ES   2    243 28.19                             137   -0.39 5  140 260 
 PTB  HZ I         243 35.46         2.3 0.30             37            140 260 
                                                                                
