 2016  528 0653 23.7 L   7.460 -73.128134.3  RSN  4 0.4 1.7LRSN                1
 GAP=119        1.00       4.7     7.2  8.5 -0.4183E+00  0.3734E+01 -0.2012E+01E
 Epicentro: EL PLAYON - SANTANDER                                              3
 ACTION:UPD 16-08-18 17:50 OP:cam  STATUS:               ID:20160528065323 L   I
 OLDACT:REG 16-05-28 12:32 OP:ar   STATUS:               ID:20160528064740     3
 2016-05-28-0647-40M.COL___307                                                 6
 STAT SP IPHASW D HRMM SECON CODA AMPLIT PERI AZIMU VELO AIN AR TRES W  DIS CAZ7
 PAM  EZ EP        653 43.04                             159   -0.1210 49.1 106 
 PAM  EN ES        653 58.55                             159    0.2010 49.1 106 
 PAM  EZ I         653 59.68        11.3 0.20            164           49.1 106 
 BRR  HZ EP        653 43.62                             149   -0.2310 75.3 239 
 BRR  HN ES        653 59.88                             149    0.2910 75.3 239 
 BRR  HZ I         654  3.59         5.7 0.46            149           75.3 239 
 OCA  HZ EP        653 45.71                             145    0.7410 88.7 346 
 OCA  HN ES        654  1.04                             145   -0.5410 88.7 346 
 OCA  HZ I         654  3.62        21.1 0.28            146           88.7 346 
 BAR2 EZ EP        653 45.31                             142   -0.3110 96.1 184 
 BAR2 EZ ES        654  2.71                             142   -0.0310 96.1 184 
 BAR2 EZ I         654  3.92        10.1 0.44            145           96.1 184 
                                                                                
