 2013  728 0348 23.1 L   6.746 -73.164144.3  RSN  6 0.5 1.5LRSN                1
 GAP=180        1.16       6.7     7.9  7.8  0.4485E+01  0.6822E+01 -0.9257E+01E
 Epicentro: VILLANUEVA - SANTANDER                                             3
 ACTION:UPD 13-08-12 10:40 OP:ep   STATUS:               ID:20130728034823 L   I
 OLDACT:REG 13-07-28 08:11 OP:cam  STATUS:               ID:20130728033959     3
 2013-07-28-0339-59M.COL___268                                                 6
 STAT SP IPHASW D HRMM SECON CODA AMPLIT PERI AZIMU VELO AIN AR TRES W  DIS CAZ7
 BAR2 SZ EP   1    348 42.54                             173    0.12 7 17.1 187 
 BAR2 SZ ES        348 57.13                             173   -0.3710 17.1 187 
 BAR2 SZ I         348 58.14         7.7 0.36            174           17.1 187 
 GIR2 SZ EP        348 42.43                             165   -0.3110 37.0 355 
 GIR2 SZ ES        348 58.06                             165   -0.0110 37.0 355 
 BRR  HZ EP        348 44.29                             152    0.1510 72.6 303 
 BRR  HZ I         348 44.59         6.4 0.24            149           72.6 303 
 BRR  HN ES        349  1.11                             152    0.5410 72.6 303 
 RUS  HZ EP   1    348 46.92                             145    0.65 7 94.8 175 
 PTB  HZ EP   1    348 50.42                             132    0.77 7  145 261 
 PTB  HN ES        349  9.77                             132   -0.60 9  145 261 
 PTB  HZ I         349 13.05         3.4 0.46            131            145 261 
 SML  HZ EP        348 59.20                             117   -0.93 8  248 336 
 SML  HN ES        349 29.47                             117    0.45 8  248 336 
 SML  HZ I         349 33.31         3.5 0.10            116            248 336 
                                                                                
