 2014  528 0943 50.7 L   5.776 -73.923110.1  RSN  5 0.5 1.5LRSN                1
 GAP=188        1.31       6.7     6.2 10.2 -0.1283E+02  0.7801E+01 -0.2584E+02E
 Epicentro: ALBANIA - SANTANDER                                                3
 ACTION:UPD 15-03-16 17:01 OP:nd   STATUS:               ID:20140528094350 L   I
 OLDACT:UP  14-05-28 15:29 OP:cam  STATUS:               ID:20140528094000     3
 OLDACT:REG 14-05-28 13:08 OP:cam  STATUS:               ID:20140528094000     3
 2014-05-28-0940-00M.COL___276                                                 6
 STAT SP IPHASW D HRMM SECON CODA AMPLIT PERI AZIMU VELO AIN AR TRES W  DIS CAZ7
 SPBC HZ EP        944  5.47                             168   -0.2910 21.4 230 
 SPBC HE ES        944 17.44                             168   -0.0910 21.4 230 
 SPBC HZ I         944 18.22        11.7 0.34            169           21.4 230 
 PTB  HZ EP        944 10.02                             133   -0.6510  103 325 
 PTB  HN ES        944 25.50                             133   -0.7810  103 325 
 PTB  HZ I         944 29.35         3.9 0.10            133            103 325 
 NOR  HZ EP        944 11.20                             132    0.0810  107 257 
 NOR  HN ES        944 27.80                             132    0.7310  107 257 
 NOR  HZ I         944 29.01         6.1 0.14            133            107 257 
 BAR2 SZ EP   1    944 12.96                             128    0.24 7  122  42 
 BAR2 SZ ES        944 30.35                             128    0.4310  122  42 
 BAR2 SZ I         944 31.79         6.4 0.28            130            122  42 
 ZAR  HZ EP        944 22.22                             112   -0.21 8  216 331 
 ZAR  HN ES        944 48.08                             112    0.87 8  216 331 
 ZAR  HZ I         944 51.68         2.7 0.28            113            216 331 
                                                                                
