 2016 1228 0958 41.2 L   6.763 -73.103142.5  RSN  6 0.7 1.5LRSN                1
 GAP=144        1.72       8.5     7.7 11.6  0.5909E+01  0.2365E+02 -0.4676E+01E
 Epicentro: LOS SANTOS - SANTANDER                                             3
 ACTION:UPD 17-01-11 20:20 OP:rebc STATUS:               ID:20161228095746 L   I
 OLDACT:UP  16-12-29 13:56 OP:rebc STATUS:               ID:20161228095746 L   3
 OLDACT:UPD 16-12-29 13:28 OP:nlst STATUS:               ID:20161228095746 L   3
 2016-12-28-0958-00M.COL___365                                                 6
 STAT SP IPHASW D HRMM SECON CODA AMPLIT PERI AZIMU VELO AIN AR TRES W  DIS CAZ7
 BAR2 EZ EP        959  0.59                             171    0.1610 20.9 205 
 BAR2 EZ ES        959 16.29                             171    0.8910 20.9 205 
 BAR2 EZ I         959 23.65         5.6 0.50            171           20.9 205 
 BRR  HZ EP        959  2.32                             150   -0.0810 77.3 300 
 BRR  HN ES        959 19.74                             150    0.8410 77.3 300 
 PAM  EZ EP        959  3.15                             150    0.0210 77.8  35 
 PAM  EE ES        959 19.35                             150   -0.8610 77.8  35 
 PAM  EN I         959 20.89        10.2 0.44            154           77.8  35 
 RUS  HZ EP        959  5.02                             144    0.6510 96.3 179 
 RUS  HN ES        959 21.59                             144   -0.8110 96.3 179 
 PTB  HZ EP        959  7.64                             130   -0.67 9  152 261 
 PTB  HN ES        959 28.99                             130   -0.42 9  152 261 
 PTB  HZ I         959 30.55         3.9 0.18            133            152 261 
 ZAR  HZ EP        959 15.05                             121    0.96 8  210 293 
 ZAR  HE ES        959 38.92                             121   -0.79 8  210 293 
 ZAR  HZ I         959 43.34         2.5 0.10            124            210 293 
                                                                                
