 2012 1128 0630 58.2 L   6.784 -73.198147.5  RSN  4 0.1 1.6LRSN                1
 GAP=239        0.34       2.9     3.0  4.5  0.6162E+01 -0.9434E+00 -0.2493E+01E
 Epicentro: ZAPATOCA - SANTANDER                                               3
 ACTION:UPD 12-12-05 15:36 OP:}ep  STATUS:               ID:20121128063058 L   I
 2012-11-28-0630-00M.COL___234                                                 6
 STAT SP IPHASW D HRMM SECON CODA AMPLIT PERI AZIMU VELO AIN AR TRES W  DIS CAZ7
 RUS  HZ EP        631 21.99                             144   -0.0810 99.3 173 
 RUS  HN ES        631 40.71                             144    0.0510 99.3 173 
 RUS  HN I         631 41.42         4.9 0.22                          99.3 173 
 PTB  HZ EP        631 24.84                             134    0.03 9  142 259 
 PTB  HN ES        631 45.43                             134   -0.11 9  142 259 
 PTB  HN I         631 51.16         6.1 0.28                           142 259 
 ZAR  HN ES        631 55.44                             123    0.09 9  199 293 
 CHI  HN ES        632  4.95                             118    0.06 8  245 194 
 CHI  HN I         632  8.10         3.3 0.32                           245 194 
                                                                                
