 2017  228 0338 52.6 L   6.768 -73.149152.6  RSN  5 0.2 1.6LRSN                1
 GAP=138        0.65       3.6     3.4  4.7 -0.1187E+01  0.1822E+01  0.6270E+00E
 Epicentro: LOS SANTOS - SANTANDER                                             3
 ACTION:UPD 17-05-24 15:41 OP:jn   STATUS:               ID:20170228033852 L   I
 OLDACT:UP  17-03-01 00:34 OP:ar   STATUS:               ID:20170228032747     3
 OLDACT:REG 17-02-28 20:37 OP:and  STATUS:               ID:20170228032747     3
 2017-02-28-0328-00M.COL___375                                                 6
 STAT SP IPHASW D HRMM SECON CODA AMPLIT PERI AZIMU VELO AIN AR TRES W  DIS CAZ7
 BAR2 EZ EP        339 12.84                             172   -0.1710 19.8 191 
 BAR2 EZ ES        339 28.59                             172   -0.3210 19.8 191 
 BAR2 EZ I         339 29.43        10.1 0.18            172           19.8 191 
 BRR  HZ EP        339 14.64                             153    0.0510 72.7 301 
 BRR  HE ES        339 32.02                             153    0.2910 72.7 301 
 PAM  EZ EP        339 16.05                             151    0.3110 80.3  38 
 PAM  EN ES        339 33.59                             151   -0.1810 80.3  38 
 PAM  EZ I         339 35.05         5.5 0.42            152           80.3  38 
 RUS  HZ EP        339 16.89                             146    0.0810 97.1 176 
 RUS  HN ES        339 35.89                             146    0.2210 97.1 176 
 RUS  HZ I         339 37.56         4.0 0.38            146           97.1 176 
 PTB  HZ EP        339 19.68                             134   -0.39 9  147 260 
 PTB  HE ES        339 41.53                             134    0.06 9  147 260 
 PTB  HZ I         339 43.14         5.2 0.22            134            147 260 
                                                                                
