 2015  328 0121 35.5 L   6.791 -73.148150.0  RSN  4 0.5 1.5LRSN                1
 GAP=220        0.95       8.8     5.5 11.0 -0.1225E+02  0.2384E+02 -0.3643E+01E
 Epicentro: LOS SANTOS - SANTANDER                                             3
 ACTION:UPD 15-04-30 16:30 OP:nd   STATUS:               ID:20150328012135 L   I
 OLDACT:REG 15-03-28 13:23 OP:fm   STATUS:               ID:20150328011749     3
 2015-03-28-0117-49M.COL___281                                                 6
 STAT SP IPHASW D HRMM SECON CODA AMPLIT PERI AZIMU VELO AIN AR TRES W  DIS CAZ7
 PAM  SZ EP        121 57.70                             152   -0.5110 78.3  39 
 PAM  SN ES        122 16.33                             152    0.4010 78.3  39 
 PAM  SZ I         122 17.91         2.7 0.14            150           78.3  39 
 PTB  HZ EP   1    122  3.23                             133    0.47 7  147 259 
 PTB  HN ES   1    122 23.39                             133   -0.64 7  147 259 
 PTB  HZ I         122 27.31         3.6 0.62            133            147 259 
 ZAR  HZ EP   1    122  8.66                             124    0.44 6  204 292 
 ZAR  HN ES        122 34.05                             124    0.30 9  204 292 
 ZAR  HZ I         122 41.59         3.6 0.58            123            204 292 
 SML  HZ EP   1    122 12.46                             118    0.03 6  244 335 
 SML  HN ES   1    122 40.63                             118   -0.62 6  244 335 
 SML  HZ I         122 49.25         4.1 0.24            118            244 335 
                                                                                
