 2010 1028 0703 52.2 L   7.407 -73.192131.4  RSN  4 0.1 1.7LRSN                1
 GAP=140        0.40       3.0     4.5  4.7 -0.6354E+01 -0.2152E+01  0.1450E+01E
 Epicentro: EL PLAYON - SANTANDER                                              3
 ACTION:UP  11-02-18 11:12 OP:tino STATUS:               ID:20101028070352 L   I
 2010-10-28-0658-27S.COL___127                                                 6
 STAT SP IPHASW D HRMM SECON CODA AMPLIT PERI AZIMU VELO SNR AR TRES W  DIS CAZ7
 BRR  HZ IP     C  7 4 11.53                             152     0.010   66 240 
 BRR  HE ES   1    7 4 26.64                             152     0.0 7   66 240 
 BRR  HZ I         7 4 27.79        13.0 0.09                            66 240 
 GRA  SZ IP        7 4 12.04                             151     0.210   68  39 
 GRA  SZ ES   1    7 4 27.06                             151    -0.1 7   68  39 
 GRA  SZ I         7 4 28.66        22.4 0.27                            68  39 
 BAR2 SZ EP   2    7 4 13.28                             143    -0.1 5   90 179 
 BAR2 SZ ES   2    7 4 29.94                             143     0.0 5   90 179 
 BAR2 SZ I         7 4 30.74         5.9 0.08                            90 179 
 OCA  SZ EP   1    7 4 13.31                             143    -0.2 7   93 351 
 OCA  SZ I         7 4 14.13         8.1 0.30                            93 351 
 OCA  SZ ES   1    7 4 30.16                             143     0.0 7   93 351 
                                                                                
