 2010 1128 0354 30.2 L   6.596 -73.558110.9  RSN  7 0.3 1.4LRSN                1
 GAP= 86        0.58       6.1     6.0  5.8  0.1579E+02  0.6023E+01 -0.7157E+01E
 Epicentro: EL CARMEN DE CHUCURI - SANTANDER                                   3
 ACTION:UP  10-12-17 16:55 OP:REBC STATUS:               ID:20101128035430 L   I
 2010-11-28-0353-21S.COL___129                                                 6
 STAT SP IPHASW D HRMM SECON CODA AMPLIT PERI AZIMU VELO SNR AR TRES W  DIS CAZ7
 BAR2 SZ ES   1    354 58.83                             158    -0.1 7   41  91 
 BAR2 SZ I         354 59.81        23.7 0.36                            41  91 
 BRR  HZ EP   1    354 47.04                             150     0.1 7   59 343 
 BRR  HN ES   1    355  0.08                             150     0.1 7   59 343 
 BRR  HZ I         355  1.88         6.0 0.36                            59 343 
 RUS  HZ EP   2    354 49.81                             137    -0.4 5   94 146 
 RUS  HZ I         355  7.76         2.6 0.28                            94 146 
 GUE  SZ EP   1    354 55.98                             122     0.4 7  153  27 
 GUE  SZ I         354 56.57         1.4 0.04                           153  27 
 OCA  SZ EP   1    354 58.44                             116    -0.2 7  184   8 
 OCA  SZ I         355 26.25         4.0 0.19                           184   8 
 NOR  SN ES   3    355 21.43                             116     0.7 2  185 232 
 MON  HN ES   1    355 51.13                             102    -0.3 5  334 316 
 MON  HZ I         355 52.80         0.9 0.23                           334 316 
                                                                                
