 2013  128 0731 55.9 L   6.760 -73.166148.0  RSN  5 0.3 1.3LRSN                1
 GAP=232        0.87       5.6     6.3  6.7  0.1490E+02  0.8581E+01  0.1486E+02E
 Epicentro: LOS SANTOS - SANTANDER                                             3
 ACTION:UPD 13-02-15 09:17 OP:ep   STATUS:               ID:20130128073155 L   I
 2013-01-28-0728-48M.COL___171                                                 6
 STAT SP IPHASW D HRMM SECON CODA AMPLIT PERI AZIMU VELO AIN AR TRES W  DIS CAZ7
 BAR2 SZ EP        732 15.61                             172   -0.0910 18.6 185 
 BAR2 SZ ES        732 30.74                             172   -0.4110 18.6 185 
 BAR2 SZ I         732 32.11        11.7 0.20            169           18.6 185 
 BRR  HN ES        732 34.57                             153    0.5810 71.5 303 
 RUS  HZ EP        732 19.30                             145   -0.2610 96.3 175 
 RUS  HN ES        732 38.28                             145    0.2610 96.3 175 
 RUS  HE I         732 39.46         3.8 0.18            145           96.3 175 
 PTB  HZ EP     C  732 22.55                             133   -0.21 9  145 260 
 PTB  HN ES        732 43.43                             133   -0.29 9  145 260 
 PTB  HN I         732 48.62         4.0 0.30            131            145 260 
 CHI  HZ EP        732 33.69                             118    0.51 8  244 195 
 CHI  HZ I         732 34.67         0.4 0.14            118            244 195 
 CHI  HN ES        733  2.31                             118    0.05 8  244 195 
                                                                                
