 2010  928 0257 12.0 L   6.783 -73.125144.0  RSN 13 0.6 2.3LRSN                1
 GAP=161        1.50       5.0     8.9  9.5 -0.1706E+02  0.8946E+01  0.7779E+01E
 Epicentro: LOS SANTOS - SANTANDER                                             3
 ACTION:UP  11-02-18 11:06 OP:tino STATUS:               ID:20100928025712 L   I
 2010-09-28-0254-01S.COL___122                                                 6
 STAT SP IPHASW D HRMM SECON CODA AMPLIT PERI AZIMU VELO SNR AR TRES W  DIS CAZ7
 BTL  SZ EP        257 31.42                             171     0.110   22 314 
 BTL  SZ ES   2    257 46.90                             171     0.4 5   22 314 
 BAR2 SZ EP        257 30.98                             171    -0.410   22 197 
 BAR2 SZ I         257 47.11        46.7 0.28                            22 197 
 BRR  HZ EP        257 32.80                             151    -0.310   74 299 
 BRR  HN ES        257 49.95                             151     0.410   74 299 
 BRR  HZ I         257 51.05        51.5 0.14                            74 299 
 RUS  HZ EP        257 34.99                             144    -0.410   99 177 
 RUS  HN ES        257 53.71                             144     0.010   99 177 
 RUS  HZ I         257 54.80        32.7 0.19                            99 177 
 GUE  SZ EP        257 36.08                             139    -0.610  118  11 
 GUE  SZ I         257 37.55         5.7 0.17                           118  11 
 GRA  SZ EP        257 37.86                             137     0.710  127  16 
 GRA  SZ ES        257 57.54                             137     0.710  127  16 
 GRA  SZ I         257 58.84        45.7 0.09                           127  16 
 OCA  SZ EP        257 39.37                             129    -1.0 9  162 352 
 OCA  SZ ES   2    258  1.72                             129    -0.8 5  162 352 
 OCA  SZ I         258  5.81        25.6 0.17                           162 352 
 NOR  SZ EP   1    257 46.97                             118    -0.7 6  236 235 
 NOR  SN ES   1    258 14.81                             118    -0.8 6  236 235 
 CHI  HZ EP        257 49.18                             117    -0.3 8  247 196 
 CHI  HN ES   1    258 18.78                             117     0.1 6  247 196 
 CHI  HZ I         258 22.26        15.8 0.40                           247 196 
 ROSC BZ EP        257 51.30                             117     1.3 8  252 212 
 ROSC BN ES   2    258 19.67                             117     0.1 4  252 212 
 ROSC BZ I         258 25.05        16.0 0.60                           252 212 
 HEL  HZ EP   1    257 53.13                             114     0.8 6  274 256 
 HEL  HN ES   2    258 23.47                             114    -0.3 4  274 256 
 HEL  HZ I         258 28.70         9.9 0.36                           274 256 
 RREF HZ EP   1    257 58.84                             111     0.7 5  322 230 
 RREF HN ES   2    258 34.05                             111     0.0 3  322 230 
 RREF HZ I         258 43.14        12.2 0.20                           322 230 
 TOL  SZ EP   1    258  0.82                             109     0.6 5  344 225 
                                                                                
