 2016  528 0757  8.6 L   6.793 -73.148146.0  RSN 21 0.5 2.4LRSN                1
 GAP= 71        1.16       3.4     3.2  5.2 -0.2162E+01  0.4788E+01  0.2215E+01E
 Epicentro: LOS SANTOS - SANTANDER                                             3
 ACTION:UPD 16-08-18 17:50 OP:cam  STATUS:               ID:20160528075708 L   I
 OLDACT:UP  16-05-28 16:46 OP:ar   STATUS:               ID:20160528074743d    3
 OLDACT:DUP 16-05-28 16:26 OP:ar   STATUS:               ID:20160528074743d    3
 2016-05-28-0747-42M.COL___309                                                 6
 STAT SP IPHASW D HRMM SECON CODA AMPLIT PERI AZIMU VELO AIN AR TRES W  DIS CAZ7
 BAR2 EZ EP        757 28.19                             171   -0.0810 22.5 190 
 BAR2 EZ ES        757 43.69                             171    0.1010 22.5 190 
 BAR2 EZ I         757 45.56        50.9 0.32            167           22.5 190 
 BRR  HZ IP        757 30.04                             153    0.2210 71.4 299 
 BRR  HN ES        757 47.48                             153    1.1410 71.4 299 
 BRR  HZ I         757 50.85        29.2 0.18            152           71.4 299 
 PAM  EZ IP     D  757 30.96                             151    0.0410 78.1  39 
 PAM  EN ES        757 48.20                             151   -0.1010 78.1  39 
 PAM  EZ I         757 50.33        55.4 0.54            155           78.1  39 
 RUS  HZ EP        757 32.13                             144   -0.2210 99.8 176 
 RUS  HN ES        757 51.09                             144    0.2410 99.8 176 
 RUS  HZ I         757 51.70        16.3 0.38            143           99.8 176 
 PTB  HZ EP        757 34.95                             132   -0.63 9  147 259 
 PTB  HN ES        757 55.92                             132   -0.69 9  147 259 
 PTB  HZ I         758  1.49        32.7 0.20            131            147 259 
 TAM  HZ EP        757 36.36                             131    0.03 9  155 105 
 TAM  HN ES        757 57.62                             131   -0.31 9  155 105 
 TAM  HZ I         758  1.99        23.6 0.34            133            155 105 
 OCA  HZ EP        757 36.17                             130   -0.86 9  161 353 
 OCA  HE ES        757 59.59                             130    0.41 9  161 353 
 SPBC HZ EP        757 37.05                             129   -0.03 9  162 219 
 SPBC HN ES        757 58.95                             129   -0.32 9  162 219 
 SPBC HZ I         758  6.23        32.9 0.22            128            162 219 
 NOR  HZ EP        757 44.55                             119    0.24 8  234 235 
 NOR  HE ES        758 11.80                             119   -0.33 8  234 235 
 NOR  HZ I         758 19.92        15.0 0.28            119            234 235 
 CHI  HZ EP        757 46.29                             117    0.04 8  248 195 
 CHI  HN ES   4    758 14.63                             117   -0.97 0  248 195 
 CHI  HZ I         758 17.94        10.3 0.36            117            248 195 
 ROSC BZ EP   9    757 49.38                             117    2.70 0  252 211 
 ROSC BN ES        758 19.05                             117   -0.01 8  252 211 
 ROSC BZ I         758 24.41        20.3 0.55            117            252 211 
 HEL  HZ EP        757 49.77                             115    0.96 8  272 256 
 HEL  HN ES        758 19.71                             115   -0.44 8  272 256 
 HEL  HZ I         758 26.42        14.2 0.28            115            272 256 
 URE  HZ EP        757 48.74                             114   -0.98 7  284 292 
 URE  HE ES   4    758 18.83                             114   -2.94 0  284 292 
 URE  HZ I         758 32.28        20.4 0.42            114            284 292 
 PTGC HZ EP   4    757 51.11                             112   -1.32 0  308 159 
 PTGC HN ES   4    758 23.64                             112   -2.94 0  308 159 
 PTGC HZ I         758 39.69        22.4 0.52            112            308 159 
 CBOC HZ EP   4    757 56.55                             110    1.05 0  333 252 
 CBOC HN ES        758 32.22                             110    0.16 7  333 252 
 CBOC HZ I         758 41.34         3.3 0.48            110            333 252 
 DBB  SZ EP        757 56.30                             110    0.20 7  339 274 
 DBB  SZ ES        758 33.18                             110    0.06 7  339 274 
 DBB  SZ I         758 41.61        20.0 0.72            110            339 274 
 ANIL HN ES   4    758 39.44                             109    2.29 0  357 225 
 ANIL HZ I         758 42.30        19.8 0.24            109            357 225 
 PRA  HZ EP        758  3.06                             107    0.99 6  391 210 
 PRA  HN ES        758 43.65                             107   -0.10 6  391 210 
 PRA  HZ I         758 47.88        11.1 0.36            107            391 210 
 ORTC HZ EP        758  2.62                             107    0.15 6  395 216 
 ORTC HN ES        758 45.53                             107    1.07 6  395 216 
 ORTC HZ I         758 48.99         6.5 0.26            107            395 216 
 PAL  HZ EP        758  4.67                             106    0.94 6  405 239 
 PAL  HN ES        758 46.01                             106   -0.70 6  405 239 
 PAL  HZ I         758 50.88         4.4 0.22            106            405 239 
 SJC  HZ EP   4    758  2.16                             106   -2.10 0  410 327 
 SJC  HN ES   4    758 43.98                             106   -3.67 0  410 327 
 SJC  HZ I         758 47.77         7.7 0.44            107            410 327 
                                                                                
