 2010  228 0254 10.7 L   6.763 -73.433143.4  RSN  6 0.3 1.7LRSN                1
 GAP=163        0.71       5.5     4.8  6.1  0.8582E+01  0.1297E+02  0.5426E+01E
 Epicentro: EL CARMEN DE CHUCURI - SANTANDER                                   3
 ACTION:UP  10-08-24 09:51 OP:vdl  STATUS:               ID:20100228025410 L   I
 2010-02-28-0251-45S.COL___093                                                 6
 STAT SP IPHASW D HRMM SECON CODA AMPLIT PERI AZIMU VELO SNR AR TRES W  DIS CAZ7
 BAR2 SZ EP        254 30.27                             166    -0.110   33 124 
 BAR2 SZ ES        254 45.30                             166    -0.310   33 124 
 BRR  HE ES   2    254 46.60                             160     0.6 5   49 321 
 BRR  HZ I         254 53.22        17.4 0.13                            49 321 
 RUS  BZ EP        254 34.87                             142     0.410  104 158 
 RUS  BE ES   2    254 53.15                             142     0.1 5  104 158 
 RUS  BZ I         254 53.89         4.9 0.33                           104 158 
 CHI  HZ EP        254 47.11                             118    -0.1 8  238 188 
 CHI  HN ES   3    255 14.99                             118    -0.6 2  238 188 
 HEL  HE ES        255 16.01                             117     0.1 8  240 255 
 MON  HZ EP        254 56.69                             109    -0.4 7  331 312 
 MON  HN ES   2    255 33.92                             109     0.6 3  331 312 
 MON  HZ I         255 51.29         2.3 0.56                           331 312 
                                                                                
