 2016  628 0529  1.2 L   6.710 -73.126151.4  RSN  5 0.3 1.3LRSN                1
 GAP=143        0.84       4.5     4.8  6.1  0.5055E+01  0.6652E+01 -0.1589E+01E
 Epicentro: JORDAN - SANTANDER                                                 3
 ACTION:UPD 16-07-21 22:23 OP:rebc STATUS:               ID:20160628052901 L   I
 OLDACT:REG 16-06-28 13:03 OP:edw  STATUS:               ID:20160628052746     3
 2016-06-28-0527-46M.COL___340                                                 6
 STAT SP IPHASW D HRMM SECON CODA AMPLIT PERI AZIMU VELO AIN AR TRES W  DIS CAZ7
 BAR2 EZ EP        529 21.68                             174    0.3110 14.5 206 
 BAR2 EZ ES        529 36.90                             174   -0.2110 14.5 206 
 BAR2 EZ I         529 39.30         3.6 0.22                          14.5 206 
 BRR  HZ EP        529 23.46                             151    0.1010 78.2 304 
 BRR  HN ES        529 41.11                             151    0.4610 78.2 304 
 BRR  HZ I         529 44.37         3.8 0.48                          78.2 304 
 BRR  HZ E         529 44.62                                           78.2 304 
 PAM  EZ EP        529 24.35                             150   -0.0710 84.0  34 
 PAM  EN ES        529 42.36                             150   -0.1610 84.0  34 
 PAM  EZ I         529 43.37         3.8 0.22                          84.0  34 
 RUS  HZ EP        529 24.45                             148   -0.3810 90.6 177 
 RUS  HE ES        529 43.41                             148    0.1410 90.6 177 
 RUS  HZ I         529 45.15         1.6 0.12                          90.6 177 
 ZAR  HZ EP        529 35.01                             123    0.38 8  210 294 
 ZAR  HN ES        530  0.05                             123   -0.65 8  210 294 
 ZAR  HZ I         530  1.04         2.9 0.26                           210 294 
                                                                                
