 2015  528 0423  4.9 L   6.788 -73.074146.4  RSN 11 0.4 1.7LRSN                1
 GAP=146        0.92       3.1     5.4  6.4 -0.2194E+01  0.1717E+01  0.1985E+01E
 Epicentro: LOS SANTOS - SANTANDER                                             3
 ACTION:UPD 15-09-10 22:07 OP:cam  STATUS:               ID:20150528042304 L   I
 OLDACT:REG 15-05-28 12:42 OP:spq  STATUS:               ID:20150528041737     3
 2015-05-28-0417-37M.COL___309                                                 6
 STAT SP IPHASW D HRMM SECON CODA AMPLIT PERI AZIMU VELO AIN AR TRES W  DIS CAZ7
 BAR2 EZ EP        423 24.67                             170   -0.0110 24.7 209 
 BAR2 EZ ES   1    423 40.04                             170   -0.03 7 24.7 209 
 BAR2 EZ I         423 41.45        10.7 0.10            168           24.7 209 
 PAM  SZ EP        423 27.50                             152    0.4910 73.7  34 
 BRR  HZ EP     C  423 26.52                             150   -0.0810 78.8 297 
 BRR  HN ES        423 43.97                             150    0.4710 78.8 297 
 BRR  HZ I         423 46.02         7.8 0.38            148           78.8 297 
 RUS  HZ EP   1    423 28.97                             144    0.33 7 99.0 181 
 RUS  HE ES   1    423 47.18                             144    0.05 7 99.0 181 
 RUS  HZ I         423 48.49         6.0 0.36            145           99.0 181 
 OCA  HZ EP   1    423 33.43                             129   -0.10 7  163 350 
 OCA  HE ES        423 55.01                             129   -0.82 9  163 350 
 OCA  HZ I         424  1.12        11.2 0.20            130            163 350 
 SPBC HZ EP   1    423 33.32                             128   -0.56 7  167 221 
 SPBC HN ES        423 55.68                             128   -0.76 9  167 221 
 SPBC HZ I         423 58.24        12.5 0.26            128            167 221 
 ZAR  HZ EP        423 38.62                             121    0.38 8  212 292 
 ZAR  HE ES   1    424  4.46                             121    0.25 6  212 292 
 ZAR  HZ I         424  9.63         5.5 0.36            121            212 292 
 CHI  HZ EP   1    423 42.84                             117    0.07 6  250 197 
 CHI  HN ES   1    424 12.62                             117    0.34 6  250 197 
 CHI  HZ I         424 17.23         1.9 0.25            118            250 197 
 GUY2CHZ EP   4    423 50.26                             112    1.03 0  307 236 
 GUY2CHN ES   1    424 24.26                             112    0.49 5  307 236 
 GUY2CHZ I         424 29.43         2.5 0.34                           307 236 
 MON  HE ES   4    424 31.56                             108   -2.10 0  361 308 
 MON  HZ I         424 34.18         0.7 0.19            108            361 308 
 PRA  HZ EP   1    423 58.29                             106   -0.52 4  395 211 
 PRA  HE ES   1    424 40.78                             106   -0.05 4  395 211 
 PRA  HZ I         424 47.21         1.8 0.22            107            395 211 
                                                                                
