 2013 1028 0537  4.8 L   6.810 -73.162141.7  RSN 19 0.5 2.5LRSN 2.7WRSN        1
 SPEC AVERAGE  MO 13.1 ST 10.4 OM  3.3 f0 8.88 R0.1750 AL 0.00 WI109.2 MW  2.7 3
 SPEC SD       MO  0.0 ST0.000 OM  1.9 f00.000 R0.0000 AL      WI      MW  0.0 3
 GAP= 64        1.22       2.9     3.5  5.4 -0.1801E-02  0.3986E+01  0.3104E+01E
 Epicentro: LOS SANTOS - SANTANDER                                             3
 SPEC PTB HH Z MO 13.1 ST 10.4 OM  1.4 f0 8.88 R0.1750 AL 0.00 WI109.2 MW  2.7 3
 SPEC PTB HH Z T 53711 K 0.000 GD  203 VS 4.20 DE 3.20 Q0300.0 QA 0.60 VS 4.20 3
 ACTION:UPD 13-11-25 09:24 OP:ep   STATUS:               ID:20131028053704 L   I
 OLDACT:REG 13-10-28 08:17 OP:jn   STATUS:               ID:20131028053000     3
 2013-10-28-0530-00M.COL___273                                                 6
 STAT SP IPHASW D HRMM SECON CODA AMPLIT PERI AZIMU VELO AIN AR TRES W  DIS CAZ7
 BAR2 SZ EP     D  537 24.15                             170    0.1510 24.2 185 
 BAR2 SZ ES        537 38.45                             170   -0.5010 24.2 185 
 BAR2 SZ I         537 40.55       100.5 0.56            164           24.2 185 
 BRR  HZ EP        537 25.89                             152    0.4610 69.0 298 
 BRR  HN ES        537 42.60                             152    1.1110 69.0 298 
 BRR  HZ I         537 44.80        49.0 0.16            144           69.0 298 
 PAM  SZ EP     C  537 27.05                             150    0.4110 77.7  41 
 PAM  SN ES        537 43.85                             150    0.2010 77.7  41 
 PAM  SZ I         537 44.58        34.2 0.24            149           77.7  41 
 RUS  HZ EP        537 28.24                             143   -0.0510  102 175 
 RUS  HN ES        537 46.21                             143   -0.3710  102 175 
 RUS  HZ I         537 49.12        37.5 0.26            136            102 175 
 PTB  HZ EP        537 30.77                             131   -0.57 9  146 258 
 PTB  HN ES        537 51.83                             131   -0.17 9  146 258 
 PTB  HZ I         537 54.34        58.3 0.44            123            146 258 
 TAM  HZ EP        537 32.60                             129    0.20 9  157 105 
 TAM  HN ES        537 53.92                             129    0.03 9  157 105 
 TAM  HZ I         537 54.81        26.2 0.28            125            157 105 
 OCA  HZ EP        537 32.47                             129   -0.24 9  159 354 
 OCA  HN ES        537 53.85                             129   -0.60 9  159 354 
 OCA  HZ I         537 59.36        50.2 0.24            124            159 354 
 SPBC HZ EP        537 33.07                             128    0.06 9  163 218 
 SPBC HN ES        537 55.09                             128    0.11 9  163 218 
 SPBC HZ I         538  2.43        50.4 0.28            120            163 218 
 YOP  SZ EP        537 35.08                             125    0.30 9  181 153 
 YOP  SN ES        537 57.81                             125   -0.32 9  181 153 
 YOP  SZ I         537 59.85        55.0 0.30            120            181 153 
 SML  HZ EP        537 40.20                             117   -0.85 8  242 336 
 SML  HN ES   1    538  8.28                             117   -1.00 6  242 336 
 CHI  HZ EP        537 42.57                             116    0.18 8  249 195 
 CHI  HN ES        538 11.76                             116    0.09 8  249 195 
 CHI  HZ I         538 18.47        17.0 0.34            110            249 195 
 ROSC BZ EP   1    537 44.29                             116    1.54 6  253 211 
 HEL  HZ EP        537 44.73                             114    0.05 8  271 255 
 HEL  HN ES        538 15.71                             114   -0.05 8  271 255 
 HEL  HZ I         538 23.76        22.9 0.30            108            271 255 
 GUY2CHZ EP        537 49.38                             112    1.21 7  300 234 
 GUY2CHZ I         538 32.23        26.1 0.48                           300 234 
 VIL  SZ EP        537 48.09                             111   -0.07 7  304 191 
 VIL  SN ES        538 20.87                             111   -1.08 7  304 191 
 VIL  SZ I         538 31.90        20.9 0.36            106            304 191 
 PTGC HZ EP   4    537 47.38                             111   -1.34 0  310 158 
 PTGC HN ES   4    538 21.04                             111   -1.90 0  310 158 
 CBOC HZ EP        537 51.95                             109    0.52 7  332 252 
 CBOC HZ I         538 40.03         8.0 0.36            104            332 252 
 PRA  HZ EP        537 57.87                             106   -0.37 6  392 209 
 PRA  HN ES        538 39.33                             106   -0.55 6  392 209 
 PRA  HZ I         538 45.01        16.8 0.34            101            392 209 
 ORTC HZ IP        537 58.18                             106   -0.43 6  395 216 
 ORTC HZ EP        537 58.18                             106            395 216 
 ORTC HZ I         538 48.43        12.1 0.46            101            395 216 
 SJC  HZ EP   4    537 57.95                             105   -2.09 0  407 327 
 SJC  HN ES   4    538 38.99                             105   -4.11 0  407 327 
 SJC  HZ I         538 42.68         7.8 0.32            101            407 327 
                                                                                
