 2017 1028 0121 25.1 L   6.752 -73.182139.8  RSN  8 0.5 1.4LRSN                1
 GAP=110        1.35       5.5     5.3  8.9  0.9884E+00  0.3038E+01  0.5434E+01E
 Epicentro: LOS SANTOS - SANTANDER                                             3
 ACTION:UPD 17-11-07 19:38 OP:rebc STATUS:               ID:20171028012125 L   I
 OLDACT:UP  17-10-28 13:34 OP:dani STATUS:               ID:20171028011741     3
 OLDACT:REG 17-10-28 12:27 OP:dani STATUS:               ID:20171028011741     3
 2017-10-28-0118-00M.COL___456                                                 6
 STAT SP IPHASW D HRMM SECON CODA AMPLIT PERI AZIMU VELO AIN AR TRES W  DIS CAZ7
 BAR2 EZ EP        121 43.92                             172   -0.0210 17.7 180 
 BAR2 EZ ES        121 58.61                             172    0.0010 17.7 180 
 BAR2 EZ I         121 59.89         7.9 0.16            174           17.7 180 
 BRR  HZ EP        121 45.99                             152    0.3910 70.5 304 
 BRR  HE ES        122  2.43                             152    0.8710 70.5 304 
 BRR  HZ I         122 12.01         5.6 0.22            151           70.5 304 
 PAM  EZ EP        121 46.76                             148   -0.3810 84.1  39 
 PAM  EE ES        122  3.59                             148   -0.7110 84.1  39 
 PAM  EZ I         122  5.83         3.9 0.50            152           84.1  39 
 RUS  HZ EP        121 48.53                             144    0.5910 95.7 173 
 RUS  HN ES        122  6.05                             144    0.3210 95.7 173 
 RUS  HZ I         122  8.34         3.6 0.30            149           95.7 173 
 PTB  HZ EP        121 50.93                             132   -0.23 9  143 261 
 PTB  HN ES        122 10.51                             132   -0.96 9  143 261 
 PTB  HZ I         122 17.01         2.3 0.40            134            143 261 
 SPBC HZ EP   4    121 49.90                             129   -2.64 0  156 219 
 SPBC HE ES        122 13.40                             129   -0.51 9  156 219 
 YPLC HZ EP        121 54.34                             126    0.10 9  174 149 
 ZAR  HN ES        122 22.35                             121    0.45 9  202 294 
 GUY2CHZ EP   4    122 10.36                             112    2.61 0  295 235 
                                                                                
