 2011 1228 0331  4.2 L   6.769 -73.149150.5  RSN  9 0.4 1.9LRSN                1
 GAP=138        0.80       4.6     5.0  6.0 -0.5245E+01  0.5524E+01  0.7890E+01E
 Epicentro: LOS SANTOS - SANTANDER                                             3
 ACTION:UPD 12-07-13 16:19 OP:ep   STATUS:               ID:20111228033000 L   I
 2011-12-28-0330-00M.COL___186                                                 6
 STAT SP IPHASW D HRMM SECON CODA AMPLIT PERI AZIMU VELO AIN AR TRES W  DIS CAZ7
 BAR2 SZ EP   1    331 24.32                             172   -0.05 7 19.9 191 
 BAR2 SZ ES   1    331 39.59                             172   -0.49 7 19.9 191 
 BAR2 SZ I         331 42.22        26.6 0.20                          19.9 191 
 GIR2 SZ EP   1    331 24.45                             166   -0.11 7 34.6 352 
 GIR2 SZ ES   1    331 41.09                             166    0.67 7 34.6 352 
 BRR  HZ IP     C  331 26.19                             153    0.2110 72.6 301 
 BRR  HZ I         331 26.49        32.6 0.13                          72.6 301 
 BRR  HE ES   1    331 43.57                             153    0.63 7 72.6 301 
 PAM  SZ EP   1    331 27.13                             151    0.01 7 80.2  38 
 PAM  SZ I         331 27.39         9.4 0.20                          80.2  38 
 PAM  SE ES   1    331 44.40                             151   -0.58 7 80.2  38 
 RUS  HZ EP   1    331 28.09                             146   -0.13 7 97.2 176 
 RUS  HN ES   1    331 46.95                             146    0.02 7 97.2 176 
 RUS  HZ I         331 48.17         7.8 0.32                          97.2 176 
 PTB  HZ EP   1    331 31.18                             133   -0.33 7  147 260 
 PTB  HN ES   1    331 52.17                             133   -0.61 7  147 260 
 NOR  SZ EP   1    331 40.31                             120    0.31 6  232 235 
 NOR  SN ES   1    332  7.63                             120   -0.28 6  232 235 
 CHI  HZ EP   1    331 42.33                             118    0.50 6  245 195 
 CHI  HE ES   2    332 12.05                             118    0.89 4  245 195 
 CHI  HZ I         332 20.11         4.1 0.30                           245 195 
 RREF HZ EP   2    331 49.77                             112   -0.54 3  319 230 
                                                                                
