 2017  828 0959  3.6 L   6.757 -73.144150.6  RSN  6 0.3 1.6LRSN                1
 GAP=234        0.87       4.3     6.2  6.9  0.1035E+02  0.9003E+01  0.5953E+01E
 Epicentro: LOS SANTOS - SANTANDER                                             3
 ACTION:UPD 17-09-04 20:25 OP:rebc STATUS:               ID:20170828095903 L   I
 OLDACT:UP  17-08-28 17:52 OP:edw  STATUS:               ID:20170828094734     3
 OLDACT:UP  17-08-28 17:51 OP:edw  STATUS:               ID:20170828094734     3
 OLDACT:REG 17-08-28 13:11 OP:dhb  STATUS:               ID:20170828094734     3
 2017-08-28-0948-00M.COL___402                                                 6
 STAT SP IPHASW D HRMM SECON CODA AMPLIT PERI AZIMU VELO AIN AR TRES W  DIS CAZ7
 BAR2 EZ IP     D  959 23.45                             173   -0.2910 18.7 193 
 BAR2 EZ ES        959 39.60                             173    0.1610 18.7 193 
 BAR2 EZ I         959 40.57         5.6 0.13            168           18.7 193 
 BRR  HZ EP        959 25.43                             152    0.0110 73.7 302 
 BRR  HN ES        959 42.81                             152    0.3710 73.7 302 
 BRR  HZ I         959 45.23         8.7 0.14            148           73.7 302 
 RUS  HZ EP        959 27.80                             146    0.2910 95.8 176 
 RUS  HN ES        959 45.62                             146   -0.5310 95.8 176 
 RUS  HZ I         959 47.08         3.3 0.26            146           95.8 176 
 SPBC HZ EP        959 32.48                             131    0.33 9  160 220 
 SPBC HN ES        959 54.70                             131    0.28 9  160 220 
 SPBC HZ I         959 59.42         5.1 0.42            129            160 220 
 ZAR  HN ES       10 0  1.70                             123   -0.59 8  206 293 
 ZAR  HZ I        10 0  8.57         7.0 0.28            122            206 293 
 CHI  HE ES       10 0 10.20                             119   -0.13 8  244 196 
                                                                                
