 2012  128 0626 30.0 L   6.790 -73.114144.5  RSN  5 0.3 1.4LRSN                1
 GAP=141        0.64       4.1     8.2  6.4  0.3869E+01 -0.8130E+01  0.4179E+01E
 Epicentro: LOS SANTOS - SANTANDER                                             3
 ACTION:UP  12-02-03 08:21 OP:REBC STATUS:               ID:20120128062630 L   I
 2012-01-28-0620-00M.COL___188                                                 6
 STAT SP IPHASW D HRMM SECON CODA AMPLIT PERI AZIMU VELO SNR AR TRES W  DIS CAZ7
 BAR2 SZ ES   1    627  4.16                             170    -0.5 7   23 199 
 BAR2 SZ I         627  5.78         7.5 0.19                            23 199 
 BRR  HZ EP   1    626 50.98                             151    -0.2 7   75 298 
 BRR  HE ES   1    627  8.00                             151     0.3 7   75 298 
 BRR  HZ I         627 10.34         4.1 0.13                            75 298 
 PAM  SZ EP   1    626 52.00                             151     0.0 7   76  37 
 RUS  HZ EP   1    626 53.81                             144     0.3 7   99 178 
 RUS  HN ES   1    627 12.08                             144     0.2 7   99 178 
 RUS  HZ I         627 13.04         3.3 0.36                            99 178 
 CHI  HZ EP   1    627  7.30                             117    -0.3 6  248 196 
 CHI  HN ES   1    627 36.82                             117    -0.1 6  248 196 
                                                                                
