 2013 1028 0227 48.8 L   6.820 -73.174144.2  RSN 10 0.4 1.9LRSN                1
 GAP=132        0.79       2.9     3.8  5.8 -0.1771E+01  0.6641E+01 -0.2001E+00E
 Epicentro: LOS SANTOS - SANTANDER                                             3
 ACTION:UPD 13-11-25 09:24 OP:ep   STATUS:               ID:20131028022748 L   I
 OLDACT:REG 13-10-28 08:12 OP:jn   STATUS:               ID:20131028022000     3
 2013-10-28-0220-00M.COL___273                                                 6
 STAT SP IPHASW D HRMM SECON CODA AMPLIT PERI AZIMU VELO AIN AR TRES W  DIS CAZ7
 BAR2 SZ EP        228  8.26                             170    0.0310 25.2 182 
 BAR2 SZ ES        228 23.52                             170    0.1010 25.2 182 
 BAR2 SZ I         228 24.46        18.0 0.26            164           25.2 182 
 PAM  SZ EP        228 11.15                             150    0.3310 77.8  42 
 PAM  SN ES        228 28.39                             150    0.3510 77.8  42 
 PAM  SZ I         228 30.44        11.8 0.48            141           77.8  42 
 RUS  HZ EP        228 12.15                             143   -0.3810  103 174 
 RUS  HN ES        228 30.65                             143   -0.4310  103 174 
 RUS  HZ I         228 32.07         4.9 0.48            130            103 174 
 PTB  HZ EP   1    228 15.23                             132   -0.12 7  145 258 
 PTB  HN ES        228 35.86                             132   -0.23 9  145 258 
 PTB  HZ I         228 42.14         9.4 0.22            119            145 258 
 OCA  HN ES   1    228 37.66                             130   -0.83 7  158 354 
 OCA  HZ I         228 43.46         7.9 0.34            118            158 354 
 SPBC HZ EP        228 17.16                             129    0.05 9  163 218 
 SPBC HN ES        228 39.68                             129    0.45 9  163 218 
 SPBC HZ I         228 44.34        10.2 0.18            116            163 218 
 ZAR  HN ES   1    228 46.01                             123    0.39 6  200 292 
 ZAR  HZ I         228 51.89         7.8 0.32            111            200 292 
 SML  HN ES   1    228 53.02                             117   -0.12 6  240 336 
 GUY2CHZ EP   2    228 32.46                             112    0.32 4  300 234 
 GUY2CHZ I         229 14.97         4.2 0.36                           300 234 
 PRA  HZ EP   1    228 42.65                             106    0.39 4  392 209 
 PRA  HZ I         229 28.97         2.8 0.42             96            392 209 
                                                                                
