 2015  828 0109  9.7 L   6.795 -73.125147.9  RSN  9 0.4 1.7LRSN                1
 GAP=139        1.00       3.0     4.7  6.5 -0.2453E+01  0.1334E+02 -0.1658E+01E
 Epicentro: LOS SANTOS - SANTANDER                                             3
 ACTION:UPD 15-09-15 23:05 OP:cam  STATUS:               ID:20150828010909 L   I
 OLDACT:REG 15-08-28 13:04 OP:ak   STATUS:               ID:20150828010749     3
 2015-08-28-0107-49M.COL___364                                                 6
 STAT SP IPHASW D HRMM SECON CODA AMPLIT PERI AZIMU VELO AIN AR TRES W  DIS CAZ7
 BAR2 EZ EP        1 9 29.86                             171    0.2610 23.3 196 
 BAR2 EZ ES        1 9 45.12                             171    0.0010 23.3 196 
 BAR2 EZ I         1 9 47.76         9.5 0.36            169           23.3 196 
 PAM  EZ EP        1 9 32.70                             151    0.6010 76.3  38 
 PAM  EN ES        1 9 49.97                             151    0.4110 76.3  38 
 PAM  EZ I         1 9 52.23         5.4 0.30            156           76.3  38 
 RUS  HZ EP        1 9 33.38                             144   -0.2510 99.9 177 
 RUS  HN ES        1 9 51.80                             144   -0.4910 99.9 177 
 RUS  HZ I         1 9 53.59         3.3 0.10            149           99.9 177 
 SPBC HZ EP        1 9 38.62                             129    0.14 9  164 220 
 SPBC HN ES        110  0.51                             129   -0.41 9  164 220 
 SPBC HZ I         110  6.78         9.9 0.13            131            164 220 
 ZAR  HZ EP        1 9 42.70                             122    0.16 8  206 292 
 ZAR  HN ES        110  8.08                             122   -0.07 8  206 292 
 ZAR  HZ I         110 16.46         4.9 0.11            124            206 292 
 NOR  HN ES        110 14.16                             119    0.32 8  236 235 
 NOR  HZ I         110 18.16         5.2 0.26            121            236 235 
 SML  HZ EP        1 9 46.40                             118   -0.22 8  245 335 
 SML  HN ES        110 14.50                             118   -0.91 8  245 335 
 SML  HZ I         110 18.72         7.4 0.16            120            245 335 
 CHI  HZ EP        1 9 46.95                             117   -0.59 8  249 196 
 CHI  HN ES        110 17.02                             117   -0.03 8  249 196 
 GUY2CHZ EP   1    1 9 53.91                             113    0.31 5  303 235 
 GUY2CHN ES        110 28.67                             113    0.83 7  303 235 
 GUY2CHZ I         110 36.68         3.0 0.06                           303 235 
                                                                                
