 2011  628 0251 55.1 L   6.748 -73.098146.0  RSN  8 0.3 1.9LRSN                1
 GAP=162        0.61       2.7     4.9  4.7 -0.3595E+01 -0.2778E+01 -0.1795E+00E
 Epicentro: LOS SANTOS - SANTANDER                                             3
 ACTION:UP  11-07-14 19:08 OP:ep   STATUS:               ID:20110628025155 L   I
 2011-06-28-0247-51S.COL___140                                                 6
 STAT SP IPHASW D HRMM SECON CODA AMPLIT PERI AZIMU VELO SNR AR TRES W  DIS CAZ7
 BAR2 SZ EP        252 14.75                             172     0.110   20 208 
 BAR2 SZ ES   1    252 29.53                             172    -0.4 7   20 208 
 BAR2 SZ I         252 31.44        19.1 0.27                            20 208 
 BRR  HZ EP        252 16.53                             150    -0.210   79 300 
 BRR  HN ES        252 33.76                             150     0.210   79 300 
 BRR  HZ I         252 35.57        20.2 0.20                            79 300 
 RUS  HZ EP   1    252 18.24                             146    -0.2 7   95 179 
 RUS  HN ES   1    252 37.12                             146     0.5 7   95 179 
 RUS  HZ I         252 38.55        10.1 0.33                            95 179 
 BRI  SZ EP        252 19.31                             141     0.010  112  17 
 GRA  SZ EP        252 20.52                             136    -0.210  130  14 
 GRA  SZ ES   1    252 40.69                             136     0.0 7  130  14 
 GRA  SZ I         252 42.31         9.4 0.44                           130  14 
 OCA  SZ EP   1    252 24.03                             129     0.0 7  167 352 
 OCA  SZ ES   1    252 46.82                             129     0.2 7  167 352 
 OCA  SZ I         252 48.87        10.5 0.25                           167 352 
 NOR  SZ EP   1    252 30.61                             119    -0.3 6  236 236 
 NOR  SE ES   2    252 58.46                             119    -0.4 4  236 236 
 PRA  HZ EP   2    252 49.21                             107     0.9 3  390 211 
 PRA  HE ES   2    253 30.29                             107     0.4 3  390 211 
                                                                                
