 2012  728 0346  6.0 L   6.803 -73.158145.6  RSN 13 0.4 2.4LRSN                1
 GAP= 65        1.01       4.1     4.5  6.6  0.2060E+01  0.6633E+01  0.6065E+01E
 Epicentro: LOS SANTOS - SANTANDER                                             3
 ACTION:UPD 12-08-14 11:46 OP:ep   STATUS:               ID:20120728034606 L   I
 2012-07-28-0340-00M.COL___215                                                 6
 STAT SP IPHASW D HRMM SECON CODA AMPLIT PERI AZIMU VELO AIN AR TRES W  DIS CAZ7
 BAR2 SZ EP        346 25.72                             170     0.110   24 187 
 BAR2 SZ ES   1    346 40.75                             170    -0.2 7   24 187 
 BAR2 SZ I         346 42.02        68.8 0.20            148             24 187 
 BRR  HZ IP     C  346 27.51                             153     0.410   70 299 
 BRR  HN ES   1    346 44.26                             153     0.8 7   70 299 
 BRR  HZ I         346 46.85        45.3 0.20            129             70 299 
 PAM  SZ EP        346 28.58                             151     0.310   78  40 
 PAM  SZ I         346 28.84        53.2 0.20            145             78  40 
 PAM  SN ES   1    346 45.60                             151     0.0 7   78  40 
 RUS  HZ EP   1    346 29.82                             144     0.0 7  101 175 
 RUS  HN ES   1    346 47.90                             144    -0.4 7  101 175 
 RUS  HZ I         346 49.72        41.7 0.24            120            101 175 
 PTB  HZ EP        346 32.42                             132    -0.5 9  147 259 
 PTB  HE ES   2    346 53.40                             132    -0.4 5  147 259 
 PTB  HZ I         346 56.75        18.0 0.14            110            147 259 
 TAM  HZ IP     C  346 34.09                             130     0.3 9  156 105 
 TAM  HN ES   2    346 55.54                             130     0.0 5  156 105 
 OCA  HZ EP   1    346 33.68                             130    -0.6 7  160 354 
 OCA  HN ES   1    346 55.32                             130    -1.0 7  160 354 
 OCA  HZ I         346 58.85        55.3 0.20            114            160 354 
 YOP  SN ES   1    346 59.53                             126    -0.1 7  180 153 
 ZAR  HZ EP   2    346 37.98                             122    -0.3 4  203 292 
 ZAR  HN ES   2    347  3.78                             122     0.3 4  203 292 
 ZAR  HZ I         347 10.26        23.2 0.42            105            203 292 
 NOR  SZ EP        346 41.89                             119     0.2 8  234 234 
 NOR  SN ES   3    347  9.05                             119    -0.4 2  234 234 
 CHI  HZ EP        346 43.47                             117    -0.2 8  249 195 
 CHI  HZ I         347 16.86         9.7 0.40            102            249 195 
 HEL  HZ EP   1    346 46.97                             115     0.9 6  271 256 
 HEL  HZ I         347 26.30         9.9 0.22            101            271 256 
 PRA  HZ EP        346 59.13                             106    -0.4 6  392 209 
 PRA  HZ I         347 48.58        11.7 0.66             97            392 209 
