 2017  828 0521  2.4 L   6.804 -73.141148.2  RSN  5 0.2 1.6LRSN                1
 GAP=238        0.63       3.9     5.4  6.3  0.1157E+02  0.4640E+00  0.1175E+01E
 Epicentro: LOS SANTOS - SANTANDER                                             3
 ACTION:UPD 17-09-04 20:25 OP:rebc STATUS:               ID:20170828052102 L   I
 OLDACT:REG 17-08-28 12:33 OP:dhb  STATUS:               ID:20170828051740     3
 2017-08-28-0518-00M.COL___417                                                 6
 STAT SP IPHASW D HRMM SECON CODA AMPLIT PERI AZIMU VELO AIN AR TRES W  DIS CAZ7
 BAR2 EZ I         521 38.62       121.7 0.03            171           23.8 191 
 BRR  HZ EP        521 23.89                             153    0.0710 71.4 298 
 BRR  HN ES        521 40.79                             153    0.2510 71.4 298 
 BRR  HZ I         521 48.52         2.2 0.58            155           71.4 298 
 RUS  HZ EP        521 26.48                             144    0.0610  101 176 
 RUS  HN ES        521 44.83                             144   -0.3210  101 176 
 RUS  HZ I         521 53.74                             149            101 176 
 SPBC HZ EP        521 31.21                             129    0.06 9  164 219 
 SPBC HN ES        521 53.80                             129    0.23 9  164 219 
 SPBC HZ I         521 56.49         1.7 0.13            134            164 219 
 ZAR  HE ES        522  0.07                             123   -0.42 9  204 292 
 ZAR  HZ I         522  5.96         1.6 0.21            128            204 292 
                                                                                
