 2013  328 0218 54.4 L   6.703 -73.216144.2  RSN  4 0.4 1.4LRSN                1
 GAP=214        0.76       7.6     8.1  8.9  0.3094E+02  0.3975E+01 -0.2642E+01E
 Epicentro: VILLANUEVA - SANTANDER                                             3
 ACTION:UPD 13-04-09 14:05 OP:ep   STATUS:               ID:20130328021854 L   I
 2013-03-28-0210-00M.COL___245                                                 6
 STAT SP IPHASW D HRMM SECON CODA AMPLIT PERI AZIMU VELO AIN AR TRES W  DIS CAZ7
 BAR2 SZ ES   2    219 28.23                             175   -0.52 5 12.7 163 
 BRR  HZ EP        219 15.11                             153   -0.2810 70.8 309 
 BRR  HN ES   1    219 32.26                             153    0.52 7 70.8 309 
 BRR  HZ I         219 37.07         5.7 0.12            153           70.8 309 
 RUS  HZ EP   1    219 17.92                             147    0.57 7 90.8 171 
 RUS  HN ES   1    219 35.07                             147   -0.14 7 90.8 171 
 RUS  HZ I         219 36.81         3.3 0.36            153           90.8 171 
 PTB  HZ EP   1    219 20.12                             134   -0.32 7  138 263 
 PTB  HN ES   1    219 40.79                             134    0.08 7  138 263 
 PTB  HZ I         219 43.68         3.3 0.38            137            138 263 
                                                                                
