 2014  728 0742 22.6 L   6.856 -73.163122.6  RSN  6 0.4 1.8LRSN                1
 GAP=200        0.99       4.7     6.3 13.2  0.1545E+01  0.2189E+02 -0.3193E+02E
 Epicentro: ZAPATOCA - SANTANDER                                               3
 ACTION:UPD 15-03-16 20:47 OP:nd   STATUS:               ID:20140728074222 L   I
 OLDACT:REG 14-07-28 12:56 OP:mh   STATUS:               ID:20140728074000     3
 2014-07-28-0740-00M.COL___282                                                 6
 STAT SP IPHASW D HRMM SECON CODA AMPLIT PERI AZIMU VELO AIN AR TRES W  DIS CAZ7
 BAR2 SZ EP        742 40.53                             166    0.9510 29.2 184 
 RUS  HZ EP        742 44.43                             137   -0.2110  107 175 
 RUS  HN ES        743  1.53                             137   -0.3310  107 175 
 PTB  HZ EP        742 47.45                             126   -0.26 9  147 256 
 PTB  HN ES   1    743  7.44                             126    0.12 7  147 256 
 PTB  HZ I         743 10.22         5.2 0.14            130            147 256 
 SPBC HZ EP   1    742 49.54                             123   -0.24 7  167 217 
 SPBC HN ES   1    743 10.63                             123   -0.38 7  167 217 
 SML  HZ EP        742 57.20                             113   -0.09 8  237 335 
 SML  HN ES        743 24.01                             113   -0.36 8  237 335 
 SML  HZ I         743 30.79         7.1 0.08            116            237 335 
 HEL  HZ EP   1    743  2.33                             110    0.64 6  272 254 
 HEL  HN ES   1    743 32.55                             110    0.35 6  272 254 
                                                                                
