 2011 1028 0628 26.1 L   6.846 -73.075146.4  RSN  5 0.3 1.5LRSN                1
 GAP=143        0.47       5.0     5.3  7.5  0.5257E+01  0.4831E+01  0.3392E+00E
 Epicentro: LOS SANTOS - SANTANDER                                             3
 ACTION:UPD 12-07-13 16:06 OP:ep   STATUS:               ID:20111028062826 L   I
 2011-10-28-0625-32S.COL___175                                                 6
 STAT SP IPHASW D HRMM SECON CODA AMPLIT PERI AZIMU VELO AIN AR TRES W  DIS CAZ7
 BAR2 SZ EP   2    628 45.63                             168   -0.33 5 30.4 203 
 BAR2 SZ ES   2    629  1.16                             168   -0.30 5 30.4 203 
 BAR2 SZ I         629  2.34         7.8 0.24                          30.4 203 
 PAM  SZ EP   2    628 48.09                             154    0.21 5 68.6  37 
 PAM  SN ES   2    629  4.68                             154   -0.19 5 68.6  37 
 BRR  HZ EP   2    628 47.77                             151    0.18 5 76.1 292 
 BRR  HE ES   2    629  4.95                             151    0.59 5 76.1 292 
 BRR  HZ I         629  7.40         7.5 0.37                          76.1 292 
 RUS  HZ EP   2    628 50.36                             143    0.10 5  105 180 
 RUS  HN ES   2    629  9.20                             143    0.09 5  105 180 
 RUS  HZ I         629 10.34         4.5 0.36                           105 180 
 ZAR  HN ES   2    629 24.41                             122   -0.51 4  209 290 
 ZAR  HZ I         629 26.41         3.2 0.10                           209 290 
                                                                                
