 2013  428 0214 15.5 L   6.758 -73.141147.1  RSN  6 0.5 1.2LRSN                1
 GAP=139        0.93       5.8     5.7 10.5 -0.6949E+01  0.5037E+01  0.5512E+01E
 Epicentro: LOS SANTOS - SANTANDER                                             3
 ACTION:UPD 13-05-22 14:41 OP:EP   STATUS:               ID:20130428021415 L   I
 2013-04-28-0210-00M.COL___248                                                 6
 STAT SP IPHASW D HRMM SECON CODA AMPLIT PERI AZIMU VELO AIN AR TRES W  DIS CAZ7
 BRR  HZ EP        214 37.17                             152    0.1710 74.0 301 
 BRR  HE ES   1    214 54.66                             152    0.93 7 74.0 301 
 BRR  HZ I         214 58.24         2.7 0.14            152           74.0 301 
 PAM  SZ EP   1    214 38.09                             150   -0.01 7 80.7  37 
 PAM  SE ES   1    214 55.11                             150   -0.58 7 80.7  37 
 RUS  HZ EP   1    214 39.58                             145    0.48 7 95.9 176 
 RUS  HN ES   1    214 57.39                             145   -0.08 7 95.9 176 
 RUS  HZ I         214 58.94         2.0 0.44            149           95.9 176 
 PTB  HZ EP   1    214 42.27                             132   -0.33 7  147 261 
 PTB  HN ES        215  3.13                             132   -0.57 9  147 261 
 PTB  HZ I         215  7.12         2.4 0.10            135            147 261 
 OCA  HN ES   2    215  7.02                             129    0.12 5  165 353 
 NOR  HE ES   2    215 19.09                             119    0.23 4  232 235 
                                                                                
