 2016  628 0630  1.9 L   7.385 -73.390111.5  RSN 18 0.4 2.0LRSN                1
 GAP= 91        0.86       1.9     2.2  4.2 -0.3466E+00  0.3097E+01 -0.8544E+00E
 Epicentro: SABANA DE TORRES - SANTANDER                                       3
 ACTION:UPD 16-07-21 22:23 OP:rebc STATUS:               ID:20160628063001 L   I
 OLDACT:UP  16-06-28 16:37 OP:edw  STATUS:               ID:20160628062744     3
 OLDACT:UP  16-06-28 16:31 OP:edw  STATUS:               ID:20160628062744     3
 OLDACT:UP  16-06-28 16:13 OP:edw  STATUS:               ID:20160628062744     3
 OLDACT:REG 16-06-28 13:12 OP:edw  STATUS:               ID:20160628062744     3
 2016-06-28-0627-44M.COL___334                                                 6
 STAT SP IPHASW D HRMM SECON CODA AMPLIT PERI AZIMU VELO AIN AR TRES W  DIS CAZ7
 BRR  HZ EP        630 17.67                             155   -0.3110 47.0 229 
 BRR  HN ES        630 30.63                             155    0.0910 47.0 229 
 BRR  HZ I         630 31.97        34.6 0.48                          47.0 229 
 PAM  EZ EP        630 20.45                             143   -0.0710 76.4  94 
 PAM  EN ES        630 35.61                             143    0.5610 76.4  94 
 BAR2 EZ EP        630 21.13                             138   -0.1310 90.6 165 
 BAR2 EZ ES        630 36.25                             138   -0.1310 90.6 165 
 BAR2 EZ I         630 37.00        37.3 0.14                          90.6 165 
 PTB  HZ EP        630 26.25                             122   -0.33 9  150 232 
 PTB  HN ES        630 45.57                             122   -0.27 9  150 232 
 PTB  HZ I         630 48.62        12.4 0.16                           150 232 
 ZAR  HZ EP        630 27.66                             120   -0.17 9  162 274 
 ZAR  HN ES        630 48.61                             120    0.54 9  162 274 
 ZAR  HZ I         630 50.97        26.2 0.26                           162 274 
 RUS  HZ EP        630 28.99                             119   -0.10 9  168 168 
 RUS  HE ES        630 49.95                             119   -0.36 9  168 168 
 RUS  HZ I         630 51.59         5.4 0.30                           168 168 
 TAM  HE ES        630 56.70                             114    0.20 8  206 121 
 SPBC HZ EP        630 32.95                             114    0.28 8  206 202 
 SPBC HN ES        630 56.25                             114   -0.43 8  206 202 
 SPBC HZ I         631  7.28        12.3 0.18                           206 202 
 URE  HZ EP        630 36.46                             110    0.03 8  240 280 
 URE  HN ES   4    631  1.74                             110   -1.64 0  240 280 
 NOR  HZ EP        630 38.36                             108   -0.38 8  259 219 
 NOR  HE ES        631  7.25                             108   -0.24 8  259 219 
 NOR  HZ I         631 14.33         6.2 0.24                           259 219 
 LL6C HZ EP        630 37.97                             108   -0.80 8  260   3 
 LL6C HE ES        631  7.25                             108   -0.29 8  260   3 
 HEL  HZ EP        630 41.31                             107    0.86 8  271 241 
 HEL  HN ES        631 10.25                             107   -0.28 8  271 241 
 HEL  HZ I         631 19.02         3.4 0.18                           271 241 
 ARGC HZ EP        630 41.90                             105   -0.26 7  289 341 
 ARGC HE ES        631 14.03                             105    0.45 7  289 341 
 SOCV BZ EP   4    630 46.17                             105    3.12 0  297  70 
 SOCV BN ES   4    631 12.41                             105   -2.76 0  297  70 
 CHI  HZ EP        630 45.11                             104    0.35 7  307 187 
 CHI  HN ES        631 18.44                             104    0.24 7  307 187 
 CHI  HZ I         631 32.59         4.6 0.60                           307 187 
 GUY2CHZ EP        630 47.87                             103    1.05 7  324 223 
 GUY2CHE ES        631 22.22                             103    0.35 7  324 223 
 GUY2CHZ I         631 32.33         3.5 0.28                           324 223 
 CBOC HZ EP        630 47.84                             103    0.04 7  335 240 
 CBOC HE ES        631 23.73                             103    0.11 7  335 240 
 SJC  HZ EP   4    630 46.48                             102   -1.83 0  341 325 
 SJC  HN ES   4    631 21.22                             102   -3.29 0  341 325 
 CRJC HZ EP   4    630 53.55                              99   -2.63 0  406   8 
 CRJC HN ES   4    631 36.64                              99   -1.89 0  406   8 
 CRJC HZ I         631 38.81         6.7 0.36                           406   8 
 PRA  HZ EP        631  0.44                              98    0.40 5  438 202 
 PRA  HN ES        631 45.38                              98   -0.02 5  438 202 
 PRA  HZ I         631 59.51         3.3 0.38                           438 202 
                                                                                
