 2014  528 0412 11.8 L   6.808 -73.137146.1  RSN 18 0.5 2.1LRSN                1
 GAP=137        1.06       3.1     4.2  5.4 -0.4884E+00  0.7272E+01  0.1642E+01E
 Epicentro: LOS SANTOS - SANTANDER                                             3
 ACTION:UPD 15-03-16 17:01 OP:nd   STATUS:               ID:20140528041211 L   I
 OLDACT:UP  14-05-28 13:50 OP:cam  STATUS:               ID:20140528041000     3
 OLDACT:UP  14-05-28 13:50 OP:cam  STATUS:               ID:20140528041000     3
 OLDACT:REG 14-05-28 12:56 OP:cam  STATUS:               ID:20140528041000     3
 2014-05-28-0410-00M.COL___276                                                 6
 STAT SP IPHASW D HRMM SECON CODA AMPLIT PERI AZIMU VELO AIN AR TRES W  DIS CAZ7
 BAR2 SZ EP     C  412 31.51                             170    0.0210 24.4 192 
 BAR2 SZ ES        412 46.75                             170   -0.1110 24.4 192 
 BAR2 SZ I         412 47.76        26.2 0.32            163           24.4 192 
 BRR  HZ IP     C  412 33.36                             152    0.3510 71.6 298 
 BRR  HE ES        412 49.94                             152    0.3810 71.6 298 
 BRR  HZ I         412 53.26        19.4 0.60            143           71.6 298 
 PAM  SZ EP   1    412 34.44                             151    0.46 7 76.1  39 
 PAM  SN ES        412 51.36                             151    0.0910 76.1  39 
 PAM  SZ I         412 53.61        26.6 0.54            149           76.1  39 
 RUS  HZ EP        412 35.45                             144   -0.2010  101 177 
 RUS  HE ES        412 54.46                             144    0.2210  101 177 
 RUS  HZ I         412 57.21         8.0 0.24            134            101 177 
 PTB  HZ EP        412 38.26                             132   -0.64 9  149 259 
 PTB  HN ES        412 59.32                             132   -0.71 9  149 259 
 PTB  HZ I         413  6.65        28.0 0.36            122            149 259 
 SPBC HZ EP        412 40.47                             129    0.02 9  164 219 
 SPBC HE ES        413  2.19                             129   -0.60 9  164 219 
 SPBC HZ I         413 10.06        19.2 0.16            119            164 219 
 ZAR  HZ EP        412 44.19                             122   -0.14 9  205 292 
 ZAR  HN ES        413 10.55                             122    0.85 9  205 292 
 ZAR  HZ I         413 17.79        10.5 0.38            114            205 292 
 NOR  HZ EP        412 48.04                             118    0.35 8  236 234 
 NOR  HN ES        413 15.52                             118   -0.16 8  236 234 
 NOR  HZ I         413 21.54        13.6 0.16            110            236 234 
 SML  HZ EP        412 47.78                             118   -0.62 8  243 335 
 SML  HN ES        413 16.35                             118   -0.60 8  243 335 
 SML  HZ I         413 19.74        22.6 0.26            111            243 335 
 CHI  HZ EP   1    412 49.90                             117    0.26 6  250 195 
 CHI  HN ES        413 18.94                             117   -0.21 8  250 195 
 CHI  HZ I         413 28.62         5.3 0.40            109            250 195 
 HEL  HZ EP   4    412 53.88                             115    1.72 0  273 256 
 HEL  HZ I         413 30.29         8.7 0.34            107            273 256 
 GUY2CHZ EP        412 56.70                             112    1.13 7  302 235 
 GUY2CHN ES   4    413 34.00                             112    4.29 0  302 235 
 GUY2CHZ I         413 36.60         6.3 0.40                           302 235 
 RREF HZ EP   4    412 59.69                             111    1.58 0  323 229 
 RREF HZ I         413 43.50         6.4 0.24            104            323 229 
 CBOC HZ EP   4    413  0.21                             110    1.34 0  335 252 
 CBOC HN ES   1    413 36.48                             110    0.90 5  335 252 
 CBOC HZ I         413 43.64         2.4 0.40            103            335 252 
 PRA  HZ EP   1    413  4.92                             106   -0.56 4  393 210 
 PRA  HN ES   2    413 48.08                             106    0.73 3  393 210 
 ORTC HZ EP        413  5.76                             106   -0.12 6  397 216 
 ORTC HN ES   2    413 49.31                             106    1.24 3  397 216 
 ORTC HZ I         413 55.03         3.2 0.64            100            397 216 
 SJC  HZ EP   4    413  5.76                             106   -1.59 0  409 327 
 SJC  HN ES   4    413 46.65                             106   -4.02 0  409 327 
 SJC  HZ I         413 51.14         4.5 0.58            100            409 327 
 GR1C SE E         416  5.45                                            699 233 
                                                                                
