 2016  128 0835 12.0 L   6.838 -73.199142.0  RSN 20 0.4 2.0LRSN                1
 GAP=128        0.95       2.2     3.5  5.1 -0.1158E+01  0.8400E+01 -0.6056E+00E
 Epicentro: ZAPATOCA - SANTANDER                                               3
 ACTION:UPD 16-03-09 23:29 OP:cam  STATUS:               ID:20160128083512 L   I
 OLDACT:UP  16-01-28 16:46 OP:cara STATUS:               ID:20160128082749     3
 OLDACT:UP  16-01-28 16:45 OP:cara STATUS:               ID:20160128082749     3
 OLDACT:REG 16-01-28 14:04 OP:cara STATUS:               ID:20160128082749     3
 2016-01-28-0827-49M.COL___324                                                 6
 STAT SP IPHASW D HRMM SECON CODA AMPLIT PERI AZIMU VELO AIN AR TRES W  DIS CAZ7
 BAR2 EZ EP        835 31.29                             169    0.0210 27.3 176 
 BAR2 EZ ES        835 46.03                             169   -0.2610 27.3 176 
 BAR2 EZ I         835 48.81        30.7 0.26            168           27.3 176 
 PAM  EZ EP        835 34.11                             150    0.2410 78.2  45 
 PAM  EN ES        835 51.29                             150    0.3710 78.2  45 
 PAM  EZ I         835 53.38        19.8 0.48            157           78.2  45 
 RUS  HZ EP        835 35.59                             142   -0.1510  105 173 
 RUS  HN ES        835 54.27                             142    0.0110  105 173 
 RUS  HZ I         835 55.01        14.3 0.22            146            105 173 
 PTB  HZ EP        835 38.05                             132   -0.17 9  143 257 
 PTB  HN ES        835 59.34                             132    0.66 9  143 257 
 PTB  HZ I         836  6.21        11.6 0.52            132            143 257 
 OCA  HZ EP        835 39.78                             130    0.21 9  155 355 
 OCA  HE ES        836  0.76                             130   -0.31 9  155 355 
 OCA  HZ I         836  6.09        22.3 0.32            132            155 355 
 SPBC HZ EP        835 40.28                             128    0.09 9  163 216 
 SPBC HN ES        836  1.65                             128   -0.53 9  163 216 
 SPBC HZ I         836  4.93        28.4 0.20            130            163 216 
 ZAR  HZ EP        835 43.87                             122    0.39 9  197 292 
 ZAR  HN ES   4    836  9.40                             122    1.37 0  197 292 
 ZAR  HZ I         836 16.21         6.5 0.42            123            197 292 
 NOR  HZ EP        835 47.43                             118    0.15 8  232 233 
 NOR  HN ES        836 14.77                             118   -0.02 8  232 233 
 NOR  HZ I         836 20.16         8.9 0.26            119            232 233 
 SML  HZ EP        835 47.34                             117   -0.40 8  237 336 
 SML  HN ES        836 15.63                             117    0.02 8  237 336 
 SML  HZ I         836 19.19        13.1 0.28            120            237 336 
 CHI  HZ EP        835 49.44                             116   -0.34 8  251 194 
 CHI  HE ES        836 19.06                             116   -0.19 8  251 194 
 CHI  HZ I         836 20.87         3.3 0.38            119            251 194 
 HEL  HZ EP        835 52.32                             114    0.81 8  267 255 
 HEL  HN ES   4    836 20.67                             114   -1.66 0  267 255 
 HEL  HZ I         836 31.11         4.8 0.28            116            267 255 
 URE  HZ EP        835 51.49                             113   -0.61 7  277 292 
 URE  HN ES        836 22.55                             113   -0.83 7  277 292 
 GUY2CHZ EP   4    835 57.00                             112    1.82 0  299 233 
 GUY2CHE ES   4    836 31.09                             112    2.23 0  299 233 
 GUY2CHZ I         836 41.92         4.3 0.50                           299 233 
 PTGC HZ EP   4    835 53.99                             110   -2.40 0  315 158 
 PTGC HN ES   4    836 26.75                             110   -4.26 0  315 158 
 ELA  HZ EP   4    836  0.05                             110    1.54 0  327 228 
 ELA  HN ES        836 35.71                             110    0.93 7  327 228 
 ELA  HZ I         836 47.80         3.5 0.44            112            327 228 
 CBOC HZ EP   4    836  0.00                             109    1.72 0  329 251 
 CBOC HN ES        836 34.52                             109    0.15 7  329 251 
 CBOC HZ I         836 40.58         1.4 0.18            111            329 251 
 DBB  SZ EP        835 59.47                             109    0.85 7  333 274 
 DBB  SZ ES   4    836 31.60                             109   -3.38 0  333 274 
 MON  HZ EP   4    835 58.55                             108   -1.47 0  346 308 
 MON  HE ES        836 36.95                             108   -0.53 6  346 308 
 PRA  HZ EP        836  5.27                             106   -0.22 6  393 209 
 PRA  HN ES        836 46.43                             106   -0.79 6  393 209 
 PRA  HZ I         836 53.67         4.0 0.32            108            393 209 
 ORTC HZ EP        836  5.78                             106   -0.02 6  395 215 
 ORTC HN ES   4    836 49.25                             106    1.49 0  395 215 
 ORTC HZ I         836 53.96         2.7 0.20            108            395 215 
 SJC  HZ EP   4    836  5.48                             105   -1.17 0  402 327 
 SJC  HN ES   4    836 46.41                             105   -2.86 0  402 327 
 SJC  HZ I         836 54.33         1.9 0.58            107            402 327 
                                                                                
