 2012  228 0515 59.6 L   7.398 -73.157127.3  RSN  5 0.2 1.5LRSN                1
 GAP=264        0.35       4.6     3.8  4.6  0.8327E+01 -0.4012E+01 -0.3524E+01E
 ACTION:UP  12-03-07 16:35 OP:epov STATUS:               ID:20120228051559 L   I
 2012-02-28-0510-00M.COL___191                                                 6
 STAT SP IPHASW D HRMM SECON CODA AMPLIT PERI AZIMU VELO AIN AR TRES W  DIS CAZ7
 BRR  HZ EP        516 18.69                             150    0.0410 69.2 242 
 BRR  HN ES   1    516 33.39                             150   -0.13 7 69.2 242 
 BRR  HZ I         516 35.38         9.7 0.15                          69.2 242 
 BAR2 SZ ES   2    516 36.80                             143    0.26 5 89.2 182 
 BAR2 SZ I         516 38.31         5.5 0.14                          89.2 182 
 RUS  HZ EP   1    516 27.67                             124    0.05 7  167 177 
 RUS  HN ES   2    516 49.16                             124   -0.33 5  167 177 
 PTB  HZ EP   1    516 27.47                             123   -0.08 7  172 237 
 PTB  HN ES   1    516 49.50                             123    0.14 7  172 237 
 ZAR  HN ES   2    516 52.22                             120   -0.07 4  188 273 
                                                                                
