 2014  828 0714 26.4 L   6.763 -73.137141.8  RSN 13 0.5 1.7LRSN                1
 GAP=139        1.11       3.4     4.5  7.3 -0.1586E+01  0.9645E+01 -0.2105E+00E
 Epicentro: LOS SANTOS - SANTANDER                                             3
 ACTION:UPD 14-09-15 21:53 OP:nd   STATUS:               ID:20140828071426 L   I
 OLDACT:REG 14-08-28 13:17 OP:fm   STATUS:               ID:20140828070818     3
 2014-08-28-0708-18M.COL___263                                                 6
 STAT SP IPHASW D HRMM SECON CODA AMPLIT PERI AZIMU VELO AIN AR TRES W  DIS CAZ7
 BAR2 SZ EP        714 45.59                             172    0.0810 19.5 195 
 BAR2 SZ ES   1    715  1.08                             172    0.69 7 19.5 195 
 BAR2 SZ I         715  2.40        12.0 0.26            172           19.5 195 
 BRR  HZ EP        714 47.76                             151    0.4410 74.1 301 
 BRR  HN ES        715  4.39                             151    0.7710 74.1 301 
 BRR  HZ I         715  5.63        10.2 0.18            151           74.1 301 
 PAM  SZ EP        714 48.82                             149    0.4310 80.0  37 
 PAM  SN ES   1    715  4.64                             149   -0.87 7 80.0  37 
 PAM  SZ I         715  8.50        13.6 0.72            152           80.0  37 
 RUS  HZ EP        714 49.45                             144   -0.0410 96.4 176 
 RUS  HN ES        715  7.24                             144   -0.2310 96.4 176 
 RUS  HZ I         715  9.37         7.1 0.44            147           96.4 176 
 PTB  HZ EP        714 52.56                             131   -0.54 9  148 260 
 PTB  HN ES        715 13.35                             131   -0.55 9  148 260 
 PTB  HZ I         715 17.44         6.3 0.20            132            148 260 
 SPBC HZ EP   1    714 54.29                             129   -0.09 7  161 220 
 SPBC HN ES        715 15.97                             129   -0.21 9  161 220 
 SPBC HZ I         715 18.76         5.7 0.20            130            161 220 
 OCA  HN ES        715 16.50                             128   -0.50 9  165 353 
 OCA  HZ I         715 19.88         9.1 0.36            130            165 353 
 ZAR  HZ EP   1    714 59.60                             121    0.72 6  207 293 
 ZAR  HN ES        715 24.56                             121    0.37 8  207 293 
 ZAR  HZ I         715 26.54         5.3 0.20            122            207 293 
 SML  HZ EP   4    715  2.67                             116   -0.63 0  248 335 
 SML  HN ES        715 31.43                             116   -0.62 8  248 335 
 SML  HZ I         715 34.00         8.0 0.26            118            248 335 
 HEL  HZ EP   1    715  6.87                             114    0.43 6  272 257 
 HEL  HN ES   1    715 37.27                             114   -0.38 6  272 257 
 HEL  HZ I         715 44.05         1.7 0.26            115            272 257 
 GUY2CHZ EP   1    715 10.34                             112    0.66 5  300 236 
 GUY2CHN ES        715 43.15                             112   -0.27 7  300 236 
 GUY2CHZ I         715 50.81         1.5 0.24                           300 236 
 MON  HN ES   4    715 50.57                             108   -3.51 0  357 309 
 MON  HZ I         715 53.37         1.0 0.36            109            357 309 
 PRA  HZ EP   4    715 18.28                             106   -1.17 0  389 210 
 SJC  HZ EP   4    715 20.39                             105   -1.95 0  413 327 
 SJC  HN ES   4    716  1.52                             105   -4.43 0  413 327 
 SJC  HZ I         716 10.03         1.4 0.68            106            413 327 
                                                                                
