 2015 1128 0555 31.3 L   6.789 -73.169143.4  RSN  8 0.4 1.9LRSN                1
 GAP=134        1.15       4.6     4.6  7.3 -0.2476E+01  0.9652E+01  0.8622E+00E
 Epicentro: LOS SANTOS - SANTANDER                                             3
 ACTION:UPD 15-12-28 16:13 OP:cam  STATUS:               ID:20151128055531 L   I
 OLDACT:DUP 15-11-28 15:14 OP:drio STATUS:               ID:20151128054738d    3
 2015-11-28-0547-37M.COL___304                                                 6
 STAT SP IPHASW D HRMM SECON CODA AMPLIT PERI AZIMU VELO AIN AR TRES W  DIS CAZ7
 BAR2 EZ EP     C  555 50.59                             171    0.0110 21.8 184 
 BAR2 EZ ES        556  5.55                             171   -0.1010 21.8 184 
 BAR2 EZ I         556  6.52        17.0 0.36            170           21.8 184 
 BRR  HZ EP     C  555 52.45                             153    0.3810 69.5 300 
 BRR  HN ES        556  9.01                             153    0.7210 69.5 300 
 BRR  HZ I         556 12.61        14.3 0.30            150           69.5 300 
 PAM  EZ EP        555 53.44                             149    0.0510 80.0  40 
 PAM  EE ES        556 10.09                             149   -0.5610 80.0  40 
 PAM  EZ I         556 12.55        14.3 0.48            154           80.0  40 
 RUS  HZ EP        555 54.59                             144   -0.1210 99.6 175 
 RUS  HN ES        556 13.54                             144    0.5410 99.6 175 
 RUS  HZ I         556 14.28         5.2 0.26            147           99.6 175 
 PTB  HZ EP        555 57.49                             132   -0.30 9  145 259 
 PTB  HN ES        556 17.65                             132   -0.82 9  145 259 
 PTB  HZ I         556 25.61         8.1 0.28            132            145 259 
 SPBC HZ EP        555 59.57                             129    0.23 9  161 219 
 SPBC HE ES        556 20.51                             129   -0.72 9  161 219 
 SPBC HZ I         556 25.53        11.9 0.10            130            161 219 
 OCA  HE ES   4    556 19.94                             129   -1.55 0  161 354 
 ZAR  HZ EP        556  3.34                             122   -0.02 9  202 293 
 ZAR  HN ES        556 28.54                             122    0.15 9  202 293 
 ZAR  HZ I         556 34.57        10.7 0.26            123            202 293 
 NOR  HE ES        556 34.66                             118    0.58 8  232 234 
 NOR  HZ I         556 39.55         6.0 0.28            120            232 234 
                                                                                
