 2012 1128 0712 25.4 L   7.348 -73.463 99.1  RSN  8 0.6 1.9LRSN                1
 GAP= 81        1.31       4.0     5.6 12.8  0.1065E+01  0.3358E+02  0.1172E+02E
 Epicentro: SABANA DE TORRES - SANTANDER                                       3
 ACTION:UPD 12-12-05 15:36 OP:}ep  STATUS:               ID:20121128071225 L   I
 2012-11-28-0710-00M.COL___234                                                 6
 STAT SP IPHASW D HRMM SECON CODA AMPLIT PERI AZIMU VELO AIN AR TRES W  DIS CAZ7
 PAM  SZ EP        712 43.56                             138    0.0810 84.3  91 
 PAM  SN ES        712 57.96                             138    0.3710 84.3  91 
 PAM  SN I         712 59.23         8.9 0.40                          84.3  91 
 BAR2 SZ EP        712 43.86                             135    0.3010 89.2 160 
 OCA  HZ EP        712 44.34                             132   -0.0510 99.7   9 
 OCA  HN ES        712 59.21                             132    0.0010 99.7   9 
 OCA  HN I         712 59.73        31.4 0.22                          99.7   9 
 PTB  HZ EP        712 48.22                             121   -0.16 9  142 231 
 PTB  HN ES        713  6.53                             121    0.22 9  142 231 
 PTB  HN I         713  8.65        15.8 0.18                           142 231 
 ZAR  HZ EP        712 50.50                             119    0.71 9  155 276 
 ZAR  HN I         713 13.05        27.2 0.30                           155 276 
 RUS  HZ EP        712 51.83                             117    0.16 9  166 165 
 RUS  HN ES        713 10.91                             117   -1.26 9  166 165 
 RUS  HN I         713 17.01         4.2 0.42                           166 165 
 SML  HZ EP        712 51.07                             116   -0.83 9  174 337 
 SML  HN ES   2    713 11.64                             116   -0.92 4  174 337 
 SML  HN I         713 17.33        26.1 0.12                           174 337 
 CHI  HZ EP        713  8.14                             104    0.79 7  302 186 
 CHI  HN I         713 47.35         4.1 0.30                           302 186 
                                                                                
