 2014 1028 0610  0.6 L   6.794 -73.112148.6  RSN 16 0.5 2.0LRSN                1
 GAP=141        1.17       4.2     5.8  6.3 -0.4946E+01  0.6742E+01  0.7109E+01E
 Epicentro: LOS SANTOS - SANTANDER                                             3
 ACTION:UPD 14-11-29 23:57 OP:nd   STATUS:               ID:20141028061000 L   I
 OLDACT:UP  14-10-30 17:45 OP:cam  STATUS:               ID:20141028060810     3
 OLDACT:UP  14-10-30 17:45 OP:cam  STATUS:               ID:20141028060810     3
 OLDACT:UP  14-10-30 17:45 OP:cam  STATUS:               ID:20141028060810     3
 OLDACT:REG 14-10-30 15:08 OP:cam  STATUS:               ID:20141028060810     3
 2014-10-28-0608-10M.COL___271                                                 6
 STAT SP IPHASW D HRMM SECON CODA AMPLIT PERI AZIMU VELO AIN AR TRES W  DIS CAZ7
 BAR2 SZ EP     C  610 20.56                             171   -0.0210 23.7 199 
 BAR2 SZ ES        610 36.38                             171    0.2110 23.7 199 
 BAR2 SZ I         610 38.11        11.6 0.28            169           23.7 199 
 BRR  HZ EP     D  610 22.43                             152    0.1610 74.8 298 
 BRR  HN ES        610 39.92                             152    0.7610 74.8 298 
 BRR  HZ I         610 41.98         9.4 0.20            150           74.8 298 
 PAM  SZ EP        610 23.43                             152    0.4110 75.6  37 
 PAM  SE ES        610 40.23                             152   -0.2710 75.6  37 
 PAM  SZ I         610 42.51        11.4 0.20            156           75.6  37 
 RUS  HZ EP        610 24.39                             145   -0.1910 99.8 178 
 RUS  HE ES        610 42.89                             145   -0.3910 99.8 178 
 RUS  HZ I         610 44.35         5.4 0.42            147           99.8 178 
 PTB  HZ EP        610 27.23                             132   -0.90 9  151 259 
 PTB  HN ES        610 48.78                             132   -0.81 9  151 259 
 PTB  HZ I         610 54.50        13.4 0.40            132            151 259 
 OCA  HN ES        610 51.31                             130   -0.27 9  161 352 
 OCA  HN I         610 54.52        40.9 0.26            132            161 352 
 SPBC HZ EP        610 29.53                             129    0.03 9  165 220 
 SPBC HN ES        610 52.52                             129    0.48 9  165 220 
 SPBC HN I         610 57.81        39.6 0.40            130            165 220 
 CHI  HZ EP        610 38.13                             118   -0.37 8  249 196 
 ROSC BZ EP        610 39.79                             117    0.76 8  254 212 
 HEL  HZ EP   4    610 42.61                             115    1.26 0  276 256 
 URE  HN ES   4    611 12.72                             114   -1.97 0  288 292 
 URE  HN I         611 21.55        10.8 0.28            115            288 292 
 GUY2CHZ EP   4    610 45.73                             113    1.08 0  304 235 
 GUY2CHE ES   4    611 22.68                             113    3.68 0  304 235 
 GUY2CHZ I         611 27.28         7.3 0.76                           304 235 
 RREF HZ EP   4    610 44.04                             111   -3.11 0  324 230 
 CBOC HZ EP        610 48.45                             110    0.43 7  337 252 
 TOL  SZ EP        610 49.85                             110    0.62 6  346 225 
 MON  HZ EP   4    610 48.14                             109   -1.96 0  357 308 
 MON  HN ES   4    611 26.08                             109   -2.63 0  357 308 
 MON  HZ I         611 28.95         2.0 0.42            110            357 308 
 PRA  HZ EP        610 54.12                             107   -0.26 6  393 210 
 SJC  HZ EP   4    610 54.79                             106   -1.77 0  412 327 
 SJC  HN ES   4    611 36.03                             106   -4.18 0  412 327 
 SJC  HN I         611 39.56         3.3 0.38            107            412 327 
                                                                                
