 2016  828 0256  6.8 L   6.830 -73.116131.2  RSN  7 0.5 1.4LRSN                1
 GAP=186        1.06       4.3     6.1  9.4  0.2491E+01  0.2413E+02 -0.5986E+01E
 Epicentro: LOS SANTOS - SANTANDER                                             3
 ACTION:UPD 16-10-29 15:40 OP:rebc STATUS:               ID:20160828025606 L   I
 OLDACT:DUP 16-08-28 14:25 OP:ak   STATUS:               ID:20160828024734d    3
 2016-08-28-0248-00M.COL___368                                                 6
 STAT SP IPHASW D HRMM SECON CODA AMPLIT PERI AZIMU VELO AIN AR TRES W  DIS CAZ7
 BAR2 EZ ES        256 38.93                             168    0.1510 27.3 196 
 BRR  HZ EP        256 26.74                             149    0.2810 72.6 295 
 BRR  HE ES   4    256 43.83                             149    2.02 0 72.6 295 
 BRR  HZ I         256 44.82         6.6 0.23                          72.6 295 
 RUS  HZ EP        256 29.09                             140   -0.2810  104 178 
 RUS  HE ES        256 47.25                             140    0.2510  104 178 
 RUS  HZ I         256 50.10         1.8 0.28                           104 178 
 PTB  HZ EP   2    256 33.03                             128    0.06 5  152 258 
 PTB  HN ES        256 52.91                             128   -0.49 9  152 258 
 PTB  HZ I         256 54.54         3.8 0.16                           152 258 
 OCA  HN ES        256 54.09                             127   -0.64 9  157 352 
 ZAR  HZ EP        256 39.15                             119    0.64 8  206 291 
 ZAR  HN ES        257  3.85                             119    0.58 8  206 291 
 ZAR  HZ I         257  9.68         5.4 0.15                           206 291 
 GUY2CHE ES        257 23.54                             109   -0.68 7  306 235 
                                                                                
