 2017  428 0026 21.7 L   6.766 -73.166138.9  RSN  6 0.3 1.3LRSN                1
 GAP=136        0.73       3.8     3.6  7.0 -0.8856E+00 -0.2186E+00  0.2299E+01E
 Epicentro: LOS SANTOS - SANTANDER                                             3
 ACTION:UPD 17-05-30 21:16 OP:jn   STATUS:               ID:20170428002621 L   I
 OLDACT:UP  17-04-28 14:04 OP:and  STATUS:               ID:20170428001747d    3
 OLDACT:DUP 17-04-28 14:03 OP:and  STATUS:               ID:20170428001747d    3
 OLDACT:UP  17-04-28 14:02 OP:and  STATUS:               ID:20170428001746     3
 OLDACT:UP  17-04-28 14:02 OP:and  STATUS:               ID:20170428001746     3
 OLDACT:REG 17-04-28 12:24 OP:and  STATUS:               ID:20170428001746     3
 2017-04-28-0018-00M.COL___362                                                 6
 STAT SP IPHASW D HRMM SECON CODA AMPLIT PERI AZIMU VELO AIN AR TRES W  DIS CAZ7
 BRR  HZ EP        026 42.08                             152   -0.0710 71.2 302 
 BRR  HN ES        026 58.43                             152    0.3510 71.2 302 
 PAM  EZ IP     D  026 43.27                             148   -0.2410 81.7  39 
 PAM  EN ES   2    027  0.15                             148   -0.34 5 81.7  39 
 PAM  EZ I         027  1.68         3.5 0.24            150           81.7  39 
 RUS  HZ EP        026 44.70                             144    0.1410 97.0 175 
 RUS  HN ES        027  2.65                             144    0.2910 97.0 175 
 RUS  HZ I         027  3.47         5.1 0.22            145           97.0 175 
 PTB  HZ EP   2    026 48.40                             132    0.51 5  145 260 
 PTB  HN ES        027  7.67                             132   -0.62 9  145 260 
 PTB  HZ I         027 11.14         2.1 0.36            132            145 260 
 ZAR  HN ES   2    027 19.12                             121    0.51 4  203 293 
 NOR  HZ EP   2    026 56.72                             118    0.07 4  231 235 
 NOR  HN ES        027 23.78                             118   -0.09 8  231 235 
 NOR  HZ I         027 25.69         1.6 0.16            119            231 235 
                                                                                
