 2016  128 0949 10.0 L   6.544 -73.507104.7  RSN  9 0.3 1.5LRSN                1
 GAP= 65        0.81       2.4     3.4  5.4 -0.3027E+01  0.7590E+01 -0.2431E+01E
 Epicentro: EL CARMEN - SANTANDER                                              3
 ACTION:UPD 16-03-09 23:29 OP:cam  STATUS:               ID:20160128094910 L   I
 OLDACT:DUP 16-01-28 17:49 OP:cara STATUS:               ID:20160128093738d    3
 OLDACT:REG 16-01-28 14:15 OP:cara STATUS:               ID:20160128093736     3
 2016-01-28-0937-36M.COL___317                                                 6
 STAT SP IPHASW D HRMM SECON CODA AMPLIT PERI AZIMU VELO AIN AR TRES W  DIS CAZ7
 BAR2 EZ IP     C  949 25.32                             159    0.1610 36.3  82 
 BAR2 EZ ES        949 37.39                             159    0.3910 36.3  82 
 BAR2 EZ I         949 39.24        26.8 0.50            161           36.3  82 
 RUS  HZ EP        949 28.30                             138   -0.4110 85.9 147 
 RUS  HN ES        949 43.17                             138   -0.1510 85.9 147 
 RUS  HZ I         949 44.25         2.2 0.26            139           85.9 147 
 PTB  HZ IP   9 C  949 28.11                             131   -1.61 0  105 270 
 PTB  HN ES        949 43.34                                   -0.1710  105 270 
 PTB  HZ I         949 44.35         4.3 0.28            130            105 270 
 SPBC HZ EP        949 30.77                             128   -0.1610  117 212 
 SPBC HN ES        949 46.87                             128   -0.4110  117 212 
 SPBC HZ I         949 48.82         8.2 0.28            128            117 212 
 PAM  EZ EP        949 32.06                             126   -0.2310  125  45 
 PAM  EE ES        949 49.86                             126    0.1710  125  45 
 PAM  EZ I         949 51.45         5.4 0.24            126            125  45 
 ZAR  HZ EP        949 37.35                             115   -0.36 9  182 305 
 ZAR  HN ES   4    950  1.08                             115    1.74 0  182 305 
 ZAR  HZ I         950  4.97         3.7 0.52            114            182 305 
 CHI  HZ EP        949 42.30                             111    0.62 8  213 187 
 CHI  HN ES        950  6.55                             111    0.14 8  213 187 
 CHI  HZ I         950 11.24         1.5 0.36            111            213 187 
 GUY2CHN ES        950 15.12                             107    0.53 8  252 235 
 GUY2CHZ I         950 17.80         2.1 0.32                           252 235 
 SML  HZ EP   4    949 45.39                             106   -0.87 0  257 346 
 SML  HN ES        950 14.63                             106    0.07 8  257 346 
 SML  HZ I         950 20.22         5.4 0.28            106            257 346 
                                                                                
