 2015  428 0939  3.7 L   6.788 -73.209136.1  RSN  4 0.5 1.2LRSN                1
 GAP=195        1.07       6.8     9.5 11.0 -0.4593E+01 -0.2749E+02 -0.1352E+02E
 Epicentro: ZAPATOCA - SANTANDER                                               3
 ACTION:UPD 15-06-03 16:58 OP:cam  STATUS:               ID:20150428093903 L   I
 OLDACT:REG 15-04-28 13:11 OP:drio STATUS:               ID:20150428092747     3
 2015-04-28-0927-47M.COL___280                                                 6
 STAT SP IPHASW D HRMM SECON CODA AMPLIT PERI AZIMU VELO AIN AR TRES W  DIS CAZ7
 BAR2 EZ EP        939 22.14                             170   -0.0310 21.9 172 
 BAR2 EZ I         939 22.43         2.5 0.10            175           21.9 172 
 BRR  HZ EP        939 24.17                             153    0.6410 65.8 302 
 BRR  HN ES        939 38.62                             153   -0.3510 65.8 302 
 PTB  HZ EP        939 29.28                             131    0.02 9  141 259 
 PTB  HZ I         939 30.04         2.2 0.20            130            141 259 
 PTB  HN ES        939 49.16                             131   -0.02 9  141 259 
 SML  HZ EP        939 38.77                             115   -0.88 8  242 337 
 SML  HE ES        940  8.13                             115    0.46 8  242 337 
 SML  HZ I         940 13.98         1.5 0.10            113            242 337 
                                                                                
