 2017 1228 0235 50.1 L   6.755 -73.095146.1  RSN  8 0.4 1.4LRSN                1
 GAP=174        0.95       3.6     4.8  6.4 -0.8053E+01  0.1020E+02 -0.2913E+01E
 Epicentro: LOS SANTOS - SANTANDER                                             3
 ACTION:UPD 18-01-04 13:25 OP:rebc STATUS:               ID:20171228023550 L   I
 OLDACT:DUP 17-12-28 15:10 OP:osc  STATUS:               ID:20171228022238d    3
 2017-12-28-0228-00M.COL___466                                                 6
 STAT SP IPHASW D HRMM SECON CODA AMPLIT PERI AZIMU VELO AIN AR TRES W  DIS CAZ7
 BAR2 EZ EP        236  9.91                             172    0.2210 20.4 208 
 BAR2 EZ ES        236 25.65                             172    0.6710 20.4 208 
 BAR2 EZ I         236 26.32        10.1 0.22            171           20.4 208 
 PAM  EZ EP        236 12.71                             151    0.3510 78.1  34 
 PAM  EN ES        236 29.24                             151   -0.5110 78.1  34 
 PAM  EZ I         236 32.48         2.8 0.21            153           78.1  34 
 PTB  HZ EP        236 17.42                             131   -0.07 9  152 261 
 PTB  HE ES        236 38.57                             131   -0.30 9  152 261 
 PTB  HZ I         236 40.25         2.5 0.16            133            152 261 
 SPBC HZ EP        236 18.50                             129   -0.07 9  163 222 
 SPBC HE ES        236 40.17                             129   -0.63 9  163 222 
 SPBC HZ I         236 45.89         4.7 0.16            130            163 222 
 OCA  HN ES        236 41.07                             129   -0.40 9  166 351 
 ZAR  HZ ES        236 49.60                             121    0.44 8  211 293 
 DRL03HZ EP        236 32.35                             113    0.01 7  295 352 
 DRL03HN ES        237  5.48                             113    0.17 7  295 352 
 GUY2CHZ EP        236 33.65                             112   -0.24 7  303 236 
 GUY2CHN ES        237  8.49                             112    0.42 7  303 236 
 GUY2CHZ I         237 14.93         1.4 0.50                           303 236 
                                                                                
