 2017  728 0853 23.2 L   7.100 -73.804 95.6  RSN  4 0.2 0.8LRSN                1
 GAP=155        0.52       4.1     3.1  5.6  0.5867E+00  0.5484E+01 -0.6169E+00E
 Epicentro: BARRANCABERMEJA - SANTANDER                                        3
 ACTION:UPD 17-08-30 15:37 OP:rebc STATUS:               ID:20170728085323 L   I
 OLDACT:REG 17-07-28 12:47 OP:and  STATUS:               ID:20170728084203     3
 2017-07-28-0848-00M.COL___373                                                 6
 STAT SP IPHASW D HRMM SECON CODA AMPLIT PERI AZIMU VELO AIN AR TRES W  DIS CAZ7
 BRR  HZ EP        853 35.85                             174   -0.3510 10.2  86 
 BRR  HN ES        853 46.49                             174    0.1710 10.2  86 
 BAR2 EZ EP   2    853 41.30                             135    0.26 5 88.8 129 
 PTB  HZ EP   2    853 41.24                             132   -0.07 5 95.1 229 
 PTB  HE ES        853 55.44                             132    0.0110 95.1 229 
 PTB  HZ I         853 56.69         1.0 0.16            131           95.1 229 
 ZAR  HZ EP   2    853 44.57                             124    0.42 5  124 290 
 ZAR  HN ES        854  0.50                             124    0.0210  124 290 
 ZAR  HZ I         854  3.30         1.9 0.44            123            124 290 
                                                                                
