 2016 1228 0355 49.7 L   6.788 -73.122155.4  RSN  5 0.3 1.0LRSN                1
 GAP=239        0.67       5.6     5.5  6.8  0.1708E+02 -0.5938E+01 -0.5094E+01E
 Epicentro: LOS SANTOS - SANTANDER                                             3
 ACTION:UPD 17-01-11 20:19 OP:rebc STATUS:               ID:20161228035549 L   I
 OLDACT:UP  16-12-28 15:59 OP:edw  STATUS:               ID:20161228034740d    3
 OLDACT:DUP 16-12-28 15:51 OP:edw  STATUS:               ID:20161228034740d    3
 OLDACT:UP  16-12-28 15:48 OP:edw  STATUS:               ID:20161228034739     3
 OLDACT:UP  16-12-28 15:46 OP:edw  STATUS:               ID:20161228034739     3
 OLDACT:REG 16-12-28 13:07 OP:edw  STATUS:               ID:20161228034739     3
 2016-12-28-0348-00M.COL___365                                                 6
 STAT SP IPHASW D HRMM SECON CODA AMPLIT PERI AZIMU VELO AIN AR TRES W  DIS CAZ7
 BAR2 EZ EP        356  9.97                             171   -0.4810 22.6 197 
 BAR2 EZ I         356 24.72         1.9 0.17            174           22.6 197 
 BRR  HZ EP        356 12.31                             153    0.2810 74.1 298 
 BRR  HN ES        356 29.52                             153    0.0510 74.1 298 
 RUS  HZ EP        356 14.62                             146    0.3410 99.1 177 
 RUS  HN ES        356 33.45                             146   -0.0310 99.1 177 
 RUS  HZ I         356 34.60         1.6 0.30            147           99.1 177 
 PTB  HZ EP        356 17.45                             134   -0.19 9  150 260 
 PTB  HN ES        356 39.47                             134    0.01 9  150 260 
 PTB  HZ I         356 42.29         1.0 0.19            136            150 260 
 ZAR  HN ES   2    356 49.07                             124   -0.02 4  207 292 
                                                                                
