 2016  728 0410 28.0 L   6.075 -73.709116.8  RSN  7 0.2 1.3LRSN                1
 GAP=175        0.65       2.6     2.7  4.5 -0.2563E+01  0.3603E+01 -0.7050E+00E
 Epicentro: VELEZ - SANTANDER                                                  3
 ACTION:UPD 17-03-29 16:55 OP:lp   STATUS:               ID:20160728041028 L   I
 OLDACT:REG 16-07-28 13:40 OP:edw  STATUS:               ID:20160728040759     3
 2016-07-28-0407-59S.COL___343                                                 6
 STAT SP IPHASW D HRMM SECON CODA AMPLIT PERI AZIMU VELO AIN AR TRES W  DIS CAZ7
 SPBC HZ EP        410 45.86                             150    0.2010 61.7 221 
 SPBC HN ES        410 59.07                             150   -0.3410 61.7 221 
 SPBC HZ I         411  1.74         6.2 0.16            153           61.7 221 
 BAR2 EZ EP        410 46.97                             143   -0.2510 81.6  45 
 BAR2 EZ ES        411  2.53                             143    0.3510 81.6  45 
 PTB  HZ EP        410 47.68                             137   -0.4610 97.4 302 
 PTB  HE ES        411  3.79                             137   -0.0410 97.4 302 
 PTB  HZ I         411  5.21         3.4 0.40            139           97.4 302 
 BRR  HZ EP        410 49.66                             132    0.0810  114 360 
 BRR  HN ES        411  6.48                             132    0.1110  114 360 
 BRR  HZ I         411 10.57         3.7 0.12            134            114 360 
 HEL  HZ EP        410 59.02                             116    0.02 9  202 274 
 HEL  HN ES        411 23.43                             116    0.28 9  202 274 
 ZAR  HZ EP        410 58.30                             115   -0.23 9  202 321 
 ZAR  HN ES        411 22.27                             115   -0.04 9  202 321 
 ZAR  HZ I         411 24.29         2.6 0.14            118            202 321 
 GUY2CHZ EP        410 59.90                             115    0.29 8  206 243 
 GUY2CHN ES        411 24.40                             115    0.16 8  206 243 
 GUY2CHZ I         411 30.67         1.6 0.48                           206 243 
                                                                                
