 2017 1028 0903 15.8 L   6.764 -73.124150.6  RSN  9 0.4 1.3LRSN                1
 GAP=141        0.91       3.8     4.1  5.9 -0.3232E+01  0.7967E+01  0.2963E+01E
 Epicentro: LOS SANTOS - SANTANDER                                             3
 ACTION:UPD 17-11-07 19:38 OP:rebc STATUS:               ID:20171028090315 L   I
 OLDACT:UP  17-10-28 14:38 OP:osc  STATUS:               ID:20171028085740d    3
 OLDACT:DUP 17-10-28 14:32 OP:osc  STATUS:               ID:20171028085740d    3
 OLDACT:REG 17-10-28 13:01 OP:dani STATUS:               ID:20171028085739     3
 2017-10-28-0858-00M.COL___435                                                 6
 STAT SP IPHASW D HRMM SECON CODA AMPLIT PERI AZIMU VELO AIN AR TRES W  DIS CAZ7
 BAR2 EZ EP        9 3 35.99                             172    0.0110 20.1 199 
 BAR2 EZ ES        9 3 51.91                             172    0.2110 20.1 199 
 BAR2 EZ I         9 3 52.42         5.4 0.32            170           20.1 199 
 BRR  HZ EP        9 3 37.60                             152   -0.1310 75.2 300 
 BRR  HN ES        9 3 55.12                             152    0.3210 75.2 300 
 PAM  EZ EP        9 3 38.78                             151    0.1210 79.1  36 
 PAM  EE ES        9 3 56.05                             151   -0.4110 79.1  36 
 PAM  EZ I         9 3 57.51         2.2 0.22            155           79.1  36 
 RUS  HZ EP        9 3 40.11                             146    0.3410 96.5 177 
 RUS  HN ES        9 3 57.80                             146   -0.6510 96.5 177 
 RUS  HZ I         9 3 59.77         1.9 0.34            147           96.5 177 
 PTB  HZ EP        9 3 43.33                             133   -0.01 9  149 261 
 PTB  HN ES   3    9 4  3.53                             133   -1.27 2  149 261 
 PTB  HZ I         9 4  9.68         2.2 0.48            133            149 261 
 SPBC HZ EP        9 3 45.10                             130    0.54 9  162 221 
 SPBC HE ES        9 4  7.42                             130    0.45 9  162 221 
 SPBC HZ I         9 4 12.54         3.1 0.18            131            162 221 
 ZAR  HN ES        9 4 14.66                             123   -0.16 8  208 293 
 NOR  HZ EP   4    9 3 49.27                             119   -2.54 0  234 236 
 NOR  HE ES        9 4 20.08                             119    0.21 8  234 236 
 GUY2CHZ EP        9 3 59.25                             113   -0.38 7  301 236 
 GUY2CHN ES        9 4 33.05                             113   -0.74 7  301 236 
 GUY2CHZ I         9 4 46.37         1.1 0.72                           301 236 
                                                                                
