 2016  228 0849 44.3 L   6.237 -73.864 22.5  RSN  5 0.5 1.0LRSN                1
 GAP=170        1.23       6.8     5.6  8.2 -0.3183E+02  0.3456E+02 -0.4263E+02E
 Epicentro: LANDAZURI - SANTANDER                                              3
 ACTION:UPD 16-03-04 21:30 OP:rebc STATUS:               ID:20160228084944 L   I
 OLDACT:DUP 16-02-28 15:55 OP:drio STATUS:               ID:20160228083751d    3
 2016-02-28-0837-48M.COL___309                                                 6
 STAT SP IPHASW D HRMM SECON CODA AMPLIT PERI AZIMU VELO AIN AR TRES W  DIS CAZ7
 SPBC HZ EP        849 55.87                             106    0.0810 68.7 200 
 SPBC HE ES        850  5.49                             106    0.7410 68.7 200 
 SPBC HZ I         850  6.25        10.6 0.30            106           68.7 200 
 BAR2 EZ ES        850  8.81                             103   -0.4810 85.0  62 
 BAR2 EZ I         850 10.26         4.8 0.18            103           85.0  62 
 RUS  HZ EP        849 59.63                             102   -0.3710 94.4 114 
 RUS  HE ES        850 12.15                             102   -0.1010 94.4 114 
 RUS  HZ I         850 12.82         2.9 0.14            102           94.4 114 
 PAM  EZ EP        850 11.18                              56    0.46 9  177  46 
 PAM  EE ES        850 32.00                              56    0.67 9  177  46 
 PAM  EZ I         850 33.01         1.7 0.36             56            177  46 
 GUY2CHZ EP        850 13.31                              56   -0.29 9  200 236 
 GUY2CHE ES        850 35.70                              56   -0.76 9  200 236 
 GUY2CHZ I         850 42.05         0.8 0.66                           200 236 
                                                                                
