 2015  928 0953 17.5 L   6.784 -73.146150.0  RSN  7 0.4 1.8LRSN                1
 GAP=183        1.00       4.3     5.6  7.1  0.4134E+01  0.8551E+00 -0.9921E+01E
 Epicentro: LOS SANTOS - SANTANDER                                             3
 ACTION:UPD 15-10-28 16:28 OP:cam  STATUS:               ID:20150928095317 L   I
 OLDACT:REG 15-09-28 13:13 OP:spq  STATUS:               ID:20150928094738     3
 2015-09-28-0947-38M.COL___349                                                 6
 STAT SP IPHASW D HRMM SECON CODA AMPLIT PERI AZIMU VELO AIN AR TRES W  DIS CAZ7
 BAR2 EZ EP        953 37.75                             171    0.1110 21.6 191 
 BAR2 EZ ES   1    953 52.78                             171   -0.54 7 21.6 191 
 BAR2 EZ I         953 54.10        13.3 0.16            173           21.6 191 
 BRR  HZ EP        953 39.60                             153    0.4210 72.1 300 
 BRR  HN ES        953 56.73                             153    0.6610 72.1 300 
 BRR  HZ I         953 59.30        13.3 0.30            151           72.1 300 
 RUS  HZ EP   1    953 41.94                             145    0.37 7 98.8 176 
 RUS  HE ES        954  0.38                             145    0.0510 98.8 176 
 RUS  HZ I         954  1.09         3.3 0.20            150           98.8 176 
 PTB  HZ EP        953 44.58                             133   -0.23 9  147 260 
 PTB  HN ES        954  5.29                             133   -0.81 9  147 260 
 PTB  HZ I         954 10.02         3.9 0.14            134            147 260 
 OCA  HZ EP        953 46.03                             130   -0.30 9  162 353 
 OCA  HE ES        954  8.52                             130   -0.28 9  162 353 
 OCA  HZ I         954 13.92        13.7 0.32            131            162 353 
 ZAR  HZ EP        953 50.48                             123    0.16 9  205 293 
 ZAR  HN ES        954 16.40                             123    0.50 9  205 293 
 ZAR  HZ I         954 22.71         7.0 0.66            124            205 293 
 SML  HZ EP        953 54.22                             118   -0.35 8  245 335 
 SML  HE ES   2    954 23.44                             118   -0.02 4  245 335 
 SML  HZ I         954 27.42        10.2 0.26            119            245 335 
                                                                                
