 2016  328 0605 10.4 L   6.788 -73.183133.5  RSN  9 0.5 1.7LRSN                1
 GAP=132        1.14       3.4     4.9  7.5 -0.2335E+01  0.1398E+02  0.1597E+00E
 Epicentro: LOS SANTOS - SANTANDER                                             3
 ACTION:UPD 16-05-13 21:28 OP:cam  STATUS:               ID:20160328055743 L   I
 OLDACT:UP  16-03-28 18:06 OP:ak   STATUS:               ID:20160328055743 L   3
 OLDACT:UPD 16-03-28 15:59 OP:Mher STATUS:               ID:20160328055743 L   3
 2016-03-28-0557-43M.COL___297                                                 6
 STAT SP IPHASW D HRMM SECON CODA AMPLIT PERI AZIMU VELO AIN AR TRES W  DIS CAZ7
 BAR2 EZ EP        6 5 28.37                             170   -0.1710 21.6 180 
 BAR2 EZ ES        6 5 43.46                             170    0.7810 21.6 180 
 BAR2 EZ I         6 5 44.35         6.4 0.16            173           21.6 180 
 PAM  EZ EP        6 5 31.52                             147   -0.0710 81.1  41 
 PAM  EN ES        6 5 48.19                             147    0.0910 81.1  41 
 PAM  EZ I         6 5 50.77         7.3 0.42            149           81.1  41 
 RUS  HZ EP   2    6 5 32.79                             141   -0.13 5 99.6 174 
 RUS  HN ES        6 5 49.76                             141   -0.7010 99.6 174 
 PTB  HZ EP        6 5 35.43                             130   -0.58 9  143 259 
 PTB  HN ES        6 5 55.33                             130   -0.64 9  143 259 
 PTB  HZ I         6 5 58.57         5.7 0.12            130            143 259 
 SPBC HZ EP        6 5 37.60                             127   -0.05 9  160 218 
 SPBC HE ES        6 5 58.75                             127   -0.14 9  160 218 
 OCA  HZ EP   2    6 5 37.04                             126   -0.85 5  161 355 
 OCA  HE ES        6 5 59.25                             126   -0.07 9  161 355 
 OCA  HZ I         6 6  3.69        10.7 0.16            127            161 355 
 ZAR  HZ EP        6 5 42.04                             120    0.30 9  201 293 
 ZAR  HE ES        6 6  6.80                             120    0.62 9  201 293 
 ZAR  HZ I         6 6 15.36         6.3 0.50            120            201 293 
 CHI  HZ EP        6 5 47.98                             115    0.77 8  246 194 
 CHI  HE ES        6 6 16.55                             115    0.64 8  246 194 
 HEL  HZ EP   2    6 5 49.69                             113    0.14 4  268 256 
                                                                                
