 2012  228 0857  8.5 L   6.750 -73.143148.3  RSN  4 0.3 1.6LRSN                1
 GAP=234        0.59       6.3     7.5  6.3  0.2896E+02 -0.3837E+01 -0.1859E+00E
 ACTION:UP  12-03-07 16:35 OP:epov STATUS:               ID:20120228085708 L   I
 2012-02-28-0850-00M.COL___191                                                 6
 STAT SP IPHASW D HRMM SECON CODA AMPLIT PERI AZIMU VELO AIN AR TRES W  DIS CAZ7
 BAR2 SZ EP        857 28.09                             173   -0.2510 17.9 194 
 BAR2 SZ ES   2    857 43.22                             173   -0.60 5 17.9 194 
 BAR2 SZ I         857 44.57         6.3 0.18                          17.9 194 
 BRR  HZ EP        857 30.13                             152    0.0310 74.3 302 
 BRR  HZ I         857 31.57        12.4 0.53                          74.3 302 
 BRR  HN ES        857 47.21                             152    0.2610 74.3 302 
 RUS  HZ EP   1    857 32.29                             146    0.18 7 95.0 176 
 RUS  HN ES   1    857 50.86                             146    0.33 7 95.0 176 
 PTB  HZ EP   1    857 35.45                             133   -0.17 7  147 261 
 PTB  HE ES   2    857 56.38                             133   -0.39 5  147 261 
                                                                                
