 2011  928 0706  4.3 L   6.874 -73.119149.9  RSN  5 0.2 1.8LRSN                1
 GAP=295        0.48       5.1     5.2  8.1 -0.7577E+00 -0.1349E+02  0.8923E+00E
 Epicentro: LOS SANTOS - SANTANDER                                             3
 ACTION:UPD 12-07-13 16:00 OP:ep   STATUS:               ID:20110928070604 L   I
 2011-09-28-0700-00M.COL___167                                                 6
 STAT SP IPHASW D HRMM SECON CODA AMPLIT PERI AZIMU VELO AIN AR TRES W  DIS CAZ7
 BTL  SZ EP   1    7 6 24.20                             173   -0.15 7 17.1 287 
 GIR2 SZ EP   1    7 6 24.14                             170   -0.19 7 24.1 340 
 BRR  HZ EP   1    7 6 25.95                             153    0.07 7 70.4 292 
 BRR  HN ES   1    7 6 42.93                             153    0.24 7 70.4 292 
 BRR  HZ I         7 6 47.45        15.6 0.15                          70.4 292 
 OCA  SZ EP   1    7 6 32.64                             132    0.38 7  153 352 
 OCA  SZ ES   1    7 6 53.83                             132   -0.21 7  153 352 
 OCA  SZ I         7 6 56.89         4.8 0.19                           153 352 
 ZAR  HE ES   1    7 7  2.37                             123   -0.16 6  204 290 
                                                                                
