 2011 1228 0527 58.3 L   6.775 -73.158149.7  RSN  4 0.4 1.0LRSN                1
 GAP=136        0.73       5.6     5.3  8.8 -0.4977E+01  0.6038E+01  0.2214E+01E
 Epicentro: LOS SANTOS - SANTANDER                                             3
 ACTION:UPD 12-07-13 16:19 OP:ep   STATUS:               ID:20111228052001dL   I
 2011-12-28-0520-00M.COL___185                                                 6
 STAT SP IPHASW D HRMM SECON CODA AMPLIT PERI AZIMU VELO AIN AR TRES W  DIS CAZ7
 BRR  HZ EP   1    528 20.22                             153    0.33 7 71.3 301 
 BRR  HN ES   1    528 37.32                             153    0.59 7 71.3 301 
 PAM  SZ EP   1    528 21.13                             151    0.01 7 80.4  39 
 PAM  SZ I         528 21.43         2.5 0.18                          80.4  39 
 PAM  SN ES   1    528 38.45                             151   -0.47 7 80.4  39 
 RUS  HZ EP   2    528 22.37                             145    0.10 5 98.0 175 
 RUS  HN ES   1    528 41.05                             145    0.09 7 98.0 175 
 RUS  HZ I         528 41.59         1.2 0.31                          98.0 175 
 PTB  HZ EP   1    528 25.35                             133   -0.09 7  146 260 
 PTB  HN ES   1    528 46.00                             133   -0.59 7  146 260 
                                                                                
