 2017 1128 0742 21.0 L   6.081 -73.743106.5  RSN  4 0.3 0.9LRSN                1
 GAP=112        0.77       4.4     3.3  8.1 -0.1264E+01 -0.2962E+01 -0.2873E+01E
 Epicentro: EL PENON - SANTANDER                                               3
 ACTION:UPD 17-12-12 20:01 OP:rebc STATUS:               ID:20171128074221 L   I
 OLDACT:REG 17-11-28 13:07 OP:dani STATUS:               ID:20171128073746     3
 2017-11-28-0738-00M.COL___480                                                 6
 STAT SP IPHASW D HRMM SECON CODA AMPLIT PERI AZIMU VELO AIN AR TRES W  DIS CAZ7
 SPBC HZ EP        742 37.42                             148    0.0310 59.9 218 
 SPBC HN ES        742 50.53                             148    0.3210 59.9 218 
 SPBC HZ I         742 51.86         3.4 0.10            155           59.9 218 
 RUS  HZ EP        742 39.07                             142   -0.0110 76.0 106 
 RUS  HN ES        742 52.75                             142   -0.4610 76.0 106 
 RUS  HZ I         742 54.46         1.1 0.24            145           76.0 106 
 BAR2 EZ EP        742 39.42                             139    0.0810 83.9  48 
 BAR2 EZ ES        742 54.04                             139    0.3710 83.9  48 
 BAR2 EZ I         742 58.19         2.2 0.39            141           83.9  48 
 PTB  HN ES        742 54.28                             135   -0.3210 93.8 303 
                                                                                
