 2010  728 0943 45.2 L   6.787 -73.091142.4  RSN  5 0.1 1.7LRSN                1
 GAP=165        0.38       2.7     5.9  4.5 -0.2011E+01 -0.8590E+01 -0.3785E+01E
 Epicentro: LOS SANTOS - SANTANDER                                             3
 ACTION:UPD 10-12-01 15:20 OP:pat  STATUS:               ID:20100728094345 L   I
 2010-07-28-0942-13S.COL___123                                                 6
 STAT SP IPHASW D HRMM SECON CODA AMPLIT PERI AZIMU VELO AIN AR TRES W  DIS CAZ7
 BAR2 SZ IP        944  4.39                             170    -0.110   24 205 
 BAR2 SZ ES   1    944 19.35                             170    -0.1 7   24 205 
 BAR2 SZ I         944 20.53        17.8 0.21                            24 205 
 BRR  HZ EP   1    944  6.29                             150    -0.1 7   77 297 
 BRR  HE ES   2    944 22.96                             150     0.1 5   77 297 
 BRR  HZ I         944 24.62        24.1 0.34                            77 297 
 RUS  HZ EP   1    944  8.48                             144     0.0 7   99 179 
 RUS  HZ I         944  9.25         4.0 0.09                            99 179 
 RUS  HN ES   2    944 26.87                             144     0.2 5   99 179 
 GUE  SZ EP        944  9.50                             138    -0.110  117   9 
 GRA  SZ IP        944 10.33                             136     0.210  125  15 
 GRA  SZ ES   2    944 29.55                             136     0.0 5  125  15 
 GRA  SZ I         944 31.97         5.6 0.39                           125  15 
                                                                                
