 2011  528 0131  2.6 L   6.077 -73.516127.3  RSN  6 0.2 1.4LRSN                1
 GAP=236        0.51       4.9    11.3  6.5  0.2217E+02  0.3394E+02 -0.2812E+01E
 Epicentro: SAN BENITO - SANTANDER                                             3
 ACTION:UP  11-06-29 08:56 OP:tino STATUS:               ID:20110528013102 L   I
 2011-05-28-0130-41S.COL___115                                                 6
 STAT SP IPHASW D HRMM SECON CODA AMPLIT PERI AZIMU VELO SNR AR TRES W  DIS CAZ7
 RUS  HZ EP   1    131 21.43                             157     0.0 7   52 113 
 RUS  HN ES   1    131 35.92                             157    -0.2 7   52 113 
 RUS  HZ I         131 37.40         2.8 0.25                            52 113 
 BAR2 SZ EP   1    131 21.93                             150     0.0 7   68  33 
 BAR2 SZ ES   1    131 36.86                             150    -0.1 7   68  33 
 BAR2 SZ I         131 39.99         5.2 0.40                            68  33 
 BTL  SZ EP        131 24.00                             140     0.110   97  16 
 GIR2 SZ EP   1    131 25.74                             135     0.4 7  116  18 
 BRR  HZ EP   2    131 24.74                             135    -0.4 5  116 349 
 BRR  HZ I         131 30.51        12.6 0.46                           116 349 
 BRR  HN ES   2    131 42.77                             135     0.0 5  116 349 
 GRA  SZ EP   2    131 34.57                             116    -0.7 4  215  21 
 GRA  SZ ES   2    132  0.75                             116     0.0 4  215  21 
 GRA  SZ I         132  3.75         1.7 0.48                           215  21 
                                                                                
