 2011  728 0031 43.0 L   6.771 -73.035151.4  RSN  6 0.3 1.3LRSN                1
 GAP=171        0.61       4.5     8.2  6.7 -0.5982E+01 -0.1493E+02 -0.1358E+01E
 Epicentro: CEPITA - SANTANDER                                                 3
 ACTION:UPD 12-07-25 14:03 OP:epov STATUS:               ID:20110728003143 L   I
 2011-07-28-0020-00M.COL___142                                                 6
 STAT SP IPHASW D HRMM SECON CODA AMPLIT PERI AZIMU VELO AIN AR TRES W  DIS CAZ7
 BAR2 SZ EP   1    032  3.02                             170   -0.38 7 25.6 220 
 BAR2 SZ I         032  3.53         3.6 0.87                          25.6 220 
 BAR2 SZ ES   1    032 19.54                             170    0.27 7 25.6 220 
 BTL  SZ EP   1    032  3.85                             168    0.34 7 30.5 302 
 GIR2 SZ EP   1    032  3.22                             165   -0.37 7 38.3 333 
 GIR2 SZ ES   2    032 18.98                             165   -0.63 5 38.3 333 
 BRR  HZ EP   1    032  5.47                             150   -0.05 7 83.5 296 
 BRR  HZ I         032 11.52         9.5 0.33                          83.5 296 
 BRR  HN ES   1    032 23.17                             150    0.11 7 83.5 296 
 RUS  HZ EP   2    032  6.89                             146   -0.23 5 97.2 183 
 RUS  HN ES   2    032 26.14                             146    0.24 5 97.2 183 
 RUS  HZ I         032 26.87         2.2 0.63                          97.2 183 
 GRA  SZ EP   1    032  9.27                             138    0.47 7  126  12 
 GRA  SZ ES   1    032 28.80                             138   -0.09 7  126  12 
 GRA  SZ I         032 31.78         2.3 0.35                           126  12 
                                                                                
