 2012  828 0824 22.6 L   6.709 -73.179144.5  RSN  5 0.4 1.2LRSN                1
 GAP=184        0.41      14.9     9.7  8.5  0.1214E+02  0.1071E+01  0.2710E+02E
 Epicentro: VILLANUEVA - SANTANDER                                             3
 ACTION:UPD 12-09-10 11:58 OP:ep   STATUS:               ID:20120828082422 L   I
 2012-08-28-0820-00M.COL___218                                                 6
 STAT SP IPHASW D HRMM SECON CODA AMPLIT PERI AZIMU VELO AIN AR TRES W  DIS CAZ7
 BAR2 SZ ES   3    824 57.13                             175    0.11 2 12.9 182 
 BAR2 SZ I         824 58.36         3.3 0.14                          12.9 182 
 GIR2 SZ ES   3    824 57.10                             163   -0.83 2 40.9 358 
 BRR  HZ EP        824 43.79                             151    0.0010 73.5 307 
 BRR  HZ I         824 52.00         3.7 0.12                          73.5 307 
 BRR  HN ES   2    825  0.67                             151    0.38 5 73.5 307 
 PTB  HZ EP   3    824 48.78                             133   -0.25 2  142 263 
 PTB  HN ES   3    825  9.38                             133   -0.23 2  142 263 
 PTB  HZ I         825 14.51         1.1 0.14                           142 263 
 ZAR  HN ES   3    825 19.83                             122   -0.54 2  205 295 
 ZAR  HZ I         825 22.21         1.5 0.24                           205 295 
                                                                                
