 2010  628 0625 45.4 L   6.749 -73.147149.4  RSN  6 0.4 1.6LRSN                1
 GAP=159        0.93       5.8    12.7  9.2  0.2400E+02 -0.2913E+02 -0.1627E+02E
 Epicentro: LOS SANTOS - SANTANDER                                             3
 ACTION:UP  10-08-24 10:13 OP:vdl  STATUS:               ID:20100628062545 L   I
 2010-06-28-0624-11S.COL___118                                                 6
 STAT SP IPHASW D HRMM SECON CODA AMPLIT PERI AZIMU VELO SNR AR TRES W  DIS CAZ7
 BAR2 SZ EP        626  5.34                             172    -0.110   18 193 
 BAR2 SZ ES   1    626 20.05                             172    -0.9 7   18 193 
 BRR  HZ IP     D  626  7.18                             152     0.110   74 302 
 BRR  HN ES   1    626 24.31                             152     0.3 7   74 302 
 BRR  HZ I         626 25.91        10.2 0.09                            74 302 
 RUS  HZ EP   1    626  9.37                             146     0.2 7   95 176 
 RUS  HE ES        626 28.03                             146     0.410   95 176 
 RUS  HZ I         626 29.08         5.2 0.20                            95 176 
 GUE  SZ EP   2    626 11.60                             139     0.7 5  122  12 
 GRA  SZ EP   1    626 11.17                             136    -0.3 7  131  17 
 CHI  HZ EP   2    626 22.45                             118    -0.3 4  243 195 
 CHI  HE ES   2    626 51.28                             118    -0.6 4  243 195 
 CHI  HZ I         626 57.63         1.8 0.32                           243 195 
                                                                                
