 2015 1028 0103  2.6 L   6.845 -73.103146.0  RSN 11 0.4 1.9LRSN                1
 GAP=140        0.96       3.2     3.9  5.4 -0.1050E+01  0.6706E+01  0.3080E+00E
 Epicentro: LOS SANTOS - SANTANDER                                             3
 ACTION:UPD 15-12-22 20:43 OP:cam  STATUS:               ID:20151028010302 L   I
 OLDACT:UP  15-10-28 14:22 OP:mh   STATUS:               ID:20151028005748     3
 OLDACT:REG 15-10-28 12:31 OP:mh   STATUS:               ID:20151028005748     3
 2015-10-28-0057-48M.COL___310                                                 6
 STAT SP IPHASW D HRMM SECON CODA AMPLIT PERI AZIMU VELO AIN AR TRES W  DIS CAZ7
 BAR2 EZ EP        1 3 22.23                             168   -0.1910 29.3 198 
 BAR2 EZ ES        1 3 37.71                             168   -0.1510 29.3 198 
 BAR2 EZ I         1 3 39.05        12.4 0.14            166           29.3 198 
 PAM  EZ EP        1 3 24.67                             153    0.2010 70.5  39 
 PAM  EN ES        1 3 41.96                             153    0.4510 70.5  39 
 PAM  EZ I         1 3 43.44        12.4 0.24            157           70.5  39 
 BRR  HZ EP        1 3 23.95                             152    0.0310 73.3 293 
 BRR  HN ES        1 3 40.90                             152    0.3710 73.3 293 
 BRR  HZ I         1 3 41.79        14.5 0.44            151           73.3 293 
 RUS  HZ EP        1 3 26.33                             143   -0.4210  105 179 
 RUS  HN ES        1 3 45.26                             143   -0.3110  105 179 
 RUS  HZ I         1 3 47.18         7.5 0.22            143            105 179 
 SPBC HZ EP        1 3 31.44                             128   -0.36 9  170 219 
 SPBC HN ES        1 3 55.25                             128    0.69 9  170 219 
 SPBC HZ I         1 4  0.91         7.6 0.22            128            170 219 
 ZAR  HN ES        1 4  0.51                             122   -0.38 8  207 290 
 ZAR  HZ I         1 4  5.93        13.9 0.28            123            207 290 
 SML  HZ EP        1 3 39.04                             118    0.04 8  241 334 
 SML  HN ES        1 4  6.69                             118   -0.68 8  241 334 
 NOR  HZ EP        1 3 39.54                             118    0.44 8  241 234 
 NOR  HN ES        1 4  6.84                             118   -0.71 8  241 234 
 NOR  HZ I         1 4  9.45         5.2 0.18            118            241 234 
 HEL  HZ EP   1    1 3 43.93                             114    0.43 6  278 255 
 HEL  HE ES        1 4 15.86                             114    0.47 7  278 255 
 HEL  HZ I         1 4 21.18         6.0 0.32            115            278 255 
 URE  HZ EP   9    1 3 41.12                             113   -2.88 0  286 291 
 URE  HN ES        1 4 13.44                             113    0.05 7  286 291 
 URE  HZ I         1 4 16.10         5.1 0.16            114            286 291 
 GUY2CHZ EP        1 3 47.42                             112    0.41 7  308 235 
 GUY2CHN ES   4    1 4 23.21                             112    1.58 0  308 235 
 GUY2CHZ I         1 4 29.26         3.3 0.34                           308 235 
                                                                                
