 2010  628 0556 27.2 L   6.824 -73.002142.1  RSN  7 0.4 2.0LRSN                1
 GAP=198        0.81       3.8     8.8  7.0 -0.6287E+00  0.5344E+01  0.2839E+01E
 Epicentro: CEPITA - SANTANDER                                                 3
 ACTION:UP  10-08-24 10:13 OP:vdl  STATUS:               ID:20100628055627 L   I
 2010-06-28-0554-45S.COL___118                                                 6
 STAT SP IPHASW D HRMM SECON CODA AMPLIT PERI AZIMU VELO SNR AR TRES W  DIS CAZ7
 BAR2 SZ EP   1    556 46.63                             166     0.1 7   33 218 
 BAR2 SZ ES   1    557  1.87                             166     0.2 7   33 218 
 BRR  HZ EP   1    556 48.35                             148    -0.4 7   84 292 
 BRR  HN ES   1    557  5.00                             148    -0.5 7   84 292 
 BRR  HZ I         557  7.34        20.6 0.10                            84 292 
 RUS  HZ EP   1    556 50.92                             142     0.2 7  103 185 
 RUS  HN ES   1    557  9.10                             142    -0.1 7  103 185 
 RUS  HZ I         557 11.72        12.4 0.22                           103 185 
 OCA  SZ EP   1    556 54.86                             129    -0.3 7  160 347 
 OCA  SZ ES   1    557 17.78                             129     0.7 7  160 347 
 CHI  HZ EP   2    557  5.49                             116     0.1 4  256 198 
 CHI  HE ES   2    557 35.44                             116     0.1 4  256 198 
 CHI  HZ I         557 41.45         4.2 0.39                           256 198 
 RREF HZ EP   2    557 14.97                             109     0.2 3  336 231 
 RREF HN ES   1    557 52.75                             109     0.9 5  336 231 
 RREF HZ I         557 56.82         4.6 0.28                           336 231 
 PRA  HZ EP   1    557 21.08                             105    -0.7 4  402 211 
 PRA  HE ES   2    558  4.24                             105    -0.1 3  402 211 
 PRA  HZ I         558  9.36         4.7 0.19                           402 211 
                                                                                
