 2017  428 0913 17.0 L   7.285 -73.673 94.0  RSN 21 0.6 2.3LRSN                1
 GAP= 85        1.02       3.9     2.6  5.9 -0.5205E+00  0.4293E+01  0.2529E+01E
 Epicentro: SABANA DE TORRES - SANTANDER                                       3
 ACTION:UPD 17-05-30 21:16 OP:jn   STATUS:               ID:20170428091317 L   I
 OLDACT:UP  17-04-28 18:55 OP:and  STATUS:               ID:20170428090748     3
 OLDACT:UP  17-04-28 18:55 OP:and  STATUS:               ID:20170428090748     3
 OLDACT:UP  17-04-28 18:52 OP:and  STATUS:               ID:20170428090748     3
 OLDACT:UP  17-04-28 18:51 OP:and  STATUS:               ID:20170428090748     3
 OLDACT:UP  17-04-28 18:50 OP:and  STATUS:               ID:20170428090748     3
 OLDACT:UP  17-04-28 18:50 OP:and  STATUS:               ID:20170428090748     3
 OLDACT:UP  17-04-28 18:50 OP:and  STATUS:               ID:20170428090748     3
 OLDACT:UP  17-04-28 18:48 OP:and  STATUS:               ID:20170428090748     3
 OLDACT:UP  17-04-28 18:48 OP:and  STATUS:               ID:20170428090748     3
 OLDACT:UP  17-04-28 18:47 OP:and  STATUS:               ID:20170428090748     3
 OLDACT:UP  17-04-28 18:47 OP:and  STATUS:               ID:20170428090748     3
 OLDACT:REG 17-04-28 12:56 OP:and  STATUS:               ID:20170428090748     3
 2017-04-28-0908-00M.COL___362                                                 6
 STAT SP IPHASW D HRMM SECON CODA AMPLIT PERI AZIMU VELO AIN AR TRES W  DIS CAZ7
 BRR  HZ IP     D  913 30.01                             167    0.0410 20.2 192 
 BRR  HN ES        913 40.62                             167    0.5210 20.2 192 
 BRR  HZ I         913 41.79       298.1 0.16            159           20.2 192 
 PAM  EZ IP     D  913 36.56                             129   -0.2110  108  87 
 PAM  EN ES        913 52.35                             129    0.1410  108  87 
 PAM  EZ I         913 53.84        60.7 0.28            127            108  87 
 PTB  HZ IP     C  913 36.81                             125   -0.5210  120 226 
 PTB  HN ES        913 52.52                             125   -0.6810  120 226 
 PTB  HZ I         913 53.58        44.7 0.24            119            120 226 
 ZAR  HZ IP     D  913 38.60                             122   -0.0910  133 280 
 ZAR  HE ES   3    913 56.80                             122    1.16 2  133 280 
 ZAR  HZ I         914  0.20        52.4 0.11            117            133 280 
 RUS  HZ EP        913 43.09                             116    0.02 9  167 157 
 RUS  HN ES        914  3.64                             116    0.21 9  167 157 
 RUS  HZ I         914  7.00        17.2 0.16            112            167 157 
 SPBC HZ EP   9    913 45.79                             113    1.12 0  186 194 
 SPBC HN ES        914  8.37                             113    0.97 9  186 194 
 SPBC HZ I         914 11.98        19.9 0.14            109            186 194 
 NOR  HZ EP   3    913 51.20                             108    1.24 2  232 215 
 NOR  HN ES        914 15.57                             108   -0.12 8  232 215 
 NOR  HZ I         914 22.89        13.4 0.24            105            232 215 
 HEL  HZ EP        913 51.51                             108    0.41 8  238 240 
 HEL  HE ES        914 17.32                             108   -0.40 8  238 240 
 HEL  HZ I         914 23.99        19.6 0.20            104            238 240 
 YPLC HZ EP   3    913 54.12                             107    1.61 2  253 146 
 YPLC HN ES   3    914 18.13                             107   -2.10 2  253 146 
 YPLC HZ I         914 25.73        11.6 0.24            104            253 146 
 LL6C HN EP   9    913 34.62                             105   -20.3 0  275   9 
 LL6C HN ES        914  5.04                                    0.79 8  275   9 
 LL6C HN I         914 13.87        32.2 0.88            103            275   9 
 ROSC BZ EP   4    913 58.50                             105    2.44 0  280 195 
 DBB  EZ EP   4    913 59.97                             105    4.05 0  282 264 
 DBB  EN ES        914 26.08                             105   -0.23 7  282 264 
 DBB  EZ I         914 39.55         7.5 0.22            102            282 264 
 ARGC HE ES   4    914 31.74                             104    3.55 0  291 348 
 ARGC HZ I         914 43.82         8.8 0.34            102            291 348 
 CHI  HZ EP   3    913 59.46                             104    1.69 2  294 181 
 CHI  HE ES   4    914 34.57                             104    4.98 0  294 181 
 CHI  HZ I         914 37.65         4.3 0.44            102            294 181 
 CBOC HZ EP   3    913 59.75                             104    1.21 2  303 239 
 CBOC HE ES        914 31.45                             104    0.48 7  303 239 
 CBOC HZ I         914 41.82         5.4 0.38            101            303 239 
 APAC HN ES        914 36.26                             102    0.27 7  328 282 
 SJC  HZ EP   4    914  0.44                             102   -1.63 0  333 330 
 SJC  HN ES   4    914 34.06                             102   -3.18 0  333 330 
 SJC  HZ I         914 36.46         7.3 0.34            100            333 330 
 VALLCHZ EP   3    914  3.57                             101   -1.65 2  359   7 
 VALLCHE ES   4    914 44.37                             101    1.53 0  359   7 
 PTGC HZ EP        914  7.46                             100   -0.42 6  382 153 
 PTGC HN ES        914 47.28                             100   -0.30 6  382 153 
 PAL  HZ EP   2    914  9.89                             100    0.80 3  391 228 
 PAL  HN ES        914 50.96                             100    1.22 6  391 228 
 PAL  HZ I         914 57.40         5.2 0.54             98            391 228 
 ORTC HZ EP   4    914 14.60                             100    2.97 0  412 205 
 ORTC HN ES   4    915  0.42                             100    6.15 0  412 205 
 ORTC HZ I         915  6.42         3.6 0.44             98            412 205 
 CAP2 HZ EP   4    914 12.36                              99   -1.84 0  433 291 
 CAP2 HN ES   4    914 54.68                              99   -4.16 0  433 291 
 CAP2 HZ I         914 57.54         6.4 0.12             97            433 291 
                                                                                
