 2010 1128 0225 32.6 L   6.804 -73.116144.8  RSN 10 0.3 2.0LRSN                1
 GAP=162        0.61       2.4     5.3  4.6 -0.4833E+01  0.2332E+01  0.1387E+01E
 Epicentro: LOS SANTOS - SANTANDER                                             3
 ACTION:UP  10-12-17 16:55 OP:REBC STATUS:               ID:20101128022532 L   I
 2010-11-28-0222-21S.COL___129                                                 6
 STAT SP IPHASW D HRMM SECON CODA AMPLIT PERI AZIMU VELO SNR AR TRES W  DIS CAZ7
 BAR2 SZ EP   1    225 52.11                             170    -0.1 8   25 198 
 BAR2 SZ ES   1    226  7.08                             170    -0.3 8   25 198 
 BAR2 SZ I         226  8.24        23.2 0.28                            25 198 
 BRR  HZ EP   1    225 53.97                             151     0.1 8   74 297 
 BRR  HE ES   1    226 10.48                             151     0.1 8   74 297 
 BRR  HZ I         226 16.03        19.0 0.10                            74 297 
 RUS  HZ EP   1    225 56.08                             143    -0.2 8  101 178 
 RUS  HN ES   1    226 14.85                             143     0.1 8  101 178 
 RUS  HZ I         226 16.52         6.4 0.37                           101 178 
 GRA  SZ EP        225 57.93                             137     0.310  124  16 
 GRA  SZ ES   1    226 17.56                             137     0.4 7  124  16 
 GRA  SZ I         226 20.58         9.6 0.69                           124  16 
 OCA  SZ EP   1    226  0.45                             129    -0.4 7  160 352 
 OCA  SZ ES   1    226 22.48                             129    -0.4 7  160 352 
 OCA  SZ I         226 30.80        10.6 0.19                           160 352 
 NOR  SZ EP   1    226  8.46                             118    -0.2 6  238 235 
 NOR  SE ES   2    226 36.86                             118     0.2 4  238 235 
 CHI  HZ EP   1    226 10.37                             117     0.0 6  250 196 
 CHI  HE ES   1    226 39.80                             117    -0.1 6  250 196 
 CHI  HZ I         226 43.27         8.5 0.40                           250 196 
 ROSC BE ES   2    226 41.66                             116     0.9 4  255 212 
 ROSC BZ I         226 46.80        11.4 0.33                           255 212 
 HEL  HZ EP   3    226 13.51                             114     0.4 2  275 256 
 HEL  HZ I         226 50.69         4.8 0.52                           275 256 
 PRA  HZ EP   1    226 26.67                             106     0.3 5  394 210 
 PRA  HN ES   1    227  7.91                             106    -0.3 5  394 210 
                                                                                
