 2011 1128 0208 24.9 L   6.778 -73.117144.4  RSN  4 0.2 1.5LRSN                1
 GAP=141        0.54       5.2     5.3  7.3 -0.3767E+01 -0.2502E+01  0.5651E+01E
 Epicentro: LOS SANTOS - SANTANDER                                             3
 ACTION:UPD 12-07-13 16:12 OP:ep   STATUS:               ID:20111128020825 L   I
 2011-11-28-0205-41S.COL___160                                                 6
 STAT SP IPHASW D HRMM SECON CODA AMPLIT PERI AZIMU VELO AIN AR TRES W  DIS CAZ7
 BAR2 SZ EP        2 8 43.95                             171   -0.3610 21.8 199 
 BAR2 SZ I         2 9  1.64         6.7 0.20                          21.8 199 
 BRR  HZ EP        2 8 46.19                             150    0.0910 75.1 299 
 BRR  HN ES   1    2 9  2.74                             150    0.08 7 75.1 299 
 BRR  HZ I         2 9  3.65         7.4 0.36                          75.1 299 
 PAM  SZ EP        2 8 47.22                             150    0.2810 77.4  37 
 PAM  SN ES   1    2 9  3.99                             150   -0.17 7 77.4  37 
 RUS  HZ EP   3    2 8 48.53                             144    0.22 2 98.0 178 
 RUS  HN ES   2    2 9  6.72                             144    0.14 5 98.0 178 
                                                                                
