 2011 1228 0950  3.6 L   6.988 -72.920182.2  RSN  6 0.3 1.8LRSN                1
 GAP=260        0.53       5.4     4.9  4.7  0.1233E+02 -0.7380E+00 -0.3502E+01E
 Epicentro: SANTA BARBARA - SANTANDER                                          3
 ACTION:UPD 12-07-13 16:19 OP:ep   STATUS:               ID:20111228095003 L   I
 2011-12-28-0950-00M.COL___186                                                 6
 STAT SP IPHASW D HRMM SECON CODA AMPLIT PERI AZIMU VELO AIN AR TRES W  DIS CAZ7
 GIR2 SZ EP   1    950 27.63                             170   -0.02 7 31.9 288 
 GIR2 SZ ES   1    950 46.40                             170    0.00 7 31.9 288 
 BAR2 SZ EP        950 28.25                             163   -0.1310 52.6 214 
 BAR2 SZ ES   1    950 47.28                             163   -0.43 7 52.6 214 
 BAR2 SZ I         950 49.96         8.8 0.34                          52.6 214 
 BRR  HZ EP   1    950 30.06                             153    0.39 7 88.5 279 
 BRR  HE ES   1    950 50.19                             153    0.18 7 88.5 279 
 BRR  HZ I         950 55.76        12.3 0.18                          88.5 279 
 RUS  HZ EP   1    950 32.60                             145    0.08 7  123 189 
 RUS  HE ES   1    950 55.45                             145    0.36 7  123 189 
 RUS  HZ I         950 56.19         3.3 0.24                           123 189 
 PTB  HZ EP   1    950 36.15                             134   -0.06 7  177 254 
 PTB  HN ES   1    951  1.38                             134   -0.26 7  177 254 
 ZAR  HZ EP   1    950 39.96                             127   -0.34 6  221 285 
 ZAR  HN ES   1    951  9.20                             127    0.27 6  221 285 
 ZAR  HZ I         951 11.66         7.3 0.20                           221 285 
                                                                                
