 2016  728 0355 52.6 L   6.320 -73.484121.3  RSN 12 0.5 1.7LRSN                1
 GAP= 72        1.12       3.5     2.9  5.7 -0.8798E+00  0.4217E+01  0.2148E+01E
 Epicentro: CONTRATACION - SANTANDER                                           3
 ACTION:UPD 17-03-29 16:55 OP:lp   STATUS:               ID:20160728035552 L   I
 OLDACT:UP  16-07-28 16:01 OP:edw  STATUS:               ID:20160728034760d    3
 OLDACT:DUP 16-07-28 15:49 OP:edw  STATUS:               ID:20160728034760d    3
 2016-07-28-0347-59S.COL___343                                                 6
 STAT SP IPHASW D HRMM SECON CODA AMPLIT PERI AZIMU VELO AIN AR TRES W  DIS CAZ7
 BAR2 EZ EP        356 10.02                             158   -0.0110 44.9  48 
 BAR2 EZ ES        356 23.64                             158   -0.0010 44.9  48 
 RUS  HZ EP        356 11.31                             150   -0.1410 64.8 137 
 RUS  HN ES        356 26.31                             150    0.1410 64.8 137 
 RUS  HZ I         356 28.28         7.1 0.18            150           64.8 137 
 BRR  HZ EP        356 13.04                             141    0.5010 90.6 344 
 BRR  HN ES        356 28.85                             141    0.7410 90.6 344 
 SPBC HZ EP        356 13.58                             138    0.2810 98.5 221 
 SPBC HN ES        356 29.02                             138   -0.4310 98.5 221 
 SPBC HZ I         356 34.19         9.1 0.11            137           98.5 221 
 PTB  HZ EP        356 13.24                             135   -0.9410  110 283 
 PTB  HE ES        356 30.38                             135   -0.6510  110 283 
 PTB  HZ I         356 30.68        11.3 0.28            135            110 283 
 NOR  HZ EP        356 20.48                             121   -0.01 9  175 241 
 NOR  HN ES        356 42.00                             121   -0.25 9  175 241 
 NOR  HZ I         356 43.10         7.7 0.56            121            175 241 
 TAM  HZ EP        356 21.80                             119   -0.04 9  188  86 
 TAM  HN ES        356 44.61                             119   -0.04 9  188  86 
 ZAR  HZ EP        356 22.72                             117   -0.37 9  200 311 
 ZAR  HN ES        356 46.64                             117   -0.24 9  200 311 
 ZAR  HZ I         356 50.52         6.9 0.13            118            200 311 
 HEL  HZ EP        356 27.09                             114    0.55 8  227 266 
 HEL  HE ES        356 54.00                             114    0.98 8  227 266 
 HEL  HZ I         356 56.67         3.3 0.28            114            227 266 
 GUY2CHZ EP        356 28.54                             112    0.26 8  241 240 
 GUY2CHN ES        356 56.57                             112    0.46 8  241 240 
 GUY2CHZ I         357  0.33         3.5 0.50                           241 240 
 URE  HZ EP        356 31.08                             109   -0.63 7  276 305 
 URE  HE ES   4    357  0.90                             109   -1.33 0  276 305 
 PRA  HZ EP        356 37.87                             105    0.15 7  327 208 
 PRA  HN ES        357 12.89                             105   -0.04 7  327 208 
 PRA  HZ I         357 21.14         2.0 0.30            106            327 208 
                                                                                
