 2013  428 0125 34.5 L   6.780 -73.152146.0  RSN  8 0.4 1.7LRSN                1
 GAP=137        0.85       4.5     5.3  6.7 -0.5827E+01  0.9302E+01  0.3990E+01E
 Epicentro: LOS SANTOS - SANTANDER                                             3
 ACTION:UPD 13-05-22 14:41 OP:EP   STATUS:               ID:20130428012534 L   I
 2013-04-28-0120-00M.COL___248                                                 6
 STAT SP IPHASW D HRMM SECON CODA AMPLIT PERI AZIMU VELO AIN AR TRES W  DIS CAZ7
 BAR2 SZ EP   1    125 54.01                             171   -0.15 8 21.1 189 
 BAR2 SZ ES   1    126  8.88                             171   -0.58 8 21.1 189 
 BAR2 SZ I         126 10.53        11.4 0.40            173           21.1 189 
 GIR2 SZ EP   1    125 53.72                             167   -0.58 8 33.3 352 
 GIR2 SZ ES   1    126  9.86                             167    0.15 8 33.3 352 
 GIR2 SZ I         126 12.66         7.9 0.36            163           33.3 352 
 BRR  HZ EP   1    125 56.32                             152    0.58 8 71.7 300 
 BRR  HN ES   1    126 13.05                             152    0.77 8 71.7 300 
 BRR  HZ I         126 19.54         7.4 0.14            150           71.7 300 
 PAM  SZ EP   1    125 57.47                             150    0.56 8 79.5  39 
 PAM  SE ES   1    126 14.41                             150    0.05 8 79.5  39 
 RUS  HZ EP   1    125 58.09                             144   -0.08 8 98.5 176 
 RUS  HN ES   1    126 16.77                             144    0.18 8 98.5 176 
 RUS  HZ I         126 17.36         7.7 0.20            151           98.5 176 
 PTB  HZ EP        126  1.26                             132   -0.1710  147 260 
 PTB  HN ES   1    126 21.91                             132   -0.50 7  147 260 
 PTB  HZ I         126 24.14         5.9 0.14            134            147 260 
 OCA  HN ES   1    126 24.79                             129   -0.53 7  162 353 
 OCA  HZ I         126 29.50         8.9 0.20            131            162 353 
 NOR  HZ EP   1    126 10.09                             119    0.00 7  233 235 
 NOR  HN ES   1    126 38.18                             119    0.36 7  233 235 
 SJC  HZ EP   4    126 28.62                             106   -1.66 0  411 327 
 SJC  HN ES   4    127 11.20                             106   -2.56 0  411 327 
                                                                                
