 2016 1228 0547 45.4 L   6.032 -73.804 99.5  RSN  5 0.4 0.7LRSN                1
 GAP=131        0.94       3.2     4.1  9.2  0.2657E+01  0.9535E+01  0.9066E+01E
 Epicentro: EL PENON - SANTANDER                                               3
 ACTION:UPD 17-01-11 20:20 OP:rebc STATUS:               ID:20161228054745 L   I
 OLDACT:UP  16-12-28 19:06 OP:[3  STATUS:               ID:20161228053742d    3
 OLDACT:UP  16-12-28 19:05 OP:[3  STATUS:               ID:20161228053742d    3
 OLDACT:DUP 16-12-28 19:01 OP:edw  STATUS:               ID:20161228053742d    3
 2016-12-28-0538-00M.COL___359                                                 6
 STAT SP IPHASW D HRMM SECON CODA AMPLIT PERI AZIMU VELO AIN AR TRES W  DIS CAZ7
 RUS  HZ EP        548  3.03                             138   -0.3010 81.3 101 
 RUS  HN ES        548 17.07                             138   -0.2110 81.3 101 
 RUS  HZ I         548 18.34         1.7 0.20            142           81.3 101 
 PTB  HZ EP        548  3.16                             134   -0.3710 91.4 308 
 PTB  HE ES        548 17.42                             134   -0.2210 91.4 308 
 PTB  HZ I         548 19.75         0.8 0.11            137           91.4 308 
 BAR2 EZ EP        548  3.68                             134   -0.2610 92.6  48 
 BAR2 EZ ES        548 18.38                             134    0.0110 92.6  48 
 BRR  HZ EP        548  6.15                             126    0.0010  119   5 
 BRR  HN ES        548 23.10                             126    0.8110  119   5 
 CHI  HZ EP        548 10.76                             119    0.32 9  155 177 
 CHI  HN ES        548 30.30                             119    0.37 9  155 177 
 CHI  HZ I         548 33.83         0.8 0.32            120            155 177 
                                                                                
