 2017  828 0443 13.1 L   6.789 -73.095146.0  RSN  9 0.6 1.8LRSN                1
 GAP=124        1.28       4.5     6.0  7.2  0.3088E+00  0.7959E+01  0.9556E+01E
 Epicentro: LOS SANTOS - SANTANDER                                             3
 ACTION:UPD 17-09-04 20:25 OP:rebc STATUS:               ID:20170828044313 L   I
 OLDACT:DUP 17-08-28 15:19 OP:dhb  STATUS:               ID:20170828043739d    3
 2017-08-28-0438-00M.COL___417                                                 6
 STAT SP IPHASW D HRMM SECON CODA AMPLIT PERI AZIMU VELO AIN AR TRES W  DIS CAZ7
 BAR2 EZ EP        443 32.43                             170   -0.3910 23.8 204 
 BAR2 EZ ES        443 47.55                             170   -0.6110 23.8 204 
 BAR2 EZ I         443 49.54        11.9 0.18            168           23.8 204 
 PAM  EZ IP     C  443 35.81                             152    0.5610 74.9  36 
 PAM  EN ES        443 52.60                             152    0.1110 74.9  36 
 PAM  EZ I         443 54.94         5.5 0.52            155           74.9  36 
 BRR  HZ IP     C  443 34.89                             151    0.2410 76.8 297 
 BRR  HN ES        443 51.65                             151    0.2310 76.8 297 
 BRR  HZ I         443 55.90         4.7 0.11            150           76.8 297 
 RUS  HZ EP        443 36.80                             144   -0.0210 99.1 179 
 RUS  HN ES        443 55.68                             144    0.4010 99.1 179 
 RUS  HZ I         443 56.56         3.7 0.29            145           99.1 179 
 SPBC HZ EP        443 41.70                             129   -0.22 9  166 221 
 SPBC HE ES        444  4.96                             129    0.60 9  166 221 
 SPBC HZ I         444  8.74         4.6 0.11            129            166 221 
 ZAR  HZ EP        443 46.86                             122    0.66 8  210 292 
 ZAR  HE ES        444 10.87                             122   -1.11 8  210 292 
 ZAR  HZ I         444 16.01         3.7 0.41            122            210 292 
 CHI  HZ EP        443 50.29                             117   -0.61 8  249 196 
 CHI  HN ES        444 19.87                             117   -0.47 8  249 196 
 CHI  HZ I         444 23.95       121.8 0.03            118            249 196 
 PTGC HZ EP        443 55.94                             112   -0.72 7  306 160 
 PRA  HZ EP        444  7.26                             106    0.38 6  394 210 
 PRA  HE ES        444 49.94                             106    1.15 6  394 210 
 PRA  HZ I         444 54.00         1.9 0.42            108            394 210 
                                                                                
