 2012  528 0557 30.2 L   6.860 -73.139136.2  RSN  6 0.3 1.8LRSN                1
 GAP=184        0.62       3.3     4.0  6.3  0.3296E+00  0.8705E+01 -0.5011E+01E
 Epicentro: LOS SANTOS - SANTANDER                                             3
 ACTION:UP  12-07-05 12:08 OP:pat  STATUS:               ID:20120528055730 L   I
 2012-05-28-0550-00M.COL___198                                                 6
 STAT SP IPHASW D HRMM SECON CODA AMPLIT PERI AZIMU VELO AIN AR TRES W  DIS CAZ7
 BAR2 SZ EP   1    557 49.15                             167     0.3 7   30 189 
 BAR2 SZ ES   1    558  3.45                             167     0.0 7   30 189 
 BAR2 SZ I         558  5.31        23.3 0.18                            30 189 
 RUS  HZ EP   1    557 53.77                             140     0.2 7  107 177 
 RUS  HN ES   1    558 11.75                             140     0.0 7  107 177 
 RUS  HZ I         558 12.78         7.3 0.21                           107 177 
 PTB  HZ EP   1    557 56.20                             129    -0.4 7  150 256 
 PTB  HN ES   1    558 16.87                             129    -0.4 7  150 256 
 PTB  HZ I         558 18.86         4.4 0.08                           150 256 
 OCA  HZ EP   1    557 56.75                             129    -0.4 7  154 353 
 OCA  HN ES   1    558 18.27                             129     0.0 7  154 353 
 OCA  HZ I         558 22.49        15.6 0.39                           154 353 
 ZAR  HZ EP   1    558  2.32                             120     0.4 6  202 290 
 ZAR  HN ES   1    558 26.88                             120     0.3 6  202 290 
 HEL  HZ EP   1    558 10.21                             113     0.0 6  274 254 
 HEL  HE ES   1    558 41.63                             113     0.2 6  274 254 
                                                                                
