 2017  228 0741  1.8 L   6.762 -73.153149.7  RSN  7 0.3 1.7LRSN                1
 GAP= 96        0.85       4.3     3.4  5.3  0.2197E+01  0.1234E+01 -0.6163E+00E
 Epicentro: LOS SANTOS - SANTANDER                                             3
 ACTION:UPD 17-05-24 15:41 OP:jn   STATUS:               ID:20170228074101 L   I
 OLDACT:REG 17-02-28 20:42 OP:and  STATUS:               ID:20170228073744     3
 2017-02-28-0738-00M.COL___366                                                 6
 STAT SP IPHASW D HRMM SECON CODA AMPLIT PERI AZIMU VELO AIN AR TRES W  DIS CAZ7
 BAR2 EZ IP     C  741 21.84                             172   -0.0410 19.1 190 
 BAR2 EZ ES        741 37.09                             172   -0.4110 19.1 190 
 BAR2 EZ I         741 38.30        11.3 0.44            172           19.1 190 
 BRR  HZ EP        741 23.64                             153    0.1310 72.6 302 
 BRR  HN ES        741 41.23                             153    0.8310 72.6 302 
 BRR  HZ I         741 44.00         9.1 0.14            150           72.6 302 
 PAM  EZ EP        741 24.54                             150   -0.1710 81.1  38 
 PAM  EE ES        741 42.29                             150   -0.2510 81.1  38 
 PAM  EZ I         741 43.92        10.6 0.52            153           81.1  38 
 RUS  HZ EP        741 25.94                             146    0.2410 96.5 175 
 RUS  HN ES        741 44.40                             146    0.0910 96.5 175 
 RUS  HZ I         741 45.04         5.7 0.46            148           96.5 175 
 PTB  HZ EP        741 28.71                             133   -0.30 9  146 260 
 PTB  HN ES        741 49.94                             133   -0.25 9  146 260 
 PTB  HZ I         741 56.30         5.5 0.28            133            146 260 
 TAM  HZ EP        741 30.01                             131    0.19 9  155 103 
 ZAR  HZ EP        741 34.73                             123    0.08 9  205 293 
 ZAR  HN ES        741 59.99                             123   -0.24 9  205 293 
 ZAR  HZ I         742  5.62         9.4 0.32            123            205 293 
                                                                                
