 2017 1128 0400 45.0 L   6.918 -73.138144.0  RSN  5 0.3 1.6LRSN                1
 GAP=259        0.67       6.1     4.0  5.3  0.4611E+01 -0.4314E+00 -0.4552E+01E
 Epicentro: PIEDECUESTA - SANTANDER                                            3
 ACTION:UPD 17-12-12 20:01 OP:rebc STATUS:               ID:20171128040045 L   I
 OLDACT:REG 17-11-28 12:50 OP:dani STATUS:               ID:20171128035738     3
 2017-11-28-0358-00M.COL___492                                                 6
 STAT SP IPHASW D HRMM SECON CODA AMPLIT PERI AZIMU VELO AIN AR TRES W  DIS CAZ7
 BAR2 EZ EP        4 1  5.31                             165    0.5710 36.4 188 
 BAR2 EZ ES        4 1 19.91                             165   -0.2410 36.4 188 
 BAR2 EZ I         4 1 21.55         7.7 0.13            161           36.4 188 
 RUS  HZ EP        4 1  9.32                             140   -0.2310  114 177 
 RUS  HN ES        4 1 28.74                             140    0.0310  114 177 
 RUS  HZ I         4 1 29.15         5.5 0.17            138            114 177 
 PTB  HZ EP        4 1 12.04                             131   -0.13 9  152 254 
 PTB  HN ES        4 1 33.35                             131   -0.02 9  152 254 
 PTB  HZ I         4 1 35.11         3.5 0.48            130            152 254 
 SPBC HZ EP        4 1 14.18                             127   -0.22 9  174 217 
 SPBC HN ES        4 1 37.57                             127    0.23 9  174 217 
 SPBC HZ I         4 1 42.02         5.5 0.76            126            174 217 
 YPLC HZ EP        4 1 15.74                             124   -0.03 9  188 153 
                                                                                
