 2014  928 0022 43.5 L   6.824 -73.150148.0  RSN 17 0.4 2.0LRSN                1
 GAP= 70        0.75       2.4     2.9  4.3 -0.3811E+00  0.1846E+01  0.2583E+01E
 Epicentro: LOS SANTOS - SANTANDER                                             3
 ACTION:UPD 14-10-03 23:09 OP:nd   STATUS:               ID:20140928002243 L   I
 OLDACT:REG 14-09-28 12:58 OP:spq  STATUS:               ID:20140928001819     3
 2014-09-28-0018-19M.COL___301                                                 6
 STAT SP IPHASW D HRMM SECON CODA AMPLIT PERI AZIMU VELO AIN AR TRES W  DIS CAZ7
 BAR2 SZ EP        023  3.26                             170   -0.1810 25.9 188 
 BAR2 SZ ES   1    023 18.57                             170   -0.43 7 25.9 188 
 BAR2 SZ I         023 20.49        29.5 0.20            167           25.9 188 
 BRR  HZ EP        023  4.89                             154    0.1010 69.5 297 
 BRR  HN ES        023 22.00                             154    0.6010 69.5 297 
 BRR  HZ I         023 22.52        22.1 0.10            152           69.5 297 
 PAM  SZ EP        023  5.94                             152    0.1010 75.7  41 
 PAM  SN ES        023 23.06                             152   -0.2210 75.7  41 
 PAM  SZ I         023 24.98        20.6 0.52            156           75.7  41 
 RUS  HZ EP   1    023  7.77                             144    0.12 7  103 176 
 RUS  HE ES   1    023 26.55                             144    0.05 7  103 176 
 RUS  HZ I         023 27.80        14.8 0.20            143            103 176 
 PTB  HZ EP        023  9.80                             133   -0.84 9  148 258 
 PTB  HE ES   1    023 31.70                             133   -0.12 7  148 258 
 PTB  HZ I         023 33.35        19.9 0.11            132            148 258 
 TAM  HZ EP        023 11.61                             131    0.16 9  156 106 
 OCA  HN ES   1    023 34.40                             131    0.66 7  158 353 
 OCA  HZ I         023 37.48         7.8 0.14            132            158 353 
 SPBC HZ EP        023 12.15                             129   -0.18 9  165 218 
 SPBC HN ES   1    023 35.21                             129    0.39 7  165 218 
 SPBC HZ I         023 41.35        18.1 0.28            129            165 218 
 ZAR  HZ EP        023 15.99                             123    0.06 9  203 291 
 ZAR  HN ES        023 41.21                             123   -0.03 9  203 291 
 ZAR  HZ I         023 46.84         9.4 0.25            123            203 291 
 SML  HZ EP   1    023 19.57                             118   -0.39 6  241 335 
 SML  HE ES   1    023 48.00                             118   -0.40 6  241 335 
 SML  HZ I         023 49.97        12.1 0.10            119            241 335 
 CHI  HZ EP        023 21.77                             117    0.19 8  251 195 
 CHI  HN ES   1    023 51.12                             117   -0.17 6  251 195 
 CHI  HZ I         023 54.84         3.7 0.36            118            251 195 
 GUY2CHZ EP   4    023 28.80                             113    1.47 0  302 234 
 GUY2CHN ES   1    024  1.57                             113    0.04 5  302 234 
 GUY2CHZ I         024 11.37         5.8 0.64                           302 234 
 TOL  SZ EP   1    023 32.07                             110    0.06 5  345 224 
 TOL  SN ES   4    024 12.29                             110    2.43 0  345 224 
 TOL  SZ I         024 16.70        10.3 0.44            110            345 224 
 MON  HZ EP   4    023 30.47                             109   -1.87 0  352 308 
 MON  HE ES   4    024  9.14                             109   -1.30 0  352 308 
 MON  HZ I         024  9.70         1.8 0.17            110            352 308 
 PRA  HZ EP   1    023 38.03                             107    0.70 4  394 209 
 PRA  HE ES   1    024 19.83                             107    0.50 4  394 209 
 PRA  HZ I         024 24.89         3.7 0.22            107            394 209 
 ORTC HE ES   1    024 19.97                             107   -0.02 4  397 216 
 ORTC HZ I         024 27.83         2.2 0.42            107            397 216 
 SJC  HZ EP   4    023 37.34                             106   -1.49 0  407 327 
 SJC  HN ES   4    024 18.27                             106   -3.72 0  407 327 
 SJC  HZ I         024 21.79         2.4 0.32            107            407 327 
                                                                                
