 2016 1028 0647  8.5 L   6.788 -73.158143.7  RSN 15 0.3 2.2LRSN                1
 GAP=136        0.74       2.9     3.0  4.1 -0.2303E+01  0.3162E+01  0.3266E+01E
 Epicentro: LOS SANTOS - SANTANDER                                             3
 ACTION:UPD 16-11-09 19:23 OP:rebc STATUS:               ID:20161028064708 L   I
 OLDACT:REG 16-10-28 14:48 OP:cog  STATUS:               ID:20161028063744     3
 2016-10-28-0638-00M.COL___343                                                 6
 STAT SP IPHASW D HRMM SECON CODA AMPLIT PERI AZIMU VELO AIN AR TRES W  DIS CAZ7
 BAR2 EZ EP     C  647 27.69                             171   -0.1310 21.8 187 
 BAR2 EZ ES        647 43.11                             171    0.2010 21.8 187 
 BAR2 EZ I         647 44.39        39.4 0.16            169           21.8 187 
 BRR  HZ IP     C  647 29.53                             152    0.1710 70.7 300 
 BRR  HN ES        647 45.98                             152    0.3210 70.7 300 
 BRR  HZ I         647 49.96        48.5 0.32            151           70.7 300 
 PAM  EZ EP        647 30.52                             150   -0.0610 79.3  40 
 PAM  EN ES        647 47.69                             150   -0.1410 79.3  40 
 PAM  EZ I         647 49.91        52.1 0.48            154           79.3  40 
 RUS  HZ EP        647 31.66                             144   -0.2710 99.3 175 
 RUS  HN ES        647 50.51                             144    0.2910 99.3 175 
 RUS  HZ I         647 51.59        20.7 0.36            145           99.3 175 
 PTB  HZ EP        647 34.81                             132   -0.31 9  146 259 
 PTB  HN ES        647 55.29                             132   -0.62 9  146 259 
 PTB  HZ I         648  1.34        14.1 0.20            132            146 259 
 SPBC HZ EP        647 36.55                             129   -0.07 9  161 219 
 SPBC HN ES        647 58.31                             129   -0.28 9  161 219 
 SPBC HZ I         648  1.16        34.1 0.30            129            161 219 
 NOR  HZ EP        647 44.10                             118    0.23 8  233 235 
 NOR  HN ES        648 11.64                             118    0.16 8  233 235 
 NOR  HZ I         648 19.33         9.2 0.16            119            233 235 
 CHI  HZ EP        647 45.88                             117    0.01 8  247 195 
 CHI  HN ES        648 15.08                             117    0.04 8  247 195 
 CHI  HZ I         648 17.75        10.1 0.28            118            247 195 
 ROSC BZ EP   4    647 47.81                             116    1.54 0  251 211 
 ROSC BN ES   4    648 14.57                             116   -1.18 0  251 211 
 ROSC BZ I         648 19.82        24.2 0.35            117            251 211 
 HEL  HZ EP   4    647 50.15                             115    1.76 0  270 256 
 HEL  HE ES   4    648 20.23                             115    0.70 0  270 256 
 HEL  HZ I         648 25.37         4.7 0.26            115            270 256 
 GUY2CHZ EP   4    647 53.24                             112    1.48 0  299 235 
 GUY2CHN ES        648 26.04                             112    0.51 7  299 235 
 GUY2CHZ I         648 36.32         5.4 0.38                           299 235 
 PTGC HZ EP   4    647 51.10                             111   -1.05 0  308 158 
 PTGC HE ES   4    648 23.83                             111   -2.38 0  308 158 
 PTGC HZ I         648 29.15        12.3 0.32            113            308 158 
 CBOC HZ EP        647 56.06                             110    0.96 7  332 252 
 CBOC HN ES        648 31.20                             110   -0.27 7  332 252 
 PRA  HN EP        648  1.43                             106   -0.27 6  390 209 
 PRA  HE ES        648 43.14                             106   -0.07 6  390 209 
 PRA  HZ I         648 46.63         6.9 0.28            107            390 209 
 SJC  HZ EP   4    648  1.90                             105   -2.11 0  410 327 
 SJC  HN EP   4    648  2.08                             105   -1.93 0  410 327 
 SJC  HE ES   4    648 42.36                             105   -4.97 0  410 327 
 SJC  HZ I         648 49.89         2.7 0.34            107            410 327 
                                                                                
