 2012  728 0710 32.6 L   6.582 -73.275129.6  RSN  4 0.2 1.3LRSN                1
 GAP=123        0.36       5.9     7.4  6.5  0.1573E+02  0.2011E+02  0.2085E+02E
 Epicentro: CABRERA - SANTANDER                                                3
 ACTION:UPD 12-08-14 11:46 OP:ep   STATUS:               ID:20120728071032 L   I
 2012-07-28-0710-00M.COL___215                                                 6
 STAT SP IPHASW D HRMM SECON CODA AMPLIT PERI AZIMU VELO AIN AR TRES W  DIS CAZ7
 BAR2 SZ EP   3    710 50.22                             175     0.1 2   10  84 
 BAR2 SZ ES   3    711  3.02                             175    -0.7 2   10  84 
 BRR  HZ EP        710 52.38                             148     0.010   76 320 
 BRR  HZ I         710 52.42         7.5 0.16             91             76 320 
 BRR  HN ES   1    711  7.74                             148     0.0 7   76 320 
 RUS  HZ EP   3    710 53.26                             147     0.0 2   79 164 
 RUS  HN ES   3    711  9.70                             147     0.3 2   79 164 
 PTB  HZ EP        710 56.69                             132    -0.110  131 268 
 PTB  HZ I         711 16.45         1.5 0.14             90            131 268 
