 2017  128 0219 48.2 L   6.789 -73.151149.4  RSN 13 0.3 1.9LRSN                1
 GAP=119        0.74       3.3     3.8  4.8  0.3843E+01  0.2587E+01 -0.5883E+00E
 Epicentro: LOS SANTOS - SANTANDER                                             3
 ACTION:UPD 17-05-22 16:04 OP:jn   STATUS:               ID:20170128021948 L   I
 OLDACT:REG 17-01-28 13:09 OP:lv   STATUS:               ID:20170128021748     3
 2017-01-28-0218-00M.COL___346                                                 6
 STAT SP IPHASW D HRMM SECON CODA AMPLIT PERI AZIMU VELO AIN AR TRES W  DIS CAZ7
 BAR2 EZ EP        220  8.18                             171   -0.1010 22.0 189 
 BAR2 EZ ES        220 24.01                             171    0.0910 22.0 189 
 BAR2 EZ I         220 26.56         7.3 0.09            173           22.0 189 
 BRR  HZ EP        220  9.92                             153    0.1310 71.2 300 
 BRR  HN ES        220 27.02                             153    0.4310 71.2 300 
 BRR  HZ I         220 30.49        15.5 0.20            151           71.2 300 
 PAM  EZ EP        220 10.86                             151   -0.0610 78.7  39 
 PAM  EN EP        220 11.00                             151           78.7  39 
 PAM  EN I         220 28.98        39.2 0.57            146           78.7  39 
 PAM  EZ I         220 30.22        13.6 0.04                          78.7  39 
 RUS  HZ EP        220 12.32                             145    0.0510 99.4 176 
 RUS  HN ES        220 30.78                             145   -0.2310 99.4 176 
 RUS  HZ I         220 32.45         5.3 0.26            144           99.4 176 
 PTB  HZ EP        220 15.03                             133   -0.40 9  147 259 
 PTB  HN ES        220 36.11                             133   -0.53 9  147 259 
 ZAR  HZ EP        220 20.79                             123   -0.12 9  204 293 
 ZAR  HN ES        220 46.52                             123    0.12 9  204 293 
 ZAR  HZ I         220 51.74        11.2 0.30            120            204 293 
 NOR  HZ EP        220 24.32                             119    0.26 8  233 235 
 NOR  HN ES   4    220 53.61                             119    1.62 0  233 235 
 NOR  HZ I         220 58.28         4.3 0.23            117            233 235 
 CHI  HZ EP   4    220 27.42                             118    1.42 0  247 195 
 CHI  HN ES        220 56.00                             118    0.55 8  247 195 
 CHI  HZ I         221  3.15         2.9 0.31            116            247 195 
 URE  HN ES   4    220 58.90                             114   -2.74 0  284 292 
 URE  HZ I         221  8.43         7.2 0.36            112            284 292 
 PTGC HZ EP   9    220 31.29                             112   -0.87 0  308 158 
 PTGC HE ES        221  5.13                                   -0.42 7  308 158 
 PTGC HZ I         221  7.55         7.5 0.36            110            308 158 
 CBOC HZ EP   4    220 37.12                             111    1.92 0  333 252 
 CBOC HN ES   4    221 14.39                             111    2.56 0  333 252 
 CBOC HZ I         221 19.60         1.2 0.30            108            333 252 
 DBB  EN ES   4    221 10.87                             110   -2.04 0  339 274 
 DBB  EZ I         221 13.84         3.7 0.29            108            339 274 
 SJC  HZ EP   4    220 42.29                             106   -1.71 0  410 327 
 SJC  HN ES   4    221 23.00                             106   -4.49 0  410 327 
 SJC  HZ I         221 28.90         1.9 0.57            104            410 327 
                                                                                
