 2013 1128 0918  2.2 L   6.812 -73.142141.2  RSN  7 0.5 1.6LRSN                1
 GAP=150        1.17       7.5     6.7  7.7 -0.3084E+02  0.5074E+01  0.1628E+02E
 Epicentro: LOS SANTOS - SANTANDER                                             3
 ACTION:UPD 14-01-09 16:31 OP:ep   STATUS:               ID:20131128091802 L   I
 OLDACT:DUP 13-11-28 11:53 OP:stll STATUS:               ID:20131128090809d    3
 2013-11-28-0908-08M.COL___238                                                 6
 STAT SP IPHASW D HRMM SECON CODA AMPLIT PERI AZIMU VELO AIN AR TRES W  DIS CAZ7
 BAR2 SZ EP        918 21.42                             170    0.1010 24.7 190 
 BAR2 SZ ES        918 36.53                             170    0.3010 24.7 190 
 BAR2 SZ I         918 37.73        14.8 0.18            169           24.7 190 
 BRR  HZ EP        918 23.25                             152    0.4010 70.9 297 
 BRR  HN ES        918 39.46                             152    0.5110 70.9 297 
 PAM  SZ EP        918 24.40                             150    0.5410 76.1  40 
 PAM  SE ES        918 39.96                             150   -0.7910 76.1  40 
 PAM  SZ I         918 41.81         3.5 0.46            154           76.1  40 
 PTB  HZ EP        918 28.28                             131   -0.59 9  148 258 
 PTB  HN ES        918 48.99                             131   -0.67 9  148 258 
 PTB  HZ I         918 55.00         5.1 0.30            131            148 258 
 SPBC HZ EP        918 30.27                             128   -0.22 9  164 219 
 SPBC HZ I         918 30.78         5.1 0.10            128            164 219 
 SPBC HN ES        918 52.32                             128   -0.22 9  164 219 
 NOR  HZ EP        918 37.93                             117    0.13 8  236 234 
 NOR  HN ES        919  5.59                             117    0.03 8  236 234 
 NOR  HZ I         919 11.65         4.0 0.20            118            236 234 
 GUY2CHZ EP        918 45.43                             111   -0.30 7  302 235 
 GUY2CHN ES        919 20.53                             111    0.84 7  302 235 
 GUY2CHZ I         919 27.97         3.0 0.40                           302 235 
                                                                                
