 2014  228 0921 32.6 L   6.801 -73.145140.0  RSN 14 0.5 2.1LRSN                1
 GAP=151        0.87       2.6     3.8  6.1 -0.2830E+01  0.7352E+01  0.2036E+01E
 Epicentro: LOS SANTOS - SANTANDER                                             3
 2014-02-28-0918-06M.COL___171                                                 6
 OLDACT:REG 14-02-28 09:24 OP:fm   STATUS:               ID:20140228091806     3
 ACTION:UPD 14-03-10 08:14 OP:ep   STATUS:               ID:20140228092132 L   I
 OLDACT:UP  14-02-28 10:59 OP:fm   STATUS:               ID:20140228091806     3
 STAT SP IPHASW D HRMM SECON CODA AMPLIT PERI AZIMU VELO AIN AR TRES W  DIS CAZ7
 BAR2 SZ EP     D  921 51.44                             170   -0.0510 23.4 190 
 BAR2 SZ ES   2    922  5.73                             170   -0.53 5 23.4 190 
 BAR2 SZ I         922  9.83        34.8 0.52            168           23.4 190 
 PAM  SZ EP        921 54.34                             150    0.1910 77.3  40 
 PAM  SN ES        922 11.38                             150    0.3910 77.3  40 
 PAM  SZ I         922 12.37        15.4 0.18            157           77.3  40 
 PTB  HZ EP   1    921 58.15                             131   -0.91 7  148 259 
 PTB  HN ES   1    922 19.39                             131   -0.35 7  148 259 
 PTB  SZ I         922 23.70        18.5 0.24            131            148 259 
 OCA  HZ EP   2    922  0.02                             128   -0.39 5  160 353 
 OCA  HN ES   1    922 21.51                             128   -0.63 7  160 353 
 OCA  SZ I         922 29.06        11.3 0.26            132            160 353 
 SPBC HZ EP        922  0.45                             128   -0.18 9  163 219 
 SPBC HN ES        922 22.32                             128   -0.20 9  163 219 
 SPBC SZ I         922 29.46        19.3 0.58            130            163 219 
 ZAR  HZ EP        922  4.41                             121   -0.22 9  204 292 
 ZAR  HN ES        922 29.99                             121    0.34 9  204 292 
 ZAR  SZ I         922 37.04        17.4 0.10            123            204 292 
 NOR  HZ EP        922  7.52                             117   -0.44 8  235 234 
 NOR  HN ES        922 35.74                             117    0.15 8  235 234 
 NOR  SZ I         922 41.64        13.7 0.22            120            235 234 
 SML  HZ EP        922  8.56                             116   -0.29 8  244 335 
 SML  HE ES        922 37.68                             116    0.51 8  244 335 
 SML  SZ I         922 41.99        14.8 0.08            119            244 335 
 CHI  HZ EP        922  9.56                             116   -0.39 8  249 195 
 CHI  HN ES   1    922 40.10                             116    0.98 6  249 195 
 CHI  SZ I         922 45.98         4.0 0.32            120            249 195 
 ROSC BZ EP   1    922 11.13                             116    0.75 6  253 211 
 ROSC BN ES   1    922 39.38                             116   -0.50 6  253 211 
 HEL  HZ EP        922 13.08                             114    0.59 8  272 256 
 HEL  HN ES   1    922 44.17                             114    0.53 6  272 256 
 HEL  SZ I         922 52.70         7.2 0.38            116            272 256 
 URE  HZ EP   2    922 12.55                             112   -0.80 4  284 292 
 URE  HE ES   4    922 43.84                             112   -1.33 0  284 292 
 URE  SZ I         922 55.53        10.1 0.30            115            284 292 
 GUY2CHZ EP   1    922 16.27                             111    0.36 5  301 235 
 GUY2CHN ES        922 49.94                             111    0.21 7  301 235 
 PRA  HZ EP   2    922 25.74                             106   -0.15 3  392 210 
 PRA  HN ES   1    923  8.02                             106    0.52 4  392 210 
 PRA  SZ I         923 14.61         6.2 0.70            109            392 210 
                                                                                
