 2017 1028 0515 56.5 L   6.832 -73.120145.0  RSN 11 0.6 1.8LRSN                1
 GAP=113        1.28       4.2     4.5  6.7  0.1828E+01  0.4924E+01 -0.1068E+01E
 Epicentro: LOS SANTOS - SANTANDER                                             3
 ACTION:UPD 17-11-07 19:38 OP:rebc STATUS:               ID:20171028051556 L   I
 OLDACT:UP  17-10-28 15:18 OP:dani STATUS:               ID:20171028050740     3
 OLDACT:UP  17-10-28 15:18 OP:dani STATUS:               ID:20171028050740     3
 OLDACT:REG 17-10-28 12:45 OP:dani STATUS:               ID:20171028050740     3
 2017-10-28-0508-00M.COL___450                                                 6
 STAT SP IPHASW D HRMM SECON CODA AMPLIT PERI AZIMU VELO AIN AR TRES W  DIS CAZ7
 BAR2 EZ EP        516 16.12                             169   -0.0210 27.4 195 
 BAR2 EZ ES        516 30.76                             169   -0.6910 27.4 195 
 BAR2 EZ I         516 32.14        18.6 0.26            169           27.4 195 
 BRR  HZ EP        516 17.94                             152    0.3110 72.1 295 
 BRR  HN ES        516 34.79                             152    0.6910 72.1 295 
 BRR  HZ I         516 39.17        11.3 0.34            151           72.1 295 
 PAM  EZ EP        516 18.99                             152    0.6110 72.9  40 
 PAM  EN ES        516 35.95                             152    0.5110 72.9  40 
 PAM  EZ I         516 38.18         9.2 0.50            155           72.9  40 
 RUS  HZ EP        516 20.07                             143   -0.3610  104 178 
 RUS  HN ES        516 38.25                             143   -0.8410  104 178 
 RUS  HZ I         516 39.49         6.5 0.23            145            104 178 
 PTB  HZ EP        516 23.58                             131   -0.15 9  151 258 
 PTB  HN ES        516 44.41                             131   -0.55 9  151 258 
 PTB  HZ I         516 46.89         5.2 0.27            132            151 258 
 SPBC HZ EP        516 25.41                             128    0.03 9  168 219 
 SPBC HN ES        516 47.65                             128   -0.25 9  168 219 
 SPBC HZ I         516 53.56         6.1 0.09            129            168 219 
 YPLC HZ EP        516 26.57                             126    0.15 9  179 153 
 YPLC HN ES        516 50.29                             126    0.53 9  179 153 
 YPLC HZ I         516 53.10         5.4 0.22            129            179 153 
 ZAR  HZ EP        516 28.58                             122   -0.46 8  205 291 
 ZAR  HN ES        516 54.92                             122    0.51 8  205 291 
 ZAR  HZ I         517  4.43         8.3 0.34            123            205 291 
 GUY2CHZ EP   2    516 42.10                             112    1.53 4  305 235 
 GUY2CHE ES        517 15.75                             112    0.81 7  305 235 
 GUY2CHZ I         517 21.61         3.2 0.32                           305 235 
 LL6C HZ EP        516 41.29                             110   -0.50 7  322 357 
 SJC  HZ EP        516 51.07                             106   -0.81 6  408 326 
 SJC  HN ES   2    517 33.35                             106   -1.72 3  408 326 
 SJC  HZ I         517 36.67         2.9 0.42            107            408 326 
                                                                                
