 2012  328 0906  0.0 L   6.143 -73.859 94.0  RSN  5 0.4 1.1LRSN                1
 GAP=132        0.86       5.7     4.7 13.4 -0.1189E+02 -0.4129E+01  0.3192E+02E
 ACTION:UP  12-03-31 23:23 OP:EP   STATUS:               ID:20120328090600 L   I
 2012-03-28-0900-00M.COL___196                                                 6
 STAT SP IPHASW D HRMM SECON CODA AMPLIT PERI AZIMU VELO SNR AR TRES W  DIS CAZ7
 PTB  HN ES   2    9 6 28.63                             137    -0.9 5   79 304 
 PTB  HZ I         9 6 29.09         2.6 0.10                            79 304 
 BAR2 SZ ES   1    9 6 31.56                             134    -0.1 7   90  56 
 BAR2 SZ I         9 6 34.83         8.0 0.48                            90  56 
 RUS  HZ EP        9 6 18.19                             134     0.010   90 108 
 RUS  HZ I         9 6 18.28         2.5 0.30                            90 108 
 BRR  HZ EP        9 6 19.03                             128    -0.110  108   9 
 BRR  HN ES   1    9 6 34.66                             128     0.5 7  108   9 
 BRR  HZ I         9 6 38.99         2.9 0.18                           108   9 
 NOR  SZ EP        9 6 21.30                             122    -0.110  129 240 
 NOR  SN ES   1    9 6 38.45                             122     0.4 7  129 240 
                                                                                
