 2017  628 0826 46.1 L   6.819 -73.106145.9  RSN 10 0.6 1.6LRSN                1
 GAP=217        0.97       5.7     4.5  6.9  0.6669E+01  0.6764E+01  0.1549E+02E
 Epicentro: LOS SANTOS - SANTANDER                                             3
 ACTION:UPD 17-09-14 16:56 OP:jn   STATUS:               ID:20170628082646 L   I
 OLDACT:UP  17-06-28 17:05 OP:and  STATUS:               ID:20170628081743d    3
 OLDACT:UP  17-06-28 17:05 OP:and  STATUS:               ID:20170628081743d    3
 OLDACT:UP  17-06-28 17:03 OP:and  STATUS:               ID:20170628081743d    3
 OLDACT:DUP 17-06-28 17:01 OP:and  STATUS:               ID:20170628081743d    3
 OLDACT:REG 17-06-28 12:52 OP:and  STATUS:               ID:20170628081742     3
 2017-06-28-0818-00M.COL___364                                                 6
 STAT SP IPHASW D HRMM SECON CODA AMPLIT PERI AZIMU VELO AIN AR TRES W  DIS CAZ7
 BAR2 EZ IP     D  827  5.81                             169    0.0110 26.5 199 
 BAR2 EZ ES        827 20.68                             169   -0.5010 26.5 199 
 BAR2 EZ I         827 22.12         7.7 0.22            165           26.5 199 
 BRR  HZ IP     D  827  7.56                             152    0.1410 74.2 295 
 BRR  HN ES        827 24.71                             152    0.6510 74.2 295 
 BRR  HZ I         827 27.12         4.9 0.14            151           74.2 295 
 PTB  HZ EP        827 12.77                             131   -0.73 9  153 258 
 PTB  HN ES   3    827 33.41                             131   -1.47 2  153 258 
 PTB  HZ I         827 35.46         2.2 0.16            130            153 258 
 SPBC HZ EP        827 14.80                             128   -0.22 9  168 220 
 SPBC HN ES   2    827 38.43                             128    0.84 5  168 220 
 SPBC HZ I         827 43.13         6.4 0.22            128            168 220 
 YPLC HZ EP        827 16.25                             127    0.38 9  177 153 
 YPLC HN ES   2    827 39.76                             127    0.66 4  177 153 
 YPLC HZ I         827 41.05         4.2 0.30            128            177 153 
 ZAR  HZ EP   2    827 19.55                             122    0.67 4  207 291 
 ZAR  HE ES        827 44.28                             122   -0.19 8  207 291 
 ZAR  HZ I         827 49.70         5.5 0.48            123            207 291 
 NOR  HZ EP        827 22.32                             118   -0.02 8  240 235 
 NOR  HN ES        827 50.84                             118    0.22 8  240 235 
 NOR  HZ I         827 54.93         3.1 0.22            118            240 235 
 HEL  HZ EP   3    827 28.66                             114    1.82 2  277 256 
 HEL  HN ES        827 57.95                             114   -0.68 7  277 256 
 HEL  HZ I         828  5.05         2.2 0.54            115            277 256 
 GUY2CHZ EP   3    827 31.43                             112    1.18 2  306 235 
 GUY2CHN ES        828  5.27                             112    0.58 7  306 235 
 GUY2CHZ I         828 12.47         1.7 0.54                           306 235 
 PTGC HZ EP   2    827 29.38                             112   -0.62 4  309 160 
 PTGC HN ES   3    828  2.45                             112   -1.79 2  309 160 
                                                                                
