 2017  228 0721 35.7 L   6.795 -73.162142.9  RSN 13 0.5 2.0LRSN                1
 GAP=101        1.18       4.3     3.9  7.9  0.1515E+00  0.5719E+01  0.1042E+02E
 Epicentro: LOS SANTOS - SANTANDER                                             3
 ACTION:UPD 17-05-24 15:41 OP:jn   STATUS:               ID:20170228072135 L   I
 OLDACT:UP  17-03-01 01:58 OP:ar   STATUS:               ID:20170228071745d    3
 OLDACT:UP  17-03-01 01:54 OP:ar   STATUS:               ID:20170228071745d    3
 OLDACT:DUP 17-03-01 01:51 OP:ar   STATUS:               ID:20170228071745d    3
 OLDACT:UP  17-03-01 01:49 OP:ar   STATUS:               ID:20170228071744     3
 OLDACT:REG 17-02-28 20:41 OP:and  STATUS:               ID:20170228071744     3
 2017-02-28-0718-00M.COL___366                                                 6
 STAT SP IPHASW D HRMM SECON CODA AMPLIT PERI AZIMU VELO AIN AR TRES W  DIS CAZ7
 BAR2 EZ EP        721 54.61                             171   -0.4010 22.6 186 
 BAR2 EZ ES        722  9.82                             171   -0.2310 22.6 186 
 BAR2 EZ I         722 13.37        17.4 0.48            169           22.6 186 
 BRR  HZ EP        721 56.12                             152   -0.3910 69.9 300 
 BRR  HN ES        722 13.63                             152    0.9210 69.9 300 
 BRR  HZ I         722 17.42        19.8 0.30            149           69.9 300 
 PAM  EZ EP        721 57.61                             150   -0.1310 78.9  40 
 PAM  EN ES        722 14.80                             150   -0.1110 78.9  40 
 PAM  EZ I         722 16.65        20.9 0.52            153           78.9  40 
 RUS  HZ EP        722  0.13                             143    0.9510  100 175 
 RUS  HN ES        722 17.27                             143   -0.2010  100 175 
 RUS  HZ I         722 18.43        12.6 0.34            145            100 175 
 PTB  HN ES        722 22.32                             132   -0.71 9  146 259 
 PTB  HZ I         722 29.63         8.7 0.36            130            146 259 
 TAM  HN ES        722 24.98                             129    0.11 9  157 105 
 ZAR  HE ES        722 32.76                             122   -0.14 9  203 292 
 ZAR  HZ I         722 38.39         9.8 0.26            121            203 292 
 NOR  HN ES        722 39.39                             118    0.68 8  233 234 
 NOR  HZ I         722 44.17         5.2 0.16            118            233 234 
 CHI  HZ EP        722 13.19                             117    0.02 8  248 195 
 CHI  HN ES        722 42.10                             117   -0.28 8  248 195 
 CHI  HZ I         722 44.55         4.4 0.30            117            248 195 
 ROSC BZ EP   4    722 15.02                             116    1.47 0  251 211 
 ROSC BN ES   4    722 45.11                             116    2.06 0  251 211 
 ROSC BZ I         722 46.35         8.3 0.30            116            251 211 
 URE  HN ES   4    722 51.91                             113    3.60 0  282 292 
 URE  HZ I         722 55.93         8.0 0.28            113            282 292 
 PTGC HZ EP   9    722 17.67                             111   -1.82 0  309 158 
 PTGC HN ES        722 51.55                             111   -0.25 7  309 158 
 PTGC HZ I         722 55.87         5.8 0.28            112            309 158 
 PRA  HN ES        723 10.37                             106   -0.19 6  391 209 
 PRA  HZ I         723 14.18         2.9 0.54            106            391 209 
                                                                                
