 2012  228 0312 58.8 L   6.733 -73.219134.6  RSN  4 0.3 1.3LRSN                1
 GAP=218        0.55       6.5     5.4  8.5  0.1395E+02  0.1905E+01 -0.2211E+02E
 ACTION:UP  12-03-07 16:34 OP:epov STATUS:               ID:20120228031258 L   I
 2012-02-28-0310-00M.COL___191                                                 6
 STAT SP IPHASW D HRMM SECON CODA AMPLIT PERI AZIMU VELO AIN AR TRES W  DIS CAZ7
 BAR2 SZ EP   2    313 16.58                             173   -0.34 5 16.1 165 
 BAR2 SZ ES   2    313 30.65                             173   -0.43 5 16.1 165 
 BAR2 SZ I         313 32.93         5.1 0.24                          16.1 165 
 BRR  HZ EP        313 18.84                             151    0.2910 68.4 307 
 BRR  HZ I         313 37.81         8.1 0.37                          68.4 307 
 RUS  HZ EP   1    313 20.81                             144   -0.14 7 94.1 171 
 RUS  HN ES   1    313 38.48                             144    0.22 7 94.1 171 
 RUS  HZ I         313 40.34         2.4 0.26                          94.1 171 
 PTB  HZ EP   1    313 23.67                             131   -0.31 7  138 261 
 PTB  HN ES   1    313 43.68                             131    0.03 7  138 261 
                                                                                
