 2011  228 0620 53.2 L   6.746 -73.096142.9  RSN  7 0.5 1.7LRSN                1
 GAP=165        0.91       5.1    11.6  8.8 -0.3115E+02  0.3875E+02 -0.4455E+01E
 Epicentro: JORDAN - SANTANDER                                                 3
 ACTION:UP  11-03-28 15:11 OP:jfem STATUS:               ID:20110228062053 L   I
 2011-02-28-0619-37S.COL___135                                                 6
 STAT SP IPHASW D HRMM SECON CODA AMPLIT PERI AZIMU VELO SNR AR TRES W  DIS CAZ7
 BAR2 SZ EP   1    621 12.75                             172     0.413   20 210 
 BAR2 SZ ES   1    621 27.54                             172     0.213   20 210 
 BAR2 SZ I         621 29.52        29.8 0.22                            20 210 
 RUS  HZ EP   1    621 16.40                             145     0.213   94 179 
 RUS  HE ES   2    621 33.61                             145    -0.5 9   94 179 
 RUS  HZ I         621 36.37         5.3 0.27                            94 179 
 GRA  SZ EP   1    621 18.62                             135     0.112  130  14 
 GRA  SZ ES   1    621 38.46                             135     0.212  130  14 
 GRA  SZ I         621 40.46         6.9 0.32                           130  14 
 OCA  SZ EP   1    621 20.96                             128    -0.912  167 352 
 OCA  SZ I         621 47.88         7.4 0.26                           167 352 
 CHI  HZ EP   2    621 30.72                             117     0.5 7  244 197 
 CHI  HE ES   1    621 58.27                             117    -0.910  244 197 
 CHI  HZ I         622  7.88         3.0 0.39                           244 197 
 HEL  HZ EP   2    621 33.82                             114     0.2 6  276 257 
 HEL  HN ES   2    622  5.02                             114    -0.2 6  276 257 
 PRA  HZ EP        621 46.63                             106     0.310  390 211 
 PRA  HN ES   2    622 28.59                             106     0.9 5  390 211 
                                                                                
