 2013  728 0215 53.7 L   6.841 -73.147147.7  RSN  8 0.5 1.6LRSN                1
 GAP=134        1.04       5.3     5.8  6.9  0.1052E+02  0.1461E+01 -0.8355E+01E
 Epicentro: LOS SANTOS - SANTANDER                                             3
 ACTION:UPD 13-08-12 10:40 OP:ep   STATUS:               ID:20130728021553 L   I
 OLDACT:UP  13-07-28 09:03 OP:cam  STATUS:               ID:20130728020959     3
 OLDACT:REG 13-07-28 08:07 OP:cam  STATUS:               ID:20130728020959     3
 2013-07-28-0209-59M.COL___268                                                 6
 STAT SP IPHASW D HRMM SECON CODA AMPLIT PERI AZIMU VELO AIN AR TRES W  DIS CAZ7
 GIR2 SZ EP   1    216 12.91                             169   -0.57 7 26.8 349 
 GIR2 SZ ES   1    216 28.96                             169    0.05 7 26.8 349 
 BAR2 SZ EP   1    216 13.40                             169   -0.24 7 27.8 188 
 BAR2 SZ ES        216 29.12                             169   -0.0910 27.8 188 
 BAR2 SZ I         216 30.03         5.8 0.28            167           27.8 188 
 BRR  HZ EP     C  216 15.07                             154    0.1510 69.0 295 
 BRR  HE ES        216 32.04                             154    0.5610 69.0 295 
 BRR  HZ I         216 35.82         8.2 0.36            149           69.0 295 
 PAM  SZ EP        216 16.17                             152    0.2610 74.1  42 
 RUS  HZ EP        216 18.04                             143    0.0910  105 176 
 RUS  HZ I         216 18.70         2.1 0.10            144            105 176 
 RUS  HN ES   1    216 36.67                             143   -0.21 7  105 176 
 PTB  HZ EP   1    216 20.58                             132   -0.30 7  149 257 
 PTB  HN ES   1    216 41.22                             132   -0.87 7  149 257 
 PTB  HZ I         216 48.51         5.3 0.42            130            149 257 
 ZAR  HZ EP        216 27.05                             123    0.98 9  202 291 
 ZAR  HE ES        216 51.43                             123    0.10 9  202 291 
 ZAR  HZ I         216 56.71         7.3 0.42            122            202 291 
 SML  HZ EP   1    216 29.45                             118   -0.52 6  240 335 
 SML  HE ES        216 57.56                             118   -0.71 8  240 335 
 SML  HZ I         217  3.20         7.3 0.10            118            240 335 
                                                                                
