 2011  628 0220 35.1 L   6.794 -73.155145.7  RSN 16 0.4 3.2LRSN                1
 GAP=132        0.76       2.6     4.0  5.3 -0.1727E+01  0.7098E+01  0.3357E+01E
 Epicentro: LOS SANTOS - SANTANDER                                             3
 ACTION:UP  11-07-14 19:08 OP:ep   STATUS:               ID:20110628022035 L   I
 2011-06-28-0219-01S.COL___140                                                 6
 STAT SP IPHASW D HRMM SECON CODA AMPLIT PERI AZIMU VELO SNR AR TRES W  DIS CAZ7
 BTL  SZ EP        220 54.75                             172     0.110   18 318 
 BAR2 SZ EP        220 54.47                             171    -0.310   23 188 
 BAR2 SZ ES   1    221  9.94                             171    -0.1 7   23 188 
 BAR2 SZ I         221 11.57       342.3 0.21                            23 188 
 BRR  HZ EP        220 56.61                             153     0.410   71 299 
 BRR  HN ES   2    221 12.91                             153     0.2 5   71 299 
 BRR  HZ I         221 17.48       286.9 0.26                            71 299 
 RUS  HZ EP        220 58.60                             144    -0.310  100 175 
 RUS  HN ES   2    221 17.18                             144    -0.2 5  100 175 
 RUS  HZ I         221 19.19       226.0 0.25                           100 175 
 BRI  SZ EP        220 59.22                             141     0.110  109  21 
 BRI  SZ ES   2    221 18.28                             141     0.5 5  109  21 
 GRA  SZ EP        221  0.12                             137    -0.310  127  18 
 GRA  SZ ES   1    221 19.89                             137    -0.3 7  127  18 
 OCA  SZ EP   1    221  3.32                             129    -0.2 7  161 354 
 OCA  SZ ES   2    221 25.84                             129     0.2 5  161 354 
 YOP  SZ EP        221  5.29                             126     0.1 9  179 153 
 YOP  SE ES   1    221 29.18                             126     0.6 7  179 153 
 YOP  SZ I         221 33.33        96.8 0.29                           179 153 
 NOR  SZ EP        221 10.48                             118    -0.3 8  233 234 
 NOR  SN ES   2    221 37.81                             118    -0.7 4  233 234 
 CHI  HZ EP        221 12.68                             117    -0.1 8  248 195 
 CHI  HE ES   2    221 41.98                             117    -0.1 4  248 195 
 CHI  HZ I         221 48.20       103.6 0.70                           248 195 
 HEL  HZ EP        221 15.81                             115     0.6 8  271 256 
 HEL  HN ES   2    221 47.16                             115     0.7 4  271 256 
 HEL  HZ I         221 53.32        83.0 0.44                           271 256 
 VIL  SZ EP   1    221 18.26                             112    -0.2 5  303 191 
 VIL  SN ES   2    221 51.94                             112    -0.3 4  303 191 
 VIL  SZ I         221 57.95        58.6 0.19                           303 191 
 RREF HZ EP        221 21.81                             111     0.7 7  321 229 
 RREF HN ES   1    221 56.48                             111    -0.5 5  321 229 
 RREF HZ I         222  6.44       147.7 0.30                           321 229 
 DBB  SZ EP   1    221 21.76                             109    -0.7 5  338 274 
 TOL  SZ EP        221 23.80                             109     0.5 7  342 225 
 PRA  HZ EP        221 28.22                             106    -0.3 6  391 209 
 PRA  HE ES   2    222 10.36                             106     0.2 3  391 209 
                                                                                
