 2014  328 0848 24.4 L   6.769 -73.131160.3  RSN  6 0.5 1.6LRSN                1
 GAP=184        1.08       5.6     8.5 14.4 -0.5035E+01  0.6520E+02 -0.4293E+02E
 Epicentro: LOS SANTOS - SANTANDER                                             3
 ACTION:UPD 14-04-09 23:21 OP:nd   STATUS:               ID:20140328084824 L   I
 OLDACT:DUP 14-03-28 09:33 OP:carl STATUS:               ID:20140328084046d    3
 2014-03-28-0840-44M.COL___247                                                 6
 STAT SP IPHASW D HRMM SECON CODA AMPLIT PERI AZIMU VELO AIN AR TRES W  DIS CAZ7
 BAR2 SZ ES        849  1.84                             172   -0.5010 20.4 196 
 BAR2 SZ I         849  3.40         9.9 0.36            171           20.4 196 
 RUS  HE ES        849  9.39                             147    0.5610 97.1 177 
 PTB  HZ EP   4    848 54.20                             135    1.55 0  149 260 
 PTB  HE ES        849 14.38                             135   -0.32 9  149 260 
 PTB  HZ I         849 17.73         3.3 0.12            134            149 260 
 OCA  HN ES        849 17.36                             132   -0.05 9  164 353 
 ZAR  HZ EP        848 57.55                             125   -0.54 8  207 293 
 ZAR  HN ES        849 24.97                             125    0.59 8  207 293 
 ZAR  HZ I         849 31.96         2.7 0.24            124            207 293 
 SML  HZ EP   4    849  3.89                             120    1.64 0  247 335 
 SML  HN ES        849 32.16                             120    0.36 8  247 335 
 SML  HZ I         849 39.80         2.4 0.24            120            247 335 
                                                                                
