 2011  828 0708 33.8 L   6.705 -73.033134.8  RSN  5 0.3 1.1LRSN                1
 GAP=194        0.50       4.0     6.7  6.4  0.6224E+01  0.1691E+01 -0.9834E+00E
 Epicentro: ARATOCA - SANTANDER                                                3
 ACTION:UPD 12-07-13 15:54 OP:ep   STATUS:               ID:20110828070833 L   I
 2011-08-28-0707-24S.COL___161                                                 6
 STAT SP IPHASW D HRMM SECON CODA AMPLIT PERI AZIMU VELO AIN AR TRES W  DIS CAZ7
 BAR2 SZ EP   1    7 8 52.27                             171    0.22 7 20.6 233 
 BAR2 SZ ES   1    7 9  5.94                             171   -0.35 7 20.6 233 
 BAR2 SZ I         7 9  9.63         3.0 0.32                          20.6 233 
 BRR  HZ EP   1    7 8 54.50                             145   -0.31 7 87.2 301 
 BRR  HZ I         7 9  2.97         3.5 0.17                          87.2 301 
 BRR  HN ES   1    7 9 11.43                             145    0.23 7 87.2 301 
 RUS  HZ EP   2    7 8 55.67                             144   -0.03 5 90.0 184 
 RUS  HN ES   2    7 9 13.18                             144    0.39 5 90.0 184 
 RUS  HZ I         7 9 16.21         1.3 0.35                          90.0 184 
 OCA  SZ ES   2    7 9 25.04                             125    0.17 4  173 349 
 OCA  SZ I         7 9 26.79         2.3 0.31                           173 349 
 NOR  SN ES   2    7 9 37.14                             115   -0.04 4  239 238 
                                                                                
