 2013  528 0349 59.3 L   6.382 -73.694 92.3  RSN  4 0.4 0.9LRSN                1
 GAP=153        1.00       5.3     4.2 10.2  0.8883E+01  0.1086E+02  0.1306E+02E
 Epicentro: SANTA HELENA DEL OPON - SANTANDER                                  3
 ACTION:UPD 13-06-20 09:54 OP:ep   STATUS:               ID:20130528034959 L   I
 2013-05-28-0350-00M.COL___261                                                 6
 STAT SP IPHASW D HRMM SECON CODA AMPLIT PERI AZIMU VELO AIN AR TRES W  DIS CAZ7
 BAR2 SZ EP        350 14.72                             144    0.1110 61.1  68 
 BAR2 SZ ES        350 25.79                             144   -0.7310 61.1  68 
 BAR2 SZ I         350 29.21         2.4 0.20            148           61.1  68 
 BRR  HZ EP        350 15.84                             136    0.0510 80.2 359 
 BRR  HN ES        350 29.13                             136    0.5010 80.2 359 
 BRR  HZ I         350 32.37         4.2 0.50            140           80.2 359 
 PTB  HZ EP        350 15.96                             134   -0.3810 86.1 282 
 PTB  HN ES        350 29.63                             134    0.0310 86.1 282 
 PTB  HZ I         350 31.76         2.8 0.32            138           86.1 282 
 RUS  HZ EP     C  350 17.04                             134    0.0110 86.6 129 
 RUS  HN ES        350 31.25                             134    0.4210 86.6 129 
 RUS  HZ I         350 32.64         1.3 0.22            140           86.6 129 
                                                                                
