 2011  228 0918  1.3 L   6.083 -74.157  4.0  RSN  4 0.3 1.1LRSN                1
 GAP=148        0.72       3.6     4.5 10.0 -0.6901E+01 -0.2606E+02  0.1228E+02E
 Epicentro: CIMITARRA - SANTANDER                                              3
 ACTION:UP  11-03-28 15:11 OP:jfem STATUS:               ID:20110228091801 L   I
 2011-02-28-0916-39S.COL___135                                                 6
 STAT SP IPHASW D HRMM SECON CODA AMPLIT PERI AZIMU VELO SNR AR TRES W  DIS CAZ7
 RUS  HZ EP   2    918 20.38                              47    -0.3 5  121 100 
 RUS  HZ I         918 38.64         1.5 0.29                           121 100 
 BAR2 SZ EP   1    918 20.93                              47     0.4 7  122  62 
 BAR2 SZ ES   1    918 35.38                              47    -0.2 7  122  62 
 BAR2 SZ I         918 37.30        21.0 0.24                           122  62 
 HEL  HZ EP   1    918 25.18                              47    -0.2 7  152 275 
 HEL  HZ I         918 58.66         1.3 0.27                           152 275 
 CHI  HZ EP   1    918 28.15                              47     0.4 7  167 164 
 CHI  HN ES   1    918 48.06                              47    -0.2 7  167 164 
 CHI  HZ I         918 50.83         2.1 0.41                           167 164 
                                                                                
