 2013 1028 0643  4.9 L   6.758 -73.156144.6  RSN  5 0.4 1.0LRSN                1
 GAP=137        0.69       4.4     4.8  7.8 -0.2288E+01  0.2721E+01  0.8615E+01E
 Epicentro: LOS SANTOS - SANTANDER                                             3
 ACTION:UPD 13-11-25 09:24 OP:ep   STATUS:               ID:20131028064304 L   I
 OLDACT:UP  13-10-28 10:11 OP:jn   STATUS:               ID:20131028064000     3
 OLDACT:REG 13-10-28 08:29 OP:jn   STATUS:               ID:20131028064000     3
 2013-10-28-0640-00M.COL___273                                                 6
 STAT SP IPHASW D HRMM SECON CODA AMPLIT PERI AZIMU VELO AIN AR TRES W  DIS CAZ7
 BRR  HZ EP   1    643 26.00                             152   -0.02 7 72.5 302 
 BRR  HE ES   1    643 43.19                             152    0.71 7 72.5 302 
 BRR  HZ I         643 45.67         3.1 0.32            153           72.5 302 
 PAM  SZ EP   1    643 27.23                             149   -0.05 7 81.7  38 
 PAM  SN ES   1    643 44.37                             149   -0.34 7 81.7  38 
 RUS  HZ EP   1    643 28.58                             145    0.34 7 96.1 175 
 RUS  HN ES   1    643 46.28                             145   -0.14 7 96.1 175 
 RUS  HZ I         643 48.28         1.1 0.30            145           96.1 175 
 PTB  HZ EP   1    643 31.55                             132   -0.07 7  146 261 
 PTB  HN ES   1    643 51.83                             132   -0.61 7  146 261 
 PTB  HZ I         643 54.63         1.5 0.10            133            146 261 
 CHI  HZ EP   2    643 42.10                             117    0.06 4  244 195 
 CHI  HN ES   2    644 11.24                             117    0.25 4  244 195 
 CHI  HZ I         644 15.93         0.8 0.43            118            244 195 
                                                                                
