 2013  428 0852 18.5 L   6.831 -73.183144.0  RSN  5 0.4 1.3LRSN                1
 GAP=176        0.77       5.9     6.3  6.6  0.6827E+01  0.7128E+01  0.8938E+01E
 Epicentro: ZAPATOCA - SANTANDER                                               3
 ACTION:UPD 13-05-22 14:41 OP:EP   STATUS:               ID:20130428085218 L   I
 2013-04-28-0850-00M.COL___248                                                 6
 STAT SP IPHASW D HRMM SECON CODA AMPLIT PERI AZIMU VELO AIN AR TRES W  DIS CAZ7
 BAR2 SZ EP        852 38.08                             169    0.1110 26.4 180 
 BAR2 SZ ES   1    852 53.20                             169    0.03 7 26.4 180 
 BAR2 SZ I         852 54.45         6.1 0.42            165           26.4 180 
 GIR2 SZ EP        852 38.22                             169    0.3710 27.4 358 
 GIR2 SZ ES        852 52.42                             169   -0.5310 27.4 358 
 GIR2 SZ I         852 54.77         3.4 0.30            166           27.4 358 
 BRR  HZ EP   1    852 39.34                             154    0.19 7 65.9 298 
 BRR  HN ES   2    852 56.08                             154    0.81 5 65.9 298 
 BRR  HZ I         852 59.53         4.2 0.24            148           65.9 298 
 RUS  HZ EP        852 42.18                             142   -0.1610  104 174 
 RUS  HN ES   1    853  1.23                             142    0.28 7  104 174 
 RUS  HZ I         853  1.86         3.0 0.28            144            104 174 
 PTB  HZ EP   1    852 44.58                             132   -0.42 7  144 257 
 PTB  HN ES   1    853  5.53                             132   -0.15 7  144 257 
 PTB  HZ I         853 12.80         2.7 0.20            130            144 257 
                                                                                
