 2016  128 0842  1.0 L   6.769 -73.187136.7  RSN  4 0.2 0.9LRSN                1
 GAP=141        0.67       3.9     3.8  5.7 -0.4618E+01  0.6506E+01 -0.2464E+01E
 Epicentro: LOS SANTOS - SANTANDER                                             3
 ACTION:UPD 16-03-09 23:29 OP:cam  STATUS:               ID:20160128084201 L   I
 OLDACT:REG 16-01-28 14:06 OP:cara STATUS:               ID:20160128083736     3
 2016-01-28-0837-36M.COL___324                                                 6
 STAT SP IPHASW D HRMM SECON CODA AMPLIT PERI AZIMU VELO AIN AR TRES W  DIS CAZ7
 BAR2 EZ ES        842 33.60                             171   -0.2310 19.5 178 
 BAR2 EZ I         842 38.36         2.4 0.26            173           19.5 178 
 PAM  EZ EP        842 22.56                             147   -0.0210 83.0  40 
 PAM  EN ES        842 39.56                             147    0.1210 83.0  40 
 PAM  EZ I         842 41.68         1.8 0.44            152           83.0  40 
 RUS  HZ EP        842 23.22                             143   -0.3810 97.6 173 
 RUS  HE ES        842 41.60                             143    0.3310 97.6 173 
 RUS  HZ I         842 42.55         0.8 0.48            148           97.6 173 
 PTB  HZ EP        842 27.01                             131    0.29 9  143 260 
 PTB  HN ES        842 46.73                             131   -0.09 9  143 260 
 PTB  HZ I         842 51.11         0.9 0.20            133            143 260 
                                                                                
