 2015  428 0906 42.6 L   6.820 -73.145139.8  RSN  6 0.5 1.4LRSN                1
 GAP=214        1.28       5.7     9.5  8.7 -0.4187E+01  0.1208E+02 -0.1113E+02E
 Epicentro: LOS SANTOS - SANTANDER                                             3
 ACTION:UPD 15-06-03 16:58 OP:cam  STATUS:               ID:20150428090642 L   I
 OLDACT:REG 15-04-28 13:06 OP:drio STATUS:               ID:20150428085749     3
 2015-04-28-0857-49M.COL___283                                                 6
 STAT SP IPHASW D HRMM SECON CODA AMPLIT PERI AZIMU VELO AIN AR TRES W  DIS CAZ7
 BAR2 EZ EP        9 7  1.49                             169   -0.0410 25.6 189 
 BAR2 EZ ES        9 7 15.80                             169   -0.5310 25.6 189 
 BAR2 EZ I         9 7 19.13         4.9 0.22            166           25.6 189 
 BRR  HZ EP        9 7  3.46                             152    0.4410 70.2 297 
 BRR  HN ES        9 7 19.95                             152    0.9710 70.2 297 
 BRR  HZ I         9 7 24.76         3.5 0.12            147           70.2 297 
 PTB  HZ EP        9 7  8.81                             131   -0.30 9  148 258 
 PTB  HN ES        9 7 29.10                             131   -0.71 9  148 258 
 PTB  HZ I         9 7 36.60         3.6 0.42            129            148 258 
 SPBC HZ EP        9 7 10.97                             127    0.18 9  165 219 
 SPBC HN ES        9 7 32.90                             127    0.09 9  165 219 
 SPBC HZ I         9 7 40.64         4.5 0.12            128            165 219 
 ZAR  HZ EP        9 7 15.11                             121    0.56 9  203 292 
 SML  HZ EP        9 7 18.41                             116   -0.24 8  242 335 
 SML  HE ES        9 7 46.09                             116   -0.70 8  242 335 
 SML  HZ I         9 7 54.01         2.3 0.28            118            242 335 
                                                                                
