 2010 1128 0243 15.4 L   6.325 -73.586114.6  RSN  7 0.3 1.1LRSN                1
 GAP= 85        0.61       3.6     5.0  6.6  0.1127E+01  0.1440E+02  0.2644E+01E
 Epicentro: SANTA HELENA DEL OPON - SANTANDER                                  3
 ACTION:UP  10-12-17 16:55 OP:REBC STATUS:               ID:20101128024315 L   I
 2010-11-28-0241-01S.COL___129                                                 6
 STAT SP IPHASW D HRMM SECON CODA AMPLIT PERI AZIMU VELO SNR AR TRES W  DIS CAZ7
 BAR2 SZ EP   2    243 31.68                             153    -0.8 5   53  56 
 BAR2 SZ ES   1    243 45.91                             153     0.1 7   53  56 
 BAR2 SZ I         243 47.51        12.0 0.44                            53  56 
 RUS  HZ EP   1    243 34.23                             145     0.1 7   73 131 
 RUS  HN ES   1    243 48.63                             145    -0.1 7   73 131 
 RUS  HZ I         243 51.25         2.3 0.28                            73 131 
 BRR  HZ EP   1    243 34.59                             140     0.1 7   88 351 
 BRR  HN ES   1    243 49.38                             140     0.0 7   88 351 
 BRR  HZ I         243 50.63         4.2 0.19                            88 351 
 NOR  SZ EP   2    243 41.21                             120    -0.6 5  165 240 
 NOR  SE ES   2    244  2.63                             120     0.1 5  165 240 
 NOR  SZ I         244  4.36         0.6 0.13                           165 240 
 GUE  SZ EP   1    243 43.97                             118     0.0 7  182  24 
 GUE  SZ I         243 50.82         0.6 0.10                           182  24 
 CHI  HZ EP   2    243 45.22                             117     0.5 4  188 185 
 HEL  HZ EP   3    243 48.19                             113     0.5 2  216 266 
 HEL  HZ I         244 30.04         1.7 0.11                           216 266 
                                                                                
