 2012  228 0650 30.0 L   6.793 -73.140151.6  RSN  7 0.4 1.8LRSN                1
 GAP=138        0.77       4.8     5.2  7.2 -0.9534E+00  0.1033E+02  0.1226E+02E
 ACTION:UP  12-03-07 16:35 OP:epov STATUS:               ID:20120228065030 L   I
 2012-02-28-0650-00M.COL___191                                                 6
 STAT SP IPHASW D HRMM SECON CODA AMPLIT PERI AZIMU VELO AIN AR TRES W  DIS CAZ7
 BAR2 SZ EP   1    650 50.09                             171   -0.21 8 22.7 192 
 BAR2 SZ ES   2    651  5.83                             171   -0.31 5 22.7 192 
 BAR2 SZ I         651  7.75        15.6 0.51                          22.7 192 
 BRR  HZ EP   1    650 51.07                             153   -0.74 8 72.1 299 
 BRR  HZ I         650 52.83        12.6 0.20                          72.1 299 
 BRR  HE ES   1    651  9.55                             153    0.72 8 72.1 299 
 PAM  SN ES   1    651 10.71                             152    0.06 8 77.6  39 
 RUS  HZ EP   1    650 54.36                             145    0.11 8 99.8 176 
 RUS  HN ES   1    651 13.08                             145   -0.10 8 99.8 176 
 RUS  HZ I         651 15.02         8.0 0.46                          99.8 176 
 PTB  HZ EP        650 57.34                             133   -0.1210  148 259 
 PTB  HE ES   1    651 18.77                             133   -0.13 7  148 259 
 NOR  SZ EP   1    651  6.53                             120    0.47 7  235 235 
 NOR  SN ES   1    651 33.97                             120   -0.23 7  235 235 
 CHI  HZ EP   1    651  8.74                             118    0.80 6  248 195 
 CHI  HN ES   1    651 37.46                             118   -0.10 6  248 195 
                                                                                
