 2017  528 0144  2.2 L   6.766 -73.193156.0  RSN  5 0.3 1.4LRSN                1
 GAP=229        0.54       3.4     4.5  6.0  0.3936E+01  0.6076E+00 -0.1597E+01E
 Epicentro: ZAPATOCA - SANTANDER                                               3
 ACTION:UPD 17-06-16 13:39 OP:jn   STATUS:               ID:20170528014402 L   I
 OLDACT:UP  17-05-28 14:04 OP:dnl  STATUS:               ID:20170528013739     3
 OLDACT:UP  17-05-28 14:04 OP:dnl  STATUS:               ID:20170528013739     3
 OLDACT:REG 17-05-28 13:12 OP:dnl  STATUS:               ID:20170528013739     3
 2017-05-28-0138-00M.COL___335                                                 6
 STAT SP IPHASW D HRMM SECON CODA AMPLIT PERI AZIMU VELO AIN AR TRES W  DIS CAZ7
 BRR  HZ EP        144 24.55                             155    0.1910 68.7 303 
 BRR  HN ES        144 41.69                             155    0.0810 68.7 303 
 BRR  HZ I         144 42.50         4.3 0.48            150           68.7 303 
 RUS  HZ EP   2    144 26.92                             147    0.14 5 97.3 173 
 RUS  HN ES        144 45.71                             147   -0.2110 97.3 173 
 RUS  HZ I         144 46.49         2.3 0.28            147           97.3 173 
 PTB  HZ EP   2    144 29.54                             135   -0.00 5  142 260 
 PTB  HN ES        144 50.66                             135   -0.19 9  142 260 
 PTB  HZ I         144 57.31         2.5 0.42            132            142 260 
 SPBC HZ EP   2    144 31.26                             132    0.29 5  157 218 
 SPBC HE ES        144 53.58                             132    0.20 9  157 218 
 SPBC HZ I         144 54.98         4.6 0.28            130            157 218 
 ZAR  HZ EP   2    144 34.15                             125   -0.87 4  201 294 
 ZAR  HN ES   4    144 58.61                             125   -1.99 0  201 294 
 ZAR  HZ I         145  4.77         2.5 0.28            123            201 294 
                                                                                
