 2012  328 0452 35.9 L   6.722 -73.175149.6  RSN  6 0.4 1.3LRSN                1
 GAP=136        0.91       6.3     5.7  8.1  0.3507E+01  0.1668E+01 -0.3180E+01E
 ACTION:UP  12-03-31 23:23 OP:EP   STATUS:               ID:20120328045235 L   I
 2012-03-28-0450-00M.COL___196                                                 6
 STAT SP IPHASW D HRMM SECON CODA AMPLIT PERI AZIMU VELO SNR AR TRES W  DIS CAZ7
 BAR2 SZ EP        452 55.91                             174     0.010   14 183 
 BAR2 SZ ES   1    453 11.38                             174     0.0 7   14 183 
 BAR2 SZ I         453 13.43         3.5 0.38                            14 183 
 BRR  HZ EP        452 57.92                             153     0.310   73 306 
 BRR  HZ I         452 58.09         7.4 0.30                            73 306 
 BRR  HE ES   1    453 15.15                             153     0.7 7   73 306 
 PAM  SZ EP        452 58.99                             149    -0.110   86  38 
 PAM  SE ES   2    453 16.22                             149    -0.9 5   86  38 
 RUS  HZ EP        452 59.67                             147     0.210   92 174 
 RUS  HE ES   1    453 17.72                             147    -0.1 7   92 174 
 RUS  HZ I         453 19.33         2.2 0.22                            92 174 
 PTB  HZ EP        453  2.52                             134    -0.3 9  143 262 
 PTB  HN ES   1    453 23.34                             134    -0.4 7  143 262 
 PTB  HZ I         453 25.05         1.8 0.14                           143 262 
 ZAR  HN ES   2    453 33.56                             123    -0.6 4  204 295 
 ZAR  HZ I         453 39.81         2.4 0.42                           204 295 
                                                                                
