 2017  428 0401 25.8 L   6.722 -73.201153.8  RSN  4 0.3 0.9LRSN                1
 GAP=225        0.57       4.9     5.3  6.8  0.1418E+02 -0.4692E+00 -0.6484E+01E
 Epicentro: VILLANUEVA - SANTANDER                                             3
 ACTION:UP  17-05-30 21:16 OP:jn   STATUS:               ID:20170428040125 L   I
 OLDACT:UPD 17-05-25 15:43 OP:jn   STATUS:               ID:20170428040125 L   3
 OLDACT:UP  17-04-28 15:47 OP:and  STATUS:               ID:20170428035741     3
 OLDACT:REG 17-04-28 12:38 OP:and  STATUS:               ID:20170428035741     3
 2017-04-28-0358-00M.COL___367                                                 6
 STAT SP IPHASW D HRMM SECON CODA AMPLIT PERI AZIMU VELO AIN AR TRES W  DIS CAZ7
 BRR  HZ EP        4 1 47.65                             154   -0.1010 70.7 307 
 BRR  HE ES        4 2  5.06                             154    0.1610 70.7 307 
 RUS  HZ EP   2    4 1 50.29                             148    0.53 5 92.6 172 
 RUS  HZ  IAML     4 1 51.23         1.0 0.10                          92.6 172 
 RUS  HN ES        4 2  8.30                             148   -0.1910 92.6 172 
 PTB  HZ EP   2    4 1 53.19                             135    0.45 5  140 262 
 PTB  HN ES        4 2 13.86                             135    0.08 9  140 262 
 PTB  HZ  IAML     4 2 19.40         1.2 0.45                           140 262 
 ZAR  HZ EP   2    4 1 58.42                             124   -0.10 4  202 295 
 ZAR  HN ES   2    4 2 23.25                             124   -0.82 4  202 295 
                                                                                
