 2016 1228 0958 40.9 L   6.787 -73.126147.6  RSN  6 0.6 1.2LRSN                1
 GAP=140        1.41       7.1     6.4  9.5  0.4641E+01  0.1526E+02 -0.2955E+01E
 Epicentro: LOS SANTOS - SANTANDER                                             3
 ACTION:UPD 17-01-11 20:20 OP:rebc STATUS:               ID:20161228095840 L   I
 OLDACT:UP  16-12-29 13:28 OP:nlst STATUS:               ID:20161228095840 L   3
 OLDACT:UP  16-12-28 20:34 OP:edw  STATUS:               ID:20161228094744     3
 OLDACT:UP  16-12-28 20:34 OP:edw  STATUS:               ID:20161228094744     3
 OLDACT:REG 16-12-28 13:36 OP:edw  STATUS:               ID:20161228094744     3
 2016-12-28-0948-00M.COL___356                                                 6
 STAT SP IPHASW D HRMM SECON CODA AMPLIT PERI AZIMU VELO AIN AR TRES W  DIS CAZ7
 BAR2 EZ EP        959  0.58                             171   -0.1710 22.4 196 
 BAR2 EZ ES        959 16.58                             171    0.3710 22.4 196 
 BAR2 EZ I         959 17.62         3.1 0.16            170           22.4 196 
 BRR  HZ EP        959  2.30                             152   -0.1110 73.8 299 
 BRR  HN ES        959 19.95                             152    0.7710 73.8 299 
 PAM  EZ IP     D  959  3.25                             151   -0.0610 77.1  38 
 PAM  EN ES        959 20.25                             151   -0.5310 77.1  38 
 PAM  EZ I         959 20.81         2.7 0.38            153           77.1  38 
 RUS  HZ EP        959  5.24                             145    0.5110 99.0 177 
 RUS  HN ES        959 23.10                             145   -0.2110 99.0 177 
 RUS  HZ I         959 24.39         1.0 0.12            146           99.0 177 
 PTB  HZ EP        959  7.42                             132   -0.79 9  150 260 
 PTB  HN ES        959 29.05                             132   -0.44 9  150 260 
 PTB  HZ I         959 31.01         4.2 0.24            132            150 260 
 ZAR  HZ EP        959 14.98                             122    1.23 8  207 292 
 ZAR  HN ES        959 38.82                             122   -0.54 8  207 292 
 ZAR  HZ I         959 43.91         3.3 0.32            123            207 292 
                                                                                
