 2010  628 0306 37.5 L   6.036 -73.613118.2  RSN  9 0.5 1.7LRSN                1
 GAP=118        1.01       4.0     8.4  9.4 -0.1650E+02  0.3671E+02 -0.7322E+01E
 Epicentro: CHIPATA - SANTANDER                                                3
 ACTION:UP  10-08-24 10:13 OP:vdl  STATUS:               ID:20100628030637 L   I
 2010-06-28-0304-27S.COL___118                                                 6
 STAT SP IPHASW D HRMM SECON CODA AMPLIT PERI AZIMU VELO SNR AR TRES W  DIS CAZ7
 RUS  HZ IP     D  3 6 55.77                             151     0.010   61 105 
 RUS  HN ES   1    3 7  9.77                             151    -0.3 7   61 105 
 RUS  HZ I         3 7 13.75         9.5 0.37                            61 105 
 BAR2 SZ EP   1    3 6 56.20                             145    -0.3 7   78  38 
 BAR2 SZ ES   1    3 7 11.17                             145    -0.2 7   78  38 
 BRR  HZ EP   1    3 6 58.63                             131    -1.0 7  119 355 
 BRR  HZ I         3 7  7.82        10.2 0.29                           119 355 
 BRR  HN ES   1    3 7 17.31                             131     0.5 7  119 355 
 CHI  HZ EP   1    3 7  3.38                             123    -0.4 7  156 185 
 CHI  HZ I         3 7  4.10         4.8 0.38                           156 185 
 CHI  HN ES   1    3 7 25.19                             123     1.0 7  156 185 
 BRI  SZ EP   2    3 7  8.82                             115     0.0 4  207  26 
 BRI  SZ ES   2    3 7 32.96                             115    -0.3 4  207  26 
 GUE  SZ EP        3 7  9.88                             115     0.2 8  212  21 
 GRA  SZ EP   1    3 7 11.19                             113     0.6 6  223  24 
 GRA  SZ ES   1    3 7 37.12                             113     0.7 6  223  24 
 RREF HZ EP   2    3 7 12.01                             113     0.1 4  230 237 
 RREF HN ES   2    3 7 38.66                             113    -0.2 4  230 237 
 RREF HZ I         3 7 42.32         2.7 0.30                           230 237 
 PRA  HZ EP   1    3 7 17.83                             107    -0.7 5  293 209 
 PRA  HE ES   2    3 7 51.07                             107     0.6 4  293 209 
 PRA  HZ I         3 7 55.93         4.3 0.28                           293 209 
                                                                                
