 2010  528 0719 29.7 L   6.779 -73.075151.1  RSN 12 0.6 4.1LRSN                1
 GAP=125        1.42       4.9     8.4  9.9 -0.1992E+02  0.7354E+01  0.1450E+02E
 Epicentro: LOS SANTOS - SANTANDER                                             3
 ACTION:UP  10-08-24 10:07 OP:vdl  STATUS:               ID:20100528071929 L   I
 2010-05-28-0717-54S.COL___108                                                 6
 STAT SP IPHASW D HRMM SECON CODA AMPLIT PERI AZIMU VELO SNR AR TRES W  DIS CAZ7
 BAR2 SZ IP        719 49.94                             170    -0.110   24 210 
 BAR2 SZ ES   1    720  5.41                             170    -0.4 7   24 210 
 GUE  SZ EP        719 54.80                             141    -0.210  117   8 
 GUE  SZ ES   1    720 13.85                             141    -0.9 7  117   8 
 GRA  SZ IP        719 56.70                             139     1.210  126  14 
 GRA  SZ ES   1    720 16.16                             139     0.6 7  126  14 
 OCA  SZ EP        719 58.27                             131    -0.5 9  164 351 
 OCA  SZ ES        720 21.49                             131     0.1 9  164 351 
 CHI  HZ EP        720  7.53                             118    -0.2 8  249 197 
 CHI  HN ES        720 37.18                             118    -0.2 8  249 197 
 CHI  HZ I         720 45.79       627.4 0.07                           249 197 
 ROSC BZ IP     D  720  9.43                             118     1.0 8  255 213 
 ROSC BN ES   1    720 39.29                             118     0.7 6  255 213 
 ROSC BZ I         720 45.65       723.0 0.38                           255 213 
 CVER SZ EP        720 11.04                             116     0.6 8  273 204 
 HEL  HZ EP        720 10.44                             115    -0.6 7  279 257 
 HEL  HN ES   1    720 42.61                             115    -0.6 6  279 257 
 HEL  HZ I         720 47.86       646.1 0.34                           279 257 
 RREF BZ EP        720 16.91                             112     0.3 7  326 231 
 RREF BN ES        720 53.72                             112     0.5 7  326 231 
 RREF BZ I         721  1.67       763.5 0.88                           326 231 
 DBB  SZ EP        720 17.59                             110    -0.8 6  347 275 
 SDV  BZ EP        720 19.07                             110    -0.4 6  356  49 
 SDV  BZ I         720 58.81       275.5 0.71                           356  49 
 GUA  SZ EP        720 31.60                             104    -1.1 5  471 174 
 GUA  SZ ES   1    721 20.75                             104    -1.0 4  471 174 
                                                                                
