 2012 1028 0157 43.1 L   6.812 -73.104146.9  RSN 12 0.5 2.9LRSN                1
 GAP=141        0.91       3.3     4.4  7.1 -0.4024E+00  0.1222E+02  0.9341E+01E
 Epicentro: LOS SANTOS - SANTANDER                                             3
 ACTION:UPD 12-11-22 17:06 OP:ep   STATUS:               ID:20121028015743 L   I
 2012-10-28-0150-00M.COL___231                                                 6
 STAT SP IPHASW D HRMM SECON CODA AMPLIT PERI AZIMU VELO AIN AR TRES W  DIS CAZ7
 BAR2 SZ EP        158  2.86                             170   -0.0410 25.8 200 
 BAR2 SZ I         158  3.02       124.6 0.20                          25.8 200 
 BAR2 SZ ES   2    158 17.72                             170   -0.64 5 25.8 200 
 GIR2 SZ EP   1    158  2.92                             167    0.04 7 31.1 341 
 GIR2 SZ ES   2    158 18.62                             167    0.29 5 31.1 341 
 PAM  SZ EP        158  5.75                             152    0.5610 73.4  37 
 PAM  SN ES        158 22.57                             152    0.1310 73.4  37 
 PAM  SN I         158 24.54       109.6 0.46                          73.4  37 
 BRR  HZ IP     D  158  4.75                             151    0.2010 74.6 296 
 BRR  HN ES   2    158 22.23                             151    0.93 5 74.6 296 
 BRR  HN I         158 23.40       270.1 0.20                          74.6 296 
 RUS  HZ EP        158  6.71                             144   -0.3210  102 179 
 RUS  HN ES   2    158 25.82                             144    0.11 5  102 179 
 OCA  HZ EP   1    158 11.12                             130   -0.29 7  160 351 
 OCA  HN ES        158 32.92                             130   -0.59 9  160 351 
 OCA  HN I         158 37.03       133.8 0.18                           160 351 
 ZAR  HZ EP   1    158 15.41                             122   -0.57 6  208 291 
 ZAR  HE ES        158 41.55                             122   -0.10 8  208 291 
 ZAR  HN I         158 47.16        92.3 0.60                           208 291 
 CHI  HZ EP   1    158 20.81                             117   -0.31 6  251 196 
 CHI  HN ES        158 49.91                             117   -0.88 8  251 196 
 CHI  HN I         158 53.90        44.2 0.24                           251 196 
 ROSC BZ EP        158 22.34                             116    0.69 8  256 212 
 HEL  HZ EP   1    158 24.59                             114    0.71 6  277 256 
 HEL  HN ES        158 55.65                             114   -0.05 7  277 256 
 HEL  HN I         159  3.81        25.0 0.36                           277 256 
 RREF HZ EP   1    158 30.24                             111    0.47 5  326 230 
 RREF HN ES   2    159  6.62                             111    0.43 3  326 230 
 PRA  HZ EP   1    158 36.32                             106   -0.72 4  395 210 
 PRA  HN ES        159 19.69                             106    0.55 6  395 210 
 PRA  HN I         159 24.57        23.5 0.84                           395 210 
                                                                                
