 2017 1128 0443 12.3 L   6.790 -73.136136.6  RSN  7 0.5 1.6LRSN                1
 GAP=113        1.17       4.3     5.2  7.7  0.2039E+01  0.1205E+02  0.4534E+01E
 Epicentro: LOS SANTOS - SANTANDER                                             3
 ACTION:UPD 17-12-12 20:01 OP:rebc STATUS:               ID:20171128044312 L   I
 OLDACT:UP  17-11-28 14:59 OP:dani STATUS:               ID:20171128043731     3
 OLDACT:REG 17-11-28 12:52 OP:dani STATUS:               ID:20171128043731     3
 2017-11-28-0438-00M.COL___492                                                 6
 STAT SP IPHASW D HRMM SECON CODA AMPLIT PERI AZIMU VELO AIN AR TRES W  DIS CAZ7
 BAR2 HZ EP        443 30.30                             170   -0.4710 22.5 193 
 BAR2 HZ ES        443 45.19                             170   -0.0210 22.5 193 
 BAR2 HZ I         443 46.44         4.8 0.12            169           22.5 193 
 PAM  EZ EP        443 33.23                             149   -0.2910 77.5  38 
 PAM  EE ES        443 50.15                             149    0.0510 77.5  38 
 PAM  EZ I         443 52.04         7.4 0.42            151           77.5  38 
 RUS  HZ EP        443 34.64                             142   -0.3910 99.4 177 
 RUS  HN ES        443 52.88                             142    0.0810 99.4 177 
 RUS  HZ I         443 54.66         7.3 0.33            142           99.4 177 
 SPBC HN ES        444  1.23                             127   -0.51 9  163 220 
 YPLC HZ EP        443 40.86                             125   -0.40 9  175 151 
 YPLC HN ES        444  5.08                             125    1.21 9  175 151 
 YPLC HZ I         444  8.50         4.3 0.35            125            175 151 
 ZAR  HZ EP        443 44.75                             120    0.48 8  205 292 
 ZAR  HN ES        444  9.84                             120    0.60 8  205 292 
 ZAR  HZ I         444 14.30         3.6 0.35            120            205 292 
 PRA  HZ EP        444  5.70                             105    0.27 6  392 210 
 PRA  HN ES        444 46.72                             105   -0.18 6  392 210 
 PRA  HZ I         444 52.36         1.7 0.24            105            392 210 
                                                                                
