 2017  928 0317 41.8 L   7.494 -73.422 15.4  RSN  4 0.4 1.3LRSN                1
 GAP=245        1.12       6.5     3.9  6.4 -0.1405E+02 -0.4855E+01  0.1075E+02E
 Epicentro: SABANA DE TORRES - SANTANDER                                       3
 ACTION:UPD 17-10-05 19:17 OP:rebc STATUS:               ID:20170928031741 L   I
 OLDACT:REG 17-09-28 13:01 OP:edw  STATUS:               ID:20170928030004     3
 2017-09-28-0308-00M.COL___414                                                 6
 STAT SP IPHASW D HRMM SECON CODA AMPLIT PERI AZIMU VELO AIN AR TRES W  DIS CAZ7
 BRR  HZ EP        317 50.64                             103   -0.0310 53.4 217 
 BRR  HN ES        317 58.13                             103    0.5210 53.4 217 
 BRR  HZ I         318  0.85         7.1 0.14            106           53.4 217 
 PAM  EZ EP        317 55.50                              99    0.1210 81.6 102 
 PAM  EN ES        318  6.35                              99    0.3710 81.6 102 
 PAM  EZ I         318  8.30         8.0 0.24            101           81.6 102 
 BAR2 EZ EP        317 57.76                              97   -0.6110  103 165 
 BAR2 EZ ES        318 10.96                              97   -0.3410  103 165 
 BAR2 EZ I         318 11.84        17.1 0.52             98            103 165 
 RUS  HZ EP        318  8.68                              56   -0.61 9  181 168 
 RUS  HN ES        318 31.29                              56    0.55 9  181 168 
 RUS  HZ I         318 31.88         4.3 0.20             56            181 168 
                                                                                
