 2016 1128 0947  7.7 L   6.736 -73.160143.5  RSN  4 0.3 1.3LRSN                1
 GAP=152        0.68       6.1     3.6  5.9 -0.7331E+01  0.9264E+01 -0.8105E+01E
 Epicentro: LOS SANTOS - SANTANDER                                             3
 ACTION:UPD 17-10-26 21:12 OP:lp   STATUS:               ID:20161128094707 L   I
 OLDACT:UP  16-11-28 16:50 OP:dnl  STATUS:               ID:20161128093744     3
 OLDACT:REG 16-11-28 12:54 OP:dani STATUS:               ID:20161128093744     3
 2016-11-28-0938-00M.COL___340                                                 6
 STAT SP IPHASW D HRMM SECON CODA AMPLIT PERI AZIMU VELO AIN AR TRES W  DIS CAZ7
 BAR2 EZ EP        947 26.99                             173    0.0310 16.0 189 
 BAR2 EZ ES        947 42.21                             173    0.2510 16.0 189 
 BAR2 EZ I         947 49.06         6.6 0.60            174           16.0 189 
 PAM  EZ EP        947 29.90                             148   -0.2110 83.9  37 
 PAM  EE ES        947 47.50                             148   -0.0710 83.9  37 
 PAM  EZ I         947 49.36         2.2 0.46            154           83.9  37 
 PTB  HZ EP        947 34.05                             132   -0.22 9  145 261 
 PTB  HN ES        947 54.73                             132   -0.23 9  145 261 
 PTB  HZ I         947 57.68         2.1 0.16            135            145 261 
 ZAR  HZ EP        947 40.80                             122    0.62 8  205 294 
 ZAR  HN ES        948  5.41                             122   -0.07 8  205 294 
 ZAR  HZ I         948 11.35         2.1 0.36            126            205 294 
                                                                                
