 2015  828 0525 41.0 L   6.793 -73.101141.7  RSN  8 0.3 1.7LRSN                1
 GAP=187        0.76       3.0     5.1  5.5  0.9625E+00  0.9537E+01 -0.4384E+01E
 Epicentro: LOS SANTOS - SANTANDER                                             3
 ACTION:UPD 15-09-15 23:05 OP:cam  STATUS:               ID:20150828052541 L   I
 OLDACT:UP  15-08-28 15:55 OP:ak   STATUS:               ID:20150828052348d    3
 OLDACT:DUP 15-08-28 15:44 OP:ak   STATUS:               ID:20150828052348d    3
 OLDACT:REG 15-08-28 15:15 OP:ak   STATUS:               ID:20150828052347     3
 2015-08-28-0523-47M.COL___364                                                 6
 STAT SP IPHASW D HRMM SECON CODA AMPLIT PERI AZIMU VELO AIN AR TRES W  DIS CAZ7
 BAR2 EZ EP        526  0.11                             170   -0.0010 23.9 202 
 BAR2 EZ ES        526 15.01                             170   -0.0410 23.9 202 
 BAR2 EZ I         526 16.31         8.8 0.57            168           23.9 202 
 BRR  HZ EP        526  1.96                             150    0.0110 75.9 297 
 BRR  HN ES        526 18.89                             150    0.5810 75.9 297 
 RUS  HN ES        526 22.43                             143    0.0410 99.6 179 
 OCA  HZ EP   1    526  9.26                             128    0.17 7  162 351 
 OCA  HN ES        526 30.51                             128   -0.52 9  162 351 
 OCA  HZ I         526 33.65        11.4 0.30            129            162 351 
 SPBC HN ES        526 31.14                             128   -0.43 9  166 220 
 SPBC HZ I         526 35.17         4.3 0.09            128            166 220 
 ZAR  HZ EP        526 13.86                             121    0.21 8  209 292 
 ZAR  HN ES        526 38.85                             121   -0.29 8  209 292 
 ZAR  HZ I         526 44.99         5.1 0.23            120            209 292 
 HEL  HZ EP   1    526 21.38                             114   -0.10 6  277 256 
 URE  HZ EP        526 22.77                             112    0.39 7  289 292 
 URE  HN ES   4    526 52.15                             112   -2.54 0  289 292 
                                                                                
