 2010 1228 0749  2.7 L   6.773 -73.207143.0  RSN  5 0.3 1.6LRSN                1
 GAP=176        0.64       6.2    10.3  8.9 -0.1047E+02  0.2770E+02 -0.2119E+02E
 Epicentro: ZAPATOCA - SANTANDER                                               3
 ACTION:UP  11-01-14 15:27 OP:pat  STATUS:               ID:20101228074902 L   I
 2010-12-28-0747-57S.COL___135                                                 6
 STAT SP IPHASW D HRMM SECON CODA AMPLIT PERI AZIMU VELO SNR AR TRES W  DIS CAZ7
 BTL  SZ EP        749 22.08                             173     0.210   17 338 
 BAR2 SZ EP   1    749 21.78                             172    -0.2 7   20 173 
 BAR2 SZ ES   1    749 36.67                             172    -0.3 7   20 173 
 BAR2 SZ I         749 38.41        12.5 0.18                            20 173 
 RUS  HZ EP   1    749 25.66                             144    -0.4 7   98 172 
 RUS  HN ES   1    749 44.58                             144     0.4 7   98 172 
 RUS  HZ I         749 45.50         3.6 0.25                            98 172 
 OCA  SZ EP   2    749 31.21                             129     0.2 5  163 356 
 OCA  SZ I         749 56.33         4.6 0.25                           163 356 
 NOR  SE ES   2    750  4.63                             119     0.0 4  228 234 
                                                                                
