 2017  528 0634 30.4 L   6.739 -73.158146.2  RSN  5 0.3 1.4LRSN                1
 GAP=231        0.51       3.3     5.1  5.5  0.9400E+01  0.7432E+01 -0.1355E+01E
 Epicentro: LOS SANTOS - SANTANDER                                             3
 ACTION:UPD 17-06-16 13:39 OP:jn   STATUS:               ID:20170528063430 L   I
 OLDACT:UP  17-05-28 18:20 OP:dnl  STATUS:               ID:20170528062734     3
 OLDACT:UP  17-05-28 18:20 OP:dnl  STATUS:               ID:20170528062734     3
 OLDACT:UP  17-05-28 18:19 OP:dnl  STATUS:               ID:20170528062734     3
 OLDACT:UP  17-05-28 18:19 OP:dnl  STATUS:               ID:20170528062734     3
 OLDACT:REG 17-05-28 13:22 OP:dnl  STATUS:               ID:20170528062734     3
 2017-05-28-0628-00M.COL___335                                                 6
 STAT SP IPHASW D HRMM SECON CODA AMPLIT PERI AZIMU VELO AIN AR TRES W  DIS CAZ7
 BRR  HZ EP   2    634 51.34                             152   -0.36 5 73.5 304 
 BRR  HE ES        635  8.42                             152    0.0810 73.5 304 
 BRR  HZ I         635  8.92         5.3 0.52            149           73.5 304 
 RUS  HZ EP   2    634 53.91                             146    0.21 5 94.0 175 
 RUS  HN ES        635 11.80                             146   -0.1010 94.0 175 
 RUS  HZ I         635 14.04         2.2 0.30            143           94.0 175 
 PTB  HZ EP   2    634 56.55                             132   -0.60 5  145 261 
 PTB  HN ES   4    635 16.92                             132   -1.12 0  145 261 
 PTB  HZ I         635 18.17         1.9 0.26            129            145 261 
 SPBC HZ EP   4    635  0.36                             130    2.02 0  157 220 
 SPBC HN ES        635 20.21                             130    0.06 9  157 220 
 SPBC HZ I         635 26.26         4.5 0.42            127            157 220 
 ZAR  HZ EP        635  3.33                             122    0.34 8  205 294 
 ZAR  HN ES        635 28.29                             122   -0.14 8  205 294 
 ZAR  HZ I         635 33.30         2.5 0.24            121            205 294 
                                                                                
