 2013 1028 0615 11.8 L   6.809 -73.174144.2  RSN 18 0.5 2.5LRSN                1
 GAP=111        1.14       3.2     4.0  5.7 -0.1866E+00  0.6289E+01  0.3386E+01E
 Epicentro: LOS SANTOS - SANTANDER                                             3
 ACTION:UPD 13-11-25 09:24 OP:ep   STATUS:               ID:20131028061511 L   I
 OLDACT:REG 13-10-28 08:23 OP:jn   STATUS:               ID:20131028061001d    3
 2013-10-28-0610-00M.COL___273                                                 6
 STAT SP IPHASW D HRMM SECON CODA AMPLIT PERI AZIMU VELO AIN AR TRES W  DIS CAZ7
 BAR2 SZ EP        615 31.32                             170    0.0210 24.0 182 
 BAR2 SZ ES        615 45.96                             170   -0.5210 24.0 182 
 BAR2 SZ I         615 47.51       153.4 0.22            168           24.0 182 
 BRR  HZ EP        615 33.09                             153    0.4410 68.0 299 
 BRR  HE ES        615 50.12                             153    1.2510 68.0 299 
 BRR  HZ I         615 51.20        46.7 0.20            151           68.0 299 
 PAM  SZ EP        615 34.26                             150    0.2910 78.6  42 
 PAM  SN ES   1    615 51.00                             150   -0.23 7 78.6  42 
 PAM  SZ I         615 53.47        62.9 0.44            155           78.6  42 
 RUS  HZ EP        615 35.29                             143   -0.2410  102 174 
 RUS  HN ES        615 54.33                             143    0.3210  102 174 
 RUS  HZ I         615 55.07        53.7 0.26            144            102 174 
 PTB  HZ EP        615 37.97                             132   -0.46 9  145 258 
 PTB  HN ES   1    615 59.01                             132   -0.15 7  145 258 
 PTB  HZ I         616  0.76        41.4 0.32            131            145 258 
 OCA  HZ EP        615 39.39                             130   -0.52 9  159 354 
 OCA  HN ES   1    616  0.75                             130   -1.05 7  159 354 
 OCA  HZ I         616  4.71        25.7 0.16            131            159 354 
 SPBC HZ EP        615 40.28                             129    0.17 9  162 218 
 SPBC HE ES   1    616  2.05                             129   -0.12 7  162 218 
 SPBC HZ I         616  9.39        55.2 0.28            128            162 218 
 YOP  SZ EP        615 42.03                             126    0.03 9  181 153 
 YOP  SE ES        616  5.48                             126   -0.04 9  181 153 
 YOP  SZ I         616  6.81        51.0 0.24            128            181 153 
 NOR  HZ EP        615 47.27                             118   -0.01 8  233 234 
 NOR  HE ES        616 14.62                             118   -0.29 8  233 234 
 NOR  HZ I         616 23.18        25.0 0.20            118            233 234 
 SML  HE ES   1    616 16.15                             117   -0.31 6  242 336 
 CHI  HZ EP        615 49.53                             117    0.06 8  249 194 
 CHI  HN ES        616 18.64                             117   -0.19 8  249 194 
 CHI  HZ I         616 22.12        21.4 0.36            117            249 194 
 ROSC BZ EP   2    615 50.73                             117    0.93 4  252 210 
 HEL  HZ EP        615 52.68                             115    1.01 8  269 255 
 HEL  HN ES   1    616 22.61                             115   -0.13 6  269 255 
 HEL  HZ I         616 29.41        17.8 0.26            115            269 255 
 GUY2CHZ EP   2    615 55.56                             112    0.40 4  299 234 
 GUY2CHZ I         616 37.49        15.5 0.30                           299 234 
 CBOC HZ EP        615 59.10                             110    0.71 7  331 252 
 CBOC HN ES        616 33.38                             110   -1.32 7  331 252 
 CBOC HZ I         616 45.08         5.3 0.42            110            331 252 
 PRA  HZ EP        616  4.91                             106   -0.32 6  391 209 
 PRA  HN ES   1    616 46.12                             106   -0.76 4  391 209 
 PRA  HZ I         616 53.81        10.8 0.20            107            391 209 
 ORTC HZ EP        616  5.57                             106   -0.02 6  394 216 
 ORTC HN ES   1    616 47.97                             106    0.46 4  394 216 
 ORTC HZ I         616 54.22         8.0 0.32            107            394 216 
 SJC  HZ EP   4    616  5.00                             106   -2.06 0  407 327 
 SJC  HN ES   4    616 46.06                             106   -4.06 0  407 327 
 SJC  HZ I         616 53.35         4.7 0.62            106            407 327 
                                                                                
