 2017  428 0622 26.3 L   6.798 -73.137146.0  RSN  7 0.3 1.6LRSN                1
 GAP=138        0.67       2.9     3.9  6.1  0.1848E+01  0.6491E+00  0.2484E+01E
 Epicentro: LOS SANTOS - SANTANDER                                             3
 ACTION:UPD 17-05-30 21:16 OP:jn   STATUS:               ID:20170428062226 L   I
 OLDACT:UP  17-04-28 16:52 OP:and  STATUS:               ID:20170428061740d    3
 OLDACT:UP  17-04-28 16:49 OP:and  STATUS:               ID:20170428061740d    3
 OLDACT:UP  17-04-28 16:49 OP:and  STATUS:               ID:20170428061740d    3
 OLDACT:UP  17-04-28 16:48 OP:and  STATUS:               ID:20170428061740d    3
 OLDACT:DUP 17-04-28 16:47 OP:and  STATUS:               ID:20170428061740d    3
 2017-04-28-0618-00M.COL___362                                                 6
 STAT SP IPHASW D HRMM SECON CODA AMPLIT PERI AZIMU VELO AIN AR TRES W  DIS CAZ7
 BRR  HZ IP     D  622 47.49                             152   -0.0810 72.2 298 
 BRR  HN ES        623  4.46                             152    0.3310 72.2 298 
 BRR  HZ I         623  8.90         7.7 0.18            149           72.2 298 
 PAM  EZ IP     D  622 48.54                             151   -0.0210 77.0  39 
 RUS  HZ EP   2    622 50.60                             144    0.51 5  100 177 
 RUS  HN ES        623  8.33                             144   -0.2910  100 177 
 RUS  HZ I         623  9.44         7.4 0.36            144            100 177 
 SPBC HN ES   3    623 16.28                             129   -0.89 2  164 219 
 SPBC HZ I         623 19.49         5.2 0.15            128            164 219 
 ZAR  HZ EP   2    622 59.51                             122    0.61 4  205 292 
 ZAR  HN ES        623 23.83                             122   -0.47 9  205 292 
 ZAR  HZ I         623 29.37         3.6 0.36            122            205 292 
 NOR  HN ES        623 30.25                             118    0.17 8  235 235 
 NOR  HZ I         623 36.40         2.4 0.16            118            235 235 
 CHI  HZ EP        623  3.87                             117   -0.18 8  249 195 
 CHI  HN ES        623 33.79                             117    0.32 8  249 195 
 CHI  HZ I         623 39.36         1.4 0.33            117            249 195 
                                                                                
