 2011  228 0344 34.0 L   7.333 -73.174119.7  RSN  5 0.2 1.6LRSN                1
 GAP=150        0.58       4.4     8.3  7.6 -0.2054E+02  0.2775E+02 -0.1747E+01E
 Epicentro: RIONEGRO - SANTANDER                                               3
 ACTION:UP  11-03-28 15:11 OP:jfem STATUS:               ID:20110228034433 L   I
 2011-02-28-0342-37S.COL___135                                                 6
 STAT SP IPHASW D HRMM SECON CODA AMPLIT PERI AZIMU VELO SNR AR TRES W  DIS CAZ7
 GRA  SZ EP        344 52.97                             146     0.210   73  34 
 GRA  SZ ES   1    345  7.10                             146    -0.3 7   73  34 
 GRA  SZ I         345  9.79        23.0 0.30                            73  34 
 BAR2 SZ EP   1    344 53.17                             143    -0.3 7   82 181 
 BAR2 SZ ES   1    345  8.87                             143     0.2 7   82 181 
 BAR2 SZ I         345 10.98        19.5 0.11                            82 181 
 RUS  HZ EP   1    345  0.54                             123    -0.2 7  160 176 
 RUS  HZ I         345 26.36         1.9 0.31                           160 176 
 HEL  HZ EP   2    345 15.00                             108     0.0 4  289 244 
 HEL  HE ES   2    345 46.90                             108    -0.1 4  289 244 
 HEL  HZ I         345 56.48         2.8 0.31                           289 244 
 CHI  HZ EP   2    345 17.15                             106     0.3 4  305 192 
 CHI  HZ I         345 56.25         1.5 0.49                           305 192 
                                                                                
