 2011 1228 0455 43.1 L   6.757 -73.187146.0  RSN  5 0.3 1.4LRSN                1
 GAP=229        0.62       6.5     6.7  6.2  0.2431E+02  0.9359E+01  0.1078E+02E
 Epicentro: VILLANUEVA - SANTANDER                                             3
 ACTION:UPD 12-07-13 16:19 OP:ep   STATUS:               ID:20111228045000 L   I
 2011-12-28-0450-00M.COL___186                                                 6
 STAT SP IPHASW D HRMM SECON CODA AMPLIT PERI AZIMU VELO AIN AR TRES W  DIS CAZ7
 BAR2 SZ ES   1    456 17.62                             173   -0.31 7 18.2 179 
 BAR2 SZ I         456 19.07         7.2 0.20                          18.2 179 
 BRR  HZ EP   1    456  4.27                             153    0.07 7 69.8 304 
 BRR  HE ES   1    456 21.07                             153    0.41 7 69.8 304 
 RUS  HZ EP   1    456  6.31                             145   -0.26 7 96.2 173 
 RUS  HN ES   1    456 25.08                             145    0.21 7 96.2 173 
 RUS  HZ I         456 26.40         2.8 0.27                          96.2 173 
 PTB  HZ EP   1    456  9.23                             133   -0.38 7  142 260 
 PTB  HN ES   1    456 30.18                             133   -0.11 7  142 260 
 CHI  HZ EP   1    456 20.70                             118    0.51 6  243 194 
                                                                                
