 2012  928 0841 11.1 L   6.826 -73.163144.9  RSN 11 0.4 1.9LRSN                1
 GAP=133        0.84       5.9     4.7  8.6 -0.5597E+01 -0.4376E+01  0.2554E+02E
 Epicentro: LOS SANTOS - SANTANDER                                             3
 ACTION:UPD 12-10-22 14:21 OP:ep   STATUS:               ID:20120928084111 L   I
 2012-09-28-0840-00M.COL___213                                                 6
 STAT SP IPHASW D HRMM SECON CODA AMPLIT PERI AZIMU VELO AIN AR TRES W  DIS CAZ7
 BAR2 SZ EP   1    841 30.29                             169   -0.38 7 25.9 185 
 BAR2 SZ I         841 46.91        14.0 0.13                          25.9 185 
 GIR2 SZ EP   1    841 30.56                             168   -0.02 7 28.2 353 
 BRR  HZ EP   1    841 31.99                             153    0.01 7 68.2 297 
 BRR  HN ES        841 48.94                             153    0.6710 68.2 297 
 BRR  HZ I         841 52.85        17.6 0.19                          68.2 297 
 PAM  SZ EP   1    841 33.10                             151   -0.06 7 76.4  42 
 PAM  SN ES   1    841 50.00                             151   -0.37 7 76.4  42 
 PAM  SZ I         841 52.22        24.3 0.46                          76.4  42 
 RUS  HZ EP   1    841 35.10                             143    0.12 7  104 175 
 RUS  HN ES   2    841 53.73                             143    0.12 5  104 175 
 RUS  HZ I         841 54.76         9.2 0.31                           104 175 
 PTB  HN ES        841 57.96                             132   -0.81 9  147 258 
 ZAR  HN ES   2    842  8.42                             123    0.19 4  201 292 
 NOR  SN ES   2    842 14.86                             118    0.23 4  235 234 
 CHI  HZ EP   1    841 49.10                             117    0.11 6  251 195 
 CHI  HN ES   2    842 19.27                             117    0.72 4  251 195 
 HEL  HZ EP   1    841 51.76                             115    0.62 6  271 255 
 HEL  HZ I         842 29.36         3.3 0.31                           271 255 
 PRA  HZ EP   2    842  4.49                             106   -0.28 3  394 209 
                                                                                
