 2013  428 0725 26.0 L   6.750 -73.156149.3  RSN  6 0.5 1.6LRSN                1
 GAP=199        0.91       5.7     7.4  8.2  0.1492E+02 -0.1538E+01 -0.1480E+02E
 Epicentro: LOS SANTOS - SANTANDER                                             3
 ACTION:UPD 13-05-22 14:41 OP:EP   STATUS:               ID:20130428072526 L   I
 2013-04-28-0720-00M.COL___248                                                 6
 STAT SP IPHASW D HRMM SECON CODA AMPLIT PERI AZIMU VELO AIN AR TRES W  DIS CAZ7
 BAR2 SZ EP   1    725 45.91                             173   -0.02 7 17.6 189 
 BAR2 SZ ES   1    726  1.07                             173   -0.43 7 17.6 189 
 BAR2 SZ I         726  2.00        10.0 0.18            173           17.6 189 
 BRR  HZ EP   1    725 47.99                             153    0.38 7 73.0 303 
 BRR  HN ES   1    726  5.29                             153    0.81 7 73.0 303 
 BRR  HZ I         726  6.18         4.6 0.14            150           73.0 303 
 RUS  HZ EP        725 49.67                             146   -0.0310 95.1 175 
 RUS  HE ES   1    726  8.38                             146    0.18 7 95.1 175 
 RUS  HZ I         726  9.66         6.3 0.38            148           95.1 175 
 PTB  HZ EP   1    725 52.72                             133   -0.33 7  146 261 
 PTB  HN ES   1    726 13.33                             133   -0.83 7  146 261 
 PTB  HZ I         726 17.71         4.7 0.18            133            146 261 
 SML  HZ EP        726  3.50                             118    0.20 8  248 336 
 SML  HN ES   1    726 31.85                             118   -0.56 6  248 336 
 SML  HZ I         726 37.09         5.7 0.10            118            248 336 
 HEL  HN ES   2    726 38.43                             116    1.03 4  270 257 
                                                                                
