 2011 1228 0656  0.1 L   6.786 -73.146146.7  RSN 16 0.4 3.1LRSN                1
 GAP=103        0.73       2.4     3.1  4.2 -0.1232E+00  0.2189E+01  0.2525E+01E
 Epicentro: LOS SANTOS - SANTANDER                                             3
 ACTION:UPD 12-07-13 16:19 OP:ep   STATUS:               ID:20111228065600 L   I
 2011-12-28-0650-00M.COL___186                                                 6
 STAT SP IPHASW D HRMM SECON CODA AMPLIT PERI AZIMU VELO AIN AR TRES W  DIS CAZ7
 BAR2 SZ IP        656 19.75                             171   -0.0110 21.9 191 
 BAR2 SZ ES   1    656 35.45                             171    0.31 7 21.9 191 
 BAR2 SZ I         656 37.22       328.5 0.29                          21.9 191 
 GIR2 SZ EP   1    656 19.88                             167    0.01 7 32.8 351 
 GIR2 SZ ES   1    656 35.21                             167   -0.12 7 32.8 351 
 BRR  HZ IP     C  656 21.73                             152    0.3910 71.9 300 
 BRR  HE ES   1    656 38.63                             152    0.68 7 71.9 300 
 BRR  HZ I         656 39.61       284.0 0.14                          71.9 300 
 PAM  SZ EP        656 22.63                             150    0.2010 78.5  39 
 PAM  SE ES   1    656 39.73                             150   -0.16 7 78.5  39 
 PAM  SZ I         656 42.00       202.4 0.60                          78.5  39 
 RUS  HZ EP   1    656 23.74                             144   -0.04 7 99.1 176 
 RUS  HN ES   1    656 41.72                             144   -0.58 7 99.1 176 
 RUS  HZ I         656 43.58       170.2 0.35                          99.1 176 
 PTB  HZ EP   1    656 26.44                             132   -0.63 7  147 259 
 PTB  HN ES   1    656 47.32                             132   -0.82 7  147 259 
 OCA  SZ EP   1    656 28.45                             129   -0.12 7  162 353 
 OCA  SZ ES   1    656 50.40                             129   -0.42 7  162 353 
 YOP  SZ EP   1    656 30.45                             127    0.42 7  178 153 
 YOP  SE ES   1    656 53.59                             127    0.18 7  178 153 
 YOP  SZ I         656 54.96        93.8 0.30                           178 153 
 ZAR  HZ EP   1    656 32.71                             122    0.09 6  205 293 
 ZAR  HE ES   1    656 58.39                             122    0.37 6  205 293 
 ZAR  HZ I         657  4.43       228.6 0.47                           205 293 
 NOR  SZ EP   1    656 35.79                             119    0.05 6  234 235 
 NOR  SN ES   1    657  3.14                             119   -0.44 6  234 235 
 CHI  HZ EP   1    656 37.88                             117    0.24 6  247 195 
 CHI  HN ES   1    657  6.66                             117   -0.30 6  247 195 
 CHI  HZ I         657 13.32        55.9 0.37                           247 195 
 HEL  HZ EP   1    656 40.05                             115   -0.22 6  272 256 
 HEL  HZ I         657 18.16        62.0 0.51                           272 256 
 VIL  SZ EP   1    656 43.20                             112   -0.14 5  302 192 
 VIL  SN ES   1    657 16.95                             112   -0.16 5  302 192 
 VIL  SZ I         657 22.34        50.3 0.27                           302 192 
 RREF HZ EP   1    656 46.60                             111    0.48 5  321 230 
 RREF HZ I         657 30.73        59.2 0.47                           321 230 
 SDV  BZ EP   1    656 49.55                             108   -0.69 5  361  50 
 PRA  HZ EP   1    656 53.70                             107    0.25 4  391 210 
 PRA  HE ES   1    657 36.01                             107    0.91 4  391 210 
                                                                                
