 2010  828 0411  8.6 L   6.811 -73.099147.5  RSN 10 0.4 2.4LRSN                1
 GAP=164        0.82       3.3     6.8  7.2 -0.9021E+01 -0.3427E+00  0.4498E+01E
 Epicentro: LOS SANTOS - SANTANDER                                             3
 ACTION:UP  10-09-07 10:58 OP:vdl  STATUS:               ID:20100828041108 L   I
 2010-08-28-0409-03S.COL___119                                                 6
 STAT SP IPHASW D HRMM SECON CODA AMPLIT PERI AZIMU VELO SNR AR TRES W  DIS CAZ7
 BRR  HZ IP     C  411 30.23                             152     0.110   75 296 
 BRR  HZ I         411 30.49        42.9 0.16                            75 296 
 BRR  HN ES   1    411 47.27                             152     0.3 7   75 296 
 RUS  HZ EP   1    411 32.37                             144    -0.2 7  102 179 
 RUS  HE ES   1    411 51.11                             144    -0.2 7  102 179 
 RUS  HZ I         411 51.85        23.5 0.22                           102 179 
 GUE  SZ IP        411 33.40                             141     0.110  114  10 
 GUE  SZ I         411 34.77        14.1 0.08                           114  10 
 GRA  SZ IP        411 34.12                             138     0.310  123  15 
 GRA  SZ ES   1    411 53.50                             138     0.1 7  123  15 
 GRA  SZ I         411 56.01        38.9 0.22                           123  15 
 OCA  SZ EP        411 36.74                             130    -0.3 9  160 351 
 OCA  SZ ES   1    411 58.62                             130    -0.5 7  160 351 
 OCA  SZ I         412  3.21        39.3 0.36                           160 351 
 CHI  HZ EP   1    411 46.47                             118    -0.2 6  251 196 
 CHI  HZ I         411 48.04         9.9 0.53                           251 196 
 CHI  HN ES   2    412 16.52                             118     0.1 4  251 196 
 ROSC BZ EP   2    411 48.50                             117     1.3 4  257 212 
 ROSC BE ES   2    412 18.16                             117     0.8 4  257 212 
 ROSC BZ I         412 24.29        20.6 0.40                           257 212 
 HEL  HZ EP   2    411 49.75                             115     0.3 4  277 256 
 HEL  HN ES   2    412 20.85                             115    -0.5 4  277 256 
 HEL  HZ I         412 27.71         9.2 0.51                           277 256 
 RREF HZ EP   2    411 56.09                                     0.7 3  327 230 
 RREF HZ I         412 38.29        14.9 0.17                           327 230 
 PRA  HZ EP   1    412  1.83                             107    -0.8 4  396 210 
 PRA  HN ES   1    412 44.31                             107    -0.4 4  396 210 
 PRA  HZ I         412 48.97        11.6 0.64                           396 210 
                                                                                
