 2013 1128 0646 17.3 L   6.744 -73.125143.8  RSN  5 0.5 1.3LRSN                1
 GAP=142        1.18       6.2     6.1  8.7 -0.3540E+01  0.6815E+01  0.1819E+01E
 Epicentro: JORDAN - SANTANDER                                                 3
 ACTION:UPD 14-01-09 16:31 OP:ep   STATUS:               ID:20131128064617 L   I
 OLDACT:REG 13-11-28 07:59 OP:stll STATUS:               ID:20131128063806     3
 2013-11-28-0638-06M.COL___244                                                 6
 STAT SP IPHASW D HRMM SECON CODA AMPLIT PERI AZIMU VELO AIN AR TRES W  DIS CAZ7
 BAR2 SZ EP        646 36.84                             173    0.2410 17.9 201 
 BAR2 SZ ES        646 51.89                             173    0.2310 17.9 201 
 BRR  HZ EP        646 38.92                             150    0.3810 76.3 302 
 BRR  HN ES        646 55.77                             150    0.6610 76.3 302 
 BRR  HZ I         646 58.66         3.6 0.56            149           76.3 302 
 PAM  SZ EP        646 39.74                             149    0.2110 80.9  36 
 PAM  SZ I         646 39.92         5.6 0.22            153           80.9  36 
 PAM  SN ES        646 56.05                             149   -0.8210 80.9  36 
 RUS  HZ EP        646 40.56                             145    0.1510 94.3 177 
 RUS  HN ES        646 58.32                             145   -0.1210 94.3 177 
 RUS  HZ I         647  0.61         1.7 0.42            146           94.3 177 
 PTB  HZ EP        646 43.81                             131   -0.41 9  149 261 
 PTB  HN ES        647  4.55                             131   -0.67 9  149 261 
 PTB  HZ I         647 10.58         3.6 0.24            131            149 261 
                                                                                
