 2010  728 0820 24.2 L   6.787 -73.095149.0  RSN 17 0.5 4.0LRSN                1
 GAP=164        1.02       3.4     5.7  5.7 -0.8698E+01  0.8506E+01  0.3317E+01E
 Epicentro: LOS SANTOS - SANTANDER                                             3
 ACTION:UPD 10-12-01 15:20 OP:pat  STATUS:               ID:20100728082024 L   I
 2010-07-28-0819-07S.COL___123                                                 6
 STAT SP IPHASW D HRMM SECON CODA AMPLIT PERI AZIMU VELO AIN AR TRES W  DIS CAZ7
 BAR2 SZ IP        820 44.12                             171    -0.110   24 205 
 BAR2 SZ ES   1    820 59.45                             171    -0.4 7   24 205 
 BAR2 SZ I         821  1.00      1274.7 0.26                            24 205 
 GIR2 SZ EP        820 44.22                             166    -0.110   34 341 
 GIR2 SZ ES   1    821  0.37                             166     0.4 7   34 341 
 BRR  HZ IP     C  820 46.07                             151     0.110   77 297 
 BRR  HZ I         820 46.35      2309.2 0.18                            77 297 
 BRR  HN ES   1    821  3.40                             151     0.4 7   77 297 
 RUS  HZ IP     D  820 47.94                             145    -0.210   99 179 
 RUS  HN ES   1    821  6.43                             145    -0.4 7   99 179 
 GUE  SZ EP        820 49.02                             140    -0.210  117   9 
 GRA  SZ IP        820 49.94                             138     0.310  126  15 
 GRA  SZ ES   1    821 10.22                             138     0.6 7  126  15 
 GRA  SZ I         821 11.91      1007.6 0.28                           126  15 
 OCA  SZ IP        820 52.45                             130    -0.5 9  162 351 
 OCA  SZ ES   1    821 14.85                             130    -0.5 7  162 351 
 OCA  SZ I         821 20.43      1058.0 0.21                           162 351 
 CHI  HZ EP        821  1.80                             118    -0.3 8  249 197 
 CHI  HN ES   1    821 31.75                             118     0.1 6  249 197 
 CHI  HZ I         821 39.32       271.8 0.30                           249 197 
 ROSC BZ IP     D  821  3.52                             117     0.9 8  255 212 
 ROSC BN ES   1    821 32.25                             117    -0.4 6  255 212 
 ROSC BZ I         821 41.95       367.3 0.49                           255 212 
 CVER SZ EP   2    821  5.20                             115     0.4 4  273 203 
 CVER SZ I         821  6.80       518.6 0.31                           273 203 
 HEL  HZ EP   1    821  4.93                             115    -0.2 6  277 256 
 HEL  HN ES   1    821 36.29                             115    -0.7 6  277 256 
 HEL  HZ I         821 42.84       466.0 0.32                           277 256 
 GUY  SZ EP        821  8.77                             113     0.4 7  305 236 
 GUY  SN ES   1    821 43.35                             113     0.5 5  305 236 
 GUY  SZ I         821 49.86      1039.7 0.41                           305 236 
 RREF HZ EP        821 11.06                             111     0.2 7  325 230 
 RREF HN ES   1    821 47.46                             111     0.2 5  325 230 
 RREF HZ I         821 56.39       427.1 0.27                           325 230 
 DBB  SZ IP        821 11.81                             110    -0.6 7  345 274 
 TOL  SZ EP        821 13.53                             110     0.6 6  346 225 
 TOL  SZ ES   1    821 51.67                             110     0.8 5  346 225 
 ANIL HZ EP        821 14.97                             109     0.5 6  360 225 
 ANIL HN ES   1    821 52.73                             109    -0.9 5  360 225 
 ANIL HZ I         821 59.93       574.1 0.45                           360 225 
 PRA  HZ EP        821 17.10                             107    -0.9 6  394 210 
 PRA  HE ES   1    821 59.47                             107    -0.5 4  394 210 
 PRA  HZ I         822  4.11       255.1 0.37                           394 210 
                                                                                
