 2013  828 0909 24.0 L   6.814 -73.190142.7  RSN 14 0.5 2.4LRSN                1
 GAP=109        1.13       2.8     4.0  6.4 -0.5704E+00  0.8489E+01 -0.1128E+00E
 Epicentro: ZAPATOCA - SANTANDER                                               3
 ACTION:UPD 14-01-14 09:07 OP:ep   STATUS:               ID:20130828090924 L   I
 OLDACT:REG 13-08-28 12:39 OP:nd   STATUS:               ID:20130828090837     3
 2013-08-28-0908-37M.COL___218                                                 6
 STAT SP IPHASW D HRMM SECON CODA AMPLIT PERI AZIMU VELO AIN AR TRES W  DIS CAZ7
 BAR2 SZ EP        9 9 43.36                             170    0.1110 24.5 178 
 BAR2 SZ ES        9 9 58.14                             170   -0.1510 24.5 178 
 BAR2 SZ I         9 9 59.60        51.2 0.22            170           24.5 178 
 BRR  HZ IP     D  9 9 45.25                             154    0.7510 66.2 299 
 BRR  HN ES   2    910  1.34                             154    0.82 5 66.2 299 
 BRR  HZ I         910  3.29        32.8 0.20            151           66.2 299 
 PAM  SZ IP     C  9 9 46.36                             149    0.3810 79.5  43 
 PAM  SN ES        910  3.12                             149   -0.0310 79.5  43 
 PAM  SZ I         910  5.55        64.3 0.46            153           79.5  43 
 RUS  HZ EP        9 9 47.41                             142   -0.1510  103 173 
 RUS  HN ES        910  5.74                             142   -0.2210  103 173 
 RUS  HZ I         910  7.29        39.2 0.28            144            103 173 
 PTB  HZ EP        9 9 49.89                             132   -0.38 9  143 258 
 PTB  HN ES        910 10.71                             132   -0.08 9  143 258 
 PTB  HZ I         910 12.86        23.6 0.30            131            143 258 
 OCA  HZ EP   2    9 9 51.75                             129   -0.09 5  158 355 
 OCA  HN ES        910 12.96                             129   -0.63 9  158 355 
 OCA  HZ I         910 16.77        20.7 0.20            130            158 355 
 SPBC HZ EP        9 9 52.24                             128    0.19 9  161 217 
 SPBC HN ES        910 13.80                             128   -0.16 9  161 217 
 SPBC HZ I         910 16.84        46.6 0.30            129            161 217 
 YOP  SZ EP   2    9 9 53.87                             125   -0.28 4  183 152 
 YOP  SN ES   4    910 15.36                             125   -2.33 0  183 152 
 YOP  SZ I         910 19.67        46.2 0.26            127            183 152 
 ZAR  HZ EP        9 9 55.81                             122    0.13 9  199 292 
 ZAR  HN ES        910 20.76                             122    0.34 9  199 292 
 ZAR  HZ I         910 22.88        15.1 0.12            122            199 292 
 NOR  HZ EP        9 9 59.51                             118    0.32 8  232 233 
 NOR  HN ES        910 26.42                             118   -0.24 8  232 233 
 NOR  HZ I         910 35.26        19.0 0.16            118            232 233 
 SML  HZ EP        9 9 59.51                             117   -0.54 8  240 336 
 SML  HN ES        910 28.84                             117    0.65 8  240 336 
 SML  HZ I         910 32.97        26.6 0.10            118            240 336 
 CHI  HZ IP     D  910  1.73                             116    0.21 8  249 194 
 CHI  HN ES        910 30.67                             116   -0.14 8  249 194 
 CHI  HZ I         910 34.41        15.1 0.52            117            249 194 
 ROSC BZ EP   4    910  2.93                             116    1.14 0  252 210 
 ROSC BN ES   4    910 32.11                             116    0.82 0  252 210 
 HEL  HZ EP   4    910  5.34                             114    1.80 0  268 255 
 HEL  HN ES   1    910 35.80                             114    1.40 6  268 255 
 HEL  HZ I         910 41.49        12.0 0.26            115            268 255 
 URE  HZ EP   4    910  3.91                             113   -0.40 0  279 292 
 URE  HN ES        910 34.23                             113   -1.55 7  279 292 
 URE  HZ I         910 46.10        14.1 0.18            114            279 292 
 GUY2CHZ EP   4    910  8.94                             112    1.86 0  298 234 
                                                                                
