 2015 1228 0736  5.0 L   6.787 -73.127152.9  RSN  8 0.5 1.5LRSN                1
 GAP=221        1.20       4.4     7.5  8.0  0.1335E+01  0.5493E+01 -0.2888E+01E
 Epicentro: LOS SANTOS - SANTANDER                                             3
 ACTION:UPD 16-02-04 15:08 OP:cam  STATUS:               ID:20151228073605 L   I
 OLDACT:UP  15-12-28 16:54 OP:ak   STATUS:               ID:20151228072748     3
 OLDACT:REG 15-12-28 13:41 OP:ak   STATUS:               ID:20151228072748     3
 2015-12-28-0727-48M.COL___331                                                 6
 STAT SP IPHASW D HRMM SECON CODA AMPLIT PERI AZIMU VELO AIN AR TRES W  DIS CAZ7
 BAR2 EZ EP        736 25.78                             171    0.3210 22.4 196 
 BAR2 EZ ES        736 40.78                             171   -0.6510 22.4 196 
 BRR  HZ EP        736 27.57                             153    0.5210 73.7 299 
 BRR  HN ES        736 45.15                             153    0.8910 73.7 299 
 BRR  HZ I         736 46.16         3.4 0.16            151           73.7 299 
 PTB  HZ EP        736 32.26                             133   -0.44 9  149 260 
 PTB  HN ES        736 53.56                             133   -0.76 9  149 260 
 PTB  HZ I         736 57.15         3.3 0.12            132            149 260 
 SPBC HZ EP        736 33.81                             131   -0.25 9  163 220 
 SPBC HN ES        736 56.70                             131   -0.04 9  163 220 
 SPBC HZ I         737  3.79         3.8 0.22            130            163 220 
 ZAR  HZ EP        736 38.25                             124    0.10 8  206 292 
 ZAR  HN ES        737  4.53                             124    0.50 8  206 292 
 ZAR  HZ I         737  6.54         1.9 0.12            123            206 292 
 NOR  HZ EP   2    736 41.90                             120    0.67 4  236 235 
 NOR  HN ES   1    737  9.39                             120   -0.11 6  236 235 
 SML  HZ EP        736 41.98                             119   -0.28 8  246 335 
 SML  HN ES        737 10.71                             119   -0.62 8  246 335 
 SML  HZ I         737 16.98         5.4 0.10            119            246 335 
 CHI  HN ES        737 13.06                             119    0.41 8  248 196 
                                                                                
