 2016  328 0940 54.3 L   6.810 -73.149150.1  RSN 10 0.3 1.8LRSN                1
 GAP=136        0.63       1.8     2.6  3.8 -0.5136E+00  0.3545E+01 -0.2252E-01E
 Epicentro: LOS SANTOS - SANTANDER                                             3
 ACTION:UPD 16-05-13 21:28 OP:cam  STATUS:               ID:20160328093743 L   I
 OLDACT:UPD 16-03-28 15:59 OP:Mher STATUS:               ID:20160328093743 L   3
 2016-03-28-0937-43M.COL___300                                                 6
 STAT SP IPHASW D HRMM SECON CODA AMPLIT PERI AZIMU VELO AIN AR TRES W  DIS CAZ7
 BAR2 EZ IP        941 14.70                             170    0.2310 24.4 189 
 BAR2 EZ ES        941 30.48                             170    0.2810 24.4 189 
 BAR2 EZ I         941 32.47        10.2 0.24            169           24.4 189 
 PAM  EZ EP        941 17.14                             152    0.2010 76.7  40 
 PAM  EN ES        941 34.76                             152    0.1610 76.7  40 
 PAM  EZ I         941 36.76         6.7 0.62            155           76.7  40 
 RUS  HZ EP        941 18.43                             144   -0.1310  102 176 
 RUS  HE ES        941 37.28                             144   -0.2010  102 176 
 RUS  HZ I         941 37.98         4.7 0.30            147            102 176 
 PTB  HZ EP        941 21.28                             133   -0.33 9  148 258 
 PTB  HN ES        941 42.70                             133   -0.21 9  148 258 
 PTB  HZ I         941 49.97         9.5 0.30            132            148 258 
 OCA  HZ EP        941 22.61                             131   -0.23 9  159 353 
 OCA  HE ES        941 44.69                             131   -0.41 9  159 353 
 OCA  HZ I         941 48.68        12.4 0.14            132            159 353 
 SPBC HZ EP        941 22.90                             130   -0.29 9  164 219 
 SPBC HN ES        941 45.66                             130   -0.07 9  164 219 
 SPBC HZ I         941 48.83         9.3 0.12            131            164 219 
 ZAR  HZ EP        941 27.15                             123    0.20 9  203 292 
 ZAR  HE ES        941 52.64                             123    0.22 9  203 292 
 ZAR  HZ I         941 59.54        11.8 0.28            123            203 292 
 CHI  HZ EP        941 32.73                             118    0.38 8  250 195 
 CHI  HE ES        942  1.77                             118   -0.26 8  250 195 
 CHI  HZ I         942  9.50         2.5 0.54            120            250 195 
 GUY2CHZ EP        941 38.50                             113    0.35 7  302 235 
 GUY2CHE ES        942 12.63                             113    0.28 7  302 235 
 GUY2CHZ I         942 21.66         2.6 0.28                           302 235 
 MON  HZ EP   4    941 42.06                             109   -1.29 0  353 308 
 MON  HN ES        942 21.73                             109    0.11 6  353 308 
 MON  HZ I         942 35.21         2.1 0.56            110            353 308 
                                                                                
