 2015  428 0855 23.4 L   6.813 -73.160149.6  RSN  5 0.5 1.3LRSN                1
 GAP=210        1.10       7.0     8.3 10.4  0.3970E+01 -0.1892E+02 -0.1413E+02E
 Epicentro: LOS SANTOS - SANTANDER                                             3
 ACTION:UPD 15-06-03 16:58 OP:cam  STATUS:               ID:20150428085523 L   I
 OLDACT:REG 15-04-28 13:06 OP:drio STATUS:               ID:20150428084749     3
 2015-04-28-0847-49M.COL___283                                                 6
 STAT SP IPHASW D HRMM SECON CODA AMPLIT PERI AZIMU VELO AIN AR TRES W  DIS CAZ7
 BAR2 EZ EP        855 43.25                             170   -0.2310 24.5 186 
 BAR2 EZ I         856  1.17         3.2 0.28            167           24.5 186 
 BRR  HZ EP        855 45.19                             154    0.3710 69.1 298 
 BRR  HN ES        856  1.90                             154    0.3510 69.1 298 
 PTB  HZ EP        855 50.79                             133    0.26 9  146 258 
 PTB  HN ES        856 10.86                             133   -0.86 9  146 258 
 PTB  HZ I         856 13.20         2.4 0.12            140            146 258 
 ZAR  HZ EP        855 55.97                             124    0.11 9  202 292 
 ZAR  HE ES        856 21.77                             124    0.57 9  202 292 
 ZAR  HZ I         856 29.44         1.5 0.22            128            202 292 
 SML  HZ EP        855 59.93                             118   -0.07 8  242 336 
 SML  HN ES        856 27.94                             118   -0.64 8  242 336 
 SML  HZ I         856 35.72         2.2 0.28            121            242 336 
                                                                                
