 2011  728 0323 30.5 L   6.138 -73.704109.7  RSN  6 0.3 1.4LRSN                1
 GAP=248        0.44       3.8     9.1  7.6  0.1287E+02  0.4271E+02  0.7516E+01E
 Epicentro: LANDAZURI - SANTANDER                                              3
 ACTION:UPD 12-07-25 14:03 OP:epov STATUS:               ID:20110728032330 L   I
 2011-07-28-0320-00M.COL___142                                                 6
 STAT SP IPHASW D HRMM SECON CODA AMPLIT PERI AZIMU VELO AIN AR TRES W  DIS CAZ7
 RUS  HZ EP   1    323 48.92                             144    0.14 7 73.9 111 
 RUS  HE ES   2    324  3.02                             144   -0.01 5 73.9 111 
 RUS  HZ I         324  3.96         2.0 0.14                          73.9 111 
 BAR2 SZ EP   1    323 48.70                             142    0.09 7 76.5  49 
 BAR2 SZ ES   1    324  2.50                             142   -0.24 7 76.5  49 
 BAR2 SZ I         324  4.13        14.2 0.16                          76.5  49 
 BTL  SZ EP   1    323 50.56                             135    0.14 7 98.9  29 
 BTL  SZ ES   2    324  6.03                             135    0.08 5 98.9  29 
 BRR  HZ EP   2    323 50.19                             132   -0.63 5  107 360 
 BRR  HE ES   2    324  7.12                             132    0.44 5  107 360 
 BRR  HZ I         324  8.82         7.6 0.08                           107 360 
 GIR2 SZ EP   1    323 51.97                             129   -0.08 7  118  28 
 GIR2 SZ ES   2    324  8.67                             129   -0.19 5  118  28 
 GRA  SZ ES   2    324 27.83                             111    0.25 4  217  27 
 GRA  SZ I         324 31.26         2.3 0.74                           217  27 
                                                                                
