 2013  928 0439 24.7 L   6.792 -73.150141.3  RSN  8 0.3 1.6LRSN                1
 GAP=136        0.88       3.5     3.5  5.5 -0.2132E+01  0.1712E+01 -0.4744E+00E
 Epicentro: LOS SANTOS - SANTANDER                                             3
 ACTION:UPD 13-10-22 09:25 OP:ep   STATUS:               ID:20130928043924 L   I
 OLDACT:REG 13-09-28 08:20 OP:stll STATUS:               ID:20130928043843     3
 2013-09-28-0438-43M.COL___244                                                 6
 STAT SP IPHASW D HRMM SECON CODA AMPLIT PERI AZIMU VELO AIN AR TRES W  DIS CAZ7
 BAR2 SZ EP        439 43.91                             171    0.1210 22.4 189 
 BAR2 SZ ES        439 58.84                             171    0.1810 22.4 189 
 BAR2 SZ I         440  6.57         4.6 0.32            171           22.4 189 
 BRR  HZ EP        439 45.87                             152    0.4910 71.2 299 
 BRR  HN ES        440  1.81                             152    0.3110 71.2 299 
 BRR  HZ I         440  6.62         8.9 0.12            152           71.2 299 
 PAM  SZ EP        439 46.89                             150    0.3810 78.3  39 
 PAM  SN ES        440  2.90                             150   -0.6110 78.3  39 
 PAM  SZ I         440  5.51         9.2 0.48            155           78.3  39 
 RUS  HZ EP        439 48.29                             143    0.3210 99.8 176 
 RUS  HN ES        440  6.06                             143   -0.0510 99.8 176 
 RUS  HZ I         440  7.10         3.3 0.38            148           99.8 176 
 PTB  HZ EP        439 50.90                             131   -0.36 9  147 259 
 PTB  HN ES        440 11.55                             131   -0.42 9  147 259 
 PTB  HZ I         440 16.60         5.0 0.30            134            147 259 
 CAPV BZ EP        439 51.52                             131   -0.31 9  150  38 
 SPBC HZ EP        439 52.54                             128   -0.24 9  162 219 
 SPBC HN ES        440 14.58                             128   -0.10 9  162 219 
 SPBC HZ I         440 18.44         5.4 0.20            132            162 219 
 ZAR  HN ES        440 22.06                             121    0.13 9  204 292 
 ZAR  HZ I         440 27.82         5.1 0.28            124            204 292 
                                                                                
