 2017  528 0213 23.2 L   6.690 -73.293159.0  RSN  4 0.5 0.9LRSN                1
 GAP=210        1.05       9.4     9.2  9.8  0.6248E+02 -0.1167E+01 -0.1035E+02E
 Epicentro: GALAN - SANTANDER                                                  3
 ACTION:UPD 17-06-16 13:39 OP:jn   STATUS:               ID:20170528021323 L   I
 OLDACT:UP  17-05-28 16:02 OP:dnl  STATUS:               ID:20170528020744     3
 OLDACT:UP  17-05-28 16:01 OP:dnl  STATUS:               ID:20170528020744     3
 OLDACT:UP  17-05-28 16:01 OP:dnl  STATUS:               ID:20170528020744     3
 OLDACT:REG 17-05-28 13:14 OP:dnl  STATUS:               ID:20170528020744     3
 2017-05-28-0208-00M.COL___341                                                 6
 STAT SP IPHASW D HRMM SECON CODA AMPLIT PERI AZIMU VELO AIN AR TRES W  DIS CAZ7
 BRR  HZ EP   2    213 45.35                             157   -0.11 5 65.3 315 
 BRR  HZ I         214  2.99         3.3 0.44            154           65.3 315 
 BRR  HE ES        214  3.25                             157    0.4010 65.3 315 
 RUS  HZ EP        213 48.04                             149    0.4210 91.2 165 
 RUS  HN ES        214  6.15                             149   -0.5510 91.2 165 
 RUS  HZ I         214 12.35         0.5 0.24            149           91.2 165 
 PTB  HZ EP   2    213 50.55                             139    0.82 5  130 263 
 PTB  HN ES        214 10.76                             139    0.3110  130 263 
 PTB  HZ I         214 19.74         1.2 0.28            139            130 263 
 ZAR  HZ EP        213 55.20                             127   -0.34 9  194 297 
 ZAR  HN ES        214 20.19                             127   -0.60 9  194 297 
                                                                                
