 2016 1228 0551 47.8 L   6.807 -73.137146.0  RSN  7 0.3 1.1LRSN                1
 GAP=137        0.68       3.0     4.8  4.5 -0.3405E+01 -0.3437E+01  0.3983E+01E
 Epicentro: LOS SANTOS - SANTANDER                                             3
 ACTION:UPD 17-01-11 20:20 OP:rebc STATUS:               ID:20161228055147 L   I
 OLDACT:UP  16-12-28 19:17 OP:[3  STATUS:               ID:20161228054740     3
 OLDACT:UP  16-12-28 19:17 OP:[3  STATUS:               ID:20161228054740     3
 OLDACT:REG 16-12-28 13:17 OP:edw  STATUS:               ID:20161228054740     3
 2016-12-28-0548-00M.COL___359                                                 6
 STAT SP IPHASW D HRMM SECON CODA AMPLIT PERI AZIMU VELO AIN AR TRES W  DIS CAZ7
 BAR2 EZ EP        552  7.19                             170   -0.3110 24.3 192 
 BAR2 EZ ES        552 22.96                             170    0.1110 24.3 192 
 BRR  HZ EP        552  8.73                             152   -0.2910 71.7 298 
 BRR  HE ES        552 25.70                             152    0.1510 71.7 298 
 PAM  EZ IP     D  552 10.48                             151    0.5010 76.1  39 
 PAM  EN ES        552 27.08                             151   -0.1910 76.1  39 
 PAM  EZ I         552 29.65         3.0 0.50            154           76.1  39 
 RUS  HZ EP        552 11.42                             144   -0.2310  101 177 
 RUS  HN ES        552 30.34                             144    0.1110  101 177 
 RUS  HZ I         552 31.39         3.8 0.34            142            101 177 
 PTB  HZ EP   9    552 14.07                             132   -0.83 0  149 259 
 PTB  HN ES        552 35.27                             130    0.07 9  149 259 
 PTB  HZ I         552 38.17         1.1 0.34            131            149 259 
 CHI  HZ EP        552 26.00                             117    0.36 8  250 195 
 CHI  HN ES        552 55.03                             117   -0.11 8  250 195 
 CHI  HZ I         553  3.70         0.6 0.50            116            250 195 
 GUY2CHZ EP   4    552 37.17                             112    5.59 0  302 235 
 GUY2CHE ES   4    553  9.56                             112    3.85 0  302 235 
 GUY2CHZ I         553 13.66         0.7 0.29                           302 235 
                                                                                
