 2011  528 0009  1.2 L   6.815 -73.033134.0  RSN  7 0.5 1.5LRSN                1
 GAP=171        1.04       7.6    14.4 12.5  0.1880E+02 -0.6587E+02 -0.1955E+02E
 Epicentro: CEPITA - SANTANDER                                                 3
 ACTION:UP  11-06-29 08:56 OP:tino STATUS:               ID:20110528000901 L   I
 2011-05-28-0004-32S.COL___115                                                 6
 STAT SP IPHASW D HRMM SECON CODA AMPLIT PERI AZIMU VELO SNR AR TRES W  DIS CAZ7
 BTL  SZ EP        0 9 20.29                             168     0.710   28 294 
 BAR2 SZ EP   1    0 9 18.92                             167    -0.7 7   30 214 
 BAR2 SZ ES   1    0 9 34.18                             167     0.3 7   30 214 
 BAR2 SZ I         0 9 36.04        11.0 0.25                            30 214 
 GIR2 SZ EP   1    0 9 19.41                             165    -0.2 7   34 329 
 BRR  HZ EP   1    0 9 21.13                             147    -0.6 7   82 293 
 BRR  HZ I         0 9 21.40        17.7 0.12                            82 293 
 BRR  HN ES   1    0 9 37.83                             147     0.0 7   82 293 
 RUS  HZ EP   1    0 9 23.89                             141    -0.1 7  102 183 
 RUS  HE ES   2    0 9 41.46                             141    -0.2 5  102 183 
 RUS  HZ I         0 9 42.92         3.2 0.23                           102 183 
 GRA  SZ EP   2    0 9 25.26                             136     0.3 5  121  12 
 GRA  SZ ES   2    0 9 42.99                             136    -0.6 5  121  12 
 GRA  SZ I         0 9 47.69         2.3 0.27                           121  12 
 OCA  SZ EP   2    0 9 28.99                             127     0.3 5  161 349 
                                                                                
