 2014  628 0343 16.4 L   6.746 -73.172133.2  RSN  9 0.4 1.5LRSN                1
 GAP=180        0.91       2.8     4.4  6.5  0.9955E+00  0.7252E+01 -0.1080E+01E
 Epicentro: VILLANUEVA - SANTANDER                                             3
 ACTION:UPD 14-07-01 22:57 OP:nd   STATUS:               ID:20140628034316 L   I
 OLDACT:UP  14-06-28 15:52 OP:spq  STATUS:               ID:20140628033819     3
 OLDACT:REG 14-06-28 13:31 OP:spq  STATUS:               ID:20140628033819     3
 2014-06-28-0338-19M.COL___250                                                 6
 STAT SP IPHASW D HRMM SECON CODA AMPLIT PERI AZIMU VELO AIN AR TRES W  DIS CAZ7
 BAR2 SZ EP        343 34.47                             172    0.1110 17.0 184 
 BAR2 SZ ES   1    343 48.40                             172    0.00 7 17.0 184 
 BAR2 SZ I         343 50.83         5.9 0.18            175           17.0 184 
 BRR  HZ EP        343 36.84                             150    0.6410 71.8 304 
 BRR  HN ES        343 52.06                             150    0.3910 71.8 304 
 BRR  HZ I         343 54.61         5.4 0.16            150           71.8 304 
 RUS  HZ EP        343 38.13                             143   -0.3310 94.9 174 
 RUS  HE ES        343 55.62                             143   -0.0910 94.9 174 
 RUS  HZ I         343 58.34         2.7 0.32            147           94.9 174 
 PTB  HZ EP        343 41.71                             130   -0.25 9  144 261 
 PTB  HN ES        344  1.30                             130   -0.62 9  144 261 
 PTB  HZ I         344  3.35         3.7 0.12            132            144 261 
 SPBC HZ EP        343 43.20                             127   -0.08 9  157 220 
 SPBC HN ES        344  4.45                             127    0.16 9  157 220 
 SPBC HZ I         344  7.70         3.5 0.18            130            157 220 
 OCA  HN ES        344  5.66                             126   -0.39 9  166 354 
 OCA  HZ I         344 11.34         3.0 0.20            127            166 354 
 ZAR  HZ EP        343 47.96                             120   -0.01 9  204 294 
 ZAR  HN ES        344 12.24                             120   -0.40 9  204 294 
 ZAR  HZ I         344 19.51         3.7 0.50            121            204 294 
 SML  HN ES        344 21.61                             114    0.42 8  248 336 
 SML  HZ I         344 25.65         6.2 0.26            116            248 336 
 GUY2CHN ES        344 32.43                             110    0.63 7  295 235 
 GUY2CHZ I         344 41.00         1.4 0.42                           295 235 
                                                                                
