 2011  528 0637 37.1 L   6.827 -73.115138.8  RSN  6 0.3 1.4LRSN                1
 GAP=162        0.77       4.8     9.4  9.2 -0.6450E+01 -0.2797E+02 -0.6475E+01E
 Epicentro: LOS SANTOS - SANTANDER                                             3
 ACTION:UP  11-06-29 08:56 OP:tino STATUS:               ID:20110528063737 L   I
 2011-05-28-0636-05S.COL___115                                                 6
 STAT SP IPHASW D HRMM SECON CODA AMPLIT PERI AZIMU VELO SNR AR TRES W  DIS CAZ7
 BTL  SZ EP        637 56.14                             172     0.310   20 301 
 BAR2 SZ EP   2    637 55.86                             168    -0.1 5   27 196 
 BAR2 SZ ES   2    638 11.05                             168     0.4 5   27 196 
 BAR2 SZ I         638 12.02        10.7 0.28                            27 196 
 BRR  HZ EP   1    637 57.15                             151    -0.4 7   73 295 
 BRR  HZ I         638  1.83         5.5 0.15                            73 295 
 BRR  HN ES   1    638 13.51                             151    -0.1 7   73 295 
 RUS  HZ EP   2    637 59.83                             141    -0.5 5  103 178 
 RUS  HE ES   2    638 18.28                             141    -0.2 5  103 178 
 RUS  HZ I         638 19.66         2.3 0.21                           103 178 
 GRA  SZ EP        638  1.72                             136     0.310  122  16 
 GRA  SZ ES   1    638 19.82                             136    -0.5 7  122  16 
 GRA  SZ I         638 24.00         3.0 0.32                           122  16 
 OCA  SZ EP   1    638  4.54                             128    -0.1 7  158 352 
 OCA  SZ ES   2    638 26.17                             128     0.1 5  158 352 
 OCA  SZ I         638 30.98         4.7 0.43                           158 352 
                                                                                
