 2013  428 0758 18.8 L   6.814 -73.157149.5  RSN 15 0.5 2.7LRSN                1
 GAP=111        0.90       2.7     3.6  5.0  0.5080E+00  0.1508E+01  0.4815E+00E
 Epicentro: LOS SANTOS - SANTANDER                                             3
 ACTION:UPD 13-05-22 14:41 OP:EP   STATUS:               ID:20130428075818 L   I
 2013-04-28-0756-38M.COL___211                                                 6
 STAT SP IPHASW D HRMM SECON CODA AMPLIT PERI AZIMU VELO AIN AR TRES W  DIS CAZ7
 BAR2 SZ IP     C  758 39.00                             170    0.1010 24.7 187 
 BAR2 SZ ES   1    758 53.87                             170   -0.71 7 24.7 187 
 BAR2 SZ I         758 55.65       141.3 0.16            168           24.7 187 
 GIR2 SZ EP        758 39.06                             168    0.2010 29.5 352 
 GIR2 SZ ES   1    758 54.17                             168   -0.35 7 29.5 352 
 GIR2 SZ I         758 55.50        75.4 0.60            169           29.5 352 
 BRR  HZ IP     C  758 40.79                             154    0.5410 69.4 298 
 BRR  HE ES   1    758 57.74                             154    0.76 7 69.4 298 
 BRR  HZ I         759  0.52        68.4 0.30            153           69.4 298 
 RUS  HZ IP     D  758 42.90                             144   -0.1310  102 175 
 RUS  HN ES   1    759  1.94                             144    0.00 7  102 175 
 RUS  HZ I         759  3.29        69.7 0.40            140            102 175 
 PTB  HZ EP        758 45.49                             133   -0.50 9  147 258 
 PTB  HN ES   1    759  6.70                             133   -0.50 7  147 258 
 PTB  HZ I         759  9.62        68.6 0.18            130            147 258 
 TAM  HZ IP     D  758 47.39                             131    0.47 9  157 105 
 TAM  HZ I         759  8.17        24.7 0.38            126            157 105 
 TAM  HN ES   1    759  9.14                             131    0.29 7  157 105 
 OCA  HZ EP   1    758 46.92                             131   -0.32 7  159 354 
 OCA  HN ES   1    759  9.02                             131   -0.40 7  159 354 
 OCA  HZ I         759 12.28        54.8 0.28            128            159 354 
 ZAR  HZ EP   1    758 51.59                             123    0.28 6  202 292 
 ZAR  HN ES   1    759 16.82                             123    0.16 6  202 292 
 ZAR  HZ I         759 22.29        51.4 0.50            121            202 292 
 NOR  HZ EP   1    758 54.81                             119    0.07 6  235 234 
 NOR  HE ES   1    759 23.34                             119    0.57 6  235 234 
 NOR  HZ I         759 25.61        41.0 0.14            116            235 234 
 SML  HZ EP        758 55.11                             118   -0.31 8  242 335 
 SML  HN ES   1    759 24.93                             118    0.94 6  242 335 
 SML  HZ I         759 27.30        46.6 0.12            116            242 335 
 ROSC BZ EP   2    758 57.99                             117    0.79 4  253 211 
 ROSC BN ES   2    759 26.33                             117   -0.83 4  253 211 
 ROSC BZ I         759 33.55        84.9 0.40            114            253 211 
 HEL  HZ EP   4    759  0.50                             116    1.39 0  271 255 
 HEL  HE ES   4    759 31.93                             116    1.37 0  271 255 
 HEL  HZ I         759 37.08        36.8 0.28            113            271 255 
 VIL  SZ EP        759  1.96                             113   -0.57 7  305 191 
 VIL  SN ES   1    759 36.74                             113    0.09 5  305 191 
 VIL  SZ I         759 46.70        56.8 0.38            110            305 191 
 COD  HZ EP        759  6.44                             110   -0.68 6  347 355 
 COD  HN ES   1    759 44.24                             110   -0.58 5  347 355 
 COD  HZ I         759 50.89         9.0 0.30            107            347 355 
 PRA  HZ EP        759 12.80                             107    0.26 6  393 209 
 PRA  HN ES   1    759 54.33                             107   -0.13 4  393 209 
 PRA  HZ I         8 0  1.09        32.0 0.72            104            393 209 
 SJC  HZ EP   4    759 13.18                             106   -1.07 0  407 327 
 SJC  HN ES   4    759 53.39                             106   -4.11 0  407 327 
                                                                                
