 2014  428 0609 57.4 L   6.898 -73.141144.1  RSN 12 0.4 2.1LRSN                1
 GAP= 68        0.91       2.5     3.4  6.0 -0.1912E+01  0.6372E+01  0.3093E+00E
 Epicentro: LOS SANTOS - SANTANDER                                             3
 ACTION:UPD 14-05-13 23:12 OP:nd   STATUS:               ID:20140428060957 L   I
 OLDACT:UP  14-04-28 17:55 OP:mh   STATUS:               ID:20140428060814     3
 OLDACT:UP  14-04-28 17:55 OP:mh   STATUS:               ID:20140428060814     3
 OLDACT:REG 14-04-28 13:11 OP:mh   STATUS:               ID:20140428060814     3
 2014-04-28-0608-14M.COL___242                                                 6
 STAT SP IPHASW D HRMM SECON CODA AMPLIT PERI AZIMU VELO AIN AR TRES W  DIS CAZ7
 PAM  SZ EP        610 19.08                             153    0.1610 69.0  45 
 PAM  SN ES        610 36.24                             153    0.5110 69.0  45 
 PAM  SZ I         610 37.16        17.8 0.34            158           69.0  45 
 RUS  HZ EP        610 21.52                             140   -0.2410  111 177 
 RUS  HN ES        610 40.49                             140   -0.3010  111 177 
 OCA  HZ EP        610 24.16                             131   -0.38 9  150 352 
 OCA  HN ES        610 45.44                             131   -0.31 9  150 352 
 PTB  HZ EP        610 23.72                             131   -0.74 9  151 255 
 PTB  HN ES        610 45.15                             131   -0.46 9  151 255 
 PTB  HZ I         610 49.03        17.1 0.09            131            151 255 
 TAM  HZ EP   1    610 25.64                             130    0.49 7  158 109 
 SPBC HZ EP        610 26.45                             127   -0.13 9  172 217 
 SPBC HN ES        610 49.64                             127    0.26 9  172 217 
 SPBC HZ I         610 56.71        11.7 0.24            128            172 217 
 ZAR  HZ EP        610 29.24                             122   -0.11 9  201 289 
 ZAR  HN ES   1    610 54.94                             122    0.63 6  201 289 
 SML  HZ EP        610 32.93                             118    0.07 8  234 334 
 SML  HN ES        611  0.59                             118    0.05 8  234 334 
 SML  HZ I         611  4.86        12.2 0.08            120            234 334 
 NOR  HZ EP        610 33.73                             117   -0.00 8  242 232 
 NOR  HN ES        611  2.06                             117   -0.05 8  242 232 
 NOR  HZ I         611  7.04         9.6 0.17            119            242 232 
 ROSC BZ EP   4    610 37.01                             115    0.57 0  262 210 
 ROSC BN ES   4    611  8.95                             115    2.02 0  262 210 
 HEL  HZ EP        610 38.66                             114    0.80 7  275 254 
 HEL  HE ES        611 10.08                             114    0.63 7  275 254 
 HEL  HZ I         611 16.31        10.4 0.45            115            275 254 
 GUY2CHZ EP   4    610 44.13                             111    2.47 0  308 233 
 GUY2CHN ES   4    611 17.97                             111    1.76 0  308 233 
 GUY2CHZ I         611 26.16         4.5 0.28                           308 233 
 RREF HZ EP   4    610 45.79                             110    1.50 0  329 228 
 RREF HN ES   4    611 23.87                             110    2.97 0  329 228 
 SJC  HZ EP   4    610 50.07                             106   -1.77 0  400 326 
 SJC  HN ES   4    611 31.19                             106   -3.14 0  400 326 
 PRA  HZ EP        610 52.09                             106    0.13 6  402 209 
 PRA  HN ES        611 34.80                             106    0.25 6  402 209 
 PRA  HZ I         611 40.84         3.9 0.28            107            402 209 
                                                                                
