 2015  828 0609 35.1 L   6.839 -73.148144.1  RSN 17 0.5 2.0LRSN                1
 GAP=134        1.10       2.5     4.2  5.3 -0.2093E+01  0.7664E+01  0.1950E+01E
 Epicentro: LOS SANTOS - SANTANDER                                             3
 ACTION:UPD 15-09-15 23:05 OP:cam  STATUS:               ID:20150828060935 L   I
 OLDACT:UP  15-08-28 15:12 OP:ak   STATUS:               ID:20150828060748     3
 OLDACT:REG 15-08-28 13:58 OP:ak   STATUS:               ID:20150828060748     3
 2015-08-28-0607-48M.COL___361                                                 6
 STAT SP IPHASW D HRMM SECON CODA AMPLIT PERI AZIMU VELO AIN AR TRES W  DIS CAZ7
 BAR2 EZ EP        6 9 54.69                             169    0.1010 27.6 188 
 BAR2 EZ ES        610  8.96                             169   -0.8610 27.6 188 
 BAR2 EZ I         610 12.03        19.1 0.26            166           27.6 188 
 BRR  HZ IP     C  6 9 56.42                             153    0.5110 69.0 295 
 BRR  HN ES        610 12.83                             153    0.6610 69.0 295 
 BRR  HZ I         610 13.84        26.2 0.12            150           69.0 295 
 PAM  EZ EP        6 9 57.58                             151    0.6610 74.3  42 
 PAM  EE ES        610 13.92                             151   -0.0410 74.3  42 
 PAM  EZ I         610 15.07         8.3 0.24            150           74.3  42 
 RUS  HZ EP        6 9 59.27                             142    0.2910  105 176 
 RUS  HN ES        610 18.12                             142    0.5010  105 176 
 RUS  HZ I         610 19.22        14.2 0.36            139            105 176 
 OCA  HZ EP        610  2.66                             130   -0.18 9  156 353 
 OCA  HN ES        610 24.03                             130   -0.47 9  156 353 
 OCA  HZ I         610 29.08        23.5 0.29            127            156 353 
 SPBC HZ EP        610  3.64                             128   -0.11 9  166 218 
 SPBC HN ES        610 25.43                             128   -0.69 9  166 218 
 SPBC HZ I         610 32.77        17.4 0.16            124            166 218 
 ZAR  HZ EP        610  7.44                             122    0.23 9  202 291 
 ZAR  HN ES        610 32.39                             122    0.11 9  202 291 
 ZAR  HZ I         610 39.70        13.4 0.32            119            202 291 
 NOR  HZ EP        610 10.98                             118    0.03 8  237 234 
 NOR  HE ES        610 38.74                             118   -0.20 8  237 234 
 NOR  HZ I         610 40.54         6.3 0.22            115            237 234 
 SML  HZ EP        610 10.73                             117   -0.43 8  240 335 
 SML  HN ES        610 38.65                             117   -0.66 8  240 335 
 SML  HZ I         610 43.17        11.6 0.10            115            240 335 
 CHI  HZ EP        610 12.38                             116   -0.75 8  253 195 
 CHI  HN ES        610 42.57                             116   -0.24 8  253 195 
 CHI  HZ IPn       610 47.68                                            253 195 
 CHI  HZ I         610 51.55         3.7 0.33            113            253 195 
 ROSC BZ EP        610 13.11                             116   -0.38 8  256 210 
 ROSC BN ES        610 44.26                             116    0.80 8  256 210 
 ROSC BZ I         610 49.26         7.9 0.55            113            256 210 
 HEL  HZ EP        610 15.83                             114    0.54 8  273 255 
 HEL  HN ES        610 46.84                             114    0.18 8  273 255 
 HEL  HZ I         610 53.36         8.1 0.34            111            273 255 
 URE  HZ EP   4    610 18.62                             113    2.77 0  282 291 
 URE  HN ES   4    610 45.33                             113   -2.33 0  282 291 
 URE  HZ I         610 56.37         8.2 0.20            111            282 291 
 GUY2CHZ EP        610 19.28                             112    0.42 7  303 234 
 GUY2CHN ES        610 53.10                             112    0.08 7  303 234 
 GUY2CHZ I         611  1.09         4.0 0.45                           303 234 
 TOL  SZ EP        610 24.38                             109    0.79 6  346 224 
 TOL  SE ES        611  0.93                             109   -0.51 6  346 224 
 TOL  SZ I         611  8.15         4.0 0.53            106            346 224 
 PRA  HZ EP        610 28.49                             106   -0.47 6  396 209 
 PRA  HN ES        611 10.28                             106   -0.71 6  396 209 
 PRA  HZ I         611 16.68         3.9 0.12            104            396 209 
 ORTC HZ EP        610 28.88                             106   -0.44 6  399 216 
 ORTC HN ES        611 11.85                             106    0.21 6  399 216 
 ORTC HZ I         611 17.24         2.9 0.32            103            399 216 
                                                                                
