 2012  428 0742 20.7 L   6.744 -73.130149.9  RSN  5 0.3 1.4LRSN                1
 GAP=141        0.77       6.0     5.9  9.7  0.1394E+01  0.1187E+02  0.1383E+02E
 Epicentro: JORDAN - SANTANDER                                                 3
 ACTION:UPD 12-07-05 11:56 OP:tino STATUS:               ID:20120428074220 L   I
 2012-04-28-0740-00M.COL___189                                                 6
 STAT SP IPHASW D HRMM SECON CODA AMPLIT PERI AZIMU VELO AIN AR TRES W  DIS CAZ7
 BAR2 SZ EP   1    742 40.88                             173     0.1 7   18 199 
 BAR2 SZ I         742 58.83         5.3 0.41                            18 199 
 BRR  HZ EP   1    742 42.78                             152     0.2 7   76 302 
 BRR  HN ES   1    743  0.18                             152     0.5 7   76 302 
 BRR  HZ I         743  2.47         5.4 0.10                            76 302 
 PAM  SN ES   1    743  1.05                             150    -0.4 7   81  36 
 RUS  HZ EP   1    742 44.74                             146     0.3 7   94 177 
 RUS  HN ES   1    743  2.89                             146    -0.1 7   94 177 
 PTB  HZ EP   1    742 47.78                             133    -0.3 7  148 261 
 PTB  HN ES   1    743  9.04                             133    -0.4 7  148 261 
 PTB  HZ I         743 14.83         2.3 0.14                           148 261 
                                                                                
