 2012  828 0248 50.1 L   6.626 -73.242144.9  RSN  5 0.2 1.3LRSN                1
 GAP=113        0.37       5.2     5.5  5.1  0.1846E+02  0.1057E+02  0.1329E+02E
 Epicentro: BARICHARA - SANTANDER                                              3
 ACTION:UPD 12-09-10 11:58 OP:ep   STATUS:               ID:20120828024850 L   I
 2012-08-28-0240-00M.COL___218                                                 6
 STAT SP IPHASW D HRMM SECON CODA AMPLIT PERI AZIMU VELO AIN AR TRES W  DIS CAZ7
 BAR2 SZ EP   2    249  9.28                             177   -0.16 5 7.65 120 
 BAR2 SZ ES   2    249 24.15                             177   -0.35 5 7.65 120 
 BAR2 SZ I         249 25.33         9.1 0.60                          7.65 120 
 GIR2 SZ EP   3    249  9.74                             159   -0.61 2 50.3   6 
 BRR  HZ EP        249 11.47                             151    0.1110 74.3 316 
 BRR  HE ES   1    249 28.01                             151    0.09 7 74.3 316 
 RUS  HZ EP        249 12.70                             149    0.1010 83.0 168 
 RUS  HZ I         249 13.71         1.5 0.12                          83.0 168 
 RUS  HN ES   3    249 30.31                             149    0.18 2 83.0 168 
 PTB  HZ EP        249 15.73                             135   -0.1210  135 266 
 PTB  HN ES   3    249 35.90                             135   -0.02 2  135 266 
                                                                                
