 2016 1128 0717  3.7 L   6.777 -73.129152.5  RSN  4 0.3 0.9LRSN                1
 GAP=159        0.90       9.5     5.7  7.2 -0.2751E+02  0.3197E+01  0.6742E+01E
 Epicentro: LOS SANTOS - SANTANDER                                             3
 ACTION:UPD 17-10-26 21:12 OP:lp   STATUS:               ID:20161128071703 L   I
 OLDACT:UP  16-11-28 16:29 OP:dnai STATUS:               ID:20161128070643d    3
 OLDACT:DUP 16-11-28 16:27 OP:dnai STATUS:               ID:20161128070643d    3
 2016-11-28-0707-00M.COL___346                                                 6
 STAT SP IPHASW D HRMM SECON CODA AMPLIT PERI AZIMU VELO AIN AR TRES W  DIS CAZ7
 BAR2 EZ EP        717 24.06                             172   -0.0410 21.2 196 
 BAR2 EZ ES        717 40.24                             172    0.2310 21.2 196 
 BRR  HZ EP        717 26.00                             153    0.2610 74.1 300 
 BRR  HE ES        717 43.32                             153    0.3910 74.1 300 
 BRR  HZ I         717 47.05         1.3 0.21            149           74.1 300 
 PAM  EZ EP        717 26.98                             152    0.2910 78.2  37 
 PAM  EN ES        717 44.03                             152   -0.5810 78.2  37 
 PTB  HZ EP        717 31.12                             133   -0.22 9  149 260 
 PTB  HN ES        717 52.49                             133   -0.42 9  149 260 
                                                                                
