 2011  128 0828 58.7 L   6.796 -73.044144.7  RSN  4 0.3 1.3LRSN                1
 GAP=170        0.66       6.5    26.4  6.7 -0.1510E+03  0.2010E+02 -0.4614E+01E
 Epicentro: LOS SANTOS - SANTANDER                                             3
 ACTION:UP  11-02-08 08:43 OP:pat  STATUS:               ID:20110128082858 L   I
 2011-01-28-0826-18S.COL___138                                                 6
 STAT SP IPHASW D HRMM SECON CODA AMPLIT PERI AZIMU VELO SNR AR TRES W  DIS CAZ7
 BAR2 SZ ES   1    829 33.27                             169    -0.3 8   27 214 
 RUS  HZ EP   2    829 21.80                             143    -0.5 5  100 182 
 RUS  HE ES   1    829 40.79                             143     0.1 8  100 182 
 RUS  HZ I         829 42.07         2.5 0.37                           100 182 
 GRA  SZ EP        829 23.80                             137     0.210  123  12 
 GRA  SZ ES   1    829 43.06                             137     0.0 7  123  12 
 CHI  HZ EP   1    829 36.16                             116    -0.4 6  251 198 
 CHI  HN ES   1    830  6.72                             116     0.5 6  251 198 
 CHI  HZ I         830 11.09         1.6 0.50                           251 198 
                                                                                
