 2012  628 0157 31.4 L   6.719 -73.173141.0  RSN  5 0.4 1.5LRSN                1
 GAP=228        0.76       7.6     7.0  8.1  0.3300E+02  0.1025E+02  0.1376E+01E
 Epicentro: VILLANUEVA - SANTANDER                                             3
 ACTION:UPD 12-08-06 17:53 OP:ep   STATUS:               ID:20120628015731 L   I
 2012-06-28-0150-00M.COL___201                                                 6
 STAT SP IPHASW D HRMM SECON CODA AMPLIT PERI AZIMU VELO AIN AR TRES W  DIS CAZ7
 BAR2 SZ EP   1    157 50.20                             174   -0.11 7 14.0 184 
 BAR2 SZ ES   1    158  4.39                             174   -0.66 7 14.0 184 
 BAR2 SZ I         158  6.49        11.2 0.15                          14.0 184 
 BRR  HZ EP   1    157 52.07                             151   -0.10 7 73.4 306 
 BRR  HN ES   1    158  8.96                             151    0.59 7 73.4 306 
 BRR  HZ I         158 11.51         8.3 0.15                          73.4 306 
 RUS  HZ EP   1    157 54.46                             145    0.39 7 91.9 174 
 RUS  HN ES   1    158 12.04                             145    0.29 7 91.9 174 
 RUS  HZ I         158 14.10         5.8 0.39                          91.9 174 
 PTB  HZ EP   1    157 57.15                             132   -0.43 7  143 262 
 PTB  HN ES   1    158 17.87                             132   -0.12 7  143 262 
 PTB  HZ I         158 20.26         2.4 0.14                           143 262 
 ZAR  HN ES   1    158 28.86                             121    0.10 6  205 295 
                                                                                
