 2013  228 0128 39.1 L   6.791 -73.148150.3  RSN  7 0.4 1.7LRSN                1
 GAP=137        0.93       4.1     4.9  6.1  0.5568E+01  0.6135E+01 -0.5333E+01E
 Epicentro: LOS SANTOS - SANTANDER                                             3
 ACTION:UPD 13-03-12 09:36 OP:ep   STATUS:               ID:20130228012839 L   I
 2013-02-28-0127-48M.COL___193                                                 6
 STAT SP IPHASW D HRMM SECON CODA AMPLIT PERI AZIMU VELO AIN AR TRES W  DIS CAZ7
 BAR2 SZ EP        128 59.06                             171   -0.2210 22.3 190 
 BAR2 SZ ES        129 15.39                             171    0.3910 22.3 190 
 BAR2 SZ I         129 17.20        11.2 0.22            171           22.3 190 
 BRR  HZ EP        129  1.42                             153    0.6410 71.5 299 
 BRR  HN ES        129 17.64                             153   -0.0310 71.5 299 
 BRR  HZ I         129 23.21         5.8 0.13            151           71.5 299 
 PAM  SN ES   1    129 18.79                             151   -0.84 7 78.4  39 
 PAM  SZ I         129 21.68         5.7 0.50            155           78.4  39 
 RUS  HZ EP     C  129  3.25                             145    0.0010 99.6 176 
 RUS  HN ES        129 22.28                             145    0.2110 99.6 176 
 PTB  HZ EP        129  6.08                             133   -0.34 9  147 259 
 PTB  HN ES        129 27.15                             133   -0.57 9  147 259 
 PTB  HZ I         129 33.47         6.7 0.26            134            147 259 
 ZAR  HZ EP        129 11.82                             123   -0.06 9  204 292 
 ZAR  HN ES        129 37.58                             123    0.15 9  204 292 
 ZAR  HZ I         129 43.89         5.7 0.32            125            204 292 
 SML  HZ EP        129 16.16                             118    0.07 8  245 335 
 SML  HE ES        129 45.20                             118    0.27 8  245 335 
 SML  HZ I         129 48.19         6.3 0.07            120            245 335 
                                                                                
