 2013  828 0522  5.4 L   6.834 -73.139144.1  RSN 15 0.5 2.3LRSN                1
 GAP=136        1.25       3.1     4.6  6.3 -0.1772E+01  0.7242E+01  0.8845E+00E
 Epicentro: LOS SANTOS - SANTANDER                                             3
 ACTION:UPD 14-01-14 09:07 OP:ep   STATUS:               ID:20130828052205 L   I
 OLDACT:REG 13-08-28 07:26 OP:nd   STATUS:               ID:20130828051959     3
 2013-08-28-0519-59M.COL___270                                                 6
 STAT SP IPHASW D HRMM SECON CODA AMPLIT PERI AZIMU VELO AIN AR TRES W  DIS CAZ7
 BAR2 SZ IP     D  522 25.10                             169    0.2110 27.1 190 
 BAR2 SZ ES        522 39.92                             169   -0.1910 27.1 190 
 BAR2 SZ I         522 41.72        64.2 0.18            167           27.1 190 
 BRR  HZ IP     D  522 26.80                             153    0.5110 70.2 296 
 BRR  HN ES        522 43.45                             153    0.8510 70.2 296 
 BRR  HZ I         522 48.24        27.7 0.12            150           70.2 296 
 PAM  SZ EP        522 27.58                             152    0.3610 74.1  41 
 PAM  SN ES        522 44.45                             152    0.1910 74.1  41 
 PAM  SZ I         522 46.85        25.3 0.46            156           74.1  41 
 RUS  HZ EP     C  522 28.99                             142   -0.2510  104 177 
 RUS  HN ES        522 47.41                             142   -0.4310  104 177 
 RUS  HZ I         522 49.14        18.2 0.28            144            104 177 
 PTB  HZ EP        522 31.61                             131   -0.74 9  149 257 
 PTB  HN ES        522 52.90                             131   -0.48 9  149 257 
 PTB  HZ I         522 55.21        26.5 0.14            131            149 257 
 OCA  HZ EP        522 32.81                             130   -0.42 9  157 353 
 OCA  HN ES        522 54.58                             130   -0.36 9  157 353 
 OCA  HZ I         522 59.15        23.3 0.16            132            157 353 
 SPBC HZ EP        522 33.99                             128   -0.08 9  167 218 
 SPBC HN ES        522 56.26                             128   -0.19 9  167 218 
 SPBC HZ I         523  3.74        28.4 0.18            128            167 218 
 YOP  SZ EP   4    522 35.49                             125   -0.11 0  182 154 
 YOP  SN ES   4    522 59.04                             125   -0.13 0  182 154 
 YOP  SZ I         523  2.31        17.5 0.26            128            182 154 
 ZAR  HZ EP        522 38.83                             122    1.18 9  203 291 
 ZAR  HN ES        523  3.03                             122    0.22 9  203 291 
 ZAR  HZ I         523  8.49        30.9 0.36            122            203 291 
 NOR  HZ EP        522 41.59                             118    0.28 8  237 234 
 NOR  HN ES        523  8.53                             118   -0.81 8  237 234 
 NOR  HZ I         523 15.94        16.3 0.18            118            237 234 
 SML  HZ EP        522 40.75                             117   -0.83 8  241 335 
 SML  HN ES        523  9.30                             117   -0.52 8  241 335 
 SML  HZ I         523 15.78        33.4 0.10            119            241 335 
 CHI  HZ EP        522 43.23                             116   -0.17 8  252 195 
 CHI  HN ES        523 13.56                             116    0.51 8  252 195 
 CHI  HZ I         523 21.02         6.8 0.50            118            252 195 
 ROSC BZ EP        522 44.55                             116    0.75 8  256 211 
 ROSC BN ES   4    523 15.39                             116    1.63 0  256 211 
 HEL  HZ EP   2    522 46.24                             114    0.55 4  274 255 
 HEL  HN ES        523 17.35                             114    0.22 8  274 255 
 HEL  HZ I         523 26.03        11.9 0.30            115            274 255 
 URE  HZ EP   4    522 45.93                             113   -0.37 0  283 291 
 URE  HN ES   4    523 16.12                             113   -2.08 0  283 291 
 URE  HZ I         523 28.96        10.1 0.38            114            283 291 
 GUY2CHZ EP   4    522 50.36                             112    1.14 0  304 234 
                                                                                
