 2012 1028 0401 13.2 L   6.794 -73.069145.6  RSN  6 0.5 2.2LRSN                1
 GAP=147        0.92       5.1     8.9  8.5  0.1039E+01  0.1698E+02  0.4263E+01E
 Epicentro: LOS SANTOS - SANTANDER                                             3
 ACTION:UPD 12-11-22 17:06 OP:ep   STATUS:               ID:20121028040113 L   I
 2012-10-28-0400-00M.COL___231                                                 6
 STAT SP IPHASW D HRMM SECON CODA AMPLIT PERI AZIMU VELO AIN AR TRES W  DIS CAZ7
 BAR2 SZ EP   1    4 1 32.87                             169   -0.01 7 25.5 209 
 BAR2 SZ ES   1    4 1 47.71                             169   -0.50 7 25.5 209 
 PAM  SZ EP   1    4 1 35.14                             153   -0.02 7 72.9  34 
 PAM  SN ES   2    4 1 53.49                             153    1.22 5 72.9  34 
 PAM  SN I         4 1 53.82         9.2 0.22                          72.9  34 
 BRR  HZ EP        4 1 34.77                             150   -0.0410 79.0 296 
 BRR  HN ES   1    4 1 52.31                             150    0.65 7 79.0 296 
 BRR  HN I         4 1 54.46        18.0 0.16                          79.0 296 
 RUS  HZ EP   1    4 1 37.25                             144    0.36 7 99.6 181 
 RUS  HN ES   2    4 1 54.86                             144   -0.49 5 99.6 181 
 RUS  HN I         4 1 55.89         9.4 0.30                          99.6 181 
 OCA  HN I         4 2  2.78        46.1 0.72                           162 350 
 OCA  HE ES        4 2  3.35                             129   -0.56 9  162 350 
 HEL  HZ EP        4 1 54.42                             114    0.10 7  280 256 
 HEL  HN I         4 2 25.37        29.5 0.62                           280 256 
                                                                                
