 2013  128 0054 48.2 L   6.820 -73.192135.0  RSN  4 0.4 1.3LRSN                1
 GAP=130        1.13       6.0     5.6 10.2 -0.3831E+01  0.4808E+01  0.1071E+02E
 Epicentro: ZAPATOCA - SANTANDER                                               3
 ACTION:UPD 13-02-15 09:17 OP:ep   STATUS:               ID:20130128005448 L   I
 2013-01-28-0048-50M.COL___168                                                 6
 STAT SP IPHASW D HRMM SECON CODA AMPLIT PERI AZIMU VELO AIN AR TRES W  DIS CAZ7
 BRR  HZ EP        055  8.49                             152    0.5910 65.7 299 
 BRR  HN ES        055 23.75                             152    0.5110 65.7 299 
 BRR  HN I         055 28.27         8.6 0.18            150           65.7 299 
 PAM  SZ EP        055  9.48                             148    0.0610 79.1  43 
 PAM  SZ I         055  9.82         2.8 0.18            152           79.1  43 
 PAM  SN ES        055 25.40                             148   -0.5410 79.1  43 
 RUS  HZ EP        055 11.44                             141    0.3010  103 173 
 RUS  HZ I         055 11.95         1.3 0.16            144            103 173 
 RUS  HN ES        055 29.00                             141    0.0010  103 173 
 PTB  HZ EP        055 13.31                             130   -0.61 9  143 258 
 PTB  HN ES        055 33.52                             130   -0.43 9  143 258 
 PTB  HN I         055 39.63         3.5 0.60            130            143 258 
                                                                                
