 2014  928 0749 48.3 L   6.803 -73.133154.1  RSN 14 0.3 1.7LRSN                1
 GAP=138        0.75       2.4     3.5  4.6 -0.3721E+00  0.2040E+01  0.1521E+01E
 Epicentro: LOS SANTOS - SANTANDER                                             3
 ACTION:UPD 14-10-03 23:09 OP:nd   STATUS:               ID:20140928074948 L   I
 OLDACT:REG 14-09-28 13:45 OP:spq  STATUS:               ID:20140928074819     3
 2014-09-28-0748-19M.COL___295                                                 6
 STAT SP IPHASW D HRMM SECON CODA AMPLIT PERI AZIMU VELO AIN AR TRES W  DIS CAZ7
 BAR2 SZ EP     C  750  8.95                             171   -0.0310 23.9 193 
 BAR2 SZ ES   1    750 25.04                             171   -0.05 7 23.9 193 
 BAR2 SZ I         750 26.82         6.8 0.56            169           23.9 193 
 BRR  HZ EP        750 10.81                             154    0.3610 72.3 298 
 BRR  HN ES        750 28.09                             154    0.3910 72.3 298 
 BRR  HZ I         750 33.58         3.5 0.14            152           72.3 298 
 PAM  SZ EP        750 11.72                             153    0.3410 76.3  39 
 PAM  SN ES   1    750 28.97                             153   -0.39 7 76.3  39 
 PAM  SZ I         750 31.12         6.4 0.22            157           76.3  39 
 RUS  HZ EP   1    750 12.72                             145   -0.21 7  101 177 
 RUS  HN ES   1    750 31.71                             145   -0.41 7  101 177 
 RUS  HZ I         750 36.19         4.0 0.28            147            101 177 
 PTB  HZ EP        750 15.57                             134   -0.55 9  149 259 
 PTB  HE ES        750 37.36                             134   -0.44 9  149 259 
 PTB  HZ I         750 42.83         5.3 0.18            133            149 259 
 OCA  HN ES   1    750 39.68                             131   -0.20 7  160 353 
 OCA  HZ I         750 45.59         4.0 0.27            133            160 353 
 SPBC HZ EP        750 17.90                             131    0.31 9  164 219 
 SPBC HN ES        750 40.92                             131    0.51 9  164 219 
 SPBC HZ I         750 45.04         7.0 0.24            131            164 219 
 ZAR  HE ES        750 47.25                             124   -0.04 8  205 292 
 ZAR  HZ I         750 53.32         5.1 0.30            125            205 292 
 SML  HZ EP   1    750 25.89                             119    0.42 6  244 335 
 SML  HE ES        750 54.27                             119   -0.17 8  244 335 
 SML  HZ I         751  0.97         7.1 0.10            121            244 335 
 CHI  HZ EP   1    750 26.27                             119   -0.31 6  249 195 
 CHI  HE ES   1    750 56.39                             119   -0.02 6  249 195 
 CHI  HZ I         751  2.09         1.2 0.56            120            249 195 
 GUY2CHZ EP   1    750 32.72                             114    0.23 5  303 235 
 GUY2CHE ES   4    751  9.06                             114    2.13 0  303 235 
 GUY2CHZ I         751 15.85         3.6 0.76                           303 235 
 CBOC HZ EP   1    750 35.18                             111   -0.59 5  335 252 
 TOL  SN ES   4    751 17.08                             111    1.99 0  345 225 
 TOL  SZ I         751 22.93         5.4 0.43            112            345 225 
 PRA  HZ EP   1    750 42.04                             108   -0.23 4  393 210 
 PRA  HN ES   1    751 24.60                             108    0.27 4  393 210 
 PRA  HZ I         751 30.47         2.2 0.64            109            393 210 
                                                                                
