 2012  428 0505 20.5 L   6.787 -73.160145.6  RSN 17 0.5 3.0LRSN                1
 GAP=135        1.08       3.8     5.0  6.3 -0.8019E+00  0.8186E+01  0.4438E+01E
 Epicentro: LOS SANTOS - SANTANDER                                             3
 SPEC SD       MO  0.0 ST  7.7 OM  0.9 f0 1.10 R0.0974 AL      WI      MW  0.0 3
 SPEC ZAR HH Z MO 13.9 ST  7.1 OM  2.1 f0 4.03 R0.3648 AL 1.85 WI 13.1 MW  3.2 3
 SPEC ZAR HH Z T 5 617 K 0.020 GD  249 VS 4.20 DE 3.20 Q0230.0 QA 0.60 VS 4.20 3
 SPEC RUS HH Z MO 13.9 ST 23.4 OM  1.5 f0 5.91 R0.2487 AL 4.59 WI 17.9 MW  3.2 3
 SPEC RUS HH Z T 5 543 K 0.020 GD  176 VP 7.60 DE 3.20 Q0230.0 QA 0.60 VS 4.20 3
 SPEC HEL HH Z MO 13.9 ST  9.2 OM  2.0 f0 4.44 R0.3311 AL 2.32 WI 36.1 MW  3.2 3
 SPEC HEL HH Z T 5 631 K 0.020 GD  306 VS 4.20 DE 3.20 Q0230.0 QA 0.60 VS 4.20 3
 SPEC ROSCBH Z MO 14.0 ST  2.9 OM  2.1 f0 2.84 R0.5176 AL 2.32 WI 15.0 MW  3.2 3
 SPEC ROSCBH Z T 5 629 K 0.020 GD  290 VS 4.20 DE 3.20 Q0230.0 QA 0.60 VS 4.20 3
 ACTION:UPD 12-07-05 11:56 OP:tino STATUS:               ID:20120428050520 L   I
 2012-04-28-0500-00M.COL___189                                                 6
 STAT SP IPHASW D HRMM SECON CODA AMPLIT PERI AZIMU VELO AIN AR TRES W  DIS CAZ7
 BAR2 SZ IP        5 5 40.01                             171     0.010   22 187 
 BAR2 SZ ES   1    5 5 55.52                             171     0.2 7   22 187 
 BAR2 SZ I         5 5 56.80       143.1 0.28                            22 187 
 BRR  HZ EP        5 5 41.88                             153     0.310   71 300 
 BRR  HN ES   1    5 5 58.39                             153     0.4 7   71 300 
 BRR  HZ I         5 6  1.66       216.1 0.14                            71 300 
 PAM  SZ EP        5 5 42.91                             150     0.110   80  40 
 PAM  SN ES   1    5 5 59.94                             150    -0.3 7   80  40 
 RUS  HZ IP     D  5 5 43.80                             144    -0.310   99 175 
 RUS  HN ES   1    5 6  2.24                             144    -0.3 7   99 175 
 RUS  HZ I         5 6  6.13        47.6 0.42                            99 175 
 PTB  HZ EP   1    5 5 46.48                             132    -0.8 7  146 259 
 PTB  HN ES   1    5 6  7.43                             132    -0.7 7  146 259 
 PTB  HZ I         5 6 15.69        78.3 0.21                           146 259 
 OCA  SZ EP        5 5 48.65                             129    -0.2 9  162 354 
 OCA  SZ ES   1    5 6 11.78                             129     0.7 7  162 354 
 ZAR  HZ EP        5 5 52.34                             122    -0.5 9  203 293 
 ZAR  HN ES   1    5 6 18.20                             122     0.2 6  203 293 
 ZAR  HZ I         5 6 24.50       159.3 0.32                           203 293 
 CHI  HZ EP        5 5 58.01                             117     0.1 8  247 195 
 CHI  HN ES   1    5 6 26.75                             117    -0.4 6  247 195 
 CHI  HZ I         5 6 33.38        35.0 0.42                           247 195 
 ROSC BZ EP        5 5 59.41                             117     1.1 8  251 211 
 ROSC BZ I         5 6 37.83       115.9 0.44                           251 211 
 HEL  HZ EP   1    5 6  0.50                             115     0.0 6  270 256 
 HEL  HE ES   1    5 6 31.68                             115     0.0 6  270 256 
 HEL  HZ I         5 6 40.66        44.1 0.16                           270 256 
 GUY  SZ EP   1    5 6  5.10                             112     1.0 5  301 235 
 VIL  SZ EP   1    5 6  3.67                             112     0.0 5  302 191 
 VIL  SZ I         5 6 47.72        23.0 0.49                           302 191 
 DBB  SZ EP   1    5 6  7.31                             109    -0.5 5  338 275 
 TOL  SZ EP   1    5 6  8.73                             109     0.3 5  341 225 
 COD  HZ EP   1    5 6  7.94                             109    -1.0 5  350 355 
 ANIL HZ EP   1    5 6 10.54                             108     0.5 5  355 225 
 ANIL HZ I         5 6 56.18       181.2 0.53                           355 225 
 PRA  HZ EP   1    5 6 13.60                             107    -0.1 4  390 209 
                                                                                
