 2014  928 0625 38.8 L   6.714 -73.134146.0  RSN  4 0.4 1.0LRSN                1
 GAP=257        0.88       7.4     7.2  8.3 -0.6343E+01 -0.2561E+01  0.1942E+02E
 Epicentro: JORDAN - SANTANDER                                                 3
 ACTION:UPD 14-10-03 23:09 OP:nd   STATUS:               ID:20140928062538 L   I
 OLDACT:DUP 14-09-28 16:41 OP:spq  STATUS:               ID:20140928061822d    3
 OLDACT:REG 14-09-28 13:29 OP:spq  STATUS:               ID:20140928061820     3
 2014-09-28-0618-20M.COL___295                                                 6
 STAT SP IPHASW D HRMM SECON CODA AMPLIT PERI AZIMU VELO AIN AR TRES W  DIS CAZ7
 BAR2 SZ EP        625 58.28                             174    0.0010 14.5 201 
 BAR2 SZ ES   1    626 13.02                             174   -0.48 7 14.5 201 
 BAR2 SZ I         626 14.82         2.5 0.14            169           14.5 201 
 BRR  HZ EP        626  0.13                             151   -0.1610 77.2 304 
 BRR  HE ES        626 17.59                             151    0.5110 77.2 304 
 BRR  HZ I         626 23.64         2.0 0.38            147           77.2 304 
 PTB  HZ EP        626  5.35                             132   -0.37 9  147 263 
 PTB  HN ES        626 26.42                             132   -0.33 9  147 263 
 PTB  HZ I         626 32.85         0.9 0.42            131            147 263 
 SPBC HZ EP        626  7.18                             130    0.51 9  157 222 
 SPBC HN ES   1    626 28.65                             130    0.20 7  157 222 
 SPBC HZ I         626 31.85         1.5 0.20            131            157 222 
                                                                                
