 2010  528 0855 40.3 L   6.571 -73.496112.8  RSN 12 0.5 2.8LRSN                1
 GAP=107        1.05       3.6     5.8  7.4 -0.1323E+02  0.1802E+02 -0.2495E+01E
 Epicentro: EL CARMEN DE CHUCURI - SANTANDER                                   3
 ACTION:UP  10-08-24 10:07 OP:vdl  STATUS:               ID:20100528085540 L   I
 2010-05-28-0851-28S.COL___108                                                 6
 STAT SP IPHASW D HRMM SECON CODA AMPLIT PERI AZIMU VELO SNR AR TRES W  DIS CAZ7
 BAR2 SZ IP        855 56.41                             162     0.110   35  86 
 BAR2 SZ ES        856  8.64                             162    -0.210   35  86 
 GIR2 SZ IP        855 57.98                             148     0.210   65  31 
 GUE  SZ IP        856  5.41                             123    -0.3 9  153  24 
 GUE  SZ ES   1    856 25.32                             123    -0.2 7  153  24 
 GRA  SZ EP        856  6.82                             121     0.2 9  164  28 
 GRA  SZ ES   1    856 27.14                             121    -0.1 7  164  28 
 OCA  SZ EP        856  8.79                             117    -0.1 9  185   6 
 OCA  SZ ES        856 31.93                             117     0.6 9  185   6 
 OCA  SZ I         856 38.02       136.4 0.38                           185   6 
 ROSC BZ EP        856 12.44                             113     0.3 8  212 206 
 ROSC BZ I         856 15.29        38.4 0.08                           212 206 
 ROSC BE ES   1    856 37.06                             113     0.0 6  212 206 
 CHI  HZ EP        856 12.20                             113    -0.5 8  216 187 
 CHI  HN ES   1    856 37.53                             113    -0.4 6  216 187 
 CHI  HZ I         856 42.30        29.7 0.34                           216 187 
 HEL  HZ EP        856 13.50                             111    -0.5 8  229 260 
 HEL  HN ES   1    856 39.36                             111    -1.0 6  229 260 
 HEL  HZ I         856 41.71        46.4 0.41                           229 260 
 CVER SZ EP        856 15.44                             111     0.5 8  235 196 
 RREF BZ EP        856 19.48                             107    -0.3 7  276 228 
 RREF BN ES        856 51.06                             107     0.4 7  276 228 
 RREF BZ I         856 55.28        39.3 0.36                           276 228 
 ANIL BZ EP   1    856 23.71                             105     0.1 5  312 223 
 ANIL BN ES   1    856 59.03                             105     1.5 5  312 223 
 ANIL BZ I         857  3.39        76.5 0.09                           312 223 
 SDV  BZ EP        856 34.31                             100    -0.5 6  406  51 
                                                                                
