 2013  928 0754  5.8 L   6.799 -73.150139.5  RSN  7 0.4 1.7LRSN                1
 GAP=183        0.99       4.3     6.3  6.7  0.5158E+01  0.9720E+01  0.2945E+01E
 Epicentro: LOS SANTOS - SANTANDER                                             3
 ACTION:UPD 13-10-22 09:25 OP:ep   STATUS:               ID:20130928075405 L   I
 OLDACT:DUP 13-09-28 14:27 OP:stll STATUS:               ID:20130928074837d    3
 2013-09-28-0748-36M.COL___244                                                 6
 STAT SP IPHASW D HRMM SECON CODA AMPLIT PERI AZIMU VELO AIN AR TRES W  DIS CAZ7
 BAR2 SZ EP        754 24.24                             170   -0.4310 23.2 189 
 BAR2 SZ ES        754 39.85                             170    0.4610 23.2 189 
 BAR2 SZ I         754 41.47        12.1 0.42            159           23.2 189 
 BRR  HZ EP        754 26.40                             151    0.1510 70.9 299 
 BRR  HZ I         754 27.00        17.4 0.48            140           70.9 299 
 BRR  HN ES        754 42.09                             151   -0.1110 70.9 299 
 RUS  HZ EP        754 28.75                             142   -0.1810  101 176 
 RUS  HN ES        754 47.03                             142    0.0510  101 176 
 RUS  HZ I         754 50.38         4.4 0.28            129            101 176 
 PTB  HZ EP        754 31.76                             131   -0.46 9  147 259 
 PTB  HN ES        754 52.60                             131   -0.23 9  147 259 
 PTB  HZ I         754 53.81         5.6 0.24            117            147 259 
 OCA  HN ES        754 55.34                             128    0.00 9  160 353 
 SPBC HZ EP        754 33.77                             128   -0.02 9  163 219 
 HEL  HZ EP        754 46.81                             114    1.16 8  272 256 
 HEL  HZ I         755 24.07         4.2 0.24            103            272 256 
                                                                                
