 2011  328 0134 14.8 L   6.783 -73.084146.1  RSN  6 0.3 1.7LRSN                1
 GAP=173        0.51       5.8     7.4  8.2 -0.2350E+02 -0.1864E+02  0.1503E+02E
 Epicentro: LOS SANTOS - SANTANDER                                             3
 ACTION:UP  11-06-16 14:36 OP:jfem STATUS:               ID:20110328013414 L   I
 2011-03-28-0131-34S.COL___138                                                 6
 STAT SP IPHASW D HRMM SECON CODA AMPLIT PERI AZIMU VELO SNR AR TRES W  DIS CAZ7
 BAR2 SZ EP        134 34.37                             170    -0.110   24 207 
 BAR2 SZ I         134 34.64         9.4 0.20                            24 207 
 BTL  SZ EP        134 34.57                             170     0.010   25 306 
 BTL  SZ ES   3    134 50.14                             170     0.2 2   25 306 
 GIR2 SZ EP   3    134 34.48                             166    -0.2 2   35 340 
 GIR2 SZ ES   3    134 49.31                             166    -0.8 2   35 340 
 PAM  SZ EP   1    134 37.28                             152     0.4 7   75  35 
 PAM  SE ES   3    134 54.41                             152     0.3 2   75  35 
 BRR  HZ EP        134 36.26                             150    -0.210   78 297 
 BRR  HN ES   2    134 53.75                             150     0.5 5   78 297 
 BRR  HZ I         134 55.36        10.8 0.17                            78 297 
 GRA  SZ EP        134 40.17                             137     0.110  126  14 
 GRA  SZ ES   1    134 59.54                             137    -0.3 7  126  14 
 GRA  SZ I         135  0.95         6.5 0.41                           126  14 
                                                                                
