 2010  928 0345 25.8 L   6.813 -72.999142.0  RSN  8 0.4 1.8LRSN                1
 GAP=181        0.97       4.2     9.3  8.7  0.1552E+01 -0.1815E+02 -0.7216E+01E
 Epicentro: CEPITA - SANTANDER                                                 3
 ACTION:UP  11-02-18 11:06 OP:tino STATUS:               ID:20100928034525 L   I
 2010-09-28-0342-04S.COL___122                                                 6
 STAT SP IPHASW D HRMM SECON CODA AMPLIT PERI AZIMU VELO SNR AR TRES W  DIS CAZ7
 BTL  SZ EP        345 45.65                             167     0.410   32 291 
 BAR2 SZ EP        345 45.03                             167    -0.210   32 220 
 BAR2 SZ ES   2    345 59.92                             167    -0.4 5   32 220 
 BAR2 SZ I         346  1.29        14.0 0.23                            32 220 
 BRR  HZ IP     C  345 46.91                             147    -0.510   85 292 
 BRR  HZ I         345 47.18        35.0 0.17                            85 292 
 BRR  HN ES        346  4.40                             147     0.110   85 292 
 RUS  HZ EP   1    345 49.22                             143    -0.1 7  102 185 
 RUS  HN ES        346  7.78                             143     0.110  102 185 
 RUS  HZ I         346  8.91         5.6 0.46                           102 185 
 GUE  SZ EP        345 50.09                             140     0.210  113   4 
 OCA  SZ EP        345 53.52                             129    -0.4 9  162 347 
 OCA  SZ ES   2    346 16.74                             129     0.8 5  162 347 
 OCA  SZ I         346 21.23         8.0 0.26                           162 347 
 CHI  HZ I         346  5.07         3.0 0.88                           255 199 
 CHI  HN ES   1    346 33.55                             116    -0.2 6  255 199 
 RREF HZ EP   1    346 14.25                             109     0.9 5  335 231 
 RREF HN ES   2    346 50.32                             109    -0.1 3  335 231 
 RREF HZ I         346 53.43         3.0 0.29                           335 231 
                                                                                
