 2014  628 0616 21.9 L   6.838 -73.149125.9  RSN  7 0.4 1.1LRSN                1
 GAP=183        0.92       3.8     4.9  8.0  0.5097E+01  0.5560E+01 -0.6589E-01E
 Epicentro: LOS SANTOS - SANTANDER                                             3
 ACTION:UPD 14-07-01 22:57 OP:nd   STATUS:               ID:20140628061621 L   I
 OLDACT:REG 14-06-28 13:42 OP:spq  STATUS:               ID:20140628060818     3
 2014-06-28-0608-18M.COL___249                                                 6
 STAT SP IPHASW D HRMM SECON CODA AMPLIT PERI AZIMU VELO AIN AR TRES W  DIS CAZ7
 BAR2 SZ EP        616 39.88                             167    0.6510 27.4 188 
 BAR2 SZ ES   1    616 52.60                             167   -0.16 7 27.4 188 
 BAR2 SZ I         616 56.07         2.1 0.20            171           27.4 188 
 BRR  HZ EP        616 40.85                             149    0.0710 69.0 296 
 BRR  HE ES        616 55.09                             149   -0.4310 69.0 296 
 BRR  HZ I         616 59.32         3.3 0.40            148           69.0 296 
 RUS  HZ EP        616 43.64                             138   -0.4310  105 176 
 RUS  HN ES        617  1.59                             138    0.2110  105 176 
 RUS  HZ I         617  3.63         1.7 0.29            144            105 176 
 PTB  HZ EP        616 46.80                             127   -0.56 9  148 257 
 PTB  HN ES        617  7.39                             127    0.16 9  148 257 
 PTB  HZ I         617 13.11         1.8 0.18            129            148 257 
 OCA  HN ES   1    617  9.01                             125    0.09 7  156 353 
 OCA  HZ I         617 16.45         2.6 0.30            127            156 353 
 SPBC HN ES        617 10.62                             124    0.03 9  166 218 
 SPBC HZ I         617 13.59         2.3 0.12            127            166 218 
 ZAR  HN ES        617 17.51                             118    0.39 9  202 291 
 ZAR  HZ I         617 24.16         1.5 0.24            120            202 291 
                                                                                
