 2017  328 0421 22.2 L   6.844 -73.154134.0  RSN  5 0.3 1.1LRSN                1
 GAP=240        0.58       5.3     5.5  5.9 -0.9004E+01 -0.2459E+01 -0.2973E+01E
 Epicentro: LOS SANTOS - SANTANDER                                             3
 ACTION:UPD 17-05-25 18:46 OP:jn   STATUS:               ID:20170328042122 L   I
 OLDACT:UP  17-03-28 14:38 OP:and  STATUS:               ID:20170328041742     3
 OLDACT:UP  17-03-28 14:37 OP:and  STATUS:               ID:20170328041742     3
 OLDACT:REG 17-03-28 12:37 OP:and  STATUS:               ID:20170328041742     3
 2017-03-28-0418-00M.COL___360                                                 6
 STAT SP IPHASW D HRMM SECON CODA AMPLIT PERI AZIMU VELO AIN AR TRES W  DIS CAZ7
 BAR2 EZ EP        421 40.49                             168   -0.0410 28.0 186 
 BAR2 EZ ES        421 54.73                             168   -0.1010 28.0 186 
 BRR  HZ EP   2    421 42.46                             152    0.55 5 68.2 295 
 BRR  HE ES   4    421 59.35                             152    2.07 0 68.2 295 
 RUS  HZ EP   2    421 44.87                             140   -0.33 5  105 176 
 RUS  HN ES        422  3.40                             140    0.2710  105 176 
 RUS  HZ I         422  3.86         2.6 0.30            141            105 176 
 PTB  HZ EP   9    421 47.62                             130   -0.63 0  148 257 
 PTB  HN ES        422  8.18                             131    0.25 9  148 257 
 PTB  HZ I         422 12.06         1.4 0.14            127            148 257 
 SPBC HN ES        422 11.71                             126   -0.22 9  166 218 
                                                                                
