 2011  528 0345 24.2 L   6.763 -73.108149.2  RSN 10 0.3 1.6LRSN                1
 GAP=163        0.60       3.4     5.7  5.2 -0.5804E+01  0.1538E+00 -0.5826E+00E
 Epicentro: LOS SANTOS - SANTANDER                                             3
 ACTION:UP  11-06-29 08:56 OP:tino STATUS:               ID:20110528034524 L   I
 2011-05-28-0340-00M.COL___116                                                 6
 STAT SP IPHASW D HRMM SECON CODA AMPLIT PERI AZIMU VELO SNR AR TRES W  DIS CAZ7
 BAR2 SZ EP   1    345 44.01                             172    -0.2 7   21 204 
 BAR2 SZ ES   1    345 59.54                             172    -0.3 7   21 204 
 BAR2 SZ I         346  2.00         9.6 0.31                            21 204 
 BTL  SZ EP        345 44.73                             170     0.410   25 314 
 GIR2 SZ EP   2    345 44.36                             166    -0.1 5   36 345 
 BRR  HZ EP        345 46.04                             151     0.010   77 300 
 BRR  HE ES   1    346  2.94                             151    -0.2 7   77 300 
 RUS  HZ EP   1    345 48.04                             146     0.0 7   96 178 
 RUS  HN ES   2    346  6.94                             146     0.4 5   96 178 
 RUS  HZ I         346  8.47         4.6 0.41                            96 178 
 GRA  SZ EP        345 49.77                             137    -0.310  129  15 
 GRA  SZ ES   2    346 10.67                             137     0.5 5  129  15 
 GRA  SZ I         346 12.03         4.4 0.35                           129  15 
 OCA  SZ EP   1    345 53.11                             130    -0.1 7  165 352 
 OCA  SZ ES   2    346 16.37                             130     0.5 5  165 352 
 NOR  SZ EP   2    345 59.77                             119    -0.5 4  236 236 
 NOR  SZ ES   2    346 28.39                             119     0.0 4  236 236 
 HEL  HZ EP   2    346  5.53                             115     0.6 4  275 257 
 HEL  HZ I         346 43.57         3.3 0.40                           275 257 
 PRA  HZ EP   2    346 17.34                             107    -0.4 3  391 210 
 PRA  HE ES   2    347  0.09                             107     0.7 3  391 210 
                                                                                
