 2016  128 0607 57.9 L   6.814 -73.152148.1  RSN 10 0.4 1.7LRSN                1
 GAP=135        0.87       2.4     3.8  5.4 -0.8900E+00  0.5224E+01 -0.9202E+00E
 Epicentro: LOS SANTOS - SANTANDER                                             3
 ACTION:UPD 16-03-09 23:29 OP:cam  STATUS:               ID:20160128060757 L   I
 OLDACT:REG 16-01-28 13:48 OP:cara STATUS:               ID:20160128055746     3
 2016-01-28-0557-46M.COL___331                                                 6
 STAT SP IPHASW D HRMM SECON CODA AMPLIT PERI AZIMU VELO AIN AR TRES W  DIS CAZ7
 BAR2 EZ EP        6 8 17.94                             170    0.1110 24.8 188 
 BAR2 EZ ES        6 8 33.48                             170    0.1010 24.8 188 
 BAR2 EZ I         6 8 34.47         5.1 0.28            168           24.8 188 
 PAM  EZ IP        6 8 20.48                             151    0.1810 76.6  41 
 PAM  EN ES        6 8 37.89                             151    0.1010 76.6  41 
 PAM  EZ I         6 8 39.90         4.5 0.48            156           76.6  41 
 RUS  HZ EP        6 8 21.74                             144   -0.2510  102 176 
 RUS  HN ES        6 8 40.30                             144   -0.4810  102 176 
 RUS  HZ I         6 8 41.42         2.7 0.42            146            102 176 
 PTB  HZ EP        6 8 24.74                             133   -0.28 9  147 258 
 PTB  HN ES        6 8 45.68                             133   -0.49 9  147 258 
 PTB  HZ I         6 8 53.16         6.5 0.48            131            147 258 
 OCA  HZ EP        6 8 26.82                             130    0.60 9  159 353 
 OCA  HN ES        6 8 48.27                             130   -0.06 9  159 353 
 OCA  HZ I         6 8 53.62        13.7 0.18            131            159 353 
 SPBC HZ EP        6 8 26.52                             129   -0.12 9  164 218 
 SPBC HN ES        6 8 49.65                             129    0.58 9  164 218 
 SPBC HZ I         6 8 55.72         8.6 0.24            129            164 218 
 ZAR  HE ES        6 8 56.20                             123    0.51 9  203 292 
 ZAR  HZ I         6 9  1.23         6.9 0.38            122            203 292 
 SML  HZ EP        6 8 34.13                             118   -0.33 8  242 335 
 SML  HN ES        6 9  2.53                             118   -0.45 8  242 335 
 SML  HZ I         6 9  9.89         8.1 0.10            119            242 335 
 CHI  HZ EP        6 8 35.77                             117   -0.09 8  250 195 
 CHI  HE ES        6 9  5.89                             117    0.41 8  250 195 
 CHI  HZ I         6 9 14.71         1.9 0.42            119            250 195 
 GUY2CHZ EP   4    6 8 42.73                             113    1.08 0  302 234 
 GUY2CHE ES   4    6 9 21.07                             113    5.29 0  302 234 
 GUY2CHZ I         6 9 26.53         1.8 0.48                           302 234 
                                                                                
