 2016  328 0516 43.9 L   6.815 -73.167133.3  RSN  6 0.3 1.2LRSN                1
 GAP=133        0.84       3.5     4.9  8.1 -0.7426E+01  0.1730E+02 -0.7138E+01E
 Epicentro: LOS SANTOS - SANTANDER                                             3
 ACTION:UPD 16-05-13 21:28 OP:cam  STATUS:               ID:20160328050745 L   I
 OLDACT:UP  16-03-28 16:57 OP:ak   STATUS:               ID:20160328050745 L   3
 OLDACT:UPD 16-03-28 15:59 OP:Mher STATUS:               ID:20160328050745 L   3
 2016-03-28-0507-45M.COL___297                                                 6
 STAT SP IPHASW D HRMM SECON CODA AMPLIT PERI AZIMU VELO AIN AR TRES W  DIS CAZ7
 BAR2 EZ ES        517 16.84                             169    0.5910 24.7 184 
 PAM  EZ EP        517  5.06                             148    0.2210 77.6  42 
 PAM  EN ES        517 21.04                             148   -0.1210 77.6  42 
 PAM  EZ I         517 21.24         2.4 0.26            150           77.6  42 
 RUS  HZ EP   2    517  6.73                             141    0.12 5  102 175 
 RUS  HE ES        517 23.88                             141   -0.4210  102 175 
 RUS  HZ I         517 25.27         1.6 0.40            142            102 175 
 PTB  HZ EP        517 10.02                             129    0.30 9  146 258 
 PTB  HN ES        517 29.85                             129    0.01 9  146 258 
 PTB  HZ I         517 32.90         2.6 0.20            129            146 258 
 OCA  HE ES        517 31.93                             127   -0.38 9  158 354 
 OCA  HZ I         517 33.94         4.8 0.68            128            158 354 
 SPBC HN ES        517 32.66                             126   -0.31 9  163 218 
                                                                                
