 2014 1028 0849 50.4 L   6.788 -73.117148.8  RSN  7 0.4 1.7LRSN                1
 GAP=141        1.17       4.4     5.9  7.9 -0.6137E+01  0.6609E+01  0.2817E+01E
 Epicentro: LOS SANTOS - SANTANDER                                             3
 ACTION:UPD 14-11-29 23:57 OP:nd   STATUS:               ID:20141028084950 L   I
 OLDACT:REG 14-10-30 15:31 OP:cam  STATUS:               ID:20141028084806     3
 2014-10-28-0848-06M.COL___271                                                 6
 STAT SP IPHASW D HRMM SECON CODA AMPLIT PERI AZIMU VELO AIN AR TRES W  DIS CAZ7
 BAR2 SZ EP        850  9.81                             171   -0.5310 22.8 198 
 BAR2 SZ ES        850 25.63                             171   -0.3010 22.8 198 
 BAR2 SZ I         850 28.80         6.5 0.32            170           22.8 198 
 BRR  HZ EP        850 12.52                             152    0.4910 74.6 298 
 BRR  HN ES        850 29.54                             152    0.6110 74.6 298 
 BRR  HN I         850 30.19        21.0 0.34            150           74.6 298 
 PAM  SZ EP        850 12.88                             152    0.0410 76.4  37 
 PAM  SN ES        850 30.68                             152    0.3010 76.4  37 
 PAM  SN I         850 31.53        13.1 0.46            154           76.4  37 
 RUS  HZ EP        850 14.52                             145    0.2210 99.1 178 
 RUS  HE ES        850 32.60                             145   -0.3810 99.1 178 
 RUS  HZ I         850 34.26         2.2 0.24            148           99.1 178 
 PTB  HZ EP        850 17.25                             132   -0.58 9  151 260 
 PTB  HN ES        850 38.70                             132   -0.56 9  151 260 
 PTB  HZ I         850 46.00         5.7 0.52            132            151 260 
 OCA  HE ES        850 41.07                             130   -0.38 9  162 352 
 OCA  HE I         850 47.02        15.9 0.18            131            162 352 
 SPBC HZ EP        850 19.61                             129    0.43 9  164 220 
 SPBC HN ES        850 42.29                             129    0.62 9  164 220 
 SPBC HZ I         850 44.33         6.7 0.32            131            164 220 
                                                                                
