 2016  628 0927 47.7 L   6.775 -73.111145.3  RSN 10 0.4 1.7LRSN                1
 GAP=239        1.01       4.1     5.0  5.7  0.8522E+01  0.1019E+02  0.5230E+01E
 Epicentro: LOS SANTOS - SANTANDER                                             3
 ACTION:UPD 16-07-21 22:23 OP:rebc STATUS:               ID:20160628092747 L   I
 OLDACT:UP  16-06-28 19:11 OP:edw  STATUS:               ID:20160628091749d    3
 OLDACT:UP  16-06-28 19:08 OP:edw  STATUS:               ID:20160628091749d    3
 OLDACT:DUP 16-06-28 18:58 OP:edw  STATUS:               ID:20160628091749d    3
 OLDACT:UP  16-06-28 18:48 OP:edw  STATUS:               ID:20160628091747     3
 OLDACT:REG 16-06-28 17:12 OP:edw  STATUS:               ID:20160628091747     3
 2016-06-28-0917-47M.COL___334                                                 6
 STAT SP IPHASW D HRMM SECON CODA AMPLIT PERI AZIMU VELO AIN AR TRES W  DIS CAZ7
 BAR2 EZ EP        928  7.60                             171    0.3910 21.7 201 
 BAR2 EZ ES        928 22.71                             171    0.2610 21.7 201 
 BAR2 EZ I         928 23.87         6.6 0.54                          21.7 201 
 BRR  HZ EP        928  8.88                             151   -0.1610 75.9 299 
 BRR  HN ES        928 26.29                             151    0.5810 75.9 299 
 RUS  HZ EP        928 10.32                             145   -0.8410 97.6 178 
 RUS  HE ES        928 29.13                             145   -0.3610 97.6 178 
 RUS  HZ I         928 32.22         3.6 0.30                          97.6 178 
 PTB  HZ EP        928 14.48                             131   -0.42 9  151 260 
 PTB  HN ES        928 35.68                             131   -0.46 9  151 260 
 ZAR  HZ EP        928 21.00                             122    0.44 8  209 292 
 ZAR  HN ES        928 45.90                             122   -0.32 8  209 292 
 ZAR  HZ I         928 51.91         6.7 0.44                           209 292 
 CHI  HZ EP        928 25.34                             117    0.18 8  247 196 
 CHI  HN ES        928 54.76                             117    0.35 8  247 196 
 HEL  HZ EP        928 27.65                             114   -0.55 8  275 257 
 HEL  HN ES        928 59.95                             114    0.13 8  275 257 
 HEL  HZ I         929  6.82         3.5 0.36                           275 257 
 URE  HZ EP        928 29.64                             113    0.41 7  288 292 
 URE  HN ES        929  1.33                             113   -0.32 7  288 292 
 URE  HZ I         929  7.36         3.1 0.24                           288 292 
 GUY2CHZ EP        928 31.99                             112    0.56 7  303 236 
 GUY2CHN ES        929  5.58                             112    0.01 7  303 236 
 GUY2CHZ I         929 17.59         2.3 0.50                           303 236 
 PRA  HZ EP        928 41.71                             106    0.60 6  392 210 
 PRA  HE ES        929 23.29                             106    0.48 6  392 210 
 PRA  HZ I         929 30.85         1.6 0.30                           392 210 
 SJC  HZ EP   4    928 41.32                             105   -2.41 0  414 327 
 SJC  HN ES   4    929 23.22                             105   -4.25 0  414 327 
                                                                                
