 2015  828 0700 46.9 L   6.811 -73.130144.6  RSN 21 0.6 2.3LRSN                1
 GAP=120        1.23       2.7     4.1  5.6 -0.8587E+00  0.6541E+01  0.3266E+01E
 Epicentro: LOS SANTOS - SANTANDER                                             3
 ACTION:UPD 15-09-15 23:05 OP:cam  STATUS:               ID:20150828070046 L   I
 OLDACT:UP  15-08-28 18:41 OP:ak   STATUS:               ID:20150828065748     3
 OLDACT:REG 15-08-28 14:38 OP:ak   STATUS:               ID:20150828065748     3
 2015-08-28-0657-48M.COL___358                                                 6
 STAT SP IPHASW D HRMM SECON CODA AMPLIT PERI AZIMU VELO AIN AR TRES W  DIS CAZ7
 BAR2 EZ EP        7 1  6.48                             170    0.0510 24.9 194 
 BAR2 EZ ES        7 1 20.94                             170   -0.7210 24.9 194 
 BAR2 EZ I         7 1 23.34        31.8 0.27            168           24.9 194 
 BRR  HZ EP        7 1  8.25                             152    0.2610 72.2 297 
 BRR  HE ES        7 1 25.24                             152    0.8110 72.2 297 
 BRR  HZ I         7 1 29.50        30.8 0.20            150           72.2 297 
 PAM  EZ EP        7 1  9.45                             151    0.5710 75.3  39 
 PAM  EN ES        7 1 26.44                             151    0.4210 75.3  39 
 PAM  EZ I         7 1 28.69        55.5 0.46            156           75.3  39 
 RUS  HZ EP        7 1 10.51                             143   -0.1110  102 177 
 RUS  HN ES        7 1 29.14                             143    0.0210  102 177 
 RUS  HZ I         7 1 30.37        22.3 0.32            145            102 177 
 OCA  HZ EP        7 1 14.67                             130   -0.37 9  159 352 
 OCA  HN ES        7 1 36.40                             130   -0.58 9  159 352 
 OCA  HZ I         7 1 41.14        44.3 0.34            131            159 352 
 SPBC HZ EP        7 1 15.85                             128    0.34 9  165 219 
 SPBC HN ES        7 1 37.16                             128   -0.66 9  165 219 
 SPBC HZ I         7 1 40.25        30.0 0.16            129            165 219 
 ZAR  HZ EP        7 1 19.21                             122   -0.19 8  205 292 
 ZAR  HN ES        7 1 44.54                             122   -0.21 8  205 292 
 ZAR  HZ I         7 1 50.71        13.2 0.29            122            205 292 
 NOR  HZ EP        7 1 22.07                             118   -0.73 8  237 234 
 NOR  HE ES        7 1 50.68                             118   -0.11 8  237 234 
 NOR  HZ I         7 1 58.43        15.3 0.14            119            237 234 
 SML  HZ EP        7 1 22.68                             117   -0.75 8  243 335 
 SML  HN ES        7 1 52.51                             117    0.59 8  243 335 
 SML  HZ I         7 1 55.01        34.8 0.11            119            243 335 
 CHI  HZ EP        7 1 24.66                             117   -0.06 8  250 195 
 CHI  HN ES        7 1 54.27                             117    0.06 8  250 195 
 CHI  HZ I         7 1 57.53        13.0 0.42            118            250 195 
 ROSC BZ EP        7 1 26.01                             116    0.84 8  255 211 
 ROSC BN ES        7 1 55.81                             116    0.79 8  255 211 
 ROSC BZ I         7 2  0.38        20.4 0.38            117            255 211 
 HEL  HZ EP   1    7 1 28.06                             114    0.78 6  274 256 
 HEL  HN ES        7 1 58.57                             114   -0.21 8  274 256 
 HEL  HZ I         7 2  4.57         8.2 0.28            115            274 256 
 URE  HZ EP   4    7 1 26.73                             113   -1.32 0  285 292 
 URE  HN ES        7 1 59.36                             113   -0.79 7  285 292 
 URE  HZ I         7 2  9.31        11.6 0.13            114            285 292 
 GUY2CHZ EP   1    7 1 30.64                             112   -0.06 5  303 235 
 GUY2CHN ES        7 2  4.05                             112   -0.82 7  303 235 
 GUY2CHZ I         7 2 10.87         7.0 0.47                           303 235 
 VIL  SZ EP        7 1 30.28                             112   -0.16 7  305 192 
 VIL  SN ES        7 2  4.04                             112   -0.36 7  305 192 
 VIL  SZ I         7 2 10.24        14.4 0.48            113            305 192 
 PTGC HZ EP        7 1 29.78                             111   -0.98 7  309 159 
 PTGC HN ES   4    7 2  3.09                             111   -1.88 0  309 159 
 PTGC HZ I         7 2  5.73        13.8 0.24            113            309 159 
 CBOC HZ EP        7 1 35.00                             109    0.99 7  336 252 
 TOL  SZ EP        7 1 36.34                             109    0.98 6  346 225 
 TOL  SN ES        7 2 13.91                             109    0.76 6  346 225 
 TOL  SZ I         7 2 20.37         7.3 0.34            110            346 225 
 PRA  HZ EP        7 1 40.43                             106   -0.18 6  394 210 
 PRA  HN ES        7 2 21.93                             106   -0.57 6  394 210 
 PRA  HZ I         7 2 27.51         6.6 0.50            107            394 210 
 ORTC HZ EP        7 1 40.84                             106   -0.18 6  397 216 
 ORTC HN ES        7 2 24.24                             106    1.01 6  397 216 
 ORTC HZ I         7 2 28.04         6.2 0.36            107            397 216 
 SJC  HZ EP   4    7 1 38.85                             105   -3.58 0  409 327 
 SJC  HN ES   4    7 2 21.66                             105   -4.07 0  409 327 
 SJC  HZ I         7 2 28.76         2.6 0.38            107            409 327 
 CRJC HZ EP   4    7 1 47.05                             103   -2.17 0  466   3 
 CRJC HN ES   4    7 2 35.57                             103   -2.25 0  466   3 
 MACC HZ EP   4    7 1 53.42                             101   -2.34 0  522 189 
 MACC HN ES   4    7 2 42.05                             101   -7.42 0  522 189 
                                                                                
