 2015  928 0121 56.7 L   6.795 -73.150150.0  RSN 19 0.4 2.2LRSN                1
 GAP=136        0.85       2.3     3.0  4.5 -0.1337E+01  0.3292E+01  0.1089E+01E
 Epicentro: LOS SANTOS - SANTANDER                                             3
 ACTION:UPD 15-10-28 16:28 OP:cam  STATUS:               ID:20150928012156 L   I
 OLDACT:REG 15-09-28 12:45 OP:spq  STATUS:               ID:20150928011748     3
 2015-09-28-0117-48M.COL___355                                                 6
 STAT SP IPHASW D HRMM SECON CODA AMPLIT PERI AZIMU VELO AIN AR TRES W  DIS CAZ7
 BAR2 EZ EP        122 16.60                             171   -0.2610 22.7 189 
 BAR2 EZ ES   1    122 32.26                             171   -0.30 7 22.7 189 
 BAR2 EZ I         122 33.73        26.7 0.14            169           22.7 189 
 BRR  HZ EP        122 18.54                             153    0.2010 71.1 299 
 BRR  HN ES        122 36.06                             153    0.8710 71.1 299 
 BRR  HZ I         122 40.79        20.5 0.14            152           71.1 299 
 PAM  EZ EP        122 19.43                             151   -0.0210 78.2  40 
 PAM  EN ES        122 37.41                             151    0.2410 78.2  40 
 PAM  EZ I         122 38.85        16.6 0.56            156           78.2  40 
 RUS  HZ EP        122 20.79                             145   -0.0810  100 176 
 RUS  HE ES        122 39.56                             145   -0.1310  100 176 
 RUS  HZ I         122 41.91        19.3 0.52            147            100 176 
 PTB  HZ EP        122 23.28                             133   -0.72 9  147 259 
 PTB  HN ES        122 44.71                             133   -0.56 9  147 259 
 PTB  HZ I         122 49.27        22.1 0.30            133            147 259 
 OCA  HZ EP        122 25.26                             130   -0.17 9  161 353 
 OCA  HE ES        122 47.80                             130   -0.01 9  161 353 
 OCA  HZ I         122 52.61        26.8 0.20            133            161 353 
 SPBC HZ EP        122 25.58                             130    0.09 9  162 219 
 SPBC HN ES        122 48.03                             130    0.11 9  162 219 
 SPBC HZ I         122 52.69        27.2 0.28            131            162 219 
 ZAR  HE ES        122 54.63                             123   -0.32 9  204 292 
 ZAR  HZ I         123  0.46        23.8 0.60            124            204 292 
 NOR  HZ EP        122 32.72                             119    0.08 8  234 235 
 NOR  HE ES        123  0.36                             119   -0.28 8  234 235 
 NOR  HZ I         123  4.03        12.3 0.16            121            234 235 
 SML  HZ EP        122 33.33                             118   -0.31 8  244 335 
 SML  HE ES   1    123  2.47                             118    0.04 6  244 335 
 SML  HZ I         123  4.56        19.1 0.11            120            244 335 
 CHI  HZ EP        122 34.64                             118    0.04 8  248 195 
 CHI  HE ES        123  4.35                             118    0.22 8  248 195 
 CHI  HZ I         123  9.94         8.8 0.26            120            248 195 
 ROSC BE ES   4    123  7.01                             118    2.15 0  252 211 
 ROSC BZ I         123  9.99        15.4 0.35            119            252 211 
 HEL  HZ EP   4    122 38.82                             116    1.72 0  271 256 
 HEL  HN ES   1    123  9.21                             116    0.63 6  271 256 
 HEL  HZ I         123 14.96        10.2 0.28            117            271 256 
 GUY2CHZ EP        122 41.15                             113    0.69 7  300 235 
 GUY2CHN ES        123 14.28                             113   -0.28 7  300 235 
 GUY2CHZ I         123 25.58         8.0 0.46                           300 235 
 PTGC HZ EP   4    122 39.56                             112   -1.18 0  308 159 
 PTGC HN ES   4    123 12.90                             112   -2.17 0  308 159 
 PTGC HZ I         123 15.55        10.2 0.36            115            308 159 
 CBOC HZ EP   4    122 44.66                             111    0.90 0  333 252 
 CBOC HE ES        123 21.08                             111    0.65 7  333 252 
 CBOC HZ I         123 27.16         3.1 0.36            112            333 252 
 DBB  SZ ES   1    123 21.43                             110   -0.04 5  339 274 
 ORTC HZ EP        122 50.97                             107    0.26 6  395 216 
 ORTC HE ES   2    123 33.21                             107    0.39 3  395 216 
 ORTC HZ I         123 40.24         4.4 0.52            108            395 216 
 SJC  HZ EP   4    122 50.87                             106   -1.60 0  409 327 
 SJC  HN ES   4    123 34.32                             106   -1.62 0  409 327 
 SJC  HZ I         123 36.70         2.0 0.24            108            409 327 
                                                                                
