 2010  828 0946  6.7 L   6.799 -73.046148.0  RSN  7 0.3 1.5LRSN                1
 GAP=193        0.60       5.3    11.8  7.3  0.4210E+01  0.2853E+01  0.5319E+01E
 Epicentro: LOS SANTOS - SANTANDER                                             3
 ACTION:UP  10-09-07 10:58 OP:vdl  STATUS:               ID:20100828094606 L   I
 2010-08-28-0943-03S.COL___119                                                 6
 STAT SP IPHASW D HRMM SECON CODA AMPLIT PERI AZIMU VELO SNR AR TRES W  DIS CAZ7
 BAR2 SZ EP   1    946 26.70                             169     0.0 7   27 214 
 BAR2 SZ ES   2    946 41.96                             169    -0.3 5   27 214 
 BAR2 SZ I         946 43.42        11.2 0.17                            27 214 
 BTL  SZ IP        946 26.97                             169     0.310   28 298 
 BRR  HZ EP   2    946 28.11                             150    -0.6 5   81 295 
 BRR  HE ES   2    946 45.81                             150     0.0 5   81 295 
 BRR  HZ I         946 46.85         6.2 0.06                            81 295 
 RUS  HZ EP   2    946 30.32                             144    -0.3 5  100 182 
 RUS  HE ES   2    946 49.58                             144     0.2 5  100 182 
 RUS  HZ I         946 50.63         3.2 0.29                           100 182 
 OCA  SZ EP   2    946 35.51                             130     0.1 5  162 349 
 OCA  SZ I         946 39.15         4.5 0.49                           162 349 
 CHI  HZ EP   2    946 44.63                             117    -0.2 4  252 198 
 CHI  HZ I         946 45.35         1.5 0.25                           252 198 
 PRA  HZ EP   1    947  0.50                             107    -0.4 4  397 211 
 PRA  HN ES   2    947 44.05                             107     0.8 3  397 211 
 PRA  HZ I         947 54.04         1.6 0.36                           397 211 
                                                                                
