 2010  728 0218 47.2 L   6.787 -73.073142.2  RSN  9 0.3 1.8LRSN                1
 GAP=167        0.58       3.2     5.9  4.9 -0.6304E+01 -0.2507E+01 -0.6106E+00E
 Epicentro: LOS SANTOS - SANTANDER                                             3
 ACTION:UPD 10-12-01 15:20 OP:pat  STATUS:               ID:20100728021847 L   I
 2010-07-28-0216-05S.COL___123                                                 6
 STAT SP IPHASW D HRMM SECON CODA AMPLIT PERI AZIMU VELO AIN AR TRES W  DIS CAZ7
 BAR2 SZ EP        219  6.28                             170    -0.110   25 210 
 BAR2 SZ ES   1    219 21.59                             170     0.2 7   25 210 
 BAR2 SZ I         219 22.24        12.4 0.09                            25 210 
 GIR2 SZ EP   1    219  6.44                             166    -0.1 7   35 338 
 BRR  HZ IP     D  219  8.19                             149    -0.210   79 297 
 BRR  HE ES   1    219 25.11                             149     0.1 7   79 297 
 BRR  HZ I         219 26.35        14.6 0.10                            79 297 
 RUS  HZ EP   1    219 10.25                             144    -0.2 7   99 181 
 RUS  HN ES   2    219 28.88                             144     0.3 5   99 181 
 RUS  HZ I         219 29.76         8.0 0.34                            99 181 
 GUE  SZ EP        219 11.39                             139    -0.210  117   8 
 GRA  SZ IP        219 12.28                             137     0.210  125  14 
 GRA  SZ ES   1    219 31.72                             137     0.3 7  125  14 
 OCA  SZ EP   1    219 15.43                             128     0.0 7  163 350 
 OCA  SZ I         219 47.46         5.4 0.23                           163 350 
 HEL  HZ EP   2    219 28.24                             114     0.2 4  280 257 
 HEL  HZ I         220  4.79         4.6 0.24                           280 257 
 PRA  HZ EP   1    219 41.75                             106     0.8 4  395 211 
 PRA  HN ES   2    220 22.83                             106     0.0 3  395 211 
 PRA  HZ I         220 28.31         2.9 0.14                           395 211 
                                                                                
