 2016  128 0631 35.2 L   5.755 -73.980 99.4  RSN  4 0.3 0.9LRSN                1
 GAP=253        0.66       4.0     4.6  7.1 -0.2765E+01  0.1571E+02 -0.6939E+01E
 Epicentro: FLORIAN - SANTANDER                                                3
 ACTION:UPD 16-03-09 23:29 OP:cam  STATUS:               ID:20160128063135 L   I
 OLDACT:REG 16-01-28 13:50 OP:cara STATUS:               ID:20160128062736     3
 2016-01-28-0627-36M.COL___331                                                 6
 STAT SP IPHASW D HRMM SECON CODA AMPLIT PERI AZIMU VELO AIN AR TRES W  DIS CAZ7
 SPBC HZ EP        631 48.83                             171   -0.0810 15.3 222 
 SPBC HE ES        631 59.46                             171   -0.1110 15.3 222 
 SPBC HZ I         632  1.07         3.7 0.20            172           15.3 222 
 PTB  HZ EP        631 54.26                             131    0.0210  101 329 
 PTB  HE ES        632  9.30                             131    0.2510  101 329 
 PTB  HZ I         632 11.16         1.3 0.22            132            101 329 
 GUY2CHZ EP   4    631 59.56                             117   -1.73 0  164 249 
 GUY2CHN ES        632 21.95                             117    0.34 9  164 249 
 HEL  HZ EP   4    632  3.79                             115    1.11 0  178 286 
 HEL  HE ES        632 23.63                             115   -0.45 9  178 286 
                                                                                
