 2015  228 0749 45.0 L   6.771 -73.127147.7  RSN  7 0.4 1.6LRSN                1
 GAP=140        0.99       4.1     5.0  6.3 -0.4511E+01  0.2727E+01  0.6491E+01E
 Epicentro: LOS SANTOS - SANTANDER                                             3
 ACTION:UPD 15-04-30 21:29 OP:nd   STATUS:               ID:20150228074945 L   I
 OLDACT:REG 15-02-28 13:39 OP:carl STATUS:               ID:20150228074749     3
 2015-02-28-0747-49M.COL___293                                                 6
 STAT SP IPHASW D HRMM SECON CODA AMPLIT PERI AZIMU VELO AIN AR TRES W  DIS CAZ7
 BAR2 EZ EP        750  4.72                             172   -0.0610 20.7 197 
 BAR2 EZ ES        750 20.16                             172   -0.0710 20.7 197 
 BAR2 EZ I         750 20.85         6.9 0.30            169           20.7 197 
 BRR  HZ EP        750  6.63                             152    0.1210 74.6 300 
 BRR  HN ES        750 24.21                             152    0.8910 74.6 300 
 BRR  HZ I         750 28.13         5.4 0.14            151           74.6 300 
 PAM  SZ EP        750  7.54                             151    0.0810 78.6  37 
 PAM  SN ES        750 24.75                             151   -0.2510 78.6  37 
 PAM  SZ I         750 27.00         5.3 0.58            155           78.6  37 
 RUS  HZ EP        750  8.44                             145   -0.2310 97.3 177 
 RUS  HE ES        750 26.97                             145   -0.1910 97.3 177 
 RUS  HZ I         750 28.60         4.6 0.28            146           97.3 177 
 PTB  HZ EP        750 11.79                             132   -0.43 9  149 260 
 PTB  HN ES        750 32.79                             132   -0.69 9  149 260 
 PTB  HZ I         750 38.68         7.4 0.42            132            149 260 
 SPBC HZ EP        750 13.64                             130    0.14 9  162 220 
 SPBC HN ES        750 35.73                             130   -0.04 9  162 220 
 SPBC HZ I         750 39.74        10.1 0.22            130            162 220 
 CHI  HZ EP        750 22.93                             118    0.43 8  246 196 
 CHI  HN ES        750 52.31                             118    0.54 8  246 196 
 CHI  HZ I         751  0.28         1.9 0.50            119            246 196 
                                                                                
