 2016  928 0950 56.0 L   6.820 -73.130145.5  RSN 11 0.3 1.6LRSN                1
 GAP=185        0.78       3.2     4.8  5.1  0.1184E+01 -0.1052E+01 -0.2237E+00E
 Epicentro: LOS SANTOS - SANTANDER                                             3
 ACTION:UPD 17-08-17 21:17 OP:lp   STATUS:               ID:20160928095056 L   I
 OLDACT:UP  16-09-28 19:38 OP:edw  STATUS:               ID:20160928094726     3
 OLDACT:UP  16-09-28 17:47 OP:edw  STATUS:               ID:20160928094726     3
 OLDACT:UP  16-09-28 17:45 OP:edw  STATUS:               ID:20160928094726     3
 OLDACT:UP  16-09-28 17:44 OP:edw  STATUS:               ID:20160928094726     3
 OLDACT:UP  16-09-28 17:43 OP:edw  STATUS:               ID:20160928094726     3
 OLDACT:UP  16-09-28 17:40 OP:edw  STATUS:               ID:20160928094726     3
 OLDACT:REG 16-09-28 13:29 OP:dani STATUS:               ID:20160928094726     3
 2016-09-28-0948-00M.COL___375                                                 6
 STAT SP IPHASW D HRMM SECON CODA AMPLIT PERI AZIMU VELO AIN AR TRES W  DIS CAZ7
 BAR2 EZ EP        951 15.80                             169    0.1010 25.8 193 
 BAR2 EZ ES        951 30.81                             169   -0.2110 25.8 193 
 BAR2 EZ I         951 31.72        16.7 0.32            169           25.8 193 
 BRR  HZ EP        951 17.52                             152    0.3310 71.7 296 
 BRR  HN ES        951 34.08                             152    0.3910 71.7 296 
 RUS  HZ EP        951 19.98                             143    0.0610  103 177 
 RUS  HN ES        951 38.39                             143   -0.1510  103 177 
 RUS  HZ I         951 40.31         3.2 0.14            143            103 177 
 PTB  HZ EP        951 23.11                             131   -0.07 9  150 258 
 PTB  HN ES        951 43.71                             131   -0.64 9  150 258 
 PTB  HZ I         951 46.02         3.4 0.15            130            150 258 
 OCA  HZ EP        951 23.81                             130   -0.34 9  158 352 
 OCA  HN ES   4    951 47.56                             130    1.49 0  158 352 
 OCA  HZ I         951 49.49        12.4 0.18            129            158 352 
 SPBC HN ES        951 47.70                             128    0.49 9  166 219 
 ZAR  HZ EP   3    951 29.16                             122    0.61 2  205 291 
 ZAR  HN ES   4    951 53.45                             122   -0.46 0  205 291 
 ZAR  HZ I         951 55.50         2.4 0.10            121            205 291 
 NOR  HZ EP   4    951 33.67                             118    1.62 0  237 234 
 NOR  HN ES   4    951 59.85                             118   -0.28 0  237 234 
 NOR  HZ I         952  2.97         2.8 0.20            117            237 234 
 CHI  HZ EP        951 34.09                             117    0.08 8  251 195 
 CHI  HN ES        952  3.46                             117   -0.16 8  251 195 
 CHI  HZ I         952  8.63         1.3 0.08            116            251 195 
 URE  HZ EP   4    951 40.22                             113    3.03 0  285 291 
 URE  HN ES   4    952  8.52                             113   -0.76 0  285 291 
 URE  HZ I         952 11.83         3.9 0.14            113            285 291 
 SOCV BZ EP   4    951 27.10                             112   -11.7 0  299  57 
 GUY2CHZ EP   4    951 42.76                             112    2.81 0  304 235 
 GUY2CHN ES   4    952 17.21                             112    3.03 0  304 235 
 GUY2CHZ I         952 18.83         1.9 0.36                           304 235 
 SJC  HZ EP   4    951 50.38                             106   -1.11 0  408 327 
 SJC  HN ES   4    952 31.16                             106   -3.58 0  408 327 
                                                                                
