 2016  328 0313  5.1 L   6.818 -73.172145.9  RSN 12 0.5 1.7LRSN                1
 GAP=132        1.03       2.9     3.8  6.5 -0.9540E-01  0.8991E+01 -0.1441E+00E
 Epicentro: LOS SANTOS - SANTANDER                                             3
 ACTION:UPD 16-05-13 21:28 OP:cam  STATUS:               ID:20160328030750 L   I
 OLDACT:UPD 16-03-28 15:38 OP:Mher STATUS:               ID:20160328030750 L   3
 2016-03-28-0307-50M.COL___297                                                 6
 STAT SP IPHASW D HRMM SECON CODA AMPLIT PERI AZIMU VELO AIN AR TRES W  DIS CAZ7
 BAR2 EZ EP        313 24.90                             170    0.0710 25.0 183 
 BAR2 EZ ES        313 40.31                             170    0.1410 25.0 183 
 BAR2 EZ I         313 42.68        15.5 0.24            170           25.0 183 
 PAM  EZ IP        313 27.77                             151    0.3710 77.8  42 
 PAM  EN ES        313 45.29                             151    0.5410 77.8  42 
 PAM  EZ I         313 46.68         4.1 0.20            154           77.8  42 
 RUS  HZ EP        313 28.83                             143   -0.2410  103 175 
 RUS  HN ES        313 46.94                             143   -0.7910  103 175 
 RUS  HZ I         313 48.84         5.4 0.26            146            103 175 
 PTB  HZ EP        313 31.68                             132   -0.22 9  145 258 
 PTB  HN ES        313 52.55                             132   -0.22 9  145 258 
 PTB  HZ I         313 55.18         6.2 0.16            132            145 258 
 OCA  HZ EP        313 32.90                             130   -0.35 9  158 354 
 OCA  HN ES        313 54.70                             130   -0.46 9  158 354 
 OCA  HZ I         314  1.52        18.1 0.28            131            158 354 
 SPBC HZ EP        313 33.92                             129    0.29 9  163 218 
 SPBC HN ES        313 55.66                             129   -0.19 9  163 218 
 SPBC HZ I         314  0.00         9.0 0.38            130            163 218 
 ZAR  HZ EP   2    313 38.16                             123    0.92 4  201 292 
 ZAR  HE ES        314  2.93                             123    0.65 9  201 292 
 CHI  HZ EP        313 42.70                             117   -0.28 8  250 194 
 CHI  HN ES        314 13.44                             117    0.94 8  250 194 
 CHI  HZ I         314 17.97         1.7 0.28            119            250 194 
 HEL  HZ EP   2    313 45.16                             115    0.05 4  270 255 
 HEL  HN ES   1    314 16.28                             115    0.00 6  270 255 
 HEL  HZ I         314 24.10         3.3 0.44            116            270 255 
 URE  HZ EP   4    313 48.22                             114    2.38 0  280 292 
 URE  HN ES        314 17.78                             114    0.21 7  280 292 
 URE  HZ I         314 28.32         3.5 0.22            114            280 292 
 GUY2CHZ EP   2    313 48.96                             112    0.33 4  300 234 
 GUY2CHE ES   4    314 26.19                             112    3.65 0  300 234 
 GUY2CHZ I         314 30.44         2.7 0.26                           300 234 
 MON  HN ES        314 30.88                             109   -0.77 6  350 308 
                                                                                
