 2016  528 0228  6.0 L   7.259 -73.452104.4  RSN  4 0.2 1.2LRSN                1
 GAP=209        0.66       4.2     3.3  7.1 -0.5178E+01  0.9541E+01 -0.3183E+01E
 Epicentro: SABANA DE TORRES - SANTANDER                                       3
 ACTION:UPD 16-08-18 17:50 OP:cam  STATUS:               ID:20160528022806 L   I
 OLDACT:UP  16-05-28 13:41 OP:ar   STATUS:               ID:20160528022743     3
 OLDACT:REG 16-05-28 12:10 OP:ar   STATUS:               ID:20160528022743     3
 2016-05-28-0227-43M.COL___316                                                 6
 STAT SP IPHASW D HRMM SECON CODA AMPLIT PERI AZIMU VELO AIN AR TRES W  DIS CAZ7
 BAR2 EZ EP        228 23.68                             140   -0.1310 79.5 158 
 BAR2 EZ ES        228 37.58                             140   -0.1410 79.5 158 
 BAR2 EZ I         228 39.37         4.7 0.36            143           79.5 158 
 PAM  EZ EP        228 24.46                             139   -0.0210 83.6  84 
 PAM  EN ES        228 39.02                             139    0.1110 83.6  84 
 PAM  EZ I         228 39.93         7.5 0.26            146           83.6  84 
 PTB  HZ EP        228 28.36                             123   -0.41 9  137 234 
 PTB  HN ES        228 46.86                             123    0.30 9  137 234 
 PTB  HZ I         228 52.74         3.5 0.40            125            137 234 
 RUS  HZ EP        228 31.92                             119    0.44 9  157 165 
 RUS  HN ES        228 51.28                             119   -0.10 9  157 165 
 RUS  HZ I         228 54.92         1.2 0.22            123            157 165 
                                                                                
