 2012  828 0545 37.0 L   6.773 -73.151145.6  RSN  6 0.5 1.5LRSN                1
 GAP=184        0.98      10.6    10.2  9.7  0.3885E+02  0.2639E+02  0.4861E+01E
 Epicentro: LOS SANTOS - SANTANDER                                             3
 ACTION:UPD 12-09-10 11:58 OP:ep   STATUS:               ID:20120828054537 L   I
 2012-08-28-0540-00M.COL___218                                                 6
 STAT SP IPHASW D HRMM SECON CODA AMPLIT PERI AZIMU VELO AIN AR TRES W  DIS CAZ7
 BAR2 SZ EP        545 56.72                             172    0.2010 20.3 190 
 BAR2 SZ ES   1    546 11.27                             172   -0.50 7 20.3 190 
 BAR2 SZ I         546 14.03         9.9 0.24                          20.3 190 
 GIR2 SZ EP        545 56.72                             166    0.0210 34.1 352 
 GIR2 SZ ES   2    546 10.94                             166   -1.15 5 34.1 352 
 BRR  HZ EP        545 58.48                             152    0.3210 72.2 301 
 BRR  HZ I         545 58.65        12.4 0.14                          72.2 301 
 BRR  HN ES   1    546 15.46                             152    0.78 7 72.2 301 
 RUS  HN ES   2    546 19.42                             145    0.58 5 97.6 176 
 PTB  HZ EP        546  3.33                             132   -0.50 9  147 260 
 PTB  HN ES   3    546 24.40                             132   -0.37 2  147 260 
 PTB  HZ I         546 26.72         1.5 0.24                           147 260 
 ZAR  HN ES   2    546 34.30                             122   -0.52 4  205 293 
                                                                                
