 2012  328 0320 18.5 L   6.508 -73.823 95.8  RSN  5 0.5 1.4LRSN                1
 GAP=143        0.71      12.0     5.4 18.9 -0.2402E+02 -0.3965E+02  0.1800E+03E
 ACTION:UP  12-03-31 23:23 OP:EP   STATUS:               ID:20120328032018 L   I
 2012-03-28-0320-00M.COL___196                                                 6
 STAT SP IPHASW D HRMM SECON CODA AMPLIT PERI AZIMU VELO SNR AR TRES W  DIS CAZ7
 BRR  HN ES   1    320 46.80                             141     0.3 7   67  10 
 BRR  HZ I         320 51.99        16.6 0.44                            67  10 
 PTB  HZ EP        320 34.40                             141    -0.110   70 273 
 PTB  HN ES   2    320 46.80                             141    -0.1 5   70 273 
 PTB  HZ I         320 47.90         3.1 0.24                            70 273 
 BAR2 SZ EP        320 35.06                             141     0.210   71  82 
 BAR2 SZ ES   3    320 46.72                             141    -1.0 2   71  82 
 RUS  HZ EP   2    320 38.15                             129    -0.2 5  106 130 
 PAM  SE ES   3    321  0.61                             118    -2.0 2  155  53 
                                                                                
