 2010  528 0651 10.4 L   6.833 -73.232110.5  RSN  5 0.6 1.5LRSN                1
 GAP=147        0.77       7.7    11.8 20.4 -0.6685E+02  0.1191E+03 -0.3697E+02E
 Epicentro: ZAPATOCA - SANTANDER                                               3
 ACTION:UP  10-08-24 10:07 OP:vdl  STATUS:               ID:20100528065111 L   I
 2010-05-28-0647-49S.COL___108                                                 6
 STAT SP IPHASW D HRMM SECON CODA AMPLIT PERI AZIMU VELO SNR AR TRES W  DIS CAZ7
 BAR2 SZ EP        651 25.94                             164     0.110   27 169 
 GRA  SZ EP        651 32.63                             127     0.010  126  22 
 GRA  SZ ES   1    651 50.05                             127     0.0 7  126  22 
 CHI  HE ES   3    652 13.33                             108    -1.4 2  250 193 
 HEL  HN ES   2    652 16.70                             107    -0.8 4  264 255 
 HEL  HZ I         652 25.84         2.3 1.27                           264 255 
 RREF BN ES   2    652 30.51                             103     1.3 3  317 228 
 RREF BZ I         652 35.50         1.7 0.34                           317 228 
                                                                                
