 2015  328 0936 24.7 L   6.833 -73.206147.7  RSN  5 0.5 1.5LRSN                1
 GAP=198        1.28       8.0     8.4 10.2  0.1226E+02  0.1088E+02 -0.2551E+02E
 Epicentro: ZAPATOCA - SANTANDER                                               3
 ACTION:UPD 15-04-30 16:30 OP:nd   STATUS:               ID:20150328093624 L   I
 OLDACT:REG 15-03-28 13:44 OP:fm   STATUS:               ID:20150328092749     3
 2015-03-28-0927-49M.COL___275                                                 6
 STAT SP IPHASW D HRMM SECON CODA AMPLIT PERI AZIMU VELO AIN AR TRES W  DIS CAZ7
 BAR2 EZ EP        936 44.30                             169   -0.3710 26.7 174 
 BAR2 EZ ES        936 59.98                             169   -0.2410 26.7 174 
 BAR2 EZ I         937  0.46         6.8 0.22            176           26.7 174 
 BRR  HZ EP        936 46.18                             155    0.4910 63.6 299 
 BRR  HN ES        937  2.76                             155    0.7310 63.6 299 
 BRR  HZ I         937  5.60         7.1 0.40            151           63.6 299 
 PTB  HZ EP        936 51.91                             134    0.56 9  142 257 
 PTB  HN ES        937 11.22                             134   -0.88 9  142 257 
 PTB  HZ I         937 16.07         2.4 0.10            134            142 257 
 ZAR  HZ EP   1    936 56.61                             124    0.07 6  196 292 
 ZAR  HN ES        937 21.55                             124    0.21 9  196 292 
 ZAR  HZ I         937 24.86         2.1 0.16            124            196 292 
 SML  HZ EP   1    937  0.72                             118   -0.10 6  238 336 
 SML  HN ES        937 28.25                             118   -0.71 8  238 336 
 SML  HZ I         937 38.25         3.4 0.34            118            238 336 
                                                                                
