 2012  128 0600 14.4 L   6.766 -73.140144.0  RSN 11 0.4 2.0LRSN                1
 GAP=139        0.96       4.1     4.9  6.7 -0.2512E+01  0.5484E+01  0.5533E+01E
 Epicentro: LOS SANTOS - SANTANDER                                             3
 ACTION:UP  12-02-03 08:21 OP:REBC STATUS:               ID:20120128060014 L   I
 2012-01-28-0600-00M.COL___188                                                 6
 STAT SP IPHASW D HRMM SECON CODA AMPLIT PERI AZIMU VELO SNR AR TRES W  DIS CAZ7
 BAR2 SZ EP        6 0 33.54                             172    -0.210   20 194 
 BAR2 SZ ES   1    6 0 49.24                             172     0.4 7   20 194 
 BAR2 SZ I         6 0 52.59        24.5 0.67                            20 194 
 BRR  HZ EP        6 0 35.52                             151     0.010   74 301 
 BRR  HN ES   1    6 0 52.82                             151     0.9 7   74 301 
 BRR  HZ I         6 0 55.29        13.1 0.16                            74 301 
 PAM  SZ EP        6 0 36.38                             150    -0.210   80  37 
 PAM  SN ES   1    6 0 53.60                             150    -0.3 7   80  37 
 RUS  HZ EP   1    6 0 37.50                             145    -0.2 7   97 176 
 RUS  HN ES   1    6 0 55.66                             145    -0.2 7   97 176 
 RUS  HZ I         6 0 59.01         8.8 0.23                            97 176 
 PTB  HZ EP   1    6 0 40.56                             132    -0.6 7  148 260 
 PTB  HN ES   1    6 1  1.34                             132    -0.8 7  148 260 
 OCA  SZ EP   1    6 0 43.09                             129     0.2 7  164 353 
 OCA  SZ ES   1    6 1  5.34                             129     0.2 7  164 353 
 OCA  SZ I         6 1  9.68        12.3 0.30                           164 353 
 ZAR  HE ES   1    6 1 12.05                             122    -0.3 6  206 293 
 ZAR  HZ I         6 1 18.10        14.0 0.25                           206 293 
 NOR  SZ EP   1    6 0 49.78                             118     0.0 6  233 235 
 NOR  SN ES   1    6 1 17.58                             118     0.1 6  233 235 
 CHI  HZ EP        6 0 51.90                             117     0.3 8  245 196 
 CHI  HZ I         6 1 28.86         5.7 0.29                           245 196 
 HEL  HZ EP   2    6 0 55.35                             114     0.9 4  272 257 
 HEL  HZ I         6 1 32.93         5.3 0.40                           272 257 
 PRA  HZ EP        6 1  8.20                             106     0.7 6  389 210 
                                                                                
