 2012  428 0610 13.8 L   6.769 -73.164151.4  RSN  6 0.4 1.5LRSN                1
 GAP=136        0.92       6.2     5.5 10.1  0.4516E+01  0.5689E+01  0.9003E+01E
 Epicentro: LOS SANTOS - SANTANDER                                             3
 ACTION:UPD 12-07-05 11:56 OP:tino STATUS:               ID:20120428061013 L   I
 2012-04-28-0610-00M.COL___189                                                 6
 STAT SP IPHASW D HRMM SECON CODA AMPLIT PERI AZIMU VELO AIN AR TRES W  DIS CAZ7
 BAR2 SZ EP   1    610 34.15                             172     0.1 7   20 186 
 BAR2 SZ I         610 50.70         7.1 0.18                            20 186 
 BRR  HZ EP        610 35.77                             153     0.210   71 302 
 BRR  HE ES   1    610 53.30                             153     0.8 7   71 302 
 BRR  HZ I         610 56.11         6.3 0.21                            71 302 
 PAM  SZ EP   1    610 36.80                             151    -0.1 7   81  39 
 PAM  SN ES   1    610 54.30                             151    -0.5 7   81  39 
 RUS  HZ EP        610 38.08                             146     0.210   97 175 
 RUS  HN ES   1    610 56.52                             146    -0.2 7   97 175 
 RUS  HZ I         610 57.78         3.1 0.37                            97 175 
 PTB  HZ EP   1    610 40.72                             134    -0.3 7  145 260 
 PTB  HN ES   1    611  1.76                             134    -0.5 7  145 260 
 PTB  HZ I         611  4.13         2.6 0.11                           145 260 
 ZAR  HN ES   1    611 11.82                             124    -0.3 6  203 293 
 ZAR  HZ I         611 18.99         5.2 0.18                           203 293 
                                                                                
