 2013  128 0614 41.9 L   6.755 -73.180142.0  RSN  5 0.4 1.3LRSN                1
 GAP=230        0.95       7.5     7.6  7.6  0.3165E+02  0.1199E+02  0.8685E+01E
 Epicentro: VILLANUEVA - SANTANDER                                             3
 ACTION:UPD 13-02-15 09:17 OP:ep   STATUS:               ID:20130128061441 L   I
 2013-01-28-0608-49M.COL___174                                                 6
 STAT SP IPHASW D HRMM SECON CODA AMPLIT PERI AZIMU VELO AIN AR TRES W  DIS CAZ7
 BAR2 SZ ES        615 15.40                             172   -0.4210 18.0 181 
 BAR2 SZ I         615 16.74         6.2 0.28            171           18.0 181 
 BRR  HZ EP        615  2.24                             152   -0.3210 70.5 304 
 BRR  HN ES        615 19.34                             152    0.6410 70.5 304 
 BRR  HN I         615 20.15         8.7 0.22            151           70.5 304 
 RUS  HZ EP        615  5.20                             144    0.2910 96.0 174 
 RUS  HZ I         615  6.08         1.4 0.12            144           96.0 174 
 RUS  HN ES        615 22.98                             144    0.0910 96.0 174 
 PTB  HZ EP        615  7.69                             132   -0.41 9  143 260 
 PTB  HE ES        615 28.52                             132   -0.04 9  143 260 
 PTB  HN I         615 31.27         3.3 0.22            131            143 260 
 CHI  HZ EP   2    615 19.43                             117    0.71 4  243 195 
                                                                                
