 2014 1128 0212 24.7 L   6.813 -73.160143.5  RSN 10 0.4 1.7LRSN                1
 GAP=134        0.87       2.7     3.8  5.4 -0.1454E+01  0.7205E+01  0.2343E+00E
 Epicentro: LOS SANTOS - SANTANDER                                             3
 ACTION:UPD 14-12-19 15:48 OP:nd   STATUS:               ID:20141128021224 L   I
 OLDACT:UP  14-11-28 14:45 OP:mh   STATUS:               ID:20141128020746     3
 OLDACT:UP  14-11-28 14:45 OP:mh   STATUS:               ID:20141128020746     3
 OLDACT:REG 14-11-28 12:21 OP:mh   STATUS:               ID:20141128020746     3
 2014-11-28-0207-46M.COL___306                                                 6
 STAT SP IPHASW D HRMM SECON CODA AMPLIT PERI AZIMU VELO AIN AR TRES W  DIS CAZ7
 BAR2 SZ EP        212 44.07                             170    0.0310 24.5 186 
 BAR2 SZ ES        212 59.27                             170    0.1110 24.5 186 
 BAR2 SZ I         213  1.00         8.4 0.19            168           24.5 186 
 PAM  SZ EP        212 47.04                             150    0.4110 77.3  41 
 PAM  SE ES        213  3.80                             150    0.0310 77.3  41 
 PAM  SZ I         213  6.64         5.4 0.53            155           77.3  41 
 RUS  HZ EP   1    212 48.41                             143    0.11 7  102 175 
 RUS  HN ES        213  6.46                             143   -0.2810  102 175 
 RUS  HZ I         213  7.43         5.6 0.48            144            102 175 
 PTB  HZ EP        212 50.95                             132   -0.38 9  146 258 
 PTB  HN ES        213 12.05                             132   -0.08 9  146 258 
 PTB  HZ I         213 16.07         5.7 0.12            131            146 258 
 OCA  HZ EP        212 52.76                             129    0.11 9  159 354 
 OCA  HN ES        213 13.84                             129   -0.63 9  159 354 
 SPBC HZ EP        212 53.23                             128    0.23 9  163 218 
 SPBC HN ES   1    213 15.01                             128   -0.09 7  163 218 
 SPBC HZ I         213 16.71        12.8 0.18            129            163 218 
 ZAR  HZ EP        212 57.03                             122    0.28 9  202 292 
 ZAR  HN ES        213 22.44                             122    0.66 9  202 292 
 ZAR  HZ I         213 28.17         9.2 0.36            123            202 292 
 NOR  HZ EP        212 59.33                             118   -0.88 8  234 234 
 NOR  HN ES   2    213 27.67                             118   -0.27 4  234 234 
 NOR  HZ I         213 37.26         4.1 0.16            119            234 234 
 CHI  HZ EP        213  2.34                             116   -0.00 8  250 195 
 CHI  HN ES        213 32.17                             116    0.44 8  250 195 
 CHI  HZ I         213 39.17         1.4 0.26            118            250 195 
 GUY2CHN ES   4    213 44.09                             112    2.09 0  301 234 
 GUY2CHZ I         213 52.72         3.2 0.70                           301 234 
 TOL  SN ES   4    213 51.83                             109    1.45 0  343 224 
 MON  HZ EP   4    213  9.49                             108   -3.84 0  352 308 
 MON  HN ES   4    213 49.16                             108   -2.13 0  352 308 
                                                                                
