 2012 1228 0836 59.7 L   6.714 -73.176147.4  RSN  5 0.5 1.4LRSN                1
 GAP=227        0.91       9.1     8.4  8.5  0.5017E+02  0.8053E+01 -0.2495E+01E
 Epicentro: VILLANUEVA - SANTANDER                                             3
 ACTION:UPD 13-01-04 14:31 OP:ep   STATUS:               ID:20121228083659 L   I
 2012-12-28-0830-00M.COL___243                                                 6
 STAT SP IPHASW D HRMM SECON CODA AMPLIT PERI AZIMU VELO AIN AR TRES W  DIS CAZ7
 BAR2 SZ EP   1    837 19.14                             175   -0.24 7 13.5 183 
 BAR2 SZ ES   1    837 34.44                             175   -0.29 7 13.5 183 
 BAR2 SZ I         837 35.58         9.2 0.58                          13.5 183 
 BRR  HZ EP   1    837 20.94                             152   -0.22 7 73.4 306 
 BRR  HN ES   1    837 38.51                             152    0.61 7 73.4 306 
 RUS  HZ EP        837 23.09                             147    0.1010 91.4 174 
 RUS  HN ES   1    837 41.17                             147    0.02 7 91.4 174 
 RUS  HZ I         837 43.29         1.8 0.32                          91.4 174 
 PTB  HZ EP   1    837 26.04                             133   -0.34 7  143 262 
 PTB  HN ES   1    837 47.44                             133    0.27 7  143 262 
 PTB  HZ I         837 54.50         3.1 0.42                           143 262 
 ZAR  HZ EP   1    837 33.27                             123    0.94 6  205 295 
 ZAR  HN ES   1    837 56.85                             123   -0.93 6  205 295 
 ZAR  HZ I         838  3.07         2.5 0.28                           205 295 
                                                                                
