 2016  928 0708 18.0 L   6.832 -73.141154.9  RSN  7 0.4 1.4LRSN                1
 GAP=241        0.89       4.1     6.9  7.6  0.6752E+01 -0.1049E+02  0.4146E+01E
 Epicentro: LOS SANTOS - SANTANDER                                             3
 ACTION:UPD 17-08-17 21:17 OP:lp   STATUS:               ID:20160928070818 L   I
 OLDACT:UP  16-09-28 19:02 OP:dani STATUS:               ID:20160928070634     3
 OLDACT:REG 16-09-28 13:11 OP:dani STATUS:               ID:20160928070634     3
 2016-09-28-0707-00M.COL___375                                                 6
 STAT SP IPHASW D HRMM SECON CODA AMPLIT PERI AZIMU VELO AIN AR TRES W  DIS CAZ7
 BRR  HZ EP        7 8 40.62                             155    0.5210 70.1 296 
 BRR  HN ES        7 8 57.37                             155    0.0410 70.1 296 
 BRR  HZ I         7 9  2.71         4.4 0.38            154           70.1 296 
 RUS  HN ES   2    7 9  1.83                             145   -0.51 5  104 176 
 PTB  HZ EP        7 8 45.58                             134   -0.27 9  149 258 
 PTB  HE ES        7 9  7.37                             134   -0.20 9  149 258 
 PTB  HZ I         7 9  9.53         2.8 0.14            135            149 258 
 SPBC HZ EP        7 8 47.78                             131    0.26 9  166 218 
 SPBC HN ES        7 9 10.09                             131   -0.44 9  166 218 
 SPBC HZ I         7 9 16.30         4.6 0.08            133            166 218 
 ZAR  HZ EP        7 8 50.23                             124   -0.76 9  203 291 
 ZAR  HN ES        7 9 16.96                             124    0.25 9  203 291 
 ZAR  HZ I         7 9 24.80         2.3 0.14            127            203 291 
 NOR  HE ES        7 9 23.49                             120    0.43 8  237 234 
 CHI  HZ EP        7 8 56.75                             119    0.13 8  252 195 
 CHI  HN ES        7 9 26.93                             119    0.20 8  252 195 
 CHI  HZ I         7 9 29.74         1.5 0.28            122            252 195 
                                                                                
