 2017  628 0302 48.2 L   6.730 -73.098141.0  RSN  6 0.4 1.4LRSN                1
 GAP=270        0.63       5.1     7.9  6.5 -0.1844E+02 -0.2481E+02  0.1470E+02E
 Epicentro: JORDAN - SANTANDER                                                 3
 ACTION:UPD 17-09-14 16:56 OP:jn   STATUS:               ID:20170628030248 L   I
 OLDACT:UP  17-06-28 14:08 OP:and  STATUS:               ID:20170628025747d    3
 OLDACT:UP  17-06-28 14:08 OP:and  STATUS:               ID:20170628025747d    3
 OLDACT:UP  17-06-28 14:07 OP:and  STATUS:               ID:20170628025747d    3
 OLDACT:UP  17-06-28 14:06 OP:and  STATUS:               ID:20170628025747d    3
 OLDACT:DUP 17-06-28 14:05 OP:and  STATUS:               ID:20170628025747d    3
 OLDACT:UP  17-06-28 14:00 OP:and  STATUS:               ID:20170628025745     3
 OLDACT:UP  17-06-28 13:59 OP:and  STATUS:               ID:20170628025745     3
 OLDACT:UP  17-06-28 13:57 OP:and  STATUS:               ID:20170628025745     3
 OLDACT:REG 17-06-28 12:32 OP:and  STATUS:               ID:20170628025745     3
 2017-06-28-0258-00M.COL___370                                                 6
 STAT SP IPHASW D HRMM SECON CODA AMPLIT PERI AZIMU VELO AIN AR TRES W  DIS CAZ7
 BAR2 EZ EP   2    3 3  6.52                             172   -0.58 5 17.9 212 
 BAR2 EZ ES   2    3 3 22.02                             172    0.14 5 17.9 212 
 BRR  HZ EP        3 3  9.04                             149   -0.2510 79.7 302 
 BRR  HN ES        3 3 25.96                             149    0.1710 79.7 302 
 BRR  HZ I         3 3 48.84         6.2 0.26            141           79.7 302 
 PTB  HZ EP   9    3 3 14.08                             130   -1.02 0  152 262 
 PTB  HN ES        3 3 34.83                             133   -0.27 9  152 262 
 PTB  HZ I         3 3 37.28         2.4 0.16            131            152 262 
 SPBC HZ EP   2    3 3 16.02                             128   -0.03 5  161 222 
 SPBC HN ES        3 3 37.86                             128    0.05 9  161 222 
 SPBC HZ I         3 3 43.17         5.2 0.22            135            161 222 
 NOR  HZ EP        3 3 23.95                             117    0.35 8  235 237 
 NOR  HN ES   3    3 3 49.52                             117   -1.74 2  235 237 
 NOR  HZ I         3 3 55.24         1.8 0.16            123            235 237 
 GUY2CHZ EP   4    3 3 32.66                             111    1.12 0  301 237 
 GUY2CHN ES   4    3 4  8.00                             111    2.62 0  301 237 
 GUY2CHZ I         3 4 13.73         1.1 0.64                           301 237 
                                                                                
