 2017  828 0450 20.7 L   6.819 -73.135143.6  RSN 27 0.6 2.5LRSN                1
 GAP= 66        1.19       2.9     3.0  5.0 -0.4737E+00  0.4141E+01  0.1736E+01E
 Epicentro: LOS SANTOS - SANTANDER                                             3
     157.0      31.0      76.0 10.0  7.0  8.0  0.0  0.1           RSN FPFIT    F
 ACTION:UPD 17-09-04 20:25 OP:rebc STATUS:               ID:20170828045020 L   I
 OLDACT:UP  17-08-28 15:49 OP:dhb  STATUS:               ID:20170828044736     3
 OLDACT:UP  17-08-28 15:37 OP:dhb  STATUS:               ID:20170828044736     3
 OLDACT:REG 17-08-28 12:29 OP:dhb  STATUS:               ID:20170828044736     3
 2017-08-28-0448-00M.COL___417                                                 6
 STAT SP IPHASW D HRMM SECON CODA AMPLIT PERI AZIMU VELO AIN AR TRES W  DIS CAZ7
 BAR2 EZ IP     C  450 39.92                             170   -0.1710 25.6 192 
 BAR2 EZ ES        450 55.06                             170   -0.1810 25.6 192 
 BAR2 EZ I         450 56.58        88.1 0.14            170           25.6 192 
 BRR  HZ IP     C  450 41.70                             152    0.1010 71.3 297 
 BRR  HN ES        450 58.22                             152    0.3010 71.3 297 
 BRR  HZ I         451  1.92        65.0 0.17            146           71.3 297 
 PAM  EZ IP     C  450 42.91                             151    0.3910 75.0  40 
 PAM  EN ES        450 59.77                             151    0.2110 75.0  40 
 PAM  EZ I         451  1.99        61.5 0.50            149           75.0  40 
 RUS  HZ IP     C  450 43.90                             143   -0.4610  103 177 
 RUS  HN ES        451  2.79                             143   -0.0410  103 177 
 RUS  HZ I         451  4.19        26.2 0.37            143            103 177 
 TAM  HZ IP     C  450 48.38                             130    0.26 9  154 106 
 TAM  HN ES        451  9.81                             130    0.28 9  154 106 
 TAM  HZ I         451 11.66        14.2 0.37            130            154 106 
 SPBC HZ IP     D  450 48.87                             128   -0.37 9  166 219 
 SPBC HN ES        451 10.79                             128   -0.72 9  166 219 
 SPBC HZ I         451 15.38        52.6 0.25            126            166 219 
 YPLC HZ IP     C  450 50.36                             126   -0.07 9  178 152 
 YPLC HN ES        451 14.02                             126    0.38 9  178 152 
 YPLC HZ I         451 15.29        11.1 0.23            126            178 152 
 ZAR  HZ EP        450 52.65                             122   -0.37 9  204 291 
 ZAR  HE ES        451 17.62                             122   -0.63 9  204 291 
 ZAR  HZ I         451 24.20        24.9 0.18            118            204 291 
 TABC EZ EP        450 57.36                             118    0.81 8  232 211 
 TABC EZ ES        451 24.01                             118   -0.53 8  232 211 
 TABC EZ I         451 31.48        34.7 0.32            117            232 211 
 NOR  HZ EP        450 56.24                             118   -0.28 8  237 234 
 NOR  HE ES        451 25.06                             118    0.59 8  237 234 
 NOR  HZ I         451 31.47        17.7 0.31            115            237 234 
 CHI  HZ EP        450 58.18                             116   -0.33 8  251 195 
 CHI  HN ES        451 27.55                             116   -0.46 8  251 195 
 CHI  HZ I         451 31.40        19.9 0.23            115            251 195 
 ROSC BZ EP   9    451  0.08                             116    1.14 0  255 211 
 ROSC BN ES        451 30.23                             116    0.30 8  255 211 
 ROSC BZ I         451 33.76        40.9 0.42            114            255 211 
 HEL  HZ EP    2   451  2.75                             114    1.78 8  274 255 
 HEL  HE ES        451 33.13                             114    0.74 8  274 255 
 HEL  HZ I         451 38.38        14.0 0.46            112            274 255 
 URE  HZ EP   2    451  0.65                             113   -1.03 4  284 291 
 URE  HZ I         451 40.89        15.8 0.13            110            284 291 
 GUY2CHZ EP        451  5.30                             112    0.87 7  303 235 
 GUY2CHE ES        451 39.20                             112    0.64 7  303 235 
 GUY2CHZ I         451 47.42        12.2 0.27                           303 235 
 VIL  HZ EP        451  3.43                             111   -0.82 7  306 192 
 VIL  HN ES        451 37.46                             111   -0.78 7  306 192 
 VIL  HZ I         451 40.86        27.0 0.19            110            306 192 
 PTGC HZ IP   9 C  451  3.12                             111   -1.48 0  310 159 
 PTGC HN ES        451 36.75                             111   -0.63 7  310 159 
 PTGC HZ I         451 39.38        14.4 0.38            110            310 159 
 LL6C HZ IP     C  451  5.19                             110   -0.87 7  323 357 
 LL6C HE ES   3    451 40.46                             110   -0.99 2  323 357 
 LL6C HZ I         451 46.09        13.7 0.71            108            323 357 
 ELA  HZ EP   4    451 10.13                             110    2.43 0  331 229 
 ELA  HN ES   2    451 45.40                             110    1.03 3  331 229 
 ELA  HZ I         451 52.98        13.2 0.65            108            331 229 
 DBB  EE ES        451 44.42                             109   -0.83 7  341 274 
 DBB  EZ I         451 44.64         6.0 0.26            107            341 274 
 ARGC HZ EP        451 10.76                             108    0.69 6  358 340 
 ARGC HE ES   4    451 51.96                             108    3.36 0  358 340 
 ARGC HN I         451 57.59        10.5 0.23            106            358 340 
 ARGC HZ I         451 57.91         4.3 0.13                           358 340 
 ANIL HZ EP        451 11.54                             108    0.87 6  360 224 
 ANIL HE ES        451 49.58                             108   -0.08 6  360 224 
 ANIL HZ I         451 54.73        49.2 0.06            106            360 224 
 PRA  HZ EP        451 13.80                             106   -0.60 6  394 210 
 PRA  HE ES        451 56.33                             106    0.02 6  394 210 
 PRA  HZ I         452  1.14        15.4 0.10            105            394 210 
 ORTC HZ EP        451 14.31                             106   -0.49 6  398 216 
 ORTC HN ES        451 57.34                             106    0.32 6  398 216 
 ORTC HZ I         452  1.35         4.8 0.30            104            398 216 
 SJC  HZ IP   9 D  451 14.11                             105   -1.93 0  408 327 
 SJC  HN ES        451 57.13                                   -0.17 6  408 327 
 SJC  HZ I         452  7.45         5.1 0.26            103            408 327 
 SMAR HZ EP   2    451 25.40                             102   -0.89 2  495 346 
 SMAR HN ES   4    452 13.81                             102   -3.66 0  495 346 
 MACC HZ EP   4    451 27.59                             101   -2.01 0  523 189 
 MACC HN ES   4    452 19.45                             101   -3.91 0  523 189 
 MACC HZ I         452 20.45         2.6 0.44            100            523 189 
                                                                                
