 2016  328 0043 13.4 L   6.839 -73.156149.5  RSN 26 0.6 2.5LRSN                1
 GAP=101        1.21       2.6     3.4  5.3 -0.1809E+01  0.4144E+01 -0.3036E+00E
 Epicentro: LOS SANTOS - SANTANDER                                             3
 ACTION:UPD 16-05-13 21:28 OP:cam  STATUS:               ID:20160328004313 L   I
 OLDACT:UP  16-03-29 11:54 OP:dnl  STATUS:               ID:20160328004313 L   3
 OLDACT:REG 16-03-28 13:07 OP:ak   STATUS:               ID:20160328003745     3
 2016-03-28-0037-45M.COL___307                                                 6
 STAT SP IPHASW D HRMM SECON CODA AMPLIT PERI AZIMU VELO AIN AR TRES W  DIS CAZ7
 BAR2 EZ EP        043 33.83                             169    0.2910 27.4 186 
 BAR2 EZ ES        043 48.74                             169   -0.5310 27.4 186 
 BAR2 EZ I         043 51.28        62.1 0.26            169           27.4 186 
 PAM  EZ IP        043 36.65                             152    0.8110 74.9  42 
 PAM  EZ EP        043 36.79                             152           74.9  42 
 PAM  EE ES        043 54.21                             152    0.8410 74.9  42 
 PAM  EZ I         043 56.05        50.0 0.48            155           74.9  42 
 RUS  HZ EP        043 37.76                             143   -0.0410  105 176 
 RUS  HN ES        043 56.16                             143   -0.7010  105 176 
 RUS  HZ I         043 57.60        38.9 0.22            146            105 176 
 PTB  HZ EP        043 40.22                             133   -0.40 9  148 257 
 PTB  HN ES        044  1.12                             133   -0.76 9  148 257 
 PTB  HZ I         044  3.40        31.7 0.08            131            148 257 
 OCA  HZ EP        043 41.90                             131    0.33 9  156 353 
 OCA  HN ES        044  3.78                             131    0.22 9  156 353 
 OCA  HZ I         044 10.33        53.1 0.28            131            156 353 
 SPBC HZ EP        043 42.71                             129    0.31 9  166 218 
 SPBC HN ES        044  5.13                             129    0.08 9  166 218 
 SPBC HZ I         044 11.89        59.5 0.20            130            166 218 
 ZAR  HZ EP        043 46.52                             124    0.73 9  201 291 
 ZAR  HE ES        044 11.46                             124    0.38 9  201 291 
 ZAR  HZ I         044 22.11        40.2 0.46            123            201 291 
 NOR  HZ EP        043 49.68                             119    0.20 8  236 233 
 NOR  HN ES        044 17.58                             119   -0.07 8  236 233 
 NOR  HZ I         044 25.75        31.5 0.14            119            236 233 
 CHI  HZ EP        043 52.06                             117    0.37 8  252 195 
 CHI  HN ES        044 21.21                             117   -0.37 8  252 195 
 CHI  HZ I         044 24.65        19.7 0.38            119            252 195 
 ROSC BN ES        044 22.82                             117    0.64 8  256 210 
 HEL  HZ EP   2    043 54.62                             115    0.85 4  272 255 
 HEL  HN ES        044 24.92                             115   -0.36 8  272 255 
 URE  HZ EP        043 53.75                             115   -0.58 7  281 291 
 URE  HN ES   4    044 24.77                             115   -1.50 0  281 291 
 URE  HZ I         044 38.39        19.2 0.16            114            281 291 
 SOCV BZ EP        043 55.80                             113   -0.64 7  300  58 
 SOCV BE ES   4    044 27.56                             113   -2.47 0  300  58 
 GUY2CHZ EP        043 58.25                             113    0.93 7  303 234 
 GUY2CHE ES        044 32.51                             113    0.90 7  303 234 
 GUY2CHZ I         044 39.04        15.0 0.68                           303 234 
 VIL  SZ EP        043 56.99                             112   -0.41 7  307 191 
 VIL  SN ES        044 31.29                             112   -0.46 7  307 191 
 PTGC HZ EP        043 56.96                             112   -0.93 7  313 159 
 PTGC HN ES   4    044 30.84                             112   -1.78 0  313 159 
 PTGC HZ I         044 35.98        19.5 0.43            114            313 159 
 LL6C HE ES        044 33.68                             111   -0.45 7  321 358 
 ELA  HZ EP   4    043 54.27                             111   -6.33 0  331 229 
 ELA  HN ES   4    044 38.93                             111    1.49 0  331 229 
 ELA  HZ I         044 53.05        10.3 0.40            111            331 229 
 DBB  SZ EP        044  0.77                             110   -0.06 7  338 274 
 DBB  SZ ES        044 36.88                             110   -0.97 7  338 274 
 DBB  SZ I         044 39.39        41.3 0.28            110            338 274 
 MON  HZ EP        044  1.13                             109   -0.97 6  350 308 
 MON  HE ES        044 39.59                             109   -0.53 6  350 308 
 MON  HZ I         044 54.97        10.2 0.42            110            350 308 
 SDV  BZ EP        044  3.23                             109   -0.11 6  359  51 
 SDV  BN ES   4    044 39.90                             109   -2.42 0  359  51 
 SDV  BZ I         044 43.93         4.9 0.35            111            359  51 
 ANIL HZ EP        044  4.01                             109    0.43 6  360 224 
 ANIL HE ES   4    044 44.89                             109    2.15 0  360 224 
 ANIL HZ I         044 50.70        38.4 0.34            110            360 224 
 ORTC HZ EP        044  7.74                             107    0.00 6  398 216 
 ORTC HE ES        044 50.94                             107    0.79 6  398 216 
 ORTC HZ I         044 57.82         7.7 0.32            108            398 216 
 SJC  HZ EP        044  7.57                             106   -0.99 6  405 327 
 SJC  HN ES   4    044 49.48                             106   -2.13 0  405 327 
 SJC  HZ I         044 56.71         5.0 0.38            107            405 327 
 PAL  HZ EP        044  9.11                             106    0.32 6  407 238 
 PAL  HN ES        044 52.19                             106    0.16 6  407 238 
 PAL  HZ I         044 57.81         6.7 0.72            107            407 238 
 CRJC HZ EP   4    044 14.40                             104   -1.08 0  463   4 
 CRJC HN ES   4    045  0.92                             104   -3.00 0  463   4 
 CRJC HZ I         045  7.82         7.4 0.35            105            463   4 
                                                                                
