 2013 1028 0424  4.6 L   6.833 -73.156144.3  RSN 14 0.5 2.1LRSN                1
 GAP=112        1.12       3.0     4.4  6.1  0.1001E+01  0.5637E+01  0.2232E+01E
 Epicentro: LOS SANTOS - SANTANDER                                             3
 ACTION:UPD 13-11-25 09:24 OP:ep   STATUS:               ID:20131028042404 L   I
 OLDACT:REG 13-10-28 08:15 OP:jn   STATUS:               ID:20131028042000     3
 2013-10-28-0420-00M.COL___273                                                 6
 STAT SP IPHASW D HRMM SECON CODA AMPLIT PERI AZIMU VELO AIN AR TRES W  DIS CAZ7
 BAR2 SZ IP     D  424 24.14                             169    0.0510 26.8 186 
 BAR2 SZ ES        424 39.10                             169   -0.2210 26.8 186 
 BAR2 SZ I         424 40.46        60.5 0.18            165           26.8 186 
 BRR  HZ IP     C  424 25.92                             153    0.5210 68.5 296 
 BRR  HN ES        424 42.64                             153    0.9810 68.5 296 
 BRR  HZ I         424 46.64        28.6 0.16            148           68.5 296 
 PAM  SZ EP        424 27.03                             151    0.5310 75.4  42 
 PAM  SN ES        424 43.66                             151    0.0410 75.4  42 
 PAM  SZ I         424 44.57        21.7 0.18            150           75.4  42 
 RUS  HZ EP        424 28.17                             142   -0.2710  104 176 
 RUS  HN ES        424 46.52                             142   -0.5510  104 176 
 RUS  HZ I         424 48.16         6.4 0.26            137            104 176 
 PTB  HN ES   2    424 51.77                             132   -0.52 5  147 257 
 PTB  HZ I         424 54.47        19.0 0.16            126            147 257 
 OCA  HN ES        424 53.59                             130   -0.54 9  157 353 
 OCA  HZ I         424 58.66        12.6 0.30            126            157 353 
 SPBC HZ EP        424 33.08                             128   -0.07 9  165 218 
 SPBC HN ES        424 55.10                             128   -0.35 9  165 218 
 SPBC HZ I         425  1.27        22.1 0.20            122            165 218 
 YOP  SZ EP        424 34.92                             125    0.04 9  183 153 
 YOP  SE ES        424 58.84                             125    0.32 9  183 153 
 YOP  SZ I         425  1.73        13.5 0.48            120            183 153 
 ZAR  HN ES   1    425  2.41                             122    0.71 6  202 291 
 ZAR  HZ I         425  8.69        19.0 0.30            117            202 291 
 NOR  HZ EP        424 40.61                             118    0.27 8  236 234 
 NOR  HN ES        425  7.93                             118   -0.31 8  236 234 
 NOR  HZ I         425 11.97        15.3 0.36            113            236 234 
 SML  HZ EP        424 40.51                             118   -0.19 8  240 335 
 SML  HE ES        425  7.77                             118   -1.11 8  240 335 
 CHI  HZ EP   1    424 42.28                             116   -0.25 6  252 195 
 CHI  HZ I         425 17.07         5.7 0.24            112            252 195 
 ROSC BN ES   4    425 14.61                             116    1.84 0  255 210 
 HEL  HZ EP   2    424 45.13                             114    0.45 4  272 255 
 GUY2CHZ EP   1    424 48.73                             112    0.49 5  302 234 
 GUY2CHZ I         425 33.26         6.8 0.38                           302 234 
                                                                                
