 2015  928 0747 30.3 L   6.835 -73.143143.1  RSN 22 0.4 2.4LRSN                1
 GAP=114        1.01       2.6     2.9  5.1  0.6500E-01  0.2550E+01  0.1262E+01E
 Epicentro: LOS SANTOS - SANTANDER                                             3
 ACTION:UPD 15-10-28 16:28 OP:cam  STATUS:               ID:20150928074730 L   I
 OLDACT:DUP 15-09-28 15:45 OP:spq  STATUS:               ID:20150928073739d    3
 2015-09-28-0737-38M.COL___349                                                 6
 STAT SP IPHASW D HRMM SECON CODA AMPLIT PERI AZIMU VELO AIN AR TRES W  DIS CAZ7
 BAR2 EZ EP     C  747 49.69                             169   -0.0110 27.2 189 
 BAR2 EZ ES   1    748  4.43                             169   -0.40 7 27.2 189 
 BAR2 EZ I         748  5.68        44.1 0.28            167           27.2 189 
 BRR  HZ EP        747 51.54                             153    0.4610 69.7 296 
 BRR  HN ES        748  8.17                             153    0.8810 69.7 296 
 BRR  HZ I         748 11.89        34.3 0.16            153           69.7 296 
 RUS  HZ EP        747 53.77                             142   -0.3110  104 176 
 RUS  HN ES        748 12.69                             142    0.0710  104 176 
 RUS  HZ I         748 14.22        22.0 0.16            142            104 176 
 PTB  HZ EP        747 56.34                             131   -0.82 9  149 257 
 PTB  HN ES        748 17.60                             131   -0.50 9  149 257 
 PTB  HZ I         748 19.90        26.9 0.12            131            149 257 
 OCA  HZ EP        747 57.67                             130   -0.38 9  156 353 
 OCA  HN ES        748 19.28                             130   -0.42 9  156 353 
 OCA  HZ I         748 23.27        48.3 0.16            132            156 353 
 TAM  HZ IP     C  747 58.08                             130    0.24 9  156 106 
 TAM  HN ES        748 19.75                             130    0.43 9  156 106 
 TAM  HZ I         748 22.76        12.8 0.38            132            156 106 
 SPBC HZ EP        747 58.75                             128   -0.16 9  166 218 
 SPBC HN ES        748 20.99                             128   -0.23 9  166 218 
 ZAR  HZ EP        748  2.41                             122   -0.05 9  203 291 
 ZAR  HN ES        748 27.94                             122    0.40 9  203 291 
 ZAR  HZ I         748 33.43        18.4 0.23            123            203 291 
 NOR  HZ EP        748  6.16                             118    0.01 8  237 234 
 NOR  HE ES        748 34.28                             118    0.17 8  237 234 
 NOR  HZ I         748 39.64        14.5 0.24            118            237 234 
 SML  HZ EP        748  6.03                             117   -0.39 8  240 335 
 SML  HE ES   1    748 34.71                             117    0.12 6  240 335 
 SML  HZ I         748 36.52        31.9 0.28            119            240 335 
 CHI  HZ EP        748  8.10                             116   -0.17 8  252 195 
 CHI  HN ES        748 37.11                             116   -0.77 8  252 195 
 CHI  HZ I         748 42.64         8.8 0.30            117            252 195 
 ROSC BZ EP        748  9.57                             116    0.91 8  256 211 
 ROSC BN ES   4    748 39.76                             116    1.18 0  256 211 
 ROSC BZ I         748 43.72        17.8 0.45            116            256 211 
 HEL  HZ EP        748 10.56                             114    0.04 8  273 255 
 HEL  HE ES        748 41.51                             114   -0.39 8  273 255 
 HEL  HZ I         748 48.94        11.3 0.58            115            273 255 
 URE  HN ES   4    748 40.55                             113   -2.41 0  283 291 
 URE  HZ I         748 43.10        13.0 0.14            114            283 291 
 GUY2CHZ EP        748 14.36                             112    0.29 7  304 234 
 GUY2CHN ES   4    748 50.12                             112    1.91 0  304 234 
 GUY2CHZ I         748 57.69         9.6 0.60                           304 234 
 VIL  SE ES   1    748 48.37                             111    0.22 5  307 191 
 VIL  SZ I         748 58.56        12.9 0.36            112            307 191 
 PTGC HZ EP   4    748 13.08                             111   -1.36 0  312 159 
 PTGC HN ES   4    748 46.70                             111   -2.16 0  312 159 
 PTGC HZ I         748 49.08         8.2 0.60            112            312 159 
 CBOC HZ EP        748 17.78                             109    0.50 7  335 251 
 CBOC HE ES        748 54.28                             109    0.36 7  335 251 
 ANIL HN ES   4    749  1.56                             108    2.17 0  360 224 
 ANIL HZ I         749  7.41        24.1 0.36            108            360 224 
 ORTC HZ EP        748 24.32                             106   -0.20 6  399 216 
 ORTC HN ES        749  7.58                             106    0.77 6  399 216 
 ORTC HZ I         749 12.46         7.3 0.22            106            399 216 
 SJC  HZ EP   4    748 23.52                             105   -1.90 0  406 327 
 SJC  HN ES   4    749  5.12                             105   -3.29 0  406 327 
 SJC  HZ I         749  9.25         6.0 0.54            106            406 327 
 MACC HZ EP   4    748 37.35                             101   -2.06 0  524 189 
 MACC HE ES   4    749 30.71                             101   -2.60 0  524 189 
 MACC HZ I         749 36.17         6.7 0.62            102            524 189 
                                                                                
