 2017  728 0446 34.5 L   6.643 -73.161150.6  RSN  5 0.4 1.1LRSN                1
 GAP=141        0.77       8.8     5.1  6.5 -0.7996E+01 -0.1774E+01 -0.2714E+01E
 Epicentro: VILLANUEVA - SANTANDER                                             3
 ACTION:UPD 17-08-30 15:37 OP:rebc STATUS:               ID:20170728044634 L   I
 OLDACT:UP  17-07-28 14:58 OP:and  STATUS:               ID:20170728043738     3
 OLDACT:UP  17-07-28 14:57 OP:and  STATUS:               ID:20170728043738     3
 OLDACT:REG 17-07-28 12:31 OP:and  STATUS:               ID:20170728043738     3
 2017-07-28-0438-00M.COL___374                                                 6
 STAT SP IPHASW D HRMM SECON CODA AMPLIT PERI AZIMU VELO AIN AR TRES W  DIS CAZ7
 BAR2 EZ IP     C  446 54.78                             178    0.2810 6.06 203 
 BAR2 EZ ES        447  9.82                             178   -0.2810 6.06 203 
 BAR2 EZ I         447 10.71         3.8 0.20            174           6.06 203 
 BRR  HZ EP        446 56.83                             150    0.1610 79.7 310 
 BRR  HN ES        447 14.27                             150    0.3210 79.7 310 
 RUS  HN ES   3    447 17.09                             150    1.48 2 83.4 174 
 PAM  EZ EP        446 57.90                             147   -0.2710 92.4  33 
 PTB  HZ EP        447  1.58                             134    0.06 9  144 266 
 PTB  HN ES        447 22.18                             134   -0.40 9  144 266 
 PTB  HZ I         447 26.60         1.1 0.12            132            144 266 
                                                                                
