 2011  628 0111 51.0 L   6.758 -73.096149.8  RSN  8 0.2 1.7LRSN                1
 GAP=162        0.43       2.7     4.6  4.4 -0.4168E+01 -0.2784E+01  0.6625E+00E
 Epicentro: LOS SANTOS - SANTANDER                                             3
 ACTION:UP  11-07-14 19:08 OP:ep   STATUS:               ID:20110628011151 L   I
 2011-06-28-0110-32S.COL___140                                                 6
 STAT SP IPHASW D HRMM SECON CODA AMPLIT PERI AZIMU VELO SNR AR TRES W  DIS CAZ7
 BAR2 SZ EP   1    112 10.81                             172    -0.2 7   21 207 
 BAR2 SZ ES   2    112 26.56                             172    -0.1 5   21 207 
 BAR2 SZ I         112 28.69         6.9 0.27                            21 207 
 BTL  SZ EP        112 11.30                             170     0.210   26 313 
 BRR  HZ EP        112 12.85                             151    -0.110   78 300 
 BRR  HZ I         112 13.36        11.5 0.09                            78 300 
 BRR  HE ES   1    112 30.03                             151    -0.1 7   78 300 
 RUS  HZ EP   1    112 14.91                             146     0.1 7   96 179 
 RUS  HN ES   2    112 33.58                             146     0.2 5   96 179 
 BRI  SZ EP   1    112 15.33                             142    -0.1 7  111  17 
 GRA  SZ EP        112 16.69                             137    -0.110  129  15 
 GRA  SZ ES        112 37.14                             137     0.210  129  15 
 GRA  SZ I         112 38.74         5.7 0.30                           129  15 
 OCA  SZ EP   2    112 20.22                             130     0.1 5  166 351 
 OCA  SZ I         113  3.55         6.8 0.09                           166 351 
 HEL  HZ EP   2    112 32.31                             115     0.4 4  276 257 
 HEL  HZ I         113  9.66         3.1 0.28                           276 257 
                                                                                
