 2013  828 0237 31.3 L   6.749 -73.207142.0  RSN  4 0.3 1.4LRSN                1
 GAP=195        0.80       4.2     6.2  7.4  0.1175E+02 -0.9748E+01 -0.1181E+02E
 Epicentro: VILLANUEVA - SANTANDER                                             3
 ACTION:UPD 14-01-14 09:07 OP:ep   STATUS:               ID:20130828023731 L   I
 OLDACT:DUP 13-08-28 09:34 OP:nd   STATUS:               ID:20130828022960d    3
 2013-08-28-0229-59M.COL___270                                                 6
 STAT SP IPHASW D HRMM SECON CODA AMPLIT PERI AZIMU VELO AIN AR TRES W  DIS CAZ7
 BRR  HZ EP        237 52.30                             153    0.4610 68.5 305 
 BRR  HN ES        238  8.12                             153    0.2210 68.5 305 
 BRR  HZ I         238 12.53         4.9 0.42            155           68.5 305 
 RUS  HZ EP        237 54.32                             144    0.0410 95.7 172 
 RUS  HN ES        238 11.98                             144   -0.2610 95.7 172 
 RUS  HZ I         238 14.17         2.8 0.58            149           95.7 172 
 PTB  HZ EP        237 56.99                             133   -0.23 9  140 261 
 PTB  HN ES        238 17.45                             133   -0.03 9  140 261 
 PTB  HZ I         238 18.99         3.2 0.12            137            140 261 
 SML  HZ EP        238  8.23                             116    0.29 8  246 337 
 SML  HE ES        238 35.90                             116   -0.65 8  246 337 
 SML  HZ I         238 38.53         2.3 0.08            120            246 337 
                                                                                
