 2013  428 0736 35.2 L   6.660 -73.204147.4  RSN  5 0.4 1.4LRSN                1
 GAP=211        0.88       8.6     8.1  8.0  0.4178E+02  0.1301E+02  0.2129E+01E
 Epicentro: BARICHARA - SANTANDER                                              3
 ACTION:UPD 13-05-22 14:41 OP:EP   STATUS:               ID:20130428073635 L   I
 2013-04-28-0730-00M.COL___248                                                 6
 STAT SP IPHASW D HRMM SECON CODA AMPLIT PERI AZIMU VELO AIN AR TRES W  DIS CAZ7
 BAR2 SZ EP   1    736 53.92                             177   -0.86 7 7.92 162 
 BAR2 SZ ES   1    737  9.85                             177   -0.24 7 7.92 162 
 BAR2 SZ I         737 10.74         5.6 0.22            175           7.92 162 
 BRR  HZ EP   1    736 56.69                             152    0.00 7 74.8 311 
 BRR  HN ES   1    737 13.91                             152    0.43 7 74.8 311 
 BRR  HZ I         737 14.52         4.8 0.44            150           74.8 311 
 RUS  HZ EP        736 58.30                             148    0.2210 86.0 171 
 RUS  HN ES   1    737 16.39                             148    0.43 7 86.0 171 
 RUS  HZ I         737 18.32         2.6 0.34            149           86.0 171 
 PTB  HZ EP        737  1.21                             134   -0.29 9  139 265 
 PTB  HN ES   1    737 21.73                             134   -0.31 7  139 265 
 PTB  HZ I         737 23.29         3.2 0.14            133            139 265 
 ZAR  HZ EP   1    737  8.52                             123    0.75 6  205 297 
 ZAR  HN ES   2    737 33.32                             123    0.12 4  205 297 
 ZAR  HZ I         737 39.24         2.2 0.32            123            205 297 
                                                                                
