 2010  528 0707 52.5 L   6.587 -73.537112.0  RSN 15 0.5 3.6LRSN                1
 GAP= 97        1.19       3.5     5.0  8.2 -0.8637E+01  0.1914E+02 -0.1421E+01E
 Epicentro: EL CARMEN DE CHUCURI - SANTANDER                                   3
 ACTION:UP  10-08-24 10:07 OP:vdl  STATUS:               ID:20100528070752 L   I
 2010-05-28-0705-03S.COL___108                                                 6
 STAT SP IPHASW D HRMM SECON CODA AMPLIT PERI AZIMU VELO SNR AR TRES W  DIS CAZ7
 BAR2 SZ EP        7 8  8.48                             160    -0.110   39  89 
 BAR2 SZ ES        7 8 20.93                             160    -0.310   39  89 
 GIR2 SZ IP        7 8 10.92                             148     0.910   66  35 
 GUE  SZ IP   1    7 8 17.38                             123    -0.5 7  153  26 
 GUE  SZ ES        7 8 37.11                             123    -0.6 9  153  26 
 GRA  SZ EP        7 8 19.71                             120     0.8 9  165  29 
 GRA  SZ ES   1    7 8 39.33                             120    -0.2 7  165  29 
 OCA  SZ EP        7 8 20.71                             117    -0.3 9  184   7 
 OCA  SZ ES   1    7 8 44.02                             117     0.8 7  184   7 
 OCA  SZ I         7 8 47.18       651.3 0.09                           184   7 
 ROSC BZ IP     C  7 8 24.92                             113     0.6 8  212 204 
 ROSC BN ES   1    7 8 49.44                             113     0.3 6  212 204 
 ROSC BZ I         7 8 55.10       232.0 0.62                           212 204 
 CHI  HZ EP        7 8 24.33                             113    -0.7 8  218 186 
 CHI  HN ES        7 8 50.18                             113    -0.2 8  218 186 
 HEL  HZ EP        7 8 25.69                             112    -0.1 8  225 259 
 HEL  HN ES        7 8 51.37                             112    -0.4 8  225 259 
 HEL  HZ I         7 8 59.23       512.5 1.23                           225 259 
 CVER SZ IP        7 8 27.77                             111     0.6 8  236 195 
 RREF BZ EP        7 8 31.29                             107    -0.5 8  274 227 
 RREF BN ES        7 9  2.67                             107     0.3 8  274 227 
 RREF BZ I         7 9  5.97       231.8 0.18                           274 227 
 DBB  SZ EP        7 8 34.07                             105     0.0 7  299 279 
 DBB  SZ ES   1    7 9  6.16                             105    -0.3 5  299 279 
 SDV  BZ EP        7 8 46.29                             100    -1.0 6  409  51 
 SDV  BZ I         7 9 30.07       158.9 0.55                           409  51 
 SOL  SZ EP        7 8 49.68                              99     0.1 5  430 265 
 POP2 HZ EP        7 9  6.25                              95    -0.2 3  567 218 
 PCON HZ EP        7 9  6.82                              95    -0.2 3  568 214 
                                                                                
