 2016 1228 0712 20.8 L   6.806 -73.126145.6  RSN 13 0.4 1.9LRSN                1
 GAP=121        0.95       3.3     4.1  5.1 -0.8494E+00  0.6030E+01  0.3012E+01E
 Epicentro: LOS SANTOS - SANTANDER                                             3
 ACTION:UPD 17-01-11 20:20 OP:rebc STATUS:               ID:20161228071220 L   I
 OLDACT:UP  16-12-28 19:57 OP:edw  STATUS:               ID:20161228070643     3
 OLDACT:UP  16-12-28 19:56 OP:edw  STATUS:               ID:20161228070643     3
 OLDACT:REG 16-12-28 13:24 OP:edw  STATUS:               ID:20161228070643     3
 2016-12-28-0707-00M.COL___356                                                 6
 STAT SP IPHASW D HRMM SECON CODA AMPLIT PERI AZIMU VELO AIN AR TRES W  DIS CAZ7
 BAR2 EZ EP        712 40.19                             170   -0.2410 24.4 195 
 BAR2 EZ ES        712 55.82                             170    0.0810 24.4 195 
 BAR2 EZ I         712 57.95        29.9 0.28            168           24.4 195 
 BRR  HZ EP     D  712 41.88                             152   -0.1410 72.8 297 
 BRR  HN ES        712 59.01                             152    0.4410 72.8 297 
 BRR  HZ I         713  0.72        13.9 0.12            151           72.8 297 
 PAM  EZ EP     C  712 42.94                             151    0.0610 75.5  39 
 PAM  EN ES        713  0.26                             151    0.1510 75.5  39 
 PAM  EZ I         713  3.33         9.8 0.60            155           75.5  39 
 RUS  HZ EP        712 44.41                             144   -0.1610  101 177 
 RUS  HN ES        713  3.00                             144   -0.1010  101 177 
 RUS  HZ I         713  4.20        12.3 0.32            144            101 177 
 PTB  HZ EP   9    712 46.91                             131   -1.04 0  150 259 
 PTB  HN ES        713  7.74                             131   -0.35 9  150 259 
 PTB  HZ I         713  9.89         7.1 0.16            131            150 259 
 ZAR  HZ EP        712 53.34                             122   -0.07 8  206 292 
 ZAR  HN ES        713 18.29                             122   -0.57 8  206 292 
 NOR  HZ EP        712 56.24                             118   -0.50 8  237 235 
 NOR  HN ES        713 24.37                             118   -0.41 8  237 235 
 NOR  HZ I         713 30.04         5.3 0.22            118            237 235 
 CHI  HZ EP        712 58.38                             117   -0.23 8  250 196 
 CHI  HN ES        713 27.63                             117   -0.48 8  250 196 
 CHI  HZ I         713 31.15         6.9 0.58            118            250 196 
 ROSC BZ EP   4    713  0.77                             116    1.68 0  254 211 
 ROSC BN ES        713 29.96                             116    1.01 8  254 211 
 ROSC BZ I         713 34.96        12.5 0.39            117            254 211 
 URE  HN ES   4    713 30.08                             113   -4.16 0  286 292 
 GUY2CHZ EP        713  5.53                             112    0.89 7  303 235 
 GUY2CHE ES   4    713 42.29                             112    3.46 0  303 235 
 GUY2CHZ I         713 47.52         4.9 0.36                           303 235 
 PTGC HZ EP   9 D  713  3.28                             112   -1.34 0  308 159 
 PTGC HN ES        713 37.12                             112   -0.34 7  308 159 
 PTGC HZ I         713 38.54         4.1 0.26            113            308 159 
 LL6C HZ EP   4    712 45.96                             110   -20.5 0  324 357 
 ELA  HE ES   2    713 45.26                             110    0.66 3  331 230 
 CBOC HZ EP        713  8.56                             110    0.60 7  336 252 
 CBOC HN ES   4    713 42.77                             110   -1.98 0  336 252 
 CBOC HZ I         713 54.99         1.2 0.24            110            336 252 
 SJC  HZ EP   4    713 14.35                             106   -2.08 0  410 327 
 SJC  HN ES   4    713 55.22                             106   -4.61 0  410 327 
                                                                                
