 2017  928 0707  8.0 L   6.832 -73.160146.4  RSN 11 0.5 1.8LRSN                1
 GAP=133        1.02       5.1     5.3  6.6 -0.1278E+02  0.1697E+02 -0.3513E+01E
 Epicentro: LOS SANTOS - SANTANDER                                             3
 ACTION:UPD 17-10-05 19:17 OP:rebc STATUS:               ID:20170928070708 L   I
 OLDACT:UP  17-09-28 18:23 OP:edw  STATUS:               ID:20170928065744     3
 OLDACT:REG 17-09-28 13:34 OP:edw  STATUS:               ID:20170928065744     3
 2017-09-28-0658-00M.COL___414                                                 6
 STAT SP IPHASW D HRMM SECON CODA AMPLIT PERI AZIMU VELO AIN AR TRES W  DIS CAZ7
 BAR2 EZ EP        7 7 27.70                             169   -0.0810 26.7 185 
 BAR2 EZ ES        7 7 43.07                             169   -0.1410 26.7 185 
 BAR2 EZ I         7 7 44.16        21.0 0.16            168           26.7 185 
 PAM  EZ EP        7 7 30.53                             151    0.3410 75.7  42 
 PAM  EN ES        7 7 47.80                             151    0.3110 75.7  42 
 PAM  EZ I         7 7 49.93        10.5 0.48            155           75.7  42 
 RUS  HZ EP        7 7 31.89                             143   -0.2010  104 175 
 RUS  HN ES        7 7 50.72                             143   -0.1510  104 175 
 RUS  HZ I         7 7 51.44         9.0 0.22            143            104 175 
 SPBC HZ EP        7 7 36.62                             129   -0.11 9  165 218 
 SPBC HN ES        7 7 58.68                             129   -0.45 9  165 218 
 SPBC HZ I         7 8  1.28        22.7 0.38            128            165 218 
 NOR  HZ EP        7 7 43.71                             118   -0.15 8  236 234 
 NOR  HN ES        7 8 11.89                             118    0.06 8  236 234 
 NOR  HZ I         7 8 14.95         5.2 0.50            118            236 234 
 CHI  HZ EP        7 7 45.80                             117   -0.27 8  252 195 
 CHI  HN ES   4    7 8 14.50                             117   -1.26 0  252 195 
 CHI  HZ I         7 8 23.28         2.7 0.46            117            252 195 
 ROSC BZ EP        7 7 47.21                             116    0.80 8  255 210 
 ROSC BN ES   4    7 8 18.31                             116    1.94 0  255 210 
 ROSC BZ I         7 8 21.59         5.1 0.60            117            255 210 
 HEL  HZ EP   4    7 7 49.30                             115    1.11 0  271 255 
 HEL  HN ES        7 8 19.15                             115   -0.37 8  271 255 
 HEL  HZ I         7 8 25.71         4.2 0.30            115            271 255 
 URE  HN ES   4    7 8 18.09                             114   -2.53 0  281 291 
 GUY2CHZ EP        7 7 52.59                             112    0.85 7  302 234 
 GUY2CHN ES   4    7 8 28.90                             112    3.05 0  302 234 
 GUY2CHZ I         7 8 35.58         3.0 0.30                           302 234 
 PTGC HZ EP   4    7 7 50.56                             111   -1.77 0  313 159 
 PTGC HN ES   4    7 8 23.86                             111   -3.05 0  313 159 
 CBOC HZ EP   4    7 7 56.26                             110    1.35 0  333 251 
 CBOC HN ES        7 8 32.27                             110    0.78 7  333 251 
 CBOC HZ I         7 8 37.52         2.0 0.78            110            333 251 
 SJC  HZ EP        7 8  1.76                             106   -1.38 6  405 327 
 SJC  HN ES   4    7 8 43.02                             106   -3.12 0  405 327 
 SJC  HZ I         7 8 49.87         1.5 0.54            106            405 327 
                                                                                
