 2013  728 0208 14.3 L   6.909 -72.898142.8  RSN  4 0.2 1.5LRSN                1
 GAP=222        0.49       5.6    12.8  6.8  0.6289E+02 -0.5920E+02 -0.2935E+02E
 Epicentro: GUACA - SANTANDER                                                  3
 ACTION:UPD 13-08-12 10:40 OP:ep   STATUS:               ID:20130728020814 L   I
 OLDACT:UP  13-07-28 08:59 OP:cam  STATUS:               ID:20130728015959     3
 OLDACT:REG 13-07-28 08:06 OP:cam  STATUS:               ID:20130728015959     3
 2013-07-28-0159-59M.COL___268                                                 6
 STAT SP IPHASW D HRMM SECON CODA AMPLIT PERI AZIMU VELO AIN AR TRES W  DIS CAZ7
 BAR2 SZ EP        2 8 34.55                             161    0.2110 47.1 222 
 BAR2 SZ ES        2 8 49.97                             161    0.0310 47.1 222 
 BAR2 SZ E         2 8 50.10                                           47.1 222 
 BRR  HZ EP        2 8 36.51                             145   -0.0210 92.5 284 
 BRR  HN ES   1    2 8 54.03                             145    0.19 7 92.5 284 
 BRR  HZ I         2 8 57.01         3.9 0.42            137           92.5 284 
 RUS  HZ EP   1    2 8 39.08                             140    0.23 7  114 190 
 RUS  HN ES        2 8 57.66                             140   -0.3110  114 190 
 RUS  HZ I         2 8 59.77         3.2 0.48            135            114 190 
 SML  HZ EP   1    2 8 50.88                             117   -0.17 6  246 328 
 SML  HE ES        2 9 19.52                             117   -0.16 8  246 328 
 SML  HZ I         2 9 22.43         5.9 0.10            114            246 328 
                                                                                
