 2013  228 0352 20.6 L   6.689 -73.229152.1  RSN  4 0.4 1.1LRSN                1
 GAP=204        0.76       8.1     7.9  9.3  0.3130E+02 -0.3404E+01 -0.1133E+01E
 Epicentro: BARICHARA - SANTANDER                                              3
 ACTION:UPD 13-03-12 09:36 OP:ep   STATUS:               ID:20130228035220 L   I
 2013-02-28-0350-00M.COL___228                                                 6
 STAT SP IPHASW D HRMM SECON CODA AMPLIT PERI AZIMU VELO AIN AR TRES W  DIS CAZ7
 BAR2 SZ EP   1    352 40.20                             175   -0.64 7 11.9 155 
 BAR2 SZ ES   1    352 56.28                             175   -0.34 7 11.9 155 
 BAR2 SZ I         352 56.80         3.8 0.38            175           11.9 155 
 BRR  HZ EP   1    352 42.74                             154    0.32 7 70.6 311 
 BRR  HN ES   1    352 59.80                             154    0.37 7 70.6 311 
 BRR  HZ I         353  2.48         1.5 0.29            151           70.6 311 
 RUS  HZ EP   1    352 44.47                             148    0.21 7 89.6 170 
 RUS  HN ES   1    353  3.02                             148    0.32 7 89.6 170 
 RUS  HZ I         353  3.09         1.8 0.58            150           89.6 170 
 PTB  HN ES   1    353  7.59                             136   -0.26 7  137 263 
 PTB  HZ I         353 11.13         1.3 0.40            134            137 263 
                                                                                
