 2016  228 0848 22.2 L   6.813 -73.184142.9  RSN  6 0.3 1.4LRSN                1
 GAP=168        0.71       4.2     5.9  5.3 -0.1646E+02  0.1016E+02  0.1295E+00E
 Epicentro: ZAPATOCA - SANTANDER                                               3
 ACTION:UPD 16-03-04 21:30 OP:rebc STATUS:               ID:20160228084822 L   I
 OLDACT:DUP 16-02-28 15:49 OP:drio STATUS:               ID:20160228083750d    3
 2016-02-28-0837-48M.COL___309                                                 6
 STAT SP IPHASW D HRMM SECON CODA AMPLIT PERI AZIMU VELO AIN AR TRES W  DIS CAZ7
 BAR2 EZ EP        848 41.42                             170   -0.0810 24.4 180 
 BAR2 EZ ES        848 56.14                             170   -0.4110 24.4 180 
 BAR2 EZ I         848 57.96         4.2 0.18            168           24.4 180 
 PAM  EZ EP        848 44.39                             150    0.1810 79.1  43 
 PAM  EE ES        849  1.68                             150    0.3010 79.1  43 
 PAM  EZ I         849  3.62         4.6 0.48            151           79.1  43 
 RUS  HZ EP        848 45.39                             143   -0.4010  102 174 
 RUS  HE ES        849  4.25                             143    0.0510  102 174 
 RUS  HZ I         849  5.25         3.0 0.36            142            102 174 
 SPBC HZ EP        848 50.11                             129   -0.21 9  162 218 
 SPBC HN ES        849 12.62                             129    0.35 9  162 218 
 SPBC HZ I         849 14.02         4.5 0.32            129            162 218 
 CHI  HZ EP        848 59.74                             116   -0.02 8  249 194 
 CHI  HE ES        849 29.48                             116    0.41 8  249 194 
 CHI  HZ I         849 35.13         1.2 0.38            117            249 194 
 GUY2CHZ EP   4    849  6.77                             112    1.40 0  299 234 
 GUY2CHN ES        849 39.02                             112   -0.03 7  299 234 
 GUY2CHZ I         849 51.60         1.6 0.46                           299 234 
                                                                                
