 2016 1228 0123 52.6 L   6.415 -73.554108.4  RSN  5 0.4 1.1LRSN                1
 GAP=140        1.02       5.9     5.2  8.5  0.1735E+02  0.1507E+02  0.3182E+01E
 Epicentro: SANTA HELENA DEL OPON - SANTANDER                                  3
 ACTION:UPD 17-01-11 20:19 OP:rebc STATUS:               ID:20161228012352 L   I
 OLDACT:UP  16-12-28 14:35 OP:edw  STATUS:               ID:20161228011746d    3
 OLDACT:UP  16-12-28 14:34 OP:edw  STATUS:               ID:20161228011746d    3
 OLDACT:DUP 16-12-28 14:31 OP:edw  STATUS:               ID:20161228011746d    3
 OLDACT:UP  16-12-28 14:31 OP:edw  STATUS:               ID:20161228011745     3
 OLDACT:UP  16-12-28 14:29 OP:edw  STATUS:               ID:20161228011745     3
 OLDACT:UP  16-12-28 14:29 OP:edw  STATUS:               ID:20161228011745     3
 OLDACT:REG 16-12-28 12:53 OP:edw  STATUS:               ID:20161228011745     3
 2016-12-28-0118-00M.COL___369                                                 6
 STAT SP IPHASW D HRMM SECON CODA AMPLIT PERI AZIMU VELO AIN AR TRES W  DIS CAZ7
 BAR2 EZ EP        124  8.36                             156   -0.2310 45.6  65 
 BAR2 EZ ES        124 21.18                             156    0.0810 45.6  65 
 BAR2 EZ I         124 22.84         4.7 0.26            161           45.6  65 
 RUS  HZ EP        124 10.97                             142   -0.0410 77.9 138 
 RUS  HN ES        124 25.76                             142    0.3710 77.9 138 
 RUS  HZ I         124 30.64         3.0 0.48            144           77.9 138 
 BRR  HZ IP     C  124  9.66                             141   -0.7010 78.4 347 
 BRR  HN ES        124 24.35                             141    0.1110 78.4 347 
 PTB  HE ES        124 27.15                             134   -0.4110  101 278 
 ZAR  HZ EP        124 21.42                             115    0.45 9  187 310 
 ZAR  HN ES        124 43.75                             115    0.62 9  187 310 
 ZAR  HZ I         124 50.19         1.5 0.21            117            187 310 
                                                                                
