 2010  628 0024 58.1 L   6.749 -73.037140.8  RSN  9 0.5 1.9LRSN                1
 GAP=169        1.18       5.8     9.6 12.3 -0.1040E+02 -0.7141E+01 -0.5250E+01E
 Epicentro: ARATOCA - SANTANDER                                                3
 ACTION:UP  10-08-24 10:13 OP:vdl  STATUS:               ID:20100628002458 L   I
 2010-06-28-0022-21S.COL___118                                                 6
 STAT SP IPHASW D HRMM SECON CODA AMPLIT PERI AZIMU VELO SNR AR TRES W  DIS CAZ7
 BAR2 SZ EP   2    025 16.68                             170    -0.5 5   24 223 
 BRR  HZ IP     C  025 18.90                             147    -0.710   84 298 
 BRR  HZ I         025 19.30        19.3 0.10                            84 298 
 BRR  HN ES   1    025 36.26                             147     0.0 7   84 298 
 RUS  HZ EP        025 20.58                             144    -0.410   95 183 
 RUS  HZ I         025 21.78         8.2 0.20                            95 183 
 RUS  HN ES   1    025 39.12                             144     0.3 7   95 183 
 BRI  SZ EP   1    025 21.84                             139     0.1 7  110  14 
 GRA  SZ EP        025 24.12                             135     1.010  128  12 
 OCA  SZ EP   1    025 26.16                             127    -0.6 7  168 349 
 OCA  SZ ES   2    025 49.22                             127     0.1 5  168 349 
 OCA  SZ I         025 57.19         6.8 0.23                           168 349 
 HEL  HZ EP   3    025 40.11                             113     0.9 2  282 258 
 HEL  HE ES   2    026 11.77                             113     0.4 4  282 258 
 HEL  HZ I         026 15.46         4.5 0.38                           282 258 
 RREF HZ EP   1    025 45.53                             109     0.8 5  327 231 
 RREF HN ES   2    026 21.49                             109     0.4 3  327 231 
 RREF HZ I         026 25.82         2.7 0.55                           327 231 
 PRA  HZ EP   2    025 51.59                             105     0.0 3  393 211 
 PRA  HZ I         026 17.63         2.6 0.49                           393 211 
 PRA  HN ES   2    026 33.06                             105    -0.3 3  393 211 
                                                                                
