 2017  628 0507 16.7 L   6.827 -73.102150.1  RSN 12 0.6 1.8LRSN                1
 GAP=225        0.88       4.4     5.0  5.6  0.7705E+01  0.5381E+01  0.7177E+01E
 Epicentro: LOS SANTOS - SANTANDER                                             3
 ACTION:UPD 17-09-14 16:56 OP:jn   STATUS:               ID:20170628050716 L   I
 OLDACT:UP  17-06-28 14:57 OP:and  STATUS:               ID:20170628045646d    3
 OLDACT:UP  17-06-28 14:57 OP:and  STATUS:               ID:20170628045646d    3
 OLDACT:UP  17-06-28 14:54 OP:and  STATUS:               ID:20170628045646d    3
 OLDACT:DUP 17-06-28 14:49 OP:and  STATUS:               ID:20170628045646d    3
 2017-06-28-0457-00M.COL___367                                                 6
 STAT SP IPHASW D HRMM SECON CODA AMPLIT PERI AZIMU VELO AIN AR TRES W  DIS CAZ7
 BAR2 EZ IP     D  5 7 37.05                             169    0.0810 27.4 199 
 BAR2 EZ ES        5 7 52.65                             169   -0.1010 27.4 199 
 BAR2 EZ I         5 7 57.74        13.9 0.26            162           27.4 199 
 BRR  HZ EP        5 7 38.74                             153    0.2210 74.2 295 
 BRR  HN ES        5 7 55.84                             153    0.3310 74.2 295 
 BRR  HZ I         5 7 58.69        10.4 0.46            151           74.2 295 
 PTB  HZ EP        5 7 43.77                             132   -0.77 9  153 258 
 PTB  HN ES   3    5 8  4.61                             132   -1.61 2  153 258 
 PTB  HZ I         5 8  6.52         5.2 0.19            131            153 258 
 SPBC HZ EP        5 7 46.43                             129    0.36 9  169 220 
 SPBC HN ES   2    5 8  8.98                             129    0.03 5  169 220 
 SPBC HZ I         5 8 17.87         8.6 0.17            128            169 220 
 ZAR  HZ EP        5 7 49.92                             123    0.11 8  207 291 
 ZAR  HE ES        5 8 15.31                             123   -0.30 8  207 291 
 ZAR  HZ I         5 8 22.04         6.6 0.18            124            207 291 
 NOR  HN ES   2    5 8 21.79                             119   -0.07 4  240 235 
 NOR  HZ I         5 8 26.02         4.7 0.20            119            240 235 
 CHI  HZ EP   2    5 7 55.63                             118    0.51 4  253 196 
 CHI  HN ES        5 8 25.53                             118    0.47 8  253 196 
 CHI  HZ I         5 8 30.22         3.1 0.28            118            253 196 
 ROSC BZ EP   9    5 7 57.61                             117    1.97 0  258 212 
 ROSC BN ES   1    5 8 27.61                                   -0.35 6  258 212 
 ROSC BZ I         5 8 32.16         6.8 0.35            118            258 212 
 HEL  HZ EP   1    5 7 58.04                             115    0.27 6  278 255 
 HEL  HN ES   3    5 8 31.56                             115    1.79 2  278 255 
 GUY2CHZ EP   1    5 8  1.91                             113    0.73 5  307 235 
 GUY2CHN ES   3    5 8 37.28                             113    1.43 2  307 235 
 GUY2CHZ I         5 8 45.51         3.9 0.34                           307 235 
 PTGC HZ IP     C  5 8  0.55                             112   -0.35 7  310 160 
 PTGC HN ES   2    5 8 34.26                             112   -1.09 4  310 160 
 PTGC HZ I         5 8 37.50         3.7 0.34            114            310 160 
 CBOC HZ EP   4    5 8  0.10                             110   -4.36 0  339 252 
 CBOC HN ES        5 8 40.78                             110   -0.91 7  339 252 
 CBOC HZ I         5 8 51.55         1.7 0.50            111            339 252 
                                                                                
