 2017 1128 0856 25.3 L   6.804 -73.153138.0  RSN 14 0.8 2.0LRSN                1
 GAP= 71        1.73       4.7     5.3  9.1 -0.6019E+01  0.1777E+02 -0.6980E+01E
 Epicentro: LOS SANTOS - SANTANDER                                             3
 ACTION:UPD 17-12-12 20:01 OP:rebc STATUS:               ID:20171128085625 L   I
 OLDACT:REG 17-11-28 13:10 OP:dani STATUS:               ID:20171128084740     3
 2017-11-28-0848-00M.COL___477                                                 6
 STAT SP IPHASW D HRMM SECON CODA AMPLIT PERI AZIMU VELO AIN AR TRES W  DIS CAZ7
 BAR2 EZ EP        856 43.95                             170   -0.0610 23.7 188 
 BAR2 EZ ES        856 58.93                             170    0.3310 23.7 188 
 BAR2 EZ I         856 59.88        28.0 0.24            168           23.7 188 
 PAM  EZ EP        856 46.91                             149    0.2010 77.5  40 
 PAM  EN ES        857  3.94                             149    0.5410 77.5  40 
 PAM  EZ I         857  6.21        23.6 0.66            154           77.5  40 
 RUS  HZ EP        856 47.89                             142   -0.4510  101 176 
 RUS  HN ES        857  6.56                             142    0.2510  101 176 
 RUS  HZ I         857  7.49         6.0 0.24            145            101 176 
 PTB  HZ EP        856 50.53                             130   -1.06 9  147 259 
 PTB  HN ES        857 11.59                             130   -0.50 9  147 259 
 PTB  HZ I         857 15.65         9.5 0.12            130            147 259 
 TAM  HZ EP        856 52.15                             129   -0.31 9  156 105 
 OCA  HZ EP        856 52.16                             128   -0.81 9  160 353 
 OCA  HN ES        857 14.02                             128   -0.52 9  160 353 
 OCA  HZ I         857 15.40        19.7 0.38            130            160 353 
 SPBC HZ EP        856 53.03                             127   -0.18 9  163 219 
 SPBC HN ES        857 14.83                             127   -0.14 9  163 219 
 SPBC HZ I         857 21.99        14.8 0.38            128            163 219 
 ZAR  HZ EP        856 57.80                             121    0.64 9  203 292 
 ZAR  HE ES        857 22.74                             121    0.73 9  203 292 
 ZAR  HZ I         857 28.69        17.8 0.38            121            203 292 
 NOR  HZ EP        857  0.29                             117   -0.27 8  234 234 
 NOR  HN ES        857 27.94                             117   -0.11 8  234 234 
 NOR  HZ I         857 31.02         6.5 0.16            118            234 234 
 HEL  HZ EP        857  6.24                             113    1.18 8  271 256 
 HEL  HN ES        857 36.43                             113    0.36 8  271 256 
 HEL  HZ I         857 43.67         4.4 0.26            114            271 256 
 URE  HZ EP        857  8.62                             112    2.72 7  283 292 
 URE  HN ES        857 36.16                             112   -1.41 7  283 292 
 URE  HZ I         857 49.01         6.1 0.32            113            283 292 
 DRL03HZ EP        857  5.87                             112   -0.62 7  288 353 
 DRL03HE ES        857 38.71                             112    0.10 7  288 353 
 GUY2CHZ EP        857  8.59                             111    0.07 7  301 235 
 CBOC HZ EP        857 12.75                             108    0.91 7  333 252 
 CBOC HN ES        857 47.37                             108   -0.77 7  333 252 
 CBOC HZ I         858  0.97         1.9 0.55            110            333 252 
                                                                                
