 2011 1128 0419 40.5 L   6.771 -73.105142.0  RSN  4 0.4 1.6LRSN                1
 GAP=143        0.66       6.6     6.4  8.0 -0.6244E+01 -0.1432E+01 -0.4520E+01E
 Epicentro: LOS SANTOS - SANTANDER                                             3
 ACTION:UPD 12-07-13 16:12 OP:ep   STATUS:               ID:20111128041940 L   I
 2011-11-28-0418-09S.COL___160                                                 6
 STAT SP IPHASW D HRMM SECON CODA AMPLIT PERI AZIMU VELO AIN AR TRES W  DIS CAZ7
 BAR2 SZ ES   2    420 13.73                             171   -0.81 5 21.5 203 
 BRR  HZ EP        420  1.25                             150   -0.2910 76.7 299 
 BRR  HZ I         420  1.56         7.1 0.17                          76.7 299 
 BRR  HN ES   1    420 18.35                             150    0.38 7 76.7 299 
 PAM  SZ EP        420  2.44                             150    0.1710 77.2  35 
 PAM  SN ES   1    420 19.28                             150    0.01 7 77.2  35 
 RUS  HZ EP   3    420  3.89                             144    0.29 2 97.2 179 
 RUS  HN ES   2    420 21.97                             144    0.32 5 97.2 179 
                                                                                
