 2016  228 0820 57.5 L   6.812 -73.140141.5  RSN 12 0.4 1.9LRSN                1
 GAP= 71        1.06       3.2     4.4  6.1 -0.2876E+01  0.1066E+02  0.5537E+00E
 Epicentro: LOS SANTOS - SANTANDER                                             3
 ACTION:UPD 16-03-04 21:30 OP:rebc STATUS:               ID:20160228082057 L   I
 OLDACT:UP  16-02-28 15:39 OP:drio STATUS:               ID:20160228081748     3
 OLDACT:UP  16-02-28 15:39 OP:drio STATUS:               ID:20160228081748     3
 OLDACT:REG 16-02-28 12:44 OP:drio STATUS:               ID:20160228081748     3
 2016-02-28-0817-48M.COL___309                                                 6
 STAT SP IPHASW D HRMM SECON CODA AMPLIT PERI AZIMU VELO AIN AR TRES W  DIS CAZ7
 BAR2 EZ EP        821 16.64                             170   -0.0010 24.8 191 
 BAR2 EZ ES        821 32.03                             170    0.4510 24.8 191 
 BAR2 EZ I         821 32.51        10.5 0.16            168           24.8 191 
 PAM  EZ EP        821 19.48                             150    0.3110 75.9  40 
 PAM  EE ES        821 36.38                             150    0.3010 75.9  40 
 PAM  EZ I         821 38.52        23.1 0.50            155           75.9  40 
 RUS  HZ EP        821 20.74                             142   -0.1910  102 176 
 RUS  HE ES        821 38.93                             142   -0.2710  102 176 
 RUS  HZ I         821 40.22        11.5 0.30            144            102 176 
 PTB  HZ EP        821 23.41                             131   -0.79 9  149 258 
 PTB  HE ES   4    821 43.85                             131   -1.18 0  149 258 
 PTB  HZ I         821 48.36         7.9 0.16            130            149 258 
 TAM  HZ EP        821 24.85                             129    0.03 9  155 106 
 TAM  HE ES        821 46.17                             129    0.04 9  155 106 
 TAM  HZ I         821 46.50         3.1 0.44            134            155 106 
 OCA  HZ EP        821 24.82                             129   -0.54 9  159 353 
 OCA  HE ES        821 46.61                             129   -0.48 9  159 353 
 OCA  HZ I         821 50.78        17.8 0.20            131            159 353 
 SPBC HZ EP        821 25.79                             128   -0.02 9  165 219 
 SPBC HE ES        821 47.61                             128   -0.28 9  165 219 
 SPBC HZ I         821 51.01        13.6 0.26            128            165 219 
 ZAR  HZ EP        821 30.48                             121    0.80 9  204 292 
 ZAR  HN ES   4    821 56.16                             121    1.39 0  204 292 
 NOR  HZ EP        821 33.15                             117    0.03 8  236 234 
 NOR  HE ES   4    821 59.46                             117   -1.45 0  236 234 
 NOR  HZ I         822  8.02         6.0 0.20            118            236 234 
 CHI  HZ EP        821 34.88                             116   -0.24 8  250 195 
 CHI  HN ES        822  4.13                             116   -0.34 8  250 195 
 CHI  HZ I         822  7.43         3.0 0.28            117            250 195 
 ROSC BZ EP        821 36.29                             116    0.74 8  254 211 
 ROSC BE ES   4    822  6.77                             116    1.54 0  254 211 
 ROSC BZ I         822 16.07         6.5 0.50            117            254 211 
 GUY2CHZ EP        821 41.92                             111    0.86 7  302 235 
 GUY2CHN ES   4    822 16.61                             111    1.58 0  302 235 
 GUY2CHZ I         822 19.88         3.0 0.32                           302 235 
 PTGC HZ EP   4    821 39.04                             111   -2.25 0  310 159 
 PTGC HE ES   4    822 13.13                             111   -2.31 0  310 159 
                                                                                
