 2011 1128 0201 59.8 L   6.749 -73.114154.4  RSN  4 0.1 1.6LRSN                1
 GAP=143        0.32       2.8     4.8  5.2  0.5680E+01 -0.1322E+02 -0.5080E+01E
 Epicentro: LOS SANTOS - SANTANDER                                             3
 ACTION:UPD 12-07-13 16:12 OP:ep   STATUS:               ID:20111128020159 L   I
 2011-11-28-0200-20S.COL___160                                                 6
 STAT SP IPHASW D HRMM SECON CODA AMPLIT PERI AZIMU VELO AIN AR TRES W  DIS CAZ7
 BAR2 SZ EP        2 2 20.35                             173   -0.0510 18.9 203 
 BAR2 SZ I         2 2 37.44         5.1 0.82                          18.9 203 
 BRR  HZ EP        2 2 22.30                             152    0.0810 77.0 301 
 BRR  HZ I         2 2 22.45        10.7 0.18                          77.0 301 
 BRR  HE ES   1    2 2 39.63                             152   -0.06 7 77.0 301 
 PAM  SZ EP        2 2 23.10                             152    0.0110 79.8  35 
 RUS  HZ EP        2 2 23.97                             147   -0.0510 94.7 178 
 RUS  HN ES   1    2 2 42.98                             147    0.08 7 94.7 178 
                                                                                
