 2010 1128 0607 26.4 L   6.808 -73.044150.0  RSN 13 0.3 2.6LRSN                1
 GAP=170        0.63       2.8     5.0  4.6 -0.5489E+01  0.2552E+01  0.2496E+01E
 Epicentro: LOS SANTOS - SANTANDER                                             3
 ACTION:UP  10-12-17 16:55 OP:REBC STATUS:               ID:20101128060726 L   I
 2010-11-28-0606-01S.COL___131                                                 6
 STAT SP IPHASW D HRMM SECON CODA AMPLIT PERI AZIMU VELO SNR AR TRES W  DIS CAZ7
 BTL  SZ EP   1    6 7 46.82                             169     0.2 7   28 296 
 BTL  SZ ES   1    6 8  2.37                             169     0.0 7   28 296 
 BAR2 SZ EP   1    6 7 46.66                             169     0.0 7   28 213 
 BAR2 SZ I         6 8  3.53        85.7 0.50                            28 213 
 BRR  HZ IP     C  6 7 48.57                             150     0.010   81 294 
 BRR  HE ES   1    6 8  5.90                             150     0.1 7   81 294 
 BRR  HZ I         6 8  8.82        89.1 0.19                            81 294 
 RUS  HZ EP   1    6 7 50.51                             144    -0.1 7  101 182 
 RUS  HN ES   1    6 8  9.38                             144    -0.1 7  101 182 
 RUS  HZ I         6 8 10.51        18.5 0.41                           101 182 
 GRA  SZ IP        6 7 51.48                             139    -0.210  122  13 
 GRA  SZ ES   1    6 8 11.66                             139     0.2 7  122  13 
 GRA  SZ I         6 8 13.45        46.4 0.32                           122  13 
 OCA  SZ EP   1    6 7 55.00                             130    -0.1 7  161 349 
 OCA  SZ I         6 8 20.40        41.1 0.23                           161 349 
 NOR  SZ EP   1    6 8  2.67                             118    -0.7 6  245 236 
 CHI  HZ EP   1    6 8  4.57                             118    -0.2 6  253 198 
 CHI  HN ES   1    6 8 34.72                             118     0.1 6  253 198 
 CHI  HZ I         6 8 41.86        14.2 0.37                           253 198 
 ROSC BZ EP   2    6 8  6.49                             117     1.0 4  259 213 
 ROSC BN ES   1    6 8 36.09                             117     0.2 6  259 213 
 ROSC BZ I         6 8 44.94        21.9 0.17                           259 213 
 HEL  HZ EP   1    6 8  8.60                             115     0.6 6  283 256 
 HEL  HN ES   2    6 8 39.65                             115    -0.9 4  283 256 
 HEL  HZ I         6 8 45.33        19.6 0.31                           283 256 
 RREF HZ EP   1    6 8 14.24                             111     0.5 5  331 231 
 RREF HE ES   2    6 8 50.59                             111    -0.1 3  331 231 
 RREF HZ I         6 8 59.21        23.2 0.25                           331 231 
 PRA  HZ EP   2    6 8 20.33                             107    -0.5 3  398 211 
 PRA  HE ES   2    6 9  3.39                             107     0.2 3  398 211 
 SJA  SZ EP   2    6 8 21.52                             107     0.0 3  404 194 
 SJA  SZ I         6 9 14.55        19.1 0.52                           404 194 
                                                                                
