 2012 1228 0619 26.6 L   6.673 -73.524130.5  RSN  8 0.4 2.2LRSN                1
 GAP= 76        0.85       3.4     4.4  6.4  0.2400E+01  0.6149E+01  0.2444E+01E
 Epicentro: EL CARMEN DE CHUCURI - SANTANDER                                   3
 ACTION:UPD 13-01-04 14:31 OP:ep   STATUS:               ID:20121228061926 L   I
 2012-12-28-0618-37M.COL___184                                                 6
 STAT SP IPHASW D HRMM SECON CODA AMPLIT PERI AZIMU VELO AIN AR TRES W  DIS CAZ7
 BAR2 SZ EP        619 44.90                             162    0.0710 38.9 103 
 BAR2 SZ ES   1    619 58.70                             162   -0.37 7 38.9 103 
 BAR2 SZ I         620  0.14       145.8 0.46                          38.9 103 
 BRR  HZ EP        619 45.26                             157    0.2110 52.3 337 
 BRR  HN ES   1    620  0.39                             157    0.94 7 52.3 337 
 BRR  HZ I         620  5.02        26.0 0.14                          52.3 337 
 GIR2 SZ IP     C  619 45.53                             155   -0.0110 57.9  39 
 GIR2 SZ ES   1    620  0.48                             155    0.16 7 57.9  39 
 GIR2 SZ I         620  0.94        33.2 0.12                          57.9  39 
 RUS  HZ EP   1    619 48.35                             141   -0.39 7 99.2 150 
 RUS  HE ES   1    620  5.88                             141   -0.16 7 99.2 150 
 RUS  HZ I         620  6.99        16.3 0.26                          99.2 150 
 PTB  HZ EP   1    619 47.96                             139   -0.51 7  104 262 
 PTB  HE ES   1    620  4.91                             139   -0.63 7  104 262 
 PTB  HZ I         620  5.64        32.9 0.16                           104 262 
 ZAR  HZ EP   1    619 55.41                             123    0.59 7  173 302 
 ZAR  HE ES   1    620 16.74                             123   -0.11 7  173 302 
 ZAR  HZ I         620 22.55        26.4 0.30                           173 302 
 OCA  HZ EP   1    619 54.84                             123   -0.34 7  175   7 
 OCA  HN ES   1    620 17.18                             123   -0.32 7  175   7 
 OCA  HZ I         620 18.77        34.2 0.38                           175   7 
 CHI  HZ EP   1    620  1.50                             116    0.40 6  227 186 
 CHI  HN ES   1    620 28.52                             116    0.50 6  227 186 
 CHI  HZ I         620 34.56         3.0 0.30                           227 186 
                                                                                
