 2017 1028 0829 58.0 L   6.861 -73.141149.1  RSN  8 0.5 1.2LRSN                1
 GAP=134        1.09       5.0     4.5  7.7 -0.2727E+01  0.9998E+01  0.4831E+01E
 Epicentro: LOS SANTOS - SANTANDER                                             3
 ACTION:UPD 17-11-07 19:38 OP:rebc STATUS:               ID:20171028082958 L   I
 OLDACT:UP  17-10-28 15:29 OP:osc  STATUS:               ID:20171028082740     3
 OLDACT:REG 17-10-28 12:59 OP:dani STATUS:               ID:20171028082740     3
 2017-10-28-0828-00M.COL___435                                                 6
 STAT SP IPHASW D HRMM SECON CODA AMPLIT PERI AZIMU VELO AIN AR TRES W  DIS CAZ7
 BAR2 EZ EP        830 18.54                             168    0.3310 30.1 189 
 BAR2 EZ ES        830 33.82                             168   -0.1310 30.1 189 
 BAR2 EZ I         830 34.45         4.2 0.16            168           30.1 189 
 BRR  HZ EP        830 18.59                             154   -0.8110 68.7 293 
 BRR  HN ES        830 36.59                             154    0.5210 68.7 293 
 PAM  EZ EP        830 20.16                             153   -0.1310 71.9  43 
 PAM  EN ES        830 37.67                             153    0.0210 71.9  43 
 PAM  EZ I         830 38.79         4.2 0.22            155           71.9  43 
 RUS  HZ EP        830 22.96                             143    0.3610  107 177 
 RUS  HN ES        830 41.91                             143    0.1510  107 177 
 RUS  HZ I         830 43.40         1.0 0.22            144            107 177 
 PTB  HZ EP        830 25.05                             133   -0.39 9  150 256 
 PTB  HN ES        830 46.14                             133   -0.69 9  150 256 
 PTB  HZ I         830 50.94         2.3 0.22            133            150 256 
 ZAR  HZ EP   3    830 32.34                             124    1.85 2  202 290 
 ZAR  HN ES        830 56.46                             124    0.65 9  202 290 
 NOR  HN ES        831  2.83                             119    0.02 8  239 233 
 GUY2CHZ EP   4    830 45.29                             113    3.01 0  306 234 
 GUY2CHE ES        831 16.94                             113    0.14 7  306 234 
 GUY2CHZ I         831 27.94         1.3 0.17                           306 234 
                                                                                
