 2011  828 0955 59.3 L   6.801 -73.074138.3  RSN  7 0.4 1.7LRSN                1
 GAP=146        0.80       4.3     7.1  7.2 -0.4876E+01  0.3410E+01 -0.6551E+01E
 Epicentro: LOS SANTOS - SANTANDER                                             3
 ACTION:UPD 12-07-13 15:54 OP:ep   STATUS:               ID:20110828095559 L   I
 2011-08-28-0954-48S.COL___161                                                 6
 STAT SP IPHASW D HRMM SECON CODA AMPLIT PERI AZIMU VELO AIN AR TRES W  DIS CAZ7
 BAR2 SZ EP   1    956 18.09                             169    0.03 7 26.0 207 
 BAR2 SZ ES   1    956 32.80                             169    0.08 7 26.0 207 
 BAR2 SZ I         956 34.41        10.5 0.13                          26.0 207 
 GIR2 SZ EP   1    956 18.08                             166   -0.04 7 33.4 337 
 GIR2 SZ ES   1    956 32.02                             166   -0.80 7 33.4 337 
 PAM  SZ EP   1    956 20.94                             151    0.54 7 72.5  35 
 BRR  HZ EP        956 19.86                             149   -0.1810 78.2 296 
 BRR  HZ I         956 20.12        19.1 0.18                          78.2 296 
 BRR  HE ES   1    956 36.81                             149    0.56 7 78.2 296 
 RUS  HN ES   1    956 40.35                             142    0.11 7  100 181 
 RUS  HZ I         956 42.27         3.5 0.35                           100 181 
 OCA  SZ EP   1    956 26.60                             128   -0.50 7  161 350 
 OCA  SZ ES   1    956 49.17                             128    0.35 7  161 350 
 OCA  SZ I         956 53.48         5.9 0.18                           161 350 
 NOR  SN ES   1    957  3.32                             116   -0.07 6  241 236 
                                                                                
