 2011  928 0819  8.1 L   6.780 -73.139145.2  RSN 12 0.4 2.8LRSN                1
 GAP=115        0.67       2.5     3.2  5.6  0.9235E+00  0.5524E+01  0.3583E+01E
 Epicentro: LOS SANTOS - SANTANDER                                             3
 ACTION:UPD 12-07-13 16:00 OP:ep   STATUS:               ID:20110928081909dL   I
 2011-09-28-0817-34S.COL___165                                                 6
 STAT SP IPHASW D HRMM SECON CODA AMPLIT PERI AZIMU VELO AIN AR TRES W  DIS CAZ7
 BTL  SZ EP   1    819 28.09                             171    0.43 7 20.9 317 
 BAR2 SZ EP        819 27.87                             171    0.2010 21.3 193 
 BAR2 SZ I         819 45.49       120.7 0.32                          21.3 193 
 BRR  HZ IP     C  819 29.74                             152    0.4110 72.9 300 
 BRR  HZ I         819 31.39       135.7 0.13                          72.9 300 
 BRR  HN ES   1    819 45.84                             152   -0.01 7 72.9 300 
 PAM  SZ EP   1    819 30.66                             150    0.29 7 78.6  38 
 PAM  SZ I         819 30.90        25.7 0.18                          78.6  38 
 PAM  SN ES   1    819 47.61                             150   -0.10 7 78.6  38 
 RUS  HZ EP   1    819 31.63                             144   -0.05 7 98.3 176 
 RUS  HN ES   1    819 49.54                             144   -0.49 7 98.3 176 
 RUS  HZ I         819 51.73        44.1 0.17                          98.3 176 
 OCA  SZ EP   1    819 36.40                             129   -0.23 7  163 353 
 OCA  SZ ES   1    819 58.09                             129   -0.75 7  163 353 
 OCA  SZ I         820  3.92       107.6 0.23                           163 353 
 YOP  SZ EP   1    819 38.24                             126    0.32 7  177 153 
 YOP  SE ES   1    820  1.07                             126   -0.07 7  177 153 
 YOP  SZ I         820  5.43        34.1 0.28                           177 153 
 ZAR  HZ EP   1    819 40.25                             122   -0.46 6  206 293 
 ZAR  HN ES   1    820  6.11                             122    0.00 6  206 293 
 ZAR  HZ I         820 12.31        69.6 0.21                           206 293 
 NOR  SZ EP   1    819 43.54                             118   -0.23 6  234 235 
 NOR  SN ES   1    820 11.33                             118   -0.23 6  234 235 
 CHI  HZ EP   1    819 45.29                             117   -0.31 6  247 195 
 CHI  HZ I         819 48.07        30.0 0.13                           247 195 
 CHI  HN ES   1    820 15.12                             117    0.30 6  247 195 
 HEL  HZ EP   1    819 48.56                             114    0.21 6  272 256 
 HEL  HN ES   1    820 20.18                             114    0.47 6  272 256 
 HEL  HZ I         820 27.14        47.6 0.43                           272 256 
 PRA  HZ EP   2    820  0.57                             106   -0.90 3  390 210 
 PRA  HZ I         820  3.64       178.6 0.13                           390 210 
 PRA  HN ES   2    820 42.16                             106   -0.89 3  390 210 
                                                                                
