 2013  128 0032 21.3 L   6.784 -73.174146.0  RSN  7 0.5 1.6LRSN                1
 GAP=180        1.20       4.7     7.2  8.8  0.1177E+02  0.1281E+02  0.9890E+01E
 Epicentro: LOS SANTOS - SANTANDER                                             3
 ACTION:UPD 13-02-15 09:17 OP:ep   STATUS:               ID:20130128003221 L   I
 2013-01-28-0028-46M.COL___169                                                 6
 STAT SP IPHASW D HRMM SECON CODA AMPLIT PERI AZIMU VELO AIN AR TRES W  DIS CAZ7
 BAR2 SZ ES        032 55.89                             171   -0.3210 21.3 183 
 BRR  HZ EP   2    032 42.54                             153    0.18 5 69.3 301 
 BRR  HN ES        032 59.56                             153    0.7710 69.3 301 
 RUS  HZ EP        032 44.72                             144   -0.2410 99.1 174 
 RUS  HZ I         032 45.32         2.5 0.14            143           99.1 174 
 RUS  HN ES        033  3.56                             144    0.1410 99.1 174 
 PTB  HZ EP        032 47.47                             133   -0.50 9  144 259 
 PTB  HN ES        033  7.90                             133   -0.88 9  144 259 
 PTB  HZ I         033 10.77         4.2 0.44            131            144 259 
 OCA  HN ES        033 11.75                             130   -0.19 9  162 354 
 OCA  HN I         033 13.10        17.8 0.30            130            162 354 
 ZAR  HN ES        033 19.26                             123    0.60 9  202 293 
 CHI  HZ EP        032 59.00                             118    0.27 8  246 195 
 CHI  HN ES        033 28.51                             118    0.57 8  246 195 
 CHI  HZ I         033 34.24         1.6 0.38            116            246 195 
                                                                                
