 2012  328 0655 15.6 L   6.808 -73.137150.3  RSN  6 0.3 1.6LRSN                1
 GAP=137        0.82       7.9     5.5 10.5 -0.2709E+01  0.2992E+01  0.4119E+02E
 ACTION:UP  12-03-31 23:23 OP:EP   STATUS:               ID:20120328065515 L   I
 2012-03-28-0650-00M.COL___196                                                 6
 STAT SP IPHASW D HRMM SECON CODA AMPLIT PERI AZIMU VELO SNR AR TRES W  DIS CAZ7
 BAR2 SZ EP        655 35.73                             170    -0.110   24 192 
 BAR2 SZ I         655 35.88         9.8 0.40                            24 192 
 BRR  HZ EP        655 37.49                             153     0.210   72 298 
 BRR  HZ I         655 37.66         7.1 0.34                            72 298 
 BRR  HN ES   1    655 54.62                             153     0.4 7   72 298 
 PAM  SZ EP        655 38.39                             152     0.110   76  39 
 PAM  SN ES   1    655 55.42                             152    -0.5 7   76  39 
 RUS  HZ EP        655 40.17                             144     0.310  101 177 
 RUS  HZ I         655 41.22         2.6 0.36                           101 177 
 RUS  HN ES   3    655 58.07                             144    -0.7 2  101 177 
 PTB  HZ EP        655 42.66                             133    -0.4 9  149 259 
 PTB  HN ES   2    656  4.52                             133     0.1 5  149 259 
 PTB  HZ I         656 11.34         3.7 0.30                           149 259 
 ZAR  HE ES   2    656 13.55                             123    -0.5 4  205 292 
 ZAR  HZ I         656 21.05         5.9 0.28                           205 292 
                                                                                
