 2010  428 0639 15.8 L   6.785 -73.035143.3  RSN  9 0.3 2.2LRSN                1
 GAP=163        0.81       5.9     7.7  6.5 -0.2134E+02 -0.6833E+01 -0.1499E+00E
 Epicentro: CEPITA - SANTANDER                                                 3
 ACTION:UPD 10-08-24 10:01 OP:vdl  STATUS:               ID:20100428063915 L   I
 2010-04-28-0636-43S.COL___104                                                 6
 STAT SP IPHASW D HRMM SECON CODA AMPLIT PERI AZIMU VELO AIN AR TRES W  DIS CAZ7
 BAR2 SZ EP        639 35.27                             169     0.010   27 218 
 BAR2 SZ ES   1    639 49.90                             169    -0.5 7   27 218 
 BRR  HZ EP        639 37.58                             148     0.210   83 295 
 BRR  HE ES   1    639 54.45                             148     0.2 7   83 295 
 BRR  HZ I         639 56.88        34.5 0.24                            83 295 
 BRI  SZ ES   1    639 58.01                             141     0.4 7  106  14 
 GUE  SZ IP        639 40.21                             139    -0.110  116   6 
 GRA  SZ IP        639 40.99                             137     0.310  124  12 
 GRA  SZ ES   2    640  0.44                             137     0.3 5  124  12 
 OCA  SZ EP        639 43.65                             128    -0.6 9  164 349 
 OCA  SZ ES   2    640  5.77                             128    -0.7 5  164 349 
 OCA  SZ I         640 12.65        28.4 0.16                           164 349 
 HEL  HZ EP   1    639 57.58                             113     0.4 6  284 257 
 HEL  HZ I         640 33.10         7.2 0.63                           284 257 
 SDV  BZ EP   1    640  4.82                             108     0.0 5  352  49 
 SDV  BZ I         640 45.09         2.5 0.40                           352  49 
 PRA  HZ EP   2    640  9.64                             106    -0.2 3  397 211 
 PRA  HZ I         641  0.16         7.8 0.31                           397 211 
                                                                                
