 2016  828 0349 10.4 L   6.793 -73.110139.2  RSN  7 0.4 1.4LRSN                1
 GAP=186        0.99       3.8     6.5  9.2  0.2109E+01  0.9574E+01  0.8917E+00E
 Epicentro: LOS SANTOS - SANTANDER                                             3
 ACTION:UPD 16-10-29 15:40 OP:rebc STATUS:               ID:20160828034910 L   I
 OLDACT:DUP 16-08-28 14:41 OP:ak   STATUS:               ID:20160828034740d    3
 2016-08-28-0348-00M.COL___368                                                 6
 STAT SP IPHASW D HRMM SECON CODA AMPLIT PERI AZIMU VELO AIN AR TRES W  DIS CAZ7
 BRR  HZ EP        349 31.72                             150    0.6510 75.0 298 
 BRR  HE ES        349 47.37                             150    0.1810 75.0 298 
 BRR  HZ I         349 51.88         4.3 0.48                          75.0 298 
 RUS  HN ES        349 51.45                             143    0.0310 99.7 178 
 PTB  HZ EP        349 36.60                             130   -0.59 9  151 259 
 PTB  HN ES        349 57.59                             130   -0.49 9  151 259 
 PTB  HZ I         350  2.76         2.7 0.18                           151 259 
 OCA  HN ES        349 59.64                             128   -0.47 9  162 352 
 SPBC HZ EP        349 38.68                             127    0.09 9  165 220 
 SPBC HN ES        350  0.54                             127   -0.04 9  165 220 
 SPBC HZ I         350  3.31         3.8 0.30                           165 220 
 ZAR  HN ES        350  8.65                             120    0.52 8  208 292 
 GUY2CHZ EP   2    349 54.39                             111    0.36 4  304 235 
                                                                                
