 2017 1028 0530 39.9 L   6.800 -73.174142.4  RSN  7 0.2 1.2LRSN                1
 GAP=109        0.52       2.6     2.6  3.8 -0.1813E+01  0.1143E+01  0.1179E+00E
 Epicentro: LOS SANTOS - SANTANDER                                             3
 ACTION:UPD 17-11-07 19:38 OP:rebc STATUS:               ID:20171028053039 L   I
 OLDACT:UP  17-10-28 15:25 OP:dani STATUS:               ID:20171028052739     3
 OLDACT:REG 17-10-28 12:47 OP:dani STATUS:               ID:20171028052739     3
 2017-10-28-0528-00M.COL___450                                                 6
 STAT SP IPHASW D HRMM SECON CODA AMPLIT PERI AZIMU VELO AIN AR TRES W  DIS CAZ7
 BAR2 EZ EP        530 59.11                             170   -0.0610 23.0 182 
 BAR2 EZ ES        531 14.08                             170   -0.0810 23.0 182 
 BAR2 EZ I         531 15.35         4.3 0.33            172           23.0 182 
 BRR  HZ EP        531  0.94                             153    0.3610 68.4 300 
 PAM  EZ EP        531  2.02                             150    0.0910 79.4  41 
 PAM  EN ES        531 18.90                             150   -0.1810 79.4  41 
 PAM  EZ I         531 21.37         3.6 0.31            152           79.4  41 
 RUS  HZ EP        531  3.40                             143    0.0110  101 174 
 RUS  HN ES        531 21.94                             143    0.2610  101 174 
 RUS  HZ I         531 22.85         2.3 0.23            146            101 174 
 PTB  HZ EP        531  6.11                             132   -0.25 9  145 259 
 PTB  HN ES        531 27.05                             132    0.08 9  145 259 
 PTB  HZ I         531 33.56         1.1 0.46            132            145 259 
 SPBC HE ES        531 29.68                             129   -0.21 9  161 218 
 YPLC HZ EP        531  9.57                             126   -0.08 9  178 150 
                                                                                
