 2012  428 0848 15.1 L   6.791 -73.150151.8  RSN  6 0.4 1.7LRSN                1
 GAP=136        1.03       6.7     5.5  8.9  0.5224E+01  0.8582E+01 -0.5554E+01E
 Epicentro: LOS SANTOS - SANTANDER                                             3
 ACTION:UPD 12-07-05 11:56 OP:tino STATUS:               ID:20120428084815 L   I
 2012-04-28-0840-00M.COL___189                                                 6
 STAT SP IPHASW D HRMM SECON CODA AMPLIT PERI AZIMU VELO AIN AR TRES W  DIS CAZ7
 BAR2 SZ EP        848 35.32                             171    -0.110   22 189 
 BAR2 SZ ES   1    848 51.35                             171     0.1 7   22 189 
 BAR2 SZ I         848 53.16         6.9 0.19                            22 189 
 BRR  HZ EP        848 37.23                             153     0.310   71 299 
 BRR  HN ES   1    848 54.80                             153     0.9 7   71 299 
 BRR  HZ I         848 57.00        12.8 0.12                            71 299 
 PAM  SZ EP        848 38.12                             151     0.110   78  39 
 PAM  SN ES   1    848 55.15                             151    -0.7 7   78  39 
 RUS  HZ EP   1    848 39.63                             145     0.2 7  100 176 
 RUS  HN ES   1    848 58.32                             145     0.0 7  100 176 
 RUS  HZ I         849  0.89         3.0 0.12                           100 176 
 PTB  HZ EP   1    848 42.24                             133    -0.3 7  147 259 
 PTB  HN ES   1    849  3.15                             133    -0.7 7  147 259 
 PTB  HZ I         849  6.77         5.3 0.13                           147 259 
 ZAR  HZ EP   1    848 47.91                             124     0.0 6  204 292 
 ZAR  HE ES        849 13.43                             124    -0.1 9  204 292 
 ZAR  HZ I         849 19.82         9.4 0.21                           204 292 
                                                                                
