 2013  528 0008 24.4 L   6.771 -73.173133.1  RSN 14 0.5 2.4LRSN                1
 GAP= 71        1.08       3.6     3.5  5.3 -0.1742E+01  0.5863E+01  0.2853E+01E
 Epicentro: LOS SANTOS - SANTANDER                                             3
 ACTION:UPD 13-06-20 09:54 OP:ep   STATUS:               ID:20130528000824 L   I
 2013-05-28-0007-51M.COL___217                                                 6
 STAT SP IPHASW D HRMM SECON CODA AMPLIT PERI AZIMU VELO AIN AR TRES W  DIS CAZ7
 BAR2 SZ IP     D  0 8 42.70                             171    0.2610 19.8 183 
 BAR2 SZ ES        0 8 56.09                             171   -0.4110 19.8 183 
 BAR2 SZ I         0 8 58.26        64.0 0.36            172           19.8 183 
 GIR2 SZ IP     C  0 8 42.79                             165    0.1310 34.1 356 
 GIR2 SZ ES        0 8 57.61                             165    0.7110 34.1 356 
 GIR2 SZ I         0 9  5.41        30.2 0.44            164           34.1 356 
 BRR  HZ IP     C  0 8 44.60                             150    0.4710 70.2 302 
 BRR  HN ES   2    0 8 59.16                             150   -0.36 5 70.2 302 
 BRR  HZ I         0 9  6.43        34.2 0.10            150           70.2 302 
 PAM  SZ EP     C  0 8 45.58                             147    0.0110 81.8  40 
 PAM  SN ES        0 9  2.31                             147    0.2310 81.8  40 
 PAM  SZ I         0 9  4.85        57.2 0.60            151           81.8  40 
 RUS  HZ IP     C  0 8 46.70                             142   -0.0010 97.6 174 
 RUS  HN ES        0 9  3.82                             142   -0.2810 97.6 174 
 RUS  HZ I         0 9  5.91        20.1 0.24            147           97.6 174 
 PTB  HZ EP        0 8 49.29                             130   -0.74 9  144 260 
 PTB  HN ES        0 9  9.67                             130   -0.35 9  144 260 
 PTB  HZ I         0 9 12.64        53.9 0.20            132            144 260 
 TAM  HZ IP     D  0 8 51.10                             127   -0.21 9  157 104 
 TAM  HN ES   2    0 9 12.57                             127    0.27 5  157 104 
 TAM  HZ I         0 9 13.02        21.1 0.22            133            157 104 
 OCA  HZ EP        0 8 51.12                             126   -0.92 9  163 354 
 OCA  HN ES   2    0 9 12.51                             126   -1.08 5  163 354 
 OCA  HZ I         0 9 16.14        34.0 0.46            129            163 354 
 ZAR  HZ EP        0 8 55.90                             120    0.01 9  202 293 
 ZAR  HN ES        0 9 20.42                             120   -0.03 9  202 293 
 ZAR  HZ I         0 9 25.96        27.0 0.10            122            202 293 
 NOR  HZ EP        0 8 59.23                             116    0.28 8  230 235 
 NOR  HN ES   2    0 9 26.64                             116    0.74 4  230 235 
 NOR  HZ I         0 9 28.59        22.8 0.12            119            230 235 
 SML  HZ EP   4    0 8 59.17                             114   -1.36 0  245 336 
 SML  HN ES   4    0 9 26.82                             114   -1.90 0  245 336 
 SML  HZ I         0 9 32.44        33.9 0.28            117            245 336 
 HEL  HZ EP        0 9  4.42                             112    0.84 8  268 256 
 HEL  HN ES   1    0 9 34.13                             112   -0.01 6  268 256 
 HEL  HZ I         0 9 41.68        16.1 0.26            115            268 256 
 GUY2CHZ EP        0 9  7.94                             110    0.98 7  297 235 
 GUY2CHN ES        0 9 40.14                             110   -0.01 7  297 235 
 GUY2CHZ I         0 9 48.11         9.8 0.26                           297 235 
 COD  HZ EP   4    0 9  9.46                             106   -3.19 0  351 355 
 COD  HN ES   4    0 9 48.12                             106   -2.16 0  351 355 
 PRA  HZ EP        0 9 17.03                             104    0.03 6  388 209 
 PRA  HN ES        0 9 57.29                             104   -0.75 6  388 209 
 PRA  HZ I         010  4.99         6.3 0.40            107            388 209 
                                                                                
