 2016  528 0146  2.9 L   6.786 -73.111147.0  RSN 18 0.4 2.3LRSN                1
 GAP=123        0.96       2.6     3.4  4.5 -0.1280E+01  0.2726E+01  0.3416E+01E
 Epicentro: LOS SANTOS - SANTANDER                                             3
 ACTION:UPD 16-08-18 17:50 OP:cam  STATUS:               ID:20160528014602 L   I
 OLDACT:UP  16-06-01 05:07 OP:dnl  STATUS:               ID:20160528014602 L   3
 OLDACT:UP  16-05-28 13:31 OP:ar   STATUS:               ID:20160528013744     3
 OLDACT:REG 16-05-28 12:07 OP:ar   STATUS:               ID:20160528013744     3
 2016-05-28-0137-44M.COL___316                                                 6
 STAT SP IPHASW D HRMM SECON CODA AMPLIT PERI AZIMU VELO AIN AR TRES W  DIS CAZ7
 BAR2 EZ EP        146 22.80                             171    0.1210 22.8 200 
 BAR2 EZ ES        146 37.96                             171   -0.1410 22.8 200 
 BAR2 EZ I         146 39.30        65.3 0.26            167           22.8 200 
 BRR  HZ IP     C  146 24.61                             151    0.1710 75.3 298 
 BRR  HN ES        146 41.61                             151    0.3910 75.3 298 
 BRR  HZ I         146 45.63        35.7 0.24            151           75.3 298 
 PAM  EZ EP        146 25.72                             151    0.5210 76.3  37 
 PAM  EN ES        146 42.81                             151    0.2310 76.3  37 
 PAM  EZ I         146 45.52        17.1 0.46            155           76.3  37 
 RUS  HZ EP        146 26.75                             145    0.0910 98.8 178 
 RUS  HN ES        146 45.45                             145    0.2710 98.8 178 
 RUS  HZ I         146 46.75        23.8 0.30            143           98.8 178 
 PTB  HZ EP        146 29.65                             132   -0.65 9  151 260 
 PTB  HN ES        146 51.50                             132   -0.16 9  151 260 
 PTB  HZ I         146 57.10        19.5 0.32            131            151 260 
 OCA  HZ EP        146 31.12                             130   -0.40 9  162 352 
 OCA  HN ES        146 53.14                             130   -0.69 9  162 352 
 OCA  HZ I         146 56.36        42.8 0.16            131            162 352 
 SPBC HZ EP        146 31.72                             129    0.09 9  164 220 
 SPBC HN ES        146 53.57                             129   -0.45 9  164 220 
 SPBC HZ I         146 58.54        31.9 0.14            128            164 220 
 NOR  HZ EP        146 38.44                             118   -0.52 8  237 235 
 NOR  HN ES        147  7.28                             118    0.21 8  237 235 
 NOR  HZ I         147 12.33        13.8 0.18            118            237 235 
 CHI  HZ EP        146 41.10                             117    0.47 8  248 196 
 CHI  HN ES        147  9.96                             117   -0.09 8  248 196 
 CHI  HZ I         147 14.02         8.1 0.28            117            248 196 
 ROSC BZ EP   4    146 43.14                             117    1.97 0  253 212 
 ROSC BN ES   4    147 13.43                             117    2.41 0  253 212 
 ROSC BZ I         147 17.42        34.2 0.40            116            253 212 
 HEL  HZ EP        146 44.45                             115    0.89 7  275 256 
 HEL  HN ES        147 14.78                             115   -0.49 7  275 256 
 HEL  HZ I         147 21.16         8.3 0.44            114            275 256 
 PTGC HZ EP        146 45.92                             112   -0.58 7  306 159 
 PTGC HN ES        147 19.86                             112   -0.64 7  306 159 
 PTGC HZ I         147 31.58        14.6 0.58            112            306 159 
 CBOC HZ EP        146 51.16                             110    0.91 7  337 253 
 CBOC HN ES   4    147 25.38                             110   -1.78 0  337 253 
 CBOC HZ I         147 35.04         3.0 0.34            110            337 253 
 ANIL HZ EP   4    146 54.65                             109    1.70 0  359 225 
 ANIL HN ES   4    147 35.41                             109    3.43 0  359 225 
 PRA  HZ EP        146 56.59                             107    0.05 6  393 210 
 PRA  HN ES        147 38.20                             107   -0.17 6  393 210 
 PRA  HZ I         147 44.87        16.0 0.38            107            393 210 
 ORTC HZ EP        146 57.31                             106    0.31 6  396 217 
 ORTC HN ES        147 39.53                             106    0.35 6  396 217 
 ORTC HZ I         147 46.42         5.9 0.66            106            396 217 
 PAL  HZ EP        146 58.44                             106    0.03 6  408 240 
 PAL  HN ES   4    147 40.23                             106   -1.46 0  408 240 
 PAL  HZ I         147 44.66         2.8 0.18            106            408 240 
 CRJC HZ EP   9    147  3.33                             103   -2.28 0  469   3 
 CRJC HN ES        147 51.94                             104   -0.29 5  469   3 
 CRJC HZ I         147 58.15         6.0 0.18            104            469   3 
 MACC HZ EP   4    147  9.71                             102   -1.83 0  520 189 
 MACC HN ES   4    148  1.65                             102   -3.42 0  520 189 
 MACC HZ I         148 34.72         2.4 0.52            102            520 189 
                                                                                
