 2014 1028 0345 26.5 L   6.758 -73.149144.9  RSN  6 0.4 1.3LRSN                1
 GAP=138        1.07       5.0     5.4  7.4 -0.6673E+01  0.6268E+01  0.3610E+01E
 Epicentro: LOS SANTOS - SANTANDER                                             3
 ACTION:UPD 14-11-29 23:57 OP:nd   STATUS:               ID:20141028034526 L   I
 OLDACT:UP  14-10-30 17:07 OP:cam  STATUS:               ID:20141028033815     3
 OLDACT:UP  14-10-30 17:07 OP:cam  STATUS:               ID:20141028033815     3
 OLDACT:REG 14-10-30 15:02 OP:cam  STATUS:               ID:20141028033815     3
 2014-10-28-0338-15M.COL___271                                                 6
 STAT SP IPHASW D HRMM SECON CODA AMPLIT PERI AZIMU VELO AIN AR TRES W  DIS CAZ7
 BAR2 SZ ES        346  1.47                             172    0.3310 18.7 191 
 BAR2 SZ I         346  3.77         3.5 0.26            172           18.7 191 
 BRR  HZ EP        345 47.78                             152    0.0710 73.2 302 
 BRR  HN ES        346  4.75                             152    0.5310 73.2 302 
 BRR  HN I         346  6.12         6.8 0.16            153           73.2 302 
 PAM  SZ EP        345 48.89                             149   -0.0110 81.2  38 
 PAM  SE ES        346  6.01                             149   -0.3210 81.2  38 
 PAM  SZ I         346  8.18         3.7 0.44            152           81.2  38 
 RUS  HZ EP        345 50.27                             145    0.3910 96.0 176 
 RUS  HN ES        346  7.49                             145   -0.5910 96.0 176 
 RUS  HZ I         346  9.86         2.6 0.34            146           96.0 176 
 PTB  HZ EP        345 52.92                             132   -0.41 9  147 261 
 PTB  HN ES        346 13.54                             132   -0.68 9  147 261 
 PTB  HZ I         346 15.49         1.8 0.12            134            147 261 
 SPBC HZ EP        345 54.87                             130    0.26 9  159 220 
 SPBC HN ES        346 16.89                             130    0.39 9  159 220 
 SPBC HZ I         346 19.55         3.4 0.36            131            159 220 
                                                                                
