 2015 1028 0708 48.9 L   6.822 -73.150145.6  RSN 12 0.4 2.0LRSN                1
 GAP=135        0.97       3.2     4.3  5.4 -0.1018E+01  0.7291E+01  0.1714E+01E
 Epicentro: LOS SANTOS - SANTANDER                                             3
 ACTION:UPD 15-12-22 20:43 OP:cam  STATUS:               ID:20151028070848 L   I
 OLDACT:REG 15-10-28 12:37 OP:mh   STATUS:               ID:20151028070735     3
 2015-10-28-0707-35M.COL___319                                                 6
 STAT SP IPHASW D HRMM SECON CODA AMPLIT PERI AZIMU VELO AIN AR TRES W  DIS CAZ7
 BAR2 EZ EP        7 9  8.72                             170    0.1910 25.6 188 
 BAR2 EZ ES        7 9 23.60                             170   -0.2610 25.6 188 
 BAR2 EZ I         7 9 24.64        20.9 0.20            171           25.6 188 
 BRR  HZ EP   1    7 9  9.67                             153   -0.24 7 69.7 297 
 BRR  HN ES        7 9 27.08                             153    0.7510 69.7 297 
 BRR  HZ I         7 9 28.10        12.3 0.40            143           69.7 297 
 PAM  EZ EP        7 9 11.20                             151    0.2310 75.9  41 
 PAM  EN ES        7 9 28.29                             151    0.0710 75.9  41 
 PAM  EZ I         7 9 30.65        21.1 0.44            144           75.9  41 
 RUS  HZ EP        7 9 12.53                             143   -0.2510  103 176 
 RUS  HE ES   1    7 9 31.25                             143   -0.18 7  103 176 
 RUS  HZ I         7 9 32.17        13.5 0.24            140            103 176 
 OCA  HZ EP        7 9 17.28                             130    0.34 9  158 353 
 OCA  HN ES        7 9 38.28                             130   -0.55 9  158 353 
 OCA  HZ I         7 9 41.53        18.6 0.42            121            158 353 
 ZAR  HZ EP   1    7 9 22.02                             123    0.86 6  203 292 
 ZAR  HN ES        7 9 45.81                             123   -0.55 9  203 292 
 ZAR  HZ I         7 9 51.57         5.9 0.10            114            203 292 
 NOR  HZ EP   1    7 9 24.57                             118   -0.12 6  236 234 
 NOR  HN ES   1    7 9 53.22                             118    0.58 6  236 234 
 NOR  HZ I         710  0.18        10.0 0.14            112            236 234 
 SML  HZ EP        7 9 24.68                             118   -0.55 8  241 335 
 SML  HZ I         710  2.30        13.3 0.10            110            241 335 
 CHI  HZ EP        7 9 26.74                             117   -0.05 8  251 195 
 CHI  HN ES   1    7 9 55.88                             117   -0.49 6  251 195 
 CHI  HZ I         7 9 59.10         6.6 0.40            112            251 195 
 HEL  HZ EP        7 9 29.26                             115    0.18 8  272 255 
 HEL  HN ES   1    7 9 59.74                             115   -0.72 6  272 255 
 HEL  HZ I         710  6.50         6.3 0.28            108            272 255 
 URE  HZ EP   4    7 9 30.84                             114    1.06 0  283 291 
 URE  HN ES   4    7 9 58.31                             114   -3.38 0  283 291 
 URE  HZ I         710 11.10         6.4 0.22            107            283 291 
 GUY2CHZ EP   1    7 9 33.40                             112    0.82 5  302 234 
 GUY2CHN ES   4    710  8.85                             112    2.18 0  302 234 
 GUY2CHZ I         710 12.60         4.6 0.34                           302 234 
 MON  HZ EP   4    7 9 35.27                             109   -2.38 0  352 308 
 MON  HN ES   4    710 14.13                             109   -1.57 0  352 308 
                                                                                
