 2010  628 0900  9.6 L   6.822 -73.042146.0  RSN 12 0.4 2.6LRSN                1
 GAP=170        0.87       3.2     6.8  6.1 -0.9268E+01  0.5358E+01  0.2541E+01E
 Epicentro: LOS SANTOS - SANTANDER                                             3
 ACTION:UP  10-08-24 10:13 OP:vdl  STATUS:               ID:20100628090009 L   I
 2010-06-28-0858-00S.COL___118                                                 6
 STAT SP IPHASW D HRMM SECON CODA AMPLIT PERI AZIMU VELO SNR AR TRES W  DIS CAZ7
 BAR2 SZ IP        9 0 29.33                             168    -0.110   30 212 
 BAR2 SZ ES   1    9 0 44.30                             168    -0.6 7   30 212 
 BRR  HZ IP     C  9 0 31.06                             149    -0.310   81 293 
 BRR  HN ES   1    9 0 48.33                             149     0.1 7   81 293 
 BRR  HZ I         9 0 52.62        73.8 0.14                            81 293 
 RUS  HZ EP        9 0 33.37                             143    -0.210  103 183 
 RUS  HZ I         9 0 34.28        32.2 0.12                           103 183 
 RUS  HE ES   1    9 0 52.08                             143    -0.1 7  103 183 
 GUE  SZ EP        9 0 34.02                             140     0.010  112   7 
 GRA  SZ IP        9 0 34.83                             138     0.410  120  13 
 GRA  SZ ES   1    9 0 54.25                             138     0.5 7  120  13 
 OCA  SZ EP   1    9 0 37.57                             130    -0.3 7  160 349 
 OCA  SZ ES   1    9 0 59.90                             130     0.0 7  160 349 
 OCA  SZ I         9 1  4.82        27.1 0.45                           160 349 
 CHI  HZ EP   1    9 0 47.41                             116    -0.5 6  254 198 
 CHI  HN ES   1    9 1 18.77                             116     1.0 6  254 198 
 CHI  HZ I         9 1 25.42        12.2 0.39                           254 198 
 ROSC BZ EP   1    9 0 49.08                             116     0.5 6  261 213 
 ROSC BN ES   1    9 1 19.97                             116     0.9 6  261 213 
 ROSC BZ I         9 1 27.78        25.5 0.26                           261 213 
 HEL  HZ EP   1    9 0 51.33                             114     0.2 6  284 256 
 HEL  HZ I         9 1 30.25        23.5 0.27                           284 256 
 RREF HZ EP   1    9 0 56.54                             110    -0.4 5  332 230 
 RREF HN ES   1    9 1 33.75                             110    -0.1 5  332 230 
 RREF HZ I         9 1 41.34        20.0 0.13                           332 230 
 TOL  SZ EP   1    9 0 59.09                             109     0.1 5  353 226 
 PRA  HZ EP   1    9 1  3.33                             106    -0.7 4  400 211 
 PRA  HE ES   2    9 1 46.03                             106    -0.5 3  400 211 
 PRA  HZ I         9 1 52.40        22.1 0.24                           400 211 
                                                                                
