 2015 1228 0329 18.5 L   6.800 -73.112148.3  RSN 14 0.5 1.8LRSN                1
 GAP=141        1.15       3.2     4.2  5.7 -0.3525E+01  0.8222E+01  0.3514E+00E
 Epicentro: LOS SANTOS - SANTANDER                                             3
 ACTION:UPD 16-02-04 15:08 OP:cam  STATUS:               ID:20151228032918 L   I
 OLDACT:REG 15-12-28 13:19 OP:ak   STATUS:               ID:20151228032748     3
 2015-12-28-0327-48M.COL___331                                                 6
 STAT SP IPHASW D HRMM SECON CODA AMPLIT PERI AZIMU VELO AIN AR TRES W  DIS CAZ7
 BAR2 EZ EP        329 38.41                             170   -0.0710 24.3 199 
 BAR2 EZ ES        329 54.05                             170    0.0010 24.3 199 
 BAR2 EZ I         329 55.52        10.9 0.24            169           24.3 199 
 BRR  HZ EP        329 40.47                             152    0.3310 74.5 297 
 BRR  HN ES        329 57.84                             152    0.8510 74.5 297 
 BRR  HZ I         330  4.05         7.8 0.20            149           74.5 297 
 PAM  EZ EP        329 41.53                             152    0.6510 75.0  37 
 PAM  EN ES        329 58.47                             152    0.1610 75.0  37 
 RUS  HZ EP        329 42.35                             144   -0.1710  100 178 
 RUS  HE ES        330  0.75                             144   -0.4810  100 178 
 RUS  HZ I         330  2.13         6.5 0.26            148            100 178 
 PTB  HZ EP        329 45.15                             132   -0.88 9  151 259 
 PTB  HN ES        330  6.76                             132   -0.73 9  151 259 
 PTB  HZ I         330 11.12         9.0 0.30            132            151 259 
 OCA  HZ EP        329 47.27                             130    0.19 9  161 352 
 OCA  HN ES        330  8.92                             130   -0.43 9  161 352 
 OCA  HZ I         330 14.46        12.3 0.22            131            161 352 
 SPBC HZ EP        329 47.47                             129    0.02 9  166 220 
 SPBC HE ES        330  9.75                             129   -0.26 9  166 220 
 SPBC HZ I         330 16.32         9.2 0.28            131            166 220 
 ZAR  HZ EP   2    329 50.57                             122   -0.92 4  208 292 
 ZAR  HN ES        330 16.92                             122   -0.29 8  208 292 
 ZAR  HZ I         330 22.30        10.4 0.66            123            208 292 
 NOR  HZ EP        329 54.52                             119   -0.21 8  238 235 
 NOR  HE ES        330 23.31                             119    0.34 8  238 235 
 NOR  HZ I         330 26.82         6.1 0.18            120            238 235 
 SML  HZ EP        329 54.72                             118   -0.74 8  245 335 
 SML  HZ EPn       330 14.62                                            245 335 
 SML  HN ES        330 24.12                             118   -0.16 8  245 335 
 SML  HZ I         330 31.39         9.6 0.10            119            245 335 
 HEL  HZ EP        330  0.25                             115    0.98 7  276 256 
 HEL  HN ES        330 31.60                             115    0.55 7  276 256 
 HEL  HZ I         330 37.56         3.1 0.56            116            276 256 
 GUY2CHZ EP        330  3.23                             113    0.63 7  304 235 
 GUY2CHE ES        330 37.40                             113    0.43 7  304 235 
 GUY2CHZ I         330 44.33         3.4 0.52                           304 235 
 CBOC HZ EP        330  6.39                             110    0.44 7  337 252 
 CBOC HN ES        330 42.66                             110   -0.29 7  337 252 
 CBOC HZ I         330 46.70         0.9 0.18            111            337 252 
 ORTC HZ EP        330 12.10                             107   -0.69 6  398 217 
 ORTC HE ES        330 55.57                             107    0.45 6  398 217 
 ORTC HZ I         331  2.25         1.7 0.46            108            398 217 
                                                                                
