 2013  528 0147 51.1 L   6.747 -73.242140.1  RSN  6 0.5 1.8LRSN                1
 GAP=181        1.07       7.0     7.3  8.5  0.1567E+02  0.1440E+02 -0.8413E+01E
 Epicentro: ZAPATOCA - SANTANDER                                               3
 ACTION:UPD 13-06-20 09:54 OP:ep   STATUS:               ID:20130528014751 L   I
 2013-05-28-0140-00M.COL___261                                                 6
 STAT SP IPHASW D HRMM SECON CODA AMPLIT PERI AZIMU VELO AIN AR TRES W  DIS CAZ7
 BAR2 SZ IP     D  148  9.83                             173   -0.1110 18.4 159 
 BAR2 SZ ES        148 25.28                             173    0.6310 18.4 159 
 BAR2 SZ I         148 26.55        11.0 0.36            168           18.4 159 
 BRR  HZ IP     C  148 11.69                             153    0.3910 65.4 307 
 BRR  HN ES   4    148 29.12                             153    2.06 0 65.4 307 
 BRR  HZ I         148 35.31         6.3 0.14            142           65.4 307 
 RUS  HZ EP        148 14.03                             144    0.0710 96.1 169 
 RUS  HN ES        148 31.04                             144   -0.7610 96.1 169 
 RUS  HZ I         148 33.49         5.8 0.40            134           96.1 169 
 PTB  HZ EP        148 16.54                             133   -0.01 9  136 260 
 PTB  HN ES        148 36.05                             133   -0.36 9  136 260 
 PTB  HZ I         148 40.41         7.1 0.18            121            136 260 
 SML  HZ EP   2    148 26.75                             116   -0.78 4  245 338 
 SML  HN ES   2    148 55.61                             116   -0.34 4  245 338 
 SML  HZ I         149  2.70        13.4 0.30            107            245 338 
 PRA  HZ EP        148 44.00                             106    0.79 6  382 209 
 PRA  HZ I         149 29.82         2.2 0.70             98            382 209 
                                                                                
