 2016 1128 0521 55.0 L   6.767 -73.140149.3  RSN  9 0.4 1.8LRSN                1
 GAP=121        0.88       5.6     3.9  5.7  0.8429E+00  0.3148E+01  0.1107E+02E
 Epicentro: LOS SANTOS - SANTANDER                                             3
 ACTION:UPD 17-10-26 21:12 OP:lp   STATUS:               ID:20161128052155 L   I
 OLDACT:UP  16-11-28 15:31 OP:dani STATUS:               ID:20161128051745     3
 OLDACT:UP  16-11-28 15:31 OP:dani STATUS:               ID:20161128051745     3
 OLDACT:REG 16-11-28 12:36 OP:dani STATUS:               ID:20161128051745     3
 2016-11-28-0518-00M.COL___346                                                 6
 STAT SP IPHASW D HRMM SECON CODA AMPLIT PERI AZIMU VELO AIN AR TRES W  DIS CAZ7
 BAR2 EZ EP        522 15.12                             172    0.0910 19.9 194 
 BAR2 EZ ES        522 30.46                             172   -0.1710 19.9 194 
 BAR2 EZ I         522 32.98        21.1 0.30            171           19.9 194 
 BRR  HZ EP        522 16.97                             152    0.2710 73.6 301 
 BRR  HN ES        522 34.08                             152    0.4710 73.6 301 
 BRR  HZ I         522 38.02        11.9 0.26            151           73.6 301 
 PAM  EZ EP        522 18.01                             150    0.2310 79.8  37 
 PAM  EE ES        522 35.16                             150   -0.3510 79.8  37 
 PAM  EZ I         522 37.59         7.0 0.24            154           79.8  37 
 PTB  HZ EP        522 21.93                             133   -0.36 9  148 260 
 PTB  HN ES        522 43.31                             133   -0.25 9  148 260 
 PTB  HZ I         522 49.63         5.0 0.13            133            148 260 
 ZAR  HZ EP        522 28.43                             123    0.51 8  206 293 
 ZAR  HN ES        522 53.03                             123   -0.54 8  206 293 
 ZAR  HZ I         522 58.54         7.4 0.38            124            206 293 
 ROSC BZ EP   4    522 35.90                             117    2.85 0  250 212 
 PTGC HZ EP        522 38.29                             112   -0.35 7  305 159 
 LL6C HZ EP   9    522 19.97                             110   -21.3 0  329 357 
 LL6C HN ES   3    522 58.03                                    1.96 2  329 357 
 PRA  HZ EP        522 48.98                             107    0.64 6  389 210 
 SJC  HZ EP   3    522 49.41                             106   -1.71 1  413 327 
                                                                                
