 2016  128 0607 58.1 L   6.813 -73.193145.2  RSN 10 0.4 1.6LRSN                1
 GAP=130        0.94       2.5     4.0  5.7 -0.8442E+00  0.6750E+01 -0.1447E+01E
 Epicentro: ZAPATOCA - SANTANDER                                               3
 ACTION:UPD 16-03-09 23:29 OP:cam  STATUS:               ID:20160128060759dL   I
 OLDACT:REG 16-01-28 13:49 OP:cara STATUS:               ID:20160128060750     3
 2016-01-28-0607-50M.COL___331                                                 6
 STAT SP IPHASW D HRMM SECON CODA AMPLIT PERI AZIMU VELO AIN AR TRES W  DIS CAZ7
 BAR2 EZ EP        6 8 17.74                             170    0.0110 24.4 177 
 BAR2 EZ ES        6 8 33.41                             170    0.4110 24.4 177 
 BAR2 EZ I         6 8 34.47         4.9 0.28            169           24.4 177 
 PAM  EZ EP        6 8 20.57                             150    0.1310 79.7  43 
 PAM  EN ES        6 8 37.52                             150   -0.3110 79.7  43 
 PAM  EZ I         6 8 39.86         4.4 0.48            156           79.7  43 
 RUS  HZ EP        6 8 21.89                             143   -0.0910  103 173 
 RUS  HN ES        6 8 40.62                             143    0.0510  103 173 
 RUS  HZ I         6 8 41.40         2.7 0.42            146            103 173 
 PTB  HZ EP        6 8 24.67                             133    0.04 9  143 258 
 PTB  HN ES        6 8 45.60                             133    0.31 9  143 258 
 PTB  HZ I         6 8 53.14         6.5 0.48            132            143 258 
 OCA  HZ EP        6 8 26.16                             130   -0.06 9  158 355 
 OCA  HE ES        6 8 48.08                             130   -0.04 9  158 355 
 OCA  HZ I         6 8 53.60        13.7 0.18            132            158 355 
 SPBC HZ EP        6 8 26.47                             129    0.07 9  161 217 
 SPBC HE ES        6 8 48.13                             129   -0.31 9  161 217 
 SPBC HZ I         6 8 55.73         8.6 0.24            130            161 217 
 ZAR  HZ EP        6 8 31.17                             123    1.17 9  199 292 
 ZAR  HE ES        6 8 54.02                             123   -0.82 9  199 292 
 ZAR  HZ I         6 9  3.20         3.7 0.12            123            199 292 
 SML  HZ EP        6 8 34.13                             118   -0.23 8  240 336 
 SML  HN ES        6 9  2.61                             118   -0.00 8  240 336 
 SML  HZ I         6 9  9.87         8.1 0.10            119            240 336 
 CHI  HZ EP        6 8 35.49                             117   -0.33 8  249 194 
 CHI  HE ES        6 9  4.98                             117   -0.22 8  249 194 
 CHI  HZ I         6 9 14.72         1.9 0.42            119            249 194 
 GUY2CHZ EP   4    6 8 42.66                             112    1.32 0  298 234 
 GUY2CHE ES   4    6 9 19.63                             112    4.60 0  298 234 
 GUY2CHZ I         6 9 26.52         1.8 0.48                           298 234 
                                                                                
