 2011  328 0349  6.4 L   6.785 -73.096142.0  RSN 12 0.4 2.2LRSN                1
 GAP=182        0.86       5.3     7.1  7.2 -0.2285E+02  0.3700E+01  0.6099E+01E
 Epicentro: LOS SANTOS - SANTANDER                                             3
 ACTION:UP  11-06-16 14:36 OP:jfem STATUS:               ID:20110328034906 L   I
 2011-03-28-0349-03S.COL___138                                                 6
 STAT SP IPHASW D HRMM SECON CODA AMPLIT PERI AZIMU VELO SNR AR TRES W  DIS CAZ7
 BAR2 SZ IP        349 25.74                             170     0.210   24 204 
 BAR2 SZ ES   2    349 40.54                             170     0.0 5   24 204 
 BAR2 SZ I         349 41.65        42.0 0.27                            24 204 
 GIR2 SZ EP        349 24.85                             166    -0.810   34 342 
 GIR2 SZ ES   3    349 39.70                             166    -1.0 2   34 342 
 BRR  HZ EP        349 27.60                             150     0.210   77 298 
 BRR  HN ES   1    349 44.38                             150     0.5 7   77 298 
 BRR  HZ I         349 46.28        28.4 0.15                            77 298 
 GRA  SZ IP        349 31.58                             136     0.310  126  15 
 GRA  SZ ES   1    349 50.95                             136     0.3 7  126  15 
 GRA  SZ I         349 54.14        22.6 0.37                           126  15 
 OCA  SZ EP        349 34.38                             129    -0.2 9  163 351 
 OCA  SZ I         350  0.66        19.2 0.17                           163 351 
 NOR  SN ES   1    350  9.92                             117    -0.4 6  238 236 
 CHI  HZ EP   3    349 43.78                             116    -0.1 2  249 197 
 CHI  HN ES   3    350 12.41                             116    -0.7 2  249 197 
 CHI  HZ I         350 20.53         7.7 0.56                           249 197 
 ROSC BN ES   2    350 14.60                             116     0.5 4  254 212 
 HEL  HZ EP   2    349 46.83                             114    -0.1 4  277 256 
 HEL  HN ES   2    350 18.60                             114     0.0 4  277 256 
 HEL  HZ I         350 24.68         4.9 0.59                           277 256 
 RREF HZ EP   2    349 53.63                             110     0.9 3  325 230 
 RREF HN ES   3    350 29.02                             110     0.2 2  325 230 
 RREF HZ I         350 37.70         7.0 0.36                           325 230 
 DBB  SZ EP        349 53.99                             109    -0.3 7  345 274 
 PRA  HZ EP        350  0.11                             106     0.2 6  393 210 
 PRA  HZ I         350  1.72        21.1 0.28                           393 210 
 PRA  HN ES   2    350 42.04                             106     0.4 3  393 210 
                                                                                
