 2017 1028 0758  7.9 L   6.328 -73.562114.4  RSN 11 0.4 1.5LRSN                1
 GAP= 73        1.10       3.0     3.1  6.1  0.1371E+01  0.5419E+01  0.5400E+01E
 Epicentro: SANTA HELENA DEL OPON - SANTANDER                                  3
 ACTION:UPD 17-11-07 19:38 OP:rebc STATUS:               ID:20171028075807 L   I
 OLDACT:REG 17-10-28 12:57 OP:dani STATUS:               ID:20171028074739     3
 2017-10-28-0748-00M.COL___435                                                 6
 STAT SP IPHASW D HRMM SECON CODA AMPLIT PERI AZIMU VELO AIN AR TRES W  DIS CAZ7
 BAR2 EZ EP        758 25.37                             154    0.5210 51.1  55 
 BAR2 EZ ES        758 38.42                             154    0.3210 51.1  55 
 BAR2 EZ I         758 39.27         9.2 0.13            155           51.1  55 
 RUS  HZ EP        758 26.45                             146   -0.0110 71.7 132 
 RUS  HN ES        758 41.00                             146    0.0310 71.7 132 
 RUS  HZ I         758 43.44         3.6 0.36            151           71.7 132 
 BRR  HZ EP        758 26.92                             140   -0.0310 87.7 349 
 BRR  HN ES        758 42.13                             140    0.3010 87.7 349 
 BRR  HZ I         758 56.58         5.7 0.32            141           87.7 349 
 SPBC HZ EP        758 27.24                             138   -0.3210 93.7 217 
 SPBC HE ES        758 42.64                             138   -0.2810 93.7 217 
 SPBC HZ I         758 44.65         6.2 0.12            143           93.7 217 
 PTB  HZ EP        758 26.94                             135   -1.1810  102 283 
 PTB  HE ES        758 44.03                             135    0.1110  102 283 
 PTB  HZ I         758 44.44         5.2 0.10            138            102 283 
 YPLC HZ EP        758 35.00                             120    0.49 9  167 128 
 YPLC HN ES        758 54.58                             120   -0.71 9  167 128 
 YPLC HZ I         758 58.47         7.3 0.32            125            167 128 
 NOR  HZ EP        758 34.74                             120    0.15 9  168 240 
 NOR  HN ES        758 55.68                             120    0.24 9  168 240 
 NOR  HZ I         759  0.05         5.4 0.16            124            168 240 
 CHI  HZ EP        758 37.05                             117   -0.28 9  189 186 
 CHI  HE ES        759  0.24                             117   -0.07 9  189 186 
 ZAR  HZ EP        758 37.06                             116   -0.16 9  193 312 
 ZAR  HE ES        758 59.78                             116   -0.33 9  193 312 
 ZAR  HZ I         759  4.37         3.1 0.09            119            193 312 
 GUY2CHZ EP        758 43.09                             111    0.64 8  234 239 
 GUY2CHN ES        759  9.74                             111    0.31 8  234 239 
 GUY2CHZ I         759 14.09         2.1 0.52                           234 239 
 PRA  HZ EP        758 53.20                             104    0.79 7  324 207 
 PRA  HE ES        759 27.26                             104    0.11 7  324 207 
                                                                                
