 2016  928 0255 14.7 L   6.765 -73.154152.5  RSN  5 0.3 1.4LRSN                1
 GAP=234        0.75       4.6     5.2  7.6  0.1137E+02 -0.1883E+01 -0.3949E+01E
 Epicentro: LOS SANTOS - SANTANDER                                             3
 ACTION:UPD 17-08-17 21:17 OP:lp   STATUS:               ID:20160928025514 L   I
 OLDACT:UP  16-09-28 14:23 OP:dani STATUS:               ID:20160928024737     3
 OLDACT:REG 16-09-28 12:56 OP:dani STATUS:               ID:20160928024737     3
 2016-09-28-0248-00M.COL___384                                                 6
 STAT SP IPHASW D HRMM SECON CODA AMPLIT PERI AZIMU VELO AIN AR TRES W  DIS CAZ7
 BRR  HZ EP        255 36.82                             153    0.1510 72.3 302 
 BRR  HE ES        255 54.00                             153    0.2110 72.3 302 
 BRR  HZ I         256  1.62         6.6 0.33            154           72.3 302 
 RUS  HZ EP        255 39.11                             146    0.2210 96.8 175 
 RUS  HE ES        255 57.33                             146   -0.4010 96.8 175 
 RUS  HZ I         255 58.72         1.3 0.32            153           96.8 175 
 PTB  HZ EP        255 41.77                             134   -0.34 9  146 260 
 PTB  HE ES        256  3.28                             134   -0.19 9  146 260 
 PTB  HZ I         256  4.59         2.0 0.17            137            146 260 
 SPBC HE ES        256  6.26                             131    0.46 9  160 220 
 SPBC HZ I         256 10.03         3.2 0.20            136            160 220 
 ZAR  HZ EP   4    255 45.03                             124   -2.66 0  205 293 
 ZAR  HE ES        256 13.26                             124   -0.14 9  205 293 
 ZAR  HZ I         256 19.04         3.6 0.26            127            205 293 
                                                                                
