 2016 1028 0541 47.2 L   6.802 -73.138148.0  RSN 17 0.6 3.5LRSN                1
 GAP= 71        1.01       3.6     2.9  4.9 -0.2637E+01  0.3252E+01  0.4744E+01E
 Epicentro: LOS SANTOS - SANTANDER                                             3
 ACTION:UPD 16-11-09 19:23 OP:rebc STATUS:               ID:20161028054147 L   I
 OLDACT:UP  16-10-28 19:37 OP:cog  STATUS:               ID:20161028053744     3
 OLDACT:UP  16-10-28 19:30 OP:cog  STATUS:               ID:20161028053744     3
 OLDACT:REG 16-10-28 14:30 OP:cog  STATUS:               ID:20161028053744     3
 2016-10-28-0538-00M.COL___349                                                 6
 STAT SP IPHASW D HRMM SECON CODA AMPLIT PERI AZIMU VELO AIN AR TRES W  DIS CAZ7
 BAR2 EZ EP        542  7.14                             171   -0.0110 23.7 192 
 BAR2 HE ES        542 22.46                             171   -0.2210 23.7 192 
 BAR2 EZ I         542 25.99       603.0 0.40            167           23.7 192 
 BRR  HZ IP        542  9.14                             152    0.4710 71.9 298 
 BRR  HN ES        542 26.03                             152    0.6410 71.9 298 
 BRR  HZ I         542 29.61       344.0 0.05            153           71.9 298 
 PAM  EZ EP        542 10.04                             151    0.3810 76.6  39 
 PAM  EE ES        542 27.21                             151    0.0710 76.6  39 
 PAM  EZ I         542 29.94       350.5 0.52            157           76.6  39 
 RUS  HZ EP        542 10.78                             144   -0.4510  101 177 
 RUS  HN ES        542 29.58                             144   -0.3610  101 177 
 RUS  HZ I         542 31.17       273.4 0.30            144            101 177 
 PTB  HZ EP        542 13.61                             132   -0.87 9  149 259 
 PTB  HN ES        542 35.17                             132   -0.55 9  149 259 
 PTB  HZ I         542 37.65       367.0 0.37            132            149 259 
 TAM  HZ EP        542 15.35                             131    0.32 9  154 105 
 TAM  HE ES        542 36.96                             131    0.26 9  154 105 
 TAM  HZ I         542 37.50       260.5 0.26            135            154 105 
 SPBC HZ EP        542 15.95                             129   -0.03 9  164 219 
 SPBC HN ES        542 38.03                             129   -0.37 9  164 219 
 SPBC HZ I         542 45.25       522.8 0.24            129            164 219 
 NOR  HZ EP        542 23.08                             119   -0.11 8  236 235 
 NOR  HN ES        542 51.05                             119   -0.18 8  236 235 
 NOR  HZ I         542 53.25       259.5 0.24            120            236 235 
 CHI  HZ EP        542 24.90                             117   -0.21 8  249 195 
 CHI  HN ES        542 54.54                             117   -0.12 8  249 195 
 CHI  HZ I         543  6.05        86.9 0.40            118            249 195 
 HEL  HZ EP   2    542 27.47                             115   -0.20 4  273 256 
 HEL  HE ES        542 59.83                             115    0.63 8  273 256 
 HEL  HZ I         543  5.88       288.0 0.32            116            273 256 
 GUY2CHZ EP   3    542 31.39                             113    0.34 2  302 235 
 GUY2CHE ES   3    543  6.38                             113    1.16 2  302 235 
 GUY2CHZ I         543 13.66       313.5 0.50                           302 235 
 ELA  HZ EP   4    542 36.00                             111    1.72 0  330 230 
 ELA  HE ES   4    543 14.40                             111    3.43 0  330 230 
 CBOC HZ EP        542 34.62                             110    0.27 7  335 252 
 CBOC HE ES        543 10.53                             110   -0.57 7  335 252 
 CBOC HZ I         543 23.71        75.0 0.46            111            335 252 
 ANIL HZ EP        542 37.97                             109    0.75 6  358 225 
 ANIL HN ES        543 16.48                             109    0.27 6  358 225 
 ANIL HZ I         543 24.45       373.4 0.32            110            358 225 
 PRA  HZ EP        542 40.32                             107   -0.59 6  393 210 
 PRA  HE ES        543 23.35                             107    0.57 6  393 210 
 PRA  HZ I         543 29.49       142.7 0.46            108            393 210 
 ORTC HZ EP        542 41.23                             107   -0.09 6  396 216 
 ORTC HN ES        543 23.96                             107    0.46 6  396 216 
 ORTC HZ I         543 30.92        99.0 0.48            108            396 216 
 PAL  HZ EP        542 42.90                             106    0.32 6  407 239 
 PAL  HE ES        543 26.82                             106    1.08 6  407 239 
 PAL  HZ I         543 31.82        91.2 0.48            107            407 239 
 CRJC HZ EP   2    542 48.01                             104   -1.76 2  467   3 
 CRJC HN ES   2    543 35.45                             104   -3.09 2  467   3 
 GUA  EZ EP   4    542 48.86                             103   -1.61 0  474 173 
 GUA  EN ES   4    543 37.93                             103   -1.86 0  474 173 
                                                                                
