 2013  528 0254 16.8 L   6.787 -73.175148.5  RSN  6 0.5 1.5LRSN                1
 GAP=178        1.24       5.7     8.0  7.8  0.1322E+02  0.6640E+01 -0.7387E+01E
 Epicentro: LOS SANTOS - SANTANDER                                             3
 ACTION:UPD 13-06-20 09:54 OP:ep   STATUS:               ID:20130528025416 L   I
 2013-05-28-0250-00M.COL___261                                                 6
 STAT SP IPHASW D HRMM SECON CODA AMPLIT PERI AZIMU VELO AIN AR TRES W  DIS CAZ7
 BAR2 SZ EP        254 36.49                             171   -0.1910 21.5 182 
 BAR2 SZ ES        254 51.80                             171   -0.4310 21.5 182 
 BAR2 SZ I         254 53.65         6.8 0.40            171           21.5 182 
 GIR2 SZ EP        254 36.89                             167    0.1010 32.4 356 
 GIR2 SZ ES        254 52.19                             167   -0.2210 32.4 356 
 GIR2 SZ I         254 54.17         7.8 0.47            166           32.4 356 
 BRR  HZ IP     D  254 38.75                             154    0.6610 69.1 301 
 BRR  HN ES        254 55.74                             154    1.0110 69.1 301 
 BRR  HZ I         254 58.96         8.9 0.36            151           69.1 301 
 RUS  HZ EP        254 41.08                             145    0.3810 99.4 174 
 RUS  HN ES        254 59.07                             145   -0.3010 99.4 174 
 RUS  HZ I         255  0.75         3.3 0.40            147           99.4 174 
 PTB  HZ EP        254 43.73                             133    0.09 9  144 259 
 PTB  HN ES        255  4.06                             133   -0.56 9  144 259 
 PTB  HZ I         255  9.46         2.9 0.42            133            144 259 
 SML  HZ EP        254 53.21                             118   -0.33 8  244 336 
 SML  HN ES        255 21.62                             118   -0.61 8  244 336 
 SML  HZ I         255 26.98         3.3 0.10            119            244 336 
                                                                                
