 2010  828 0519 20.8 L   6.344 -73.557115.5  RSN 17 0.4 3.0LRSN                1
 GAP= 77        0.96       3.0     4.8  6.7 -0.6244E+01  0.1466E+02 -0.9996E+00E
 Epicentro: SANTA HELENA DEL OPON - SANTANDER                                  3
 ACTION:UP  10-09-07 10:58 OP:vdl  STATUS:               ID:20100828051920 L   I
 2010-08-28-0515-45S.COL___119                                                 6
 STAT SP IPHASW D HRMM SECON CODA AMPLIT PERI AZIMU VELO SNR AR TRES W  DIS CAZ7
 BAR2 SZ IP        519 38.15                             155     0.310   50  56 
 BAR2 SZ ES   1    519 51.52                             155     0.4 7   50  56 
 BAR2 SZ I         519 52.89       336.5 0.27                            50  56 
 RUS  HZ IP     D  519 39.44                             146    -0.210   72 134 
 RUS  HN ES   1    519 53.60                             146    -0.6 7   72 134 
 RUS  HZ I         519 56.38       152.1 0.20                            72 134 
 BRR  HZ IP     D  519 39.74                             140    -0.210   86 349 
 BRR  HZ I         519 48.40       130.6 0.11                            86 349 
 BRR  HN ES   1    519 54.43                             140    -0.3 7   86 349 
 GIR2 SZ EP        519 40.75                             139     0.310   91  26 
 GUE  SZ EP        519 49.02                             118    -0.1 9  179  23 
 GUE  SZ I         519 53.26        50.1 0.10                           179  23 
 ROSC BZ EP        519 50.67                             117     0.6 9  187 207 
 ROSC BZ I         519 54.65        42.4 0.37                           187 207 
 ROSC BE ES   1    520 13.65                             117     0.7 7  187 207 
 GRA  SZ EP        519 50.32                                     0.2 9  190  26 
 GRA  SZ I         520 16.10        71.6 0.32                           190  26 
 CHI  HZ IP     C  519 50.28                             117    -0.3 9  191 186 
 CHI  HE ES   1    520 13.22                             117    -0.5 7  191 186 
 CHI  HZ I         520 17.35        50.6 0.52                           191 186 
 CVER SZ EP   2    519 53.28                             114     0.6 4  210 196 
 CVER SZ I         519 54.03        91.3 0.52                           210 196 
 OCA  SZ IP        519 52.59                             114     0.1 8  211   7 
 OCA  SZ I         520 23.73       145.5 0.40                           211   7 
 HEL  HZ EP   1    519 53.49                             113    -0.1 6  219 266 
 HEL  HN ES   2    520 18.54                             113    -0.7 4  219 266 
 HEL  HZ I         520 23.53        79.4 0.46                           219 266 
 GUY  SN ES   2    520 23.28                             111     0.5 4  236 238 
 GUY  SZ I         520 28.31       246.6 0.56                           236 238 
 RREF HZ EP   1    519 57.25                             109    -0.8 6  255 231 
 RREF HN ES   1    520 27.12                             109     0.1 6  255 231 
 RREF HZ I         520 30.16        89.8 0.32                           255 231 
 TOL  SZ EP   1    520  0.24                             107     0.2 6  276 225 
 ANIL HZ EP   1    520  2.00                             106     0.4 5  289 225 
 ANIL HE ES   2    520 34.30                             106     0.8 4  289 225 
 ANIL HZ I         520 40.35       135.3 0.30                           289 225 
 DBB  SZ EP   1    520  2.40                             105    -0.5 5  303 284 
 PRA  HZ EP        520  5.12                                    -0.5 7  326 207 
 PRA  HN ES   2    520 40.13                             104    -0.4 3  326 207 
 PRA  HZ I         520 47.82        57.3 0.35                           326 207 
                                                                                
