 2014  628 0711 52.8 L   6.698 -73.192150.3  RSN  4 0.4 1.3LRSN                1
 GAP=237        0.93       9.2     7.0  8.1  0.4159E+02  0.5019E+01 -0.2012E+02E
 Epicentro: VILLANUEVA - SANTANDER                                             3
 ACTION:UPD 14-07-01 22:57 OP:nd   STATUS:               ID:20140628071152 L   I
 OLDACT:REG 14-06-28 13:47 OP:spq  STATUS:               ID:20140628070819     3
 2014-06-28-0708-19M.COL___246                                                 6
 STAT SP IPHASW D HRMM SECON CODA AMPLIT PERI AZIMU VELO AIN AR TRES W  DIS CAZ7
 BAR2 SZ EP        712 12.61                             175   -0.2410 11.7 175 
 BAR2 SZ ES        712 28.24                             175   -0.2110 11.7 175 
 BAR2 SZ I         712 29.91         4.9 0.18            176           11.7 175 
 RUS  HZ EP        712 16.26                             148   -0.0610 89.9 172 
 RUS  HN ES        712 35.14                             148    0.5210 89.9 172 
 RUS  HZ I         712 36.34         2.1 0.36            150           89.9 172 
 PTB  HZ EP        712 19.09                             134   -0.49 9  141 263 
 PTB  HN ES        712 40.16                             134   -0.28 9  141 263 
 PTB  HZ I         712 41.41         2.5 0.10            136            141 263 
 ZAR  HZ EP        712 26.12                             123    0.54 9  204 296 
 ZAR  HN ES        712 51.50                             123    0.39 9  204 296 
 ZAR  HZ I         712 53.70         2.8 0.18            125            204 296 
                                                                                
