 2012  328 0024 34.3 L   6.782 -73.153150.1  RSN  6 0.5 1.6LRSN                1
 GAP=137        1.21       8.7     7.0 13.0 -0.3043E+01  0.1461E+02 -0.2356E+01E
 ACTION:UP  12-03-31 23:23 OP:EP   STATUS:               ID:20120328002434 L   I
 2012-03-28-0020-00M.COL___196                                                 6
 STAT SP IPHASW D HRMM SECON CODA AMPLIT PERI AZIMU VELO SNR AR TRES W  DIS CAZ7
 BAR2 SZ EP        024 54.41                             172     0.010   21 189 
 BAR2 SZ I         025 12.80         6.0 0.24                            21 189 
 BRR  HZ EP        024 56.27                             153     0.410   72 300 
 BRR  HZ I         024 56.42        11.7 0.14                            72 300 
 BRR  HE ES   1    025 13.74                             153     1.0 7   72 300 
 PAM  SZ EP        024 57.16                             151     0.110   79  39 
 PAM  SN ES   1    025 13.98                             151    -0.9 7   79  39 
 RUS  HZ EP   3    024 58.46                             145     0.2 2   99 176 
 RUS  HE ES   1    025 17.07                             145     0.0 7   99 176 
 RUS  HZ I         025 18.37         3.7 0.64                            99 176 
 PTB  HZ EP        025  1.26                             133    -0.2 9  147 260 
 PTB  HN ES   1    025 22.10                             133    -0.6 7  147 260 
 PTB  HZ I         025 28.19         3.9 0.40                           147 260 
 ZAR  HE ES   1    025 32.19                             123    -0.3 6  204 293 
 ZAR  HZ I         025 38.03         6.0 0.64                           204 293 
                                                                                
