 2012 1028 0004 47.1 L   6.785 -73.119147.7  RSN  4 0.4 1.8LRSN                1
 GAP=239        0.61       7.3    11.5 10.2  0.6214E+02 -0.3605E+01 -0.1487E+02E
 Epicentro: LOS SANTOS - SANTANDER                                             3
 ACTION:UPD 12-11-22 17:06 OP:ep   STATUS:               ID:20121028000447 L   I
 2012-10-28-0000-00M.COL___231                                                 6
 STAT SP IPHASW D HRMM SECON CODA AMPLIT PERI AZIMU VELO AIN AR TRES W  DIS CAZ7
 BRR  HZ EP   1    0 5  8.54                             152   -0.14 7 74.5 299 
 BRR  HN ES   2    0 5 26.13                             152    0.64 5 74.5 299 
 BRR  HN I         0 5 26.52        25.5 0.26                          74.5 299 
 RUS  HZ EP   1    0 5 11.21                             144    0.26 7 98.8 178 
 RUS  HE ES        0 5 29.30                             144   -0.2210 98.8 178 
 RUS  HE I         0 5 31.85         4.1 0.15                          98.8 178 
 ZAR  HN ES   2    0 5 45.23                             122   -0.49 4  207 292 
 ZAR  HN I         0 5 47.06         6.2 0.42                           207 292 
 CHI  HN ES   2    0 5 54.76                             117    0.49 4  248 196 
                                                                                
