 2013  728 0914 39.2 L   5.868 -73.720113.1  RSN  4 0.4 1.3LRSN                1
 GAP=276        0.84      10.6     5.9 12.6 -0.1115E+02  0.3408E+01  0.4783E+02E
 Epicentro: PUENTE NACIONAL - SANTANDER                                        3
 ACTION:UPD 13-08-12 10:40 OP:ep   STATUS:               ID:20130728091439 L   I
 OLDACT:UP  13-07-28 11:01 OP:cam  STATUS:               ID:20130728090959     3
 OLDACT:UP  13-07-28 11:01 OP:cam  STATUS:               ID:20130728090959     3
 OLDACT:REG 13-07-28 08:29 OP:cam  STATUS:               ID:20130728090959     3
 2013-07-28-0909-59M.COL___267                                                 6
 STAT SP IPHASW D HRMM SECON CODA AMPLIT PERI AZIMU VELO AIN AR TRES W  DIS CAZ7
 BAR2 SZ ES   1    915 15.52                             136    0.25 8 99.8  37 
 PTB  HZ EP        915  0.50                             133    0.4410  110 312 
 PTB  HN ES        915 16.09                             133   -0.2810  110 312 
 PTB  HZ I         915 22.21         2.1 0.26            135            110 312 
 BRR  HZ EP        915  2.06                             126   -0.5310  137   0 
 BRR  HN ES        915 20.91                             126    0.0510  137   0 
 ZAR  HE ES   1    915 36.93                             112    0.34 6  219 325 
 ZAR  HE I         915 38.70         3.3 0.40            117            219 325 
                                                                                
