 2014  828 0820 15.7 L   6.708 -73.243136.1  RSN  6 0.4 1.3LRSN                1
 GAP=202        0.93       6.1     6.4  8.4  0.1582E+02  0.1060E+02  0.1220E+02E
 Epicentro: BARICHARA - SANTANDER                                              3
 ACTION:UPD 14-09-15 21:53 OP:nd   STATUS:               ID:20140828082015 L   I
 OLDACT:DUP 14-08-28 17:09 OP:fm   STATUS:               ID:20140828081818d    3
 2014-08-28-0818-17M.COL___263                                                 6
 STAT SP IPHASW D HRMM SECON CODA AMPLIT PERI AZIMU VELO AIN AR TRES W  DIS CAZ7
 BAR2 SZ ES   1    820 47.49                             174   -0.80 7 14.5 153 
 BAR2 SZ I         820 50.26         6.9 0.38            174           14.5 153 
 BRR  HZ EP   1    820 35.49                             152   -0.13 7 68.1 310 
 BRR  HE ES        820 51.79                             152    0.6210 68.1 310 
 BRR  HZ I         820 55.90         4.1 0.18            151           68.1 310 
 RUS  HZ EP        820 38.04                             144    0.1710 91.9 169 
 RUS  HN ES        820 55.19                             144    0.0210 91.9 169 
 RUS  HZ I         820 57.18         1.6 0.22            146           91.9 169 
 PTB  HZ EP   1    820 40.32                             132   -0.44 7  136 262 
 PTB  HN ES        820 59.96                             132   -0.36 9  136 262 
 PTB  HZ I         821  2.51         2.7 0.30            132            136 262 
 SPBC HZ EP   1    820 42.29                             130    0.22 7  149 218 
 SPBC HN ES   1    821  2.95                             130    0.31 7  149 218 
 SPBC HZ I         821  9.77         2.5 0.14            130            149 218 
 SML  HZ EP   4    820 49.23                             115   -3.13 0  249 338 
 SML  HN ES   4    821 17.79                             115   -3.17 0  249 338 
 SML  HZ I         821 23.54         3.1 0.26            117            249 338 
                                                                                
