 2016 1128 0029 44.7 L   6.720 -73.118143.5  RSN  5 0.4 1.3LRSN                1
 GAP=173        0.67       5.9     3.7  5.4 -0.1052E+01  0.5346E+01  0.2619E+01E
 Epicentro: JORDAN - SANTANDER                                                 3
 ACTION:UPD 17-10-26 21:12 OP:lp   STATUS:               ID:20161128002944 L   I
 OLDACT:UP  16-11-28 13:03 OP:dani STATUS:               ID:20161128002742     3
 OLDACT:REG 16-11-28 12:18 OP:dani STATUS:               ID:20161128002742     3
 2016-11-28-0028-00M.COL___349                                                 6
 STAT SP IPHASW D HRMM SECON CODA AMPLIT PERI AZIMU VELO AIN AR TRES W  DIS CAZ7
 BAR2 EZ EP        030  3.96                             173   -0.0010 15.8 207 
 BAR2 EZ ES        030 19.20                             173    0.2510 15.8 207 
 BAR2 EZ I         030 19.98         6.8 0.20            172           15.8 207 
 BRR  HZ EP        030  6.07                             150    0.0110 78.3 303 
 BRR  HE ES        030 22.76                             150    0.0710 78.3 303 
 BRR  HZ I         030 26.43         3.1 0.20            149           78.3 303 
 PAM  EZ EP        030  7.14                             149    0.1010 82.7  34 
 PAM  EE ES        030 24.13                             149   -0.3010 82.7  34 
 PAM  EZ I         030 24.39         1.8 0.16            151           82.7  34 
 PTB  HZ EP        030 11.48                             131   -0.18 9  149 262 
 PTB  HN ES   3    030 30.34                             131   -2.31 2  149 262 
 PTB  HZ I         030 34.13         4.8 0.21            132            149 262 
 ZAR  HE ES        030 43.59                             121    0.21 8  210 294 
                                                                                
