 2012  228 0712 36.3 L   6.517 -73.237148.7  RSN  7 0.3 1.9LRSN                1
 GAP=130        0.76       3.9     4.3  5.7 -0.9718E+00  0.4322E+01  0.4866E+01E
 ACTION:UP  12-03-07 16:35 OP:epov STATUS:               ID:20120228071236 L   I
 2012-02-28-0710-00M.COL___191                                                 6
 STAT SP IPHASW D HRMM SECON CODA AMPLIT PERI AZIMU VELO AIN AR TRES W  DIS CAZ7
 BAR2 SZ EP        712 56.00                             176   -0.0510 10.2  36 
 BAR2 SZ ES        713 11.24                             176   -0.2510 10.2  36 
 BAR2 SZ I         713 13.53        23.5 0.23                          10.2  36 
 RUS  HZ EP        712 58.56                             153    0.1210 71.2 166 
 RUS  HN ES   1    713 15.85                             153    0.12 7 71.2 166 
 RUS  HZ I         713 18.01         6.2 0.36                          71.2 166 
 BRR  HZ EP        712 58.88                             149    0.4210 83.7 321 
 BRR  HZ I         712 59.88        23.1 0.09                          83.7 321 
 BRR  HN ES   1    713 16.55                             149    0.77 7 83.7 321 
 PAM  SZ EP   1    713  0.66                             142   -0.22 7  109  33 
 PAM  SN ES   1    713 19.88                             142   -0.20 7  109  33 
 PTB  HZ EP        713  1.85                             135   -0.4810  135 271 
 PTB  HE ES        713 22.36                             135   -0.3110  135 271 
 NOR  SZ EP   1    713  9.83                             122    0.35 6  209 240 
 CHI  HZ EP   1    713 10.77                             122    0.13 6  216 195 
 CHI  HN ES   1    713 37.50                             122    0.04 6  216 195 
                                                                                
