 2014 1028 0459 20.9 L   6.781 -73.138140.0  RSN  8 0.5 1.6LRSN                1
 GAP=138        1.21       4.4     5.9  7.7 -0.6116E+01  0.9193E+01  0.3380E+01E
 Epicentro: LOS SANTOS - SANTANDER                                             3
 ACTION:UPD 14-11-29 23:57 OP:nd   STATUS:               ID:20141028045920 L   I
 OLDACT:UP  14-10-30 17:23 OP:cam  STATUS:               ID:20141028045816     3
 OLDACT:REG 14-10-30 15:05 OP:cam  STATUS:               ID:20141028045816     3
 2014-10-28-0458-16M.COL___271                                                 6
 STAT SP IPHASW D HRMM SECON CODA AMPLIT PERI AZIMU VELO AIN AR TRES W  DIS CAZ7
 BAR2 SZ EP        459 39.48                             171   -0.2710 21.4 193 
 BAR2 SZ ES        459 54.05                             171   -0.4410 21.4 193 
 BAR2 SZ I         459 56.00         8.2 0.20            171           21.4 193 
 BRR  HZ EP        459 41.68                             151    0.2010 73.0 300 
 BRR  HN ES        459 58.58                             151    1.0110 73.0 300 
 BRR  HN I         459 59.17        13.7 0.20            150           73.0 300 
 PAM  SZ EP     C  459 42.80                             149    0.2810 78.5  38 
 PAM  SE ES        459 59.34                             149   -0.0910 78.5  38 
 PAM  SZ I         5 0  1.85         4.3 0.48            151           78.5  38 
 RUS  HZ EP        459 43.76                             143   -0.1210 98.4 176 
 RUS  HN ES        5 0  2.03                             143    0.1910 98.4 176 
 RUS  HZ I         5 0  2.46         5.3 0.24            145           98.4 176 
 PTB  HZ EP        459 47.04                             131   -0.35 9  148 260 
 PTB  HN ES        5 0  7.24                             131   -0.86 9  148 260 
 PTB  HZ I         5 0  9.98         3.6 0.10            131            148 260 
 SPBC HZ EP        459 48.59                             128   -0.22 9  162 220 
 SPBC HN ES        5 0 10.95                             128    0.34 9  162 220 
 SPBC HZ I         5 0 16.21         3.8 0.18            129            162 220 
 OCA  HE ES        5 0 10.53                             128   -0.30 9  162 353 
 OCA  HE I         5 0 14.63        14.3 0.16            129            162 353 
 GUY2CHZ EP        5 0  5.01                             111    0.87 7  301 235 
                                                                                
