 2012  628 0342 34.8 L   6.681 -73.228144.3  RSN  4 0.2 1.0LRSN                1
 GAP=201        0.43       6.9     5.0  5.7  0.3870E+01  0.1154E+02  0.1546E+01E
 Epicentro: BARICHARA - SANTANDER                                              3
 ACTION:UPD 12-08-06 17:53 OP:ep   STATUS:               ID:20120628034234 L   I
 2012-06-28-0340-00M.COL___201                                                 6
 STAT SP IPHASW D HRMM SECON CODA AMPLIT PERI AZIMU VELO AIN AR TRES W  DIS CAZ7
 BAR2 SZ ES   1    343  9.06                             175   -0.08 7 11.0 152 
 BRR  HZ EP   1    342 55.67                             152   -0.17 7 71.3 311 
 BRR  HZ I         342 55.86         2.5 0.19                          71.3 311 
 BRR  HN ES   1    343 12.43                             152    0.21 7 71.3 311 
 PTB  HZ EP   1    343  0.95                             134    0.25 7  137 264 
 PTB  HN ES   1    343 20.78                             134   -0.09 7  137 264 
 PTB  HZ I         343 24.15         0.9 0.47                           137 264 
 ZAR  HE ES   2    343 31.60                             122   -0.30 4  201 297 
                                                                                
