 2010  428 0410 20.6 L   6.744 -72.914139.0  RSN  5 0.4 2.0LRSN                1
 GAP=267        0.73       9.1    12.2  8.7 -0.1053E+02  0.1678E+02  0.3076E+02E
 Epicentro: CEPITA - SANTANDER                                                 3
 ACTION:UPD 10-08-24 10:01 OP:vdl  STATUS:               ID:20100428041018 L   I
 2010-04-28-0409-03S.COL___104                                                 6
 STAT SP IPHASW D HRMM SECON CODA AMPLIT PERI AZIMU VELO AIN AR TRES W  DIS CAZ7
 BAR2 SZ IP        410 40.04                             166     0.410   34 241 
 BAR2 SZ ES   1    410 54.39                             166    -0.2 7   34 241 
 BRR  HZ EP   1    410 42.40                             145    -0.3 7   97 295 
 BRR  HN ES   2    410 59.64                             145    -0.3 5   97 295 
 BRR  HZ I         411  1.52        12.4 0.09                            97 295 
 CHI  HZ EP   3    410 58.09                             116     0.0 2  251 201 
 RREF BZ EP   2    411  8.72                             109     0.4 3  338 233 
 RREF BN ES   2    411 46.33                             109     0.8 3  338 233 
 RREF BZ I         411 51.93         4.9 0.50                           338 233 
 PRA  HZ EP   1    411 14.03                             105    -0.8 4  400 213 
 PRA  HN ES   2    411 56.54                             105    -0.6 3  400 213 
 PRA  HZ I         411 59.77         2.5 0.35                           400 213 
                                                                                
