 2017  128 0226 51.7 L   6.589 -73.484 22.7  RSN  6 0.6 0.8LRSN                1
 GAP=117        1.29       3.3     3.5  4.7  0.3019E+01  0.7893E+01  0.1872E+00E
 Epicentro: EL CARMEN - SANTANDER                                              3
 ACTION:UPD 17-05-22 16:04 OP:jn   STATUS:               ID:20170128022651 L   I
 OLDACT:DUP 17-01-28 15:13 OP:lv   STATUS:               ID:20170128021749d    3
 2017-01-28-0218-00M.COL___346                                                 6
 STAT SP IPHASW D HRMM SECON CODA AMPLIT PERI AZIMU VELO AIN AR TRES W  DIS CAZ7
 BAR2 EZ EP        226 58.55                             123    0.0910 33.3  89 
 BAR2 EZ ES        227  3.09                             123   -0.6310 33.3  89 
 BAR2 EZ I         227  4.13         7.2 0.30            122           33.3  89 
 BRR  HZ EP        227  2.65                             108    0.4310 62.5 336 
 BRR  HN ES        227 10.39                             108   -0.0310 62.5 336 
 RUS  HZ EP        227  7.18                             103    0.5810 88.9 150 
 RUS  HN ES        227 17.97                             103   -0.2510 88.9 150 
 RUS  HZ I         227 18.85         1.2 0.14            102           88.9 150 
 PTB  HZ EP        227  9.25                              56    0.4110  108 267 
 PTB  HN ES        227 21.86                              56   -0.3410  108 267 
 PTB  HZ I         227 24.27         3.1 0.11            100            108 267 
 PAM  EZ EP   4    227 12.41                              56    1.47 0  120  46 
 PAM  EN ES        227 26.15                              56    0.2110  120  46 
 PAM  EZ I         227 26.72         2.2 0.23             56            120  46 
 ZAR  HN ES   2    227 36.35                              56   -2.30 4  182 303 
                                                                                
