 2011  128 0135 32.1 L   6.825 -73.225137.3  RSN  4 0.2 1.4LRSN                1
 GAP=189        0.40       4.4    19.8  6.8 -0.7428E+02  0.7839E+02 -0.1556E+02E
 Epicentro: ZAPATOCA - SANTANDER                                               3
 ACTION:UP  11-02-08 08:43 OP:pat  STATUS:               ID:20110128013532 L   I
 2011-01-28-0133-53S.COL___137                                                 6
 STAT SP IPHASW D HRMM SECON CODA AMPLIT PERI AZIMU VELO SNR AR TRES W  DIS CAZ7
 BAR2 SZ ES   2    136  5.16                             169    -0.2 5   26 170 
 RUS  HZ EP   2    135 55.08                             141    -0.3 5  104 171 
 RUS  HE ES   1    136 13.51                             141     0.1 7  104 171 
 RUS  HZ I         136 14.79         4.1 0.32                           104 171 
 GRA  SZ EP   1    135 56.70                             135     0.0 7  126  22 
 GRA  SZ ES   1    136 15.86                             135     0.1 7  126  22 
 CHI  HZ EP   2    136  9.19                             115    -0.2 4  249 193 
 CHI  HE ES   2    136 38.97                             115     0.4 4  249 193 
 CHI  HZ I         136 45.64         1.5 0.44                           249 193 
                                                                                
