 2017 1028 0708 48.3 L   6.368 -73.256162.3  RSN  6 0.5 1.1LRSN                1
 GAP=242        1.17       9.4     7.2 10.8  0.1289E+02  0.1251E+02  0.1418E+01E
 Epicentro: CONFINES - SANTANDER                                               3
 ACTION:UPD 17-11-07 19:38 OP:rebc STATUS:               ID:20171028070848 L   I
 OLDACT:UP  17-10-28 16:51 OP:osc  STATUS:               ID:20171028070644d    3
 OLDACT:UP  17-10-28 16:49 OP:osc  STATUS:               ID:20171028070644d    3
 OLDACT:UP  17-10-28 16:47 OP:osc  STATUS:               ID:20171028070644d    3
 OLDACT:DUP 17-10-28 16:32 OP:osc  STATUS:               ID:20171028070644d    3
 2017-10-28-0707-00M.COL___441                                                 6
 STAT SP IPHASW D HRMM SECON CODA AMPLIT PERI AZIMU VELO AIN AR TRES W  DIS CAZ7
 RUS  HZ EP        7 9 10.79                             160   -0.4910 55.9 160 
 RUS  HN ES        7 9 29.25                             160    0.0510 55.9 160 
 RUS  HZ I         7 9 30.13         2.1 0.24            158           55.9 160 
 BRR  HZ EP   4    7 9 14.63                             148    1.91 0 96.0 328 
 SPBC HZ EP        7 9 14.57                             142    0.0310  120 229 
 SPBC HN ES        7 9 35.58                             142    0.5810  120 229 
 SPBC HZ I         7 9 45.19         2.5 0.20            140            120 229 
 PTB  HZ EP   4    7 9 13.44                             138   -2.10 0  134 278 
 PTB  HE ES        7 9 36.86                             138    0.0910  134 278 
 PTB  HZ I         7 9 37.12         1.4 0.10            139            134 278 
 CHI  HN ES        7 9 48.18                             127   -0.02 9  199 195 
 NOR  HE ES        7 9 46.47                             126   -0.91 9  200 244 
 GUY2CHZ EP        7 9 29.77                             119    0.91 8  266 242 
 GUY2CHN ES   3    7 9 59.14                             119   -1.34 2  266 242 
 GUY2CHZ I         710 12.13         0.7 0.34                           266 242 
                                                                                
