 2017  428 0002 31.1 L   6.795 -73.159144.0  RSN 15 0.4 2.2LRSN                1
 GAP=111        0.87       2.8     2.9  5.4  0.4319E+00  0.1877E+01  0.4388E+01E
 Epicentro: LOS SANTOS - SANTANDER                                             3
 ACTION:UPD 17-05-30 21:16 OP:jn   STATUS:               ID:20170428000231 L   I
 OLDACT:UP  17-04-28 13:09 OP:and  STATUS:               ID:20170427235959     3
 OLDACT:UP  17-04-28 13:07 OP:and  STATUS:               ID:20170427235959     3
 OLDACT:UP  17-04-28 13:06 OP:and  STATUS:               ID:20170427235959     3
 OLDACT:UP  17-04-28 13:05 OP:and  STATUS:               ID:20170427235959     3
 OLDACT:UP  17-04-28 13:05 OP:and  STATUS:               ID:20170427235959     3
 OLDACT:UP  17-04-28 13:04 OP:and  STATUS:               ID:20170427235959     3
 OLDACT:UP  17-04-28 13:01 OP:and  STATUS:               ID:20170427235959     3
 OLDACT:UP  17-04-28 13:01 OP:and  STATUS:               ID:20170427235959     3
 OLDACT:REG 17-04-28 12:23 OP:and  STATUS:               ID:20170427235959     3
 2017-04-28-0000-15M.COL___362                                                 6
 STAT SP IPHASW D HRMM SECON CODA AMPLIT PERI AZIMU VELO AIN AR TRES W  DIS CAZ7
 BRR  HZ IP     C  0 2 52.16                             153    0.1710 70.2 299 
 BRR  HN ES        0 3  9.16                             153    0.8710 70.2 299 
 BRR  HZ I         0 3 13.16        24.8 0.25            151           70.2 299 
 PAM  EZ IP     C  0 2 53.18                             150   -0.0210 78.7  40 
 PAM  EN ES        0 3 10.21                             150   -0.2310 78.7  40 
 PAM  EZ I         0 3 13.43        14.1 0.37            156           78.7  40 
 RUS  HZ IP     D  0 2 54.24                             144   -0.3910  100 175 
 RUS  HN ES        0 3 12.94                             144   -0.0610  100 175 
 RUS  HZ I         0 3 14.41        14.5 0.26            145            100 175 
 PTB  HZ EP        0 2 57.67                             132   -0.10 9  146 259 
 PTB  HN ES        0 3 17.95                             132   -0.63 9  146 259 
 PTB  HZ I         0 3 24.54        14.0 0.38            131            146 259 
 SPBC HZ EP        0 2 59.33                             129    0.01 9  162 219 
 SPBC HN ES        0 3 21.23                             129   -0.12 9  162 219 
 SPBC HZ I         0 3 26.28        25.6 0.26            129            162 219 
 YPLC HZ IP     D  0 3  0.79                             126    0.01 9  177 151 
 YPLC HE ES        0 3 24.22                             126    0.29 9  177 151 
 YPLC HZ I         0 3 25.70        13.9 0.26            129            177 151 
 ZAR  HZ EP   2    0 3  3.56                             122    0.26 4  203 292 
 ZAR  HN ES        0 3 28.36                             122   -0.07 9  203 292 
 ZAR  HZ I         0 3 33.68        19.7 0.30            123            203 292 
 TABC EZ EP   3    0 3  7.89                             119    1.29 2  229 210 
 TABC EZ ES   4    0 3 32.56                             119   -1.74 0  229 210 
 TABC EZ I         0 3 39.36        23.0 0.54            120            229 210 
 NOR  HZ EP        0 3  6.58                             119    0.03 8  233 234 
 NOR  HN ES        0 3 33.93                             119   -0.28 8  233 234 
 NOR  HZ I         0 3 37.14         9.8 0.22            119            233 234 
 CHI  HZ EP        0 3  8.67                             117    0.08 8  248 195 
 CHI  HN ES        0 3 37.81                             117   -0.03 8  248 195 
 CHI  HZ I         0 3 43.13         8.9 0.32            118            248 195 
 ROSC BZ EP   9    0 3 10.77                             117    1.79 0  252 211 
 ROSC BN ES        0 3 41.08                                    0.76 8  252 211 
 ROSC BZ I         0 3 44.98        25.7 0.40            117            252 211 
 HEL  HZ EP   3    0 3 12.42                             115    1.38 2  271 256 
 HEL  HN ES   2    0 3 41.49                             115   -0.71 4  271 256 
 HEL  HZ I         0 3 50.60         5.8 0.36            115            271 256 
 PTGC HZ EP   4    0 3 13.38                             111   -1.49 0  309 158 
 ELA  HE ES   4    0 3 56.94                             110    2.89 0  328 229 
 ELA  HZ I         0 4  3.00         6.9 0.54            111            328 229 
 ORTC HE ES        0 4  7.56                             106    0.88 6  394 216 
 ORTC HZ I         0 4 11.72         5.1 0.20            107            394 216 
 SJC  HZ EP   9    0 3 24.50                             106   -2.05 0  409 327 
 SJC  HN ES        0 4  8.19                             106    0.43 6  409 327 
 SJC  HZ I         0 4 14.53         3.8 0.51            107            409 327 
                                                                                
