 2015  928 1003 13.2 L   6.774 -73.193154.6  RSN  9 0.5 1.8LRSN                1
 GAP=178        0.67       4.3     5.9  8.7  0.7439E+01  0.1461E+01 -0.6479E+01E
 Epicentro: ZAPATOCA - SANTANDER                                               3
 ACTION:UPD 15-10-28 16:28 OP:cam  STATUS:               ID:20150928095748 L   I
 OLDACT:UP  15-09-28 22:14 OP:ar   STATUS:               ID:20150928095748 L   3
 OLDACT:UPD 15-09-28 21:29 OP:nlst STATUS:               ID:20150928095748 L   3
 2015-09-28-0957-48M.COL___352                                                 6
 STAT SP IPHASW D HRMM SECON CODA AMPLIT PERI AZIMU VELO AIN AR TRES W  DIS CAZ7
 BAR2 EZ EP   2   10 3 33.44                             172   -0.37 6 20.1 177 
 BAR2 EZ ES   2   10 3 49.54                             172   -0.37 6 20.1 177 
 BAR2 EZ I        10 3 50.33         9.4 0.24            172           20.1 177 
 BRR  HZ EP   2   10 3 35.57                             155    0.44 6 68.2 303 
 BRR  HN ES   2   10 3 53.18                             155    0.93 6 68.2 303 
 BRR  HZ I        10 3 57.36         6.8 0.48            152           68.2 303 
 RUS  HN ES   2   10 3 56.27                             146   -0.46 6 98.2 173 
 RUS  HZ I        10 3 58.30         5.4 0.54            146           98.2 173 
 PTB  HN ES   2   10 4  1.43                             135   -0.18 5  142 260 
 PTB  HZ I        10 4  3.34         8.4 0.34            133            142 260 
 OCA  HZ EP   2   10 3 42.72                             131    0.32 5  163 355 
 OCA  HN ES   2   10 4  5.75                             131    0.56 5  163 355 
 OCA  HZ I        10 4  9.18        10.5 0.22            130            163 355 
 ZAR  HE ES       10 4 11.21                             125   -0.1110  200 293 
 ZAR  HZ I        10 4 18.20         6.7 0.48            123            200 293 
 SML  HZ EP   2   10 3 49.74                             119   -0.63 5  244 337 
 SML  HN ES   2   10 4 18.50                             119   -0.87 5  244 337 
 SML  HZ I        10 4 23.71        10.2 0.10            118            244 337 
 CHI  HZ EP   2   10 3 51.54                             119    0.60 5  245 194 
 CHI  HN ES   2   10 4 20.67                             119    0.27 5  245 194 
 CHI  HZ I        10 4 26.52         2.0 0.26            118            245 194 
 GUY2CHZ EP   4   10 3 57.86                             114    1.31 0  295 235 
 GUY2CHE ES   4   10 4 34.11                             114    3.73 0  295 235 
 GUY2CHZ I        10 4 40.28         2.7 0.68                           295 235 
                                                                                
