 2014 1228 0038 33.8 L   6.818 -73.158144.3  RSN  4 0.5 1.4LRSN                1
 GAP=143        1.18       6.6     6.9 11.5 -0.1977E+02  0.2258E+02 -0.1212E+01E
 Epicentro: LOS SANTOS - SANTANDER                                             3
 ACTION:UPD 15-02-10 17:07 OP:nd   STATUS:               ID:20141228003833 L   I
 OLDACT:UP  14-12-28 14:23 OP:mh   STATUS:               ID:20141228002744     3
 OLDACT:REG 14-12-28 12:46 OP:mh   STATUS:               ID:20141228002744     3
 2014-12-28-0027-44M.COL___262                                                 6
 STAT SP IPHASW D HRMM SECON CODA AMPLIT PERI AZIMU VELO AIN AR TRES W  DIS CAZ7
 PAM  SZ EP        038 56.59                             151    0.7510 76.7  41 
 PAM  SE ES        039 12.62                             151   -0.3910 76.7  41 
 PAM  SZ I         039 15.37         3.8 0.62            154           76.7  41 
 RUS  HZ EP        038 57.48                             143   -0.1010  103 175 
 RUS  HN ES        039 16.10                             143   -0.0110  103 175 
 RUS  HZ I         039 17.42         3.6 0.24            146            103 175 
 PTB  HZ EP        038 59.70                             132   -0.88 9  147 258 
 PTB  HN ES        039 21.90                             132    0.44 9  147 258 
 PTB  HZ I         039 24.73         3.4 0.13            134            147 258 
 SPBC HZ EP        039  2.43                             128    0.16 9  164 218 
 SPBC HN ES        039 24.49                             128    0.02 9  164 218 
 SPBC HZ I         039 28.26         4.8 0.26            131            164 218 
                                                                                
