 2016  128 0939 33.8 L   6.820 -73.174147.5  RSN  8 0.3 1.5LRSN                1
 GAP=132        0.68       2.0     3.7  4.4 -0.6891E+00  0.4934E+01 -0.8622E+00E
 Epicentro: ZAPATOCA - SANTANDER                                               3
 ACTION:UPD 16-03-09 23:29 OP:cam  STATUS:               ID:20160128093933 L   I
 OLDACT:REG 16-01-28 14:15 OP:cara STATUS:               ID:20160128093736     3
 2016-01-28-0937-36M.COL___317                                                 6
 STAT SP IPHASW D HRMM SECON CODA AMPLIT PERI AZIMU VELO AIN AR TRES W  DIS CAZ7
 BAR2 EZ IP     C  939 53.59                             170   -0.1210 25.2 182 
 BAR2 EZ ES        940  9.29                             170    0.0710 25.2 182 
 BAR2 EZ I         940  9.85         5.7 0.32            170           25.2 182 
 PAM  EZ EP        939 55.82                             151   -0.4410 77.7  42 
 PAM  EN ES        940 13.62                             151   -0.1210 77.7  42 
 PAM  EZ I         940 15.93         8.6 0.64            154           77.7  42 
 RUS  HZ EP        939 57.68                             143   -0.2610  103 174 
 RUS  HN ES        940 17.02                             143    0.2910  103 174 
 RUS  HZ I         940 17.90         1.6 0.22            146            103 174 
 PTB  HZ EP        940  0.71                             133   -0.00 9  145 258 
 PTB  HN ES        940 21.41                             133   -0.26 9  145 258 
 PTB  HZ I         940 27.22         2.4 0.20            133            145 258 
 OCA  HZ EP        940  2.62                             131    0.58 9  158 354 
 OCA  HN ES        940 24.30                             131    0.26 9  158 354 
 OCA  HZ I         940 27.66        12.8 0.18            132            158 354 
 SML  HZ EP        940 10.05                             118   -0.15 8  240 336 
 SML  HN ES        940 38.56                             118   -0.00 8  240 336 
 SML  HZ I         940 41.52         6.0 0.26            119            240 336 
 CHI  HZ EP        940 11.87                             117    0.09 8  250 194 
 CHI  HN ES        940 41.61                             117    0.24 8  250 194 
 CHI  HZ I         940 44.89         1.2 0.58            119            250 194 
 GUY2CHE ES   4    940 54.93                             113    3.58 0  300 234 
 GUY2CHZ I         941  0.28         1.1 0.40                           300 234 
                                                                                
