 2017 1228 0733 11.8 L   6.824 -73.052144.9  RSN  4 0.4 1.1LRSN                1
 GAP=279        0.90       6.8     6.6  7.9  0.8612E+01  0.1198E+02 -0.9597E+01E
 Epicentro: LOS SANTOS - SANTANDER                                             3
 ACTION:UPD 18-01-04 13:25 OP:rebc STATUS:               ID:20171228073312dL   I
 OLDACT:REG 17-12-28 13:13 OP:osc  STATUS:               ID:20171228072318     3
 2017-12-28-0728-00M.COL___457                                                 6
 STAT SP IPHASW D HRMM SECON CODA AMPLIT PERI AZIMU VELO AIN AR TRES W  DIS CAZ7
 BAR2 EZ EP        733 31.66                             168    0.2110 29.4 209 
 BAR2 EZ ES        733 46.68                             168   -0.1110 29.4 209 
 BAR2 EZ I         733 48.30         2.7 0.16            162           29.4 209 
 PTB  HZ EP        733 39.10                             130   -0.56 9  158 259 
 PTB  HN ES        734  0.92                             130   -0.49 9  158 259 
 PTB  HZ I         734  6.74         1.2 0.26            128            158 259 
 SPBC HZ EP        733 40.95                             127   -0.10 9  172 221 
 SPBC HN ES        734  4.39                             127    0.51 9  172 221 
 SPBC HZ I         734  8.62         1.8 0.20            127            172 221 
 ZAR  HZ EP        733 45.27                             121    0.20 8  213 290 
 ZAR  HE ES        734 11.47                             121    0.44 8  213 290 
 ZAR  HZ I         734 21.46         1.4 0.28            120            213 290 
                                                                                
