 2012 1228 0213 55.5 L   6.802 -73.126147.0  RSN  8 0.5 1.9LRSN                1
 GAP=191        0.94       5.9     6.4  8.2  0.1487E+02  0.1052E+02 -0.3473E+01E
 Epicentro: LOS SANTOS - SANTANDER                                             3
 ACTION:UPD 13-01-04 14:30 OP:ep   STATUS:               ID:20121228021355 L   I
 2012-12-28-0210-00M.COL___243                                                 6
 STAT SP IPHASW D HRMM SECON CODA AMPLIT PERI AZIMU VELO AIN AR TRES W  DIS CAZ7
 BAR2 SZ EP   1    214 15.17                             170   -0.15 8 24.0 195 
 BAR2 SZ ES   1    214 30.54                             170   -0.22 8 24.0 195 
 BAR2 SZ I         214 32.07        21.4 0.44                          24.0 195 
 GIR2 SZ EP   2    214 16.27                             167    0.92 5 31.5 346 
 GIR2 SZ I         214 32.06         5.6 0.28                          31.5 346 
 BRR  HZ EP   1    214 17.09                             152    0.18 8 73.0 298 
 BRR  HN ES   1    214 34.41                             152    0.81 8 73.0 298 
 BRR  HN I         214 37.86        39.5 0.16                          73.0 298 
 RUS  HZ EP        214 19.30                             144   -0.1110  101 177 
 RUS  HE ES   1    214 38.07                             144    0.03 7  101 177 
 RUS  HZ I         214 39.04         7.0 0.24                           101 177 
 PTB  HZ EP   1    214 22.31                             132   -0.48 7  150 259 
 PTB  HN ES   1    214 43.16                             132   -0.90 7  150 259 
 PTB  HZ I         214 50.68         7.5 0.26                           150 259 
 ZAR  HZ EP   1    214 28.14                             122   -0.11 6  206 292 
 ZAR  HN ES   1    214 53.73                             122   -0.05 6  206 292 
 ZAR  HZ I         214 58.86         8.5 0.38                           206 292 
 SML  HN ES   1    215  0.36                             118   -0.62 6  244 335 
 SML  HZ I         215  3.33        10.0 0.10                           244 335 
 HEL  HZ EP   1    214 36.99                             115    0.95 6  274 256 
 HEL  HN ES   1    215  8.17                             115    0.53 6  274 256 
 HEL  HZ I         215 14.83         3.8 0.46                           274 256 
 MON  HZ EP   4    214 42.33                             109   -2.42 0  355 308 
 MON  HN ES   4    215 20.89                             109   -2.26 0  355 308 
                                                                                
