 2017  728 0704  6.5 L   6.804 -73.138146.0  RSN 13 0.4 1.5LRSN                1
 GAP=112        0.69       3.3     3.6  4.5 -0.8934E+00  0.5044E+01  0.1487E+01E
 Epicentro: LOS SANTOS - SANTANDER                                             3
 ACTION:UPD 17-08-30 15:37 OP:rebc STATUS:               ID:20170728070406 L   I
 OLDACT:UP  17-07-28 15:31 OP:and  STATUS:               ID:20170728065745     3
 OLDACT:UP  17-07-28 15:31 OP:and  STATUS:               ID:20170728065745     3
 OLDACT:UP  17-07-28 15:30 OP:and  STATUS:               ID:20170728065745     3
 OLDACT:UP  17-07-28 15:30 OP:and  STATUS:               ID:20170728065745     3
 OLDACT:UP  17-07-28 15:29 OP:and  STATUS:               ID:20170728065745     3
 OLDACT:UP  17-07-28 15:29 OP:and  STATUS:               ID:20170728065745     3
 OLDACT:REG 17-07-28 12:41 OP:and  STATUS:               ID:20170728065745     3
 2017-07-28-0658-00M.COL___379                                                 6
 STAT SP IPHASW D HRMM SECON CODA AMPLIT PERI AZIMU VELO AIN AR TRES W  DIS CAZ7
 BAR2 EZ EP        7 4 26.10                             170   -0.1110 23.9 192 
 BAR2 EZ ES        7 4 41.37                             170   -0.1810 23.9 192 
 BAR2 EZ I         7 4 42.44        15.1 0.20            170           23.9 192 
 BRR  HZ IP     C  7 4 27.95                             152    0.2010 71.7 298 
 BRR  HN ES   2    7 4 45.22                             152    0.93 5 71.7 298 
 BRR  HZ I         7 4 49.09         5.5 0.30            150           71.7 298 
 PAM  EZ IP     C  7 4 28.83                             151    0.1010 76.5  39 
 PAM  EN ES        7 4 45.94                             151   -0.1010 76.5  39 
 PAM  EZ I         7 4 48.40         5.5 0.34            154           76.5  39 
 RUS  HZ EP        7 4 30.49                             144    0.1510  101 177 
 RUS  HN ES        7 4 48.85                             144   -0.0610  101 177 
 RUS  HZ I         7 4 49.88         3.6 0.32            146            101 177 
 PTB  HZ EP        7 4 33.20                             132   -0.41 9  149 259 
 PTB  HN ES   2    7 4 54.14                             132   -0.58 5  149 259 
 PTB  HZ I         7 4 55.78         2.8 0.24            132            149 259 
 SPBC HZ EP   2    7 4 35.15                             129    0.01 5  164 219 
 SPBC HN ES   2    7 4 58.34                             129    0.89 5  164 219 
 SPBC HZ I         7 5  1.69         9.1 0.40            130            164 219 
 YPLC HZ EP        7 4 36.40                             126    0.05 9  177 152 
 ZAR  HZ EP   2    7 4 38.55                             122   -0.52 4  205 292 
 ZAR  HN ES   2    7 5  4.31                             122   -0.12 4  205 292 
 ZAR  HZ I         7 5  9.38         3.7 0.40            123            205 292 
 NOR  HN ES   2    7 5  9.60                             118   -0.74 4  236 234 
 NOR  HZ I         7 5 14.67         1.9 0.12            119            236 234 
 GUY2CHZ EP   2    7 4 51.13                             112    0.86 4  302 235 
 GUY2CHN ES   4    7 5 27.67                             112    3.30 0  302 235 
 GUY2CHZ I         7 5 29.24         2.0 0.20                           302 235 
 PTGC HZ EP   3    7 4 49.09                             111   -1.33 2  309 159 
 CBOC HZ EP   1    7 4 54.42                             110    0.85 5  335 252 
 CBOC HN ES   4    7 5 27.97                             110   -2.28 0  335 252 
 CBOC HZ I         7 5 32.98         0.6 0.38            111            335 252 
 PAL  HZ EP   1    7 5  1.74                             106   -0.08 4  407 239 
 SJC  HZ EP   4    7 5  0.17                             106   -1.95 0  409 327 
 SJC  HN ES   4    7 5 43.25                             106   -2.23 0  409 327 
                                                                                
