 2010  228 0727 35.8 L   6.841 -72.957141.4  RSN  7 0.3 2.0LRSN                1
 GAP=202        0.59       3.1     6.1  4.4  0.7702E+00  0.7141E+01 -0.1568E+01E
 Epicentro: CEPITA - SANTANDER                                                 3
 ACTION:UP  10-08-24 09:51 OP:vdl  STATUS:               ID:20100228072735 L   I
 2010-02-28-0726-51S.COL___093                                                 6
 STAT SP IPHASW D HRMM SECON CODA AMPLIT PERI AZIMU VELO SNR AR TRES W  DIS CAZ7
 BAR2 SZ EP        727 55.61                             165     0.310   37 222 
 BAR2 SZ ES        728 10.45                             165     0.010   37 222 
 BRR  HZ EP        727 57.33                             146    -0.310   88 290 
 BRR  HZ I         727 57.51        38.1 0.14                            88 290 
 BRR  HN ES   2    728 14.68                             146     0.1 5   88 290 
 RUS  BZ EP        727 59.66                             141     0.110  106 188 
 RUS  BN ES   1    728 18.02                             141     0.0 7  106 188 
 RUS  BZ I         728 19.93         9.6 0.48                           106 188 
 OCA  SZ EP        728  3.83                             129     0.1 9  160 346 
 OCA  SZ ES   2    728 25.24                             129    -0.3 5  160 346 
 CHI  HZ EP   2    728 13.94                             115    -0.5 4  259 199 
 CHI  HN ES   2    728 43.91                             115    -0.6 4  259 199 
 CHI  HZ I         728 57.22         3.6 0.45                           259 199 
 HEL  HZ EP        728 17.98                             112    -0.2 7  293 256 
 HEL  HN ES   2    728 51.97                             112     0.7 4  293 256 
 HEL  HZ I         728 56.15         7.0 0.49                           293 256 
 RREF BZ EP        728 24.11                             109     0.2 7  341 231 
 RREF BZ I         729 10.83         4.7 0.33                           341 231 
                                                                                
