 2017  428 0048 12.8 L   6.413 -73.592108.8  RSN  8 0.4 1.4LRSN                1
 GAP= 92        0.98       2.7     3.4  6.7 -0.1412E+01  0.8881E+00  0.1402E+01E
 Epicentro: SANTA HELENA DEL OPON - SANTANDER                                  3
 ACTION:UPD 17-05-30 21:16 OP:jn   STATUS:               ID:20170428004812 L   I
 OLDACT:UP  17-04-28 14:14 OP:and  STATUS:               ID:20170428003743     3
 OLDACT:UP  17-04-28 14:13 OP:and  STATUS:               ID:20170428003743     3
 OLDACT:UP  17-04-28 14:13 OP:and  STATUS:               ID:20170428003743     3
 OLDACT:UP  17-04-28 14:12 OP:and  STATUS:               ID:20170428003743     3
 OLDACT:UP  17-04-28 14:12 OP:and  STATUS:               ID:20170428003743     3
 OLDACT:UP  17-04-28 14:11 OP:and  STATUS:               ID:20170428003743     3
 OLDACT:REG 17-04-28 12:25 OP:and  STATUS:               ID:20170428003743     3
 2017-04-28-0038-00M.COL___362                                                 6
 STAT SP IPHASW D HRMM SECON CODA AMPLIT PERI AZIMU VELO AIN AR TRES W  DIS CAZ7
 BRR  HZ EP        048 30.76                             142    0.1710 77.9 350 
 BRR  HE ES        048 44.81                             142    0.3410 77.9 350 
 BRR  HZ I         048 51.65         7.3 0.48            143           77.9 350 
 RUS  HZ EP        048 31.59                             141    0.1210 80.5 136 
 RUS  HN ES        048 46.33                             141    0.2810 80.5 136 
 RUS  HZ I         048 47.58         6.1 0.42            146           80.5 136 
 PTB  HZ EP   9    048 31.09                             135   -1.04 0 96.6 278 
 PTB  HN ES        048 46.49                             135    0.3110 96.6 278 
 PTB  HZ I         048 48.17         2.8 0.32            137           96.6 278 
 SPBC HZ EP   2    048 32.05                             134   -0.43 5 99.5 212 
 SPBC HN ES        048 47.42                             134   -0.4210 99.5 212 
 SPBC HZ I         048 49.41         7.8 0.10            138           99.5 212 
 PAM  EZ EP        048 37.46                             124    0.37 9  142  44 
 PAM  EN ES        048 55.23                             124   -0.81 9  142  44 
 PAM  EZ I         048 57.41         4.1 0.34            127            142  44 
 NOR  HZ EP        048 39.26                             118   -0.15 9  170 236 
 NOR  HN ES        049  0.66                             118    0.49 9  170 236 
 NOR  HZ I         049  1.21         4.0 0.20            121            170 236 
 ZAR  HZ EP   2    048 40.73                             116   -0.16 4  184 311 
 ZAR  HE ES        049  2.49                             116   -0.33 9  184 311 
 ZAR  HZ I         049  7.49         3.2 0.10            118            184 311 
 CHI  HZ EP        048 43.46                             114    0.51 9  198 184 
 CHI  HN ES        049  5.97                             114   -0.50 9  198 184 
 CHI  HZ I         049 10.11         1.6 0.22            118            198 184 
                                                                                
