 2010  628 0705 32.5 L   7.268 -73.962 19.1  RSN  6 0.3 1.6LRSN                1
 GAP=246        0.76       4.1     5.7  4.4  0.6725E+00  0.2081E+01 -0.1371E+02E
 Epicentro: PUERTO WILCHES - SANTANDER                                         3
 ACTION:UP  10-08-24 10:13 OP:vdl  STATUS:               ID:20100628070532 L   I
 2010-06-28-0702-40S.COL___118                                                 6
 STAT SP IPHASW D HRMM SECON CODA AMPLIT PERI AZIMU VELO SNR AR TRES W  DIS CAZ7
 BRR  HZ EP        7 5 38.19                             116    -0.410   33 123 
 BRR  HN ES        7 5 43.56                             116     0.210   33 123 
 BRR  HZ I         7 5 44.37        49.6 0.12                            33 123 
 OCA  SZ EP        7 5 52.59                              56    -0.110  129  33 
 OCA  SZ ES   1    7 6  8.28                              56    -0.2 7  129  33 
 OCA  SZ I         7 6  8.92        13.9 0.24                           129  33 
 GUE  SZ EP        7 5 53.62                              56     0.510  130  61 
 BRI  SZ EP        7 5 53.98                              56     0.1 9  138  69 
 BRI  SZ ES   1    7 6 10.16                              56    -0.4 7  138  69 
 GRA  SZ EP        7 5 54.88                              56     0.1 9  145  62 
 GRA  SZ ES        7 6 12.23                              56     0.1 9  145  62 
 RUS  HZ EP   1    7 5 59.89                              56     0.3 7  181 147 
 RUS  HN ES   2    7 6 20.53                              56    -0.2 4  181 147 
 RUS  HZ I         7 6 22.17         3.7 0.26                           181 147 
                                                                                
