 2010  528 0454 29.2 L   6.844 -73.169135.0  RSN  6 0.8 1.7LRSN                1
 GAP=164        1.43      16.0    20.8 21.5 -0.2682E+03  0.2080E+03 -0.1051E+03E
 Epicentro: LOS SANTOS - SANTANDER                                             3
 ACTION:UP  10-08-24 10:07 OP:vdl  STATUS:               ID:20100528045429 L   I
 2010-05-28-0451-29S.COL___108                                                 6
 STAT SP IPHASW D HRMM SECON CODA AMPLIT PERI AZIMU VELO SNR AR TRES W  DIS CAZ7
 BAR2 SZ ES   2    455  2.25                             168     0.3 5   28 183 
 GUE  SZ EP        454 51.99                             137    -0.610  112  14 
 GRA  SZ EP   1    454 54.43                             135     1.3 7  122  19 
 GRA  SZ ES   2    455 11.92                             135     0.1 5  122  19 
 OCA  SZ EP   1    454 55.62                             127    -0.5 7  155 354 
 OCA  SZ ES   2    455 16.76                             127    -0.5 5  155 354 
 HEL  HZ EP   1    455  9.60                             112     0.9 6  271 255 
 HEL  HN ES   2    455 40.51                             112     1.0 4  271 255 
 HEL  HZ I         455 47.07         1.9 0.95                           271 255 
 RREF BN ES   1    455 49.55                             109    -1.2 5  323 228 
 RREF BZ I         456  1.97         3.2 0.96                           323 228 
                                                                                
