 2014  128 0600 47.9 L   6.809 -73.178140.3  RSN  6 0.2 1.5LRSN                1
 GAP=144        0.51       2.8     2.9  3.7 -0.3634E+01  0.3726E+01 -0.5607E+00E
 Epicentro: LOS SANTOS - SANTANDER                                             3
 ACTION:UPD 14-03-13 09:59 OP:ep   STATUS:               ID:20140128060047 L   I
 OLDACT:UP  14-01-28 11:45 OP:stll STATUS:               ID:20140128060000     3
 OLDACT:REG 14-01-28 08:03 OP:stll STATUS:               ID:20140128060000     3
 2014-01-28-0600-00M.COL___285                                                 6
 STAT SP IPHASW D HRMM SECON CODA AMPLIT PERI AZIMU VELO AIN AR TRES W  DIS CAZ7
 BAR2 SZ EP        6 1  6.97                             170    0.1010 24.0 181 
 BAR2 SZ ES        6 1 21.72                             170    0.0410 24.0 181 
 BAR2 SZ I         6 1 23.10         9.6 0.16            170           24.0 181 
 PAM  SZ EP        6 1  9.84                             149    0.2210 78.9  42 
 PAM  SZ I         6 1 10.07         7.2 0.26            152           78.9  42 
 PAM  SN ES        6 1 26.53                             149   -0.0410 78.9  42 
 PAM  SN I         6 1 28.92         8.5 0.54            152           78.9  42 
 RUS  HZ EP        6 1 10.93                             142   -0.2710  102 174 
 RUS  HE ES        6 1 29.25                             142   -0.1310  102 174 
 PTB  HZ EP        6 1 13.92                             131   -0.19 9  144 258 
 PTB  HN ES        6 1 34.40                             131   -0.16 9  144 258 
 PTB  HZ I         6 1 36.47         2.5 0.28            132            144 258 
 SPBC HZ EP        6 1 15.83                             128    0.00 9  162 218 
 SPBC HN ES        6 1 38.02                             128    0.39 9  162 218 
 SPBC HZ I         6 1 42.34         2.6 0.30            129            162 218 
 GUY2CHZ EP        6 1 31.09                             111    0.11 7  299 234 
 GUY2CHZ I         6 2 13.52         1.1 0.38                           299 234 
                                                                                
