 2013 1028 0557 17.6 L   6.771 -73.162146.2  RSN  6 0.5 1.5LRSN                1
 GAP=136        1.22       5.8     6.6  8.4 -0.9901E+01  0.8736E+01  0.4556E+01E
 Epicentro: LOS SANTOS - SANTANDER                                             3
 ACTION:UPD 13-11-25 09:24 OP:ep   STATUS:               ID:20131028055717 L   I
 OLDACT:REG 13-10-28 08:18 OP:jn   STATUS:               ID:20131028055001d    3
 2013-10-28-0550-00M.COL___273                                                 6
 STAT SP IPHASW D HRMM SECON CODA AMPLIT PERI AZIMU VELO AIN AR TRES W  DIS CAZ7
 BAR2 SZ EP        557 37.24                             172    0.0110 19.9 187 
 BAR2 SZ ES        557 52.53                             172   -0.0010 19.9 187 
 BAR2 SZ I         557 53.71        16.5 0.20            171           19.9 187 
 BRR  HZ EP        557 39.01                             152    0.2010 71.2 301 
 BRR  HN ES        557 56.16                             152    0.8210 71.2 301 
 BRR  HZ I         557 58.84         4.2 0.20            151           71.2 301 
 PAM  SZ EP        557 40.11                             150    0.0210 81.0  39 
 PAM  SN ES        557 57.15                             150   -0.4710 81.0  39 
 PAM  SZ I         557 59.37         4.2 0.54            153           81.0  39 
 RUS  HZ EP        557 41.24                             145    0.0510 97.6 175 
 RUS  HN ES        557 59.45                             145   -0.1310 97.6 175 
 RUS  HZ I         558  1.04         4.8 0.28            147           97.6 175 
 PTB  HZ EP        557 44.29                             132   -0.12 9  145 260 
 PTB  HN ES   1    558  3.62                             132   -1.68 7  145 260 
 PTB  HZ I         558 10.61         2.9 0.48            133            145 260 
 SPBC HZ EP        557 46.07                             130    0.26 9  160 219 
 SPBC HN ES        558  8.08                             130    0.28 9  160 219 
 SPBC HZ I         558 10.89         7.7 0.20            131            160 219 
                                                                                
