 2011 1128 0127 45.4 L   6.792 -73.148146.0  RSN  4 0.2 1.7LRSN                1
 GAP=137        0.56       4.0     8.5  9.0 -0.9794E+01  0.3763E+02 -0.5314E+01E
 Epicentro: LOS SANTOS - SANTANDER                                             3
 ACTION:UPD 12-07-13 16:12 OP:ep   STATUS:               ID:20111128012745 L   I
 2011-11-28-0125-52S.COL___160                                                 6
 STAT SP IPHASW D HRMM SECON CODA AMPLIT PERI AZIMU VELO AIN AR TRES W  DIS CAZ7
 BAR2 SZ EP        128  4.76                             171   -0.3010 22.4 190 
 BAR2 SZ I         128 20.99        10.2 0.36                          22.4 190 
 BRR  HZ EP        128  6.72                             152    0.1110 71.4 299 
 BRR  HZ I         128 25.45        27.6 0.46                          71.4 299 
 PAM  SZ EP        128  7.95                             151    0.2410 78.2  39 
 PAM  SN ES   1    128 24.95                             151   -0.15 7 78.2  39 
 RUS  HZ EP        128  9.02                             144   -0.1110 99.7 176 
 RUS  HN ES   1    128 27.88                             144    0.26 7 99.7 176 
 RUS  HZ I         128 29.87         3.6 0.32                          99.7 176 
                                                                                
