 2011  928 0557 21.6 L   6.812 -73.200139.6  RSN 11 0.4 2.3LRSN                1
 GAP=129        0.83       3.2     4.3  6.1 -0.1119E+01  0.9683E+01  0.3499E+01E
 Epicentro: ZAPATOCA - SANTANDER                                               3
 ACTION:UPD 12-07-13 16:00 OP:ep   STATUS:               ID:20110928055721 L   I
 2011-09-28-0554-23S.COL___165                                                 6
 STAT SP IPHASW D HRMM SECON CODA AMPLIT PERI AZIMU VELO AIN AR TRES W  DIS CAZ7
 BTL  SZ EP   1    557 40.81                             174    0.46 7 13.9 328 
 BAR2 SZ EP        557 40.66                             170    0.1310 24.4 175 
 BAR2 SZ ES   1    557 55.27                             170   -0.02 7 24.4 175 
 BRR  HZ EP   1    557 42.50                             153    0.73 7 65.3 300 
 BRR  HZ I         557 42.89        51.9 0.11                          65.3 300 
 BRR  HN ES   1    557 57.97                             153    0.48 7 65.3 300 
 PAM  SZ EP   1    557 43.42                             149    0.05 7 80.4  43 
 PAM  SZ I         557 43.79        20.3 0.18                          80.4  43 
 PAM  SN ES   1    558  0.31                             149   -0.02 7 80.4  43 
 RUS  HZ EP   1    557 44.48                             142   -0.43 7  103 173 
 RUS  HN ES   1    558  2.26                             142   -0.83 7  103 173 
 RUS  HZ I         558  4.38        14.6 0.25                           103 173 
 OCA  SZ EP   1    557 49.36                             129    0.09 7  158 355 
 OCA  SZ ES   1    558 10.54                             129   -0.29 7  158 355 
 OCA  SZ I         558 16.10        20.5 0.33                           158 355 
 ZAR  HZ EP   1    557 52.10                             122   -0.93 6  198 292 
 ZAR  HN ES   1    558 17.19                             122   -0.35 6  198 292 
 ZAR  HZ I         558 24.59        36.0 0.29                           198 292 
 NOR  SZ EP   1    557 56.62                             118    0.07 6  231 233 
 NOR  SN ES   1    558 23.55                             118   -0.26 6  231 233 
 CHI  HZ EP   1    557 58.64                             116   -0.32 6  248 194 
 CHI  HN ES   1    558 28.87                             116    0.78 6  248 194 
 CHI  HZ I         558 34.32         6.0 0.34                           248 194 
 HEL  HZ EP   1    558  1.02                             114    0.11 6  267 255 
 HEL  HN ES   1    558 31.44                             114   -0.12 6  267 255 
 HEL  HZ I         558 39.06        14.1 0.32                           267 255 
 PRA  HZ EP   1    558 14.88                             106    0.15 4  390 209 
 PRA  HN ES   1    558 56.85                             106    0.70 4  390 209 
 PRA  HZ I         559  4.14        24.1 0.26                           390 209 
                                                                                
