 2010 1228 0440 30.4 L   6.098 -73.628113.3  RSN  4 0.2 1.3LRSN                1
 GAP=176        0.45       4.1    15.9 13.6 -0.1351E+02  0.1999E+03 -0.5621E+01E
 Epicentro: CHIPATA - SANTANDER                                                3
 ACTION:UP  11-01-14 15:27 OP:pat  STATUS:               ID:20101228044030 L   I
 2010-12-28-0440-00M.COL___136                                                 6
 STAT SP IPHASW D HRMM SECON CODA AMPLIT PERI AZIMU VELO SNR AR TRES W  DIS CAZ7
 RUS  HZ EP   1    440 48.55                             149     0.1 7   64 111 
 RUS  HN ES   1    441  2.44                             149     0.0 7   64 111 
 RUS  HZ I         441  4.03         3.0 0.30                            64 111 
 BAR2 SZ EP   1    440 48.35                             145    -0.3 7   73  42 
 BAR2 SZ ES   1    441  2.94                             145     0.0 7   73  42 
 BAR2 SZ I         441  4.53        11.0 0.13                            73  42 
 BTL  SZ EP   1    440 50.85                             136     0.2 7   99  24 
 PRA  HZ EP   1    441 11.86                             105     0.0 5  298 208 
                                                                                
