 2013  428 0305 18.2 L   6.733 -73.123151.7  RSN  4 0.3 1.2LRSN                1
 GAP=235        0.54       5.5     5.8  8.0  0.1280E+01  0.1836E+01  0.1629E+02E
 Epicentro: JORDAN - SANTANDER                                                 3
 ACTION:UPD 13-05-22 14:41 OP:EP   STATUS:               ID:20130428030518 L   I
 2013-04-28-0300-00M.COL___248                                                 6
 STAT SP IPHASW D HRMM SECON CODA AMPLIT PERI AZIMU VELO AIN AR TRES W  DIS CAZ7
 BAR2 SZ EP   1    3 5 38.00                             173   -0.48 7 16.9 203 
 BRR  HZ EP   1    3 5 40.37                             152    0.00 7 77.1 302 
 BRR  HN ES   1    3 5 57.79                             152    0.16 7 77.1 302 
 BRR  HZ I         3 5 59.25         3.4 0.44            150           77.1 302 
 RUS  HZ EP   1    3 5 42.34                             147    0.27 7 93.1 177 
 RUS  HE ES   2    3 6  0.75                             147    0.09 5 93.1 177 
 RUS  HZ I         3 6  2.20         1.3 0.36            145           93.1 177 
 NOR  HZ EP   1    3 5 54.38                             120    0.28 6  233 236 
 NOR  HN ES   1    3 6 21.81                             120   -0.26 6  233 236 
 NOR  HZ I         3 6 27.67         1.6 0.28            119            233 236 
                                                                                
