 2016  928 0854 21.0 L   6.953 -73.121146.6  RSN  5 0.5 1.4LRSN                1
 GAP=187        0.93       4.9     6.9  8.4  0.4831E+00  0.1468E+02 -0.4124E+00E
 Epicentro: PIEDECUESTA - SANTANDER                                            3
 ACTION:UPD 17-08-17 21:17 OP:lp   STATUS:               ID:20160928085421 L   I
 OLDACT:UP  16-09-28 19:39 OP:dani STATUS:               ID:20160928084736d    3
 OLDACT:UP  16-09-28 19:39 OP:dani STATUS:               ID:20160928084736d    3
 OLDACT:DUP 16-09-28 19:35 OP:dani STATUS:               ID:20160928084736d    3
 2016-09-28-0848-00M.COL___375                                                 6
 STAT SP IPHASW D HRMM SECON CODA AMPLIT PERI AZIMU VELO AIN AR TRES W  DIS CAZ7
 BAR2 HZ EP        854 41.22                             164    0.0210 40.5 190 
 BAR2 HZ ES        854 57.41                             164    0.4510 40.5 190 
 BAR2 HZ I         855  1.21         6.3 0.52            165           40.5 190 
 RUS  HZ EP        854 46.09                             139   -0.0210  117 178 
 RUS  HE ES   3    855  4.12                             139   -1.57 2  117 178 
 RUS  HZ I         855  5.00         2.2 0.31            142            117 178 
 OCA  HE ES        855  8.44                             133   -0.41 9  144 351 
 PTB  HZ EP        854 48.37                             131   -0.30 9  155 253 
 PTB  HE ES        855  9.95                             131   -0.29 9  155 253 
 PTB  HZ I         855 11.42         3.6 0.12            133            155 253 
 ZAR  HZ EP        854 53.86                             123    0.67 9  201 287 
                                                                                
