 2012  428 0640 28.3 L   6.787 -73.158145.3  RSN  5 0.2 1.2LRSN                1
 GAP=136        0.51       4.5     4.2  8.0  0.1035E+02 -0.1102E+02 -0.1315E+02E
 Epicentro: LOS SANTOS - SANTANDER                                             3
 ACTION:UPD 12-07-05 11:56 OP:tino STATUS:               ID:20120428064028 L   I
 2012-04-28-0640-00M.COL___189                                                 6
 STAT SP IPHASW D HRMM SECON CODA AMPLIT PERI AZIMU VELO AIN AR TRES W  DIS CAZ7
 BAR2 SZ EP   1    640 47.65                             171    -0.2 7   22 187 
 BAR2 SZ I         640 55.84         2.7 0.58                            22 187 
 BRR  HZ EP   1    640 49.45                             153     0.1 7   71 300 
 BRR  HE ES   1    641  5.98                             153     0.2 7   71 300 
 BRR  HZ I         641  7.89         6.5 0.13                            71 300 
 PAM  SZ EP        640 50.47                             150    -0.110   79  40 
 RUS  HZ EP   1    640 52.19                             144     0.3 7   99 175 
 RUS  HN ES   1    641 10.10                             144    -0.2 7   99 175 
 RUS  HZ I         641 11.18         1.3 0.42                            99 175 
 ZAR  HN ES        641 25.68                             122    -0.1 9  203 293 
                                                                                
