 2011  728 0924 21.7 L   6.826 -72.936137.5  RSN  6 0.4 1.6LRSN                1
 GAP=219        0.77       8.3    13.8 14.8  0.1760E+01 -0.1028E+03 -0.5206E+02E
 Epicentro: CEPITA - SANTANDER                                                 3
 ACTION:UPD 12-07-25 14:03 OP:epov STATUS:               ID:20110728092421 L   I
 2011-07-28-0920-00M.COL___142                                                 6
 STAT SP IPHASW D HRMM SECON CODA AMPLIT PERI AZIMU VELO AIN AR TRES W  DIS CAZ7
 BAR2 SZ EP   1    924 40.76                             163    0.03 8 37.5 227 
 BAR2 SZ ES   2    924 55.46                             163   -0.11 5 37.5 227 
 BTL  SZ EP   1    924 41.40                             163    0.65 8 38.1 286 
 GIR2 SZ EP   1    924 40.92                             163    0.25 8 39.9 315 
 BRR  HZ EP   1    924 42.95                             144   -0.32 8 91.2 290 
 BRR  HN ES   2    924 59.75                             144   -0.34 5 91.2 290 
 BRR  HZ I         925  3.88         9.7 0.17                          91.2 290 
 GRA  SZ IP        924 45.05                             137   -0.5110  118   7 
 GRA  SZ I         924 46.16         5.7 0.36                           118   7 
 OCA  SZ EP   1    924 49.93                             127    0.39 7  162 345 
 OCA  SZ ES   2    925 11.62                             127    0.37 5  162 345 
 OCA  SZ I         925 16.73         5.3 0.23                           162 345 
                                                                                
