 2012  828 0226 40.1 L   6.767 -73.160144.0  RSN  9 0.4 1.9LRSN                1
 GAP= 73        0.67       5.8     6.1  6.3  0.1292E+02  0.2529E+01  0.4824E+01E
 Epicentro: LOS SANTOS - SANTANDER                                             3
 ACTION:UPD 12-09-10 11:58 OP:ep   STATUS:               ID:20120828022640 L   I
 2012-08-28-0220-00M.COL___218                                                 6
 STAT SP IPHASW D HRMM SECON CODA AMPLIT PERI AZIMU VELO AIN AR TRES W  DIS CAZ7
 BAR2 SZ EP        226 59.53                             172    0.0510 19.5 187 
 BAR2 SZ ES   1    227 14.05                             172   -0.51 7 19.5 187 
 BAR2 SZ I         227 17.13        22.3 0.28                          19.5 187 
 GIR2 SZ EP        226 59.57                             166   -0.1210 34.7 354 
 GIR2 SZ ES   3    227 14.86                             166   -0.08 2 34.7 354 
 BRR  HZ EP        227  1.35                             152    0.2410 71.6 302 
 BRR  HZ I         227  5.65        14.8 0.12                          71.6 302 
 BRR  HN ES   1    227 18.11                             152    0.63 7 71.6 302 
 PAM  SN ES   3    227 18.76                             149   -1.00 2 81.2  39 
 RUS  HZ EP        227  3.62                             144    0.1610 97.1 175 
 RUS  HN ES   2    227 22.01                             144    0.36 5 97.1 175 
 RUS  HZ I         227 23.22         5.5 0.14                          97.1 175 
 PTB  HZ EP        227  6.31                             132   -0.44 9  145 260 
 PTB  HN ES   3    227 26.86                             132   -0.65 2  145 260 
 PTB  HZ I         227 28.91         6.2 0.34                           145 260 
 TAM  HZ EP   2    227  7.91                             130    0.18 5  156 104 
 OCA  HN ES   3    227 29.90                             129   -0.96 2  164 354 
 OCA  HZ I         227 32.63        16.3 0.22                           164 354 
 ZAR  HN ES   3    227 37.78                             122    0.12 2  204 293 
 ZAR  HZ I         227 43.30         7.7 0.24                           204 293 
                                                                                
