 2011 1128 0948 46.5 L   6.767 -73.116142.8  RSN  5 0.1 1.5LRSN                1
 GAP=142        0.31       3.2     3.5  4.1 -0.2763E+01  0.2606E+01 -0.2800E+01E
 Epicentro: LOS SANTOS - SANTANDER                                             3
 ACTION:UPD 12-07-13 16:12 OP:ep   STATUS:               ID:20111128094846 L   I
 2011-11-28-0946-05S.COL___160                                                 6
 STAT SP IPHASW D HRMM SECON CODA AMPLIT PERI AZIMU VELO AIN AR TRES W  DIS CAZ7
 BAR2 SZ ES   2    949 20.65                             171   -0.09 5 20.7 201 
 BAR2 SZ I         949 21.86         7.8 0.58                          20.7 201 
 BRR  HZ EP        949  7.56                             150   -0.0710 75.8 300 
 BRR  HZ I         949 14.41         4.6 0.14                          75.8 300 
 BRR  HN ES   2    949 24.24                             150    0.15 5 75.8 300 
 PAM  SZ EP        949  8.55                             150    0.0710 78.2  36 
 PAM  SE ES   1    949 25.53                             150   -0.07 7 78.2  36 
 RUS  HN ES   2    949 27.87                             144    0.07 5 96.8 178 
 OCA  SZ ES   3    949 37.31                             128    0.12 2  164 352 
                                                                                
