 2017 1028 0401 31.8 L   6.817 -73.110146.4  RSN  9 0.7 1.6LRSN                1
 GAP=115        1.54       6.6     7.7  9.0 -0.1125E+02  0.1418E+02  0.5516E+01E
 Epicentro: LOS SANTOS - SANTANDER                                             3
 ACTION:UPD 17-11-07 19:38 OP:rebc STATUS:               ID:20171028040131 L   I
 OLDACT:UP  17-10-28 14:54 OP:dani STATUS:               ID:20171028035734     3
 OLDACT:UP  17-10-28 14:53 OP:dani STATUS:               ID:20171028035734     3
 OLDACT:REG 17-10-28 12:40 OP:dani STATUS:               ID:20171028035734     3
 2017-10-28-0358-00M.COL___450                                                 6
 STAT SP IPHASW D HRMM SECON CODA AMPLIT PERI AZIMU VELO AIN AR TRES W  DIS CAZ7
 BAR2 EZ EP        4 1 51.42                             170   -0.1410 26.1 198 
 BAR2 EZ ES        4 2  6.49                             170   -0.4910 26.1 198 
 BAR2 EZ I         4 2  7.57        16.3 0.34            167           26.1 198 
 PAM  EZ EP        4 1 54.54                             152    0.6910 73.4  38 
 PAM  EN ES        4 2 11.45                             152    0.4010 73.4  38 
 PAM  EZ I         4 2 13.61         5.5 0.52            150           73.4  38 
 BRR  HZ EP     C  4 1 53.28                             152    0.1110 73.9 296 
 BRR  HN ES        4 2 10.36                             152    0.5210 73.9 296 
 BRR  HZ I         4 2 13.64         9.3 0.36            143           73.9 296 
 RUS  HZ EP        4 1 55.55                             144   -0.1810  102 178 
 RUS  HN ES        4 2 13.98                             144   -0.4310  102 178 
 RUS  HZ I         4 2 15.14         3.5 0.28            143            102 178 
 PTB  HZ EP        4 1 58.24                             131   -0.97 9  152 258 
 PTB  HZ I         4 2 20.34         4.9 0.26            125            152 258 
 SPBC HN ES        4 2 22.77                             129   -0.52 9  167 220 
 SPBC HZ I         4 2 27.55         9.3 0.07            124            167 220 
 YPLC HZ EP        4 2  1.96                             127    0.34 9  177 153 
 GUY2CHZ EP        4 2 16.79                             112    0.86 7  306 235 
 GUY2CHE ES        4 2 51.57                             112    1.22 7  306 235 
 GUY2CHZ I         4 2 57.69         1.6 0.47                           306 235 
 SJC  HZ EP        4 2 25.70                             106   -1.75 6  410 326 
                                                                                
