 2012  128 0846 27.7 L   6.804 -73.162148.7  RSN  7 0.3 1.4LRSN                1
 GAP=134        0.76       4.6     4.5  8.3  0.2607E+01  0.5803E+01 -0.1167E+01E
 Epicentro: LOS SANTOS - SANTANDER                                             3
 ACTION:UP  12-02-03 08:21 OP:REBC STATUS:               ID:20120128084627 L   I
 2012-01-28-0840-00M.COL___188                                                 6
 STAT SP IPHASW D HRMM SECON CODA AMPLIT PERI AZIMU VELO SNR AR TRES W  DIS CAZ7
 BAR2 SZ EP   1    846 47.61                             171     0.0 8   24 185 
 GIR2 SZ EP   2    846 47.74                             168     0.1 5   31 353 
 BRR  HZ EP   1    846 49.56                             154     0.5 8   69 299 
 BRR  HN ES   1    847  6.01                             154     0.3 8   69 299 
 BRR  HZ I         847 10.32         6.8 0.14                            69 299 
 PAM  SZ EP   1    846 50.41                             151     0.2 8   78  41 
 PAM  SN ES   1    847  7.34                             151    -0.5 8   78  41 
 RUS  HZ EP   1    846 51.53                             144    -0.2 7  101 175 
 RUS  HE ES        847 10.73                             144     0.210  101 175 
 RUS  HZ I         847 11.52         2.4 0.29                           101 175 
 PTB  HZ EP   1    846 54.43                             133    -0.3 7  146 259 
 PTB  HN ES   1    847 15.26                             133    -0.6 7  146 259 
 ZAR  HN ES   1    847 25.59                             123     0.2 6  202 292 
 ZAR  HZ I         847 31.08         3.6 0.27                           202 292 
                                                                                
