 2013  228 0320 48.0 L   6.830 -73.146144.7  RSN  6 0.3 1.3LRSN                1
 GAP=183        0.63       3.9     4.9  7.6  0.6470E+01  0.1123E+01 -0.3074E+01E
 Epicentro: LOS SANTOS - SANTANDER                                             3
 ACTION:UPD 13-03-12 09:36 OP:ep   STATUS:               ID:20130228032048 L   I
 2013-02-28-0320-00M.COL___228                                                 6
 STAT SP IPHASW D HRMM SECON CODA AMPLIT PERI AZIMU VELO AIN AR TRES W  DIS CAZ7
 BAR2 SZ EP   1    321  7.70                             169    0.12 7 26.6 189 
 BAR2 SZ ES   1    321 23.01                             169    0.16 7 26.6 189 
 BAR2 SZ I         321 23.74         5.4 0.26            169           26.6 189 
 BRR  HZ EP   1    321  9.39                             153    0.43 7 69.7 296 
 BRR  HN ES   1    321 25.54                             153    0.24 7 69.7 296 
 BRR  HZ I         321 32.65         4.3 0.64            150           69.7 296 
 RUS  HZ EP   1    321 11.82                             143   -0.08 7  104 176 
 RUS  HN ES   1    321 30.34                             143   -0.19 7  104 176 
 RUS  HZ I         321 32.28         1.3 0.16            147            104 176 
 PTB  HN ES   1    321 35.45                             132   -0.52 7  148 258 
 PTB  HZ I         321 37.95         2.4 0.40            132            148 258 
 OCA  HE ES   1    321 37.21                             130   -0.50 7  157 353 
 ZAR  HE ES   1    321 45.67                             122    0.26 6  203 291 
 ZAR  HZ I         321 52.53         2.8 0.24            123            203 291 
                                                                                
