 2013 1128 0727 53.8 L   6.804 -73.164142.3  RSN 13 0.5 2.0LRSN 2.6WRSN        1
 SPEC AVERAGE  MO 13.0 ST 63.1 OM  1.1 f0 14.9 R0.3964 AL 0.00 WI 20.0 MW  2.6 3
 SPEC SD       MO  0.3 ST121.6 OM  0.4 f0 11.8 R0.5346 AL      WI      MW  0.2 3
 GAP=134        1.25       3.1     4.4  6.2 -0.2452E+01  0.8328E+01  0.4382E+00E
 Epicentro: LOS SANTOS - SANTANDER                                             3
 SPEC BAR2SH Z MO 13.1 ST 22.0 OM  1.3 f0 13.8 R0.1394 AL-0.00 WI 20.0 MW  2.7 3
 SPEC BAR2SH Z T 72826 K 0.050 GD  144 VS 5.20 DE 3.20 Q0750.0 QA 1.50 VS 5.20 3
 SPEC BRR HH Z MO 12.8 ST 12.3 OM  0.9 f0 15.0 R0.1283 AL-0.00 WI 20.0 MW  2.5 3
 SPEC BRR HH Z T 72829 K 0.050 GD  158 VS 5.20 DE 3.20 Q0750.0 QA 1.50 VS 5.20 3
 SPEC PAM SH Z MO 12.9 ST0.549 OM  1.0 f0 4.88 R0.3943 AL-0.00 WI 20.0 MW  2.5 3
 SPEC PAM SH Z T 72831 K 0.050 GD  162 VS 5.20 DE 3.20 Q0750.0 QA 1.50 VS 5.20 3
 SPEC RUS HH Z MO 13.9 ST0.054 OM  2.0 f0 1.02 R1.8863 AL-0.00 WI 20.0 MW  3.2 3
 SPEC RUS HH Z T 72834 K 0.050 GD  174 VS 5.20 DE 3.20 Q0750.0 QA 1.50 VS 5.20 3
 SPEC PTB HH Z MO 13.1 ST0.150 OM  1.1 f0 2.72 R0.7074 AL-0.00 WI 20.0 MW  2.7 3
 SPEC PTB HH Z T 72838 K 0.050 GD  203 VS 5.20 DE 3.20 Q0750.0 QA 1.50 VS 5.20 3
 SPEC SPBCHH Z MO 13.0 ST100.4 OM  1.0 f0 25.2 R0.0763 AL-0.00 WI 20.0 MW  2.6 3
 SPEC SPBCHH Z T 72842 K 0.050 GD  215 VS 5.20 DE 3.20 Q0750.0 QA 1.50 VS 5.20 3
 SPEC ZAR HH Z MO 12.8 ST 63.4 OM  0.7 f0 26.0 R0.0740 AL-0.00 WI 20.0 MW  2.5 3
 SPEC ZAR HH Z T 72849 K 0.050 GD  247 VS 5.20 DE 3.20 Q0750.0 QA 1.50 VS 5.20 3
 SPEC NOR HH Z MO 12.8 ST 16.0 OM  0.7 f0 15.9 R0.1210 AL-0.00 WI 20.0 MW  2.5 3
 SPEC NOR HH Z T 72855 K 0.050 GD  273 VS 5.20 DE 3.20 Q0750.0 QA 1.50 VS 5.20 3
 SPEC SML HH Z MO 13.0 ST415.4 OM  0.9 f0 40.0 R0.0481 AL-0.00 WI 20.0 MW  2.6 3
 SPEC SML HH Z T 72856 K 0.050 GD  280 VS 5.20 DE 3.20 Q0750.0 QA 1.50 VS 5.20 3
 SPEC HEL HH Z MO 12.8 ST0.429 OM  0.6 f0 4.95 R0.3887 AL-0.00 WI 20.0 MW  2.4 3
 SPEC HEL HH Z T 729 3 K 0.050 GD  305 VS 5.20 DE 3.20 Q0750.0 QA 1.50 VS 5.20 3
 SPECGUY2CHH Z MO 12.9 ST  0.2 OM  0.7 f0 3.67 R 0.525 AL-0.00 WI 20.0 MW  2.5 3
 SPECGUY2CHH Z T 729 9 K 0.050 GD332.0 VS 5.20 DE 3.20 Q0750.0 QA 1.50 VS 5.20 3
 OLDACT:REG 13-11-28 08:00 OP:stll STATUS:               ID:20131128071807     3
 ACTION:UPD 14-01-09 16:31 OP:ep   STATUS:               ID:20131128072753 L   I
 OLDACT:UP  13-11-28 11:10 OP:stll STATUS:               ID:20131128071807     3
 2013-11-28-0718-07M.COL___244                                                 6
 STAT SP IPHASW D HRMM SECON CODA AMPLIT PERI AZIMU VELO AIN AR TRES W  DIS CAZ7
 BAR2 SZ EP        728 13.19                             170    0.1910 23.5 185 
 BAR2 SZ ES        728 27.81                             170   -0.1810 23.5 185 
 BAR2 SZ I         728 29.86        44.4 0.56            170           23.5 185 
 BRR  HZ EP        728 15.00                             153    0.5610 69.2 299 
 BRR  HN ES        728 31.33                             153    0.7710 69.2 299 
 BRR  SZ I         728 32.66         9.4 0.12            150           69.2 299 
 PAM  SZ EP        728 16.09                             150    0.4010 78.3  41 
 PAM  SN ES        728 32.64                             150   -0.1310 78.3  41 
 PAM  SZ I         728 34.86        16.8 0.64            153           78.3  41 
 RUS  HZ EP        728 17.22                             143   -0.0110  101 175 
 RUS  HN ES        728 35.91                             143    0.3810  101 175 
 RUS  SZ I         728 36.91        10.5 0.26            146            101 175 
 PTB  HZ EP        728 19.62                             132   -0.68 9  146 259 
 PTB  HN ES        728 40.35                             132   -0.63 9  146 259 
 PTB  SZ I         728 47.77         8.2 0.46            131            146 259 
 OCA  HZ EP        728 22.53                             129    0.77 9  160 354 
 OCA  HN ES        728 42.86                             129   -0.73 9  160 354 
 OCA  SZ I         728 46.44         9.0 0.24            130            160 354 
 SPBC HZ EP        728 22.21                             128    0.28 9  162 218 
 SPBC HN ES        728 43.65                             128   -0.23 9  162 218 
 SPBC SZ I         728 48.80        16.4 0.34            129            162 218 
 ZAR  HZ EP        728 25.69                             122   -0.10 9  202 292 
 ZAR  HN ES        728 50.64                             122   -0.12 9  202 292 
 ZAR  SZ I         728 56.12         8.8 0.48            122            202 292 
 NOR  HZ EP        728 28.95                             118   -0.21 8  233 234 
 NOR  HE ES        728 56.76                             118   -0.00 8  233 234 
 NOR  SZ I         729  3.13         6.6 0.18            119            233 234 
 NOR  HZ I         729  3.13         7.0 0.16                           233 234 
 SML  HZ EP        728 29.55                             117   -0.53 8  242 336 
 SML  HN ES        728 57.73                             117   -0.67 8  242 336 
 SML  SZ I         729  9.84        11.9 1.30            118            242 336 
 CHI  HZ EP        728 30.93                             116   -0.35 8  249 195 
 CHI  HN ES        728 59.24                             116   -1.28 8  249 195 
 CHI  HZ I         729  4.47         5.5 0.50            118            249 195 
 HEL  HZ EP        728 34.19                             114    0.58 8  270 256 
 HEL  HN ES        729  5.39                             114    0.70 8  270 256 
 HEL  SZ I         729 11.26         5.4 0.28            115            270 256 
 GUY2CHZ EP        728 37.39                             112    0.32 7  300 234 
 GUY2CHN ES        729 11.38                             112    0.54 7  300 234 
 GUY2CSZ I         729 19.27         5.2 0.34                           300 234 
                                                                                
