 2011 1128 0527 21.1 L   6.826 -73.138141.3  RSN  5 0.3 1.3LRSN                1
 GAP=136        0.50       4.3     5.4  6.7 -0.6234E+01  0.8196E+01  0.1116E+02E
 Epicentro: LOS SANTOS - SANTANDER                                             3
 ACTION:UPD 12-07-13 16:12 OP:ep   STATUS:               ID:20111128052721 L   I
 2011-11-28-0524-35S.COL___160                                                 6
 STAT SP IPHASW D HRMM SECON CODA AMPLIT PERI AZIMU VELO AIN AR TRES W  DIS CAZ7
 BRR  HZ EP        527 41.62                             152   -0.0810 70.7 296 
 BRR  HE ES   2    527 57.75                             152   -0.05 5 70.7 296 
 BRR  HZ I         528  1.78         4.2 0.36                          70.7 296 
 PAM  SZ EP        527 42.70                             151    0.0610 74.6  40 
 PAM  SN ES   1    527 59.42                             151   -0.05 7 74.6  40 
 RUS  HZ EP   2    527 43.96                             142   -0.62 5  103 177 
 RUS  HE ES   2    528  3.03                             142    0.11 5  103 177 
 CTAU SZ EP        527 54.35                             121    0.31 8  206 209 
 CTAU SZ I         528 21.74         1.7 0.18                           206 209 
 CHI  HZ EP   3    527 57.82                             116   -1.02 2  252 195 
 CHI  HZ I         528 30.79         1.5 1.00                           252 195 
                                                                                
