 2014 1228 0646  1.5 L   6.788 -73.147146.0  RSN 11 0.4 2.1LRSN                1
 GAP= 71        0.94       3.2     2.9  5.3  0.1990E+00  0.2622E+01 -0.1429E+01E
 Epicentro: LOS SANTOS - SANTANDER                                             3
 ACTION:UPD 15-02-10 17:07 OP:nd   STATUS:               ID:20141228064601 L   I
 OLDACT:UP  14-12-28 17:40 OP:mh   STATUS:               ID:20141228063739     3
 OLDACT:REG 14-12-28 12:55 OP:mh   STATUS:               ID:20141228063739     3
 2014-12-28-0637-39M.COL___262                                                 6
 STAT SP IPHASW D HRMM SECON CODA AMPLIT PERI AZIMU VELO AIN AR TRES W  DIS CAZ7
 BAR2 EZ EP        646 21.29                             171    0.1410 22.0 190 
 BAR2 EZ ES        646 36.11                             171   -0.3510 22.0 190 
 BAR2 EZ I         646 37.06        27.3 0.24            167           22.0 190 
 BRR  HZ EP        646 23.24                             152    0.5210 71.7 299 
 BRR  HN ES        646 39.60                             152    0.3410 71.7 299 
 BRR  HZ I         646 42.74        19.7 0.14            149           71.7 299 
 PAM  SZ EP        646 24.04                             150    0.2210 78.4  39 
 PAM  SN ES        646 41.20                             150   -0.0210 78.4  39 
 PAM  SZ I         646 43.20        11.9 0.54            147           78.4  39 
 RUS  HZ EP   1    646 25.22                             144    0.02 7 99.3 176 
 RUS  HN ES        646 43.50                             144   -0.1710 99.3 176 
 RUS  HZ I         646 44.25         6.9 0.42            138           99.3 176 
 PTB  HZ EP   1    646 27.99                             132   -0.48 7  147 259 
 PTB  HN ES        646 48.63                             132   -0.87 9  147 259 
 PTB  HZ I         646 55.36        12.6 0.16            127            147 259 
 TAM  HZ EP        646 29.48                             130    0.29 9  155 105 
 TAM  HZ I         646 50.02         8.1 0.42            125            155 105 
 TAM  HN ES        646 50.39                             130   -0.38 9  155 105 
 SPBC HZ EP        646 30.09                             129    0.16 9  162 219 
 SPBC HN ES   1    646 53.07                             129    0.98 7  162 219 
 SPBC HZ I         646 59.91        16.4 0.22            123            162 219 
 ZAR  HZ EP        646 34.06                             122    0.04 9  204 292 
 ZAR  HN ES        646 59.35                             122   -0.02 9  204 292 
 ZAR  HZ I         647  5.02        15.6 0.56            118            204 292 
 NOR  HZ EP   1    646 36.53                             118   -0.64 6  234 235 
 NOR  HN ES        647  5.34                             118    0.36 8  234 235 
 NOR  HZ I         647 11.46        13.3 0.22            113            234 235 
 SML  HZ EP        646 37.92                             117   -0.36 8  245 335 
 SML  HN ES        647  6.94                             117   -0.01 8  245 335 
 SML  HZ I         647 12.62        18.3 0.20            113            245 335 
 TOL  SZ EP   4    646 47.36                             109   -2.31 0  343 225 
 TOL  SN ES   4    647 30.93                             109    3.71 0  343 225 
 TOL  SZ I         647 37.79        16.3 0.54            105            343 225 
                                                                                
