 2015  428 0235 26.0 L   6.795 -73.140149.8  RSN  9 0.4 1.9LRSN                1
 GAP=201        1.05       3.4     5.3  6.0  0.3842E+01  0.3864E+01 -0.8226E+00E
 Epicentro: LOS SANTOS - SANTANDER                                             3
 ACTION:UPD 15-06-03 16:58 OP:cam  STATUS:               ID:20150428023526 L   I
 OLDACT:UP  15-04-28 15:00 OP:drio STATUS:               ID:20150428022741     3
 OLDACT:REG 15-04-28 12:39 OP:drio STATUS:               ID:20150428022741     3
 2015-04-28-0227-41M.COL___286                                                 6
 STAT SP IPHASW D HRMM SECON CODA AMPLIT PERI AZIMU VELO AIN AR TRES W  DIS CAZ7
 BAR2 EZ EP        235 46.14                             171    0.0510 22.9 192 
 BAR2 EZ ES        236  1.06                             171   -0.7110 22.9 192 
 BAR2 EZ I         236  2.65        24.3 0.20            170           22.9 192 
 BRR  HZ EP        235 48.05                             153    0.4410 72.0 299 
 BRR  HN ES        236  5.06                             153    0.5810 72.0 299 
 BRR  HZ I         236  7.75         7.3 0.28            150           72.0 299 
 RUS  HZ EP        235 50.08                             145   -0.0110100.0 176 
 RUS  HN ES        236  9.31                             145    0.4210100.0 176 
 RUS  HZ I         236 10.35         7.9 0.30            146          100.0 176 
 PTB  HZ EP        235 53.05                             133   -0.27 9  148 259 
 PTB  HN ES        236 14.25                             133   -0.40 9  148 259 
 PTB  HZ I         236 16.29         8.8 0.20            132            148 259 
 SPBC HZ EP        235 55.20                             130    0.41 9  163 219 
 SPBC HN ES        236 17.45                             130    0.20 9  163 219 
 SPBC HZ I         236 22.78        13.1 0.14            130            163 219 
 ZAR  HZ EP        235 58.75                             123   -0.02 9  205 292 
 ZAR  HN ES        236 24.87                             123    0.52 9  205 292 
 ZAR  HZ I         236 31.41         5.1 0.30            123            205 292 
 NOR  HZ EP        236  2.10                             119    0.14 8  235 235 
 NOR  HE ES        236 29.70                             119   -0.33 8  235 235 
 NOR  HZ I         236 33.67         6.3 0.28            119            235 235 
 SML  HZ EP        236  2.70                             118   -0.22 8  244 335 
 SML  HN ES        236 31.00                             118   -0.73 8  244 335 
 SML  HZ I         236 38.26         6.1 0.10            119            244 335 
 CHI  HZ EP        236  4.09                             118    0.23 8  248 195 
 CHI  HN ES        236 32.64                             118   -0.77 8  248 195 
 CHI  HZ I         236 36.32         3.3 0.24            119            248 195 
                                                                                
