 2017  128 0649  8.8 L   5.962 -73.771105.4  RSN  4 0.3 1.1LRSN                1
 GAP=214        0.90       6.0     4.5  9.5  0.1133E+02  0.1195E+02  0.6717E+01E
 Epicentro: BOLIVAR - SANTANDER                                                3
 ACTION:UPD 17-05-22 16:04 OP:jn   STATUS:               ID:20170128064908 L   I
 OLDACT:UP  17-01-28 17:50 OP:lv   STATUS:               ID:20170128063743     3
 OLDACT:REG 17-01-28 13:23 OP:lv   STATUS:               ID:20170128063743     3
 2017-01-28-0638-00M.COL___334                                                 6
 STAT SP IPHASW D HRMM SECON CODA AMPLIT PERI AZIMU VELO AIN AR TRES W  DIS CAZ7
 RUS  HZ EP        649 27.38                             142    0.5110 76.5  96 
 RUS  HN ES        649 40.64                             142   -0.3110 76.5  96 
 BAR2 HZ EP        649 28.19                             135    0.1310 95.4  43 
 BAR2 HZ ES        649 43.03                             135   -0.0410 95.4  43 
 BAR2 HZ I         649 43.72         3.1 0.07            141           95.4  43 
 PTB  HZ EP        649 27.46                             133   -0.6210 99.2 310 
 PTB  HN ES        649 43.48                             133    0.3610 99.2 310 
 PTB  HZ I         649 47.31         2.4 0.38            135           99.2 310 
 BRR  HZ EP        649 30.66                             125   -0.0210  127   3 
 BRR  HN ES        649 47.71                             125   -0.0210  127   3 
                                                                                
