 2014  228 0045 49.6 L   6.784 -73.155143.4  RSN  4 0.3 1.3LRSN                1
 GAP=136        0.73       4.6     4.2  8.7  0.2461E+01  0.1204E+02 -0.5106E+01E
 Epicentro: LOS SANTOS - SANTANDER                                             3
 ACTION:UPD 14-03-10 08:14 OP:ep   STATUS:               ID:20140228004549 L   I
 OLDACT:UP  14-02-28 11:36 OP:fm   STATUS:               ID:20140228003822     3
 OLDACT:REG 14-02-28 08:37 OP:fm   STATUS:               ID:20140228003822     3
 2014-02-28-0038-22M.COL___183                                                 6
 STAT SP IPHASW D HRMM SECON CODA AMPLIT PERI AZIMU VELO AIN AR TRES W  DIS CAZ7
 PAM  SZ EP   2    046 11.58                             149   -0.06 5 79.4  39 
 PAM  SN ES   1    046 28.76                             149   -0.10 7 79.4  39 
 PAM  SZ I         046 29.89         2.5 0.12            152           79.4  39 
 RUS  HZ EP        046 13.44                             143    0.4910 98.9 175 
 RUS  HN ES        046 31.05                             143   -0.1510 98.9 175 
 RUS  HZ I         046 32.55         2.6 0.26            147           98.9 175 
 PTB  HZ EP   1    046 15.72                             131   -0.49 7  146 259 
 PTB  HN ES        046 36.87                             131   -0.12 9  146 259 
 PTB  HZ I         046 38.90         2.7 0.18            132            146 259 
 ZAR  HZ EP   1    046 21.46                             122   -0.36 6  204 293 
 ZAR  HN ES   1    046 47.52                             122    0.54 6  204 293 
 ZAR  HZ I         046 52.83         4.2 0.32            122            204 293 
                                                                                
