 2017  128 0428 28.2 L   6.759 -73.148145.1  RSN  5 0.4 1.0LRSN                1
 GAP=138        1.08       5.7     5.6  7.9 -0.2961E+01  0.5440E+01  0.1696E+01E
 Epicentro: LOS SANTOS - SANTANDER                                             3
 ACTION:UPD 17-05-22 16:04 OP:jn   STATUS:               ID:20170128042828 L   I
 OLDACT:DUP 17-01-28 16:48 OP:lv   STATUS:               ID:20170128041743d    3
 2017-01-28-0418-00M.COL___346                                                 6
 STAT SP IPHASW D HRMM SECON CODA AMPLIT PERI AZIMU VELO AIN AR TRES W  DIS CAZ7
 BAR2 EZ EP        428 47.68                             172   -0.0110 18.8 192 
 BAR2 EZ ES        429  3.01                             172    0.1410 18.8 192 
 BAR2 EZ I         429  3.69         2.3 0.19            172           18.8 192 
 BRR  HZ EP        428 49.49                             152    0.0710 73.3 302 
 BRR  HN ES        429  6.74                             152    0.7910 73.3 302 
 PAM  EZ EP        428 50.63                             150    0.0410 81.0  38 
 PAM  EN ES        429  7.46                             150   -0.5710 81.0  38 
 PAM  EZ I         429 10.26         2.0 0.31            151           81.0  38 
 RUS  HZ EP        428 51.98                             145    0.3910 96.1 176 
 RUS  HN ES        429  9.68                             145   -0.1310 96.1 176 
 RUS  HZ I         429 12.12         1.3 0.30            146           96.1 176 
 PTB  HZ EP        428 54.94                             132   -0.10 9  147 261 
 PTB  HN ES        429 15.23                             132   -0.73 9  147 261 
 PTB  HZ I         429 18.96         1.9 0.36            133            147 261 
                                                                                
