 2017  828 0947 23.0 L   6.528 -73.497137.8  RSN  4 0.3 1.1LRSN                1
 GAP=133        0.74       4.7     4.2  8.8  0.5113E+01  0.1782E+02  0.2979E+01E
 Epicentro: EL CARMEN - SANTANDER                                              3
 ACTION:UPD 17-09-04 20:25 OP:rebc STATUS:               ID:20170828094723 L   I
 OLDACT:UP  17-08-28 17:57 OP:edw  STATUS:               ID:20170828093737     3
 OLDACT:REG 17-08-28 13:11 OP:dhb  STATUS:               ID:20170828093737     3
 2017-08-28-0938-00M.COL___402                                                 6
 STAT SP IPHASW D HRMM SECON CODA AMPLIT PERI AZIMU VELO AIN AR TRES W  DIS CAZ7
 BAR2 EZ EP        947 41.77                             165   -0.2210 35.5  78 
 BAR2 EZ ES        947 56.50                             165   -0.3110 35.5  78 
 BAR2 EZ I         947 57.25         4.7 0.17            165           35.5  78 
 RUS  HZ EP        947 44.84                             147    0.0510 83.9 147 
 RUS  HN ES        948  2.20                             147    0.4210 83.9 147 
 RUS  HZ I         948  4.29         1.5 0.30            147           83.9 147 
 ZAR  HN ES        948 16.53                             123    0.32 9  184 305 
 NOR  HN ES        948 16.29                             123   -0.25 9  186 235 
                                                                                
