 2015  928 0521 18.0 L   6.813 -73.135142.9  RSN  8 0.5 1.5LRSN                1
 GAP=199        1.11       3.3     6.5  6.8 -0.1410E+01 -0.1666E+00 -0.9438E+00E
 Epicentro: LOS SANTOS - SANTANDER                                             3
 ACTION:UPD 15-10-28 16:28 OP:cam  STATUS:               ID:20150928052118 L   I
 OLDACT:UP  15-09-28 19:09 OP:ak   STATUS:               ID:20150928051747     3
 OLDACT:REG 15-09-28 12:58 OP:spq  STATUS:               ID:20150928051747     3
 2015-09-28-0517-47M.COL___349                                                 6
 STAT SP IPHASW D HRMM SECON CODA AMPLIT PERI AZIMU VELO AIN AR TRES W  DIS CAZ7
 BAR2 EZ EP   1    521 37.68                             170    0.40 7 25.0 192 
 BAR2 EZ ES        521 52.59                             170    0.2410 25.0 192 
 BAR2 EZ I         521 53.82         3.7 0.27            167           25.0 192 
 BRR  HZ EP        521 39.26                             152    0.4410 71.5 297 
 BRR  HN ES        521 55.37                             152    0.2910 71.5 297 
 BRR  HZ I         522  0.51         4.5 0.10            150           71.5 297 
 PTB  HZ EP        521 44.91                             131    0.08 9  149 258 
 PTB  HE ES        522  5.38                             131   -0.40 9  149 258 
 PTB  HZ I         522  7.70         3.7 0.19            130            149 258 
 OCA  HZ EP        521 45.80                             129   -0.12 9  159 353 
 OCA  HN ES        522  7.13                             129   -0.60 9  159 353 
 OCA  HZ I         522  9.19         8.3 0.14            132            159 353 
 SPBC HZ EP   1    521 45.60                             128   -0.82 7  165 219 
 SPBC HE ES        522  8.08                             128   -0.54 9  165 219 
 SPBC HZ I         522 19.00         3.7 0.23            128            165 219 
 ZAR  HZ EP        521 51.13                             122    0.86 9  205 292 
 ZAR  HN ES        522 15.92                             122    0.44 9  205 292 
 ZAR  HZ I         522 21.89         3.6 0.45            122            205 292 
 SML  HZ EP        521 54.03                             117   -0.30 8  243 335 
 SML  HE ES        522 22.19                             117   -0.51 8  243 335 
 CHI  HZ EP        521 56.27                             116    0.58 8  250 195 
 CHI  HE ES        522 24.67                             116   -0.45 8  250 195 
                                                                                
