 2011  428 0356 29.2 L   6.788 -73.127144.1  RSN  6 0.3 1.8LRSN                1
 GAP=140        0.62       3.1     4.9  5.7 -0.3574E+01  0.5246E+01 -0.1024E+01E
 Epicentro: LOS SANTOS - SANTANDER                                             3
 ACTION:UP  11-06-22 15:33 OP:REBC STATUS:               ID:20110428035629 L   I
 2011-04-28-0354-55S.COL___138                                                 6
 STAT SP IPHASW D HRMM SECON CODA AMPLIT PERI AZIMU VELO SNR AR TRES W  DIS CAZ7
 BAR2 SZ EP   1    356 48.43                             171    -0.2 7   23 196 
 BAR2 SZ ES   1    357  3.47                             171    -0.3 7   23 196 
 BAR2 SZ I         357  4.53        27.9 0.29                            23 196 
 BRR  HZ EP   1    356 50.27                             151     0.0 7   74 299 
 BRR  HZ I         356 50.40        29.9 0.17                            74 299 
 BRR  HE ES   1    357  7.19                             151     0.4 7   74 299 
 PAM  SZ EP   1    356 51.44                             151     0.2 7   77  38 
 PAM  SN ES   1    357  8.36                             151     0.0 7   77  38 
 PAM  SZ I         357 10.58         4.6 0.46                            77  38 
 RUS  HZ EP   1    356 53.08                             144     0.4 7   99 177 
 RUS  HE ES   1    357 11.00                             144     0.0 7   99 177 
 RUS  HZ I         357 12.03         8.2 0.22                            99 177 
 OCA  SZ EP   1    356 57.08                             129    -0.5 7  162 352 
 OCA  SZ ES   1    357 19.70                             129     0.1 7  162 352 
 OCA  SZ I         357 22.76         7.6 0.24                           162 352 
 NOR  SZ EP   2    357  5.21                             118     0.3 4  236 235 
 NOR  SN ES   1    357 32.54                             118    -0.3 6  236 235 
                                                                                
