 2014  828 0730 39.8 L   6.035 -73.711116.9  RSN  7 0.5 1.1LRSN                1
 GAP=104        0.97       4.8     4.7  8.4 -0.5134E+01  0.8695E+01  0.9638E+01E
 Epicentro: VELEZ - SANTANDER                                                  3
 ACTION:UPD 14-09-15 21:53 OP:nd   STATUS:               ID:20140828073039 L   I
 OLDACT:REG 14-08-28 13:18 OP:fm   STATUS:               ID:20140828072818     3
 2014-08-28-0728-18M.COL___263                                                 6
 STAT SP IPHASW D HRMM SECON CODA AMPLIT PERI AZIMU VELO AIN AR TRES W  DIS CAZ7
 SPBC HZ EP   1    730 56.73                             152   -0.52 7 58.3 223 
 SPBC HN ES        731 11.32                             152    0.4710 58.3 223 
 SPBC HZ I         731 12.72         4.8 0.18            153           58.3 223 
 RUS  HZ EP        730 58.94                             147    0.3010 71.3 103 
 RUS  HN ES   1    731 12.69                             147   -0.63 7 71.3 103 
 RUS  HZ I         731 18.82         1.7 0.58            147           71.3 103 
 BAR2 SZ ES   1    731 14.55                             142    0.14 7 84.9  43 
 PTB  HZ EP   1    730 59.39                             137   -0.72 7 99.6 304 
 PTB  HN ES   1    731 15.49                             137   -0.45 7 99.6 304 
 PTB  HZ I         731 17.11         2.1 0.30            142           99.6 304 
 BRR  HN ES   1    731 19.27                             131    0.40 7  119 360 
 GUY2CHZ EP   1    731 11.72                             116    0.57 6  204 244 
 GUY2CHN ES   1    731 35.94                             116    0.34 6  204 244 
 GUY2CHZ I         731 43.93         1.1 0.30                           204 244 
 PRA  HZ EP   1    731 20.43                             107    0.27 5  288 207 
 PRA  HN ES   1    731 50.93                             107   -0.70 5  288 207 
 PRA  HZ I         731 55.39         1.1 0.46            109            288 207 
                                                                                
