 2015 1228 0005  9.3 L   6.784 -73.129144.6  RSN 14 0.5 1.8LRSN                1
 GAP=139        1.04       2.6     3.9  5.4 -0.1501E+01  0.5646E+01  0.1721E+01E
 Epicentro: LOS SANTOS - SANTANDER                                             3
 ACTION:UPD 16-02-04 15:08 OP:cam  STATUS:               ID:20151228000509 L   I
 OLDACT:REG 15-12-28 12:31 OP:ak   STATUS:               ID:20151228000006     3
 2015-12-28-0000-06M.COL___332                                                 6
 STAT SP IPHASW D HRMM SECON CODA AMPLIT PERI AZIMU VELO AIN AR TRES W  DIS CAZ7
 BAR2 EZ ES        0 5 43.13                             171   -0.8510 22.0 196 
 BAR2 EZ I         0 5 45.50        11.3 0.12            169           22.0 196 
 BRR  HZ EP        0 5 30.86                             151    0.3610 73.7 299 
 BRR  HN ES        0 5 47.53                             151    0.5210 73.7 299 
 BRR  HZ I         0 5 48.77         8.0 0.12            150           73.7 299 
 PAM  EZ EP        0 5 31.86                             150    0.4210 77.7  38 
 PAM  EN ES        0 5 49.07                             150    0.3910 77.7  38 
 PAM  EZ I         0 5 50.95         5.8 0.38            153           77.7  38 
 RUS  HZ EP        0 5 32.83                             144   -0.0110 98.7 177 
 RUS  HN ES        0 5 50.84                             144   -0.3210 98.7 177 
 RUS  HZ I         0 5 52.53         6.2 0.30            145           98.7 177 
 PTB  HZ EP        0 5 35.92                             131   -0.42 9  149 260 
 PTB  HN ES        0 5 56.86                             131   -0.54 9  149 260 
 PTB  HZ I         0 5 59.07         9.0 0.12            131            149 260 
 OCA  HZ EP   2    0 5 38.05                             129    0.30 5  162 353 
 OCA  HE ES        0 5 59.82                             129   -0.09 9  162 353 
 OCA  HZ I         0 6  3.14        18.7 0.18            130            162 353 
 SPBC HZ EP        0 5 38.27                             129    0.55 9  163 220 
 SPBC HN ES        0 6  0.28                             129    0.42 9  163 220 
 SPBC HZ I         0 6  4.48        11.4 0.14            128            163 220 
 ZAR  HZ EP   2    0 5 41.41                             122   -0.54 4  206 292 
 ZAR  HN ES        0 6  8.27                             122    0.88 8  206 292 
 ZAR  HZ I         0 6 13.17         7.3 0.18            122            206 292 
 NOR  HZ EP        0 5 44.71                             118   -0.34 8  235 235 
 NOR  HE ES        0 6 12.68                             118   -0.22 8  235 235 
 NOR  HZ I         0 6 19.77         4.8 0.28            118            235 235 
 SML  HZ EP        0 5 45.33                             117   -0.83 8  246 335 
 SML  HN ES        0 6 14.26                             117   -0.62 8  246 335 
 SML  HZ I         0 6 17.58        10.3 0.10            118            246 335 
 CHI  HZ EP        0 5 47.00                             117    0.16 8  247 196 
 CHI  HN ES        0 6 16.25                             117    0.17 8  247 196 
 CHI  HZ I         0 6 22.34         2.1 0.32            117            247 196 
 HEL  HZ EP   3    0 5 48.85                             114   -0.79 2  273 256 
 HEL  HE ES        0 6 21.03                             114   -0.04 8  273 256 
 HEL  HZ I         0 6 28.03         3.8 0.48            114            273 256 
 GUY2CHZ EP   3    0 5 53.98                             112    1.03 2  302 235 
 GUY2CHE ES   1    0 6 27.24                             112    0.28 5  302 235 
 GUY2CHZ I         0 6 43.34         2.4 0.48                           302 235 
 PRA  HZ EP        0 6  2.71                             106   -0.03 6  391 210 
 PRA  HE ES        0 6 44.42                             106    0.03 6  391 210 
 PRA  HZ I         0 6 49.70         2.9 0.26            107            391 210 
                                                                                
