 2012 1028 0045 42.8 L   6.813 -73.145135.4  RSN  4 0.3 1.8LRSN                1
 GAP=136        0.56       3.9     4.2  9.1  0.6162E+01  0.1513E+02  0.1068E+02E
 Epicentro: LOS SANTOS - SANTANDER                                             3
 ACTION:UPD 12-11-22 17:06 OP:ep   STATUS:               ID:20121028004542 L   I
 2012-10-28-0040-00M.COL___231                                                 6
 STAT SP IPHASW D HRMM SECON CODA AMPLIT PERI AZIMU VELO AIN AR TRES W  DIS CAZ7
 PAM  SZ EP   1    046  3.35                             149   -0.48 9 76.3  40 
 PAM  SN ES   2    046 20.65                             149    0.40 6 76.3  40 
 PAM  SN I         046 21.56         7.0 0.18                          76.3  40 
 RUS  HZ EP   1    046  5.82                             141    0.19 9  102 176 
 RUS  HN ES   2    046 23.47                             141    0.02 6  102 176 
 ZAR  HZ EP   1    046 14.94                             120    0.42 7  204 292 
 ZAR  HN ES        046 39.09                             120   -0.1810  204 292 
 ZAR  HN I         046 43.68        12.5 0.56                           204 292 
 CHI  HZ EP   1    046 20.17                             115    0.10 7  250 195 
 CHI  HN ES   2    046 49.02                             115   -0.14 5  250 195 
 CHI  HN I         046 53.86         3.7 0.42                           250 195 
                                                                                
