 2015  528 0908 44.5 L   6.801 -73.075151.1  RSN  5 0.4 1.5LRSN                1
 GAP=234        0.79       4.8     6.8  6.5  0.8102E+01 -0.2019E+00 -0.7181E+01E
 Epicentro: LOS SANTOS - SANTANDER                                             3
 ACTION:UPD 15-09-10 22:07 OP:cam  STATUS:               ID:20150528090844 L   I
 OLDACT:REG 15-05-28 12:56 OP:spq  STATUS:               ID:20150528090750     3
 2015-05-28-0907-50M.COL___303                                                 6
 STAT SP IPHASW D HRMM SECON CODA AMPLIT PERI AZIMU VELO AIN AR TRES W  DIS CAZ7
 BAR2 EZ EP        9 9  4.99                             170    0.1910 25.9 207 
 BAR2 EZ ES   1    9 9 19.90                             170   -0.75 7 25.9 207 
 BAR2 EZ I         9 9 23.40         3.5 0.26            165           25.9 207 
 BRR  HZ EP        9 9  6.89                             151    0.2910 78.1 296 
 BRR  HN ES        9 9 24.27                             151    0.4210 78.1 296 
 BRR  HZ I         9 9 29.57         2.6 0.24            149           78.1 296 
 SPBC HZ EP   1    9 9 13.58                             129   -0.29 7  168 221 
 SPBC HN ES   1    9 9 36.99                             129    0.20 7  168 221 
 SPBC HZ I         9 9 42.54         5.2 0.10            130            168 221 
 ZAR  HZ EP        9 9 17.67                             123   -0.35 8  211 291 
 ZAR  HN ES        9 9 43.98                             123   -0.20 8  211 291 
 ZAR  HZ I         9 9 49.52         3.0 0.32            123            211 291 
 SML  HZ EP        9 9 21.90                             118    0.13 8  247 334 
 SML  HE ES   1    9 9 50.49                             118   -0.36 6  247 334 
 SML  HZ I         9 9 52.34         3.7 0.28            121            247 334 
                                                                                
