 2017  328 0558 56.4 L   6.831 -73.097145.6  RSN  7 0.3 1.3LRSN                1
 GAP=141        0.63       5.0     4.5  6.0 -0.7286E+01 -0.6714E+01  0.4902E+01E
 Epicentro: LOS SANTOS - SANTANDER                                             3
 ACTION:UPD 17-05-25 18:46 OP:jn   STATUS:               ID:20170328055856 L   I
 OLDACT:UP  17-03-28 15:40 OP:and  STATUS:               ID:20170328055743     3
 OLDACT:UP  17-03-28 15:38 OP:and  STATUS:               ID:20170328055743     3
 OLDACT:UP  17-03-28 15:38 OP:and  STATUS:               ID:20170328055743     3
 OLDACT:UP  17-03-28 15:38 OP:and  STATUS:               ID:20170328055743     3
 OLDACT:REG 17-03-28 12:43 OP:and  STATUS:               ID:20170328055743     3
 2017-03-28-0558-00M.COL___360                                                 6
 STAT SP IPHASW D HRMM SECON CODA AMPLIT PERI AZIMU VELO AIN AR TRES W  DIS CAZ7
 BAR2 EZ ES   2    559 31.61                             168    0.10 5 28.1 200 
 PAM  EZ IP     D  559 18.71                             153    0.4410 71.3  38 
 PAM  EN ES        559 34.98                             153   -0.3210 71.3  38 
 PAM  EZ I         559 38.55         1.7 0.28            156           71.3  38 
 BRR  HZ EP        559 17.50                             151   -0.2410 74.5 294 
 BRR  HN ES        559 34.56                             151    0.1910 74.5 294 
 BRR  HZ I         559 50.05         9.5 0.32            145           74.5 294 
 RUS  HZ EP   2    559 20.48                             143    0.09 5  104 179 
 RUS  HN ES   2    559 38.64                             143   -0.45 5  104 179 
 PTB  HZ EP   9    559 22.72                             130   -1.20 0  154 258 
 PTB  HN ES        559 44.33                             132    0.16 9  154 258 
 PTB  HZ I         559 48.88         1.7 0.31            131            154 258 
 SPBC HN ES   2    559 48.33                             128    0.16 5  169 220 
 SPBC HZ I         559 52.42         1.8 0.15            131            169 220 
 ZAR  HN ES   3    559 54.05                             121   -0.80 2  208 291 
 ZAR  HZ I         6 0  3.06         1.8 0.07            122            208 291 
 NOR  HZ EP   4    559 31.30                             117   -1.53 0  241 235 
                                                                                
