 2014  428 0315 44.1 L   6.762 -73.197149.0  RSN  6 0.4 1.7LRSN                1
 GAP=196        0.90       4.2     6.0  7.7  0.9356E+01 -0.1167E+01 -0.5022E+01E
 Epicentro: VILLANUEVA - SANTANDER                                             3
 ACTION:UPD 14-05-13 23:12 OP:nd   STATUS:               ID:20140428031544 L   I
 OLDACT:UP  14-04-28 17:31 OP:mh   STATUS:               ID:20140428030813     3
 OLDACT:REG 14-04-28 13:01 OP:mh   STATUS:               ID:20140428030813     3
 2014-04-28-0308-13M.COL___248                                                 6
 STAT SP IPHASW D HRMM SECON CODA AMPLIT PERI AZIMU VELO AIN AR TRES W  DIS CAZ7
 BRR  HZ EP        316  5.77                             154    0.3510 68.5 304 
 BRR  HN ES        316 22.41                             154    0.3310 68.5 304 
 BRR  HZ I         316 26.93         7.1 0.14            156           68.5 304 
 RUS  HZ EP   1    316  7.23                             145   -0.66 7 97.0 173 
 RUS  HN ES        316 26.36                             145   -0.1010 97.0 173 
 PTB  HZ EP        316 10.71                             134   -0.03 9  141 260 
 PTB  HN ES        316 30.78                             134   -0.77 9  141 260 
 SPBC HZ EP        316 12.67                             131    0.48 9  156 218 
 SPBC HN ES        316 34.30                             131    0.18 9  156 218 
 SPBC HZ I         316 37.56         6.2 0.21            134            156 218 
 ZAR  HZ EP   2    316 16.40                             124    0.04 4  200 294 
 ZAR  HN ES        316 41.68                             124    0.13 9  200 294 
 SML  HZ EP   2    316 20.81                             118   -0.23 4  245 337 
 SML  HN ES   1    316 49.54                             118   -0.34 6  245 337 
 GUY2CHE ES   4    317  3.44                             113    2.88 0  294 235 
 RREF HE ES   4    317  7.42                             112    2.38 0  315 229 
                                                                                
