 2015  628 0714 32.5 L   6.755 -73.135136.7  RSN  6 0.4 1.7LRSN                1
 GAP=203        0.80       4.6     6.4  6.3  0.3607E+01  0.1561E+02 -0.2310E+01E
 Epicentro: LOS SANTOS - SANTANDER                                             3
 ACTION:UPD 15-09-10 22:15 OP:cam  STATUS:               ID:20150628071432 L   I
 OLDACT:REG 15-06-28 12:45 OP:drio STATUS:               ID:20150628070750     3
 2015-06-28-0707-50M.COL___310                                                 6
 STAT SP IPHASW D HRMM SECON CODA AMPLIT PERI AZIMU VELO AIN AR TRES W  DIS CAZ7
 BAR2 EZ EP        714 51.36                             172    0.4210 18.7 196 
 BAR2 EZ ES        715  4.81                             172   -0.5210 18.7 196 
 BAR2 EZ I         715  8.42         7.7 0.34            168           18.7 196 
 BRR  HZ EP        714 53.14                             150    0.2610 74.7 301 
 BRR  HN ES   3    715 10.30                             150    1.52 2 74.7 301 
 BRR  HZ I         715 14.29         7.5 0.16            148           74.7 301 
 OCA  HZ EP        715  0.72                             126    0.11 9  165 353 
 OCA  HN ES   4    715 21.08                             126   -1.46 0  165 353 
 OCA  HZ I         715 25.44        11.0 0.20            130            165 353 
 ZAR  HZ EP        715  4.55                             120   -0.13 8  207 293 
 ZAR  HN ES        715 29.61                             120   -0.17 8  207 293 
 ZAR  HZ I         715 34.54         4.9 0.24            121            207 293 
 MON  HZ EP        715 21.31                             106   -0.31 6  358 309 
 MON  HN ES   4    715 56.70                             106   -3.25 0  358 309 
 PRA  HZ EP        715 24.83                             105   -0.43 6  388 210 
 PRA  HE ES        716  6.83                             105    0.40 6  388 210 
 PRA  HZ I         716 13.68         2.0 0.36            107            388 210 
                                                                                
