 2011  128 0634 49.4 L   6.816 -73.091144.0  RSN  5 0.3 1.9LRSN                1
 GAP=165        0.81       4.5    17.5  6.2 -0.5483E+02 -0.8357E+01  0.1816E+01E
 Epicentro: LOS SANTOS - SANTANDER                                             3
 ACTION:UP  11-02-08 08:43 OP:pat  STATUS:               ID:20110128063449 L   I
 2011-01-28-0633-21S.COL___138                                                 6
 STAT SP IPHASW D HRMM SECON CODA AMPLIT PERI AZIMU VELO SNR AR TRES W  DIS CAZ7
 BTL  SZ EP        635  9.00                             171     0.210   23 300 
 BTL  SZ ES   1    635 24.31                             171     0.3 7   23 300 
 BAR2 SZ EP        635  8.65                             169    -0.310   27 203 
 BAR2 SZ ES        635 23.80                             169    -0.310   27 203 
 RUS  HZ EP   1    635 12.94                             143    -0.2 7  102 180 
 RUS  HN ES        635 31.90                             143     0.310  102 180 
 RUS  HZ I         635 32.70         9.6 0.69                           102 180 
 GRA  SZ IP     D  635 14.68                             137     0.410  122  15 
 GRA  SZ I         635 15.96        13.4 0.25                           122  15 
 GRA  SZ ES        635 33.26                             137    -0.310  122  15 
 CHI  HZ EP   1    635 27.25                             116    -0.1 6  252 196 
 CHI  HE ES   1    635 56.86                             116    -0.1 6  252 196 
 CHI  HZ I         635 59.08         5.1 0.60                           252 196 
                                                                                
