 2014  928 0718 25.4 L   6.817 -73.155147.9  RSN 20 0.4 2.1LRSN                1
 GAP= 70        0.90       2.5     3.0  4.8 -0.5932E+00  0.2059E+01  0.2443E+01E
 Epicentro: LOS SANTOS - SANTANDER                                             3
 ACTION:UPD 14-10-03 23:09 OP:nd   STATUS:               ID:20140928071825 L   I
 OLDACT:DUP 14-09-28 17:31 OP:spq  STATUS:               ID:20140928070817d    3
 2014-09-28-0708-16M.COL___295                                                 6
 STAT SP IPHASW D HRMM SECON CODA AMPLIT PERI AZIMU VELO AIN AR TRES W  DIS CAZ7
 BAR2 SZ EP        718 45.20                             170   -0.1010 25.0 187 
 BAR2 SZ ES   1    719  0.56                             170   -0.28 7 25.0 187 
 BAR2 SZ I         719  1.38        22.4 0.22            169           25.0 187 
 BRR  HZ IP     D  718 47.03                             153    0.3710 69.4 298 
 BRR  HN ES        719  4.12                             153    0.8610 69.4 298 
 BRR  HZ I         719  5.29        13.3 0.12            152           69.4 298 
 PAM  SZ EP        718 48.18                             151    0.4010 76.6  41 
 PAM  SN ES   1    719  5.26                             151    0.01 7 76.6  41 
 PAM  SZ I         719  7.33        29.9 0.42            153           76.6  41 
 RUS  HN ES   1    719  8.16                             144   -0.11 7  102 176 
 RUS  HZ I         719  9.05        16.1 0.36            144            102 176 
 PTB  HZ EP        718 51.87                             133   -0.60 9  147 258 
 PTB  HE ES        719 13.63                             133    0.04 9  147 258 
 PTB  HZ I         719 19.95        12.9 0.22            132            147 258 
 TAM  HZ IP     D  718 53.61                             131    0.25 9  157 106 
 TAM  HE ES   1    719 15.15                             131   -0.03 7  157 106 
 TAM  HZ I         719 21.80         6.6 0.56            132            157 106 
 OCA  HZ EP   1    718 53.22                             130   -0.46 7  158 353 
 OCA  HN ES        719 15.13                             130   -0.62 9  158 353 
 OCA  HZ I         719 19.76        13.0 0.36            131            158 353 
 SPBC HZ EP        718 54.03                             129   -0.09 9  164 218 
 SPBC HN ES        719 16.00                             129   -0.53 9  164 218 
 SPBC HZ I         719 18.75        21.3 0.36            129            164 218 
 ZAR  HZ EP        718 58.35                             123    0.55 9  202 292 
 ZAR  HE ES        719 22.97                             123   -0.11 9  202 292 
 ZAR  HZ I         719 31.99         9.5 0.26            123            202 292 
 SML  HZ EP   1    719  1.51                             118   -0.39 6  242 335 
 SML  HE ES   1    719 29.85                             118   -0.54 6  242 335 
 SML  HZ I         719 33.67        19.7 0.10            118            242 335 
 CHI  HZ EP   1    719  3.29                             117   -0.07 6  250 195 
 CHI  HN ES        719 32.56                             117   -0.42 8  250 195 
 CHI  HZ I         719 36.22         8.2 0.50            117            250 195 
 ROSC BZ EP   4    719  5.80                             117    2.07 0  254 211 
 ROSC BN ES   4    719 35.75                             117    2.11 0  254 211 
 ROSC BZ I         719 39.91        11.7 0.50            117            254 211 
 GUY2CHZ EP   1    719  9.42                             113    0.30 5  301 234 
 GUY2CHN ES   4    719 45.32                             113    2.09 0  301 234 
 GUY2CHZ I         719 49.38         5.3 0.34                           301 234 
 PTGC HZ EP   4    719  8.42                             112   -1.15 0  311 159 
 PTGC HE ES   4    719 41.67                             112   -2.36 0  311 159 
 PTGC HZ I         719 46.69         9.8 0.28            112            311 159 
 CBOC HZ EP   1    719 12.31                             110   -0.03 5  333 252 
 CBOC HN ES   1    719 48.98                             110    0.01 5  333 252 
 CBOC HZ I         719 57.78         3.1 0.10            110            333 252 
 TOL  SZ EP        719 14.55                             110    0.76 7  344 224 
 TOL  SE ES   4    719 53.75                             110    2.20 0  344 224 
 TOL  SZ I         719 58.78        12.1 0.54            110            344 224 
 MON  HZ EP   4    719 12.22                             109   -2.02 0  352 308 
 MON  HN ES   4    719 50.79                             109   -1.56 0  352 308 
 MON  HZ I         719 59.36         1.5 0.18            109            352 308 
 PRA  HZ EP        719 19.03                             107   -0.07 6  393 209 
 PRA  HN ES   1    720  0.78                             107   -0.23 4  393 209 
 PRA  HZ I         720  3.66         2.1 0.24            107            393 209 
 ORTC HZ EP        719 19.34                             107   -0.14 6  396 216 
 ORTC HN ES        720  2.36                             107    0.69 6  396 216 
 ORTC HZ I         720  6.57         3.4 0.34            107            396 216 
 SJC  HZ EP   4    719 19.34                             106   -1.43 0  407 327 
 SJC  HN ES   4    720  0.45                             106   -3.52 0  407 327 
 SJC  HZ I         720  4.87         1.8 0.54            106            407 327 
                                                                                
