 2014  328 0622 47.9 L   6.814 -73.180140.3  RSN 11 0.5 1.8LRSN                1
 GAP=132        1.13       3.0     4.1  6.6 -0.2011E+01  0.1177E+02 -0.1058E+01E
 Epicentro: LOS SANTOS - SANTANDER                                             3
 ACTION:UPD 14-04-09 23:21 OP:nd   STATUS:               ID:20140328062247 L   I
 OLDACT:REG 14-03-28 07:43 OP:carl STATUS:               ID:20140328062042     3
 2014-03-28-0620-42M.COL___253                                                 6
 STAT SP IPHASW D HRMM SECON CODA AMPLIT PERI AZIMU VELO AIN AR TRES W  DIS CAZ7
 BAR2 SZ EP        623  7.03                             170    0.1710 24.5 181 
 BAR2 SZ ES        623 21.39                             170   -0.2910 24.5 181 
 BAR2 SZ I         623 22.75        22.7 0.20            169           24.5 181 
 PAM  SZ EP        623 10.18                             149    0.6010 78.7  42 
 PAM  SN ES        623 26.73                             149    0.2110 78.7  42 
 PAM  SZ I         623 28.87        24.4 0.52            154           78.7  42 
 RUS  HZ EP        623 11.03                             142   -0.1910  102 174 
 RUS  HN ES        623 29.39                             142   -0.0510  102 174 
 RUS  HZ I         623 31.00         8.2 0.28            145            102 174 
 PTB  HZ EP        623 13.94                             131   -0.13 9  144 258 
 PTB  HE ES        623 35.03                             131    0.52 9  144 258 
 PTB  HZ I         623 38.03         9.0 0.20            131            144 258 
 OCA  HZ EP        623 14.95                             129   -0.61 9  158 354 
 OCA  HN ES        623 36.95                             129   -0.22 9  158 354 
 OCA  HZ I         623 41.05        12.3 0.18            131            158 354 
 ZAR  HZ EP        623 20.49                             122    0.97 9  200 292 
 ZAR  HN ES        623 44.57                             122    0.35 9  200 292 
 ZAR  HZ I         623 51.14         7.6 0.28            122            200 292 
 NOR  HZ EP        623 23.68                             118    0.64 8  233 234 
 NOR  HN ES        623 50.20                             118   -0.28 8  233 234 
 NOR  HZ I         623 58.30         4.9 0.16            119            233 234 
 SML  HZ EP        623 23.29                             117   -0.57 8  241 336 
 SML  HN ES        623 51.58                             117   -0.35 8  241 336 
 CHI  HZ EP        623 25.20                             116   -0.12 8  249 194 
 CHI  HN ES        623 54.27                             116   -0.27 8  249 194 
 CHI  HZ I         623 57.68         2.4 0.24            118            249 194 
 HEL  HZ EP        623 27.33                             114   -0.10 8  269 255 
 HEL  HN ES        623 56.99                             114   -1.30 8  269 255 
 HEL  HZ I         624  7.45         2.8 0.42            115            269 255 
 CBOC HZ EP        623 34.28                             109    0.09 7  330 252 
 CBOC HN ES        624 10.96                             109    0.63 7  330 252 
 CBOC HZ I         624 15.88         1.2 0.22            110            330 252 
                                                                                
