 2014  128 0634 46.5 L   6.813 -73.151137.8  RSN 16 0.5 2.3LRSN                1
 GAP= 70        1.21       2.9     3.2  5.9 -0.1797E+01  0.5226E+01  0.2812E+00E
 Epicentro: LOS SANTOS - SANTANDER                                             3
 ACTION:UPD 14-03-13 09:59 OP:ep   STATUS:               ID:20140128063446 L   I
 OLDACT:REG 14-01-28 08:03 OP:stll STATUS:               ID:20140128063000     3
 2014-01-28-0630-00M.COL___285                                                 6
 STAT SP IPHASW D HRMM SECON CODA AMPLIT PERI AZIMU VELO AIN AR TRES W  DIS CAZ7
 BAR2 SZ IP     D  635  5.77                             169    0.5310 24.6 188 
 BAR2 SZ ES        635 19.79                             169   -0.0410 24.6 188 
 BAR2 SZ I         635 21.33        66.3 0.26            169           24.6 188 
 PAM  SZ IP     C  635  8.64                             149    0.7710 76.7  41 
 PAM  SN ES        635 25.20                             149    0.6910 76.7  41 
 PAM  SZ I         635 27.54        57.8 0.54            153           76.7  41 
 RUS  HZ EP        635  9.77                             142    0.1410  102 176 
 RUS  HN ES        635 27.42                             142   -0.2110  102 176 
 RUS  HZ I         635 29.75         5.4 0.18            143            102 176 
 PTB  HZ EP        635 12.39                             130   -0.45 9  147 258 
 PTB  HN ES        635 32.77                             130   -0.58 9  147 258 
 PTB  HZ I         635 35.76        27.2 0.14            130            147 258 
 TAM  HZ IP     D  635 14.14                             128    0.45 9  156 105 
 TAM  HZ I         635 14.27        29.2 0.20            132            156 105 
 TAM  HE ES        635 34.23                             128   -0.64 9  156 105 
 OCA  HZ EP        635 13.74                             128   -0.36 9  159 353 
 OCA  HN ES        635 35.65                             128    0.05 9  159 353 
 OCA  HZ I         635 43.01        27.6 0.50            130            159 353 
 SPBC HZ EP        635 14.65                             127    0.14 9  164 219 
 SPBC HE ES        635 36.42                             127    0.09 9  164 219 
 ZAR  HZ EP        635 18.71                             121    0.34 9  203 292 
 ZAR  HN ES        635 43.50                             121    0.31 9  203 292 
 ZAR  HZ I         635 49.79        28.4 0.30            121            203 292 
 NOR  HZ EP        635 21.78                             117   -0.08 8  235 234 
 NOR  HE ES        635 48.77                             117   -0.63 8  235 234 
 NOR  HZ I         635 55.52        14.8 0.18            118            235 234 
 SML  HZ EP        635 22.06                             116   -0.50 8  242 335 
 SML  HN ES        635 49.59                             116   -1.07 8  242 335 
 CHI  HZ EP        635 24.16                             115    0.21 8  250 195 
 CHI  HN ES        635 52.26                             115   -0.86 8  250 195 
 CHI  HZ I         635 59.85         6.6 0.34            117            250 195 
 HEL  HZ EP        635 26.89                             113    0.56 8  272 255 
 HEL  HN ES        635 57.21                             113   -0.16 8  272 255 
 HEL  HZ I         636  4.99        10.4 0.40            114            272 255 
 SOCV BZ EP        635 28.25                             111   -0.96 7  301  57 
 SOCV BZ ES   4    635 56.87                             111   -5.61 0  301  57 
 GUY2CHZ EP        635 30.68                             111    0.85 7  302 234 
 GUY2CHE ES        636  4.48                             111    0.88 7  302 234 
 GUY2CHZ I         636 13.38         9.8 0.54                           302 234 
 RREF BZ EP        635 32.74                             109    0.33 7  322 229 
 RREF BN ES        636  8.33                             109    0.15 7  322 229 
 RREF BZ I         636 19.18         8.4 0.28            110            322 229 
 PRA  HZ EP        635 40.01                             105    0.10 6  393 209 
 PRA  HN ES        636 20.80                             105   -0.73 6  393 209 
 PRA  HZ I         636 28.01         7.5 0.38            106            393 209 
                                                                                
