 2012  328 0145 48.8 L   6.334 -73.601107.4  RSN 13 0.4 2.0LRSN                1
 GAP= 72        0.93       3.8     3.5  7.6 -0.2570E+01  0.6585E+01  0.1019E+02E
 ACTION:UP  12-03-31 23:23 OP:EP   STATUS:               ID:20120328014548 L   I
 2012-03-28-0140-00M.COL___196                                                 6
 STAT SP IPHASW D HRMM SECON CODA AMPLIT PERI AZIMU VELO SNR AR TRES W  DIS CAZ7
 BAR2 SZ EP        146  5.53                             151     0.310   54  58 
 BAR2 SZ ES   1    146 18.18                             151     0.2 7   54  58 
 BAR2 SZ I         146 20.08        84.4 0.28                            54  58 
 RUS  HZ EP        146  6.81                             143    -0.110   75 130 
 RUS  HZ I         146 23.79        14.6 0.66                            75 130 
 BRR  HZ EP        146  7.11                             138     0.010   86 352 
 BRR  HZ I         146 16.45        27.0 0.10                            86 352 
 BRR  HE ES   2    146 21.94                             138     0.5 5   86 352 
 PTB  HZ EP        146  7.40                             134    -0.710   97 284 
 PTB  HE ES   1    146 23.21                             134     0.1 7   97 284 
 PTB  HZ I         146 24.59        15.8 0.42                            97 284 
 PAM  SZ EP        146 13.63                             121    -0.1 9  149  42 
 PAM  SE ES   1    146 32.76                             121    -0.4 7  149  42 
 NOR  SZ EP        146 15.07                             118     0.3 9  164 239 
 NOR  SN ES   1    146 34.32                             118    -0.6 7  164 239 
 ZAR  HZ EP        146 17.40                             114     0.0 9  189 313 
 ZAR  HE ES   1    146 39.61                             114    -0.1 7  189 313 
 ZAR  HZ I         146 45.41        10.7 0.28                           189 313 
 CHI  HZ EP   2    146 17.83                             115    -0.1 4  189 184 
 CHI  HN ES   2    146 40.83                             115     0.2 4  189 184 
 CHI  HZ I         146 43.68         5.5 0.28                           189 184 
 HEL  HZ EP        146 21.21                             111     0.6 8  214 266 
 HEL  HZ I         146 52.36         8.3 0.48                           214 266 
 GUY  SZ EP   3    146 23.19                             109     0.2 2  233 238 
 GUY  SE ES   3    146 50.07                             109     0.5 2  233 238 
 RREF HZ EP        146 24.78                             108    -0.3 8  250 231 
 RREF HZ I         146 57.53         7.7 0.42                           250 231 
 TOL  SZ EP        146 27.96                             106     0.7 8  271 225 
 PRA  HZ EP        146 32.60                             102    -0.4 7  323 206 
                                                                                
