 2017  328 0811 52.2 L   6.800 -73.151152.0  RSN  6 0.3 1.1LRSN                1
 GAP=136        0.56       3.3     2.9  5.1 -0.1326E+01  0.5853E+01 -0.4808E+01E
 Epicentro: LOS SANTOS - SANTANDER                                             3
 ACTION:UPD 17-05-25 18:46 OP:jn   STATUS:               ID:20170328081152 L   I
 OLDACT:UP  17-03-28 17:26 OP:and  STATUS:               ID:20170328080749d    3
 OLDACT:UP  17-03-28 17:26 OP:and  STATUS:               ID:20170328080749d    3
 OLDACT:DUP 17-03-28 17:23 OP:and  STATUS:               ID:20170328080749d    3
 OLDACT:UP  17-03-28 17:21 OP:and  STATUS:               ID:20170328080747     3
 OLDACT:UP  17-03-28 17:21 OP:and  STATUS:               ID:20170328080747     3
 OLDACT:UP  17-03-28 17:21 OP:and  STATUS:               ID:20170328080747     3
 OLDACT:UP  17-03-28 17:20 OP:and  STATUS:               ID:20170328080747     3
 OLDACT:UP  17-03-28 17:20 OP:and  STATUS:               ID:20170328080747     3
 OLDACT:UP  17-03-28 17:19 OP:and  STATUS:               ID:20170328080747     3
 OLDACT:UP  17-03-28 17:18 OP:and  STATUS:               ID:20170328080747     3
 OLDACT:UP  17-03-28 17:17 OP:and  STATUS:               ID:20170328080747     3
 OLDACT:UP  17-03-28 17:16 OP:and  STATUS:               ID:20170328080747     3
 OLDACT:UP  17-03-28 17:16 OP:and  STATUS:               ID:20170328080747     3
 OLDACT:UP  17-03-28 17:16 OP:and  STATUS:               ID:20170328080747     3
 OLDACT:REG 17-03-28 12:51 OP:and  STATUS:               ID:20170328080747     3
 2017-03-28-0808-00M.COL___360                                                 6
 STAT SP IPHASW D HRMM SECON CODA AMPLIT PERI AZIMU VELO AIN AR TRES W  DIS CAZ7
 BAR2 EZ ES        812 28.62                             171    0.1310 23.3 188 
 BRR  HZ EP        812 13.94                             154   -0.0710 70.6 299 
 BRR  HN ES   2    812 31.41                             154    0.40 5 70.6 299 
 PAM  EZ EP        812 15.36                             152    0.2410 77.7  40 
 PAM  EN ES        812 32.74                             152   -0.2410 77.7  40 
 PAM  EZ I         812 34.63         2.4 0.48            151           77.7  40 
 RUS  HN ES        812 35.62                             145    0.0210  101 176 
 PTB  HZ EP        812 19.31                             134   -0.33 9  147 259 
 PTB  HN ES        812 41.01                             134   -0.02 9  147 259 
 ZAR  HZ EP   3    812 26.45                             124    1.44 2  203 292 
 ZAR  HN ES        812 50.67                             124    0.08 9  203 292 
                                                                                
