 2012  628 0600 45.6 L   6.808 -73.174139.1  RSN  6 0.4 1.6LRSN                1
 GAP=180        0.76       4.5     5.6  8.1  0.8027E+01  0.6695E+01 -0.1574E+01E
 Epicentro: LOS SANTOS - SANTANDER                                             3
 ACTION:UPD 12-08-06 17:53 OP:ep   STATUS:               ID:20120628060045 L   I
 2012-06-28-0600-00M.COL___201                                                 6
 STAT SP IPHASW D HRMM SECON CODA AMPLIT PERI AZIMU VELO AIN AR TRES W  DIS CAZ7
 BAR2 SZ EP   1    6 1  4.61                             170    0.20 7 23.9 182 
 BAR2 SZ ES   1    6 1 19.04                             170   -0.06 7 23.9 182 
 BAR2 SZ I         6 1 21.13        11.8 0.19                          23.9 182 
 BRR  HZ EP   1    6 1  6.34                             152    0.52 7 68.1 299 
 BRR  HN ES   1    6 1 22.09                             152    0.48 7 68.1 299 
 BRR  HZ I         6 1 24.00        12.2 0.12                          68.1 299 
 RUS  HZ EP   1    6 1  8.90                             142    0.15 7  102 174 
 RUS  HZ I         6 1  9.85         6.7 0.12                           102 174 
 RUS  HN ES   1    6 1 26.60                             142   -0.24 7  102 174 
 PTB  HZ EP   1    6 1 11.40                             131   -0.34 7  145 258 
 PTB  HN ES   1    6 1 31.62                             131   -0.53 7  145 258 
 PTB  HZ I         6 1 36.79         3.5 0.16                           145 258 
 OCA  HN ES   1    6 1 34.23                             128   -0.61 7  159 354 
 ZAR  HN ES   1    6 1 42.27                             121    0.30 6  201 292 
                                                                                
