 2013  128 0044 45.3 L   6.810 -73.119144.4  RSN  6 0.4 1.9LRSN                1
 GAP=241        0.88       5.8     8.4  6.6  0.3328E+02  0.1745E+02  0.1271E+02E
 Epicentro: LOS SANTOS - SANTANDER                                             3
 ACTION:UPD 13-02-15 09:17 OP:ep   STATUS:               ID:20130128004445 L   I
 2013-01-28-0038-45M.COL___168                                                 6
 STAT SP IPHASW D HRMM SECON CODA AMPLIT PERI AZIMU VELO AIN AR TRES W  DIS CAZ7
 BAR2 SZ EP   2    045  4.83                             169    0.07 5 25.0 196 
 BAR2 SZ ES        045 19.48                             169   -0.5010 25.0 196 
 BAR2 SZ I         045 21.02        32.9 0.18            155           25.0 196 
 BRR  HZ EP        045  6.79                             151    0.4110 73.3 297 
 BRR  HN ES        045 23.19                             151    0.3310 73.3 297 
 BRR  HZ I         045 23.94        15.1 0.34            142           73.3 297 
 RUS  HZ EP        045  8.87                             143   -0.0810  102 178 
 RUS  HN ES   1    045 27.54                             143    0.12 7  102 178 
 RUS  HZ I         045 28.56         6.5 0.30            137            102 178 
 PTB  HZ EP   1    045 11.40                             131   -1.00 7  151 259 
 PTB  HE ES   3    045 32.66                             131   -0.91 2  151 259 
 PTB  HZ I         045 40.77         8.0 0.58            124            151 259 
 ZAR  HZ EP   1    045 18.01                             122    0.15 6  206 292 
 ZAR  HN ES        045 43.21                             122   -0.07 8  206 292 
 ZAR  HZ I         045 49.34        12.9 0.44            118            206 292 
 CHI  HZ EP        045 23.00                             116   -0.08 8  250 196 
 CHI  HE ES        045 53.11                             116    0.53 8  250 196 
 CHI  HZ I         045 59.09         1.9 0.44            114            250 196 
                                                                                
