 2010 1028 0814 49.7 L   6.794 -73.075142.6  RSN  7 0.3 1.5LRSN                1
 GAP=167        0.62       3.3     7.6  6.5 -0.6795E+01 -0.1366E+02  0.4526E+01E
 Epicentro: LOS SANTOS - SANTANDER                                             3
 ACTION:UP  11-02-18 11:12 OP:tino STATUS:               ID:20101028081449 L   I
 2010-10-28-0811-06S.COL___127                                                 6
 STAT SP IPHASW D HRMM SECON CODA AMPLIT PERI AZIMU VELO SNR AR TRES W  DIS CAZ7
 BAR2 SZ EP   2    815  8.39                             169    -0.6 5   25 208 
 BAR2 SZ ES   2    815 23.69                             169    -0.4 5   25 208 
 BAR2 SZ I         815 25.24         9.6 0.60                            25 208 
 BRR  HZ EP   1    815 10.78                             149    -0.2 8   79 296 
 BRR  HN ES   1    815 27.80                             149     0.3 8   79 296 
 BRR  HZ I         815 29.30         6.6 0.08                            79 296 
 RUS  HZ EP   1    815 12.94                             143    -0.2 8  100 181 
 RUS  HZ I         815 13.66         3.3 0.27                           100 181 
 RUS  HE ES   2    815 31.69                             143     0.4 5  100 181 
 GRA  SZ IP        815 14.81                             137     0.210  124  14 
 GRA  SZ ES   2    815 33.96                             137     0.0 5  124  14 
 GRA  SZ I         815 39.95         2.6 0.20                           124  14 
 OCA  SZ EP   2    815 18.43                             128     0.5 5  162 350 
 OCA  SZ ES   2    815 39.43                             128    -0.6 5  162 350 
 OCA  SZ I         815 42.36         4.7 0.34                           162 350 
 CHI  HZ EP   2    815 27.48                             116     0.1 4  250 197 
 CHI  HN ES   2    815 57.39                             116     0.6 4  250 197 
 CHI  HZ I         815 59.94         1.8 0.67                           250 197 
 PRA  HZ EP   1    815 43.20                             106    -0.3 4  395 211 
 PRA  HE ES   2    816 25.54                             106     0.0 3  395 211 
                                                                                
