 2016  728 0713 33.7 L   6.525 -73.507111.6  RSN 17 0.4 1.9LRSN                1
 GAP= 53        1.03       2.4     2.3  4.6 -0.1218E+01  0.3172E+01  0.2299E+00E
 Epicentro: EL CARMEN - SANTANDER                                              3
 ACTION:UPD 17-03-29 16:55 OP:lp   STATUS:               ID:20160728071333 L   I
 OLDACT:UP  16-07-28 17:21 OP:edw  STATUS:               ID:20160728070759     3
 OLDACT:REG 16-07-28 14:16 OP:edw  STATUS:               ID:20160728070759     3
 2016-07-28-0707-59S.COL___334                                                 6
 STAT SP IPHASW D HRMM SECON CODA AMPLIT PERI AZIMU VELO AIN AR TRES W  DIS CAZ7
 BAR2 EZ EP        713 49.71                             160    0.0510 36.6  78 
 BAR2 EZ ES        714  2.37                             160    0.2510 36.6  78 
 BRR  HZ EP        713 50.53                             146   -0.5210 68.3 341 
 BRR  HE ES        714  4.68                             146    0.0810 68.3 341 
 RUS  HZ EP        713 52.75                             140   -0.1510 84.2 146 
 RUS  HN ES        714  8.18                             140    0.2810 84.2 146 
 RUS  HZ I         714  9.95        11.2 0.17            141           84.2 146 
 PTB  HZ EP   9    713 52.53                             133   -1.46 0  105 271 
 PTB  HE ES        714  7.45                             132   -0.9210  105 271 
 PTB  HZ I         714  8.70        18.7 0.17            133            105 271 
 SPBC HZ EP        713 54.51                             130   -0.4810  115 213 
 SPBC HN ES        714 11.39                             130   -0.2310  115 213 
 SPBC HZ I         714 14.00        19.8 0.10            131            115 213 
 PAM  EZ EP        713 56.47                             128   -0.1710  127  45 
 PAM  EE ES        714 14.61                             128    0.0610  127  45 
 PAM  EZ I         714 18.84         8.1 0.14            129            127  45 
 ZAR  HZ EP        714  1.94                             116    0.04 9  184 306 
 ZAR  HN ES        714 24.84                             116    0.92 9  184 306 
 ZAR  HZ I         714 26.40         9.9 0.15            117            184 306 
 NOR  HZ EP        714  1.42                             116   -0.63 9  185 235 
 NOR  HN ES        714 23.47                             116   -0.72 9  185 235 
 NOR  HZ I         714 27.23        11.6 0.18            117            185 235 
 TAM  HZ EP        714  2.55                             115   -0.09 9  190  93 
 TAM  HE ES        714 25.41                             115    0.18 9  190  93 
 CHI  HZ EP        714  5.47                             113    0.02 8  211 187 
 CHI  HN ES        714 30.86                             113    0.63 8  211 187 
 HEL  HZ EP        714  7.35                             111    0.18 8  227 261 
 HEL  HE ES        714 33.23                             111   -0.06 8  227 261 
 HEL  HZ I         714 35.93         5.2 0.24            111            227 261 
 GUY2CHZ EP   4    714 11.52                             109    1.43 0  251 235 
 GUY2CHN ES        714 38.76                             109    0.27 8  251 235 
 GUY2CHZ I         714 44.51         5.3 0.40                           251 235 
 URE  HZ EP        714  9.97                             108   -0.78 8  262 301 
 URE  HN ES   4    714 37.96                             108   -1.70 0  262 301 
 URE  HZ I         714 40.94         7.7 0.16            108            262 301 
 CBOC HZ EP        714 14.40                             106    0.53 7  287 255 
 CBOC HN ES        714 45.23                             106    0.01 7  287 255 
 CBOC HZ I         714 48.64         2.6 0.30            106            287 255 
 PRA  HZ EP        714 21.13                             102    0.36 6  346 206 
 PRA  HN ES   2    714 58.12                             102    0.61 3  346 206 
 PRA  HZ I         715  2.50         6.4 0.24            102            346 206 
 LL6C HZ EP        714 21.91                             101    0.04 6  356   4 
 LL6C HN ES        714 59.75                             101    0.29 6  356   4 
 PAL  HZ EP        714 21.47                             101   -0.47 6  356 240 
 PAL  HN ES        715  0.37                             101    0.79 6  356 240 
 PAL  HZ I         715  3.10         3.1 0.22            102            356 240 
 SJC  HZ EP   4    714 27.20                              99   -1.94 0  416 334 
 SJC  HN ES   4    715  9.52                              99   -2.89 0  416 334 
                                                                                
