 2011 1228 0202 53.8 L   6.772 -73.223151.3  RSN  4 0.4 1.5LRSN                1
 GAP=166        0.70       8.5     8.7  9.3  0.2815E+02  0.2387E+02  0.3993E+02E
 Epicentro: ZAPATOCA - SANTANDER                                               3
 ACTION:UPD 12-07-13 16:19 OP:ep   STATUS:               ID:20111228020253 L   I
 2011-12-28-0200-00M.COL___185                                                 6
 STAT SP IPHASW D HRMM SECON CODA AMPLIT PERI AZIMU VELO AIN AR TRES W  DIS CAZ7
 GIR2 SZ ES   1    2 3 29.65                             167   -0.50 7 34.1   5 
 BRR  HZ EP   1    2 3 15.54                             155    0.27 7 65.6 304 
 BRR  HN ES   1    2 3 32.51                             155    0.50 7 65.6 304 
 BRR  HZ I         2 3 37.70         5.9 0.59                          65.6 304 
 RUS  HZ EP   1    2 3 17.90                             145   -0.07 7 98.4 171 
 RUS  HE ES   2    2 3 37.20                             145    0.39 5 98.4 171 
 PTB  HZ EP   1    2 3 20.31                             135   -0.15 7  139 259 
 PTB  HN ES   2    2 3 40.64                             135   -0.60 5  139 259 
                                                                                
