 2014  728 0952  3.5 L   6.732 -73.133146.0  RSN  5 0.4 1.6LRSN                1
 GAP=265        0.92       5.9     6.6  7.6  0.4918E+01  0.1798E+02  0.7731E+01E
 Epicentro: JORDAN - SANTANDER                                                 3
 ACTION:UPD 15-03-16 20:47 OP:nd   STATUS:               ID:20140728095203 L   I
 OLDACT:UP  14-07-28 16:54 OP:mh   STATUS:               ID:20140728095000     3
 OLDACT:UP  14-07-28 16:53 OP:mh   STATUS:               ID:20140728095000     3
 OLDACT:REG 14-07-28 13:00 OP:mh   STATUS:               ID:20140728095000     3
 2014-07-28-0950-00M.COL___282                                                 6
 STAT SP IPHASW D HRMM SECON CODA AMPLIT PERI AZIMU VELO AIN AR TRES W  DIS CAZ7
 BAR2 SZ EP   1    952 23.27                             173    0.22 7 16.4 199 
 BAR2 SZ ES        952 38.31                             173    0.0210 16.4 199 
 BAR2 SZ I         952 39.47         8.8 0.29            169           16.4 199 
 PTB  HZ EP        952 29.92                             132   -0.59 9  148 262 
 PTB  HN ES        952 51.25                             132   -0.32 9  148 262 
 PTB  HZ I         952 53.09         4.3 0.10            130            148 262 
 ZAR  HZ EP        952 37.01                             122    0.60 8  208 294 
 ZAR  HN ES        953  1.99                             122   -0.08 8  208 294 
 ZAR  HZ I         953  8.32         5.1 0.32            121            208 294 
 NOR  HN ES        953  7.23                             119    0.69 8  232 236 
 NOR  HZ I         953 11.43         3.0 0.22            118            232 236 
 URE  HZ EP   4    952 47.09                             113    2.03 0  288 293 
 URE  HN ES   4    953 15.83                             113   -1.64 0  288 293 
 PRA  HZ EP        952 56.05                             107   -0.32 6  386 210 
 PRA  HN ES        953 37.40                             107   -0.19 6  386 210 
 PRA  HZ I         953 44.66         1.1 0.18            107            386 210 
                                                                                
