 2011  728 0048 40.5 L   6.655 -73.149147.0  RSN  7 0.4 1.5LRSN                1
 GAP=157        0.64       4.8     8.6  7.1 -0.1711E+01 -0.1019E+02 -0.1400E+01E
 Epicentro: VILLANUEVA - SANTANDER                                             3
 ACTION:UPD 12-07-25 14:03 OP:epov STATUS:               ID:20110728004840 L   I
 2011-07-28-0040-00M.COL___142                                                 6
 STAT SP IPHASW D HRMM SECON CODA AMPLIT PERI AZIMU VELO AIN AR TRES W  DIS CAZ7
 BAR2 SZ EP   1    049  0.50                             177    0.41 7 7.84 208 
 BAR2 SZ ES   1    049 14.94                             177   -0.41 7 7.84 208 
 BAR2 SZ I         049 18.89         5.6 0.50                          7.84 208 
 BTL  SZ ES   2    049 16.26                             167    0.17 5 32.0 336 
 GIR2 SZ EP   2    049  0.43                             161   -0.43 5 47.2 354 
 GIR2 SZ ES   2    049 16.12                             161   -0.61 5 47.2 354 
 BRR  HZ EP   1    049  2.17                             150   -0.14 7 79.9 309 
 BRR  HZ I         049  2.29         8.4 0.34                          79.9 309 
 BRR  HE ES   1    049 19.52                             150    0.22 7 79.9 309 
 RUS  HZ EP   2    049  3.16                             149   -0.15 5 84.6 175 
 RUS  HN ES   2    049 21.61                             149    0.52 5 84.6 175 
 RUS  HZ I         049 27.47         2.9 0.89                          84.6 175 
 BRI  SZ EP   2    049  5.27                             138   -0.47 5  124  18 
 GRA  SZ ES   1    049 28.40                             134    0.39 7  141  16 
 GRA  SZ I         049 31.25         5.4 0.41                           141  16 
                                                                                
