 2010  428 0526 52.2 L   6.953 -72.941150.1  RSN  4 0.3 1.7LRSN                1
 GAP=290        0.42       9.1    12.3 10.4 -0.3658E+01 -0.2547E+02  0.5413E+02E
 Epicentro: SANTA BARBARA - SANTANDER                                          3
 ACTION:UPD 10-08-24 10:01 OP:vdl  STATUS:               ID:20100428052705 L   I
 2010-04-28-0523-52S.COL___104                                                 6
 STAT SP IPHASW D HRMM SECON CODA AMPLIT PERI AZIMU VELO AIN AR TRES W  DIS CAZ7
 BAR2 SZ EP   2    527 12.90                             162    -0.1 5   48 214 
 BAR2 SZ ES   3    527 29.35                             162     0.0 2   48 214 
 BRR  HZ EP   2    527 15.12                             147     0.4 5   87 281 
 BRR  HE ES   2    527 32.15                             147    -0.2 5   87 281 
 BRR  HZ I         527 34.43        11.7 0.17                            87 281 
 HEL  HZ EP   3    527 34.88                             113    -0.6 2  298 254 
 HEL  HZ I         528 12.71         1.5 0.38                           298 254 
 PRA  HZ EP   2    527 48.56                             105    -0.3 3  418 211 
 PRA  HN ES   2    528 33.40                             105     0.3 3  418 211 
 PRA  HZ I         528 38.20         1.6 0.32                           418 211 
                                                                                
