 2013  128 0909 49.2 L   6.708 -73.220146.0  RSN  6 0.5 1.5LRSN                1
 GAP=213        1.05       9.5     9.1  9.8  0.2878E+02  0.2076E+02  0.2860E+02E
 Epicentro: VILLANUEVA - SANTANDER                                             3
 ACTION:UPD 13-02-15 09:17 OP:ep   STATUS:               ID:20130128090949 L   I
 2013-01-28-0908-38M.COL___168                                                 6
 STAT SP IPHASW D HRMM SECON CODA AMPLIT PERI AZIMU VELO AIN AR TRES W  DIS CAZ7
 BAR2 SZ EP   3    910  7.54                             175   -1.18 2 13.5 162 
 BAR2 SZ ES   1    910 23.21                             175   -0.73 7 13.5 162 
 BAR2 SZ I         910 25.08         5.2 0.50            172           13.5 162 
 BRR  HZ EP        910 10.17                             153   -0.1610 70.0 309 
 BRR  HN ES        910 27.55                             153    0.7610 70.0 309 
 BRR  HN I         910 30.68         5.6 0.22            151           70.0 309 
 RUS  HN ES   2    910 30.66                             147    0.25 5 91.5 170 
 PTB  HZ EP        910 15.20                             134   -0.14 9  138 262 
 PTB  HN ES        910 35.34                             134   -0.37 9  138 262 
 PTB  HN I         910 41.84         4.8 0.36            133            138 262 
 ZAR  HN ES   2    910 46.28                             123   -0.10 4  201 296 
 CHI  HZ EP   1    910 26.48                             118    0.83 6  237 194 
                                                                                
