 2017 1128 0054 28.1 L   6.844 -73.173140.8  RSN 20 0.9 2.2LRSN                1
 GAP= 63        2.07       4.3     5.5  9.6 -0.2321E+01  0.1547E+02  0.2177E+01E
 Epicentro: ZAPATOCA - SANTANDER                                               3
 ACTION:UPD 17-12-12 20:01 OP:rebc STATUS:               ID:20171128005428 L   I
 OLDACT:UP  17-11-28 13:50 OP:dani STATUS:               ID:20171128004740     3
 OLDACT:REG 17-11-28 12:34 OP:dani STATUS:               ID:20171128004740     3
 2017-11-28-0048-00M.COL___495                                                 6
 STAT SP IPHASW D HRMM SECON CODA AMPLIT PERI AZIMU VELO AIN AR TRES W  DIS CAZ7
 BAR2 EZ EP        054 47.10                             168   -0.1310 27.9 182 
 BAR2 EZ ES        055  1.94                             168   -0.2210 27.9 182 
 BAR2 EZ I         055  4.95        43.0 0.44            168           27.9 182 
 PAM  EZ EP        054 50.09                             150    0.4110 75.7  44 
 PAM  EN ES        055  7.12                             150    0.6010 75.7  44 
 PAM  EZ I         055  9.31        26.4 0.52            155           75.7  44 
 RUS  HZ EP        054 51.11                             141   -0.6410  106 175 
 RUS  HN ES        055 10.14                             141   -0.0510  106 175 
 RUS  HZ I         055 10.93        33.5 0.26            144            106 175 
 PTB  HZ EP        054 53.64                             131   -0.84 9  146 257 
 PTB  HN ES        055 14.69                             131   -0.37 9  146 257 
 PTB  HZ I         055 15.92        15.0 0.16            132            146 257 
 OCA  HZ EP        054 55.71                             129    0.18 9  155 354 
 OCA  HN ES        055 17.52                             129    0.59 9  155 354 
 OCA  HZ I         055 22.25        38.1 0.14            132            155 354 
 TAM  HZ EP        054 55.56                             128   -0.23 9  159 106 
 SPBC HZ EP        054 56.08                             127   -0.33 9  165 217 
 SPBC HN ES        055 17.78                             127   -0.71 9  165 217 
 SPBC HZ I         055 25.04        36.7 0.36            129            165 217 
 YPLC HZ EP        054 57.61                             124   -0.50 9  183 151 
 YPLC HN ES        055 19.87                             124   -1.65 9  183 151 
 YPLC HZ I         055 22.53        30.9 0.28            128            183 151 
 ZAR  HZ EP        054 59.64                             122   -0.10 9  199 291 
 ZAR  HN ES        055 23.81                             122   -0.61 9  199 291 
 ZAR  HZ I         055 30.57        10.8 0.12            124            199 291 
 TABC EZ EP        055  4.61                             118    0.76 8  233 209 
 TABC EZ ES        055 33.65                             118    1.92 8  233 209 
 TABC EZ I         055 38.66        17.0 0.36            120            233 209 
 NOR  HZ EP        055  3.13                             117   -0.46 8  235 233 
 NOR  HE ES        055 30.80                             117   -0.47 8  235 233 
 NOR  HZ I         055 35.83        13.0 0.20            119            235 233 
 CHI  HZ EP        055  5.46                             116   -0.50 8  253 194 
 CHI  HN ES        055 36.35                             116    0.86 8  253 194 
 CHI  HZ I         055 40.26         6.7 0.38            118            253 194 
 ROSC BZ EP        055  7.12                             115    0.88 8  255 210 
 ROSC BN ES        055 38.22                             115    2.22 8  255 210 
 ROSC BZ I         055 43.38        13.2 0.45            117            255 210 
 HEL  HZ EP        055  9.45                             114    1.58 8  270 255 
 HEL  HN ES        055 39.72                             114    0.83 8  270 255 
 HEL  HZ I         055 46.70         9.2 0.52            116            270 255 
 URE  HZ EP        055  7.17                             113   -1.24 7  279 291 
 URE  HN ES        055 38.18                             113   -1.67 7  279 291 
 URE  HZ I         055 42.73        10.1 0.14            115            279 291 
 DRL03HZ EP        055 10.00                             112    1.12 7  284 353 
 DRL03HN ES        055 41.59                             112    0.90 7  284 353 
 GUY2CHZ EP        055 12.62                             111    1.10 7  302 234 
 GUY2CHN ES        055 46.90                             111    1.51 7  302 234 
 GUY2CHZ I         055 52.36         8.3 0.56                           302 234 
 CBOC HZ EP        055 12.84                             109   -1.81 7  332 251 
 CBOC HN ES        055 50.00                             109   -0.97 7  332 251 
 CBOC HZ I         055 55.10         3.5 0.42            111            332 251 
 PRA  HZ EP        055 20.83                             105   -0.95 6  395 209 
 PRA  HN ES        056  2.67                             105   -0.98 6  395 209 
 PRA  HZ I         056  7.17         6.1 0.24            107            395 209 
 ORTC HZ EP        055 22.09                             105   -0.02 6  398 215 
 ORTC HN ES        056  4.53                             105    0.30 6  398 215 
 ORTC HZ I         056  8.42         3.6 0.54            107            398 215 
                                                                                
