 2014 1228 0438 35.5 L   6.799 -73.145151.3  RSN  7 0.5 1.6LRSN                1
 GAP=201        1.22       5.0     7.1  8.3  0.1088E+02  0.2576E+01 -0.8856E+01E
 Epicentro: LOS SANTOS - SANTANDER                                             3
 ACTION:UPD 15-02-10 17:07 OP:nd   STATUS:               ID:20141228043835 L   I
 OLDACT:DUP 14-12-28 16:26 OP:mh   STATUS:               ID:20141228042747d    3
 OLDACT:UP  14-12-28 16:25 OP:mh   STATUS:               ID:20141228042746     3
 OLDACT:REG 14-12-28 12:52 OP:mh   STATUS:               ID:20141228042746     3
 2014-12-28-0427-46M.COL___262                                                 6
 STAT SP IPHASW D HRMM SECON CODA AMPLIT PERI AZIMU VELO AIN AR TRES W  DIS CAZ7
 BAR2 EZ EP   1    438 56.08                             171    0.26 7 23.2 190 
 BAR2 EZ ES        439 11.34                             171   -0.3110 23.2 190 
 BAR2 EZ I         439 12.92         6.0 0.11            169           23.2 190 
 BRR  HZ EP        438 58.17                             153    0.8910 71.3 299 
 BRR  HN ES        439 14.36                             153    0.1010 71.3 299 
 BRR  HZ I         439 19.68         5.4 0.18            150           71.3 299 
 RUS  HZ EP        438 59.72                             145   -0.1010  100 176 
 RUS  HN ES        439 18.60                             145   -0.1610  100 176 
 RUS  HZ I         439 20.03         3.1 0.32            148            100 176 
 PTB  HZ EP        439  2.06                             133   -0.90 9  148 259 
 PTB  HN ES        439 23.82                             133   -0.53 9  148 259 
 PTB  HZ I         439 28.39         4.0 0.38            132            148 259 
 SPBC HZ EP        439  4.26                             130   -0.19 9  163 219 
 SPBC HN ES        439 27.92                             130    0.91 9  163 219 
 SPBC HZ I         439 34.22         9.0 0.40            131            163 219 
 ZAR  HN ES        439 34.16                             124    0.20 9  204 292 
 ZAR  HZ I         439 40.39         4.3 0.32            123            204 292 
 SML  HZ EP        439 12.53                             119    0.05 8  244 335 
 SML  HN ES        439 41.17                             119   -0.14 8  244 335 
 SML  HZ I         439 49.29         7.0 0.26            119            244 335 
                                                                                
