 2011  628 0225 52.8 L   6.791 -73.158145.1  RSN 17 0.3 3.1LRSN                1
 GAP=132        0.75       2.3     3.6  4.6 -0.1863E+01  0.3222E+01  0.2360E+01E
 Epicentro: LOS SANTOS - SANTANDER                                             3
 ACTION:UP  11-07-14 19:08 OP:ep   STATUS:               ID:20110628022552 L   I
 2011-06-28-0224-18S.COL___140                                                 6
 STAT SP IPHASW D HRMM SECON CODA AMPLIT PERI AZIMU VELO SNR AR TRES W  DIS CAZ7
 BTL  SZ EP        226 12.59                             172     0.310   19 319 
 BAR2 SZ EP        226 12.41                             171     0.110   22 187 
 BAR2 SZ ES   1    226 27.08                             171    -0.5 7   22 187 
 BAR2 SZ I         226 29.06       345.5 0.21                            22 187 
 BRR  HZ IP     C  226 14.20                             153     0.410   71 300 
 BRR  HE ES   1    226 30.65                             153     0.4 7   71 300 
 BRR  HZ I         226 35.91       264.9 0.16                            71 300 
 RUS  HZ EP        226 16.33                             144    -0.110  100 175 
 RUS  HZ ES   1    226 34.88                             144     0.0 7  100 175 
 RUS  HZ I         226 36.77       147.2 0.39                           100 175 
 BRI  SZ EP        226 16.90                             141     0.210  110  21 
 GRA  SZ IP        226 18.20                             137     0.110  127  18 
 GRA  SZ ES   1    226 37.82                             137     0.0 7  127  18 
 OCA  SZ EP        226 20.81                             129    -0.3 9  161 354 
 OCA  SZ ES   1    226 42.24                             129    -1.0 7  161 354 
 OCA  SZ I         226 47.49       122.1 0.53                           161 354 
 YOP  SZ EP        226 23.07                             126     0.3 9  179 153 
 YOP  SE ES   2    226 45.97                             126    -0.2 4  179 153 
 YOP  SZ I         226 47.94        60.6 0.33                           179 153 
 NOR  SZ EP        226 28.08                             119    -0.2 8  233 234 
 NOR  SE ES   1    226 55.87                             119    -0.1 6  233 234 
 CHI  HZ EP   1    226 30.39                             117     0.1 6  247 195 
 CHI  HN ES   1    226 59.48                             117    -0.1 6  247 195 
 CHI  HZ I         227  3.66        88.6 0.67                           247 195 
 HEL  HZ EP        226 32.85                             115     0.0 8  271 256 
 HEL  HN ES   1    227  4.22                             115     0.2 6  271 256 
 HEL  HZ I         227 10.58        61.8 0.36                           271 256 
 VIL  SZ EP        226 35.70                             112    -0.3 7  302 191 
 VIL  SN ES   2    227  8.95                             112    -0.8 4  302 191 
 VIL  SZ I         227 20.24        59.9 0.38                           302 191 
 RREF HZ EP   1    226 38.73                             111     0.0 5  320 229 
 RREF HE ES   2    227 13.67                             111    -0.9 3  320 229 
 RREF HZ I         227 24.52        97.3 0.43                           320 229 
 DBB  SZ EP   1    226 40.12                             109     0.0 5  338 274 
 TOL  SZ EP   1    226 40.84                             109     0.0 5  342 225 
 PRA  HZ EP        226 45.97                             106    -0.1 6  391 209 
 PRA  HN ES        227 28.32                             106     0.6 6  391 209 
 SJA  SZ EP   1    226 46.68                             106    -0.5 4  399 193 
                                                                                
