 2014 1228 0308 59.8 L   6.789 -73.153150.3  RSN 11 0.5 1.7LRSN                1
 GAP=136        1.15       3.7     4.7  6.7  0.4269E+00  0.5695E+01  0.1044E+01E
 Epicentro: LOS SANTOS - SANTANDER                                             3
 ACTION:UPD 15-02-10 17:07 OP:nd   STATUS:               ID:20141228030859 L   I
 OLDACT:REG 14-12-28 12:51 OP:mh   STATUS:               ID:20141228030749     3
 2014-12-28-0307-49M.COL___262                                                 6
 STAT SP IPHASW D HRMM SECON CODA AMPLIT PERI AZIMU VELO AIN AR TRES W  DIS CAZ7
 BAR2 EZ EP        3 9 20.48                             171    0.5010 22.0 188 
 BAR2 EZ ES        3 9 35.30                             171   -0.4110 22.0 188 
 BAR2 EZ I         3 9 37.54         8.4 0.22            171           22.0 188 
 BRR  HZ EP        3 9 20.99                             153   -0.4710 71.0 300 
 BRR  HN ES        3 9 38.57                             153    0.2310 71.0 300 
 BRR  HZ I         3 9 42.37         7.9 0.14            151           71.0 300 
 PAM  SZ EP        3 9 22.39                             151   -0.2310 78.8  39 
 PAM  SN ES        3 9 40.85                             151    0.4610 78.8  39 
 PAM  SZ I         3 9 43.80         4.7 0.19            154           78.8  39 
 RUS  HZ EP        3 9 23.19                             145   -0.7610 99.5 176 
 RUS  HN ES        3 9 42.86                             145    0.0910 99.5 176 
 RUS  HZ I         3 9 43.89         3.1 0.32            149           99.5 176 
 PTB  HZ EP        3 9 26.91                             133   -0.17 9  147 259 
 PTB  HN ES        3 9 47.52                             133   -0.81 9  147 259 
 PTB  HZ I         3 9 53.85         7.5 0.12            133            147 259 
 OCA  HZ EP   4    3 9 29.19                             131    0.59 0  161 353 
 OCA  HN ES   4    3 9 51.56                             131    0.53 0  161 353 
 OCA  HZ I         3 9 57.52         4.9 0.36            132            161 353 
 SPBC HZ EP        3 9 29.33                             130    0.78 9  162 219 
 SPBC HN ES        3 9 51.53                             130    0.58 9  162 219 
 SPBC HZ I         3 9 58.01        10.9 0.36            132            162 219 
 ZAR  HZ EP        3 9 32.60                             123    0.06 9  204 293 
 ZAR  HN ES        3 9 58.37                             123    0.31 9  204 293 
 ZAR  HZ I         310  4.15         7.9 0.44            124            204 293 
 SML  HN ES        310  5.67                             118    0.05 8  244 336 
 SML  HZ I         310  8.67         8.0 0.10            120            244 336 
 CHI  HZ EP   1    3 9 37.54                             118   -0.10 6  247 195 
 CHI  HN ES        310  7.22                             118    0.09 8  247 195 
 HEL  HZ EP   9    3 9 41.57                             116    1.41 0  271 256 
 HEL  HN ES        310 13.57                                    0.54 8  271 256 
 HEL  HZ I         310 18.82         2.9 0.46            117            271 256 
                                                                                
