 2012 1028 0640 26.7 L   6.799 -73.121144.0  RSN  8 0.5 1.8LRSN                1
 GAP=140        0.87       4.6     5.6  7.8  0.5254E+01  0.7335E+01  0.1450E+02E
 Epicentro: LOS SANTOS - SANTANDER                                             3
 ACTION:UPD 12-11-22 17:06 OP:ep   STATUS:               ID:20121028064026 L   I
 2012-10-28-0640-00M.COL___231                                                 6
 STAT SP IPHASW D HRMM SECON CODA AMPLIT PERI AZIMU VELO AIN AR TRES W  DIS CAZ7
 BAR2 SZ EP   1    640 45.82                             170   -0.35 7 23.9 197 
 BAR2 SZ ES   2    641  0.79                             170   -0.54 5 23.9 197 
 BRR  HZ EP        640 47.86                             152    0.0210 73.6 298 
 BRR  HN ES        641  4.90                             152    0.6010 73.6 298 
 BRR  HN I         641  8.64        25.1 0.14                          73.6 298 
 PAM  SZ EP   1    640 48.97                             151    0.30 7 75.7  38 
 PAM  SN ES   2    641  5.90                             151    0.13 5 75.7  38 
 PAM  SN I         641  6.63        12.8 0.50                          75.7  38 
 RUS  HZ EP   1    640 49.49                             144   -0.81 7  100 178 
 RUS  HN ES   2    641  8.84                             144    0.16 5  100 178 
 RUS  HN I         641  9.75         6.8 0.18                           100 178 
 OCA  HN ES   2    641 16.54                             129   -0.42 5  161 352 
 ZAR  HZ EP   1    640 59.69                             122    0.35 6  207 292 
 ZAR  HN ES        641 24.17                             122   -0.59 8  207 292 
 ZAR  HN I         641 25.66         9.5 0.12                           207 292 
 CHI  HZ EP   1    641  4.52                             117    0.10 6  249 196 
 CHI  HN ES   2    641 34.57                             117    0.77 4  249 196 
 CHI  HN I         641 36.94         3.1 0.16                           249 196 
 PRA  HZ EP   1    641 21.22                             106    0.87 4  393 210 
 PRA  HN ES        642  2.10                             106   -0.07 6  393 210 
 PRA  HN I         642  7.59         1.4 0.68                           393 210 
                                                                                
