 2011 1228 0102 22.1 L   6.743 -73.208149.4  RSN  6 0.3 1.5LRSN                1
 GAP=168        0.66       5.3     5.2  6.3  0.1122E+02  0.8750E+01  0.3289E+01E
 Epicentro: VILLANUEVA - SANTANDER                                             3
 ACTION:UPD 12-07-13 16:19 OP:ep   STATUS:               ID:20111228010222 L   I
 2011-12-28-0100-00M.COL___185                                                 6
 STAT SP IPHASW D HRMM SECON CODA AMPLIT PERI AZIMU VELO AIN AR TRES W  DIS CAZ7
 BAR2 SZ ES   1    1 2 56.96                             173   -0.65 7 16.9 170 
 BAR2 SZ I         1 2 58.30         8.8 0.18                          16.9 170 
 GIR2 SZ EP   1    1 2 42.14                             165   -0.22 7 37.2   3 
 GIR2 SZ ES   1    1 2 58.28                             165    0.10 7 37.2   3 
 BRR  HZ EP        1 2 43.53                             154    0.0310 68.7 306 
 BRR  HN ES   1    1 3  0.63                             154    0.43 7 68.7 306 
 RUS  HZ EP   1    1 2 46.01                             146    0.20 7 95.0 172 
 RUS  HN ES   1    1 3  4.71                             146    0.39 7 95.0 172 
 RUS  HZ I         1 3  6.06         3.3 0.37                          95.0 172 
 PTB  HZ EP   1    1 2 48.41                             134   -0.25 7  140 261 
 PTB  HN ES   1    1 3  9.13                             134   -0.25 7  140 261 
 ZAR  HN ES   1    1 3 19.76                             124    0.19 6  200 295 
                                                                                
