 2011 1128 0059 35.7 L   6.758 -73.102147.3  RSN  4 0.3 1.4LRSN                1
 GAP=144        0.77       8.5     7.8 12.7 -0.1131E+02 -0.1769E+02  0.6584E+02E
 Epicentro: LOS SANTOS - SANTANDER                                             3
 ACTION:UPD 12-07-13 16:12 OP:ep   STATUS:               ID:20111128005935 L   I
 2011-11-28-0056-41S.COL___160                                                 6
 STAT SP IPHASW D HRMM SECON CODA AMPLIT PERI AZIMU VELO AIN AR TRES W  DIS CAZ7
 BAR2 SZ EP        059 54.87                             172   -0.5810 20.3 206 
 BAR2 SZ I         1 0 12.12         6.1 0.30                          20.3 206 
 BRR  HZ EP        059 57.36                             151   -0.0210 77.7 300 
 BRR  HE ES   1    1 0 14.49                             151    0.20 7 77.7 300 
 BRR  HZ I         1 0 16.80        10.3 0.48                          77.7 300 
 PAM  SZ EP        059 58.28                             151    0.1610 78.2  35 
 PAM  SN ES   1    1 0 15.58                             151   -0.02 7 78.2  35 
 PAM  SZ I         1 0 17.53         4.7 0.32                          78.2  35 
 RUS  HZ EP        059 59.58                             145    0.3310 95.7 179 
 RUS  HZ I         1 0 19.67         2.0 0.18                          95.7 179 
                                                                                
