 2016  228 0148 10.6 L   6.809 -73.148144.0  RSN 22 0.5 2.4LRSN                1
 GAP= 71        1.02       2.6     3.0  4.9 -0.1376E+01  0.4421E+01  0.1105E+01E
 Epicentro: LOS SANTOS - SANTANDER                                             3
 ACTION:UPD 16-03-04 21:30 OP:rebc STATUS:               ID:20160228014810 L   I
 OLDACT:UP  16-02-28 13:13 OP:drio STATUS:               ID:20160228013748     3
 OLDACT:REG 16-02-28 12:27 OP:drio STATUS:               ID:20160228013748     3
 2016-02-28-0137-48M.COL___322                                                 6
 STAT SP IPHASW D HRMM SECON CODA AMPLIT PERI AZIMU VELO AIN AR TRES W  DIS CAZ7
 BAR2 EZ IP     C  148 30.06                             170    0.0610 24.2 189 
 BAR2 EZ ES        148 45.14                             170   -0.0310 24.2 189 
 BAR2 EZ I         148 46.34       130.6 0.20            168           24.2 189 
 PAM  EZ EP     C  148 32.87                             150    0.3110 76.8  40 
 PAM  EE ES        148 50.28                             150    0.5710 76.8  40 
 PAM  EZ I         148 53.25        20.6 0.42            154           76.8  40 
 RUS  HZ EP        148 34.00                             143   -0.2210  102 176 
 RUS  HE ES        148 52.29                             143   -0.3710  102 176 
 RUS  HZ I         148 53.91        58.2 0.22            143            102 176 
 PTB  HZ EP        148 36.64                             132   -0.75 9  148 258 
 PTB  HN ES        148 57.97                             132   -0.34 9  148 258 
 PTB  HZ I         149  3.49        39.2 0.32            129            148 258 
 TAM  HZ IP     C  148 38.33                             130    0.18 9  156 105 
 TAM  HE ES        148 59.95                             130    0.29 9  156 105 
 TAM  HZ I         149  1.28        13.4 0.28            133            156 105 
 OCA  HZ EP        148 38.12                             129   -0.53 9  159 353 
 OCA  HE ES        149  0.47                             129   -0.08 9  159 353 
 OCA  HZ I         149  6.39        43.9 0.34            130            159 353 
 SPBC HZ EP        148 39.00                             128    0.01 9  164 219 
 SPBC HN ES        149  0.94                             128   -0.22 9  164 219 
 SPBC HZ I         149  3.72        88.9 0.22            127            164 219 
 ZAR  HZ EP        148 43.32                             122    0.48 9  203 292 
 ZAR  HE ES        149  8.24                             122    0.23 9  203 292 
 ZAR  HZ I         149 14.37        33.7 0.36            121            203 292 
 NOR  HZ EP        148 46.09                             118   -0.14 8  235 234 
 NOR  HE ES        149 13.60                             118   -0.45 8  235 234 
 NOR  HZ I         149 19.73        24.9 0.18            117            235 234 
 CHI  HZ EP        148 48.14                             117   -0.12 8  250 195 
 CHI  HN ES        149 17.68                             117    0.02 8  250 195 
 CHI  HZ I         149 27.29        11.1 0.46            117            250 195 
 ROSC BZ EP   4    148 49.99                             116    1.32 0  253 211 
 ROSC BN ES   4    149 20.70                             116    2.31 0  253 211 
 ROSC BZ I         149 27.94        23.9 0.30            116            253 211 
 HEL  HZ EP        148 51.38                             114    0.69 8  272 256 
 HEL  HE ES   4    149 21.02                             114   -0.97 0  272 256 
 HEL  HZ I         149 28.44        13.1 0.34            114            272 256 
 URE  HZ EP   4    148 53.88                             113    2.39 0  283 292 
 URE  HN ES   4    149 20.62                             113   -2.78 0  283 292 
 URE  HZ I         149 31.58        22.1 0.32            113            283 292 
 GUY2CHZ EP        148 55.39                             112    1.25 7  302 235 
 GUY2CHN ES        149 28.29                             112    0.17 7  302 235 
 GUY2CHZ I         149 35.29        10.9 0.26                           302 235 
 VIL  SZ EP        148 53.38                             112   -0.63 7  304 191 
 VIL  SN ES        149 28.43                             112    0.54 7  304 191 
 PTGC HZ EP   4    148 53.03                             111   -1.43 0  310 159 
 PTGC HE ES   4    149 25.61                             111   -3.08 0  310 159 
 PTGC HZ I         149 34.39         8.5 0.56            112            310 159 
 LL6C HZ EP        148 55.20                             110   -0.88 7  324 358 
 LL6C HE ES   4    149 28.62                             110   -2.96 0  324 358 
 LL6C HZ I         149 40.59         4.8 0.48            110            324 358 
 ELA  HZ EP   4    148 59.92                             110    2.53 0  330 229 
 ELA  HE ES   4    149 37.93                             110    4.01 0  330 229 
 ELA  HZ I         149 42.20         9.8 0.36            110            330 229 
 CBOC HZ EP        148 58.04                             109    0.62 7  334 252 
 CBOC HE ES   4    149 35.72                             109    1.76 0  334 252 
 CBOC HZ I         149 49.79         4.4 0.50            109            334 252 
 MON  HZ EP   4    149  3.61                             108    4.20 0  353 308 
 MON  HN ES   4    149 35.11                             108   -2.40 0  353 308 
 ANIL HZ EP        148 60.00                             108   -0.36 6  358 224 
 ANIL HE ES   4    149 42.53                             108    3.32 0  358 224 
 ANIL HZ I         149 54.22        29.8 0.30            108            358 224 
 ORTC HZ EP        149  4.05                             106   -0.45 6  396 216 
 ORTC HN ES        149 47.17                             106    0.60 6  396 216 
 ORTC HZ I         149 53.35        11.7 0.70            106            396 216 
 SJC  HZ EP   4    149  4.18                             105   -1.78 0  408 327 
 SJC  HE ES   4    149 45.03                             105   -4.14 0  408 327 
 SJC  HZ I         149 49.42         5.8 0.40            105            408 327 
 CRJC HZ EP   4    149 10.33                             103   -2.57 0  467   4 
                                                                                
