 2010  828 0822 14.9 L   6.780 -73.103145.7  RSN 15 0.4 2.5LRSN                1
 GAP=164        0.95       3.5     6.6  5.7 -0.1016E+02  0.6654E+01  0.1968E+01E
 Epicentro: LOS SANTOS - SANTANDER                                             3
 ACTION:UP  10-09-07 10:58 OP:vdl  STATUS:               ID:20100828082214 L   I
 2010-08-28-0820-19S.COL___119                                                 6
 STAT SP IPHASW D HRMM SECON CODA AMPLIT PERI AZIMU VELO SNR AR TRES W  DIS CAZ7
 BAR2 SZ IP        822 34.42                             171    -0.110   23 203 
 BAR2 SZ ES   1    822 49.17                             171    -0.6 7   23 203 
 BAR2 SZ I         822 52.07        85.1 0.35                            23 203 
 BTL  SZ EP        822 34.65                             170     0.110   24 310 
 BTL  SZ ES   1    822 49.68                             170    -0.1 7   24 310 
 GIR2 SZ EP   1    822 34.69                             166     0.1 7   34 343 
 BRR  HZ EP        822 36.40                             150     0.110   76 298 
 BRR  HE ES   1    822 53.53                             150     0.5 7   76 298 
 BRR  HZ I         822 55.37        93.7 0.21                            76 298 
 RUS  HZ EP   1    822 38.07                             144    -0.4 7   98 179 
 RUS  HN ES   1    822 56.95                             144     0.1 7   98 179 
 RUS  HZ I         822 58.00        44.4 0.21                            98 179 
 GUE  SZ EP        822 39.69                                     0.010  118  10 
 GUE  SZ I         823  5.01        19.1 0.15                           118  10 
 GRA  SZ IP        822 40.46                             137     0.310  127  15 
 GRA  SZ ES   1    822 59.66                             137    -0.3 7  127  15 
 GRA  SZ I         823  2.01        35.5 0.32                           127  15 
 OCA  SZ EP        822 42.95                             129    -0.5 9  163 352 
 OCA  SZ ES   1    823  6.21                             129     0.5 7  163 352 
 OCA  SZ I         823  8.41        61.5 0.14                           163 352 
 CHI  HZ EP   1    822 52.31                             117    -0.2 6  248 196 
 CHI  HZ I         822 54.14        16.3 0.47                           248 196 
 CHI  HE ES   2    823 22.08                             117     0.3 4  248 196 
 ROSC BZ IP     C  822 54.06                             116     1.0 8  253 212 
 ROSC BE ES   2    823 23.59                             116     0.8 4  253 212 
 ROSC BZ I         823 28.61        26.2 0.29                           253 212 
 HEL  HZ EP   2    822 54.72                             114    -0.8 4  276 256 
 HEL  HN ES   2    823 26.69                                    -0.5 4  276 256 
 HEL  HZ I         823 35.02        19.3 0.59                           276 256 
 RREF HZ EP   1    823  1.54                             111     0.3 5  324 230 
 RREF HN ES   1    823 37.02                             111    -0.4 5  324 230 
 RREF HZ I         823 45.93        22.6 0.32                           324 230 
 DBB  SZ EP   1    823  2.29                             109    -0.6 5  344 275 
 DBB  SZ I         823 46.14         2.9 0.23                           344 275 
 ANIL HE ES   2    823 44.34                                     0.5 3  359 225 
 ANIL HZ I         823 55.58        45.9 0.39                           359 225 
 PRA  HZ EP        823  7.82                             106    -0.6 6  392 210 
 PRA  HE ES   1    823 50.17                             106    -0.1 4  392 210 
 PRA  HZ I         823 55.80        17.2 0.38                           392 210 
                                                                                
