 2011  728 0554 10.9 L   6.749 -73.346125.2  RSN  5 0.3 1.4LRSN                1
 GAP=151        0.58       4.5    10.7  6.5  0.3079E+02 -0.2735E+02 -0.1235E+02E
 Epicentro: ZAPATOCA - SANTANDER                                               3
 ACTION:UPD 12-07-25 14:03 OP:epov STATUS:               ID:20110728055410 L   I
 2011-07-28-0540-00M.COL___141                                                 6
 STAT SP IPHASW D HRMM SECON CODA AMPLIT PERI AZIMU VELO AIN AR TRES W  DIS CAZ7
 BAR2 SZ EP   1    554 28.10                             168   -0.05 7 25.1 134 
 BAR2 SZ ES   1    554 41.26                             168   -0.31 7 25.1 134 
 BAR2 SZ I         554 42.15         7.8 0.21                          25.1 134 
 GIR2 SZ EP        554 28.19                             162   -0.3010 40.2  25 
 BRR  HZ EP   2    554 28.74                             153   -0.31 5 56.6 314 
 BRR  HZ I         554 29.18        21.8 0.14                          56.6 314 
 BRR  HE ES   1    554 43.33                             153    0.16 7 56.6 314 
 RUS  HZ EP   1    554 32.85                             139    0.24 7 99.1 163 
 RUS  HE ES   1    554 49.80                             139    0.29 7 99.1 163 
 RUS  HZ I         554 51.62         1.5 0.49                          99.1 163 
 OCA  SZ EP   1    554 38.32                             123    0.13 7  165   1 
 OCA  SZ ES   2    555  0.12                             123    0.67 5  165   1 
 OCA  SZ I         555  4.14         3.5 0.30                           165   1 
                                                                                
