 2010  328 0516 12.4 L   6.808 -73.082147.5  RSN 11 0.4 3.3LRSN                1
 GAP=131        0.83       3.3     5.8  5.7 -0.3585E+01 -0.2278E+00  0.9034E+00E
 Epicentro: LOS SANTOS - SANTANDER                                             3
 ACTION:UP  10-08-24 09:56 OP:vdl  STATUS:               ID:20100328051612 L   I
 2010-03-28-0513-20S.COL___098                                                 6
 STAT SP IPHASW D HRMM SECON CODA AMPLIT PERI AZIMU VELO SNR AR TRES W  DIS CAZ7
 BAR2 SZ IP        516 32.44                             169     0.110   26 205 
 BAR2 SZ ES   1    516 47.41                             169    -0.4 7   26 205 
 BRR  HZ IP        516 34.33                             151     0.210   77 295 
 BRR  HE ES   1    516 51.28                             151     0.3 7   77 295 
 BRR  HZ I         516 55.18       338.3 0.26                            77 295 
 RUS  HZ EP        516 36.43                             144     0.010  101 180 
 RUS  HE ES   1    516 55.37                             144     0.3 7  101 180 
 RUS  HZ I         516 57.53       146.1 0.39                           101 180 
 OCA  SZ EP        516 40.82                             130    -0.1 9  160 351 
 OCA  SZ ES   1    517  2.69                             130    -0.4 7  160 351 
 OCA  SZ I         517  9.24       297.9 0.24                           160 351 
 CHI  HZ EP   1    516 50.41                             117    -0.1 6  251 197 
 CHI  HN ES   1    517 19.49                             117    -0.7 6  251 197 
 CHI  HZ I         517 23.23       103.9 0.36                           251 197 
 HEL  HN ES   2    517 25.02                             114    -0.5 4  279 256 
 HEL  HZ I         517 32.04        87.1 0.79                           279 256 
 RREF BN ES   1    517 36.71                             111     0.8 5  328 230 
 RREF BZ I         517 45.35        73.9 0.30                           328 230 
 DBB  SZ EP   1    517  0.18                             109    -0.6 5  346 274 
 TOL  SZ EP   1    517  2.15                             109     0.8 5  349 225 
 SDV  BZ EP        517  2.05                             109     0.2 6  354  50 
 PRA  HZ EP        517  5.91                             107    -0.6 6  396 210 
 PRA  HN ES   2    517 48.66                             107     0.0 3  396 210 
 PRA  HZ I         517 52.68        86.4 0.70                           396 210 
                                                                                
