 2010 1228 0818  9.4 L   6.766 -74.106111.7  RSN  4 0.4 1.6LRSN                1
 GAP=140        1.07      11.0    11.5 28.0 -0.1733E+02  0.2365E+03 -0.1139E+03E
 Epicentro: PUERTO PARRA - SANTANDER                                           3
 ACTION:UP  11-01-14 15:27 OP:pat  STATUS:               ID:20101228081809 L   I
 2010-12-28-0816-35S.COL___122                                                 6
 STAT SP IPHASW D HRMM SECON CODA AMPLIT PERI AZIMU VELO SNR AR TRES W  DIS CAZ7
 BAR2 SZ EP   1    818 30.64                             134     0.7 7  104 101 
 BAR2 SZ ES   1    818 46.04                             134     0.1 7  104 101 
 BAR2 SZ I         818 47.32        23.4 0.12                           104 101 
 RUS  HZ EP   1    818 34.75                             123     0.2 7  149 130 
 RUS  HN ES   1    818 53.58                             123    -0.6 7  149 130 
 RUS  HZ I         818 54.20         4.9 0.21                           149 130 
 HEL  HZ EP   1    818 36.56                             119     0.0 7  170 248 
 HEL  HZ I         819 13.12         2.3 0.25                           170 248 
 OCA  SZ EP   1    818 37.42                             117    -0.5 7  185  28 
 OCA  SZ I         819  6.16         4.8 0.18                           185  28 
                                                                                
