 2013  128 0346 18.7 L   6.710 -73.201166.0  RSN  5 0.5 1.2LRSN                1
 GAP=175        1.19       6.0     8.6 11.6  0.9465E+01 -0.1070E+02 -0.5476E+00E
 Epicentro: VILLANUEVA - SANTANDER                                             3
 ACTION:UPD 13-02-15 09:17 OP:ep   STATUS:               ID:20130128034618 L   I
 2013-01-28-0338-48M.COL___169                                                 6
 STAT SP IPHASW D HRMM SECON CODA AMPLIT PERI AZIMU VELO AIN AR TRES W  DIS CAZ7
 BAR2 SZ EP        346 39.86                             175   -0.7510 13.2 171 
 BAR2 SZ I         346 40.48         5.7 0.38            173           13.2 171 
 BRR  HZ EP        346 42.34                             156    0.2710 71.5 308 
 BRR  HN I         347  0.49         3.9 0.20            145           71.5 308 
 BRR  HN ES        347  0.68                             156    0.3810 71.5 308 
 RUS  HZ EP        346 43.81                             150   -0.0810 91.4 172 
 RUS  HN ES        347  3.82                             150    0.2710 91.4 172 
 RUS  HZ I         347  3.99         1.0 0.28            146           91.4 172 
 PTB  HZ EP        346 47.39                             138    0.66 9  140 262 
 PTB  HN ES        347  7.97                             138   -0.64 9  140 262 
 PTB  HZ I         347 14.37         1.5 0.44            128            140 262 
 OCA  HN ES        347 13.34                             132   -0.13 9  170 356 
                                                                                
