 2016 1028 0510 41.2 L   6.797 -73.096139.8  RSN 11 0.5 2.2LRSN                1
 GAP=143        0.97       3.8     4.4  5.7 -0.3858E+01  0.8476E+01  0.7156E+01E
 Epicentro: LOS SANTOS - SANTANDER                                             3
 ACTION:UPD 16-11-09 19:23 OP:rebc STATUS:               ID:20161028051041 L   I
 OLDACT:REG 16-10-28 14:24 OP:cog  STATUS:               ID:20161028050747     3
 2016-10-28-0508-00M.COL___349                                                 6
 STAT SP IPHASW D HRMM SECON CODA AMPLIT PERI AZIMU VELO AIN AR TRES W  DIS CAZ7
 BAR2 EZ EP        511  0.06                             170   -0.0710 24.5 203 
 BAR2 EZ ES        511 14.38                             170   -0.5210 24.5 203 
 BAR2 EZ I         511 15.78        45.5 0.32            167           24.5 203 
 PAM  EZ EP        511  2.86                             150    0.2710 74.3  36 
 PAM  EE ES        511 19.52                             150    0.2510 74.3  36 
 PAM  EZ I         511 21.80        24.4 0.50            155           74.3  36 
 BRR  HZ EP        511  1.77                             150   -0.2310 76.2 297 
 BRR  HE ES        511 18.61                             150    0.3910 76.2 297 
 BRR  HZ I         511 23.02        24.3 0.14            150           76.2 297 
 RUS  HZ EP        511  4.14                             143   -0.1710100.0 179 
 RUS  HE ES        511 22.38                             143    0.0310100.0 179 
 RUS  HZ I         511 24.42        23.2 0.32            143          100.0 179 
 PTB  HZ EP   2    511  6.98                             129   -1.19 5  153 259 
 PTB  HN ES   4    511 28.12                             129   -1.10 0  153 259 
 PTB  HZ I         511 29.88        19.9 0.20            130            153 259 
 NOR  HZ EP        511 16.44                             117   -0.60 8  239 235 
 NOR  HN ES        511 44.36                             117   -0.65 8  239 235 
 NOR  HZ I         511 50.23         8.0 0.33            117            239 235 
 CHI  HZ EP        511 19.24                             116    0.55 8  250 196 
 CHI  HE ES        511 47.92                             116   -0.01 8  250 196 
 CHI  HZ I         511 55.49         5.4 0.28            117            250 196 
 HEL  HZ EP        511 21.69                             113   -0.00 7  277 256 
 HEL  HE ES        511 53.65                             113    0.37 7  277 256 
 HEL  HZ I         511 57.76         9.1 0.11            114            277 256 
 GUY2CHZ EP   4 C  511 24.72                             111   -0.30 0  305 235 
 GUY2CHN ES        511 59.34                             111    0.14 7  305 235 
 GUY2CHZ I         512 11.07         6.1 0.78                           305 235 
 PRA  HZ EP        511 34.69                             105   -0.10 6  394 210 
 PRA  HE ES        512 16.94                             105    0.34 6  394 210 
 PRA  HZ I         512 22.82         6.6 0.33            106            394 210 
 ORTC HZ EP        511 35.06                             105   -0.20 6  398 217 
 ORTC HN ES        512 18.88                             105    1.45 6  398 217 
 ORTC HZ I         512 25.14         4.9 0.40            106            398 217 
                                                                                
