 2011  128 0258 11.2 L   6.810 -73.123140.0  RSN  5 0.4 1.7LRSN                1
 GAP=185        0.79       6.7    10.9 10.6 -0.4133E+01  0.4216E+02 -0.2393E+02E
 Epicentro: LOS SANTOS - SANTANDER                                             3
 ACTION:UP  11-02-08 08:43 OP:pat  STATUS:               ID:20110128025811 L   I
 2011-01-28-0254-00S.COL___132                                                 6
 STAT SP IPHASW D HRMM SECON CODA AMPLIT PERI AZIMU VELO SNR AR TRES W  DIS CAZ7
 BAR2 SZ EP        258 30.25                             169     0.110   25 196 
 BAR2 SZ I         258 30.80        14.9 0.36                            25 196 
 BAR2 SZ ES   2    258 44.58                             169    -0.3 5   25 196 
 RUS  HZ EP   1    258 33.84                             143    -0.6 7  102 178 
 RUS  HE ES   1    258 52.95                             143     0.4 7  102 178 
 RUS  HZ I         258 53.80         4.2 0.30                           102 178 
 OCA  SZ EP   1    258 39.01                             129     0.1 7  160 352 
 OCA  SZ I         259  7.58         8.4 0.21                           160 352 
 CHI  HZ EP   1    258 48.64                             116    -0.1 6  250 196 
 CHI  HZ I         259 27.61         2.3 0.39                           250 196 
 HEL  HZ EP   2    258 52.12                             113     0.7 4  275 256 
 HEL  HE ES   2    259 22.38                             113    -0.4 4  275 256 
 HEL  HZ I         259 29.38         4.6 0.94                           275 256 
                                                                                
