 2012 1128 0839 32.1 L   6.774 -73.169140.2  RSN  7 0.4 2.0LRSN                1
 GAP=135        0.90       3.0     4.1  6.0  0.6006E+00  0.7623E+01 -0.8945E+00E
 Epicentro: LOS SANTOS - SANTANDER                                             3
 ACTION:UPD 12-12-05 15:36 OP:}ep  STATUS:               ID:20121128083932 L   I
 2012-11-28-0838-36M.COL___193                                                 6
 STAT SP IPHASW D HRMM SECON CODA AMPLIT PERI AZIMU VELO AIN AR TRES W  DIS CAZ7
 BAR2 SZ EP        839 50.94                             171   -0.0310 20.1 184 
 BAR2 SZ ES        840  5.25                             171   -0.4610 20.1 184 
 BAR2 SZ I         840  7.58        15.8 0.34                          20.1 184 
 PAM  SZ EP        839 53.87                             148   -0.0710 81.3  40 
 PAM  SN ES        840 11.06                             148    0.0610 81.3  40 
 PAM  SN I         840 11.64        13.2 0.42                          81.3  40 
 RUS  HZ EP        839 54.96                             143   -0.1210 97.9 174 
 RUS  HN ES        840 13.54                             143    0.5110 97.9 174 
 RUS  HN I         840 15.26         5.7 0.24                          97.9 174 
 PTB  HZ EP        839 57.66                             131   -0.64 9  145 260 
 PTB  HN ES        840 18.62                             131   -0.15 9  145 260 
 PTB  HN I         840 24.64        22.6 0.30                           145 260 
 ZAR  HN ES        840 29.24                             121    0.29 9  203 293 
 ZAR  HN I         840 35.18         9.6 0.22                           203 293 
 CHI  HZ EP        840  9.16                             116    0.07 8  245 195 
 CHI  HN ES        840 38.37                             116    0.41 8  245 195 
 SML  HZ EP        840  8.29                             116   -0.27 8  245 336 
 SML  HE ES        840 37.75                             116    0.73 8  245 336 
 SML  HN I         840 39.47        13.9 0.32                           245 336 
 CHI  HN I         840 40.80         6.1 0.28                           245 195 
                                                                                
