 2017  828 0020 15.4 L   6.793 -73.107132.9  RSN  4 0.3 1.2LRSN                1
 GAP=142        0.92       4.6     6.8  7.8 -0.7828E+00 -0.3660E+01  0.1074E+01E
 Epicentro: LOS SANTOS - SANTANDER                                             3
 ACTION:UPD 17-09-04 20:25 OP:rebc STATUS:               ID:20170828002015 L   I
 OLDACT:REG 17-08-28 12:01 OP:dhb  STATUS:               ID:20170828001738     3
 2017-08-28-0018-00M.COL___417                                                 6
 STAT SP IPHASW D HRMM SECON CODA AMPLIT PERI AZIMU VELO AIN AR TRES W  DIS CAZ7
 BAR2 EZ ES        020 47.20                             169   -0.3710 23.7 200 
 BAR2 EZ I         020 49.16         3.2 0.16            171           23.7 200 
 BRR  HZ EP        020 34.92                             149   -0.4710 75.3 298 
 BRR  HN ES        020 51.40                             149    0.3910 75.3 298 
 BRR  HZ I         020 54.74        13.1 0.42            149           75.3 298 
 PAM  EZ IP     C  020 35.90                             149   -0.2010 75.4  37 
 PAM  EN ES        020 52.48                             149    0.2110 75.4  37 
 PAM  EZ I         020 54.76         1.6 0.25            151           75.4  37 
 RUS  HZ EP        020 38.29                             141    0.5010 99.6 178 
 RUS  HN ES        020 55.23                             141   -0.0610 99.6 178 
 RUS  HZ I         020 56.05         1.8 0.15            145           99.6 178 
                                                                                
