 2017  128 0322 41.4 L   6.787 -73.072136.0  RSN  6 0.3 1.0LRSN                1
 GAP=147        0.80       3.9     4.1  5.8  0.2519E+01 -0.4385E+00 -0.1427E+01E
 Epicentro: LOS SANTOS - SANTANDER                                             3
 ACTION:UPD 17-05-22 16:04 OP:jn   STATUS:               ID:20170128032241 L   I
 OLDACT:DUP 17-01-28 15:49 OP:lv   STATUS:               ID:20170128031743d    3
 2017-01-28-0318-00M.COL___346                                                 6
 STAT SP IPHASW D HRMM SECON CODA AMPLIT PERI AZIMU VELO AIN AR TRES W  DIS CAZ7
 BAR2 EZ EP        322 59.73                             169   -0.1410 24.7 209 
 BAR2 EZ ES        323 14.47                             169    0.1810 24.7 209 
 BAR2 EZ I         323 15.55         4.6 0.18            170           24.7 209 
 PAM  EZ EP        323  2.77                             150    0.4310 73.7  34 
 PAM  EN ES        323 18.28                             150   -0.4010 73.7  34 
 PAM  EZ I         323 20.64         2.2 0.35            151           73.7  34 
 BRR  HZ EP        323  1.78                             148   -0.1910 79.0 297 
 BRR  HN ES        323 18.41                             148    0.3810 79.0 297 
 RUS  HZ EP        323  4.00                             142   -0.0610 98.9 181 
 RUS  HN ES        323 21.66                             142   -0.0810 98.9 181 
 RUS  HZ I         323 23.61         1.2 0.46            143           98.9 181 
 PTB  HZ EP   9    323  6.76                             128   -1.54 0  155 260 
 PTB  HN ES        323 27.22                                   -0.54 9  155 260 
 ZAR  HE ES        323 39.36                             119   -0.19 8  212 292 
                                                                                
