 2015  428 0314 48.6 L   6.467 -73.567107.0  RSN  6 0.7 1.5LRSN                1
 GAP=123        1.88       8.3     7.0 17.3  0.7432E+01  0.4961E+02  0.2683E+01E
 Epicentro: SANTA HELENA DEL OPON - SANTANDER                                  3
 ACTION:UPD 15-06-03 16:58 OP:cam  STATUS:               ID:20150428031448 L   I
 OLDACT:UP  15-04-28 15:23 OP:drio STATUS:               ID:20150428030735     3
 OLDACT:UP  15-04-28 15:20 OP:drio STATUS:               ID:20150428030735     3
 OLDACT:REG 15-04-28 12:41 OP:drio STATUS:               ID:20150428030735     3
 2015-04-28-0307-35M.COL___286                                                 6
 STAT SP IPHASW D HRMM SECON CODA AMPLIT PERI AZIMU VELO AIN AR TRES W  DIS CAZ7
 BAR2 EZ IP        315  4.12                             156   -0.3110 44.7  72 
 BAR2 EZ ES        315 17.01                             156    0.2410 44.7  72 
 BAR2 EZ I         315 18.28        31.2 0.32            159           44.7  72 
 RUS  HZ EP        315  6.92                             139   -0.4010 83.1 140 
 RUS  HE ES        315 22.14                             139    0.2310 83.1 140 
 RUS  HZ I         315 24.22         2.3 0.24            141           83.1 140 
 PTB  HZ IP     D  315  6.90                             134   -1.0710 98.7 275 
 PTB  HN ES        315 22.00                             134   -1.0710 98.7 275 
 PTB  HZ I         315 23.30         5.9 0.26            137           98.7 275 
 SPBC HZ EP        315  9.47                             131    0.7410  106 212 
 SPBC HN ES        315 24.88                             131    0.4510  106 212 
 SPBC HZ I         315 28.43         6.6 0.10            133            106 212 
 NOR  HE ES        315 36.99                             116    0.09 9  175 235 
 ZAR  HN ES        315 39.59                             115    1.47 9  182 309 
                                                                                
