 2016 1228 0559 43.3 L   6.752 -73.118143.6  RSN  6 0.3 1.3LRSN                1
 GAP=142        0.77       3.8     4.0  5.6 -0.1524E+01  0.2915E+01  0.1613E+01E
 Epicentro: LOS SANTOS - SANTANDER                                             3
 ACTION:UPD 17-01-11 20:20 OP:rebc STATUS:               ID:20161228055943 L   I
 OLDACT:REG 16-12-28 13:18 OP:edw  STATUS:               ID:20161228055743     3
 2016-12-28-0558-00M.COL___359                                                 6
 STAT SP IPHASW D HRMM SECON CODA AMPLIT PERI AZIMU VELO AIN AR TRES W  DIS CAZ7
 BAR2 EZ EP        6 0  2.47                             172   -0.1010 19.0 202 
 BAR2 EZ ES        6 0 17.20                             172   -0.4210 19.0 202 
 BRR  HZ EP        6 0  4.82                             150    0.3110 76.5 301 
 BRR  HE ES        6 0 21.42                             150    0.3610 76.5 301 
 PAM  EZ EP        6 0  5.50                             150    0.0910 79.7  35 
 PAM  EN ES        6 0 22.63                             150   -0.0410 79.7  35 
 PAM  EZ I         6 0 24.32         4.9 0.54            151           79.7  35 
 RUS  HZ EP        6 0  6.44                             145    0.0110 95.1 178 
 RUS  HN ES        6 0 24.65                             145    0.1610 95.1 178 
 RUS  HZ I         6 0 26.64         3.4 0.40            146           95.1 178 
 PTB  HZ EP        6 0  9.73                             131   -0.53 9  150 261 
 PTB  HN ES        6 0 31.24                             131   -0.07 9  150 261 
 PTB  HZ I         6 0 33.60         1.8 0.11            132            150 261 
 CHI  HN ES   2    6 0 50.37                             117    1.02 4  244 196 
                                                                                
