 2015 1028 0733 29.1 L   6.863 -73.083136.0  RSN  5 0.4 1.4LRSN                1
 GAP=207        0.85       3.8     7.0  7.5  0.7162E+01  0.1158E+02 -0.1077E+02E
 Epicentro: LOS SANTOS - SANTANDER                                             3
 ACTION:UPD 15-12-22 20:43 OP:cam  STATUS:               ID:20151028073329 L   I
 OLDACT:REG 15-10-28 12:38 OP:mh   STATUS:               ID:20151028072749     3
 2015-10-28-0727-49M.COL___319                                                 6
 STAT SP IPHASW D HRMM SECON CODA AMPLIT PERI AZIMU VELO AIN AR TRES W  DIS CAZ7
 BAR2 EZ EP   1    733 47.75                             166   -0.04 7 31.9 200 
 BAR2 EZ ES        734  2.27                             166   -0.0910 31.9 200 
 BAR2 EZ I         734  5.74         5.4 0.21            166           31.9 200 
 RUS  HZ EP        733 53.07                             140    0.6310  107 180 
 RUS  HN ES        734 10.29                             140   -0.3510  107 180 
 RUS  HZ I         734 12.09         2.5 0.32            145            107 180 
 SPBC HZ EP   1    733 57.69                             125   -0.16 7  173 219 
 SPBC HN ES        734 20.46                             125    0.19 9  173 219 
 SPBC HZ I         734 22.06         4.9 0.22            128            173 219 
 ZAR  HZ EP   1    734  0.56                             119   -0.80 6  208 290 
 ZAR  HN ES   1    734 26.68                             119    0.17 6  208 290 
 ZAR  HZ I         734 33.21         2.6 0.56            121            208 290 
 SML  HZ EP        734  4.52                             115   -0.33 8  240 333 
 SML  HN ES        734 33.07                             115    0.35 8  240 333 
 SML  HZ I         734 37.83         2.9 0.20            118            240 333 
                                                                                
