 2015 1028 0956  0.5 L   6.813 -73.105142.0  RSN  5 0.5 1.4LRSN                1
 GAP=204        1.06       5.5     8.7  9.6  0.1992E+02  0.1552E+02 -0.1408E+02E
 Epicentro: LOS SANTOS - SANTANDER                                             3
 ACTION:UPD 15-12-22 20:43 OP:cam  STATUS:               ID:20151028095600 L   I
 OLDACT:UP  15-10-28 17:38 OP:mh   STATUS:               ID:20151028094751d    3
 OLDACT:DUP 15-10-28 17:36 OP:mh   STATUS:               ID:20151028094751d    3
 2015-10-28-0947-50M.COL___319                                                 6
 STAT SP IPHASW D HRMM SECON CODA AMPLIT PERI AZIMU VELO AIN AR TRES W  DIS CAZ7
 BAR2 EZ EP   1    956 20.52                             169    0.79 7 25.8 199 
 BAR2 EZ ES        956 34.64                             169   -0.0910 25.8 199 
 BAR2 EZ I         956 37.20         5.3 0.09            168           25.8 199 
 RUS  HZ EP        956 23.02                             143   -0.9510  102 179 
 RUS  HN ES   1    956 42.59                             143    0.31 7  102 179 
 RUS  HZ I         956 43.86         2.2 0.30            146            102 179 
 SPBC HZ EP   1    956 29.60                             128    0.51 7  167 220 
 SPBC HN ES   1    956 51.72                             128    0.33 7  167 220 
 SPBC HZ I         956 53.61         3.7 0.10            129            167 220 
 ZAR  HZ EP   1    956 33.21                             121    0.13 6  208 291 
 ZAR  HN ES        956 58.21                             121   -0.29 8  208 291 
 ZAR  HZ I         957  4.59         2.7 0.30            122            208 291 
 SML  HZ EP   1    956 37.15                             117    0.17 6  244 334 
 SML  HN ES        957  5.64                             117    0.19 8  244 334 
 SML  HZ I         957  9.82         2.6 0.10            118            244 334 
                                                                                
