 2012  428 0838 31.0 L   6.699 -73.220145.8  RSN  4 0.4 1.3LRSN                1
 GAP=211        0.85       8.7     8.2  9.1  0.3501E+02  0.1036E+02  0.4535E+01E
 Epicentro: VILLANUEVA - SANTANDER                                             3
 ACTION:UPD 12-07-05 11:56 OP:tino STATUS:               ID:20120428083831 L   I
 2012-04-28-0830-00M.COL___189                                                 6
 STAT SP IPHASW D HRMM SECON CODA AMPLIT PERI AZIMU VELO AIN AR TRES W  DIS CAZ7
 BAR2 SZ EP   1    838 50.16                             175    -0.3 7   13 161 
 BAR2 SZ ES   1    839  5.25                             175    -0.4 7   13 161 
 BAR2 SZ I         839  6.64         6.9 0.17                            13 161 
 BRR  HZ EP   1    838 51.89                             153    -0.2 7   71 310 
 BRR  HN ES   1    839  9.18                             153     0.6 7   71 310 
 BRR  HZ I         839 12.97         6.1 0.14                            71 310 
 RUS  HZ EP   1    838 54.63                             147     0.6 7   90 170 
 RUS  HN ES   1    839 12.07                             147     0.0 7   90 170 
 PTB  HZ EP   1    838 56.93                             134    -0.2 7  138 263 
 PTB  HN ES   1    839 17.31                             134    -0.1 7  138 263 
 PTB  HZ I         839 22.98         1.1 0.20                           138 263 
                                                                                
