 2017  728 0627 54.3 L   6.721 -73.108141.3  RSN  7 0.2 1.1LRSN                1
 GAP=177        0.55       4.3     3.5  4.3 -0.5941E+01 -0.1371E+01  0.2406E+01E
 Epicentro: JORDAN - SANTANDER                                                 3
 ACTION:UPD 17-08-30 15:37 OP:rebc STATUS:               ID:20170728062754 L   I
 OLDACT:UP  17-07-28 15:22 OP:and  STATUS:               ID:20170728061736     3
 OLDACT:UP  17-07-28 15:22 OP:and  STATUS:               ID:20170728061736     3
 OLDACT:UP  17-07-28 15:21 OP:and  STATUS:               ID:20170728061736     3
 OLDACT:REG 17-07-28 12:38 OP:and  STATUS:               ID:20170728061736     3
 2017-07-28-0618-00M.COL___379                                                 6
 STAT SP IPHASW D HRMM SECON CODA AMPLIT PERI AZIMU VELO AIN AR TRES W  DIS CAZ7
 BAR2 EZ EP        628 13.44                             173    0.1910 16.5 210 
 BAR2 EZ ES        628 27.82                             173   -0.2310 16.5 210 
 BAR2 EZ I         628 29.33         3.2 0.28            170           16.5 210 
 BRR  HZ EP        628 15.32                             149   -0.1210 79.3 303 
 BRR  HN ES        628 32.33                             149    0.4010 79.3 303 
 PAM  EZ IP     C  628 16.34                             148    0.0310 81.9  33 
 PAM  EN ES        628 33.32                             148   -0.1610 81.9  33 
 PAM  EZ I         628 34.93         1.6 0.36            151           81.9  33 
 PTB  HZ EP   9    628 20.44                             130   -0.70 0  150 262 
 PTB  HN ES        628 41.16                             131   -0.23 9  150 262 
 PTB  HZ I         628 43.00         1.1 0.28            131            150 262 
 SPBC HN ES   2    628 43.72                             128   -0.02 5  159 222 
 SPBC HZ I         628 47.52         2.1 0.22            128            159 222 
 ZAR  HN ES   2    628 52.27                             120   -0.61 4  211 294 
 NOR  HZ EP   2    628 29.82                             117    0.22 4  233 237 
 NOR  HN ES   2    628 56.96                             117   -0.19 4  233 237 
                                                                                
