 2011 1128 0957 42.2 L   6.787 -73.077148.8  RSN  5 0.2 1.7LRSN                1
 GAP=146        0.52       4.0     4.9  6.0 -0.3283E+01  0.4365E+00  0.1133E+02E
 Epicentro: LOS SANTOS - SANTANDER                                             3
 ACTION:UPD 12-07-13 16:12 OP:ep   STATUS:               ID:20111128095742 L   I
 2011-11-28-0954-31S.COL___160                                                 6
 STAT SP IPHASW D HRMM SECON CODA AMPLIT PERI AZIMU VELO AIN AR TRES W  DIS CAZ7
 BAR2 SZ EP        958  2.02                             170   -0.1510 24.5 209 
 BAR2 SZ I         958  2.44        10.5 0.36                          24.5 209 
 BAR2 SZ ES   3    958 17.38                             170   -0.40 2 24.5 209 
 PAM  SZ EP        958  4.67                             152    0.1710 74.0  34 
 PAM  SN ES   1    958 22.01                             152    0.08 7 74.0  34 
 BRR  HZ EP        958  3.92                             151   -0.1410 78.6 297 
 BRR  HZ I         958  5.49        18.0 0.12                          78.6 297 
 BRR  HN ES   1    958 21.22                             151    0.07 7 78.6 297 
 RUS  HZ EP        958  5.82                             145   -0.2710 98.9 180 
 RUS  HZ I         958  6.56         3.1 0.18                          98.9 180 
 RUS  HE ES   2    958 25.05                             145    0.30 5 98.9 180 
 CTAU SZ EP        958 15.95                             123    0.36 8  205 212 
                                                                                
