 2012  628 0232 24.2 L   6.793 -73.084153.2  RSN  6 0.3 1.6LRSN                1
 GAP=243        0.62       5.0     5.3  5.7  0.1049E+02  0.8465E+01  0.1327E+01E
 Epicentro: LOS SANTOS - SANTANDER                                             3
 ACTION:UPD 12-08-06 17:53 OP:ep   STATUS:               ID:20120628023224 L   I
 2012-06-28-0230-00M.COL___201                                                 6
 STAT SP IPHASW D HRMM SECON CODA AMPLIT PERI AZIMU VELO AIN AR TRES W  DIS CAZ7
 BAR2 SZ EP   1    232 44.82                             171    0.12 7 24.7 206 
 BAR2 SZ ES   1    233  0.27                             171   -0.45 7 24.7 206 
 BAR2 SZ I         233  2.86        10.8 0.18                          24.7 206 
 BRR  HZ EP   1    232 46.80                             152    0.34 7 77.6 297 
 BRR  HN ES   1    233  4.31                             152    0.45 7 77.6 297 
 RUS  HZ EP   1    232 48.70                             146    0.14 7 99.5 180 
 RUS  HZ I         232 49.87         3.7 0.11                          99.5 180 
 RUS  HE ES   1    233  7.57                             146   -0.03 7 99.5 180 
 PTB  HZ EP   1    232 51.76                             132   -0.55 7  154 260 
 PTB  HN ES   2    233 14.35                             132    0.07 5  154 260 
 PTB  HZ I         233 18.78         6.5 0.23                           154 260 
 ZAR  HZ EP   1    232 57.36                             123   -0.40 6  211 292 
 ZAR  HN ES   1    233 23.81                             123   -0.17 6  211 292 
 NOR  SZ EP   1    233  1.21                             119    0.35 6  240 236 
 NOR  SE ES   1    233 29.59                             119    0.10 6  240 236 
                                                                                
