 2017 1028 0138 24.4 L   6.771 -73.175151.3  RSN  6 0.5 1.3LRSN                1
 GAP=110        0.82       5.1     5.1  7.6  0.7953E+01 -0.1387E+02 -0.2884E+01E
 Epicentro: LOS SANTOS - SANTANDER                                             3
 ACTION:UPD 17-11-07 19:38 OP:rebc STATUS:               ID:20171028013824 L   I
 OLDACT:UP  17-10-28 14:12 OP:dani STATUS:               ID:20171028013741     3
 OLDACT:UP  17-10-28 14:12 OP:dani STATUS:               ID:20171028013741     3
 OLDACT:UP  17-10-28 14:12 OP:dani STATUS:               ID:20171028013741     3
 OLDACT:UP  17-10-28 14:11 OP:dani STATUS:               ID:20171028013741     3
 OLDACT:REG 17-10-28 12:30 OP:dani STATUS:               ID:20171028013741     3
 2017-10-28-0138-00M.COL___456                                                 6
 STAT SP IPHASW D HRMM SECON CODA AMPLIT PERI AZIMU VELO AIN AR TRES W  DIS CAZ7
 BRR  HZ EP        138 46.34                             154    0.2810 70.0 302 
 BRR  HN ES        139  3.20                             154    0.2210 70.0 302 
 BRR  HZ I         139  8.95         9.0 0.34            154           70.0 302 
 PAM  EZ EP        138 47.29                             150   -0.1610 81.9  40 
 RUS  HZ EP        138 48.42                             146   -0.0510 97.7 174 
 RUS  HN ES        139  7.11                             146   -0.1610 97.7 174 
 RUS  HZ I         139  8.39         3.6 0.42            148           97.7 174 
 PTB  HZ EP        138 51.46                             134   -0.00 9  144 260 
 PTB  HN ES        139 12.03                             134   -0.56 9  144 260 
 PTB  HZ I         139 15.46         1.2 0.08            135            144 260 
 SPBC HE ES   3    139 17.39                             131    2.27 2  159 219 
 SPBC HZ I         139 20.45         2.6 0.14            133            159 219 
 YPLC HZ EP        138 54.78                             128    0.32 9  176 150 
                                                                                
