 2012  728 0701 54.2 L   6.767 -73.437120.0  RSN  4 0.2 1.5LRSN                1
 GAP=163        0.60       8.9     7.9  8.9  0.4828E+02  0.3485E+02  0.5141E+02E
 Epicentro: EL CARMEN DE CHUCURI - SANTANDER                                   3
 ACTION:UPD 12-08-14 11:46 OP:ep   STATUS:               ID:20120728070154 L   I
 2012-07-28-0700-00M.COL___215                                                 6
 STAT SP IPHASW D HRMM SECON CODA AMPLIT PERI AZIMU VELO AIN AR TRES W  DIS CAZ7
 BAR2 SZ EP        7 2 10.92                             163    -0.210   34 125 
 BAR2 SZ ES   2    7 2 23.91                             163    -0.3 5   34 125 
 BAR2 SZ I         7 2 25.22        15.6 0.28            165             34 125 
 BRR  HZ EP        7 2 11.22                             157    -0.110   48 321 
 BRR  HN ES   1    7 2 25.06                             157     0.4 7   48 321 
 BRR  HZ I         7 2 25.94         6.1 0.12            158             48 321 
 RUS  HZ EP        7 2 16.12                             137     0.310  104 158 
 RUS  HN ES   3    7 2 32.39                             137    -0.3 2  104 158 
 PTB  HZ EP        7 2 16.05                             133    -0.110  116 257 
