 2014  928 0441 12.4 L   6.772 -73.152149.3  RSN  6 0.3 1.1LRSN                1
 GAP=235        0.71       4.2     4.7  6.0  0.5593E+01  0.4359E+01  0.1514E+01E
 Epicentro: LOS SANTOS - SANTANDER                                             3
 ACTION:UPD 14-10-03 23:09 OP:nd   STATUS:               ID:20140928044112 L   I
 OLDACT:REG 14-09-28 13:23 OP:spq  STATUS:               ID:20140928043819     3
 2014-09-28-0438-19M.COL___295                                                 6
 STAT SP IPHASW D HRMM SECON CODA AMPLIT PERI AZIMU VELO AIN AR TRES W  DIS CAZ7
 BAR2 SZ EP        441 32.18                             172   -0.1710 20.2 189 
 BAR2 SZ ES   1    441 47.98                             172    0.03 7 20.2 189 
 BAR2 SZ I         441 49.88         2.5 0.24            169           20.2 189 
 BRR  HZ EP        441 34.04                             153    0.1010 72.1 301 
 BRR  HN ES        441 51.05                             153    0.2810 72.1 301 
 BRR  HZ I         441 56.42         1.9 0.15            152           72.1 301 
 RUS  HN ES   1    441 54.53                             145   -0.34 7 97.6 176 
 RUS  HZ I         441 55.79         1.3 0.16            147           97.6 176 
 PTB  HZ EP        441 39.27                             133   -0.23 9  146 260 
 PTB  HN ES        442  0.17                             133   -0.50 9  146 260 
 PTB  HZ I         442  1.55         1.8 0.10            133            146 260 
 SPBC HZ EP        441 41.17                             130    0.31 9  160 219 
 SPBC HN ES        442  3.48                             130    0.39 9  160 219 
 SPBC HZ I         442 11.07         1.8 0.16            131            160 219 
 ZAR  HN ES        442 10.64                             123    0.03 9  205 293 
 ZAR  HZ I         442 16.00         1.5 0.48            125            205 293 
                                                                                
