 2017  728 0140 33.7 L   6.770 -73.076150.5  RSN  6 0.4 1.3LRSN                1
 GAP=243        0.57       4.0     7.0  5.8 -0.3970E+01 -0.1022E+01  0.5919E+01E
 Epicentro: LOS SANTOS - SANTANDER                                             3
 ACTION:UPD 17-08-30 15:37 OP:rebc STATUS:               ID:20170728014033 L   I
 OLDACT:UP  17-07-28 13:27 OP:and  STATUS:               ID:20170728013741     3
 OLDACT:REG 17-07-28 12:21 OP:and  STATUS:               ID:20170728013741     3
 2017-07-28-0138-00M.COL___380                                                 6
 STAT SP IPHASW D HRMM SECON CODA AMPLIT PERI AZIMU VELO AIN AR TRES W  DIS CAZ7
 BAR2 EZ EP   2    140 53.82                             171   -0.04 5 22.9 211 
 BAR2 EZ ES   2    141  9.90                             171    0.29 5 22.9 211 
 BAR2 EZ I         141 10.39         4.0 0.19            161           22.9 211 
 BRR  HZ EP        140 55.84                             150    0.0310 79.6 298 
 BRR  HN ES        141 13.10                             150    0.0110 79.6 298 
 RUS  HN ES   2    141 15.68                             146   -0.66 5 97.0 180 
 PTB  HZ EP   2    141  1.30                             132   -0.36 5  155 261 
 PTB  HN ES   3    141 21.43                             132   -2.06 2  155 261 
 PTB  HZ I         141 27.67         1.7 0.54            128            155 261 
 SPBC HZ EP        141  2.87                             130    0.10 9  166 222 
 SPBC HN ES        141 25.67                             130    0.21 9  166 222 
 SPBC HZ I         141 32.18         4.2 0.26            126            166 222 
 NOR  HZ EP   2    141 10.26                             119    0.11 4  239 236 
 NOR  HN ES   2    141 38.48                             119   -0.13 4  239 236 
 NOR  HZ I         141 43.22         1.5 0.22            117            239 236 
                                                                                
