 2013 1228 0002 51.1 L   6.830 -73.123120.4  RSN  8 0.5 1.5LRSN                1
 GAP=202        1.06       4.6     6.9  9.7 -0.1600E+02  0.3092E+02 -0.1788E+02E
 Epicentro: LOS SANTOS - SANTANDER                                             3
 ACTION:UPD 14-01-13 10:21 OP:ep   STATUS:               ID:20131228000251 L   I
 OLDACT:UP  13-12-28 10:19 OP:mh   STATUS:               ID:20131228000000     3
 OLDACT:UP  13-12-28 09:52 OP:mh   STATUS:               ID:20131228000000     3
 OLDACT:REG 13-12-28 06:59 OP:mh   STATUS:               ID:20131228000000     3
 2013-12-28-0000-00M.COL___285                                                 6
 STAT SP IPHASW D HRMM SECON CODA AMPLIT PERI AZIMU VELO AIN AR TRES W  DIS CAZ7
 BAR2 SZ EP        0 3  8.06                             166    0.2710 27.1 194 
 BAR2 SZ ES        0 3 20.43                             166   -0.3810 27.1 194 
 BAR2 SZ I         0 3 25.94         6.8 0.10            167           27.1 194 
 BRR  HZ EP        0 3 10.38                             147    0.7610 71.9 295 
 BRR  HN ES   4    0 3 26.05                             147    1.98 0 71.9 295 
 BRR  HZ I         0 3 29.84         9.0 0.45            146           71.9 295 
 PTB  HZ EP   4    0 3 15.26                             124   -1.18 0  151 258 
 PTB  HN ES        0 3 36.00                             124   -0.20 9  151 258 
 PTB  HZ I         0 3 42.25         2.7 0.22            129            151 258 
 OCA  HZ EP        0 3 17.33                             123    0.05 9  157 352 
 OCA  HN ES        0 3 37.66                             123   -0.03 9  157 352 
 OCA  HZ I         0 3 43.32         4.4 0.11            129            157 352 
 ZAR  HN ES   1    0 3 46.97                             116    0.60 6  205 291 
 ZAR  HZ I         0 3 52.68         6.4 0.29            120            205 291 
 NOR  HZ EP   4    0 3 27.03                             112    1.09 0  239 234 
 NOR  HN ES        0 3 52.62                             112   -0.49 8  239 234 
 NOR  HZ I         0 3 57.64         2.6 0.26            118            239 234 
 SML  HZ EP   1    0 3 25.11                             111   -1.11 6  242 334 
 SML  HN ES   1    0 3 53.14                             111   -0.48 6  242 334 
 RREF HN ES        0 4 12.70                             105    0.35 7  326 229 
 SJC  HZ EP   4    0 3 42.39                             101   -3.39 0  408 326 
                                                                                
