 2011  528 0025 45.0 L   6.843 -73.265118.0  RSN 11 0.4 2.1LRSN                1
 GAP=134        0.88       3.7     6.4  7.2 -0.3817E+01 -0.1212E+02  0.8234E+00E
 Epicentro: ZAPATOCA - SANTANDER                                               3
 ACTION:UP  11-06-29 08:56 OP:tino STATUS:               ID:20110528002545 L   I
 2011-05-28-0024-17S.COL___115                                                 6
 STAT SP IPHASW D HRMM SECON CODA AMPLIT PERI AZIMU VELO SNR AR TRES W  DIS CAZ7
 BTL  SZ IP        026  1.58                             176     0.510    8 358 
 GIR2 SZ EP        026  1.45                             166     0.210   27  17 
 BAR2 SZ EP        026  1.79                             165     0.310   29 162 
 BAR2 SZ ES   2    026 13.36                             165    -1.0 5   29 162 
 BAR2 SZ I         026 16.65       129.5 0.31                            29 162 
 BRR  HZ EP        026  2.28                             153    -0.110   57 301 
 BRR  HZ I         026  2.63        36.6 0.13                            57 301 
 BRR  HE ES        026 16.17                             153     0.210   57 301 
 RUS  HZ EP        026  6.33                             135    -0.410  107 169 
 RUS  HZ I         026  7.28        10.9 0.10                           107 169 
 RUS  HE ES   2    026 23.31                             135    -0.3 5  107 169 
 BRI  SZ EP        026  6.76                             134     0.310  110  28 
 GRA  SZ EP        026  7.94                             130     0.010  126  24 
 GRA  SZ I         026  9.93        13.1 0.29                           126  24 
 OCA  SZ EP        026 10.34                             124    -0.4 9  155 358 
 OCA  SZ ES   1    026 30.30                             124    -0.5 7  155 358 
 OCA  SZ I         026 36.85        20.1 0.19                           155 358 
 NOR  SZ EP   2    026 18.64                             113     0.2 4  227 232 
 NOR  SN ES   2    026 43.89                             113    -0.6 4  227 232 
 HEL  HZ EP   2    026 22.43                             110    -0.2 4  261 254 
 HEL  HZ I         026 57.22         4.2 0.32                           261 254 
 PRA  HZ EP   2    026 37.59                             102     0.1 3  390 208 
 PRA  HN ES   2    027 19.06                             102     0.7 3  390 208 
                                                                                
