 2015  428 0926 11.1 L   6.807 -73.250134.7  RSN  4 0.1 1.4LRSN                1
 GAP=165        0.38       2.3     3.6  4.3 -0.4349E+01  0.8610E+01 -0.6056E+01E
 Epicentro: ZAPATOCA - SANTANDER                                               3
 ACTION:UPD 15-06-03 16:58 OP:cam  STATUS:               ID:20150428092611 L   I
 OLDACT:DUP 15-04-28 15:07 OP:stll STATUS:               ID:20150428091750d    3
 2015-04-28-0917-49M.COL___280                                                 6
 STAT SP IPHASW D HRMM SECON CODA AMPLIT PERI AZIMU VELO AIN AR TRES W  DIS CAZ7
 BAR2 EZ ES        926 43.66                             169   -0.0710 24.9 163 
 BAR2 EZ I         926 45.36         4.5 0.26            174           24.9 163 
 PTB  HZ EP        926 36.27                             132    0.11 9  137 258 
 PTB  HZ I         926 37.13         3.1 0.16            133            137 258 
 PTB  HN ES        926 55.69                             132   -0.01 9  137 258 
 OCA  HN ES        926 59.86                             127    0.16 9  159 357 
 SML  HZ EP        926 46.43                             116   -0.12 8  238 338 
 SML  HE ES        927 14.07                             116   -0.13 8  238 338 
 SML  HZ I         927 21.18         2.6 0.10            116            238 338 
                                                                                
