 2017  328 0029 32.1 L   6.767 -73.156151.1  RSN  5 0.2 1.2LRSN                1
 GAP=137        0.59       3.2     3.6  5.9  0.3444E+00 -0.4611E+01 -0.3023E+01E
 Epicentro: LOS SANTOS - SANTANDER                                             3
 ACTION:UPD 17-05-25 18:46 OP:jn   STATUS:               ID:20170328002932 L   I
 OLDACT:UP  17-03-28 13:13 OP:and  STATUS:               ID:20170328002741     3
 OLDACT:REG 17-03-28 12:24 OP:and  STATUS:               ID:20170328002741     3
 2017-03-28-0028-00M.COL___360                                                 6
 STAT SP IPHASW D HRMM SECON CODA AMPLIT PERI AZIMU VELO AIN AR TRES W  DIS CAZ7
 BRR  HZ EP        029 54.13                             153    0.2110 72.1 302 
 BRR  HN ES        030 11.01                             153    0.1110 72.1 302 
 PAM  EZ EP        029 55.10                             151   -0.0410 80.9  38 
 RUS  HZ EP        029 56.04                             146   -0.1310 97.0 175 
 RUS  HN ES        030 14.82                             146   -0.1010 97.0 175 
 RUS  HZ I         030 16.15         1.5 0.34            143           97.0 175 
 PTB  HZ EP        029 59.38                             134   -0.01 9  146 260 
 PTB  HN ES        030 20.25                             134   -0.40 9  146 260 
 PTB  HZ I         030 22.02         1.5 0.15            132            146 260 
 SPBC HN ES        030 23.39                             131    0.37 9  160 220 
 SPBC HZ I         030 27.76         3.8 0.24            129            160 220 
                                                                                
