 2016  628 0208 34.1 L   6.757 -73.133154.6  RSN  6 0.4 1.5LRSN                1
 GAP=235        0.91       5.1     5.5  6.2  0.1124E+02  0.4837E+01 -0.1678E+01E
 Epicentro: LOS SANTOS - SANTANDER                                             3
 ACTION:UPD 16-07-21 22:23 OP:rebc STATUS:               ID:20160628020834 L   I
 OLDACT:UP  16-06-28 14:58 OP:edw  STATUS:               ID:20160628020746     3
 OLDACT:REG 16-06-28 12:24 OP:edw  STATUS:               ID:20160628020746     3
 2016-06-28-0207-46M.COL___340                                                 6
 STAT SP IPHASW D HRMM SECON CODA AMPLIT PERI AZIMU VELO AIN AR TRES W  DIS CAZ7
 BAR2 EZ EP        2 8 54.62                             173   -0.1510 19.0 197 
 BAR2 EZ ES        2 9 10.49                             173   -0.3610 19.0 197 
 BAR2 EZ I         2 9 11.55         3.1 0.12                          19.0 197 
 BRR  HZ EP        2 8 56.80                             153    0.3510 74.8 301 
 BRR  HN ES        2 9 14.21                             153    0.3610 74.8 301 
 RUS  HZ EP        2 8 58.17                             147   -0.2810 95.7 177 
 RUS  HN ES        2 9 17.65                             147    0.2510 95.7 177 
 RUS  HZ I         2 9 20.76         1.7 0.18                          95.7 177 
 PTB  HZ EP        2 9  1.44                             134   -0.45 9  148 261 
 PTB  HN ES        2 9 22.88                             134   -0.66 9  148 261 
 PTB  HZ I         2 9 28.54         4.2 0.28                           148 261 
 SPBC HZ EP        2 9  3.27                             131    0.19 9  160 220 
 SPBC HN ES        2 9 26.13                             131    0.48 9  160 220 
 SPBC HZ I         2 9 29.85         6.7 0.32                           160 220 
 ZAR  HZ EP        2 9  7.70                             124    0.20 8  207 293 
 ZAR  HN ES        2 9 33.63                             124    0.12 8  207 293 
 ZAR  HZ I         2 9 39.21         5.5 0.13                           207 293 
                                                                                
