 2011  828 0828 15.9 L   6.772 -73.060153.2  RSN  5 0.3 1.7LRSN                1
 GAP=192        0.70       5.0    12.9  7.6  0.2557E+02 -0.2660E+02 -0.1495E+02E
 Epicentro: LOS SANTOS - SANTANDER                                             3
 ACTION:UPD 12-07-13 15:54 OP:ep   STATUS:               ID:20110828082815 L   I
 2011-08-28-0825-41S.COL___161                                                 6
 STAT SP IPHASW D HRMM SECON CODA AMPLIT PERI AZIMU VELO AIN AR TRES W  DIS CAZ7
 BAR2 SZ EP   1    828 36.69                             171    0.21 7 24.1 214 
 BAR2 SZ I         828 37.26        10.9 0.37                          24.1 214 
 BAR2 SZ ES   1    828 51.80                             171   -0.69 7 24.1 214 
 GIR2 SZ EP   1    828 36.85                             166    0.20 7 37.0 337 
 GIR2 SZ ES   1    828 53.33                             166    0.52 7 37.0 337 
 BRR  HZ EP   1    828 38.56                             151    0.11 7 81.0 297 
 BRR  HZ I         828 38.85        20.8 0.14                          81.0 297 
 BRR  HE ES   1    828 55.99                             151   -0.02 7 81.0 297 
 RUS  HN ES   1    828 59.20                             146    0.08 7 97.3 182 
 RUS  HZ I         829  0.58         3.9 0.29                          97.3 182 
 OCA  SZ EP   1    828 44.79                             130   -0.46 7  165 350 
 OCA  SZ ES   1    829  8.08                             130   -0.02 7  165 350 
 OCA  SZ I         829 13.11         5.6 0.33                           165 350 
                                                                                
