 2011  528 0422  1.8 L   6.772 -73.090142.6  RSN  6 0.2 1.3LRSN                1
 GAP=165        0.52       3.8     7.5  7.2 -0.1988E+00 -0.2707E+02 -0.3879E+01E
 Epicentro: LOS SANTOS - SANTANDER                                             3
 ACTION:UP  11-06-29 08:56 OP:tino STATUS:               ID:20110528042201 L   I
 2011-05-28-0417-39S.COL___115                                                 6
 STAT SP IPHASW D HRMM SECON CODA AMPLIT PERI AZIMU VELO SNR AR TRES W  DIS CAZ7
 BTL  SZ EP        422 21.44                             169     0.310   25 310 
 BTL  SZ ES   2    422 36.18                             169     0.0 5   25 310 
 GIR2 SZ EP   1    422 21.45                             165     0.2 7   36 341 
 BRR  HZ EP   1    422 22.82                             150    -0.2 7   78 298 
 BRR  HE ES   1    422 39.55                             150     0.0 7   78 298 
 BRR  HZ I         422 41.25         4.4 0.23                            78 298 
 RUS  HZ EP   2    422 24.91                             144    -0.1 5   97 180 
 RUS  HZ I         422 26.42         2.2 0.22                            97 180 
 RUS  HN ES   2    422 42.70                             144    -0.4 5   97 180 
 GRA  SZ EP        422 26.91                             136     0.010  127  14 
 GRA  SZ I         422 28.33         2.8 0.27                           127  14 
 GRA  SZ ES   2    422 46.20                             136    -0.2 5  127  14 
 OCA  SZ EP   2    422 29.73                             128    -0.5 5  164 351 
 OCA  SZ ES   2    422 52.38                             128    -0.1 5  164 351 
                                                                                
