 2011 1228 0907 53.8 L   6.973 -73.222130.3  RSN  8 0.3 1.6LRSN                1
 GAP=118        0.52       4.0     2.9  4.7 -0.1332E+01  0.5376E+01  0.1224E+01E
 Epicentro: BETULIA - SANTANDER                                                3
 ACTION:UPD 12-07-13 16:19 OP:ep   STATUS:               ID:20111228090753 L   I
 2011-12-28-0900-00M.COL___186                                                 6
 STAT SP IPHASW D HRMM SECON CODA AMPLIT PERI AZIMU VELO AIN AR TRES W  DIS CAZ7
 GIR2 SZ EP   1    9 8 11.32                             174    0.06 7 12.1  15 
 GIR2 SZ ES   1    9 8 24.80                             174   -0.06 7 12.1  15 
 BAR2 SZ EP        9 8 12.37                             161    0.1810 42.3 174 
 BAR2 SZ ES   1    9 8 26.59                             161    0.07 7 42.3 174 
 BAR2 SZ I         9 8 27.55        19.9 0.21                          42.3 174 
 BRR  HZ EP   1    9 8 12.72                             155    0.25 7 56.1 285 
 PAM  SZ EP   1    9 8 13.89                             150   -0.09 7 70.5  55 
 PAM  SN ES   1    9 8 29.53                             150   -0.18 7 70.5  55 
 PAM  SZ I         9 8 31.10         5.2 0.27                          70.5  55 
 RUS  HZ EP   1    9 8 17.87                             135    0.15 7  120 173 
 RUS  HZ I         9 8 18.25         4.6 0.11                           120 173 
 PTB  HZ EP   1    9 8 18.65                             129   -0.63 7  145 251 
 PTB  HN ES   1    9 8 38.82                             129   -0.31 7  145 251 
 ZAR  HZ EP   1    9 8 23.74                             121   -0.04 7  190 288 
 ZAR  HN ES   1    9 8 47.51                             121    0.37 7  190 288 
 ZAR  HZ I         9 8 52.48         7.4 0.27                           190 288 
 NOR  SN ES   2    9 8 57.15                             114    0.23 4  240 230 
                                                                                
