 2010 1228 0747  8.5 L   6.787 -73.329138.0  RSN  6 0.3 1.5LRSN                1
 GAP=129        0.69       3.9    10.4  8.6 -0.3630E+01  0.3489E+02 -0.8253E+01E
 Epicentro: ZAPATOCA - SANTANDER                                               3
 ACTION:UP  11-01-14 15:27 OP:pat  STATUS:               ID:20101228074708 L   I
 2010-12-28-0745-57S.COL___135                                                 6
 STAT SP IPHASW D HRMM SECON CODA AMPLIT PERI AZIMU VELO SNR AR TRES W  DIS CAZ7
 BTL  SZ EP   1    747 27.45                             173     0.4 7   16  25 
 BAR2 SZ EP        747 27.30                             169     0.010   27 143 
 BAR2 SZ ES   1    747 41.90                             169     0.0 7   27 143 
 BAR2 SZ I         747 43.58         7.4 0.12                            27 143 
 RUS  HZ EP   1    747 31.05                             142    -0.6 7  103 165 
 RUS  HN ES   1    747 50.04                             142     0.3 7  103 165 
 RUS  HZ I         747 52.24         4.0 0.32                           103 165 
 OCA  SZ EP   1    747 36.09                             128    -0.2 7  161   0 
 OCA  SZ ES   1    747 57.98                             128     0.1 7  161   0 
 OCA  SZ I         748  2.26         4.8 0.30                           161   0 
 NOR  SE ES   2    748  7.95                             119    -0.1 4  218 232 
 PRA  HZ EP   2    748  1.26                             106     0.7 3  381 207 
                                                                                
