 2012 1128 0139 28.4 L   6.868 -73.336126.7  RSN  5 0.3 1.6LRSN                1
 GAP=140        0.84       4.7     4.3  7.4 -0.6490E+01  0.9342E+01 -0.5240E+01E
 Epicentro: BETULIA - SANTANDER                                                3
 ACTION:UPD 12-12-05 15:36 OP:}ep  STATUS:               ID:20121128013928 L   I
 2012-11-28-0138-50M.COL___212                                                 6
 STAT SP IPHASW D HRMM SECON CODA AMPLIT PERI AZIMU VELO AIN AR TRES W  DIS CAZ7
 GIR2 SZ EP        139 45.98                             167    0.2110 28.1  34 
 GIR2 SZ I         140  0.09        10.1 0.42                          28.1  34 
 BAR2 SZ EP        139 46.23                             164    0.1010 34.9 151 
 BAR2 SZ ES        139 59.63                             164   -0.2810 34.9 151 
 BAR2 SZ I         140  0.36        41.4 0.28                          34.9 151 
 PAM  SZ EP        139 49.71                             143    0.3310 87.5  53 
 PAM  SE ES        140  5.53                             143   -0.1810 87.5  53 
 PAM  SN I         140  6.25         6.5 0.44                          87.5  53 
 RUS  HZ EP        139 51.19                             136   -0.0810  111 165 
 RUS  HE ES        140  9.22                             136    0.1510  111 165 
 RUS  HN I         140 26.94         1.8 0.40                           111 165 
 PTB  HZ EP        139 51.49                             131   -0.6810  129 254 
 PTB  HN ES        140 11.06                             131    0.3910  129 254 
 PTB  HN I         140 13.32        13.7 0.44                           129 254 
                                                                                
