 2011 1228 0743 38.9 L   6.810 -73.077148.8  RSN  6 0.2 1.1LRSN                1
 GAP=204        0.37       3.9     5.5  5.3  0.1096E+02  0.8268E+01  0.2404E+01E
 Epicentro: LOS SANTOS - SANTANDER                                             3
 ACTION:UPD 12-07-13 16:19 OP:ep   STATUS:               ID:20111228074000 L   I
 2011-12-28-0740-00M.COL___186                                                 6
 STAT SP IPHASW D HRMM SECON CODA AMPLIT PERI AZIMU VELO AIN AR TRES W  DIS CAZ7
 BAR2 SZ ES   2    744 14.72                             169    0.09 5 26.7 206 
 GIR2 SZ EP   1    743 59.15                             167    0.17 7 32.4 337 
 GIR2 SZ ES   1    744 14.44                             167   -0.19 7 32.4 337 
 BRR  HN ES   1    744 17.81                             151    0.03 7 77.4 295 
 BRR  HZ I         744 19.61         3.6 0.45                          77.4 295 
 RUS  HN ES   1    744 21.85                             144    0.02 7  101 180 
 RUS  HZ I         744 22.86         1.4 0.17                           101 180 
 PTB  HZ EP   2    744  6.47                             131   -0.35 5  155 259 
 ZAR  HN ES   2    744 38.43                             122    0.20 4  211 291 
                                                                                
