 2011  228 0753 18.4 L   6.815 -73.186143.0  RSN  6 0.2 1.6LRSN                1
 GAP=154        0.47       2.1     5.4  4.5 -0.2871E+01  0.8736E+01 -0.5988E+00E
 Epicentro: ZAPATOCA - SANTANDER                                               3
 ACTION:UP  11-03-28 15:11 OP:jfem STATUS:               ID:20110228075318 L   I
 2011-02-28-0752-50S.COL___135                                                 6
 STAT SP IPHASW D HRMM SECON CODA AMPLIT PERI AZIMU VELO SNR AR TRES W  DIS CAZ7
 BAR2 SZ EP   1    753 37.80                             170     0.110   25 180 
 BAR2 SZ ES   1    753 52.72                             170    -0.110   25 180 
 BAR2 SZ I         753 56.32        12.0 0.49                            25 180 
 RUS  HZ EP   1    753 41.78                             143    -0.2 9  103 174 
 RUS  HN ES   1    754  0.71                             143     0.3 9  103 174 
 RUS  HZ I         754  2.11         5.2 0.33                           103 174 
 GRA  SZ EP   1    753 43.50                             136     0.1 9  126  20 
 GRA  SZ ES   1    754  2.77                             136    -0.1 9  126  20 
 GRA  SZ I         754  4.10         4.8 0.31                           126  20 
 OCA  SZ EP   1    753 46.40                             129     0.1 9  158 355 
 OCA  SZ ES   1    754  8.05                             129     0.0 9  158 355 
 OCA  SZ I         754 13.38         5.2 0.20                           158 355 
 CHI  HZ EP        753 55.81                             117    -0.210  249 194 
 HEL  HZ EP   2    753 58.66                             115     0.6 5  268 255 
 HEL  HN ES   2    754 28.68                             115    -0.3 5  268 255 
 HEL  HZ I         754 35.92         2.6 0.32                           268 255 
                                                                                
