 2011  928 0819  8.5 L   6.755 -73.128141.7  RSN 13 0.4 2.7LRSN                1
 GAP=141        0.75       3.4     4.7  5.3 -0.4315E+01  0.8235E+01  0.3600E+01E
 Epicentro: LOS SANTOS - SANTANDER                                             3
 ACTION:UPD 12-07-13 16:00 OP:ep   STATUS:               ID:20110928081908 L   I
 2011-09-28-0815-39S.COL___164                                                 6
 STAT SP IPHASW D HRMM SECON CODA AMPLIT PERI AZIMU VELO AIN AR TRES W  DIS CAZ7
 BAR2 SZ EP        819 27.83                             172    0.2210 19.0 198 
 BAR2 SZ ES   1    819 41.76                             172   -0.72 7 19.0 198 
 BAR2 SZ I         819 45.49       123.1 0.32                          19.0 198 
 GIR2 SZ EP   1    819 27.95                             165    0.05 7 36.5 349 
 BRR  HZ EP        819 29.71                             150    0.2110 75.4 301 
 BRR  HZ I         819 31.39       134.1 0.13                          75.4 301 
 BRR  HN ES   1    819 46.47                             150    0.62 7 75.4 301 
 PAM  SZ EP   1    819 30.54                             149    0.04 7 80.1  36 
 PAM  SN ES   1    819 47.14                             149   -0.49 7 80.1  36 
 PAM  SZ I         819 49.94        17.3 0.23                          80.1  36 
 RUS  HZ EP   1    819 31.69                             144    0.16 7 95.5 177 
 RUS  HN ES   1    819 49.98                             144    0.52 7 95.5 177 
 RUS  HZ I         819 53.55        45.7 0.20                          95.5 177 
 OCA  SZ EP   1    819 36.66                             128   -0.38 7  165 353 
 OCA  SZ I         820  4.11       111.2 0.24                           165 353 
 NOR  SZ EP   1    819 43.69                             118   -0.22 6  233 236 
 NOR  SN ES   1    820 11.30                             118   -0.19 6  233 236 
 NOR  SZ I         820 15.73         6.3 0.24                           233 236 
 CHI  HZ EP   1    819 45.58                             117    0.02 6  244 196 
 CHI  HZ I         819 48.06        31.7 0.14                           244 196 
 CHI  HN ES   1    820 14.26                             117   -0.16 6  244 196 
 ROSC BZ EP   1    819 46.15                             116    0.06 6  250 212 
 ROSC BZ I         820 25.74        68.5 0.37                           250 212 
 HEL  HZ EP   1    819 48.31                             114   -0.32 6  273 257 
 HEL  HN ES   1    820 19.59                             114   -0.31 6  273 257 
 HEL  HZ I         820 27.13        46.1 0.42                           273 257 
 RREF HZ EP   1    819 54.69                             110    0.37 5  320 230 
 RREF HZ I         820 39.56        35.2 0.37                           320 230 
 TOL  SZ EP   1    819 57.28                             109    0.89 5  341 225 
 PRA  HZ EP   1    820  0.99                             106   -0.55 4  389 210 
 PRA  HZ I         820  3.64       178.1 0.12                           389 210 
 PRA  HN ES   1    820 41.97                             106   -0.90 4  389 210 
                                                                                
