 2015  928 0929 10.8 L   6.802 -73.137142.0  RSN  8 0.5 1.5LRSN                1
 GAP=184        1.07       4.1     6.2  8.1 -0.2234E+01  0.6389E+01 -0.1057E+02E
 Epicentro: LOS SANTOS - SANTANDER                                             3
 ACTION:UPD 15-10-28 16:28 OP:cam  STATUS:               ID:20150928092910 L   I
 OLDACT:REG 15-09-28 13:12 OP:spq  STATUS:               ID:20150928092747     3
 2015-09-28-0927-47M.COL___349                                                 6
 STAT SP IPHASW D HRMM SECON CODA AMPLIT PERI AZIMU VELO AIN AR TRES W  DIS CAZ7
 BAR2 EZ EP        929 29.76                             170   -0.1910 23.7 192 
 BAR2 EZ ES   1    929 44.81                             170   -0.10 7 23.7 192 
 BAR2 EZ I         929 46.08         4.8 0.18            171           23.7 192 
 BRR  HZ EP   1    929 31.89                             152    0.34 7 71.9 298 
 BRR  HN ES        929 48.41                             152    0.6510 71.9 298 
 BRR  HZ I         929 49.78         8.3 0.64            150           71.9 298 
 RUS  HE ES   1    929 52.48                             143    0.08 7  101 177 
 RUS  HZ I         929 53.50         2.2 0.34            146            101 177 
 PTB  HZ EP        929 36.94                             131   -0.57 9  149 259 
 PTB  HN ES        929 57.65                             131   -0.73 9  149 259 
 PTB  HZ I         929 59.96         2.1 0.15            131            149 259 
 OCA  HZ EP   1    929 39.30                             129    0.53 7  160 353 
 OCA  HE ES        930  0.11                             129   -0.51 9  160 353 
 OCA  HZ I         930  4.09         5.1 0.16            129            160 353 
 SPBC HN ES        930  1.39                             128    0.28 9  164 219 
 SPBC HZ I         930  3.21         4.1 0.40            130            164 219 
 ZAR  HZ EP        929 43.77                             121    0.72 9  205 292 
 ZAR  HE ES        930  8.36                             121    0.13 9  205 292 
 ZAR  HZ I         930 14.53         2.4 0.26            122            205 292 
 SML  HZ EP        929 46.84                             117   -0.36 8  244 335 
 SML  HN ES   1    930 15.75                             117    0.13 6  244 335 
 SML  HZ I         930 19.80         3.5 0.10            117            244 335 
                                                                                
