 2016  228 0515  6.6 L   6.802 -73.400124.0  RSN  7 0.4 1.5LRSN                1
 GAP=107        1.00       3.5     4.5  7.6 -0.5973E+01  0.1055E+02 -0.5994E+01E
 Epicentro: SAN VICENTE DE CHUCURI - SANTANDER                                 3
 ACTION:UPD 16-03-04 21:30 OP:rebc STATUS:               ID:20160228051506 L   I
 OLDACT:REG 16-02-28 12:36 OP:drio STATUS:               ID:20160228050747     3
 2016-02-28-0507-47M.COL___318                                                 6
 STAT SP IPHASW D HRMM SECON CODA AMPLIT PERI AZIMU VELO AIN AR TRES W  DIS CAZ7
 BAR2 EZ EP        515 23.86                             164   -0.0110 33.4 134 
 BAR2 EZ ES        515 37.21                             164   -0.1610 33.4 134 
 BAR2 EZ I         515 38.07        17.9 0.30            171           33.4 134 
 PAM  EZ EP        515 28.57                             140    0.5810 97.5  52 
 PAM  EN ES        515 45.17                             140    0.4610 97.5  52 
 PAM  EZ I         515 46.56         5.4 0.28            144           97.5  52 
 RUS  HZ EP        515 28.43                             137   -0.2910  107 161 
 RUS  HN ES        515 45.51                             137   -0.5010  107 161 
 RUS  HZ I         515 47.62         1.7 0.26            142            107 161 
 PTB  HZ EP        515 28.82                             133   -0.4510  120 256 
 PTB  HE ES        515 47.21                             133    0.2210  120 256 
 PTB  HZ I         515 50.61         6.4 0.10            133            120 256 
 SPBC HZ EP        515 32.32                             127    0.42 9  147 210 
 SPBC HN ES        515 52.06                             127    0.38 9  147 210 
 SPBC HZ I         515 57.94         3.9 0.10            129            147 210 
 OCA  HZ EP        515 32.89                             124   -0.27 9  159   3 
 OCA  HN ES        515 53.50                             124   -0.41 9  159   3 
 OCA  HZ I         516  0.52         6.4 0.16            126            159   3 
 ZAR  HZ EP   4    515 36.29                             121    1.36 0  178 295 
 ZAR  HE ES   4    515 59.15                             121    2.08 0  178 295 
 ZAR  HZ I         516  2.06         4.3 0.28            122            178 295 
                                                                                
