 2016 1028 0355 37.9 L   6.771 -73.165144.5  RSN  6 0.4 1.4LRSN                1
 GAP=135        0.91       4.6     5.1  7.5 -0.4356E+01  0.1212E+02  0.2072E+01E
 Epicentro: LOS SANTOS - SANTANDER                                             3
 ACTION:UPD 16-11-09 19:23 OP:rebc STATUS:               ID:20161028035537 L   I
 OLDACT:DUP 16-10-28 16:50 OP:cog  STATUS:               ID:20161028034749d    3
 2016-10-28-0348-00M.COL___349                                                 6
 STAT SP IPHASW D HRMM SECON CODA AMPLIT PERI AZIMU VELO AIN AR TRES W  DIS CAZ7
 BAR2 EZ EP        355 57.33                             172    0.0410 19.9 185 
 BAR2 EZ ES        356 11.85                             172   -0.5810 19.9 185 
 BAR2 EZ I         356 13.45         6.4 0.15            170           19.9 185 
 BRR  HZ EP        355 58.99                             152    0.1210 70.9 302 
 BRR  HN ES        356 16.02                             152    0.7710 70.9 302 
 BRR  HZ I         356 19.00         4.3 0.28            151           70.9 302 
 PAM  EZ EP   3    356  0.14                             149   -0.05 2 81.2  39 
 PAM  EN ES        356 17.35                             149   -0.2410 81.2  39 
 PAM  EZ I         356 19.14         7.4 0.50            154           81.2  39 
 RUS  HZ EP   2    356  1.73                             145    0.44 5 97.6 175 
 RUS  HE ES        356 19.92                             145    0.3710 97.6 175 
 RUS  HZ I         356 21.41         1.9 0.36            147           97.6 175 
 PTB  HZ EP        356  4.21                             132   -0.29 9  145 260 
 PTB  HN ES        356 24.97                             132   -0.29 9  145 260 
 PTB  HZ I         356 31.10         2.5 0.20            132            145 260 
 SPBC HZ EP   2    356  6.01                             129    0.09 5  159 219 
 SPBC HE ES        356 27.67                             129   -0.12 9  159 219 
 SPBC HZ I         356 32.24         2.7 0.17            131            159 219 
                                                                                
