 2011  628 0902  7.8 L   6.777 -73.123150.5  RSN 23 0.3 4.0LRSN                1
 GAP=104        0.74       2.3     3.2  3.5 -0.2614E+01  0.1506E+01  0.2217E+01E
 Epicentro: LOS SANTOS - SANTANDER                                             3
 ACTION:UP  11-07-14 19:08 OP:ep   STATUS:               ID:20110628090207 L   I
 2011-06-28-0900-34S.COL___140                                                 6
 STAT SP IPHASW D HRMM SECON CODA AMPLIT PERI AZIMU VELO SNR AR TRES W  DIS CAZ7
 BAR2 SZ IP        9 2 28.00                             172     0.010   21 198 
 BAR2 SZ ES   1    9 2 43.31                             172    -0.4 7   21 198 
 BAR2 SZ I         9 2 44.86      3777.4 0.46                            21 198 
 BTL  SZ IP        9 2 28.22                             171     0.210   22 314 
 BTL  SZ ES   1    9 2 44.07                             171     0.3 7   22 314 
 GIR2 SZ IP        9 2 28.07                             166     0.010   34 347 
 GIR2 SZ ES   1    9 2 43.52                             166    -0.4 7   34 347 
 BRR  HZ IP     C  9 2 29.89                             152     0.210   75 299 
 BRR  HN ES   1    9 2 46.92                             152     0.2 7   75 299 
 BRR  HZ I         9 2 51.28      1130.5 0.32                            75 299 
 PAM  SZ IP        9 2 30.81                             151     0.310   78  37 
 PAM  SN ES   2    9 2 48.05                             151    -0.2 5   78  37 
 RUS  HZ IP     D  9 2 31.77                             145    -0.110   98 177 
 RUS  HN ES   1    9 2 50.24                             145    -0.3 7   98 177 
 RUS  HZ I         9 2 51.98      1461.6 0.39                            98 177 
 BRI  SZ IP        9 2 32.53                             142     0.310  110  19 
 BRI  SZ ES   1    9 2 51.41                             142     0.1 7  110  19 
 GRA  SZ IP        9 2 33.81                             138     0.210  127  16 
 GRA  SZ ES   1    9 2 53.46                             138    -0.3 7  127  16 
 OCA  SZ IP        9 2 36.36                             130    -0.4 9  163 352 
 OCA  SZ ES   2    9 2 59.18                             130    -0.1 5  163 352 
 OCA  SZ I         9 3  5.34      1052.1 0.44                           163 352 
 YOP  SZ EP        9 2 38.48                             128     0.6 9  175 154 
 YOP  SZ I         9 2 39.82       456.7 0.45                           175 154 
 YOP  SE ES   1    9 3  1.05                             128    -0.3 7  175 154 
 NOR  SZ EP        9 2 43.92                             119     0.0 8  235 235 
 NOR  SN ES   1    9 3 11.73                             119    -0.3 6  235 235 
 CHI  HZ EP        9 2 45.55                             118     0.0 8  247 196 
 CHI  HN ES   2    9 3 15.46                             118     0.4 4  247 196 
 CHI  HZ I         9 3 24.08       698.7 0.53                           247 196 
 HEL  HZ EP        9 2 48.08                             115    -0.4 8  274 256 
 HEL  HE ES   2    9 3 20.25                             115     0.1 4  274 256 
 HEL  HZ I         9 3 26.49       338.3 0.70                           274 256 
 VIL  SZ EP   1    9 2 50.93                             113    -0.3 5  301 192 
 VIL  SN ES   2    9 3 25.41                             113     0.3 4  301 192 
 GUY  SZ EP   1    9 2 52.80                             113     0.8 5  304 236 
 GUY  SE ES   1    9 3 26.02                             113    -0.4 5  304 236 
 GUY  SZ I         9 3 33.14      1043.0 0.45                           304 236 
 RREF HZ EP        9 2 54.19                             112     0.0 7  322 230 
 RREF HN ES   1    9 3 30.33                             112     0.0 5  322 230 
 RREF HZ I         9 3 39.59       700.7 0.29                           322 230 
 TOL  SZ EP        9 2 56.46                             110     0.2 7  343 225 
 SDV  BZ EP        9 2 57.20                             109    -0.8 6  360  50 
 PRA  HZ EP        9 3  0.95                             107    -0.4 6  391 210 
 PRA  HE ES        9 3 43.42                             107     0.3 6  391 210 
 SJA  SZ EP        9 3  1.45                             107    -0.8 6  398 193 
 SJA  SZ I         9 3 51.20      1257.9 0.29                           398 193 
 MAL  SZ EP        9 3 21.18                             101     0.1 3  558 237 
 POP2 HZ EP   2    9 3 27.14                             100    -0.7 1  612 220 
 POP2 HZ I         9 4 34.67        28.1 0.38                           612 220 
 PCON HZ EP   1    9 3 28.74                             100     0.5 2  612 217 
 PCON HZ I         9 4 39.79        39.3 0.39                           612 217 
                                                                                
