 2017  328 0652 36.2 L   6.817 -73.334118.7  RSN  7 0.2 1.2LRSN                1
 GAP=103        0.61       3.3     3.3  4.7 -0.5800E+00 -0.1693E+01  0.2880E+01E
 Epicentro: ZAPATOCA - SANTANDER                                               3
 ACTION:UPD 17-05-25 18:46 OP:jn   STATUS:               ID:20170328065236 L   I
 OLDACT:UP  17-03-28 16:25 OP:and  STATUS:               ID:20170328064748     3
 OLDACT:UP  17-03-28 16:24 OP:and  STATUS:               ID:20170328064748     3
 OLDACT:UP  17-03-28 16:24 OP:and  STATUS:               ID:20170328064748     3
 OLDACT:REG 17-03-28 12:48 OP:and  STATUS:               ID:20170328064748     3
 2017-03-28-0648-00M.COL___360                                                 6
 STAT SP IPHASW D HRMM SECON CODA AMPLIT PERI AZIMU VELO AIN AR TRES W  DIS CAZ7
 BAR2 EZ EP        652 52.82                             165   -0.0010 30.0 146 
 BAR2 EZ ES        653  5.81                             165    0.0610 30.0 146 
 BRR  HZ EP        652 53.21                             155   -0.2210 52.6 307 
 BRR  HN ES        653  6.87                             155    0.0310 52.6 307 
 BRR  HZ I         653 13.08         3.2 0.32            153           52.6 307 
 PAM  EZ EP   2    652 56.33                             140   -0.33 5 90.8  50 
 PAM  EN ES        653 12.62                             140    0.0510 90.8  50 
 PAM  EZ I         653 14.51         3.5 0.26            149           90.8  50 
 RUS  HZ EP        652 57.78                             135   -0.1210  106 165 
 RUS  HN ES   2    653 15.07                             135    0.28 5  106 165 
 RUS  HZ I         653 16.46         2.0 0.26            140            106 165 
 PTB  HZ EP   9    652 58.14                             129   -1.08 0  128 256 
 PTB  HN ES        653 15.53                             131   -0.5310  128 256 
 PTB  HZ I         653 21.76         1.9 0.20            131            128 256 
 SPBC HN ES   2    653 22.27                             124    0.64 5  153 212 
 SPBC HZ I         653 26.97         3.9 0.30            127            153 212 
 ZAR  HN ES   2    653 27.73                             118    0.43 4  184 294 
 ZAR  HZ I         653 30.57         2.0 0.24            121            184 294 
                                                                                
