 2010 1028 0435 40.3 L   6.794 -73.095144.0  RSN 11 0.3 2.2LRSN                1
 GAP=164        0.69       2.7     4.9  5.1 -0.4646E+01  0.4200E+01  0.1722E+01E
 Epicentro: LOS SANTOS - SANTANDER                                             3
 ACTION:UP  11-02-18 11:12 OP:tino STATUS:               ID:20101028043540 L   I
 2010-10-28-0431-30S.COL___128                                                 6
 STAT SP IPHASW D HRMM SECON CODA AMPLIT PERI AZIMU VELO SNR AR TRES W  DIS CAZ7
 BTL  SZ EP        435 59.91                             170     0.210   23 306 
 BAR2 SZ IP        435 59.72                             170     0.010   24 204 
 BAR2 SZ ES   1    436 14.53                             170    -0.4 7   24 204 
 BAR2 SZ I         436 16.24        34.5 0.17                            24 204 
 BRR  HZ IP     C  436  1.55                             150     0.010   76 297 
 BRR  HN ES   1    436 18.27                             150     0.1 7   76 297 
 BRR  HZ I         436 22.50        26.7 0.28                            76 297 
 RUS  HZ IP     C  436  3.66                             144    -0.210  100 179 
 RUS  HN ES   1    436 22.55                             144     0.4 7  100 179 
 RUS  HZ I         436 24.07        18.1 0.48                           100 179 
 GRA  SZ IP        436  5.69                             137     0.410  125  15 
 GRA  SZ ES   1    436 24.35                             137    -0.5 7  125  15 
 GRA  SZ I         436 29.65         8.9 0.31                           125  15 
 OCA  SZ EP   1    436  8.36                             129    -0.2 7  162 351 
 OCA  SZ ES   2    436 31.15                             129     0.5 5  162 351 
 OCA  SZ I         436 35.08        13.4 0.41                           162 351 
 NOR  SZ EP   2    436 15.70                             117    -0.7 4  239 235 
 NOR  SE ES   2    436 43.92                             117    -0.6 4  239 235 
 CHI  HZ EP   1    436 17.61                             117    -0.4 6  250 196 
 CHI  HZ I         436 18.67         6.1 0.09                           250 196 
 CHI  HN ES   1    436 47.38                             117     0.0 6  250 196 
 HEL  HZ EP   2    436 20.90                             114    -0.1 4  277 256 
 HEL  HE ES   2    436 52.63                             114    -0.1 4  277 256 
 HEL  HZ I         436 58.84         9.3 0.35                           277 256 
 RREF HZ EP   1    436 27.23                             110     0.4 5  326 230 
 RREF HE ES   1    437  3.38                             110     0.3 5  326 230 
 RREF HZ I         437 11.75         8.8 0.39                           326 230 
 PRA  HZ EP   1    436 33.76                             106    -0.3 4  394 210 
 PRA  HZ I         436 35.07        17.5 0.27                           394 210 
 PRA  HN ES   1    437 16.45                             106     0.5 4  394 210 
                                                                                
