 2017  228 0346 30.7 L   6.812 -74.033 15.5  RSN  4 0.2 0.9LRSN                1
 GAP=103        0.53       1.9     1.5  3.8 -0.1083E+01 -0.2942E+01  0.4457E+01E
 Epicentro: PUERTO PARRA - SANTANDER                                           3
 ACTION:UPD 17-05-24 15:41 OP:jn   STATUS:               ID:20170228034630 L   I
 OLDACT:REG 17-02-28 20:38 OP:and  STATUS:               ID:20170228033740     3
 2017-02-28-0338-00M.COL___375                                                 6
 STAT SP IPHASW D HRMM SECON CODA AMPLIT PERI AZIMU VELO AIN AR TRES W  DIS CAZ7
 BRR  HZ EP        346 38.73                             105   -0.1010 48.2  47 
 BRR  HE ES        346 45.19                             105    0.0210 48.2  47 
 PTB  HZ EP        346 39.90                             103   -0.0410 55.6 237 
 PTB  HN ES        346 47.13                             103   -0.0110 55.6 237 
 PTB  HZ I         346 47.74         6.2 0.16            104           55.6 237 
 ZAR  HZ EP        346 49.29                              96   -0.0110  118 310 
 ZAR  HE ES        347  3.78                              96   -0.0210  118 310 
 RUS  HZ EP        346 54.30                              56    0.45 9  146 134 
 RUS  HN ES        347 11.61                              56   -0.29 9  146 134 
                                                                                
