 2014  828 0847  2.7 L   6.833 -73.171146.5  RSN  4 0.4 1.3LRSN                1
 GAP=199        0.76       4.3     6.2 11.8  0.8837E+01 -0.1278E+02 -0.2969E+02E
 Epicentro: ZAPATOCA - SANTANDER                                               3
 ACTION:UPD 14-09-15 21:53 OP:nd   STATUS:               ID:20140828084702 L   I
 OLDACT:REG 14-08-28 13:23 OP:fm   STATUS:               ID:20140828083809     3
 2014-08-28-0838-09M.COL___263                                                 6
 STAT SP IPHASW D HRMM SECON CODA AMPLIT PERI AZIMU VELO AIN AR TRES W  DIS CAZ7
 RUS  HZ EP   1    847 27.53                             143    0.73 7  105 175 
 RUS  HN ES        847 45.41                             143   -0.2010  105 175 
 RUS  HZ I         847 46.98         1.2 0.56            146            105 175 
 PTB  HN ES        847 50.72                             132    0.24 9  146 257 
 PTB  HZ I         847 57.18         1.8 0.50            132            146 257 
 SPBC HZ EP   1    847 31.12                             129   -0.24 7  164 217 
 SPBC HN ES   1    847 53.35                             129   -0.37 7  164 217 
 SPBC HZ I         847 59.28         3.3 0.20            130            164 217 
 SML  HZ EP   1    847 38.43                             118   -0.44 6  239 336 
 SML  HN ES        848  7.12                             118    0.03 8  239 336 
 SML  HZ I         848 12.89         2.5 0.24            120            239 336 
                                                                                
