 2011  728 0158 14.7 L   6.779 -73.091150.4  RSN 19 0.2 3.8LRSN                1
 GAP=145        0.40       1.6     2.6  2.6 -0.1355E+01  0.1744E+01  0.1088E+01E
 Epicentro: LOS SANTOS - SANTANDER                                             3
 ACTION:UPD 12-07-25 14:03 OP:epov STATUS:               ID:20110728015814 L   I
 2011-07-28-0140-00M.COL___142                                                 6
 STAT SP IPHASW D HRMM SECON CODA AMPLIT PERI AZIMU VELO AIN AR TRES W  DIS CAZ7
 BAR2 SZ IP        158 34.84                             171   -0.0210 23.0 206 
 BAR2 SZ I         158 35.36       969.9 0.22                          23.0 206 
 BAR2 SZ ES   2    158 50.41                             171   -0.19 5 23.0 206 
 BTL  SZ EP   2    158 35.51                             170    0.61 5 24.8 308 
 GIR2 SZ IP        158 34.96                             166   -0.0410 35.0 341 
 GIR2 SZ ES   1    158 50.76                             166   -0.10 7 35.0 341 
 PAM  SZ EP   1    158 37.56                             152    0.28 7 75.6  35 
 PAM  SN ES   1    158 55.16                             152    0.24 7 75.6  35 
 BRR  HN EP   1    158 36.75                             151    0.06 7 77.6 298 
 BRR  HE ES   1    158 53.98                             151    0.12 7 77.6 298 
 BRR  HN I         158 54.82      5875.3 0.25                          77.6 298 
 RUS  HZ IP     D  158 38.75                             145    0.0410 98.0 179 
 RUS  HN ES   1    158 57.44                             145   -0.01 7 98.0 179 
 RUS  HZ I         159  0.43       414.6 0.43                          98.0 179 
 BRI  SZ EP        158 39.09                             142    0.0610  109  17 
 BRI  SZ ES   2    158 57.68                             142   -0.34 5  109  17 
 GRA  SZ ES   2    158 59.63                             138   -0.80 5  126  15 
 GRA  SZ I         158 59.86       923.3 0.47                           126  15 
 OCA  SZ EP   1    158 43.36                             130   -0.28 7  163 351 
 OCA  SZ ES   2    159  6.33                             130    0.10 5  163 351 
 OCA  SZ I         159 10.03       593.2 0.34                           163 351 
 CHI  HZ EP   1    158 52.76                             118    0.19 6  248 197 
 CHI  HE ES   2    159 21.99                             118   -0.14 4  248 197 
 CHI  HZ I         159 31.77       247.1 0.50                           248 197 
 ROSC BN ES   2    159 23.14                             117   -0.08 4  254 212 
 ROSC BZ I         159 29.46       460.3 0.42                           254 212 
 HEL  HZ EP   1    158 55.76                             115    0.05 6  277 257 
 HEL  HN ES   2    159 27.83                             115    0.11 4  277 257 
 VIL  SZ EP   1    158 57.91                             113   -0.29 5  302 193 
 VIL  SN ES   2    159 31.64                             113   -0.50 4  302 193 
 VIL  SZ I         159 35.21       188.8 0.36                           302 193 
 GUY  SZ EP   1    158 58.84                             113   -0.33 5  307 236 
 GUY  SN ES   2    159 33.99                             113    0.11 4  307 236 
 GUY  SZ I         159 41.35       561.0 0.44                           307 236 
 RREF HZ EP   1    159  1.80                             111    0.43 5  325 230 
 RREF HN ES   2    159 37.76                             111   -0.04 3  325 230 
 RREF HZ I         159 47.43       429.7 0.30                           325 230 
 DBB  SZ EP   1    159  2.95                             110   -0.10 5  346 275 
 TOL  SZ EP   2    159  3.43                             110    0.01 3  346 226 
 PRA  HZ EP   1    159  8.30                             107   -0.18 4  393 210 
 SJA  SZ EP   2    159  9.34                             107    0.05 3  399 194 
                                                                                
