 2014  628 0230 12.0 L   6.806 -73.198138.5  RSN  8 0.4 1.4LRSN                1
 GAP=130        1.04       4.3     4.3  7.1  0.7557E-01  0.6468E+01  0.5812E+00E
 Epicentro: ZAPATOCA - SANTANDER                                               3
 ACTION:UPD 14-07-01 22:57 OP:nd   STATUS:               ID:20140628023012 L   I
 OLDACT:REG 14-06-28 13:26 OP:spq  STATUS:               ID:20140628022818     3
 2014-06-28-0228-18M.COL___250                                                 6
 STAT SP IPHASW D HRMM SECON CODA AMPLIT PERI AZIMU VELO AIN AR TRES W  DIS CAZ7
 BAR2 SZ EP        230 30.48                             170   -0.2710 23.7 176 
 BAR2 SZ ES   1    230 44.92                             170   -0.47 7 23.7 176 
 BAR2 SZ I         230 47.09         7.8 0.26            173           23.7 176 
 BRR  HZ IP     C  230 32.72                             153    0.6710 65.8 300 
 BRR  HN ES        230 48.04                             153    0.3510 65.8 300 
 BRR  HZ I         230 53.72         5.4 0.30            153           65.8 300 
 PAM  SZ EP        230 33.96                             148    0.3210 80.7  43 
 PAM  SN ES   1    230 50.20                             148   -0.34 7 80.7  43 
 PAM  SZ I         230 53.84         3.3 0.37            151           80.7  43 
 RUS  HZ EP        230 35.00                             142   -0.1210  102 173 
 RUS  HE ES        230 53.38                             142    0.2110  102 173 
 RUS  HZ I         230 55.15         2.2 0.56            148            102 173 
 PTB  HZ EP        230 37.42                             132   -0.44 9  142 258 
 PTB  HN ES        230 58.04                             132    0.00 9  142 258 
 PTB  HZ I         231  0.19         4.2 0.16            134            142 258 
 SPBC HZ EP        230 40.23                             128    0.59 9  160 217 
 SPBC HN ES        231  0.82                             128   -0.39 9  160 217 
 SPBC HZ I         231  3.28         3.7 0.23            132            160 217 
 ZAR  HZ EP        230 42.51                             122   -0.87 9  198 293 
 ZAR  HN ES        231  7.99                             122    0.12 9  198 293 
 ZAR  HZ I         231 14.56         2.3 0.16            124            198 293 
 GUY2CHZ EP   4    230 56.72                             111    1.94 0  297 234 
 GUY2CHE ES   1    231 28.42                             111    0.27 5  297 234 
 GUY2CHZ I         231 38.94         1.2 0.24                           297 234 
                                                                                
