 2014 1028 0543 27.5 L   6.808 -73.170137.9  RSN  6 0.4 1.4LRSN                1
 GAP=133        0.99       4.5     4.8  6.8 -0.5176E+01  0.4809E+01  0.3785E+01E
 Epicentro: LOS SANTOS - SANTANDER                                             3
 ACTION:UPD 14-11-29 23:57 OP:nd   STATUS:               ID:20141028054327 L   I
 OLDACT:REG 14-10-30 15:07 OP:cam  STATUS:               ID:20141028053811     3
 2014-10-28-0538-11M.COL___271                                                 6
 STAT SP IPHASW D HRMM SECON CODA AMPLIT PERI AZIMU VELO AIN AR TRES W  DIS CAZ7
 BAR2 SZ EP        543 46.31                             170    0.1410 23.9 183 
 BAR2 SZ ES        544  0.65                             170   -0.1110 23.9 183 
 BAR2 SZ I         544  2.83        11.8 0.86            169           23.9 183 
 BRR  HZ EP        543 48.24                             152    0.6210 68.5 299 
 BRR  HN ES        544  3.83                             152    0.4910 68.5 299 
 BRR  HZ I         544  9.12         3.0 0.42            151           68.5 299 
 PAM  SZ EP        543 49.09                             149    0.1610 78.4  41 
 PAM  SN ES        544  5.05                             149   -0.6110 78.4  41 
 PAM  SZ I         544  8.47         4.2 0.50            154           78.4  41 
 RUS  HZ EP        543 50.39                             142   -0.1510  102 175 
 RUS  HN ES        544  8.84                             142    0.3010  102 175 
 RUS  HZ I         544 10.58         1.8 0.30            145            102 175 
 PTB  HZ EP        543 53.05                             131   -0.54 9  145 258 
 PTB  HN ES        544 13.54                             131   -0.42 9  145 258 
 PTB  HZ I         544 18.88         3.3 0.18            132            145 258 
 SPBC HZ EP        543 55.44                             127    0.15 9  162 218 
 SPBC HN ES        544 16.84                             127   -0.15 9  162 218 
 SPBC HZ I         544 23.39         4.2 0.20            130            162 218 
                                                                                
