 2014  228 0719 48.9 L   6.737 -73.107156.2  RSN  4 0.3 1.4LRSN                1
 GAP=144        0.58       3.9     6.9  8.9 -0.2186E+01  0.2629E+02 -0.1677E+02E
 Epicentro: JORDAN - SANTANDER                                                 3
 ACTION:UPD 14-03-10 08:14 OP:ep   STATUS:               ID:20140228071948 L   I
 OLDACT:REG 14-02-28 09:18 OP:fm   STATUS:               ID:20140228071817     3
 2014-02-28-0718-17M.COL___174                                                 6
 STAT SP IPHASW D HRMM SECON CODA AMPLIT PERI AZIMU VELO AIN AR TRES W  DIS CAZ7
 PAM  SZ EP   1    720 12.87                             151    0.50 7 80.4  34 
 PAM  SE ES   1    720 30.48                             151   -0.22 7 80.4  34 
 PAM  SZ I         720 32.68         1.9 0.64            156           80.4  34 
 RUS  HE EP   2    720 12.56                             148   -0.62 5 93.4 178 
 RUS  HN ES        720 32.18                             148    0.0310 93.4 178 
 RUS  HE I         720 33.21         3.9 0.24            152           93.4 178 
 ZAR  HE ES   2    720 49.26                             123    0.20 4  211 293 
 ZAR  HZ I         720 55.49         2.5 0.30            124            211 293 
 SML  HZ EP   1    720 26.85                             118   -0.11 6  252 335 
 SML  HN ES   2    720 56.44                             118   -0.23 4  252 335 
 SML  HZ I         720 59.00         3.5 0.10            121            252 335 
                                                                                
