 2012  428 0226 22.8 L   6.774 -73.164147.6  RSN  5 0.4 1.3LRSN                1
 GAP=135        0.97       7.0     5.9 11.0 -0.5572E+01  0.1798E+01  0.7309E+01E
 Epicentro: LOS SANTOS - SANTANDER                                             3
 ACTION:UPD 12-07-05 11:56 OP:tino STATUS:               ID:20120428022622 L   I
 2012-04-28-0220-00M.COL___189                                                 6
 STAT SP IPHASW D HRMM SECON CODA AMPLIT PERI AZIMU VELO AIN AR TRES W  DIS CAZ7
 BAR2 SZ EP   1    226 42.57                             172    -0.1 7   20 186 
 BAR2 SZ I         227  0.87         2.9 0.06                            20 186 
 BRR  HZ EP        226 44.66                             153     0.510   71 301 
 BRR  HZ I         226 45.00        10.2 0.11                            71 301 
 BRR  HN ES   1    227  1.32                             153     0.5 7   71 301 
 PAM  SZ EP   1    226 45.61                             150     0.1 7   81  39 
 PAM  SN ES   1    227  2.52                             150    -0.6 7   81  39 
 RUS  HZ EP   1    226 46.69                             145     0.1 7   98 175 
 RUS  HN ES   1    227  5.17                             145     0.1 7   98 175 
 RUS  HZ I         227  6.06         1.9 0.28                            98 175 
 PTB  HZ EP   1    226 49.11                             133    -0.6 7  145 260 
 PTB  HN ES        227 10.38                             133    -0.3 9  145 260 
                                                                                
