 2011  328 0700 50.1 L   6.783 -73.064142.0  RSN  7 0.4 1.9LRSN                1
 GAP=184        0.90       6.2    10.8  9.2 -0.3671E+02 -0.2518E+02  0.2467E+02E
 Epicentro: LOS SANTOS - SANTANDER                                             3
 ACTION:UP  11-06-16 14:36 OP:jfem STATUS:               ID:20110328070050 L   I
 2011-03-28-0657-23S.COL___137                                                 6
 STAT SP IPHASW D HRMM SECON CODA AMPLIT PERI AZIMU VELO SNR AR TRES W  DIS CAZ7
 BAR2 SZ EP        7 1  9.23                             170    -0.110   25 212 
 BAR2 SZ I         7 1 26.02        31.7 0.23                            25 212 
 GIR2 SZ ES   2    7 1 24.00                             165    -0.5 5   36 336 
 BRR  HZ EP        7 1 11.12                             149    -0.310   80 297 
 BRR  HN ES   1    7 1 28.22                             149     0.2 7   80 297 
 BRR  HZ I         7 1 29.37        15.6 0.18                            80 297 
 GRA  SZ EP        7 1 15.06                             137     0.110  125  13 
 GRA  SZ ES   1    7 1 34.97                             137     0.6 7  125  13 
 OCA  SZ EP        7 1 18.07                             128    -0.4 9  163 350 
 OCA  SZ I         7 1 43.57         6.5 0.04                           163 350 
 CHI  HZ EP   1    7 1 27.29                             116    -0.4 6  249 197 
 CHI  HZ I         7 1 27.86         3.8 0.39                           249 197 
 CHI  HN ES   2    7 1 57.61                             116     0.6 4  249 197 
 RREF HZ EP        7 1 37.26                             110     0.5 7  327 231 
 RREF HZ I         7 2 20.05         4.7 0.24                           327 231 
                                                                                
