 2016 1128 0423 51.2 L   6.815 -73.145150.4  RSN  9 0.7 1.9LRSN                1
 GAP=149        1.25       5.6     5.8  8.4 -0.1066E+01  0.1376E+02  0.1053E+02E
 Epicentro: LOS SANTOS - SANTANDER                                             3
 ACTION:UPD 17-10-26 21:12 OP:lp   STATUS:               ID:20161128042351 L   I
 OLDACT:UP  16-11-28 14:30 OP:dani STATUS:               ID:20161128041602     3
 OLDACT:UP  16-11-28 14:30 OP:dani STATUS:               ID:20161128041602     3
 OLDACT:UP  16-11-28 14:29 OP:dani STATUS:               ID:20161128041602     3
 OLDACT:UP  16-11-28 14:28 OP:dani STATUS:               ID:20161128041602     3
 OLDACT:UP  16-11-28 14:28 OP:dani STATUS:               ID:20161128041602     3
 OLDACT:REG 16-11-28 12:33 OP:dani STATUS:               ID:20161128041602     3
 2016-11-28-0418-00M.COL___346                                                 6
 STAT SP IPHASW D HRMM SECON CODA AMPLIT PERI AZIMU VELO AIN AR TRES W  DIS CAZ7
 BAR2 EZ EP        424 11.45                             170    0.0610 24.9 190 
 BAR2 EZ ES        424 26.69                             170   -0.4710 24.9 190 
 BAR2 EZ I         424 28.05        27.0 0.26            170           24.9 190 
 BRR  HZ EP     C  424 13.26                             153    0.4710 70.6 297 
 BRR  HN ES   1    424 30.46                             153    0.82 7 70.6 297 
 BRR  HZ I         424 32.90        13.2 0.14            148           70.6 297 
 PAM  EZ EP        424 14.23                             151    0.4210 76.1  40 
 PAM  EN ES        424 31.33                             151   -0.1310 76.1  40 
 PAM  EZ I         424 33.99         6.1 0.44            152           76.1  40 
 PTB  HZ EP        424 18.06                             133   -0.50 9  148 258 
 PTB  HN ES        424 39.18                             133   -0.74 9  148 258 
 PTB  HZ I         424 45.65         7.0 0.16            130            148 258 
 ZAR  HE ES        424 49.56                             123    0.18 9  204 292 
 ZAR  HZ I         424 54.68        10.1 0.15            121            204 292 
 CHI  HZ EP        424 28.77                             117   -0.53 8  250 195 
 CHI  HN ES        424 59.24                             117    0.20 8  250 195 
 LL6C HZ EP   9    424 17.50                             111   -19.4 0  323 358 
 LL6C HN ES   2    424 52.22                                   -0.94 3  323 358 
 CBOC HZ EP        424 39.70                             110    1.35 7  334 252 
 CBOC HN ES   3    425 17.50                             110    2.35 2  334 252 
 CBOC HZ I         425 24.01         4.3 0.26            110            334 252 
 SJC  HZ EP   2    424 45.64                             106   -1.10 3  408 327 
 SJC  HN ES   1    425 28.74                             106   -1.34 4  408 327 
 SJC  HZ I         425 40.43         2.1 0.52            106            408 327 
                                                                                
