 2010  328 0147 51.5 L   6.872 -72.994141.4  RSN  5 0.3 1.7LRSN                1
 GAP=257        0.55       6.3    10.8  6.5  0.3622E+02 -0.1478E+02  0.1974E+01E
 Epicentro: CEPITA - SANTANDER                                                 3
 ACTION:UP  10-08-24 09:56 OP:vdl  STATUS:               ID:20100328014751 L   I
 2010-03-28-0143-45S.COL___098                                                 6
 STAT SP IPHASW D HRMM SECON CODA AMPLIT PERI AZIMU VELO SNR AR TRES W  DIS CAZ7
 BAR2 SZ IP        148 11.14                             164     0.210   37 214 
 BAR2 SZ ES   1    148 25.99                             164    -0.2 7   37 214 
 BRR  HZ IP        148 12.73                             148    -0.210   84 288 
 BRR  HZ I         148 19.69        13.1 0.19                            84 288 
 BRR  HN ES   1    148 29.86                             148     0.2 7   84 288 
 RUS  HZ EP   2    148 15.80                             140     0.4 5  109 185 
 RUS  HN ES   3    148 33.62                             140    -0.5 2  109 185 
 RUS  HZ I         148 36.18         5.6 0.28                           109 185 
 CHI  HZ EP   2    148 29.89                             115    -0.4 4  261 198 
 CHI  HE ES   2    149  1.00                             115     0.4 4  261 198 
 CHI  HZ I         149  1.81         1.8 0.39                           261 198 
 PRA  HZ EP   3    148 45.86                             105    -0.8 1  407 211 
 PRA  HZ I         149 32.76         2.7 0.25                           407 211 
                                                                                
