 2013  228 0930  1.0 L   6.779 -73.151145.1  RSN  9 0.4 1.6LRSN                1
 GAP=137        0.83       4.2     4.8  6.9  0.1131E+01  0.8168E+01  0.4167E+01E
 Epicentro: LOS SANTOS - SANTANDER                                             3
 ACTION:UPD 13-03-12 09:36 OP:ep   STATUS:               ID:20130228093003dL   I
 2013-02-28-0930-00M.COL___228                                                 6
 STAT SP IPHASW D HRMM SECON CODA AMPLIT PERI AZIMU VELO AIN AR TRES W  DIS CAZ7
 BAR2 SZ EP   1    930 20.33                             171   -0.19 7 21.0 189 
 BAR2 SZ ES   1    930 36.09                             171    0.36 7 21.0 189 
 BAR2 SZ I         930 38.11        13.8 0.28            161           21.0 189 
 BRR  HZ EP        930 22.34                             152    0.2110 71.8 300 
 BRR  HN ES   1    930 39.17                             152    0.58 7 71.8 300 
 BRR  HZ I         930 45.45         9.4 0.34            138           71.8 300 
 PAM  SZ EP   1    930 23.28                             150   -0.01 7 79.5  39 
 PAM  SE ES   1    930 40.37                             150   -0.29 7 79.5  39 
 PAM  SZ I         930 41.52         6.9 0.18            147           79.5  39 
 RUS  HZ EP   1    930 24.46                             144   -0.09 7 98.4 176 
 RUS  HN ES   1    930 42.87                             144   -0.02 7 98.4 176 
 RUS  HZ I         930 44.21         3.7 0.42            134           98.4 176 
 PTB  HZ EP   1    930 27.30                             132   -0.54 7  147 260 
 PTB  HN ES   1    930 47.80                             132   -0.95 7  147 260 
 PTB  HZ I         930 54.26         7.2 0.24            118            147 260 
 OCA  HN ES   1    930 51.45                             129   -0.24 7  162 353 
 ZAR  HE ES   1    930 58.96                             122    0.21 6  204 293 
 CHI  HZ EP   1    930 38.63                             117    0.20 6  246 195 
 CHI  HN ES   4    931  9.87                             117    2.27 0  246 195 
 CHI  HZ I         931 14.27         1.7 0.36            108            246 195 
 HEL  HZ EP   1    930 41.97                             115    0.90 6  271 256 
 HEL  HZ I         931 19.62         2.0 0.34            105            271 256 
                                                                                
