 2013  828 0058 15.3 L   6.081 -73.680115.0  RSN  9 0.5 1.7LRSN                1
 GAP=115        1.22       4.4     4.2  7.8 -0.6334E+01  0.1015E+02 -0.4567E+01E
 Epicentro: CHIPATA - SANTANDER                                                3
 ACTION:UPD 14-01-14 09:07 OP:ep   STATUS:               ID:20130828005815 L   I
 OLDACT:REG 13-08-28 06:55 OP:nd   STATUS:               ID:20130828005000     3
 2013-08-28-0050-00M.COL___269                                                 6
 STAT SP IPHASW D HRMM SECON CODA AMPLIT PERI AZIMU VELO AIN AR TRES W  DIS CAZ7
 SPBC HZ EP        058 32.69                             149   -0.2010 64.3 223 
 SPBC HN ES        058 46.60                             149   -0.0110 64.3 223 
 SPBC HZ I         058 49.82        11.7 0.20            150           64.3 223 
 RUS  HZ IP     C  058 33.57                             147   -0.2110 69.3 107 
 RUS  HN ES        058 47.90                             147   -0.3010 69.3 107 
 RUS  HZ I         058 49.23         2.8 0.28            151           69.3 107 
 BAR2 SZ EP        058 34.13                             143    0.0410 78.9  44 
 BAR2 SZ ES        058 49.28                             143    0.5310 78.9  44 
 BAR2 SZ I         058 50.17        20.8 0.26            146           78.9  44 
 PTB  HZ EP     D  058 34.55                             136   -0.8810 99.8 301 
 PTB  HN ES        058 50.25                             136   -0.9010 99.8 301 
 PTB  HZ I         058 52.87         7.7 0.26            137           99.8 301 
 BRR  HZ IP     D  058 37.00                             132    0.3810  114 358 
 BRR  HN ES        058 53.95                             132    0.6910  114 358 
 BRR  HZ I         058 54.31         8.7 0.42            134            114 358 
 NOR  HZ EP        058 39.78                             125    0.21 9  144 247 
 NOR  HN ES        058 58.63                             125    0.11 9  144 247 
 NOR  HZ I         059  2.18         8.6 0.30            126            144 247 
 ZAR  HZ EP   4    058 53.12                             115    7.27 0  203 320 
 ZAR  HN ES   2    059 10.10                             115    0.42 4  203 320 
 ZAR  HZ I         059 12.15         8.9 0.08            116            203 320 
 GUY2CHZ EP        058 47.36                             114    0.24 8  209 243 
 GUY2CHN ES        059 12.83                             114    0.88 8  209 243 
 GUY2CHZ I         059 16.25         2.5 0.26                           209 243 
 SML  HZ EP        058 56.97                             105   -0.41 7  304 352 
 SML  HN ES   2    059 29.77                             105   -0.45 4  304 352 
 SML  HZ I         059 33.52         4.8 0.10            107            304 352 
                                                                                
