 2013  128 0504 55.9 L   6.817 -73.139139.3  RSN 11 0.5 2.5LRSN                1
 GAP= 71        1.24       3.7     3.6  6.4  0.7720E+00  0.4706E+01  0.1328E+01E
 Epicentro: LOS SANTOS - SANTANDER                                             3
 ACTION:UPD 13-02-15 09:17 OP:ep   STATUS:               ID:20130128050455 L   I
 2013-01-28-0458-40M.COL___174                                                 6
 STAT SP IPHASW D HRMM SECON CODA AMPLIT PERI AZIMU VELO AIN AR TRES W  DIS CAZ7
 BAR2 SZ IP        5 5 14.73                             169   -0.0310 25.3 191 
 BAR2 SZ I         5 5 15.27        61.5 0.16            168           25.3 191 
 BAR2 SZ ES        5 5 29.04                             169   -0.4610 25.3 191 
 BRR  HZ IP     C  5 5 16.66                             151    0.3610 70.9 297 
 BRR  HZ I         5 5 16.93        45.0 0.24            144           70.9 297 
 BRR  HE ES        5 5 32.58                             151    0.3410 70.9 297 
 PAM  SZ EP        5 5 17.68                             150    0.4110 75.5  40 
 PAM  SZ I         5 5 17.99        77.3 0.22            143           75.5  40 
 PAM  SN ES        5 5 34.57                             150    0.5910 75.5  40 
 RUS  HZ EP        5 5 18.79                             142   -0.3310  102 177 
 RUS  HN ES        5 5 36.42                             142   -0.8410  102 177 
 RUS  HN I         5 5 38.87        21.6 0.48            136            102 177 
 PTB  HZ EP        5 5 21.66                             130   -0.75 9  149 258 
 PTB  HE ES        5 5 42.70                             130   -0.41 9  149 258 
 PTB  HN I         5 5 44.64        66.1 0.24            122            149 258 
 TAM  HZ EP        5 5 23.16                             129    0.15 9  155 106 
 TAM  HN ES        5 5 44.34                             129    0.14 9  155 106 
 TAM  HN I         5 5 48.72        35.0 0.36            122            155 106 
 OCA  HZ EP        5 5 23.17                             128   -0.33 9  158 353 
 OCA  HN ES        5 5 44.86                             128   -0.21 9  158 353 
 OCA  HN I         5 5 49.14       141.8 0.30            120            158 353 
 ZAR  HZ EP        5 5 28.06                             121    0.17 9  204 292 
 ZAR  HN ES        5 5 53.36                             121    0.49 9  204 292 
 ZAR  HN I         5 5 59.39        44.2 0.42            113            204 292 
 CHI  HZ EP        5 5 33.91                             115    0.48 8  251 195 
 CHI  HN ES        5 6  3.44                             115    0.71 8  251 195 
 CHI  HN I         5 6  9.90         7.4 0.26            109            251 195 
 HEL  HZ EP        5 5 36.46                             113    0.58 8  273 255 
 HEL  HN ES        5 6  7.33                             113    0.24 8  273 255 
 HEL  HN I         5 6 14.32        10.8 0.36            107            273 255 
 SJC  HN EP        5 5 49.40                             105   -1.67 6  408 327 
 SJC  HN I         5 6 33.26         8.8 0.20             99            408 327 
                                                                                
