 2017 1028 0229 49.5 L   6.773 -73.163150.8  RSN  5 0.2 1.3LRSN                1
 GAP=136        0.52       3.3     3.0  4.7  0.4066E+01 -0.1906E+01 -0.4166E+01E
 Epicentro: LOS SANTOS - SANTANDER                                             3
 ACTION:UPD 17-11-07 19:38 OP:rebc STATUS:               ID:20171028022949 L   I
 OLDACT:UP  17-10-28 14:25 OP:dani STATUS:               ID:20171028022740     3
 OLDACT:REG 17-10-28 12:35 OP:dani STATUS:               ID:20171028022740     3
 2017-10-28-0228-00M.COL___450                                                 6
 STAT SP IPHASW D HRMM SECON CODA AMPLIT PERI AZIMU VELO AIN AR TRES W  DIS CAZ7
 BRR  HZ EP        230 11.32                             153    0.1310 71.0 301 
 BRR  HN ES        230 28.14                             153    0.0310 71.0 301 
 BRR  HZ I         230 31.44         5.1 0.54            154           71.0 301 
 PAM  HZ EP        230 12.25                             151   -0.2210 80.9  39 
 RUS  HZ EP        230 13.65                             146    0.0910 97.7 175 
 RUS  HN ES        230 32.41                             146    0.0910 97.7 175 
 RUS  HZ I         230 34.14         3.1 0.25            149           97.7 175 
 PTB  HZ EP        230 16.36                             134   -0.31 9  145 260 
 PTB  HE ES        230 37.69                             134   -0.17 9  145 260 
 PTB  HZ I         230 40.39         1.4 0.32            136            145 260 
 ZAR  HZ EP        230 22.56                             124    0.34 9  203 293 
 ZAR  HE ES        230 47.82                             124    0.08 9  203 293 
 ZAR  HZ I         230 50.46         2.4 0.14            126            203 293 
                                                                                
