 2015  128 0027  0.9 L   6.866 -73.177145.5  RSN 10 0.3 1.8LRSN                1
 GAP= 67        0.81       2.3     2.6  4.3  0.9573E+00  0.1276E+01 -0.1436E+00E
 Epicentro: ZAPATOCA - SANTANDER                                               3
 ACTION:UPD 15-03-02 15:43 OP:nd   STATUS:               ID:20150128002700 L   I
 OLDACT:UP  15-01-28 14:04 OP:cam  STATUS:               ID:20150128001815     3
 OLDACT:REG 15-01-28 13:05 OP:cam  STATUS:               ID:20150128001815     3
 2015-01-28-0018-15M.COL___280                                                 6
 STAT SP IPHASW D HRMM SECON CODA AMPLIT PERI AZIMU VELO AIN AR TRES W  DIS CAZ7
 BAR2 EZ EP        027 20.57                             168   -0.1110 30.3 181 
 BAR2 EZ ES        027 36.39                             168    0.3010 30.3 181 
 BAR2 EZ I         027 41.24         9.3 0.24            169           30.3 181 
 BRR  HZ EP     D  027 22.12                             155    0.4310 64.8 294 
 BRR  HN ES        027 37.90                             155    0.0110 64.8 294 
 BRR  HZ I         027 42.51        11.8 0.42            155           64.8 294 
 PAM  SZ EP        027 23.28                             152    0.3610 74.3  45 
 PAM  SN ES        027 40.28                             152    0.1910 74.3  45 
 PAM  SZ I         027 42.77         5.4 0.42            155           74.3  45 
 RUS  HZ EP        027 24.92                             142   -0.2810  108 174 
 RUS  HN ES        027 44.01                             142   -0.1410  108 174 
 RUS  HZ I         027 45.07         3.1 0.26            146            108 174 
 PTB  HZ EP        027 27.34                             132   -0.36 9  146 256 
 PTB  HN ES        027 48.61                             132    0.02 9  146 256 
 PTB  HZ I         027 50.93         9.5 0.16            134            146 256 
 OCA  HZ EP        027 28.60                             131    0.11 9  153 354 
 OCA  HN ES        027 49.31                             131   -0.69 9  153 354 
 TAM  HZ EP        027 28.98                             129   -0.09 9  160 107 
 TAM  HE ES        027 50.77                             129   -0.27 9  160 107 
 ZAR  HZ EP        027 33.21                             123    0.48 9  198 291 
 ZAR  HN ES        027 56.99                             123   -0.56 9  198 291 
 ZAR  HZ I         028  4.88        14.0 0.56            125            198 291 
 SML  HZ EP        027 36.63                             118   -0.02 8  236 335 
 SML  HN ES        028  4.93                             118    0.41 8  236 335 
 SML  HZ I         028  7.25        10.6 0.10            121            236 335 
 CHI  HZ EP        027 39.18                             116   -0.09 8  255 194 
 CHI  HN ES        028  9.51                             116    0.31 8  255 194 
 HEL  HZ EP   4    027 42.30                             115    1.35 0  271 254 
                                                                                
