 2013  628 0804 23.0 L   6.805 -73.158145.5  RSN 17 0.5 2.4LRSN 3.1WRSN        1
 SPEC AVERAGE  MO 13.7 ST  6.1 OM  2.3 f0 3.96 R0.4226 AL 2.93 WI 26.5 MW  3.1 3
 SPEC SD       MO  0.2 ST  7.9 OM  0.3 f0 1.11 R0.1114 AL      WI      MW  0.2 3
 GAP= 64        1.09       2.9     3.6  5.6 -0.1203E+00  0.3432E+01  0.2133E+01E
 Epicentro: LOS SANTOS - SANTANDER                                             3
 SPEC ROSCBH Z MO 14.0 ST  1.9 OM  2.1 f0 2.61 R0.5954 AL 3.19 WI 29.9 MW  3.3 3
 SPEC ROSCBH Z T 8 526 K 0.000 GD  291 VS 4.20 DE 3.20 Q0300.0 QA 0.60 VS 4.20 3
 SPEC NOR HH N MO 14.0 ST 26.4 OM  2.2 f0 5.92 R0.2625 AL 4.29 WI 27.7 MW  3.3 3
 SPEC NOR HH N T 8 523 K 0.000 GD  275 VS 4.20 DE 3.20 Q0300.0 QA 0.60 VS 4.20 3
 SPEC PTB HH N MO 13.9 ST  4.2 OM  2.2 f0 3.54 R0.4390 AL 2.31 WI 25.0 MW  3.2 3
 SPEC PTB HH N T 8 5 9 K 0.000 GD  206 VS 4.20 DE 3.20 Q0300.0 QA 0.60 VS 4.20 3
 SPEC RUS HH N MO 13.4 ST  1.4 OM  1.8 f0 3.49 R0.4453 AL 2.64 WI 23.6 MW  2.9 3
 SPEC RUS HH N T 8 5 2 K 0.000 GD  177 VS 4.20 DE 3.20 Q0300.0 QA 0.60 VS 4.20 3
 SPEC OCA HH Z MO 13.3 ST  3.0 OM  1.6 f0 4.95 R0.3139 AL 2.73 WI 27.4 MW  2.8 3
 SPEC OCA HH Z T 8 5 8 K 0.000 GD  216 VS 4.20 DE 3.20 Q0300.0 QA 0.60 VS 4.20 3
 SPEC PAM SH N MO 13.6 ST  1.1 OM  2.0 f0 2.81 R0.5530 AL 2.23 WI 24.1 MW  3.0 3
 SPEC PAM SH N T 8 5 0 K 0.000 GD  164 VS 4.20 DE 3.20 Q0300.0 QA 0.60 VS 4.20 3
 SPEC CHI HH N MO 13.9 ST  3.2 OM  2.0 f0 3.37 R0.4611 AL 3.22 WI 27.6 MW  3.2 3
 SPEC CHI HH N T 8 527 K 0.000 GD  288 VS 4.20 DE 3.20 Q0300.0 QA 0.60 VS 4.20 3
 SPEC BRR HH N MO 13.7 ST  7.4 OM  2.1 f0 5.01 R0.3102 AL 2.86 WI 26.9 MW  3.1 3
 SPEC BRR HH N T 8 459 K 0.000 GD  161 VS 4.20 DE 3.20 Q0300.0 QA 0.60 VS 4.20 3
 ACTION:UPD 14-01-08 09:57 OP:ep   STATUS:               ID:20130628080423 L   I
 OLDACT:UP  13-06-28 11:41 OP:jn   STATUS:               ID:20130628075959     3
 OLDACT:REG 13-06-28 08:00 OP:jn   STATUS:               ID:20130628075959     3
 2013-06-28-0759-59M.COL___267                                                 6
 STAT SP IPHASW D HRMM SECON CODA AMPLIT PERI AZIMU VELO AIN AR TRES W  DIS CAZ7
 BAR2 SZ EP        8 4 42.66                             170    0.0910 23.7 187 
 BAR2 SZ ES        8 4 57.73                             170   -0.1310 23.7 187 
 BAR2 SZ I         8 5  0.41        52.4 0.32            169           23.7 187 
 GIR2 SZ EP        8 4 42.48                             168   -0.1010 30.5 353 
 BRR  HZ EP        8 4 44.58                             153    0.5810 69.7 299 
 BRR  HN ES        8 5  1.45                             153    1.0410 69.7 299 
 BRR  HZ I         8 5  5.30        37.3 0.14            148           69.7 299 
 PAM  SZ EP        8 4 45.50                             151    0.3210 77.8  41 
 PAM  SN ES   1    8 5  2.49                             151   -0.01 7 77.8  41 
 PAM  SZ I         8 5  4.81        64.5 0.52            152           77.8  41 
 RUS  HZ EP     D  8 4 46.53                             144   -0.2110  101 175 
 RUS  HN ES   1    8 5  4.96                             144   -0.32 7  101 175 
 RUS  HZ I         8 5  8.17        16.4 0.46            144            101 175 
 PTB  HZ EP        8 4 49.17                             132   -0.63 9  147 259 
 PTB  HN ES   1    8 5 10.26                             132   -0.47 7  147 259 
 PTB  HZ I         8 5 17.91        64.0 0.38            129            147 259 
 TAM  HZ EP        8 4 50.85                             130    0.10 9  157 105 
 TAM  HN ES   1    8 5 12.57                             130    0.14 7  157 105 
 TAM  HZ I         8 5 16.89         9.7 0.34            132            157 105 
 OCA  HZ EP        8 4 50.64                             130   -0.54 9  160 354 
 OCA  HN ES        8 5 12.49                             130   -0.71 9  160 354 
 OCA  HZ I         8 5 22.59        28.5 0.38            128            160 354 
 YOP  SZ EP        8 4 53.22                             126    0.12 9  180 153 
 YOP  SN ES   1    8 5 16.49                             126   -0.11 7  180 153 
 YOP  SZ I         8 5 19.36        19.8 0.44            127            180 153 
 ZAR  HZ EP        8 4 55.26                             123    0.02 9  203 292 
 ZAR  HZ I         8 5 26.78        56.7 0.36            120            203 292 
 NOR  HZ EP        8 4 58.63                             119    0.03 8  234 234 
 NOR  HN ES        8 5 26.47                             119    0.08 8  234 234 
 NOR  HZ I         8 5 32.76        27.2 0.18            117            234 234 
 SML  HZ EP        8 4 58.85                             118   -0.61 8  243 336 
 SML  HN ES   1    8 5 28.15                             118    0.23 6  243 336 
 CHI  HZ EP        8 5  0.83                             117    0.16 8  249 195 
 CHI  HN ES        8 5 29.75                             117   -0.33 8  249 195 
 CHI  HZ I         8 5 39.87        14.8 0.32            116            249 195 
 ROSC BE ES   1    8 5 29.95                             117   -0.80 6  253 211 
 HEL  HZ EP   4    8 5  4.98                             115    1.95 0  271 256 
 HEL  HN ES   1    8 5 33.83                             115   -0.46 6  271 256 
 HEL  HZ I         8 5 42.64        16.1 0.36            113            271 256 
 GUY2CHZ EP        8 5  7.65                             112    1.18 7  300 235 
 GUY2CHZ I         8 5 51.50        18.3 0.50                           300 235 
 RREF HZ EP        8 5  9.77                             111    0.75 7  321 229 
 RREF HN ES   4    8 5 48.09                             111    3.15 0  321 229 
 RREF HZ I         8 5 54.23        19.1 0.30            109            321 229 
                                                                                
