 2012 1128 0822 46.5 L   6.846 -73.451107.6  RSN  9 0.4 2.0LRSN                1
 GAP= 94        1.11       3.5     4.0  8.6 -0.3423E+01  0.1864E+02 -0.9943E+01E
 Epicentro: SAN VICENTE DE CHUCURI - SANTANDER                                 3
 ACTION:UPD 12-12-05 15:36 OP:}ep  STATUS:               ID:20121128082246 L   I
 2012-11-28-0820-00M.COL___234                                                 6
 STAT SP IPHASW D HRMM SECON CODA AMPLIT PERI AZIMU VELO AIN AR TRES W  DIS CAZ7
 GIR2 SZ EP        823  2.27                             159    0.2810 38.4  48 
 GIR2 SZ I         823 16.09        13.6 0.36                          38.4  48 
 BAR2 SZ EP        823  2.56                             158    0.3210 40.9 133 
 BAR2 SZ ES        823 15.09                             158    0.5910 40.9 133 
 BAR2 SZ I         823 16.18        53.6 0.28                          40.9 133 
 PAM  SZ EP        823  6.85                             134    0.2010 99.3  57 
 PAM  SN ES        823 22.23                             134   -0.1110 99.3  57 
 PAM  SN I         823 24.33         7.9 0.24                          99.3  57 
 RUS  HZ EP        823  7.84                             130   -0.0510  113 159 
 RUS  HN ES        823 23.98                             130   -0.5710  113 159 
 RUS  HN I         823 27.38         6.1 0.28                           113 159 
 PTB  HZ IP     C  823  7.16                             129   -0.3910  116 253 
 PTB  HN ES        823 23.53                             129   -0.4110  116 253 
 PTB  HN I         823 28.68        23.8 0.18                           116 253 
 OCA  HE ES        823 30.41                             120   -0.75 9  155   5 
 OCA  HN I         823 35.01        30.1 0.30                           155   5 
 ZAR  HZ EP        823 14.00                             117    0.84 9  171 295 
 ZAR  HN I         823 38.81        19.2 0.18                           171 295 
 SML  HZ EP        823 19.01                             110   -0.37 8  227 342 
 SML  HN ES        823 45.30                             110    0.29 8  227 342 
 SML  HN I         823 52.64        20.4 0.10                           227 342 
 HEL  HZ EP        823 21.31                             109   -0.18 8  241 253 
 HEL  HE ES        823 49.07                             109    0.32 8  241 253 
 HEL  HE I         823 55.08         4.6 0.42                           241 253 
                                                                                
