 2011  528 0919 46.8 L   6.778 -73.068138.6  RSN 10 0.3 1.8LRSN                1
 GAP=168        0.70       3.3     6.1  6.0 -0.6937E+01  0.2383E+01  0.1544E+01E
 Epicentro: LOS SANTOS - SANTANDER                                             3
 ACTION:UP  11-06-29 08:56 OP:tino STATUS:               ID:20110528091946 L   I
 2011-05-28-0918-55S.COL___115                                                 6
 STAT SP IPHASW D HRMM SECON CODA AMPLIT PERI AZIMU VELO SNR AR TRES W  DIS CAZ7
 BAR2 SZ EP        920  5.64                             170     0.010   24 211 
 BAR2 SZ ES   1    920 19.92                             170    -0.3 7   24 211 
 BAR2 SZ I         920 22.34        26.5 0.19                            24 211 
 BTL  SZ EP        920  6.16                             168     0.510   27 305 
 GIR2 SZ EP   1    920  5.84                             165     0.1 7   36 337 
 BRR  HZ EP        920  7.55                             148    -0.210   80 297 
 BRR  HN ES   1    920 24.10                             148     0.1 7   80 297 
 BRR  HZ I         920 26.78        15.5 0.19                            80 297 
 RUS  HZ EP   1    920  9.56                             143    -0.1 7   98 181 
 RUS  HE ES   2    920 27.84                             143     0.4 5   98 181 
 RUS  HZ I         920 29.42         5.2 0.27                            98 181 
 GRA  SZ EP   1    920 11.32                             135    -0.1 7  126  13 
 GRA  SZ ES   1    920 30.07                             135    -0.6 7  126  13 
 GRA  SZ I         920 34.12         5.2 0.29                           126  13 
 OCA  SZ EP   1    920 14.80                             127    -0.1 7  164 350 
 OCA  SZ ES   1    920 37.35                             127     0.5 7  164 350 
 OCA  SZ I         920 40.39         8.0 0.33                           164 350 
 NOR  SZ EP   2    920 22.02                             116    -0.7 4  240 236 
 NOR  SN ES   2    920 50.17                             116    -0.6 4  240 236 
 RREF HZ EP   2    920 33.29                             109     0.1 3  327 231 
 RREF HN ES   2    921  9.79                             109     0.4 3  327 231 
 RREF HZ I         921 17.35         3.9 0.36                           327 231 
 PRA  HZ EP   2    920 40.66                             105     0.3 3  394 211 
 PRA  HN ES   2    921 22.02                             105    -0.1 3  394 211 
                                                                                
