 2017  128 0506 47.3 L   6.774 -73.162131.7  RSN  4 0.4 0.9LRSN                1
 GAP=234        0.93       7.0     7.0  8.5  0.2533E+02 -0.5638E+00  0.7406E+00E
 Epicentro: LOS SANTOS - SANTANDER                                             3
 ACTION:UPD 17-05-22 16:04 OP:jn   STATUS:               ID:20170128050647 L   I
 OLDACT:DUP 17-01-28 17:15 OP:lv   STATUS:               ID:20170128045647d    3
 2017-01-28-0457-00M.COL___340                                                 6
 STAT SP IPHASW D HRMM SECON CODA AMPLIT PERI AZIMU VELO AIN AR TRES W  DIS CAZ7
 BAR2 EZ EP        5 7  5.01                             171   -0.1810 20.3 186 
 BAR2 EZ ES        5 7 18.57                             171   -0.5510 20.3 186 
 BAR2 EZ I         5 7 21.19         3.8 0.16            170           20.3 186 
 BRR  HZ EP        5 7  6.99                             150    0.0410 71.1 301 
 BRR  HN ES        5 7 22.76                             150    0.5010 71.1 301 
 RUS  HZ EP        5 7  9.48                             141   -0.0210 97.9 175 
 RUS  HN ES        5 7 27.25                             141    0.4510 97.9 175 
 RUS  HZ I         5 7 28.43         0.9 0.23            142           97.9 175 
 PTB  HN ES        5 7 32.67                             129   -0.28 9  145 260 
                                                                                
