 2016  228 0725 28.2 L   6.784 -73.143149.7  RSN  9 0.4 1.4LRSN                1
 GAP=120        0.88       3.4     3.7  5.2 -0.2241E+00  0.4625E+01  0.2533E+01E
 Epicentro: LOS SANTOS - SANTANDER                                             3
 ACTION:UPD 16-03-04 21:30 OP:rebc STATUS:               ID:20160228072528 L   I
 OLDACT:REG 16-02-28 12:42 OP:drio STATUS:               ID:20160228071751     3
 2016-02-28-0717-51M.COL___309                                                 6
 STAT SP IPHASW D HRMM SECON CODA AMPLIT PERI AZIMU VELO AIN AR TRES W  DIS CAZ7
 BAR2 EZ EP        725 48.35                             171    0.1110 21.7 192 
 BAR2 EZ ES        726  3.37                             171   -0.5310 21.7 192 
 BAR2 EZ I         726  5.91         5.1 0.32            169           21.7 192 
 PAM  EZ EP        725 51.32                             151    0.4510 78.5  39 
 PAM  EN ES        726  8.57                             151   -0.0110 78.5  39 
 PAM  EZ I         726 10.46         4.8 0.46            156           78.5  39 
 RUS  HZ EP        725 52.41                             145    0.2210 98.8 176 
 RUS  HE ES        726 11.18                             145    0.2610 98.8 176 
 RUS  HZ I         726 12.10         2.9 0.38            146           98.8 176 
 PTB  HZ EP        725 54.74                             133   -0.72 9  148 260 
 PTB  HN ES        726 16.87                             133    0.12 9  148 260 
 PTB  HZ I         726 21.13         2.4 0.12            133            148 260 
 SPBC HZ EP        725 57.02                             130    0.15 9  162 219 
 SPBC HN ES        726 19.29                             130    0.04 9  162 219 
 SPBC HZ I         726 25.41         5.1 0.26            131            162 219 
 ZAR  HZ EP        726  0.94                             123   -0.03 9  205 293 
 ZAR  HE ES        726 26.64                             123    0.09 9  205 293 
 ZAR  HZ I         726 31.91         2.9 0.28            124            205 293 
 CHI  HZ EP        726  6.38                             118    0.46 8  247 195 
 CHI  HE ES        726 35.42                             118    0.06 8  247 195 
 CHI  HZ I         726 41.99         1.3 0.32            119            247 195 
 GUY2CHZ EP        726 11.77                             113   -0.11 7  300 235 
 GUY2CHN ES   4    726 49.03                             113    3.06 0  300 235 
 GUY2CHZ I         726 58.44         1.7 0.50                           300 235 
 PTGC HZ EP        726 11.11                             112   -0.90 7  307 159 
                                                                                
