 2012  528 0643 43.0 L   7.115 -73.867 12.9  RSN  7 0.4 1.6LRSN                1
 GAP=101        0.98       3.2     2.7  6.3  0.1430E+00  0.1396E+01  0.8214E+01E
 Epicentro: BARRANCABERMEJA - SANTANDER                                        3
 ACTION:UP  12-07-05 12:08 OP:pat  STATUS:               ID:20120528064343 L   I
 2012-05-28-0640-00M.COL___198                                                 6
 STAT SP IPHASW D HRMM SECON CODA AMPLIT PERI AZIMU VELO AIN AR TRES W  DIS CAZ7
 PTB  HZ EP   1    643 58.05                              96     0.5 7   91 226 
 PTB  HN ES   1    644  8.64                              96    -0.2 7   91 226 
 PTB  HZ I         644  9.27        13.9 0.18                            91 226 
 BAR2 SZ EP   1    643 58.01                              96    -0.3 7   95 127 
 BAR2 SZ ES   1    644 10.36                              96     0.0 7   95 127 
 BAR2 SZ I         644 14.74         7.2 0.21                            95 127 
 ZAR  HZ EP   1    644  1.57                              94     0.1 7  117 291 
 ZAR  HN ES   1    644 15.38                              94    -0.4 7  117 291 
 ZAR  HZ I         644 17.67         8.4 0.09                           117 291 
 OCA  HZ EP   1    644  5.45                              94     0.7 7  138  26 
 OCA  HN ES   1    644 21.26                              94    -0.4 7  138  26 
 OCA  HZ I         644 25.31        32.9 0.35                           138  26 
 RUS  HZ I         644  9.74        13.5 0.14                           161 147 
 RUS  HN ES   1    644 27.86                              56     0.0 7  161 147 
 NOR  SN ES   1    644 35.95                              56    -0.7 6  204 213 
 HEL  HN ES   1    644 39.16                              56     0.5 6  210 241 
                                                                                
