 2010  128 0721 47.5 L   6.846 -73.047145.1  RSN  8 0.8 1.9LRSN                1
 GAP=193        1.66       9.3    15.4 14.4 -0.4057E+02  0.1130E+03 -0.3509E+02E
 Epicentro: LOS SANTOS - SANTANDER                                             3
 ACTION:UP  10-08-24 09:46 OP:vdl  STATUS:               ID:20100128072147 L   I
 2010-01-28-0716-43S.COL___093                                                 6
 STAT SP IPHASW D HRMM SECON CODA AMPLIT PERI AZIMU VELO SNR AR TRES W  DIS CAZ7
 BAR2 SZ EP        722  7.11                             166    -0.110   32 208 
 BAR2 SZ ES   1    722 21.92                             166    -0.7 7   32 208 
 RUS  BZ EP        722 11.08                             142    -0.510  106 182 
 RUS  BN ES        722 30.90                             142     0.610  106 182 
 RUS  BZ I         722 31.63         7.5 0.51                           106 182 
 OCA  SZ EP        722 16.23                             130     0.8 9  157 349 
 CHI  HZ EP        722 25.36                             116    -0.7 8  257 197 
 CHI  HZ I         722 27.37         2.8 0.20                           257 197 
 CHI  HN ES   1    722 56.24                             116     0.2 6  257 197 
 HEL  HZ EP        722 28.26                             113    -0.7 7  284 255 
 HEL  HN ES   2    722 59.76                             113    -1.6 4  284 255 
 HEL  HZ I         723  6.90         5.9 0.27                           284 255 
 RREF BZ EP   1    722 36.06                             110     1.1 5  333 230 
 RREF BN ES        723 13.32                             110     1.4 7  333 230 
 RREF BZ I         723 16.24         4.9 0.30                           333 230 
 TOL  SZ EP   1    722 37.08                             108     0.1 5  355 225 
 PRA  HZ EP   1    722 40.82                             106    -1.3 4  402 211 
                                                                                
