 2013  128 0322 29.0 L   6.751 -73.509113.1  RSN  4 0.4 1.4LRSN                1
 GAP=146        1.00       6.6     5.4  8.6  0.1626E+02  0.1144E+02  0.1686E+02E
 Epicentro: EL CARMEN DE CHUCURI - SANTANDER                                   3
 ACTION:UPD 13-02-15 09:17 OP:ep   STATUS:               ID:20130128032229 L   I
 2013-01-28-0318-50M.COL___172                                                 6
 STAT SP IPHASW D HRMM SECON CODA AMPLIT PERI AZIMU VELO AIN AR TRES W  DIS CAZ7
 BAR2 SZ EP        322 44.88                             159   -0.3910 40.2 116 
 BAR2 SZ ES        322 57.45                             159   -0.5510 40.2 116 
 BAR2 SZ I         322 58.92        24.9 0.32            148           40.2 116 
 BRR  HZ I         322 44.91         4.8 0.28            160           45.3 330 
 BRR  HZ EP        322 45.09                             157   -0.0710 45.3 330 
 BRR  HN ES        322 58.39                             157    0.6010 45.3 330 
 RUS  HZ EP        322 50.56                             134    0.4210  106 154 
 RUS  HE ES        323  6.97                             134    0.3210  106 154 
 RUS  HZ I         323  8.43         2.5 0.36            123            106 154 
 PTB  HZ EP        322 49.47                             133   -0.1410  107 257 
 PTB  HN ES        323  5.53                             133   -0.1810  107 257 
 PTB  HZ I         323 10.08         5.2 0.20            124            107 257 
                                                                                
