 2014  928 0448 32.0 L   6.742 -73.213148.0  RSN  5 0.4 1.1LRSN                1
 GAP=222        0.94       5.9     8.2  8.6  0.9051E+01  0.1468E+02  0.1062E+02E
 Epicentro: VILLANUEVA - SANTANDER                                             3
 ACTION:UPD 14-10-03 23:09 OP:nd   STATUS:               ID:20140928044832 L   I
 OLDACT:DUP 14-09-28 15:48 OP:spq  STATUS:               ID:20140928043821d    3
 2014-09-28-0438-19M.COL___295                                                 6
 STAT SP IPHASW D HRMM SECON CODA AMPLIT PERI AZIMU VELO AIN AR TRES W  DIS CAZ7
 BAR2 SZ ES   1    449  6.50                             173   -0.68 7 16.9 168 
 BAR2 SZ I         449  7.76         3.2 0.12            167           16.9 168 
 BRR  HZ EP        448 53.14                             154   -0.0610 68.4 306 
 BRR  HN ES        449 10.44                             154    0.6810 68.4 306 
 BRR  HZ I         449 10.84         2.0 0.44            155           68.4 306 
 PTB  HZ EP        448 58.17                             134   -0.19 9  139 261 
 PTB  HN ES   1    449 18.54                             134   -0.41 7  139 261 
 PTB  HZ I         449 20.92         1.1 0.12            133            139 261 
 SPBC HZ EP        448 59.90                             132    0.17 9  153 218 
 SPBC HE ES        449 21.65                             132    0.25 9  153 218 
 SPBC HZ I         449 28.14         1.7 0.18            130            153 218 
 ZAR  HN ES        449 28.91                             124   -0.29 9  200 295 
                                                                                
