 2016 1028 0731 30.2 L   6.142 -73.671111.4  RSN 10 0.3 1.5LRSN                1
 GAP= 69        0.71       2.1     2.0  4.2 -0.1480E+01  0.1743E+01  0.3927E+00E
 Epicentro: CHIPATA - SANTANDER                                                3
 ACTION:UPD 16-11-09 19:23 OP:rebc STATUS:               ID:20161028073130 L   I
 OLDACT:UP  16-10-28 19:44 OP:cara STATUS:               ID:20161028072745d    3
 OLDACT:DUP 16-10-28 19:41 OP:cara STATUS:               ID:20161028072745d    3
 OLDACT:REG 16-10-28 14:59 OP:cog  STATUS:               ID:20161028072744     3
 2016-10-28-0728-00M.COL___340                                                 6
 STAT SP IPHASW D HRMM SECON CODA AMPLIT PERI AZIMU VELO AIN AR TRES W  DIS CAZ7
 SPBC HZ EP        731 47.99                             145    0.1310 70.0 219 
 SPBC HN ES        732  1.66                             145    0.0610 70.0 219 
 SPBC HZ I         732  3.55         9.8 0.20            147           70.0 219 
 RUS  HZ EP        731 48.34                             146   -0.1310 70.6 113 
 RUS  HN ES        732  2.27                             146   -0.4110 70.6 113 
 RUS  HZ I         732  3.91         6.7 0.26            146           70.6 113 
 BAR2 EZ EP        731 48.44                             144    0.1310 73.5  47 
 BAR2 EZ ES        732  2.59                             144    0.1910 73.5  47 
 BAR2 EZ I         732  4.37        21.1 0.56            144           73.5  47 
 PTB  HN ES        732  4.77                             136   -0.4310 97.4 297 
 PTB  HZ I         732  6.71         3.6 0.14            137           97.4 297 
 BRR  HZ EP        731 50.68                             133   -0.0010  107 358 
 BRR  HN ES        732  6.89                             133    0.2610  107 358 
 BRR  HZ I         732 10.23         4.4 0.30            133            107 358 
 NOR  HN ES        732 14.11                             123    0.40 9  147 244 
 CHI  HZ EP        731 57.29                             119    0.06 9  167 182 
 CHI  HN ES        732 18.61                             119    0.34 9  167 182 
 CHI  HZ I         732 23.85         2.8 0.56            120            167 182 
 PAM  EZ EP        731 57.69                             119    0.03 9  171  39 
 PAM  EE ES        732 19.00                             119   -0.04 9  171  39 
 PAM  EZ I         732 26.88         3.4 0.32            119            171  39 
 GUY2CHZ EP        732  2.01                             113   -0.34 8  213 242 
 GUY2CHN ES        732 26.86                             113   -0.53 8  213 242 
 GUY2CHZ I         732 32.91         4.2 0.30                           213 242 
 CBOC HZ EP        732  7.26                             108   -0.17 8  261 263 
 CBOC HN ES        732 36.88                             108    0.44 8  261 263 
 CBOC HZ I         732 39.54         1.4 0.48            108            261 263 
                                                                                
