 2015  728 0555 15.9 L   6.821 -73.127145.0  RSN 20 0.5 2.4LRSN                1
 GAP=138        0.95       2.3     3.5  5.2 -0.1703E+01  0.9661E+01  0.5092E+00E
 Epicentro: LOS SANTOS - SANTANDER                                             3
 ACTION:UPD 15-09-08 21:51 OP:cam  STATUS:               ID:20150728055515 L   I
 OLDACT:REG 15-07-28 12:52 OP:drio STATUS:               ID:20150728054750     3
 2015-07-28-0547-50M.COL___334                                                 6
 STAT SP IPHASW D HRMM SECON CODA AMPLIT PERI AZIMU VELO AIN AR TRES W  DIS CAZ7
 BAR2 EZ IP     C  555 35.42                             169   -0.0610 26.0 194 
 BAR2 EZ ES        555 50.45                             169   -0.3110 26.0 194 
 BAR2 EZ I         555 53.11        48.5 0.36            169           26.0 194 
 PAM  EZ EP        555 38.25                             152    0.4110 74.3  39 
 PAM  EN ES        555 55.54                             152    0.5810 74.3  39 
 PAM  EZ I         555 57.56        44.7 0.50            152           74.3  39 
 RUS  HZ EP        555 39.31                             143   -0.4110  103 177 
 RUS  HN ES        555 58.30                             143   -0.0110  103 177 
 RUS  HZ I         556  0.96        20.3 0.30            145            103 177 
 OCA  HZ EP        555 43.42                             130   -0.53 9  158 352 
 OCA  HE ES        556  6.07                             130    0.23 9  158 352 
 OCA  HZ I         556 15.31        47.4 0.48            127            158 352 
 ZAR  HZ EP        555 48.15                             122   -0.25 9  205 291 
 ZAR  HN ES        556 13.67                             122   -0.09 9  205 291 
 ZAR  HZ I         556 19.52        51.3 0.36            119            205 291 
 NOR  HZ EP        555 51.72                             118   -0.18 8  238 234 
 NOR  HE ES        556 20.33                             118    0.34 8  238 234 
 NOR  HZ I         556 25.11        27.2 0.16            117            238 234 
 SML  HZ EP        555 52.30                             117   -0.05 8  243 335 
 SML  HN ES        556 20.29                             117   -0.49 8  243 335 
 SML  HZ I         556 25.17        28.7 0.10            115            243 335 
 CHI  HZ EP        555 53.68                             117   -0.17 8  251 195 
 CHI  HN ES        556 23.09                             117   -0.36 8  251 195 
 CHI  HZ I         556 32.55        13.6 0.38            116            251 195 
 ROSC BZ EP   4    555 55.38                             116    1.08 0  256 211 
 ROSC BE ES        556 23.62                             116   -0.64 8  256 211 
 ROSC BZ I         556 32.89        31.4 0.40            115            256 211 
 HEL  HZ EP        555 56.49                             114    0.13 8  275 255 
 HEL  HE ES        556 28.43                             114    0.52 8  275 255 
 HEL  HZ I         556 35.33        16.2 0.32            113            275 255 
 URE  HZ EP   4    555 56.02                             113   -1.03 0  285 291 
 URE  HZ I         556 39.44        24.4 0.18            111            285 291 
 GUY2CHZ EP        556  0.48                             112    0.67 7  304 235 
 GUY2CHE ES        556 33.78                             112   -0.28 7  304 235 
 GUY2CHZ I         556 44.14        19.8 0.52                           304 235 
 CBOC HZ EP        556  3.50                             110    0.41 7  336 252 
 CBOC HN ES        556 40.77                             110    0.87 7  336 252 
 CBOC HZ I         556 47.44         5.0 0.40            108            336 252 
 DBB  SZ EP        556  3.69                             109    0.13 7  341 274 
 DBB  SZ ES        556 39.77                             109   -0.97 7  341 274 
 TOL  SZ EP        556  5.61                             109    1.13 6  347 225 
 TOL  SN ES        556 42.15                             109   -0.22 6  347 225 
 TOL  SZ I         556 47.11        12.0 0.52            108            347 225 
 MON  HZ EP   4    556  2.84                             108   -2.05 0  354 308 
 MON  HE ES   4    556 41.75                             108   -1.36 0  354 308 
 MON  HZ I         556 57.20         7.7 0.48            107            354 308 
 ANIL HE EP        556  5.91                             108   -0.12 6  360 225 
 ANIL HN ES        556 45.68                             108    0.55 6  360 225 
 ORTC HZ EP        556  9.82                             106   -0.33 6  399 216 
 ORTC HN ES        556 53.10                             106    0.64 6  399 216 
 ORTC HZ I         556 57.30         6.1 0.30            105            399 216 
 SJC  HZ EP   4    556  9.66                             106   -1.68 0  408 327 
 SJC  HN ES   4    556 51.57                             106   -3.02 0  408 327 
 SJC  HZ I         556 55.08         4.7 0.46            105            408 327 
 PAL  HZ EP        556 11.04                             106   -0.34 6  409 239 
 PAL  HN ES        556 54.44                             106   -0.21 6  409 239 
 PAL  HZ I         557  0.06         4.1 0.38            105            409 239 
                                                                                
