 2011  328 0523 47.7 L   6.770 -73.063146.0  RSN  6 0.2 1.8LRSN                1
 GAP=184        0.58       3.7     7.6  7.6 -0.1520E+02 -0.2168E+02  0.1023E+02E
 Epicentro: LOS SANTOS - SANTANDER                                             3
 ACTION:UP  11-06-16 14:36 OP:jfem STATUS:               ID:20110328052347 L   I
 2011-03-28-0521-58S.COL___137                                                 6
 STAT SP IPHASW D HRMM SECON CODA AMPLIT PERI AZIMU VELO SNR AR TRES W  DIS CAZ7
 BAR2 SZ EP        524  7.43                             170     0.110   24 214 
 BAR2 SZ I         524 24.09        18.9 0.17                            24 214 
 BRR  HZ EP        524  9.33                             150    -0.110   81 298 
 BRR  HN ES   1    524 26.57                             150     0.2 7   81 298 
 BRR  HZ I         524 28.33        11.1 0.08                            81 298 
 GRA  SZ EP        524 13.24                             137     0.210  127  13 
 GRA  SZ ES   1    524 32.70                             137    -0.1 7  127  13 
 OCA  SZ EP        524 16.10                             129    -0.3 9  165 350 
 CHI  HZ EP   2    524 25.55                             117     0.2 4  248 197 
 CHI  HN ES   1    524 54.40                             117    -0.3 6  248 197 
 CHI  HZ I         525  0.85         2.8 0.49                           248 197 
 RREF HZ EP   2    524 34.91                             111     0.5 3  327 231 
 RREF HZ I         525 21.59         3.7 0.38                           327 231 
                                                                                
