 2017  928 0746 28.0 L   6.661 -74.097 19.1  RSN  6 0.3 1.4LRSN                1
 GAP=106        0.56       2.0     1.6  3.3  0.4938E+00  0.5365E+00 -0.3414E+01E
 Epicentro: PUERTO PARRA - SANTANDER                                           3
 ACTION:UPD 17-10-05 19:17 OP:rebc STATUS:               ID:20170928074628 L   I
 OLDACT:UP  17-09-28 18:34 OP:edw  STATUS:               ID:20170928073740     3
 OLDACT:REG 17-09-28 13:39 OP:edw  STATUS:               ID:20170928073740     3
 2017-09-28-0738-00M.COL___414                                                 6
 STAT SP IPHASW D HRMM SECON CODA AMPLIT PERI AZIMU VELO AIN AR TRES W  DIS CAZ7
 SPBC HZ EP        746 45.55                              98   -0.1810  112 179 
 SPBC HN ES        746 59.57                              98   -0.0010  112 179 
 SPBC HZ I         747  0.73         3.9 0.26             96            112 179 
 ZAR  HN ES        747  2.68                              56   -0.0910  125 318 
 RUS  HZ EP        746 50.09                              56   -0.0310  141 127 
 RUS  HN ES        747  7.47                              56    0.0710  141 127 
 RUS  HZ I         747 10.04         3.4 0.22             56            141 127 
 NOR  HN ES        747  8.15                              56   -0.02 9  148 215 
 HEL  HZ EP        746 53.61                              56    0.39 9  167 252 
 HEL  HE ES        747 12.78                              56   -0.13 9  167 252 
 HEL  HZ I         747 14.22         9.2 0.28             56            167 252 
 PAM  EZ EP   2    746 54.76                              56    0.77 5  172  64 
 PAM  EN ES   2    747 13.68                              56   -0.61 5  172  64 
 PAM  EZ I         747 17.54         5.8 0.22             56            172  64 
                                                                                
