 2015  128 0509 18.2 L   6.668 -73.250145.7  RSN  4 0.5 1.2LRSN                1
 GAP=214        1.11      10.6    10.5 10.9  0.1974E+02  0.5075E+01 -0.1612E+01E
 Epicentro: BARICHARA - SANTANDER                                              3
 ACTION:UPD 15-03-02 15:43 OP:nd   STATUS:               ID:20150128050816 L   I
 OLDACT:UPD 15-01-28 15:03 OP:CF   STATUS:               ID:20150128050816 L   3
 2015-01-28-0508-16M.COL___271                                                 6
 STAT SP IPHASW D HRMM SECON CODA AMPLIT PERI AZIMU VELO AIN AR TRES W  DIS CAZ7
 BRR  HZ EP        5 9 38.59                             153   -0.6810 70.4 314 
 BRR  HZ I         5 9 41.74         3.4 0.44            153           70.4 314 
 BRR  HE ES        5 9 56.00                             153    0.2710 70.4 314 
 RUS  HN ES   2    5 9 59.30                             148    0.44 5 87.7 168 
 PTB  HZ EP        5 9 43.77                             135   -0.1510  134 264 
 PTB  HN ES        510  3.94                             135   -0.0710  134 264 
 PTB  HZ I         510  7.65         1.8 0.24            134            134 264 
 ZAR  HZ EP        5 9 51.04                             123    0.89 9  200 297 
 ZAR  HN ES   1    510 14.72                             123   -0.39 6  200 297 
                                                                                
