 2010  828 0747 14.9 L   6.677 -73.320122.7  RSN  4 0.2 1.3LRSN                1
 GAP=154        0.47       7.1    10.4  5.7  0.5764E+02 -0.2359E+01 -0.3572E+01E
 Epicentro: GALAN - SANTANDER                                                  3
 ACTION:UP  10-09-07 10:58 OP:vdl  STATUS:               ID:20100828074714 L   I
 2010-08-28-0743-54S.COL___119                                                 6
 STAT SP IPHASW D HRMM SECON CODA AMPLIT PERI AZIMU VELO SNR AR TRES W  DIS CAZ7
 BAR2 SZ EP   1    747 31.83                             171     0.1 7   18 122 
 BAR2 SZ ES   1    747 44.53                             171    -0.2 7   18 122 
 BAR2 SZ I         747 45.99         7.2 0.12                            18 122 
 GIR2 SZ EP   1    747 32.66                             158     0.2 7   47  17 
 BRR  HZ IP     D  747 33.09                             150    -0.110   64 318 
 BRR  HZ I         747 35.57         4.9 0.14                            64 318 
 BRR  HE ES   1    747 47.64                             150     0.1 7   64 318 
 RUS  HZ EP   2    747 35.55                             141    -0.2 5   91 163 
 RUS  HN ES   2    747 52.19                             141     0.3 5   91 163 
 RUS  HZ I         747 53.21         2.9 0.26                            91 163 
                                                                                
