 2017  828 0459 13.8 L   6.800 -73.137145.6  RSN 10 0.4 1.4LRSN                1
 GAP=113        0.97       3.1     3.8  5.2  0.2746E+01  0.3107E+01  0.5594E+01E
 Epicentro: LOS SANTOS - SANTANDER                                             3
 ACTION:UPD 17-09-04 20:25 OP:rebc STATUS:               ID:20170828045913 L   I
 OLDACT:REG 17-08-28 12:30 OP:dhb  STATUS:               ID:20170828045640     3
 2017-08-28-0457-00M.COL___417                                                 6
 STAT SP IPHASW D HRMM SECON CODA AMPLIT PERI AZIMU VELO AIN AR TRES W  DIS CAZ7
 BAR2 EZ EP        459 33.21                             170   -0.2010 23.5 192 
 BAR2 EZ ES        459 48.46                             170   -0.2410 23.5 192 
 BAR2 EZ I         459 49.93         6.2 0.17            168           23.5 192 
 BRR  HZ IP     D  459 35.09                             152    0.1210 72.1 298 
 BRR  HN ES        459 52.06                             152    0.5710 72.1 298 
 BRR  HZ I         459 54.70         2.9 0.13            150           72.1 298 
 PAM  EZ IP     C  459 36.25                             151    0.3010 76.8  39 
 PAM  EN ES        459 52.95                             151   -0.2910 76.8  39 
 PAM  EZ I         459 56.30         3.2 0.60            155           76.8  39 
 RUS  HZ IP        459 37.46                             144   -0.0610  100 177 
 RUS  HZ ES        459 56.34                             144    0.3110  100 177 
 SPBC HZ EP        459 42.42                             129    0.08 9  164 219 
 SPBC HE ES        5 0  3.91                             129   -0.69 9  164 219 
 SPBC HZ I         5 0  8.97         3.4 0.08            128            164 219 
 YPLC HZ EP        459 43.70                             127    0.17 9  176 152 
 YPLC HN ES        5 0  6.74                             127    0.02 9  176 152 
 YPLC HZ I         5 0  8.64         4.3 0.22            128            176 152 
 ZAR  HZ EP        459 46.76                             122    0.44 9  205 292 
 ZAR  HE ES        5 0 11.05                             122   -0.64 9  205 292 
 ZAR  HZ I         5 0 21.66         1.8 0.26            122            205 292 
 CHI  HZ EP        459 51.42                             117   -0.09 8  249 195 
 CHI  HN ES        5 0 21.69                             117    0.77 8  249 195 
 CHI  HZ I         5 0 27.07         0.7 0.19            118            249 195 
 PTGC HZ EP        459 56.63                             112   -0.97 7  308 159 
 PTGC HN ES        5 0 31.66                             112   -0.11 7  308 159 
 PTGC HZ I         5 0 33.64         1.9 0.56            113            308 159 
 PRA  HZ EP        5 0  7.78                             106    0.42 6  392 210 
 PRA  HE ES        5 0 48.99                             106   -0.15 6  392 210 
 PRA  HZ I         5 0 55.68         1.1 0.21            107            392 210 
                                                                                
