 2015  528 0249 34.3 L   6.812 -73.111146.2  RSN 20 0.4 2.4LRSN                1
 GAP=122        0.83       2.3     3.4  4.3 -0.1856E+01  0.4382E+01  0.1346E+01E
 Epicentro: LOS SANTOS - SANTANDER                                             3
 ACTION:UPD 15-09-10 22:07 OP:cam  STATUS:               ID:20150528024934 L   I
 OLDACT:REG 15-05-28 12:38 OP:spq  STATUS:               ID:20150528024746     3
 2015-05-28-0247-46M.COL___309                                                 6
 STAT SP IPHASW D HRMM SECON CODA AMPLIT PERI AZIMU VELO AIN AR TRES W  DIS CAZ7
 BAR2 EZ IP     C  249 54.03                             170    0.0310 25.6 198 
 BAR2 EZ ES   1    250  8.81                             170   -0.57 7 25.6 198 
 BAR2 EZ I         250 10.28        45.4 0.22            167           25.6 198 
 PAM  SZ EP        249 56.95                             152    0.6210 73.9  38 
 PAM  SN ES        250 13.83                             152    0.3010 73.9  38 
 PAM  SZ I         250 14.58        34.3 0.29            152           73.9  38 
 BRR  HZ IP     C  249 55.86                             152    0.2310 74.0 296 
 BRR  HN ES        250 12.66                             152    0.3810 74.0 296 
 BRR  HZ I         250 15.71        32.5 0.44            146           74.0 296 
 RUS  HZ EP        249 58.10                             144   -0.0410  102 178 
 RUS  HE ES        250 16.78                             144    0.0210  102 178 
 RUS  HZ I         250 17.90        10.4 0.15            141            102 178 
 OCA  HZ EP        250  2.62                             130    0.08 9  159 352 
 OCA  HN ES        250 23.83                             130   -0.76 9  159 352 
 OCA  HZ I         250 28.79        47.0 0.48            126            159 352 
 SPBC HZ EP        250  3.12                             128   -0.01 9  167 220 
 SPBC HN ES        250 25.47                             128   -0.17 9  167 220 
 SPBC HZ I         250 30.75        39.5 0.26            124            167 220 
 ZAR  HZ EP        250  6.75                             122   -0.32 8  207 291 
 ZAR  HZ I         250 37.88        36.4 0.32            118            207 291 
 NOR  HZ EP        250 10.54                             118    0.09 8  239 235 
 NOR  HN ES        250 38.05                             118   -0.61 8  239 235 
 NOR  HZ I         250 40.99        28.8 0.24            115            239 235 
 SML  HZ EP   1    250 10.25                             117   -0.72 6  244 334 
 SML  HN ES   1    250 39.27                             117   -0.32 6  244 334 
 SML  HZ I         250 42.98        23.5 0.24            114            244 334 
 CHI  HZ EP   1    250 12.54                             117    0.30 6  251 196 
 CHI  HN ES   1    250 41.64                             117   -0.22 6  251 196 
 CHI  HZ I         250 45.96         8.5 0.22            114            251 196 
 ROSC BZ EP   4    250 13.73                             116    0.97 0  256 212 
 ROSC BE ES   4    250 44.56                             116    1.79 0  256 212 
 ROSC BZ I         250 48.75        19.3 0.35            113            256 212 
 HEL  HZ EP   1    250 15.43                             114    0.47 6  276 256 
 HEL  HE ES   1    250 47.09                             114    0.40 6  276 256 
 HEL  HZ I         250 52.32        14.4 0.44            111            276 256 
 GUY2CHZ EP        250 18.64                             112    0.30 7  305 235 
 GUY2CHN ES        250 53.23                             112    0.51 7  305 235 
 GUY2CHZ I         250 59.60        10.5 0.54                           305 235 
 PTGC HZ EP        250 17.47                             112   -0.66 7  309 159 
 PTGC HN ES   4    250 50.65                             112   -1.69 0  309 159 
 PTGC HZ I         250 58.58        17.4 0.50            110            309 159 
 CBOC HZ EP        250 22.15                             110    0.48 7  338 252 
 CBOC HN ES   1    250 58.51                             110   -0.14 5  338 252 
 CBOC HZ I         251  4.41         3.4 0.36            107            338 252 
 MON  HZ EP   4    250 21.67                             108   -1.88 0  356 308 
 MON  HN ES   4    251  0.19                             108   -1.79 0  356 308 
 MON  HZ I         251  4.82         2.9 0.50            106            356 308 
 ANIL HE ES   4    251  5.25                             108    1.54 0  361 225 
 ANIL HZ I         251 13.31        19.2 0.24            106            361 225 
 PRA  HZ EP        250 28.15                             106   -0.02 6  395 210 
 PRA  HN ES        251  9.91                             106   -0.29 6  395 210 
 PRA  HZ I         251 16.66        12.3 0.30            104            395 210 
 ORTC HZ EP   1    250 28.59                             106   -0.01 4  399 217 
 ORTC HE ES   4    251 12.38                             106    1.41 0  399 217 
 ORTC HZ I         251 17.30         6.9 0.42            104            399 217 
 SJC  HZ EP   4    250 28.75                             106   -1.22 0  410 326 
 SJC  HE ES   4    251 11.77                             106   -1.64 0  410 326 
 SJC  HZ I         251 13.94         3.5 0.38            103            410 326 
                                                                                
