 2017  128 0538  3.0 L   6.666 -73.206139.5  RSN  4 0.3 0.7LRSN                1
 GAP=211        0.78       8.2     5.6  7.0  0.1661E+02  0.6307E+01  0.2039E+02E
 Epicentro: VILLANUEVA - SANTANDER                                             3
 ACTION:UPD 17-05-22 16:04 OP:jn   STATUS:               ID:20170128053803 L   I
 OLDACT:UP  17-01-28 17:33 OP:lv   STATUS:               ID:20170128052745d    3
 OLDACT:DUP 17-01-28 17:24 OP:lv   STATUS:               ID:20170128052745d    3
 2017-01-28-0528-00M.COL___334                                                 6
 STAT SP IPHASW D HRMM SECON CODA AMPLIT PERI AZIMU VELO AIN AR TRES W  DIS CAZ7
 BAR2 EZ EP        538 21.12                             176   -0.5810 8.51 162 
 BAR2 EZ ES        538 36.33                             176    0.0810 8.51 162 
 BAR2 EZ I         538 37.13         1.8 0.26            153           8.51 162 
 BRR  HZ EP        538 24.07                             150    0.3810 74.3 311 
 BRR  HE ES        538 39.79                             150   -0.0110 74.3 311 
 RUS  HZ EP        538 25.46                             147    0.2810 86.5 171 
 RUS  HZ I         538 46.04         0.6 0.28            126           86.5 171 
 PTB  HZ EP        538 28.55                             132   -0.15 9  139 264 
 PTB  HN ES        538 48.70                             132   -0.02 9  139 264 
                                                                                
