 2011  428 0851 38.2 L   6.774 -73.080147.2  RSN  4 0.3 1.5LRSN                1
 GAP=146        0.69       5.8     7.5  7.7 -0.3398E+01 -0.5321E+01  0.6570E+01E
 Epicentro: LOS SANTOS - SANTANDER                                             3
 ACTION:UP  11-06-22 15:33 OP:REBC STATUS:               ID:20110428085138 L   I
 2011-04-28-0848-43S.COL___139                                                 6
 STAT SP IPHASW D HRMM SECON CODA AMPLIT PERI AZIMU VELO SNR AR TRES W  DIS CAZ7
 BAR2 SZ EP   1    851 57.72                             171    -0.3 7   23 209 
 BAR2 SZ ES   1    852 13.03                             171    -0.4 7   23 209 
 BAR2 SZ I         852 16.30         9.6 0.29                            23 209 
 PAM  SZ EP   1    852  0.60                             152     0.1 7   75  34 
 PAM  SZ I         852  0.85         3.3 0.18                            75  34 
 PAM  SE ES   1    852 17.87                             152     0.1 7   75  34 
 BRR  HZ EP   1    851 59.68                             150    -0.3 7   79 298 
 BRR  HZ I         852  0.02         8.9 0.12                            79 298 
 BRR  HE ES   1    852 17.27                             150     0.3 7   79 298 
 RUS  HZ EP   1    852  2.12                             145     0.2 7   97 180 
 RUS  HE ES   2    852 20.73                             145     0.4 5   97 180 
 RUS  HZ I         852 22.10         5.4 0.23                            97 180 
                                                                                
