 2016  728 0427 27.5 L   6.895 -73.113154.0  RSN  7 0.4 1.7LRSN                1
 GAP=249        1.03       5.9     6.1  7.0  0.1500E+02  0.5345E+01 -0.2458E+01E
 Epicentro: PIEDECUESTA - SANTANDER                                            3
 ACTION:UPD 17-03-29 16:55 OP:lp   STATUS:               ID:20160728042727 L   I
 OLDACT:UP  16-07-28 16:30 OP:edw  STATUS:               ID:20160728041760d    3
 OLDACT:UP  16-07-28 16:29 OP:edw  STATUS:               ID:20160728041760d    3
 OLDACT:UP  16-07-28 16:27 OP:edw  STATUS:               ID:20160728041760d    3
 OLDACT:DUP 16-07-28 16:19 OP:edw  STATUS:               ID:20160728041760d    3
 2016-07-28-0417-59S.COL___343                                                 6
 STAT SP IPHASW D HRMM SECON CODA AMPLIT PERI AZIMU VELO AIN AR TRES W  DIS CAZ7
 BAR2 EZ EP        427 48.86                             167    0.4910 34.4 193 
 BAR2 EZ ES        428  5.01                             167    0.3510 34.4 193 
 BRR  HZ EP        427 48.86                             154   -0.6210 70.2 290 
 BRR  HN ES        428  6.89                             154    0.2510 70.2 290 
 RUS  HZ EP        427 52.35                             143   -0.4510  111 178 
 RUS  HE ES        428 12.07                             143   -0.4710  111 178 
 RUS  HZ I         428 12.95         3.9 0.29            141            111 178 
 PTB  HZ EP        427 56.04                             133    0.37 9  154 255 
 PTB  HN ES        428 17.28                             133   -0.36 9  154 255 
 PTB  HZ I         428 19.27         5.8 0.14            128            154 255 
 SPBC HZ EP        427 58.35                             129    0.73 9  174 218 
 SPBC HN ES        428 21.15                             129    0.04 9  174 218 
 SPBC HZ I         428 25.16         6.2 0.24            126            174 218 
 ZAR  HZ EP        428  0.07                             124   -0.38 9  204 289 
 ZAR  HE ES        428 26.18                             124    0.02 9  204 289 
 ZAR  HZ I         428 33.29         4.9 0.22            122            204 289 
 HEL  HZ EP   2    428  9.15                             116    0.33 4  278 254 
 HEL  HN ES   2    428 41.15                             116    0.09 4  278 254 
 HEL  HZ I         428 48.40         3.3 0.30            114            278 254 
                                                                                
