 2016  328 0011 53.4 L   6.855 -73.159148.0  RSN  6 0.4 1.5LRSN                1
 GAP=132        0.82       3.9     3.8  7.7 -0.2159E+01  0.8903E+01  0.2266E+01E
 Epicentro: LOS SANTOS - SANTANDER                                             3
 ACTION:UPD 16-05-13 21:28 OP:cam  STATUS:               ID:20160328001153 L   I
 OLDACT:REG 16-03-28 13:05 OP:ak   STATUS:               ID:20160328000745     3
 2016-03-28-0007-45M.COL___304                                                 6
 STAT SP IPHASW D HRMM SECON CODA AMPLIT PERI AZIMU VELO AIN AR TRES W  DIS CAZ7
 PAM  EZ EP        012 15.90                             153    0.2110 73.7  43 
 PAM  EN ES        012 33.05                             153    0.0110 73.7  43 
 PAM  EZ I         012 33.64         6.0 0.26            157           73.7  43 
 RUS  HZ EP        012 17.49                             143   -0.3710  107 176 
 RUS  HN ES        012 37.04                             143    0.1310  107 176 
 RUS  HZ I         012 38.13         1.2 0.39            143            107 176 
 PTB  HZ EP        012 20.24                             133   -0.34 9  148 256 
 PTB  HN ES        012 41.23                             133   -0.52 9  148 256 
 PTB  HZ I         012 43.48         4.7 0.16            134            148 256 
 SPBC HZ EP        012 22.35                             129   -0.13 9  167 217 
 SPBC HE ES        012 45.68                             129    0.54 9  167 217 
 SPBC HZ I         012 52.16         6.2 0.24            130            167 217 
 ZAR  HE ES        012 51.21                             124    0.40 9  200 291 
 GUY2CHZ EP   2    012 38.12                             113    0.69 4  304 234 
 GUY2CHE ES   2    013 12.12                             113    0.39 4  304 234 
 GUY2CHZ I         013 22.09         2.0 0.50                           304 234 
                                                                                
