 2017  428 0327 11.6 L   6.783 -73.138144.0  RSN 10 0.4 1.6LRSN                1
 GAP=138        0.79       3.4     3.8  6.0 -0.1299E+00  0.4207E+01  0.4484E+01E
 Epicentro: LOS SANTOS - SANTANDER                                             3
 ACTION:UPD 17-05-30 21:16 OP:jn   STATUS:               ID:20170428032711 L   I
 OLDACT:UP  17-04-28 15:39 OP:and  STATUS:               ID:20170428031741d    3
 OLDACT:UP  17-04-28 15:37 OP:and  STATUS:               ID:20170428031741d    3
 OLDACT:UP  17-04-28 15:36 OP:and  STATUS:               ID:20170428031741d    3
 OLDACT:UP  17-04-28 15:36 OP:and  STATUS:               ID:20170428031741d    3
 OLDACT:UP  17-04-28 15:35 OP:and  STATUS:               ID:20170428031741d    3
 OLDACT:UP  17-04-28 15:35 OP:and  STATUS:               ID:20170428031741d    3
 OLDACT:DUP 17-04-28 15:33 OP:and  STATUS:               ID:20170428031741d    3
 OLDACT:UP  17-04-28 15:32 OP:and  STATUS:               ID:20170428031740     3
 OLDACT:REG 17-04-28 12:35 OP:and  STATUS:               ID:20170428031740     3
 2017-04-28-0318-00M.COL___368                                                 6
 STAT SP IPHASW D HRMM SECON CODA AMPLIT PERI AZIMU VELO AIN AR TRES W  DIS CAZ7
 BRR  HZ EP        327 32.59                             152   -0.0610 72.8 300 
 BRR  HN ES        327 49.76                             152    0.6910 72.8 300 
 BRR  HZ I         327 53.91         6.2 0.22            149           72.8 300 
 PAM  EZ EP        327 33.58                             151   -0.1010 78.3  38 
 PAM  EN ES        327 50.84                             151   -0.0610 78.3  38 
 PAM  EZ I         327 52.91         8.1 0.52            157           78.3  38 
 RUS  HZ EP        327 34.88                             144   -0.1510 98.7 176 
 RUS  HN ES        327 53.32                             144    0.0010 98.7 176 
 RUS  HZ I         327 54.36         4.7 0.26            146           98.7 176 
 PTB  HZ EP   2    327 38.56                             132    0.10 5  148 260 
 PTB  HN ES   2    327 58.81                             132   -0.61 5  148 260 
 PTB  HZ I         328  6.27         5.8 0.32            131            148 260 
 SPBC HN ES        328  1.96                             129    0.03 9  162 220 
 SPBC HZ I         328  8.16         7.7 0.18            129            162 220 
 ZAR  HN ES        328  8.81                             122   -0.61 8  206 293 
 ZAR  HZ I         328 14.31         6.3 0.36            122            206 293 
 NOR  HN ES   3    328 13.48                             118   -1.46 2  234 235 
 CHI  HZ EP        327 48.92                             117   -0.10 8  247 195 
 CHI  HN ES   3    328 19.59                             117    1.37 2  247 195 
 CHI  HZ I         328 22.38         1.6 0.34            119            247 195 
 CBOC HZ EP        327 59.07                             110    0.61 7  334 252 
 CBOC HE ES   4    328 34.82                             110   -0.20 0  334 252 
 CBOC HZ I         328 43.46         0.7 0.20            111            334 252 
 SJC  HZ EP   9    328  4.48                             106   -2.86 0  411 327 
 SJC  HN ES   2    328 48.51                             106    0.55 3  411 327 
                                                                                
