 2016  728 0506  1.4 L   5.983 -73.755123.7  RSN  8 0.3 1.5LRSN                1
 GAP=163        0.82       2.7     3.5  5.2 -0.4194E+01  0.1248E+01  0.1911E+01E
 Epicentro: BOLIVAR - SANTANDER                                                3
 ACTION:UPD 17-03-29 16:55 OP:lp   STATUS:               ID:20160728050601 L   I
 OLDACT:UP  16-07-28 16:44 OP:edw  STATUS:               ID:20160728045659     3
 OLDACT:REG 16-07-28 14:04 OP:edw  STATUS:               ID:20160728045659     3
 2016-07-28-0456-59S.COL___337                                                 6
 STAT SP IPHASW D HRMM SECON CODA AMPLIT PERI AZIMU VELO AIN AR TRES W  DIS CAZ7
 SPBC HZ EP        5 6 19.30                             156    0.1010 50.7 224 
 SPBC HN ES        5 6 33.00                             156   -0.0610 50.7 224 
 SPBC HZ I         5 6 35.26        11.9 0.58            154           50.7 224 
 BAR2 EZ EP        5 6 22.70                             141    0.6110 92.5  43 
 BAR2 EZ ES        5 6 37.78                             141   -0.4310 92.5  43 
 PTB  HZ EP        5 6 22.05                             139   -0.2510 99.0 308 
 PTB  HE ES        5 6 38.79                             139    0.2210 99.0 308 
 PTB  HZ I         5 6 40.22         3.0 0.22            139           99.0 308 
 BRR  HZ EP        5 6 24.37                             132   -0.0910  124   2 
 BRR  HN ES        5 6 42.43                             132    0.0010  124   2 
 NOR  HZ EP        5 6 25.81                             130    0.6010  132 249 
 NOR  HE ES        5 6 43.91                             130    0.1510  132 249 
 NOR  HZ I         5 6 48.18         6.5 0.20            130            132 249 
 GUY2CHZ EP        5 6 32.40                             118    0.01 9  197 245 
 GUY2CHE ES        5 6 56.04                             118   -0.49 9  197 245 
 GUY2CHZ I         5 7  3.72         1.8 0.28                           197 245 
 ZAR  HZ EP        5 6 32.36                             117   -0.47 8  207 324 
 ZAR  HN ES        5 6 57.44                             117    0.12 8  207 324 
 ZAR  HZ I         5 7  0.58         3.6 0.26            118            207 324 
 PRA  HZ EP        5 6 40.99                             109   -0.18 7  280 207 
 PRA  HE ES        5 7 12.05                             109   -0.12 7  280 207 
 PRA  HZ I         5 7 18.24         2.1 0.34            110            280 207 
                                                                                
