 2017 1028 0525 17.7 L   6.764 -73.148142.3  RSN  7 0.5 1.5LRSN                1
 GAP=138        1.25       6.0     5.5  8.6  0.2549E+01  0.1091E+02  0.6176E+01E
 Epicentro: LOS SANTOS - SANTANDER                                             3
 ACTION:UPD 17-11-07 19:38 OP:rebc STATUS:               ID:20171028052517 L   I
 OLDACT:REG 17-10-28 12:47 OP:dani STATUS:               ID:20171028051736     3
 2017-10-28-0518-00M.COL___450                                                 6
 STAT SP IPHASW D HRMM SECON CODA AMPLIT PERI AZIMU VELO AIN AR TRES W  DIS CAZ7
 BAR2 EZ EP        525 36.87                             172    0.0610 19.4 191 
 BAR2 EZ ES        525 51.71                             172   -0.0310 19.4 191 
 BAR2 EZ I         525 53.76        10.3 0.28            172           19.4 191 
 BRR  HZ EP        525 38.69                             151    0.1410 73.0 301 
 BRR  HN ES        525 55.30                             151    0.4610 73.0 301 
 BRR  HZ I         525 56.05         5.1 0.18            153           73.0 301 
 PAM  EZ EP        525 39.79                             149    0.0710 80.6  38 
 PAM  EN ES        525 56.38                             149   -0.5410 80.6  38 
 PAM  EZ I         525 58.94         5.1 0.52            152           80.6  38 
 RUS  HZ EP        525 40.85                             144    0.0510 96.6 176 
 RUS  HN ES        525 59.29                             144    0.4510 96.6 176 
 RUS  HZ I         526  0.88         5.3 0.40            146           96.6 176 
 PTB  HZ EP        525 43.69                             131   -0.59 9  147 260 
 PTB  HN ES        526  3.94                             131   -1.08 9  147 260 
 PTB  HZ I         526  7.50         2.8 0.48            133            147 260 
 SPBC HZ EP        525 45.83                             129    0.22 9  160 220 
 ZAR  HN ES        526 16.12                             121    0.85 8  205 293 
                                                                                
