 2010  728 0059 45.1 L   6.784 -73.032145.6  RSN  6 0.2 1.7LRSN                1
 GAP=172        0.61       3.3     7.0  6.1 -0.2314E+01 -0.1429E+02 -0.3503E+01E
 Epicentro: CEPITA - SANTANDER                                                 3
 ACTION:UPD 10-12-01 15:20 OP:pat  STATUS:               ID:20100728005945 L   I
 2010-07-28-0058-56S.COL___123                                                 6
 STAT SP IPHASW D HRMM SECON CODA AMPLIT PERI AZIMU VELO AIN AR TRES W  DIS CAZ7
 BAR2 SZ EP   1    1 0  4.74                             169     0.0 7   27 218 
 BAR2 SZ ES   1    1 0 20.29                             169     0.2 7   27 218 
 BAR2 SZ I         1 0 22.36         9.7 0.38                            27 218 
 BRR  HZ EP        1 0  6.85                             149    -0.110   83 296 
 BRR  HE ES   1    1 0 23.95                             149     0.0 7   83 296 
 BRR  HZ I         1 0 29.47        11.6 0.06                            83 296 
 RUS  HZ EP   1    1 0  8.42                             144    -0.2 7   99 183 
 RUS  HE ES   2    1 0 27.08                             144     0.0 5   99 183 
 GUE  SZ EP        1 0 10.11                             139     0.410  116   6 
 GRA  SZ IP        1 0  9.88                             137    -0.310  124  12 
 GRA  SZ ES   1    1 0 29.69                             137    -0.1 7  124  12 
 GRA  SZ I         1 0 31.00         6.7 0.36                           124  12 
 OCA  SZ EP   1    1 0 14.11                             129     0.4 7  164 349 
 OCA  SZ ES   1    1 0 35.78                             129    -0.3 7  164 349 
 OCA  SZ I         1 0 44.07         6.9 0.20                           164 349 
                                                                                
