 2012  228 0543 10.8 L   6.785 -73.099139.7  RSN  4 0.1 1.5LRSN                1
 GAP=143        0.33       2.0     3.2  3.7 -0.3242E+00  0.9595E+00  0.2392E+01E
 ACTION:UP  12-03-07 16:35 OP:epov STATUS:               ID:20120228054310 L   I
 2012-02-28-0540-00M.COL___191                                                 6
 STAT SP IPHASW D HRMM SECON CODA AMPLIT PERI AZIMU VELO AIN AR TRES W  DIS CAZ7
 PAM  SZ EP   1    543 32.44                             150    0.18 7 75.5  36 
 PAM  SE ES   1    543 48.92                             150   -0.07 7 75.5  36 
 BRR  HZ EP        543 31.56                             150   -0.0510 76.5 298 
 BRR  HZ I         543 31.94        10.9 0.11                          76.5 298 
 BRR  HN ES   1    543 47.89                             150    0.04 7 76.5 298 
 RUS  HZ EP   1    543 33.64                             143   -0.18 7 98.8 179 
 RUS  HN ES   1    543 51.83                             143    0.05 7 98.8 179 
 RUS  HZ I         543 53.96         3.9 0.31                          98.8 179 
 CHI  HZ EP   1    543 48.23                             116    0.08 6  248 196 
 CHI  HN ES   2    544 17.35                             116    0.06 4  248 196 
 CHI  HZ I         544 25.90         1.7 0.56                           248 196 
                                                                                
