 2011 1028 0055 25.0 L   6.783 -73.102147.4  RSN 16 0.3 3.3LRSN                1
 GAP=119        0.41       1.8     2.3  3.5 -0.2129E+00  0.3140E+01  0.1441E+01E
 Epicentro: LOS SANTOS - SANTANDER                                             3
 ACTION:UPD 12-07-13 16:06 OP:ep   STATUS:               ID:20111028005525 L   I
 2011-10-28-0052-00S.COL___174                                                 6
 STAT SP IPHASW D HRMM SECON CODA AMPLIT PERI AZIMU VELO AIN AR TRES W  DIS CAZ7
 BAR2 SZ IP        055 44.64                             171   -0.1310 22.8 203 
 BAR2 SZ ES   2    055 59.90                             171   -0.33 5 22.8 203 
 BAR2 SZ I         056  3.00       353.0 0.46                          22.8 203 
 PAM  SZ IP        055 47.47                             151    0.2110 76.0  36 
 PAM  SN ES   2    056  4.63                             151   -0.03 5 76.0  36 
 BRR  HZ IP        055 46.55                             151   -0.0310 76.3 298 
 BRR  HN ES   2    056  4.04                             151    0.60 5 76.3 298 
 BRR  HZ I         056  7.28       232.8 0.25                          76.3 298 
 RUS  HZ IP     D  055 48.61                             145   -0.1110 98.5 179 
 RUS  HN ES   2    056  7.15                             145   -0.10 5 98.5 179 
 RUS  HZ I         056 10.07       242.5 0.36                          98.5 179 
 OCA  SZ EP   1    055 53.68                             129    0.05 7  163 352 
 OCA  SZ ES   2    056 15.86                             129   -0.14 5  163 352 
 OCA  SZ I         056 20.19       314.0 0.34                           163 352 
 YOP  SZ EP   2    055 55.07                             127    0.33 4  175 154 
 YOP  SN ES   2    056 18.08                             127    0.10 4  175 154 
 ZAR  HZ EP   2    055 57.40                             122   -0.64 4  209 292 
 ZAR  HN ES   2    056 23.64                             122   -0.21 4  209 292 
 ZAR  HZ I         056 29.18       177.5 0.28                           209 292 
 NOR  SZ EP   1    056  0.60                             118   -0.49 6  238 236 
 NOR  SN ES   2    056 29.51                             118    0.25 4  238 236 
 ROSC BZ EP   2    056  3.51                             117    0.25 4  254 212 
 ROSC BN ES   2    056 33.39                             117    0.25 4  254 212 
 ROSC BZ I         056 39.34       187.2 0.49                           254 212 
 HEL  HZ EP   1    056  5.65                             115   -0.07 6  276 256 
 HEL  HN ES   2    056 37.51                             115    0.00 4  276 256 
 HEL  HZ I         056 43.97       100.3 0.49                           276 256 
 VIL  SZ EP   2    056  8.14                             112   -0.21 4  302 193 
 VIL  SN ES   2    056 41.94                             112   -0.26 4  302 193 
 VIL  SZ I         056 51.92        66.8 0.61                           302 193 
 RREF HZ EP   1    056 11.50                             111    0.05 5  324 230 
 RREF HN ES   2    056 47.70                             111   -0.01 3  324 230 
 RREF HZ I         056 56.41       139.8 0.39                           324 230 
 DBB  SZ EP   1    056 13.08                             109    0.01 5  344 275 
 DBB  SZ ES   2    056 50.63                             109    0.04 3  344 275 
 TOL  SZ EP   1    056 14.10                             109    0.59 5  346 225 
 ANIL HZ EP   1    056 15.64                             108    0.58 5  359 225 
 ANIL HN ES   2    056 54.14                             108    0.00 3  359 225 
 PRA  HZ EP   1    056 18.39                             107   -0.23 4  393 210 
 PRA  HN ES   2    057  0.32                             107   -0.16 3  393 210 
                                                                                
