 2013  728 0652 29.4 L   6.784 -73.147154.0  RSN  5 0.4 1.5LRSN                1
 GAP=215        1.01       7.1     9.0  9.0 -0.6838E+01  0.4711E+01 -0.2232E+02E
 Epicentro: LOS SANTOS - SANTANDER                                             3
 ACTION:UPD 13-08-12 10:40 OP:ep   STATUS:               ID:20130728065229 L   I
 OLDACT:UP  13-07-28 10:26 OP:cam  STATUS:               ID:20130728064959     3
 OLDACT:REG 13-07-28 08:18 OP:cam  STATUS:               ID:20130728064959     3
 2013-07-28-0649-59M.COL___267                                                 6
 STAT SP IPHASW D HRMM SECON CODA AMPLIT PERI AZIMU VELO AIN AR TRES W  DIS CAZ7
 BAR2 SZ ES   1    653  5.83                             172   -0.27 7 21.6 190 
 BRR  HZ EP        652 51.92                             154    0.3910 71.9 300 
 BRR  HN ES        653  9.20                             154    0.4410 71.9 300 
 BRR  HZ I         653  9.70         3.2 0.34            149           71.9 300 
 PTB  HZ EP        652 56.94                             134   -0.12 9  147 259 
 PTB  HN ES        653 18.04                             134   -0.55 9  147 259 
 PTB  HZ I         653 25.09         3.0 0.58            130            147 259 
 ZAR  HE ES   1    653 28.93                             124    0.66 6  205 293 
 SML  HZ EP        653  6.82                             119    0.11 8  245 335 
 SML  HN ES        653 35.07                             119   -0.70 8  245 335 
 SML  HZ I         653 38.30         5.0 0.24            118            245 335 
                                                                                
