 2017 1028 0145 48.6 L   6.670 -73.361127.4  RSN  4 0.2 1.1LRSN                1
 GAP=152        0.55       3.8     3.4  4.5  0.6253E+01  0.3767E+01  0.3037E+01E
 Epicentro: GALAN - SANTANDER                                                  3
 ACTION:UPD 17-11-07 19:38 OP:rebc STATUS:               ID:20171028014548 L   I
 OLDACT:UP  17-10-28 14:15 OP:dani STATUS:               ID:20171028013742d    3
 OLDACT:DUP 17-10-28 14:13 OP:dani STATUS:               ID:20171028013742d    3
 OLDACT:UP  17-10-28 14:12 OP:dani STATUS:               ID:20171028013741     3
 OLDACT:UP  17-10-28 14:12 OP:dani STATUS:               ID:20171028013741     3
 OLDACT:UP  17-10-28 14:12 OP:dani STATUS:               ID:20171028013741     3
 OLDACT:UP  17-10-28 14:11 OP:dani STATUS:               ID:20171028013741     3
 OLDACT:REG 17-10-28 12:30 OP:dani STATUS:               ID:20171028013741     3
 2017-10-28-0138-00M.COL___456                                                 6
 STAT SP IPHASW D HRMM SECON CODA AMPLIT PERI AZIMU VELO AIN AR TRES W  DIS CAZ7
 BAR2 EZ EP        146  5.83                             170   -0.1510 21.6 113 
 BAR2 EZ ES        146 19.25                             170   -0.2910 21.6 113 
 BAR2 EZ I         146 20.49        10.8 0.24            171           21.6 113 
 BRR  HZ EP        146  7.26                             152    0.0210 62.0 321 
 BRR  HE ES        146 22.06                             152    0.2810 62.0 321 
 BRR  HZ I         146 23.18         3.5 0.11            153           62.0 321 
 RUS  HZ EP        146  9.87                             142   -0.0010 91.3 160 
 RUS  HN ES        146 26.73                             142    0.2610 91.3 160 
 RUS  HZ I         146 27.53         1.4 0.28            144           91.3 160 
 PTB  HZ EP        146 11.77                             133    0.0410  122 263 
 PTB  HN ES        146 29.61                             133   -0.1610  122 263 
 PTB  HZ I         146 31.03         1.1 0.06            134            122 263 
                                                                                
