 2013  728 0550 41.7 L   6.794 -73.154150.3  RSN  5 0.3 1.6LRSN                1
 GAP=200        0.86       4.4     6.2  6.3  0.1161E+02 -0.2185E+01 -0.9298E+01E
 Epicentro: LOS SANTOS - SANTANDER                                             3
 ACTION:UPD 13-08-12 10:40 OP:ep   STATUS:               ID:20130728055041 L   I
 OLDACT:REG 13-07-28 08:16 OP:cam  STATUS:               ID:20130728054959     3
 2013-07-28-0549-59M.COL___267                                                 6
 STAT SP IPHASW D HRMM SECON CODA AMPLIT PERI AZIMU VELO AIN AR TRES W  DIS CAZ7
 BAR2 SZ EP        551  1.70                             171   -0.1210 22.5 188 
 BAR2 SZ ES        551 17.09                             171   -0.4510 22.5 188 
 BAR2 SZ I         551 18.61         6.3 0.30            169           22.5 188 
 BRR  HZ EP     D  551  3.58                             153    0.3110 70.7 299 
 BRR  HN ES        551 20.79                             153    0.6610 70.7 299 
 BRR  HZ I         551 24.95         4.8 0.28            150           70.7 299 
 RUS  HZ EP        551  6.03                             145    0.2210100.0 176 
 RUS  HN ES        551 24.65                             145   -0.0010100.0 176 
 RUS  HZ I         551 26.87         3.6 0.46            148          100.0 176 
 PTB  HZ EP        551  8.76                             133   -0.15 9  147 259 
 PTB  HN ES        551 29.91                             133   -0.26 9  147 259 
 PTB  HZ I         551 36.90         5.0 0.44            132            147 259 
 SML  HZ EP        551 18.61                             118    0.04 8  244 336 
 SML  HN ES        551 46.91                             118   -0.45 8  244 336 
 SML  HZ I         551 53.33         5.3 0.24            119            244 336 
                                                                                
