 2010  328 0155 32.8 L   6.803 -73.049141.5  RSN 13 0.5 2.7LRSN                1
 GAP=133        1.03       4.1     7.1  6.3 -0.3589E+01  0.7139E+01  0.3435E+01E
 Epicentro: LOS SANTOS - SANTANDER                                             3
 ACTION:UP  10-08-24 09:56 OP:vdl  STATUS:               ID:20100328015532 L   I
 2010-03-28-0154-00S.COL___098                                                 6
 STAT SP IPHASW D HRMM SECON CODA AMPLIT PERI AZIMU VELO SNR AR TRES W  DIS CAZ7
 BAR2 SZ IP        155 52.21                             168     0.210   28 213 
 BAR2 SZ ES   1    156  6.63                             168    -0.4 7   28 213 
 BRR  HZ IP        155 54.25                             149     0.210   81 295 
 BRR  HE ES   1    156 11.26                             149     0.6 7   81 295 
 BRR  HZ I         156 12.30        91.8 0.11                            81 295 
 RUS  HZ EP        155 56.26                             143     0.110  101 182 
 RUS  HE ES   1    156 14.48                             143     0.1 7  101 182 
 RUS  HZ I         156 16.03        54.6 0.25                           101 182 
 OCA  SZ EP   1    156  1.17                             128     0.2 7  162 349 
 OCA  SZ ES   1    156 21.99                             128    -0.9 7  162 349 
 OCA  SZ I         156 27.53       112.4 0.29                           162 349 
 CHI  HZ EP        156 10.37                             116    -0.3 8  252 198 
 CHI  HE ES   1    156 39.65                             116    -0.5 6  252 198 
 CHI  HZ I         156 45.45        14.0 0.21                           252 198 
 ROSC BZ EP   1    156 11.97                             115     0.6 6  259 213 
 HEL  HZ EP        156 14.53                             113     0.5 7  283 256 
 HEL  HZ I         156 51.11        21.1 0.34                           283 256 
 RREF BZ EP        156 19.49                             109    -0.3 7  330 231 
 RREF BN ES   2    156 55.53                             109    -0.8 3  330 231 
 RREF BZ I         157  3.90        18.0 0.18                           330 231 
 DBB  SZ EP        156 20.52                             108    -0.8 6  350 274 
 TOL  SZ EP        156 22.27                             108     0.4 6  351 226 
 SDV  BZ EP        156 21.95                             108     0.2 6  352  49 
 ANIL BZ EP   1    156 23.72                             107     0.3 5  365 226 
 ANIL BE ES   2    157  3.79                             107     1.0 3  365 226 
 ANIL BZ I         157  8.52        37.2 0.39                           365 226 
 PRA  HZ EP        156 26.01                             105    -0.9 6  398 211 
 PRA  HZ I         157 14.83        20.4 0.32                           398 211 
                                                                                
