 2013  428 0126 44.1 L   6.804 -73.129147.5  RSN 13 0.5 2.4LRSN                1
 GAP= 72        0.95       3.4     3.8  5.5 -0.4827E+00  0.5152E+01  0.1236E+01E
 Epicentro: LOS SANTOS - SANTANDER                                             3
 ACTION:UPD 13-05-22 14:41 OP:EP   STATUS:               ID:20130428012644 L   I
 2013-04-28-0120-00M.COL___248                                                 6
 STAT SP IPHASW D HRMM SECON CODA AMPLIT PERI AZIMU VELO AIN AR TRES W  DIS CAZ7
 BAR2 SZ IP     D  127  3.96                             170    0.0310 24.2 194 
 BAR2 SZ ES   1    127 19.60                             170    0.18 7 24.2 194 
 BAR2 SZ I         127 20.62        39.5 0.24            169           24.2 194 
 GIR2 SZ IP     C  127  4.02                             168    0.0710 31.2 347 
 GIR2 SZ ES   1    127 19.35                             168   -0.10 7 31.2 347 
 GIR2 SZ I         127 22.06        27.8 0.28            163           31.2 347 
 BRR  HZ IP     C  127  5.82                             152    0.3310 72.6 298 
 BRR  HN ES   1    127 22.92                             152    0.73 7 72.6 298 
 BRR  HZ I         127 26.58        47.1 0.12            148           72.6 298 
 PAM  SZ IP     C  127  6.73                             152    0.3410 75.8  39 
 PAM  SE ES   1    127 23.84                             152    0.05 7 75.8  39 
 PAM  SZ I         127 26.84        15.2 0.44            155           75.8  39 
 RUS  HZ EP        127  7.89                             144   -0.1410  101 177 
 RUS  HN ES   1    127 26.45                             144   -0.25 7  101 177 
 RUS  HZ I         127 27.24        26.7 0.44            147            101 177 
 PTB  HZ EP        127 10.49                             132   -0.87 9  150 259 
 PTB  HN ES   1    127 32.15                             132   -0.49 7  150 259 
 PTB  HZ I         127 37.66        29.2 0.14            131            150 259 
 TAM  HZ EP   1    127 12.15                             131    0.41 7  153 105 
 TAM  HN ES   2    127 33.02                             131   -0.29 5  153 105 
 OCA  HZ EP   1    127 12.52                             130    0.02 7  160 352 
 OCA  HN ES   1    127 33.86                             130   -0.81 7  160 352 
 OCA  HZ I         127 38.28        35.9 0.14            130            160 352 
 ZAR  HZ EP        127 17.23                             123    0.43 8  206 292 
 ZAR  HN ES   1    127 42.66                             123    0.35 6  206 292 
 ZAR  HZ I         127 48.01        44.2 0.30            122            206 292 
 NOR  HZ EP   1    127 19.91                             119   -0.19 6  236 235 
 NOR  HE ES   1    127 47.76                             119   -0.43 6  236 235 
 NOR  HZ I         127 55.05        20.7 0.32            119            236 235 
 SML  HZ EP        127 20.33                             118   -0.51 8  244 335 
 SML  HN ES   1    127 48.98                             118   -0.53 6  244 335 
 SML  HZ I         127 59.50        34.1 0.24            118            244 335 
 HEL  HZ EP   1    127 26.00                             115    1.41 6  274 256 
 HEL  HE ES   2    127 57.15                             115    0.96 4  274 256 
 HEL  HZ I         128  3.38        13.2 0.26            115            274 256 
 URE  HZ EP   4    127 24.63                             114   -0.78 0  285 292 
 PRA  HZ EP        127 37.76                             107   -0.06 6  393 210 
 PRA  HN ES   1    128 19.58                             107   -0.15 4  393 210 
 PRA  HN I         128 26.10         9.0 0.74            108            393 210 
                                                                                
