 2015 1028 0951 37.6 L   6.800 -73.129148.4  RSN  7 0.4 1.6LRSN                1
 GAP=202        0.90       3.8     6.3  7.5  0.6502E+01  0.1181E+02 -0.1535E+01E
 Epicentro: LOS SANTOS - SANTANDER                                             3
 ACTION:UPD 15-12-22 20:43 OP:cam  STATUS:               ID:20151028095137 L   I
 OLDACT:REG 15-10-28 12:40 OP:mh   STATUS:               ID:20151028094750     3
 2015-10-28-0947-50M.COL___319                                                 6
 STAT SP IPHASW D HRMM SECON CODA AMPLIT PERI AZIMU VELO AIN AR TRES W  DIS CAZ7
 BAR2 EZ EP        951 57.98                             171    0.4710 23.8 194 
 BAR2 EZ ES   1    952 13.12                             171    0.05 7 23.8 194 
 BAR2 EZ I         952 15.79         5.7 0.11            168           23.8 194 
 RUS  HZ EP   1    952  0.98                             144   -0.58 7  101 177 
 RUS  HN ES   1    952 20.19                             144   -0.09 7  101 177 
 RUS  HZ I         952 21.51         3.5 0.40            147            101 177 
 SPBC HZ EP        952  6.94                             129    0.57 9  164 219 
 SPBC HN ES   1    952 28.96                             129    0.12 7  164 219 
 SPBC HZ I         952 35.31         7.8 0.14            130            164 219 
 ZAR  HZ EP        952 10.72                             123    0.38 8  206 292 
 ZAR  HN ES        952 36.03                             123    0.11 8  206 292 
 ZAR  HZ I         952 42.28         4.7 0.28            123            206 292 
 NOR  HZ EP        952 13.57                             119   -0.03 8  236 235 
 NOR  HE ES   1    952 41.19                             119   -0.53 6  236 235 
 NOR  HZ I         952 47.04         3.1 0.32            120            236 235 
 SML  HZ EP   1    952 13.86                             118   -0.55 6  244 335 
 SML  HN ES   1    952 42.37                             118   -0.78 6  244 335 
 SML  HZ I         952 49.15         7.7 0.24            119            244 335 
 CHI  HZ EP        952 15.62                             118    0.17 8  249 196 
 CHI  HZ I         952 18.33         1.8 0.40            120            249 196 
 CHI  HN ES        952 44.34                             118   -0.68 8  249 196 
                                                                                
