 2013  128 0542  4.9 L   6.820 -73.156144.5  RSN  5 0.2 1.6LRSN                1
 GAP=134        0.68       3.6     3.5  5.0 -0.1229E+01  0.2135E+01  0.9646E+00E
 Epicentro: LOS SANTOS - SANTANDER                                             3
 ACTION:UPD 13-02-15 09:17 OP:ep   STATUS:               ID:20130128054204 L   I
 2013-01-28-0538-50M.COL___174                                                 6
 STAT SP IPHASW D HRMM SECON CODA AMPLIT PERI AZIMU VELO AIN AR TRES W  DIS CAZ7
 BAR2 SZ EP        542 24.24                             170   -0.2210 25.3 187 
 BAR2 SZ ES        542 39.73                             170    0.0410 25.3 187 
 BAR2 SZ I         542 41.33        10.5 0.26            169           25.3 187 
 BRR  HZ EP        542 26.13                             153    0.2910 69.1 297 
 BRR  HE ES        542 42.46                             153    0.3210 69.1 297 
 BRR  HN I         542 43.46        16.1 0.22            152           69.1 297 
 PAM  SZ EP        542 27.08                             151    0.1110 76.4  41 
 PAM  SN ES        542 43.84                             151   -0.3110 76.4  41 
 PAM  SZ I         542 45.89         8.6 0.44            153           76.4  41 
 RUS  HZ EP        542 28.64                             143   -0.1010  103 175 
 RUS  HZ I         542 29.73         1.7 0.16            144            103 175 
 RUS  HN ES        542 47.49                             143    0.1910  103 175 
 PTB  HZ EP        542 31.84                             132    0.10 9  147 258 
 PTB  HN ES        542 52.18                             132   -0.47 9  147 258 
 PTB  HN I         542 57.56         9.7 0.30            132            147 258 
                                                                                
