 2015 1028 0636 13.6 L   6.824 -73.108144.6  RSN  9 0.5 1.8LRSN                1
 GAP=140        1.03       4.0     5.2  6.9 -0.1838E+01  0.1018E+02 -0.2945E+01E
 Epicentro: LOS SANTOS - SANTANDER                                             3
 ACTION:UPD 15-12-22 20:43 OP:cam  STATUS:               ID:20151028063613 L   I
 OLDACT:UP  15-10-28 16:53 OP:mh   STATUS:               ID:20151028062736     3
 OLDACT:REG 15-10-28 12:36 OP:mh   STATUS:               ID:20151028062736     3
 2015-10-28-0627-36M.COL___319                                                 6
 STAT SP IPHASW D HRMM SECON CODA AMPLIT PERI AZIMU VELO AIN AR TRES W  DIS CAZ7
 BAR2 EZ EP   1    636 33.29                             169    0.17 7 26.9 198 
 BAR2 EZ ES        636 48.03                             169   -0.3510 26.9 198 
 BAR2 EZ I         636 49.23        10.7 0.16            167           26.9 198 
 PAM  EZ EP   1    636 36.09                             152    0.72 7 72.7  38 
 PAM  EN ES        636 52.34                             152   -0.0510 72.7  38 
 PAM  EZ I         636 55.18         6.4 0.26            154           72.7  38 
 BRR  HZ EP   1    636 34.93                             151    0.21 7 73.7 295 
 BRR  HN ES        636 51.85                             151    0.6310 73.7 295 
 BRR  HZ I         636 55.65        11.6 0.14            147           73.7 295 
 RUS  HZ EP        636 37.78                             143    0.4110  103 178 
 RUS  HN ES   1    636 55.50                             143   -0.44 7  103 178 
 RUS  HZ I         636 56.53         3.2 0.14            145            103 178 
 OCA  HZ EP   1    636 41.16                             130   -0.42 7  158 352 
 OCA  HN ES        637  2.94                             130   -0.50 9  158 352 
 OCA  HZ I         637  6.00        19.5 0.30            129            158 352 
 ZAR  HZ EP   1    636 46.81                             122    0.59 6  207 291 
 ZAR  HN ES        637 11.86                             122    0.16 8  207 291 
 ZAR  HZ I         637 17.37         6.6 0.26            121            207 291 
 NOR  HN ES        637 17.36                             118   -0.61 8  240 235 
 NOR  HZ I         637 22.96         4.3 0.22            118            240 235 
 SML  HZ EP        636 49.46                             117   -0.59 8  243 334 
 SML  HN ES   4    637 16.73                             117   -1.78 0  243 334 
 SML  HZ I         637 19.91        10.5 0.42            117            243 334 
 MON  HZ EP   4    637  0.33                             108   -2.37 0  355 308 
 MON  HN ES   4    637 39.17                             108   -1.86 0  355 308 
 MON  HZ I         637 52.88         1.5 0.28            108            355 308 
                                                                                
