 2014 1028 0903 31.6 L   6.839 -73.142147.9  RSN  5 0.6 1.5LRSN                1
 GAP=184        1.49       6.9    10.1 12.0  0.1433E+02  0.6012E+01 -0.1576E+01E
 Epicentro: LOS SANTOS - SANTANDER                                             3
 ACTION:UPD 14-11-29 23:57 OP:nd   STATUS:               ID:20141028090331 L   I
 OLDACT:UP  14-10-30 18:47 OP:cam  STATUS:               ID:20141028085808     3
 OLDACT:REG 14-10-30 15:32 OP:cam  STATUS:               ID:20141028085808     3
 2014-10-28-0858-08M.COL___271                                                 6
 STAT SP IPHASW D HRMM SECON CODA AMPLIT PERI AZIMU VELO AIN AR TRES W  DIS CAZ7
 BAR2 SZ EP        9 3 51.84                             169    0.2610 27.7 189 
 BAR2 SZ ES        9 4  6.42                             169   -0.7410 27.7 189 
 BAR2 SZ I         9 4  8.64         2.1 0.14            171           27.7 189 
 BRR  HZ EP        9 3 53.61                             153    0.7210 69.6 295 
 BRR  HN ES        9 4 10.40                             153    0.9110 69.6 295 
 BRR  HN I         9 4 11.19         8.8 0.20            154           69.6 295 
 RUS  HZ EP        9 3 55.50                             143   -0.3710  105 176 
 RUS  HN ES        9 4 15.19                             143    0.3910  105 176 
 RUS  HZ I         9 4 16.42         2.5 0.16            146            105 176 
 PTB  HZ EP        9 3 58.70                             132   -0.16 9  149 257 
 PTB  HN ES        9 4 19.49                             132   -0.63 9  149 257 
 PTB  HZ I         9 4 21.63         3.6 0.42            134            149 257 
 OCA  HN ES        9 4 21.02                             131   -0.56 9  156 353 
 OCA  HN I         9 4 25.85        15.7 0.22            131            156 353 
                                                                                
