 2010  728 0300 50.3 L   6.776 -73.099148.1  RSN  6 0.2 1.7LRSN                1
 GAP=164        0.59       3.1     6.8  5.7 -0.6274E+00 -0.1040E+02 -0.5331E+01E
 Epicentro: LOS SANTOS - SANTANDER                                             3
 ACTION:UPD 10-12-01 15:20 OP:pat  STATUS:               ID:20100728030050 L   I
 2010-07-28-0256-45S.COL___123                                                 6
 STAT SP IPHASW D HRMM SECON CODA AMPLIT PERI AZIMU VELO AIN AR TRES W  DIS CAZ7
 BAR2 SZ EP        3 1 10.15                             171     0.010   22 205 
 BAR2 SZ ES   1    3 1 25.28                             171    -0.4 7   22 205 
 BAR2 SZ I         3 1 26.37        13.6 0.25                            22 205 
 BRR  HZ IP     C  3 1 11.96                             151    -0.110   77 298 
 BRR  HZ I         3 1 12.25        23.1 0.13                            77 298 
 BRR  HE ES   1    3 1 29.08                             151     0.1 7   77 298 
 RUS  HZ EP   1    3 1 14.28                             145     0.2 7   98 179 
 RUS  HE ES   1    3 1 32.86                             145     0.3 7   98 179 
 RUS  HZ I         3 1 33.99         4.1 0.24                            98 179 
 GUE  SZ EP        3 1 15.09                             139    -0.310  118   9 
 GRA  SZ EP        3 1 15.90                             137     0.110  127  15 
 GRA  SZ ES   1    3 1 35.91                             137     0.1 7  127  15 
 GRA  SZ I         3 1 37.84         6.5 0.23                           127  15 
 OCA  SZ EP   1    3 1 19.10                             129     0.0 7  164 351 
 OCA  SZ ES   2    3 1 42.16                             129     0.6 5  164 351 
 OCA  SZ I         3 1 46.92         6.2 0.35                           164 351 
                                                                                
