 2010  528 0804 13.7 L   6.851 -73.115137.5  RSN  8 0.6 2.1LRSN                1
 GAP=178        1.48       6.4    12.8 11.9 -0.5502E+02  0.5745E+02 -0.1011E+02E
 Epicentro: LOS SANTOS - SANTANDER                                             3
 ACTION:UP  10-08-24 10:07 OP:vdl  STATUS:               ID:20100528080413 L   I
 2010-05-28-0759-45S.COL___108                                                 6
 STAT SP IPHASW D HRMM SECON CODA AMPLIT PERI AZIMU VELO SNR AR TRES W  DIS CAZ7
 BAR2 SZ EP        8 4 31.99                             167    -0.510   30 195 
 BAR2 SZ ES        8 4 47.23                             167     0.110   30 195 
 GUE  SZ EP        8 4 36.95                             139    -0.210  110  11 
 GUE  SZ ES   1    8 4 55.73                             139     0.3 7  110  11 
 GRA  SZ EP        8 4 37.76                             136     0.110  119  17 
 GRA  SZ ES   1    8 4 57.31                             136     1.0 7  119  17 
 OCA  SZ EP        8 4 40.53                             128    -0.3 9  155 352 
 OCA  SZ ES   1    8 5  1.32                             128    -0.7 7  155 352 
 OCA  SZ I         8 5  8.69        13.0 0.36                           155 352 
 CHI  HZ I         8 4 50.94         8.6 0.81                           255 196 
 CHI  HN ES        8 5 20.34                             114    -0.9 8  255 196 
 ROSC BN ES   1    8 5 22.35                             114     0.3 6  259 211 
 ROSC BZ I         8 5 26.76        10.6 0.05                           259 211 
 HEL  HN ES   1    8 5 24.69                             112    -0.8 6  277 255 
 HEL  HZ I         8 5 30.80         4.6 0.55                           277 255 
 RREF BZ EP        8 5  1.23                             109     1.1 7  328 229 
 RREF BN ES        8 5 37.50                             109     1.0 7  328 229 
 RREF BZ I         8 5 39.33         6.7 0.56                           328 229 
                                                                                
