 2010 1128 0540 51.5 L   6.787 -73.117146.0  RSN  4 0.1 1.3LRSN                1
 GAP=227        0.34       7.8    15.0  9.5  0.1083E+03 -0.1154E+03 -0.6041E+02E
 Epicentro: LOS SANTOS - SANTANDER                                             3
 ACTION:UP  10-12-17 16:55 OP:REBC STATUS:               ID:20101128054051 L   I
 2010-11-28-0538-21S.COL___131                                                 6
 STAT SP IPHASW D HRMM SECON CODA AMPLIT PERI AZIMU VELO SNR AR TRES W  DIS CAZ7
 BTL  SZ EP   1    541 11.25                             171     0.1 7   22 311 
 BAR2 SZ EP   1    541 11.02                             171    -0.1 7   23 199 
 BAR2 SZ I         541 26.85         5.5 0.67                            23 199 
 BRR  HZ EP   1    541 12.95                             151     0.1 7   75 298 
 BRR  HZ I         541 13.39         8.0 0.12                            75 298 
 BRR  HE ES   1    541 29.52                             151     0.0 7   75 298 
 RUS  HZ EP   2    541 15.11                             144    -0.1 5   99 178 
 RUS  HE ES        541 33.65                             144     0.010   99 178 
 RUS  HZ I         541 34.24         1.4 0.30                            99 178 
                                                                                
