 2016 1228 0930  0.7 L   6.198 -73.536121.3  RSN  7 0.3 1.3LRSN                1
 GAP= 82        0.88       2.8     3.0  6.1 -0.8498E+00  0.5771E+01  0.4665E-01E
 Epicentro: AGUADA - SANTANDER                                                 3
 ACTION:UPD 17-01-11 20:20 OP:rebc STATUS:               ID:20161228093000 L   I
 OLDACT:UP  16-12-28 20:13 OP:edw  STATUS:               ID:20161228092742     3
 OLDACT:REG 16-12-28 13:34 OP:edw  STATUS:               ID:20161228092742     3
 2016-12-28-0928-00M.COL___356                                                 6
 STAT SP IPHASW D HRMM SECON CODA AMPLIT PERI AZIMU VELO AIN AR TRES W  DIS CAZ7
 BAR2 EZ EP        930 19.18                             153    0.3610 58.6  42 
 BAR2 EZ ES        930 33.50                             153    0.5310 58.6  42 
 BAR2 EZ I         930 34.69        14.1 0.26            153           58.6  42 
 RUS  HZ EP        930 19.15                             152   -0.1410 60.4 124 
 RUS  HN ES        930 33.37                             152   -0.4410 60.4 124 
 RUS  HZ I         930 34.95         3.9 0.24            153           60.4 124 
 PTB  HZ EP        930 21.57                             135   -0.5610  109 290 
 PTB  HN ES        930 38.54                             135   -0.3210  109 290 
 PTB  HZ I         930 39.24         3.0 0.10            136            109 290 
 PAM  EZ EP        930 27.47                             124    0.20 9  157  36 
 PAM  EN ES        930 47.87                             124   -0.15 9  157  36 
 PAM  EZ I         930 53.13         1.7 0.32            125            157  36 
 NOR  HZ EP        930 27.37                             123   -0.03 9  163 245 
 NOR  HN ES        930 48.90                             123    0.65 9  163 245 
 NOR  HZ I         930 52.94         2.6 0.16            123            163 245 
 CHI  HZ EP        930 29.18                             121    0.13 9  175 187 
 CHI  HN ES        930 51.09                             121   -0.09 9  175 187 
 CHI  HZ I         930 54.89         1.5 0.48            122            175 187 
 ZAR  HZ EP        930 31.68                             116   -0.03 9  205 314 
 ZAR  HN ES        930 55.90                             116   -0.02 9  205 314 
 ZAR  HZ I         930 59.56         2.3 0.29            117            205 314 
 SJC  HN ES   4    931 42.74                             100   -3.74 0  447 336 
                                                                                
