 2017  828 0658 15.0 L   6.496 -73.484145.5  RSN  4 0.4 1.1LRSN                1
 GAP=193        0.99       5.6     8.8  8.4  0.8398E+01  0.2467E+01 -0.2310E+01E
 Epicentro: SIMACOTA - SANTANDER                                               3
 ACTION:UPD 17-09-04 20:25 OP:rebc STATUS:               ID:20170828065815 L   I
 OLDACT:UP  17-08-28 18:02 OP:dhb  STATUS:               ID:20170828064744d    3
 OLDACT:DUP 17-08-28 17:56 OP:dhb  STATUS:               ID:20170828064744d    3
 2017-08-28-0648-00M.COL___408                                                 6
 STAT SP IPHASW D HRMM SECON CODA AMPLIT PERI AZIMU VELO AIN AR TRES W  DIS CAZ7
 BAR2 EZ ES        658 49.60                             166   -0.7610 35.0  72 
 BAR2 EZ I         658 55.12         4.7 0.58            162           35.0  72 
 BRR  HZ IP     D  658 35.99                             152   -0.1410 72.2 340 
 BRR  HN ES        658 52.97                             152    0.3310 72.2 340 
 BRR  HZ I         658 54.06         2.0 0.28            155           72.2 340 
 RUS  HZ EP        658 37.36                             150    0.0510 80.1 146 
 RUS  HE ES        658 55.11                             150    0.3710 80.1 146 
 RUS  HZ I         658 57.95         1.5 0.27            151           80.1 146 
 PAM  EZ EP        658 40.57                             137   -0.2010  127  43 
 PAM  EN ES        659  1.25                             137    0.3510  127  43 
 PAM  EZ I         659  5.32         1.9 0.51            138            127  43 
                                                                                
