 2016  828 0731 53.7 L   6.778 -73.006151.8  RSN  9 0.3 1.8LRSN                1
 GAP=197        0.61       2.2     3.5  5.0  0.1079E+00  0.6578E+01  0.2757E+00E
 Epicentro: CEPITA - SANTANDER                                                 3
 ACTION:UPD 16-10-29 15:40 OP:rebc STATUS:               ID:20160828073153 L   I
 OLDACT:REG 16-08-28 13:39 OP:ak   STATUS:               ID:20160828072732     3
 2016-08-28-0728-00M.COL___356                                                 6
 STAT SP IPHASW D HRMM SECON CODA AMPLIT PERI AZIMU VELO AIN AR TRES W  DIS CAZ7
 BAR2 EZ EP        732 14.17                             169   -0.0210 28.3 224 
 BAR2 EZ ES        732 30.37                             169    0.2210 28.3 224 
 BAR2 EZ I         732 32.20        11.8 0.39                          28.3 224 
 RUS  HZ EP        732 18.06                             146    0.1510 98.2 185 
 RUS  HN ES        732 36.65                             146   -0.1310 98.2 185 
 RUS  HZ I         732 37.92         4.8 0.36                          98.2 185 
 PTB  HZ EP   2    732 22.48                             130   -0.05 5  163 261 
 OCA  HZ EP   2    732 22.98                             130    0.01 5  165 348 
 OCA  HN ES        732 45.74                             130   -0.05 9  165 348 
 OCA  HZ I         732 50.88         9.3 0.12                           165 348 
 SPBC HZ EP        732 23.26                             129   -0.21 9  171 224 
 SPBC HE ES        732 46.17                             129   -0.51 9  171 224 
 SPBC HZ I         732 46.74         9.2 0.10                           171 224 
 ZAR  HZ EP   2    732 28.53                             122    0.39 4  219 291 
 ZAR  HE ES        732 55.06                             122    0.08 8  219 291 
 ZAR  HZ I         732 59.49         6.3 0.24                           219 291 
 CHI  HZ EP   2    732 31.42                             118   -0.57 4  251 199 
 CHI  HN ES        733  2.27                             118    0.43 8  251 199 
 HEL  HN ES        733  8.43                             115   -0.26 7  286 257 
 GUY2CHN ES        733 14.65                             113    0.52 7  313 237 
                                                                                
