 2013  828 0638 13.8 L   6.804 -73.181144.0  RSN 11 0.5 1.7LRSN                1
 GAP=132        1.10       3.2     4.5  6.0 -0.1274E+00  0.4387E+01 -0.9846E+00E
 Epicentro: LOS SANTOS - SANTANDER                                             3
 ACTION:UPD 14-01-14 09:07 OP:ep   STATUS:               ID:20130828063813 L   I
 OLDACT:DUP 13-08-28 12:43 OP:nd   STATUS:               ID:20130828063738d    3
 OLDACT:REG 13-08-28 12:36 OP:nd   STATUS:               ID:20130828063737     3
 2013-08-28-0637-37M.COL___221                                                 6
 STAT SP IPHASW D HRMM SECON CODA AMPLIT PERI AZIMU VELO AIN AR TRES W  DIS CAZ7
 BAR2 SZ EP        638 33.27                             170    0.0810 23.4 180 
 BAR2 SZ ES        638 48.42                             170    0.0810 23.4 180 
 BAR2 SZ I         638 49.79        14.0 0.30            169           23.4 180 
 BRR  HZ IP     C  638 35.07                             153    0.5510 67.5 300 
 BRR  HN ES        638 51.45                             153    0.7410 67.5 300 
 BRR  HZ I         638 52.70         8.9 0.32            148           67.5 300 
 PAM  SZ IP     D  638 36.27                             150    0.3410 79.6  42 
 PAM  SN ES        638 52.99                             150   -0.2310 79.6  42 
 PAM  SZ I         638 53.98         3.6 0.18            153           79.6  42 
 RUS  HZ EP        638 37.44                             143    0.0310  101 174 
 RUS  HN ES        638 55.37                             143   -0.4810  101 174 
 RUS  HZ I         638 57.40         5.5 0.28            144            101 174 
 PTB  HZ EP        638 39.90                             132   -0.35 9  144 258 
 PTB  HN ES        639  0.56                             132   -0.35 9  144 258 
 PTB  HZ I         639  7.00         4.5 0.24            129            144 258 
 SPBC HZ EP        638 42.31                             129    0.37 9  161 218 
 SPBC HN ES        639  3.30                             129   -0.61 9  161 218 
 SPBC HZ I         639  8.01         4.1 0.14            128            161 218 
 ZAR  HZ EP   2    638 45.68                             123   -0.03 4  200 292 
 ZAR  HN ES        639 11.13                             123    0.51 9  200 292 
 ZAR  HZ I         639 17.35         6.3 0.30            121            200 292 
 SML  HZ EP        638 49.45                             117   -0.62 8  242 336 
 SML  HN ES        639 17.51                             117   -0.88 8  242 336 
 SML  HZ I         639 23.56         9.1 0.22            117            242 336 
 CHI  HZ EP        638 51.94                             117    0.63 8  248 194 
 CHI  HN ES        639 20.53                             117   -0.06 8  248 194 
 CHI  HZ I         639 26.26         3.4 0.36            117            248 194 
 URE  HZ EP   4    638 57.48                             114    3.15 0  280 292 
 URE  HN ES   4    639 24.45                             114   -1.51 0  280 292 
 URE  HZ I         639 36.82         3.4 0.20            112            280 292 
 COD  HZ EP        639  1.85                             109   -0.13 6  347 355 
 COD  HN ES   4    639 38.41                             109   -1.18 0  347 355 
 COD  HZ I         639 43.80         2.2 0.78            109            347 355 
                                                                                
