 2013  728 0730 56.2 L   6.686 -73.173144.4  RSN  4 0.1 1.2LRSN                1
 GAP=238        0.34       3.9     2.5  3.2  0.4116E+01  0.2648E+01  0.1644E+01E
 Epicentro: VILLANUEVA - SANTANDER                                             3
 ACTION:UPD 13-08-12 10:40 OP:ep   STATUS:               ID:20130728073056 L   I
 OLDACT:REG 13-07-28 08:22 OP:cam  STATUS:               ID:20130728072959     3
 2013-07-28-0729-59M.COL___268                                                 6
 STAT SP IPHASW D HRMM SECON CODA AMPLIT PERI AZIMU VELO AIN AR TRES W  DIS CAZ7
 BAR2 SZ EP        731 15.57                             176    0.1010 10.4 186 
 BAR2 SZ ES        731 30.41                             176   -0.1010 10.4 186 
 BAR2 SZ I         731 31.18         4.0 0.36            174           10.4 186 
 BRR  HZ EP   1    731 17.30                             151   -0.16 7 75.7 308 
 BRR  HN ES        731 34.14                             151    0.1010 75.7 308 
 BRR  HZ I         731 36.40         3.2 0.34            150           75.7 308 
 PTB  HZ EP        731 22.64                             133    0.03 9  143 264 
 PTB  HN ES        731 43.22                             133    0.00 9  143 264 
 PTB  HZ I         731 46.05         2.1 0.48            133            143 264 
 ZAR  HE ES        731 54.19                             122   -0.04 8  206 296 
 ZAR  HZ I         731 55.94         1.5 0.36            122            206 296 
                                                                                
