 2015 1028 0110 44.1 L   6.757 -73.088146.1  RSN  7 0.5 1.6LRSN                1
 GAP=146        1.33       6.1     6.8  9.5  0.1267E+01  0.1101E+02 -0.9623E+01E
 Epicentro: LOS SANTOS - SANTANDER                                             3
 ACTION:UPD 15-12-22 20:43 OP:cam  STATUS:               ID:20151028011044 L   I
 OLDACT:REG 15-10-28 12:31 OP:mh   STATUS:               ID:20151028010746     3
 2015-10-28-0107-46M.COL___310                                                 6
 STAT SP IPHASW D HRMM SECON CODA AMPLIT PERI AZIMU VELO AIN AR TRES W  DIS CAZ7
 BAR2 EZ EP        111  4.00                             172    0.2410 20.9 210 
 BAR2 EZ ES        111 18.47                             172   -0.5910 20.9 210 
 BAR2 EZ I         111 19.59         7.7 0.22            171           20.9 210 
 PAM  EZ EP        111  6.94                             151    0.5510 77.4  34 
 PAM  EN ES   1    111 23.80                             151    0.06 7 77.4  34 
 PAM  EZ I         111 24.23         7.4 0.36            152           77.4  34 
 BRR  HZ EP        111  5.94                             150    0.1610 79.1 299 
 BRR  HN ES        111 23.49                             150    0.8210 79.1 299 
 RUS  HZ EP        111  7.33                             145   -0.2310 95.5 180 
 RUS  HN ES        111 25.52                             145   -0.3110 95.5 180 
 RUS  HZ I         111 26.80         3.0 0.46            145           95.5 180 
 ZAR  HN ES        111 42.41                             121   -0.94 8  212 293 
 NOR  HN ES        111 48.89                             118    0.64 8  237 236 
 NOR  HZ I         111 49.48         3.6 0.14            118            237 236 
 SML  HZ EP        111 20.88                             117   -0.67 8  251 334 
 SML  HN ES   4    111 47.89                             117   -2.84 0  251 334 
 SML  HZ I         111 50.93         5.3 0.26            117            251 334 
                                                                                
