 2016  928 0009 30.8 L   6.829 -73.132145.1  RSN 10 0.4 1.9LRSN                1
 GAP=241        0.88       4.3     5.4  5.7  0.9588E+01  0.7068E+01  0.5367E+00E
 Epicentro: LOS SANTOS - SANTANDER                                             3
 ACTION:UPD 17-08-17 21:17 OP:lp   STATUS:               ID:20160928000930 L   I
 OLDACT:UP  16-09-28 13:55 OP:dani STATUS:               ID:20160928000734     3
 OLDACT:UP  16-09-28 13:55 OP:dani STATUS:               ID:20160928000734     3
 OLDACT:UP  16-09-28 13:54 OP:dani STATUS:               ID:20160928000734     3
 OLDACT:REG 16-09-28 12:28 OP:dani STATUS:               ID:20160928000734     3
 2016-09-28-0008-00M.COL___384                                                 6
 STAT SP IPHASW D HRMM SECON CODA AMPLIT PERI AZIMU VELO AIN AR TRES W  DIS CAZ7
 BAR2 EZ ES        010  5.76                             169    0.0610 26.8 192 
 BRR  HZ EP        0 9 52.44                             152    0.6010 71.0 296 
 BRR  HE ES   3    010  9.71                             152    1.44 2 71.0 296 
 BRR  HZ I         010 14.93        15.4 0.16            142           71.0 296 
 RUS  HZ EP        0 9 54.31                             143   -0.3810  104 177 
 RUS  HE ES        010 13.15                             143   -0.1910  104 177 
 RUS  HZ I         010 14.77         5.7 0.28            139            104 177 
 PTB  HZ EP        0 9 57.34                             131   -0.54 9  150 258 
 PTB  HE ES        010 18.79                             131   -0.22 9  150 258 
 PTB  HZ I         010 25.84         8.6 0.22            123            150 258 
 SPBC HZ EP        0 9 59.55                             128    0.00 9  167 219 
 SPBC HN ES        010 21.96                             128   -0.03 9  167 219 
 SPBC HZ I         010 28.62        13.5 0.46            122            167 219 
 ZAR  HZ EP        010  3.51                             122    0.32 9  204 291 
 ZAR  HN ES        010 28.18                             122   -0.30 9  204 291 
 ZAR  HZ I         010 31.27        11.2 0.15            116            204 291 
 NOR  HZ EP        010  6.61                             118   -0.18 8  238 234 
 NOR  HE ES   2    010 35.20                             118    0.31 4  238 234 
 NOR  HZ I         010 38.84         6.8 0.15            112            238 234 
 CHI  HZ EP        010  8.52                             117   -0.29 8  252 195 
 CHI  HN ES        010 39.13                             117    0.65 8  252 195 
 CHI  HZ I         010 43.68         4.0 0.26            112            252 195 
 HEL  HZ EP   4    010 12.46                             114    1.26 0  274 255 
 HEL  HZ I         010 50.07         4.2 0.38            109            274 255 
 URE  HN ES   4    010 41.57                             113   -2.28 0  284 291 
 GUY2CHZ EP        010 15.33                             112    0.63 7  304 234 
 GUY2CHN ES   4    010 52.90                             112    3.95 0  304 234 
 GUY2CHZ I         010 55.92         3.9 0.34                           304 234 
 SJC  HZ EP   4    010 24.58                             106   -1.51 0  407 327 
                                                                                
