 2014  728 0211 12.0 L   6.800 -73.142141.8  RSN 12 0.4 2.0LRSN                1
 GAP=137        0.88       3.2     3.7  4.9 -0.7287E+00  0.3983E+01  0.1442E+01E
 Epicentro: LOS SANTOS - SANTANDER                                             3
 ACTION:UPD 15-03-16 20:47 OP:nd   STATUS:               ID:20140728021112 L   I
 OLDACT:UP  14-07-28 15:51 OP:mh   STATUS:               ID:20140728021000     3
 OLDACT:UP  14-07-28 15:51 OP:mh   STATUS:               ID:20140728021000     3
 OLDACT:UP  14-07-28 15:50 OP:mh   STATUS:               ID:20140728021000     3
 OLDACT:UP  14-07-28 15:49 OP:mh   STATUS:               ID:20140728021000     3
 OLDACT:REG 14-07-28 12:32 OP:mh   STATUS:               ID:20140728021000     3
 2014-07-28-0210-00M.COL___282                                                 6
 STAT SP IPHASW D HRMM SECON CODA AMPLIT PERI AZIMU VELO AIN AR TRES W  DIS CAZ7
 BAR2 SZ EP   1    211 31.30                             170    0.19 7 23.5 191 
 BAR2 SZ ES   1    211 45.28                             170   -0.77 7 23.5 191 
 BAR2 SZ I         211 47.69        19.4 0.18            168           23.5 191 
 BRR  HZ EP        211 33.12                             152    0.4210 71.5 298 
 BRR  HN ES        211 49.64                             152    0.7610 71.5 298 
 PAM  SZ EP        211 33.95                             150    0.2210 77.1  39 
 PAM  SN ES   1    211 50.34                             150   -0.38 7 77.1  39 
 PAM  SZ I         211 53.38         9.9 0.23            154           77.1  39 
 RUS  HZ EP        211 35.43                             143    0.1110  101 176 
 RUS  HN ES        211 53.46                             143   -0.0910  101 176 
 PTB  HZ EP        211 38.45                             131   -0.19 9  148 259 
 PTB  HN ES        211 58.95                             131   -0.51 9  148 259 
 PTB  HZ I         212  1.93        11.9 0.06            130            148 259 
 SPBC HZ EP        211 40.22                             128    0.03 9  163 219 
 SPBC HN ES   1    212  2.46                             128    0.26 7  163 219 
 SPBC HZ I         212  8.93         8.7 0.19            128            163 219 
 ZAR  HZ EP        211 44.21                             121    0.02 9  204 292 
 ZAR  HN ES        212  9.32                             121   -0.00 9  204 292 
 ZAR  HZ I         212 15.83         9.2 0.13            121            204 292 
 NOR  HZ EP        211 47.12                             118   -0.38 8  235 235 
 NOR  HN ES        212 15.09                             118   -0.13 8  235 235 
 NOR  HZ I         212 17.67         8.0 0.17            117            235 235 
 SML  HZ EP        211 47.78                             117   -0.60 8  244 335 
 SML  HN ES   4    212 14.87                             117   -1.92 0  244 335 
 SML  HZ I         212 20.94        12.5 0.10            117            244 335 
 HEL  HZ EP   4    212  6.78                             114   14.76 0  272 256 
 HEL  HN ES   4    212 24.69                             114    1.42 0  272 256 
 HEL  HZ I         212 30.11         3.3 0.40            114            272 256 
 PRA  HZ EP        212  5.31                             106   -0.07 6  392 210 
 PRA  HN ES        212 47.40                             106    0.36 6  392 210 
 PRA  HZ I         212 53.74         4.0 0.25            106            392 210 
 ORTC HZ EP        212  6.33                             106    0.55 6  396 216 
 ORTC HN ES   4    212 50.16                             106    2.40 0  396 216 
 ORTC HZ I         212 57.41         2.1 0.50            106            396 216 
 SJC  HZ IP   4    212  5.88                             105   -1.54 0  409 327 
 SJC  HN ES   4    212 45.63                             105   -5.04 0  409 327 
                                                                                
