 2014  928 0509 48.4 L   6.782 -73.128142.6  RSN 10 0.4 1.4LRSN                1
 GAP=140        1.01       3.4     4.2  6.5 -0.2200E+01  0.8728E+01 -0.1350E+01E
 Epicentro: LOS SANTOS - SANTANDER                                             3
 ACTION:UPD 14-10-03 23:09 OP:nd   STATUS:               ID:20140928050948 L   I
 OLDACT:UP  14-09-28 16:04 OP:spq  STATUS:               ID:20140928050820     3
 OLDACT:REG 14-09-28 13:24 OP:spq  STATUS:               ID:20140928050820     3
 2014-09-28-0508-20M.COL___295                                                 6
 STAT SP IPHASW D HRMM SECON CODA AMPLIT PERI AZIMU VELO AIN AR TRES W  DIS CAZ7
 BAR2 SZ EP     D  510  7.58                             171   -0.0410 21.8 196 
 BAR2 SZ ES   1    510 22.34                             171   -0.28 7 21.8 196 
 BAR2 SZ I         510 23.71         5.0 0.20            172           21.8 196 
 BRR  HZ IP     C  510  9.51                             151    0.1410 73.9 299 
 BRR  HN ES        510 26.32                             151    0.6010 73.9 299 
 BRR  HZ I         510 30.39         3.9 0.11            151           73.9 299 
 PAM  SZ EP        510 10.74                             150    0.4310 77.7  37 
 PAM  SN ES        510 27.33                             150   -0.0610 77.7  37 
 PAM  SZ I         510 29.76         4.7 0.40            153           77.7  37 
 RUS  HZ EP   1    510 12.14                             144    0.45 7 98.5 177 
 RUS  HE ES        510 29.59                             144   -0.2610 98.5 177 
 RUS  HZ I         510 30.82         2.4 0.23            147           98.5 177 
 PTB  HZ EP        510 14.38                             131   -0.88 9  149 260 
 PTB  HE ES        510 35.78                             131   -0.43 9  149 260 
 PTB  HZ I         510 37.56         5.1 0.18            133            149 260 
 SPBC HZ EP     C  510 16.69                             128    0.06 9  163 220 
 SPBC HE ES        510 38.99                             128    0.34 9  163 220 
 SPBC HZ I         510 43.35         2.3 0.16            131            163 220 
 OCA  HE ES   1    510 37.95                             128   -0.79 7  163 353 
 OCA  HZ I         510 41.40         4.2 0.33            131            163 353 
 ZAR  HZ EP        510 21.20                             121    0.28 8  207 292 
 ZAR  HN ES        510 46.79                             121    0.52 8  207 292 
 ZAR  HZ I         510 49.16         2.5 0.12            123            207 292 
 SML  HZ EP   1    510 25.25                             116    0.10 6  246 335 
 SML  HE ES   1    510 53.17                             116   -0.63 6  246 335 
 SML  HZ I         510 55.85         3.8 0.07            119            246 335 
 GUY2CHZ EP   4    510 33.00                             112    1.08 0  302 235 
 GUY2CHN ES        511  5.64                             112   -0.22 7  302 235 
 GUY2CHZ I         511 13.00         1.3 0.26                           302 235 
                                                                                
