 2011  128 0146 12.9 L   6.790 -73.143147.1  RSN 12 0.6 2.5LRSN                1
 GAP=126        1.27       4.8     7.9  8.1 -0.1438E+02  0.1638E+02 -0.2726E+01E
 Epicentro: LOS SANTOS - SANTANDER                                             3
 ACTION:UP  11-02-08 08:43 OP:pat  STATUS:               ID:20110128014612 L   I
 2011-01-28-0143-41S.COL___137                                                 6
 STAT SP IPHASW D HRMM SECON CODA AMPLIT PERI AZIMU VELO SNR AR TRES W  DIS CAZ7
 BAR2 SZ IP     D  146 32.67                             171     0.010   22 191 
 BAR2 SZ ES   1    146 47.62                             171    -0.4 7   22 191 
 GIR2 SZ EP   1    146 32.91                             167     0.2 7   32 350 
 GIR2 SZ ES   1    146 47.90                             167    -0.3 7   32 350 
 RUS  HZ EP   1    146 36.44                             144    -0.2 7   99 176 
 RUS  HE ES   1    146 55.09                             144    -0.1 7   99 176 
 RUS  HZ I         146 56.73        83.7 0.59                            99 176 
 GRA  SZ IP     C  146 38.77                             137     0.510  127  17 
 GRA  SZ ES   1    146 58.43                             137     0.3 7  127  17 
 GRA  SZ I         147  1.00        45.6 0.49                           127  17 
 OCA  SZ IP     C  146 41.67                             130     0.3 9  161 353 
 OCA  SZ ES   1    147  3.86                             130     0.2 7  161 353 
 OCA  SZ I         147  6.90        36.9 0.39                           161 353 
 NOR  SZ EP   1    146 48.13                             119    -0.5 6  234 235 
 NOR  SN ES   1    147 16.98                             119     0.5 6  234 235 
 CHI  HZ IP     C  146 50.61                             117     0.1 8  248 195 
 CHI  HE ES   1    147 19.31                             117    -0.6 6  248 195 
 CHI  HZ I         147 23.01        13.8 0.43                           248 195 
 ROSC BZ EP   1    146 52.75                             117     1.8 6  252 211 
 HEL  HN ES   1    147 24.73                             115     0.2 6  272 256 
 DBB  SZ EP   1    147  0.32                             110    -0.1 5  340 274 
 MON  HZ IP     C  147  0.18                             109    -1.8 6  354 309 
 SDV  BZ IP     D  147  2.44                             108    -0.6 6  361  50 
                                                                                
