 2010  428 0751 54.8 L   6.745 -73.001137.0  RSN 10 0.5 2.1LRSN                1
 GAP=187        0.89       6.4    10.0  7.8 -0.3469E+02 -0.6454E+01  0.4203E+01E
 Epicentro: CEPITA - SANTANDER                                                 3
 ACTION:UPD 10-08-24 10:01 OP:vdl  STATUS:               ID:20100428075155 L   I
 2010-04-28-0750-21S.COL___104                                                 6
 STAT SP IPHASW D HRMM SECON CODA AMPLIT PERI AZIMU VELO AIN AR TRES W  DIS CAZ7
 BAR2 SZ IP        752 13.72                             169     0.310   26 230 
 BAR2 SZ ES   1    752 27.37                             169    -0.6 7   26 230 
 BRR  HZ IP     D  752 16.16                             146     0.110   88 297 
 BRR  HE ES   1    752 33.04                             146     0.3 7   88 297 
 BRR  HZ I         752 37.19        20.8 0.18                            88 297 
 BRI  SZ ES   2    752 36.86                             139     0.8 5  110  12 
 GUE  SZ EP   2    752 18.81                             137    -0.2 5  120   4 
 GUE  SZ ES   2    752 37.35                             137    -0.6 5  120   4 
 GRA  SZ EP        752 19.62                             135     0.210  128  10 
 GRA  SZ ES   1    752 38.82                             135     0.1 7  128  10 
 OCA  SZ EP   1    752 22.39                             126    -0.9 7  169 348 
 OCA  SZ I         752 48.15        24.5 0.24                           169 348 
 CHI  HE ES   3    753  0.71                             115    -0.1 2  248 199 
 HEL  HZ EP   2    752 35.74                             112    -0.4 4  286 258 
 HEL  HZ I         753 12.45         7.0 0.61                           286 258 
 RREF BZ EP   2    752 42.27                             109     0.7 3  330 232 
 RREF BZ I         753 25.99         4.7 0.34                           330 232 
 PRA  HZ EP   2    752 48.45                             105     0.1 3  395 212 
 PRA  HZ I         753 34.20         4.3 0.30                           395 212 
                                                                                
