 2012  228 0239 57.1 L   6.749 -73.089142.0  RSN  5 0.2 1.7LRSN                1
 GAP=146        0.45       3.5     5.7  4.3  0.9191E+01 -0.7606E+01 -0.9134E+00E
 ACTION:UP  12-03-07 16:34 OP:epov STATUS:               ID:20120228023957 L   I
 2012-02-28-0240-00M.COL___191                                                 6
 STAT SP IPHASW D HRMM SECON CODA AMPLIT PERI AZIMU VELO AIN AR TRES W  DIS CAZ7
 BAR2 SZ EP        240 16.17                             172   -0.0710 20.1 211 
 BAR2 SZ ES   1    240 31.07                             172   -0.08 7 20.1 211 
 BAR2 SZ I         240 32.04         8.6 0.19                          20.1 211 
 PAM  SZ EP   1    240 19.06                             150    0.07 7 78.2  33 
 BRR  HZ EP        240 18.14                             149   -0.2210 79.4 300 
 BRR  HE ES        240 35.09                             149    0.1610 79.4 300 
 BRR  HZ I         240 39.88        14.0 0.18                          79.4 300 
 RUS  HZ EP   1    240 20.43                             145    0.35 7 94.7 180 
 RUS  HN ES   1    240 37.92                             145   -0.07 7 94.7 180 
 RUS  HZ I         240 39.78         5.9 0.35                          94.7 180 
 CHI  HZ EP   1    240 34.13                             117   -0.08 6  245 197 
                                                                                
