 2014  528 0607 40.9 L   6.791 -73.176148.0  RSN  6 0.4 1.6LRSN                1
 GAP=198        1.05       4.3     6.6  7.2  0.6065E+01  0.3518E+01 -0.4831E+01E
 Epicentro: LOS SANTOS - SANTANDER                                             3
 ACTION:UPD 15-03-16 17:01 OP:nd   STATUS:               ID:20140528060740 L   I
 OLDACT:UP  14-05-28 14:19 OP:cam  STATUS:               ID:20140528060000     3
 OLDACT:REG 14-05-28 12:59 OP:cam  STATUS:               ID:20140528060000     3
 2014-05-28-0600-00M.COL___276                                                 6
 STAT SP IPHASW D HRMM SECON CODA AMPLIT PERI AZIMU VELO AIN AR TRES W  DIS CAZ7
 BAR2 SZ EP        6 8  0.47                             171   -0.3310 22.0 182 
 BAR2 SZ ES        6 8 16.17                             171   -0.1310 22.0 182 
 BAR2 SZ I         6 8 18.34         7.2 0.26            170           22.0 182 
 BRR  HZ EP        6 8  2.38                             154    0.1910 68.8 301 
 BRR  HN ES        6 8 19.55                             154    0.7810 68.8 301 
 BRR  HZ I         6 8 22.17         5.3 0.22            153           68.8 301 
 RUS  HZ EP        6 8  5.06                             145    0.2110 99.9 174 
 RUS  HE ES        6 8 23.23                             145   -0.2710 99.9 174 
 RUS  HZ I         6 8 24.64         4.0 0.30            146           99.9 174 
 PTB  HZ EP        6 8  7.30                             133   -0.47 9  144 259 
 PTB  HE ES        6 8 28.41                             133   -0.30 9  144 259 
 PTB  HZ I         6 8 30.80         4.3 0.36            133            144 259 
 SPBC HZ EP        6 8  9.89                             130    0.56 9  160 218 
 SPBC HN ES        6 8 31.47                             130   -0.01 9  160 218 
 SPBC HZ I         6 8 37.80         6.4 0.20            130            160 218 
 SML  HZ EP   1    6 8 18.14                             118    0.51 6  243 336 
 SML  HE ES        6 8 45.60                             118   -0.66 8  243 336 
 SML  HZ I         6 8 47.74         8.9 0.28            120            243 336 
                                                                                
