 2015 1028 0555 45.8 L   7.002 -73.101148.4  RSN 10 0.5 1.7LRSN                1
 GAP=129        1.14       3.5     5.2  7.2  0.8921E-01  0.9303E+01 -0.3062E+01E
 Epicentro: PIEDECUESTA - SANTANDER                                            3
 ACTION:UPD 15-12-22 20:43 OP:cam  STATUS:               ID:20151028055545 L   I
 OLDACT:UP  15-10-28 16:47 OP:mh   STATUS:               ID:20151028054736     3
 OLDACT:REG 15-10-28 12:36 OP:mh   STATUS:               ID:20151028054736     3
 2015-10-28-0547-36M.COL___319                                                 6
 STAT SP IPHASW D HRMM SECON CODA AMPLIT PERI AZIMU VELO AIN AR TRES W  DIS CAZ7
 BAR2 EZ EP        556  6.65                             162    0.2110 46.3 191 
 BAR2 EZ ES        556 22.09                             162   -0.4310 46.3 191 
 BAR2 EZ I         556 23.23        10.7 0.36            163           46.3 191 
 PAM  EZ EP        556  7.06                             158   -0.2410 57.9  50 
 PAM  EN ES        556 24.84                             158    0.7910 57.9  50 
 PAM  EZ I         556 25.79        14.7 0.32            161           57.9  50 
 BRR  HZ EP   1    556  7.53                             154    0.42 7 68.5 280 
 BRR  HN ES        556 24.27                             154    0.5510 68.5 280 
 BRR  HZ I         556 25.70         9.8 0.16            151           68.5 280 
 RUS  HZ EP        556 11.23                             139   -0.2910  123 179 
 RUS  HN ES        556 31.26                             139   -0.3110  123 179 
 RUS  HZ I         556 32.27         2.7 0.30            142            123 179 
 OCA  HZ EP        556 12.53                             135    0.12 9  139 350 
 OCA  HN ES        556 32.74                             135   -0.41 9  139 350 
 OCA  HZ I         556 43.73        11.4 0.22            135            139 350 
 SPBC HZ EP   1    556 17.06                             126    0.53 7  184 216 
 SPBC HN ES        556 40.14                             126   -0.35 9  184 216 
 SPBC HZ I         556 45.93         3.7 0.32            128            184 216 
 ZAR  HZ EP   1    556 19.13                             123    0.95 6  202 286 
 ZAR  HN ES        556 42.71                             123   -0.71 9  202 286 
 ZAR  HZ I         556 51.06         8.8 0.46            123            202 286 
 SML  HZ EP        556 20.58                             120   -0.12 8  226 332 
 SML  HN ES        556 47.44                             120   -0.46 8  226 332 
 SML  HZ I         556 50.66         9.4 0.10            121            226 332 
 HEL  HN ES   1    557  0.70                             114    0.87 6  283 252 
 HEL  HZ I         557  5.95         2.9 0.28            115            283 252 
 MON  HZ EP   4    556 30.60                             110   -3.25 0  344 305 
 MON  HN ES   4    557  8.54                             110   -2.77 0  344 305 
 MON  HZ I         557  9.95         1.0 0.20            110            344 305 
                                                                                
