 2011 1128 0748 55.7 L   6.784 -73.097143.8  RSN  5 0.2 1.2LRSN                1
 GAP=144        0.41       5.3     4.8  6.6 -0.8302E+01  0.2839E+01  0.1487E+02E
 Epicentro: LOS SANTOS - SANTANDER                                             3
 ACTION:UPD 12-07-13 16:12 OP:ep   STATUS:               ID:20111128074855 L   I
 2011-11-28-0746-28S.COL___160                                                 6
 STAT SP IPHASW D HRMM SECON CODA AMPLIT PERI AZIMU VELO AIN AR TRES W  DIS CAZ7
 BAR2 SZ EP        749 15.06                             170   -0.0310 23.2 204 
 BAR2 SZ I         749 15.74         4.3 0.36                          23.2 204 
 PAM  SZ EP        749 17.73                             151    0.1410 75.5  36 
 PAM  SE ES   1    749 34.57                             151   -0.10 7 75.5  36 
 BRR  HZ EP        749 16.79                             150   -0.1710 76.8 298 
 BRR  HZ I         749 16.96         3.1 0.34                          76.8 298 
 BRR  HN ES   2    749 33.89                             150    0.34 5 76.8 298 
 RUS  HN ES   3    749 37.18                             144   -0.19 2 98.6 179 
 CTAU SZ EP   2    749 28.91                             122    0.25 4  204 211 
                                                                                
