 2017 1028 0422 54.4 L   6.848 -73.159147.3  RSN 13 0.8 2.1LRSN                1
 GAP=109        1.82       5.3     6.2  8.7 -0.1749E+01  0.8048E+01  0.2974E+01E
 Epicentro: LOS SANTOS - SANTANDER                                             3
 ACTION:UPD 17-11-07 19:38 OP:rebc STATUS:               ID:20171028042254 L   I
 OLDACT:UP  17-10-28 15:00 OP:dani STATUS:               ID:20171028041737     3
 OLDACT:UP  17-10-28 15:00 OP:dani STATUS:               ID:20171028041737     3
 OLDACT:REG 17-10-28 12:42 OP:dani STATUS:               ID:20171028041737     3
 2017-10-28-0418-00M.COL___450                                                 6
 STAT SP IPHASW D HRMM SECON CODA AMPLIT PERI AZIMU VELO AIN AR TRES W  DIS CAZ7
 BAR2 EZ EP        423 14.35                             169    0.0210 28.4 185 
 BAR2 EZ ES        423 29.53                             169   -0.3410 28.4 185 
 BAR2 EZ I         423 32.12        40.8 0.32            169           28.4 185 
 BRR  HZ EP     D  423 16.13                             154    0.6210 67.5 295 
 BRR  HN ES        423 33.19                             154    1.2110 67.5 295 
 BRR  HZ I         423 37.32        22.2 0.28            153           67.5 295 
 PAM  EZ EP        423 17.09                             152    0.4910 74.3  43 
 PAM  EE ES        423 34.46                             152    0.5410 74.3  43 
 PAM  EZ I         423 36.45        12.2 0.60            154           74.3  43 
 RUS  HZ EP        423 18.26                             143   -0.4410  106 175 
 RUS  HN ES        423 36.94                             143   -0.7110  106 175 
 RUS  HZ I         423 38.35        29.1 0.34            144            106 175 
 PTB  HZ EP        423 21.07                             133   -0.40 9  147 257 
 PTB  HN ES        423 42.10                             133   -0.48 9  147 257 
 PTB  HZ I         423 46.72         7.9 0.10            133            147 257 
 SPBC HZ EP        423 23.17                             129   -0.16 9  166 217 
 SPBC HN ES        423 45.16                             129   -0.73 9  166 217 
 SPBC HZ I         423 51.14        18.8 0.32            130            166 217 
 YPLC HZ EP     C  423 24.70                             126   -0.14 9  182 152 
 YPLC HN ES        423 48.47                             126   -0.10 9  182 152 
 YPLC HZ I         423 51.47        14.5 0.26            128            182 152 
 ZAR  HZ EP   9    423 20.45                             123   -6.16 0  201 291 
 ZAR  HN ES        423 44.48                             125   -1.09 9  201 291 
 NOR  HZ EP        423 30.51                             119    0.08 8  237 233 
 NOR  HN ES        423 57.86                             119   -0.67 8  237 233 
 NOR  HZ I         424  1.29         8.6 0.32            119            237 233 
 CHI  HZ EP        423 32.58                             117   -0.12 8  253 195 
 CHI  HN ES        424  2.33                             117   -0.25 8  253 195 
 CHI  HZ I         424 11.79         5.5 0.31            118            253 195 
 GUY2CHZ EP        423 39.29                             112    0.99 7  303 234 
 GUY2CHN ES        424 14.83                             112    2.29 7  303 234 
 GUY2CHZ I         424 20.53         6.4 0.28                           303 234 
 LL6C HZ EP        423 40.19                             111    0.63 7  320 358 
 SJC  HZ EP        423 48.50                             106   -0.90 6  404 327 
 SJC  HN ES        424 29.89                             106   -2.40 6  404 327 
 SJC  HZ I         424 44.14         2.3 0.62            107            404 327 
                                                                                
