 2017  328 0026 27.8 L   7.331 -73.599 94.1  RSN  8 0.4 1.7LRSN                1
 GAP=172        0.87       3.8     2.8  5.8  0.7131E+00  0.2113E+01  0.3438E+00E
 Epicentro: SABANA DE TORRES - SANTANDER                                       3
 ACTION:UPD 17-05-25 18:46 OP:jn   STATUS:               ID:20170328002627 L   I
 OLDACT:UP  17-03-28 13:10 OP:and  STATUS:               ID:20170328001743d    3
 OLDACT:UP  17-03-28 13:10 OP:and  STATUS:               ID:20170328001743d    3
 OLDACT:DUP 17-03-28 13:08 OP:and  STATUS:               ID:20170328001743d    3
 2017-03-28-0018-00M.COL___360                                                 6
 STAT SP IPHASW D HRMM SECON CODA AMPLIT PERI AZIMU VELO AIN AR TRES W  DIS CAZ7
 BRR  HZ IP     C  026 40.54                             162   -0.4810 27.7 207 
 BRR  HN ES        026 51.33                             162   -0.0310 27.7 207 
 BRR  HZ I         026 52.29        38.5 0.12            153           27.7 207 
 BAR2 EZ EP   2    026 46.42                             132    0.50 5 93.8 151 
 BAR2 EZ ES        027  0.56                             132    0.4810 93.8 151 
 BAR2 EZ I         027  1.68        12.3 0.24            127           93.8 151 
 PAM  EZ EP        026 46.44                             130   -0.3310 99.3  89 
 PAM  EN ES        027  1.85                             130    0.2510 99.3  89 
 PAM  EZ I         027  2.72         8.4 0.16            129           99.3  89 
 PTB  HZ IP   9 C  026 47.42                             122   -1.68 0  129 227 
 PTB  HN ES        027  3.84                             124   -0.2210  129 227 
 PTB  HZ I         027 10.02         6.6 0.15            117            129 227 
 ZAR  HZ EP   2    026 50.14                             120   -0.13 5  140 277 
 ZAR  HE ES        027  7.80                             120   -0.03 9  140 277 
 ZAR  HZ I         027 12.45        13.5 0.22            116            140 277 
 RUS  HZ EP   2    026 53.77                             115   -0.30 5  169 160 
 RUS  HN ES        027 14.18                             115   -0.40 9  169 160 
 RUS  HZ I         027 20.16         4.5 0.32            111            169 160 
 SPBC HZ EP   2    026 55.73                             111   -0.54 4  193 196 
 SPBC HN ES        027 18.41                             111   -0.09 9  193 196 
 SPBC HZ I         027 25.18        10.9 0.22            108            193 196 
 HEL  HZ EP        027  3.89                             106    0.86 8  248 240 
 HEL  HN ES   3    027 31.88                             106    1.34 2  248 240 
 HEL  HZ I         027 37.67         4.2 0.26            104            248 240 
                                                                                
