 2011  128 0900  2.3 L   6.798 -73.110143.5  RSN  6 0.3 1.7LRSN                1
 GAP=163        0.67       3.8     7.3  6.6 -0.1551E+02  0.1753E+02 -0.4447E+01E
 Epicentro: LOS SANTOS - SANTANDER                                             3
 ACTION:UP  11-02-08 08:43 OP:pat  STATUS:               ID:20110128090002 L   I
 2011-01-28-0855-27S.COL___138                                                 6
 STAT SP IPHASW D HRMM SECON CODA AMPLIT PERI AZIMU VELO SNR AR TRES W  DIS CAZ7
 BAR2 SZ EP        9 0 21.58                             170    -0.110   24 200 
 BAR2 SZ ES   1    9 0 36.73                             170     0.0 7   24 200 
 RUS  HZ EP   1    9 0 25.58                             143    -0.2 7  100 178 
 RUS  HE ES   1    9 0 44.61                             143     0.5 7  100 178 
 RUS  HZ I         9 0 45.90         4.0 0.58                           100 178 
 GRA  SZ EP        9 0 27.41                             137     0.210  125  16 
 GRA  SZ ES   1    9 0 46.46                             137    -0.3 7  125  16 
 NOR  SN ES   1    9 1  5.97                             118    -0.3 6  238 235 
 CHI  HZ EP   1    9 0 39.74                             116    -0.2 6  249 196 
 CHI  HE ES   1    9 1  9.05                             116    -0.3 6  249 196 
 CHI  HZ I         9 1 12.77         3.7 0.86                           249 196 
 HEL  HZ EP   1    9 0 43.45                             114     0.7 6  276 256 
 HEL  HZ I         9 1 19.76         4.4 0.52                           276 256 
                                                                                
