 2015  828 0528 14.3 L   6.810 -73.112147.1  RSN 23 0.4 2.7LRSN                1
 GAP=140        0.89       2.0     3.2  4.1 -0.1166E+01  0.4284E+01  0.1482E+01E
 Epicentro: LOS SANTOS - SANTANDER                                             3
 ACTION:UPD 15-09-15 23:05 OP:cam  STATUS:               ID:20150828052814 L   I
 OLDACT:REG 15-08-28 15:15 OP:ak   STATUS:               ID:20150828052347     3
 2015-08-28-0523-47M.COL___364                                                 6
 STAT SP IPHASW D HRMM SECON CODA AMPLIT PERI AZIMU VELO AIN AR TRES W  DIS CAZ7
 BAR2 EZ EP        528 34.07                             170   -0.0510 25.3 198 
 BAR2 EZ ES        528 49.01                             170   -0.5810 25.3 198 
 BAR2 EZ I         528 51.76       106.5 0.22            167           25.3 198 
 BRR  HZ IP     D  528 35.95                             152    0.2110 74.0 296 
 BRR  HN ES        528 52.82                             152    0.3510 74.0 296 
 BRR  HZ I         528 54.87        66.5 0.06            150           74.0 296 
 PAM  EZ EP        528 36.88                             152    0.4310 74.2  38 
 PAM  EN ES        528 54.25                             152    0.5010 74.2  38 
 PAM  EZ I         528 56.72        60.7 0.51            157           74.2  38 
 RUS  HZ EP        528 37.97                             144   -0.2710  102 178 
 RUS  HN ES        528 57.01                             144    0.0910  102 178 
 RUS  HZ I         528 59.62        39.3 0.28            145            102 178 
 OCA  HZ EP        528 42.11                             130   -0.53 9  160 352 
 OCA  HN ES        529  4.99                             130    0.24 9  160 352 
 OCA  HZ I         529 10.74       107.1 0.24            132            160 352 
 SPBC HZ EP        528 42.92                             129   -0.27 9  166 220 
 SPBC HN ES        529  5.24                             129   -0.50 9  166 220 
 SPBC HZ I         529  9.66        72.9 0.22            129            166 220 
 ZAR  HZ EP        528 46.98                             122   -0.15 8  207 291 
 ZAR  HN ES        529 12.53                             122   -0.22 8  207 291 
 ZAR  HZ I         529 18.58        50.8 0.32            123            207 291 
 NOR  HZ EP        528 50.04                             118   -0.45 8  238 235 
 NOR  HN ES        529 18.46                             118   -0.27 8  238 235 
 NOR  HZ I         529 24.15        42.7 0.16            119            238 235 
 SML  HZ EP        528 50.35                             118   -0.69 8  244 334 
 SML  HN ES        529 19.26                             118   -0.46 8  244 334 
 SML  HZ I         529 22.33        80.6 0.12            119            244 334 
 CHI  HZ EP        528 52.36                             117    0.08 8  251 196 
 CHI  HN ES        529 21.54                             117   -0.38 8  251 196 
 CHI  HZ I         529 31.24        25.2 0.34            118            251 196 
 ROSC BZ EP        528 53.66                             117    0.87 8  256 212 
 ROSC BN ES        529 23.36                             117    0.53 8  256 212 
 ROSC BZ I         529 31.66        46.1 0.35            117            256 212 
 HEL  HZ EP        528 55.48                             115    0.48 7  276 256 
 HEL  HN ES        529 27.11                             115    0.36 7  276 256 
 HEL  HZ I         529 32.54        27.9 0.34            115            276 256 
 URE  HZ EP   4    528 54.36                             114   -1.40 0  287 291 
 URE  HN ES   4    529 25.70                             114   -2.41 0  287 291 
 URE  HZ I         529 37.53        31.9 0.29            114            287 291 
 VIL  SZ EP        528 57.78                             112   -0.20 7  305 192 
 VIL  SN ES        529 32.01                             112   -0.05 7  305 192 
 VIL  SZ I         529 43.25        35.9 0.38            113            305 192 
 GUY2CHZ EP        528 59.07                             112    0.70 7  305 235 
 GUY2CHN ES        529 32.96                             112    0.20 7  305 235 
 GUY2CHZ I         529 42.84        30.1 0.52                           305 235 
 PTGC HZ EP   4 C  528 57.00                             112   -1.17 0  308 159 
 PTGC HN ES   4    529 30.08                             112   -2.32 0  308 159 
 PTGC HZ I         529 33.95        15.7 0.17            114            308 159 
 ELA  HZ EP   1    529  1.73                             110    0.13 5  333 230 
 ELA  HN ES        529 38.13                             110   -0.38 7  333 230 
 ELA  HZ I         529 47.02        18.1 0.40            111            333 230 
 CBOC HZ EP        529  1.98                             110    0.28 7  338 252 
 CBOC HN ES        529 38.88                             110    0.19 7  338 252 
 CBOC HZ I         529 43.56        11.0 0.05            111            338 252 
 TOL  SZ EP        529  3.61                             109    0.62 6  347 225 
 TOL  SN ES        529 41.09                             109    0.11 6  347 225 
 TOL  SZ I         529 49.14        15.0 0.43            110            347 225 
 PRA  HZ EP        529  7.74                             107   -0.44 6  395 210 
 PRA  HN ES        529 49.79                             107   -0.43 6  395 210 
 PRA  HZ I         529 54.26        24.0 0.35            108            395 210 
 ORTC HZ EP        529  8.47                             106   -0.15 6  399 217 
 ORTC HN ES        529 51.46                             106    0.47 6  399 217 
 ORTC HZ I         529 58.24        15.8 0.48            107            399 217 
 SJC  HZ EP   4    529  8.38                             106   -1.64 0  410 326 
 SJC  HN ES   4    529 50.02                             106   -3.47 0  410 326 
 SJC  HZ I         529 56.96         7.1 0.37            107            410 326 
 CRJC HZ EP   4    529 14.44                             104   -2.22 0  466   3 
 CRJC HN ES   4    530  3.02                             104   -2.29 0  466   3 
 CRJC HZ I         530  6.62        14.4 0.09            105            466   3 
                                                                                
