 2014 1028 0148 32.1 L   6.852 -73.381122.0  RSN  6 0.5 1.6LRSN                1
 GAP=104        1.36       6.0     5.4  9.6  0.2632E+01  0.1125E+02 -0.3170E+01E
 Epicentro: SAN VICENTE DE CHUCURI - SANTANDER                                 3
 ACTION:UPD 14-11-29 23:57 OP:nd   STATUS:               ID:20141028014832 L   I
 OLDACT:UP  14-10-30 16:43 OP:cam  STATUS:               ID:20141028014809     3
 OLDACT:REG 14-10-30 14:50 OP:cam  STATUS:               ID:20141028014809     3
 2014-10-28-0148-09M.COL___271                                                 6
 STAT SP IPHASW D HRMM SECON CODA AMPLIT PERI AZIMU VELO AIN AR TRES W  DIS CAZ7
 BAR2 SZ EP     D  148 49.27                             163    0.0310 36.2 143 
 BAR2 SZ ES        149  2.36                             163   -0.2710 36.2 143 
 BAR2 SZ I         149  3.67        25.0 0.42            165           36.2 143 
 BRR  HZ EP        148 49.70                             158    0.4110 46.1 308 
 BRR  HN ES        149  3.67                             158    0.9310 46.1 308 
 BRR  HZ I         149  4.75        12.6 0.12            158           46.1 308 
 PAM  SZ EP        148 52.68                             141   -0.2410 92.6  54 
 PAM  SE ES        149  8.70                             141   -0.4910 92.6  54 
 PAM  SZ I         149 11.04         6.0 0.32            144           92.6  54 
 RUS  HZ EP        148 55.39                             135    0.9510  111 163 
 RUS  HN ES        149 11.61                             135   -0.2910  111 163 
 RUS  HZ I         149 12.82         2.3 0.24            138            111 163 
 PTB  HZ EP        148 54.63                             131   -0.2910  124 254 
 PTB  HN ES        149 12.11                             131   -0.6410  124 254 
 PTB  HN I         149 16.44         7.9 0.22            133            124 254 
 MON  HN ES        149 52.53                             105   -0.30 7  330 310 
                                                                                
