 2011  328 0029 43.5 L   6.799 -73.037141.7  RSN  6 0.4 1.9LRSN                1
 GAP=183        1.12       8.5    11.8 11.4 -0.2110E+02 -0.3549E+02 -0.2226E+02E
 Epicentro: CEPITA - SANTANDER                                                 3
 ACTION:UP  11-06-16 14:36 OP:jfem STATUS:               ID:20110328002943 L   I
 2011-03-28-0024-00S.COL___138                                                 6
 STAT SP IPHASW D HRMM SECON CODA AMPLIT PERI AZIMU VELO SNR AR TRES W  DIS CAZ7
 BAR2 SZ IP        030  2.71                             168    -0.110   28 215 
 BAR2 SZ ES   1    030 17.51                             168    -0.3 7   28 215 
 BAR2 SZ I         030 19.49        16.4 0.27                            28 215 
 BTL  SZ ES   3    030 17.59                             168    -0.2 2   29 297 
 PAM  SZ EP        030  5.54                             152     0.610   70  32 
 BRR  HZ IP     C  030  4.58                             148    -0.310   82 295 
 BRR  HZ I         030  4.86        32.3 0.17                            82 295 
 BRR  HN ES   1    030 22.11                             148     0.5 7   82 295 
 GRA  SZ IP        030  8.51                             137     0.310  123  12 
 GRA  SZ I         030  9.62         9.2 0.36                           123  12 
 GRA  SZ ES   1    030 26.70                             137    -0.7 7  123  12 
 OCA  SZ EP        030 11.31                             128    -0.4 9  162 349 
 OCA  SZ ES   2    030 34.09                             128     0.4 5  162 349 
 OCA  SZ I         030 39.63         8.7 0.26                           162 349 
                                                                                
