 2012  728 0718 50.6 L   6.755 -73.157146.0  RSN  5 0.3 1.9LRSN                1
 GAP=137        0.63       5.8     5.5  6.2  0.2576E+01 -0.4048E+00  0.4289E+01E
 Epicentro: LOS SANTOS - SANTANDER                                             3
 ACTION:UPD 12-08-14 11:46 OP:ep   STATUS:               ID:20120728071850 L   I
 2012-07-28-0710-00M.COL___215                                                 6
 STAT SP IPHASW D HRMM SECON CODA AMPLIT PERI AZIMU VELO AIN AR TRES W  DIS CAZ7
 BAR2 SZ EP        719 10.15                             173     0.010   18 189 
 BAR2 SZ ES   1    719 25.13                             173    -0.3 7   18 189 
 BAR2 SZ I         719 26.69        22.1 0.18            171             18 189 
 BRR  HZ EP        719 11.94                             152     0.110   73 302 
 BRR  HN ES   1    719 28.89                             152     0.4 7   73 302 
 BRR  HZ I         719 29.57        12.4 0.44            153             73 302 
 PAM  SZ EP        719 13.06                             149    -0.110   82  38 
 PAM  SZ I         719 13.30        13.4 0.20            152             82  38 
 PAM  SN ES   3    719 30.39                             149    -0.3 2   82  38 
 RUS  HZ EP        719 14.32                             145     0.310   96 175 
 RUS  HN ES   3    719 32.42                             145     0.1 2   96 175 
 RUS  HZ I         719 34.02        13.4 0.30            145             96 175 
 PTB  HZ EP        719 17.13                             133    -0.3 9  146 261 
 PTB  HN ES   3    719 37.85                             133    -0.5 2  146 261 
 PTB  HZ I         719 39.85         6.2 0.40            133            146 261 
