 2010  628 0515  5.7 L   6.796 -73.095142.2  RSN  4 0.1 1.2LRSN                1
 GAP=164        0.41       2.3     4.8  6.6 -0.2038E+01 -0.5330E+01  0.3637E+01E
 Epicentro: LOS SANTOS - SANTANDER                                             3
 ACTION:UP  10-08-24 10:13 OP:vdl  STATUS:               ID:20100628051505 L   I
 2010-06-28-0511-32S.COL___118                                                 6
 STAT SP IPHASW D HRMM SECON CODA AMPLIT PERI AZIMU VELO SNR AR TRES W  DIS CAZ7
 BAR2 SZ EP   1    515 24.96                             170     0.0 8   25 203 
 BRR  HZ EP   1    515 26.60                             150    -0.2 8   76 297 
 BRR  HN ES   1    515 43.35                             150     0.1 8   76 297 
 BRR  HZ I         515 48.47         4.6 0.11                            76 297 
 RUS  HZ EP   1    515 29.28                             143     0.2 8  100 179 
 RUS  HN ES   1    515 47.19                             143    -0.1 8  100 179 
 RUS  HZ I         515 48.89         2.1 0.25                           100 179 
 GRA  SZ ES        515 49.92                             136     0.010  125  15 
                                                                                
