 2011 1228 0738 15.5 L   6.748 -73.131151.4  RSN  7 0.4 1.5LRSN                1
 GAP=141        0.82       5.4     4.9  6.9  0.1739E+01  0.7389E+01  0.2072E+01E
 Epicentro: LOS SANTOS - SANTANDER                                             3
 ACTION:UPD 12-07-13 16:19 OP:ep   STATUS:               ID:20111228073000 L   I
 2011-12-28-0730-00M.COL___186                                                 6
 STAT SP IPHASW D HRMM SECON CODA AMPLIT PERI AZIMU VELO AIN AR TRES W  DIS CAZ7
 BAR2 SZ EP   1    738 35.93                             173    0.21 7 18.1 198 
 BAR2 SZ ES   1    738 51.32                             173   -0.17 7 18.1 198 
 BAR2 SZ I         738 53.06         6.0 0.21                          18.1 198 
 GIR2 SZ EP   1    738 36.39                             165    0.37 7 37.2 349 
 GIR2 SZ ES   1    738 52.17                             165    0.16 7 37.2 349 
 BRR  HZ EP   1    738 37.88                             152    0.37 7 75.5 302 
 BRR  HZ I         738 39.48        11.8 0.14                          75.5 302 
 BRR  HE ES   1    738 55.17                             152    0.50 7 75.5 302 
 PAM  SZ EP   1    738 38.83                             151    0.30 7 80.9  36 
 PAM  SN ES   1    738 55.69                             151   -0.80 7 80.9  36 
 PAM  SZ I         738 58.18         4.8 0.53                          80.9  36 
 RUS  HZ EP   1    738 38.77                             147   -0.64 7 94.7 177 
 RUS  HN ES   1    738 58.47                             147    0.41 7 94.7 177 
 RUS  HZ I         739  0.26         2.2 0.25                          94.7 177 
 PTB  HZ EP   1    738 42.78                             133   -0.22 7  148 261 
 PTB  HN ES   1    739  3.98                             133   -0.45 7  148 261 
 ZAR  HZ EP   2    738 48.88                             123    0.17 4  208 293 
 ZAR  HE ES   1    739 14.35                             123   -0.25 6  208 293 
 ZAR  HZ I         739 19.83         4.1 0.34                           208 293 
                                                                                
