 2016  628 0823 51.9 L   6.791 -73.140147.5  RSN 18 0.5 2.0LRSN                1
 GAP= 72        1.19       3.2     3.0  5.2 -0.5632E-01  0.3843E+01  0.3642E+01E
 Epicentro: LOS SANTOS - SANTANDER                                             3
 ACTION:UPD 16-07-21 22:23 OP:rebc STATUS:               ID:20160628082351 L   I
 OLDACT:UP  16-06-28 17:50 OP:edw  STATUS:               ID:20160628081746     3
 OLDACT:UP  16-06-28 17:48 OP:edw  STATUS:               ID:20160628081746     3
 OLDACT:REG 16-06-28 17:00 OP:edw  STATUS:               ID:20160628081746     3
 2016-06-28-0817-46M.COL___334                                                 6
 STAT SP IPHASW D HRMM SECON CODA AMPLIT PERI AZIMU VELO AIN AR TRES W  DIS CAZ7
 BAR2 EZ EP     C  824 11.59                             171   -0.1110 22.5 192 
 BAR2 EZ ES        824 27.07                             171   -0.0910 22.5 192 
 BAR2 EZ I         824 27.76        20.2 0.22                          22.5 192 
 BRR  HZ EP     C  824 13.52                             152    0.2510 72.2 299 
 BRR  HE ES        824 30.69                             152    0.7310 72.2 299 
 BRR  HZ I         824 33.70        17.9 0.26                          72.2 299 
 PAM  EZ EP        824 14.47                             151    0.1710 77.7  39 
 PAM  EN ES        824 31.67                             151   -0.1110 77.7  39 
 PAM  EZ I         824 32.24        11.7 0.30                          77.7  39 
 RUS  HZ EP        824 15.55                             145   -0.1810 99.6 176 
 RUS  HN ES        824 34.39                             145    0.0610 99.6 176 
 RUS  HZ I         824 35.26         7.3 0.34                          99.6 176 
 PTB  HZ EP        824 18.45                             132   -0.58 9  148 259 
 PTB  HN ES        824 39.55                             132   -0.65 9  148 259 
 PTB  HZ I         824 43.04        11.9 0.16                           148 259 
 TAM  HZ EP        824 19.96                             131    0.35 9  154 105 
 TAM  HE ES        824 41.50                             131    0.26 9  154 105 
 SPBC HZ EP        824 20.64                             130    0.16 9  163 219 
 SPBC HN ES        824 42.52                             130   -0.27 9  163 219 
 SPBC HZ I         824 45.12        20.0 0.30                           163 219 
 ZAR  HZ EP        824 24.79                             123    0.26 9  205 292 
 ZAR  HN ES        824 50.37                             123    0.36 9  205 292 
 ZAR  HZ I         824 55.80        15.3 0.28                           205 292 
 NOR  HZ EP        824 28.17                             119    0.46 8  235 235 
 NOR  HE ES        824 53.87                             119   -1.78 8  235 235 
 NOR  HZ I         825  1.92         8.4 0.14                           235 235 
 CHI  HZ EP        824 29.75                             118    0.16 8  248 195 
 CHI  HN ES        824 58.72                             118   -0.29 8  248 195 
 ROSC BZ EP        824 30.05                             117    0.01 8  252 211 
 ROSC BE ES        825  0.48                             117    0.67 8  252 211 
 ROSC BZ I         825  9.36         7.2 0.40                           252 211 
 HEL  HZ EP        824 31.90                             115   -0.32 8  272 256 
 HEL  HE ES        825  4.30                             115    0.61 8  272 256 
 HEL  HZ I         825 12.05         5.3 0.26                           272 256 
 URE  HZ EP   4    824 32.06                             114   -1.08 0  285 292 
 URE  HN ES   4    825  2.51                             114   -2.81 0  285 292 
 GUY2CHZ EP        824 36.22                             113    0.66 7  301 235 
 GUY2CHE ES        825  9.41                             113   -0.23 7  301 235 
 GUY2CHZ I         825 19.27         5.8 0.58                           301 235 
 PTGC HZ EP        824 34.61                             112   -1.07 7  308 159 
 PTGC HN ES        825  9.29                             112   -0.56 7  308 159 
 CBOC HZ EP        824 39.28                             110    0.38 7  334 252 
 CBOC HN ES        825 15.86                             110    0.28 7  334 252 
 CBOC HZ I         825 28.36         2.4 0.64                           334 252 
 PRA  HZ EP        824 46.23                             107    0.83 6  392 210 
 PRA  HE ES        825 27.19                             107    0.05 6  392 210 
 PRA  HZ I         825 34.71         3.2 0.36                           392 210 
 ORTC HZ EP        824 46.16                             107    0.35 6  395 216 
 ORTC HN ES        825 28.69                             107    0.81 6  395 216 
 ORTC HZ I         825 37.61         2.2 0.36                           395 216 
 SJC  HZ EP        824 46.97                             106   -0.66 6  410 327 
 SJC  HN ES        825 29.95                             106   -1.17 6  410 327 
                                                                                
