 2014  628 0428 52.8 L   6.772 -73.116140.0  RSN 10 0.3 1.7LRSN                1
 GAP=186        0.84       2.5     4.0  5.4  0.1115E+00  0.5666E+01  0.5271E+00E
 Epicentro: LOS SANTOS - SANTANDER                                             3
 ACTION:UPD 14-07-01 22:57 OP:nd   STATUS:               ID:20140628042852 L   I
 OLDACT:UP  14-06-28 16:26 OP:spq  STATUS:               ID:20140628042816     3
 OLDACT:REG 14-06-28 13:35 OP:spq  STATUS:               ID:20140628042816     3
 2014-06-28-0428-16M.COL___249                                                 6
 STAT SP IPHASW D HRMM SECON CODA AMPLIT PERI AZIMU VELO AIN AR TRES W  DIS CAZ7
 BAR2 SZ EP        429 11.32                             171   -0.4010 21.2 200 
 BAR2 SZ ES   1    429 25.90                             171   -0.55 7 21.2 200 
 BAR2 SZ I         429 28.30         9.3 0.14            169           21.2 200 
 BRR  HZ IP     C  429 14.00                             150    0.3910 75.6 299 
 BRR  HN ES        429 30.42                             150    0.5910 75.6 299 
 BRR  HZ I         429 32.40         6.4 0.13            148           75.6 299 
 RUS  HZ EP        429 15.74                             144   -0.0310 97.3 178 
 RUS  HN ES        429 33.77                             144    0.1010 97.3 178 
 RUS  HZ I         429 35.47         4.2 0.26            146           97.3 178 
 PTB  HZ EP        429 19.15                             130   -0.42 9  150 260 
 PTB  HE ES        429 40.20                             130   -0.24 9  150 260 
 PTB  HZ I         429 45.82         4.9 0.16            130            150 260 
 SPBC HZ IP     C  429 20.94                             128    0.08 9  163 221 
 SPBC HE ES        429 43.13                             128    0.41 9  163 221 
 SPBC HZ I         429 49.90         6.5 0.27            129            163 221 
 OCA  HE ES        429 43.06                             128    0.03 9  164 352 
 OCA  HZ I         429 47.15         5.9 0.38            130            164 352 
 ZAR  HZ EP        429 24.88                             121   -0.46 8  208 293 
 ZAR  HN ES        429 50.54                             121   -0.17 8  208 293 
 ZAR  HZ I         429 57.17         5.0 0.23            122            208 293 
 NOR  HZ EP        429 28.38                             117    0.06 8  236 236 
 NOR  HN ES        429 55.78                             117   -0.23 8  236 236 
 NOR  HZ I         430  1.31         4.0 0.48            119            236 236 
 SML  HN ES        429 58.36                             116    0.08 8  248 335 
 SML  HZ I         430  0.91         6.5 0.30            118            248 335 
 GUY2CHZ EP        429 36.99                             111    0.72 7  302 236 
 GUY2CHN ES        430 10.05                             111   -0.12 7  302 236 
 GUY2CHZ I         430 18.33         2.3 0.28                           302 236 
                                                                                
