 2012 1128 0846 25.6 L   6.765 -73.166139.3  RSN  9 0.5 1.9LRSN                1
 GAP=136        1.32       3.9     5.4  9.5  0.3359E-01  0.1897E+02  0.2386E+01E
 Epicentro: LOS SANTOS - SANTANDER                                             3
 ACTION:UPD 12-12-05 15:36 OP:}ep  STATUS:               ID:20121128084625 L   I
 2012-11-28-0840-00M.COL___234                                                 6
 STAT SP IPHASW D HRMM SECON CODA AMPLIT PERI AZIMU VELO AIN AR TRES W  DIS CAZ7
 BAR2 SZ EP        846 44.42                             172    0.0010 19.2 185 
 BAR2 SZ ES        846 59.19                             172    0.1310 19.2 185 
 BAR2 SZ I         847  1.50        20.8 0.22                          19.2 185 
 PAM  SZ EP        846 47.53                             148    0.0710 81.8  39 
 PAM  SE ES        847  4.10                             148   -0.3710 81.8  39 
 PAM  SN I         847  5.34        11.0 0.52                          81.8  39 
 RUS  HZ EP        846 48.92                             143    0.4210 96.9 175 
 RUS  HN ES        847  6.94                             143    0.6210 96.9 175 
 RUS  HN I         847  8.54        10.9 0.34                          96.9 175 
 PTB  HZ EP        846 51.51                             131   -0.32 9  145 260 
 PTB  HN ES        847 11.99                             131   -0.26 9  145 260 
 PTB  HN I         847 17.40        13.1 0.62                           145 260 
 OCA  HN ES        847 14.74                             127   -1.04 9  164 354 
 OCA  HN I         847 18.96        15.5 0.22                           164 354 
 ZAR  HN ES        847 23.09                             121    0.53 9  204 293 
 ZAR  HN I         847 25.16         7.4 0.10                           204 293 
 CHI  HZ EP        847  2.48                             116   -0.04 8  244 195 
 CHI  HN ES        847 30.76                             116   -0.52 8  244 195 
 CHI  HN I         847 40.73         3.0 0.56                           244 195 
 SML  HN ES        847 32.00                             116    1.27 8  246 336 
 HEL  HE ES        847 35.46                             114   -0.58 8  269 256 
                                                                                
