 2013  128 0949 47.6 L   6.746 -73.138145.0  RSN  7 0.5 1.6LRSN                1
 GAP=140        1.04       8.7     6.9  7.7  0.1638E+02  0.6035E+01 -0.8713E+01E
 Epicentro: JORDAN - SANTANDER                                                 3
 ACTION:UPD 13-02-15 09:17 OP:ep   STATUS:               ID:20130128094947 L   I
 2013-01-28-0948-40M.COL___168                                                 6
 STAT SP IPHASW D HRMM SECON CODA AMPLIT PERI AZIMU VELO AIN AR TRES W  DIS CAZ7
 BAR2 SZ EP        950  7.13                             173    0.0810 17.7 196 
 BAR2 SZ ES        950 22.06                             173   -0.1510 17.7 196 
 BAR2 SZ I         950 23.64         7.6 0.38            170           17.7 196 
 BRR  HZ EP        950  8.82                             151   -0.0710 74.9 302 
 BRR  HN ES        950 25.93                             151    0.4410 74.9 302 
 BRR  HN I         950 29.89         9.7 0.20            148           74.9 302 
 PAM  SZ IP        950  9.68                             149   -0.3110 81.5  36 
 PAM  SZ I         950  9.86         7.6 0.44            153           81.5  36 
 RUS  HN ES   2    950 29.63                             145    0.63 5 94.6 176 
 PTB  HZ EP        950 13.91                             132   -0.58 9  148 261 
 PTB  HN ES   2    950 34.61                             132   -0.86 5  148 261 
 PTB  HN I         950 40.95         3.0 0.42            131            148 261 
 ZAR  HZ EP        950 21.22                             122    0.90 8  207 294 
 ZAR  HN ES   1    950 45.35                             122   -0.49 6  207 294 
 ZAR  HN I         950 50.22         4.8 0.42            122            207 294 
 CHI  HZ EP   2    950 25.31                             118    0.64 4  243 196 
                                                                                
