 2011  328 0552 30.2 L   6.776 -73.079141.3  RSN  5 0.4 1.7LRSN                1
 GAP=196        0.98       8.7    14.1  8.8 -0.4899E+02 -0.2654E+01 -0.1981E+02E
 Epicentro: LOS SANTOS - SANTANDER                                             3
 ACTION:UP  11-06-16 14:36 OP:jfem STATUS:               ID:20110328055230 L   I
 2011-03-28-0550-12S.COL___137                                                 6
 STAT SP IPHASW D HRMM SECON CODA AMPLIT PERI AZIMU VELO SNR AR TRES W  DIS CAZ7
 BAR2 SZ EP        552 49.69                             170     0.410   23 210 
 BAR2 SZ ES   1    553  3.99                             170    -0.2 7   23 210 
 GIR2 SZ EP        552 48.78                             165    -0.710   36 339 
 GIR2 SZ ES   1    553  4.45                             165     0.0 7   36 339 
 BRR  HZ EP        552 51.39                             149     0.110   79 298 
 BRR  HN ES   2    553  8.32                             149     0.5 5   79 298 
 BRR  HZ I         553  9.03        14.5 0.12                            79 298 
 GRA  SZ EP        552 55.45                             136     0.410  126  14 
 GRA  SZ ES   1    553 14.57                             136     0.1 7  126  14 
 GRA  SZ I         553 16.25         6.7 0.49                           126  14 
 OCA  SZ EP        552 58.23                             128    -0.3 9  164 351 
 OCA  SZ I         553 24.77         5.8 0.34                           164 351 
                                                                                
