 2016  828 0847 45.1 L   6.779 -73.165144.9  RSN  4 0.1 1.2LRSN                1
 GAP=286        0.48       5.6     3.9  4.7 -0.9402E+01  0.1505E+01  0.1094E+01E
 Epicentro: LOS SANTOS - SANTANDER                                             3
 ACTION:UPD 16-10-29 15:40 OP:rebc STATUS:               ID:20160828084745 L   I
 OLDACT:REG 16-08-28 13:44 OP:ak   STATUS:               ID:20160828083728     3
 2016-08-28-0838-00M.COL___356                                                 6
 STAT SP IPHASW D HRMM SECON CODA AMPLIT PERI AZIMU VELO AIN AR TRES W  DIS CAZ7
 BAR2 EZ EP        848  4.61                             172    0.0310 20.7 185 
 BAR2 EZ ES        848 19.74                             172   -0.0310 20.7 185 
 BAR2 EZ I         848 21.29         4.9 0.20                          20.7 185 
 PTB  HZ EP   2    848 11.49                             132   -0.28 5  145 260 
 PTB  HE ES        848 32.70                             132    0.13 9  145 260 
 PTB  HZ I         848 35.00         1.6 0.14                           145 260 
 SPBC HZ EP        848 13.33                             129    0.09 9  160 219 
 SPBC HN ES        848 35.02                             129   -0.15 9  160 219 
 SPBC HZ I         848 41.90         2.6 0.06                           160 219 
 GUY2CHZ EP   9    848 31.30                             112    2.98 0  298 235 
 GUY2CHN ES        849  5.47                                    0.47 7  298 235 
 GUY2CHZ I         849 14.88         0.8 0.42                           298 235 
                                                                                
