 2011  328 0629  1.3 L   6.738 -72.999141.4  RSN  5 0.4 1.7LRSN                1
 GAP=222        1.16      18.1    21.7 18.3  0.1947E+03 -0.2335E+03 -0.2274E+03E
 Epicentro: CEPITA - SANTANDER                                                 3
 ACTION:UP  11-06-16 14:36 OP:jfem STATUS:               ID:20110328062901 L   I
 2011-03-28-0627-09S.COL___137                                                 6
 STAT SP IPHASW D HRMM SECON CODA AMPLIT PERI AZIMU VELO SNR AR TRES W  DIS CAZ7
 BAR2 SZ EP        629 20.96                             169     0.510   26 232 
 BAR2 SZ ES   1    629 35.35                             169     0.0 7   26 232 
 BAR2 SZ I         629 37.46         8.7 0.16                            26 232 
 GIR2 SZ EP        629 20.05                             162    -0.810   43 330 
 BRR  HZ EP        629 22.84                             146    -0.210   89 297 
 BRR  HZ I         629 23.08        10.5 0.15                            89 297 
 BRR  HN ES   1    629 40.23                             146     0.2 7   89 297 
 GRA  SZ EP   3    629 26.78                             135     0.4 2  129  10 
 OCA  SZ EP        629 30.54                             127     0.4 9  170 348 
                                                                                
