 2014  528 0436  9.6 L   6.799 -73.147153.5  RSN  7 0.4 1.6LRSN                1
 GAP=201        1.00       4.1     6.4  6.6  0.4855E+01  0.2914E+01 -0.5691E+01E
 Epicentro: LOS SANTOS - SANTANDER                                             3
 ACTION:UPD 15-03-16 17:01 OP:nd   STATUS:               ID:20140528043609 L   I
 OLDACT:UP  14-05-28 13:57 OP:cam  STATUS:               ID:20140528043000     3
 OLDACT:UP  14-05-28 13:56 OP:cam  STATUS:               ID:20140528043000     3
 OLDACT:REG 14-05-28 12:57 OP:cam  STATUS:               ID:20140528043000     3
 2014-05-28-0430-00M.COL___276                                                 6
 STAT SP IPHASW D HRMM SECON CODA AMPLIT PERI AZIMU VELO AIN AR TRES W  DIS CAZ7
 BAR2 SZ EP        436 30.11                             171   -0.0410 23.2 190 
 BAR2 SZ ES        436 45.70                             171   -0.4810 23.2 190 
 BAR2 SZ I         436 46.40         6.9 0.40            165           23.2 190 
 BRR  HZ EP        436 31.96                             154    0.3810 71.1 299 
 BRR  HN ES        436 49.56                             154    0.8310 71.1 299 
 BRR  HZ I         436 54.26         4.7 0.14            148           71.1 299 
 RUS  HZ EP        436 34.45                             145    0.3510  100 176 
 RUS  HE ES        436 53.10                             145   -0.1210  100 176 
 RUS  HZ I         436 55.54         3.5 0.36            145            100 176 
 PTB  HZ EP        436 36.92                             134   -0.26 9  148 259 
 PTB  HN ES        436 58.40                             134   -0.31 9  148 259 
 PTB  HZ I         437  5.72         3.2 0.24            130            148 259 
 SPBC HZ EP   1    436 38.25                             131   -0.42 7  163 219 
 SPBC HN ES        437  1.29                             131   -0.07 9  163 219 
 SPBC HZ I         437  6.10         7.7 0.18            129            163 219 
 NOR  HZ EP   1    436 46.34                             120    0.58 6  234 234 
 NOR  HN ES   4    437 12.26                             120   -1.71 0  234 234 
 NOR  HZ I         437 20.86         2.5 0.16            119            234 234 
 SML  HZ EP        436 46.56                             119   -0.11 8  244 335 
 SML  HE ES        437 15.06                             119   -0.53 8  244 335 
 SML  HZ I         437 17.95         6.2 0.32            120            244 335 
 GUY2CHZ EP   4    436 54.92                             114    1.38 0  301 235 
 PRA  HZ EP   4    437  4.86                             108    1.50 0  392 210 
 SJC  HZ EP   4    437  4.31                             107   -1.11 0  409 327 
                                                                                
