 2015 1128 0336 56.7 L   6.756 -73.147147.4  RSN  5 0.1 1.4LRSN                1
 GAP=234        0.41       2.7     3.1  3.1  0.2777E+01  0.1693E+01  0.9875E+00E
 Epicentro: LOS SANTOS - SANTANDER                                             3
 ACTION:UPD 15-12-28 16:13 OP:cam  STATUS:               ID:20151128033657 L   I
 OLDACT:UP  15-12-10 16:40 OP:cam  STATUS:               ID:20151128033657 L   3
 OLDACT:UP  15-12-01 10:59 OP:ak   STATUS:               ID:20151128033657 L   3
 OLDACT:DUP 15-11-28 14:33 OP:drio STATUS:               ID:20151128032749d    3
 2015-11-28-0327-48M.COL___307                                                 6
 STAT SP IPHASW D HRMM SECON CODA AMPLIT PERI AZIMU VELO AIN AR TRES W  DIS CAZ7
 BAR2 EZ EP        337 16.38                             173   -0.0210 18.5 192 
 BAR2 EZ ES        337 31.74                             173   -0.0610 18.5 192 
 BAR2 EZ I         337 32.78         9.4 0.14            170           18.5 192 
 BRR  HZ EP        337 18.12                             152   -0.0010 73.6 302 
 BRR  HN ES        337 35.00                             152    0.1410 73.6 302 
 RUS  HZ EP        337 20.26                             146    0.0310 95.7 176 
 RUS  HN ES        337 38.57                             146   -0.0410 95.7 176 
 RUS  HZ I         337 40.08         3.5 0.24            145           95.7 176 
 PTB  HZ EP        337 23.38                             133   -0.29 9  147 261 
 PTB  HE ES   1    337 44.71                             133   -0.04 7  147 261 
 PTB  HZ I         337 47.43         2.7 0.40            132            147 261 
 SPBC HZ EP        337 25.21                             130    0.29 9  159 220 
 SPBC HN ES   1    337 46.97                             130    0.00 7  159 220 
                                                                                
