 2015 1128 0516  8.3 L   6.837 -73.174139.1  RSN 12 0.4 2.0LRSN                1
 GAP=131        1.11       3.2     4.1  6.5 -0.2471E+01  0.7876E+01 -0.2453E+01E
 Epicentro: ZAPATOCA - SANTANDER                                               3
 ACTION:UPD 15-12-28 16:13 OP:cam  STATUS:               ID:20151128051608 L   I
 OLDACT:REG 15-11-28 12:26 OP:drio STATUS:               ID:20151128050746     3
 2015-11-28-0507-46M.COL___304                                                 6
 STAT SP IPHASW D HRMM SECON CODA AMPLIT PERI AZIMU VELO AIN AR TRES W  DIS CAZ7
 BAR2 EZ EP     C  516 27.33                             169    0.0810 27.1 182 
 BAR2 EZ ES        516 41.63                             169   -0.3810 27.1 182 
 BAR2 EZ I         516 43.21        30.2 0.32            169           27.1 182 
 BRR  HZ IP     C  516 29.08                             153    0.5810 66.5 297 
 BRR  HN ES        516 44.84                             153    0.6110 66.5 297 
 BRR  HZ I         516 51.61        16.5 0.20            149           66.5 297 
 PAM  EZ EP        516 30.26                             150    0.4810 76.3  43 
 PAM  EN ES        516 46.93                             150    0.4210 76.3  43 
 PAM  EZ I         516 49.44        16.0 0.52            154           76.3  43 
 RUS  HZ EP        516 31.88                             141    0.1110  105 175 
 RUS  HE ES        516 49.65                             141   -0.3910  105 175 
 RUS  HZ I         516 51.44        12.0 0.26            147            105 175 
 PTB  HZ EP        516 33.91                             131   -0.66 9  146 257 
 PTB  HN ES        516 54.37                             131   -0.66 9  146 257 
 PTB  HZ I         517  0.15         9.7 0.20            131            146 257 
 OCA  HZ EP        516 35.48                             129   -0.23 9  156 354 
 OCA  HN ES        516 56.81                             129   -0.26 9  156 354 
 OCA  HZ I         517  1.24        33.0 0.28            130            156 354 
 SPBC HZ EP        516 36.43                             127   -0.03 9  165 217 
 SPBC HN ES        516 58.03                             127   -0.37 9  165 217 
 SPBC HZ I         517  2.23        13.5 0.28            130            165 217 
 ZAR  HZ EP   4    516 41.29                             121    1.39 0  200 291 
 ZAR  HN ES        517  4.61                             121    0.10 9  200 291 
 ZAR  HZ I         517 11.87        14.2 0.28            122            200 291 
 SML  HZ EP        516 43.58                             117   -0.47 8  239 336 
 SML  HN ES        517 11.68                             117   -0.22 8  239 336 
 SML  HZ I         517 17.14        11.7 0.36            118            239 336 
 HEL  HZ EP   4    516 49.66                             114    1.66 0  270 255 
 HEL  HN ES        517 19.45                             114    0.51 8  270 255 
 HEL  HZ I         517 25.62         5.3 0.30            115            270 255 
 URE  HZ EP   4    516 51.41                             113    2.82 0  279 291 
 URE  HN ES   4    517 17.89                             113   -2.11 0  279 291 
 URE  HZ I         517 31.35         8.4 0.18            114            279 291 
 GUY2CHZ EP   4    516 53.12                             111    1.49 0  301 234 
 GUY2CHN ES        517 26.33                             111    0.93 7  301 234 
 GUY2CHZ I         517 35.74         3.8 0.54                           301 234 
                                                                                
