 2016 1028 0939  3.9 L   6.797 -73.108140.0  RSN 11 0.3 1.7LRSN                1
 GAP=141        0.69       2.7     3.0  3.9 -0.2306E+01  0.2341E+01  0.3239E+01E
 Epicentro: LOS SANTOS - SANTANDER                                             3
 ACTION:UPD 16-11-09 19:23 OP:rebc STATUS:               ID:20161028093903 L   I
 OLDACT:DUP 16-10-28 18:36 OP:cara STATUS:               ID:20161028093748d    3
 2016-10-28-0938-00M.COL___337                                                 6
 STAT SP IPHASW D HRMM SECON CODA AMPLIT PERI AZIMU VELO AIN AR TRES W  DIS CAZ7
 BAR2 EZ EP        939 23.08                             170    0.2210 24.1 200 
 BAR2 EZ ES        939 37.71                             170    0.0710 24.1 200 
 BAR2 EZ I         939 39.41        12.3 0.48            167           24.1 200 
 BRR  HZ EP        939 24.81                             150    0.1510 75.0 297 
 BRR  HN ES        939 41.22                             150    0.3710 75.0 297 
 PAM  EZ EP        939 25.71                             150    0.3410 75.1  37 
 PAM  EN ES        939 41.60                             150   -0.5110 75.1  37 
 PAM  EZ I         939 44.73        11.6 0.52            155           75.1  37 
 RUS  HZ EP        939 27.08                             143    0.0310  100 178 
 RUS  HN ES        939 45.11                             143    0.0010  100 178 
 RUS  HZ I         939 46.63         3.9 0.28            142            100 178 
 PTB  HZ EP        939 30.66                             130   -0.12 9  152 259 
 PTB  HN ES        939 51.29                             130   -0.45 9  152 259 
 PTB  HZ I         939 53.68         4.5 0.16            131            152 259 
 SPBC HZ EP        939 31.87                             127   -0.33 9  166 220 
 SPBC HN ES        939 54.39                             127    0.12 9  166 220 
 SPBC HZ I         940  0.37         6.3 0.28            127            166 220 
 NOR  HZ EP        939 39.63                             117   -0.02 8  238 235 
 NOR  HN ES        940  7.40                             117   -0.14 8  238 235 
 NOR  HZ I         940 12.38         2.6 0.20            118            238 235 
 CHI  HZ EP        939 40.78                             116   -0.60 8  249 196 
 CHI  HN ES        940 10.77                             116    0.17 8  249 196 
 CHI  HZ I         940 18.03         2.5 0.40            116            249 196 
 GUY2CHZ EP        939 47.92                             111    0.30 7  304 235 
 GUY2CHN ES        940 21.76                             111    0.05 7  304 235 
 GUY2CHZ I         940 31.00         2.5 0.66                           304 235 
 PRA  HZ EP        939 57.67                             105    0.23 6  394 210 
 PRA  HE ES        940 39.45                             105    0.25 6  394 210 
 PRA  HZ I         940 45.86         3.0 0.38            106            394 210 
 SJC  HZ EP   4    939 56.47                             105   -3.11 0  412 326 
 SJC  HN ES   4    940 38.39                             105   -4.62 0  412 326 
 SJC  HZ I         940 42.33         2.3 0.48            106            412 326 
                                                                                
