 2011  928 0122  7.3 L   6.796 -73.058142.1  RSN  6 0.3 1.6LRSN                1
 GAP=148        0.58       4.1     4.4  7.4  0.3545E+01  0.4868E+01  0.3291E+01E
 Epicentro: LOS SANTOS - SANTANDER                                             3
 ACTION:UPD 12-07-13 16:00 OP:ep   STATUS:               ID:20110928012207 L   I
 2011-09-28-0117-45S.COL___165                                                 6
 STAT SP IPHASW D HRMM SECON CODA AMPLIT PERI AZIMU VELO AIN AR TRES W  DIS CAZ7
 BAR2 SZ EP   1    122 26.27                             169   -0.27 7 26.4 211 
 BTL  SZ EP   1    122 26.49                             169   -0.07 7 26.8 300 
 PAM  SZ EP   1    122 29.09                             152    0.30 7 71.9  33 
 PAM  SN ES   1    122 45.29                             152   -0.27 7 71.9  33 
 BRR  HZ EP   1    122 28.62                             149    0.05 7 80.0 295 
 BRR  HN ES   1    122 45.66                             149    0.49 7 80.0 295 
 BRR  HZ I         122 46.84         9.4 0.20                          80.0 295 
 RUS  HZ EP   1    122 30.84                             143    0.20 7100.0 182 
 RUS  HZ I         122 48.43         4.7 0.52                         100.0 182 
 RUS  HN ES   1    122 48.72                             143   -0.12 7100.0 182 
 ZAR  HN ES   1    123  5.90                             120   -0.43 6  213 291 
 ZAR  HZ I         123 11.52         3.6 0.09                           213 291 
                                                                                
