 2013  628 0411 27.0 L   6.773 -73.141144.1  RSN  6 0.2 1.8LRSN                1
 GAP=138        0.51       2.6     2.6  3.9 -0.1068E+01  0.2127E+01  0.1909E+01E
 Epicentro: LOS SANTOS - SANTANDER                                             3
 ACTION:UPD 14-01-08 09:57 OP:ep   STATUS:               ID:20130628041127 L   I
 OLDACT:REG 13-06-28 07:52 OP:jn   STATUS:               ID:20130628040959     3
 2013-06-28-0409-59M.COL___267                                                 6
 STAT SP IPHASW D HRMM SECON CODA AMPLIT PERI AZIMU VELO AIN AR TRES W  DIS CAZ7
 BAR2 SZ EP        411 46.36                             171   -0.0310 20.5 193 
 BAR2 SZ ES        412  1.19                             171   -0.3110 20.5 193 
 BAR2 SZ I         412  2.81        18.4 0.18            170           20.5 193 
 BRR  HZ EP        411 48.15                             152    0.0510 73.1 300 
 BRR  HN ES        412  4.83                             152    0.2910 73.1 300 
 BRR  HZ I         412  7.64        13.0 0.18            149           73.1 300 
 PAM  SZ EP        411 49.28                             150    0.1010 79.4  38 
 PAM  SN ES        412  6.44                             150   -0.0210 79.4  38 
 PAM  SZ I         412  8.06         7.1 0.18            153           79.4  38 
 RUS  HZ EP        411 50.32                             144   -0.0710 97.6 176 
 RUS  HN ES   1    412  8.87                             144    0.25 7 97.6 176 
 RUS  HZ I         412 10.10         9.7 0.20            146           97.6 176 
 ZAR  HE ES   1    412 24.44                             122   -0.44 6  206 293 
 ZAR  HZ I         412 30.60         8.2 0.26            121            206 293 
 NOR  HZ EP   1    412  2.40                             118   -0.12 6  233 235 
 NOR  HE ES        412 30.31                             118    0.11 8  233 235 
 NOR  HZ I         412 35.26         6.5 0.32            118            233 235 
                                                                                
