 2012  528 0309  3.5 L   6.803 -73.149142.5  RSN 15 0.4 3.0LRSN                1
 GAP=136        0.88       2.9     4.1  5.9 -0.1745E+01  0.7444E+01  0.1373E+01E
 Epicentro: LOS SANTOS - SANTANDER                                             3
 ACTION:UP  12-07-05 12:08 OP:pat  STATUS:               ID:20120528030903 L   I
 2012-05-28-0306-50S.COL___188                                                 6
 STAT SP IPHASW D HRMM SECON CODA AMPLIT PERI AZIMU VELO AIN AR TRES W  DIS CAZ7
 BAR2 SZ EP   1    3 9 23.02                             170     0.3 9   24 189 
 BAR2 SZ ES   1    3 9 37.16                             170    -0.6 9   24 189 
 BAR2 SZ I         3 9 39.81       184.2 0.27                            24 189 
 PAM  SZ EP   1    3 9 25.84                             150     0.5 9   77  40 
 PAM  SN ES   1    3 9 42.78                             150     0.4 9   77  40 
 PAM  SZ I         3 9 46.12        29.0 0.19                            77  40 
 RUS  HZ EP   1    3 9 26.84                             143    -0.1 9  101 176 
 RUS  HN ES   1    3 9 45.16                             143    -0.1 9  101 176 
 RUS  HZ I         3 9 46.94        85.7 0.40                           101 176 
 PTB  HZ EP   1    3 9 29.52                             131    -0.6 8  147 259 
 PTB  HN ES   1    3 9 50.87                             131    -0.1 8  147 259 
 PTB  HZ I         3 9 58.61       100.8 0.40                           147 259 
 OCA  HZ EP   1    3 9 31.24                             129    -0.2 8  160 353 
 OCA  HN ES   1    3 9 53.19                             129    -0.2 8  160 353 
 OCA  HZ I         3 9 57.23       153.1 0.17                           160 353 
 ZAR  HZ EP   1    3 9 35.52                             122    -0.1 7  204 292 
 ZAR  HN ES        310  0.84                             122     0.110  204 292 
 ZAR  HZ I         310  8.18       178.4 0.31                           204 292 
 NOR  SZ EP   1    3 9 38.80                             118    -0.2 7  235 234 
 NOR  SN ES   1    310  7.51                             118     0.8 7  235 234 
 CHI  HZ EP   1    3 9 41.01                             116     0.0 7  249 195 
 CHI  HN ES   1    310  9.62                             116    -0.7 7  249 195 
 CHI  HZ I         310 16.35        44.0 0.36                           249 195 
 ROSC BZ EP   1    3 9 41.99                             116     0.6 7  253 211 
 ROSC BN ES   1    310 11.39                             116     0.4 7  253 211 
 ROSC BZ I         310 20.21        91.9 0.48                           253 211 
 HEL  HZ EP   1    3 9 44.31                             114     0.8 7  272 256 
 HEL  HN ES   1    310 14.39                             114    -0.3 7  272 256 
 HEL  HZ I         310 20.46        43.8 0.27                           272 256 
 VIL  SZ EP   1    3 9 46.60                             111    -0.2 6  304 191 
 VIL  SZ I         310 27.35        30.0 0.36                           304 191 
 RREF HZ EP   1    3 9 50.03                             110     0.6 6  322 229 
 RREF HZ I         310 34.31        57.1 0.38                           322 229 
 COD  HZ EP   1    3 9 50.93                             108    -0.7 6  348 355 
 COD  HN ES   1    310 29.39                             108     0.1 6  348 355 
 PRA  HZ EP   1    3 9 56.67                             106    -0.2 5  392 210 
 PRA  HN ES   1    310 38.29                             106    -0.3 5  392 210 
 PRA  HZ I         310 45.18       138.7 0.22                           392 210 
 PAL  HZ EP   1    3 9 57.70                             105    -0.8 5  406 239 
                                                                                
