 2015  128 0142  7.7 L   6.814 -73.183144.9  RSN 13 0.4 1.9LRSN                1
 GAP=131        1.03       2.8     4.0  5.3 -0.1419E+01  0.5453E+01 -0.1060E+01E
 Epicentro: ZAPATOCA - SANTANDER                                               3
 ACTION:UPD 15-03-02 15:43 OP:nd   STATUS:               ID:20150128014207 L   I
 OLDACT:UP  15-01-28 14:26 OP:cam  STATUS:               ID:20150128013815     3
 OLDACT:REG 15-01-28 13:25 OP:cam  STATUS:               ID:20150128013815     3
 2015-01-28-0138-15M.COL___280                                                 6
 STAT SP IPHASW D HRMM SECON CODA AMPLIT PERI AZIMU VELO AIN AR TRES W  DIS CAZ7
 BAR2 EZ EP     C  142 27.40                             170    0.1010 24.5 180 
 BAR2 EZ ES        142 42.22                             170   -0.3310 24.5 180 
 BAR2 EZ I         142 43.22        14.9 0.14            170           24.5 180 
 BRR  HZ EP        142 29.27                             154    0.7110 66.8 299 
 BRR  HN ES        142 45.43                             154    0.6310 66.8 299 
 BRR  HN I         142 50.13        42.8 0.20            151           66.8 299 
 PAM  SZ EP     C  142 30.30                             150    0.3310 79.0  43 
 PAM  SN ES        142 47.01                             150   -0.2910 79.0  43 
 PAM  SZ I         142 49.10        21.9 0.54            154           79.0  43 
 RUS  HZ EP        142 31.42                             143   -0.1310  102 174 
 RUS  HN ES        142 50.11                             143   -0.0110  102 174 
 RUS  HZ I         142 50.62        10.9 0.26            146            102 174 
 PTB  HZ EP        142 34.56                             132    0.26 9  144 258 
 PTB  HN ES        142 54.44                             132   -0.58 9  144 258 
 PTB  HZ I         142 59.00         9.3 0.16            132            144 258 
 OCA  HZ EP        142 35.54                             130   -0.27 9  158 355 
 OCA  HN ES        142 57.29                             130   -0.40 9  158 355 
 OCA  HZ I         143  1.54         6.2 0.14            131            158 355 
 SPBC HZ EP        142 36.57                             129    0.52 9  162 217 
 SPBC HN ES        142 57.97                             129   -0.16 9  162 217 
 SPBC HZ I         143  1.43        14.4 0.24            130            162 217 
 ZAR  HZ EP        142 39.68                             123    0.00 9  200 292 
 ZAR  HN ES        143  5.34                             123    0.75 9  200 292 
 ZAR  HZ I         143 13.60         8.2 0.18            123            200 292 
 NOR  HZ EP        142 43.04                             118   -0.12 8  232 234 
 NOR  HN ES        143 10.09                             118   -0.69 8  232 234 
 NOR  HZ I         143 17.08         5.6 0.28            120            232 234 
 SML  HZ EP        142 43.82                             118   -0.17 8  241 336 
 SML  HN ES        143 11.99                             118   -0.26 8  241 336 
 SML  HZ I         143 16.37         8.4 0.10            119            241 336 
 CHI  HZ EP        142 45.63                             117    0.19 8  249 194 
 CHI  HN ES   4    143 13.70                             117   -1.15 0  249 194 
 CHI  HZ I         143 18.16         3.4 0.58            119            249 194 
 GUY2CHZ EP   4    142 52.88                             112    1.85 0  299 234 
 GUY2CHN ES   4    143 27.83                             112    3.03 0  299 234 
 GUY2CHZ I         143 32.27         4.6 0.24                           299 234 
 MON  HZ EP        142 55.44                             109   -0.79 6  349 309 
 MON  HN ES   4    143 31.85                             109   -2.19 0  349 309 
 MON  HZ I         143 34.62         1.8 0.18            110            349 309 
                                                                                
