 2011  628 0637  1.0 L   6.803 -73.069148.6  RSN  8 0.3 1.8LRSN                1
 GAP=167        0.71       3.6     6.8  6.4 -0.5690E+01  0.1989E+01  0.5206E-01E
 Epicentro: LOS SANTOS - SANTANDER                                             3
 ACTION:UP  11-07-14 19:08 OP:ep   STATUS:               ID:20110628063701 L   I
 2011-06-28-0636-12S.COL___140                                                 6
 STAT SP IPHASW D HRMM SECON CODA AMPLIT PERI AZIMU VELO SNR AR TRES W  DIS CAZ7
 BTL  SZ EP        637 21.07                             170     0.110   25 300 
 BAR2 SZ EP        637 21.18                             169     0.110   26 208 
 BAR2 SZ ES   1    637 35.97                             169    -0.7 7   26 208 
 BAR2 SZ I         637 39.22         8.9 0.41                            26 208 
 BRR  HZ EP        637 23.01                             150     0.110   79 295 
 BRR  HN ES   1    637 40.12                             150     0.2 7   79 295 
 BRR  HZ I         637 42.80        11.6 0.15                            79 295 
 RUS  HZ EP   1    637 25.03                             144     0.0 7  101 181 
 RUS  HN ES   1    637 44.20                             144     0.4 7  101 181 
 RUS  HZ I         637 56.35        12.4 0.56                           101 181 
 GRA  SZ EP   1    637 25.75                             138    -0.5 7  123  14 
 GRA  SZ ES   1    637 45.96                             138     0.0 7  123  14 
 GRA  SZ I         637 47.76         6.5 0.46                           123  14 
 OCA  SZ EP   2    637 30.30                             130     0.7 5  161 350 
 OCA  SZ ES   2    637 52.16                             130     0.2 5  161 350 
 OCA  SZ I         637 57.54        10.3 0.08                           161 350 
 NOR  SZ EP   2    637 37.27                             118    -0.4 4  242 236 
 NOR  SN ES   2    638  5.94                             118    -0.3 4  242 236 
 PRA  HZ EP   2    637 54.89                             107    -0.3 3  397 211 
 PRA  HE ES   2    638 37.59                             107     0.2 3  397 211 
                                                                                
