 2016  928 0059 55.6 L   7.217 -73.861 20.5  RSN  5 0.5 1.3LRSN                1
 GAP=201        1.33       6.1     3.4  5.3  0.1152E+02  0.3241E+01  0.7653E+01E
 Epicentro: PUERTO WILCHES - SANTANDER                                         3
 ACTION:UPD 17-08-17 21:17 OP:lp   STATUS:               ID:20160928005955 L   I
 OLDACT:DUP 16-09-28 13:58 OP:dani STATUS:               ID:20160928005735d    3
 2016-09-28-0058-00M.COL___384                                                 6
 STAT SP IPHASW D HRMM SECON CODA AMPLIT PERI AZIMU VELO AIN AR TRES W  DIS CAZ7
 BRR  HZ EP     C  1 0  0.68                             133    0.4010 20.5 126 
 BRR  HE ES        1 0  4.58                             133    0.6310 20.5 126 
 BRR  HZ I         1 0  6.38        51.5 0.10            132           20.5 126 
 PTB  HZ EP        1 0 11.31                             100   -0.2010 99.7 221 
 PTB  HE ES        1 0 24.10                             100    0.1610 99.7 221 
 PTB  HZ I         1 0 24.75        13.1 0.16            101           99.7 221 
 BAR2 EZ EP        1 0 11.61                             100   -0.4710  102 133 
 BAR2 EZ ES        1 0 23.90                             100   -1.0610  102 133 
 BAR2 EZ I         1 0 26.97         3.5 0.19            100            102 133 
 ZAR  HZ EP        1 0 13.61                              99   -0.0510  114 286 
 ZAR  HN ES        1 0 27.54                              99   -0.2310  114 286 
 RUS  HZ EP        1 0 21.94                              56    0.70 9  170 150 
 RUS  HE ES        1 0 41.58                              56    0.31 9  170 150 
 RUS  HZ I         1 0 42.65         2.4 0.17             56            170 150 
                                                                                
