 2015  328 0050  2.2 L   6.849 -73.187149.6  RSN  6 0.3 1.5LRSN                1
 GAP=238        0.73       7.6     5.7  8.2  0.1208E+02 -0.7458E+01  0.2011E+02E
 Epicentro: ZAPATOCA - SANTANDER                                               3
 ACTION:UPD 15-04-30 16:30 OP:nd   STATUS:               ID:20150328005002 L   I
 OLDACT:REG 15-03-28 13:22 OP:fm   STATUS:               ID:20150328004748     3
 2015-03-28-0047-48M.COL___281                                                 6
 STAT SP IPHASW D HRMM SECON CODA AMPLIT PERI AZIMU VELO AIN AR TRES W  DIS CAZ7
 BAR2 EZ EP        050 22.63                             169    0.2710 28.4 179 
 BAR2 EZ I         050 38.87         4.3 0.36            146           28.4 179 
 BRR  HZ EP        050 23.72                             155    0.3410 64.7 296 
 BRR  HN ES        050 39.66                             155   -0.2710 64.7 296 
 BRR  HZ I         050 44.56         6.5 0.32            154           64.7 296 
 RUS  HZ EP   1    050 26.22                             143   -0.49 7  106 174 
 PTB  HZ EP   1    050 29.52                             133    0.37 7  144 256 
 PTB  HE ES        050 50.29                             133    0.08 9  144 256 
 PTB  HZ I         050 55.40         2.8 0.16            123            144 256 
 SPBC HZ EP   1    050 30.96                             129   -0.14 7  165 217 
 SPBC HZ I         051  1.02         4.7 0.26            115            165 217 
 ZAR  HZ EP   1    050 33.60                             124   -0.63 6  198 291 
 ZAR  HN ES   1    050 59.27                             124    0.03 6  198 291 
 ZAR  HZ I         051  7.03         2.6 0.60            118            198 291 
                                                                                
