 2011 1228 0012 45.2 L   6.761 -73.182140.7  RSN  6 0.4 1.6LRSN                1
 GAP=134        0.75       5.0     5.0  6.7 -0.3052E+01  0.4727E+01  0.3286E+01E
 Epicentro: VILLANUEVA - SANTANDER                                             3
 ACTION:UPD 12-07-13 16:19 OP:ep   STATUS:               ID:20111228001245 L   I
 2011-12-28-0010-00M.COL___185                                                 6
 STAT SP IPHASW D HRMM SECON CODA AMPLIT PERI AZIMU VELO AIN AR TRES W  DIS CAZ7
 BAR2 SZ ES   1    013 18.79                             172   -0.10 7 18.7 180 
 BAR2 SZ I         013 21.46         8.8 0.19                          18.7 180 
 GIR2 SZ EP   1    013  4.63                             165    0.26 7 35.1 358 
 GIR2 SZ ES   1    013 19.47                             165    0.14 7 35.1 358 
 BRR  HZ EP   1    013  6.01                             152    0.30 7 69.9 303 
 BRR  HE ES   1    013 22.34                             152    0.61 7 69.9 303 
 PAM  SZ EP   1    013  7.13                             148   -0.10 7 83.3  40 
 PAM  SZ I         013  7.26        10.8 0.16                          83.3  40 
 PAM  SE ES   1    013 23.82                             148   -0.61 7 83.3  40 
 RUS  HZ EP   1    013  8.45                             144    0.29 7 96.7 173 
 RUS  HN ES   1    013 26.09                             144    0.02 7 96.7 173 
 RUS  HZ I         013 27.62         4.7 0.39                          96.7 173 
 PTB  HZ EP   1    013 11.00                             132   -0.31 7  143 260 
 PTB  HN ES   1    013 31.07                             132   -0.61 7  143 260 
                                                                                
