 2011  628 0650  0.0 L   6.777 -73.105152.1  RSN  7 0.3 1.8LRSN                1
 GAP=160        0.57       3.4     5.7  5.9 -0.6448E+01 -0.4791E+01  0.4207E+00E
 Epicentro: LOS SANTOS - SANTANDER                                             3
 ACTION:UP  11-07-14 19:08 OP:ep   STATUS:               ID:20110628065000 L   I
 2011-06-28-0645-50S.COL___140                                                 6
 STAT SP IPHASW D HRMM SECON CODA AMPLIT PERI AZIMU VELO SNR AR TRES W  DIS CAZ7
 BAR2 SZ EP   1    650 20.35                             171     0.0 7   22 203 
 BAR2 SZ I         650 20.64         9.7 0.20                            22 203 
 BAR2 SZ ES   2    650 36.23                             171     0.0 5   22 203 
 BRR  HZ EP        650 22.22                             151     0.110   76 299 
 BRR  HZ I         650 22.68        14.4 0.13                            76 299 
 BRR  HN ES   1    650 39.60                             151     0.2 7   76 299 
 RUS  HZ EP   1    650 24.13                             146    -0.1 7   98 179 
 RUS  HN ES   2    650 43.28                             146     0.2 5   98 179 
 BRI  SZ EP   2    650 24.72                             142     0.1 5  109  18 
 GRA  SZ EP        650 25.99                             138     0.110  127  15 
 GRA  SZ ES   1    650 45.49                             138    -0.6 7  127  15 
 GRA  SZ I         650 46.97         7.1 0.35                           127  15 
 OCA  SZ EP   1    650 29.37                             130     0.3 7  163 352 
 OCA  SZ ES   2    650 52.06                             130     0.3 5  163 352 
 OCA  SZ I         650 55.75         5.7 0.19                           163 352 
 NOR  SZ EP   2    650 35.62                             119    -0.7 4  237 236 
 NOR  SN ES   2    651  4.59                             119    -0.1 4  237 236 
                                                                                
