 2015  928 0925 23.6 L   6.767 -73.132146.0  RSN  8 0.4 1.4LRSN                1
 GAP=184        0.99       4.6     5.9  7.2  0.5499E+01  0.3903E+01 -0.2034E+01E
 Epicentro: LOS SANTOS - SANTANDER                                             3
 ACTION:UPD 15-10-28 16:28 OP:cam  STATUS:               ID:20150928092523 L   I
 OLDACT:REG 15-09-28 13:12 OP:spq  STATUS:               ID:20150928091736     3
 2015-09-28-0917-36M.COL___349                                                 6
 STAT SP IPHASW D HRMM SECON CODA AMPLIT PERI AZIMU VELO AIN AR TRES W  DIS CAZ7
 BAR2 EZ EP        925 43.21                             172   -0.0210 20.1 196 
 BAR2 EZ ES   1    925 58.10                             172   -0.42 7 20.1 196 
 BAR2 EZ I         925 59.25         3.1 0.27            171           20.1 196 
 BRR  HZ EP   1    925 45.26                             152    0.28 7 74.3 300 
 BRR  HN ES        926  2.35                             152    0.7210 74.3 300 
 BRR  HZ I         926  4.65         7.0 0.30            150           74.3 300 
 RUS  HZ EP   1    925 47.65                             145    0.51 7 96.9 177 
 RUS  HN ES   1    926  5.37                             145   -0.11 7 96.9 177 
 RUS  HZ I         926  6.34         1.5 0.44            147           96.9 177 
 PTB  HZ EP        925 50.13                             132   -0.56 9  149 260 
 PTB  HN ES        926 11.29                             132   -0.51 9  149 260 
 PTB  HZ I         926 13.67         2.2 0.19            132            149 260 
 SPBC HZ EP        925 52.33                             129    0.35 9  161 220 
 SPBC HE ES   1    926 14.11                             129    0.03 7  161 220 
 SPBC HZ I         926 21.03         3.3 0.30            130            161 220 
 OCA  HE ES   1    926 14.09                             129   -0.60 7  164 353 
 OCA  HZ I         926 19.50         6.0 0.48            130            164 353 
 ZAR  HZ EP        925 55.98                             122   -0.39 8  207 293 
 ZAR  HE ES        926 22.39                             122    0.48 8  207 293 
 ZAR  HZ I         926 27.74         3.6 0.28            122            207 293 
 SML  HZ EP   1    926  0.67                             117   -0.02 6  248 335 
                                                                                
