 2014  728 0257  7.7 L   6.828 -73.164141.8  RSN 22 0.5 2.9LRSN                1
 GAP= 69        1.13       3.1     3.3  5.8 -0.1273E+01  0.5848E+01  0.3240E+01E
 Epicentro: LOS SANTOS - SANTANDER                                             3
 ACTION:UPD 15-03-16 20:47 OP:nd   STATUS:               ID:20140728025707 L   I
 OLDACT:UP  14-07-28 16:12 OP:mh   STATUS:               ID:20140728025545     3
 OLDACT:UP  14-07-28 16:10 OP:mh   STATUS:               ID:20140728025545     3
 OLDACT:UP  14-07-28 16:09 OP:mh   STATUS:               ID:20140728025545     3
 OLDACT:REG 14-07-28 14:20 OP:mh   STATUS:               ID:20140728025545     3
 2014-07-28-0255-45M.COL___269                                                 6
 STAT SP IPHASW D HRMM SECON CODA AMPLIT PERI AZIMU VELO AIN AR TRES W  DIS CAZ7
 BAR2 SZ EP     C  257 27.22                             169    0.2610 26.2 185 
 BAR2 SZ ES   1    257 41.85                             169   -0.09 7 26.2 185 
 BAR2 SZ I         257 44.37       152.9 0.06            169           26.2 185 
 BRR  HZ EP     D  257 29.07                             153    0.7910 68.0 297 
 BRR  HN ES   1    257 44.72                             153    0.42 7 68.0 297 
 BRR  HZ I         257 47.19        98.3 0.21            146           68.0 297 
 PAM  SZ EP     D  257 30.04                             150    0.5710 76.3  42 
 PAM  SN ES   1    257 46.87                             150    0.45 7 76.3  42 
 PAM  SZ I         257 49.41       213.1 0.42            148           76.3  42 
 RUS  HZ EP        257 31.21                             142   -0.1410  104 175 
 RUS  HN ES        257 49.53                             142   -0.2310  104 175 
 RUS  HZ I         257 51.29       132.4 0.36            142            104 175 
 PTB  HZ EP        257 33.58                             131   -0.69 9  146 257 
 PTB  HN ES   1    257 54.79                             131   -0.17 7  146 257 
 PTB  HZ I         258  0.86        66.9 0.29            126            146 257 
 OCA  HZ EP        257 34.65                             129   -0.78 9  157 354 
 OCA  HN ES        257 56.50                             129   -0.53 9  157 354 
 TAM  HZ IP     D  257 35.64                             129    0.27 9  158 106 
 TAM  HE ES        257 56.43                             129   -0.48 9  158 106 
 SPBC HZ EP        257 35.96                             128   -0.09 9  164 218 
 SPBC HN ES   1    257 57.53                             128   -0.61 7  164 218 
 SPBC HZ I         258  0.79       150.8 0.08            125            164 218 
 ZAR  HZ EP   1    257 39.44                             122   -0.18 6  201 292 
 ZAR  HN ES   1    258  4.76                             122    0.28 6  201 292 
 ZAR  HZ I         258 14.22        59.2 0.11            117            201 292 
 NOR  HZ EP        257 43.05                             118   -0.22 8  235 234 
 NOR  HN ES        258 10.84                             118   -0.14 8  235 234 
 NOR  HZ I         258 19.20        76.7 0.30            114            235 234 
 CHI  HZ EP        257 45.21                             116   -0.29 8  251 195 
 CHI  HN ES        258 14.70                             116   -0.24 8  251 195 
 CHI  HZ I         258 18.29        47.7 0.44            114            251 195 
 ROSC BZ EP        257 46.91                             116    1.08 8  254 210 
 ROSC BN ES        258 16.20                             116    0.66 8  254 210 
 ROSC BZ I         258 25.66        73.0 0.36            113            254 210 
 HEL  HZ EP        257 47.89                             114    0.26 8  271 255 
 HEL  HN ES        258 18.99                             114    0.25 8  271 255 
 HEL  HZ I         258 25.33        42.1 0.23            111            271 255 
 URE  HZ EP   4    257 46.83                             113   -1.45 0  281 291 
 URE  HN ES   4    258 19.50                             113   -0.41 0  281 291 
 GUY2CHZ EP   4    257 51.01                             111   -0.18 0  301 234 
 GUY2CHN ES   4    258 27.39                             111    2.31 0  301 234 
 GUY2CHZ I         258 33.36        39.5 0.16                           301 234 
 VIL  SZ EP   4    257 50.17                             111   -1.11 0  306 191 
 VIL  SN ES   4    258 25.53                             111    0.28 0  306 191 
 RREF HZ EP        257 54.85                             110    1.07 7  322 229 
 RREF HN ES   4    258 32.82                             110    3.14 0  322 229 
 CBOC HZ EP        257 54.80                             109    0.41 7  333 251 
 CBOC HN ES        258 29.88                             109   -0.89 7  333 251 
 CBOC HZ I         258 36.95        11.5 0.21            106            333 251 
 DBB  SZ EP        257 54.52                             109   -0.29 7  337 274 
 TOL  SZ EP   1    257 56.56                             108    0.62 5  344 224 
 TOL  SN ES   4    258 35.95                             108    2.42 0  344 224 
 TOL  SZ I         258 40.86        83.9 0.49            106            344 224 
 ANIL HZ EP   4    257 58.02                             108    0.53 0  358 224 
 ANIL HE ES   4    258 38.38                             108    2.08 0  358 224 
 PRA  HZ EP        258  0.34                             106   -0.99 6  394 209 
 PRA  HN ES        258 42.68                             106   -0.45 6  394 209 
 PRA  HZ I         258 51.73        27.5 0.39            104            394 209 
 ORTC HZ EP        258  1.16                             106   -0.53 6  397 216 
 ORTC HN ES   1    258 44.57                             106    0.81 4  397 216 
 ORTC HZ I         258 48.67        24.5 0.24            103            397 216 
 SJC  HZ EP   4    258  0.82                             105   -1.92 0  406 327 
 SJC  HN ES   4    258 42.12                             105   -3.52 0  406 327 
 SJC  HZ I         258 50.03        10.7 0.59            102            406 327 
 PAL  HZ EP   4    258  2.87                             105    0.11 0  406 239 
 PAL  HN ES   4    258 46.73                             105    1.05 0  406 239 
 MACC HZ EP   4    258 14.11                             101   -2.58 0  523 188 
 MACC HN ES   4    259  6.41                             101   -4.06 0  523 188 
 MARA HZ E         259  5.75                                            539 215 
                                                                                
