 2010  328 0412 48.6 L   6.789 -73.092138.0  RSN  6 0.5 1.8LRSN                1
 GAP=188        0.96       7.0    15.4 10.8  0.3059E+02 -0.4012E+02 -0.1729E+02E
 Epicentro: LOS SANTOS - SANTANDER                                             3
 ACTION:UP  10-08-24 09:56 OP:vdl  STATUS:               ID:20100328041248 L   I
 2010-03-28-0411-15S.COL___098                                                 6
 STAT SP IPHASW D HRMM SECON CODA AMPLIT PERI AZIMU VELO SNR AR TRES W  DIS CAZ7
 BAR2 SZ EP        413  7.31                             170     0.010   24 205 
 BAR2 SZ ES   1    413 21.94                             170     0.0 7   24 205 
 BRR  HZ EP        413  9.32                             150     0.010   77 297 
 BRR  HZ I         413 18.89        14.4 0.31                            77 297 
 BRR  HN ES   1    413 25.16                             150    -0.3 7   77 297 
 RUS  HZ EP   2    413 11.85                             143     0.3 5   99 179 
 RUS  HN ES   3    413 29.99                             143     0.6 2   99 179 
 RUS  HZ I         413 31.88         3.8 0.31                            99 179 
 OCA  SZ EP   1    413 15.64                             128    -0.9 7  162 351 
 OCA  SZ ES   1    413 39.18                             128     0.9 7  162 351 
 OCA  SZ I         413 43.59        13.2 0.14                           162 351 
 HEL  HZ EP   3    413 29.53                             113     0.5 2  277 256 
 HEL  HZ I         414  6.77         2.5 0.35                           277 256 
 PRA  HN ES   3    414 24.53                             105     0.7 1  394 210 
 PRA  HZ I         414 28.03         2.4 0.33                           394 210 
                                                                                
