 2017  128 0103 44.8 L   6.793 -73.154142.0  RSN 10 0.4 1.9LRSN                1
 GAP=136        1.04       3.6     4.2  6.0 -0.2888E+00  0.7159E+01  0.5581E+01E
 Epicentro: LOS SANTOS - SANTANDER                                             3
 ACTION:UPD 17-05-22 16:04 OP:jn   STATUS:               ID:20170128010344 L   I
 OLDACT:REG 17-01-28 13:05 OP:lv   STATUS:               ID:20170128005741     3
 2017-01-28-0058-00M.COL___346                                                 6
 STAT SP IPHASW D HRMM SECON CODA AMPLIT PERI AZIMU VELO AIN AR TRES W  DIS CAZ7
 BAR2 EZ EP        1 4  3.84                             171   -0.1610 22.4 188 
 BAR2 EZ ES        1 4 18.58                             171   -0.3610 22.4 188 
 BAR2 EZ I         1 4 21.64        24.3 0.24            169           22.4 188 
 BRR  HZ EP        1 4  5.72                             152    0.1710 70.8 299 
 BRR  HN ES        1 4 22.67                             152    0.9610 70.8 299 
 BRR  HZ I         1 4 23.25        15.2 0.22            151           70.8 299 
 PAM  EZ EP        1 4  6.81                             150    0.0810 78.6  40 
 PAM  EN ES        1 4 23.67                             150   -0.1310 78.6  40 
 PAM  EZ I         1 4 26.27        13.9 0.38            153           78.6  40 
 RUS  HZ EP        1 4  7.79                             143   -0.3810 99.9 175 
 RUS  HN ES        1 4 26.44                             143    0.0810 99.9 175 
 RUS  HZ I         1 4 27.88         5.3 0.31            144           99.9 175 
 PTB  HZ EP        1 4 10.64                             131   -0.76 9  147 259 
 PTB  HN ES        1 4 31.55                             131   -0.57 9  147 259 
 PTB  HZ I         1 4 34.55         6.0 0.13            131            147 259 
 ZAR  HZ EP        1 4 17.26                             122    0.28 9  203 292 
 ZAR  HN ES        1 4 41.94                             122   -0.11 9  203 292 
 NOR  HZ EP        1 4 20.15                             118   -0.07 8  233 234 
 NOR  HE ES        1 4 47.59                             118   -0.23 8  233 234 
 NOR  HZ I         1 4 50.74         4.8 0.22            118            233 234 
 CHI  HZ EP        1 4 22.48                             116    0.26 8  248 195 
 CHI  HN ES        1 4 51.56                             116    0.18 8  248 195 
 CHI  HZ I         1 4 54.83         5.6 0.60            117            248 195 
 ROSC BZ EP        1 4 23.22                             116    0.59 8  252 211 
 ROSC BN ES        1 4 52.64                             116    0.54 8  252 211 
 ROSC BZ I         1 4 58.22        11.0 0.45            117            252 211 
 URE  HZ EP   4    1 4 28.99                             113    3.33 0  283 292 
 URE  HE ES   4    1 4 55.23                             113   -2.28 0  283 292 
 URE  HZ I         1 5  5.50         5.8 0.18            114            283 292 
 SJC  HZ EP   4    1 4 38.11                             105   -2.19 0  409 327 
 SJC  HN ES   4    1 5 19.61                             105   -3.94 0  409 327 
                                                                                
