 2017  628 0608 21.9 L   6.845 -73.110148.2  RSN 21 0.6 2.2LRSN                1
 GAP=104        1.02       3.4     3.0  5.2  0.1075E+01  0.3038E+01  0.7517E+00E
 Epicentro: LOS SANTOS - SANTANDER                                             3
 ACTION:UPD 17-09-14 16:56 OP:jn   STATUS:               ID:20170628060821 L   I
 OLDACT:UP  17-06-28 15:39 OP:and  STATUS:               ID:20170628060738     3
 OLDACT:UP  17-06-28 15:32 OP:and  STATUS:               ID:20170628060738     3
 OLDACT:REG 17-06-28 12:44 OP:and  STATUS:               ID:20170628060738     3
 2017-06-28-0608-00M.COL___367                                                 6
 STAT SP IPHASW D HRMM SECON CODA AMPLIT PERI AZIMU VELO AIN AR TRES W  DIS CAZ7
 BAR2 EZ IP     D  6 8 41.83                             168   -0.1510 29.1 196 
 BAR2 EZ ES        6 8 56.95                             168   -0.6710 29.1 196 
 BAR2 EZ I         6 8 58.57        46.3 0.18            165           29.1 196 
 BRR  HZ IP     C  6 8 43.73                             153    0.3110 72.6 294 
 BRR  HN ES        6 9  1.02                             153    0.8410 72.6 294 
 BRR  HZ I         6 9  5.28        27.4 0.14            148           72.6 294 
 PTB  HZ EP        6 8 48.71                             132   -0.83 9  153 257 
 PTB  HN ES   3    6 9 10.13                             132   -0.95 2  153 257 
 PTB  HZ I         6 9 17.27        13.1 0.14            126            153 257 
 TAM  HZ IP     D  6 8 49.83                             132    0.25 9  153 107 
 TAM  HZ I         6 9 10.36        16.0 0.40            128            153 107 
 TAM  HN ES        6 9 11.49                             132    0.34 9  153 107 
 SPBC HZ EP        6 8 50.84                             128   -0.38 9  170 219 
 SPBC HE ES        6 9 13.53                             128   -0.54 9  170 219 
 SPBC HZ I         6 9 17.63        30.5 0.07            123            170 219 
 YPLC HZ IP     D  6 8 52.08                             127   -0.07 9  179 153 
 YPLC HN ES        6 9 16.02                             127    0.29 9  179 153 
 YPLC HZ I         6 9 20.30        10.5 0.26            122            179 153 
 ZAR  HZ EP        6 8 54.43                             123   -0.29 8  206 290 
 ZAR  HN ES        6 9 20.37                             123    0.06 8  206 290 
 ZAR  HZ I         6 9 26.42        32.3 0.46            118            206 290 
 TABC EZ EP   2    6 8 59.23                             119    0.74 4  236 211 
 TABC EZ ES   2    6 9 27.41                             119    0.39 4  236 211 
 TABC EZ I         6 9 34.01        18.1 0.64            114            236 211 
 NOR  HZ EP        6 8 58.14                             118   -0.31 8  241 234 
 NOR  HN ES        6 9 26.99                             118    0.04 8  241 234 
 NOR  HZ I         6 9 31.42        20.4 0.30            114            241 234 
 CHI  HZ EP        6 9  0.28                             117   -0.12 8  254 196 
 CHI  HN ES        6 9 29.91                             117   -0.50 8  254 196 
 CHI  HZ I         6 9 37.39         5.4 0.24            112            254 196 
 ROSC BZ EP   9    6 9  1.98                             117    1.11 0  259 211 
 ROSC BE ES        6 9 33.21                             116    0.85 8  259 211 
 ROSC BZ I         6 9 40.26        18.4 0.35            112            259 211 
 HEL  HZ EP        6 9  3.63                             115    0.80 7  277 255 
 HEL  HN ES   3    6 9 36.71                             115    1.98 2  277 255 
 HEL  HZ I         6 9 42.08         9.2 0.32            110            277 255 
 GUY2CHZ EP        6 9  6.91                             112    0.57 7  307 234 
 GUY2CHN ES   4    6 9 44.33                             112    3.35 0  307 234 
 GUY2CHZ I         6 9 48.73        16.6 0.50                           307 234 
 PTGC HZ IP   3 D  6 9  4.76                             112   -1.50 2  312 160 
 PTGC HN ES   4    6 9 38.21                             112   -2.63 0  312 160 
 PTGC HZ I         6 9 40.85         6.2 0.30            108            312 160 
 LL6C HN ES   3    6 9 43.95                             111    1.46 2  320 357 
 CBOC HZ EP        6 9  9.70                             110    0.15 7  339 252 
 CBOC HN ES        6 9 46.49                             110   -0.21 7  339 252 
 CBOC HZ I         610  3.32         4.4 0.48            106            339 252 
 DBB  EZ EP        6 9 10.22                             110    0.30 7  343 273 
 DBB  EN ES   2    6 9 47.38                             110    0.03 3  343 273 
 DBB  EZ I         6 9 54.50         4.3 0.16            106            343 273 
 ORTC HZ EP   2    6 9 15.99                             106   -0.68 3  402 216 
 ORTC HN ES        610  0.62                             106    1.24 6  402 216 
 ORTC HZ I         610  4.03         3.6 0.32            103            402 216 
 SJC  HZ EP   3    6 9 15.63                             106   -1.71 1  407 326 
 SJC  HN ES   4    6 9 57.06                             106   -3.50 0  407 326 
 SJC  HZ I         610  1.59         4.4 0.34            103            407 326 
 PAL  HZ EP   2    6 9 17.59                             106   -0.28 3  412 239 
 PAL  HZ I         610  7.16         3.2 0.34            103            412 239 
 CRJC HZ EP   2    6 9 23.77                             104   -0.11 2  462   3 
 CRJC HN ES        610 11.50                             104   -0.70 5  462   3 
                                                                                
