 2014  828 0253 27.0 L   6.707 -73.532108.4  RSN  7 0.4 1.3LRSN                1
 GAP=132        0.84       3.9     3.8  7.0  0.4886E+01  0.9620E+01  0.7192E+01E
 Epicentro: EL CARMEN - SANTANDER                                              3
 ACTION:UPD 14-09-15 21:53 OP:nd   STATUS:               ID:20140828025327 L   I
 OLDACT:DUP 14-08-28 13:41 OP:fm   STATUS:               ID:20140828024817d    3
 2014-08-28-0248-16M.COL___260                                                 6
 STAT SP IPHASW D HRMM SECON CODA AMPLIT PERI AZIMU VELO AIN AR TRES W  DIS CAZ7
 BAR2 SZ EP        253 42.55                             158   -0.2310 40.6 108 
 BAR2 SZ ES   1    253 55.25                             158    0.15 7 40.6 108 
 BAR2 SZ I         253 55.65         5.6 0.56            163           40.6 108 
 BRR  HZ EP   1    253 42.57                             154   -0.25 7 48.6 336 
 BRR  HN ES        253 55.51                             154    0.3310 48.6 336 
 BRR  HZ I         253 56.50        10.2 0.18            155           48.6 336 
 RUS  HZ EP   1    253 47.49                             133    0.01 7  103 151 
 RUS  HN ES        254  3.39                             133   -0.0810  103 151 
 RUS  HZ I         254  5.13         3.2 0.34            135            103 151 
 PTB  HZ EP        253 46.56                             133   -0.3710  104 260 
 PTB  HN ES        254  1.87                             133   -0.6210  104 260 
 PTB  HZ I         254  3.49         6.3 0.48            131            104 260 
 SPBC HZ EP   1    253 50.23                             125    0.63 7  131 207 
 SPBC HN ES   1    254  7.75                             125    0.50 7  131 207 
 SPBC HZ I         254 15.55         2.3 0.24            125            131 207 
 ZAR  HZ EP   1    253 53.91                             118    0.32 7  170 301 
 ZAR  HN ES   1    254 14.80                             118    0.46 7  170 301 
 ZAR  HZ I         254 21.34         4.2 0.26            118            170 301 
 GUY2CHN ES   1    254 33.84                             107    0.22 6  261 231 
 GUY2CHZ I         254 42.38         1.0 0.28                           261 231 
                                                                                
