 2014  728 0126 50.8 L   6.892 -73.147143.9  RSN 15 0.5 2.6LRSN                1
 GAP= 71        1.05       3.2     3.2  5.9  0.5189E+00  0.5115E+01  0.1310E+01E
 Epicentro: PIEDECUESTA - SANTANDER                                            3
 ACTION:UPD 15-03-16 20:47 OP:nd   STATUS:               ID:20140728012650 L   I
 OLDACT:UP  14-07-28 14:48 OP:mh   STATUS:               ID:20140728012001d    3
 OLDACT:UP  14-07-28 14:47 OP:mh   STATUS:               ID:20140728012001d    3
 OLDACT:UP  14-07-28 14:46 OP:mh   STATUS:               ID:20140728012001d    3
 OLDACT:DUP 14-07-28 14:46 OP:mh   STATUS:               ID:20140728012001d    3
 2014-07-28-0120-00M.COL___282                                                 6
 STAT SP IPHASW D HRMM SECON CODA AMPLIT PERI AZIMU VELO AIN AR TRES W  DIS CAZ7
 BAR2 SZ EP        127 10.42                             166   -0.0110 33.4 187 
 BAR2 SZ ES   1    127 25.79                             166    0.03 7 33.4 187 
 BAR2 SZ I         127 26.53       102.9 0.21            163           33.4 187 
 BRR  HZ EP     C  127 11.90                             154    0.4210 66.8 291 
 BRR  HN ES   1    127 27.76                             154    0.13 7 66.8 291 
 BRR  HZ I         127 29.82        66.3 0.22            151           66.8 291 
 PAM  SZ EP   1    127 12.85                             153    0.48 7 69.9  45 
 PAM  SN ES   1    127 29.55                             153    0.35 7 69.9  45 
 PAM  SZ I         127 31.58       191.7 0.36            158           69.9  45 
 RUS  HZ EP        127 14.68                             141   -0.4310  111 176 
 RUS  HN ES        127 33.62                             141   -0.4710  111 176 
 RUS  HZ I         127 35.26        23.8 0.35            140            111 176 
 PTB  HZ EP     C  127 17.04                             131   -0.76 9  150 255 
 PTB  HN ES   1    127 39.30                             131    0.44 7  150 255 
 PTB  HZ I         127 39.55        60.4 0.26            129            150 255 
 TAM  HZ IP     D  127 18.89                             129    0.29 9  158 109 
 TAM  HN ES        127 40.35                             129    0.05 9  158 109 
 SPBC HZ EP        127 19.59                             127   -0.31 9  171 217 
 SPBC HN ES        127 42.51                             127   -0.11 9  171 217 
 SPBC HZ I         127 52.11        36.9 0.08            126            171 217 
 ZAR  HZ EP        127 23.00                             122    0.28 9  200 289 
 ZAR  HN ES        127 47.74                             122    0.12 9  200 289 
 ZAR  HZ I         127 53.57        77.4 0.24            122            200 289 
 SML  HZ EP        127 25.77                             118   -0.53 8  234 334 
 SML  HN ES        127 53.26                             118   -0.74 8  234 334 
 SML  HZ I         127 57.03        26.5 0.06            119            234 334 
 ROSC BZ EP        127 30.85                             115    1.09 8  261 210 
 ROSC BN ES   4    128  2.39                             115    2.23 0  261 210 
 ROSC BZ I         128  8.90        22.2 0.20            115            261 210 
 HEL  HZ EP        127 32.02                             114    0.84 8  275 254 
 HEL  HN ES        128  2.64                             114   -0.05 8  275 254 
 HEL  HZ I         128 10.86        20.0 0.50            114            275 254 
 URE  HZ EP   4    127 31.55                             113    0.21 0  280 290 
 URE  HN ES   4    128  0.30                             113   -2.67 0  280 290 
 URE  HZ I         128 11.87        29.0 0.30            114            280 290 
 GUY2CHZ EP   4    127 36.37                             111    1.40 0  307 233 
 GUY2CHN ES   1    128  9.88                             111    0.45 5  307 233 
 GUY2CHZ I         128 19.29        16.7 0.28                           307 233 
 RREF HZ EP   4    127 39.48                             110    1.88 0  328 228 
 RREF HN ES   4    128 16.33                             110    2.21 0  328 228 
 PRA  HZ EP        127 44.52                             106   -0.76 6  401 209 
 PRA  HN ES        128 27.05                             106   -0.73 6  401 209 
 PRA  HZ I         128 36.35        14.4 0.25            106            401 209 
 ORTC HZ EP        127 45.93                             106    0.33 6  404 215 
 ORTC HN ES   1    128 28.95                             106    0.59 4  404 215 
 ORTC HZ I         128 35.19        10.6 0.33            106            404 215 
                                                                                
