 2017  728 0927 53.3 L   6.811 -73.107149.1  RSN  5 0.3 1.2LRSN                1
 GAP=263        0.78       5.5     5.6  7.0  0.5754E+01 -0.2988E+01 -0.4821E+01E
 Epicentro: LOS SANTOS - SANTANDER                                             3
 ACTION:UPD 17-08-30 15:37 OP:rebc STATUS:               ID:20170728092753 L   I
 OLDACT:UP  17-07-28 16:46 OP:and  STATUS:               ID:20170728091417     3
 OLDACT:REG 17-07-28 12:49 OP:and  STATUS:               ID:20170728091417     3
 2017-07-28-0918-00M.COL___377                                                 6
 STAT SP IPHASW D HRMM SECON CODA AMPLIT PERI AZIMU VELO AIN AR TRES W  DIS CAZ7
 BAR2 EZ EP        928 13.28                             170   -0.0510 25.6 199 
 BAR2 EZ ES        928 28.61                             170   -0.3710 25.6 199 
 BAR2 EZ I         928 29.59         3.6 0.22            166           25.6 199 
 BRR  HZ EP        928 15.15                             152    0.2110 74.4 296 
 BRR  HN ES        928 32.31                             152    0.4510 74.4 296 
 PTB  HZ EP   9    928 20.33                             132   -0.56 0  152 259 
 PTB  HN ES        928 41.91                             132    0.03 9  152 259 
 PTB  HZ I         928 42.97         1.1 0.18            129            152 259 
 SPBC HN ES        928 45.19                             129    0.15 9  167 220 
 SPBC HZ I         928 48.59         2.6 0.10            126            167 220 
 ZAR  HZ EP   4    928 29.29                             123    3.01 0  208 291 
 ZAR  HE ES        928 51.53                             123   -0.50 8  208 291 
 ZAR  HZ I         928 56.59         1.5 0.31            120            208 291 
                                                                                
