 2016 1128 0328 19.5 L   6.714 -73.174149.5  RSN  4 0.2 1.5LRSN                1
 GAP=147        0.55       7.0     4.3  4.8 -0.9410E+00  0.6018E+00 -0.7597E-01E
 Epicentro: VILLANUEVA - SANTANDER                                             3
 ACTION:UPD 17-10-26 21:12 OP:lp   STATUS:               ID:20161128032819 L   I
 OLDACT:UP  16-11-28 14:12 OP:dani STATUS:               ID:20161128031747     3
 OLDACT:UP  16-11-28 14:12 OP:dani STATUS:               ID:20161128031747     3
 OLDACT:UP  16-11-28 14:12 OP:dani STATUS:               ID:20161128031747     3
 OLDACT:UP  16-11-28 14:12 OP:dani STATUS:               ID:20161128031747     3
 OLDACT:UP  16-11-28 14:11 OP:dani STATUS:               ID:20161128031747     3
 OLDACT:REG 16-11-28 12:29 OP:dani STATUS:               ID:20161128031747     3
 2016-11-28-0318-00M.COL___348                                                 6
 STAT SP IPHASW D HRMM SECON CODA AMPLIT PERI AZIMU VELO AIN AR TRES W  DIS CAZ7
 BAR2 EZ EP        328 39.40                             175   -0.0210 13.5 184 
 BAR2 EZ ES        328 55.04                             175    0.0710 13.5 184 
 BAR2 EZ I         328 55.26         7.6 0.42            176           13.5 184 
 BRR  HZ EP        328 41.32                             152    0.1310 73.6 306 
 BRR  HN ES        328 58.18                             152    0.0710 73.6 306 
 BRR  HZ I         329  2.71         5.3 0.50            148           73.6 306 
 PAM  EZ EP   1    328 42.32                             149   -0.37 7 86.8  37 
 PAM  EE ES   4    328 59.12                             149   -1.65 0 86.8  37 
 PAM  EZ I         329  1.30         4.3 0.50            148           86.8  37 
 PTB  HZ EP        328 46.57                             134    0.21 9  143 262 
 PTB  HN ES   1    329  6.84                             134   -0.47 7  143 262 
 PTB  HZ I         329  8.68         3.1 0.22            134            143 262 
                                                                                
