 2013  128 0038 49.5 L   6.830 -73.195149.5  RSN  5 0.2 1.5LRSN                1
 GAP=178        0.54       2.4     3.9  4.8  0.1543E+01 -0.1780E+01  0.2350E+01E
 Epicentro: ZAPATOCA - SANTANDER                                               3
 ACTION:UPD 13-02-15 09:17 OP:ep   STATUS:               ID:20130128003849 L   I
 2013-01-28-0028-46M.COL___169                                                 6
 STAT SP IPHASW D HRMM SECON CODA AMPLIT PERI AZIMU VELO AIN AR TRES W  DIS CAZ7
 BRR  HZ EP        039 10.92                             155    0.2210 64.8 298 
 BRR  HN ES        039 27.50                             155    0.2510 64.8 298 
 BRR  HZ I         039 31.71         7.6 0.18            155           64.8 298 
 RUS  HZ EP        039 13.65                             144   -0.2210  104 173 
 RUS  HN ES        039 32.84                             144   -0.0610  104 173 
 RUS  HZ I         039 33.83         3.9 0.40            145            104 173 
 PTB  HZ EP        039 16.22                             134   -0.12 9  143 257 
 PTB  HN ES        039 37.10                             134   -0.19 9  143 257 
 PTB  HZ I         039 39.45         4.9 0.24            134            143 257 
 OCA  HN ES        039 39.61                             131   -0.16 9  156 355 
 CHI  HZ EP        039 27.94                             118    0.36 8  250 194 
 CHI  HZ I         039 29.36         1.8 0.34            119            250 194 
 CHI  HN ES   3    039 57.27                             118   -0.03 2  250 194 
                                                                                
