 2011  328 0124  8.2 L   6.799 -73.146151.8  RSN 26 0.5 4.2LRSN                1
 GAP=114        0.93       3.0     4.5  5.0 -0.3399E+01  0.5197E+01  0.5179E+01E
 Epicentro: LOS SANTOS - SANTANDER                                             3
 ACTION:UP  11-06-16 14:36 OP:jfem STATUS:               ID:20110328012408 L   I
 2011-03-28-0122-07S.COL___138                                                 6
 STAT SP IPHASW D HRMM SECON CODA AMPLIT PERI AZIMU VELO SNR AR TRES W  DIS CAZ7
 BTL  SZ ES   2    124 44.92                             172     0.6 5   19 315 
 BAR2 SZ IP        124 28.38                             171    -0.210   23 190 
 BAR2 SZ ES   1    124 43.63                             171    -0.8 7   23 190 
 BAR2 SZ I         124 44.78      5117.0 0.32                            23 190 
 GIR2 SZ IP        124 28.48                             168    -0.210   31 350 
 GIR2 SZ ES   1    124 44.22                             168    -0.3 7   31 350 
 URB  SZ EP        124 29.84                             160     0.510   53 337 
 BRR  HZ IP     C  124 30.28                             153     0.210   71 299 
 BRR  HN ES   1    124 47.58                             153     0.5 7   71 299 
 PAM  SZ IP        124 31.18                             152     0.110   78  40 
 PAM  SZ I         124 31.52      1140.2 0.26                            78  40 
 PAM  SN ES   1    124 48.65                             152    -0.3 7   78  40 
 GUE  SZ EP        124 33.43                             141    -0.110  117  12 
 GRA  SZ IP        124 34.19                             138     0.110  126  17 
 GRA  SZ ES   1    124 54.00                             138    -0.2 7  126  17 
 GRA  SZ I         124 56.92      3966.4 0.42                           126  17 
 OCA  SZ IP        124 36.90                             131    -0.1 9  160 353 
 OCA  SZ ES   1    124 59.87                             131     0.4 7  160 353 
 OCA  SZ I         125  4.91      5380.5 0.51                           160 353 
 YOP  SZ IP        124 38.89                             128     0.2 9  179 153 
 YOP  SN ES   1    125  2.87                             128     0.4 7  179 153 
 YOP  SZ I         125 12.57       773.8 0.61                           179 153 
 NOR  SZ IP        124 43.97                             120    -0.4 8  235 235 
 NOR  SN ES   2    125 11.79                             120    -0.7 4  235 235 
 CHI  HZ IP     D  124 46.00                             118    -0.3 8  248 195 
 CHI  HZ I         124 49.11       746.7 0.35                           248 195 
 CHI  HN ES   1    125 16.43                             118     0.5 6  248 195 
 ROSC BZ IP     D  124 47.81                             118     1.1 8  253 211 
 ROSC BN ES   2    125 16.85                             118     0.2 4  253 211 
 ROSC BZ I         125 23.42      2054.1 0.47                           253 211 
 HEL  HZ EP   1    124 48.26                             116    -0.5 6  272 256 
 HEL  HN ES   2    125 20.52                             116     0.2 4  272 256 
 HEL  HZ I         125 26.80      1208.4 0.30                           272 256 
 GUY  SZ EP   3    124 52.65                             113     0.5 2  301 235 
 GUY  SN ES   1    125 26.37                             113     0.0 5  301 235 
 GUY  SZ I         125 32.76      1810.9 0.49                           301 235 
 VIL  SZ EP        124 51.27                             113    -0.7 7  303 192 
 VIL  SZ ES   3    125 26.95                             113     1.0 2  303 192 
 RREF HZ EP   2    124 54.21                             112    -0.4 3  322 229 
 RREF HZ I         125 37.89      1353.1 0.56                           322 229 
 DBB  SZ IP        124 56.27                             110     0.3 7  339 274 
 TOL  SZ EP        124 56.93                             110     0.2 7  343 225 
 MON  HN ES   3    125 34.48                             110    -1.4 2  353 308 
 PRA  HZ EP        125  0.98                             107    -1.0 6  392 210 
 PRA  HN ES   1    125 44.17                             107     0.3 4  392 210 
 HORQ SZ EP   1    125 18.39                             102    -0.4 3  532 227 
 HORQ SZ I         126 40.23        60.5 0.81                           532 227 
 MARA HZ EP        125 18.71                             102    -0.7 4  537 216 
 MARA HZ I         126 37.15       105.3 0.46                           537 216 
 PCON HZ EP   2    125 28.67                             100    -0.1 1  612 216 
 PCON HZ I         127  9.47        53.7 0.64                           612 216 
 POP2 HZ EP        125 27.96                             100    -0.4 3  612 220 
 POP2 HZ I         125 32.46        59.4 0.30                           612 220 
 SOTA HZ EP   2    125 32.80                              99     0.4 1  643 217 
                                                                                
