 2013  728 0809 55.8 L   6.757 -73.075152.8  RSN  6 0.3 1.5LRSN                1
 GAP=233        0.70      10.2     7.5  6.2  0.4656E+02  0.7243E+01 -0.3467E+01E
 Epicentro: LOS SANTOS - SANTANDER                                             3
 ACTION:UPD 13-08-12 10:40 OP:ep   STATUS:               ID:20130728080955 L   I
 OLDACT:REG 13-07-28 08:28 OP:cam  STATUS:               ID:20130728080959     3
 2013-07-28-0809-59M.COL___267                                                 6
 STAT SP IPHASW D HRMM SECON CODA AMPLIT PERI AZIMU VELO AIN AR TRES W  DIS CAZ7
 BAR2 SZ EP   1    810 16.19                             172   -0.10 7 21.7 213 
 BAR2 SZ ES        810 32.37                             172    0.1310 21.7 213 
 BAR2 SZ I         810 32.55         6.6 0.20            124           21.7 213 
 GIR2 SZ EP   1    810 16.55                             165    0.01 7 37.9 340 
 BRR  HZ EP   1    810 18.91                             151    0.64 7 80.4 299 
 BRR  HE ES        810 35.43                             151   -0.3410 80.4 299 
 BRR  HZ I         810 43.76         3.8 0.40            118           80.4 299 
 PTB  HZ EP        810 23.74                             132   -0.27 9  155 261 
 PTB  HZ I         810 47.25         3.9 0.36            105            155 261 
 ZAR  HE ES        810 56.34                             123    0.27 8  213 293 
 SML  HZ EP   2    810 33.29                             118   -0.40 4  251 334 
                                                                                
