 2015  328 0617 42.6 L   6.816 -73.146140.0  RSN 16 0.4 2.0LRSN                1
 GAP=136        1.00       3.0     3.6  5.1 -0.1924E+01  0.7083E+01  0.6376E+00E
 Epicentro: LOS SANTOS - SANTANDER                                             3
 ACTION:UPD 15-04-30 16:30 OP:nd   STATUS:               ID:20150328061742 L   I
 OLDACT:REG 15-03-28 13:35 OP:fm   STATUS:               ID:20150328060735     3
 2015-03-28-0607-35M.COL___275                                                 6
 STAT SP IPHASW D HRMM SECON CODA AMPLIT PERI AZIMU VELO AIN AR TRES W  DIS CAZ7
 BAR2 EZ EP        618  1.74                             169    0.1910 25.1 189 
 BAR2 EZ ES        618 16.09                             169   -0.2610 25.1 189 
 BAR2 EZ I         618 19.40        16.6 0.30            167           25.1 189 
 BRR  HZ IP     C  618  3.62                             152    0.5710 70.4 297 
 BRR  HE ES        618 19.20                             152    0.1710 70.4 297 
 BRR  HZ I         618 24.62        14.0 0.12            151           70.4 297 
 PAM  SZ EP        618  4.52                             150    0.4310 76.0  40 
 PAM  SN ES        618 21.30                             150    0.4210 76.0  40 
 PAM  SZ I         618 23.40         8.6 0.24            146           76.0  40 
 RUS  HZ EP        618  5.40                             142   -0.4910  102 176 
 RUS  HN ES        618 24.05                             142   -0.0310  102 176 
 RUS  HZ I         618 26.21         8.5 0.38            138            102 176 
 PTB  HZ EP        618  8.59                             131   -0.52 9  148 258 
 PTB  HE ES        618 29.30                             131   -0.50 9  148 258 
 PTB  HZ I         618 32.01        15.9 0.40            128            148 258 
 SPBC HZ EP        618 10.58                             127   -0.18 9  165 219 
 SPBC HE ES        618 32.48                             127   -0.28 9  165 219 
 SPBC HZ I         618 34.68        14.5 0.12            124            165 219 
 ZAR  HZ EP   1    618 13.69                             121   -0.89 6  203 292 
 ZAR  HN ES        618 39.63                             121    0.09 9  203 292 
 ZAR  HZ I         618 45.68        14.4 0.26            118            203 292 
 NOR  HZ EP        618 17.72                             117   -0.36 8  236 234 
 NOR  HE ES        618 45.62                             117   -0.16 8  236 234 
 NOR  HZ I         618 51.35         7.0 0.20            114            236 234 
 SML  HZ EP        618 18.85                             116    0.15 8  242 335 
 SML  HN ES        618 46.06                             116   -0.83 8  242 335 
 SML  HZ I         618 54.09        14.2 0.10            113            242 335 
 HEL  HZ EP        618 22.74                             113    0.20 8  273 255 
 HEL  HE ES        618 54.08                             113    0.36 8  273 255 
 HEL  HZ I         619  1.31         4.6 0.34            111            273 255 
 URE  HZ EP   4    618 21.67                             112   -1.62 0  283 292 
 URE  HE ES   4    618 51.45                             112   -3.61 0  283 292 
 URE  HZ I         618 56.77         6.5 0.14            110            283 292 
 GUY2CHZ EP        618 26.55                             111    0.52 7  302 235 
 GUY2CHN ES        619  1.06                             111    1.13 7  302 235 
 GUY2CHZ I         619 10.65         5.7 0.42                           302 235 
 PTGC HZ EP   4    618 23.96                             110   -2.40 0  310 159 
 PTGC HZ I         618 54.97         7.8 0.32            107            310 159 
 PTGC HN ES   4    618 55.97                             110   -4.54 0  310 159 
 CBOC HZ EP   1    618 29.52                             109    0.21 5  334 252 
 CBOC HN ES        619  6.13                             109    0.36 7  334 252 
 CBOC HZ I         619 12.14         1.6 0.20            106            334 252 
 ORTC HZ EP        618 36.47                             105    0.01 6  397 216 
 ORTC HE ES        619 18.40                             105   -0.10 6  397 216 
 ORTC HZ I         619 25.48         2.6 0.68            103            397 216 
 SJC  HZ EP   4    618 34.94                             105   -2.83 0  408 327 
 SJC  HN ES   4    619 15.75                             105   -5.08 0  408 327 
 SJC  HZ I         619 20.32         2.0 0.56            102            408 327 
                                                                                
