 2016  328 0617 37.8 L   6.855 -73.174143.1  RSN 23 0.5 2.5LRSN                1
 GAP= 68        1.09       2.6     2.7  5.1 -0.1148E+01  0.4040E+01  0.1487E+01E
 Epicentro: ZAPATOCA - SANTANDER                                               3
 ACTION:UPD 16-05-13 21:28 OP:cam  STATUS:               ID:20160328060746 L   I
 OLDACT:UP  16-03-29 11:54 OP:dnl  STATUS:               ID:20160328060746 L   3
 OLDACT:UPD 16-03-28 15:59 OP:Mher STATUS:               ID:20160328060746 L   3
 2016-03-28-0607-46M.COL___297                                                 6
 STAT SP IPHASW D HRMM SECON CODA AMPLIT PERI AZIMU VELO AIN AR TRES W  DIS CAZ7
 BAR2 EZ IP     D  617 57.38                             168    0.1010 29.1 182 
 BAR2 EZ ES        618 12.59                             168    0.1510 29.1 182 
 BAR2 EZ I         618 15.13        34.4 0.22            168           29.1 182 
 PAM  EZ EP     D  618  0.11                             151    0.4910 74.9  44 
 PAM  EN ES        618 17.28                             151    0.6610 74.9  44 
 PAM  EZ I         618 19.14        57.3 0.58            157           74.9  44 
 RUS  HZ EP        618  1.36                             141   -0.4410  107 175 
 RUS  HN ES        618 20.32                             141   -0.1710  107 175 
 RUS  HZ I         618 22.88        27.3 0.28            145            107 175 
 PTB  HZ EP        618  4.06                             132   -0.37 9  146 256 
 PTB  HN ES        618 24.52                             132   -0.66 9  146 256 
 PTB  HZ I         618 32.85        36.9 0.36            132            146 256 
 OCA  HZ EP        618  5.34                             130   -0.00 9  154 354 
 OCA  HN ES        618 27.45                             130    0.65 9  154 354 
 OCA  HZ I         618 31.45        78.3 0.20            133            154 354 
 TAM  HZ IP     D  618  5.56                             129   -0.18 9  160 107 
 TAM  HN ES        618 27.20                             129   -0.31 9  160 107 
 SPBC HZ EP        618  6.35                             128   -0.06 9  166 217 
 SPBC HN ES        618 28.11                             128   -0.59 9  166 217 
 SPBC HZ I         618 34.41        61.3 0.32            130            166 217 
 ZAR  HZ EP        618  9.53                             122   -0.05 9  199 291 
 ZAR  HN ES        618 33.72                             122   -0.62 9  199 291 
 ZAR  HZ I         618 41.86        32.1 0.38            124            199 291 
 NOR  HZ EP        618 13.26                             118   -0.27 8  236 233 
 NOR  HN ES        618 41.10                             118   -0.28 8  236 233 
 NOR  HZ I         618 48.20        26.3 0.30            120            236 233 
 CHI  HZ EP        618 15.56                             116   -0.39 8  254 194 
 CHI  HN ES        618 44.82                             116   -0.85 8  254 194 
 CHI  HZ I         618 50.51        10.5 0.34            119            254 194 
 ROSC BZ EP        618 16.95                             116    0.73 8  256 210 
 ROSC BN ES        618 46.66                             116    0.51 8  256 210 
 ROSC BZ I         618 54.03        26.1 0.35            118            256 210 
 HEL  HZ EP   1    618 18.82                             114    1.06 6  271 254 
 HEL  HN ES        618 49.40                             114    0.51 8  271 254 
 HEL  HZ I         618 55.83        15.9 0.28            116            271 254 
 URE  HZ EP        618 17.51                             113   -0.70 7  279 291 
 URE  HN ES        618 48.91                             113   -0.79 7  279 291 
 URE  HZ I         619  1.85        15.1 0.22            115            279 291 
 LL1C HZ EP   4    618 22.39                             112    1.81 0  300 352 
 SOCV BZ EP   4    618 18.65                             112   -2.04 0  301  58 
 SOCV BN ES   4    618 50.55                             112   -3.56 0  301  58 
 GUY2CHZ EP        618 21.70                             112    0.26 7  302 233 
 GUY2CHE ES        618 55.79                             112    0.34 7  302 233 
 GUY2CHZ I         619  4.07        22.3 0.76                           302 233 
 VIL  SZ EP        618 21.37                             111   -0.37 7  309 191 
 VIL  SN ES        618 56.70                             111    0.71 7  309 191 
 PTGC HZ EP   4    618 20.12                             111   -2.23 0  315 159 
 PTGC HN ES   4    618 53.45                             111   -3.62 0  315 159 
 PTGC HZ I         618 58.46        12.8 0.36            114            315 159 
 CRECREN ES        618 59.63                             110    0.51 7  320 229 
 ELA  HZ EP   1    618 25.52                             110    0.75 5  331 228 
 ELA  HN ES        619  1.85                             110    0.48 7  331 228 
 ELA  HZ I         619  7.79        15.9 0.54            112            331 228 
 CBOC HZ EP        618 24.85                             109    0.32 7  333 251 
 CBOC HE ES   4    619  2.75                             109    1.81 0  333 251 
 CBOC HZ I         619  7.53         5.3 0.62            111            333 251 
 MON  HZ EP   9    618 24.09                             108   -1.93 0  347 308 
 MON  HN ES        619  1.98                                    0.31 6  347 308 
 MON  HZ I         619  7.06         5.1 0.52            110            347 308 
 SDV  BZ EP        618 26.81                             108   -0.80 6  359  51 
 SDV  BN ES   4    619  3.24                             108   -3.19 0  359  51 
 ANIL HZ EP        618 28.59                             108    0.79 6  360 223 
 ANIL HN ES        619  7.38                             108    0.61 6  360 223 
 PAL  HZ EP        618 32.97                             105   -0.00 6  406 238 
 PAL  HN ES        619 16.08                             105    0.10 6  406 238 
 PAL  HZ I         619 20.21         7.3 0.22            107            406 238 
                                                                                
