 2013  628 0903  1.4 L   6.762 -73.215144.0  RSN  6 0.3 1.2LRSN                1
 GAP=192        0.68       4.1     5.7  5.0  0.1230E+02  0.1076E+01 -0.4628E+01E
 Epicentro: VILLANUEVA - SANTANDER                                             3
 ACTION:UPD 14-01-08 09:57 OP:ep   STATUS:               ID:20130628090301 L   I
 OLDACT:REG 13-06-28 08:03 OP:jn   STATUS:               ID:20130628085959     3
 2013-06-28-0859-59M.COL___266                                                 6
 STAT SP IPHASW D HRMM SECON CODA AMPLIT PERI AZIMU VELO AIN AR TRES W  DIS CAZ7
 BAR2 SZ EP        9 3 20.61                             172   -0.1710 19.1 169 
 BAR2 SZ ES        9 3 35.89                             172    0.0310 19.1 169 
 BAR2 SZ I         9 3 37.23         4.3 0.26            170           19.1 169 
 BRR  HZ EP        9 3 22.52                             154    0.3610 66.9 305 
 BRR  HN ES        9 3 38.40                             154    0.0910 66.9 305 
 BRR  HZ I         9 3 43.47         4.4 0.44            138           66.9 305 
 RUS  HZ EP        9 3 25.07                             144    0.2910 97.2 171 
 RUS  HN ES        9 3 42.73                             144   -0.2510 97.2 171 
 RUS  HZ I         9 3 45.41         1.6 0.32            135           97.2 171 
 PTB  HZ EP   1    9 3 27.43                             133   -0.09 7  139 260 
 PTB  HN ES   1    9 3 47.57                             133   -0.28 7  139 260 
 PTB  HZ I         9 3 49.53         3.3 0.18            118            139 260 
 ZAR  HZ EP   1    9 3 33.54                             123    0.32 6  199 294 
 ZAR  HZ I         9 4  9.02         1.6 0.58            109            199 294 
 SML  HZ EP   1    9 3 37.22                             117   -0.84 6  244 337 
 SML  HN ES   1    9 4  6.59                             117   -0.02 6  244 337 
                                                                                
