 2011 1028 0704 36.9 L   6.839 -73.065145.6  RSN  5 0.2 1.4LRSN                1
 GAP=145        0.40       4.2     4.5  5.6  0.4519E+01  0.5800E+01 -0.9571E+00E
 Epicentro: LOS SANTOS - SANTANDER                                             3
 ACTION:UPD 12-07-13 16:06 OP:ep   STATUS:               ID:20111028070436 L   I
 2011-10-28-0700-48S.COL___176                                                 6
 STAT SP IPHASW D HRMM SECON CODA AMPLIT PERI AZIMU VELO AIN AR TRES W  DIS CAZ7
 BAR2 SZ EP   1    7 4 56.39                             168   -0.24 7 30.2 205 
 BAR2 SZ ES   2    7 5 11.81                             168   -0.24 5 30.2 205 
 BAR2 SZ I         7 5 12.45         6.1 0.22                          30.2 205 
 PAM  SZ EP   2    7 4 58.76                             154    0.21 5 68.5  36 
 PAM  SN ES   2    7 5 15.37                             154   -0.10 5 68.5  36 
 BRR  HZ EP   1    7 4 58.40                             150    0.05 7 77.4 293 
 BRR  HN ES   2    7 5 15.62                             150    0.51 5 77.4 293 
 BRR  HZ I         7 5 18.43         6.0 0.47                          77.4 293 
 RUS  HZ EP   2    7 5  1.07                             143    0.17 5  105 181 
 RUS  HZ I         7 5 18.57         2.8 0.55                           105 181 
 RUS  HN ES   2    7 5 19.79                             143    0.14 5  105 181 
 ZAR  HZ EP   2    7 5 10.01                             121    0.02 4  211 290 
 ZAR  HN ES   2    7 5 35.49                             121   -0.34 4  211 290 
 ZAR  HZ I         7 5 40.98         2.8 0.25                           211 290 
                                                                                
