 2013  228 0937 40.6 L   6.792 -73.150146.2  RSN 11 0.4 2.0LRSN                1
 GAP= 71        0.83       3.2     3.3  6.0  0.1112E+01  0.3765E+01  0.1456E+01E
 Epicentro: LOS SANTOS - SANTANDER                                             3
 ACTION:UPD 13-03-12 09:36 OP:ep   STATUS:               ID:20130228093740 L   I
 2013-02-28-0930-00M.COL___228                                                 6
 STAT SP IPHASW D HRMM SECON CODA AMPLIT PERI AZIMU VELO AIN AR TRES W  DIS CAZ7
 BAR2 SZ IP     C  938  0.20                             171   -0.0610 22.4 189 
 BAR2 SZ ES   1    938 15.70                             171    0.11 7 22.4 189 
 BAR2 SZ I         938 17.92        44.5 0.28            168           22.4 189 
 BRR  HZ EP     D  938  2.26                             153    0.4710 71.2 299 
 BRR  HN ES   1    938 19.13                             153    0.80 7 71.2 299 
 BRR  HZ I         938 23.52        15.5 0.12            153           71.2 299 
 PAM  SZ EP   1    938  3.05                             151    0.14 7 78.3  39 
 PAM  SN ES   1    938 20.26                             151   -0.06 7 78.3  39 
 PAM  SZ I         938 22.37        20.0 0.48            156           78.3  39 
 RUS  HZ EP   1    938  4.04                             144   -0.29 7 99.7 176 
 RUS  HN ES   1    938 22.28                             144   -0.56 7 99.7 176 
 RUS  HZ I         938 24.02        10.2 0.44            145           99.7 176 
 PTB  HZ EP   1    938  7.00                             132   -0.54 7  147 259 
 PTB  HN ES   1    938 27.63                             132   -0.93 7  147 259 
 PTB  HZ I         938 34.07        22.2 0.26            133            147 259 
 TAM  HZ EP   1    938  8.29                             131   -0.03 7  155 105 
 TAM  HN ES   1    938 29.96                             131    0.01 7  155 105 
 TAM  HZ I         938 31.23         8.2 0.40            135            155 105 
 OCA  HN ES   1    938 30.86                             130   -0.32 7  161 353 
 ZAR  HE ES   1    938 38.38                             122    0.00 6  204 292 
 SML  HZ EP   1    938 17.23                             117   -0.08 6  244 335 
 SML  HN ES   1    938 45.81                             117   -0.14 6  244 335 
 CHI  HZ EP   1    938 18.16                             117   -0.05 6  248 195 
 CHI  HN ES   1    938 48.52                             117    0.97 6  248 195 
 CHI  HZ I         938 53.54         5.0 0.52            119            248 195 
 HEL  HZ EP   1    938 21.02                             115    0.26 6  271 256 
 HEL  HN ES   1    938 52.27                             115    0.19 6  271 256 
 HEL  HZ I         938 58.91         5.6 0.34            116            271 256 
 URE  HN ES   4    938 50.85                             114   -2.87 0  284 292 
                                                                                
