 2017 1128 0147 45.9 L   7.381 -73.193131.8  RSN  4 0.3 1.0LRSN                1
 GAP=218        0.73       6.2     6.1  8.1 -0.1701E+02  0.2818E+02 -0.1082E+02E
 Epicentro: EL PLAYON - SANTANDER                                              3
 ACTION:UPD 17-12-12 20:01 OP:rebc STATUS:               ID:20171128014745 L   I
 OLDACT:UP  17-11-28 14:00 OP:dani STATUS:               ID:20171128013739     3
 OLDACT:REG 17-11-28 12:40 OP:dani STATUS:               ID:20171128013739     3
 2017-11-28-0138-00M.COL___483                                                 6
 STAT SP IPHASW D HRMM SECON CODA AMPLIT PERI AZIMU VELO AIN AR TRES W  DIS CAZ7
 PAM  EZ EP        148  5.56                             156    0.1810 54.7  95 
 PAM  EE ES        148 20.31                             156   -0.2510 54.7  95 
 PAM  EZ I         148 23.36         2.7 0.34            162           54.7  95 
 BAR2 EZ ES        148 23.70                             144    0.2910 87.2 179 
 RUS  HZ EP   1    148 13.54                             125   -0.56 7  165 176 
 RUS  HN ES   1    148 36.05                             125   -0.03 7  165 176 
 RUS  HZ I         148 37.58         1.3 0.48            129            165 176 
 PTB  HZ EP        148 14.06                             125    0.31 9  168 236 
 PTB  HE ES   1    148 35.02                             125   -0.43 7  168 236 
 PTB  HZ I         148 38.99         0.8 0.19            127            168 236 
                                                                                
