 2012  928 0525 24.0 L   7.288 -73.090 18.0  RSN  5 0.2 1.1LRSN                1
 GAP=166        0.36       4.1     1.9  4.4 -0.6232E+01  0.6567E+01 -0.1488E+02E
 Epicentro: RIONEGRO - SANTANDER                                               3
 ACTION:UPD 12-10-22 14:21 OP:ep   STATUS:               ID:20120928052524 L   I
 2012-09-28-0520-00M.COL___213                                                 6
 STAT SP IPHASW D HRMM SECON CODA AMPLIT PERI AZIMU VELO AIN AR TRES W  DIS CAZ7
 GIR2 SZ EP        525 29.33                             119    0.0610 25.8 206 
 GIR2 SZ ES   1    525 33.45                             119    0.06 7 25.8 206 
 PAM  SZ EP        525 32.10                             109    0.0310 43.5  82 
 PAM  SN ES   1    525 38.30                             109   -0.08 7 43.5  82 
 BRR  HZ EP   1    525 35.50                             100   -0.13 7 71.5 254 
 BRR  HN ES   1    525 44.56                             100   -0.15 7 71.5 254 
 BRR  HZ I         525 46.09         4.1 0.12                          71.5 254 
 PTB  HN ES   3    526  8.91                              56   -0.63 2  172 241 
 ZAR  HN ES   1    526 15.18                              56    0.25 6  196 277 
 ZAR  HZ I         526 16.79         3.3 0.26                           196 277 
                                                                                
