 2011  728 0341 57.9 L   6.774 -73.125142.1  RSN  6 0.4 1.2LRSN                1
 GAP=161        0.58       3.9    12.0  7.5  0.9498E+00 -0.4181E+02 -0.3275E+01E
 Epicentro: LOS SANTOS - SANTANDER                                             3
 ACTION:UPD 12-07-25 14:03 OP:epov STATUS:               ID:20110728034157 L   I
 2011-07-28-0340-00M.COL___142                                                 6
 STAT SP IPHASW D HRMM SECON CODA AMPLIT PERI AZIMU VELO AIN AR TRES W  DIS CAZ7
 BAR2 SZ ES   2    342 32.84                             171    0.86 5 21.1 198 
 BAR2 SZ I         342 33.14         4.8 0.24                          21.1 198 
 BTL  SZ ES   2    342 31.65                             171   -0.38 5 22.5 315 
 GIR2 SZ EP   1    342 17.06                             166   -0.18 7 34.5 347 
 GIR2 SZ ES   2    342 31.73                             166   -0.58 5 34.5 347 
 BRR  HE ES   2    342 35.43                             151    0.23 5 74.6 300 
 RUS  HZ EP   1    342 21.18                             144    0.10 7 97.6 177 
 RUS  HN ES   1    342 39.02                             144   -0.14 7 97.6 177 
 RUS  HZ I         342 40.78         1.7 0.42                          97.6 177 
 GRA  SZ EP   1    342 23.04                             136    0.04 7  128  16 
 GRA  SZ ES   2    342 42.87                             136    0.30 5  128  16 
 GRA  SZ I         342 43.67         2.2 0.59                           128  16 
                                                                                
