 2012 1228 0906 44.8 L   6.759 -73.176149.2  RSN  8 0.4 1.5LRSN                1
 GAP=177        0.80       3.9     5.7  6.7  0.4864E+01  0.1021E+02  0.2473E+01E
 Epicentro: VILLANUEVA - SANTANDER                                             3
 ACTION:UPD 13-01-04 14:31 OP:ep   STATUS:               ID:20121228090644 L   I
 2012-12-28-0900-00M.COL___243                                                 6
 STAT SP IPHASW D HRMM SECON CODA AMPLIT PERI AZIMU VELO AIN AR TRES W  DIS CAZ7
 BAR2 SZ EP   1    9 7  4.71                             173   -0.05 7 18.5 182 
 BAR2 SZ ES   1    9 7 19.90                             173   -0.43 7 18.5 182 
 BAR2 SZ I         9 7 21.30        14.7 0.18                          18.5 182 
 GIR2 SZ EP   1    9 7  4.81                             166   -0.19 7 35.4 357 
 GIR2 SZ ES   1    9 7 20.90                             166    0.15 7 35.4 357 
 GIR2 SZ I         9 7 22.28         5.2 0.32                          35.4 357 
 BRR  HZ EP        9 7  6.64                             153    0.3510 70.7 303 
 BRR  HE ES   1    9 7 23.89                             153    0.83 7 70.7 303 
 BRR  HZ I         9 7 27.82         5.9 0.30                          70.7 303 
 RUS  HZ EP   1    9 7  9.08                             146    0.48 7 96.4 174 
 RUS  HN ES   1    9 7 26.87                             146   -0.29 7 96.4 174 
 RUS  HZ I         9 7 28.77         4.1 0.34                          96.4 174 
 PTB  HZ EP   1    9 7 11.58                             133   -0.11 7  144 260 
 PTB  HN ES   1    9 7 32.59                             133   -0.07 7  144 260 
 PTB  HZ I         9 7 34.34         3.8 0.31                           144 260 
 OCA  HN ES   1    9 7 35.72                             130   -0.64 7  164 354 
 ZAR  HZ EP   1    9 7 17.50                             123    0.16 6  203 294 
 ZAR  HE ES   1    9 7 42.19                             123   -0.53 6  203 294 
 ZAR  HZ I         9 7 48.68         3.4 0.22                           203 294 
 CHI  HN ES   1    9 7 50.98                             118   -0.26 6  243 195 
 CHI  HZ I         9 8  1.82         2.1 0.38                           243 195 
                                                                                
