 2014  428 0054 28.4 L   6.818 -73.120149.6  RSN 20 0.4 2.6LRSN                1
 GAP= 72        1.00       2.5     3.0  5.2 -0.3643E+00  0.5196E+01  0.3086E+01E
 Epicentro: LOS SANTOS - SANTANDER                                             3
 OLDACT:UP  14-04-28 15:16 OP:mh   STATUS:               ID:20140428004813     3
 OLDACT:UP  14-04-28 15:15 OP:mh   STATUS:               ID:20140428004813     3
 OLDACT:UP  14-04-28 15:15 OP:mh   STATUS:               ID:20140428004813     3
 OLDACT:REG 14-04-28 12:42 OP:mh   STATUS:               ID:20140428004813     3
 ACTION:UPD 14-05-13 23:11 OP:nd   STATUS:               ID:20140428005428 L   I
 OLDACT:UP  14-04-28 15:22 OP:mh   STATUS:               ID:20140428004813     3
 OLDACT:UP  14-04-28 15:21 OP:mh   STATUS:               ID:20140428004813     3
 2014-04-28-0048-13M.COL___248                                                 6
 OLDACT:UP  14-04-28 15:16 OP:mh   STATUS:               ID:20140428004813     3
 OLDACT:UP  14-04-28 15:16 OP:mh   STATUS:               ID:20140428004813     3
 STAT SP IPHASW D HRMM SECON CODA AMPLIT PERI AZIMU VELO AIN AR TRES W  DIS CAZ7
 BRR  HZ EP     C  054 50.46                             153    0.3810 72.8 296 
 BRR  HN ES        055  7.62                             153    0.6510 72.8 296 
 BRR  HZ I         055 11.33        41.8 0.12            147           72.8 296 
 PAM  SZ EP     C  054 51.34                             152    0.4810 74.0  39 
 PAM  SN ES        055  8.51                             152    0.1610 74.0  39 
 PAM  HZ I         055 10.52        55.8 0.32            146           74.0  39 
 RUS  HZ EP        054 52.48                             144   -0.2110  102 178 
 RUS  HN ES        055 11.00                             144   -0.6210  102 178 
 PTB  HZ EP        054 55.21                             132   -0.79 9  151 258 
 PTB  HZ I         055 22.14        54.5 0.50            126            151 258 
 TAM  HZ EP        054 56.76                             132    0.55 9  153 106 
 TAM  HZ I         055 17.32        33.1 0.32            125            153 106 
 TAM  HN ES        055 17.72                             132   -0.16 9  153 106 
 OCA  HZ EP        054 56.92                             131    0.03 9  159 352 
 OCA  HN ES        055 18.86                             131   -0.22 9  159 352 
 OCA  HZ I         055 24.66        45.5 0.38            124            159 352 
 SPBC HZ EP        054 57.46                             129   -0.08 9  167 219 
 SPBC HN ES        055 20.30                             129    0.05 9  167 219 
 SPBC HZ I         055 24.46        69.3 0.26            123            167 219 
 ZAR  HZ EP        055  1.27                             123   -0.05 8  206 291 
 ZAR  HN ES        055 26.47                             123   -0.51 8  206 291 
 ZAR  HZ I         055 32.72        43.8 0.30            116            206 291 
 NOR  HZ EP        055  4.53                             119   -0.23 8  238 234 
 NOR  HZ I         055 40.79        26.9 0.14            113            238 234 
 SML  HZ EP        055  4.79                             118   -0.42 8  243 334 
 SML  HN ES   1    055 33.31                             118   -0.58 6  243 334 
 SML  HZ I         055 38.24        60.2 0.08            112            243 334 
 CHI  HZ EP        055  6.40                             118   -0.24 8  251 196 
 CHI  HN ES        055 35.88                             118   -0.56 8  251 196 
 ROSC BZ EP        055  8.07                             117    0.96 8  256 211 
 ROSC BN ES   4    055 39.56                             117    2.28 0  256 211 
 ROSC HZ I         055 46.33        44.8 0.45            111            256 211 
 HEL  HZ EP        055  9.71                             115    0.51 7  275 256 
 HEL  HN ES        055 41.20                             115    0.19 7  275 256 
 HEL  HZ I         055 47.23        19.7 0.38            109            275 256 
 URE  HZ EP   4    055  8.78                             114   -1.12 0  286 291 
 URE  HN ES   4    055 39.31                             114   -2.94 0  286 291 
 URE  HZ I         055 42.27        20.9 0.14            108            286 291 
 GUY2CHZ EP        055 12.51                             113   -0.11 7  305 235 
 GUY2CHN ES   4    055 48.43                             113    1.35 0  305 235 
 GUY2CHZ I         055 55.07        24.6 0.38                           305 235 
 RREF HZ EP        055 15.69                             111    0.55 7  325 229 
 RREF HN ES   1    055 51.81                             111    0.24 5  325 229 
 RREF HZ I         055 57.90        19.2 0.28            106            325 229 
 CBOC HZ EP        055 15.85                             110   -0.04 7  337 252 
 CBOC HE ES   1    055 53.03                             110    0.12 5  337 252 
 ANIL HN ES   4    055 59.45                             109    1.39 0  361 225 
 PRA  HZ EP        055 21.62                             107   -0.84 6  395 210 
 PRA  HN ES        056  5.45                             107    0.85 6  395 210 
 PRA  HZ I         056  8.94        18.8 0.30            102            395 210 
 ORTC HZ EP        055 22.63                             107   -0.24 6  399 216 
 ORTC HN ES        056  5.44                             107    0.10 6  399 216 
 ORTC HZ I         056 12.32        13.0 1.04            102            399 216 
 SJC  HZ EP   4    055 22.69                             106   -1.42 0  409 326 
 SJC  HN ES   4    056  3.76                             106   -3.77 0  409 326 
 SJC  HZ I         056 26.53         6.9 2.26            101            409 326 
                                                                                
