 2013  728 0521 49.9 L   6.693 -73.157151.9  RSN  4 0.2 1.3LRSN                1
 GAP=218        0.55       6.4     5.1  4.6  0.3732E+01  0.2913E+01 -0.3802E+01E
 Epicentro: VILLANUEVA - SANTANDER                                             3
 ACTION:UPD 13-08-12 10:40 OP:ep   STATUS:               ID:20130728052149 L   I
 OLDACT:UP  13-07-28 09:42 OP:cam  STATUS:               ID:20130728051959     3
 OLDACT:REG 13-07-28 08:15 OP:cam  STATUS:               ID:20130728051959     3
 2013-07-28-0519-59M.COL___267                                                 6
 STAT SP IPHASW D HRMM SECON CODA AMPLIT PERI AZIMU VELO AIN AR TRES W  DIS CAZ7
 BAR2 SZ EP        522 10.23                             176    0.1110 11.4 194 
 BAR2 SZ ES        522 25.67                             176   -0.2010 11.4 194 
 BAR2 SZ I         522 26.51         4.0 0.16            164           11.4 194 
 BRR  HZ EP        522 12.19                             152    0.1510 76.6 307 
 BRR  HN ES        522 29.47                             152    0.1810 76.6 307 
 BRR  HZ I         522 29.82         4.7 0.60            148           76.6 307 
 PTB  HZ EP        522 17.21                             134    0.08 9  145 263 
 PTB  HN ES   1    522 38.11                             134   -0.24 7  145 263 
 PTB  HZ I         522 45.42         2.3 0.38            129            145 263 
 SML  HZ EP   1    522 27.46                             118   -0.55 6  254 337 
                                                                                
