 2014 1028 0834 54.4 L   6.791 -73.154146.9  RSN  6 0.4 1.7LRSN                1
 GAP=136        0.97       4.6     4.9  6.6 -0.5614E+01  0.4274E+01  0.3277E+01E
 Epicentro: LOS SANTOS - SANTANDER                                             3
 ACTION:UPD 14-11-29 23:57 OP:nd   STATUS:               ID:20141028083454 L   I
 OLDACT:DUP 14-10-30 18:36 OP:cam  STATUS:               ID:20141028082821d    3
 OLDACT:DUP 14-10-30 18:33 OP:cam  STATUS:               ID:20141028082820d    3
 OLDACT:UP  14-10-30 18:33 OP:cam  STATUS:               ID:20141028082819     3
 OLDACT:REG 14-10-30 15:31 OP:cam  STATUS:               ID:20141028082819     3
 2014-10-28-0828-19M.COL___271                                                 6
 STAT SP IPHASW D HRMM SECON CODA AMPLIT PERI AZIMU VELO AIN AR TRES W  DIS CAZ7
 BAR2 SZ EP        835 14.19                             171    0.0310 22.2 188 
 BAR2 SZ ES        835 29.48                             171   -0.0810 22.2 188 
 BAR2 SZ I         835 30.23        12.0 0.36            171           22.2 188 
 BRR  HZ EP        835 16.08                             153    0.4110 70.9 300 
 BRR  HN ES        835 32.75                             153    0.5010 70.9 300 
 BRR  HN I         835 36.20        18.0 0.18            151           70.9 300 
 PAM  SZ EP        835 17.08                             151    0.2510 78.7  40 
 PAM  SN ES        835 33.74                             151   -0.5810 78.7  40 
 PAM  SZ I         835 36.14         9.7 0.50            153           78.7  40 
 RUS  HZ EP        835 18.16                             144   -0.0510 99.7 175 
 RUS  HN ES        835 37.00                             144    0.2310 99.7 175 
 RUS  HZ I         835 37.86         3.8 0.30            147           99.7 175 
 PTB  HZ EP        835 20.65                             132   -0.72 9  147 259 
 PTB  HN ES        835 42.21                             132   -0.19 9  147 259 
 PTB  HN I         835 47.40        10.1 0.16            133            147 259 
 SPBC HZ EP        835 23.23                             129    0.36 9  162 219 
 SPBC HN ES        835 44.80                             129   -0.27 9  162 219 
 SPBC HZ I         835 47.73         6.5 0.20            131            162 219 
                                                                                
