 2014  128 0830 20.6 L   6.790 -73.161137.5  RSN  5 0.2 1.3LRSN                1
 GAP=141        0.55       2.6     3.1  4.0 -0.2245E+01  0.2877E+01  0.1683E+01E
 Epicentro: LOS SANTOS - SANTANDER                                             3
 ACTION:UPD 14-03-13 09:59 OP:ep   STATUS:               ID:20140128083020 L   I
 OLDACT:REG 14-01-28 08:06 OP:stll STATUS:               ID:20140128083000     3
 2014-01-28-0830-00M.COL___285                                                 6
 STAT SP IPHASW D HRMM SECON CODA AMPLIT PERI AZIMU VELO AIN AR TRES W  DIS CAZ7
 BAR2 SZ EP        830 39.39                             170    0.1710 22.0 186 
 BAR2 SZ ES        830 53.43                             170   -0.3010 22.0 186 
 BAR2 SZ I         830 57.04         9.1 0.28            170           22.0 186 
 PAM  SZ EP        830 41.97                             149   -0.1010 79.3  40 
 PAM  SN ES        830 58.95                             149    0.1410 79.3  40 
 PAM  SZ I         831  0.39         3.4 0.18            152           79.3  40 
 RUS  HZ EP        830 43.72                             142    0.2410 99.6 175 
 RUS  HZ I         830 44.28         1.7 0.26            146           99.6 175 
 RUS  HN ES        831  1.30                             142   -0.0310 99.6 175 
 PTB  HZ EP        830 46.48                             130   -0.26 9  146 259 
 PTB  HN ES        831  7.33                             130    0.20 9  146 259 
 PTB  HZ I         831 14.98         4.8 0.26            130            146 259 
 CHI  HZ EP        830 57.44                             115   -0.26 8  247 195 
 CHI  HZ I         830 58.13         1.1 0.34            118            247 195 
 CHI  HN ES        831 26.76                             115    0.13 8  247 195 
                                                                                
