 2016  528 0720  7.2 L   6.761 -73.108144.5  RSN  7 0.4 1.8LRSN                1
 GAP=143        0.98       3.5     6.4  6.5 -0.5931E+01  0.3982E+01 -0.1069E+01E
 Epicentro: LOS SANTOS - SANTANDER                                             3
 ACTION:UPD 16-08-18 17:50 OP:cam  STATUS:               ID:20160528072007 L   I
 OLDACT:UP  16-05-28 15:33 OP:ar   STATUS:               ID:20160528071744     3
 OLDACT:UP  16-05-28 15:32 OP:ar   STATUS:               ID:20160528071744     3
 OLDACT:REG 16-05-28 12:41 OP:ar   STATUS:               ID:20160528071744     3
 2016-05-28-0717-44M.COL___307                                                 6
 STAT SP IPHASW D HRMM SECON CODA AMPLIT PERI AZIMU VELO AIN AR TRES W  DIS CAZ7
 BAR2 EZ EP        720 26.35                             172   -0.2310 20.4 204 
 BAR2 EZ ES        720 40.93                             172   -0.7910 20.4 204 
 BAR2 EZ I         720 44.08        18.0 0.28            165           20.4 204 
 BRR  HZ EP        720 28.17                             150   -0.3310 77.0 300 
 BRR  HN ES        720 45.19                             150    0.0310 77.0 300 
 BRR  HZ I         720 49.11        11.6 0.30            144           77.0 300 
 PAM  EZ EP        720 29.18                             150   -0.1110 78.2  35 
 PAM  EN ES        720 46.81                             150    0.2610 78.2  35 
 PAM  EZ I         720 47.12         7.4 0.24            154           78.2  35 
 RUS  HZ EP        720 30.45                             145   -0.0110 96.1 178 
 RUS  HN ES        720 49.19                             145    0.5510 96.1 178 
 RUS  HZ I         720 50.30         4.6 0.34            147           96.1 178 
 SPBC HZ EP        720 35.30                             129   -0.20 9  163 221 
 SPBC HN ES        720 58.06                             129    0.45 9  163 221 
 SPBC HZ I         721  5.10         9.2 0.24            128            163 221 
 OCA  HZ EP        720 35.89                             128    0.07 9  165 352 
 OCA  HN ES        720 58.63                             128    0.45 9  165 352 
 OCA  HZ I         721  4.72        11.8 0.22            128            165 352 
 URE  HZ EP   4    720 51.05                             113    2.27 0  289 292 
 URE  HN ES   4    721 17.38                             113   -3.87 0  289 292 
 URE  HZ I         721 29.93         3.6 0.36            112            289 292 
                                                                                
