 2016  728 0216 37.7 L   6.116 -73.642110.6  RSN  6 0.3 1.3LRSN                1
 GAP=179        0.71       2.9     3.3  5.7 -0.3232E+01  0.5128E+01 -0.1624E+01E
 Epicentro: CHIPATA - SANTANDER                                                3
 ACTION:UPD 17-03-29 16:55 OP:lp   STATUS:               ID:20160728021637 L   I
 OLDACT:UP  16-07-28 15:29 OP:edw  STATUS:               ID:20160728020744     3
 OLDACT:UP  16-07-28 15:27 OP:edw  STATUS:               ID:20160728020744     3
 OLDACT:REG 16-07-28 13:06 OP:edw  STATUS:               ID:20160728020744     3
 2016-07-28-0207-44M.COL___347                                                 6
 STAT SP IPHASW D HRMM SECON CODA AMPLIT PERI AZIMU VELO AIN AR TRES W  DIS CAZ7
 RUS  HZ EP   4    217 11.45                             147   15.91 0 66.6 112 
 RUS  HN ES   4    217 47.97                             147   38.50 0 66.6 112 
 SPBC HZ EP        216 55.06                             145   -0.1410 70.0 223 
 SPBC HN ES        217  9.03                             145    0.1510 70.0 223 
 SPBC HZ I         217 10.86         7.1 0.10            146           70.0 223 
 BAR2 EZ EP        216 55.42                             144   -0.2110 73.1  44 
 BAR2 EZ ES        217  9.59                             144   -0.0510 73.1  44 
 PTB  HZ EP        216 57.83                             134    0.2310  102 297 
 PTB  HE ES        217 13.27                             134    0.1310  102 297 
 PTB  HZ I         217 15.26         2.5 0.14            133            102 297 
 BRR  HN ES        217 14.50                             132    0.0910  110 356 
 NOR  HZ EP        217  2.77                             122    0.55 9  149 246 
 NOR  HN ES        217 20.81                             122   -0.55 9  149 246 
 NOR  HZ I         217 22.68         4.0 0.18            123            149 246 
 ZAR  HZ EP        217  7.83                             113   -0.16 9  203 319 
 ZAR  HN ES        217 31.51                             113   -0.13 9  203 319 
 ZAR  HZ I         217 36.18         2.7 0.09            114            203 319 
                                                                                
