 2011 1028 0147 43.1 L   6.781 -73.099146.5  RSN  4 0.3 1.5LRSN                1
 GAP=143        0.47       4.9     7.0  7.0  0.1584E+01  0.2321E+01 -0.2641E+00E
 Epicentro: LOS SANTOS - SANTANDER                                             3
 ACTION:UPD 12-07-13 16:06 OP:ep   STATUS:               ID:20111028014743 L   I
 2011-10-28-0144-18S.COL___175                                                 6
 STAT SP IPHASW D HRMM SECON CODA AMPLIT PERI AZIMU VELO AIN AR TRES W  DIS CAZ7
 BAR2 SZ EP   1    148  2.62                             171   -0.19 7 22.8 204 
 BAR2 SZ I         148  3.22         8.6 0.39                          22.8 204 
 BAR2 SZ ES   2    148 17.67                             171   -0.51 5 22.8 204 
 PAM  SZ EP   2    148  5.49                             151    0.18 5 76.0  36 
 PAM  SN ES   2    148 22.73                             151    0.10 5 76.0  36 
 BRR  HZ EP   1    148  4.52                             151   -0.13 7 76.7 298 
 BRR  HZ I         148  4.90        10.0 0.10                          76.7 298 
 BRR  HN ES   2    148 21.88                             151    0.42 5 76.7 298 
 RUS  HZ EP   2    148  6.94                             145    0.19 5 98.2 179 
 RUS  HZ I         148  8.79         2.0 0.16                          98.2 179 
 RUS  HN ES   2    148 25.53                             145    0.32 5 98.2 179 
                                                                                
