 2013  228 0525 34.7 L   6.901 -73.148111.5  RSN  5 0.3 1.2LRSN                1
 GAP=212        0.64       5.5     5.9 11.4  0.3834E+01 -0.1547E+01 -0.1973E+02E
 Epicentro: BETULIA - SANTANDER                                                3
 ACTION:UPD 13-03-12 09:36 OP:ep   STATUS:               ID:20130228052534 L   I
 2013-02-28-0520-00M.COL___228                                                 6
 STAT SP IPHASW D HRMM SECON CODA AMPLIT PERI AZIMU VELO AIN AR TRES W  DIS CAZ7
 BAR2 SZ EP   1    525 50.54                             162   -0.06 7 34.3 186 
 BRR  HZ EP   1    525 52.31                             147    0.35 7 66.4 290 
 BRR  HE ES   1    526  5.42                             147    0.02 7 66.4 290 
 PTB  HN ES   1    526 18.17                             122   -0.44 7  150 255 
 PTB  HZ I         526 26.62         2.1 0.50            108            150 255 
 ZAR  HE ES   1    526 28.59                             114    0.45 6  200 289 
 SML  HN ES   1    526 34.47                             110   -0.40 6  234 334 
 SML  HZ I         526 40.83         1.6 0.13            102            234 334 
                                                                                
