 2012  228 0847 36.5 L   6.682 -73.213145.8  RSN  4 0.3 1.4LRSN                1
 GAP=211        0.67       7.2     6.1  7.6  0.1632E+02  0.2362E+01  0.6142E+01E
 ACTION:UP  12-03-07 16:35 OP:epov STATUS:               ID:20120228084736 L   I
 2012-02-28-0840-00M.COL___191                                                 6
 STAT SP IPHASW D HRMM SECON CODA AMPLIT PERI AZIMU VELO AIN AR TRES W  DIS CAZ7
 BAR2 SZ EP        847 55.63                             176   -0.3510 10.5 161 
 BAR2 SZ ES   2    848 10.51                             176   -0.64 5 10.5 161 
 BAR2 SZ I         848 11.82         5.4 0.23                          10.5 161 
 BRR  HZ EP        847 57.98                             152    0.2210 72.5 310 
 BRR  HZ I         847 58.91         7.1 0.11                          72.5 310 
 BRR  HE ES   1    848 14.65                             152    0.33 7 72.5 310 
 RUS  HZ EP   1    847 59.61                             147    0.16 7 88.4 171 
 RUS  HE ES   2    848 17.88                             147    0.55 5 88.4 171 
 RUS  HZ I         848 19.32         2.2 0.29                          88.4 171 
 PTB  HZ EP        848  2.69                             134    0.01 9  138 264 
 PTB  HN ES   1    848 22.81                             134   -0.25 7  138 264 
                                                                                
