 2013  128 0738 27.7 L   6.781 -73.152140.2  RSN 10 0.5 2.1LRSN 2.8WRSN        1
 SPEC AVERAGE  MO 13.3 ST  5.1 OM  1.7 f0 5.50 R0.2773 AL 2.21 WI 17.0 MW  2.8 3
 SPEC SD       MO  0.2 ST  3.1 OM  0.5 f0 1.07 R0.0511 AL      WI      MW  0.1 3
 GAP= 71        1.23       3.9     3.6  7.0  0.9633E+00  0.4446E+01  0.4585E+01E
 Epicentro: LOS SANTOS - SANTANDER                                             3
 SPEC ZAR HH N MO 13.3 ST 10.1 OM  1.5 f0 7.22 R0.2036 AL 2.95 WI 18.3 MW  2.8 3
 SPEC ZAR HH N T 73924 K 0.000 GD  247 VS 4.20 DE 3.20 Q0300.0 QA 0.60 VS 4.20 3
 SPEC OCA HH N MO 13.5 ST  4.4 OM  1.8 f0 4.54 R0.3238 AL 2.34 WI 24.6 MW  3.0 3
 SPEC OCA HH N T 73916 K 0.000 GD  214 VS 4.20 DE 3.20 Q0300.0 QA 0.60 VS 4.20 3
 SPEC PTB HH N MO 13.0 ST  1.0 OM  1.3 f0 4.21 R0.3492 AL 1.17 WI 17.4 MW  2.6 3
 SPEC PTB HH N T 73913 K 0.000 GD  203 VS 4.20 DE 3.20 Q0300.0 QA 0.60 VS 4.20 3
 SPEC PAM SH Z MO 13.3 ST  4.1 OM  0.9 f0 5.38 R0.2732 AL 2.05 WI 10.7 MW  2.8 3
 SPEC PAM SH Z T 73849 K 0.000 GD  161 VP 7.60 DE 3.20 Q0300.0 QA 0.60 VS 4.20 3
 SPEC BRR HH N MO 13.2 ST  2.8 OM  1.6 f0 5.08 R0.2894 AL 2.84 WI 17.7 MW  2.7 3
 SPEC BRR HH N T 739 4 K 0.000 GD  157 VS 4.20 DE 3.20 Q0300.0 QA 0.60 VS 4.20 3
 SPEC BAR2SH Z MO 13.3 ST  8.1 OM  1.0 f0 6.54 R0.2248 AL 1.92 WI 13.4 MW  2.8 3
 SPEC BAR2SH Z T 73846 K 0.000 GD  141 VP 7.60 DE 3.20 Q0300.0 QA 0.60 VS 4.20 3
 ACTION:UPD 13-02-15 09:17 OP:ep   STATUS:               ID:20130128073827 L   I
 2013-01-28-0728-48M.COL___171                                                 6
 STAT SP IPHASW D HRMM SECON CODA AMPLIT PERI AZIMU VELO AIN AR TRES W  DIS CAZ7
 BAR2 SZ IP        738 46.66                             171    0.0910 21.1 189 
 BAR2 SZ ES        739  1.12                             171   -0.2110 21.1 189 
 BAR2 SZ I         739  2.27        32.5 0.24            171           21.1 189 
 BRR  HZ IP     D  738 48.64                             151    0.4110 71.6 300 
 BRR  HN ES        739  5.11                             151    0.8410 71.6 300 
 BRR  HN I         739  5.66        41.2 0.22            152           71.6 300 
 PAM  SZ IP        738 49.87                             149    0.4510 79.5  39 
 PAM  SZ I         738 50.06        20.6 0.22            150           79.5  39 
 PAM  SE ES        739  6.68                             149    0.3010 79.5  39 
 RUS  HZ EP        738 50.85                             143    0.1410 98.5 176 
 RUS  HE ES        739  8.94                             143    0.2510 98.5 176 
 RUS  HN I         739 10.34        19.1 0.38            144           98.5 176 
 PTB  HZ EP        738 53.36                             131   -0.71 9  147 260 
 PTB  HN ES        739 14.03                             131   -0.64 9  147 260 
 PTB  HN I         739 16.33        14.9 0.24            131            147 260 
 TAM  HZ IP     D  738 55.14                             129    0.22 9  155 104 
 TAM  HZ I         738 55.27        14.3 0.20            130            155 104 
 TAM  HN ES        739 15.27                             129   -0.91 9  155 104 
 OCA  HZ EP   2    738 55.14                             128   -0.60 5  162 353 
 OCA  HN ES        739 16.81                             128   -0.83 9  162 353 
 OCA  HE I         739 21.39        27.5 0.22            129            162 353 
 ZAR  HZ EP   1    739  0.26                             121    0.50 6  204 293 
 ZAR  HN ES        739 24.71                             121   -0.09 9  204 293 
 CHI  HZ EP        739  5.53                             116    0.72 8  246 195 
 CHI  HE ES        739 33.37                             116   -0.41 8  246 195 
 CHI  HN I         739 37.09         3.9 0.40            117            246 195 
 HEL  HZ EP   1    739  7.69                             114    0.23 6  271 256 
 HEL  HE ES        739 38.34                             114   -0.16 8  271 256 
                                                                                
