 2015  228 0033  5.4 L   6.793 -73.147149.1  RSN 13 0.4 2.3LRSN                1
 GAP=137        1.04       2.7     4.6  5.2 -0.3465E+01  0.5537E+01  0.1290E+01E
 Epicentro: LOS SANTOS - SANTANDER                                             3
 ACTION:UPD 15-04-30 21:29 OP:nd   STATUS:               ID:20150228003305 L   I
 OLDACT:REG 15-02-28 13:33 OP:carl STATUS:               ID:20150228002747     3
 2015-02-28-0027-47M.COL___296                                                 6
 STAT SP IPHASW D HRMM SECON CODA AMPLIT PERI AZIMU VELO AIN AR TRES W  DIS CAZ7
 BAR2 EZ EP        033 25.47                             171    0.0310 22.6 190 
 BAR2 EZ ES        033 40.84                             171   -0.2110 22.6 190 
 BAR2 EZ I         033 43.24        29.7 0.44            169           22.6 190 
 BRR  HZ EP        033 27.23                             153    0.2810 71.4 299 
 BRR  HN ES        033 44.87                             153    1.1410 71.4 299 
 BRR  HZ I         033 49.04        17.3 0.14            151           71.4 299 
 PAM  SZ EP        033 28.20                             151    0.1710 78.0  39 
 PAM  SN ES        033 45.55                             151   -0.1110 78.0  39 
 PAM  SZ I         033 47.64        30.4 0.48            155           78.0  39 
 RUS  HZ EP        033 29.26                             145   -0.1910 99.9 176 
 RUS  HN ES        033 47.96                             145   -0.2310 99.9 176 
 RUS  HZ I         033 49.22        17.9 0.40            146           99.9 176 
 PTB  HZ EP        033 32.33                             133   -0.31 9  148 259 
 PTB  HN ES        033 53.40                             133   -0.47 9  148 259 
 PTB  HZ I         033 55.67        17.1 0.18            132            148 259 
 OCA  HZ EP        033 34.85                             130    0.79 9  161 353 
 OCA  HN ES        033 56.11                             130   -0.28 9  161 353 
 OCA  HZ I         034  0.33        26.1 0.28            132            161 353 
 SPBC HZ EP        033 34.27                             130    0.15 9  163 219 
 SPBC HN ES        033 56.15                             130   -0.35 9  163 219 
 SPBC HZ I         034  1.23        44.5 0.10            130            163 219 
 NOR  HZ EP        033 41.44                             119    0.15 8  234 235 
 NOR  HN ES        034  9.49                             119    0.22 8  234 235 
 NOR  HZ I         034 14.67        17.7 0.30            120            234 235 
 SML  HZ EP        033 41.56                             118   -0.74 8  244 335 
 SML  HN ES        034 10.30                             118   -0.77 8  244 335 
 SML  HZ I         034 13.94        41.7 0.10            119            244 335 
 CHI  HZ EP        033 43.37                             118    0.14 8  248 195 
 CHI  HN ES        034 12.58                             118   -0.14 8  248 195 
 CHI  HZ I         034 18.44         6.4 0.58            119            248 195 
 RREF HZ EP   4    033 53.28                             111    1.63 0  321 229 
 RREF HN ES   4    034 29.56                             111    1.86 0  321 229 
 RREF HZ I         034 36.23        11.8 0.30            112            321 229 
 TOL  SZ EP        033 54.26                             110    0.51 7  343 225 
 TOL  SN ES        034 31.42                             110   -0.02 7  343 225 
 TOL  SZ I         034 36.63         8.3 0.70            111            343 225 
 PRA  HZ EP        033 58.89                             107   -0.09 6  391 210 
 PRA  HN ES        034 40.93                             107    0.18 6  391 210 
 PRA  HZ I         034 46.16         7.5 0.50            108            391 210 
                                                                                
