 2015 1228 0113 59.2 L   6.794 -73.154148.0  RSN 13 0.4 1.9LRSN                1
 GAP=136        0.96       2.4     3.8  5.0 -0.1244E+01  0.5175E+01  0.9190E+00E
 Epicentro: LOS SANTOS - SANTANDER                                             3
 ACTION:UPD 16-02-04 15:08 OP:cam  STATUS:               ID:20151228011359 L   I
 OLDACT:REG 15-12-28 12:34 OP:ak   STATUS:               ID:20151228010750     3
 2015-12-28-0107-50M.COL___331                                                 6
 STAT SP IPHASW D HRMM SECON CODA AMPLIT PERI AZIMU VELO AIN AR TRES W  DIS CAZ7
 BAR2 EZ EP   1    114 19.35                             171    0.23 7 22.5 188 
 BAR2 EZ ES        114 34.56                             171   -0.0610 22.5 188 
 BAR2 EZ I         114 35.67        39.4 0.16            170           22.5 188 
 BRR  HZ EP        114 20.94                             153    0.3410 70.7 299 
 BRR  HN ES        114 38.10                             153    0.8410 70.7 299 
 BRR  HZ I         114 42.12        11.4 0.18            152           70.7 299 
 PAM  EZ EP        114 21.89                             151    0.1310 78.5  40 
 PAM  EN ES        114 39.37                             151    0.0510 78.5  40 
 PAM  EZ I         114 41.54         5.1 0.32            155           78.5  40 
 RUS  HZ EP        114 23.05                             145   -0.1110100.0 175 
 RUS  HN ES        114 41.77                             145   -0.0510100.0 175 
 RUS  HZ I         114 42.99        10.2 0.22            146          100.0 175 
 PTB  HZ EP        114 25.92                             133   -0.37 9  147 259 
 PTB  HN ES        114 46.84                             133   -0.55 9  147 259 
 PTB  HZ I         114 49.95         6.2 0.28            133            147 259 
 OCA  HZ EP   2    114 28.06                             130    0.29 5  161 354 
 OCA  HN ES        114 49.34                             130   -0.69 9  161 354 
 OCA  HZ I         114 54.83        11.2 0.44            133            161 354 
 SPBC HZ EP        114 27.73                             130   -0.07 9  162 219 
 SPBC HN ES        114 50.22                             130    0.14 9  162 219 
 SPBC HZ I         114 58.02        10.7 0.12            131            162 219 
 ZAR  HZ EP        114 32.27                             123    0.51 9  203 292 
 ZAR  HN ES        114 57.52                             123    0.39 9  203 292 
 ZAR  HZ I         115  3.54         6.5 0.26            124            203 292 
 NOR  HZ EP        114 35.18                             119    0.21 8  233 234 
 NOR  HE ES        115  2.07                             119   -0.77 8  233 234 
 NOR  HZ I         115  7.80         4.5 0.38            120            233 234 
 SML  HZ EP        114 35.43                             118   -0.58 8  244 336 
 SML  HN ES        115  4.42                             118   -0.28 8  244 336 
 CHI  HZ EP        114 37.14                             118    0.18 8  248 195 
 CHI  HN ES        115  6.05                             118   -0.33 8  248 195 
 CHI  HZ I         115 15.17         3.0 0.32            119            248 195 
 GUY2CHZ EP   2    114 43.92                             113    1.11 4  300 235 
 GUY2CHN ES   1    115 17.37                             113    0.57 5  300 235 
 GUY2CHZ I         115 31.30         3.4 0.54                           300 235 
 PRA  HZ EP   4    114 50.08                             107   -2.63 0  391 209 
 PRA  HE ES        115 34.50                             107    0.09 6  391 209 
 PRA  HZ I         115 37.81         4.0 0.32            108            391 209 
                                                                                
