 2012  628 0817 11.5 L   6.770 -73.184147.9  RSN  4 0.3 1.3LRSN                1
 GAP=231        0.65       6.9     6.5  7.0  0.2218E+02  0.4058E+01  0.1101E+01E
 Epicentro: LOS SANTOS - SANTANDER                                             3
 ACTION:UPD 12-08-06 17:53 OP:ep   STATUS:               ID:20120628081711 L   I
 2012-06-28-0810-00M.COL___201                                                 6
 STAT SP IPHASW D HRMM SECON CODA AMPLIT PERI AZIMU VELO AIN AR TRES W  DIS CAZ7
 BAR2 SZ EP   1    817 31.06                             172   -0.27 7 19.6 179 
 BAR2 SZ ES   1    817 46.29                             172   -0.50 7 19.6 179 
 BAR2 SZ I         817 49.20         5.8 0.33                          19.6 179 
 BRR  HZ EP   1    817 32.93                             154    0.15 7 69.2 303 
 BRR  HZ I         817 37.52         3.8 0.16                          69.2 303 
 BRR  HN ES   1    817 49.80                             154    0.43 7 69.2 303 
 RUS  HZ EP   1    817 35.55                             145    0.28 7 97.6 173 
 RUS  HN ES   1    817 54.06                             145    0.26 7 97.6 173 
 RUS  HZ I         817 55.38         2.7 0.29                          97.6 173 
 PTB  HZ EP   1    817 37.92                             133   -0.31 7  143 260 
 PTB  HN ES   1    817 58.97                             133   -0.09 7  143 260 
 PTB  HZ I         818  2.41         2.7 0.12                           143 260 
                                                                                
