 2013  428 0313  1.8 L   6.580 -73.598106.0  RSN  5 0.4 1.3LRSN                1
 GAP=101        0.97       5.5     4.4 10.5  0.1045E+01  0.1251E+02  0.1785E+02E
 Epicentro: EL CARMEN DE CHUCURI - SANTANDER                                   3
 ACTION:UPD 13-05-22 14:41 OP:EP   STATUS:               ID:20130428031301 L   I
 2013-04-28-0310-00M.COL___248                                                 6
 STAT SP IPHASW D HRMM SECON CODA AMPLIT PERI AZIMU VELO AIN AR TRES W  DIS CAZ7
 BAR2 SZ EP        313 17.46                             155   -0.0810 46.0  88 
 BAR2 SZ ES   1    313 29.01                             155   -0.84 7 46.0  88 
 BAR2 SZ I         313 30.89        11.8 0.30            158           46.0  88 
 BRR  HZ EP        313 18.08                             148    0.0910 59.6 348 
 BRR  HN ES   1    313 31.43                             148    0.78 7 59.6 348 
 BRR  HZ I         313 34.04         3.7 0.34            149           59.6 348 
 RUS  HZ IP     C  313 21.25                             135   -0.1110 95.0 143 
 RUS  HN ES   1    313 37.35                             135    0.69 7 95.0 143 
 PTB  HZ IP     C  313 20.54                             135   -0.1810 95.1 267 
 PTB  HN ES   1    313 35.12                             135   -0.39 7 95.1 267 
 PTB  HZ I         313 36.56         5.2 0.42            137           95.1 267 
 NOR  HE ES        313 51.04                             115    0.16 9  180 231 
                                                                                
