 2010  828 0334 21.0 L   6.879 -73.266118.4  RSN 10 0.3 1.8LRSN                1
 GAP=139        0.55       2.1     4.5  4.3 -0.1589E+01  0.1704E+01  0.1749E+00E
 Epicentro: BETULIA - SANTANDER                                                3
 ACTION:UP  10-09-07 10:58 OP:vdl  STATUS:               ID:20100828033421 L   I
 2010-08-28-0330-53S.COL___119                                                 6
 STAT SP IPHASW D HRMM SECON CODA AMPLIT PERI AZIMU VELO SNR AR TRES W  DIS CAZ7
 GIR2 SZ EP   2    334 37.37                             168     0.2 5   24  20 
 BAR2 SZ IP        334 37.78                             163     0.210   33 164 
 BAR2 SZ ES   1    334 50.44                             163    -0.1 7   33 164 
 BAR2 SZ I         334 52.07        43.4 0.27                            33 164 
 BRR  HZ IP     C  334 38.17                             153    -0.110   55 297 
 BRR  HN ES   1    334 51.86                             153     0.1 7   55 297 
 RUS  HZ EP   2    334 42.53                             134    -0.5 5  111 169 
 RUS  HN ES   2    335  0.11                             134    -0.1 5  111 169 
 RUS  HZ I         335  1.49         6.1 0.26                           111 169 
 GUE  SZ EP   1    334 42.76                             134    -0.1 7  112  20 
 GUE  SZ I         334 47.14         7.9 0.15                           112  20 
 GRA  SZ EP   2    334 43.56                             131     0.0 5  122  25 
 GRA  SZ I         335  5.01        10.1 0.29                           122  25 
 OCA  SZ IP        334 46.23                             125    -0.1 9  151 358 
 OCA  SZ ES        335  6.24                                     0.2 9  151 358 
 OCA  SZ I         335  7.87        14.4 0.70                           151 358 
 CHI  HZ EP   2    334 57.54                             110    -0.4 4  254 192 
 CHI  HE ES   2    335 27.34                             110     0.6 4  254 192 
 CHI  HZ I         335 29.90         3.9 0.43                           254 192 
 HEL  HZ EP   2    334 59.28                             110     0.5 4  262 253 
 HEL  HN ES   2    335 27.40                             110    -0.8 4  262 253 
 HEL  HZ I         335 32.56         3.6 0.63                           262 253 
 PRA  HZ EP   1    335 13.76                             101    -0.1 4  393 207 
 PRA  HN ES   1    335 55.58                             101     0.5 4  393 207 
 PRA  HZ I         336  2.11         3.6 0.37                           393 207 
                                                                                
