 2016  628 0517 18.3 L   6.805 -73.083144.4  RSN  7 0.4 1.5LRSN                1
 GAP=244        1.02       5.0     5.6  6.5  0.8151E+01  0.9329E+01  0.1900E+01E
 Epicentro: LOS SANTOS - SANTANDER                                             3
 ACTION:UPD 16-07-21 22:23 OP:rebc STATUS:               ID:20160628051718 L   I
 OLDACT:REG 16-06-28 12:52 OP:edw  STATUS:               ID:20160628050748     3
 2016-06-28-0507-48M.COL___340                                                 6
 STAT SP IPHASW D HRMM SECON CODA AMPLIT PERI AZIMU VELO AIN AR TRES W  DIS CAZ7
 BAR2 EZ EP        517 37.81                             170   -0.0110 26.0 205 
 BAR2 EZ ES        517 52.69                             170   -0.3610 26.0 205 
 BAR2 EZ I         517 54.43         4.4 0.42                          26.0 205 
 BRR  HZ EP        517 39.84                             150    0.1910 77.1 296 
 BRR  HN ES        517 57.01                             150    0.7110 77.1 296 
 RUS  HZ EP        517 41.95                             144    0.0110  101 180 
 RUS  HE ES        518  0.70                             144    0.3210  101 180 
 RUS  HZ I         518  1.62         1.8 0.34                           101 180 
 PTB  HZ EP        517 45.31                             130   -0.48 9  155 259 
 PTB  HN ES        518  6.92                             130   -0.32 9  155 259 
 PTB  HZ I         518 12.37         5.0 0.26                           155 259 
 SPBC HZ EP        517 46.81                             128   -0.35 9  168 221 
 SPBC HE ES        518  9.22                             128   -0.45 9  168 221 
 SPBC HZ I         518 14.42         6.2 0.18                           168 221 
 ZAR  HZ EP        517 51.30                             121   -0.00 8  210 291 
 ZAR  HN ES        518 16.68                             121   -0.37 8  210 291 
 ZAR  HZ I         518 17.95         3.5 0.10                           210 291 
 GUY2CHZ EP        518  3.23                             112    0.70 7  307 235 
 GUY2CHE ES        518 37.78                             112    0.76 7  307 235 
 GUY2CHZ I         518 44.73         2.7 0.74                           307 235 
                                                                                
