 2017  828 0125 17.5 L   6.810 -73.163142.8  RSN  5 0.1 1.3LRSN                1
 GAP=134        0.45       2.1     2.9  3.3 -0.1990E+01  0.8360E+00  0.1061E+01E
 Epicentro: LOS SANTOS - SANTANDER                                             3
 ACTION:UPD 17-09-04 20:25 OP:rebc STATUS:               ID:20170828012517 L   I
 OLDACT:REG 17-08-28 12:07 OP:dhb  STATUS:               ID:20170828011739     3
 2017-08-28-0118-00M.COL___417                                                 6
 STAT SP IPHASW D HRMM SECON CODA AMPLIT PERI AZIMU VELO AIN AR TRES W  DIS CAZ7
 BAR2 EZ ES        125 51.94                             170    0.1510 24.2 185 
 BAR2 EZ I         125 53.96         3.2 0.24            169           24.2 185 
 BRR  HZ EP        125 38.33                             153    0.1810 69.0 298 
 BRR  HN ES        125 54.23                             153   -0.0710 69.0 298 
 BRR  HZ I         125 58.01         8.8 0.32            151           69.0 298 
 PAM  EZ IP     C  125 39.26                             150   -0.1110 77.8  41 
 PAM  EN ES        125 56.40                             150   -0.0810 77.8  41 
 PAM  EZ I         125 58.50         2.7 0.49            155           77.8  41 
 RUS  HZ EP        125 41.24                             143    0.2410  102 175 
 RUS  HN ES        125 59.25                             143   -0.1210  102 175 
 RUS  HZ I         126  0.96         3.1 0.61            145            102 175 
 SPBC HZ IP     D  125 45.48                             128   -0.21 9  163 218 
 SPBC HN ES        126  7.69                             128   -0.02 9  163 218 
 SPBC HZ I         126 14.81         2.6 0.11            129            163 218 
                                                                                
