 2016  228 0436 57.6 L   6.397 -73.653101.7  RSN 17 0.5 2.0LRSN                1
 GAP= 85        1.18       3.0     2.5  6.1 -0.8174E+00  0.3798E+01  0.5473E+00E
 Epicentro: SANTA HELENA DEL OPON - SANTANDER                                  3
 ACTION:UPD 16-03-04 21:30 OP:rebc STATUS:               ID:20160228043657 L   I
 OLDACT:UP  16-02-28 14:18 OP:drio STATUS:               ID:20160228042748     3
 OLDACT:REG 16-02-28 12:34 OP:drio STATUS:               ID:20160228042748     3
 2016-02-28-0427-48M.COL___318                                                 6
 STAT SP IPHASW D HRMM SECON CODA AMPLIT PERI AZIMU VELO AIN AR TRES W  DIS CAZ7
 BAR2 EZ EP        437 13.88                             149    0.3810 56.4  67 
 BAR2 EZ ES        437 26.78                             149    0.8710 56.4  67 
 BAR2 EZ I         437 28.64        60.5 0.34            142           56.4  67 
 RUS  HZ EP        437 15.74                             137   -0.1610 84.2 131 
 RUS  HE ES        437 29.96                             137   -0.2310 84.2 131 
 RUS  HZ I         437 33.50         7.2 0.32            133           84.2 131 
 PTB  HZ EP        437 14.91                             135   -0.8410 90.2 280 
 PTB  HN ES        437 29.00                             135   -0.9310 90.2 280 
 PTB  HZ I         437 31.62        22.6 0.24            132           90.2 280 
 SPBC HZ EP        437 16.00                             133   -0.2410 94.5 209 
 SPBC HN ES        437 30.72                             133   -0.0610 94.5 209 
 SPBC HZ I         437 33.04        43.5 0.32            132           94.5 209 
 PAM  EZ EP        437 22.16                             120    0.11 9  148  45 
 PAM  EE ES        437 41.07                             120   -0.05 9  148  45 
 PAM  EZ I         437 46.66         9.4 0.64            116            148  45 
 NOR  HZ EP        437 23.12                             117    0.03 9  163 236 
 NOR  HN ES        437 42.99                             117    0.01 9  163 236 
 NOR  HZ I         437 45.59        20.1 0.16            115            163 236 
 ZAR  HZ EP        437 25.05                             114    0.16 9  180 312 
 ZAR  HN ES        437 46.72                             114    0.54 9  180 312 
 ZAR  HZ I         437 51.01        24.6 0.28            112            180 312 
 CHI  HZ EP        437 26.68                             112   -0.48 9  196 183 
 CHI  HN ES        437 50.84                             112    0.61 9  196 183 
 CHI  HZ I         437 53.64         5.6 0.26            110            196 183 
 TAM  HZ EP        437 27.86                             110   -0.01 8  206  89 
 TAM  HZ I         437 50.53         8.7 0.30            108            206  89 
 TAM  HE ES        437 51.19                             110   -0.31 8  206  89 
 OCA  HZ EP   4    437 29.75                             110    1.63 0  207  10 
 OCA  HE ES   4    437 52.90                             110    0.96 0  207  10 
 OCA  HZ I         437 58.12        19.5 0.22            108            207  10 
 HEL  HZ EP        437 28.95                             110    0.35 8  209 264 
 HEL  HN ES        437 53.40                             110    0.61 8  209 264 
 HEL  HZ I         437 55.79         8.1 0.34            109            209 264 
 GUY2CHZ EP        437 31.72                             108    0.58 8  230 236 
 GUY2CHN ES   4    438  0.27                             108    2.95 0  230 236 
 GUY2CHZ I         438  3.15         9.0 0.38                           230 236 
 VIL  SZ EP        437 32.53                             106   -0.87 8  253 181 
 URE  HZ EP   4    437 32.32                             105   -1.33 0  256 306 
 URE  HE ES   4    438  0.32                             105   -1.45 0  256 306 
 URE  HZ I         438  9.66        10.8 0.26            105            256 306 
 CBOC HZ EP        437 35.67                             104    0.45 8  268 257 
 CBOC HN ES        438  4.63                             104    0.06 8  268 257 
 CBOC HZ I         438  8.28         2.9 0.46            104            268 257 
 ORTC HZ EP        437 42.66                             100    0.55 7  327 213 
 ORTC HE ES        438 16.89                             100    0.04 7  327 213 
 ORTC HZ I         438 25.15         2.5 0.58            101            327 213 
 MON  HZ EP   4    437 42.75                              99   -1.41 0  344 320 
 MON  HN ES        438 19.61                              99   -0.88 7  344 320 
 MON  HZ I         438 20.59         2.1 0.56            100            344 320 
                                                                                
