 2017 1128 0412 55.1 L   6.815 -73.178138.0  RSN 15 0.5 1.9LRSN                1
 GAP= 63        1.04       2.7     3.2  5.4 -0.6172E+00  0.3743E+01  0.2355E+01E
 Epicentro: ZAPATOCA - SANTANDER                                               3
 ACTION:UPD 17-12-12 20:01 OP:rebc STATUS:               ID:20171128041255 L   I
 OLDACT:UP  17-11-28 14:50 OP:dani STATUS:               ID:20171128040742     3
 OLDACT:REG 17-11-28 12:50 OP:dani STATUS:               ID:20171128040742     3
 2017-11-28-0408-00M.COL___492                                                 6
 STAT SP IPHASW D HRMM SECON CODA AMPLIT PERI AZIMU VELO AIN AR TRES W  DIS CAZ7
 BAR2 EZ EP        413 13.75                             169   -0.0910 24.6 181 
 BAR2 EZ ES        413 28.73                             169    0.2810 24.6 181 
 BAR2 EZ I         413 30.88        14.2 0.32            169           24.6 181 
 PAM  EZ EP        413 16.62                             149    0.0410 78.5  42 
 PAM  EN ES        413 33.60                             149    0.2810 78.5  42 
 PAM  EZ I         413 35.94        25.1 0.56            153           78.5  42 
 RUS  HZ EP        413 17.87                             142   -0.3910  103 174 
 RUS  HN ES        413 36.47                             142    0.1610  103 174 
 RUS  HZ I         413 37.69        20.9 0.34            144            103 174 
 PTB  HZ EP        413 20.83                             131   -0.34 9  145 258 
 PTB  HN ES        413 40.74                             131   -0.75 9  145 258 
 PTB  HZ I         413 46.57         4.2 0.24            131            145 258 
 OCA  HZ EP        413 22.92                             128    0.28 9  158 354 
 OCA  HN ES        413 43.85                             128   -0.26 9  158 354 
 OCA  HZ I         413 47.62        20.9 0.18            130            158 354 
 TAM  HZ EP        413 22.15                             128   -0.41 9  159 105 
 SPBC HZ EP        413 23.26                             127    0.32 9  162 218 
 SPBC HN ES        413 44.53                             127   -0.12 9  162 218 
 SPBC HZ I         413 46.51        14.3 0.18            128            162 218 
 YPLC HZ EP        413 24.21                             124   -0.47 9  180 151 
 YPLC HN ES        413 47.92                             124    0.19 9  180 151 
 YPLC HZ I         413 50.96        12.6 0.26            127            180 151 
 ZAR  HZ EP        413 26.87                             121    0.21 9  200 292 
 ZAR  HN ES        413 51.61                             121    0.35 9  200 292 
 ZAR  HZ I         413 58.00         8.3 0.30            122            200 292 
 NOR  HZ EP        413 31.25                             117    1.05 8  233 234 
 NOR  HN ES        413 57.06                             117   -0.50 8  233 234 
 NOR  HZ I         414  3.45         3.7 0.24            118            233 234 
 CHI  HZ EP        413 31.99                             115   -0.48 8  249 194 
 CHI  HE ES        414  2.10                             115    0.49 8  249 194 
 CHI  HZ I         414  4.85         4.6 0.32            117            249 194 
 ROSC BZ EP   3    413 34.46                             115    1.68 2  252 210 
 ROSC BE ES   3    414  2.82                             115    0.66 2  252 210 
 ROSC BZ I         414  5.89         7.9 0.35            117            252 210 
 GUY2CHZ EP   3    413 39.64                             111    1.48 2  299 234 
 GUY2CHN ES   4    414 16.35                             111    4.62 0  299 234 
 GUY2CHZ I         414 24.22         2.7 0.52                           299 234 
 PRA  HZ EP        413 47.75                             105   -0.59 6  392 209 
 PRA  HN ES        414 29.17                             105   -0.69 6  392 209 
 PRA  HZ I         414 34.53         3.3 0.46            107            392 209 
 ORTC HZ EP        413 49.04                             105    0.35 6  395 216 
 ORTC HN ES        414 31.87                             105    1.39 6  395 216 
 ORTC HZ I         414 37.01         2.4 0.26            106            395 216 
                                                                                
