 2010  428 0758 35.3 L   7.355 -73.178114.5  RSN  5 0.6 1.7LRSN                1
 GAP=143        1.19      15.6    17.4 21.8 -0.2009E+03 -0.1458E+03  0.1883E+03E
 Epicentro: RIONEGRO - SANTANDER                                               3
 ACTION:UPD 10-08-24 10:01 OP:vdl  STATUS:               ID:20100428075835 L   I
 2010-04-28-0757-08S.COL___104                                                 6
 STAT SP IPHASW D HRMM SECON CODA AMPLIT PERI AZIMU VELO AIN AR TRES W  DIS CAZ7
 BRI  SZ EP        758 53.48                             151     0.910   58  46 
 GUE  SZ EP   1    758 52.13                             151    -0.7 7   60  28 
 GUE  SZ ES   2    759  5.81                             151    -0.8 5   60  28 
 BRR  HZ EP        758 52.64                             148    -0.110   65 245 
 BRR  HN ES   2    759  7.04                             148     0.7 5   65 245 
 BRR  HZ I         759 17.16        12.1 0.60                            65 245 
 GRA  SZ EP   2    758 53.09                             146    -0.3 5   72  35 
 GRA  SZ ES   2    759  7.48                             146    -0.1 5   72  35 
 BAR2 SZ EP        758 54.25                             141    -0.210   84 180 
                                                                                
