 2011  228 0045 23.6 L   7.194 -73.969 12.0  RSN  5 0.3 1.7LRSN                1
 GAP=154        0.75       3.2     6.3  8.5  0.5686E+01  0.2736E+02  0.1627E+02E
 Epicentro: PUERTO WILCHES - SANTANDER                                         3
 ACTION:UP  11-03-28 15:11 OP:jfem STATUS:               ID:20110228004523 L   I
 2011-02-28-0043-07S.COL___135                                                 6
 STAT SP IPHASW D HRMM SECON CODA AMPLIT PERI AZIMU VELO SNR AR TRES W  DIS CAZ7
 BAR2 SZ EP   1    045 41.24                              94     0.1 8  109 127 
 BAR2 SZ ES   1    045 54.58                              94    -0.1 8  109 127 
 BAR2 SZ I         045 55.14         8.2 0.17                           109 127 
 OCA  SZ EP   1    045 44.84                              94    -0.2 8  136  32 
 OCA  SZ ES   1    046  1.39                              94    -0.3 8  136  32 
 OCA  SZ I         046  4.66        15.9 0.51                           136  32 
 GRA  SZ EP   1    045 47.69                              93     0.6 8  150  59 
 GRA  SZ ES   2    046  5.43                              93     0.0 5  150  59 
 GRA  SZ I         046  7.03        59.8 0.29                           150  59 
 RUS  HZ EP        045 50.85                              56     0.310  174 146 
 RUS  HZ I         045 51.53         5.4 0.20                           174 146 
 RUS  HE ES   1    046 11.14                              56    -0.4 7  174 146 
 HEL  HZ EP   2    045 54.03                              56    -0.3 5  205 237 
 HEL  HZ I         046 21.54         2.7 0.28                           205 237 
                                                                                
