 2017  928 0115 37.1 L   6.753 -73.136140.5  RSN  9 0.3 1.6LRSN                1
 GAP=140        0.68       2.6     3.0  4.1 -0.4456E+00  0.4580E+01  0.2872E+01E
 Epicentro: LOS SANTOS - SANTANDER                                             3
 ACTION:UPD 17-10-05 19:17 OP:rebc STATUS:               ID:20170928011537 L   I
 OLDACT:UP  17-09-28 14:20 OP:edw  STATUS:               ID:20170928010743d    3
 OLDACT:DUP 17-09-28 14:11 OP:edw  STATUS:               ID:20170928010743d    3
 OLDACT:UP  17-09-28 14:10 OP:edw  STATUS:               ID:20170928010742     3
 OLDACT:UP  17-09-28 14:09 OP:edw  STATUS:               ID:20170928010742     3
 OLDACT:REG 17-09-28 12:48 OP:edw  STATUS:               ID:20170928010742     3
 2017-09-28-0108-00M.COL___453                                                 6
 STAT SP IPHASW D HRMM SECON CODA AMPLIT PERI AZIMU VELO AIN AR TRES W  DIS CAZ7
 BAR2 EZ ES        116 10.61                             172   -0.1210 18.5 196 
 BAR2 EZ I         116 13.07        15.6 0.16            170           18.5 196 
 BRR  HZ EP        115 57.99                             150    0.1210 74.8 302 
 BRR  HN ES        116 14.69                             150    0.6010 74.8 302 
 PAM  EZ EP        115 58.91                             149   -0.0410 80.8  37 
 PAM  EN ES        116 15.91                             149   -0.1010 80.8  37 
 PAM  EZ I         116 17.81         6.5 0.48            153           80.8  37 
 RUS  HZ EP        115 59.89                             144   -0.0410 95.3 177 
 RUS  HN ES        116 17.53                             144   -0.2310 95.3 177 
 RUS  HZ I         116 19.22         4.4 0.38            145           95.3 177 
 ZAR  HZ EP        116  9.27                             121   -0.23 8  207 293 
 ZAR  HN ES        116 34.28                             121   -0.51 8  207 293 
 ZAR  HZ I         116 42.90         6.6 0.60            121            207 293 
 NOR  HZ EP        116 12.64                             118    0.36 8  233 236 
 NOR  HN ES        116 39.71                             118   -0.03 8  233 236 
 NOR  HZ I         116 45.67         3.4 0.32            118            233 236 
 CHI  HZ EP        116 14.33                             116    0.36 8  244 196 
 CHI  HN ES   4    116 45.87                             116    3.12 0  244 196 
 CHI  HZ I         116 45.89         1.5 0.54            117            244 196 
 GUY2CHZ EP   4    116 21.64                             111    1.43 0  299 236 
 GUY2CHE ES        116 53.67                             111   -0.19 7  299 236 
 GUY2CHZ I         117  3.45         2.7 0.64                           299 236 
 PRA  HZ EP        116 29.77                             106   -0.18 6  388 210 
 PRA  HN ES        117 11.34                             106    0.14 6  388 210 
 PRA  HZ I         117 17.53         1.7 0.28            107            388 210 
 SJC  HZ EP   4    116 30.44                             105   -2.61 0  414 327 
 SJC  HN ES   4    117 14.37                             105   -2.35 0  414 327 
                                                                                
