 2013  528 0229 28.7 L   6.802 -73.155140.7  RSN 12 0.4 2.0LRSN                1
 GAP=135        0.91       3.1     3.9  5.9 -0.5602E+00  0.8972E+01  0.1393E+01E
 Epicentro: LOS SANTOS - SANTANDER                                             3
 ACTION:UPD 13-06-20 09:54 OP:ep   STATUS:               ID:20130528022928 L   I
 2013-05-28-0227-50M.COL___210                                                 6
 STAT SP IPHASW D HRMM SECON CODA AMPLIT PERI AZIMU VELO AIN AR TRES W  DIS CAZ7
 BAR2 SZ IP     D  229 47.92                             170    0.2210 23.4 187 
 BAR2 SZ I         230  4.60        13.4 0.40            165           23.4 187 
 GIR2 SZ EP        229 47.94                             167    0.2010 30.9 352 
 GIR2 SZ ES   1    230  3.28                             167    0.67 7 30.9 352 
 GIR2 SZ I         230  5.42        12.1 0.12            167           30.9 352 
 BRR  HZ IP     C  229 49.77                             152    0.5510 70.2 299 
 BRR  HN ES   2    230  4.91                             152   -0.34 5 70.2 299 
 BRR  HZ I         230 11.03        13.8 0.30            146           70.2 299 
 PAM  SN EP        229 50.50                             150    0.1110 77.9  40 
 PAM  SE ES        230  7.22                             150   -0.1110 77.9  40 
 PAM  SN I         230  8.93        20.0 0.20            150           77.9  40 
 RUS  HZ EP        229 51.72                             143   -0.2410  101 175 
 RUS  HN ES        230  9.80                             143   -0.3210  101 175 
 RUS  HZ I         230 11.57        12.1 0.36            137            101 175 
 PTB  HZ IP     C  229 54.47                             131   -0.68 9  147 259 
 PTB  HN ES        230 15.90                             131    0.11 9  147 259 
 PTB  HZ I         230 18.00         9.7 0.18            125            147 259 
 OCA  HN ES        230 17.81                             128   -0.51 9  160 354 
 ZAR  HZ EP        230  1.45                             121    0.76 9  203 292 
 ZAR  HN ES        230 25.56                             121   -0.10 9  203 292 
 ZAR  HZ I         230 32.95        19.0 0.20            116            203 292 
 NOR  HZ EP   2    230  3.42                             117   -0.62 4  234 234 
 NOR  HN ES   2    230 31.47                             117   -0.15 4  234 234 
 NOR  HZ I         230 37.97         9.0 0.14            112            234 234 
 SML  HZ EP        230  4.66                             116   -0.30 8  243 335 
 SML  HN ES   2    230 33.18                             116   -0.07 4  243 335 
 SML  HZ I         230 35.51        20.0 0.10            113            243 335 
 HEL  HZ EP        230  8.18                             114   -0.35 8  271 256 
 HEL  HZ I         230 48.08         4.7 0.24            109            271 256 
 PRA  HZ EP        230 22.67                             106    0.68 6  392 209 
 PRA  HN ES   2    231  4.06                             106    0.49 3  392 209 
 PRA  HZ I         231  8.89         2.6 0.36            102            392 209 
                                                                                
