 2011  128 0616  5.9 L   6.780 -73.108146.4  RSN  5 0.2 1.7LRSN                1
 GAP=163        0.48       2.1     9.6  3.8 -0.1164E+02  0.8430E+01 -0.1244E+01E
 Epicentro: LOS SANTOS - SANTANDER                                             3
 ACTION:UP  11-02-08 08:43 OP:pat  STATUS:               ID:20110128061605 L   I
 2011-01-28-0614-03S.COL___138                                                 6
 STAT SP IPHASW D HRMM SECON CODA AMPLIT PERI AZIMU VELO SNR AR TRES W  DIS CAZ7
 BAR2 SZ EP        616 25.55                             171     0.010   22 202 
 BAR2 SZ ES        616 40.79                             171    -0.110   22 202 
 BAR2 SZ I         616 42.33        17.8 0.35                            22 202 
 RUS  HZ EP   1    616 29.25                             145    -0.3 7   98 178 
 RUS  HN ES   1    616 47.98                             145     0.0 7   98 178 
 RUS  HZ I         616 49.40         4.4 0.20                            98 178 
 GRA  SZ IP     C  616 31.36                             137     0.110  127  15 
 GRA  SZ ES   1    616 51.25                             137     0.2 7  127  15 
 GRA  SZ I         616 52.20         5.8 0.35                           127  15 
 OCA  SZ EP        616 34.25                             129    -0.2 9  163 352 
 OCA  SZ ES   1    616 56.96                             129     0.1 7  163 352 
 OCA  SZ I         617  0.72         7.8 0.41                           163 352 
 CHI  HZ EP        616 43.58                             117     0.1 8  248 196 
 CHI  HE ES        617 13.03                             117     0.2 8  248 196 
 CHI  HZ I         617 22.37         3.0 0.88                           248 196 
                                                                                
