 2011 1128 0445 47.8 L   6.817 -73.119140.7  RSN  4 0.1 1.2LRSN                1
 GAP=139        0.39       3.1     3.6  4.8 -0.1894E+01  0.5633E-01  0.7565E+01E
 Epicentro: LOS SANTOS - SANTANDER                                             3
 ACTION:UPD 12-07-13 16:12 OP:ep   STATUS:               ID:20111128044547 L   I
 2011-11-28-0442-42S.COL___160                                                 6
 STAT SP IPHASW D HRMM SECON CODA AMPLIT PERI AZIMU VELO AIN AR TRES W  DIS CAZ7
 BRR  HZ EP        446  8.29                             151   -0.1810 73.0 296 
 BRR  HE ES   1    446 24.73                             151    0.11 7 73.0 296 
 BRR  HZ I         446 28.31         2.9 0.24                          73.0 296 
 PAM  SZ EP        446  9.33                             151    0.0810 74.1  39 
 PAM  SN ES   1    446 26.02                             151    0.02 7 74.1  39 
 RUS  HZ EP        446 11.04                             142   -0.1110  102 178 
 RUS  HE ES   2    446 29.35                             142   -0.04 5  102 178 
 RUS  HZ I         446 31.05         2.5 0.32                           102 178 
 CTAU SZ EP        446 20.92                             121    0.20 8  206 210 
                                                                                
