 2011 1128 0245  8.5 L   6.793 -73.119142.2  RSN  6 0.4 1.9LRSN                1
 GAP=140        0.87       4.8     8.2  7.5 -0.1145E+00 -0.1717E+01 -0.6258E+01E
 Epicentro: LOS SANTOS - SANTANDER                                             3
 ACTION:UPD 12-07-13 16:12 OP:ep   STATUS:               ID:20111128024508 L   I
 2011-11-28-0240-57S.COL___160                                                 6
 STAT SP IPHASW D HRMM SECON CODA AMPLIT PERI AZIMU VELO AIN AR TRES W  DIS CAZ7
 BAR2 SZ EP        245 27.79                             170    0.0710 23.3 198 
 BAR2 SZ ES   1    245 41.83                             170   -0.87 7 23.3 198 
 BAR2 SZ I         245 44.47        21.5 0.28                          23.3 198 
 BRR  HZ EP        245 29.54                             151    0.0810 74.2 298 
 BRR  HE ES   1    245 46.30                             151    0.51 7 74.2 298 
 BRR  HZ I         245 49.58        20.6 0.14                          74.2 298 
 PAM  SZ EP        245 30.63                             151    0.3510 76.1  37 
 PAM  SN ES   1    245 47.43                             151    0.17 7 76.1  37 
 RUS  HZ EP        245 31.86                             143    0.0110 99.7 178 
 RUS  HN ES   1    245 50.21                             143    0.15 7 99.7 178 
 RUS  HZ I         245 52.09         8.4 0.26                          99.7 178 
 OCA  SZ EP        245 36.08                             129   -0.58 9  161 352 
 OCA  SZ I         246  1.60         6.1 0.20                           161 352 
 CHI  HE ES   3    246 15.27                             116   -0.02 2  249 196 
                                                                                
