 2010  828 0903 25.1 L   6.760 -73.920 16.8  RSN  8 0.3 2.1LRSN                1
 GAP=131        0.82       2.7     4.0  5.0 -0.2629E+00  0.9524E+01 -0.1358E+01E
 Epicentro: PUERTO PARRA - SANTANDER                                           3
 ACTION:UP  10-09-07 10:58 OP:vdl  STATUS:               ID:20100828090325 L   I
 2010-08-28-0900-33S.COL___119                                                 6
 STAT SP IPHASW D HRMM SECON CODA AMPLIT PERI AZIMU VELO SNR AR TRES W  DIS CAZ7
 BRR  HZ IP     C  9 3 32.71                             107    -0.110   45  31 
 BRR  HZ I         9 3 38.35       131.1 0.11                            45  31 
 BRR  HE ES   1    9 3 38.83                             107     0.0 7   45  31 
 BAR2 SZ EP        9 3 38.84                              99     0.010   84 103 
 BAR2 SZ I         9 3 39.16        51.8 0.09                            84 103 
 BAR2 SZ ES   2    9 3 49.39                              99    -0.1 5   84 103 
 GIR2 SZ EP   1    9 3 39.04                              99    -0.3 7   88  66 
 RUS  HZ IP     D  9 3 47.01                              96     0.510  133 136 
 RUS  HN ES   1    9 4  2.98                              96    -0.3 7  133 136 
 RUS  HZ I         9 4  4.98        53.0 0.27                           133 136 
 GUE  SZ EP        9 3 49.47                              56    -0.4 9  162  43 
 GUE  SZ I         9 4  9.21        12.0 0.16                           162  43 
 GRA  SZ EP   2    9 3 51.68                              56     0.3 4  175  45 
 GRA  SZ ES   1    9 4 11.90                              56     0.0 7  175  45 
 GRA  SZ I         9 4 13.24       123.1 0.42                           175  45 
 OCA  SZ EP   1    9 3 52.18                              56     0.6 7  176  22 
 OCA  SZ I         9 4 25.34         9.6 0.19                           176  22 
 HEL  HZ EP   1    9 3 53.57                              56     0.2 7  189 251 
 HEL  HE ES   2    9 4 14.55                              56    -0.8 4  189 251 
 HEL  HZ I         9 4 22.12         9.7 0.33                           189 251 
                                                                                
