 2016  828 0929 32.0 L   5.953 -73.765112.0  RSN 22 0.5 2.3LRSN                1
 GAP= 44        1.21       2.4     2.5  5.6 -0.1050E+01  0.9671E+00 -0.1341E+00E
 Epicentro: BOLIVAR - SANTANDER                                                3
 ACTION:UPD 16-10-29 15:40 OP:rebc STATUS:               ID:20160828092932 L   I
 OLDACT:REG 16-08-28 13:47 OP:ak   STATUS:               ID:20160828092736     3
 2016-08-28-0928-00M.COL___356                                                 6
 STAT SP IPHASW D HRMM SECON CODA AMPLIT PERI AZIMU VELO AIN AR TRES W  DIS CAZ7
 SPBC HZ IP     D  929 47.93                             155   -0.3410 47.5 226 
 SPBC HN ES        930  0.70                             155   -0.3010 47.5 226 
 SPBC HZ I         930  1.78        82.1 0.21                          47.5 226 
 RUS  HZ IP     D  929 50.57                             144   -0.0410 75.8  95 
 RUS  HN ES        930  4.79                             144   -0.3610 75.8  95 
 RUS  HZ I         930  6.52        34.4 0.34                          75.8  95 
 BAR2 EZ IP     C  929 52.10                             136    0.2910 95.7  42 
 BAR2 EZ ES        930  7.74                             136    0.4510 95.7  42 
 PTB  HZ IP   4 C  929 50.61                             135   -1.28 0  100 310 
 PTB  HN ES        930  7.41                             135   -0.0310  100 310 
 PTB  HZ I         930  9.71        21.2 0.14                           100 310 
 BRR  HZ EP        929 54.32                             127   -0.0810  128   3 
 BRR  HN ES        930 12.25                             127    0.3510  128   3 
 BRR  HZ I         930 15.56        48.4 0.06                           128   3 
 NOR  HZ EP        929 54.65                             127    0.0010  130 251 
 NOR  HE ES        930 11.94                             127   -0.4110  130 251 
 NOR  HZ I         930 13.56        53.3 0.12                           130 251 
 ROSC BZ EP   4    929 57.45                             125    1.57 0  138 207 
 ROSC BN ES        930 15.50                             125    0.96 9  138 207 
 ROSC BZ I         930 18.51        27.5 0.35                           138 207 
 CHI  HZ EP        929 56.44                             123   -0.35 9  146 179 
 CHI  HN ES        930 15.54                             123   -0.62 9  146 179 
 CHI  HZ I         930 18.32        15.1 0.30                           146 179 
 PAM  EZ EP        930  2.00                             115    0.11 9  193  37 
 PAM  EE ES        930 25.86                             115    0.62 9  193  37 
 PAM  EZ I         930 34.47        10.7 0.56                           193  37 
 GUY2CHZ EP        930  2.18                             115    0.17 9  195 246 
 GUY2CHN ES        930 25.63                             115    0.18 9  195 246 
 GUY2CHZ I         930 29.87        10.9 0.26                           195 246 
 HEL  HZ EP        930  2.91                             115    0.78 9  197 278 
 HEL  HN ES        930 24.57                             115   -1.10 9  197 278 
 HEL  HZ I         930 29.45        10.4 0.42                           197 278 
 VIL  EZ EP   2    930  2.56                             114   -0.02 4  204 178 
 VIL  EE ES        930 27.25                             114    0.79 9  204 178 
 VIL  EZ I         930 29.54        38.5 0.44                           204 178 
 ZAR  HZ EP        930  2.38                             113   -0.61 8  209 325 
 ZAR  HE ES        930 27.24                             113    0.05 8  209 325 
 ZAR  HZ I         930 30.77        20.4 0.52                           209 325 
 ELA  HZ EP   9    930  6.02                             112    1.36 0  218 236 
 ELA  HN ES        930 31.58                                    0.06 8  218 236 
 ELA  HZ I         930 40.80        10.7 0.52                           218 236 
 ANIL HZ EP        930  8.22                             110    0.98 8  243 228 
 ANIL HE ES        930 35.62                             110    0.86 8  243 228 
 ANIL HZ I         930 39.47        30.6 0.20                           243 228 
 CBOC HZ EP        930  7.51                             109   -0.26 8  249 268 
 CBOC HN ES        930 35.15                             109   -0.55 8  249 268 
 CBOC HZ I         930 38.72         4.4 0.25                           249 268 
 OCA  HZ EP        930  8.75                             108    0.01 8  258  11 
 OCA  HN ES   4    930 39.48                             108    2.05 0  258  11 
 OCA  HZ I         930 42.40        41.7 0.26                           258  11 
 PTGC HZ IP     D  930  8.84                             107   -0.60 8  265 137 
 PTGC HZ I         930 37.88         7.3 0.28                           265 137 
 PTGC HN ES        930 37.93                             107   -0.74 8  265 137 
 URE  HZ EP   4    930  9.06                             106   -1.98 0  279 316 
 URE  HN ES   4    930 38.21                             106   -3.31 0  279 316 
 URE  HZ I         930 44.13         9.8 0.16                           279 316 
 SOCV BZ EP        930 26.32                              99   -0.59 6  412  51 
 SOCV BN ES   4    931  7.31                              99   -2.47 0  412  51 
 GARC HZ EP   9    930 30.66                              97   -2.14 0  458 205 
 GARC HN ES        931 17.87                                   -0.25 5  458 205 
 GARC HZ I         931 22.45         7.6 0.16                           458 205 
 SJC  HZ EP   4    930 30.67                              97   -2.47 0  463 340 
 SJC  HN ES   4    931 16.89                              97   -3.97 0  463 340 
 SJC  HZ I         931 22.67         5.4 0.05                           463 340 
                                                                                
