 2011  628 0737 20.9 L   6.772 -73.059145.9  RSN  4 0.1 1.4LRSN                1
 GAP=169        0.38       2.8     5.1  5.1  0.5888E+00 -0.1072E+02 -0.2248E+01E
 Epicentro: LOS SANTOS - SANTANDER                                             3
 ACTION:UP  11-07-14 19:08 OP:ep   STATUS:               ID:20110628073720 L   I
 2011-06-28-0735-49S.COL___140                                                 6
 STAT SP IPHASW D HRMM SECON CODA AMPLIT PERI AZIMU VELO SNR AR TRES W  DIS CAZ7
 BAR2 SZ EP   1    737 40.44                             170    -0.1 7   24 215 
 BAR2 SZ ES   2    737 55.92                             170     0.0 5   24 215 
 BAR2 SZ I         737 58.78         6.0 0.40                            24 215 
 BRR  HZ EP        737 42.53                             149    -0.110   81 297 
 BRR  HZ I         737 46.10        10.4 0.35                            81 297 
 BRR  HN ES   1    737 59.63                             149     0.0 7   81 297 
 RUS  HZ EP   1    737 44.37                             145     0.0 7   97 182 
 RUS  HE ES   2    738  2.85                             145     0.1 5   97 182 
 RUS  HZ I         738  4.30         2.3 0.31                            97 182 
 GRA  SZ EP        737 46.36                             137     0.210  126  13 
 GRA  SZ ES   2    738  5.68                             137    -0.2 5  126  13 
 GRA  SZ I         738  7.34         3.2 0.32                           126  13 
                                                                                
