 2010 1028 0359 22.2 L   6.835 -72.973136.4  RSN  4 0.2 1.5LRSN                1
 GAP=201        0.56       4.6    10.6  7.3  0.2988E+02 -0.3993E+02 -0.1803E+02E
 Epicentro: CEPITA - SANTANDER                                                 3
 ACTION:UP  11-02-18 11:12 OP:tino STATUS:               ID:20101028035922 L   I
 2010-10-28-0354-59S.COL___122                                                 6
 STAT SP IPHASW D HRMM SECON CODA AMPLIT PERI AZIMU VELO SNR AR TRES W  DIS CAZ7
 BAR2 SZ EP   1    359 41.13                             165     0.1 7   36 221 
 BAR2 SZ I         359 41.35         5.4 0.04                            36 221 
 BAR2 SZ ES   1    359 55.80                             165     0.1 7   36 221 
 BRR  HZ IP     D  359 43.22                             146    -0.110   87 290 
 BRR  HE ES   1    359 59.95                             146     0.1 7   87 290 
 BRR  HZ I         4 0  4.19         8.4 0.10                            87 290 
 RUS  HZ EP   1    359 45.16                             141    -0.2 7  105 187 
 RUS  HE ES   1    4 0  3.46                             141     0.0 7  105 187 
 RUS  HZ I         4 0  5.40         4.7 0.48                           105 187 
 OCA  SZ EP   1    359 50.17                             128     0.4 7  160 346 
 OCA  SZ I         359 52.91         4.7 0.37                           160 346 
 OCA  SZ ES   2    4 0 10.71                             128    -0.5 5  160 346 
                                                                                
