 2011  628 0024  2.6 L   6.788 -73.108138.8  RSN  9 0.3 2.0LRSN                1
 GAP=160        0.72       3.1     5.2  5.7 -0.5000E+01  0.3543E+01 -0.1360E+01E
 Epicentro: LOS SANTOS - SANTANDER                                             3
 ACTION:UP  11-07-14 19:08 OP:ep   STATUS:               ID:20110628002402 L   I
 2011-06-28-0021-32S.COL___140                                                 6
 STAT SP IPHASW D HRMM SECON CODA AMPLIT PERI AZIMU VELO SNR AR TRES W  DIS CAZ7
 BTL  SZ EP        024 21.58                             170     0.210   23 309 
 BAR2 SZ EP        024 21.38                             170     0.010   23 201 
 BAR2 SZ I         024 21.75        31.3 0.05                            23 201 
 BAR2 SZ ES   1    024 35.89                             170    -0.2 7   23 201 
 BRR  HZ EP        024 23.35                             150     0.110   75 298 
 BRR  HZ I         024 23.82        32.9 0.09                            75 298 
 BRR  HE ES   1    024 39.92                             150     0.5 7   75 298 
 RUS  HZ EP        024 25.39                             143    -0.210   99 178 
 RUS  HE ES   1    024 43.57                             143     0.1 7   99 178 
 RUS  HZ I         024 45.64         6.9 0.27                            99 178 
 BRI  SZ EP   1    024 26.14                             140     0.3 7  108  19 
 GRA  SZ EP        024 27.35                             135     0.110  126  15 
 GRA  SZ ES   1    024 46.14                             135    -0.3 7  126  15 
 GRA  SZ I         024 48.06        14.2 0.46                           126  15 
 OCA  SZ EP   1    024 30.50                             128    -0.1 7  162 352 
 OCA  SZ ES   1    024 51.74                             128    -0.6 7  162 352 
 OCA  SZ I         024 55.26        11.4 0.32                           162 352 
 NOR  SZ EP   1    024 37.97                             117    -0.3 6  237 235 
 NOR  SE ES   1    025  5.55                             117    -0.5 6  237 235 
 HEL  HZ EP   1    024 43.29                             113     0.4 6  276 256 
 HEL  HZ I         025 20.51         5.8 0.45                           276 256 
                                                                                
