 2014 1228 0931 22.2 L   6.813 -73.141142.8  RSN 16 0.4 2.0LRSN                1
 GAP= 71        1.00       2.5     3.4  4.8 -0.1125E+01  0.1972E+01  0.4447E+00E
 Epicentro: LOS SANTOS - SANTANDER                                             3
 ACTION:UPD 15-02-10 17:07 OP:nd   STATUS:               ID:20141228093122 L   I
 OLDACT:UP  14-12-28 18:11 OP:mh   STATUS:               ID:20141228092748     3
 OLDACT:REG 14-12-28 12:59 OP:mh   STATUS:               ID:20141228092748     3
 2014-12-28-0927-48M.COL___262                                                 6
 STAT SP IPHASW D HRMM SECON CODA AMPLIT PERI AZIMU VELO AIN AR TRES W  DIS CAZ7
 BAR2 EZ EP        931 41.45                             170   -0.0710 24.8 191 
 BAR2 EZ ES        931 56.29                             170   -0.2910 24.8 191 
 BAR2 EZ I         931 58.60        26.6 0.38            168           24.8 191 
 BRR  HZ EP        931 43.36                             152    0.3310 71.0 297 
 BRR  HN ES        931 59.58                             152    0.3110 71.0 297 
 BRR  HZ I         932  0.92        18.1 0.14            152           71.0 297 
 PAM  SZ EP        931 44.40                             151    0.3710 76.0  40 
 PAM  SN ES   1    932  1.52                             151    0.47 7 76.0  40 
 PAM  SZ I         932  3.52        18.0 0.66            147           76.0  40 
 RUS  HZ EP        931 45.46                             143   -0.3210  102 176 
 RUS  HN ES        932  4.18                             143    0.0210  102 176 
 RUS  HZ I         932  5.89        19.7 0.30            140            102 176 
 PTB  HZ EP        931 48.24                             131   -0.77 9  149 258 
 PTB  HN ES        932 10.51                             131    0.59 9  149 258 
 PTB  HZ I         932 14.35        17.0 0.38            130            149 258 
 TAM  HZ EP        931 49.64                             130   -0.01 9  155 106 
 TAM  HZ I         932 12.91        12.5 0.44            126            155 106 
 OCA  HZ EP        931 50.57                             129    0.40 9  159 353 
 OCA  HN ES        932 11.52                             129   -0.46 9  159 353 
 OCA  HZ I         932 18.04         6.2 0.24            127            159 353 
 SPBC HZ EP        931 50.51                             128   -0.11 9  165 219 
 SPBC HN ES        932 12.64                             128   -0.14 9  165 219 
 SPBC HZ I         932 21.17        17.2 0.36            126            165 219 
 ZAR  HZ EP        931 54.91                             122    0.45 9  204 292 
 ZAR  HN ES        932 19.71                             122    0.09 9  204 292 
 ZAR  HZ I         932 25.66        16.7 0.28            120            204 292 
 NOR  HZ EP        931 57.96                             118    0.05 8  236 234 
 NOR  HN ES        932 25.27                             118   -0.48 8  236 234 
 NOR  HZ I         932 27.32         8.8 0.24            116            236 234 
 SML  HZ EP        931 57.48                             117   -1.08 8  243 335 
 SML  HN ES   1    932 26.26                             117   -0.65 6  243 335 
 SML  HZ I         932 34.09        11.2 0.10            115            243 335 
 CHI  HZ EP        932  0.32                             116    0.41 8  250 195 
 CHI  HN ES        932 29.01                             116   -0.31 8  250 195 
 CHI  HZ I         932 33.57         3.2 0.64            114            250 195 
 ROSC BZ EP   9    932  2.47                             116    2.14 0  254 211 
 ROSC BN ES        932 32.32                             116    0.12 8  254 211 
 ROSC BZ I         932 37.68         6.9 0.35            114            254 211 
 HEL  HZ EP        932  2.77                             114    0.40 8  273 256 
 HEL  HN ES   1    932 34.04                             114    0.35 6  273 256 
 HEL  HZ I         932 39.91         7.4 0.38            112            273 256 
 CARMEEN I         931 23.92                                            374 228 
 ORTC HZ EP        932 17.20                             106    1.00 6  397 216 
 ORTC HE ES        932 57.99                             106   -0.32 6  397 216 
 ORTC HZ I         933  6.64         3.7 0.42            104            397 216 
                                                                                
