 2017  928 0300 41.8 L   6.783 -73.083149.3  RSN 15 0.4 1.9LRSN                1
 GAP= 97        0.86       3.0     2.5  4.5  0.8159E+00  0.3137E+01  0.5206E+01E
 Epicentro: LOS SANTOS - SANTANDER                                             3
 ACTION:UPD 17-10-05 19:17 OP:rebc STATUS:               ID:20170928030041 L   I
 OLDACT:UP  17-09-28 16:33 OP:edw  STATUS:               ID:20170928025631     3
 OLDACT:UP  17-09-28 16:32 OP:edw  STATUS:               ID:20170928025631     3
 OLDACT:REG 17-09-28 13:00 OP:edw  STATUS:               ID:20170928025631     3
 2017-09-28-0258-00M.COL___414                                                 6
 STAT SP IPHASW D HRMM SECON CODA AMPLIT PERI AZIMU VELO AIN AR TRES W  DIS CAZ7
 BAR2 EZ EP        3 1  1.54                             171   -0.3010 23.8 207 
 BAR2 EZ ES        3 1 17.15                             171   -0.3410 23.8 207 
 BAR2 EZ I         3 1 20.60        16.6 0.48            168           23.8 207 
 PAM  EZ EP        3 1  4.44                             152    0.2310 74.7  35 
 PAM  EN ES        3 1 21.84                             152    0.1310 74.7  35 
 PAM  EZ I         3 1 22.67         8.6 0.18            158           74.7  35 
 BRR  HZ EP        3 1  3.48                             151   -0.2310 78.2 297 
 BRR  HN ES        3 1 21.03                             151    0.2110 78.2 297 
 BRR  HZ I         3 1 29.96        10.7 0.68            151           78.2 297 
 RUS  HZ EP        3 1  5.40                             145   -0.3310 98.5 180 
 RUS  HN ES        3 1 24.40                             145   -0.0110 98.5 180 
 RUS  HZ I         3 1 26.80         4.8 0.36            146           98.5 180 
 TAM  HZ EP        3 1  9.38                             133    0.30 9  148 105 
 TAM  HN ES        3 1 29.96                             133   -0.42 9  148 105 
 TAM  HZ I         3 1 30.50        14.9 0.42            138            148 105 
 YPLC HZ EP        3 1 11.67                             128    0.31 9  172 153 
 YPLC HN ES        3 1 35.37                             128    0.94 9  172 153 
 YPLC HZ I         3 1 36.60         7.7 0.26            131            172 153 
 ZAR  HN ES        3 1 41.46                             122    0.22 8  211 292 
 NOR  HZ EP        3 1 17.69                             119   -0.51 8  239 236 
 NOR  HN ES   4    3 1 45.50                             119   -1.12 0  239 236 
 NOR  HZ I         3 1 49.27        10.5 0.18            121            239 236 
 CHI  HZ EP        3 1 19.81                             118    0.13 8  249 197 
 CHI  HE ES        3 1 49.04                             118   -0.21 8  249 197 
 CHI  HZ I         3 1 56.74         2.9 0.40            120            249 197 
 HEL  HZ EP        3 1 22.95                             115    0.09 7  278 257 
 HEL  HE ES        3 1 55.00                             115    0.09 7  278 257 
 HEL  HZ I         3 1 58.93         4.6 0.42            117            278 257 
 PTGC HZ EP        3 1 24.41                             112   -0.90 7  304 160 
 PTGC HE ES   4    3 1 57.64                             112   -1.64 0  304 160 
 GUY2CHZ EP        3 1 26.58                             113    0.51 7  306 236 
 GUY2CHN ES        3 2  0.43                             113   -0.19 7  306 236 
 GUY2CHZ I         3 2  8.24         5.5 0.32                           306 236 
 PRA  HZ EP        3 1 35.82                             107    0.19 6  394 211 
 PRA  HE ES        3 2 17.74                             107    0.09 6  394 211 
 PRA  HZ I         3 2 26.07         2.9 0.34            109            394 211 
 ORTC HZ EP   4    3 1 37.25                             107    1.13 0  398 217 
 ORTC HE ES        3 2 18.71                             107    0.19 6  398 217 
 SJC  HZ EP   4    3 1 35.52                             106   -2.56 0  415 326 
 SJC  HE ES   4    3 2 14.95                             106   -7.05 0  415 326 
 SJC  HZ I         3 2 24.66         1.4 0.38            108            415 326 
                                                                                
