 2015  328 0557 35.5 L   6.827 -73.162148.1  RSN 25 0.5 2.9LRSN                1
 GAP= 67        1.12       2.4     2.7  4.6 -0.4693E+00  0.3168E+01  0.9155E+00E
 Epicentro: LOS SANTOS - SANTANDER                                             3
 ACTION:UPD 15-04-30 16:30 OP:nd   STATUS:               ID:20150328055735 L   I
 OLDACT:REG 15-03-28 13:34 OP:fm   STATUS:               ID:20150328054742     3
 2015-03-28-0547-42M.COL___275                                                 6
 STAT SP IPHASW D HRMM SECON CODA AMPLIT PERI AZIMU VELO AIN AR TRES W  DIS CAZ7
 BAR2 EZ IP     C  557 55.67                             170    0.1810 26.0 185 
 BAR2 EZ ES        558 10.40                             170   -0.6710 26.0 185 
 BAR2 EZ I         558 12.24       341.0 0.20            170           26.0 185 
 BRR  HZ IP     D  557 57.54                             154    0.7810 68.2 297 
 BRR  HE ES        558 14.08                             154    0.7510 68.2 297 
 BRR  HZ I         558 17.24       116.3 0.30            150           68.2 297 
 PAM  SZ IP     D  557 58.46                             151    0.5310 76.3  42 
 PAM  SN ES        558 15.35                             151   -0.0510 76.3  42 
 PAM  SZ I         558 18.15       111.7 0.60            149           76.3  42 
 RUS  HZ EP     C  557 59.51                             143   -0.2210  104 175 
 RUS  HN ES        558 17.90                             143   -0.7110  104 175 
 RUS  HZ I         558 19.95       116.1 0.28            141            104 175 
 PTB  HZ EP        558  2.17                             133   -0.41 9  147 258 
 PTB  HE ES        558 24.07                             133    0.39 9  147 258 
 PTB  HZ I         558 26.03       112.4 0.20            129            147 258 
 OCA  HZ EP        558  3.68                             131   -0.04 9  157 354 
 OCA  HE ES        558 25.87                             131    0.15 9  157 354 
 OCA  HZ I         558 29.59       174.5 0.24            126            157 354 
 TAM  HZ IP     D  558  3.89                             130    0.27 9  158 106 
 TAM  HZ I         558 24.72        55.1 0.36            128            158 106 
 TAM  HE ES        558 25.50                             130   -0.04 9  158 106 
 SPBC HZ EP        558  4.41                             129    0.09 9  164 218 
 SPBC HE ES        558 26.78                             129    0.01 9  164 218 
 SPBC HZ I         558 29.39       215.2 0.22            126            164 218 
 ZAR  HZ EP        558  7.91                             123    0.07 9  201 292 
 ZAR  HN ES        558 32.81                             123   -0.23 9  201 292 
 ZAR  HZ I         558 44.34        81.0 0.30            119            201 292 
 NOR  HZ EP        558 11.00                             119   -0.42 8  235 234 
 NOR  HE ES        558 40.07                             119    0.65 8  235 234 
 NOR  HZ I         558 43.20        90.2 0.20            116            235 234 
 SML  HZ EP        558 12.57                             118    0.66 8  240 335 
 SML  HN ES        558 39.56                             118   -0.73 8  240 335 
 SML  HZ I         558 45.53        79.6 0.10            115            240 335 
 ROSC BZ EP        558 14.63                             117    0.68 8  254 210 
 ROSC BN ES        558 44.13                             117    0.21 8  254 210 
 ROSC BZ I         558 50.43        98.1 0.45            114            254 210 
 HEL  HZ EP        558 16.03                             115    0.28 8  271 255 
 HEL  HE ES        558 46.81                             115   -0.31 8  271 255 
 HEL  HZ I         558 54.71        51.2 0.24            112            271 255 
 URE  HZ EP        558 15.45                             114   -0.95 7  281 291 
 URE  HZ I         558 53.96        33.5 0.38            111            281 291 
 GUY2CHZ EP        558 20.23                             113    0.96 7  301 234 
 GUY2CHN ES        558 52.95                             113   -0.44 7  301 234 
 GUY2CHZ I         559  2.31        59.5 0.74                           301 234 
 VIL  SZ EP        558 18.91                             112   -0.43 7  306 191 
 VIL  SE ES        558 53.28                             112   -0.23 7  306 191 
 VIL  SZ I         559  2.71        57.2 0.38            110            306 191 
 PTGC HZ EP   4    558 18.54                             112   -1.33 0  312 159 
 PTGC HN ES   4    558 51.09                             112   -3.37 0  312 159 
 PTGC HZ I         558 54.16        27.4 0.48            109            312 159 
 CBOC HZ EP        558 23.24                             110    0.79 7  333 252 
 CBOC HN ES        558 58.52                             110   -0.52 7  333 252 
 CBOC HZ I         559 18.28        14.2 0.42            107            333 252 
 DBB  SZ EP        558 23.10                             110    0.23 7  337 274 
 DBB  SZ ES   1    558 59.52                             110   -0.27 5  337 274 
 DBB  SZ I         559  3.46        85.4 0.68            107            337 274 
 MON  HZ EP   4    558 22.72                             109   -1.52 0  350 308 
 MON  HE ES        559  1.10                             109   -1.14 6  350 308 
 MON  HZ I         559  5.15        12.1 0.28            106            350 308 
 SDV  BZ EP        558 25.08                             109   -0.52 6  360  51 
 SDV  BE ES   4    559  1.83                             109   -2.82 0  360  51 
 SDV  BZ I         559  5.42         8.1 0.35            106            360  51 
 ORTC HZ EP        558 29.71                             107    0.03 6  397 216 
 ORTC HE ES        559 11.65                             107   -0.27 6  397 216 
 ORTC HZ I         559 18.94        38.0 0.68            104            397 216 
 SJC  HZ EP   1    558 29.66                             106   -1.10 4  406 327 
 SJC  HN ES   4    559  8.93                             106   -4.91 0  406 327 
 SJC  HZ I         559 15.44        12.2 0.32            103            406 327 
 GUA  SZ EP   1    558 38.93                             103   -0.19 3  477 173 
 GUA  SE ES        559 28.39                             103   -0.33 5  477 173 
 GUA  SZ I         559 29.60        15.8 0.32            101            477 173 
 MACC HZ EP   4    558 42.37                             102   -2.24 0  523 188 
 MACC HN ES   4    559 32.69                             102   -5.81 0  523 188 
 MACC HZ I         559 37.84        11.8 0.84            100            523 188 
                                                                                
