 2012  228 0200 50.5 L   6.802 -73.098144.6  RSN  8 0.2 1.8LRSN                1
 GAP=143        0.49       2.3     2.9  3.4  0.6013E+00  0.2230E+01  0.2402E+01E
 ACTION:UP  12-03-07 16:34 OP:epov STATUS:               ID:20120228020050 L   I
 2012-02-28-0200-00M.COL___191                                                 6
 STAT SP IPHASW D HRMM SECON CODA AMPLIT PERI AZIMU VELO AIN AR TRES W  DIS CAZ7
 BAR2 SZ EP        2 1 10.11                             170    0.1210 25.0 202 
 BAR2 SZ ES        2 1 25.08                             170   -0.1510 25.0 202 
 BAR2 SZ I         2 1 26.53        17.1 0.22                          25.0 202 
 PAM  SZ EP   1    2 1 12.54                             152    0.18 7 74.0  37 
 PAM  SN ES   1    2 1 29.16                             152   -0.27 7 74.0  37 
 BRR  HZ EP        2 1 11.91                             151    0.1610 75.7 296 
 BRR  HN ES        2 1 28.63                             151    0.2710 75.7 296 
 BRR  HZ I         2 1 33.61        13.1 0.16                          75.7 296 
 RUS  HZ EP        2 1 14.10                             143   -0.0110  101 179 
 RUS  HE ES        2 1 32.38                             143   -0.1710  101 179 
 RUS  HZ I         2 1 34.14         5.2 0.44                           101 179 
 ZAR  HE ES   1    2 1 48.40                             121   -0.57 6  209 292 
 ZAR  HZ I         2 1 56.58         7.7 0.24                           209 292 
 NOR  SZ EP   1    2 1 26.42                             118   -0.19 6  239 235 
 NOR  SN ES   1    2 1 54.88                             118    0.09 6  239 235 
 CHI  HZ EP        2 1 28.27                             117   -0.01 8  250 196 
 CHI  HN ES   1    2 1 58.19                             117    0.41 6  250 196 
 CHI  HZ I         2 2  4.77         3.0 0.40                           250 196 
 PRA  HZ EP   1    2 1 44.11                             106   -0.17 4  395 210 
 PRA  HN ES   2    2 2 26.10                             106   -0.15 3  395 210 
                                                                                
