 2017  428 0323 39.2 L   6.725 -73.113141.1  RSN  4 0.5 1.3LRSN                1
 GAP=235        0.68       5.1     7.0  7.0  0.1376E+02  0.2228E+02  0.1033E+02E
 Epicentro: JORDAN - SANTANDER                                                 3
 ACTION:UPD 17-05-30 21:16 OP:jn   STATUS:               ID:20170428032339 L   I
 OLDACT:UP  17-04-28 15:32 OP:and  STATUS:               ID:20170428031740     3
 OLDACT:REG 17-04-28 12:35 OP:and  STATUS:               ID:20170428031740     3
 2017-04-28-0318-00M.COL___368                                                 6
 STAT SP IPHASW D HRMM SECON CODA AMPLIT PERI AZIMU VELO AIN AR TRES W  DIS CAZ7
 BRR  HZ IP   2 C  323 59.54                             149   -0.75 5 78.6 303 
 BRR  HN ES        324 16.81                             149    0.0710 78.6 303 
 RUS  HZ EP   2    324  2.07                             145    0.18 5 92.1 178 
 RUS  HN ES        324 19.54                             145   -0.0510 92.1 178 
 RUS  HZ I         324 20.75         3.2 0.32            142           92.1 178 
 PTB  HZ EP        324  6.27                             130    0.27 9  150 262 
 PTB  HN ES   3    324 25.05                             130   -1.85 2  150 262 
 PTB  HZ I         324 25.70         1.6 0.24            129            150 262 
 NOR  HZ EP        324 14.22                             118   -0.26 8  233 237 
 NOR  HN ES        324 42.24                             118    0.24 8  233 237 
 NOR  HZ I         324 46.07         2.4 0.16            117            233 237 
                                                                                
