 2013 1128 0031  8.5 L   7.448 -73.212127.9  RSN 13 0.5 2.0LRSN 2.6WRSN        1
 SPEC AVERAGE  MO 13.0 ST 69.3 OM  1.3 f0 14.7 R0.2641 AL 0.00 WI 20.0 MW  2.6 3
 SPEC SD       MO  0.2 ST127.9 OM  0.4 f0 11.4 R0.2278 AL      WI      MW  0.1 3
 GAP= 73        1.17       3.2     3.9  6.2 -0.1970E+01  0.7254E+01  0.2472E+01E
 Epicentro: EL PLAYON - SANTANDER                                              3
 SPEC PAM SH Z MO 12.7 ST  6.5 OM  0.9 f0 12.6 R0.1527 AL-0.00 WI 20.0 MW  2.4 3
 SPEC PAM SH Z T 03140 K 0.050 GD  140 VS 5.20 DE 3.20 Q0750.0 QA 1.50 VS 5.20 3
 SPEC BRR HH Z MO 13.2 ST 34.9 OM  1.4 f0 14.9 R0.1291 AL-0.00 WI 20.0 MW  2.8 3
 SPEC BRR HH Z T 03141 K 0.050 GD  144 VS 5.20 DE 3.20 Q0750.0 QA 1.50 VS 5.20 3
 SPEC OCA HH Z MO 12.9 ST0.262 OM  1.0 f0 3.87 R0.4972 AL-0.00 WI 20.0 MW  2.5 3
 SPEC OCA HH Z T 03144 K 0.050 GD  155 VS 5.20 DE 3.20 Q0750.0 QA 1.50 VS 5.20 3
 SPEC BAR2SH Z MO 13.2 ST103.9 OM  1.3 f0 22.4 R0.0859 AL-0.00 WI 20.0 MW  2.7 3
 SPEC BAR2SH Z T 03144 K 0.050 GD  159 VS 5.20 DE 3.20 Q0750.0 QA 1.50 VS 5.20 3
 SPEC PTB HH Z MO 13.0 ST396.3 OM  1.0 f0 40.0 R0.0481 AL-0.00 WI 20.0 MW  2.6 3
 SPEC PTB HH Z T 03156 K 0.050 GD  212 VS 5.20 DE 3.20 Q0750.0 QA 1.50 VS 5.20 3
 SPEC SPBCHH Z MO 13.1 ST0.129 OM  1.0 f0 2.59 R0.7429 AL-0.00 WI 20.0 MW  2.7 3
 SPEC SPBCHH Z T 032 6 K 0.050 GD  254 VS 5.20 DE 3.20 Q0750.0 QA 1.50 VS 5.20 3
 SPEC NOR HH Z MO 12.8 ST 12.0 OM  0.6 f0 15.0 R0.1283 AL-0.00 WI 20.0 MW  2.5 3
 SPEC NOR HH Z T 03216 K 0.050 GD  306 VS 5.20 DE 3.20 Q0750.0 QA 1.50 VS 5.20 3
 SPEC HEL HH Z MO 12.8 ST0.737 OM  0.6 f0 5.85 R0.3289 AL-0.00 WI 20.0 MW  2.5 3
 SPEC HEL HH Z T 03221 K 0.050 GD  317 VS 5.20 DE 3.20 Q0750.0 QA 1.50 VS 5.20 3
 SPECGUY2CHH Z MO 13.0 ST  0.2 OM  0.8 f0 2.88 R 0.667 AL-0.00 WI 20.0 MW  2.6 3
 SPECGUY2CHH Z T 03232 K 0.050 GD365.1 VS 5.20 DE 3.20 Q0750.0 QA 1.50 VS 5.20 3
 OLDACT:REG 13-11-28 07:45 OP:stll STATUS:               ID:20131128002809     3
 ACTION:UPD 14-01-09 16:31 OP:ep   STATUS:               ID:20131128003108 L   I
 OLDACT:UP  13-11-28 08:19 OP:stll STATUS:               ID:20131128002809     3
 2013-11-28-0028-09M.COL___247                                                 6
 STAT SP IPHASW D HRMM SECON CODA AMPLIT PERI AZIMU VELO AIN AR TRES W  DIS CAZ7
 PAM  SZ IP     C  031 27.89                             154    0.2010 57.8 102 
 PAM  SN ES        031 42.45                             154   -0.2010 57.8 102 
 PAM  SZ I         031 44.49        16.9 0.16            147           57.8 102 
 BRR  HZ IP     D  031 27.59                             151    0.1010 66.9 236 
 BRR  HN ES        031 42.55                             151    0.2610 66.9 236 
 BRR  SZ I         031 43.32        27.8 0.10            146           66.9 236 
 OCA  HZ EP        031 29.34                             143    0.2110 88.2 352 
 OCA  HE ES        031 45.90                             143    0.6810 88.2 352 
 OCA  SZ I         031 47.44        13.2 0.32            142           88.2 352 
 BAR2 SZ EP        031 29.67                             141   -0.0710 94.7 178 
 BAR2 SZ ES        031 45.95                             141   -0.3410 94.7 178 
 BAR2 SZ I         031 46.90        57.9 0.36            133           94.7 178 
 CAPV BZ EP        031 31.41                             137    0.5310  109  65 
 PTB  HZ EP        031 36.32                             123   -0.01 9  170 234 
 PTB  HN ES        031 57.63                             123   -0.39 9  170 234 
 PTB  SZ I         032  1.77        10.4 0.20            118            170 234 
 RUS  HZ EP        031 36.34                             123   -0.85 9  173 175 
 RUS  SZ I         032  8.29         6.0 1.82            117            173 175 
 SML  HZ EP        031 36.31                             122   -0.68 9  177 328 
 SML  HN ES        031 58.12                             122   -1.09 9  177 328 
 SML  SZ I         031 59.64        25.2 0.08            119            177 328 
 ZAR  HZ EP        031 37.65                             121    0.15 9  182 272 
 ZAR  HN ES        032  0.38                             121    0.27 9  182 272 
 ZAR  SZ I         032  5.39        13.3 0.46            117            182 272 
 SPBC HZ EP        031 41.96                             116    0.24 8  220 206 
 SPBC HN ES        032  7.78                             116    0.16 8  220 206 
 SPBC SZ I         032 16.81         8.4 0.20            111            220 206 
 NOR  HZ EP        031 48.04                             110   -0.06 7  278 221 
 NOR  HE ES        032 18.11                             110   -0.88 7  278 221 
 NOR  SZ I         032 26.88         5.3 0.14            106            278 221 
 HEL  HZ EP        031 50.16                             109    0.07 7  291 242 
 HEL  HN ES        032 22.96                             109    0.43 7  291 242 
 GUY2CHZ EP        031 57.18                             106    1.03 7  342 224 
 GUY2CHE ES        032 33.94                             106    0.63 7  342 224 
 GUY2CSZ I         032 42.95         4.6 2.04                           342 224 
                                                                                
