 2017 1028 0136 46.5 L   6.769 -73.169146.5  RSN  5 0.6 1.0LRSN                1
 GAP=111        1.38       8.6     8.6 13.1  0.2369E+02 -0.3905E+02 -0.7897E+01E
 Epicentro: LOS SANTOS - SANTANDER                                             3
 ACTION:UPD 17-11-07 19:38 OP:rebc STATUS:               ID:20171028013646 L   I
 OLDACT:UP  17-10-28 14:07 OP:dani STATUS:               ID:20171028012742d    3
 OLDACT:UP  17-10-28 14:07 OP:dani STATUS:               ID:20171028012742d    3
 OLDACT:UP  17-10-28 14:07 OP:dani STATUS:               ID:20171028012742d    3
 OLDACT:UP  17-10-28 14:05 OP:dani STATUS:               ID:20171028012742d    3
 OLDACT:DUP 17-10-28 14:02 OP:dani STATUS:               ID:20171028012742d    3
 OLDACT:UP  17-10-28 13:37 OP:dani STATUS:               ID:20171028012740     3
 OLDACT:REG 17-10-28 12:28 OP:dani STATUS:               ID:20171028012740     3
 2017-10-28-0128-00M.COL___456                                                 6
 STAT SP IPHASW D HRMM SECON CODA AMPLIT PERI AZIMU VELO AIN AR TRES W  DIS CAZ7
 BRR  HZ EP        137  7.62                             153   -0.0910 70.7 302 
 BRR  HN ES        137 24.38                             153    0.1410 70.7 302 
 BRR  HZ I         137 26.40         4.6 0.50            150           70.7 302 
 PAM  EZ EP        137  8.91                             150   -0.1510 81.7  39 
 RUS  HZ EP        137 10.42                             145    0.3210 97.3 174 
 RUS  HN ES        137 28.79                             145    0.2910 97.3 174 
 RUS  HZ I         137 30.14         1.3 0.27            144           97.3 174 
 PTB  HZ EP        137 14.24                             133    0.99 9  145 260 
 PTB  HN ES        137 33.26                             133   -0.85 9  145 260 
 PTB  HZ I         137 41.11         0.9 0.20            131            145 260 
 YPLC HZ EP        137 15.38                             127   -0.80 9  175 150 
                                                                                
