 2012  428 0915 43.9 L   6.824 -73.208135.8  RSN  5 0.1 1.2LRSN                1
 GAP=128        0.34       2.3     2.5  4.9 -0.1376E+01  0.4557E+01 -0.2211E+01E
 Epicentro: ZAPATOCA - SANTANDER                                               3
 ACTION:UPD 12-07-05 11:56 OP:tino STATUS:               ID:20120428091543 L   I
 2012-04-28-0910-00M.COL___189                                                 6
 STAT SP IPHASW D HRMM SECON CODA AMPLIT PERI AZIMU VELO AIN AR TRES W  DIS CAZ7
 BAR2 SZ EP   1    916  2.42                             169     0.1 8   26 174 
 BRR  HZ EP   2    916  3.79                             153     0.3 5   64 299 
 BRR  HZ I         916  4.42         5.7 0.20                            64 299 
 PAM  SZ EP   1    916  5.25                             148     0.1 8   80  45 
 PAM  SN ES   1    916 21.73                             148    -0.1 8   80  45 
 RUS  HZ EP   1    916  6.87                             141     0.0 7  104 172 
 RUS  HN ES        916 24.88                             141     0.010  104 172 
 RUS  HZ I         916 26.24         3.0 0.59                           104 172 
 PTB  HZ EP   1    916  9.29                             131    -0.2 7  142 257 
 PTB  HN ES   1    916 29.44                             131     0.0 7  142 257 
 PTB  HZ I         916 33.55         1.0 0.26                           142 257 
                                                                                
