 2014  528 0616 21.0 L   6.802 -73.149150.7  RSN 10 0.4 1.8LRSN                1
 GAP=201        0.91       3.4     5.2  5.7  0.3035E+01  0.4339E+01 -0.1914E+01E
 Epicentro: LOS SANTOS - SANTANDER                                             3
 ACTION:UPD 15-03-16 17:01 OP:nd   STATUS:               ID:20140528061621 L   I
 OLDACT:UP  14-05-28 14:26 OP:cam  STATUS:               ID:20140528061000     3
 OLDACT:REG 14-05-28 13:00 OP:cam  STATUS:               ID:20140528061000     3
 2014-05-28-0610-00M.COL___276                                                 6
 STAT SP IPHASW D HRMM SECON CODA AMPLIT PERI AZIMU VELO AIN AR TRES W  DIS CAZ7
 BAR2 SZ EP        616 41.07                             171   -0.1710 23.5 189 
 BAR2 SZ ES        616 56.96                             171   -0.0610 23.5 189 
 BAR2 SZ I         616 57.86        10.0 0.20            170           23.5 189 
 BRR  HZ EP        616 42.93                             154    0.2510 70.8 298 
 BRR  HN ES        617  0.41                             154    0.8410 70.8 298 
 BRR  HZ I         617  1.23         7.5 0.40            153           70.8 298 
 RUS  HZ EP   1    616 45.22                             145   -0.06 7  101 176 
 RUS  HE ES        617  3.97                             145   -0.2310  101 176 
 RUS  HZ I         617  6.49         5.3 0.38            144            101 176 
 PTB  HZ EP        616 47.94                             133   -0.42 9  147 259 
 PTB  HN ES        617  8.97                             133   -0.72 9  147 259 
 PTB  HZ I         617 11.51         5.7 0.10            133            147 259 
 SPBC HZ EP        616 50.02                             130    0.12 9  163 219 
 SPBC HN ES        617 12.57                             130    0.15 9  163 219 
 SPBC HZ I         617 14.70        10.2 0.46            130            163 219 
 ZAR  HE ES   1    617 19.42                             124    0.15 6  204 292 
 SML  HZ EP        616 57.70                             119   -0.18 8  243 335 
 SML  HE ES        617 26.31                             119   -0.32 8  243 335 
 SML  HZ I         617 33.34         7.2 0.22            118            243 335 
 CHI  HZ EP   1    616 59.24                             118    0.23 6  249 195 
 CHI  HN ES   2    617 28.81                             118    0.16 4  249 195 
 CHI  HZ I         617 36.35         2.9 0.40            118            249 195 
 HEL  HZ EP   1    617  2.35                             116    0.89 6  272 256 
 GUY2CHZ EP   4    617  6.73                             113    1.89 0  301 235 
 GUY2CHE ES   1    617 39.14                             113    0.11 5  301 235 
 GUY2CHZ I         617 45.84         3.6 0.32                           301 235 
 SJC  HZ EP   4    617 15.36                             107   -1.34 0  409 327 
 SJC  HE ES   4    617 56.54                             107   -3.58 0  409 327 
                                                                                
