 2012  828 0308 15.7 L   6.167 -73.707109.8  RSN  4 0.1 1.4LRSN                1
 GAP=183        0.28       3.4     3.1  6.7  0.2981E+01 -0.1164E+02  0.7694E+00E
 Epicentro: LANDAZURI - SANTANDER                                              3
 ACTION:UPD 12-09-10 11:58 OP:ep   STATUS:               ID:20120828030815 L   I
 2012-08-28-0300-00M.COL___218                                                 6
 STAT SP IPHASW D HRMM SECON CODA AMPLIT PERI AZIMU VELO AIN AR TRES W  DIS CAZ7
 BAR2 SZ EP   2    3 8 33.65                             143    0.01 5 74.7  51 
 BAR2 SZ ES   3    3 8 47.51                             143   -0.16 3 74.7  51 
 BAR2 SZ I         3 8 48.48         9.3 0.36                          74.7  51 
 RUS  HZ EP   1    3 8 34.10                             143    0.04 8 75.4 114 
 PTB  HZ EP   3    3 8 34.74                             137    0.00 3 92.6 296 
 PTB  HE ES   1    3 8 49.60                             137   -0.02 8 92.6 296 
 BRR  HZ EP        3 8 35.67                             133   -0.0310  104 360 
 BRR  HZ I         3 8 48.97         3.6 0.50                           104 360 
 BRR  HN ES   2    3 8 51.44                             133    0.11 5  104 360 
                                                                                
