 2013  928 0647 58.9 L   6.807 -73.144139.5  RSN  7 0.7 1.5LRSN                1
 GAP=136        1.72       6.4     9.0 12.4 -0.8183E+01  0.2870E+02  0.1048E+02E
 Epicentro: LOS SANTOS - SANTANDER                                             3
 ACTION:UPD 13-10-22 09:25 OP:ep   STATUS:               ID:20130928064758 L   I
 OLDACT:REG 13-09-28 08:26 OP:stll STATUS:               ID:20130928063836     3
 2013-09-28-0638-36M.COL___244                                                 6
 STAT SP IPHASW D HRMM SECON CODA AMPLIT PERI AZIMU VELO AIN AR TRES W  DIS CAZ7
 BAR2 SZ EP        648 18.28                             170    0.4610 24.1 190 
 BAR2 SZ ES        648 32.10                             170   -0.4510 24.1 190 
 BAR2 SZ I         648 33.68         3.9 0.28            172           24.1 190 
 BRR  HZ EP        648 19.41                             151    0.0310 70.9 298 
 BRR  HN ES        648 36.61                             151    1.2710 70.9 298 
 BRR  HZ I         648 39.20         6.8 0.42            151           70.9 298 
 PAM  SE ES        648 37.27                             150    0.0610 76.7  40 
 PAM  SZ I         648 39.84        10.3 0.40            151           76.7  40 
 RUS  HZ EP        648 22.98                             142    0.8610  101 176 
 RUS  HN ES        648 39.83                             142   -0.3810  101 176 
 RUS  HZ I         648 42.09         2.8 0.38            146            101 176 
 PTB  HZ EP        648 25.21                             130   -0.20 9  148 259 
 PTB  HE ES        648 46.22                             130    0.15 9  148 259 
 PTB  HZ I         648 48.58         3.8 0.48            132            148 259 
 OCA  HN ES        648 47.14                             128   -1.19 9  160 353 
 OCA  HZ I         648 52.01         5.1 0.18            129            160 353 
 SPBC HZ EP        648 27.05                             127    0.04 9  164 219 
 SPBC HN ES        648 47.91                             127   -1.01 9  164 219 
                                                                                
