 2014  228 0625 10.6 L   6.808 -73.124140.8  RSN 14 0.4 2.0LRSN                1
 GAP=139        0.66       2.5     3.2  4.7 -0.8344E+00  0.6729E+01  0.1418E+01E
 Epicentro: LOS SANTOS - SANTANDER                                             3
 OLDACT:DUP 14-02-28 13:29 OP:fm   STATUS:               ID:20140228061817d    3
 ACTION:UPD 14-03-10 08:14 OP:ep   STATUS:               ID:20140228062510 L   I
 OLDACT:UP  14-02-28 13:39 OP:fm   STATUS:               ID:20140228061817d    3
 2014-02-28-0618-16M.COL___174                                                 6
 STAT SP IPHASW D HRMM SECON CODA AMPLIT PERI AZIMU VELO AIN AR TRES W  DIS CAZ7
 BAR2 SZ EP        625 29.62                             170   -0.0610 24.7 195 
 BAR2 SZ ES   1    625 44.27                             170   -0.29 7 24.7 195 
 BAR2 SZ I         625 45.63        43.8 0.30            158           24.7 195 
 PAM  SZ EP        625 32.56                             151    0.3910 75.2  39 
 PAM  SN ES        625 49.22                             151    0.2310 75.2  39 
 PAM  SZ I         625 53.47         7.7 0.40            145           75.2  39 
 RUS  HZ EP        625 33.75                             142   -0.1910  101 177 
 RUS  HE ES        625 52.08                             142   -0.0610  101 177 
 RUS  SZ I         625 53.77         6.0 0.24            128            101 177 
 PTB  HZ EP   4    625 34.74                             130   -2.68 0  150 259 
 PTB  HE ES   2    625 58.96                             130    0.64 5  150 259 
 PTB  SZ I         626  1.84         8.9 0.12            118            150 259 
 OCA  HN ES   1    625 59.79                             128   -0.44 7  160 352 
 ZAR  HZ EP   2    625 43.11                             121    0.17 4  206 292 
 ZAR  HE ES        626  8.21                             121    0.06 8  206 292 
 ZAR  SZ I         626 15.43         6.6 0.26            111            206 292 
 NOR  HZ EP        625 46.38                             117    0.05 8  237 235 
 NOR  HE ES        626 14.05                             117   -0.14 8  237 235 
 NOR  SZ I         626 18.89         7.8 0.36            107            237 235 
 SML  HZ EP   1    625 46.38                             116   -0.61 6  244 335 
 SML  HE ES   4    626 13.79                             116   -1.57 0  244 335 
 SML  SZ I         626 21.10         9.1 0.08            108            244 335 
 CHI  HZ EP        625 47.88                             116   -0.33 8  250 196 
 CHI  HN ES   4    626 20.15                             116    2.61 0  250 196 
 CHI  SZ I         626 34.24         7.1 2.96            106            250 196 
 ROSC BZ EP   4    625 50.09                             115    1.40 0  255 211 
 ROSC SZ I         626 30.82         9.5 4.90            106            255 211 
 HEL  HZ EP   2    625 51.47                             113    0.61 4  275 256 
 HEL  HN ES   2    626 21.61                             113   -0.65 4  275 256 
 HEL  SZ I         626 28.06         5.7 1.10            105            275 256 
 GUY2CHZ EP   4 C  625 56.35                             111    2.07 0  304 235 
 GUY2CHN ES   4    626 31.33                             111    2.99 0  304 235 
 GUY2CSZ I         626 41.67         4.9 2.38                           304 235 
 CBOC HZ EP   1    625 58.27                             109    0.65 5  336 252 
 CBOC HN ES   4    626 35.75                             109    1.46 0  336 252 
 CBOC SZ I         626 54.17         5.2 2.92            102            336 252 
 PRA  HZ EP   1    626  4.20                             105   -0.00 4  394 210 
 PRA  HN ES   1    626 46.93                             105    0.93 4  394 210 
 PRA  SZ I         627  4.03         7.7 3.54            100            394 210 
                                                                                
