 2017 1028 0746 52.7 L   6.387 -73.593117.4  RSN 38 0.8 2.7LRSN                1
 GAP= 41        1.67       2.9     3.2  6.4 -0.1430E+01  0.5851E+01  0.9954E+00E
 Epicentro: SANTA HELENA DEL OPON - SANTANDER                                  3
 ACTION:UPD 17-11-07 19:38 OP:rebc STATUS:               ID:20171028074652 L   I
 OLDACT:UP  17-10-28 16:03 OP:osc  STATUS:               ID:20171028073738     3
 OLDACT:UP  17-10-28 16:01 OP:osc  STATUS:               ID:20171028073738     3
 OLDACT:REG 17-10-28 12:56 OP:dani STATUS:               ID:20171028073738     3
 2017-10-28-0738-00M.COL___441                                                 6
 STAT SP IPHASW D HRMM SECON CODA AMPLIT PERI AZIMU VELO AIN AR TRES W  DIS CAZ7
 BAR2 EZ EP        747 10.19                             155    0.1910 50.8  63 
 BAR2 EZ ES        747 23.79                             155    0.3010 50.8  63 
 BAR2 EZ I         747 24.63       271.3 0.40            153           50.8  63 
 RUS  HZ IP     D  747 11.50                             144   -0.5810 78.6 134 
 RUS  HN ES        747 25.89                             144   -1.3010 78.6 134 
 RUS  HZ I         747 26.99        45.8 0.36            144           78.6 134 
 BRR  HZ EP        747 11.80                             142    0.2610 80.7 351 
 BRR  HN ES        747 27.07                             142    0.8310 80.7 351 
 SPBC HZ EP        747 12.31                             137   -0.6310 97.0 213 
 SPBC HE ES        747 28.11                             137   -0.6110 97.0 213 
 SPBC HZ I         747 32.05       142.1 0.20            136           97.0 213 
 PTB  HZ EP     C  747 12.00                             137   -0.8310 97.0 280 
 PTB  HN ES        747 27.10                             137   -1.4310 97.0 280 
 PTB  HZ I         747 29.33       114.7 0.36            134           97.0 280 
 PAM  EZ EP        747 18.21                             125    0.39 9  144  43 
 PAM  EN ES        747 38.74                             125    1.33 9  144  43 
 PAM  EZ I         747 42.62        60.1 0.48            123            144  43 
 TABC EZ EP        747 20.64                             121    0.61 9  166 204 
 TABC EZ ES        747 41.37                             121    0.03 9  166 204 
 TABC EZ I         747 45.91        80.9 0.50            120            166 204 
 NOR  HZ EP        747 18.79                             120   -0.87 9  168 237 
 NOR  HN ES        747 40.47                             120   -0.21 9  168 237 
 NOR  HZ I         747 42.06       109.1 0.28            118            168 237 
 YPLC HZ IP     D  747 20.08                             119   -0.16 9  173 129 
 YPLC HE ES        747 42.17                             119    0.46 9  173 129 
 YPLC HZ I         747 43.53        44.3 0.30            118            173 129 
 ZAR  HZ EP        747 21.75                             117    0.27 9  186 311 
 ZAR  HN ES        747 44.87                             117    0.95 9  186 311 
 ZAR  HZ I         747 49.37        63.6 0.30            115            186 311 
 ROSC BZ EP        747 23.25                             117    0.92 9  189 205 
 ROSC BN ES        747 46.19                             117    0.75 9  189 205 
 ROSC BZ I         747 48.76        53.5 0.30            116            189 205 
 CHI  HZ EP        747 22.41                             116   -0.59 9  195 185 
 CHI  HE ES        747 45.32                             116   -1.30 9  195 185 
 CHI  HZ I         747 49.55        34.1 0.56            115            195 185 
 TAM  HZ EP        747 23.03                             115    0.02 9  199  88 
 TAM  HN ES        747 46.60                             115   -0.05 9  199  88 
 TAM  HZ I         747 51.10        43.4 0.60            114            199  88 
 GUY2CHZ EP        747 27.38                             112   -0.10 8  235 237 
 GUY2CHN ES        747 55.15                             112    0.54 8  235 237 
 GUY2CHZ I         748  0.86        39.5 0.42                           235 237 
 RECRCHZ EP        747 30.67                             110    1.26 8  251 231 
 RECRCHE ES        747 58.96                             110    0.92 8  251 231 
 NIZA HZ EP   4    747 31.91                             109    2.37 0  255 235 
 NIZA HN ES   4    748  2.67                             109    4.41 0  255 235 
 ELA  HZ EP        747 31.37                             109    0.71 8  262 230 
 ELA  HN ES        747 59.97                             109   -0.30 8  262 230 
 ELA  HZ I         748 10.64        26.9 0.46            107            262 230 
 URE  HZ EP        747 29.20                             109   -0.85 8  262 305 
 URE  HN ES   3    747 58.17                             109   -1.00 2  262 305 
 URE  HZ I         748  1.94        26.7 0.14            107            262 305 
 ANIL HZ EP        747 34.32                             107    0.68 7  290 224 
 ANIL HE ES        748  7.23                             107    1.66 7  290 224 
 ANIL HZ I         748 14.48        93.1 0.34            105            290 224 
 PTGC HZ EP   9    747 31.74                             106   -1.64 0  291 146 
 PTGC HN ES        748  2.57                             107   -0.90 7  291 146 
 PTGC HZ I         748  2.92        13.0 0.38            105            291 146 
 DBB  EZ EP        747 34.33                             106    0.07 7  298 284 
 DBB  EN ES        748  6.23                             106   -0.43 7  298 284 
 DBB  EZ I         748 11.26        27.5 0.24            104            298 284 
 CCALAHZ EP        747 36.96                             105    1.48 7  306 227 
 CCALAHE ES   4    748 13.10                             105    4.26 0  306 227 
 PRA  HZ EP        747 37.15                             104   -0.69 7  328 206 
 PRA  HE ES        748 12.87                             104   -0.17 7  328 206 
 PRA  HZ I         748 18.71        35.8 0.20            103            328 206 
 ORTC HZ EP        747 38.10                             104    0.13 7  330 214 
 ORTC HN ES        748 14.66                             104    1.39 7  330 214 
 ORTC HZ I         748 19.79        22.1 0.26            102            330 214 
 PAL  HZ EP        747 39.46                             103    0.22 7  340 241 
 PAL  HE ES        748 14.95                             103   -0.58 7  340 241 
 PAL  HZ I         748 19.46        11.1 0.20            102            340 241 
 APAC HZ EP        747 42.68                             102   -0.02 6  370 297 
 APAC HN ES        748 21.95                             102    0.25 6  370 297 
 APAC HZ I         748 26.97         9.7 0.50            100            370 297 
 LL6C HZ EP   9    747 44.43                             102    1.47 0  372   5 
 LL6C HN ES        748 24.49                             101    0.87 6  372   5 
 LL6C HZ I         748 32.99        15.6 0.74            100            372   5 
 ARGC HZ EP   4    747 48.36                             101    3.18 0  391 349 
 ARGC HN ES   4    748 30.44                             101    4.34 0  391 349 
 ARGC HZ I         748 38.52         8.8 0.44             99            391 349 
 YOT  HZ EP        747 46.05                             100   -0.95 6  405 229 
 YOT  HN ES   4    748 33.97                             100    4.62 0  405 229 
 SJC  HZ EP        747 48.39                              99   -1.07 5  426 336 
 SJC  HN ES        748 32.09                              99   -1.64 5  426 336 
 SJC  HZ I         748 59.26         6.9 0.38             98            426 336 
 GUA  EZ EP   4    747 47.66                              99   -3.23 0  438 166 
 GUA  EE ES   4    748 33.18                              99   -3.09 0  438 166 
 GUA  EZ I         748 39.92        14.1 0.20             98            438 166 
 MACC HZ EP        747 53.80                              98   -0.92 5  470 183 
 MACC HN ES   4    748 38.47                              98   -4.62 0  470 183 
 MACC HZ I         748 47.02        12.1 0.66             96            470 183 
 GARC HZ EP        747 58.61                              97   -1.26 4  510 205 
 GARC HN ES   4    748 50.03                              97   -2.23 0  510 205 
 CRJC HZ EP        748  0.71                              96    0.02 4  518   9 
 CRJC HE ES        748 52.31                              96   -1.40 4  518   9 
 CRJC HZ I         748 59.61        14.7 0.28             95            518   9 
 SMAR HN ES        748 57.13                              96    0.51 4  533 353 
 CONO HZ EP        748  4.61                              96   -0.02 4  546 215 
 CONO HN ES   4    749  3.38                              96    2.65 0  546 215 
 SOTO HZ EP        748  9.18                              95    0.89 3  577 216 
 FLO2 HZ EP        748  6.75                              95   -1.12 3  578 203 
 FLO2 HN ES   4    749  4.63                              95   -1.87 0  578 203 
 FLO2 HZ I         749 10.47         2.0 0.28             94            578 203 
 URI  HZ EP        748 11.76                              94   -0.35 3  614  17 
 URI  HE ES        749 13.82                              94   -0.22 3  614  17 
 URI  HZ I         749 18.52         3.0 0.50             93            614  17 
                                                                                
