 2016  928 0414 53.7 L   6.778 -73.175148.8  RSN  4 0.4 1.2LRSN                1
 GAP=233        1.05       8.4     8.0  8.4  0.3310E+02  0.5329E+01  0.9951E+00E
 Epicentro: LOS SANTOS - SANTANDER                                             3
 ACTION:UPD 17-08-17 21:17 OP:lp   STATUS:               ID:20160928041453 L   I
 OLDACT:DUP 16-09-28 15:42 OP:dani STATUS:               ID:20160928040739d    3
 OLDACT:REG 16-09-28 13:01 OP:dani STATUS:               ID:20160928040738     3
 2016-09-28-0408-00M.COL___384                                                 6
 STAT SP IPHASW D HRMM SECON CODA AMPLIT PERI AZIMU VELO AIN AR TRES W  DIS CAZ7
 BAR2 EZ EP        415 13.52                             172   -0.1110 20.6 182 
 BAR2 EZ ES        415 28.46                             172   -0.7310 20.6 182 
 BAR2 EZ I         415 31.17         5.2 0.40            170           20.6 182 
 BRR  HZ EP        415 14.99                             154   -0.0910 69.6 302 
 BRR  HN ES        415 32.42                             154    0.6610 69.6 302 
 BRR  HZ I         415 32.88         4.9 0.15            153           69.6 302 
 RUS  HZ EP        415 17.82                             145    0.2310 98.5 174 
 RUS  HN ES        415 36.61                             145    0.3810 98.5 174 
 RUS  HZ I         415 37.11         1.2 0.19            145           98.5 174 
 PTB  HZ EP        415 20.38                             133   -0.20 9  144 260 
 PTB  HN ES        415 41.35                             133   -0.20 9  144 260 
 PTB  HZ I         415 44.91         1.9 0.16            133            144 260 
                                                                                
