 2011  328 0235 23.6 L   6.841 -73.067138.0  RSN  6 0.4 1.8LRSN                1
 GAP=191        0.92       6.6    11.9  9.5 -0.1241E+02 -0.4570E+02 -0.6618E+01E
 Epicentro: LOS SANTOS - SANTANDER                                             3
 ACTION:UP  11-06-16 14:36 OP:jfem STATUS:               ID:20110328023523 L   I
 2011-03-28-0234-28S.COL___138                                                 6
 STAT SP IPHASW D HRMM SECON CODA AMPLIT PERI AZIMU VELO SNR AR TRES W  DIS CAZ7
 BTL  SZ EP        235 42.36                             170     0.010   24 291 
 BTL  SZ ES   1    235 57.45                             170     0.5 7   24 291 
 BAR2 SZ EP        235 42.28                             167    -0.210   30 205 
 BAR2 SZ ES   3    235 56.27                             167    -0.9 2   30 205 
 BAR2 SZ I         235 58.21        14.7 0.06                            30 205 
 GIR2 SZ EP   2    235 41.25                             167    -1.1 5   30 332 
 GIR2 SZ ES   3    235 56.26                             167    -0.6 2   30 332 
 BRR  HZ EP        235 44.11                             149    -0.210   77 293 
 BRR  HN ES   1    236  0.71                             149     0.3 7   77 293 
 BRR  HZ I         236  1.97        17.5 0.19                            77 293 
 GRA  SZ EP        235 48.11                             137     0.510  119  14 
 GRA  SZ I         235 49.28         5.5 0.53                           119  14 
 GRA  SZ ES   2    236  5.90                             137    -0.4 5  119  14 
 OCA  SZ EP        235 51.02                             129     0.0 9  157 350 
 OCA  SZ ES   1    236 11.98                             129    -0.4 7  157 350 
 OCA  SZ I         236 15.78         6.4 0.52                           157 350 
                                                                                
