 2012 1128 0743 59.8 L   6.828 -73.156146.8  RSN  6 0.2 1.6LRSN                1
 GAP=134        0.61       3.1     2.9  4.5  0.2817E+00  0.3515E+01  0.1497E+01E
 Epicentro: LOS SANTOS - SANTANDER                                             3
 ACTION:UPD 12-12-05 15:36 OP:}ep  STATUS:               ID:20121128074360dL   I
 2012-11-28-0740-00M.COL___234                                                 6
 STAT SP IPHASW D HRMM SECON CODA AMPLIT PERI AZIMU VELO AIN AR TRES W  DIS CAZ7
 BAR2 SZ EP        744 19.39                             169   -0.2810 26.3 186 
 BAR2 SZ ES        744 35.28                             169    0.1610 26.3 186 
 BAR2 SZ I         744 36.01         9.6 0.38                          26.3 186 
 PAM  SZ EP        744 22.46                             151    0.3810 75.7  42 
 PAM  SE ES        744 39.12                             151   -0.3010 75.7  42 
 PAM  SN I         744 41.23         4.1 0.44                          75.7  42 
 RUS  HZ EP        744 24.18                             143    0.2510  104 176 
 RUS  HN ES        744 42.75                             143    0.0310  104 176 
 RUS  HN I         744 44.08         5.6 0.20                           104 176 
 PTB  HZ EP        744 26.74                             132   -0.12 9  147 258 
 PTB  HN ES        744 47.90                             132   -0.02 9  147 258 
 PTB  HN I         744 52.68         5.2 0.30                           147 258 
 ZAR  HN ES        744 57.39                             123    0.08 9  202 291 
 ZAR  HN I         745  3.16         5.5 0.48                           202 291 
 CHI  HZ EP        744 37.62                             117   -0.28 8  251 195 
 CHI  HN I         745 12.32         2.4 0.46                           251 195 
                                                                                
