 2012  928 0756 11.9 L   6.776 -73.137138.0  RSN 15 0.4 3.2LRSN 3.4WRSN        1
 SPEC AVERAGE  MO 14.2 ST 35.4 OM  3.2 f0 5.29 R0.2832 AL 3.49 WI 10.5 MW  3.4 3
 SPEC SD       MO  0.1 ST 24.4 OM  0.8 f00.706 R0.0385 AL      WI      MW  0.1 3
 GAP= 66        0.66       2.4     2.0  4.2  0.4755E+00  0.1575E+01  0.3259E+01E
 Epicentro: LOS SANTOS - SANTANDER                                             3
 SPEC TAM HH N MO 14.0 ST 21.3 OM  2.3 f0 5.43 R0.2707 AL 3.60 WI  8.4 MW  3.3 3
 SPEC TAM HH N T 75659 K 0.000 GD  206 VS 4.20 DE 3.00 Q0230.0 QA 0.60 VS 4.20 3
 SPEC PTB HH N MO 14.1 ST 24.4 OM  2.4 f0 5.30 R0.2774 AL 3.39 WI  9.0 MW  3.3 3
 SPEC PTB HH N T 75657 K 0.000 GD  202 VS 4.20 DE 3.00 Q0230.0 QA 0.60 VS 4.20 3
 SPEC HEL HH N MO 14.2 ST 25.4 OM  2.3 f0 5.06 R0.2905 AL 3.66 WI 16.6 MW  3.4 3
 SPEC HEL HH N T 75722 K 0.000 GD  305 VS 4.20 DE 3.00 Q0230.0 QA 0.60 VS 4.20 3
 SPEC CHI HH N MO 14.3 ST 21.6 OM  2.5 f0 4.22 R0.3483 AL 3.15 WI 10.9 MW  3.5 3
 SPEC CHI HH N T 75716 K 0.000 GD  282 VS 4.20 DE 3.00 Q0230.0 QA 0.60 VS 4.20 3
 SPEC BRR HH N MO 14.4 ST 84.1 OM  2.8 f0 6.42 R0.2290 AL 3.66 WI  7.8 MW  3.5 3
 SPEC BRR HH N T 75648 K 0.000 GD  156 VS 4.20 DE 3.00 Q0230.0 QA 0.60 VS 4.20 3
 ACTION:UPD 12-10-22 14:21 OP:ep   STATUS:               ID:20120928075611 L   I
 2012-09-28-0750-00M.COL___213                                                 6
 STAT SP IPHASW D HRMM SECON CODA AMPLIT PERI AZIMU VELO AIN AR TRES W  DIS CAZ7
 BAR2 SZ IP     D  756 30.49                             171   -0.0710 21.0 194 
 BAR2 SZ ES   2    756 44.92                             171   -0.19 5 21.0 194 
 BAR2 SZ I         756 46.31       499.1 0.21                          21.0 194 
 GIR2 SZ EP        756 30.54                             166   -0.2010 34.0 349 
 BRR  HZ IP     C  756 32.35                             150    0.0010 73.3 300 
 BRR  HZ I         756 32.83       325.4 0.12                          73.3 300 
 BRR  HN ES        756 48.81                             150    0.5210 73.3 300 
 PAM  SZ EP        756 33.28                             149   -0.1210 78.8  38 
 PAM  SZ I         756 33.77       394.9 0.18                          78.8  38 
 PAM  SN ES   1    756 50.00                             149   -0.16 7 78.8  38 
 RUS  HZ EP   1    756 34.51                             143   -0.20 7 97.9 176 
 RUS  HN ES        756 52.46                             143   -0.0310 97.9 176 
 RUS  HZ I         756 54.81       265.6 0.26                          97.9 176 
 PTB  HN ES   2    756 57.77                             130   -1.11 5  148 260 
 TAM  HZ EP        756 38.91                             129    0.07 9  154 104 
 TAM  HZ I         756 39.16       309.3 0.23                           154 104 
 TAM  HN ES        757  0.01                             129    0.17 9  154 104 
 YOP  SZ EP        756 41.34                             125    0.21 9  176 153 
 YOP  SZ I         757  6.01       197.1 0.30                           176 153 
 ZAR  HZ EP   1    756 43.75                             120   -0.31 6  206 293 
 ZAR  HN ES        757  9.29                             120    0.16 8  206 293 
 ZAR  HZ I         757 15.13       142.5 0.17                           206 293 
 NOR  SZ EP   1    756 47.19                             117    0.07 6  234 235 
 NOR  SN ES   2    757 14.57                             117   -0.02 4  234 235 
 NOR  SZ I         757 18.45        93.8 0.22                           234 235 
 CHI  HZ EP   1    756 49.00                             116    0.06 6  246 196 
 CHI  HN ES        757 17.53                             116   -0.29 8  246 196 
 CHI  HZ I         757 21.41        59.4 0.44                           246 196 
 ROSC BZ EP   1    756 50.34                             115    0.91 6  251 212 
 HEL  HZ EP   1    756 50.94                             113   -0.83 6  272 256 
 HEL  HN ES        757 23.00                             113    0.14 8  272 256 
 HEL  HZ I         757 28.89        89.4 0.45                           272 256 
 VIL  SZ EP   1    756 54.47                             111   -0.25 5  301 192 
 VIL  SN ES   2    757 28.58                             111    0.48 4  301 192 
 VIL  SZ I         757 38.23        84.1 0.46                           301 192 
 RREF HZ EP   1    756 57.40                             110   -0.22 5  321 230 
 RREF HN ES   1    757 33.72                             110    0.45 5  321 230 
 RREF HZ I         757 38.71        81.0 0.45                           321 230 
                                                                                
