 2013 1128 0037 26.5 L   6.330 -73.597107.7  RSN 15 0.5 2.2LRSN 2.7WRSN        1
 SPEC AVERAGE  MO 13.1 ST287.9 OM  1.3 f0 24.4 R0.1867 AL 0.00 WI 20.0 MW  2.7 3
 SPEC SD       MO  0.3 ST293.3 OM  0.4 f0 15.7 R0.2164 AL      WI      MW  0.2 3
 GAP= 54        1.09       2.3     2.4  5.2 -0.1143E+01  0.2506E+01  0.1160E+01E
 Epicentro: SANTA HELENA DEL OPON - SANTANDER                                  3
 SPEC BAR2SH Z MO 13.4 ST115.2 OM  1.6 f0 20.2 R0.0952 AL-0.00 WI 20.0 MW  2.8 3
 SPEC BAR2SH Z T 03754 K 0.050 GD  120 VS 5.20 DE 3.20 Q0750.0 QA 1.50 VS 5.20 3
 SPEC RUS HH Z MO 12.7 ST194.0 OM  0.9 f0 40.0 R0.0481 AL-0.00 WI 20.0 MW  2.4 3
 SPEC RUS HH Z T 03756 K 0.050 GD  131 VS 5.20 DE 3.20 Q0750.0 QA 1.50 VS 5.20 3
 SPEC BRR HH Z MO 13.2 ST647.3 OM  1.4 f0 40.0 R0.0481 AL-0.00 WI 20.0 MW  2.8 3
 SPEC BRR HH Z T 03758 K 0.050 GD  138 VS 5.20 DE 3.20 Q0750.0 QA 1.50 VS 5.20 3
 SPEC SPBCHH Z MO 13.1 ST525.5 OM  1.3 f0 40.0 R0.0481 AL-0.00 WI 20.0 MW  2.7 3
 SPEC SPBCHH Z T 03758 K 0.050 GD  141 VS 5.20 DE 3.20 Q0750.0 QA 1.50 VS 5.20 3
 SPEC PTB HH Z MO 13.3 ST857.1 OM  1.5 f0 40.0 R0.0481 AL-0.00 WI 20.0 MW  2.8 3
 SPEC PTB HH Z T 03758 K 0.050 GD  145 VS 5.20 DE 3.20 Q0750.0 QA 1.50 VS 5.20 3
 SPEC PAM SH Z MO 13.0 ST  3.2 OM  1.1 f0 7.82 R0.2460 AL-0.00 WI 20.0 MW  2.6 3
 SPEC PAM SH Z T 038 9 K 0.050 GD  183 VS 5.20 DE 3.20 Q0750.0 QA 1.50 VS 5.20 3
 SPEC NOR HH Z MO 13.1 ST460.2 OM  1.1 f0 40.0 R0.0481 AL-0.00 WI 20.0 MW  2.7 3
 SPEC NOR HH Z T 03810 K 0.050 GD  196 VS 5.20 DE 3.20 Q0750.0 QA 1.50 VS 5.20 3
 SPEC CHI HH Z MO 13.2 ST0.125 OM  1.2 f0 2.32 R0.8293 AL-0.00 WI 20.0 MW  2.8 3
 SPEC CHI HH Z T 03816 K 0.050 GD  217 VS 5.20 DE 3.20 Q0750.0 QA 1.50 VS 5.20 3
 SPEC ZAR HH Z MO 13.2 ST644.9 OM  1.2 f0 40.0 R0.0481 AL-0.00 WI 20.0 MW  2.8 3
 SPEC ZAR HH Z T 03815 K 0.050 GD  218 VS 5.20 DE 3.20 Q0750.0 QA 1.50 VS 5.20 3
 SPEC HEL HH Z MO 13.0 ST  3.0 OM  0.9 f0 8.12 R0.2369 AL-0.00 WI 20.0 MW  2.6 3
 SPEC HEL HH Z T 03822 K 0.050 GD  239 VS 5.20 DE 3.20 Q0750.0 QA 1.50 VS 5.20 3
 SPECGUY2CHH Z MO 13.3 ST  0.6 OM  1.3 f0 3.48 R 0.553 AL-0.00 WI 20.0 MW  2.8 3
 SPECGUY2CHH Z T 03825 K 0.050 GD254.9 VS 5.20 DE 3.20 Q0750.0 QA 1.50 VS 5.20 3
 SPEC PRA HH Z MO 13.1 ST  1.9 OM  0.9 f0 6.21 R0.3098 AL-0.00 WI 20.0 MW  2.7 3
 SPEC PRA HH Z T 03844 K 0.050 GD  340 VS 5.20 DE 3.20 Q0750.0 QA 1.50 VS 5.20 3
 SPEC ORTCHH Z MO 12.9 ST  2.7 OM  0.7 f0 8.19 R0.2349 AL-0.00 WI 20.0 MW  2.5 3
 SPEC ORTCHH Z T 03845 K 0.050 GD  341 VS 5.20 DE 3.20 Q0750.0 QA 1.50 VS 5.20 3
 2013-11-28-0028-09M.COL___247                                                 6
 OLDACT:DUP 13-11-28 08:12 OP:stll STATUS:               ID:20131128002810d    3
 ACTION:UPD 14-01-09 16:31 OP:ep   STATUS:               ID:20131128003726 L   I
 OLDACT:UP  13-11-28 08:36 OP:stll STATUS:               ID:20131128002810d    3
 STAT SP IPHASW D HRMM SECON CODA AMPLIT PERI AZIMU VELO AIN AR TRES W  DIS CAZ7
 BAR2 SZ EP        037 43.31                             151    0.4210 54.2  58 
 BAR2 SZ ES        037 56.27                             151    0.5710 54.2  58 
 BAR2 SZ I         037 57.58       100.7 0.42            153           54.2  58 
 RUS  HZ EP        037 44.72                             143    0.1210 74.7 130 
 RUS  HN ES        037 58.35                             143   -0.4110 74.7 130 
 RUS  HZ I         038  0.13        13.9 0.22            146           74.7 130 
 BRR  HZ EP        037 44.99                             138    0.1310 86.8 352 
 BRR  HN ES        037 59.76                             138    0.5510 86.8 352 
 BRR  HZ I         038  4.78        21.4 0.14            137           86.8 352 
 SPBC HZ EP        037 45.55                             136    0.1710 91.6 215 
 SPBC HN ES        038  0.22                             136    0.0810 91.6 215 
 SPBC HZ I         038  2.85        33.1 0.16            138           91.6 215 
 PTB  HZ EP        037 45.18                             134   -0.6310 97.8 284 
 PTB  HN ES        038  0.13                             134   -0.7810 97.8 284 
 PTB  HZ I         038  2.89        46.5 0.10            134           97.8 284 
 PAM  SZ EP        037 51.94                             122    0.53 9  149  42 
 PAM  SE ES        038 10.84                             122   -0.04 9  149  42 
 PAM  SZ I         038 15.52        12.3 0.24            122            149  42 
 NOR  HZ EP        037 52.42                             118   -0.02 9  164 239 
 NOR  HN ES        038 12.09                             118   -0.62 9  164 239 
 NOR  HZ I         038 15.05        24.9 0.18            119            164 239 
 CHI  HZ EP        037 54.85                             115   -0.70 9  189 185 
 CHI  HZ I         037 56.70         4.6 0.10            116            189 185 
 CHI  HN ES        038 17.73                             115   -0.51 9  189 185 
 ZAR  HZ EP        037 55.17                             114    0.04 9  190 313 
 ZAR  HN ES        038 17.39                             114   -0.11 9  190 313 
 ZAR  HZ I         038 23.27        28.4 0.22            115            190 313 
 TAM  HZ EP        037 56.23                             113   -0.12 9  200  87 
 TAM  HZ I         037 56.49        30.9 0.34            114            200  87 
 TAM  HN ES        038 19.46                             113   -0.21 9  200  87 
 HEL  HZ EP        037 58.63                             111    0.26 8  214 266 
 HEL  HN ES        038 23.77                             111    0.50 8  214 266 
 HEL  HZ I         038 27.40        11.5 0.30            112            214 266 
 GUY2CHZ EP        038  0.58                             110    0.18 8  231 238 
 GUY2CHN ES        038 27.27                             110    0.40 8  231 238 
 GUY2CHZ I         038 34.63        12.4 0.38                           231 238 
 SML  HZ EP        038  5.06                             105   -0.24 7  278 349 
 SML  HN ES        038 34.91                             105   -0.69 7  278 349 
 SML  HZ I         038 45.19        15.9 0.24            106            278 349 
 PRA  HZ EP        038 10.25                             102   -0.38 7  323 206 
 PRA  HN ES        038 45.57                             102    0.48 7  323 206 
 PRA  HZ I         038 51.24         9.7 0.24            103            323 206 
 ORTC HZ EP        038 11.11                             102    0.30 7  324 214 
 ORTC HN ES        038 46.55                             102    1.15 7  324 214 
 ORTC HZ I         038 53.66         7.6 0.42            103            324 214 
                                                                                
