 2014  328 0846 17.0 L   6.965 -73.305111.9  RSN  6 0.5 1.7LRSN                1
 GAP=162        1.19       4.5     5.8 11.8  0.3442E+00  0.1936E+02 -0.2931E+02E
 Epicentro: BETULIA - SANTANDER                                                3
 ACTION:UPD 14-04-09 23:21 OP:nd   STATUS:               ID:20140328084617 L   I
 OLDACT:DUP 14-03-28 09:30 OP:carl STATUS:               ID:20140328084045d    3
 2014-03-28-0840-44M.COL___247                                                 6
 STAT SP IPHASW D HRMM SECON CODA AMPLIT PERI AZIMU VELO AIN AR TRES W  DIS CAZ7
 BAR2 SZ EP        846 33.48                             158    0.1810 43.4 162 
 BAR2 SZ ES        846 46.70                             158    0.6710 43.4 162 
 BAR2 SZ I         846 47.09        19.8 0.42            167           43.4 162 
 RUS  HN ES        846 56.39                             130   -0.5610  121 168 
 PTB  HZ EP   4    846 38.64                             126   -1.57 0  136 250 
 PTB  HN ES        846 57.68                             126   -0.65 9  136 250 
 PTB  HZ I         847  0.50         7.9 0.34            130            136 250 
 OCA  HZ EP        846 41.00                             125    0.09 9  141 359 
 OCA  HN ES        846 59.00                             125   -0.57 9  141 359 
 OCA  HZ I         847  5.80         8.5 0.64            127            141 359 
 ZAR  HZ EP        846 45.67                             117    0.73 9  181 289 
 ZAR  HE ES        847  7.05                             117    0.29 9  181 289 
 ZAR  HZ I         847 11.36         4.5 0.44            121            181 289 
 SML  HZ EP        846 48.99                             112   -0.24 8  220 337 
 SML  HN ES        847 14.46                             112    0.06 8  220 337 
 SML  HZ I         847 20.81         7.3 0.34            115            220 337 
                                                                                
