 2012  728 0439  8.8 L   6.785 -73.115149.7  RSN  8 0.4 2.1LRSN                1
 GAP=141        0.63       5.2     5.5  7.2 -0.6722E+01  0.4051E+01  0.1858E+02E
 Epicentro: LOS SANTOS - SANTANDER                                             3
 ACTION:UPD 12-08-14 11:46 OP:ep   STATUS:               ID:20120728043908 L   I
 2012-07-28-0437-46M.COL___205                                                 6
 STAT SP IPHASW D HRMM SECON CODA AMPLIT PERI AZIMU VELO AIN AR TRES W  DIS CAZ7
 BAR2 SZ EP        439 29.17                             171     0.210   23 199 
 BAR2 SZ ES   3    439 43.64                             171    -1.0 2   23 199 
 BAR2 SZ I         439 44.94        32.6 0.26            149             23 199 
 BRR  HZ EP        439 30.64                             152     0.010   75 298 
 BRR  HZ I         439 30.92        33.2 0.32            122             75 298 
 BRR  HN ES   1    439 47.68                             152     0.1 7   75 298 
 PAM  SZ EP        439 31.62                             152     0.210   77  37 
 PAM  SZ I         439 31.77        21.1 0.20            135             77  37 
 PAM  SE ES   1    439 48.98                             152    -0.1 7   77  37 
 RUS  HZ EP        439 32.69                             145    -0.210   99 178 
 RUS  HN ES   3    439 51.15                             145    -0.4 2   99 178 
 RUS  HZ I         439 52.43         7.9 0.32            133             99 178 
 PTB  HZ EP   3    439 35.56                             132    -0.8 2  151 260 
 PTB  HZ I         440  4.01        13.5 0.60            110            151 260 
 OCA  HZ EP   2    439 36.77                             130    -0.9 5  162 352 
 OCA  HZ I         440  2.87        37.2 0.18            110            162 352 
 NOR  SZ EP        439 45.11                             119     0.1 8  237 235 
 PRA  HZ EP   2    440  2.07                             107    -0.5 3  392 210 
 PRA  HN ES   2    440 44.67                             107     0.3 3  392 210 
 PRA  HZ I         440 51.13         4.5 0.30             99            392 210 
