 2012  928 0410 47.0 L   6.794 -73.091147.0  RSN  6 0.3 1.8LRSN                1
 GAP=144        0.59       4.0     4.2  5.7  0.3904E+01  0.4186E+01  0.4531E+01E
 Epicentro: LOS SANTOS - SANTANDER                                             3
 ACTION:UPD 12-10-22 14:21 OP:ep   STATUS:               ID:20120928041047 L   I
 2012-09-28-0407-40M.COL___216                                                 6
 STAT SP IPHASW D HRMM SECON CODA AMPLIT PERI AZIMU VELO AIN AR TRES W  DIS CAZ7
 GIR2 SZ EP   1    411  6.31                             167   -0.61 7 33.4 340 
 PAM  SZ EP   1    411  9.65                             152    0.45 7 74.2  36 
 PAM  SN ES   1    411 26.49                             152    0.00 7 74.2  36 
 PAM  SN I         411 27.95        17.9 0.48                          74.2  36 
 BRR  HZ EP   1    411  8.28                             151   -0.37 7 76.8 297 
 BRR  HN ES        411 25.64                             151    0.1410 76.8 297 
 RUS  HZ EP   1    411 10.99                             144    0.14 7 99.7 179 
 RUS  HN ES   1    411 29.42                             144   -0.01 7 99.7 179 
 RUS  HZ I         411 30.86         7.5 0.26                          99.7 179 
 ZAR  HZ EP   1    411 20.21                             122    0.05 6  210 292 
 ZAR  HN ES   1    411 46.07                             122    0.07 6  210 292 
 ZAR  HZ I         411 49.44         4.1 0.11                           210 292 
 PRA  HZ EP   1    411 41.09                             107    0.20 4  394 210 
                                                                                
