 2012  628 0917 43.5 L   6.713 -73.117137.9  RSN  4 0.4 1.3LRSN                1
 GAP=216        0.89       7.3     8.9  9.7 -0.1063E+02  0.2588E+02 -0.1469E+02E
 Epicentro: JORDAN - SANTANDER                                                 3
 ACTION:UPD 12-08-06 17:53 OP:ep   STATUS:               ID:20120628091743 L   I
 2012-06-28-0910-00M.COL___201                                                 6
 STAT SP IPHASW D HRMM SECON CODA AMPLIT PERI AZIMU VELO AIN AR TRES W  DIS CAZ7
 BAR2 SZ EP   1    918  2.66                             173    0.61 7 15.2 209 
 BAR2 SZ ES        918 16.14                             173   -0.3810 15.2 209 
 BAR2 SZ I         918 18.68         6.7 0.26                          15.2 209 
 BRR  HZ EP   1    918  4.52                             148    0.23 7 78.9 304 
 BRR  HZ I         918  6.74         6.5 0.34                          78.9 304 
 BRR  HN ES   1    918 21.14                             148    0.64 7 78.9 304 
 PTB  HZ EP   1    918  9.57                             130   -0.43 7  149 263 
 PTB  HN ES   1    918 30.54                             130   -0.13 7  149 263 
 PTB  HZ I         918 32.96         1.5 0.22                           149 263 
 OCA  HN ES   1    918 34.17                             126   -0.39 7  170 352 
                                                                                
