 2011  628 0100 29.0 L   6.800 -73.133139.2  RSN  9 0.2 1.8LRSN                1
 GAP=157        0.42       1.8     3.7  4.4 -0.1230E+01 -0.6973E+00 -0.1330E+01E
 Epicentro: LOS SANTOS - SANTANDER                                             3
 ACTION:UP  11-07-14 19:08 OP:ep   STATUS:               ID:20110628010029 L   I
 2011-06-28-0100-00M.COL___124                                                 6
 STAT SP IPHASW D HRMM SECON CODA AMPLIT PERI AZIMU VELO SNR AR TRES W  DIS CAZ7
 BTL  SZ EP        1 0 47.66                             171    -0.110   20 311 
 BAR2 SZ EP        1 0 47.81                             170     0.010   24 193 
 BAR2 SZ I         1 0 48.37        11.8 0.11                            24 193 
 BRR  HZ EP        1 0 49.56                             151     0.110   73 298 
 BRR  HZ I         1 0 49.89        14.5 0.21                            73 298 
 BRR  HN ES   1    1 1  5.66                             151     0.2 7   73 298 
 RUS  HZ EP   1    1 0 51.94                             142    -0.1 7  100 177 
 RUS  HE ES        1 1 10.10                             142     0.010  100 177 
 RUS  HZ I         1 1 12.07         8.7 0.42                           100 177 
 BRI  SZ EP   2    1 0 52.21                             140     0.0 5  108  20 
 GRA  SZ EP        1 0 53.62                             136     0.010  125  17 
 GRA  SZ ES   1    1 1 12.51                             136    -0.3 7  125  17 
 GRA  SZ I         1 1 14.22        14.3 0.24                           125  17 
 OCA  SZ EP   1    1 0 57.10                             128     0.3 7  160 353 
 OCA  SZ ES   2    1 1 18.07                             128    -0.4 5  160 353 
 OCA  SZ I         1 1 21.70        12.0 0.20                           160 353 
 NOR  SE ES   2    1 1 31.68                             117    -0.4 4  236 235 
 PRA  HZ EP   2    1 1 22.14                             105    -0.2 3  393 210 
 PRA  HE ES   2    1 2  3.90                             105    -0.1 3  393 210 
                                                                                
