 2016 1228 0244 11.0 L   6.801 -73.168143.3  RSN  4 0.1 0.9LRSN                1
 GAP=235        0.39       3.8     2.9  3.8  0.4092E+01  0.1197E+01 -0.4220E+01E
 Epicentro: LOS SANTOS - SANTANDER                                             3
 ACTION:UPD 17-01-11 20:19 OP:rebc STATUS:               ID:20161228024411 L   I
 OLDACT:REG 16-12-28 13:02 OP:edw  STATUS:               ID:20161228023747     3
 2016-12-28-0238-00M.COL___369                                                 6
 STAT SP IPHASW D HRMM SECON CODA AMPLIT PERI AZIMU VELO AIN AR TRES W  DIS CAZ7
 BAR2 EZ EP        244 30.18                             170   -0.1410 23.2 184 
 BAR2 EZ ES        244 45.37                             170   -0.0310 23.2 184 
 BRR  HZ EP        244 31.90                             153    0.1510 69.0 299 
 RUS  HZ EP        244 34.42                             143   -0.1010  101 175 
 RUS  HN ES        244 53.01                             143    0.1310  101 175 
 RUS  HZ I         244 54.45         1.2 0.28            142            101 175 
 PTB  HZ EP        244 37.63                             132    0.09 9  145 259 
 PTB  HN ES        244 58.16                             132   -0.09 9  145 259 
                                                                                
