 2012  528 0358 18.3 L   6.816 -73.191139.2  RSN  7 0.4 2.0LRSN                1
 GAP=178        0.76       3.4     4.3  9.2 -0.4561E+00  0.4971E+01 -0.1390E+01E
 Epicentro: ZAPATOCA - SANTANDER                                               3
 ACTION:UP  12-07-05 12:08 OP:pat  STATUS:               ID:20120528035818 L   I
 2012-05-28-0356-40S.COL___188                                                 6
 STAT SP IPHASW D HRMM SECON CODA AMPLIT PERI AZIMU VELO AIN AR TRES W  DIS CAZ7
 RUS  HZ EP   1    358 41.44                             142    -0.1 8  103 173 
 RUS  HN ES   1    358 59.80                             142     0.1 8  103 173 
 RUS  HZ I         359  1.28        11.8 0.21                           103 173 
 PTB  HZ EP   1    358 43.93                             131    -0.4 7  143 258 
 PTB  HN ES        359  4.49                             131    -0.110  143 258 
 PTB  HZ I         359  7.04         7.9 0.12                           143 258 
 OCA  HZ EP   1    358 45.77                             128    -0.1 7  158 355 
 OCA  HN ES   1    359  7.39                             128     0.0 7  158 355 
 OCA  HZ I         359 15.72        22.0 0.36                           158 355 
 ZAR  HN ES   1    359 14.80                             122     0.5 7  199 292 
 NOR  SZ EP   1    358 53.60                             117     0.3 6  232 233 
 NOR  SN ES   1    359 21.28                             117     0.7 6  232 233 
 CHI  HN ES   1    359 24.75                             116    -0.1 6  249 194 
 HEL  HZ EP   1    358 58.15                             114     0.5 6  268 255 
 HEL  HE ES        359 27.77                             114    -0.6 8  268 255 
 HEL  HZ I         359 35.95         5.6 0.29                           268 255 
                                                                                
