 2010  828 0808 38.1 L   6.776 -73.070149.3  RSN 11 0.3 1.9LRSN                1
 GAP=167        0.61       2.9     6.3  4.8 -0.6999E+01 -0.3210E+01  0.1386E+01E
 Epicentro: LOS SANTOS - SANTANDER                                             3
 ACTION:UP  10-09-07 10:58 OP:vdl  STATUS:               ID:20100828080838 L   I
 2010-08-28-0806-07S.COL___119                                                 6
 STAT SP IPHASW D HRMM SECON CODA AMPLIT PERI AZIMU VELO SNR AR TRES W  DIS CAZ7
 BAR2 SZ IP        8 8 58.21                             171     0.110   24 212 
 BAR2 SZ I         8 8 58.53        23.0 0.07                            24 212 
 BAR2 SZ ES   1    8 9 13.34                             171    -0.5 7   24 212 
 BTL  SZ EP        8 8 58.36                             169     0.110   27 306 
 BTL  SZ ES   2    8 9 14.29                             169     0.4 5   27 306 
 GIR2 SZ EP   2    8 8 58.27                             166     0.0 5   36 338 
 BRR  HZ IP     C  8 9  0.06                             150    -0.110   80 297 
 BRR  HZ I         8 9  0.32        38.5 0.17                            80 297 
 BRR  HE ES   1    8 9 17.53                             150     0.2 7   80 297 
 RUS  HZ EP   2    8 9  2.12                             145     0.1 5   98 181 
 RUS  HN ES   2    8 9 20.80                             145     0.2 5   98 181 
 RUS  HZ I         8 9 22.11         9.3 0.30                            98 181 
 GUE  SZ EP   1    8 9  2.98                             140    -0.2 7  118   8 
 GUE  SZ I         8 9 26.37         3.9 0.19                           118   8 
 GRA  SZ IP        8 9  4.02                             138     0.310  126  13 
 GRA  SZ ES   1    8 9 23.71                             138     0.1 7  126  13 
 GRA  SZ I         8 9 24.68         9.2 0.44                           126  13 
 OCA  SZ EP   1    8 9  6.68                             130    -0.4 7  164 350 
 OCA  SZ ES   1    8 9 29.18                             130    -0.4 7  164 350 
 OCA  SZ I         8 9 35.83         8.2 0.59                           164 350 
 CHI  HZ EP   2    8 9 15.87                             118    -0.1 4  248 197 
 CHI  HZ I         8 9 18.88         2.8 0.44                           248 197 
 CHI  HN ES   2    8 9 44.93                             118    -0.6 4  248 197 
 RREF HE ES   2    810  1.79                             111     0.4 3  326 231 
 RREF HZ I         810  7.54         4.2 0.53                           326 231 
 PRA  HZ EP   1    8 9 32.17                             107     0.2 4  394 211 
 PRA  HE ES   2    810 13.40                             107    -0.6 3  394 211 
 PRA  HZ I         810 19.91         2.6 0.38                           394 211 
                                                                                
