 2010  628 0608 31.3 L   6.319 -73.570104.2  RSN  9 0.3 1.6LRSN                1
 GAP= 83        0.51       2.5     3.4  5.3 -0.3768E+01  0.5104E+01  0.9722E+00E
 Epicentro: SANTA HELENA DEL OPON - SANTANDER                                  3
 ACTION:UP  10-08-24 10:13 OP:vdl  STATUS:               ID:20100628060831 L   I
 2010-06-28-0606-58S.COL___118                                                 6
 STAT SP IPHASW D HRMM SECON CODA AMPLIT PERI AZIMU VELO SNR AR TRES W  DIS CAZ7
 BAR2 SZ EP   1    6 8 47.37                             151     0.1 8   52  55 
 BAR2 SZ ES   2    6 9  0.14                             151     0.4 6   52  55 
 RUS  HZ EP   2    6 8 48.67                             143    -0.2 6   72 131 
 RUS  HN ES   2    6 9  2.61                             143     0.0 6   72 131 
 RUS  HZ I         6 9  3.93         3.8 0.35                            72 131 
 BRR  HZ EP   1    6 8 49.05                             136    -0.5 8   89 350 
 BRR  HZ I         6 8 52.30        17.5 0.12                            89 350 
 BRR  HE ES   1    6 9  3.64                             136    -0.2 8   89 350 
 BRI  SZ EP   1    6 8 58.78                             115     0.2 8  177  29 
 GUE  SZ EP   2    6 8 59.34                             115     0.0 5  182  23 
 GUE  SZ ES        6 9 21.13                             115    -0.110  182  23 
 GRA  SZ EP   2    6 9  0.67                             113     0.3 5  193  26 
 GRA  SZ ES   2    6 9 23.57                             113     0.5 5  193  26 
 HEL  HZ EP   2    6 9  3.57                             110     0.1 5  217 266 
 HEL  HN ES   2    6 9 28.72                             110     0.3 5  217 266 
 HEL  HZ I         6 9 34.66         3.1 0.38                           217 266 
 RREF HZ EP   2    6 9  8.22                             107     0.5 4  252 232 
 RREF HN ES   2    6 9 36.39                             107     0.2 4  252 232 
 RREF HZ I         6 9 42.92         3.8 0.21                           252 232 
 PRA  HZ EP   1    6 9 15.13                             101    -0.3 6  323 207 
 PRA  HN ES   2    6 9 49.89                             101     0.0 4  323 207 
 PRA  HZ I         6 9 57.35         4.6 0.28                           323 207 
                                                                                
