 2011 1128 0313 58.9 L   7.503 -73.021155.7  RSN  5 0.5 1.8LRSN                1
 GAP=139        0.93       5.3     9.4  8.2  0.3176E+01 -0.3065E+01  0.5239E+01E
 Epicentro: SURATA - SANTANDER                                                 3
 ACTION:UPD 12-07-13 16:12 OP:ep   STATUS:               ID:20111128031358 L   I
 2011-11-28-0312-13S.COL___160                                                 6
 STAT SP IPHASW D HRMM SECON CODA AMPLIT PERI AZIMU VELO AIN AR TRES W  DIS CAZ7
 PAM  SZ EP        314 20.68                             165    0.1510 39.8 117 
 PAM  SN ES   1    314 37.38                             165   -0.01 7 39.8 117 
 OCA  SZ EP        314 22.49                             149    0.1510 87.8 338 
 OCA  SZ ES   1    314 40.05                             149   -0.56 7 87.8 338 
 BRR  HZ EP        314 22.02                             149   -0.1110 88.0 240 
 BRR  HN ES   1    314 40.41                             149    0.18 7 88.0 240 
 BRR  HZ I         314 43.53         8.9 0.20                          88.0 240 
 BAR2 SZ EP        314 23.53                             145    0.1110  102 190 
 BAR2 SZ ES   1    314 43.13                             145    0.61 7  102 190 
 BAR2 SZ I         314 50.15         8.9 0.50                           102 190 
 RUS  HZ EP        314 30.08                             129   -0.06 9  178 182 
 RUS  HE ES   2    314 52.59                             129   -1.90 4  178 182 
                                                                                
