 2010 1028 0734  2.4 L   6.770 -73.076149.8  RSN 11 0.4 2.5LRSN                1
 GAP=167        0.83       3.1     6.5  5.9 -0.7821E+01  0.5022E+01  0.2250E+01E
 Epicentro: LOS SANTOS - SANTANDER                                             3
 ACTION:UP  11-02-18 11:12 OP:tino STATUS:               ID:20101028073402 L   I
 2010-10-28-0730-08S.COL___128                                                 6
 STAT SP IPHASW D HRMM SECON CODA AMPLIT PERI AZIMU VELO SNR AR TRES W  DIS CAZ7
 BAR2 SZ IP        734 22.48                             171    -0.110   23 211 
 BAR2 SZ ES   1    734 37.81                             171    -0.4 7   23 211 
 BAR2 SZ I         734 38.78        76.9 0.43                            23 211 
 BRR  HZ IP     C  734 24.40                             150    -0.110   80 298 
 BRR  HZ I         734 24.70       142.9 0.17                            80 298 
 BRR  HN ES   1    734 41.90                             150     0.2 7   80 298 
 RUS  HZ IP     D  734 26.30                             146     0.010   97 180 
 RUS  HN ES   1    734 44.96                             146     0.0 7   97 180 
 RUS  HZ I         734 46.36        21.0 0.16                            97 180 
 GRA  SZ IP        734 28.31                             138     0.210  127  14 
 GRA  SZ ES   1    734 48.51                             138     0.3 7  127  14 
 GRA  SZ I         734 50.24        46.8 0.37                           127  14 
 OCA  SZ EP        734 30.88                             130    -0.6 9  165 351 
 OCA  SZ ES   1    734 54.71                             130     0.6 7  165 351 
 OCA  SZ I         734 59.42        35.6 0.49                           165 351 
 NOR  SZ EP   2    734 38.43                             119    -0.5 4  239 236 
 NOR  SN ES   2    735  6.13                             119    -1.2 4  239 236 
 CHI  HZ EP   1    734 40.39                             118     0.1 6  248 197 
 CHI  HE ES   1    735 10.24                             118     0.5 6  248 197 
 CHI  HZ I         735 17.71        11.2 0.46                           248 197 
 ROSC BZ EP   2    734 40.93                             117     0.0 4  254 213 
 ROSC BE ES   2    735 12.08                             117     1.1 4  254 213 
 ROSC BZ I         735 20.63        16.1 0.51                           254 213 
 HEL  HZ EP   2    734 44.14                             115     0.5 4  279 257 
 RREF HZ EP   2    734 49.02                             111    -0.2 3  326 231 
 RREF HN ES   1    735 25.91                             111     0.3 5  326 231 
 RREF HZ I         735 34.72        15.6 0.33                           326 231 
 PRA  HZ IP     C  734 56.13                             107    -0.1 6  393 211 
 PRA  HN ES   1    735 38.40                             107     0.2 4  393 211 
 PRA  HZ I         735 41.32        31.8 0.32                           393 211 
                                                                                
