 2010 1128 0550 51.6 L   6.816 -72.975142.9  RSN  8 0.4 1.8LRSN                1
 GAP=178        0.78       3.8     7.8  7.9 -0.8837E+01 -0.3494E+01  0.3333E+01E
 Epicentro: CEPITA - SANTANDER                                                 3
 ACTION:UP  10-12-17 16:55 OP:REBC STATUS:               ID:20101128055051 L   I
 2010-11-28-0547-41S.COL___131                                                 6
 STAT SP IPHASW D HRMM SECON CODA AMPLIT PERI AZIMU VELO SNR AR TRES W  DIS CAZ7
 BAR2 SZ EP        551 11.22                             166     0.110   34 223 
 BAR2 SZ I         551 27.50        10.8 0.25                            34 223 
 BRR  HZ EP   1    551 13.12                             147    -0.4 7   88 292 
 BRR  HN ES   1    551 30.28                             147    -0.3 7   88 292 
 BRR  HZ I         551 32.39        13.9 0.25                            88 292 
 RUS  HZ EP   1    551 15.12                             143    -0.1 7  103 187 
 RUS  HN ES   1    551 34.04                             143     0.4 7  103 187 
 RUS  HZ I         551 36.71         5.7 0.33                           103 187 
 GRA  SZ EP        551 16.01                             138    -0.110  120   9 
 GRA  SZ ES   1    551 35.50                             138     0.3 7  120   9 
 GRA  SZ I         551 36.89        11.7 0.43                           120   9 
 OCA  SZ EP   1    551 20.00                             129     0.1 7  162 346 
 OCA  SZ I         551 46.37        10.9 0.26                           162 346 
 CHI  HZ EP   1    551 29.33                             116    -0.6 6  256 199 
 CHI  HN ES   2    551 59.61                             116    -0.2 4  256 199 
 CHI  HZ I         552  1.99         3.5 0.39                           256 199 
 HEL  HZ EP   2    551 34.75                             113     1.0 4  291 256 
 HEL  HZ I         552 15.98         1.7 0.24                           291 256 
 RREF HZ EP   2    551 39.72                             109     0.3 3  337 231 
 RREF HN ES   2    552 17.72                             109     1.0 3  337 231 
 RREF HZ I         552 23.80         5.0 0.23                           337 231 
                                                                                
