 2017 1128 0253 50.7 L   6.762 -73.140137.7  RSN  8 0.5 1.6LRSN                1
 GAP=114        1.25       5.1     4.8  8.5 -0.2969E+01  0.1096E+02 -0.1556E+01E
 Epicentro: LOS SANTOS - SANTANDER                                             3
 ACTION:UPD 17-12-12 20:01 OP:rebc STATUS:               ID:20171128025350 L   I
 OLDACT:UP  17-11-28 14:30 OP:dani STATUS:               ID:20171128024741     3
 OLDACT:REG 17-11-28 12:44 OP:dani STATUS:               ID:20171128024741     3
 2017-11-28-0248-00M.COL___489                                                 6
 STAT SP IPHASW D HRMM SECON CODA AMPLIT PERI AZIMU VELO AIN AR TRES W  DIS CAZ7
 BAR2 EZ EP        254  9.09                             172   -0.1610 19.4 194 
 BAR2 EZ ES        254 23.80                             172    0.0510 19.4 194 
 BAR2 EZ I         254 25.41        13.0 0.36            173           19.4 194 
 PAM  EZ EP        254 12.16                             148   -0.0610 80.3  37 
 PAM  EE ES        254 29.02                             148   -0.0010 80.3  37 
 PAM  EZ I         254 31.30         9.7 0.58            150           80.3  37 
 RUS  HZ EP        254 13.15                             143   -0.1810 96.4 176 
 RUS  HN ES        254 31.25                             143    0.2510 96.4 176 
 RUS  HZ I         254 33.25         3.8 0.36            147           96.4 176 
 PTB  HZ EP        254 16.17                             130   -0.81 9  148 260 
 PTB  HN ES        254 36.69                             130   -0.81 9  148 260 
 PTB  HZ I         254 40.18         3.6 0.22            131            148 260 
 SPBC HN ES        254 40.58                             128    0.75 9  160 220 
 YPLC HZ EP        254 19.39                             125   -0.11 9  173 151 
 ZAR  HZ EP        254 23.97                             120    1.14 8  206 293 
 ZAR  HN ES        254 48.29                             120    0.37 8  206 293 
 ZAR  HZ I         254 55.77         3.6 0.26            121            206 293 
 NOR  HN ES        254 52.90                             117   -0.19 8  233 235 
                                                                                
