 2011 1128 0007 16.9 L   6.785 -73.061144.5  RSN  7 0.3 1.9LRSN                1
 GAP=148        0.58       2.8     4.8  4.2 -0.1668E+01  0.4469E+01  0.6677E+00E
 Epicentro: LOS SANTOS - SANTANDER                                             3
 ACTION:UPD 12-07-13 16:12 OP:ep   STATUS:               ID:20111128000716 L   I
 2011-11-28-0005-41S.COL___157                                                 6
 STAT SP IPHASW D HRMM SECON CODA AMPLIT PERI AZIMU VELO AIN AR TRES W  DIS CAZ7
 BAR2 SZ EP        0 7 36.23                             170   -0.1610 25.2 212 
 BAR2 SZ ES   1    0 7 51.48                             170   -0.13 7 25.2 212 
 BAR2 SZ I         0 7 54.76        12.7 0.60                          25.2 212 
 PAM  SZ EP        0 7 38.65                             152   -0.0510 73.2  33 
 PAM  SN ES   1    0 7 56.10                             152    0.37 7 73.2  33 
 BRR  HZ EP        0 7 38.06                             149   -0.3610 80.2 296 
 BRR  HN ES   1    0 7 55.25                             149    0.02 7 80.2 296 
 BRR  HZ I         0 7 59.10        20.5 0.14                          80.2 296 
 RUS  HZ EP        0 7 40.50                             144    0.1410 98.7 181 
 RUS  HN ES   1    0 7 58.71                             144    0.02 7 98.7 181 
 RUS  HZ I         0 7 59.79         8.8 0.30                          98.7 181 
 OCA  SZ EP        0 7 45.46                             129    0.09 9  163 350 
 OCA  SZ I         0 8 11.11        10.6 0.20                           163 350 
 CHI  HZ EP        0 7 54.35                             117   -0.26 8  250 197 
 CHI  HN ES   2    0 8 24.61                             117    0.56 4  250 197 
 CHI  HZ I         0 8 33.46         4.9 0.34                           250 197 
 HEL  HZ EP        0 7 58.49                             114    0.50 7  281 257 
 HEL  HZ I         0 8 34.77         4.1 0.30                           281 257 
                                                                                
