 2017  228 0339  2.1 L   6.755 -73.105144.8  RSN  5 0.2 1.8LRSN                1
 GAP=144        0.50       2.6     3.8  3.9 -0.2194E+00  0.1340E+00  0.3316E+00E
 Epicentro: LOS SANTOS - SANTANDER                                             3
 ACTION:UPD 17-05-24 15:41 OP:jn   STATUS:               ID:20170228033902 L   I
 OLDACT:DUP 17-03-01 00:34 OP:ar   STATUS:               ID:20170228032748d    3
 OLDACT:REG 17-02-28 20:37 OP:and  STATUS:               ID:20170228032747     3
 2017-02-28-0328-00M.COL___375                                                 6
 STAT SP IPHASW D HRMM SECON CODA AMPLIT PERI AZIMU VELO AIN AR TRES W  DIS CAZ7
 BAR2 EZ EP        339 21.44                             172   -0.1510 19.9 205 
 BAR2 EZ ES        339 36.98                             172    0.2210 19.9 205 
 BAR2 EZ I         339 39.27        24.6 0.32            157           19.9 205 
 BRR  HZ EP        339 23.32                             150   -0.2410 77.5 300 
 BRR  HE ES        339 40.27                             150    0.0010 77.5 300 
 BRR  HZ I         339 40.91        15.3 0.12            131           77.5 300 
 PAM  EZ EP        339 24.40                             150    0.0710 78.7  35 
 PAM  EE ES        339 41.66                             150    0.0110 78.7  35 
 PAM  EZ I         339 43.60         9.8 0.54            143           78.7  35 
 RUS  HZ EP        339 25.67                             145    0.2410 95.4 179 
 RUS  HN ES        339 43.38                             145   -0.2110 95.4 179 
 RUS  HZ I         339 45.56         4.6 0.24            131           95.4 179 
 PTB  HZ EP   2    339 29.61                             131    0.26 5  151 261 
 PTB  HZ I         339 56.14         6.6 0.12            114            151 261 
                                                                                
