 2017  728 0732 19.4 L   6.748 -73.099138.9  RSN  8 0.3 1.3LRSN                1
 GAP=145        0.63       3.7     3.2  4.4 -0.2763E+00  0.9640E+00  0.2397E+01E
 Epicentro: LOS SANTOS - SANTANDER                                             3
 ACTION:UPD 17-08-30 15:37 OP:rebc STATUS:               ID:20170728073219 L   I
 OLDACT:UP  17-07-28 15:47 OP:and  STATUS:               ID:20170728072640     3
 OLDACT:UP  17-07-28 15:47 OP:and  STATUS:               ID:20170728072640     3
 OLDACT:UP  17-07-28 15:47 OP:and  STATUS:               ID:20170728072640     3
 OLDACT:UP  17-07-28 15:46 OP:and  STATUS:               ID:20170728072640     3
 OLDACT:REG 17-07-28 12:43 OP:and  STATUS:               ID:20170728072640     3
 2017-07-28-0728-00M.COL___373                                                 6
 STAT SP IPHASW D HRMM SECON CODA AMPLIT PERI AZIMU VELO AIN AR TRES W  DIS CAZ7
 BAR2 EZ EP        732 38.17                             172    0.0010 19.6 208 
 BAR2 EZ ES        732 52.48                             172   -0.3010 19.6 208 
 BAR2 EZ I         732 54.36         5.7 0.18            168           19.6 208 
 BRR  HZ EP        732 39.95                             148   -0.3510 78.6 300 
 BRR  HN ES        732 56.67                             148    0.1010 78.6 300 
 PAM  EZ IP     D  732 41.09                             149    0.0710 78.9  34 
 PAM  EN ES        732 57.92                             149    0.0710 78.9  34 
 PAM  EZ I         732 59.95         4.0 0.44            153           78.9  34 
 RUS  HZ EP   2    732 42.67                             144    0.59 5 94.6 179 
 RUS  HN ES   2    733  0.20                             144    0.45 5 94.6 179 
 PTB  HZ EP   9    732 45.13                             129   -1.11 0  152 261 
 PTB  HN ES        733  5.68                             130   -0.36 9  152 261 
 PTB  HZ I         733  9.14         1.2 0.16            128            152 261 
 SPBC HZ EP        732 47.20                             127   -0.12 9  162 222 
 SPBC HE ES   4    733 11.19                             127    2.12 0  162 222 
 SPBC HZ I         733 14.88         2.6 0.20            126            162 222 
 ZAR  HZ EP   4    732 54.51                             120    2.33 0  211 293 
 ZAR  HN ES        733 18.00                             120    0.28 8  211 293 
 ZAR  HZ I         733 22.65         2.5 0.52            119            211 293 
 NOR  HN ES   3    733 23.76                             117    1.22 2  236 236 
 NOR  HZ I         733 26.37         1.6 0.14            116            236 236 
                                                                                
