 2017  528 0939  8.4 L   6.769 -73.122143.8  RSN  6 0.2 1.5LRSN                1
 GAP=212        0.50       4.1     4.4  4.0  0.1532E+02 -0.5401E+01 -0.4571E+01E
 Epicentro: LOS SANTOS - SANTANDER                                             3
 ACTION:UPD 17-06-16 13:39 OP:jn   STATUS:               ID:20170528093908 L   I
 OLDACT:UP  17-05-28 16:31 OP:cog  STATUS:               ID:20170528092744d    3
 OLDACT:DUP 17-05-28 16:12 OP:cog  STATUS:               ID:20170528092744d    3
 2017-05-28-0928-00M.COL___323                                                 6
 STAT SP IPHASW D HRMM SECON CODA AMPLIT PERI AZIMU VELO AIN AR TRES W  DIS CAZ7
 BRR  HZ EP        939 29.69                             151    0.1210 75.2 300 
 BRR  HN ES        939 46.18                             151    0.0910 75.2 300 
 BRR  HZ I         939 49.10         6.9 0.44            149           75.2 300 
 RUS  HZ EP        939 31.75                             144    0.0510 97.0 177 
 RUS  HN ES        939 49.67                             144   -0.2110 97.0 177 
 RUS  HZ I         939 51.30         2.7 0.48            143           97.0 177 
 PTB  HZ EP   9    939 34.39                             131   -1.00 0  150 260 
 PTB  HN ES        939 55.53                             131    0.09 9  150 260 
 PTB  HZ I         939 57.66         3.8 0.18            130            150 260 
 SPBC HZ EP        939 36.91                             129    0.25 9  162 220 
 SPBC HN ES   4    940  0.80                             129    2.10 0  162 220 
 SPBC HZ I         940  4.13         4.5 0.20            127            162 220 
 YPLC HZ EP        939 37.78                             127    0.15 9  173 152 
 YPLC HN ES        940  0.37                             127   -0.06 9  173 152 
 ZAR  HZ EP        939 40.67                             121   -0.44 8  208 293 
 ZAR  HZ IP        939 40.67                             122            208 293 
 ZAR  HN ES        940  6.62                             121   -0.01 8  208 293 
                                                                                
