 2011 1028 0857 21.8 L   6.787 -73.114147.1  RSN  8 0.2 2.0LRSN                1
 GAP=141        0.34       2.4     2.9  4.3 -0.7827E+00  0.4032E+01 -0.1168E+01E
 Epicentro: LOS SANTOS - SANTANDER                                             3
 ACTION:UPD 12-07-13 16:06 OP:ep   STATUS:               ID:20111028085721 L   I
 2011-10-28-0853-28S.COL___176                                                 6
 STAT SP IPHASW D HRMM SECON CODA AMPLIT PERI AZIMU VELO AIN AR TRES W  DIS CAZ7
 BAR2 SZ EP   1    857 41.49                             171   -0.09 7 22.8 199 
 BAR2 SZ ES   2    857 56.81                             171   -0.20 5 22.8 199 
 BAR2 SZ I         857 57.77        17.6 0.30                          22.8 199 
 BRR  HZ EP        857 43.37                             151    0.0610 74.9 298 
 BRR  HZ I         857 43.67        39.2 0.29                          74.9 298 
 BRR  HN ES   2    857 59.97                             151   -0.11 5 74.9 298 
 PAM  SZ EP   2    857 44.14                             151    0.04 5 76.4  37 
 PAM  SN ES   2    858  1.76                             151    0.27 5 76.4  37 
 RUS  HZ EP   2    857 45.71                             144    0.14 5 98.9 178 
 RUS  HN ES   2    858  4.16                             144    0.06 5 98.9 178 
 RUS  HZ I         858  5.37         7.1 0.27                          98.9 178 
 OCA  SZ EP   2    857 50.12                             129   -0.28 5  162 352 
 OCA  SZ ES   2    858 12.70                             129    0.00 5  162 352 
 OCA  SZ I         858 17.92        14.4 0.19                           162 352 
 ZAR  HZ EP   2    857 54.60                             122   -0.12 4  208 292 
 ZAR  HN ES   2    858 20.37                             122   -0.03 4  208 292 
 ZAR  HZ I         858 26.66         9.4 0.42                           208 292 
 NOR  SN ES   2    858 25.55                             118   -0.37 4  237 235 
 HEL  HN ES   2    858 34.73                             115    0.64 4  275 256 
 HEL  HZ I         858 39.85         4.1 0.33                           275 256 
                                                                                
