 2011  628 0142 30.6 L   6.738 -73.116145.7  RSN  6 0.1 1.5LRSN                1
 GAP=160        0.37       1.9     4.1  3.6  0.1131E+00 -0.4104E+01 -0.2181E+01E
 Epicentro: JORDAN - SANTANDER                                                 3
 ACTION:UP  11-07-14 19:08 OP:ep   STATUS:               ID:20110628014230 L   I
 2011-06-28-0139-50S.COL___140                                                 6
 STAT SP IPHASW D HRMM SECON CODA AMPLIT PERI AZIMU VELO SNR AR TRES W  DIS CAZ7
 BAR2 SZ EP   1    142 49.95                             173    -0.1 7   18 204 
 BAR2 SZ ES   1    143  5.54                             173     0.2 7   18 204 
 BAR2 SZ I         143  6.05         6.7 0.27                            18 204 
 BTL  SZ EP        142 50.24                             169     0.010   26 320 
 BRR  HZ EP        142 52.11                             150     0.010   77 302 
 BRR  HZ I         142 53.69         9.3 0.11                            77 302 
 BRR  HE ES   1    143  8.74                             150    -0.1 7   77 302 
 RUS  HZ EP        142 53.75                             146    -0.110   94 178 
 RUS  HE ES        143 11.90                             146     0.010   94 178 
 RUS  HZ I         143 13.91         3.2 0.38                            94 178 
 BRI  SZ EP        142 54.97                             140     0.110  114  18 
 GRA  SZ EP        142 56.32                             136     0.110  131  15 
 GRA  SZ ES   1    143 16.13                             136    -0.2 7  131  15 
 GRA  SZ I         143 18.25         4.2 0.20                           131  15 
                                                                                
