 2015  628 0139 49.8 L   6.792 -73.134144.7  RSN 16 0.4 2.3LRSN                1
 GAP=184        0.99       2.4     4.2  5.0 -0.4146E+00  0.6911E+01  0.1284E+01E
 Epicentro: LOS SANTOS - SANTANDER                                             3
 ACTION:UPD 15-09-10 22:15 OP:cam  STATUS:               ID:20150628013949 L   I
 OLDACT:REG 15-06-28 12:31 OP:drio STATUS:               ID:20150628013749     3
 2015-06-28-0137-49M.COL___319                                                 6
 STAT SP IPHASW D HRMM SECON CODA AMPLIT PERI AZIMU VELO AIN AR TRES W  DIS CAZ7
 BAR2 EZ EP        140  9.72                             171    0.4110 22.7 194 
 BAR2 EZ ES        140 23.67                             171   -0.8410 22.7 194 
 BAR2 EZ I         140 26.15        80.4 0.22            165           22.7 194 
 BRR  HZ EP        140 11.59                             152    0.6510 72.7 299 
 BRR  HN ES        140 28.26                             152    0.8410 72.7 299 
 BRR  HZ I         140 32.71        35.7 0.24            146           72.7 299 
 RUS  HZ EP        140 13.49                             144    0.0910 99.6 177 
 RUS  HE ES        140 31.95                             144    0.1610 99.6 177 
 RUS  HZ I         140 33.45        16.3 0.38            145           99.6 177 
 OCA  HZ EP        140 17.87                             129   -0.28 9  161 353 
 OCA  HE ES        140 40.01                             129   -0.23 9  161 353 
 OCA  HZ I         140 46.60        37.7 0.32            130            161 353 
 ZAR  HZ EP        140 22.39                             122    0.04 8  206 292 
 ZAR  HE ES        140 47.78                             122    0.05 8  206 292 
 ZAR  HZ I         140 54.10         8.1 0.42            120            206 292 
 NOR  HZ EP        140 25.84                             118    0.29 8  235 235 
 NOR  HN ES        140 52.91                             118   -0.50 8  235 235 
 NOR  HZ I         140 57.73        15.5 0.20            118            235 235 
 SML  HZ EP        140 25.98                             117   -0.55 8  245 335 
 SML  HE ES        140 54.55                             117   -0.61 8  245 335 
 SML  HZ I         141  2.10        29.3 0.24            117            245 335 
 CHI  HZ EP        140 27.82                             117    0.41 8  248 196 
 CHI  HE ES        140 56.46                             117   -0.26 8  248 196 
 CHI  HZ I         141  6.67         9.0 0.56            118            248 196 
 ROSC BZ EP        140 27.94                             116    0.07 8  253 211 
 ROSC BN ES        140 57.22                             116   -0.33 8  253 211 
 ROSC BZ I         141  5.43        20.7 0.70            117            253 211 
 HEL  HZ EP        140 30.44                             114    0.35 8  273 256 
 HEL  HE ES        141  2.20                             114    0.69 8  273 256 
 HEL  HZ I         141  7.93         5.9 0.32            114            273 256 
 URE  HZ EP        140 30.74                             113   -0.27 7  285 292 
 GUY2CHZ EP        140 33.66                             112    0.22 7  302 235 
 GUY2CHN ES        141  7.03                             112   -0.44 7  302 235 
 GUY2CHZ I         141 18.64         7.4 0.70                           302 235 
 CBOC HZ EP        140 36.98                             110    0.18 7  335 252 
 CBOC HE ES        141 12.96                             110   -0.48 7  335 252 
 CBOC HZ I         141 34.42         2.8 0.50            110            335 252 
 MON  HZ EP   4    140 36.89                             108   -2.07 0  355 308 
 MON  HE ES   4    141 15.14                             108   -2.15 0  355 308 
 MON  HZ I         141 33.01         3.1 0.30            108            355 308 
 PRA  HZ EP        140 43.23                             106   -0.06 6  392 210 
 PRA  HN ES        141 24.49                             106   -0.51 6  392 210 
 PRA  HZ I         141 31.42        12.6 0.68            107            392 210 
 ORTC HZ EP        140 43.84                             106    0.13 6  395 216 
 ORTC HE ES        141 25.55                             106   -0.19 6  395 216 
 ORTC HZ I         141 34.14         7.7 0.34            107            395 216 
                                                                                
