 2017 1228 0633  3.5 L   6.769 -73.155134.0  RSN  8 0.5 1.4LRSN                1
 GAP=150        1.16       4.6     5.5  7.2 -0.9827E+01  0.1419E+02 -0.5100E+01E
 Epicentro: LOS SANTOS - SANTANDER                                             3
 ACTION:UPD 18-01-04 13:25 OP:rebc STATUS:               ID:20171228063303 L   I
 OLDACT:UP  17-12-28 15:34 OP:dhb  STATUS:               ID:20171228062739d    3
 OLDACT:DUP 17-12-28 15:29 OP:dhb  STATUS:               ID:20171228062739d    3
 2017-12-28-0628-00M.COL___465                                                 6
 STAT SP IPHASW D HRMM SECON CODA AMPLIT PERI AZIMU VELO AIN AR TRES W  DIS CAZ7
 BAR2 EZ EP        633 21.42                             171   -0.2710 19.7 189 
 BAR2 EZ ES        633 35.61                             171   -0.2310 19.7 189 
 BAR2 EZ I         633 37.96         5.4 0.28            170           19.7 189 
 PAM  EZ IP     C  633 24.46                             147   -0.2810 80.8  39 
 PAM  EN ES        633 41.65                             147    0.3810 80.8  39 
 PAM  EZ I         633 46.20         3.3 0.34            151           80.8  39 
 PTB  HZ EP        633 28.47                             129   -0.95 9  146 260 
 PTB  HE ES        633 49.96                             129    0.36 9  146 260 
 PTB  HZ I         633 51.18         1.9 0.18            131            146 260 
 SPBC HZ EP        633 30.56                             127   -0.28 9  160 219 
 SPBC HN ES        633 52.86                             127    0.74 9  160 219 
 SPBC HZ I         633 59.38         4.5 0.34            128            160 219 
 ZAR  HZ EP        633 35.06                             120   -0.23 9  204 293 
 ZAR  HE ES        633 59.65                             120   -0.40 9  204 293 
 ZAR  HZ I         634  4.58         2.5 0.38            122            204 293 
 DRL03HZ EP        633 45.41                             110    0.41 7  292 353 
 DRL03HE ES        634 17.97                             110    0.64 7  292 353 
 GUY2CHZ EP        633 47.10                             110    0.79 7  298 235 
 GUY2CHE ES   4    634 23.82                             110    4.16 0  298 235 
 GUY2CHZ I         634 27.86         1.5 0.64                           298 235 
 PRA  HZ EP        633 55.97                             105   -0.29 6  388 210 
 PRA  HE ES   2    634 38.67                             105    1.29 3  388 210 
 PRA  HZ I         634 43.96         1.8 0.64            106            388 210 
                                                                                
