 2016  628 0155 34.1 L   6.774 -73.125144.1  RSN 20 0.7 2.3LRSN                1
 GAP= 97        1.39       3.8     3.3  6.1  0.4077E+00  0.5586E+01  0.7316E+01E
 Epicentro: LOS SANTOS - SANTANDER                                             3
 ACTION:UPD 16-07-21 22:23 OP:rebc STATUS:               ID:20160628015534 L   I
 OLDACT:REG 16-06-28 12:22 OP:edw  STATUS:               ID:20160628014745     3
 2016-06-28-0147-45M.COL___340                                                 6
 STAT SP IPHASW D HRMM SECON CODA AMPLIT PERI AZIMU VELO AIN AR TRES W  DIS CAZ7
 BAR2 EZ EP        155 53.48                             171   -0.0410 21.1 198 
 BAR2 EZ ES        156  8.45                             171   -0.1910 21.1 198 
 BAR2 EZ I         156  9.46        47.4 0.34                          21.1 198 
 BRR  HZ EP        155 55.39                             151    0.0910 74.6 300 
 BRR  HN ES        156 12.25                             151    0.4410 74.6 300 
 BRR  HZ I         156 15.34        31.7 0.26                          74.6 300 
 PAM  EZ EP        155 56.46                             150    0.2410 78.2  37 
 PAM  EE ES        156 13.69                             150    0.2410 78.2  37 
 PAM  EZ I         156 15.53        67.2 0.56                          78.2  37 
 RUS  HZ EP        155 57.46                             144   -0.0510 97.6 177 
 RUS  HN ES        156 15.63                             144   -0.1110 97.6 177 
 RUS  HZ I         156 16.98        23.6 0.28                          97.6 177 
 PTB  HZ EP        156  1.21                             131    0.09 9  150 260 
 PTB  HN ES        156 21.11                             131   -1.07 9  150 260 
 PTB  HZ I         156 24.07        17.8 0.34                           150 260 
 TAM  HZ EP        156  1.66                             131    0.26 9  152 104 
 TAM  HN ES        156 23.15                             131    0.48 9  152 104 
 SPBC HZ EP        156  2.62                             129    0.19 9  162 220 
 SPBC HE ES        156 24.80                             129    0.29 9  162 220 
 SPBC HZ I         156 27.09        32.8 0.16                           162 220 
 ZAR  HZ EP        156  5.75                             121   -1.05 8  207 293 
 ZAR  HN ES        156 32.16                             121   -0.13 8  207 293 
 ZAR  HZ I         156 37.51        25.8 0.30                           207 293 
 NOR  HZ EP        156  9.99                             118    0.20 8  235 235 
 NOR  HN ES        156 37.18                             118   -0.43 8  235 235 
 NOR  HZ I         156 42.78        16.4 0.50                           235 235 
 CHI  HZ EP        156 12.01                             117    0.50 8  247 196 
 CHI  HE ES        156 40.10                             117   -0.56 8  247 196 
 CHI  HZ I         156 44.12         8.4 0.38                           247 196 
 ROSC BZ EP        156 12.25                             116    0.22 8  252 212 
 ROSC BE ES        156 41.56                             116   -0.03 8  252 212 
 HEL  HZ EP        156 14.85                             114    0.42 8  274 256 
 HEL  HE ES        156 45.72                             114   -0.15 8  274 256 
 HEL  HZ I         156 52.18         9.2 0.32                           274 256 
 VIL  SN ES        156 52.00                             112    1.18 7  301 192 
 GUY2CHZ EP        156 18.34                             112    0.65 7  301 235 
 GUY2CHE ES        156 52.07                             112    0.40 7  301 235 
 GUY2CHZ I         157  0.97        10.8 0.58                           301 235 
 SOCV BZ EP   4    156 16.18                             112   -0.88 0  301  56 
 SOCV BN ES   4    156 47.97                             112   -2.57 0  301  56 
 VIL  SZ EP        156 15.50                             112   -1.71 7  301 192 
 PTGC HZ EP        156 16.65                             111   -0.87 7  305 159 
 PTGC HN ES        156 49.43                             111   -1.93 7  305 159 
 CBOC HZ EP        156 22.09                             109    0.96 7  335 253 
 CBOC HN ES        156 57.71                             109   -0.08 7  335 253 
 CBOC HZ I         156 59.39         3.4 0.40                           335 253 
 DBB  SZ EP        156 21.55                             109   -0.28 7  342 275 
 DBB  SZ ES        156 58.37                             109   -0.67 7  342 275 
 DBB  SZ I         156 59.68        21.7 0.44                           342 275 
 ANIL HZ EP   4    156 23.57                             108   -0.26 0  357 225 
 ANIL HN ES   4    157  2.78                             108    0.19 0  357 225 
 PRA  HZ EP        156 27.89                             106    0.45 6  391 210 
 PRA  HN ES        157  9.03                             106    0.01 6  391 210 
 PRA  HZ I         157 15.22        10.2 0.30                           391 210 
 ORTC HZ EP        156 28.28                             106    0.39 6  395 217 
 ORTC HN ES        157 11.89                             106    2.07 6  395 217 
 ORTC HZ I         157 17.83         7.7 0.22                           395 217 
 PAL  HZ EP        156 29.34                             105    0.04 6  406 240 
 PAL  HE ES        157 12.65                             105    0.32 6  406 240 
 PAL  HZ I         157 16.36         3.9 0.52                           406 240 
 SJC  HZ EP   4    156 28.39                             105   -1.67 0  413 327 
 SJC  HN ES   4    157  9.48                             105   -4.21 0  413 327 
                                                                                
