 2013 1028 0837  5.1 L   6.267 -73.637113.8  RSN  5 0.4 1.3LRSN                1
 GAP=164        0.60       4.5     3.9  9.0  0.5868E+01 -0.3252E+01 -0.2485E+02E
 Epicentro: SANTA HELENA DEL OPON - SANTANDER                                  3
 ACTION:UPD 13-11-25 09:24 OP:ep   STATUS:               ID:20131028083705 L   I
 OLDACT:REG 13-10-28 08:34 OP:jn   STATUS:               ID:20131028083000     3
 2013-10-28-0830-00M.COL___273                                                 6
 STAT SP IPHASW D HRMM SECON CODA AMPLIT PERI AZIMU VELO AIN AR TRES W  DIS CAZ7
 RUS  HZ EP   1    837 23.77                             145   -0.00 7 74.0 124 
 RUS  HE ES   1    837 38.41                             145    0.06 7 74.0 124 
 RUS  HZ I         837 41.34         1.5 0.30            150           74.0 124 
 PTB  HZ EP        837 24.82                             137    0.0610 95.5 288 
 PTB  HN ES   1    837 39.76                             137   -0.35 7 95.5 288 
 PTB  HZ I         837 42.29         6.6 0.12            144           95.5 288 
 ZAR  HN ES   2    837 58.03                             116    1.03 4  191 315 
 OCA  HN ES   1    838  3.42                             112    0.21 6  221   9 
 OCA  HZ I         838  8.35         3.1 0.42            116            221   9 
 SML  HZ EP   1    837 44.72                             106   -0.12 6  284 350 
 SML  HN ES   1    838 15.43                             106   -0.42 6  284 350 
                                                                                
