 2012  728 0326 49.0 L   6.793 -73.138147.0  RSN  7 0.4 1.8LRSN                1
 GAP=184        0.59       8.6     7.7 10.4  0.2589E+02 -0.6484E+01  0.1876E+02E
 Epicentro: LOS SANTOS - SANTANDER                                             3
 ACTION:UPD 12-08-14 11:46 OP:ep   STATUS:               ID:20120728032649 L   I
 2012-07-28-0320-00M.COL___215                                                 6
 STAT SP IPHASW D HRMM SECON CODA AMPLIT PERI AZIMU VELO AIN AR TRES W  DIS CAZ7
 BAR2 SZ EP        327  8.68                             171     0.010   23 193 
 BAR2 SZ I         327 24.66        12.1 0.34            166             23 193 
 BRR  HZ IP     C  327 10.56                             152     0.310   72 299 
 BRR  HN ES   1    327 26.99                             152     0.0 7   72 299 
 BRR  HZ I         327 28.80        18.8 0.14            154             72 299 
 RUS  HN ES   3    327 31.13                             144    -0.2 2  100 177 
 RUS  HZ I         327 32.71         5.4 0.48            137            100 177 
 PTB  HZ EP   2    327 15.72                             132    -0.4 5  148 259 
 PTB  HN ES   3    327 36.39                             132    -0.9 2  148 259 
 PTB  HZ I         327 38.29         4.6 0.18            130            148 259 
 OCA  HN ES   3    327 38.36                             129    -1.3 2  161 353 
 OCA  HZ I         327 42.13        13.4 0.28            124            161 353 
 ZAR  HE ES   2    327 46.98                             122    -0.1 4  205 292 
 ZAR  HZ I         327 49.61         6.5 0.26            119            205 292 
 NOR  SN ES   3    327 52.66                             119    -0.1 2  235 235 
