 2012  628 0946 31.3 L   6.250 -73.617101.7  RSN  4 0.2 0.8LRSN                1
 GAP=237        0.46       6.2     3.2  8.0  0.3882E+01  0.1176E+02  0.8256E+01E
 Epicentro: LA PAZ - SANTANDER                                                 3
 ACTION:UPD 12-08-06 17:53 OP:ep   STATUS:               ID:20120628094631 L   I
 2012-06-28-0940-00M.COL___201                                                 6
 STAT SP IPHASW D HRMM SECON CODA AMPLIT PERI AZIMU VELO AIN AR TRES W  DIS CAZ7
 BAR2 SZ EP   1    946 47.57                             147   -0.01 7 61.2  52 
 BAR2 SZ ES   1    947  0.08                             147   -0.16 7 61.2  52 
 BRR  HN ES   2    947  4.91                             133    0.45 5 95.4 354 
 PTB  HZ EP   1    946 50.42                             132    0.20 7 98.2 289 
 PTB  HN ES   1    947  4.93                             132   -0.02 7 98.2 289 
 PTB  HZ I         947  6.81         1.6 0.10                          98.2 289 
 ZAR  HN ES   1    947 22.48                             112   -0.29 6  194 315 
                                                                                
