 2011 1128 0657  8.7 L   6.766 -73.108141.4  RSN  5 0.4 1.8LRSN                1
 GAP=143        0.81       5.0     7.4  7.7 -0.4524E+01  0.4654E+01  0.1008E+02E
 Epicentro: LOS SANTOS - SANTANDER                                             3
 ACTION:UPD 12-07-13 16:12 OP:ep   STATUS:               ID:20111128065708 L   I
 2011-11-28-0653-07S.COL___160                                                 6
 STAT SP IPHASW D HRMM SECON CODA AMPLIT PERI AZIMU VELO AIN AR TRES W  DIS CAZ7
 BAR2 SZ EP        657 27.58                             171   -0.1810 20.9 203 
 BAR2 SZ ES   2    657 41.42                             171   -1.20 5 20.9 203 
 BRR  HZ EP        657 29.37                             150   -0.3310 76.6 300 
 BRR  HZ I         657 29.63        11.2 0.16                          76.6 300 
 BRR  HE ES   1    657 46.57                             150    0.49 7 76.6 300 
 PAM  SZ EP        657 30.39                             150   -0.0910 77.9  35 
 PAM  SN ES   1    657 47.78                             150    0.31 7 77.9  35 
 RUS  HZ EP        657 31.84                             144    0.1010 96.6 178 
 RUS  HE ES   1    657 50.00                             144    0.30 7 96.6 178 
 CTAU SZ EP        657 41.50                             122    0.24 9  202 211 
                                                                                
