 2010  328 0532  8.2 L   6.764 -73.051140.0  RSN  4 0.3 1.5LRSN                1
 GAP=245        0.58       7.5    12.9  7.6  0.5309E+02  0.9081E+01  0.2719E+02E
 Epicentro: LOS SANTOS - SANTANDER                                             3
 ACTION:UP  10-08-24 09:56 OP:vdl  STATUS:               ID:20100328053208 L   I
 2010-03-28-0530-35S.COL___098                                                 6
 STAT SP IPHASW D HRMM SECON CODA AMPLIT PERI AZIMU VELO SNR AR TRES W  DIS CAZ7
 BAR2 SZ EP   2    532 27.10                             170     0.0 5   24 218 
 BAR2 SZ ES   1    532 41.69                             170    -0.2 7   24 218 
 BRR  HZ EP   2    532 28.97                             148    -0.4 5   82 298 
 BRR  HE ES   1    532 46.17                             148     0.2 7   82 298 
 BRR  HZ I         532 50.82        10.0 0.37                            82 298 
 RUS  HZ EP   2    532 31.69                             144     0.6 5   96 182 
 RUS  HN ES   3    532 49.55                             144     0.6 2   96 182 
 RUS  HZ I         532 50.82         3.9 0.25                            96 182 
 CHI  HZ EP   1    532 45.42                             116    -0.1 6  248 198 
 CHI  HE ES   2    533 14.32                             116    -0.2 4  248 198 
 CHI  HZ I         533 18.21         1.4 0.55                           248 198 
                                                                                
