 2017  928 0822 32.1 L   6.780 -73.120149.8  RSN  6 0.3 1.4LRSN                1
 GAP=141        0.71       3.8     4.3  4.9 -0.7165E+01  0.2909E+01  0.3906E+01E
 Epicentro: LOS SANTOS - SANTANDER                                             3
 ACTION:UPD 17-10-05 19:17 OP:rebc STATUS:               ID:20170928082232 L   I
 OLDACT:UP  17-09-28 17:27 OP:dani STATUS:               ID:20170928081741     3
 OLDACT:UP  17-09-28 17:27 OP:dani STATUS:               ID:20170928081741     3
 OLDACT:UP  17-09-28 17:27 OP:dani STATUS:               ID:20170928081741     3
 OLDACT:UP  17-09-28 17:25 OP:dani STATUS:               ID:20170928081741     3
 OLDACT:REG 17-09-28 13:43 OP:edw  STATUS:               ID:20170928081741     3
 2017-09-28-0818-00M.COL___413                                                 6
 STAT SP IPHASW D HRMM SECON CODA AMPLIT PERI AZIMU VELO AIN AR TRES W  DIS CAZ7
 BAR2 EZ EP        822 51.93                             171   -0.2310 21.9 198 
 BAR2 EZ ES        823  7.96                             171    0.1310 21.9 198 
 BAR2 EZ I         823 14.77         9.7 0.66            169           21.9 198 
 BRR  HE ES        823 11.12                             152    0.2610 74.8 299 
 BRR  HZ I         823 12.40         5.1 0.36            153           74.8 299 
 PAM  EZ EP        822 54.89                             152    0.1710 77.3  37 
 PAM  EE ES        823 11.98                             152   -0.4010 77.3  37 
 PAM  EZ I         823 13.98         2.5 0.51            157           77.3  37 
 RUS  HZ EP        822 56.50                             145    0.4410 98.2 178 
 RUS  HN ES        823 14.74                             145   -0.0210 98.2 178 
 RUS  HZ I         823 16.04         2.3 0.44            147           98.2 178 
 SPBC HZ EP        823  1.02                             130    0.12 9  163 220 
 SPBC HN ES        823 23.07                             130   -0.31 9  163 220 
 SPBC HZ I         823 27.44         3.3 0.18            132            163 220 
 NOR  HZ EP        823  7.77                             119   -0.38 8  236 235 
 NOR  HN ES        823 36.36                             119    0.06 8  236 235 
 NOR  HZ I         823 42.39         1.4 0.13            121            236 235 
                                                                                
