 2017  528 0332 26.5 L   6.960 -72.869135.6  RSN  4 0.1 1.2LRSN                1
 GAP=266        0.34       5.8     9.3  5.3  0.4675E+02 -0.2993E+02 -0.1650E+02E
 Epicentro: SANTA BARBARA - SANTANDER                                          3
 ACTION:UPD 17-06-16 13:39 OP:jn   STATUS:               ID:20170528033227 L   I
 OLDACT:UP  17-06-05 17:38 OP:nlst STATUS:               ID:20170528033227 L   3
 OLDACT:UP  17-05-28 16:32 OP:dnl  STATUS:               ID:20170528032738     3
 OLDACT:UP  17-05-28 16:31 OP:dnl  STATUS:               ID:20170528032738     3
 OLDACT:UP  17-05-28 16:31 OP:dnl  STATUS:               ID:20170528032738     3
 OLDACT:REG 17-05-28 13:17 OP:dnl  STATUS:               ID:20170528032738     3
 2017-05-28-0328-00M.COL___335                                                 6
 STAT SP IPHASW D HRMM SECON CODA AMPLIT PERI AZIMU VELO AIN AR TRES W  DIS CAZ7
 BRR  HZ EP        332 48.17                             143    0.0810 94.5 280 
 BRR  HN IS        333  4.91                             143   -0.0510 94.5 280 
 BRR  HZ I         333  8.90         4.1 0.52            149           94.5 280 
 RUS  HZ EP   1    332 50.70                             136   -0.13 7  120 191 
 RUS  HE ES   1    333  9.92                             136    0.09 7  120 191 
 RUS  HZ I         333 11.79         1.1 0.46            144            120 191 
 PTB  HZ EP   1    332 55.88                             123   -0.07 7  182 255 
 PTB  HN ES   4    333 14.20                             123   -4.74 0  182 255 
 PTB  HZ I         333 17.07         1.5 0.50            130            182 255 
 ZAR  HZ EP   2    333  0.96                             117    0.18 4  227 285 
 ZAR  HN ES   4    333 23.63                             117   -3.91 0  227 285 
 ZAR  HZ I         333 29.75         2.4 0.24            122            227 285 
                                                                                
