 2013  128 0538 32.1 L   6.819 -73.154146.1  RSN  9 0.6 2.1LRSN                1
 GAP= 70        1.42       5.0     5.5  8.2  0.1610E+01  0.3547E+01  0.2995E+01E
 Epicentro: LOS SANTOS - SANTANDER                                             3
 ACTION:UPD 13-02-15 09:17 OP:ep   STATUS:               ID:20130128053832 L   I
 2013-01-28-0528-50M.COL___174                                                 6
 STAT SP IPHASW D HRMM SECON CODA AMPLIT PERI AZIMU VELO AIN AR TRES W  DIS CAZ7
 BAR2 SZ EP        538 51.88                             170    0.0310 25.3 187 
 BAR2 SZ ES        539  6.57                             170   -0.6610 25.3 187 
 BAR2 SZ I         539  7.66        30.4 0.26            170           25.3 187 
 BRR  HZ IP     C  538 53.70                             153    0.4810 69.4 297 
 BRR  HZ I         538 54.03        19.6 0.12            152           69.4 297 
 BRR  HN ES        539 10.77                             153    1.1010 69.4 297 
 PAM  SZ EP        538 54.67                             151    0.3410 76.4  41 
 PAM  SN ES        539 11.55                             151   -0.0910 76.4  41 
 PAM  SN I         539 12.95        37.7 0.64            152           76.4  41 
 RUS  HZ EP        538 56.05                             143   -0.0310  103 176 
 RUS  HN ES        539 14.26                             143   -0.5010  103 176 
 RUS  HN I         539 15.00         9.7 0.22            144            103 176 
 PTB  HZ EP        538 58.45                             132   -0.64 9  147 258 
 PTB  HN ES        539 19.60                             132   -0.51 9  147 258 
 PTB  HN I         539 25.16        22.9 0.24            132            147 258 
 TAM  HZ IP     D  539  0.11                             130    0.13 9  157 106 
 TAM  HZ I         539  0.21        11.7 0.36            132            157 106 
 OCA  HZ EP   1    539  0.25                             130   -0.02 7  158 353 
 OCA  HN ES   1    539 21.97                             130   -0.24 7  158 353 
 OCA  HN I         539 26.96        39.4 0.22            130            158 353 
 ZAR  HZ EP        539  3.34                             123   -1.09 9  202 292 
 ZAR  HN ES        539 30.01                             123    0.39 9  202 292 
 CHI  HZ EP   1    539 10.55                             117    0.50 6  250 195 
 CHI  HN ES        539 40.71                             117    1.09 8  250 195 
 CHI  HN I         539 43.07         4.6 0.26            117            250 195 
                                                                                
