 2010 1028 0538 46.9 L   6.794 -73.063146.3  RSN  7 0.3 1.8LRSN                1
 GAP=191        0.57       2.7     6.5  5.0  0.1400E+01 -0.1831E+00  0.7863E+00E
 Epicentro: LOS SANTOS - SANTANDER                                             3
 ACTION:UP  11-02-18 11:12 OP:tino STATUS:               ID:20101028053846 L   I
 2010-10-28-0534-00S.COL___124                                                 6
 STAT SP IPHASW D HRMM SECON CODA AMPLIT PERI AZIMU VELO SNR AR TRES W  DIS CAZ7
 BAR2 SZ IP        539  6.83                             169     0.110   26 211 
 BAR2 SZ I         539  7.15        15.4 0.09                            26 211 
 BAR2 SZ ES   1    539 22.28                             169     0.2 7   26 211 
 BRR  HZ IP     C  539  8.68                             150     0.010   80 296 
 BRR  HZ I         539  8.91        27.3 0.09                            80 296 
 BRR  HN ES   1    539 25.82                             150     0.2 7   80 296 
 RUS  HZ EP   1    539 10.83                             144     0.2 7  100 181 
 RUS  HN ES   1    539 28.75                             144    -0.4 7  100 181 
 RUS  HZ I         539 30.73         8.5 0.44                           100 181 
 OCA  SZ EP   1    539 15.32                             129    -0.1 7  162 350 
 OCA  SZ ES   1    539 37.39                             129    -0.3 7  162 350 
 OCA  SZ I         539 38.97         4.4 0.20                           162 350 
 NOR  SE ES   2    539 51.41                             118    -0.6 4  242 236 
 CHI  HZ EP   1    539 24.95                             117     0.1 6  251 197 
 CHI  HZ I         539 27.54         2.4 0.40                           251 197 
 CHI  HN ES   2    539 54.53                             117     0.1 4  251 197 
 PRA  HZ EP   2    539 41.44                             106     0.5 3  396 211 
 PRA  HZ I         539 43.97         4.1 0.32                           396 211 
 PRA  HN ES   2    540 22.76                             106    -0.3 3  396 211 
                                                                                
