 2015  828 0035 59.2 L   6.785 -73.109146.0  RSN  7 0.5 1.9LRSN                1
 GAP=226        1.16       4.3     8.0  7.7 -0.1090E+01  0.1335E+02  0.1373E+01E
 Epicentro: LOS SANTOS - SANTANDER                                             3
 ACTION:UPD 15-09-15 23:05 OP:cam  STATUS:               ID:20150828003559 L   I
 OLDACT:UP  15-08-28 16:43 OP:ak   STATUS:               ID:20150828002748     3
 OLDACT:REG 15-08-28 12:56 OP:ak   STATUS:               ID:20150828002748     3
 2015-08-28-0027-48M.COL___361                                                 6
 STAT SP IPHASW D HRMM SECON CODA AMPLIT PERI AZIMU VELO AIN AR TRES W  DIS CAZ7
 BAR2 EZ EP        036 18.38                             171   -0.4310 22.8 201 
 BAR2 EZ ES        036 34.27                             171    0.1410 22.8 201 
 BAR2 EZ I         036 36.52         7.9 0.24            170           22.8 201 
 BRR  HZ EP        036 20.95                             151    0.3610 75.6 298 
 BRR  HN ES        036 37.93                             151    0.6310 75.6 298 
 SPBC HZ EP        036 27.98                             129    0.18 9  164 220 
 SPBC HN ES        036 49.26                             129   -0.87 9  164 220 
 SPBC HZ I         036 52.69         8.0 0.10            130            164 220 
 ZAR  HZ EP   1    036 32.79                             122    0.72 6  208 292 
 ZAR  HN ES        036 57.66                             122   -0.09 8  208 292 
 ZAR  HZ I         037  2.97                             122            208 292 
 SML  HZ EP        036 36.06                             117   -0.09 8  247 335 
 SML  HN ES        037  4.05                             117   -0.95 8  247 335 
 SML  HZ I         037  7.92        15.1 0.05            118            247 335 
 GUY2CHN ES        037 17.56                             112    0.29 7  304 235 
 PRA  HZ EP        036 53.43                             107    0.68 6  393 210 
 PRA  HN ES        037 34.30                             107   -0.25 6  393 210 
                                                                                
