 2013  828 0434  4.4 L   6.779 -73.201145.2  RSN  6 0.4 1.4LRSN                1
 GAP=196        0.94       3.8     5.8  6.3  0.4145E+01  0.2650E+01 -0.4793E+01E
 Epicentro: ZAPATOCA - SANTANDER                                               3
 ACTION:UPD 14-01-14 09:07 OP:ep   STATUS:               ID:20130828043404 L   I
 OLDACT:REG 13-08-28 07:22 OP:nd   STATUS:               ID:20130828042959     3
 2013-08-28-0429-59M.COL___270                                                 6
 STAT SP IPHASW D HRMM SECON CODA AMPLIT PERI AZIMU VELO AIN AR TRES W  DIS CAZ7
 BAR2 SZ EP        434 23.70                             171   -0.2010 20.8 174 
 BAR2 SZ ES        434 38.67                             171   -0.4510 20.8 174 
 BAR2 SZ I         434 39.85         6.5 0.26            175           20.8 174 
 BRR  HZ IP     D  434 25.62                             154    0.3710 67.1 303 
 BRR  HN ES        434 42.09                             154    0.5710 67.1 303 
 BRR  HZ I         434 45.91         3.9 0.38            151           67.1 303 
 RUS  HZ EP        434 28.39                             144    0.4310 98.9 172 
 RUS  HN ES        434 46.25                             144   -0.1010 98.9 172 
 RUS  HZ I         434 48.19         3.4 0.32            148           98.9 172 
 PTB  HZ EP        434 30.20                             133   -0.53 9  141 259 
 PTB  HN ES        434 51.16                             133   -0.11 9  141 259 
 PTB  HZ I         434 53.12         2.6 0.20            134            141 259 
 SPBC HZ EP        434 32.74                             130    0.43 9  158 218 
 SPBC HN ES        434 53.96                             130   -0.13 9  158 218 
 SPBC HZ I         434 57.37         3.8 0.26            132            158 218 
 SML  HZ EP        434 40.55                             117   -0.39 8  243 337 
 SML  HE ES        435  9.35                             117   -0.10 8  243 337 
 SML  HZ I         435 19.80         2.8 0.26            118            243 337 
                                                                                
