 2016 1228 0617 26.2 L   6.784 -73.122133.2  RSN  5 0.3 1.2LRSN                1
 GAP=239        0.98       8.5     8.8  7.1  0.5753E+02 -0.9586E+01 -0.1655E+02E
 Epicentro: LOS SANTOS - SANTANDER                                             3
 ACTION:UPD 17-01-11 20:20 OP:rebc STATUS:               ID:20161228061726 L   I
 OLDACT:UP  16-12-28 19:34 OP:edw  STATUS:               ID:20161228060747d    3
 OLDACT:DUP 16-12-28 19:30 OP:edw  STATUS:               ID:20161228060747d    3
 OLDACT:UP  16-12-28 19:30 OP:edw  STATUS:               ID:20161228060746     3
 OLDACT:UP  16-12-28 19:28 OP:edw  STATUS:               ID:20161228060746     3
 OLDACT:REG 16-12-28 13:19 OP:edw  STATUS:               ID:20161228060746     3
 2016-12-28-0608-00M.COL___359                                                 6
 STAT SP IPHASW D HRMM SECON CODA AMPLIT PERI AZIMU VELO AIN AR TRES W  DIS CAZ7
 BAR2 EZ EP        617 43.86                             170   -0.3910 22.2 197 
 BAR2 EZ ES        617 58.57                             170    0.2010 22.2 197 
 BRR  HZ EP        617 46.01                             149   -0.1410 74.4 299 
 BRR  HN ES        618  2.03                             149    0.2710 74.4 299 
 BRR  HZ I         618  3.22         4.4 0.30            146           74.4 299 
 RUS  HZ EP        617 48.55                             142    0.0010 98.7 178 
 RUS  HN ES        618  5.97                             142   -0.0410 98.7 178 
 RUS  HZ I         618  8.61         1.9 0.28            138           98.7 178 
 PTB  HZ EP   9    617 51.21                             128   -1.13 0  150 260 
 PTB  HN ES        618 10.88                             131   -0.76 9  150 260 
 PTB  HZ I         618 16.57         1.6 0.11            125            150 260 
 ZAR  HZ EP        617 58.75                             119    0.61 8  207 292 
 ZAR  HN ES        618 22.64                             119   -0.45 8  207 292 
 ZAR  HZ I         618 24.55         2.5 0.12            118            207 292 
                                                                                
