 2012  328 0505 13.5 L   6.794 -73.153142.7  RSN 10 0.5 2.2LRSN                1
 GAP=136        1.14       5.2     6.4  8.6 -0.5637E+01  0.1741E+02  0.3966E+01E
 ACTION:UP  12-03-31 23:23 OP:EP   STATUS:               ID:20120328050513 L   I
 2012-03-28-0500-00M.COL___196                                                 6
 STAT SP IPHASW D HRMM SECON CODA AMPLIT PERI AZIMU VELO SNR AR TRES W  DIS CAZ7
 BAR2 SZ IP        5 5 32.86                             171     0.110   23 188 
 BAR2 SZ I         5 5 33.00        59.7 0.42                            23 188 
 BAR2 SZ ES   1    5 5 47.45                             171    -0.3 7   23 188 
 BRR  HZ IP     C  5 5 34.78                             152     0.410   71 299 
 BRR  HZ I         5 5 36.09        45.7 0.10                            71 299 
 BRR  HN ES   1    5 5 51.58                             152     1.0 7   71 299 
 PAM  SZ EP        5 5 35.72                             150     0.210   78  40 
 PAM  SN ES   1    5 5 52.71                             150     0.1 7   78  40 
 RUS  HZ EP        5 5 36.90                             143     0.010  100 176 
 RUS  HE ES   2    5 5 55.25                             143     0.0 5  100 176 
 RUS  HZ I         5 5 56.92        12.2 0.38                           100 176 
 PTB  HZ EP        5 5 39.65                             132    -0.5 9  147 259 
 PTB  HZ I         5 5 41.75        14.5 0.38                           147 259 
 PTB  HN ES   2    5 6  0.12                             132    -0.8 5  147 259 
 OCA  SZ EP   1    5 5 41.62                             129    -0.1 7  161 353 
 OCA  SZ ES   1    5 6  2.25                             129    -1.4 7  161 353 
 ZAR  HZ EP        5 5 45.82                             122     0.1 9  204 292 
 ZAR  HE ES   2    5 6 11.16                             122     0.3 4  204 292 
 ZAR  HZ I         5 6 17.77        28.2 0.32                           204 292 
 NOR  SZ EP        5 5 49.37                             118     0.4 8  234 234 
 NOR  SE ES   1    5 6 16.40                             118    -0.2 6  234 234 
 CHI  HZ EP   3    5 5 50.92                             117    -0.1 2  248 195 
 CHI  HN ES   2    5 6 19.34                             117    -0.8 4  248 195 
 CHI  HZ I         5 6 26.88         4.6 0.22                           248 195 
 HEL  HZ EP   2    5 5 53.74                             114     0.2 4  271 256 
 HEL  HZ I         5 6 31.97        13.4 0.28                           271 256 
                                                                                
