 2016  228 0842 23.1 L   6.795 -73.180141.4  RSN  6 0.4 1.3LRSN                1
 GAP=143        0.99       4.7     5.5  7.5 -0.1038E+02  0.1080E+02  0.1739E+01E
 Epicentro: LOS SANTOS - SANTANDER                                             3
 ACTION:UPD 16-03-04 21:30 OP:rebc STATUS:               ID:20160228084223 L   I
 OLDACT:REG 16-02-28 12:45 OP:drio STATUS:               ID:20160228083748     3
 2016-02-28-0837-48M.COL___309                                                 6
 STAT SP IPHASW D HRMM SECON CODA AMPLIT PERI AZIMU VELO AIN AR TRES W  DIS CAZ7
 BAR2 EZ EP        842 41.63                             171   -0.5310 22.4 181 
 BAR2 EZ ES        842 56.91                             171   -0.1410 22.4 181 
 BAR2 EZ I         842 58.07         5.1 0.38            169           22.4 181 
 PAM  EZ EP        842 45.16                             149    0.1510 80.3  41 
 PAM  EN ES        843  2.27                             149    0.1510 80.3  41 
 PAM  EZ I         843  4.45         7.1 0.66            153           80.3  41 
 RUS  HZ EP        842 46.47                             143    0.0910  100 174 
 RUS  HE ES        843  4.71                             143    0.1510  100 174 
 RUS  HZ I         843  5.75         1.7 0.32            144            100 174 
 PTB  HZ EP        842 49.11                             132   -0.22 9  144 259 
 PTB  HE ES        843 10.42                             132    0.60 9  144 259 
 PTB  HZ I         843 11.54         2.5 0.34            132            144 259 
 SPBC HZ EP        842 50.95                             129   -0.02 9  160 218 
 SPBC HN ES        843 11.99                             129   -0.74 9  160 218 
 SPBC HZ I         843 22.16         2.3 0.20            130            160 218 
 CHI  HZ EP   4    843  1.64                             116    1.28 0  247 194 
 CHI  HN ES        843 30.13                             116    0.68 8  247 194 
                                                                                
