 2017  628 0821 52.2 L   6.647 -73.215144.0  RSN  4 0.5 1.2LRSN                1
 GAP=196        0.81       9.7     5.9  8.1  0.2122E+02  0.9797E+01 -0.3560E+01E
 Epicentro: BARICHARA - SANTANDER                                              3
 ACTION:UPD 17-09-14 16:56 OP:jn   STATUS:               ID:20170628082152 L   I
 OLDACT:REG 17-06-28 12:52 OP:and  STATUS:               ID:20170628081742     3
 2017-06-28-0818-00M.COL___364                                                 6
 STAT SP IPHASW D HRMM SECON CODA AMPLIT PERI AZIMU VELO AIN AR TRES W  DIS CAZ7
 BAR2 EZ EP        822 11.19                             177   -0.2010 6.99 149 
 BAR2 EZ ES        822 26.54                             177    0.1810 6.99 149 
 BAR2 EZ I         822 27.88         5.5 0.16            170           6.99 149 
 BRR  HZ EP        822 12.95                             151   -0.4110 74.9 313 
 BRR  HN ES        822 30.28                             151    0.4010 74.9 313 
 PTB  HZ EP   2    822 18.87                             134    0.75 5  138 265 
 PTB  HN ES        822 38.30                             134   -0.05 9  138 265 
 PTB  HZ I         822 44.69         1.0 0.36            131            138 265 
 ZAR  HZ EP   3    822 26.36                             123    1.82 2  204 297 
 ZAR  HE ES        822 49.53                             123   -0.24 9  204 297 
 ZAR  HZ I         822 56.01         2.3 0.40            121            204 297 
                                                                                
