 2010  328 0143  7.6 L   6.826 -73.002146.3  RSN  4 0.2 1.5LRSN                1
 GAP=253        0.44       5.2    10.6  6.7  0.1638E+02 -0.6847E+01  0.1065E+02E
 Epicentro: CEPITA - SANTANDER                                                 3
 ACTION:UP  10-08-24 09:56 OP:vdl  STATUS:               ID:20100328014307 L   I
 2010-03-28-0139-48S.COL___098                                                 6
 STAT SP IPHASW D HRMM SECON CODA AMPLIT PERI AZIMU VELO SNR AR TRES W  DIS CAZ7
 BAR2 SZ EP        143 27.59                             167     0.010   33 218 
 BAR2 SZ ES   2    143 43.08                             167     0.0 5   33 218 
 BRR  HZ EP   1    143 29.85                             149     0.2 7   84 292 
 BRR  HN ES   2    143 46.50                             149    -0.3 5   84 292 
 BRR  HZ I         144  6.59        14.8 0.64                            84 292 
 RUS  HZ EP   3    143 31.21                             143    -0.4 2  104 185 
 RUS  HN ES   3    143 50.53                             143     0.1 2  104 185 
 RUS  HZ I         143 51.57         3.4 0.40                           104 185 
 CHI  HZ EP   1    143 45.81                             117    -0.3 6  256 198 
 CHI  HN ES   2    144 16.48                             117     0.3 4  256 198 
 CHI  HZ I         144 21.03         1.6 0.50                           256 198 
                                                                                
