 2012  728 0635 52.8 L   6.747 -73.108148.9  RSN  8 0.4 1.9LRSN                1
 GAP=144        0.79       8.7     8.9  7.7 -0.1012E+02  0.9303E+01  0.2035E+02E
 Epicentro: LOS SANTOS - SANTANDER                                             3
 ACTION:UPD 12-08-14 11:46 OP:ep   STATUS:               ID:20120728063552 L   I
 2012-07-28-0630-00M.COL___215                                                 6
 STAT SP IPHASW D HRMM SECON CODA AMPLIT PERI AZIMU VELO AIN AR TRES W  DIS CAZ7
 BAR2 SZ EP   3    636 12.84                             173     0.2 2   19 206 
 BAR2 SZ ES   1    636 27.76                             173    -0.5 7   19 206 
 BAR2 SZ I         636 30.73        13.7 0.38            106             19 206 
 BRR  HZ EP        636 14.71                             151     0.110   78 301 
 BRR  HN ES   1    636 32.01                             151     0.3 7   78 301 
 BRR  HZ I         636 33.86        11.4 0.16            102             78 301 
 PAM  SZ EP   1    636 15.66                             150     0.2 7   79  35 
 RUS  HZ EP   2    636 16.89                             146     0.5 5   95 178 
 RUS  HZ I         636 36.58         5.2 0.38             95             95 178 
 PTB  HZ EP   1    636 19.68                             132    -0.6 7  151 261 
 PTB  HZ I         636 46.64         6.8 0.44             56            151 261 
 OCA  HZ EP   3    636 20.88                             129    -1.0 2  167 352 
 OCA  HZ I         636 48.13        18.5 0.14             56            167 352 
 NOR  SZ EP        636 28.76                             119     0.1 8  235 236 
 PRA  HZ EP   2    636 46.22                             107     0.2 3  389 211 
 PRA  HZ I         637 34.22         4.4 0.66             55            389 211 
