 2014  828 0255 53.1 L   6.768 -73.160150.0  RSN 13 0.3 1.9LRSN                1
 GAP=181        0.68       2.3     3.3  4.4 -0.1252E-01  0.1940E+01  0.2507E+01E
 Epicentro: LOS SANTOS - SANTANDER                                             3
 ACTION:UPD 14-09-15 21:53 OP:nd   STATUS:               ID:20140828025553 L   I
 OLDACT:DUP 14-08-28 13:57 OP:fm   STATUS:               ID:20140828024818d    3
 2014-08-28-0248-16M.COL___260                                                 6
 STAT SP IPHASW D HRMM SECON CODA AMPLIT PERI AZIMU VELO AIN AR TRES W  DIS CAZ7
 BAR2 SZ EP        256 13.11                             172   -0.0610 19.6 187 
 BAR2 SZ ES   1    256 28.57                             172   -0.26 7 19.6 187 
 BAR2 SZ I         256 29.64        37.6 0.10            166           19.6 187 
 BRR  HZ EP        256 14.90                             153    0.1710 71.6 302 
 BRR  HN ES        256 32.09                             153    0.4910 71.6 302 
 BRR  HZ I         256 34.67        11.9 0.36            149           71.6 302 
 RUS  HZ EP        256 16.97                             146   -0.0610 97.2 175 
 RUS  HN ES   1    256 35.49                             146   -0.21 7 97.2 175 
 RUS  HZ I         256 36.88         8.6 0.40            145           97.2 175 
 PTB  HZ EP        256 19.79                             133   -0.43 9  146 260 
 PTB  HN ES        256 41.10                             133   -0.27 9  146 260 
 PTB  HZ I         256 48.29         8.5 0.40            131            146 260 
 SPBC HZ EP        256 22.04                             131    0.46 9  159 219 
 SPBC HN ES        256 44.14                             131    0.35 9  159 219 
 SPBC HZ I         256 51.02        12.0 0.42            129            159 219 
 OCA  HN ES        256 44.59                             130   -0.05 9  164 354 
 OCA  HZ I         256 46.97         9.5 0.58            133            164 354 
 ZAR  HZ EP   1    256 25.43                             123   -0.39 6  204 293 
 ZAR  HN ES        256 51.16                             123   -0.17 9  204 293 
 ZAR  HZ I         256 58.53         7.9 0.16            123            204 293 
 NOR  HZ EP   1    256 28.48                             120   -0.24 6  231 235 
 NOR  HN ES        256 56.43                             120   -0.08 8  231 235 
 NOR  HZ I         257  1.58         6.1 0.16            119            231 235 
 CHI  HZ EP   1    256 30.40                             118   -0.22 6  245 195 
 CHI  HN ES   1    256 59.50                             118   -0.39 6  245 195 
 CHI  HZ I         257  8.80         4.0 0.42            119            245 195 
 ROSC BN ES   4    257  2.43                             118    1.80 0  249 211 
 ROSC BZ I         257  7.87         8.1 0.45            118            249 211 
 HEL  HZ EP   1    256 34.00                             116    0.73 6  270 256 
 HEL  HN ES   4    257  8.93                             116    4.33 0  270 256 
 HEL  HZ I         257 12.55         5.0 0.30            115            270 256 
 GUY2CHZ EP   1    256 36.52                             113   -0.01 5  298 235 
 GUY2CHN ES   1    257 10.19                             113   -0.22 5  298 235 
 GUY2CHZ I         257 17.27         3.3 0.30                           298 235 
 MON  HN ES   4    257 18.35                             109   -2.47 0  355 309 
 PRA  HZ EP   1    256 46.80                             107    0.48 4  388 210 
 PRA  HN ES   1    257 28.27                             107    0.44 4  388 210 
 PRA  HZ I         257 34.72         3.3 0.32            108            388 210 
                                                                                
