 2016  328 0337 30.9 L   6.765 -73.161144.0  RSN  7 0.4 1.2LRSN                1
 GAP=136        0.88       4.0     4.0  6.4 -0.2591E+01  0.8249E+01 -0.1744E+00E
 Epicentro: LOS SANTOS - SANTANDER                                             3
 ACTION:UPD 16-05-13 21:28 OP:cam  STATUS:               ID:20160328032747dL   I
 OLDACT:DUP 16-03-28 15:58 OP:ak   STATUS:               ID:20160328032747dL   3
 2016-03-28-0327-46M.COL___296                                                 6
 STAT SP IPHASW D HRMM SECON CODA AMPLIT PERI AZIMU VELO AIN AR TRES W  DIS CAZ7
 BAR2 EZ EP        337 50.30                             172    0.0410 19.2 187 
 BAR2 EZ ES        338  5.66                             172    0.3110 19.2 187 
 BAR2 EZ I         338  6.97         2.8 0.18            170           19.2 187 
 PAM  EZ EP        337 53.27                             149    0.0710 81.5  39 
 PAM  EE ES        338 10.35                             149   -0.2210 81.5  39 
 PAM  EZ I         338 12.66         2.1 0.34            154           81.5  39 
 RUS  HZ EP        337 53.92                             145   -0.3110 96.8 175 
 RUS  HE ES        338 12.65                             145    0.2410 96.8 175 
 RUS  HZ I         338 14.31         2.1 0.40            146           96.8 175 
 PTB  HZ EP        337 57.10                             132   -0.43 9  145 260 
 PTB  HN ES        338 17.71                             132   -0.57 9  145 260 
 PTB  HZ I         338 22.08         2.3 0.14            133            145 260 
 SPBC HZ EP        337 58.98                             129    0.08 9  159 219 
 SPBC HN ES        338 20.69                             129   -0.03 9  159 219 
 SPBC HZ I         338 28.06         3.6 0.24            131            159 219 
 ZAR  HN ES        338 29.07                             122    0.61 9  204 293 
 GUY2CHZ EP   1    338 14.87                             112    0.83 5  298 235 
 GUY2CHE ES   4    338 51.15                             112    3.48 0  298 235 
 GUY2CHZ I         338 56.91         1.1 0.36                           298 235 
                                                                                
