 2016  528 0239 28.6 L   6.800 -73.147141.8  RSN  7 0.6 1.6LRSN                1
 GAP=136        1.52       5.3     7.4  9.7 -0.1040E+02  0.1012E+02 -0.1822E+01E
 Epicentro: LOS SANTOS - SANTANDER                                             3
 ACTION:UPD 16-08-18 17:50 OP:cam  STATUS:               ID:20160528023928 L   I
 OLDACT:UP  16-05-28 13:39 OP:ar   STATUS:               ID:20160528023745     3
 OLDACT:REG 16-05-28 12:11 OP:ar   STATUS:               ID:20160528023745     3
 2016-05-28-0237-45M.COL___316                                                 6
 STAT SP IPHASW D HRMM SECON CODA AMPLIT PERI AZIMU VELO AIN AR TRES W  DIS CAZ7
 BAR2 EZ EP        239 47.63                             170   -0.1310 23.3 190 
 BAR2 EZ ES        240  2.31                             170   -0.3910 23.3 190 
 BAR2 EZ I         240  3.29         8.0 0.16            169           23.3 190 
 BRR  HZ EP        239 49.54                             152    0.2210 71.1 299 
 BRR  HN ES        240  6.87                             152    1.3910 71.1 299 
 BRR  HZ I         240  7.60         8.6 0.38            151           71.1 299 
 PAM  EZ EP        239 50.70                             150    0.2910 77.5  40 
 PAM  EN ES        240  7.42                             150    0.0110 77.5  40 
 PAM  EZ I         240  9.78         8.7 0.46            153           77.5  40 
 RUS  HZ EP        239 52.28                             143    0.3110  101 176 
 RUS  HN ES        240 10.14                             143   -0.0610  101 176 
 RUS  HZ I         240 11.11         2.9 0.32            144            101 176 
 PTB  HZ EP        239 55.48                             131    0.23 9  148 259 
 PTB  HN ES        240 15.54                             131   -0.48 9  148 259 
 OCA  HZ EP        239 56.03                             129   -0.58 9  160 353 
 OCA  HN ES        240 17.64                             129   -0.81 9  160 353 
 OCA  HZ I         240 21.02        13.6 0.36            130            160 353 
 SPBC HZ EP        239 57.45                             128    0.65 9  163 219 
 SPBC HN ES        240 17.85                             128   -0.94 9  163 219 
 SPBC HZ I         240 28.66         6.1 0.24            128            163 219 
                                                                                
