 2012  828 0020 57.3 L   6.733 -73.174145.1  RSN  5 0.3 1.5LRSN                1
 GAP=177        0.45       8.2     8.1  6.9  0.1408E+02  0.1345E+02  0.2571E+02E
 Epicentro: VILLANUEVA - SANTANDER                                             3
 ACTION:UPD 12-09-10 11:58 OP:ep   STATUS:               ID:20120828002057 L   I
 2012-08-28-0020-00M.COL___218                                                 6
 STAT SP IPHASW D HRMM SECON CODA AMPLIT PERI AZIMU VELO AIN AR TRES W  DIS CAZ7
 BAR2 SZ EP   2    021 16.96                             175    0.22 5 15.6 183 
 BAR2 SZ ES   3    021 31.38                             175   -0.51 2 15.6 183 
 BAR2 SZ I         021 34.18         7.3 0.16                          15.6 183 
 GIR2 SZ ES   3    021 31.45                             163   -1.13 2 38.3 357 
 BRR  HZ EP        021 18.62                             152    0.1510 72.4 305 
 BRR  HZ I         021 18.90         9.6 0.28                          72.4 305 
 BRR  HN ES   1    021 35.08                             152    0.11 7 72.4 305 
 RUS  HN ES   3    021 38.59                             146    0.00 2 93.5 174 
 PTB  HZ EP        021 23.66                             133   -0.19 9  143 261 
 PTB  HN ES   3    021 44.58                             133    0.05 2  143 261 
 PTB  HZ I         021 47.17         2.0 0.40                           143 261 
                                                                                
