 2017  128 0341 59.9 L   7.484 -73.173136.3  RSN  6 0.2 1.3LRSN                1
 GAP=197        0.55       3.4     2.4  4.5  0.7890E+00  0.1504E+01  0.9171E+00E
 Epicentro: EL PLAYON - SANTANDER                                              3
 ACTION:UPD 17-05-22 16:04 OP:jn   STATUS:               ID:20170128034159 L   I
 OLDACT:REG 17-01-28 13:12 OP:lv   STATUS:               ID:20170128033748     3
 2017-01-28-0338-00M.COL___346                                                 6
 STAT SP IPHASW D HRMM SECON CODA AMPLIT PERI AZIMU VELO AIN AR TRES W  DIS CAZ7
 PAM  EZ EP        342 20.02                             157    0.1710 54.7 107 
 PAM  EN ES        342 35.59                             157    0.1710 54.7 107 
 PAM  EZ I         342 37.66         7.8 0.16            155           54.7 107 
 BRR  HZ EP        342 19.84                             150   -0.2710 72.6 235 
 BRR  HE ES        342 35.81                             150   -0.0710 72.6 235 
 BAR2 EZ EP        342 21.98                             142   -0.2410 98.6 181 
 BAR2 EZ ES        342 39.39                             142   -0.2410 98.6 181 
 BAR2 EZ I         342 40.44         5.5 0.17            140           98.6 181 
 PTB  HN ES        342 51.77                             124    0.31 9  176 234 
 RUS  HZ EP        342 29.60                             125    0.09 9  176 177 
 RUS  HN ES        342 52.77                             125    0.16 9  176 177 
 RUS  HZ I         342 58.19         0.9 0.19            124            176 177 
 ZAR  HN ES        342 53.27                             123    0.04 9  186 270 
 NOR  HN ES   4    343 13.68                             112    1.48 0  283 222 
                                                                                
