 2013  628 0658 31.2 L   6.818 -73.249136.5  RSN  4 0.2 1.3LRSN                1
 GAP=168        0.42       2.4     6.1  7.2  0.8725E+00  0.2654E+02 -0.3799E+01E
 Epicentro: ZAPATOCA - SANTANDER                                               3
 ACTION:UPD 14-01-08 09:57 OP:ep   STATUS:               ID:20130628065831 L   I
 OLDACT:REG 13-06-28 08:37 OP:jn   STATUS:               ID:20130628065650     3
 2013-06-28-0656-50M.COL___220                                                 6
 STAT SP IPHASW D HRMM SECON CODA AMPLIT PERI AZIMU VELO AIN AR TRES W  DIS CAZ7
 BAR2 SZ EP   1    658 49.89                             169    0.16 7 26.0 164 
 PAM  SZ EP        658 52.82                             147    0.0210 83.7  46 
 PAM  SN ES   1    659  9.64                             147   -0.05 7 83.7  46 
 PAM  SZ I         659 11.95         4.1 0.66            148           83.7  46 
 RUS  HZ EP   1    658 54.44                             141    0.18 7  104 170 
 RUS  HN ES   1    659 12.11                             141   -0.18 7  104 170 
 RUS  HZ I         659 13.05         3.3 0.24            144            104 170 
 SML  HZ EP   1    659  6.20                             116   -0.37 6  237 338 
 SML  HE ES   1    659 34.38                             116    0.18 6  237 338 
                                                                                
