 2016  628 0011 33.4 L   6.783 -73.137144.4  RSN 17 0.5 2.7LRSN                1
 GAP= 99        1.10       3.2     2.8  5.2 -0.1668E+00  0.2711E+01  0.5632E+01E
 Epicentro: LOS SANTOS - SANTANDER                                             3
 ACTION:UPD 16-07-21 22:23 OP:rebc STATUS:               ID:20160628001133 L   I
 OLDACT:REG 16-06-28 12:10 OP:edw  STATUS:               ID:20160628000745     3
 2016-06-28-0007-45M.COL___343                                                 6
 STAT SP IPHASW D HRMM SECON CODA AMPLIT PERI AZIMU VELO AIN AR TRES W  DIS CAZ7
 BAR2 EZ EP     D  011 52.82                             171    0.0210 21.7 193 
 BAR2 EZ ES        012  7.62                             171   -0.3310 21.7 193 
 BAR2 EZ I         012  9.10       120.5 0.24                          21.7 193 
 BRR  HZ EP        011 54.72                             152    0.2510 73.0 299 
 BRR  HN ES        012 11.24                             152    0.3110 73.0 299 
 BRR  HZ I         012 15.91        59.0 0.16                          73.0 299 
 PAM  EZ EP        011 55.85                             150    0.3610 78.2  38 
 PAM  EN ES        012 12.58                             150   -0.1610 78.2  38 
 PAM  EZ I         012 15.04       145.4 0.48                          78.2  38 
 RUS  HZ EP        011 56.91                             144    0.0710 98.6 177 
 RUS  HE ES        012 15.65                             144    0.5010 98.6 177 
 RUS  HZ I         012 16.62        63.0 0.26                          98.6 177 
 PTB  HZ EP        011 59.47                             132   -0.81 9  148 260 
 PTB  HN ES        012 20.47                             132   -0.80 9  148 260 
 PTB  HZ I         012 23.07        38.4 0.40                           148 260 
 TAM  HZ EP     D  012  1.23                             130    0.43 9  154 104 
 TAM  HN ES        012 22.37                             130    0.17 9  154 104 
 SPBC HZ EP        012  1.82                             129    0.14 9  162 220 
 SPBC HN ES        012 24.12                             129    0.36 9  162 220 
 SPBC HZ I         012 30.26        69.0 0.24                           162 220 
 ZAR  HZ EP        012  5.51                             122   -0.38 8  206 293 
 ZAR  HN ES        012 30.91                             122   -0.35 8  206 293 
 ZAR  HZ I         012 37.62        42.2 0.42                           206 293 
 NOR  HZ EP        012  8.93                             118   -0.06 8  234 235 
 NOR  HE ES        012 36.81                             118    0.04 8  234 235 
 NOR  HZ I         012 42.51        43.0 0.16                           234 235 
 CHI  HZ EP        012 11.12                             117    0.30 8  247 196 
 CHI  HN ES        012 39.98                             117   -0.05 8  247 196 
 CHI  HZ I         012 43.85        30.4 0.54                           247 196 
 ROSC BZ EP   4    012 12.50                             116    1.21 0  252 211 
 ROSC BN ES        012 41.10                             116    0.23 8  252 211 
 ROSC BZ I         012 44.97        44.3 0.35                           252 211 
 HEL  HZ EP        012 13.99                             114    0.42 8  273 256 
 HEL  HN ES        012 44.69                             114   -0.23 8  273 256 
 URE  HZ EP   4    012 13.48                             113   -1.08 0  285 292 
 URE  HN ES   4    012 45.10                             113   -1.58 0  285 292 
 GUY2CHZ EP        012 17.98                             112    1.10 7  301 235 
 GUY2CHE ES        012 51.42                             112    0.60 7  301 235 
 GUY2CHZ I         012 59.02        26.3 0.28                           301 235 
 SOCV BZ EP   4    012 15.58                             112   -0.80 0  302  56 
 SOCV BN ES   4    012 47.16                             112   -2.76 0  302  56 
 VIL  SZ EP        012 16.52                             112   -0.02 7  302 192 
 VIL  SN ES        012 50.25                             112    0.05 7  302 192 
 PTGC HZ EP        012 16.07                             111   -0.85 7  307 159 
 PTGC HN ES        012 49.13                             111   -1.76 7  307 159 
 PTGC HZ I         012 52.07        36.1 0.44                           307 159 
 LL6C HZ EP   4    012 17.72                             110   -1.52 0  327 357 
 LL6C HN ES   4    012 54.51                             110   -0.50 0  327 357 
 ELA  HZ EP   4    012 21.95                             110    1.84 0  329 230 
 ELA  HN ES   4    012 57.38                             110    0.82 0  329 230 
 ANIL HZ EP   4    012 23.49                             108    0.45 0  357 225 
 ANIL HN ES   4    013  2.81                             108    1.02 0  357 225 
 PRA  HZ EP        012 26.76                             106    0.05 6  391 210 
 PRA  HN ES        013  8.25                             106   -0.06 6  391 210 
 PRA  HZ I         013 13.20        16.4 0.22                           391 210 
 ORTC HZ EP        012 27.18                             106    0.05 6  394 216 
 ORTC HN ES        013  9.04                             106   -0.02 6  394 216 
 ORTC HZ I         013 14.19        15.8 0.30                           394 216 
 PAL  HZ EP   4    012 27.74                             106   -0.73 0  406 239 
 PAL  HE ES   4    013 11.83                             106    0.38 0  406 239 
 SJC  HZ EP   4    012 27.01                             105   -2.13 0  411 327 
 SJC  HN ES   4    013  8.16                             105   -4.48 0  411 327 
 CRJC HZ EP   4    012 33.23                             103   -2.82 0  469   3 
 CRJC HN ES   4    013 19.67                             103   -5.27 0  469   3 
 SMAR HZ EP   4    012 38.34                             102   -1.12 0  499 346 
 SMAR HN ES   4    013 26.66                             102   -4.34 0  499 346 
                                                                                
