 2013 1228 0845 45.8 L   6.786 -73.113139.8  RSN  5 0.4 1.2LRSN                1
 GAP=186        0.79       3.7     5.1 11.3  0.3837E+01  0.8660E+01 -0.7326E+01E
 Epicentro: LOS SANTOS - SANTANDER                                             3
 ACTION:UPD 14-01-13 10:21 OP:ep   STATUS:               ID:20131228084546dL   I
 OLDACT:REG 13-12-28 07:50 OP:mh   STATUS:               ID:20131228084000     3
 2013-12-28-0840-00M.COL___285                                                 6
 STAT SP IPHASW D HRMM SECON CODA AMPLIT PERI AZIMU VELO AIN AR TRES W  DIS CAZ7
 BAR2 SZ EP   1    846  5.14                             170    0.47 7 22.8 200 
 BAR2 SZ I         846 22.95         7.0 0.13            170           22.8 200 
 RUS  HZ EP        846  8.80                             143   -0.0110 98.9 178 
 RUS  HN ES        846 26.84                             143    0.0510 98.9 178 
 RUS  HZ I         846 28.50         1.5 0.19            141           98.9 178 
 PTB  HZ EP        846 12.38                             130   -0.18 9  151 260 
 PTB  HN ES        846 33.11                             130   -0.35 9  151 260 
 PTB  HZ I         846 34.46         2.3 0.09            132            151 260 
 OCA  HN ES        846 35.46                             128   -0.23 9  162 352 
 ZAR  HN ES   1    846 44.43                             120    0.85 6  208 292 
                                                                                
