 2016  328 0455 58.9 L   6.804 -73.182148.3  RSN 10 0.4 1.5LRSN                1
 GAP=132        0.95       3.0     3.8  6.3 -0.2538E+01  0.7126E+01  0.2540E+01E
 Epicentro: ZAPATOCA - SANTANDER                                               3
 ACTION:UPD 16-05-13 21:28 OP:cam  STATUS:               ID:20160328044747 L   I
 OLDACT:UPD 16-03-28 15:59 OP:Mher STATUS:               ID:20160328044747 L   3
 2016-03-28-0447-47M.COL___296                                                 6
 STAT SP IPHASW D HRMM SECON CODA AMPLIT PERI AZIMU VELO AIN AR TRES W  DIS CAZ7
 BAR2 EZ EP        456 18.57                             171   -0.2910 23.4 180 
 BAR2 EZ ES        456 33.95                             171   -0.4610 23.4 180 
 BAR2 EZ I         456 36.83         5.5 0.34            169           23.4 180 
 PAM  EZ EP        456 21.60                             151    0.0510 79.7  42 
 PAM  EN ES        456 38.93                             151   -0.2710 79.7  42 
 PAM  EZ I         456 39.90         2.5 0.18            155           79.7  42 
 RUS  HZ EP        456 22.73                             144   -0.2510  101 174 
 RUS  HE ES        456 42.17                             144    0.4310  101 174 
 RUS  HZ I         456 44.00         2.9 0.48            145            101 174 
 PTB  HZ EP        456 25.08                             133   -0.67 9  144 258 
 PTB  HN ES        456 46.48                             133   -0.20 9  144 258 
 PTB  HZ I         456 51.37         4.4 0.26            134            144 258 
 OCA  HZ EP   2    456 27.18                             130   -0.17 5  159 355 
 OCA  HN ES        456 50.28                             130    0.75 9  159 355 
 OCA  HZ I         456 52.76         5.1 0.23            134            159 355 
 SPBC HZ EP        456 27.56                             130    0.15 9  161 218 
 SPBC HN ES        456 50.29                             130    0.66 9  161 218 
 SPBC HZ I         456 57.09         4.7 0.46            131            161 218 
 ZAR  HE ES        456 56.63                             123    0.36 9  200 292 
 NOR  HZ EP   2    456 34.28                             119   -0.20 4  232 234 
 NOR  HE ES        457  1.81                             119   -0.40 8  232 234 
 NOR  HZ I         457  6.44         4.0 0.18            121            232 234 
 CHI  HZ EP        456 36.88                             118    0.19 8  248 194 
 CHI  HE ES        457  6.61                             118    0.46 8  248 194 
 CHI  HZ I         457 14.37         1.4 0.42            119            248 194 
 GUY2CHE E         448 36.83                                            298 234 
 GUY2CHZ EP   2    456 42.39                             113    0.08 4  298 234 
 GUY2CHN ES        457 15.97                             113   -0.17 7  298 234 
 GUY2CHZ I         457 23.70         1.8 0.34                           298 234 
                                                                                
