 2011  628 0738 50.2 L   6.787 -73.093141.9  RSN 13 0.3 2.2LRSN                1
 GAP=165        0.64       2.8     4.6  4.2 -0.3303E+01  0.4400E+01  0.4462E+00E
 Epicentro: LOS SANTOS - SANTANDER                                             3
 ACTION:UP  11-07-14 19:08 OP:ep   STATUS:               ID:20110628073850 L   I
 2011-06-28-0735-49S.COL___140                                                 6
 STAT SP IPHASW D HRMM SECON CODA AMPLIT PERI AZIMU VELO SNR AR TRES W  DIS CAZ7
 BAR2 SZ IP        739  9.43                             170     0.010   24 205 
 BAR2 SZ ES        739 24.44                             170     0.110   24 205 
 BAR2 SZ I         739 26.84        38.1 0.20                            24 205 
 BTL  SZ EP        739  9.48                             170     0.110   24 307 
 GIR2 SZ EP        739  9.35                             166    -0.210   34 341 
 BRR  HZ IP     C  739 11.21                             150    -0.110   77 297 
 BRR  HN ES   1    739 27.80                             150     0.1 7   77 297 
 BRR  HZ I         739 30.03        58.9 0.16                            77 297 
 RUS  HZ EP        739 13.35                             144    -0.110   99 179 
 RUS  HE ES   1    739 31.60                             144     0.0 7   99 179 
 RUS  HZ I         739 33.28        24.4 0.21                            99 179 
 GRA  SZ EP        739 15.20                             136     0.110  126  15 
 GRA  SZ I         739 39.57        11.3 0.27                           126  15 
 OCA  SZ EP   1    739 18.30                             128    -0.1 7  162 351 
 OCA  SZ ES   2    739 40.28                             128    -0.2 5  162 351 
 OCA  SZ I         739 44.43        20.3 0.13                           162 351 
 NOR  SZ EP   1    739 25.58                             117    -0.6 6  239 236 
 NOR  SE ES   2    739 53.55                             117    -0.6 4  239 236 
 CHI  HZ EP   1    739 27.66                             116    -0.1 6  249 197 
 CHI  HN ES   2    739 57.44                             116     0.5 4  249 197 
 CHI  HZ I         740  0.26        14.3 0.36                           249 197 
 HEL  HZ EP   1    739 31.43                             114     0.6 6  277 256 
 HEL  HN ES   2    740  2.13                             114    -0.4 4  277 256 
 HEL  HZ I         740  9.00         8.8 0.30                           277 256 
 RREF HZ EP   1    739 37.25                             110     0.7 5  325 230 
 RREF HN ES   2    740 13.54                             110     0.8 3  325 230 
 RREF HZ I         740 21.13         8.6 0.31                           325 230 
 TOL  SZ EP   1    739 39.21                             108     0.5 5  347 225 
 PRA  HZ EP   1    739 43.18                             106    -0.6 4  394 210 
 PRA  HN ES   1    740 24.89                             106    -0.7 4  394 210 
                                                                                
