 2012  428 0922 58.7 L   6.710 -73.175145.8  RSN  4 0.3 1.1LRSN                1
 GAP=146        0.63      14.4     7.8 13.4 -0.7036E+02 -0.6490E+02  0.1143E+03E
 Epicentro: VILLANUEVA - SANTANDER                                             3
 ACTION:UPD 12-07-05 11:56 OP:tino STATUS:               ID:20120428092258 L   I
 2012-04-28-0920-00M.COL___189                                                 6
 STAT SP IPHASW D HRMM SECON CODA AMPLIT PERI AZIMU VELO AIN AR TRES W  DIS CAZ7
 BAR2 SZ EP   1    923 18.35                             175     0.2 7   13 183 
 BRR  HZ EP   1    923 20.12                             152     0.1 7   74 307 
 BRR  HE ES   1    923 36.81                             152     0.2 7   74 307 
 BRR  HZ I         923 39.83         4.2 0.34                            74 307 
 PAM  SZ EP   1    923 21.19                             148    -0.4 7   87  37 
 PTB  HZ EP   1    923 25.50                             133     0.3 7  143 262 
 PTB  HN ES   1    923 45.54                             133    -0.4 7  143 262 
 PTB  HZ I         923 55.71         0.9 0.43                           143 262 
                                                                                
