 2017 1028 0308 26.5 L   6.729 -73.104144.2  RSN  4 0.1 1.4LRSN                1
 GAP=145        0.45       2.2     3.0  4.5 -0.2024E+01 -0.6472E+00  0.1191E+01E
 Epicentro: JORDAN - SANTANDER                                                 3
 ACTION:UPD 17-11-07 19:38 OP:rebc STATUS:               ID:20171028030826 L   I
 OLDACT:DUP 17-10-28 14:34 OP:dani STATUS:               ID:20171028025743d    3
 2017-10-28-0258-00M.COL___450                                                 6
 STAT SP IPHASW D HRMM SECON CODA AMPLIT PERI AZIMU VELO AIN AR TRES W  DIS CAZ7
 BRR  HZ EP        3 8 47.80                             150   -0.1510 79.2 302 
 BRR  HE ES        3 9  4.87                             150    0.1810 79.2 302 
 BRR  HZ I         3 9  7.65         5.1 0.40            153           79.2 302 
 PAM  EZ EP        3 8 48.88                             149    0.1110 81.0  33 
 PAM  EN ES        3 9  5.97                             149   -0.1710 81.0  33 
 PAM  EZ I         3 9 11.49         5.4 0.42            150           81.0  33 
 RUS  HZ EP        3 8 49.65                             146    0.1210 92.5 179 
 RUS  HN ES        3 9  7.53                             146    0.0410 92.5 179 
 RUS  HZ I         3 9  8.60         3.0 0.44            151           92.5 179 
 SPBC HN ES        3 9 16.35                             129   -0.16 9  160 222 
                                                                                
