 2015  928 0709 25.7 L   6.792 -73.109140.7  RSN  5 0.2 1.1LRSN                1
 GAP=208        0.59       2.7     4.5  5.7 -0.6121E+00  0.2256E+01  0.2148E+01E
 Epicentro: LOS SANTOS - SANTANDER                                             3
 ACTION:UPD 15-10-28 16:28 OP:cam  STATUS:               ID:20150928070925 L   I
 OLDACT:REG 15-09-28 13:04 OP:spq  STATUS:               ID:20150928070745     3
 2015-09-28-0707-45M.COL___349                                                 6
 STAT SP IPHASW D HRMM SECON CODA AMPLIT PERI AZIMU VELO AIN AR TRES W  DIS CAZ7
 BAR2 EZ EP        7 9 44.75                             170    0.0710 23.5 200 
 BAR2 EZ ES   1    7 9 59.66                             170    0.14 7 23.5 200 
 BAR2 EZ I         710  0.56         2.2 0.21            171           23.5 200 
 BRR  HZ EP        7 9 46.63                             150    0.1310 75.2 298 
 BRR  HE ES        710  2.89                             150    0.1410 75.2 298 
 BRR  HZ I         710  7.21         3.5 0.44            150           75.2 298 
 OCA  HE ES        710 15.26                             128   -0.35 9  162 352 
 OCA  HZ I         710 18.47         2.9 0.39            130            162 352 
 SPBC HZ EP        7 9 54.12                             127    0.17 9  165 220 
 SPBC HE ES        710 15.59                             127   -0.43 9  165 220 
 SPBC HZ I         710 17.46         1.1 0.24            130            165 220 
 ZAR  HN ES        710 23.72                             121    0.13 8  208 292 
 ZAR  HZ I         710 24.92         1.1 0.10            122            208 292 
                                                                                
