 2010  628 0842 43.4 L   6.782 -73.072150.4  RSN 14 0.4 2.5LRSN                1
 GAP=132        0.90       3.1     5.1  5.5 -0.8015E+01 -0.5918E+00  0.2974E+01E
 Epicentro: LOS SANTOS - SANTANDER                                             3
 ACTION:UP  10-08-24 10:13 OP:vdl  STATUS:               ID:20100628084243 L   I
 2010-06-28-0840-00S.COL___118                                                 6
 STAT SP IPHASW D HRMM SECON CODA AMPLIT PERI AZIMU VELO SNR AR TRES W  DIS CAZ7
 BAR2 SZ IP        843  3.36                             170    -0.310   24 210 
 BAR2 SZ ES   1    843 19.34                             170    -0.1 7   24 210 
 BRR  HZ EP        843  5.41                             150    -0.210   79 297 
 BRR  HN ES   1    843 22.89                             150     0.1 7   79 297 
 BRR  HZ I         843 23.67        92.8 0.15                            79 297 
 RUS  HZ EP        843  7.17                             145    -0.310   98 181 
 RUS  HZ I         843  8.28        27.9 0.17                            98 181 
 RUS  HE ES   1    843 25.88                             145    -0.4 7   98 181 
 BRI  SZ EP        843  8.29                             142     0.610  108  16 
 BRI  SZ ES   1    843 27.27                             142     0.6 7  108  16 
 GUE  SZ EP        843  8.69                             140     0.110  117   8 
 GRA  SZ EP        843  9.50                             138     0.410  125  14 
 GRA  SZ ES        843 29.12                             138     0.010  125  14 
 OCA  SZ EP        843 12.30                             130    -0.1 9  163 350 
 OCA  SZ ES        843 34.65                             130    -0.4 9  163 350 
 OCA  SZ I         843 38.54        27.0 0.37                           163 350 
 CHI  HZ EP   1    843 21.27                             118    -0.2 6  249 197 
 CHI  HN ES   2    843 51.82                             118     0.7 4  249 197 
 CHI  HZ I         843 57.26        12.7 0.33                           249 197 
 ROSC BZ EP   1    843 22.70                             117     0.6 6  255 213 
 ROSC BN ES   2    843 52.49                             117     0.2 4  255 213 
 ROSC BZ I         844  0.96        19.3 0.40                           255 213 
 HEL  HZ EP   1    843 24.49                             115    -0.2 6  280 257 
 HEL  HN ES   2    843 56.41                             115    -0.5 4  280 257 
 HEL  HZ I         844  2.29        15.9 0.27                           280 257 
 RREF HZ EP   1    843 30.99                             111     0.6 5  327 231 
 RREF HN ES   1    844  7.71                             111     0.8 5  327 231 
 RREF HZ I         844 12.79        21.4 0.23                           327 231 
 DBB  SZ EP   2    843 31.07                             110    -1.0 3  348 274 
 SDV  BZ EP        843 33.08                             109     0.0 6  355  49 
 SDV  BZ I         843 33.95         6.4 0.22                           355  49 
 SDV  BN ES   1    844 11.05                             109    -0.8 5  355  49 
 PRA  HZ EP   1    843 36.52                             107    -0.9 4  394 211 
 PRA  HE ES   1    844 19.19                             107    -0.3 4  394 211 
 PRA  HZ I         844 27.22        15.9 0.21                           394 211 
                                                                                
