 2017 1128 0807  8.7 L   7.403 -73.203126.0  RSN 10 0.6 1.6LRSN                1
 GAP=105        1.09       3.9     4.4  7.6  0.4182E+00  0.1075E+02  0.7928E+01E
 Epicentro: EL PLAYON - SANTANDER                                              3
 ACTION:UPD 17-12-12 20:01 OP:rebc STATUS:               ID:20171128080708 L   I
 OLDACT:UP  17-11-28 15:53 OP:dani STATUS:               ID:20171128075740     3
 OLDACT:UP  17-11-28 15:53 OP:dani STATUS:               ID:20171128075740     3
 OLDACT:REG 17-11-28 13:08 OP:dani STATUS:               ID:20171128075740     3
 2017-11-28-0758-00M.COL___483                                                 6
 STAT SP IPHASW D HRMM SECON CODA AMPLIT PERI AZIMU VELO AIN AR TRES W  DIS CAZ7
 PAM  EZ EP        8 7 27.36                             155   -0.1910 56.0  97 
 PAM  EN ES        8 7 42.62                             155    0.3410 56.0  97 
 PAM  EZ I         8 7 44.08         8.8 0.16            160           56.0  97 
 BAR2 EZ EP        8 7 29.16                             142   -0.1810 89.7 179 
 BAR2 EZ ES        8 7 45.49                             142    0.0310 89.7 179 
 BAR2 EZ I         8 7 46.81        10.7 0.32            144           89.7 179 
 OCA  HZ EP        8 7 29.94                             141    0.4410 93.3 352 
 OCA  HE ES        8 7 45.46                             141   -0.2910 93.3 352 
 OCA  HZ I         8 7 47.43        14.1 0.32            144           93.3 352 
 RUS  HZ EP        8 7 36.12                             124   -0.59 9  168 175 
 PTB  HZ EP        8 7 35.98                             123   -0.18 9  168 236 
 PTB  HN ES        8 7 56.80                             123   -0.79 9  168 236 
 PTB  HZ I         8 8  0.40         3.2 0.16            125            168 236 
 ZAR  HZ EP        8 7 37.45                             121   -0.22 9  183 273 
 ZAR  HN ES        8 8  0.88                             121    0.59 9  183 273 
 ZAR  HZ I         8 8  5.21         5.8 0.44            122            183 273 
 SPBC HZ EP        8 7 42.00                             116    0.66 8  216 206 
 SPBC HN ES        8 8  7.53                             116    0.72 8  216 206 
 SPBC HZ I         8 8 10.56         3.4 0.32            118            216 206 
 YPLC HZ EP        8 7 43.78                             114   -0.16 8  240 158 
 URE  HE ES   3    8 8 13.13                             112   -2.23 2  260 279 
 HEL  HZ EP   3    8 7 51.83                             109    1.81 2  290 243 
                                                                                
