 2012 1128 0052  5.3 L   6.817 -73.151141.3  RSN 12 0.5 2.6LRSN                1
 GAP=135        1.26       3.6     4.8  6.6 -0.2547E+01  0.1130E+02  0.4541E+01E
 Epicentro: LOS SANTOS - SANTANDER                                             3
 ACTION:UPD 12-12-05 15:36 OP:}ep  STATUS:               ID:20121128005205 L   I
 2012-11-28-0050-00M.COL___234                                                 6
 STAT SP IPHASW D HRMM SECON CODA AMPLIT PERI AZIMU VELO AIN AR TRES W  DIS CAZ7
 BAR2 SZ I         052 24.37        84.3 0.20                          25.1 188 
 BAR2 SZ IP        052 24.53                             169    0.0810 25.1 188 
 BAR2 SZ ES        052 39.39                             169    0.0210 25.1 188 
 GIR2 SZ EP        052 24.58                             168    0.1810 29.3 351 
 GIR2 SZ ES        052 39.82                             168    0.5310 29.3 351 
 PAM  SZ EP     D  052 27.25                             150    0.2610 76.3  41 
 PAM  SN ES        052 44.23                             150    0.3310 76.3  41 
 PAM  SZ I         052 46.25        54.0 0.46                          76.3  41 
 RUS  HZ EP     C  052 28.55                             142   -0.2310  103 176 
 RUS  HN ES        052 46.75                             142   -0.3310  103 176 
 RUS  HN I         052 48.76        64.1 0.24                           103 176 
 PTB  HZ EP        052 31.30                             131   -0.60 9  148 258 
 PTB  HN ES        052 51.81                             131   -0.83 9  148 258 
 PTB  HZ I         052 58.73        26.2 0.20                           148 258 
 OCA  HZ EP        052 32.98                             129   -0.11 9  158 353 
 OCA  HN ES        052 53.89                             129   -0.87 9  158 353 
 ZAR  HZ EP        052 37.21                             122   -0.13 9  203 292 
 ZAR  HN ES        053  2.85                             122    0.53 9  203 292 
 ZAR  HN I         053  8.15        43.1 0.18                           203 292 
 NOR  HZ EP        052 40.74                             117   -0.12 8  235 234 
 NOR  HN ES        053  8.85                             117    0.27 8  235 234 
 NOR  HN I         053 15.99       106.2 0.16                           235 234 
 CHI  HZ EP        052 42.84                             116   -0.12 8  250 195 
 CHI  HN ES        053 11.71                             116   -0.61 8  250 195 
 CHI  HN I         053 14.23        27.7 0.36                           250 195 
 ROSC BZ EP        052 44.93                             116    1.59 8  254 211 
 HEL  HE ES        053 17.15                             114    0.67 8  272 255 
 HEL  HE I         053 24.57        15.6 0.24                           272 255 
 PRA  HZ EP        052 58.35                             106   -0.50 6  393 209 
 PRA  HN ES        053 40.95                             106    0.35 6  393 209 
 PRA  HN I         053 46.20        14.4 0.26                           393 209 
                                                                                
