 2016  928 0432 38.5 L   6.336 -73.578116.2  RSN 11 0.4 1.5LRSN                1
 GAP= 75        0.98       3.2     4.2  6.3  0.1082E+01  0.9943E+01  0.4423E+01E
 Epicentro: SANTA HELENA DEL OPON - SANTANDER                                  3
 ACTION:UPD 17-08-17 21:17 OP:lp   STATUS:               ID:20160928043238 L   I
 OLDACT:REG 16-09-28 13:02 OP:dani STATUS:               ID:20160928042744     3
 2016-09-28-0428-00M.COL___384                                                 6
 STAT SP IPHASW D HRMM SECON CODA AMPLIT PERI AZIMU VELO AIN AR TRES W  DIS CAZ7
 BAR2 EZ EP     D  432 55.97                             154    0.2010 52.1  57 
 BAR2 EZ ES        433  9.39                             154    0.1810 52.1  57 
 BAR2 EZ I         433 11.23        13.5 0.34            134           52.1  57 
 RUS  HZ EP        432 57.30                             146   -0.1410 73.5 132 
 BRR  HZ EP        432 57.73                             141    0.0310 86.5 350 
 BRR  HN ES        433 12.88                             141    0.2410 86.5 350 
 SPBC HZ EP        432 58.06                             138   -0.3010 93.3 216 
 SPBC HE ES        433 13.51                             138   -0.3210 93.3 216 
 SPBC HZ I         433 15.25        11.3 0.42            113           93.3 216 
 PTB  HZ EP        432 57.85                             136   -0.9410 99.7 283 
 PTB  HE ES        433 14.82                             136    0.2410 99.7 283 
 PTB  HZ I         433 15.07        11.7 0.40            111           99.7 283 
 NOR  HZ EP        433  5.55                             121    0.29 9  167 239 
 NOR  HZ I         433 20.68         7.1 0.14            101            167 239 
 CHI  HE ES        433 31.40                             117    0.11 9  189 185 
 ZAR  HZ EP        433  7.25                             117   -0.53 9  191 312 
 ZAR  HE ES        433 30.54                             117   -0.05 9  191 312 
 ZAR  HZ I         433 34.79         5.0 0.31             99            191 312 
 HEL  HZ EP        433 11.57                             114    0.48 8  216 266 
 HEL  HZ I         433 42.64         1.6 0.36             98            216 266 
 GUY2CHZ EP        433 13.74                             112    0.66 8  233 238 
 GUY2CHZ I         433 46.66         2.0 0.29                           233 238 
 CBOC HZ EP        433 17.75                             108    0.29 8  274 259 
 CBOC HZ I         433 51.74         0.8 0.23             95            274 259 
                                                                                
