 2017 1128 0656  5.1 L   6.841 -73.181143.8  RSN  4 0.3 1.0LRSN                1
 GAP=147        0.83       6.9     5.1  8.1 -0.8314E+00  0.3541E+01 -0.2174E+02E
 Epicentro: ZAPATOCA - SANTANDER                                               3
 ACTION:UPD 17-12-12 20:01 OP:rebc STATUS:               ID:20171128065605 L   I
 OLDACT:REG 17-11-28 13:04 OP:dani STATUS:               ID:20171128064740     3
 2017-11-28-0648-00M.COL___483                                                 6
 STAT SP IPHASW D HRMM SECON CODA AMPLIT PERI AZIMU VELO AIN AR TRES W  DIS CAZ7
 BAR2 EZ EP        656 24.54                             169   -0.0810 27.5 180 
 BAR2 EZ ES        656 39.43                             169   -0.3910 27.5 180 
 BAR2 EZ I         656 42.20         3.6 0.28            170           27.5 180 
 PAM  EZ EP        656 27.44                             151    0.3510 76.6  44 
 RUS  HZ EP        656 28.98                             142   -0.0710  105 174 
 RUS  HN ES        656 47.96                             142    0.2610  105 174 
 RUS  HZ I         656 48.62         1.5 0.35            145            105 174 
 PTB  HZ EP        656 31.22                             132   -0.47 9  145 257 
 PTB  HN ES        656 52.78                             132    0.39 9  145 257 
 PTB  HZ I         656 53.35         1.0 0.14            134            145 257 
                                                                                
