 2011  528 0654 22.2 L   6.769 -73.121150.3  RSN  6 0.2 1.4LRSN                1
 GAP=162        0.52       3.9     8.0  6.7  0.6532E+01 -0.2087E+02 -0.1006E+01E
 Epicentro: LOS SANTOS - SANTANDER                                             3
 ACTION:UP  11-06-29 08:56 OP:tino STATUS:               ID:20110528065422 L   I
 2011-05-28-0648-30S.COL___115                                                 6
 STAT SP IPHASW D HRMM SECON CODA AMPLIT PERI AZIMU VELO SNR AR TRES W  DIS CAZ7
 BAR2 SZ EP   1    654 42.13                             172    -0.2 7   21 199 
 BAR2 SZ ES   2    654 58.05                             172     0.0 5   21 199 
 BAR2 SZ I         654 58.98         9.6 0.28                            21 199 
 BTL  SZ EP   1    654 42.85                             171     0.5 7   23 315 
 BRR  HZ EP   1    654 43.86                             152    -0.2 7   75 300 
 BRR  HE ES   1    655  1.06                             152     0.0 7   75 300 
 BRR  HZ I         655  2.40         6.6 0.11                            75 300 
 RUS  HZ EP        654 46.14                             146     0.010   97 178 
 RUS  HE ES   2    655  4.72                             146    -0.1 5   97 178 
 RUS  HZ I         655  5.91         2.7 0.26                            97 178 
 GRA  SZ EP   2    654 47.71                             137    -0.3 5  128  16 
 GRA  SZ ES   2    655  8.22                             137     0.0 5  128  16 
 GRA  SZ I         655 15.15         1.9 0.30                           128  16 
 OCA  SZ EP   2    654 51.31                             130     0.1 5  164 352 
 OCA  SZ I         655 19.69         3.4 0.36                           164 352 
                                                                                
