 2013  928 0638 15.9 L   7.141 -73.062151.2  RSN  9 0.5 1.9LRSN 2.5WRSN        1
 SPEC AVERAGE  MO 12.8 ST129.5 OM  1.1 f0 27.5 R0.0887 AL 0.00 WI 20.0 MW  2.5 3
 SPEC SD       MO  0.3 ST169.3 OM  0.5 f0 12.5 R0.0420 AL      WI      MW  0.2 3
 GAP= 80        1.24       5.5     5.5  7.5 -0.1104E+02 -0.4691E+01  0.5878E+01E
 Epicentro: BUCARAMANGA - SANTANDER                                            3
 SPEC BAR2SH Z MO 12.9 ST 23.0 OM  1.0 f0 16.9 R0.1138 AL-0.00 WI 20.0 MW  2.5 3
 SPEC BAR2SH Z T 63852 K 0.050 GD  163 VS 5.20 DE 3.20 Q0750.0 QA 1.50 VS 5.20 3
 SPEC OCA HH Z MO 13.0 ST 13.4 OM  1.0 f0 13.3 R0.1447 AL-0.00 WI 20.0 MW  2.6 3
 SPEC OCA HH Z T 63859 K 0.050 GD  196 VS 5.20 DE 3.20 Q0750.0 QA 1.50 VS 5.20 3
 SPEC RUS HH Z MO 12.2 ST 60.4 OM  0.2 f0 40.0 R0.0481 AL-0.00 WI 20.0 MW  2.1 3
 SPEC RUS HH Z T 639 0 K 0.050 GD  204 VS 5.20 DE 3.20 Q0750.0 QA 1.50 VS 5.20 3
 SPEC PTB HH Z MO 13.0 ST421.1 OM  1.0 f0 40.0 R0.0481 AL-0.00 WI 20.0 MW  2.6 3
 SPEC PTB HH Z T 639 6 K 0.050 GD  226 VS 5.20 DE 3.20 Q0750.0 QA 1.50 VS 5.20 3
 OLDACT:DUP 13-09-28 14:02 OP:stll STATUS:               ID:20130928062838d    3
 ACTION:UPD 13-10-22 09:25 OP:ep   STATUS:               ID:20130928063815 L   I
 OLDACT:UP  13-09-28 14:12 OP:stll STATUS:               ID:20130928062838d    3
 2013-09-28-0628-36M.COL___247                                                 6
 STAT SP IPHASW D HRMM SECON CODA AMPLIT PERI AZIMU VELO AIN AR TRES W  DIS CAZ7
 PAM  SZ EP        638 36.94                             163   -0.2210 45.6  61 
 PAM  SN ES        638 53.65                             163   -0.1110 45.6  61 
 PAM  SZ I         638 56.27        13.6 0.86            142           45.6  61 
 BAR2 SZ ES        638 54.36                             157    0.0110 62.2 192 
 BAR2 SZ I         638 59.75        16.1 0.44            132           62.2 192 
 BRR  HZ EP        638 38.13                             153    0.4810 71.9 267 
 BRR  HZ I         638 38.73        21.1 0.16            148           71.9 267 
 BRR  HE ES        638 55.17                             153    0.5410 71.9 267 
 CCUC3EZ EP        638 40.25                             144    0.6710  101  37 
 CCUC3EN ES        638 57.97                             144   -0.1110  101  37 
 CAPV BZ EP        638 41.00                             141    0.1510  115  46 
 OCA  HZ EP        638 41.38                             138   -0.1310  125 347 
 OCA  HE ES        639  0.85                             138   -0.6610  125 347 
 OCA  SZ I         639  2.58        18.4 0.16            136            125 347 
 RUS  HZ EP        638 41.91                             136   -1.19 9  138 181 
 RUS  HZ I         639 10.02         1.9 0.22            115            138 181 
 TAM  HZ EP        638 44.99                             131    0.49 9  161 119 
 TAM  SZ I         639 18.74        14.1 0.58            110            161 119 
 PTB  HZ EP        638 45.11                             129   -0.02 9  168 247 
 PTB  HN ES        639  7.93                             129   -0.02 9  168 247 
 PTB  SZ I         639 11.07        12.6 0.20            117            168 247 
                                                                                
