 2017  728 0529 37.2 L   6.830 -73.110140.5  RSN 17 0.5 1.8LRSN                1
 GAP= 68        0.83       3.3     3.1  5.0  0.8029E+00 -0.1863E+01 -0.1149E+01E
 Epicentro: LOS SANTOS - SANTANDER                                             3
 ACTION:UPD 17-08-30 15:37 OP:rebc STATUS:               ID:20170728052937 L   I
 OLDACT:UP  17-07-28 15:13 OP:and  STATUS:               ID:20170728052738     3
 OLDACT:UP  17-07-28 15:12 OP:and  STATUS:               ID:20170728052738     3
 OLDACT:UP  17-07-28 15:11 OP:and  STATUS:               ID:20170728052738     3
 OLDACT:UP  17-07-28 15:11 OP:and  STATUS:               ID:20170728052738     3
 OLDACT:UP  17-07-28 15:10 OP:and  STATUS:               ID:20170728052738     3
 OLDACT:UP  17-07-28 15:08 OP:and  STATUS:               ID:20170728052738     3
 OLDACT:UP  17-07-28 15:07 OP:and  STATUS:               ID:20170728052738     3
 OLDACT:REG 17-07-28 12:34 OP:and  STATUS:               ID:20170728052738     3
 2017-07-28-0528-00M.COL___373                                                 6
 STAT SP IPHASW D HRMM SECON CODA AMPLIT PERI AZIMU VELO AIN AR TRES W  DIS CAZ7
 BAR2 EZ IP     C  529 55.97                             169   -0.3710 27.4 197 
 BAR2 EZ ES   2    530 10.97                             169   -0.27 5 27.4 197 
 BAR2 EZ I         530 13.31        14.1 0.24            165           27.4 197 
 PAM  EZ EP        529 58.95                             152    0.3410 72.4  39 
 PAM  EN ES   2    530 14.87                             152   -0.40 5 72.4  39 
 PAM  EZ I         530 17.67         6.2 0.24            156           72.4  39 
 BRR  HZ EP        529 57.78                             151   -0.1710 73.2 295 
 BRR  HN ES        530 14.82                             151    0.7210 73.2 295 
 BRR  HZ I         530 18.56        12.5 0.16            148           73.2 295 
 RUS  HZ EP        530  0.33                             142   -0.3910  104 178 
 RUS  HN ES        530 19.00                             142   -0.0210  104 178 
 RUS  HZ I         530 19.74         8.5 0.22            142            104 178 
 PTB  HZ EP   9    530  2.72                             130   -1.49 0  152 258 
 PTB  HN ES        530 23.88                             132    0.13 9  152 258 
 PTB  HZ I         530 28.63         6.5 0.13            128            152 258 
 TAM  HZ EP        530  4.44                             130    0.20 9  152 107 
 TAM  HN ES   4    530 16.45                             130   -8.85 0  152 107 
 SPBC HZ IP     D  530  5.30                             128   -0.54 9  168 219 
 SPBC HN ES        530 28.39                             128    0.25 9  168 219 
 SPBC HZ I         530 33.96        12.3 0.24            126            168 219 
 YPLC HZ EP        530  6.57                             126   -0.20 9  178 153 
 YPLC HE ES        530 30.24                             126    0.44 9  178 153 
 YPLC HZ I         530 33.16        11.2 0.26            127            178 153 
 ZAR  HZ EP   3    530 10.85                             121    1.24 2  207 291 
 ZAR  HN ES   2    530 34.05                             121   -0.81 4  207 291 
 ZAR  HZ I         530 41.72         6.1 0.20            120            207 291 
 NOR  HZ EP   9    530 12.19                             117   -1.04 0  240 234 
 NOR  HN ES        530 40.03                             118   -0.23 8  240 234 
 NOR  HZ I         530 44.89         5.5 0.32            116            240 234 
 CHI  HZ EP   9    530 12.88                             116   -2.24 0  253 196 
 CHI  HN ES   1    530 43.12                             117    0.70 6  253 196 
 CHI  HZ I         530 46.82         5.0 0.32            116            253 196 
 ROSC BZ EP   3    530 16.70                             116    1.08 2  258 211 
 ROSC BN ES   4    530 47.53                             116    1.98 0  258 211 
 ROSC BZ I         530 51.16         5.4 0.35            115            258 211 
 HEL  HZ EP   1    530 17.66                             114   -0.06 6  277 255 
 HEL  HN ES   1    530 48.68                             114   -0.60 6  277 255 
 HEL  HZ I         530 55.03         4.9 0.58            113            277 255 
 GUY2CHZ EP   1    530 22.05                             111    0.85 5  306 235 
 GUY2CHN ES   4    531  0.28                             111    4.80 0  306 235 
 GUY2CHZ I         531  1.99         3.3 0.58                           306 235 
 PTGC HZ EP   9    530 19.18                             111   -1.88 0  310 160 
 PTGC HN ES        530 53.13                             111   -0.23 7  310 160 
 PTGC HZ I         530 54.87         5.9 0.32            112            310 160 
 LL6C HZ EP   2    530 22.03                             110   -0.35 3  322 357 
 CBOC HZ EP   2    530 24.97                             109    0.47 3  338 252 
 CBOC HN ES   1    531  1.14                             109   -0.21 5  338 252 
 CBOC HZ I         531 11.97         1.4 0.60            109            338 252 
                                                                                
