 2017 1128 0235 37.9 L   6.765 -73.151149.3  RSN  4 0.2 0.9LRSN                1
 GAP=138        0.51       4.3     3.2  4.8 -0.1152E+00  0.1061E+01 -0.8104E+01E
 Epicentro: LOS SANTOS - SANTANDER                                             3
 ACTION:UPD 17-12-12 20:01 OP:rebc STATUS:               ID:20171128023537 L   I
 OLDACT:UP  17-11-28 14:25 OP:dani STATUS:               ID:20171128022745d    3
 OLDACT:DUP 17-11-28 14:23 OP:dani STATUS:               ID:20171128022745d    3
 2017-11-28-0228-00M.COL___489                                                 6
 STAT SP IPHASW D HRMM SECON CODA AMPLIT PERI AZIMU VELO AIN AR TRES W  DIS CAZ7
 BAR2 EZ EP        235 57.86                             172   -0.0510 19.4 190 
 BAR2 EZ ES        236 13.51                             172    0.0110 19.4 190 
 BAR2 EZ I         236 15.61         3.6 0.34            172           19.4 190 
 PAM  EZ EP        236  0.73                             150    0.0110 80.8  38 
 RUS  HZ EP        236  2.04                             146    0.2910 96.7 176 
 RUS  HN ES        236 20.19                             146   -0.1510 96.7 176 
 RUS  HZ I         236 21.90         0.7 0.30            148           96.7 176 
 PTB  HZ EP        236  4.79                             133   -0.28 9  147 260 
 PTB  HE ES        236 26.41                             133    0.16 9  147 260 
 PTB  HZ I         236 29.57         0.7 0.24            134            147 260 
                                                                                
