 2014  828 0635 39.7 L   7.439 -73.191131.2  RSN 12 0.5 1.7LRSN                1
 GAP=111        1.06       3.4     4.9  7.0  0.9244E+00  0.8590E+01  0.5461E+01E
 Epicentro: EL PLAYON - SANTANDER                                              3
 ACTION:UPD 14-09-15 21:53 OP:nd   STATUS:               ID:20140828063539 L   I
 OLDACT:DUP 14-08-28 16:30 OP:fm   STATUS:               ID:20140828062818d    3
 OLDACT:REG 14-08-28 13:09 OP:fm   STATUS:               ID:20140828062816     3
 2014-08-28-0628-16M.COL___263                                                 6
 STAT SP IPHASW D HRMM SECON CODA AMPLIT PERI AZIMU VELO AIN AR TRES W  DIS CAZ7
 PAM  SZ EP        635 59.72                             156    0.6410 55.4 101 
 PAM  SE ES        636 14.45                             156    0.2210 55.4 101 
 PAM  SZ I         636 17.15        11.7 0.78            162           55.4 101 
 BRR  HZ EP        635 59.44                             151    0.3710 68.2 237 
 BRR  HN ES        636 14.53                             151    0.3210 68.2 237 
 BRR  HZ I         636 15.59        14.3 0.12            147           68.2 237 
 OCA  HZ EP   1    636  0.63                             144   -0.07 7 89.5 351 
 OCA  HN ES        636 16.55                             144   -0.5710 89.5 351 
 OCA  HZ I         636 20.38         8.2 0.26            145           89.5 351 
 BAR2 SZ EP        636  1.32                             142    0.2010 93.7 179 
 BAR2 SZ ES   1    636 17.73                             142   -0.14 7 93.7 179 
 BAR2 SZ I         636 18.35         6.7 0.40            142           93.7 179 
 RUS  HZ EP        636  7.91                             124   -0.53 9  171 176 
 RUS  HN ES        636 30.29                             124   -0.60 9  171 176 
 RUS  HZ I         636 32.34         2.2 0.44            125            171 176 
 PTB  HZ EP        636  8.21                             124    0.38 9  172 235 
 PTB  HN ES   1    636 29.46                             124   -0.33 7  172 235 
 PTB  HZ I         636 32.80         6.5 0.14            123            172 235 
 SML  HZ EP   1    636  8.10                             123   -0.47 7  179 327 
 SML  HN ES   1    636 30.52                             123   -0.60 7  179 327 
 SML  HZ I         636 31.04        10.4 0.10            124            179 327 
 ZAR  HN ES   1    636 32.86                             122    0.80 7  184 272 
 ZAR  HZ I         636 37.14        11.4 0.20            121            184 272 
 SPBC HZ EP        636 13.42                             117    0.36 8  220 206 
 SPBC HN ES        636 38.41                             117   -0.70 8  220 206 
 SPBC HZ I         636 48.43         4.1 0.18            117            220 206 
 HEL  HZ EP   4    636 22.92                             110    1.37 0  293 242 
 HEL  HE ES   4    636 52.15                             110   -2.08 0  293 242 
 HEL  HZ I         637  4.05         1.9 0.28            110            293 242 
 GUY2CHZ EP   4    636 30.61                             107    3.09 0  343 225 
 GUY2CHN ES   4    637  7.80                             107    2.96 0  343 225 
 GUY2CHZ I         637 15.74         1.4 0.56                           343 225 
 SJC  HZ EP   4    636 26.92                             106   -0.74 0  349 321 
 PRA  HN ES   1    637 27.20                             101    0.25 4  453 205 
 PRA  HZ I         637 31.62         1.2 0.54            102            453 205 
                                                                                
