 2010  528 0645 54.4 L   6.750 -73.106142.0  RSN  6 0.5 1.8LRSN                1
 GAP=191        1.02       9.2    13.3 11.7 -0.8403E+02  0.5164E+02 -0.3472E+02E
 Epicentro: LOS SANTOS - SANTANDER                                             3
 ACTION:UP  10-08-24 10:07 OP:vdl  STATUS:               ID:20100528064554 L   I
 2010-05-28-0642-18S.COL___108                                                 6
 STAT SP IPHASW D HRMM SECON CODA AMPLIT PERI AZIMU VELO SNR AR TRES W  DIS CAZ7
 BAR2 SZ EP        646 13.53                             172     0.110   19 206 
 BAR2 SZ ES   1    646 28.37                             172     0.0 7   19 206 
 GUE  SZ EP        646 18.39                             137    -0.710  121  10 
 GRA  SZ EP        646 20.06                             135     0.410  130  15 
 GRA  SZ ES   1    646 39.44                             135     0.1 7  130  15 
 OCA  SZ ES   2    646 45.94                             128     0.7 5  166 352 
 HEL  HZ EP   2    646 35.66                             114     0.9 4  275 257 
 HEL  HN ES   2    647  5.17                             114    -1.0 4  275 257 
 HEL  HZ I         647 13.51         3.2 0.32                           275 257 
 RREF BN ES   2    647 16.77                             110     0.6 3  322 231 
 RREF BZ I         647 23.04         3.1 0.12                           322 231 
                                                                                
