 2017  928 0221 48.5 L   6.818 -73.139146.0  RSN 32 0.6 2.9LRSN                1
 GAP= 55        1.21       2.7     3.1  5.2 -0.2987E+00  0.4831E+01  0.1604E+01E
 Epicentro: LOS SANTOS - SANTANDER                                             3
 ACTION:UPD 17-10-05 19:17 OP:rebc STATUS:               ID:20170928022148 L   I
 OLDACT:UP  17-09-28 15:58 OP:edw  STATUS:               ID:20170928021738     3
 OLDACT:REG 17-09-28 12:55 OP:edw  STATUS:               ID:20170928021738     3
 2017-09-28-0218-00M.COL___420                                                 6
 STAT SP IPHASW D HRMM SECON CODA AMPLIT PERI AZIMU VELO AIN AR TRES W  DIS CAZ7
 BAR2 EZ IP     C  222  8.08                             170   -0.1510 25.5 191 
 BAR2 EZ ES        222 23.00                             170   -0.5910 25.5 191 
 BRR  HZ IP     D  222  9.94                             153    0.2610 70.9 297 
 BRR  HN ES        222 26.85                             153    0.6610 70.9 297 
 BRR  HZ I         222 30.16       246.9 0.26            149           70.9 297 
 PAM  EZ EP     C  222 10.87                             151    0.2310 75.3  40 
 PAM  EN ES        222 28.13                             151    0.2410 75.3  40 
 PAM  EZ I         222 30.35       262.3 0.66            154           75.3  40 
 RUS  HZ EP        222 12.05                             143   -0.3910  103 177 
 RUS  HN ES        222 30.09                             143   -1.0110  103 177 
 RUS  HZ I         222 31.70       233.6 0.26            144            103 177 
 TAM  HZ IP     C  222 16.43                             130    0.23 9  155 106 
 TAM  HN ES        222 38.03                             130    0.24 9  155 106 
 YPLC HZ IP     C  222 18.49                             126    0.02 9  178 152 
 YPLC HN ES        222 42.19                             126    0.36 9  178 152 
 YPLC HZ I         222 45.12        64.9 0.22            128            178 152 
 ZAR  HZ EP        222 20.93                             122   -0.05 9  204 292 
 ZAR  HN ES        222 46.44                             122    0.15 9  204 292 
 ZAR  HZ I         222 52.77       207.3 0.28            121            204 292 
 TABC EZ EP        222 25.70                             119    1.19 8  232 211 
 TABC EZ ES        222 53.17                             119    0.58 8  232 211 
 TABC EZ I         222 58.00        87.3 0.62            119            232 211 
 NOR  HZ EP        222 24.35                             118   -0.11 8  237 234 
 NOR  HN ES        222 51.63                             118   -0.86 8  237 234 
 NOR  HZ I         222 57.22        80.3 0.30            118            237 234 
 CHI  HZ EP        222 26.38                             117   -0.09 8  251 195 
 CHI  HN ES        222 55.36                             117   -0.71 8  251 195 
 CHI  HZ I         222 58.95        30.3 0.40            117            251 195 
 ROSC BZ EP        222 28.17                             116    1.28 8  255 211 
 ROSC BN ES        222 57.52                             116    0.71 8  255 211 
 ROSC BZ I         223  3.86        73.1 0.35            116            255 211 
 HEL  HZ EP   4    222 30.08                             115    1.19 0  273 255 
 HEL  HN ES        222 59.57                             115   -0.80 8  273 255 
 HEL  HZ I         223  6.46        54.9 0.38            114            273 255 
 URE  HZ EP        222 29.09                             113   -0.51 7  284 291 
 URE  HN ES   4    223  0.46                             113   -1.18 0  284 291 
 URE  HZ I         223 12.30        68.5 0.18            113            284 291 
 GUY2CHZ EP   4    222 34.29                             112    1.94 0  303 235 
 GUY2CHN ES   4    223  8.58                             112    2.05 0  303 235 
 GUY2CHZ I         223 13.05        41.4 0.28                           303 235 
 VIL  EZ EP        222 32.13                             112   -0.06 7  306 192 
 VIL  HN ES        223  6.39                             112    0.13 7  306 192 
 VIL  EZ I         223 11.28        49.6 0.44            112            306 192 
 PTGC HZ IP   4 D  222 31.31                             111   -1.26 0  310 159 
 PTGC HE ES   4    223  3.63                             111   -3.30 0  310 159 
 PTGC HZ I         223  7.16        52.9 0.32            112            310 159 
 LL6C HZ EP        222 32.78                             110   -1.23 7  323 357 
 LL6C HN ES   4    223  7.58                             110   -1.90 0  323 357 
 LL6C HZ I         223 21.85        14.4 0.60            111            323 357 
 ELA  HZ EP   4    222 38.32                             110    2.72 0  331 229 
 ELA  HN ES        223 13.07                             110    0.75 7  331 229 
 ELA  HZ I         223 20.36        38.6 0.24            110            331 229 
 CBOC HZ EP   4    222 37.13                             110    1.53 0  335 252 
 CBOC HN ES   4    223  8.76                             110   -3.56 0  335 252 
 CBOC HZ I         223 23.75        25.1 0.76            109            335 252 
 DBB  EZ EP        222 36.75                             109    0.67 7  340 274 
 DBB  EN ES   4    223 11.74                             109   -1.43 0  340 274 
 DBB  EZ I         223 16.04        32.1 0.20            109            340 274 
 SDV  BZ EP        222 37.76                             108   -0.59 6  358  50 
 SDV  B2 ES   4    223 15.32                             108   -1.90 0  358  50 
 SDV  BZ I         223 19.47        16.4 0.50            109            358  50 
 ARGC HZ EP   4    222 38.68                             108    0.68 0  358 340 
 ARGC HE ES        223 16.84                             108    0.26 6  358 340 
 ARGC HZ I         223 21.10        13.9 0.40            108            358 340 
 ANIL HZ EP   4    222 40.97                             108    2.40 0  359 224 
 ANIL HN ES        223 17.44                             108   -0.16 6  359 224 
 ANIL HZ I         223 27.64        89.5 0.36            108            359 224 
 PRA  HZ EP        222 41.60                             106   -0.70 6  394 210 
 PRA  HN ES        223 23.65                             106   -0.60 6  394 210 
 PRA  HZ I         223 29.93        31.2 0.30            106            394 210 
 APAC HZ EP        222 42.58                             106   -0.15 6  398 288 
 APAC HN ES        223 25.00                             106   -0.02 6  398 288 
 APAC HZ I         223 25.27        21.9 0.38            106            398 288 
 ORTC HZ EP        222 42.77                             106    0.07 6  398 216 
 ORTC HN ES        223 25.84                             106    0.89 6  398 216 
 ORTC HZ I         223 31.78        19.6 0.28            106            398 216 
 SJC  HZ EP   4    222 42.33                             106   -1.61 0  408 327 
 SJC  HN ES   4    223 23.70                             106   -3.47 0  408 327 
 SJC  HZ I         223 27.94        28.6 0.54            106            408 327 
 CRJC HZ EP   9    222 48.68                             103   -2.10 0  466   3 
 CRJC HN ES        223 36.80                             104   -0.44 5  466   3 
 CRJC HZ I         223 38.40        11.8 0.72            104            466   3 
 YOT  HZ EP        222 50.95                             103   -0.85 5  474 229 
 YOT  HE ES        223 40.84                             103   -0.32 5  474 229 
 YOT  HZ I         223 49.00         7.8 0.92            103            474 229 
 GARC HZ EP   4    223  2.47                             100   -1.57 0  575 207 
 GARC HN ES   4    224  0.83                             100   -2.11 0  575 207 
 GARC HZ I         224  3.53        16.5 0.24            100            575 207 
 FLO2 HZ EP        223 11.40                              99   -0.51 2  643 206 
 FLO2 HN ES   4    224 15.80                              99   -1.15 0  643 206 
 FLO2 HZ I         224 23.14         1.7 0.24             99            643 206 
 BBAC HZ EP        223 19.44                              98    0.45 1  699 221 
 BBAC HN ES   4    224 26.23                              98   -3.32 0  699 221 
 BBAC HZ I         224 35.11         1.3 0.32             98            699 221 
                                                                                
