 2015 1028 0712  3.8 L   6.791 -73.100146.1  RSN  8 0.4 1.4LRSN                1
 GAP=188        0.89       3.0     6.6  6.2  0.6931E+01  0.9620E+00 -0.3069E+01E
 Epicentro: LOS SANTOS - SANTANDER                                             3
 ACTION:UPD 15-12-22 20:43 OP:cam  STATUS:               ID:20151028071203 L   I
 OLDACT:UP  15-10-28 17:20 OP:mh   STATUS:               ID:20151028070736d    3
 OLDACT:DUP 15-10-28 17:09 OP:mh   STATUS:               ID:20151028070736d    3
 2015-10-28-0707-35M.COL___319                                                 6
 STAT SP IPHASW D HRMM SECON CODA AMPLIT PERI AZIMU VELO AIN AR TRES W  DIS CAZ7
 BAR2 EZ EP   1    712 23.47                             170   -0.01 7 23.8 202 
 BAR2 EZ ES        712 38.83                             170   -0.0110 23.8 202 
 BAR2 EZ I         712 39.93         7.1 0.36            167           23.8 202 
 BRR  HZ EP        712 25.66                             151    0.3910 76.1 297 
 BRR  HN ES        712 42.41                             151    0.3910 76.1 297 
 BRR  HZ I         712 43.06         5.5 0.32            143           76.1 297 
 RUS  HZ EP   1    712 27.20                             144   -0.30 7 99.4 179 
 RUS  HN ES        712 45.34                             144   -0.6510 99.4 179 
 RUS  HZ I         712 47.11         1.6 0.32            142           99.4 179 
 OCA  HZ EP        712 32.59                             129    0.30 9  162 351 
 OCA  HN ES        712 54.59                             129    0.08 9  162 351 
 OCA  HZ I         713  2.30         4.6 0.46            125            162 351 
 ZAR  HN ES        713  2.07                             122   -0.45 8  209 292 
 SML  HZ EP   1    712 40.08                             117   -0.69 6  247 334 
 SML  HN ES        713  9.44                             117   -0.17 8  247 334 
 SML  HZ I         713 18.14         4.2 0.10            113            247 334 
 CHI  HZ EP   1    712 41.75                             117    0.18 6  249 196 
 CHI  HN ES        713 11.58                             117    0.55 8  249 196 
 CHI  HZ I         713 17.92         0.9 0.34            114            249 196 
 MON  HZ EP   4    712 47.82                             108   -5.52 0  358 308 
 MON  HN ES   4    713 28.70                             108   -3.29 0  358 308 
 MON  HZ I         713 47.26         0.7 0.40            105            358 308 
                                                                                
