 2012  628 0942 16.6 L   6.809 -73.152138.3  RSN 14 0.4 2.6LRSN                1
 GAP=113        0.80       3.0     4.0  5.3  0.2527E+00  0.5500E+01  0.5072E+01E
 Epicentro: LOS SANTOS - SANTANDER                                             3
 ACTION:UPD 12-08-06 17:53 OP:ep   STATUS:               ID:20120628094216 L   I
 2012-06-28-0940-00M.COL___201                                                 6
 STAT SP IPHASW D HRMM SECON CODA AMPLIT PERI AZIMU VELO AIN AR TRES W  DIS CAZ7
 BAR2 SZ IP        942 35.48                             170    0.1310 24.2 188 
 BAR2 SZ ES   1    942 49.51                             170   -0.46 7 24.2 188 
 BAR2 SZ I         942 51.61        94.1 0.27                          24.2 188 
 BRR  HZ EP        942 37.26                             152    0.3810 70.1 298 
 BRR  HN ES   1    942 53.00                             152    0.30 7 70.1 298 
 BRR  HZ I         942 57.48       103.3 0.12                          70.1 298 
 PAM  SN ES   1    942 55.29                             149    0.59 7 77.0  40 
 RUS  HZ EP   1    942 39.58                             142   -0.12 7  102 176 
 RUS  HZ I         942 40.76        51.0 0.14                           102 176 
 RUS  HN ES   1    942 57.82                             142    0.10 7  102 176 
 PTB  HZ EP   1    942 42.32                             130   -0.60 7  147 258 
 PTB  HN ES   1    943  3.08                             130   -0.38 7  147 258 
 PTB  HZ I         943  5.86        46.4 0.14                           147 258 
 OCA  HZ EP   1    942 43.61                             128   -0.63 7  159 353 
 OCA  HN ES   1    943  4.86                             128   -0.93 7  159 353 
 YOP  SZ EP   1    942 46.38                             124    0.15 7  180 153 
 ZAR  HZ EP   1    942 49.33                             121    0.87 6  203 292 
 ZAR  HN ES   1    943 13.33                             121    0.01 6  203 292 
 NOR  SZ EP   1    942 51.92                             117    0.01 6  235 234 
 NOR  SE ES   1    943 19.82                             117    0.37 6  235 234 
 CHI  HZ EP   1    942 53.92                             115   -0.06 6  249 195 
 CHI  HZ I         943 27.14        23.8 0.31                           249 195 
 HEL  HZ EP   1    942 57.02                             113    0.62 6  272 256 
 HEL  HZ I         943 34.97        22.1 0.36                           272 256 
 VIL  SZ EP   1    942 59.39                             110   -0.39 5  304 191 
 VIL  SN ES   1    943 33.27                             110   -0.19 5  304 191 
 VIL  SZ I         943 44.47        24.0 0.54                           304 191 
 TOL  SZ EP   1    943  4.83                             108    0.24 5  344 224 
 TOL  SZ ES   1    943 41.58                             108   -0.45 5  344 224 
 PRA  HZ EP   1    943  9.92                             105   -0.01 4  393 209 
 PRA  HN ES   1    943 51.26                             105   -0.27 4  393 209 
                                                                                
