 2011  128 0632 35.4 L   6.798 -73.145140.8  RSN  9 0.5 2.2LRSN                1
 GAP=159        1.40       5.1    16.7 10.3 -0.2810E+02  0.7327E+02 -0.6025E+01E
 Epicentro: LOS SANTOS - SANTANDER                                             3
 ACTION:UP  11-02-08 08:43 OP:pat  STATUS:               ID:20110128063235 L   I
 2011-01-28-0629-21S.COL___138                                                 6
 STAT SP IPHASW D HRMM SECON CODA AMPLIT PERI AZIMU VELO SNR AR TRES W  DIS CAZ7
 BTL  SZ IP     D  632 55.13                             172     0.810   19 315 
 BAR2 SZ IP     C  632 54.56                             170     0.110   23 191 
 BAR2 SZ ES   1    633  9.37                             170     0.1 7   23 191 
 GIR2 SZ EP        632 53.69                             167    -0.810   32 350 
 GIR2 SZ ES   1    633  8.39                             167    -1.0 7   32 350 
 RUS  HZ EP        632 58.43                             143    -0.210  100 176 
 RUS  HZ I         632 59.61        13.7 0.54                           100 176 
 RUS  HE ES        633 17.29                             143     0.510  100 176 
 GRA  SZ IP     C  633  0.40                             136     0.110  126  17 
 GRA  SZ ES   1    633 20.02                             136     0.4 7  126  17 
 GRA  SZ I         633 21.24        42.1 0.29                           126  17 
 OCA  SZ EP        633  3.02                             128    -0.4 9  161 353 
 OCA  SZ ES   1    633 25.71                             128     0.5 7  161 353 
 OCA  SZ I         633 29.75        36.2 0.52                           161 353 
 NOR  SZ EP   1    633 10.39                             117    -0.5 6  235 235 
 CHI  HZ EP        633 12.69                             116    -0.1 8  248 195 
 CHI  HE ES   1    633 41.62                             116    -0.4 6  248 195 
 CHI  HZ I         633 51.50        10.8 0.49                           248 195 
 HEL  HZ EP   1    633 16.50                             114     1.1 6  272 256 
 HEL  HZ I         633 52.70         7.7 0.51                           272 256 
                                                                                
