 2016  828 0156 30.4 L   6.816 -73.090150.8  RSN 12 0.6 1.8LRSN                1
 GAP=123        1.31       4.0     4.7  7.4 -0.6223E+01  0.3345E+01  0.2198E+01E
 Epicentro: LOS SANTOS - SANTANDER                                             3
 ACTION:UPD 16-10-29 15:40 OP:rebc STATUS:               ID:20160828015630 L   I
 OLDACT:REG 16-08-28 13:14 OP:ak   STATUS:               ID:20160828014741     3
 2016-08-28-0148-00M.COL___368                                                 6
 STAT SP IPHASW D HRMM SECON CODA AMPLIT PERI AZIMU VELO AIN AR TRES W  DIS CAZ7
 BAR2 EZ EP        156 50.89                             170    0.1710 26.8 202 
 BAR2 EZ ES        157  6.94                             170    0.3710 26.8 202 
 BAR2 EZ I         157  7.69        10.1 0.07                          26.8 202 
 PAM  EZ EP        156 53.65                             153    0.7810 72.2  37 
 PAM  EE ES        157 10.89                             153    0.5010 72.2  37 
 PAM  EZ I         157 13.06        15.4 0.18                          72.2  37 
 BRR  HZ EP        156 52.94                             152    0.5710 75.9 295 
 BRR  HE ES        157  9.50                             152   -0.0010 75.9 295 
 BRR  HZ I         157 13.26         7.0 0.12                          75.9 295 
 RUS  HZ EP        156 54.64                             145   -0.1310  102 180 
 RUS  HN ES        157 13.51                             145   -0.2710  102 180 
 RUS  HZ I         157 14.65         3.6 0.36                           102 180 
 PTB  HZ EP        156 57.49                             132   -0.88 9  154 259 
 PTB  HN ES        157 19.32                             132   -0.86 9  154 259 
 PTB  HZ I         157 24.69         6.1 0.16                           154 259 
 OCA  HZ EP        156 58.82                             131   -0.21 9  159 351 
 OCA  HN ES        157 21.20                             131   -0.16 9  159 351 
 OCA  HZ I         157 25.05        22.3 0.22                           159 351 
 SPBC HZ EP        156 59.91                             129    0.11 9  168 220 
 SPBC HN ES        157 22.07                             129   -0.65 9  168 220 
 SPBC HZ I         157 28.01         9.3 0.21                           168 220 
 ZAR  HN ES        157 29.37                             123   -0.31 8  209 291 
 NOR  HZ EP   2    157  7.28                             119    0.19 4  241 235 
 NOR  HE ES        157 36.48                             119    0.79 8  241 235 
 NOR  HZ I         157 43.58         5.1 0.08                           241 235 
 CHI  HZ EP   2    157  9.24                             118    0.48 4  252 196 
 CHI  HN ES        157 38.09                             118   -0.59 8  252 196 
 SOCV BN ES        157 45.25                             114   -0.99 7  295  56 
 GUY2CHZ EP   1    157 15.66                             113    0.72 5  307 235 
 GUY2CHE ES        157 50.76                             113    1.09 7  307 235 
 GUY2CHZ I         157 58.05         3.1 0.43                           307 235 
                                                                                
