 2016  928 0810 18.2 L   6.828 -73.150149.5  RSN 22 0.4 2.4LRSN                1
 GAP= 53        1.05       2.6     2.8  4.9 -0.1391E+01  0.2190E+01  0.1115E+01E
 Epicentro: LOS SANTOS - SANTANDER                                             3
 ACTION:UPD 17-08-17 21:17 OP:lp   STATUS:               ID:20160928081018 L   I
 OLDACT:UP  16-09-28 19:15 OP:dani STATUS:               ID:20160928080733     3
 OLDACT:UP  16-09-28 19:11 OP:dani STATUS:               ID:20160928080733     3
 OLDACT:REG 16-09-28 13:15 OP:dani STATUS:               ID:20160928080733     3
 2016-09-28-0808-00M.COL___375                                                 6
 STAT SP IPHASW D HRMM SECON CODA AMPLIT PERI AZIMU VELO AIN AR TRES W  DIS CAZ7
 BAR2 EZ EP     D  810 38.25                             170   -0.0610 26.3 188 
 BAR2 EZ ES        810 53.59                             170   -0.4310 26.3 188 
 BAR2 EZ I         810 54.90        72.4 0.20            170           26.3 188 
 BRR  HZ EP     C  810 40.08                             154    0.4610 69.4 296 
 BRR  HN ES        810 57.18                             154    0.8210 69.4 296 
 BRR  HZ I         811  1.26        34.3 0.28            146           69.4 296 
 PAM  EZ EP        810 41.25                             152    0.5810 75.3  41 
 PAM  EE ES        810 58.30                             152    0.0910 75.3  41 
 PAM  EZ I         811  0.45        37.7 0.54            149           75.3  41 
 RUS  HZ EP        810 42.22                             144   -0.2910  104 176 
 RUS  HN ES        811  1.18                             144   -0.3210  104 176 
 RUS  HZ I         811  1.96        20.2 0.20            143            104 176 
 PTB  HZ EP        810 44.87                             133   -0.59 9  148 258 
 PTB  HE ES        811  6.85                             133    0.10 9  148 258 
 PTB  HZ I         811 12.70        26.7 0.34            127            148 258 
 TAM  HZ EP        810 46.71                             131    0.45 9  156 106 
 TAM  HE ES        811  8.35                             131    0.18 9  156 106 
 TAM  HZ I         811 11.49         9.3 0.50            130            156 106 
 OCA  HZ EP        810 46.32                             131   -0.17 9  157 353 
 OCA  HE ES        811  8.17                             131   -0.40 9  157 353 
 OCA  HZ I         811 13.40        49.8 0.48            125            157 353 
 SPBC HZ EP        810 47.14                             129   -0.02 9  165 218 
 SPBC HE ES        811  9.09                             129   -0.68 9  165 218 
 SPBC HZ I         811 14.11        46.9 0.22            125            165 218 
 ZAR  HZ EP        810 50.74                             123    0.04 9  202 291 
 ZAR  HE ES        811 15.86                             123   -0.21 9  202 291 
 ZAR  HN ES        811 16.34                             123            202 291 
 ZAR  HZ I         811 21.48        32.7 0.38            118            202 291 
 NOR  HZ EP        810 54.42                             119    0.15 8  236 234 
 NOR  HE ES        811 22.22                             119   -0.21 8  236 234 
 NOR  HZ I         811 32.05        16.5 0.41            115            236 234 
 CHI  HZ EP        810 56.44                             117    0.05 8  251 195 
 CHI  HN ES        811 25.88                             117   -0.31 8  251 195 
 CHI  HZ I         811 29.26        18.2 0.62            115            251 195 
 ROSC BZ EP   4    810 58.48                             117    1.72 0  255 211 
 ROSC BE ES        811 27.20                             117    0.35 8  255 211 
 ROSC BZ I         811 32.71        40.6 0.42            114            255 211 
 HEL  HZ EP   4    810 59.91                             115    1.30 0  272 255 
 HEL  HE ES        811 30.57                             115    0.41 8  272 255 
 HEL  HZ I         811 36.37        13.9 0.28            111            272 255 
 URE  HZ EP   4    810 58.10                             114   -1.15 0  282 291 
 URE  HZ I         811 42.26        14.5 0.18            110            282 291 
 SOCV BZ EP        811  1.10                             113   -0.15 7  300  57 
 SOCV BE ES   4    811 33.22                             113   -1.63 0  300  57 
 GUY2CHZ EP   4    811  3.34                             113    1.23 0  303 234 
 GUY2CHN ES        811 35.71                             113   -0.68 7  303 234 
 GUY2CHZ I         811 44.52        15.2 0.32                           303 234 
 VIL  ET ES        811 36.67                             112    0.32 7  306 191 
 VIL  EZ I         811 39.01        26.7 0.41            110            306 191 
 PTGC HZ EP   9    811  1.42                             112   -1.12 0  312 159 
 PTGC HN ES        811 35.22                             112   -0.81 7  312 159 
 PTGC HZ I         811 37.54         9.8 0.36            110            312 159 
 CBOC HZ EP   4    811  6.62                             110    1.32 0  334 252 
 CBOC HN ES   4    811 43.38                             110    1.32 0  334 252 
 CBOC HZ I         811 47.88         3.7 0.41            107            334 252 
 ANIL HE ES        811 48.66                             109    1.19 6  359 224 
 SJC  HZ EP        811 12.47                             106   -1.06 6  406 327 
 SJC  HN ES   4    811 53.56                             106   -3.14 0  406 327 
 SJC  HZ I         812  5.93         4.5 0.40            103            406 327 
 PAL  HZ EP        811 13.88                             106    0.28 6  407 239 
 PAL  HN ES   4    811 55.00                             106   -1.83 0  407 239 
 PAL  HZ I         812  2.96         3.0 0.45            103            407 239 
                                                                                
