 2016 1128 0626 42.1 L   6.686 -73.150147.1  RSN  4 0.2 1.3LRSN                1
 GAP=165        0.56       6.7     3.7  4.8 -0.5703E+01 -0.9242E+00 -0.1484E+01E
 Epicentro: VILLANUEVA - SANTANDER                                             3
 ACTION:UPD 17-10-26 21:12 OP:lp   STATUS:               ID:20161128062642 L   I
 OLDACT:UP  16-11-28 15:56 OP:dani STATUS:               ID:20161128061743     3
 OLDACT:REG 16-11-28 12:41 OP:dani STATUS:               ID:20161128061743     3
 2016-11-28-0618-00M.COL___346                                                 6
 STAT SP IPHASW D HRMM SECON CODA AMPLIT PERI AZIMU VELO AIN AR TRES W  DIS CAZ7
 BAR2 EZ EP        627  2.00                             176    0.3310 10.9 199 
 BAR2 EZ ES        627 16.83                             176   -0.1410 10.9 199 
 BRR  HZ EP        627  3.60                             151   -0.1310 77.7 307 
 BRR  HN ES        627 20.84                             151    0.2110 77.7 307 
 BRR  HZ I         627 24.93         3.8 0.28            146           77.7 307 
 PAM  EZ EP        627  4.87                             148   -0.1910 87.8  35 
 PTB  HZ EP        627  9.00                             133    0.08 9  145 264 
 PTB  HN ES        627 29.69                             133   -0.18 9  145 264 
 PTB  HZ I         627 34.45         2.1 0.21            131            145 264 
                                                                                
