 2012  628 0813 37.9 L   6.721 -73.146146.5  RSN  4 0.3 1.1LRSN                1
 GAP=231        0.63       6.7     6.4  6.8  0.2124E+02  0.4434E+01  0.6854E+00E
 Epicentro: JORDAN - SANTANDER                                                 3
 ACTION:UPD 12-08-06 17:53 OP:ep   STATUS:               ID:20120628081337 L   I
 2012-06-28-0810-00M.COL___201                                                 6
 STAT SP IPHASW D HRMM SECON CODA AMPLIT PERI AZIMU VELO AIN AR TRES W  DIS CAZ7
 BAR2 SZ EP   1    813 57.46                             174   -0.03 7 14.8 196 
 BAR2 SZ I         813 58.08         3.5 0.14                          14.8 196 
 BAR2 SZ ES   1    814 12.23                             174   -0.53 7 14.8 196 
 BRR  HZ EP   1    813 59.44                             151    0.04 7 75.7 304 
 BRR  HZ I         813 59.68         2.7 0.12                          75.7 304 
 BRR  HN ES   1    814 16.58                             151    0.42 7 75.7 304 
 RUS  HZ EP   1    814  1.39                             146    0.26 7 91.8 176 
 RUS  HZ I         814  2.58         1.3 0.16                          91.8 176 
 RUS  HN ES   1    814 19.44                             146    0.20 7 91.8 176 
 PTB  HZ EP   1    814  4.39                             132   -0.41 7  146 262 
 PTB  HN ES   1    814 25.79                             132    0.01 7  146 262 
 PTB  HZ I         814 31.31         2.0 0.30                           146 262 
                                                                                
