 2017  428 0615 46.7 L   6.741 -73.177142.6  RSN  4 0.3 1.5LRSN                1
 GAP=229        0.54       3.6     5.4  6.6  0.7546E+01 -0.2582E+01  0.1892E+01E
 Epicentro: VILLANUEVA - SANTANDER                                             3
 ACTION:UPD 17-05-30 21:16 OP:jn   STATUS:               ID:20170428061546 L   I
 OLDACT:UP  17-04-28 16:44 OP:and  STATUS:               ID:20170428060739     3
 OLDACT:UP  17-04-28 16:44 OP:and  STATUS:               ID:20170428060739     3
 OLDACT:UP  17-04-28 16:44 OP:and  STATUS:               ID:20170428060739     3
 OLDACT:UP  17-04-28 16:44 OP:and  STATUS:               ID:20170428060739     3
 OLDACT:UP  17-04-28 16:43 OP:and  STATUS:               ID:20170428060739     3
 OLDACT:REG 17-04-28 12:46 OP:and  STATUS:               ID:20170428060739     3
 2017-04-28-0608-00M.COL___362                                                 6
 STAT SP IPHASW D HRMM SECON CODA AMPLIT PERI AZIMU VELO AIN AR TRES W  DIS CAZ7
 BRR  HZ EP   2    616  6.80                             152   -0.74 5 71.7 304 
 BRR  HN ES        616 23.91                             152    0.1110 71.7 304 
 RUS  HZ EP        616  9.85                             145    0.1510 94.4 174 
 RUS  HN ES        616 27.54                             145   -0.1010 94.4 174 
 RUS  HZ I         616 29.05         3.1 0.22            145           94.4 174 
 SPBC HN ES        616 35.79                             130    0.00 9  156 220 
 SPBC HZ I         616 37.36         4.6 0.12            128            156 220 
 ZAR  HZ EP   2    616 19.25                             122    0.36 4  203 294 
 ZAR  HN ES   3    616 43.19                             122   -0.80 2  203 294 
 ZAR  HZ I         616 48.34         3.1 0.40            120            203 294 
                                                                                
