 2015  528 0727 29.0 L   6.794 -73.119147.2  RSN 14 0.3 1.8LRSN                1
 GAP=140        0.65       2.1     2.7  4.0 -0.1203E+01  0.2376E+01  0.1353E+01E
 Epicentro: LOS SANTOS - SANTANDER                                             3
 ACTION:UPD 15-09-10 22:07 OP:cam  STATUS:               ID:20150528072729 L   I
 OLDACT:REG 15-05-28 12:51 OP:spq  STATUS:               ID:20150528071749     3
 2015-05-28-0717-49M.COL___309                                                 6
 STAT SP IPHASW D HRMM SECON CODA AMPLIT PERI AZIMU VELO AIN AR TRES W  DIS CAZ7
 BAR2 EZ EP        727 48.71                             171   -0.0710 23.4 197 
 BAR2 EZ ES   1    728  3.86                             171   -0.36 7 23.4 197 
 BAR2 EZ I         728  4.95        22.6 0.12            169           23.4 197 
 BRR  HZ EP        727 50.61                             152    0.1710 74.1 298 
 BRR  HN ES        728  7.85                             152    0.6610 74.1 298 
 BRR  HZ I         728  9.02        11.5 0.30            149           74.1 298 
 PAM  SZ EP        727 51.63                             151    0.3710 76.0  37 
 PAM  SE ES   1    728  8.15                             151   -0.50 7 76.0  37 
 PAM  SZ I         728 11.08         7.3 0.66            154           76.0  37 
 RUS  HZ EP        727 52.66                             144   -0.1410 99.8 178 
 RUS  HE ES   1    728 11.49                             144    0.10 7 99.8 178 
 RUS  HZ I         728 12.34         9.1 0.36            146           99.8 178 
 OCA  HZ EP        727 57.46                             130   -0.03 9  161 352 
 OCA  HN ES   1    728 19.55                             130   -0.19 7  161 352 
 OCA  HZ I         728 25.71         8.7 0.21            130            161 352 
 SPBC HZ EP        727 57.61                             129   -0.10 9  165 220 
 SPBC HE ES        728 19.88                             129   -0.25 9  165 220 
 SPBC HZ I         728 23.82        16.3 0.12            129            165 220 
 ZAR  HZ EP        728  1.72                             122   -0.10 8  207 292 
 ZAR  HN ES        728 26.95                             122   -0.49 8  207 292 
 ZAR  HZ I         728 33.86         8.6 0.32            122            207 292 
 NOR  HZ EP        728  5.02                             119    0.02 8  237 235 
 NOR  HN ES        728 33.13                             119    0.02 8  237 235 
 NOR  HZ I         728 37.48         8.3 0.14            119            237 235 
 CHI  HZ EP   1    728  7.18                             117    0.41 6  249 196 
 CHI  HN ES   1    728 36.31                             117    0.06 6  249 196 
 CHI  HZ I         728 41.75         2.9 0.32            118            249 196 
 HEL  HZ EP   4    728 10.95                             115    1.39 0  275 256 
 HEL  HE ES   1    728 41.45                             115    0.23 6  275 256 
 HEL  HZ I         728 47.81         3.8 0.52            115            275 256 
 GUY2CHZ EP   4    728 14.54                             112    1.66 0  303 235 
 GUY2CHE ES   1    728 47.47                             112    0.34 5  303 235 
 GUY2CHZ I         728 52.84         5.1 0.24                           303 235 
 CBOC HZ EP   4    728 17.61                             110    1.36 0  336 252 
 CBOC HE ES   1    728 52.81                             110   -0.31 5  336 252 
 CBOC HZ I         728 58.93         1.5 0.70            110            336 252 
 MON  HN ES   4    728 54.83                             109   -2.03 0  356 308 
 MON  HZ I         728 58.31         0.9 0.34            109            356 308 
 PRA  HZ EP   1    728 22.61                             107   -0.04 4  393 210 
 PRA  HE ES        729  4.47                             107   -0.04 6  393 210 
 PRA  HZ I         729  9.42         3.4 0.33            107            393 210 
                                                                                
