 2017 1228 0926 34.3 L   6.767 -73.167144.6  RSN  8 0.3 1.7LRSN                1
 GAP= 82        0.79       3.1     3.1  4.9 -0.2727E+01  0.3352E+01 -0.1297E+01E
 Epicentro: LOS SANTOS - SANTANDER                                             3
 ACTION:UPD 18-01-04 13:25 OP:rebc STATUS:               ID:20171228092634 L   I
 OLDACT:REG 17-12-28 13:19 OP:osc  STATUS:               ID:20171228090605     3
 2017-12-28-0918-00M.COL___451                                                 6
 STAT SP IPHASW D HRMM SECON CODA AMPLIT PERI AZIMU VELO AIN AR TRES W  DIS CAZ7
 BAR2 EZ EP        926 53.75                             172    0.0110 19.4 185 
 BAR2 EZ ES        927  9.21                             172    0.3210 19.4 185 
 BAR2 EZ I         927 11.48        11.8 0.18            172           19.4 185 
 PAM  EZ EP        926 56.70                             149    0.0210 81.7  39 
 PAM  EE ES        927 13.98                             149   -0.1410 81.7  39 
 PAM  EZ I         927 15.93         6.0 0.56            153           81.7  39 
 PTB  HZ EP        927  0.50                             132   -0.43 9  145 260 
 PTB  HE ES        927 21.57                             132   -0.11 9  145 260 
 PTB  HZ I         927 28.51         4.2 0.44            133            145 260 
 TAM  HZ EP        927  2.18                             130    0.15 9  156 103 
 OCA  HZ EP        927  2.15                             129   -0.72 9  164 354 
 OCA  HN ES        927 25.00                             129   -0.13 9  164 354 
 OCA  HZ I         927 27.64         8.9 0.18            131            164 354 
 ZAR  HZ EP        927  7.18                             122    0.56 9  203 293 
 ZAR  HN ES        927 31.70                             122   -0.11 9  203 293 
 ZAR  HZ I         927 40.66         4.2 0.20            123            203 293 
 DRL03HZ EP        927 16.47                             113    0.21 7  292 353 
 DRL03HE ES        927 49.58                             113    0.61 7  292 353 
 GUY2CHZ EP        927 17.35                             112   -0.07 7  297 235 
 GUY2CHE ES        927 51.26                             112    0.22 7  297 235 
 GUY2CHZ I         928  3.98         2.5 0.44                           297 235 
                                                                                
