 2014 1128 0649 42.8 L   6.824 -73.145146.8  RSN  9 0.5 1.7LRSN                1
 GAP=183        1.14       4.3     6.2  8.8 -0.1350E+01 -0.2343E+01  0.1096E+01E
 Epicentro: LOS SANTOS - SANTANDER                                             3
 ACTION:UPD 14-12-19 15:48 OP:nd   STATUS:               ID:20141128064942 L   I
 OLDACT:UP  14-11-28 18:53 OP:nh   STATUS:               ID:20141128064749     3
 OLDACT:REG 14-11-28 12:50 OP:mh   STATUS:               ID:20141128064749     3
 2014-11-28-0647-49M.COL___306                                                 6
 STAT SP IPHASW D HRMM SECON CODA AMPLIT PERI AZIMU VELO AIN AR TRES W  DIS CAZ7
 BAR2 SZ EP   1    650  2.03                             170   -0.54 7 25.9 189 
 BAR2 SZ I         650 19.87         7.5 0.63            172           25.9 189 
 BRR  HZ EP        650  4.73                             153    0.7810 70.0 297 
 BRR  HN ES        650 20.82                             153    0.3310 70.0 297 
 BRR  HZ I         650 25.22         7.1 0.51            157           70.0 297 
 RUS  HZ EP        650  7.41                             143    0.6110  103 176 
 RUS  HN ES   1    650 24.78                             143   -0.77 7  103 176 
 RUS  HZ I         650 26.57         5.3 0.12            146            103 176 
 PTB  HZ EP        650  9.34                             132   -0.52 9  148 258 
 PTB  HN ES   1    650 30.47                             132   -0.53 7  148 258 
 PTB  HZ I         650 32.95        10.2 0.19            136            148 258 
 OCA  HZ EP        650 10.14                             130   -0.77 9  158 353 
 OCA  HN ES   1    650 33.23                             130    0.37 7  158 353 
 OCA  HZ I         650 37.09         4.2 0.20            132            158 353 
 SPBC HZ EP        650 11.70                             129    0.17 9  165 218 
 SPBC HN ES        650 33.94                             129   -0.04 9  165 218 
 SPBC HZ I         650 36.11         7.4 0.42            133            165 218 
 ZAR  HZ EP        650 15.10                             123   -0.07 9  203 291 
 ZAR  HN ES        650 40.27                             123   -0.19 9  203 291 
 ZAR  HZ I         650 46.19         8.3 0.34            126            203 291 
 NOR  HZ EP        650 18.99                             119    0.28 8  236 234 
 NOR  HN ES        650 46.93                             119    0.17 8  236 234 
 NOR  HZ I         650 50.14         4.2 0.14            122            236 234 
 GUY2CHZ EP   4    650 27.99                             112    1.40 0  303 234 
 GUY2CHN ES   4    651  1.44                             112    0.66 0  303 234 
 GUY2CHZ I         651 11.24         2.7 0.52                           303 234 
 MON  HZ EP   4    650 29.47                             109   -2.15 0  352 308 
 MON  HN ES   4    651  8.15                             109   -1.57 0  352 308 
                                                                                
