 2011  628 0352 30.2 L   6.944 -73.140150.4  RSN  4 0.3 1.6LRSN                1
 GAP=239        0.69       8.7    11.0  9.9 -0.6064E+02 -0.6647E+02  0.3193E+02E
 Epicentro: PIEDECUESTA - SANTANDER                                            3
 ACTION:UP  11-07-14 19:08 OP:ep   STATUS:               ID:20110628035230 L   I
 2011-06-28-0340-00M.COL___124                                                 6
 STAT SP IPHASW D HRMM SECON CODA AMPLIT PERI AZIMU VELO SNR AR TRES W  DIS CAZ7
 BTL  SZ EP        352 50.49                             175     0.310   14 259 
 BRR  HZ EP   1    352 51.10                             156    -0.4 7   66 286 
 BRR  HN ES        353  8.18                             156     0.010   66 286 
 BRR  HZ I         353 11.70        10.2 0.18                            66 286 
 GRA  SZ EP        352 54.77                             142     0.110  110  20 
 GRA  SZ ES   1    353 13.42                             142    -0.3 7  110  20 
 OCA  SZ EP   1    352 57.23                             134    -0.2 7  145 352 
 OCA  SZ ES   2    353 19.30                             134     0.6 5  145 352 
 OCA  SZ I         353 22.88         3.9 0.26                           145 352 
                                                                                
