 2014  328 0350 58.0 L   6.813 -73.166142.0  RSN 13 0.4 2.0LRSN                1
 GAP=133        0.91       2.3     3.4  5.1 -0.1749E+01  0.6928E+01 -0.6561E+00E
 Epicentro: LOS SANTOS - SANTANDER                                             3
 ACTION:UPD 14-04-09 23:21 OP:nd   STATUS:               ID:20140328035058 L   I
 OLDACT:REG 14-03-28 07:41 OP:carl STATUS:               ID:20140328035047     3
 2014-03-28-0350-47M.COL___244                                                 6
 STAT SP IPHASW D HRMM SECON CODA AMPLIT PERI AZIMU VELO AIN AR TRES W  DIS CAZ7
 BAR2 SZ EP        351 17.24                             170   -0.0010 24.4 184 
 BAR2 SZ ES        351 32.38                             170    0.1610 24.4 184 
 BAR2 SZ I         351 35.08        25.2 0.34            168           24.4 184 
 PAM  SZ EP        351 19.77                             150   -0.1110 77.8  41 
 PAM  SN ES        351 37.01                             150    0.0910 77.8  41 
 PAM  SZ I         351 38.39        14.3 0.18            156           77.8  41 
 RUS  HZ EP        351 21.39                             143   -0.1510  102 175 
 RUS  HN ES        351 39.57                             143   -0.3010  102 175 
 RUS  HZ I         351 42.19         8.0 0.36            145            102 175 
 PTB  HZ EP        351 23.91                             132   -0.61 9  146 258 
 PTB  HN ES        351 44.85                             132   -0.33 9  146 258 
 PTB  HZ I         351 47.31        24.9 0.14            131            146 258 
 OCA  HZ EP        351 26.08                             129    0.18 9  159 354 
 OCA  HN ES        351 48.15                             129    0.51 9  159 354 
 OCA  HZ I         351 52.43        11.8 0.30            132            159 354 
 SPBC HZ EP        351 26.35                             128    0.13 9  163 218 
 SPBC HN ES        351 48.61                             128    0.41 9  163 218 
 SPBC HZ I         351 55.47        13.0 0.30            129            163 218 
 ZAR  HZ EP        351 30.11                             122    0.14 9  201 292 
 ZAR  HN ES        351 55.41                             122    0.54 9  201 292 
 ZAR  HZ I         352  1.51        16.4 0.32            123            201 292 
 NOR  HZ EP        351 33.82                             118    0.38 8  234 234 
 NOR  HN ES        352  1.09                             118    0.04 8  234 234 
 NOR  HZ I         352 10.14         7.2 0.16            119            234 234 
 SML  HZ EP        351 33.49                             117   -0.72 8  241 336 
 SML  HN ES        352  1.78                             117   -0.65 8  241 336 
 SML  HZ I         352  5.16        13.7 0.10            119            241 336 
 CHI  HZ EP        351 35.60                             116   -0.01 8  249 195 
 CHI  HN ES        352  4.79                             116   -0.13 8  249 195 
 CHI  HZ I         352 12.60         3.1 0.30            118            249 195 
 HEL  HZ EP   4    351 37.30                             114   -0.56 0  270 255 
 HEL  HN ES   4    352  3.85                             114   -5.06 0  270 255 
 HEL  HZ I         352 16.78         5.8 0.22            115            270 255 
 GUY2CHZ EP        351 42.10                             112    0.74 7  300 234 
 GUY2CHN ES        352 15.03                             112   -0.11 7  300 234 
 GUY2CHZ I         352 25.55         5.9 0.66                           300 234 
 CBOC HZ EP        351 45.22                             109    0.62 7  332 252 
 CBOC HE ES        352 20.22                             109   -0.70 7  332 252 
 CBOC HZ I         352 33.31         2.2 0.54            111            332 252 
                                                                                
