 2011 1228 0406 55.3 L   6.785 -73.138149.2  RSN  4 0.4 1.2LRSN                1
 GAP=138        1.01       6.4     6.6 11.8  0.6757E+01  0.3275E+01  0.1554E+02E
 Epicentro: LOS SANTOS - SANTANDER                                             3
 ACTION:UPD 12-07-13 16:19 OP:ep   STATUS:               ID:20111228040000 L   I
 2011-12-28-0400-00M.COL___186                                                 6
 STAT SP IPHASW D HRMM SECON CODA AMPLIT PERI AZIMU VELO AIN AR TRES W  DIS CAZ7
 BRR  HZ EP        4 7 16.91                             153   -0.0110 72.7 299 
 BRR  HZ I         4 7 34.34         4.1 0.21                          72.7 299 
 BRR  HN ES        4 7 34.40                             153    0.6210 72.7 299 
 PAM  SN ES   1    4 7 35.01                             151   -0.58 7 78.2  38 
 PAM  SZ I         4 7 35.23         2.2 0.20                          78.2  38 
 RUS  HZ EP        4 7 19.54                             145    0.2610 98.8 176 
 RUS  HN ES        4 7 37.90                             145   -0.0810 98.8 176 
 PTB  HN ES        4 7 43.36                             133   -0.54 9  148 260 
                                                                                
