 2012  828 0613 22.9 L   6.747 -73.206144.4  RSN  6 0.2 1.4LRSN                1
 GAP=169        0.29       5.5     6.1  6.4  0.1162E+01  0.1990E+02  0.2859E+01E
 Epicentro: VILLANUEVA - SANTANDER                                             3
 ACTION:UPD 12-09-10 11:58 OP:ep   STATUS:               ID:20120828061322 L   I
 2012-08-28-0610-00M.COL___218                                                 6
 STAT SP IPHASW D HRMM SECON CODA AMPLIT PERI AZIMU VELO AIN AR TRES W  DIS CAZ7
 BAR2 SZ EP   3    613 42.19                             173   -0.10 2 17.3 171 
 BAR2 SZ ES   3    613 57.00                             173   -0.39 2 17.3 171 
 BAR2 SZ I         613 59.33         8.9 0.28                          17.3 171 
 GIR2 SZ ES   3    613 57.73                             165   -0.22 2 36.8   2 
 BRR  HZ EP        613 43.83                             153    0.0410 68.7 306 
 BRR  HN ES   3    614  0.30                             153    0.23 2 68.7 306 
 BRR  HZ I         614  4.86         6.6 0.14                          68.7 306 
 RUS  HN ES   3    614  4.74                             145    0.42 2 95.4 172 
 RUS  HZ I         614  5.66         3.4 0.32                          95.4 172 
 PTB  HZ EP        613 49.06                             133   -0.04 9  140 261 
 PTB  HN ES   3    614  9.45                             133   -0.07 2  140 261 
 PTB  HZ I         614 15.25         2.4 0.12                           140 261 
 ZAR  HN ES   3    614 20.01                             123    0.18 2  200 294 
 ZAR  HZ I         614 27.94         2.8 0.54                           200 294 
                                                                                
