 2014  928 0650 39.0 L   6.703 -73.126147.3  RSN  6 0.3 1.3LRSN                1
 GAP=214        0.76       5.9     5.8  7.2 -0.5382E+01  0.2402E+01 -0.6901E+01E
 Epicentro: JORDAN - SANTANDER                                                 3
 ACTION:UPD 14-10-03 23:09 OP:nd   STATUS:               ID:20140928065039 L   I
 OLDACT:REG 14-09-28 13:41 OP:spq  STATUS:               ID:20140928064818     3
 2014-09-28-0648-18M.COL___295                                                 6
 STAT SP IPHASW D HRMM SECON CODA AMPLIT PERI AZIMU VELO AIN AR TRES W  DIS CAZ7
 BAR2 SZ EP   1    650 58.63                             175   -0.05 7 13.7 207 
 BAR2 SZ ES   1    651 13.55                             175   -0.47 7 13.7 207 
 BAR2 SZ I         651 16.44         2.6 0.38            173           13.7 207 
 BRR  HZ EP        651  0.94                             150    0.1710 78.7 305 
 BRR  HE ES        651 18.27                             150    0.5310 78.7 305 
 BRR  HZ I         651 21.52         3.5 0.52            149           78.7 305 
 PTB  HZ EP   1    651  6.47                             132    0.32 7  148 263 
 PTB  HN ES        651 27.07                             132   -0.25 9  148 263 
 PTB  HZ I         651 30.20         1.4 0.32            133            148 263 
 OCA  HN ES   1    651 31.31                             128   -0.16 7  171 353 
 OCA  HZ I         651 34.00         2.7 0.32            130            171 353 
 ZAR  HE ES   1    651 37.55                             122   -0.55 6  210 295 
 ZAR  HZ I         651 43.13         1.3 0.21            123            210 295 
 SML  HZ EP   1    651 16.73                             117   -0.16 6  254 336 
 SML  HE ES   4    651 44.03                             117   -2.40 0  254 336 
 SML  HZ I         651 47.54         3.7 0.07            118            254 336 
                                                                                
