 2012  328 0745 51.8 L   6.776 -73.170139.1  RSN  5 0.5 1.2LRSN                1
 GAP=135        0.90       7.2     7.0 10.4 -0.5297E+01  0.9944E+01  0.3623E+01E
 ACTION:UP  12-03-31 23:23 OP:EP   STATUS:               ID:20120328074551 L   I
 2012-03-28-0740-00M.COL___196                                                 6
 STAT SP IPHASW D HRMM SECON CODA AMPLIT PERI AZIMU VELO SNR AR TRES W  DIS CAZ7
 BAR2 SZ ES   2    746 24.16                             171    -1.1 5   20 184 
 BAR2 SZ I         746 27.18         4.7 0.22                            20 184 
 BRR  HZ EP        746 12.45                             152     0.210   70 301 
 BRR  HN ES   2    746 28.89                             152     0.8 5   70 301 
 PAM  SZ EP        746 13.52                             148    -0.110   81  40 
 PAM  SN ES   2    746 30.44                             148    -0.1 5   81  40 
 RUS  HZ EP        746 14.77                             143     0.010   98 174 
 RUS  HN ES   2    746 33.45                             143     0.8 5   98 174 
 RUS  HZ I         746 34.32         2.3 0.28                            98 174 
 PTB  HZ EP        746 17.72                             131    -0.3 9  145 260 
 PTB  HN ES   2    746 38.06                             131    -0.3 5  145 260 
 PTB  HZ I         746 40.65         1.6 0.26                           145 260 
                                                                                
