 2010  228 0027 14.0 L   6.819 -73.024150.9  RSN 10 0.3 2.4LRSN                1
 GAP=195        0.59       2.5     4.3  4.1 -0.1606E+00  0.3467E+01  0.1392E+01E
 Epicentro: CEPITA - SANTANDER                                                 3
 ACTION:UP  10-08-24 09:51 OP:vdl  STATUS:               ID:20100228002714 L   I
 2010-02-28-0026-36S.COL___093                                                 6
 STAT SP IPHASW D HRMM SECON CODA AMPLIT PERI AZIMU VELO SNR AR TRES W  DIS CAZ7
 BAR2 SZ EP        027 34.28                             168    -0.110   31 215 
 BAR2 SZ ES   2    027 50.52                             168     0.2 5   31 215 
 BRR  HZ EP        027 36.47                             150     0.110   82 293 
 BRR  HE ES        027 53.88                             150     0.110   82 293 
 BRR  HZ I         027 56.61        61.1 0.20                            82 293 
 RUS  BZ EP        027 38.35                             144    -0.110  103 184 
 RUS  BN ES        027 57.39                             144    -0.110  103 184 
 RUS  BZ I         027 58.71        21.2 0.34                           103 184 
 OCA  SZ EP        027 43.04                             131     0.3 9  160 348 
 OCA  SZ ES   2    028  4.63                             131    -0.5 5  160 348 
 OCA  SZ I         028  8.96        39.7 0.22                           160 348 
 CHI  HZ EP        027 52.64                             118     0.0 8  254 198 
 CHI  HE ES   2    028 23.31                             118     0.6 4  254 198 
 CHI  HZ I         028 25.91        11.2 0.46                           254 198 
 HEL  HZ EP        027 56.23                             115     0.2 7  286 256 
 HEL  HE ES   2    028 28.04                             115    -0.7 4  286 256 
 HEL  HZ I         028 34.35        14.1 0.43                           286 256 
 RREF BN ES   2    028 39.65                             111     0.8 3  333 231 
 RREF BZ I         028 46.44        14.1 0.47                           333 231 
 DBB  SZ EP   2    028  2.34                             110    -0.9 3  353 274 
 TOL  SZ EP        028  3.46                             109    -0.3 6  355 226 
 TOL  SZ ES        028 42.37                             109    -0.2 6  355 226 
 PRA  HZ EP   2    028  8.92                             107     0.2 3  401 211 
 PRA  HE ES   1    028 50.88                             107    -0.5 4  401 211 
 PRA  HZ I         028 56.17        12.1 0.42                           401 211 
                                                                                
