 2013 1128 0747 46.4 L   6.720 -73.175145.1  RSN  6 0.4 1.5LRSN                1
 GAP=136        1.10       5.1     5.4  7.5 -0.7026E+01  0.5401E+01  0.3402E+01E
 Epicentro: VILLANUEVA - SANTANDER                                             3
 ACTION:UPD 14-01-09 16:31 OP:ep   STATUS:               ID:20131128074746 L   I
 OLDACT:REG 13-11-28 08:00 OP:stll STATUS:               ID:20131128073809     3
 2013-11-28-0738-09M.COL___238                                                 6
 STAT SP IPHASW D HRMM SECON CODA AMPLIT PERI AZIMU VELO AIN AR TRES W  DIS CAZ7
 BAR2 SZ EP        748  6.00                             174    0.2210 14.2 183 
 BAR2 SZ I         748  6.10        11.8 0.22            174           14.2 183 
 BAR2 SZ ES        748 21.30                             174    0.3910 14.2 183 
 BRR  HZ EP        748  8.06                             152    0.5010 73.1 306 
 BRR  HZ I         748  9.41         6.0 0.14            148           73.1 306 
 BRR  HN ES        748 24.46                             152    0.3710 73.1 306 
 PAM  SZ EP        748  9.16                             148    0.0810 86.3  37 
 PAM  SZ I         748  9.42         5.7 0.28            149           86.3  37 
 PAM  SN ES        748 26.23                             148   -0.5510 86.3  37 
 RUS  HZ EP        748  9.59                             146    0.1210 92.1 174 
 RUS  HN ES        748 26.99                             146   -0.4910 92.1 174 
 PTB  HZ EP        748 12.16                             133   -0.71 9  143 262 
 PTB  HN ES        748 32.97                             133   -0.56 9  143 262 
 PTB  HZ I         748 39.15         3.6 0.24            131            143 262 
 SPBC HZ EP        748 14.24                             131    0.25 9  154 220 
 SPBC HN ES        748 35.85                             131    0.32 9  154 220 
                                                                                
