 2017  328 0941 42.0 L   6.743 -73.120143.9  RSN  9 0.4 1.7LRSN                1
 GAP=124        0.57       4.0     3.7  5.7 -0.1001E+01  0.5195E+01 -0.2444E+00E
 Epicentro: LOS SANTOS - SANTANDER                                             3
 ACTION:UPD 17-05-25 18:46 OP:jn   STATUS:               ID:20170328094142 L   I
 OLDACT:UP  17-03-28 18:26 OP:and  STATUS:               ID:20170328093745     3
 OLDACT:UP  17-03-28 18:25 OP:and  STATUS:               ID:20170328093745     3
 OLDACT:REG 17-03-28 12:55 OP:and  STATUS:               ID:20170328093745     3
 2017-03-28-0938-00M.COL___351                                                 6
 STAT SP IPHASW D HRMM SECON CODA AMPLIT PERI AZIMU VELO AIN AR TRES W  DIS CAZ7
 BAR2 EZ EP        942  1.46                             173    0.1510 18.1 202 
 BAR2 EZ ES   2    942 16.60                             173    0.23 5 18.1 202 
 BAR2 EZ I         942 18.80        10.1 0.50            171           18.1 202 
 BRR  HZ EP   2    942  3.68                             150    0.41 5 76.8 302 
 BRR  HN ES   2    942 20.17                             150    0.30 5 76.8 302 
 BRR  HZ I         942 25.19         9.4 0.28            150           76.8 302 
 PAM  EZ IP     C  942  4.33                             149    0.1110 80.7  35 
 PAM  EN ES   2    942 21.13                             149   -0.42 5 80.7  35 
 PAM  EZ I         942 23.66         5.8 0.44            155           80.7  35 
 RUS  HZ EP   2    942  4.98                             145   -0.13 5 94.2 178 
 RUS  HN ES   2    942 22.58                             145   -0.56 5 94.2 178 
 RUS  HZ I         942 24.75         7.1 0.26            150           94.2 178 
 PTB  HZ EP        942  8.94                             131   -0.03 9  149 261 
 PTB  HN ES   2    942 29.64                             131   -0.37 5  149 261 
 PTB  HZ I         942 32.37         6.9 0.18            133            149 261 
 SPBC HZ EP   2    942 10.92                             129    0.85 5  160 221 
 SPBC HN ES   3    942 33.21                             129    1.24 2  160 221 
 SPBC HZ I         942 36.54         4.1 0.16            132            160 221 
 ZAR  HZ EP        942 14.63                             121   -0.21 8  209 293 
 ZAR  HN ES   2    942 39.91                             121   -0.55 4  209 293 
 ZAR  HZ I         942 46.38         7.4 0.30            124            209 293 
 NOR  HN ES   2    942 44.99                             118   -0.17 4  233 236 
 NOR  HZ I         942 47.47         3.1 0.16            121            233 236 
 PTGC HZ EP   2    942 24.76                             112   -0.23 4  302 159 
 PTGC HN ES   3    942 56.90                             112   -1.63 2  302 159 
                                                                                
