 2013  828 0741 50.4 L   6.711 -73.206142.0  RSN  4 0.4 1.1LRSN                1
 GAP=221        0.92      10.2     6.7  8.5  0.1957E+02  0.4361E+01  0.6851E+01E
 Epicentro: VILLANUEVA - SANTANDER                                             3
 ACTION:UPD 14-01-14 09:07 OP:ep   STATUS:               ID:20130828074150 L   I
 OLDACT:REG 13-08-28 07:38 OP:nd   STATUS:               ID:20130828073959     3
 2013-08-28-0739-59M.COL___270                                                 6
 STAT SP IPHASW D HRMM SECON CODA AMPLIT PERI AZIMU VELO AIN AR TRES W  DIS CAZ7
 BAR2 SZ EP        742  9.30                             174   -0.1410 13.3 169 
 BAR2 SZ ES   2    742 23.54                             174   -0.73 5 13.3 169 
 BAR2 SZ I         742 25.81         2.7 0.18            177           13.3 169 
 BRR  HZ EP        742 11.16                             152    0.0010 71.1 308 
 BRR  HN ES        742 27.86                             152    0.5310 71.1 308 
 BRR  HZ I         742 33.16         2.5 0.38            149           71.1 308 
 PTB  HZ EP        742 16.26                             133   -0.08 9  140 262 
 PTB  HN ES        742 36.82                             133    0.26 9  140 262 
 PTB  HZ I         742 39.82         1.3 0.52            135            140 262 
 ZAR  HZ EP        742 22.65                             122    0.24 9  202 295 
 ZAR  HN ES        742 46.62                             122   -0.74 9  202 295 
 ZAR  HZ I         742 53.18         1.3 0.66            124            202 295 
                                                                                
