 2014 1228 0732 42.6 L   6.785 -73.139151.2  RSN 11 0.4 2.1LRSN                1
 GAP=138        1.11       4.3     4.3  7.0 -0.3395E+01  0.7743E+01 -0.4956E+00E
 Epicentro: LOS SANTOS - SANTANDER                                             3
 ACTION:UPD 15-02-10 17:07 OP:nd   STATUS:               ID:20141228073242 L   I
 OLDACT:UP  14-12-28 18:01 OP:mh   STATUS:               ID:20141228072740     3
 OLDACT:REG 14-12-28 12:57 OP:mh   STATUS:               ID:20141228072740     3
 2014-12-28-0727-40M.COL___262                                                 6
 STAT SP IPHASW D HRMM SECON CODA AMPLIT PERI AZIMU VELO AIN AR TRES W  DIS CAZ7
 BAR2 EZ EP        733  3.00                             171    0.1510 21.8 193 
 BAR2 EZ I         733 19.15        40.4 0.20            172           21.8 193 
 BRR  HZ EP        733  4.80                             153    0.3810 72.6 299 
 BRR  HN ES        733 22.11                             153    0.6710 72.6 299 
 BRR  HZ I         733 25.38        16.8 0.14            151           72.6 299 
 PAM  SZ EP        733  5.69                             151    0.2510 78.2  38 
 PAM  SN ES        733 22.93                             151   -0.3410 78.2  38 
 PAM  SZ I         733 25.06        23.1 0.50            152           78.2  38 
 RUS  HZ EP        733  6.04                             145   -0.7310 98.8 176 
 RUS  HN ES        733 25.91                             145    0.2910 98.8 176 
 RUS  HZ I         733 26.53        15.9 0.36            148           98.8 176 
 PTB  HZ EP        733  9.65                             133   -0.40 9  148 260 
 PTB  HN ES        733 31.21                             133   -0.25 9  148 260 
 PTB  HZ I         733 37.57         7.7 0.18            133            148 260 
 SPBC HZ EP        733 11.82                             130    0.38 9  162 220 
 SPBC HN ES        733 33.23                             130   -0.71 9  162 220 
 SPBC HZ I         733 36.56        26.5 0.22            131            162 220 
 ZAR  HZ EP        733 15.52                             123   -0.02 8  205 293 
 ZAR  HN ES        733 40.66                             123   -0.57 8  205 293 
 ZAR  HZ I         733 47.83         9.8 0.40            123            205 293 
 NOR  HZ EP        733 19.39                             120    0.78 8  234 235 
 NOR  HN ES        733 46.67                             120   -0.02 8  234 235 
 NOR  HZ I         733 52.16        10.4 0.44            120            234 235 
 SML  HZ EP        733 19.38                             118   -0.35 8  246 335 
 SML  HN ES   4    733 48.00                             118   -0.69 0  246 335 
 SML  HZ I         733 56.66        13.4 0.10            119            246 335 
 HEL  HZ EP   1    733 23.47                             116    0.35 6  272 256 
 HEL  HN ES        733 55.08                             116    0.34 8  272 256 
 HEL  HZ I         734  3.07         5.6 0.28            116            272 256 
 MON  HZ EP   4    733 30.08                             109   -1.92 0  355 309 
 MON  HN ES   4    734  8.37                             109   -2.16 0  355 309 
 MON  HZ I         734 10.93         2.1 0.70            110            355 309 
                                                                                
