 2012  428 0907 33.0 L   6.697 -73.267145.9  RSN  4 0.4 1.2LRSN                1
 GAP=189        1.02       9.9    10.5 13.8  0.5540E+02 -0.3596E+02 -0.1439E+02E
 Epicentro: GALAN - SANTANDER                                                  3
 ACTION:UPD 12-07-05 11:56 OP:tino STATUS:               ID:20120428090733 L   I
 2012-04-28-0900-00M.COL___189                                                 6
 STAT SP IPHASW D HRMM SECON CODA AMPLIT PERI AZIMU VELO AIN AR TRES W  DIS CAZ7
 BAR2 SZ EP   1    9 7 51.86                             174    -0.6 7   15 141 
 BRR  HZ EP        9 7 53.61                             154    -0.310   67 313 
 BRR  HZ I         9 7 54.04         3.7 0.13                            67 313 
 BRR  HN ES   1    9 8 10.71                             154     0.5 7   67 313 
 RUS  HZ EP        9 7 56.62                             146     0.610   91 167 
 RUS  HN ES   1    9 8 13.77                             146    -0.3 7   91 167 
 RUS  HZ I         9 8 15.76         1.8 0.32                            91 167 
 PTB  HZ EP   2    9 7 58.80                             135     0.2 5  133 263 
 PTB  HN ES   1    9 8 18.44                             135    -0.2 7  133 263 
                                                                                
