 2012  328 0455 40.0 L   7.401 -73.185128.1  RSN  6 0.2 1.2LRSN                1
 GAP=184        0.48       6.6     3.3  5.1 -0.7227E+01  0.5060E+01 -0.1670E+01E
 ACTION:UP  12-03-31 23:23 OP:EP   STATUS:               ID:20120328045540 L   I
 2012-03-28-0450-00M.COL___196                                                 6
 STAT SP IPHASW D HRMM SECON CODA AMPLIT PERI AZIMU VELO SNR AR TRES W  DIS CAZ7
 PAM  SZ EP        455 59.04                             156     0.010   54  97 
 PAM  SN ES   1    456 13.92                             156     0.1 7   54  97 
 BRR  HZ EP        455 59.01                             151     0.010   67 241 
 BRR  HE ES   1    456 13.63                             151    -0.2 7   67 241 
 BRR  HZ I         456 14.94         4.2 0.12                            67 241 
 BAR2 SZ ES   2    456 17.14                             143     0.0 5   89 180 
 BAR2 SZ I         456 18.25         4.5 0.44                            89 180 
 RUS  HZ EP   2    456  7.56                             124    -0.6 5  167 176 
 PTB  HZ EP        456  7.92                             123     0.1 9  170 236 
 PTB  HE ES   2    456 29.83                             123     0.4 5  170 236 
 PTB  HZ I         456 33.09         1.4 0.20                           170 236 
 ZAR  HN ES   2    456 31.88                             121    -0.3 4  185 273 
 ZAR  HZ I         456 36.67         1.8 0.34                           185 273 
                                                                                
