 2012  628 0901 51.2 L   6.717 -73.185145.8  RSN  6 0.4 1.5LRSN                1
 GAP=178        0.77       5.7     6.2  7.4  0.1610E+02  0.8781E+01 -0.3208E+01E
 Epicentro: VILLANUEVA - SANTANDER                                             3
 ACTION:UPD 12-08-06 17:53 OP:ep   STATUS:               ID:20120628090151 L   I
 2012-06-28-0900-00M.COL___201                                                 6
 STAT SP IPHASW D HRMM SECON CODA AMPLIT PERI AZIMU VELO AIN AR TRES W  DIS CAZ7
 BAR2 SZ EP   1    9 2 10.73                             175    0.06 7 13.8 179 
 BAR2 SZ ES   1    9 2 26.28                             175    0.41 7 13.8 179 
 BAR2 SZ I         9 2 26.91         9.3 0.43                          13.8 179 
 BRR  HZ EP   1    9 2 12.59                             152    0.17 7 72.5 307 
 BRR  HN ES   1    9 2 29.29                             152    0.31 7 72.5 307 
 BRR  HZ I         9 2 30.40        10.8 0.13                          72.5 307 
 RUS  HZ EP   1    9 2 14.75                             147    0.41 7 91.8 173 
 RUS  HZ I         9 2 15.94         5.3 0.15                          91.8 173 
 RUS  HN ES   1    9 2 31.58                             147   -0.81 7 91.8 173 
 PTB  HZ EP   1    9 2 17.44                             133   -0.20 7  142 262 
 PTB  HN ES   1    9 2 38.26                             133   -0.01 7  142 262 
 PTB  HZ I         9 2 41.01         2.3 0.22                           142 262 
 OCA  HN ES   2    9 2 42.34                             128   -0.72 5  169 355 
 ZAR  HZ EP   1    9 2 23.87                             122    0.26 6  204 295 
 ZAR  HN ES   1    9 2 48.50                             122   -0.39 6  204 295 
                                                                                
