 2017  228 0038 49.9 L   6.346 -73.683108.4  RSN  4 0.1 1.3LRSN                1
 GAP=157        0.30       1.8     1.4  2.9  0.9985E+00  0.9760E+00  0.1036E+01E
 Epicentro: SANTA HELENA DEL OPON - SANTANDER                                  3
 ACTION:UPD 17-05-24 15:41 OP:jn   STATUS:               ID:20170228003849 L   I
 OLDACT:REG 17-02-28 20:32 OP:and  STATUS:               ID:20170228002709     3
 2017-02-28-0028-00M.COL___373                                                 6
 STAT SP IPHASW D HRMM SECON CODA AMPLIT PERI AZIMU VELO AIN AR TRES W  DIS CAZ7
 BAR2 EZ EP        039  6.90                             148   -0.0010 61.7  64 
 BAR2 EZ ES        039 20.18                             148    0.0510 61.7  64 
 BAR2 EZ I         039 20.93        14.7 0.14            152           61.7  64 
 RUS  HZ EP        039  8.91                             140    0.1110 83.3 127 
 RUS  HE ES        039 23.42                             140   -0.0910 83.3 127 
 RUS  HZ I         039 24.78         3.8 0.20            142           83.3 127 
 BRR  HZ EP        039  8.13                             139   -0.0610 84.2 358 
 BRR  HE ES        039 22.41                             139   -0.0110 84.2 358 
 PTB  HZ EP        039  8.50                             138   -0.0310 88.1 284 
 PTB  HE ES        039 23.06                             138    0.0310 88.1 284 
 PTB  HZ I         039 25.02         2.4 0.10            139           88.1 284 
                                                                                
