 2017 1128 0113 59.8 L   6.805 -73.174131.8  RSN  6 0.4 1.4LRSN                1
 GAP=143        1.06       5.7     5.5  8.9 -0.1491E+02  0.1825E+02 -0.4594E+01E
 Epicentro: LOS SANTOS - SANTANDER                                             3
 ACTION:UPD 17-12-12 20:01 OP:rebc STATUS:               ID:20171128011359 L   I
 OLDACT:UP  17-11-28 13:56 OP:dani STATUS:               ID:20171128010741d    3
 OLDACT:UP  17-11-28 13:56 OP:dani STATUS:               ID:20171128010741d    3
 OLDACT:DUP 17-11-28 13:54 OP:dani STATUS:               ID:20171128010741d    3
 2017-11-28-0108-00M.COL___494                                                 6
 STAT SP IPHASW D HRMM SECON CODA AMPLIT PERI AZIMU VELO AIN AR TRES W  DIS CAZ7
 BAR2 EZ EP        114 18.63                             169    0.9010 23.5 182 
 BAR2 EZ ES        114 31.39                             169   -0.3510 23.5 182 
 BAR2 EZ I         114 33.42         7.4 0.22            171           23.5 182 
 PAM  EZ EP        114 20.37                             147   -0.2610 79.0  42 
 PAM  EE ES        114 37.16                             147    0.2710 79.0  42 
 PAM  EZ I         114 39.08         9.6 0.72            149           79.0  42 
 RUS  HZ EP        114 21.96                             140   -0.2810  101 174 
 RUS  HN ES        114 39.55                             140   -0.2110  101 174 
 RUS  HZ I         114 40.93         2.1 0.24            143            101 174 
 PTB  HZ EP        114 24.97                             129   -0.38 9  145 258 
 PTB  HN ES        114 45.14                             129   -0.17 9  145 258 
 PTB  HZ I         114 47.25         3.5 0.12            131            145 258 
 SPBC HE ES   1    114 49.06                             126    0.67 7  162 218 
 NOR  HE ES        115  1.69                             116    0.13 8  232 234 
                                                                                
