 2017  528 0642 49.9 L   7.460 -73.148124.0  RSN 15 0.6 2.3LRSN                1
 GAP=248        1.05       5.2     5.0  7.3  0.1157E+02 -0.5219E+01 -0.1468E+00E
 Epicentro: EL PLAYON - SANTANDER                                              3
 ACTION:UPD 17-06-16 13:39 OP:jn   STATUS:               ID:20170528064249 L   I
 OLDACT:UP  17-05-28 16:54 OP:cog  STATUS:               ID:20170528063744     3
 OLDACT:REG 17-05-28 13:22 OP:dnl  STATUS:               ID:20170528063744     3
 2017-05-28-0638-00M.COL___335                                                 6
 STAT SP IPHASW D HRMM SECON CODA AMPLIT PERI AZIMU VELO AIN AR TRES W  DIS CAZ7
 BRR  HZ EP        643  8.97                             148    0.0610 73.5 238 
 BRR  HN ES        643 24.28                             148    0.5610 73.5 238 
 BRR  HZ I         643 25.44        69.9 0.10            138           73.5 238 
 RUS  HZ EP        643 17.69                             122   -0.74 9  174 178 
 RUS  HN ES        643 40.65                             122   -0.02 9  174 178 
 RUS  HZ I         643 43.75        12.7 0.34            118            174 178 
 PTB  HZ EP        643 17.78                             122   -0.37 9  177 235 
 PTB  HN ES        643 39.35                             122   -0.83 9  177 235 
 PTB  HZ I         643 42.40        14.2 0.18            117            177 235 
 ZAR  HZ EP        643 19.20                             120   -0.21 9  189 271 
 ZAR  HN ES        643 42.57                             120    0.16 9  189 271 
 SPBC HZ EP        643 23.26                             115   -0.14 8  225 207 
 SPBC HE ES        643 50.34                             115    0.82 8  225 207 
 SPBC HZ I         643 57.08        23.7 0.42            111            225 207 
 YPLC HZ EP        643 25.56                             113    0.06 8  243 160 
 YPLC HN ES        643 53.12                             113   -0.13 8  243 160 
 NOR  HZ EP        643 29.56                             109   -0.45 7  283 222 
 NOR  HE ES        644  1.34                             109    0.06 7  283 222 
 NOR  HZ I         644  6.55        18.6 0.32            106            283 222 
 HEL  HZ EP        643 33.02                             108    0.88 7  298 242 
 HEL  HN ES   3    644  2.92                             108   -2.16 2  298 242 
 ROSC BZ EP   3    643 36.20                             107    1.80 2  317 204 
 ROSC BN ES   4    644 13.45                             107    4.35 0  317 204 
 CHI  HZ EP        643 35.10                             107    0.42 7  320 192 
 CHI  HN ES        644 10.08                             107    0.48 7  320 192 
 CHI  HZ I         644 19.41         4.3 0.26            104            320 192 
 CBOC HZ EP        643 39.35                             104   -0.09 6  363 241 
 CBOC HE ES   4    644 11.09                             104   -6.97 0  363 241 
 CBOC HZ I         644 24.58         4.2 0.80            102            363 241 
 PTGC HZ EP   9    643 39.54                             103   -1.48 0  378 163 
 PTGC HN ES        644 18.92                             103   -0.48 6  378 163 
 ELA  HZ EP   4    643 44.50                             103    2.49 0  380 221 
 ELA  HE ES        644 21.52                             103   -1.11 6  380 221 
 ELA  HZ I         644 31.99        10.7 0.52            101            380 221 
 ANIL HZ EP   4    643 48.23                             102    2.71 0  412 217 
 ANIL HN ES        644 29.43                             102    0.53 6  412 217 
 ORTC HZ EP        643 51.14                             100    0.68 5  456 211 
 ORTC HN ES   3    644 38.67                             100    0.99 1  456 211 
                                                                                
