 2017  328 0744 56.7 L   6.831 -73.085153.2  RSN  6 0.3 1.1LRSN                1
 GAP=246        0.49       4.1     6.5  5.3  0.1614E+02 -0.1328E+02 -0.4925E+01E
 Epicentro: LOS SANTOS - SANTANDER                                             3
 ACTION:UPD 17-05-25 18:46 OP:jn   STATUS:               ID:20170328074456 L   I
 OLDACT:UP  17-03-28 16:47 OP:and  STATUS:               ID:20170328073743     3
 OLDACT:UP  17-03-28 16:47 OP:and  STATUS:               ID:20170328073743     3
 OLDACT:UP  17-03-28 16:47 OP:and  STATUS:               ID:20170328073743     3
 OLDACT:REG 17-03-28 12:50 OP:and  STATUS:               ID:20170328073743     3
 2017-03-28-0738-00M.COL___360                                                 6
 STAT SP IPHASW D HRMM SECON CODA AMPLIT PERI AZIMU VELO AIN AR TRES W  DIS CAZ7
 BAR2 EZ EP        745 17.23                             169   -0.0910 28.5 202 
 BAR2 EZ ES   2    745 32.99                             169   -0.43 5 28.5 202 
 BRR  HZ EP        745 18.99                             152    0.1010 75.7 294 
 BRR  HN ES        745 36.35                             152    0.1310 75.7 294 
 RUS  HZ EP        745 21.35                             144   -0.0510  104 180 
 RUS  HN ES        745 40.66                             144   -0.0110  104 180 
 RUS  HZ I         745 42.09         1.2 0.36            137            104 180 
 PTB  HZ EP   9    745 24.00                             132   -0.92 0  155 258 
 PTB  HN ES   2    745 45.41                             134   -0.61 5  155 258 
 PTB  HZ I         745 48.99         1.2 0.16            126            155 258 
 SPBC HZ EP   2    745 26.56                             129    0.15 5  170 220 
 SPBC HN ES   2    745 49.88                             129    0.29 5  170 220 
 SPBC HZ I         745 55.29         2.2 0.23            123            170 220 
 ZAR  HN ES   3    745 54.86                             123   -1.37 2  209 291 
                                                                                
