 2012  228 0228 45.7 L   5.944 -73.788107.5  RSN  7 0.4 2.4LRSN                1
 GAP= 83        1.03       3.8     4.3 10.1 -0.7568E+00  0.2150E+02 -0.1894E+01E
 ACTION:UP  12-03-07 16:34 OP:epov STATUS:               ID:20120228022845 L   I
 2012-02-28-0220-00M.COL___191                                                 6
 STAT SP IPHASW D HRMM SECON CODA AMPLIT PERI AZIMU VELO AIN AR TRES W  DIS CAZ7
 RUS  HZ EP        229  4.40                             141    0.2710 78.3  94 
 RUS  HN ES        229 17.95                             141   -0.5210 78.3  94 
 BAR2 SZ EP        229  5.90                             134    0.5010 98.1  43 
 BAR2 SZ ES        229 21.02                             134    0.2910 98.1  43 
 BAR2 SZ I         229 22.95        87.7 0.35                          98.1  43 
 PTB  HZ EP        229  4.38                             134   -0.8010 99.0 312 
 PTB  HN ES   2    229 21.00                             134    0.67 5 99.0 312 
 NOR  SZ EP        229  8.33                             126    0.4910  127 251 
 NOR  SN ES   1    229 25.20                             126    0.12 7  127 251 
 BRR  HZ EP        229  8.09                             125    0.1310  129   4 
 BRR  HZ I         229 29.28        34.7 0.13                           129   4 
 CHI  HZ EP        229 10.21                             122    0.02 9  146 178 
 CHI  HE ES   1    229 29.00                             122   -0.26 7  146 178 
 ZAR  HZ EP        229 16.05                             112   -0.43 8  208 325 
 ZAR  HN ES   1    229 40.15                             112   -0.30 6  208 325 
 ZAR  HZ I         229 44.60        15.0 0.39                           208 325 
                                                                                
