 2015  528 0002 54.1 L   6.804 -73.126148.6  RSN 13 0.3 2.0LRSN                1
 GAP=139        0.71       2.2     3.5  4.6 -0.1632E+01  0.2494E+01  0.1321E+01E
 Epicentro: LOS SANTOS - SANTANDER                                             3
 ACTION:UPD 15-09-10 22:07 OP:cam  STATUS:               ID:20150528000254 L   I
 OLDACT:REG 15-05-28 12:30 OP:spq  STATUS:               ID:20150528000005     3
 2015-05-28-0000-05M.COL___309                                                 6
 STAT SP IPHASW D HRMM SECON CODA AMPLIT PERI AZIMU VELO AIN AR TRES W  DIS CAZ7
 BAR2 EZ EP        0 3 13.98                             170   -0.1410 24.2 195 
 BAR2 EZ ES   1    0 3 29.81                             170    0.10 7 24.2 195 
 BAR2 EZ I         0 3 32.00        10.6 0.20            168           24.2 195 
 BRR  HZ EP        0 3 15.75                             152    0.0610 72.9 297 
 BRR  HE ES        0 3 33.04                             152    0.5410 72.9 297 
 BRR  HZ I         0 3 35.90        17.0 0.30            151           72.9 297 
 PAM  SZ EP        0 3 16.75                             152    0.2010 75.6  38 
 PAM  SN ES        0 3 33.89                             152   -0.1410 75.6  38 
 PAM  SZ I         0 3 36.03        20.1 0.48            155           75.6  38 
 RUS  HZ EP        0 3 18.40                             144    0.2110  101 177 
 RUS  HN ES   1    0 3 36.80                             144   -0.15 7  101 177 
 RUS  HZ I         0 3 37.90        12.1 0.36            145            101 177 
 OCA  HZ EP   1    0 3 22.61                             130   -0.04 7  160 352 
 OCA  HN ES        0 3 44.65                             130   -0.24 9  160 352 
 OCA  HZ I         0 3 47.65        27.7 0.18            132            160 352 
 SPBC HE ES        0 3 45.07                             129   -0.47 9  165 219 
 SPBC HZ I         0 3 47.62        14.3 0.32            129            165 219 
 ZAR  HE ES   1    0 3 52.97                             123    0.41 6  206 292 
 ZAR  HZ I         0 3 57.88        13.8 0.24            123            206 292 
 NOR  HN ES        0 3 58.10                             119   -0.32 8  237 235 
 NOR  HZ I         0 4  3.33         4.5 0.16            119            237 235 
 SML  HZ EP   1    0 3 31.08                             118    0.10 6  244 335 
 SML  HN ES   1    0 3 58.94                             118   -0.77 6  244 335 
 SML  HZ I         0 4  2.02        15.5 0.10            119            244 335 
 CHI  HZ EP   1    0 3 32.33                             118    0.23 6  250 196 
 CHI  HN ES   1    0 4  1.46                             118   -0.26 6  250 196 
 CHI  HZ I         0 4  7.89         5.1 0.32            118            250 196 
 GUY2CHZ EP   4    0 3 39.38                             113    1.27 0  303 235 
 GUY2CHE ES   4    0 4 16.31                             113    3.90 0  303 235 
 GUY2CHZ I         0 4 24.63         3.2 0.38                           303 235 
 MON  HN ES   4    0 4 19.70                             109   -2.15 0  355 308 
 MON  HZ I         0 4 22.18         1.8 0.22            110            355 308 
 PRA  HZ EP        0 3 48.04                             107    0.11 6  393 210 
 PRA  HN ES   1    0 4 30.76                             107    0.87 4  393 210 
 PRA  HZ I         0 4 36.46         4.0 0.34            107            393 210 
                                                                                
