 2016 1228 0812 17.0 L   6.762 -73.138146.2  RSN  6 0.4 1.3LRSN                1
 GAP=139        1.10       5.5     4.9  7.4  0.2687E+01  0.9168E+01 -0.1925E+01E
 Epicentro: LOS SANTOS - SANTANDER                                             3
 ACTION:UPD 17-01-11 20:20 OP:rebc STATUS:               ID:20161228081217 L   I
 OLDACT:UP  16-12-28 16:07 OP:dnl  STATUS:               ID:20161228080748d    3
 OLDACT:DUP 16-12-28 15:42 OP:dnl  STATUS:               ID:20161228080748d    3
 2016-12-28-0808-00M.COL___356                                                 6
 STAT SP IPHASW D HRMM SECON CODA AMPLIT PERI AZIMU VELO AIN AR TRES W  DIS CAZ7
 BAR2 EZ EP        812 36.61                             172    0.0210 19.4 195 
 BAR2 EZ ES        812 51.54                             172   -0.3510 19.4 195 
 BAR2 EZ I         812 54.46         4.0 0.24            178           19.4 195 
 BRR  HZ EP        812 38.66                             152    0.3210 74.0 301 
 BRR  HE ES        812 55.94                             152    0.9510 74.0 301 
 BRR  HZ I         812 56.02         9.1 0.40            152           74.0 301 
 PAM  EZ EP        812 39.41                             150   -0.0010 80.2  37 
 PAM  EN ES        812 56.48                             150   -0.4310 80.2  37 
 PAM  EZ I         813  8.13         3.1 0.46            149           80.2  37 
 RUS  HZ EP        812 40.95                             145    0.4810 96.3 176 
 RUS  HE ES        812 58.65                             145   -0.1510 96.3 176 
 RUS  HZ I         813  1.06         1.6 0.64            152           96.3 176 
 PTB  HZ EP        812 43.53                             132   -0.46 9  148 261 
 PTB  HN ES        813  4.92                             132   -0.13 9  148 261 
 PTB  HZ I         813  9.86         3.0 0.22            136            148 261 
 ZAR  HZ EP        812 49.78                             122    0.08 8  206 293 
 ZAR  HE ES        813 14.66                             122   -0.56 8  206 293 
 ZAR  HZ I         813 22.12         2.9 0.26            125            206 293 
                                                                                
