 2012  928 0957 42.0 L   6.543 -73.769 93.8  RSN  5 0.3 1.5LRSN                1
 GAP=136        0.66       5.6     5.2  8.6  0.1603E+02  0.1605E+02  0.8036E+01E
 Epicentro: SANTA HELENA DEL OPON - SANTANDER                                  3
 ACTION:UPD 12-10-22 14:21 OP:ep   STATUS:               ID:20120928095742 L   I
 2012-09-28-0950-00M.COL___213                                                 6
 STAT SP IPHASW D HRMM SECON CODA AMPLIT PERI AZIMU VELO AIN AR TRES W  DIS CAZ7
 BRR  HZ EP   1    957 56.58                             144   -0.60 7 62.6   6 
 BRR  HN ES   2    958  9.35                             144    0.32 5 62.6   6 
 BAR2 SZ EP   1    957 57.46                             143   -0.23 7 65.1  85 
 BAR2 SZ ES   1    958 10.17                             143    0.22 7 65.1  85 
 BAR2 SZ I         958 12.09        12.2 0.18                          65.1  85 
 PTB  HN ES   2    958 10.87                             138   -0.06 5 76.0 270 
 RUS  HZ EP   1    958  1.84                             129    0.38 7  105 133 
 RUS  HN ES   1    958 16.48                             129   -0.18 7  105 133 
 ZAR  HZ EP   1    958  6.96                             116    0.35 7  160 311 
 ZAR  HZ I         958 31.46         4.3 0.24                           160 311 
                                                                                
