 2015  328 0442 26.9 L   6.705 -73.156146.7  RSN  6 0.5 1.2LRSN                1
 GAP=229        1.22       6.9     8.0 10.5  0.1356E+02  0.2335E+02 -0.4202E+00E
 Epicentro: VILLANUEVA - SANTANDER                                             3
 ACTION:UPD 15-04-30 16:30 OP:nd   STATUS:               ID:20150328044226 L   I
 OLDACT:REG 15-03-28 13:31 OP:fm   STATUS:               ID:20150328043747     3
 2015-03-28-0437-47M.COL___275                                                 6
 STAT SP IPHASW D HRMM SECON CODA AMPLIT PERI AZIMU VELO AIN AR TRES W  DIS CAZ7
 BAR2 EZ EP        442 46.83                             175    0.3910 12.8 193 
 BAR2 EZ ES        443  1.58                             175   -0.1310 12.8 193 
 BAR2 EZ I         443  3.43         4.9 0.24            171           12.8 193 
 BRR  HZ EP        442 48.70                             151    0.3210 75.8 306 
 BRR  HN ES        443  5.48                             151    0.3210 75.8 306 
 BRR  HZ I         443  9.31         3.1 0.40            148           75.8 306 
 RUS  HN ES        443  7.33                             147   -0.7010 90.2 175 
 PTB  HZ EP   1    442 52.75                             133   -0.91 7  145 263 
 PTB  HE ES        443 14.25                             133   -0.30 9  145 263 
 PTB  HZ I         443 18.00         1.6 0.52            132            145 263 
 SPBC HZ EP   1    442 54.74                             131    0.12 7  154 221 
 SPBC HN ES        443 17.10                             131    0.84 9  154 221 
 SPBC HZ I         443 20.45         2.8 0.32            131            154 221 
 ZAR  HN ES   1    443 24.67                             122   -0.63 6  207 295 
 ZAR  HZ I         443 30.70         1.3 0.28            122            207 295 
                                                                                
