 2016 1028 0926 31.8 L   6.378 -73.583108.9  RSN  6 0.3 1.1LRSN                1
 GAP=122        0.80       4.1     3.2  5.8 -0.2482E+01  0.4237E+01 -0.3110E+01E
 Epicentro: SANTA HELENA DEL OPON - SANTANDER                                  3
 ACTION:UPD 16-11-09 19:23 OP:rebc STATUS:               ID:20161028092631 L   I
 OLDACT:REG 16-10-28 15:24 OP:cog  STATUS:               ID:20161028091742     3
 2016-10-28-0918-00M.COL___340                                                 6
 STAT SP IPHASW D HRMM SECON CODA AMPLIT PERI AZIMU VELO AIN AR TRES W  DIS CAZ7
 BAR2 EZ IP        926 48.38                             154    0.2210 50.2  62 
 BAR2 EZ ES        927  1.33                             154    0.4410 50.2  62 
 BAR2 EZ I         927  2.30         7.4 0.72            159           50.2  62 
 RUS  HZ EP        926 49.96                             142   -0.3010 77.0 134 
 RUS  HE ES        927  4.25                             142   -0.3810 77.0 134 
 RUS  HZ I         927  7.73         1.8 0.26            145           77.0 134 
 SPBC HZ EP        926 51.52                             135    0.2310 96.8 214 
 SPBC HN ES        927  6.65                             135    0.1710 96.8 214 
 SPBC HZ I         927 12.35         4.8 0.24            136           96.8 214 
 PTB  HZ EP        926 51.00                             135   -0.3210 98.3 281 
 PTB  HN ES        927  6.26                             135   -0.2610 98.3 281 
 PTB  HZ I         927  8.91         3.1 0.16            138           98.3 281 
 PAM  EZ EP        926 56.25                             123   -0.10 9  144  42 
 GUY2CHZ EP        927  6.72                             110    0.43 8  235 237 
 GUY2CHN ES   4    927 34.62                             110    1.46 0  235 237 
 GUY2CHZ I         927 40.53         0.8 0.54                           235 237 
                                                                                
