 2013 1128 0504 40.9 L   6.776 -73.175153.4  RSN  6 0.6 1.7LRSN 2.4WRSN        1
 SPEC AVERAGE  MO 12.7 ST 72.9 OM  1.2 f0 22.1 R0.1136 AL 0.00 WI 20.0 MW  2.4 3
 SPEC SD       MO  0.1 ST 94.3 OM  0.5 f0 12.7 R0.0463 AL      WI      MW  0.1 3
 GAP=142        1.57       7.1     8.6 10.4 -0.2092E+02  0.1810E+02 -0.8957E+01E
 Epicentro: LOS SANTOS - SANTANDER                                             3
 SPEC BAR2SH Z MO 12.8 ST  8.0 OM  0.9 f0 13.1 R0.1469 AL-0.00 WI 20.0 MW  2.5 3
 SPEC BAR2SH Z T 5 515 K 0.050 GD  154 VS 5.20 DE 3.20 Q0750.0 QA 1.50 VS 5.20 3
 SPEC BRR HH Z MO 12.5 ST  4.5 OM  0.6 f0 13.2 R0.1458 AL-0.00 WI 20.0 MW  2.3 3
 SPEC BRR HH Z T 5 519 K 0.050 GD  168 VS 5.20 DE 3.20 Q0750.0 QA 1.50 VS 5.20 3
 SPEC SPBCHH Z MO 12.7 ST206.3 OM  0.7 f0 40.0 R0.0481 AL-0.00 WI 20.0 MW  2.4 3
 SPEC SPBCHH Z T 5 529 K 0.050 GD  220 VS 5.20 DE 3.20 Q0750.0 QA 1.50 VS 5.20 3
 2013-11-28-0458-09M.COL___244                                                 6
 OLDACT:REG 13-11-28 07:57 OP:stll STATUS:               ID:20131128045809     3
 ACTION:UPD 14-01-09 16:31 OP:ep   STATUS:               ID:20131128050440 L   I
 OLDACT:UP  13-11-28 10:36 OP:stll STATUS:               ID:20131128045809     3
 STAT SP IPHASW D HRMM SECON CODA AMPLIT PERI AZIMU VELO AIN AR TRES W  DIS CAZ7
 BAR2 SZ EP        5 5  1.40                             172    0.0510 20.3 182 
 BAR2 SZ ES        5 5 17.39                             172    0.0610 20.3 182 
 BAR2 SZ I         5 5 18.01        10.0 0.30            171           20.3 182 
 BRR  HZ EP        5 5  3.26                             154    0.5010 69.8 302 
 BRR  HZ I         5 5  3.44         8.5 0.22            150           69.8 302 
 BRR  HN ES        5 5 21.16                             154    1.3210 69.8 302 
 PAM  SZ EP        5 5  4.00                             151   -0.1310 81.5  40 
 PAM  SN ES        5 5 21.66                             151   -0.6210 81.5  40 
 PTB  HZ EP        5 5  8.22                             134    0.09 9  144 260 
 PTB  HN ES        5 5 28.60                             134   -0.81 9  144 260 
 PTB  HZ I         5 5 36.71         4.5 0.42            132            144 260 
 SPBC HZ EP        5 5 10.21                             132    0.64 9  159 219 
 SPBC HN ES        5 5 31.14                             132   -0.83 9  159 219 
 SPBC HZ I         5 5 34.81         5.8 0.16            131            159 219 
 SML  HZ EP        5 5 18.01                             119   -0.03 8  245 336 
 SML  HE ES        5 5 46.44                             119   -0.61 8  245 336 
 SML  HZ I         5 5 50.86         6.8 0.34            119            245 336 
                                                                                
