 2010  828 0054 35.4 L   6.774 -73.049146.9  RSN 11 0.3 2.4LRSN                1
 GAP=170        0.72       2.8     5.8  5.2 -0.6261E+01  0.2255E+01  0.5609E+00E
 Epicentro: LOS SANTOS - SANTANDER                                             3
 ACTION:UP  10-09-07 10:58 OP:vdl  STATUS:               ID:20100828005435 L   I
 2010-08-28-0051-04S.COL___119                                                 6
 STAT SP IPHASW D HRMM SECON CODA AMPLIT PERI AZIMU VELO SNR AR TRES W  DIS CAZ7
 BAR2 SZ EP   1    054 55.31                             170     0.1 7   25 217 
 BAR2 SZ ES   1    055 10.47                             170    -0.2 7   25 217 
 BAR2 SZ I         055 12.00        45.1 0.32                            25 217 
 BRR  HZ IP     D  054 57.22                             149    -0.110   82 297 
 BRR  HE ES   1    055 14.75                             149     0.3 7   82 297 
 BRR  HZ I         055 16.39        38.7 0.15                            82 297 
 RUS  HZ EP        054 59.18                             145     0.110   98 182 
 RUS  HE ES   1    055 17.55                             145     0.0 7   98 182 
 RUS  HZ I         055 19.38        19.7 0.42                            98 182 
 GUE  SZ EP        055  0.32                             139     0.010  118   7 
 GUE  SZ I         055  1.82         9.2 0.10                           118   7 
 GRA  SZ IP        055  1.15                             137     0.310  126  12 
 GRA  SZ ES   1    055 20.80                             137     0.2 7  126  12 
 GRA  SZ I         055 22.09        27.5 0.24                           126  12 
 OCA  SZ EP        055  3.73                             129    -0.5 9  165 350 
 OCA  SZ ES   1    055 26.70                             129    -0.1 7  165 350 
 OCA  SZ I         055 32.06        30.8 0.30                           165 350 
 CHI  HZ EP   1    055 13.05                             117    -0.2 6  249 198 
 CHI  HE ES   2    055 42.53                             117    -0.2 4  249 198 
 CHI  HZ I         055 51.18        11.9 0.51                           249 198 
 HEL  HZ EP   2    055 16.89                             114     0.1 4  282 257 
 HEL  HZ I         055 53.64         8.9 0.23                           282 257 
 RREF HZ EP   1    055 23.22                             111     0.9 5  328 231 
 RREF HN ES   1    055 58.60                             111    -0.4 5  328 231 
 RREF HZ I         056  5.09        16.3 0.37                           328 231 
 ANIL HE ES   2    056  5.97                             108     0.6 3  363 226 
 ANIL HZ I         056  9.40        29.2 0.28                           363 226 
 PRA  HZ EP   2    055 28.75                             107    -0.6 3  395 211 
 PRA  HN ES   2    056 11.50                             107     0.1 3  395 211 
 PRA  HZ I         056 16.95        19.1 0.27                           395 211 
                                                                                
