 2011  128 0434 44.9 L   6.774 -73.147149.1  RSN 10 0.6 2.3LRSN                1
 GAP=126        1.40       5.6    11.9 10.1 -0.3013E+02  0.3147E+02 -0.2152E+01E
 Epicentro: LOS SANTOS - SANTANDER                                             3
 ACTION:UP  11-02-08 08:43 OP:pat  STATUS:               ID:20110128043444 L   I
 2011-01-28-0432-30S.COL___138                                                 6
 STAT SP IPHASW D HRMM SECON CODA AMPLIT PERI AZIMU VELO SNR AR TRES W  DIS CAZ7
 BAR2 SZ IP     C  435  4.78                             172    -0.110   21 191 
 BTL  SZ IP     D  435  4.98                             172     0.110   21 320 
 BTL  SZ ES   1    435 20.68                             172     0.2 7   21 320 
 BAR2 SZ ES   1    435 19.65                             172    -0.8 7   21 191 
 GIR2 SZ EP        435  3.94                             166    -1.110   34 351 
 RUS  HZ EP        435  8.65                             145    -0.110   98 176 
 RUS  HZ I         435  9.83        22.3 0.45                            98 176 
 RUS  HN ES   1    435 27.87                             145     0.5 7   98 176 
 GRA  SZ IP     C  435 11.61                             137     1.010  128  17 
 GRA  SZ ES        435 31.36                             137     0.610  128  17 
 GRA  SZ I         435 32.91        59.6 0.34                           128  17 
 OCA  SZ EP   1    435 13.23                             130    -0.5 7  163 353 
 OCA  SZ ES   1    435 35.74                             130    -0.5 7  163 353 
 OCA  SZ I         435 39.94        47.1 0.53                           163 353 
 NOR  SZ EP   1    435 20.47                             119    -0.2 6  233 235 
 NOR  SN ES   1    435 48.74                             119     0.2 6  233 235 
 NOR  SZ I         435 56.28         3.6 0.63                           233 235 
 CHI  HZ EP   1    435 22.88                             118     0.4 6  246 195 
 CHI  HE ES   1    435 52.00                             118     0.2 6  246 195 
 CHI  HZ I         436  1.71        16.6 0.49                           246 195 
 DBB  SZ EP   1    435 33.03                             110     0.5 5  340 275 
 SDV  BZ EP   2    435 33.93                             108    -1.3 3  362  50 
                                                                                
