 2011  528 0255 48.0 L   6.781 -73.076137.5  RSN  5 0.2 1.2LRSN                1
 GAP=167        0.44       4.2    11.4  7.4 -0.2146E+02  0.1153E+01 -0.1249E+02E
 Epicentro: LOS SANTOS - SANTANDER                                             3
 ACTION:UP  11-06-29 08:56 OP:tino STATUS:               ID:20110528025548 L   I
 2011-05-28-0254-02S.COL___115                                                 6
 STAT SP IPHASW D HRMM SECON CODA AMPLIT PERI AZIMU VELO SNR AR TRES W  DIS CAZ7
 BAR2 SZ EP   2    256  6.71                             170     0.0 5   24 210 
 BAR2 SZ ES   2    256 21.51                             170     0.3 5   24 210 
 BAR2 SZ I         256 24.36         6.9 0.38                            24 210 
 BTL  SZ EP        256  6.85                             169     0.110   26 306 
 BRR  HZ EP   2    256  8.45                             148    -0.3 5   79 297 
 RUS  HZ EP   2    256 10.86                             143     0.1 5   98 180 
 RUS  HE ES   2    256 28.20                             143    -0.4 5   98 180 
 RUS  HZ I         256 30.40         1.4 0.26                            98 180 
 GRA  SZ EP        256 12.60                             135     0.010  126  14 
 GRA  SZ I         256 13.77         2.1 0.31                           126  14 
 GRA  SZ ES   2    256 31.39                             135    -0.3 5  126  14 
                                                                                
