 2016  328 0442 30.4 L   6.810 -73.170144.3  RSN  7 0.2 1.2LRSN                1
 GAP=133        0.62       2.5     2.9  4.9 -0.8736E-01  0.4268E+01  0.1216E+01E
 Epicentro: LOS SANTOS - SANTANDER                                             3
 ACTION:UPD 16-05-13 21:28 OP:cam  STATUS:               ID:20160328043746dL   I
 OLDACT:DUP 16-03-28 16:35 OP:ak   STATUS:               ID:20160328043746dL   3
 OLDACT:DUP 16-03-28 16:27 OP:ak   STATUS:               ID:20160328043745dL   3
 OLDACT:UP  16-03-28 16:07 OP:ak   STATUS:               ID:20160328043744 L   3
 OLDACT:UPD 16-03-28 15:59 OP:Mher STATUS:               ID:20160328043744 L   3
 2016-03-28-0437-44M.COL___297                                                 6
 STAT SP IPHASW D HRMM SECON CODA AMPLIT PERI AZIMU VELO AIN AR TRES W  DIS CAZ7
 BAR2 EZ EP        442 49.57                             170   -0.3210 24.1 183 
 BAR2 EZ ES        443  4.79                             170   -0.2810 24.1 183 
 BAR2 EZ I         443  6.02         5.4 0.36            169           24.1 183 
 PAM  EZ EP        442 52.87                             150    0.3310 78.3  42 
 PAM  EN ES        443  9.95                             150    0.1710 78.3  42 
 PAM  EZ I         443 12.00         5.1 0.54            151           78.3  42 
 RUS  HZ EP        442 53.86                             143   -0.2610  102 175 
 RUS  HN ES        443 12.80                             143    0.2010  102 175 
 RUS  HZ I         443 13.57         1.0 0.36            143            102 175 
 PTB  HZ EP        442 56.95                             132   -0.10 9  145 258 
 PTB  HN ES        443 17.81                             132   -0.01 9  145 258 
 PTB  HZ I         443 18.59         1.9 0.25            133            145 258 
 OCA  HN ES   2    443 20.07                             129   -0.31 5  159 354 
 ZAR  HN ES        443 27.66                             122    0.19 9  201 292 
 CHI  HZ EP   2    443  7.82                             117   -0.26 4  249 195 
 CHI  HN ES        443 37.81                             117    0.37 8  249 195 
 CHI  HZ I         443 41.09         1.2 0.32            117            249 195 
                                                                                
