 2013 1028 0540  2.9 L   6.761 -73.117146.4  RSN  5 0.2 1.2LRSN                1
 GAP=142        0.54       2.7     3.7  4.8 -0.3210E+01  0.4084E+00  0.2593E+01E
 Epicentro: LOS SANTOS - SANTANDER                                             3
 ACTION:UPD 13-11-25 09:24 OP:ep   STATUS:               ID:20131028054002 L   I
 OLDACT:REG 13-10-28 08:18 OP:jn   STATUS:               ID:20131028054000     3
 2013-10-28-0540-00M.COL___273                                                 6
 STAT SP IPHASW D HRMM SECON CODA AMPLIT PERI AZIMU VELO AIN AR TRES W  DIS CAZ7
 BAR2 SZ EP   1    540 22.35                             172   -0.20 7 20.0 201 
 BRR  HZ EP        540 24.34                             151   -0.0610 76.0 300 
 BRR  HN ES        540 41.39                             151    0.2210 76.0 300 
 BRR  HZ I         540 45.94         2.8 0.42            150           76.0 300 
 PAM  SZ EP        540 25.39                             150    0.1110 78.9  36 
 PAM  SN ES        540 42.50                             150   -0.2310 78.9  36 
 PAM  SZ I         540 44.67         3.2 0.18            155           78.9  36 
 RUS  HZ EP        540 26.43                             145    0.0310 96.1 178 
 RUS  HN ES        540 44.93                             145    0.2110 96.1 178 
 RUS  HZ I         540 46.32         1.4 0.34            148           96.1 178 
 SPBC HZ EP        540 31.47                             129    0.15 9  162 221 
 SPBC HN ES        540 53.13                             129   -0.36 9  162 221 
 SPBC HZ I         540 59.31         3.8 0.14            131            162 221 
                                                                                
