 2017 1128 0750  6.5 L   6.876 -73.349114.0  RSN 23 0.7 2.1LRSN                1
 GAP= 53        1.51       2.8     3.1  7.1 -0.8979E+00  0.8069E+01 -0.7699E+00E
 Epicentro: SAN VICENTE DE CHUCURI - SANTANDER                                 3
 ACTION:UPD 17-12-12 20:01 OP:rebc STATUS:               ID:20171128075006 L   I
 OLDACT:UP  17-11-28 15:48 OP:dani STATUS:               ID:20171128074740     3
 OLDACT:UP  17-11-28 15:46 OP:dani STATUS:               ID:20171128074740     3
 OLDACT:REG 17-11-28 13:07 OP:dani STATUS:               ID:20171128074740     3
 2017-11-28-0748-00M.COL___483                                                 6
 STAT SP IPHASW D HRMM SECON CODA AMPLIT PERI AZIMU VELO AIN AR TRES W  DIS CAZ7
 BAR2 EZ EP     D  750 22.91                             161    0.1810 36.4 150 
 BAR2 EZ ES        750 35.80                             161    0.3910 36.4 150 
 PAM  EZ EP        750 26.06                             140   -0.1810 88.2  54 
 PAM  EN ES        750 42.50                             140    0.8410 88.2  54 
 PAM  EZ I         750 45.00        25.5 0.46            142           88.2  54 
 RUS  HZ EP        750 27.98                             132   -0.3410  113 165 
 RUS  HN ES        750 45.33                             132   -0.0310  113 165 
 RUS  HZ I         750 47.27        17.5 0.44            135            113 165 
 PTB  HZ EP        750 28.19                             128   -0.9210  128 253 
 PTB  HN ES        750 45.48                             128   -1.2710  128 253 
 PTB  HZ I         750 50.28        29.3 0.26            128            128 253 
 OCA  HZ EP        750 31.19                             123   -0.36 9  151   1 
 OCA  HN ES        750 50.74                             123   -0.37 9  151   1 
 SPBC HZ EP        750 32.24                             122    0.10 9  157 211 
 SPBC HN ES        750 52.01                             122   -0.14 9  157 211 
 SPBC HZ I         750 56.57        24.5 0.36            123            157 211 
 TAM  HZ EP        750 33.88                             118   -0.50 9  179 106 
 TAM  HN ES        750 55.79                             118   -0.35 9  179 106 
 TAM  HZ I         750 57.75        11.1 0.18            120            179 106 
 ZAR  HZ EP        750 34.71                             118    0.26 9  180 292 
 ZAR  HN ES        750 58.11                             118    1.85 9  180 292 
 ZAR  HZ I         751  1.59        27.0 0.26            118            180 292 
 YPLC HZ EP        750 35.87                             116   -0.36 9  196 147 
 YPLC HN ES        750 58.94                             116   -0.50 9  196 147 
 YPLC HZ I         751  1.10        20.0 0.52            117            196 147 
 NOR  HZ EP        750 39.23                             112    0.06 8  222 229 
 NOR  HN ES        751  4.96                             112    0.30 8  222 229 
 NOR  HZ I         751  8.96        12.9 0.36            113            222 229 
 CHI  HZ EP        750 42.76                             109   -0.26 8  252 190 
 CHI  HN ES        751 12.44                             109    0.92 8  252 190 
 HEL  HZ EP        750 44.07                             109    1.02 8  253 253 
 HEL  HN ES        751 11.81                             109    0.24 8  253 253 
 HEL  HZ I         751 18.09        12.1 0.24            110            253 253 
 URE  HZ EP        750 42.45                             108   -0.97 8  260 292 
 URE  HN ES        751 11.28                             108   -0.96 8  260 292 
 URE  HZ I         751 14.14        17.7 0.12            109            260 292 
 DRL03HZ EP        750 45.38                             107   -0.19 7  279 357 
 DRL03HN ES        751 15.64                             107   -0.42 7  279 357 
 GUY2CHZ EP        750 47.96                             106    0.64 7  288 231 
 GUY2CHN ES        751 18.24                             106   -0.94 7  288 231 
 GUY2CHZ I         751 26.66        10.4 0.46                           288 231 
 CBOC HZ EP        750 50.87                             104    0.77 7  315 249 
 CBOC HN ES        751 23.89                             104   -0.23 7  315 249 
 CBOC HZ I         751 27.63         5.4 0.24            105            315 249 
 LL6C HZ EP        750 50.51                             104    0.49 7  316   2 
 LL6C HE ES        751 24.98                             104    1.00 7  316   2 
 LL6C HZ I         751 37.76         4.8 0.53            105            316   2 
 DBB  EZ EP        750 50.26                             104    0.11 7  317 273 
 DBB  HN ES        751 22.91                             104   -1.29 7  317 273 
 DBB  EZ I         751 30.71         6.0 0.48            105            317 273 
 ELA  HZ EP        750 52.27                             104    1.37 7  318 226 
 ELA  HN ES        751 25.86                             104    0.31 7  318 226 
 ELA  HZ I         751 34.56         6.7 0.37            105            318 226 
 ARGC HZ EP   9    750 55.13                             103    1.80 0  344 343 
 ARGC HN ES        751 31.50                             102   -0.18 7  344 343 
 ARGC HZ I         751 40.28         3.1 0.24            103            344 343 
 PRA  HZ EP        750 59.23                             101    0.50 6  389 206 
 PRA  HE ES        751 40.15                             101    0.67 6  389 206 
 PRA  HZ I         751 47.21         5.2 0.22            101            389 206 
 PAL  HZ EP        750 58.94                             100   -0.09 6  391 236 
 PAL  HN ES        751 40.40                             100    0.39 6  391 236 
 PAL  HZ I         751 45.09         3.7 0.61            101            391 236 
 CAP2 HZ EP   3    751  7.92                              97   -2.19 1  484 294 
                                                                                
