 2017  328 0607 45.3 L   6.726 -73.148150.6  RSN  6 0.2 1.1LRSN                1
 GAP=231        0.38       4.0     3.2  5.8  0.9159E+01 -0.5749E+01 -0.1079E+02E
 Epicentro: JORDAN - SANTANDER                                                 3
 ACTION:UPD 17-05-25 18:46 OP:jn   STATUS:               ID:20170328060745 L   I
 OLDACT:UP  17-03-28 15:45 OP:and  STATUS:               ID:20170328055744d    3
 OLDACT:UP  17-03-28 15:44 OP:and  STATUS:               ID:20170328055744d    3
 OLDACT:UP  17-03-28 15:44 OP:and  STATUS:               ID:20170328055744d    3
 OLDACT:UP  17-03-28 15:44 OP:and  STATUS:               ID:20170328055744d    3
 OLDACT:UP  17-03-28 15:44 OP:and  STATUS:               ID:20170328055744d    3
 OLDACT:DUP 17-03-28 15:42 OP:and  STATUS:               ID:20170328055744d    3
 OLDACT:UP  17-03-28 15:40 OP:and  STATUS:               ID:20170328055743     3
 OLDACT:UP  17-03-28 15:38 OP:and  STATUS:               ID:20170328055743     3
 OLDACT:UP  17-03-28 15:38 OP:and  STATUS:               ID:20170328055743     3
 OLDACT:UP  17-03-28 15:38 OP:and  STATUS:               ID:20170328055743     3
 OLDACT:REG 17-03-28 12:43 OP:and  STATUS:               ID:20170328055743     3
 2017-03-28-0558-00M.COL___360                                                 6
 STAT SP IPHASW D HRMM SECON CODA AMPLIT PERI AZIMU VELO AIN AR TRES W  DIS CAZ7
 BAR2 EZ EP        6 8  5.36                             174   -0.0010 15.3 195 
 BRR  HZ EP   2    6 8  7.10                             152   -0.08 5 75.3 304 
 BRR  HE ES   2    6 8 24.42                             152    0.15 5 75.3 304 
 RUS  HZ EP        6 8  9.09                             147    0.1410 92.4 176 
 RUS  HN ES        6 8 27.37                             147   -0.0510 92.4 176 
 RUS  HZ I         6 8 28.30         1.8 0.46            140           92.4 176 
 PTB  HZ EP   2    6 8 12.13                             134   -0.37 5  146 262 
 PTB  HN ES        6 8 33.57                             134   -0.17 9  146 262 
 PTB  HZ I         6 8 35.81         1.7 0.15            128            146 262 
 SPBC HN ES   3    6 8 36.23                             132    0.62 2  157 221 
 SPBC HZ I         6 8 39.93         2.1 0.10            125            157 221 
 ZAR  HZ EP   4    6 8 20.30                             123    1.95 0  207 294 
 ZAR  HN ES        6 8 44.27                             123    0.12 8  207 294 
                                                                                
