 2017  528 0353 50.4 L   6.029 -73.844102.7  RSN  6 0.1 1.2LRSN                1
 GAP=111        0.41       2.0     1.7  3.8 -0.1506E+00  0.9761E+00 -0.1434E+01E
 Epicentro: EL PENON - SANTANDER                                               3
 ACTION:UPD 17-06-16 13:39 OP:jn   STATUS:               ID:20170528035350 L   I
 OLDACT:UP  17-05-28 16:35 OP:dnl  STATUS:               ID:20170528034741     3
 OLDACT:UP  17-05-28 16:35 OP:dnl  STATUS:               ID:20170528034741     3
 OLDACT:UP  17-05-28 16:34 OP:dnl  STATUS:               ID:20170528034741     3
 OLDACT:UP  17-05-28 16:34 OP:dnl  STATUS:               ID:20170528034741     3
 OLDACT:REG 17-05-28 13:17 OP:dnl  STATUS:               ID:20170528034741     3
 2017-05-28-0348-00M.COL___335                                                 6
 STAT SP IPHASW D HRMM SECON CODA AMPLIT PERI AZIMU VELO AIN AR TRES W  DIS CAZ7
 SPBC HZ EP        354  5.62                             153   -0.1810 48.8 211 
 SPBC HE ES        354 17.85                             153    0.0710 48.8 211 
 SPBC HZ I         354 18.68         7.5 0.12             96           48.8 211 
 RUS  HZ EP   2    354  9.23                             138    0.27 5 85.5 100 
 RUS  HN ES        354 23.40                             138   -0.0110 85.5 100 
 RUS  HZ I         354 27.70         2.2 0.58             91           85.5 100 
 PTB  HZ EP   9    354  7.00                             136   -1.53 0 88.2 310 
 PTB  HN ES        354 21.37                             136    0.2610 88.2 310 
 PTB  HZ I         354 24.28         3.3 0.26             93           88.2 310 
 BRR  HZ EP   2    354 11.51                             127    0.06 5  120   7 
 BRR  HE ES        354 27.85                             127    0.0210  120   7 
 BRR  HZ I         354 29.30         2.5 0.24             91            120   7 
 YPLC HZ EP   4    354 19.87                             116    2.37 0  177 113 
 YPLC HZ I         354 40.98         3.2 0.34             90            177 113 
 YPLC HN ES   4    354 41.22                             116    2.61 0  177 113 
 HEL  HZ EP   4    354 16.78                             114   -2.30 0  187 276 
 HEL  HN ES        354 41.45                             114    0.03 9  187 276 
 HEL  HZ I         354 44.81         4.0 0.34             91            187 276 
                                                                                
