 2017 1128 0458 50.5 L   6.834 -73.163138.3  RSN 14 0.7 2.3LRSN                1
 GAP=109        1.45       3.6     4.6  7.5  0.8398E+00  0.1293E+02  0.2074E+01E
 Epicentro: LOS SANTOS - SANTANDER                                             3
 ACTION:UPD 17-12-12 20:01 OP:rebc STATUS:               ID:20171128045850 L   I
 OLDACT:REG 17-11-28 12:54 OP:dani STATUS:               ID:20171128045642     3
 2017-11-28-0457-00M.COL___492                                                 6
 STAT SP IPHASW D HRMM SECON CODA AMPLIT PERI AZIMU VELO AIN AR TRES W  DIS CAZ7
 BAR2 EZ EP        459  9.31                             169   -0.0010 26.8 185 
 BAR2 EZ ES        459 23.99                             169    0.0110 26.8 185 
 BAR2 EZ I         459 25.51        65.1 0.22            169           26.8 185 
 PAM  EZ EP        459 12.19                             150    0.3610 75.8  42 
 PAM  EN ES        459 29.01                             150    0.5510 75.8  42 
 PAM  EZ I         459 31.18        38.8 0.64            153           75.8  42 
 RUS  HZ EP        459 13.27                             141   -0.5510  104 175 
 RUS  HN ES        459 31.27                             141   -0.7310  104 175 
 RUS  HZ I         459 32.56        34.1 0.26            144            104 175 
 PTB  HZ EP        459 16.96                             130    0.19 9  147 257 
 PTB  HN ES        459 36.56                             130   -0.69 9  147 257 
 PTB  HZ I         459 39.30        14.8 0.26            130            147 257 
 OCA  HZ EP        459 17.70                             128   -0.16 9  156 354 
 OCA  HN ES        459 39.22                             128    0.01 9  156 354 
 OCA  HZ I         459 43.65        64.8 0.20            130            156 354 
 SPBC HZ EP        459 18.34                             127   -0.27 9  165 218 
 SPBC HN ES        459 40.21                             127   -0.32 9  165 218 
 SPBC HZ I         459 47.21        15.5 0.56            128            165 218 
 YPLC HZ EP        459 19.75                             124   -0.44 9  181 151 
 YPLC HN ES        459 43.57                             124    0.23 9  181 151 
 YPLC HZ I         459 46.07        22.2 0.28            128            181 151 
 ZAR  HZ EP        459 22.38                             121    0.24 9  201 291 
 ZAR  HN ES        459 47.97                             121    1.16 9  201 291 
 ZAR  HZ I         459 55.21        24.4 0.26            122            201 291 
 CHI  HZ EP        459 28.70                             115    0.56 8  252 195 
 CHI  HN ES        459 57.98                             115    0.48 8  252 195 
 CHI  HZ I         5 0  0.13         5.3 0.28            117            252 195 
 URE  HZ EP        459 29.85                             112   -1.01 7  281 291 
 URE  HE ES        5 0  1.47                             112   -0.87 7  281 291 
 URE  HZ I         5 0 17.11        12.3 0.20            113            281 291 
 GUY2CHZ EP        459 35.19                             111    1.34 7  302 234 
 GUY2CHE ES        5 0  9.18                             111    1.53 7  302 234 
 GUY2CHZ I         5 0 12.25         4.1 0.30                           302 234 
 CBOC HZ EP        459 37.76                             108    0.72 7  333 251 
 CBOC HN ES        5 0 12.38                             108   -0.96 7  333 251 
 PRA  HZ EP        459 43.91                             105   -0.14 6  394 209 
 PRA  HN ES        5 0 25.69                             105   -0.12 6  394 209 
 PRA  HZ I         5 0 31.32         7.1 0.32            106            394 209 
 SJC  HZ EP        459 44.28                             104   -1.06 6  405 327 
                                                                                
