 2014  228 0351 54.2 L   6.800 -73.143148.0  RSN 12 0.5 2.0LRSN                1
 GAP=183        0.80       3.4     5.3  7.1  0.1218E+01  0.1132E+02 -0.3210E+01E
 Epicentro: LOS SANTOS - SANTANDER                                             3
 OLDACT:REG 14-02-28 08:56 OP:fm   STATUS:               ID:20140228034820     3
 ACTION:UPD 14-03-10 08:14 OP:ep   STATUS:               ID:20140228035154 L   I
 OLDACT:UP  14-02-28 12:45 OP:fm   STATUS:               ID:20140228034820     3
 2014-02-28-0348-20M.COL___174                                                 6
 STAT SP IPHASW D HRMM SECON CODA AMPLIT PERI AZIMU VELO AIN AR TRES W  DIS CAZ7
 BAR2 SZ EP        352 14.11                             171   -0.0310 23.3 191 
 BAR2 SZ ES   2    352 28.82                             171   -0.84 5 23.3 191 
 BAR2 SZ I         352 35.05        16.3 0.24            166           23.3 191 
 RUS  HZ EP     D  352 18.08                             145   -0.1310  101 176 
 RUS  HN ES        352 37.16                             145    0.2610  101 176 
 RUS  SZ I         352 38.29         5.4 1.20            148            101 176 
 PTB  HZ EP        352 21.17                             133   -0.24 9  148 259 
 PTB  HN ES   2    352 42.43                             133   -0.18 5  148 259 
 PTB  SZ I         352 49.24        16.2 0.30            132            148 259 
 OCA  HZ EP   2    352 23.17                             130    0.44 5  160 353 
 OCA  HN ES   1    352 45.29                             130    0.34 7  160 353 
 OCA  SZ I         352 49.81        10.2 0.48            135            160 353 
 SPBC HZ EP   2    352 23.12                             130    0.20 5  163 219 
 SPBC HN ES   1    352 46.16                             130    0.86 7  163 219 
 SPBC SZ I         352 52.25        13.8 0.30            131            163 219 
 ZAR  HZ EP   1    352 26.25                             123   -0.61 6  204 292 
 ZAR  HN ES   1    352 52.85                             123    0.55 6  204 292 
 ZAR  SZ I         352 58.52         8.7 0.22            125            204 292 
 NOR  HZ EP   1    352 30.08                             119   -0.04 6  235 235 
 NOR  HN ES   1    352 57.54                             119   -0.57 6  235 235 
 NOR  SZ I         353  1.80         8.4 0.18            121            235 235 
 CHI  HZ EP   1    352 32.39                             118    0.32 6  249 195 
 CHI  HN ES   1    353  0.99                             118   -0.58 6  249 195 
 CHI  SZ I         353  9.81         6.2 1.96            122            249 195 
 HEL  HZ EP   4    352 35.88                             115    1.29 0  272 256 
 HEL  HN ES   4    353  9.34                             115    3.27 0  272 256 
 HEL  SZ I         353 12.58         5.8 1.44            117            272 256 
 GUY2CHZ EP   1    352 38.51                             113    0.54 5  301 235 
 GUY2CHN ES   4    353 14.35                             113    2.26 0  301 235 
 CBOC HZ EP   4    352 42.64                             111    1.36 0  334 252 
 CBOC HN ES   4    353 20.43                             111    2.47 0  334 252 
 CBOC SZ I         353 28.37         4.4 1.88            113            334 252 
 SJC  HZ EP   1    352 49.05                             106   -0.85 4  409 327 
 SJC  HE ES   4    353 32.08                             106   -1.23 0  409 327 
                                                                                
