 2012  328 0251 37.1 L   6.703 -73.120140.0  RSN  4 0.2 1.4LRSN                1
 GAP=230        0.39       9.5     4.5  7.6 -0.2037E+02 -0.7205E+01  0.5098E+02E
 ACTION:UP  12-03-31 23:23 OP:EP   STATUS:               ID:20120328025137 L   I
 2012-03-28-0250-00M.COL___196                                                 6
 STAT SP IPHASW D HRMM SECON CODA AMPLIT PERI AZIMU VELO SNR AR TRES W  DIS CAZ7
 BRR  HZ EP        251 58.15                             149     0.010   79 304 
 BRR  HZ I         251 58.56         4.8 0.24                            79 304 
 BRR  HE ES   1    252 14.70                             149     0.2 7   79 304 
 PAM  SZ EP   3    251 59.27                             148     0.1 2   84  33 
 PAM  SN ES   2    252 16.09                             148    -0.2 5   84  33 
 PTB  HZ EP        252  3.72                             130     0.0 9  149 263 
 PTB  HE ES   2    252 24.20                             130    -0.3 5  149 263 
 PTB  HZ I         252 26.77         2.6 0.16                           149 263 
 ZAR  HN ES   2    252 35.24                             120    -0.2 4  211 295 
                                                                                
