 2017  428 0728 37.2 L   6.763 -73.199147.3  RSN  8 0.4 1.4LRSN                1
 GAP=229        0.74       3.4     4.7  5.6  0.7363E+01  0.1652E+01  0.7766E+00E
 Epicentro: ZAPATOCA - SANTANDER                                               3
 ACTION:UPD 17-05-30 21:16 OP:jn   STATUS:               ID:20170428072837 L   I
 OLDACT:UP  17-04-28 17:10 OP:and  STATUS:               ID:20170428072740     3
 OLDACT:UP  17-04-28 17:08 OP:and  STATUS:               ID:20170428072740     3
 OLDACT:REG 17-04-28 12:51 OP:and  STATUS:               ID:20170428072740     3
 2017-04-28-0728-00M.COL___362                                                 6
 STAT SP IPHASW D HRMM SECON CODA AMPLIT PERI AZIMU VELO AIN AR TRES W  DIS CAZ7
 BRR  HZ EP        728 58.33                             154   -0.0710 68.3 304 
 BRR  HN ES        729 15.31                             154    0.4110 68.3 304 
 BRR  HZ I         729 19.41         4.6 0.18            152           68.3 304 
 RUS  HZ EP        729  0.97                             145    0.0810 97.0 172 
 RUS  HN ES        729 19.19                             145   -0.1510 97.0 172 
 RUS  HZ I         729 20.38         6.7 0.34            147           97.0 172 
 PTB  HZ EP        729  3.33                             134   -0.42 9  141 260 
 PTB  HN ES        729 24.04                             134   -0.39 9  141 260 
 PTB  HZ I         729 30.17         2.4 0.42            133            141 260 
 SPBC HZ EP        729  5.37                             131    0.16 9  156 218 
 SPBC HN ES        729 26.89                             131   -0.14 9  156 218 
 SPBC HZ I         729 29.15         5.2 0.30            131            156 218 
 ZAR  HZ EP        729  9.38                             123   -0.02 9  200 294 
 ZAR  HE ES        729 34.55                             123    0.07 9  200 294 
 ZAR  HZ I         729 39.67         2.3 0.24            124            200 294 
 NOR  HZ EP   2    729 13.70                             120    1.40 4  228 234 
 CHI  HZ EP   2    729 14.84                             118    0.41 4  243 194 
 CHI  HN ES        729 43.61                             118    0.17 8  243 194 
 CHI  HZ I         729 50.12         1.2 0.18            120            243 194 
 CBOC HZ EP   2    729 22.62                             111   -0.82 3  327 252 
 CBOC HN ES   2    730  0.38                             111    0.91 3  327 252 
                                                                                
