 2017  328 0407 24.9 L   6.693 -73.056136.3  RSN  6 0.4 1.3LRSN                1
 GAP=196        0.78       6.6     5.6  7.6 -0.1171E+02 -0.1910E+02  0.6927E+01E
 Epicentro: ARATOCA - SANTANDER                                                3
 ACTION:UPD 17-05-25 18:46 OP:jn   STATUS:               ID:20170328040724 L   I
 OLDACT:UP  17-03-28 14:30 OP:and  STATUS:               ID:20170328035742d    3
 OLDACT:UP  17-03-28 14:27 OP:and  STATUS:               ID:20170328035742d    3
 OLDACT:UP  17-03-28 14:27 OP:and  STATUS:               ID:20170328035742d    3
 OLDACT:UP  17-03-28 14:27 OP:and  STATUS:               ID:20170328035742d    3
 OLDACT:UP  17-03-28 14:27 OP:and  STATUS:               ID:20170328035742d    3
 OLDACT:UP  17-03-28 14:26 OP:and  STATUS:               ID:20170328035742d    3
 OLDACT:UP  17-03-28 14:26 OP:and  STATUS:               ID:20170328035742d    3
 OLDACT:DUP 17-03-28 14:23 OP:and  STATUS:               ID:20170328035742d    3
 OLDACT:REG 17-03-28 12:35 OP:and  STATUS:               ID:20170328035741     3
 2017-03-28-0358-00M.COL___360                                                 6
 STAT SP IPHASW D HRMM SECON CODA AMPLIT PERI AZIMU VELO AIN AR TRES W  DIS CAZ7
 BAR2 EZ IP   2 C  4 7 44.07                             172    0.78 5 17.9 231 
 BAR2 EZ ES        4 7 57.41                             172   -0.2310 17.9 231 
 PAM  EZ EP     C  4 7 46.37                             148   -0.0210 81.6  29 
 PAM  EN ES        4 8  3.36                             148    0.2110 81.6  29 
 PAM  EZ I         4 8  5.10         3.8 0.58            151           81.6  29 
 BRR  HZ EP   2    4 7 45.32                             146   -0.65 5 85.8 302 
 BRR  HN ES        4 8  2.26                             146   -0.1510 85.8 302 
 BRR  HZ I         4 8  4.04         4.1 0.21            142           85.8 302 
 RUS  HZ EP   9    4 7 48.17                             145    1.30 0 88.6 182 
 PTB  HZ EP   9    4 7 50.49                             128   -1.39 0  156 264 
 PTB  HN ES        4 8 11.39                                   -0.14 9  156 264 
 PTB  HZ I         4 8 18.87         2.7 0.14            123            156 264 
 SPBC HN ES   2    4 8 14.76                             127    0.77 5  161 224 
 SPBC HZ I         4 8 21.68         2.7 0.12            121            161 224 
 ZAR  HZ EP   9    4 7 55.94                             118   -2.28 0  218 294 
 ZAR  HN ES        4 8 22.47                             119    0.54 8  218 294 
                                                                                
