 2011  528 0916 19.3 L   6.777 -73.061147.9  RSN 12 0.3 2.0LRSN                1
 GAP=166        0.60       2.7     4.6  4.6 -0.4509E+01  0.1962E+01 -0.5865E+00E
 Epicentro: LOS SANTOS - SANTANDER                                             3
 ACTION:UP  11-06-29 08:56 OP:tino STATUS:               ID:20110528091619 L   I
 2011-05-28-0914-18S.COL___115                                                 6
 STAT SP IPHASW D HRMM SECON CODA AMPLIT PERI AZIMU VELO SNR AR TRES W  DIS CAZ7
 BAR2 SZ EP   1    916 38.93                             170    -0.2 7   24 213 
 BAR2 SZ ES   1    916 54.70                             170     0.0 7   24 213 
 BAR2 SZ I         916 57.30        19.6 0.39                            24 213 
 BTL  SZ EP        916 39.45                             169     0.210   28 304 
 GIR2 SZ EP   1    916 39.32                             165     0.0 7   36 336 
 GIR2 SZ ES   2    916 55.05                             165     0.1 5   36 336 
 BRR  HZ EP        916 41.20                             150     0.010   81 297 
 BRR  HE ES   1    916 58.16                             150    -0.1 7   81 297 
 BRR  HZ I         917  0.92        27.5 0.10                            81 297 
 RUS  HZ EP   1    916 43.14                             145     0.1 7   98 181 
 RUS  HZ I         916 44.34         6.9 0.46                            98 181 
 RUS  HN ES   1    917  1.56                             145     0.0 7   98 181 
 BRI  SZ EP   1    916 43.59                             142     0.3 7  108  16 
 GRA  SZ EP        916 44.96                             137     0.310  126  13 
 GRA  SZ ES   1    917  3.91                             137    -0.6 7  126  13 
 GRA  SZ I         917  5.84         9.8 0.35                           126  13 
 OCA  SZ EP   1    916 48.33                             129     0.2 7  164 350 
 OCA  SZ ES   1    917 10.44                             129    -0.2 7  164 350 
 OCA  SZ I         917 15.68        12.9 0.37                           164 350 
 NOR  SZ EP   2    916 55.23                             118    -0.6 4  241 236 
 NOR  SN ES   2    917 24.28                             118     0.0 4  241 236 
 HEL  HZ EP   2    916 59.95                             114    -0.6 4  281 257 
 HEL  HE ES   2    917 33.65                             114     0.9 4  281 257 
 HEL  HZ I         917 39.05         5.1 0.18                           281 257 
 RREF HE ES   2    917 42.24                             111    -0.4 3  327 231 
 RREF HZ I         917 47.80         6.4 0.11                           327 231 
 PRA  HZ EP   2    917 12.46                             106    -0.7 3  395 211 
 PRA  HN ES   2    917 55.19                             106     0.0 3  395 211 
                                                                                
