 2014  528 0749 11.8 L   6.811 -73.185140.0  RSN  9 0.4 1.9LRSN                1
 GAP=131        0.88       2.8     4.3  7.2 -0.4011E+01  0.1234E+02 -0.4591E+01E
 Epicentro: ZAPATOCA - SANTANDER                                               3
 ACTION:UPD 15-03-16 17:01 OP:nd   STATUS:               ID:20140528074911 L   I
 OLDACT:REG 14-05-28 15:32 OP:cam  STATUS:               ID:20140528074739     3
 2014-05-28-0747-39M.COL___235                                                 6
 STAT SP IPHASW D HRMM SECON CODA AMPLIT PERI AZIMU VELO AIN AR TRES W  DIS CAZ7
 PAM  SZ EP        749 33.82                             149    0.2810 79.3  43 
 PAM  SN ES        749 50.70                             149    0.2110 79.3  43 
 PAM  SZ I         749 52.65        22.1 0.50            156           79.3  43 
 RUS  HZ EP        749 34.85                             142   -0.2710  102 174 
 RUS  HE ES        749 53.19                             142   -0.1110  102 174 
 RUS  HZ I         749 54.31         6.2 0.28            148            102 174 
 PTB  HZ EP        749 37.45                             132   -0.49 9  144 258 
 PTB  HN ES        749 58.02                             132   -0.30 9  144 258 
 PTB  HZ I         750  5.53         9.3 0.34            133            144 258 
 OCA  HZ EP        749 39.41                             129   -0.11 9  159 355 
 OCA  HN ES        750  0.83                             129   -0.30 9  159 355 
 OCA  HZ I         750  6.42         7.2 0.30            132            159 355 
 SPBC HZ EP   1    749 39.86                             128    0.15 7  161 217 
 SPBC HN ES   1    750  1.97                             128    0.51 7  161 217 
 SPBC HZ I         750  7.39         8.0 0.24            131            161 217 
 ZAR  HZ EP   1    749 44.14                             122    0.72 6  200 292 
 NOR  HZ EP   1    749 47.48                             118    0.57 6  232 234 
 NOR  HN ES        750 14.50                             118    0.22 8  232 234 
 NOR  HZ I         750 21.70         5.3 0.18            121            232 234 
 SML  HZ EP        749 47.20                             117   -0.60 8  241 336 
 SML  HE ES        750 16.44                             117    0.57 8  241 336 
 SML  HZ I         750 22.23        12.8 0.22            120            241 336 
 GUY2CHZ EP   4    749 57.32                             111    2.48 0  298 234 
 GUY2CHN ES   4    750 33.16                             111    4.77 0  298 234 
 GUY2CHZ I         750 35.89         3.1 0.44                           298 234 
                                                                                
