 2015 1228 0958 19.2 L   6.822 -73.146143.5  RSN  9 0.4 1.8LRSN                1
 GAP=135        1.07       3.2     4.5  6.5 -0.8084E+00  0.6544E+01 -0.2425E+01E
 Epicentro: LOS SANTOS - SANTANDER                                             3
 ACTION:UPD 16-02-04 15:08 OP:cam  STATUS:               ID:20151228095819 L   I
 OLDACT:UP  15-12-28 17:39 OP:ak   STATUS:               ID:20151228094748d    3
 OLDACT:DUP 15-12-28 17:36 OP:ak   STATUS:               ID:20151228094748d    3
 2015-12-28-0947-47M.COL___331                                                 6
 STAT SP IPHASW D HRMM SECON CODA AMPLIT PERI AZIMU VELO AIN AR TRES W  DIS CAZ7
 BAR2 EZ EP        958 38.57                             169   -0.0610 25.8 189 
 BAR2 EZ ES        958 53.64                             169   -0.1410 25.8 189 
 BAR2 EZ I         958 54.91        14.9 0.18            170           25.8 189 
 BRR  HZ EP        958 40.77                             153    0.7110 70.0 297 
 BRR  HN ES        958 56.90                             153    0.5810 70.0 297 
 BRR  HZ I         959  0.84         8.4 0.28            150           70.0 297 
 PAM  EZ EP        958 41.05                             151   -0.0410 75.5  41 
 PAM  EN ES        958 58.44                             151    0.3010 75.5  41 
 PAM  EZ I         959  0.45        11.5 0.40            154           75.5  41 
 RUS  HZ EP        958 42.66                             143   -0.2710  103 176 
 RUS  HE ES        959  1.50                             143    0.0710  103 176 
 RUS  HZ I         959  3.04         4.4 0.34            146            103 176 
 PTB  HZ EP        958 46.34                             131    0.29 9  148 258 
 PTB  HN ES        959  6.53                             131   -0.45 9  148 258 
 PTB  HZ I         959  8.97         5.1 0.10            132            148 258 
 OCA  HZ EP   2    958 47.85                             130    0.72 5  158 353 
 OCA  HN ES        959  8.02                             130   -0.87 9  158 353 
 OCA  HZ I         959 11.86        12.8 0.30            131            158 353 
 SPBC HZ EP        958 47.97                             128    0.24 9  165 218 
 SPBC HN ES        959  9.30                             128   -0.67 9  165 218 
 SPBC HZ I         959 15.61         8.2 0.21            130            165 218 
 ZAR  HZ EP   2    958 51.84                             122    0.41 4  203 292 
 ZAR  HN ES        959 16.93                             122    0.39 9  203 292 
 ZAR  HZ I         959 22.97         5.8 0.26            122            203 292 
 SML  HZ EP        958 55.24                             117   -0.24 8  241 335 
 SML  HN ES        959 23.32                             117   -0.44 8  241 335 
 SML  HZ I         959 31.45         6.7 0.10            118            241 335 
                                                                                
