 2015  328 0937 58.5 L   6.803 -73.389125.0  RSN  5 0.5 1.4LRSN                1
 GAP=154        1.18       7.1     6.9 10.5  0.8653E+01  0.2218E+02 -0.2076E+02E
 Epicentro: SAN VICENTE DE CHUCURI - SANTANDER                                 3
 ACTION:UPD 15-04-30 16:30 OP:nd   STATUS:               ID:20150328093758 L   I
 OLDACT:DUP 15-03-28 16:28 OP:fm   STATUS:               ID:20150328092750d    3
 2015-03-28-0927-49M.COL___275                                                 6
 STAT SP IPHASW D HRMM SECON CODA AMPLIT PERI AZIMU VELO AIN AR TRES W  DIS CAZ7
 BAR2 EZ EP        938 16.46                             164    0.5410 32.6 136 
 BAR2 EZ ES        938 29.16                             164   -0.3410 32.6 136 
 BAR2 EZ I         938 30.64        12.5 0.28            167           32.6 136 
 BRR  HE ES        938 30.39                             157    0.3510 49.1 313 
 PTB  HZ EP   1    938 20.99                             133   -0.44 7  122 256 
 PTB  HE ES        938 38.77                             133   -0.5210  122 256 
 PTB  HZ I         938 44.46         3.0 0.44            130            122 256 
 ZAR  HZ EP   1    938 27.34                             121    0.27 7  179 295 
 ZAR  HE ES        938 50.01                             121    0.67 9  179 295 
 ZAR  HZ I         938 55.39         2.2 0.16            121            179 295 
 SML  HE ES        938 59.05                             114   -0.71 8  233 341 
                                                                                
