 2013  328 0118  2.0 L   7.423 -73.196135.0  RSN 10 0.5 1.8LRSN                1
 GAP=108        0.91       3.7     4.0  6.4  0.2561E+01  0.5267E+01 -0.1086E+01E
 Epicentro: EL PLAYON - SANTANDER                                              3
 ACTION:UPD 13-04-09 14:05 OP:ep   STATUS:               ID:20130328011802 L   I
 2013-03-28-0110-00M.COL___245                                                 6
 STAT SP IPHASW D HRMM SECON CODA AMPLIT PERI AZIMU VELO AIN AR TRES W  DIS CAZ7
 PAM  SZ EP        118 22.34                             156    0.4810 55.6 100 
 PAM  SN ES   1    118 37.77                             156    0.43 7 55.6 100 
 PAM  SZ I         118 40.15        14.4 0.50            161           55.6 100 
 BRR  HZ EP        118 22.02                             152    0.2910 66.8 239 
 BRR  HN ES   1    118 36.96                             152   -0.16 7 66.8 239 
 BRR  HZ I         118 44.12        12.6 0.16            153           66.8 239 
 OCA  HZ EP   1    118 23.51                             144   -0.03 7 91.2 351 
 OCA  HN ES   1    118 40.12                             144   -0.22 7 91.2 351 
 OCA  HZ I         118 42.36        17.6 0.16            149           91.2 351 
 BAR2 SZ EP        118 23.55                             144   -0.1510 91.9 179 
 BAR2 SZ ES   1    118 40.13                             144   -0.50 7 91.9 179 
 BAR2 SZ I         118 41.36        19.1 0.28            146           91.9 179 
 RUS  HZ EP   1    118 30.88                             126    0.01 7  170 176 
 RUS  HN ES   1    118 52.87                             126   -0.52 7  170 176 
 RUS  HZ I         118 55.77         1.9 0.38            129            170 176 
 PTB  HZ EP        118 30.59                             125    0.31 9  170 235 
 PTB  HN ES   1    118 52.17                             125   -0.16 7  170 235 
 PTB  HZ I         118 58.27         5.4 0.42            128            170 235 
 SML  HZ EP        118 30.90                             123   -0.38 9  180 328 
 SML  HE ES   2    118 53.35                             123   -0.77 4  180 328 
 ZAR  HZ EP   1    118 32.03                             123    0.40 7  184 272 
 ZAR  HN ES   1    118 55.66                             123    0.92 7  184 272 
 ZAR  HZ I         118 58.30        16.0 0.72            126            184 272 
 TAM  HZ EP   1    118 32.76                             122    0.44 7  190 125 
 TAM  HN ES   2    118 55.40                             122   -0.57 4  190 125 
 TAM  HZ I         119  0.79         6.1 0.36            127            190 125 
 URE  HZ EP        118 39.08                             113   -0.84 8  260 278 
 URE  HN ES   4    119  7.16                             113   -2.34 0  260 278 
 URE  HZ I         119 10.78         7.2 0.14            117            260 278 
                                                                                
