 2017  928 0633 15.9 L   6.849 -73.205137.0  RSN  4 0.4 1.0LRSN                1
 GAP=190        0.92       7.0    10.7  8.1 -0.5680E+02  0.3256E+02 -0.1049E+02E
 Epicentro: ZAPATOCA - SANTANDER                                               3
 ACTION:UPD 17-10-05 19:17 OP:rebc STATUS:               ID:20170928063315 L   I
 OLDACT:UP  17-09-28 17:51 OP:edw  STATUS:               ID:20170928062737d    3
 OLDACT:DUP 17-09-28 17:48 OP:edw  STATUS:               ID:20170928062737d    3
 OLDACT:UP  17-09-28 17:41 OP:edw  STATUS:               ID:20170928062736     3
 OLDACT:REG 17-09-28 13:30 OP:edw  STATUS:               ID:20170928062736     3
 2017-09-28-0628-00M.COL___414                                                 6
 STAT SP IPHASW D HRMM SECON CODA AMPLIT PERI AZIMU VELO AIN AR TRES W  DIS CAZ7
 BAR2 EZ ES        633 49.33                             168    0.1910 28.5 175 
 PAM  EZ EP        633 37.75                             149    0.5710 77.9  46 
 PAM  EN ES        633 53.36                             149   -0.4510 77.9  46 
 PAM  EZ I         633 55.73         2.4 0.44            148           77.9  46 
 RUS  HZ EP        633 39.25                             140    0.0310  107 173 
 RUS  HN ES        633 57.38                             140   -0.0610  107 173 
 RUS  HZ I         633 59.14         1.2 0.22            140            107 173 
 SPBC HZ EP        633 43.19                             127   -0.53 9  163 216 
 SPBC HN ES        634  5.64                             127    0.19 9  163 216 
                                                                                
