 2014 1028 0411 32.1 L   6.810 -73.149144.0  RSN  7 0.5 1.6LRSN                1
 GAP=136        1.14       4.5     5.8  7.3 -0.3570E+01  0.7948E+01  0.3831E+00E
 Epicentro: LOS SANTOS - SANTANDER                                             3
 ACTION:UPD 14-11-29 23:57 OP:nd   STATUS:               ID:20141028041132 L   I
 OLDACT:UP  14-10-30 17:11 OP:cam  STATUS:               ID:20141028040813     3
 OLDACT:UP  14-10-30 17:11 OP:cam  STATUS:               ID:20141028040813     3
 OLDACT:REG 14-10-30 15:03 OP:cam  STATUS:               ID:20141028040813     3
 2014-10-28-0408-13M.COL___271                                                 6
 STAT SP IPHASW D HRMM SECON CODA AMPLIT PERI AZIMU VELO AIN AR TRES W  DIS CAZ7
 BAR2 SZ EP        411 51.35                             170   -0.2210 24.4 189 
 BAR2 SZ ES        412  6.63                             170   -0.1110 24.4 189 
 BAR2 SZ I         412  7.91         8.2 0.18            170           24.4 189 
 BRR  HZ IP     C  411 53.34                             153    0.2910 70.4 298 
 BRR  HN ES        412 10.25                             153    0.8910 70.4 298 
 BRR  HZ I         412 11.09        10.5 0.32            151           70.4 298 
 PAM  SZ EP        411 54.33                             151    0.2110 76.7  40 
 PAM  SN ES        412 11.21                             151   -0.0610 76.7  40 
 PAM  SZ I         412 12.00         6.4 0.28            153           76.7  40 
 RUS  HZ EP     C  411 55.58                             143   -0.2110  102 176 
 RUS  HN ES        412 14.35                             143    0.1010  102 176 
 RUS  HZ I         412 15.99         4.1 0.32            145            102 176 
 PTB  HZ EP        411 58.37                             132   -0.58 9  148 258 
 PTB  HN ES        412 19.42                             132   -0.45 9  148 258 
 PTB  HZ I         412 25.35         4.7 0.20            132            148 258 
 OCA  HZ EP   1    412  0.88                             130    0.68 7  159 353 
 OCA  HN ES        412 21.39                             130   -0.70 9  159 353 
 OCA  HZ I         412 26.02         4.6 0.18            130            159 353 
 GUY2CHZ EP        412 16.26                             112    0.55 7  302 235 
                                                                                
