 2013  628 0003 20.8 L   6.747 -73.207147.4  RSN  4 0.3 1.5LRSN                1
 GAP=225        0.62       6.1     5.9  6.1  0.1640E+02  0.5595E+01 -0.1492E+00E
 Epicentro: VILLANUEVA - SANTANDER                                             3
 ACTION:UPD 14-01-08 09:57 OP:ep   STATUS:               ID:20130628000320 L   I
 OLDACT:DUP 13-06-28 08:51 OP:jn   STATUS:               ID:20130628000050d    3
 OLDACT:REG 13-06-28 08:16 OP:jn   STATUS:               ID:20130628000049     3
 2013-06-28-0000-49M.COL___228                                                 6
 STAT SP IPHASW D HRMM SECON CODA AMPLIT PERI AZIMU VELO AIN AR TRES W  DIS CAZ7
 BAR2 SZ EP   1    0 3 40.43                             173   -0.08 7 17.3 171 
 BAR2 SZ ES   1    0 3 55.42                             173   -0.47 7 17.3 171 
 BAR2 SZ I         0 3 56.60         8.1 0.24            178           17.3 171 
 BRR  HZ EP        0 3 42.13                             154    0.1610 68.5 306 
 BRR  HN ES   1    0 3 58.79                             154    0.30 7 68.5 306 
 BRR  HZ I         0 4  7.12         6.7 0.40            152           68.5 306 
 RUS  HZ EP   1    0 3 44.61                             146    0.26 7 95.5 172 
 RUS  HN ES   1    0 4  2.90                             146    0.19 7 95.5 172 
 RUS  HZ I         0 4  4.10         3.8 0.28            154           95.5 172 
 PTB  HZ EP        0 3 46.85                             134   -0.36 9  140 261 
 PTB  HN ES   1    0 4  7.90                             134    0.09 7  140 261 
 PTB  HZ I         0 4  9.94         3.3 0.11            137            140 261 
                                                                                
