 2016  728 0627 38.0 L   6.777 -73.113141.7  RSN 12 0.2 2.1LRSN                1
 GAP=142        0.61       2.4     2.4  3.2 -0.6433E+00  0.2863E+01  0.1700E+00E
 Epicentro: LOS SANTOS - SANTANDER                                             3
 ACTION:UPD 17-03-29 16:55 OP:lp   STATUS:               ID:20160728062738 L   I
 OLDACT:UP  16-07-28 16:59 OP:edw  STATUS:               ID:20160728061659     3
 OLDACT:REG 16-07-28 14:11 OP:edw  STATUS:               ID:20160728061659     3
 2016-07-28-0616-59S.COL___334                                                 6
 STAT SP IPHASW D HRMM SECON CODA AMPLIT PERI AZIMU VELO AIN AR TRES W  DIS CAZ7
 BAR2 EZ EP        627 56.83                             171   -0.2510 21.9 200 
 BAR2 EZ ES        628 11.99                             171    0.0010 21.9 200 
 BAR2 EZ I         628 12.92        36.9 0.24            170           21.9 200 
 BRR  HZ IP     C  627 58.67                             150   -0.2710 75.6 299 
 BRR  HN ES        628 15.53                             150    0.2410 75.6 299 
 BRR  HZ I         628 20.57        20.2 0.12            150           75.6 299 
 PAM  EZ EP        627 59.78                             150    0.0410 77.1  36 
 PAM  EE ES        628 16.65                             150   -0.0710 77.1  36 
 PAM  EZ I         628 18.95        31.5 0.44            153           77.1  36 
 RUS  HZ EP        628  1.33                             144    0.2010 97.9 178 
 RUS  HN ES        628 19.14                             144   -0.0510 97.9 178 
 RUS  HZ I         628 20.01        10.3 0.28            146           97.9 178 
 PTB  HZ EP   9    628  3.69                             130   -1.21 0  151 260 
 PTB  HE ES        628 25.19                             130    0.50 9  151 260 
 PTB  HZ I         628 26.76        23.2 0.18            131            151 260 
 SPBC HZ EP        628  5.95                             128   -0.25 9  164 221 
 SPBC HN ES        628 28.34                             128    0.13 9  164 221 
 SPBC HZ I         628 29.70        15.5 0.14            130            164 221 
 ZAR  HZ EP        628 11.27                             121    0.67 8  208 292 
 ZAR  HN ES        628 35.87                             121   -0.18 8  208 292 
 ZAR  HZ I         628 37.89        11.0 0.17            122            208 292 
 HEL  HZ EP        628 18.37                             114    0.06 8  275 256 
 HEL  HE ES        628 49.48                             114   -0.28 8  275 256 
 HEL  HZ I         628 55.79         7.3 0.26            115            275 256 
 URE  HZ EP        628 19.21                             112   -0.12 7  288 292 
 URE  HE ES   4    628 49.20                             112   -2.39 0  288 292 
 URE  HZ I         628 50.87        12.1 0.14            114            288 292 
 GUY2CHZ EP        628 21.77                             111    0.20 7  303 236 
 GUY2CHE ES   2    628 55.65                             111    0.07 4  303 236 
 GUY2CHZ I         629  2.20         6.7 0.26                           303 236 
 CBOC HZ EP        628 25.12                             109    0.09 7  336 253 
 CBOC HN ES        629  1.65                             109   -0.09 7  336 253 
 CBOC HZ I         629  5.73         2.3 0.34            110            336 253 
 SJC  HZ EP   4    628 31.72                             105   -2.17 0  413 327 
 SJC  HN ES   4    629 12.66                             105   -4.83 0  413 327 
 SJC  HZ I         629 16.07         2.8 0.52            106            413 327 
                                                                                
