 2012  228 0428 26.9 L   6.767 -73.140145.6  RSN  5 0.2 1.6LRSN                1
 GAP=139        0.43       4.2     5.7  4.0  0.1500E+02 -0.2499E+01 -0.4157E+00E
 ACTION:UP  12-03-07 16:34 OP:epov STATUS:               ID:20120228042826 L   I
 2012-02-28-0420-00M.COL___191                                                 6
 STAT SP IPHASW D HRMM SECON CODA AMPLIT PERI AZIMU VELO AIN AR TRES W  DIS CAZ7
 BAR2 SZ EP        428 46.50                             172    0.0710 19.9 194 
 BAR2 SZ I         428 46.81        11.6 0.09                          19.9 194 
 BAR2 SZ ES   1    429  1.66                             172   -0.02 7 19.9 194 
 BRR  HZ EP        428 48.31                             152    0.1610 73.5 301 
 BRR  HZ I         428 48.72        10.6 0.11                          73.5 301 
 BRR  HN ES        429  4.71                             152   -0.0310 73.5 301 
 PAM  SZ EP   2    428 48.87                             150   -0.36 5 79.8  38 
 RUS  HZ EP        428 50.48                             145    0.1210 96.9 176 
 RUS  HE ES   1    429  8.57                             145   -0.10 7 96.9 176 
 RUS  HZ I         429 11.19         3.4 0.26                          96.9 176 
 PTB  HZ EP   1    428 53.50                             132   -0.34 7  148 260 
                                                                                
