 2012  828 0922 25.6 L   6.686 -73.198147.6  RSN  5 0.2 1.6LRSN                1
 GAP=170        0.36       5.6     3.6  5.1 -0.7528E+00 -0.1424E+01  0.9169E+01E
 Epicentro: VILLANUEVA - SANTANDER                                             3
 ACTION:UPD 12-09-10 11:58 OP:ep   STATUS:               ID:20120828092225 L   I
 2012-08-28-0920-00M.COL___218                                                 6
 STAT SP IPHASW D HRMM SECON CODA AMPLIT PERI AZIMU VELO AIN AR TRES W  DIS CAZ7
 BAR2 SZ EP        922 45.32                             176    0.0610 10.5 170 
 BAR2 SZ ES   3    923  0.23                             176   -0.37 2 10.5 170 
 BAR2 SZ I         923  1.48        12.1 0.38                          10.5 170 
 GIR2 SZ EP   3    922 45.26                             163   -0.61 2 43.4   1 
 GIR2 SZ ES   3    923  1.02                             163   -0.66 2 43.4   1 
 BRR  HZ EP        922 47.02                             152   -0.0510 73.4 309 
 BRR  HN ES   1    923  4.00                             152    0.19 7 73.4 309 
 BRR  HZ I         923  9.85        10.3 0.40                          73.4 309 
 RUS  HN ES   3    923  6.99                             148    0.24 2 88.7 172 
 RUS  HZ I         923 47.37         3.2 0.50                          88.7 172 
 PTB  HZ EP        922 52.07                             134    0.04 9  140 263 
 PTB  HN ES   1    923 12.53                             134   -0.12 7  140 263 
 PTB  HZ I         923 18.86         3.6 0.38                           140 263 
                                                                                
