 2016  328 0351 14.6 L   6.829 -73.142144.1  RSN  6 0.3 1.2LRSN                1
 GAP=136        0.68       2.7     3.4  5.2 -0.1277E+01  0.4910E+01 -0.2658E+01E
 Epicentro: LOS SANTOS - SANTANDER                                             3
 ACTION:UPD 16-05-13 21:28 OP:cam  STATUS:               ID:20160328034745 L   I
 OLDACT:UPD 16-03-28 15:59 OP:Mher STATUS:               ID:20160328034745 L   3
 2016-03-28-0347-45M.COL___298                                                 6
 STAT SP IPHASW D HRMM SECON CODA AMPLIT PERI AZIMU VELO AIN AR TRES W  DIS CAZ7
 BAR2 EZ EP        351 34.15                             169    0.0210 26.5 190 
 BAR2 EZ ES        351 49.59                             169    0.2510 26.5 190 
 BAR2 EZ I         351 54.69         2.5 0.46            171           26.5 190 
 PAM  EZ EP        351 36.72                             151    0.2110 74.7  41 
 PAM  EN ES        351 53.33                             151   -0.2510 74.7  41 
 PAM  EZ I         351 55.86         5.2 0.58            155           74.7  41 
 RUS  HZ EP        351 38.36                             143   -0.0910  104 176 
 RUS  HN ES        351 57.00                             143   -0.0210  104 176 
 RUS  HZ I         351 57.59         1.4 0.24            147            104 176 
 PTB  HZ EP        351 41.08                             131   -0.47 9  149 258 
 PTB  HN ES        352  2.61                             131    0.06 9  149 258 
 PTB  HZ I         352  4.78         1.6 0.14            135            149 258 
 OCA  HZ EP        351 42.99                             130    0.47 9  157 353 
 OCA  HE ES        352  3.98                             130   -0.29 9  157 353 
 OCA  HZ I         352  5.70         4.3 0.30            133            157 353 
 ZAR  HE ES   1    352 12.24                             122    0.20 6  203 291 
                                                                                
