 2013 1228 0005 55.9 L   6.800 -73.142145.8  RSN 14 0.4 2.3LRSN                1
 GAP=137        0.95       2.7     4.1  5.1 -0.6304E+00  0.5588E+01  0.1038E+01E
 Epicentro: LOS SANTOS - SANTANDER                                             3
 ACTION:UPD 14-01-13 10:21 OP:ep   STATUS:               ID:20131228000555 L   I
 OLDACT:REG 13-12-28 06:59 OP:mh   STATUS:               ID:20131228000000     3
 2013-12-28-0000-00M.COL___285                                                 6
 STAT SP IPHASW D HRMM SECON CODA AMPLIT PERI AZIMU VELO AIN AR TRES W  DIS CAZ7
 BAR2 SZ EP        0 6 15.63                             170    0.0910 23.4 191 
 BAR2 SZ ES   1    0 6 30.15                             170   -0.70 7 23.4 191 
 BAR2 SZ I         0 6 31.82        54.0 0.33            164           23.4 191 
 BRR  HZ EP     D  0 6 17.62                             152    0.5410 71.5 298 
 BRR  HN ES        0 6 34.29                             152    0.7010 71.5 298 
 BRR  HZ I         0 6 38.46        24.1 0.54            143           71.5 298 
 PAM  SZ EP        0 6 18.31                             151    0.2010 77.1  39 
 PAM  SE ES        0 6 35.62                             151    0.1910 77.1  39 
 PAM  SZ I         0 6 37.85        29.7 0.14            150           77.1  39 
 RUS  HZ EP        0 6 19.52                             144   -0.1410  101 176 
 RUS  HN ES        0 6 38.01                             144   -0.1710  101 176 
 RUS  HZ I         0 6 39.47        12.8 0.47            137            101 176 
 PTB  HZ EP        0 6 22.12                             132   -0.79 9  148 259 
 PTB  HN ES        0 6 43.61                             132   -0.36 9  148 259 
 PTB  HZ I         0 6 49.52        25.0 0.24            123            148 259 
 OCA  HZ EP        0 6 23.79                             130   -0.43 9  160 353 
 OCA  HN ES   1    0 6 46.15                             130   -0.16 7  160 353 
 OCA  HZ I         0 6 54.18        16.1 0.15            124            160 353 
 SPBC HZ EP        0 6 24.43                             129    0.00 9  163 219 
 SPBC HZ I         0 6 51.84        33.6 0.21            121            163 219 
 ZAR  HZ EP   1    0 6 28.84                             122    0.45 6  204 292 
 ZAR  HN ES   1    0 6 53.71                             122   -0.02 6  204 292 
 ZAR  HZ I         0 7  0.03        23.3 0.24            115            204 292 
 NOR  HZ EP        0 6 31.75                             118    0.08 8  235 235 
 NOR  HN ES   1    0 6 59.42                             118   -0.14 6  235 235 
 NOR  HZ I         0 7  6.98        14.7 0.30            111            235 235 
 SML  HZ EP        0 6 32.50                             117   -0.05 8  244 335 
 SML  HN ES        0 7  0.59                             117   -0.54 8  244 335 
 SML  HZ I         0 7  4.85        44.3 0.06            111            244 335 
 CHI  HZ EP        0 6 33.39                             117   -0.22 8  249 195 
 CHI  HN ES        0 7  3.19                             117    0.16 8  249 195 
 CHI  HZ I         0 7  9.04         6.8 0.21            111            249 195 
 HEL  HZ EP   1    0 6 37.01                             115    0.85 6  272 256 
 HEL  HZ I         0 7 14.56         7.4 0.31            108            272 256 
 URE  HZ EP   2    0 6 37.22                             113    0.20 4  284 292 
 URE  HN ES   4    0 7  6.06                             113   -3.02 0  284 292 
 GUY2CHZ EP   4    0 6 40.21                             112    0.66 0  301 235 
 GUY2CHN ES   4    0 7 17.31                             112    3.72 0  301 235 
 RREF HZ EP        0 6 42.80                             111    0.72 7  322 229 
 RREF HN ES   4    0 7 21.05                             111    2.95 0  322 229 
 COD  HZ EP   4    0 6 42.70                             109   -1.59 0  348 355 
 COD  HN ES   4    0 7 20.68                             109   -1.34 0  348 355 
 SJC  HZ EP   4    0 6 49.66                             106   -1.83 0  409 327 
 SJC  HN ES   4    0 7 29.10                             106   -5.75 0  409 327 
                                                                                
