 2017  728 0238 23.6 L   6.285 -73.766  3.2  RSN  5 0.3 1.4LRSN                1
 GAP= 86        0.80       1.7     1.6  4.5 -0.8481E-01 -0.2360E+00 -0.2377E+00E
 Epicentro: LANDAZURI - SANTANDER                                              3
 ACTION:UPD 17-08-30 15:37 OP:rebc STATUS:               ID:20170728023823 L   I
 OLDACT:UP  17-07-28 13:47 OP:and  STATUS:               ID:20170728023739     3
 OLDACT:REG 17-07-28 12:24 OP:and  STATUS:               ID:20170728023739     3
 2017-07-28-0238-00M.COL___380                                                 6
 STAT SP IPHASW D HRMM SECON CODA AMPLIT PERI AZIMU VELO AIN AR TRES W  DIS CAZ7
 BAR2 EZ EP        238 35.65                              47    0.0610 73.0  62 
 BAR2 EZ ES        238 44.72                              47   -0.2310 73.0  62 
 BAR2 EZ I         238 46.55         5.8 0.42             47           73.0  62 
 SPBC HZ EP        238 36.40                              47    0.2410 77.8 206 
 SPBC HE ES        238 46.26                              47    0.2910 77.8 206 
 SPBC HZ I         238 48.73        12.3 0.10             47           77.8 206 
 PTB  HZ EP        238 36.14                              47   -0.4910 81.4 290 
 PTB  HN ES        238 46.53                              47   -0.2810 81.4 290 
 PTB  HZ I         238 47.26        24.9 0.12             47           81.4 290 
 RUS  HZ EP        238 38.08                              47    0.0810 87.2 120 
 RUS  HN ES        238 48.98                              47   -0.2710 87.2 120 
 RUS  HZ I         238 50.42        10.1 0.27             47           87.2 120 
 BRR  HZ EP        238 38.20                              47    0.1110 91.1   4 
 BRR  HN ES        238 49.89                              47    0.4910 91.1   4 
 BRR  HZ I         238 51.08        11.8 0.10             47           91.1   4 
                                                                                
