 2015 1028 0507 15.0 L   6.805 -73.117149.4  RSN 20 0.4 2.5LRSN 3.1WRSN        1
 SPEC AVERAGE  MO 13.8 ST0.181 OM  1.8 f0 1.47 R1.5315 AL 0.00 WI 40.0 MW  3.1 3
 SPEC SD       MO  0.2 ST0.396 OM  0.3 f00.830 R0.5366 AL      WI      MW  0.1 3
 GAP=140        0.78       2.1     3.1  4.6 -0.1120E+01  0.4513E+01  0.1382E+01E
 Epicentro: LOS SANTOS - SANTANDER                                             3
 SPEC BRR HH Z MO 13.6 ST0.629 OM  1.7 f0 2.87 R0.6704 AL-0.00 WI 40.0 MW  3.0 3
 SPEC BRR HH Z T 5 752 K 0.000 GD  166 VS 5.20 DE 3.50 Q0750.0 QA 1.50 VS 3.50 3
 SPEC PAM EH Z MO 14.1 ST0.067 OM  2.2 f00.926 R2.0778 AL-0.00 WI 40.0 MW  3.4 3
 SPEC PAM EH Z T 5 753 K 0.000 GD  167 VS 5.20 DE 3.50 Q0750.0 QA 1.50 VS 3.50 3
 SPEC ZAR HH Z MO 13.6 ST0.722 OM  1.5 f0 3.04 R0.6329 AL-0.00 WI 40.0 MW  3.0 3
 SPEC ZAR HH Z T 5 812 K 0.000 GD  255 VS 5.20 DE 3.50 Q0750.0 QA 1.50 VS 3.50 3
 SPEC CHI HH Z MO 13.9 ST0.043 OM  1.7 f00.976 R1.9713 AL-0.00 WI 40.0 MW  3.2 3
 SPEC CHI HH Z T 5 821 K 0.000 GD  291 VS 5.20 DE 3.50 Q0750.0 QA 1.50 VS 3.50 3
 SPEC ROSCBH Z MO 14.1 ST0.069 OM  1.9 f00.976 R1.9713 AL-0.00 WI 40.0 MW  3.3 3
 SPEC ROSCBH Z T 5 823 K 0.000 GD  295 VS 5.20 DE 3.50 Q0750.0 QA 1.50 VS 3.50 3
 SPEC HEL HH Z MO 13.7 ST0.072 OM  1.5 f0 1.32 R1.4576 AL-0.00 WI 40.0 MW  3.1 3
 SPEC HEL HH Z T 5 825 K 0.000 GD  312 VS 5.20 DE 3.50 Q0750.0 QA 1.50 VS 3.50 3
 SPECGUY2CHH Z MO 14.1 ST0.053 OM  1.9 f00.852 R2.2582 AL-0.00 WI 40.0 MW  3.4 3
 SPECGUY2CHH Z T 5 833 K 0.000 GD  338 VS 5.20 DE 3.50 Q0750.0 QA 1.50 Q1 0.00 3
 SPEC CBOCHH Z MO 13.7 ST0.033 OM  1.4 f0 1.04 R1.8500 AL-0.00 WI 40.0 MW  3.1 3
 SPEC CBOCHH Z T 5 837 K 0.000 GD  368 VS 5.20 DE 3.50 Q0750.0 QA 1.50 VS 3.50 3
 SPEC MON HH Z MO 13.6 ST0.069 OM  1.3 f0 1.41 R1.3645 AL-0.00 WI 40.0 MW  3.0 3
 SPEC MON HH Z T 5 839 K 0.000 GD  386 VS 5.20 DE 3.50 Q0750.0 QA 1.50 VS 3.50 3
 SPEC ANILHH Z MO 14.1 ST0.197 OM  1.8 f0 1.36 R1.4147 AL-0.00 WI 40.0 MW  3.3 3
 SPEC ANILHH Z T 5 844 K 0.000 GD  389 VS 5.20 DE 3.50 Q0750.0 QA 1.50 VS 3.50 3
 SPEC ORTCHH Z MO 13.8 ST0.060 OM  1.5 f0 1.12 R1.7179 AL-0.00 WI 40.0 MW  3.2 3
 SPEC ORTCHH Z T 5 850 K 0.000 GD  425 VS 5.20 DE 3.50 Q0750.0 QA 1.50 VS 3.50 3
 SPEC PAL HH Z MO 13.6 ST0.031 OM  1.2 f0 1.12 R1.7179 AL-0.00 WI 40.0 MW  3.0 3
 SPEC PAL HH Z T 5 849 K 0.000 GD  435 VS 5.20 DE 3.50 Q0750.0 QA 1.50 VS 3.50 3
 OLDACT:UP  15-10-28 15:41 OP:mh   STATUS:               ID:20151028045737     3
 OLDACT:REG 15-10-28 12:35 OP:mh   STATUS:               ID:20151028045737     3
 ACTION:UPD 15-12-22 20:43 OP:cam  STATUS:               ID:20151028050715 L   I
 OLDACT:UP  15-10-28 15:43 OP:mh   STATUS:               ID:20151028045737     3
 OLDACT:UP  15-10-28 15:42 OP:mh   STATUS:               ID:20151028045737     3
 2015-10-28-0457-37M.COL___322                                                 6
 STAT SP IPHASW D HRMM SECON CODA AMPLIT PERI AZIMU VELO AIN AR TRES W  DIS CAZ7
 BAR2 EZ IP     D  5 7 35.17                             170    0.0510 24.6 197 
 BAR2 EZ I         5 7 52.65        56.7 0.42            167           24.6 197 
 BRR  HZ EP        5 7 37.06                             152    0.3410 73.8 297 
 BRR  HN ES        5 7 53.90                             152    0.2710 73.8 297 
 BRR  HZ I         5 7 57.90        69.8 0.16            148           73.8 297 
 PAM  EZ IP     D  5 7 38.12                             152    0.6310 75.0  38 
 PAM  EN ES        5 7 55.10                             152    0.0810 75.0  38 
 PAM  EZ I         5 7 56.98        64.3 0.56            155           75.0  38 
 RUS  HZ EP        5 7 39.00                             144   -0.1610  101 178 
 RUS  HN ES        5 7 57.59                             144   -0.4010  101 178 
 RUS  HZ I         5 7 59.33        20.5 0.18            146            101 178 
 OCA  HZ EP        5 7 43.19                             130   -0.42 9  160 352 
 OCA  HN ES        5 8  5.62                             130   -0.29 9  160 352 
 OCA  HZ I         5 8  9.93        49.8 0.18            131            160 352 
 SPBC HZ EP   1    5 7 43.96                             129   -0.07 7  166 220 
 SPBC HN ES        5 8  6.44                             129   -0.22 9  166 220 
 SPBC HZ I         5 8 12.29        54.7 0.16            129            166 220 
 ZAR  HZ EP   1    5 7 47.56                             123   -0.44 6  207 292 
 ZAR  HN ES        5 8 14.19                             123    0.48 8  207 292 
 ZAR  HZ I         5 8 23.45        36.6 0.36            122            207 292 
 NOR  HZ EP        5 7 50.96                             119   -0.32 8  238 235 
 NOR  HE ES        5 8 19.55                             119   -0.00 8  238 235 
 NOR  HZ I         5 8 26.67        28.2 0.20            118            238 235 
 SML  HZ EP   1    5 7 51.28                             118   -0.68 6  245 335 
 SML  HN ES   1    5 8 20.34                             118   -0.42 6  245 335 
 SML  HZ I         5 8 27.30        41.0 0.28            118            245 335 
 CHI  HZ EP   1    5 7 53.02                             118   -0.05 6  250 196 
 CHI  HN ES        5 8 22.72                             118   -0.03 8  250 196 
 CHI  HZ I         5 8 27.39        14.0 0.40            118            250 196 
 ROSC BZ EP   1    5 7 54.29                             117    0.72 6  255 212 
 ROSC BE ES   4    5 8 25.24                             117    1.60 0  255 212 
 ROSC BZ I         5 8 30.52        31.1 0.55            117            255 212 
 HEL  HZ EP   1    5 7 56.17                             115    0.39 6  275 256 
 HEL  HN ES        5 8 27.28                             115   -0.29 8  275 256 
 HEL  HZ I         5 8 33.45        16.1 0.30            115            275 256 
 URE  HZ EP   4    5 7 54.87                             114   -1.71 0  287 292 
 URE  HN ES   4    5 8 29.25                             114    0.25 0  287 292 
 URE  HZ I         5 8 35.65        20.2 0.24            114            287 292 
 GUY2CHZ EP   1    5 8  0.00                             113    0.87 5  304 235 
 GUY2CHN ES   4    5 8 35.18                             113    1.65 0  304 235 
 GUY2CHZ I         5 8 42.04        19.8 0.26                           304 235 
 CBOC HZ EP   1    5 8  2.94                             110    0.48 5  337 252 
 CBOC HN ES        5 8 39.15                             110   -0.31 7  337 252 
 CBOC HZ I         5 8 44.25         5.6 0.20            110            337 252 
 DBB  SZ EP   1    5 8  2.73                             110   -0.28 5  343 274 
 DBB  SZ ES   4    5 8 38.34                             110   -2.10 0  343 274 
 MON  HZ EP   4    5 8  1.88                             109   -2.54 0  356 308 
 MON  HN ES   4    5 8 40.56                             109   -2.39 0  356 308 
 MON  HZ I         5 8 56.25         6.9 0.54            109            356 308 
 ANIL HZ EP   4    5 8  6.77                             109    1.50 0  360 225 
 ANIL HE ES   4    5 8 45.86                             109    1.40 0  360 225 
 ANIL HZ I         5 8 54.04        32.3 0.52            109            360 225 
 ORTC HZ EP        5 8  9.30                             107   -0.04 6  398 217 
 ORTC HN ES        5 8 52.07                             107    0.37 6  398 217 
 ORTC HZ I         5 8 58.37        11.8 0.36            107            398 217 
 PAL  HZ EP   4    5 8 10.07                             106   -0.59 0  409 239 
 PAL  HN ES   4    5 8 51.07                             106   -2.98 0  409 239 
 PAL  HZ I         5 9  5.54         4.6 0.50            106            409 239 
                                                                                
