 2017 1128 0810 15.6 L   6.782 -73.144145.6  RSN 12 0.4 1.7LRSN                1
 GAP= 72        0.99       3.1     3.8  5.5 -0.1061E+01  0.5033E+01  0.2340E+01E
 Epicentro: LOS SANTOS - SANTANDER                                             3
 ACTION:UPD 17-12-12 20:01 OP:rebc STATUS:               ID:20171128081015 L   I
 OLDACT:UP  17-11-28 15:58 OP:dani STATUS:               ID:20171128080746     3
 OLDACT:UP  17-11-28 15:56 OP:dani STATUS:               ID:20171128080746     3
 OLDACT:REG 17-11-28 13:08 OP:dani STATUS:               ID:20171128080746     3
 2017-11-28-0808-00M.COL___483                                                 6
 STAT SP IPHASW D HRMM SECON CODA AMPLIT PERI AZIMU VELO AIN AR TRES W  DIS CAZ7
 BAR2 EZ EP        810 35.06                             171   -0.0710 21.4 191 
 BAR2 EZ ES        810 50.84                             171    0.4410 21.4 191 
 BAR2 EZ I         810 51.94        11.7 0.20            168           21.4 191 
 PAM  EZ EP        810 38.18                             150    0.3410 78.8  39 
 PAM  EE ES        810 55.28                             150    0.0610 78.8  39 
 PAM  EZ I         810 55.95         5.2 0.18            155           78.8  39 
 RUS  HZ EP        810 38.90                             144   -0.2510 98.6 176 
 RUS  HE ES        810 57.58                             144    0.0310 98.6 176 
 RUS  HZ I         810 58.78         3.9 0.22            146           98.6 176 
 PTB  HZ EP        810 41.81                             132   -0.68 9  148 260 
 PTB  HN ES        811  3.08                             132   -0.42 9  148 260 
 PTB  HZ I         811  8.80         6.2 0.12            131            148 260 
 TAM  HZ EP        810 43.34                             131    0.18 9  154 104 
 SPBC HZ EP        810 43.98                             129    0.07 9  162 219 
 SPBC HE ES        811  5.92                             129   -0.10 9  162 219 
 SPBC HZ I         811 12.81        12.2 0.30            129            162 219 
 OCA  HN ES        811  5.52                             129   -0.73 9  162 353 
 ZAR  HZ EP        810 48.09                             122    0.01 9  205 293 
 ZAR  HN ES        811 14.18                             122    0.73 9  205 293 
 ZAR  HZ I         811 21.65         8.1 0.40            123            205 293 
 NOR  HZ EP        810 51.12                             119   -0.04 8  234 235 
 CHI  HZ EP        810 52.87                             117   -0.17 8  247 195 
 CHI  HE ES        811 22.07                             117   -0.21 8  247 195 
 CHI  HZ I         811 27.30         1.7 0.40            119            247 195 
 CBOC HZ EP        811  3.56                             110    1.15 7  333 252 
 PRA  HZ EP        811  9.17                             107    0.29 6  390 210 
                                                                                
