 2017  328 0524 45.7 L   6.775 -73.120149.1  RSN 18 0.5 2.0LRSN                1
 GAP=122        0.94       3.2     3.4  4.5 -0.9950E-01  0.5339E+01  0.1757E+01E
 Epicentro: LOS SANTOS - SANTANDER                                             3
 ACTION:UPD 17-05-25 18:46 OP:jn   STATUS:               ID:20170328052445 L   I
 OLDACT:UP  17-03-28 15:15 OP:and  STATUS:               ID:20170328051742     3
 OLDACT:UP  17-03-28 15:14 OP:and  STATUS:               ID:20170328051742     3
 OLDACT:UP  17-03-28 15:14 OP:and  STATUS:               ID:20170328051742     3
 OLDACT:UP  17-03-28 15:11 OP:and  STATUS:               ID:20170328051742     3
 OLDACT:UP  17-03-28 15:11 OP:and  STATUS:               ID:20170328051742     3
 OLDACT:UP  17-03-28 15:10 OP:and  STATUS:               ID:20170328051742     3
 OLDACT:UP  17-03-28 15:10 OP:and  STATUS:               ID:20170328051742     3
 OLDACT:UP  17-03-28 15:10 OP:and  STATUS:               ID:20170328051742     3
 OLDACT:UP  17-03-28 15:09 OP:and  STATUS:               ID:20170328051742     3
 OLDACT:UP  17-03-28 15:09 OP:and  STATUS:               ID:20170328051742     3
 OLDACT:UP  17-03-28 15:09 OP:and  STATUS:               ID:20170328051742     3
 OLDACT:REG 17-03-28 12:40 OP:and  STATUS:               ID:20170328051742     3
 2017-03-28-0518-00M.COL___360                                                 6
 STAT SP IPHASW D HRMM SECON CODA AMPLIT PERI AZIMU VELO AIN AR TRES W  DIS CAZ7
 BAR2 EZ IP     C  525  5.66                             172   -0.0110 21.4 199 
 BAR2 EZ ES        525 21.07                             172   -0.2010 21.4 199 
 BAR2 EZ I         525 21.54        27.2 0.19            168           21.4 199 
 BRR  HZ EP        525  7.68                             152    0.2810 75.0 299 
 BRR  HN ES        525 24.87                             152    0.5210 75.0 299 
 BRR  HZ I         525 27.52        22.6 0.14            150           75.0 299 
 PAM  EZ IP     D  525  8.81                             151    0.5410 77.8  37 
 PAM  EN ES        525 25.75                             151   -0.1510 77.8  37 
 PAM  EZ I         525 28.81        12.1 0.31            156           77.8  37 
 RUS  HZ IP     C  525  9.45                             145   -0.1010 97.7 178 
 RUS  HN ES        525 27.78                             145   -0.4010 97.7 178 
 RUS  HZ I         525 28.97         7.3 0.44            145           97.7 178 
 PTB  HZ EP        525 12.55                             132   -0.57 9  150 260 
 PTB  HN ES   3    525 32.88                             132   -1.65 2  150 260 
 PTB  HZ I         525 37.24        13.3 0.14            131            150 260 
 ZAR  HZ EP        525 18.61                             123   -0.10 8  208 293 
 ZAR  HE ES        525 44.52                             123    0.03 8  208 293 
 ZAR  HZ I         525 49.76         8.3 0.08            122            208 293 
 NOR  HZ EP        525 22.16                             119    0.48 8  235 235 
 NOR  HN ES        525 49.90                             119    0.14 8  235 235 
 NOR  HZ I         525 56.04        13.4 0.26            119            235 235 
 CHI  HN ES   2    525 54.66                             118    1.91 4  247 196 
 HEL  HZ EP   9    525 27.64                             115    1.35 0  274 257 
 HEL  HN ES        525 58.96                             114   -0.36 8  274 257 
 HEL  HZ I         526  6.34         6.5 0.30            115            274 257 
 URE  HZ EP        525 26.70                             114   -0.61 7  287 292 
 URE  HN ES   3    525 58.19                             114   -1.60 2  287 292 
 URE  HZ I         525 59.94        10.8 0.18            114            287 292 
 PTGC HZ EP        525 28.53                             112   -0.75 7  305 159 
 PTGC HN ES   4    526  1.33                             112   -1.96 0  305 159 
 CBOC HZ EP   2    525 33.45                             110    0.51 3  335 253 
 CBOC HN ES        526  9.90                             110    0.09 7  335 253 
 CBOC HZ I         526 17.84         2.1 0.60            110            335 253 
 DBB  EZ EP        525 33.88                             110    0.25 7  343 275 
 DBB  EN ES        526 10.44                             110   -0.61 7  343 275 
 DBB  EZ I         526 12.96         3.0 0.32            110            343 275 
 PRA  HZ EP        525 39.15                             107   -0.05 6  391 210 
 PRA  HN ES        526 20.82                             107   -0.13 6  391 210 
 PRA  HZ I         526 28.25         3.4 0.26            107            391 210 
 ORTC HZ EP        525 40.46                             107    0.81 6  395 217 
 ORTC HN ES   4    526 23.97                             107    2.22 0  395 217 
 ORTC HZ I         526 29.31         3.1 0.44            107            395 217 
 PAL  HZ EP        525 41.68                             106    0.61 6  407 240 
 PAL  HN ES   4    526 23.07                             106   -1.20 0  407 240 
 PAL  HZ I         526 30.33         3.2 0.24            107            407 240 
 SJC  HZ EP        525 41.17                             106   -0.62 6  413 327 
 SJC  HN ES   4    526 22.05                             106   -3.52 0  413 327 
 SJC  HZ I         526 27.92         2.9 0.34            107            413 327 
 URI  HZ EP   4    525 57.39                             101   -1.60 0  559  13 
 URI  HE ES        526 56.51                             101    0.32 3  559  13 
                                                                                
