 2011 1228 0555 50.0 L   6.734 -73.164142.0  RSN  5 0.3 1.4LRSN                1
 GAP=179        0.68       5.7     7.5  6.8  0.1644E+02  0.1372E+02  0.7694E+01E
 Epicentro: VILLANUEVA - SANTANDER                                             3
 ACTION:UPD 12-07-13 16:19 OP:ep   STATUS:               ID:20111228055000 L   I
 2011-12-28-0550-00M.COL___186                                                 6
 STAT SP IPHASW D HRMM SECON CODA AMPLIT PERI AZIMU VELO AIN AR TRES W  DIS CAZ7
 BAR2 SZ ES   1    556 23.73                             173   -0.12 7 15.8 187 
 BAR2 SZ I         556 24.90         6.6 0.28                          15.8 187 
 GIR2 SZ EP   1    556  9.03                             164   -0.36 7 38.2 355 
 GIR2 SZ ES   1    556 24.38                             164   -0.17 7 38.2 355 
 BRR  HZ EP   1    556 10.89                             151    0.07 7 73.2 304 
 BRR  HE ES   1    556 27.62                             151    0.54 7 73.2 304 
 BRR  HZ I         556 31.19         4.6 0.13                          73.2 304 
 RUS  HZ EP   1    556 13.42                             145    0.59 7 93.5 174 
 RUS  HN ES   1    556 30.52                             145   -0.15 7 93.5 174 
 RUS  HZ I         556 33.36         3.1 0.31                          93.5 174 
 PTB  HZ EP   1    556 15.99                             132   -0.33 7  144 262 
 PTB  HN ES   2    556 36.59                             132   -0.29 5  144 262 
                                                                                
