 2017 1228 0604  0.9 L   6.876 -73.058138.7  RSN  4 0.3 1.3LRSN                1
 GAP=275        0.75       5.6     5.4  6.6  0.6459E+01  0.8802E+01 -0.7119E+01E
 Epicentro: PIEDECUESTA - SANTANDER                                            3
 ACTION:UPD 18-01-04 13:25 OP:rebc STATUS:               ID:20171228060400 L   I
 OLDACT:REG 17-12-28 13:05 OP:osc  STATUS:               ID:20171228055740     3
 2017-12-28-0558-00M.COL___463                                                 6
 STAT SP IPHASW D HRMM SECON CODA AMPLIT PERI AZIMU VELO AIN AR TRES W  DIS CAZ7
 BAR2 EZ EP        6 4 20.15                             165    0.2010 34.2 204 
 BAR2 EZ ES        6 4 34.72                             165   -0.1110 34.2 204 
 BAR2 EZ I         6 4 37.16         4.7 0.28            162           34.2 204 
 PTB  HZ EP        6 4 27.65                             128   -0.70 9  159 257 
 PTB  HE ES        6 4 49.77                             128    0.00 9  159 257 
 PTB  HZ I         6 4 51.16         1.4 0.16            128            159 257 
 SPBC HZ EP        6 4 30.12                             125    0.03 9  176 220 
 SPBC HN ES        6 4 53.09                             125    0.21 9  176 220 
 SPBC HZ I         6 4 59.10         2.6 0.32            125            176 220 
 ZAR  HZ EP        6 4 33.90                             120    0.38 8  210 289 
 ZAR  HN ES        6 4 59.03                             120    0.05 8  210 289 
 ZAR  HZ I         6 5  4.28         2.3 0.50            121            210 289 
                                                                                
