 2011  728 0933 51.4 L   6.779 -73.084144.2  RSN 11 0.3 2.4LRSN                1
 GAP=163        0.64       2.2     4.4  4.5 -0.2612E+01  0.4737E+01  0.4058E+00E
 Epicentro: LOS SANTOS - SANTANDER                                             3
 ACTION:UPD 12-07-25 14:03 OP:epov STATUS:               ID:20110728093351 L   I
 2011-07-28-0920-00M.COL___142                                                 6
 STAT SP IPHASW D HRMM SECON CODA AMPLIT PERI AZIMU VELO AIN AR TRES W  DIS CAZ7
 BAR2 SZ EP   1    934 11.01                             170    0.12 7 23.3 208 
 BAR2 SZ ES   1    934 25.76                             170   -0.29 7 23.3 208 
 BAR2 SZ I         934 27.87        53.8 0.25                          23.3 208 
 GIR2 SZ EP   1    934 11.10                             166    0.05 7 35.3 340 
 BRR  HZ EP        934 12.83                             150   -0.0210 78.4 298 
 BRR  HZ I         934 13.21       133.8 0.17                          78.4 298 
 BRR  HN ES   1    934 29.74                             150    0.20 7 78.4 298 
 RUS  HZ EP        934 14.80                             144   -0.0510 98.0 180 
 RUS  HN ES        934 33.43                             144    0.3110 98.0 180 
 RUS  HZ I         934 34.92        21.6 0.24                          98.0 180 
 BRI  SZ EP        934 15.48                             141    0.3010  108  17 
 GRA  SZ ES        934 35.61                             136   -0.5810  126  14 
 GRA  SZ I         934 37.08        39.5 0.47                           126  14 
 OCA  SZ EP        934 19.98                             129    0.04 9  164 351 
 OCA  SZ ES   1    934 42.41                             129    0.24 7  164 351 
 OCA  SZ I         934 48.20        41.5 0.28                           164 351 
 CHI  HZ EP   1    934 28.90                             117   -0.11 6  248 197 
 CHI  HE ES   1    934 58.09                             117   -0.23 6  248 197 
 CHI  HZ I         935  6.36        14.3 0.18                           248 197 
 HEL  HZ EP   1    934 32.83                             114    0.58 6  278 257 
 HEL  HN ES   1    935  3.57                             114   -0.52 6  278 257 
 TOL  SZ EP   1    934 40.42                             109    0.42 5  347 226 
 PRA  HZ EP   1    934 44.53                             106   -0.54 4  393 211 
 PRA  HN ES   1    935 26.51                             106   -0.40 4  393 211 
                                                                                
