 2017 1028 0323 51.6 L   6.783 -73.174148.0  RSN  4 0.4 1.2LRSN                1
 GAP=233        0.74       4.7     7.1  6.8  0.1122E+02  0.2070E+01  0.1828E+01E
 Epicentro: LOS SANTOS - SANTANDER                                             3
 ACTION:UPD 17-11-07 19:38 OP:rebc STATUS:               ID:20171028032351 L   I
 OLDACT:UP  17-10-28 14:42 OP:dani STATUS:               ID:20171028031737     3
 OLDACT:REG 17-10-28 12:38 OP:dani STATUS:               ID:20171028031737     3
 2017-10-28-0318-00M.COL___450                                                 6
 STAT SP IPHASW D HRMM SECON CODA AMPLIT PERI AZIMU VELO AIN AR TRES W  DIS CAZ7
 BRR  HZ EP        324 12.95                             154    0.0910 69.4 301 
 BRR  HN ES        324 29.62                             154    0.1610 69.4 301 
 BRR  HZ I         324 32.90         3.9 0.35            149           69.4 301 
 RUS  HZ EP        324 15.19                             145   -0.2310 99.0 174 
 RUS  HN ES        324 34.03                             145    0.0010 99.0 174 
 RUS  HZ I         324 35.39         2.7 0.32            144           99.0 174 
 PTB  HZ EP        324 18.00                             133   -0.41 9  144 259 
 PTB  HN ES   3    324 37.37                             133   -1.97 2  144 259 
 PTB  HZ I         324 43.95         1.3 0.13            131            144 259 
 SPBC HZ EP        324 20.28                             130    0.36 9  160 219 
 SPBC HN ES        324 42.20                             130    0.18 9  160 219 
 SPBC HZ I         324 48.59         2.5 0.13            129            160 219 
                                                                                
