 2017  428 1643 49.1 L   6.803 -73.159139.4  RSN  5 0.4 1.7LRSN                1
 GAP=135        1.11       5.5     4.9  9.4  0.2622E+01  0.8861E+01  0.1651E+00E
 Epicentro: LOS SANTOS - SANTANDER                                             3
 ACTION:UPD 17-05-30 21:16 OP:jn   STATUS:               ID:20170428164349 L   I
 OLDACT:DUP 17-04-29 00:27 OP:dani STATUS:               ID:20170428163746d    3
 2017-04-28-1638-00M.COL___374                                                 6
 STAT SP IPHASW D HRMM SECON CODA AMPLIT PERI AZIMU VELO AIN AR TRES W  DIS CAZ7
 BRR  HZ EP       1644  9.69                             152    0.1710 69.7 299 
 BRR  HN ES       1644 25.10                             152   -0.3210 69.7 299 
 BRR  HZ I        1644 29.56        12.3 0.20            151           69.7 299 
 PAM  EZ EP       1644 10.20                             149   -0.5310 78.1  41 
 PAM  EN ES       1644 27.86                             149    0.2910 78.1  41 
 PAM  EZ I        1644 29.91         8.9 0.62            152           78.1  41 
 RUS  HZ EP       1644 11.85                             142   -0.4610  101 175 
 RUS  HN ES       1644 30.90                             142    0.5210  101 175 
 RUS  HZ I        1644 31.28         3.3 0.26            147            101 175 
 PTB  HN ES       1644 35.55                             131   -0.45 9  146 259 
 ZAR  HZ EP       1644 21.71                             121    0.69 9  203 292 
 ZAR  HN ES       1644 46.19                             121    0.30 9  203 292 
 ZAR  HZ I        1644 52.34         7.3 0.34            123            203 292 
                                                                                
