 2010  628 1236 35.1 L   6.821 -73.059149.2  RSN  4 0.1 1.5LRSN                1
 GAP=174        0.33       3.8     5.8  4.6  0.1076E+02 -0.1303E+02 -0.8652E+01E
 Epicentro: LOS SANTOS - SANTANDER                                             3
 ACTION:UP  10-08-24 10:13 OP:vdl  STATUS:               ID:20100628123635 L   I
 2010-06-28-1232-09S.COL___118                                                 6
 STAT SP IPHASW D HRMM SECON CODA AMPLIT PERI AZIMU VELO SNR AR TRES W  DIS CAZ7
 BAR2 SZ EP   1   1236 55.41                             168     0.2 7   29 208 
 BAR2 SZ ES   1   1237 11.01                             168     0.0 7   29 208 
 BRR  HZ IP     D 1236 57.00                             151     0.010   79 294 
 BRR  HZ I        1236 57.77        11.0 0.57                            79 294 
 BRR  HN ES   1   1237 14.17                             151     0.0 7   79 294 
 RUS  HZ EP   2   1236 59.40                             144     0.1 5  103 181 
 RUS  HN ES   2   1237 18.07                             144    -0.2 5  103 181 
 RUS  HZ I        1237 19.51         2.9 0.56                           103 181 
 GUE  SZ EP   1   1236 59.75                             141    -0.1 7  113   8 
                                                                                
