 2011 1128 1016  3.6 L   6.815 -73.058143.5  RSN  4 0.2 1.3LRSN                1
 GAP=147        0.37       4.5     8.1  6.3  0.2132E+02 -0.2051E+02 -0.1188E+02E
 Epicentro: LOS SANTOS - SANTANDER                                             3
 ACTION:UPD 12-07-13 16:12 OP:ep   STATUS:               ID:20111128101603 L   I
 2011-11-28-1014-46S.COL___160                                                 6
 STAT SP IPHASW D HRMM SECON CODA AMPLIT PERI AZIMU VELO AIN AR TRES W  DIS CAZ7
 BAR2 SZ ES   2   1016 37.90                             168   -0.31 5 28.2 209 
 BAR2 SZ I        1016 39.40         5.3 0.24                          28.2 209 
 PAM  SZ EP   2   1016 25.26                             153    0.14 5 70.2  34 
 BRR  HZ EP   1   1016 24.84                             149   -0.10 7 79.2 294 
 BRR  HE ES   2   1016 41.84                             149    0.23 5 79.2 294 
 BRR  HZ I        1016 47.32         5.5 0.42                          79.2 294 
 RUS  HZ EP   1   1016 27.17                             143   -0.02 7  102 182 
 RUS  HE ES   1   1016 45.71                             143    0.09 7  102 182 
 RUS  HZ I        1016 47.00         1.9 0.48                           102 182 
                                                                                
