 2017 1128 1109 22.7 L   6.812 -73.173137.1  RSN  7 0.3 1.6LRSN                1
 GAP=133        0.81       3.2     3.5  5.8 -0.9928E+00  0.8865E+01  0.4199E+00E
 Epicentro: LOS SANTOS - SANTANDER                                             3
 ACTION:UPD 17-12-12 20:01 OP:rebc STATUS:               ID:20171128110922 L   I
 OLDACT:REG 17-11-28 19:25 OP:dhb  STATUS:               ID:20171128110742     3
 2017-11-28-1108-00M.COL___483                                                 6
 STAT SP IPHASW D HRMM SECON CODA AMPLIT PERI AZIMU VELO AIN AR TRES W  DIS CAZ7
 BAR2 EZ EP       11 9 41.17                             169   -0.1510 24.3 182 
 BAR2 EZ ES       11 9 55.70                             169   -0.1410 24.3 182 
 BAR2 EZ I        11 9 58.54         9.8 0.22            169           24.3 182 
 PAM  EZ IP     C 11 9 44.07                             149   -0.0010 78.4  42 
 PAM  EN ES       1110  0.93                             149    0.2010 78.4  42 
 PAM  EZ I        1110  3.35         5.0 0.70            153           78.4  42 
 RUS  HZ EP       11 9 45.61                             141   -0.1210  102 174 
 RUS  HN ES       1110  3.81                             141    0.1110  102 174 
 RUS  HZ I        1110  5.14         9.0 0.28            143            102 174 
 PTB  HZ EP       11 9 48.20                             130   -0.53 9  145 258 
 PTB  HN ES       1110  9.49                             130    0.46 9  145 258 
 PTB  HZ I        1110 11.59         3.4 0.12            131            145 258 
 ZAR  HZ EP       11 9 54.48                             121    0.22 9  201 292 
 ZAR  HN ES       1110 18.45                             121   -0.42 9  201 292 
 ZAR  HZ I        1110 25.71         6.8 0.26            122            201 292 
 NOR  HZ EP       11 9 58.52                             117    0.76 8  233 234 
 NOR  HE ES       1110 25.06                             117   -0.05 8  233 234 
 NOR  HZ I        1110 31.14         2.5 0.28            118            233 234 
 CHI  HE ES       1110 28.82                             115   -0.26 8  249 194 
 CHI  HZ I        1110 35.50         2.2 0.50            117            249 194 
                                                                                
