 2011 1128 1616 10.0 L   6.768 -73.101140.0  RSN  7 0.2 2.0LRSN                1
 GAP=144        0.51       2.9     3.5  3.7 -0.2153E+01  0.1275E+01  0.2853E+01E
 Epicentro: LOS SANTOS - SANTANDER                                             3
 ACTION:UPD 12-07-13 16:12 OP:ep   STATUS:               ID:20111128161610 L   I
 2011-11-28-1612-34S.COL___160                                                 6
 STAT SP IPHASW D HRMM SECON CODA AMPLIT PERI AZIMU VELO AIN AR TRES W  DIS CAZ7
 BAR2 SZ EP       1616 28.76                             171   -0.1810 21.4 205 
 BAR2 SZ ES       1616 43.74                             171    0.0610 21.4 205 
 BAR2 SZ I        1616 45.13        27.7 0.22                          21.4 205 
 PAM  SZ EP       1616 31.71                             150    0.0810 77.2  35 
 PAM  SN ES   1   1616 48.51                             150    0.03 7 77.2  35 
 BRR  HZ IP     D 1616 30.69                             149   -0.2410 77.2 299 
 BRR  HZ I        1616 31.08        25.7 0.13                          77.2 299 
 BRR  HN ES       1616 47.38                             149    0.1510 77.2 299 
 RUS  HZ EP   1   1616 32.86                             144   -0.10 7 96.8 179 
 RUS  HE ES   1   1616 50.70                             144   -0.13 7 96.8 179 
 RUS  HZ I        1616 52.75        12.0 0.40                          96.8 179 
 CTAU SZ EP       1616 43.11                             122    0.53 9  202 211 
 NOR  SZ EP   1   1616 45.56                             117   -0.10 6  237 236 
 NOR  SN ES   1   1617 13.23                             117   -0.22 6  237 236 
 CHI  HZ EP   2   1616 47.10                             116   -0.10 4  247 196 
 CHI  HZ I        1617 23.62         4.3 0.51                           247 196 
                                                                                
