 2017 1028 1050 11.1 L   6.763 -73.119138.0  RSN  8 0.4 1.4LRSN                1
 GAP=142        1.09       3.8     5.3  6.5  0.1402E+00  0.1033E+02  0.4843E+01E
 Epicentro: LOS SANTOS - SANTANDER                                             3
 ACTION:UPD 17-11-07 19:38 OP:rebc STATUS:               ID:20171028105011 L   I
 OLDACT:REG 17-10-28 19:34 OP:dhb  STATUS:               ID:20171028104745     3
 2017-10-28-1048-00M.COL___435                                                 6
 STAT SP IPHASW D HRMM SECON CODA AMPLIT PERI AZIMU VELO AIN AR TRES W  DIS CAZ7
 BAR2 EZ EP       1050 29.37                             171   -0.3610 20.1 200 
 BAR2 EZ ES       1050 44.00                             171   -0.2610 20.1 200 
 BAR2 EZ I        1050 45.84         8.1 0.22            170           20.1 200 
 BRR  HZ EP       1050 31.90                             150    0.2110 75.8 300 
 BRR  HZ I        1050 41.98         8.8 0.26            147           75.8 300 
 BRR  HN ES       1050 48.19                             150    0.4410 75.8 300 
 PAM  EZ EP       1050 32.32                             149   -0.2610 78.9  36 
 PAM  EN ES       1050 49.46                             149    0.1210 78.9  36 
 PAM  EZ I        1050 51.74         2.9 0.66            150           78.9  36 
 RUS  HZ EP       1050 33.57                             143   -0.2010 96.3 178 
 RUS  HN ES       1050 51.99                             143    0.5310 96.3 178 
 RUS  HZ I        1050 53.27         4.5 0.32            144           96.3 178 
 SPBC HZ EP       1050 38.66                             128   -0.22 9  162 221 
 SPBC HN ES       1051  0.25                             128   -0.31 9  162 221 
 SPBC HZ I        1051  5.75         4.5 0.38            127            162 221 
 ZAR  HZ EP       1050 44.36                             120    0.86 8  208 293 
 ZAR  HE ES       1051  7.98                             120   -0.79 8  208 293 
 ZAR  HZ I        1051 13.24         2.1 0.28            119            208 293 
 CHI  HZ EP       1050 47.48                             116   -0.54 8  245 196 
 CHI  HE ES       1051 17.13                             116    0.30 8  245 196 
 CHI  HZ I        1051 20.33         1.6 0.34            116            245 196 
 GUY2CHZ EP       1050 55.00                             111    0.64 7  301 236 
 GUY2CHN ES   4   1051 32.93                             111    4.82 0  301 236 
 GUY2CHZ I        1051 35.65         1.3 0.34                           301 236 
                                                                                
