 2012 1128 1009 16.8 L   6.561 -73.579108.9  RSN  9 0.3 1.8LRSN                1
 GAP= 84        0.63       3.2     2.9  5.5 -0.1062E+01  0.4007E+01 -0.5055E+01E
 Epicentro: EL CARMEN DE CHUCURI - SANTANDER                                   3
 ACTION:UPD 12-12-05 15:36 OP:}ep  STATUS:               ID:20121128100916 L   I
 2012-11-28-1004-36M.COL___193                                                 6
 STAT SP IPHASW D HRMM SECON CODA AMPLIT PERI AZIMU VELO AIN AR TRES W  DIS CAZ7
 BAR2 SZ EP       10 9 33.25                             156    0.4010 44.0  86 
 BAR2 SZ ES   1   10 9 45.66                             156    0.33 7 44.0  86 
 BAR2 SZ I        10 9 47.68        48.1 0.35                          44.0  86 
 GIR2 SZ EP       10 9 34.68                             144    0.3210 71.4  37 
 RUS  HZ EP       10 9 36.37                             137   -0.0810 92.1 143 
 RUS  HN ES   1   10 9 51.31                             137   -0.45 7 92.1 143 
 RUS  HN I        10 9 55.72         8.2 0.44                          92.1 143 
 PTB  HZ EP       10 9 36.11                             135   -0.1110 97.0 269 
 PTB  HE ES   1   10 9 51.12                             135   -0.22 7 97.0 269 
 PTB  HZ I        10 9 53.07        16.9 0.14                          97.0 269 
 PAM  SZ EP       10 9 39.75                             126   -0.1510  130  48 
 PAM  SZ I        10 9 41.12         4.5 0.13                           130  48 
 PAM  SN ES   1   10 9 57.54                             126   -0.35 7  130  48 
 ZAR  HZ EP   1   10 9 44.11                             117    0.16 7  175 306 
 ZAR  HZ I        1010 11.36        10.5 0.24                           175 306 
 OCA  HZ EP   1   10 9 45.18                             115   -0.37 7  188   9 
 CHI  HZ EP   1   10 9 49.06                             112    0.21 6  214 185 
 SML  HZ EP   1   10 9 52.77                             108   -0.07 6  254 348 
                                                                                
