 2015  828 1302 16.6 L   6.809 -73.126150.1  RSN 12 0.4 2.0LRSN                1
 GAP=184        0.83       3.1     4.5  5.5  0.2070E+01 -0.4953E+00  0.3473E+01E
 Epicentro: LOS SANTOS - SANTANDER                                             3
 ACTION:UPD 15-09-15 23:05 OP:cam  STATUS:               ID:20150828130216 L   I
 OLDACT:UP  15-08-29 01:03 OP:spq  STATUS:               ID:20150828125750     3
 OLDACT:REG 15-08-28 21:53 OP:spq  STATUS:               ID:20150828125750     3
 2015-08-28-1257-50M.COL___355                                                 6
 STAT SP IPHASW D HRMM SECON CODA AMPLIT PERI AZIMU VELO AIN AR TRES W  DIS CAZ7
 BAR2 EZ EP       13 2 36.85                             170    0.0310 24.7 195 
 BAR2 EZ ES   1   13 2 52.00                             170   -0.56 7 24.7 195 
 BAR2 EZ I        13 2 53.32        16.9 0.22            163           24.7 195 
 BRR  HZ EP       13 2 38.60                             153    0.2610 72.7 297 
 BRR  HE ES       13 2 55.82                             153    0.5510 72.7 297 
 BRR  HZ I        13 2 59.56        16.5 0.22            147           72.7 297 
 RUS  HZ EP   1   13 2 41.21                             145    0.33 7  101 177 
 RUS  HN ES   1   13 3  0.09                             145    0.31 7  101 177 
 RUS  HZ I        13 3  0.83         7.5 0.28            142            101 177 
 SPBC HZ EP       13 2 45.75                             130    0.07 9  165 219 
 SPBC HN ES       13 3  7.58                             130   -0.74 9  165 219 
 SPBC HZ I        13 3 13.96        17.3 0.24            126            165 219 
 ZAR  HN ES       13 3 14.92                             123   -0.29 8  206 292 
 ZAR  HZ I        13 3 21.37         7.7 0.10            121            206 292 
 NOR  HN ES       13 3 21.31                             119    0.17 8  237 235 
 NOR  HZ I        13 3 28.62         8.0 0.16            117            237 235 
 SML  HZ EP   1   13 2 53.38                             118   -0.14 6  244 335 
 SML  HN ES   1   13 3 21.78                             118   -0.51 6  244 335 
 SML  HZ I        13 3 25.11        18.1 0.28            118            244 335 
 CHI  HZ EP       13 2 55.11                             118    0.36 8  250 196 
 CHI  HE ES   1   13 3 24.41                             118   -0.06 6  250 196 
 CHI  HZ I        13 3 30.56         5.0 0.32            117            250 196 
 GUY2CHZ EP   4   13 3  2.02                             113    1.30 0  304 235 
 GUY2CHE ES   1   13 3 35.32                             113    0.22 5  304 235 
 GUY2CHZ I        13 3 47.04         4.9 0.44                           304 235 
 PTGC HZ EP       13 3  0.06                             112   -0.65 7  309 159 
 TOL  SZ EP   4   13 3  6.82                             110    1.48 0  346 225 
 TOL  SN ES   4   13 3 45.22                             110    1.91 0  346 225 
 TOL  SZ I        13 3 53.12         4.6 0.44            109            346 225 
 PRA  HZ EP       13 3 10.86                             107    0.32 6  394 210 
 PRA  HE ES   1   13 3 52.32                             107   -0.26 4  394 210 
 PRA  HZ I        13 3 59.10         3.6 0.40            106            394 210 
                                                                                
