 2010 1028 1438  8.5 L   6.800 -73.095137.4  RSN  9 0.3 1.9LRSN                1
 GAP=164        0.56       2.9     5.3  5.3 -0.4147E+01 -0.2790E+01 -0.6943E+00E
 Epicentro: LOS SANTOS - SANTANDER                                             3
 ACTION:UP  11-02-18 11:12 OP:tino STATUS:               ID:20101028143808 L   I
 2010-10-28-1435-00S.COL___127                                                 6
 STAT SP IPHASW D HRMM SECON CODA AMPLIT PERI AZIMU VELO SNR AR TRES W  DIS CAZ7
 BAR2 SZ EP   1   1438 27.30                             169     0.2 8   25 203 
 BAR2 SZ ES   2   1438 40.70                             169    -1.0 5   25 203 
 BAR2 SZ I        1438 43.47        27.1 0.15                            25 203 
 BRR  HZ EP   1   1438 29.14                             149     0.1 8   76 297 
 BRR  HN ES   1   1438 45.33                             149     0.3 8   76 297 
 BRR  HZ I        1438 50.38        25.3 0.19                            76 297 
 RUS  HZ EP   1   1438 31.33                             142    -0.1 8  100 179 
 RUS  HZ I        1438 32.59         6.3 0.23                           100 179 
 RUS  HE ES   1   1438 49.56                             142     0.3 8  100 179 
 GUE  SZ EP       1438 32.40                             138     0.110  115   9 
 GRA  SZ EP   1   1438 32.74                             135    -0.1 7  124  15 
 GRA  SZ I        1438 34.57        10.0 0.27                           124  15 
 GRA  SZ ES   2   1438 51.79                             135    -0.1 5  124  15 
 OCA  SZ EP   2   1438 36.07                             127    -0.2 5  161 351 
 OCA  SZ I        1439  0.97        20.9 0.55                           161 351 
 NOR  SZ EP   2   1438 44.13                             116    -0.1 4  239 235 
 NOR  SN ES   2   1439 11.69                             116    -0.5 4  239 235 
 CHI  HZ EP   2   1438 45.93                             115     0.0 4  250 196 
 CHI  HZ I        1439 18.42         2.7 0.12                           250 196 
 PRA  HZ EP   2   1439  1.87                             105    -0.2 3  395 210 
 PRA  HN ES   2   1439 43.99                             105     0.2 3  395 210 
                                                                                
