 2016 1228 1902 31.2 L   6.788 -73.175136.2  RSN  5 0.3 1.5LRSN                1
 GAP=133        0.75       3.8     3.4  6.3 -0.4234E+00  0.7180E+01 -0.2205E+01E
 Epicentro: LOS SANTOS - SANTANDER                                             3
 ACTION:UPD 17-01-11 20:20 OP:rebc STATUS:               ID:20161228190231 L   I
 OLDACT:REG 16-12-28 21:51 OP:cog  STATUS:               ID:20161228185743     3
 2016-12-28-1858-00M.COL___375                                                 6
 STAT SP IPHASW D HRMM SECON CODA AMPLIT PERI AZIMU VELO AIN AR TRES W  DIS CAZ7
 BAR2 EZ EP       19 2 49.55                             171   -0.1110 21.6 182 
 BAR2 EZ ES       19 3  3.61                             171   -0.4310 21.6 182 
 BAR2 EZ I        19 3  5.32        10.5 0.22            171           21.6 182 
 PAM  EZ EP       19 2 52.50                             148   -0.1210 80.5  41 
 PAM  EN ES       19 3  9.49                             148    0.1810 80.5  41 
 PAM  EZ I        19 3 11.27         7.1 0.50            150           80.5  41 
 RUS  HZ EP       19 2 53.97                             142    0.0210 99.5 174 
 RUS  HN ES       19 3 12.16                             142    0.4710 99.5 174 
 RUS  HZ I        19 3 13.62         4.1 0.38            144           99.5 174 
 PTB  HZ EP     D 19 2 56.89                             130   -0.21 9  144 259 
 PTB  HN ES       19 3 17.11                             130   -0.17 9  144 259 
 PTB  HZ I        19 3 19.89         3.5 0.30            132            144 259 
 ZAR  HN ES       19 3 27.87                             120    0.45 9  202 293 
                                                                                
