 2010  128 1042 25.6 L   6.858 -72.994137.0  RSN  4 0.4 1.3LRSN                1
 GAP=315        0.58       8.1    13.7  8.2 -0.4263E+02  0.1366E+02  0.2132E+02E
 Epicentro: CEPITA - SANTANDER                                                 3
 ACTION:UP  10-08-24 09:46 OP:vdl  STATUS:               ID:20100128104225 L   I
 2010-01-28-1039-17S.COL___093                                                 6
 STAT SP IPHASW D HRMM SECON CODA AMPLIT PERI AZIMU VELO SNR AR TRES W  DIS CAZ7
 BAR2 SZ EP   1   1042 44.47                             164    -0.1 7   36 215 
 BAR2 SZ ES   1   1042 59.53                             164     0.2 7   36 215 
 RUS  BZ EP   2   1042 48.62                             140    -0.4 5  107 185 
 RUS  BE ES   2   1043  6.91                             140    -0.4 5  107 185 
 RUS  BZ I        1043  7.85         3.1 0.19                           107 185 
 CHI  HZ EP   2   1043  4.83                             114     0.7 4  260 198 
 CHI  HE ES   1   1043 34.27                             114     0.2 6  260 198 
 CHI  HZ I        1043 44.42         1.4 0.77                           260 198 
 RREF BE ES   2   1043 50.21                             108    -0.4 3  339 230 
                                                                                
