 2013  128 1542 59.9 L   6.783 -73.153141.5  RSN  8 0.3 2.2LRSN                1
 GAP= 99        0.72       2.8     2.8  4.3  0.5699E+00  0.1033E+01  0.2122E+01E
 Epicentro: LOS SANTOS - SANTANDER                                             3
 ACTION:UPD 13-02-15 09:17 OP:ep   STATUS:               ID:20130128154259 L   I
 2013-01-28-1540-00M.COL___241                                                 6
 STAT SP IPHASW D HRMM SECON CODA AMPLIT PERI AZIMU VELO AIN AR TRES W  DIS CAZ7
 BAR2 SZ IP       1543 19.04                             171    0.0610 21.4 189 
 BAR2 SZ ES       1543 33.83                             171   -0.0310 21.4 189 
 BAR2 SZ I        1543 36.72        33.6 0.24            170           21.4 189 
 BRR  HZ IP     D 1543 20.89                             152    0.2910 71.4 300 
 BRR  HN ES       1543 37.05                             152    0.3010 71.4 300 
 BRR  HN I        1543 41.70        65.5 0.16            149           71.4 300 
 PAM  SZ EP       1543 21.78                             149   -0.0110 79.3  39 
 PAM  SZ I        1543 22.14        35.3 0.20            153           79.3  39 
 PAM  SN ES       1543 38.87                             149    0.0110 79.3  39 
 RUS  HZ EP   1   1543 22.99                             143   -0.12 7 98.8 175 
 RUS  HN ES       1543 41.14                             143   -0.0710 98.8 175 
 RUS  HN I        1543 42.40        21.2 0.40            145           98.8 175 
 PTB  HZ EP       1543 26.11                             131   -0.31 9  147 259 
 PTB  HE ES       1543 46.62                             131   -0.48 9  147 259 
 PTB  HZ I        1543 53.31        11.5 0.25            131            147 259 
 TAM  HZ EP       1543 26.97                             129   -0.31 9  155 104 
 ZAR  HZ EP   1   1543 32.77                             121    0.70 6  204 293 
 ZAR  HN ES       1543 56.93                             121   -0.22 9  204 293 
 ZAR  HZ I        1544  3.79        17.0 0.35            121            204 293 
 CHI  HZ EP       1543 37.11                             116   -0.04 8  247 195 
 CHI  HZ I        1543 39.37         4.6 0.18            118            247 195 
 CHI  HN ES       1544  6.79                             116    0.59 8  247 195 
                                                                                
