 2010  728 1820 55.1 L   7.376 -73.237130.0  RSN  5 0.4 1.6LRSN                1
 GAP=154        0.92       9.5    14.6 11.5 -0.8452E+02  0.7102E+01 -0.3335E+01E
 Epicentro: EL PLAYON - SANTANDER                                              3
 ACTION:UPD 10-12-01 15:20 OP:pat  STATUS:               ID:20100728182055 L   I
 2010-07-28-1815-32S.COL___123                                                 6
 STAT SP IPHASW D HRMM SECON CODA AMPLIT PERI AZIMU VELO AIN AR TRES W  DIS CAZ7
 GIR2 SZ EP       1821 12.48                             165    -0.510   33 172 
 GIR2 SZ ES   2   1821 26.89                             165     0.0 5   33 172 
 BRR  HZ EP   1   1821 13.58                             154    -0.3 7   60 240 
 BRR  HZ I        1821 20.31        11.6 0.41                            60 240 
 BRR  HN ES   2   1821 29.15                             154     0.5 5   60 240 
 GUE  SZ EP   1   1821 14.47                             153     0.1 7   61  34 
 GUE  SZ ES   2   1821 29.62                             153     0.1 5   61  34 
 GUE  SZ I        1821 30.05         5.6 0.13                            61  34 
 GRA  SZ EP   1   1821 15.23                             148     0.3 7   74  40 
 GRA  SZ ES   2   1821 30.24                             148    -0.2 5   74  40 
 GRA  SZ I        1821 34.39        11.3 0.35                            74  40 
 BAR2 SZ EP   1   1821 16.77                             144     0.8 7   87 176 
 BAR2 SZ ES   2   1821 31.89                             144    -0.3 5   87 176 
 BAR2 SZ I        1821 33.05         6.4 0.11                            87 176 
                                                                                
