 2013  928 1811 57.7 L   6.790 -73.143145.3  RSN 12 0.5 2.2LRSN                1
 GAP=137        1.22       3.6     5.2  7.1 -0.3177E+01  0.7685E+01  0.2739E+01E
 Epicentro: LOS SANTOS - SANTANDER                                             3
 ACTION:UPD 13-10-22 09:25 OP:ep   STATUS:               ID:20130928181157 L   I
 OLDACT:REG 13-09-28 16:03 OP:jn   STATUS:               ID:20130928180959     3
 2013-09-28-1809-59M.COL___272                                                 6
 STAT SP IPHASW D HRMM SECON CODA AMPLIT PERI AZIMU VELO AIN AR TRES W  DIS CAZ7
 BAR2 SZ EP       1812 17.29                             171    0.0810 22.4 191 
 BAR2 SZ ES       1812 32.62                             171    0.1510 22.4 191 
 BAR2 SZ I        1812 33.02        36.6 0.32            170           22.4 191 
 BRR  HZ EP       1812 19.46                             152    0.6610 72.0 299 
 BRR  HN ES       1812 36.06                             152    0.7710 72.0 299 
 BRR  HZ I        1812 40.68        29.9 0.12            149           72.0 299 
 PAM  SZ EP       1812 20.28                             151    0.4210 78.0  39 
 PAM  SN ES       1812 37.20                             151    0.0210 78.0  39 
 PAM  SZ I        1812 39.49        41.0 0.46            153           78.0  39 
 RUS  HZ EP       1812 21.18                             144   -0.1010 99.5 176 
 RUS  HN ES       1812 39.58                             144   -0.1410 99.5 176 
 RUS  HZ I        1812 41.29        11.1 0.46            146           99.5 176 
 PTB  HZ EP       1812 24.24                             132   -0.35 9  148 259 
 PTB  HE ES       1812 44.73                             132   -0.88 9  148 259 
 PTB  HZ I        1812 50.22        14.5 0.26            131            148 259 
 OCA  HZ EP       1812 25.88                             129   -0.15 9  161 353 
 OCA  HN ES       1812 47.11                             129   -1.06 9  161 353 
 OCA  HZ I        1812 54.99        26.7 0.24            130            161 353 
 SPBC HN ES   1   1812 47.80                             129   -0.42 7  163 219 
 ZAR  HN ES   1   1812 55.86                             122    0.38 6  205 292 
 ZAR  HZ I        1813  2.27        22.2 0.18            122            205 292 
 SML  HN ES   1   1813  3.05                             117    0.04 6  245 335 
 CHI  HZ EP   1   1812 34.76                             117   -0.47 6  248 195 
 CHI  HN ES   1   1813  3.98                             117   -0.55 6  248 195 
 CHI  HZ I        1813 10.58         5.3 0.32            118            248 195 
 GUY2CHE ES       1813 16.07                             112    0.90 7  301 235 
 PRA  HZ EP       1812 51.87                             106    0.80 6  391 210 
 PRA  HN ES       1813 32.34                             106   -0.39 6  391 210 
 PRA  HZ I        1813 40.06         5.5 0.38            107            391 210 
                                                                                
