 2010 1028 1721 46.1 L   6.776 -73.104151.4  RSN  7 0.3 1.9LRSN                1
 GAP=164        0.60       3.3     5.9  5.7 -0.3682E+01 -0.3643E+01 -0.1153E+01E
 Epicentro: LOS SANTOS - SANTANDER                                             3
 ACTION:UP  11-02-18 11:12 OP:tino STATUS:               ID:20101028172146 L   I
 2010-10-28-1719-01S.COL___126                                                 6
 STAT SP IPHASW D HRMM SECON CODA AMPLIT PERI AZIMU VELO SNR AR TRES W  DIS CAZ7
 BAR2 SZ EP   1   1722  6.32                             171     0.0 7   22 203 
 BAR2 SZ ES   2   1722 21.83                             171    -0.3 5   22 203 
 BAR2 SZ I        1722 22.87        24.4 0.24                            22 203 
 BRR  HZ EP       1722  8.10                             151     0.010   77 299 
 BRR  HZ I        1722  8.53        28.2 0.11                            77 299 
 BRR  HN ES   1   1722 25.79                             151     0.5 7   77 299 
 RUS  HZ EP   1   1722 10.11                             146    -0.1 7   98 179 
 RUS  HN ES   1   1722 28.71                             146    -0.3 7   98 179 
 RUS  HZ I        1722 30.01         8.8 0.25                            98 179 
 GUE  SZ EP   1   1722 11.14                             140    -0.3 7  118  10 
 GRA  SZ EP       1722 12.01                             138     0.110  127  15 
 NOR  SZ EP   1   1722 22.36                             119     0.0 6  237 236 
 NOR  SN ES   2   1722 50.00                             119    -0.7 4  237 236 
 CHI  HZ EP   1   1722 24.22                             118     0.3 6  247 196 
 CHI  HE ES   2   1722 54.08                             118     0.6 4  247 196 
 CHI  HZ I        1722 59.40         3.9 0.39                           247 196 
                                                                                
