 2011 1128 1527  2.9 L   6.752 -73.132147.4  RSN  6 0.2 2.1LRSN                1
 GAP=140        0.51       3.0     3.5  4.2 -0.1877E+01 -0.2563E+00  0.3548E+01E
 Epicentro: LOS SANTOS - SANTANDER                                             3
 ACTION:UPD 12-07-13 16:12 OP:ep   STATUS:               ID:20111128152702 L   I
 2011-11-28-1523-29S.COL___160                                                 6
 STAT SP IPHASW D HRMM SECON CODA AMPLIT PERI AZIMU VELO AIN AR TRES W  DIS CAZ7
 BAR2 SZ EP       1527 22.68                             172    0.0510 18.6 197 
 BAR2 SZ ES   1   1527 37.87                             172   -0.16 7 18.6 197 
 BAR2 SZ I        1527 39.46        49.0 0.19                          18.6 197 
 BRR  HZ EP       1527 24.51                             151    0.0710 75.1 302 
 BRR  HZ I        1527 24.83        35.8 0.17                          75.1 302 
 BRR  HN ES       1527 41.46                             151    0.2110 75.1 302 
 PAM  SZ EP       1527 25.44                             150   -0.0310 80.6  36 
 PAM  SN ES   1   1527 42.68                             150   -0.41 7 80.6  36 
 RUS  HZ EP       1527 26.53                             146    0.1010 95.2 177 
 RUS  HE ES   1   1527 44.98                             146    0.20 7 95.2 177 
 RUS  HZ I        1527 46.15        12.4 0.48                          95.2 177 
 NOR  SZ EP   2   1527 38.64                             119    0.11 4  233 236 
 NOR  SN ES   1   1528  5.72                             119   -0.60 6  233 236 
 CHI  HZ EP   1   1527 40.22                             118    0.04 6  244 196 
 CHI  HZ I        1528 19.58         6.9 0.37                           244 196 
                                                                                
