 2017  628 1246 14.8 L   6.850 -73.050149.4  RSN  6 0.4 1.6LRSN                1
 GAP=266        0.97       5.2     6.4  6.3  0.8154E+01  0.4001E+01  0.8046E+01E
 Epicentro: LOS SANTOS - SANTANDER                                             3
 ACTION:UPD 17-09-14 16:56 OP:jn   STATUS:               ID:20170628124614 L   I
 OLDACT:REG 17-06-28 20:43 OP:osc  STATUS:               ID:20170628123742     3
 2017-06-28-1238-00M.COL___369                                                 6
 STAT SP IPHASW D HRMM SECON CODA AMPLIT PERI AZIMU VELO AIN AR TRES W  DIS CAZ7
 BAR2 EZ EP       1246 35.22                             168    0.1410 32.0 207 
 BAR2 EZ ES       1246 50.51                             168   -0.3810 32.0 207 
 BRR  HZ EP       1246 36.98                             151    0.2110 78.5 291 
 BRR  HE ES       1246 54.03                             151    0.1310 78.5 291 
 PTB  HZ EP   9   1246 41.98                             130   -1.15 0  159 258 
 PTB  HE ES       1247  3.69                                   -0.37 9  159 258 
 PTB  HZ I        1247  5.47         2.9 0.19            130            159 258 
 ZAR  HZ EP       1246 48.65                             122    0.34 8  212 290 
 ZAR  HE ES       1247 14.32                             122   -0.12 8  212 290 
 CHI  HZ EP       1246 52.76                             117   -0.85 8  257 197 
 CHI  HE ES       1247 24.75                             117    0.88 8  257 197 
 GUY2CHZ EP       1246 59.59                             112   -0.34 7  313 235 
 GUY2CHE ES       1247 34.89                             112   -0.22 7  313 235 
 GUY2CHZ I        1247 35.13         3.0 0.10                           313 235 
                                                                                
