 2012  928 1404 56.6 L   6.781 -73.175132.0  RSN  7 0.3 2.1LRSN                1
 GAP=134        0.60       4.4     3.6  7.6 -0.2803E+01  0.8152E+01 -0.1425E+02E
 Epicentro: LOS SANTOS - SANTANDER                                             3
 ACTION:UPD 12-10-22 14:21 OP:ep   STATUS:               ID:20120928140456 L   I
 2012-09-28-1400-00M.COL___213                                                 6
 STAT SP IPHASW D HRMM SECON CODA AMPLIT PERI AZIMU VELO AIN AR TRES W  DIS CAZ7
 BAR2 SZ EP       14 5 14.48                             171   -0.0110 20.9 182 
 BAR2 SZ ES   1   14 5 28.20                             171   -0.27 7 20.9 182 
 GIR2 SZ EP   1   14 5 14.50                             165   -0.15 7 33.0 356 
 BRR  HZ EP       14 5 16.25                             150    0.1210 69.4 301 
 BRR  HN I        14 5 37.12        44.3 0.16                          69.4 301 
 PAM  SZ EP       14 5 17.38                             147   -0.1910 81.1  40 
 PAM  SN ES   1   14 5 34.19                             147    0.23 7 81.1  40 
 PAM  SN I        14 5 35.34        17.1 0.44                          81.1  40 
 RUS  HN ES   1   14 5 36.62                             141    0.39 7 98.8 174 
 PTB  HN ES   1   14 5 41.60                             129   -0.43 7  144 259 
 ZAR  HE ES   1   14 5 52.85                             119    0.47 6  202 293 
 ZAR  HE I        14 5 59.38        13.7 0.20                           202 293 
                                                                                
