 2012  528 1548  7.1 L   6.779 -73.167141.2  RSN  7 0.2 2.2LRSN                1
 GAP=135        0.47       2.7     2.5  4.6 -0.1360E+01  0.5162E+01  0.4425E-01E
 Epicentro: LOS SANTOS - SANTANDER                                             3
 ACTION:UP  12-07-05 12:08 OP:pat  STATUS:               ID:20120528154807 L   I
 2012-05-28-1540-00M.COL___200                                                 6
 STAT SP IPHASW D HRMM SECON CODA AMPLIT PERI AZIMU VELO AIN AR TRES W  DIS CAZ7
 BAR2 SZ EP       1548 26.28                             171     0.110   21 185 
 BAR2 SZ ES   2   1548 40.94                             171    -0.1 5   21 185 
 BAR2 SZ I        1548 44.54        52.0 0.57                            21 185 
 PAM  SZ EP       1548 29.14                             149     0.110   81  40 
 PAM  SN ES       1548 46.14                             149     0.010   81  40 
 RUS  HZ EP       1548 30.16                             143    -0.110   98 175 
 RUS  HE ES   1   1548 48.40                             143     0.1 7   98 175 
 RUS  HZ I        1548 50.44        12.4 0.38                            98 175 
 PTB  HZ EP       1548 33.13                             131    -0.3 9  145 260 
 PTB  HE ES   1   1548 53.91                             131    -0.1 7  145 260 
 PTB  HZ I        1548 55.90        17.5 0.20                           145 260 
 ZAR  HZ EP   1   1548 39.24                             121     0.1 6  203 293 
 ZAR  HE ES   1   1549  4.22                             121     0.1 6  203 293 
 ZAR  HZ I        1549  7.48        23.3 0.28                           203 293 
 NOR  SN ES   1   1549  9.93                             118     0.3 6  231 235 
 HEL  HZ EP   1   1548 47.06                             114     0.3 6  269 256 
 HEL  HZ I        1549 26.11        11.1 0.28                           269 256 
                                                                                
