 2016 1228 1947  5.7 L   5.956 -73.695113.1  RSN  7 0.3 1.2LRSN                1
 GAP= 86        0.53       3.8     2.4  5.8 -0.3276E+01  0.5467E+01  0.6843E+01E
 Epicentro: GUAVATA - SANTANDER                                                3
 ACTION:UPD 17-01-11 20:20 OP:rebc STATUS:               ID:20161228194705 L   I
 OLDACT:UP  16-12-29 00:32 OP:cog  STATUS:               ID:20161228193747     3
 OLDACT:UP  16-12-29 00:32 OP:cog  STATUS:               ID:20161228193747     3
 OLDACT:REG 16-12-28 21:54 OP:cog  STATUS:               ID:20161228193747     3
 2016-12-28-1938-00M.COL___369                                                 6
 STAT SP IPHASW D HRMM SECON CODA AMPLIT PERI AZIMU VELO AIN AR TRES W  DIS CAZ7
 RUS  HZ EP       1947 23.61                             147   -0.2810 68.1  96 
 RUS  HN ES       1947 38.04                             147   -0.0610 68.1  96 
 RUS  HZ I        1947 39.87         2.4 0.20            150           68.1  96 
 BAR2 EZ ES       1947 40.55                             139    0.1510 90.4  39 
 NOR  HZ EP       1947 29.18                             126    0.01 9  137 252 
 NOR  HN ES       1947 47.58                             126    0.07 9  137 252 
 NOR  HZ I        1947 51.18         4.8 0.24            129            137 252 
 CHI  HZ EP       1947 30.92                             124    0.31 9  147 182 
 CHI  HN ES   3   1947 48.82                             124   -1.24 2  147 182 
 CHI  HZ I        1947 56.71         2.0 0.60            125            147 182 
 PAM  EZ EP   3   1947 35.89                             117    0.77 2  189  36 
 PAM  EN ES   3   1947 57.53                             117   -0.56 2  189  36 
 GUY2CHZ EP       1947 36.33                             115   -0.25 9  202 246 
 GUY2CHN ES       1948  0.86                             115    0.16 9  202 246 
 ZAR  HE ES   3   1948  1.14                             113   -0.72 2  213 323 
                                                                                
