 2015  128 1051 32.3 L   6.776 -73.139143.6  RSN 12 0.4 1.9LRSN                1
 GAP=138        0.83       2.8     3.6  5.1 -0.8055E+00  0.3893E+01  0.2594E+01E
 Epicentro: LOS SANTOS - SANTANDER                                             3
 ACTION:UPD 15-03-02 15:43 OP:nd   STATUS:               ID:20150128105132 L   I
 OLDACT:REG 15-01-28 19:47 OP:spq  STATUS:               ID:20150128104748     3
 2015-01-28-1047-48M.COL___271                                                 6
 STAT SP IPHASW D HRMM SECON CODA AMPLIT PERI AZIMU VELO AIN AR TRES W  DIS CAZ7
 BAR2 EZ EP       1051 51.57                             171   -0.0610 20.9 193 
 BAR2 EZ ES   1   1052  6.41                             171   -0.29 7 20.9 193 
 BAR2 EZ I        1052  7.62        17.7 0.07            170           20.9 193 
 BRR  HZ EP   1   1051 53.34                             151    0.01 7 73.1 300 
 BRR  HN ES       1052 10.19                             151    0.4610 73.1 300 
 BRR  HZ I        1052 13.54        19.8 0.34            150           73.1 300 
 PAM  SZ EP       1051 54.42                             150    0.0310 79.0  38 
 PAM  SE ES       1052 11.44                             150   -0.1810 79.0  38 
 PAM  SZ I        1052 14.47         5.1 0.42            153           79.0  38 
 RUS  HZ EP       1051 55.64                             144   -0.0110 97.9 176 
 RUS  HN ES   1   1052 13.68                             144   -0.18 7 97.9 176 
 RUS  HZ I        1052 15.15         8.8 0.22            145           97.9 176 
 PTB  HZ EP       1051 58.18                             131   -0.94 9  148 260 
 PTB  HE ES   1   1052 19.99                             131   -0.04 7  148 260 
 PTB  HZ I        1052 20.75        11.8 0.30            131            148 260 
 SPBC HZ EP       1052  0.53                             129    0.04 9  162 220 
 SPBC HE ES       1052 22.68                             129    0.21 9  162 220 
 SPBC HZ I        1052 27.38        15.9 0.40            129            162 220 
 OCA  HZ EP   1   1052  0.87                             129    0.16 7  163 353 
 OCA  HE ES   1   1052 23.59                             129    0.73 7  163 353 
 OCA  HZ I        1052 24.70        11.6 0.28            130            163 353 
 ZAR  HZ EP   1   1052  5.35                             122    0.56 6  206 293 
 ZAR  HE ES       1052 29.66                             122   -0.46 8  206 293 
 ZAR  HZ I        1052 35.02        14.3 0.56            122            206 293 
 SML  HZ I        1052 42.39        13.2 0.24            118            246 335 
 CHI  HZ EP       1052  9.87                             117    0.24 8  246 195 
 CHI  HE ES   1   1052 39.03                             117    0.29 6  246 195 
 CHI  HZ I        1052 46.32         3.8 0.48            118            246 195 
 SML  HZ EP   4   1052  7.98                             117   -1.13 0  246 335 
 SML  HN ES   2   1052 36.89                             117   -0.92 4  246 335 
 HEL  HZ EP   1   1052 12.46                             114    0.04 6  272 256 
 HEL  HE ES   2   1052 44.39                             114    0.69 4  272 256 
 HEL  HZ I        1052 49.82         5.4 0.32            115            272 256 
 GUY2CHZ EP   1   1052 16.11                             112    0.40 5  300 235 
 GUY2CHN ES   4   1052 51.36                             112    1.79 0  300 235 
 GUY2CHZ I        1052 58.31         3.9 0.32                           300 235 
                                                                                
