 2015 1228 1743 53.5 L   7.400 -73.165127.5  RSN  5 0.2 1.6LRSN                1
 GAP=108        0.56       3.7     2.8  5.3  0.4735E+00  0.3555E+01 -0.3558E+01E
 Epicentro: EL PLAYON - SANTANDER                                              3
 ACTION:UPD 16-02-04 15:08 OP:cam  STATUS:               ID:20151228174353 L   I
 OLDACT:UP  15-12-28 23:04 OP:dnl  STATUS:               ID:20151228173750     3
 OLDACT:REG 15-12-28 20:33 OP:dnl  STATUS:               ID:20151228173750     3
 2015-12-28-1737-50M.COL___340                                                 6
 STAT SP IPHASW D HRMM SECON CODA AMPLIT PERI AZIMU VELO AIN AR TRES W  DIS CAZ7
 PAM  EZ EP       1744 12.67                             157    0.3610 51.8  97 
 PAM  EN ES       1744 26.77                             157   -0.2310 51.8  97 
 PAM  EZ I        1744 28.70                             159           51.8  97 
 BRR  HZ EP   2   1744 12.47                             150   -0.05 5 68.6 242 
 BRR  HN ES       1744 27.63                             150    0.2610 68.6 242 
 BRR  HZ I        1744 28.22         8.3 0.14            151           68.6 242 
 BAR2 EZ EP       1744 14.26                             143    0.0010 89.3 181 
 BAR2 EZ ES       1744 30.24                             143   -0.2310 89.3 181 
 BAR2 EZ I        1744 31.96         6.5 0.12            146           89.3 181 
 OCA  HZ EP   2   1744 14.42                             141   -0.10 5 94.4 350 
 OCA  HN ES   2   1744 30.70                             141   -0.24 5 94.4 350 
 OCA  HZ I        1744 33.16        10.9 0.17            141           94.4 350 
 ZAR  HZ EP   2   1744 22.44                             120   -0.57 4  187 273 
 ZAR  HN ES       1744 46.09                             120    0.05 9  187 273 
 ZAR  HZ I        1744 49.04         4.6 0.32            121            187 273 
                                                                                
