 2017  328 1537 37.5 L   5.885 -73.771118.8  RSN  5 0.3 1.0LRSN                1
 GAP=143        0.77       5.3     3.5  8.1  0.6139E+01 -0.5239E+01 -0.2081E+02E
 Epicentro: JESUS MARIA - SANTANDER                                            3
 ACTION:UPD 17-05-25 18:46 OP:jn   STATUS:               ID:20170328153737 L   I
 OLDACT:REG 17-03-28 20:32 OP:lv   STATUS:               ID:20170328152744     3
 2017-03-28-1528-00M.COL___370                                                 6
 STAT SP IPHASW D HRMM SECON CODA AMPLIT PERI AZIMU VELO AIN AR TRES W  DIS CAZ7
 SPBC HN ES       1538  7.49                             159    0.0810 42.1 232 
 RUS  HZ EP       1537 56.70                             145   -0.1110 76.2  89 
 RUS  HN ES       1538 11.54                             145   -0.3610 76.2  89 
 RUS  HZ I        1538 12.67         1.8 0.21            147           76.2  89 
 BAR2 EZ EP       1537 58.82                             137    0.3910  102  40 
 BAR2 EZ ES       1538 14.95                             137    0.1710  102  40 
 PTB  HZ EP   4   1537 54.66                             136   -3.72 0  105 314 
 PTB  HN ES       1538 14.89                             136    0.2010  105 314 
 PTB  HZ I        1538 16.74         2.2 0.15            136            105 314 
 ZAR  HE ES       1538 33.93                             114   -0.51 8  215 326 
                                                                                
