 2017 1128 1935 44.7 L   6.697 -73.984 10.7  RSN  8 0.6 1.5LRSN                1
 GAP=111        1.54       4.2     2.5  5.9  0.1907E+00  0.2132E+01  0.3963E+01E
 Epicentro: PUERTO PARRA - SANTANDER                                           3
 ACTION:UPD 17-12-12 20:01 OP:rebc STATUS:               ID:20171128193544 L   I
 OLDACT:REG 17-11-28 20:38 OP:dhb  STATUS:               ID:20171128191939     3
 2017-11-28-1928-00M.COL___492                                                 6
 STAT SP IPHASW D HRMM SECON CODA AMPLIT PERI AZIMU VELO AIN AR TRES W  DIS CAZ7
 PTB  HZ IP     D 1935 54.06                              98    0.3010 55.1 252 
 PTB  HN ES       1936  1.49                              98    0.7010 55.1 252 
 PTB  HZ I        1936  5.80        13.2 0.20             95           55.1 252 
 BAR2 HZ EP       1935 59.36                              95    0.2110 89.3  97 
 BAR2 HZ ES       1936  9.68                              95   -0.7210 89.3  97 
 BAR2 HZ I        1936 10.40        13.0 0.26             94           89.3  97 
 ZAR  HZ EP       1936  5.10                              93   -0.0610  131 312 
 ZAR  HE ES       1936 20.32                              93   -0.7710  131 312 
 ZAR  HZ I        1936 21.56        22.3 0.28             92            131 312 
 RUS  HZ EP       1936  6.42                              93    0.3210  134 132 
 RUS  HN ES       1936 22.15                              93   -0.6110  134 132 
 RUS  HZ I        1936 23.41        10.8 0.52             92            134 132 
 PAM  EZ EP       1936 10.28                              56    0.44 9  159  63 
 PAM  EN ES       1936 30.08                              56    0.65 9  159  63 
 PAM  EZ I        1936 31.64        13.0 0.32             92            159  63 
 NOR  HZ EP       1936 10.18                              56    0.81 9  159 218 
 NOR  HE ES       1936 27.59                              56   -0.99 9  159 218 
 NOR  HZ I        1936 30.41         3.2 0.50             56            159 218 
 HEL  HZ EP       1936 12.37                              56    0.02 9  180 252 
 HEL  HN ES       1936 32.89                              56   -0.99 9  180 252 
 HEL  HZ I        1936 33.93        11.1 0.28             56            180 252 
 GUY2CHZ EP   2   1936 19.01                              56    1.09 4  223 223 
 GUY2CHN ES       1936 44.32                              56    0.52 8  223 223 
 GUY2CHZ I        1936 45.76         2.0 0.34                           223 223 
                                                                                
