 2011  928 1416 51.3 L   7.181 -73.053152.9  RSN  8 0.4 2.1LRSN                1
 GAP=127        0.81       4.7     4.8  5.9 -0.3374E+01  0.8534E+01 -0.1687E+01E
 Epicentro: BUCARAMANGA - SANTANDER                                            3
 ACTION:UPD 12-07-13 16:00 OP:ep   STATUS:               ID:20110928141651 L   I
 2011-09-28-1415-44S.COL___165                                                 6
 STAT SP IPHASW D HRMM SECON CODA AMPLIT PERI AZIMU VELO AIN AR TRES W  DIS CAZ7
 BTL  SZ EP       1417 12.52                             166    0.4210 37.5 219 
 PAM  SZ EP   1   1417 11.89                             164   -0.75 7 42.7  66 
 PAM  SE ES       1417 29.31                             164    0.0010 42.7  66 
 BAR2 SZ EP       1417 13.32                             155    0.0210 66.7 192 
 BAR2 SZ ES       1417 30.06                             155   -0.4210 66.7 192 
 BAR2 SZ I        1417 32.28        29.6 0.46                          66.7 192 
 BRR  HZ EP       1417 13.41                             153    0.1110 73.3 264 
 BRR  HZ I        1417 14.13        27.1 0.16                          73.3 264 
 BRR  HE ES       1417 31.04                             153    0.5610 73.3 264 
 OCA  SZ EP       1417 16.88                             140    0.1510  121 346 
 OCA  SZ ES   1   1417 36.39                             140   -0.21 7  121 346 
 OCA  SZ I        1417 38.46        20.3 0.15                           121 346 
 ZAR  HZ EP   2   1417 23.72                             124   -0.28 4  202 280 
 ZAR  HN ES   1   1417 49.15                             124   -0.39 6  202 280 
 ZAR  HZ I        1417 50.28         9.0 0.34                           202 280 
 NOR  SZ EP   1   1417 31.22                             116    0.11 6  269 228 
 HEL  HZ EP   2   1417 34.69                             114    0.32 4  295 248 
 HEL  HN ES   1   1418  7.45                             114   -0.54 5  295 248 
 HEL  HZ I        1418 16.62         6.7 0.41                           295 248 
                                                                                
