 2013 1028 1608 26.5 L   6.801 -73.154147.9  RSN 10 0.4 2.0LRSN                1
 GAP=135        1.00       3.0     4.3  5.5 -0.1820E+01  0.5516E+01  0.6660E+00E
 Epicentro: LOS SANTOS - SANTANDER                                             3
 ACTION:UPD 13-11-25 09:24 OP:ep   STATUS:               ID:20131028160826 L   I
 OLDACT:REG 13-10-28 17:04 OP:nd   STATUS:               ID:20131028160000     3
 2013-10-28-1600-00M.COL___273                                                 6
 STAT SP IPHASW D HRMM SECON CODA AMPLIT PERI AZIMU VELO AIN AR TRES W  DIS CAZ7
 BAR2 SZ EP       16 8 46.42                             171    0.0610 23.3 188 
 BAR2 SZ ES       16 9  1.82                             171   -0.0510 23.3 188 
 BAR2 SZ I        16 9  3.32        26.3 0.36            169           23.3 188 
 BRR  HZ EP     C 16 8 48.42                             153    0.6210 70.3 299 
 BRR  HN ES       16 9  5.07                             153    0.6310 70.3 299 
 BRR  HZ I        16 9 10.18        13.5 0.28            151           70.3 299 
 PAM  SZ EP       16 8 49.24                             151    0.2910 77.9  40 
 PAM  SN EP       16 8 49.48                             151           77.9  40 
 PAM  SE ES       16 9  6.13                             151   -0.3510 77.9  40 
 PAM  SN I        16 9  7.78        35.6 0.70            151           77.9  40 
 PAM  SZ I        16 9  8.65        29.8 0.54                          77.9  40 
 RUS  HZ EP       16 8 50.32                             144   -0.1210  101 176 
 RUS  HN ES       16 9  9.12                             144   -0.0210  101 176 
 RUS  HZ I        16 9 11.72         9.7 0.48            142            101 176 
 PTB  HZ EP       16 8 53.30                             133   -0.23 9  147 259 
 PTB  HN ES       16 9 14.16                             133   -0.48 9  147 259 
 PTB  HZ I        16 9 16.75         9.4 0.14            130            147 259 
 SPBC HZ EP       16 8 55.43                             130    0.35 9  163 219 
 SPBC HN ES       16 9 17.54                             130    0.14 9  163 219 
 SPBC HZ I        16 9 21.54        18.0 0.20            127            163 219 
 ZAR  HZ EP   2   16 8 59.35                             123    0.39 4  203 292 
 ZAR  HN ES   2   16 9 24.61                             123    0.30 4  203 292 
 ZAR  HZ I        16 9 31.91         8.3 0.32            121            203 292 
 NOR  HZ EP       16 9  2.50                             119    0.25 8  234 234 
 NOR  HN ES       16 9 30.19                             119    0.04 8  234 234 
 NOR  HZ I        16 9 32.66         6.1 0.34            117            234 234 
 SML  HZ EP       16 9  2.93                             118   -0.24 8  243 335 
 SML  HN ES       16 9 30.90                             118   -0.89 8  243 335 
 SML  HZ I        16 9 34.69        14.3 0.10            116            243 335 
 CHI  HZ EP       16 9  4.56                             118    0.29 8  248 195 
 CHI  HZ I        16 9 27.34         1.8 0.68            115            248 195 
 CHI  HN ES       16 9 32.77                             118   -0.98 8  248 195 
                                                                                
