 2013 1228 1736 46.5 L   6.797 -73.135144.1  RSN 15 0.5 2.5LRSN 2.9WRSN        1
 SPEC AVERAGE  MO 13.4 ST  4.4 OM  1.9 f0 4.45 R0.4020 AL 0.00 WI 20.0 MW  2.9 3
 SPEC SD       MO  0.3 ST  6.3 OM  0.3 f0 1.94 R0.1301 AL      WI      MW  0.2 3
 GAP= 72        1.32       3.5     3.9  7.1 -0.6123E+00  0.3581E+01  0.2578E+01E
 Epicentro: LOS SANTOS - SANTANDER                                             3
 SPEC BAR2SH Z MO 14.0 ST  3.6 OM  2.4 f0 3.22 R0.4826 AL-0.00 WI 20.0 MW  3.3 3
 SPEC BAR2SH Z T173719 K 0.000 GD  145 VS 4.20 DE 3.20 Q0300.0 QA 0.60 VS 4.20 3
 SPEC BRR HH Z MO 13.3 ST  4.1 OM  1.7 f0 5.57 R0.2790 AL-0.00 WI 20.0 MW  2.8 3
 SPEC BRR HH Z T173723 K 0.000 GD  161 VS 4.20 DE 3.20 Q0300.0 QA 0.60 VS 4.20 3
 SPEC PAM SH Z MO 13.0 ST0.872 OM  1.4 f0 4.18 R0.3718 AL-0.00 WI 20.0 MW  2.6 3
 SPEC PAM SH Z T173724 K 0.000 GD  163 VS 4.20 DE 3.20 Q0300.0 QA 0.60 VS 4.20 3
 SPEC RUS HH Z MO 13.1 ST0.728 OM  1.5 f0 3.56 R0.4365 AL-0.00 WI 20.0 MW  2.7 3
 SPEC RUS HH Z T173726 K 0.000 GD  175 VS 4.20 DE 3.20 Q0300.0 QA 0.60 VS 4.20 3
 SPEC PTB HH Z MO 13.4 ST 23.1 OM  1.7 f0 9.14 R0.1700 AL-0.00 WI 20.0 MW  2.9 3
 SPEC PTB HH Z T173731 K 0.000 GD  207 VS 4.20 DE 3.20 Q0300.0 QA 0.60 VS 4.20 3
 SPEC TAM HH Z MO 13.3 ST  1.3 OM  1.6 f0 3.73 R0.4166 AL-0.00 WI 20.0 MW  2.8 3
 SPEC TAM HH Z T173733 K 0.000 GD  210 VS 4.20 DE 3.20 Q0300.0 QA 0.60 VS 4.20 3
 SPEC OCA HH Z MO 13.7 ST  2.2 OM  2.0 f0 3.28 R0.4738 AL-0.00 WI 20.0 MW  3.1 3
 SPEC OCA HH Z T173734 K 0.000 GD  216 VS 4.20 DE 3.20 Q0300.0 QA 0.60 VS 4.20 3
 SPEC SPBCHH Z MO 13.3 ST 10.9 OM  1.6 f0 7.56 R0.2056 AL-0.00 WI 20.0 MW  2.8 3
 SPEC SPBCHH Z T173735 K 0.000 GD  218 VS 4.20 DE 3.20 Q0300.0 QA 0.60 VS 4.20 3
 SPEC NOR HH Z MO 13.4 ST  3.2 OM  1.6 f0 4.65 R0.3342 AL-0.00 WI 20.0 MW  2.9 3
 SPEC NOR HH Z T173749 K 0.000 GD  275 VS 4.20 DE 3.20 Q0300.0 QA 0.60 VS 4.20 3
 SPEC CHI HH Z MO 13.3 ST0.579 OM  1.4 f0 3.02 R0.5146 AL-0.00 WI 20.0 MW  2.8 3
 SPEC CHI HH Z T173752 K 0.000 GD  287 VS 4.20 DE 3.20 Q0300.0 QA 0.60 VS 4.20 3
 SPEC ROSCBH Z MO 13.7 ST0.786 OM  1.8 f0 2.45 R0.6343 AL-0.00 WI 20.0 MW  3.1 3
 SPEC ROSCBH Z T173755 K 0.000 GD  291 VS 4.20 DE 3.20 Q0300.0 QA 0.60 VS 4.20 3
 SPEC HEL HH Z MO 13.7 ST  1.7 OM  1.8 f0 3.08 R0.5045 AL-0.00 WI 20.0 MW  3.1 3
 SPEC HEL HH Z T173758 K 0.000 GD  308 VS 4.20 DE 3.20 Q0300.0 QA 0.60 VS 4.20 3
 SPECGUY2CHH Z MO 13.7 ST  1.1 OM  1.8 f0 2.69 R 0.577 AL-0.00 WI 20.0 MW  3.1 3
 SPECGUY2CHH Z T1738 4 K       GD334.6 VS 4.20 DE 3.20 Q0300.0 QA 0.60 VS 4.20 3
 OLDACT:REG 13-12-28 14:56 OP:jn   STATUS:               ID:20131228173001d    3
 ACTION:UPD 14-01-13 10:21 OP:ep   STATUS:               ID:20131228173646 L   I
 OLDACT:UP  13-12-28 17:59 OP:jn   STATUS:               ID:20131228173001d    3
 OLDACT:UP  13-12-28 17:59 OP:jn   STATUS:               ID:20131228173001d    3
 2013-12-28-1730-00M.COL___285                                                 6
 STAT SP IPHASW D HRMM SECON CODA AMPLIT PERI AZIMU VELO AIN AR TRES W  DIS CAZ7
 BAR2 SZ IP     D 1737  6.00                             170    0.0610 23.3 193 
 BAR2 SZ ES       1737 21.43                             170    0.3310 23.3 193 
 BAR2 SZ I        1737 21.94       297.4 0.18            164           23.3 193 
 BRR  HZ EP     D 1737  7.96                             152    0.4110 72.3 298 
 BRR  HN ES       1737 24.67                             152    0.7110 72.3 298 
 BRR  SZ I        1737 27.61        53.4 0.36            140           72.3 298 
 PAM  SZ EP     D 1737  8.94                             151    0.4210 76.9  39 
 PAM  SN ES       1737 25.52                             151   -0.1710 76.9  39 
 PAM  SZ I        1737 28.97        22.2 0.48            142           76.9  39 
 RUS  HZ EP     C 1737  9.97                             144   -0.1110  100 177 
 RUS  HN ES       1737 27.85                             144   -0.6110  100 177 
 RUS  SZ I        1737 30.33        29.9 0.84            131            100 177 
 PTB  HZ EP       1737 12.67                             131   -0.77 9  149 259 
 PTB  HN ES       1737 33.34                             131   -1.11 9  149 259 
 PTB  SZ I        1737 36.79        93.3 0.12            119            149 259 
 TAM  HZ EP     D 1737 14.40                             130    0.45 9  154 105 
 TAM  HN ES       1737 35.31                             130   -0.04 9  154 105 
 TAM  SZ I        1737 40.41        26.1 0.92            120            154 105 
 OCA  HZ EP       1737 14.44                             129   -0.30 9  161 353 
 OCA  HN ES       1737 36.14                             129   -0.61 9  161 353 
 OCA  SZ I        1737 43.84        41.5 0.26            118            161 353 
 SPBC HZ EP     C 1737 14.94                             129    0.01 9  164 219 
 SPBC HN ES       1737 36.81                             129   -0.29 9  164 219 
 SPBC SZ I        1737 40.58        41.6 0.24            117            164 219 
 ZAR  HN ES       1737 45.52                             122    1.23 8  205 292 
 ZAR  HZ I        1737 52.64        42.4 0.26            111            205 292 
 NOR  HZ EP       1737 21.99                             118   -0.24 8  235 235 
 NOR  HN ES       1737 50.54                             118    0.45 8  235 235 
 NOR  SZ I        1737 55.57        26.8 0.30            108            235 235 
 SML  HN ES       1737 51.30                             117   -0.38 8  244 335 
 CHI  HZ EP       1737 24.29                             117    0.17 8  249 195 
 CHI  HN ES       1737 54.00                             117    0.54 8  249 195 
 CHI  SZ I        1738  3.33        12.5 0.68            108            249 195 
 ROSC BZ EP   4   1737 25.94                             116    1.36 0  253 211 
 ROSC SZ I        1738  2.95        23.5 0.35            107            253 211 
 HEL  HZ EP   4   1737 27.96                             114    1.20 0  273 256 
 HEL  SZ I        1738  4.62        22.5 0.30            106            273 256 
 GUY2CHZ EP   4   1737 31.42                             112    1.29 0  302 235 
 GUY2CSZ I        1738 14.11        13.9 0.64                           302 235 
                                                                                
