 2013  128 1413 55.3 L   6.763 -73.159141.0  RSN  6 0.4 1.8LRSN                1
 GAP=137        0.91       5.1     4.2  6.8 -0.5124E+00  0.4436E+01  0.3094E+01E
 Epicentro: LOS SANTOS - SANTANDER                                             3
 ACTION:UPD 13-02-15 09:17 OP:ep   STATUS:               ID:20130128141355 L   I
 2013-01-28-1410-00M.COL___241                                                 6
 STAT SP IPHASW D HRMM SECON CODA AMPLIT PERI AZIMU VELO AIN AR TRES W  DIS CAZ7
 BAR2 SZ EP       1414 14.27                             172    0.0210 19.0 188 
 BAR2 SZ ES       1414 29.01                             172   -0.0410 19.0 188 
 BAR2 SZ I        1414 29.85        14.9 0.32            172           19.0 188 
 BRR  HZ EP       1414 16.29                             151    0.3310 72.0 302 
 BRR  HN ES       1414 32.52                             151    0.4310 72.0 302 
 BRR  HN I        1414 37.14        22.4 0.17            147           72.0 302 
 PAM  SZ EP       1414 17.22                             149   -0.0310 81.5  38 
 PAM  SN ES       1414 34.00                             149   -0.3810 81.5  38 
 PAM  SZ I        1414 35.61         6.5 0.22            150           81.5  38 
 RUS  HZ EP       1414 18.76                             144    0.4910 96.6 175 
 RUS  HN ES   1   1414 36.18                             144   -0.02 7 96.6 175 
 RUS  HN I        1414 37.73         7.6 0.18            148           96.6 175 
 PTB  HZ EP       1414 20.99                             131   -0.67 9  146 260 
 PTB  HN ES       1414 41.85                             131   -0.38 9  146 260 
 ZAR  HN ES   1   1414 52.83                             121    0.30 6  204 293 
 ZAR  HZ I        1415  2.83         5.0 0.26            120            204 293 
                                                                                
