 2014  928 1303 38.2 L   7.569 -73.134160.8  RSN  5 0.3 1.7LRSN                1
 GAP=220        0.78       3.9     7.4  7.2  0.1295E+02 -0.8078E+01 -0.1233E+02E
 Epicentro: EL PLAYON - SANTANDER                                              3
 ACTION:UPD 14-10-03 23:09 OP:nd   STATUS:               ID:20140928130338 L   I
 OLDACT:REG 14-09-28 20:14 OP:cam  STATUS:               ID:20140928130000     3
 2014-09-28-1300-00M.COL___252                                                 6
 STAT SP IPHASW D HRMM SECON CODA AMPLIT PERI AZIMU VELO AIN AR TRES W  DIS CAZ7
 BRR  HZ EP     C 13 4  2.09                             152    0.4810 81.7 231 
 BRR  HN ES       13 4 20.11                             152    0.2810 81.7 231 
 BRR  HZ I        13 4 23.38         7.1 0.30            150           81.7 231 
 BAR2 SZ EP       13 4  3.55                             144   -0.1110  108 183 
 BAR2 SZ ES       13 4 23.06                             144   -0.4210  108 183 
 BAR2 SZ I        13 4 26.36         6.9 0.14            146            108 183 
 SML  HZ EP   1   13 4  8.82                             131    0.31 7  171 323 
 SML  HE ES       13 4 32.08                             131   -0.04 9  171 323 
 SML  HZ I        13 4 34.96        10.8 0.10            132            171 323 
 PTB  HZ EP       13 4  9.64                             128   -0.24 9  185 232 
 PTB  HN ES       13 4 34.55                             128   -0.01 9  185 232 
 PTB  HZ I        13 4 39.73         4.7 0.18            129            185 232 
 SJC  HZ EP       13 4 26.89                             112    0.28 7  342 319 
 SJC  HE ES       13 5  3.67                             112   -0.66 7  342 319 
 SJC  HZ I        13 5  6.55         1.5 0.62            113            342 319 
                                                                                
