 2014  328 1051 37.5 L   6.856 -73.186140.4  RSN  6 0.1 1.4LRSN                1
 GAP=198        0.38       1.9     3.0  4.3  0.2630E+01 -0.2301E+01 -0.2926E+01E
 Epicentro: ZAPATOCA - SANTANDER                                               3
 ACTION:UPD 14-04-09 23:21 OP:nd   STATUS:               ID:20140328105137 L   I
 OLDACT:UP  14-03-28 19:03 OP:mh   STATUS:               ID:20140328104815     3
 OLDACT:REG 14-03-28 14:58 OP:mh   STATUS:               ID:20140328104815     3
 2014-03-28-1048-15M.COL___253                                                 6
 STAT SP IPHASW D HRMM SECON CODA AMPLIT PERI AZIMU VELO AIN AR TRES W  DIS CAZ7
 BAR2 SZ I        1052 13.21         7.1 0.12            171           29.2 179 
 RUS  HN ES       1052 19.72                             141   -0.0110  107 174 
 RUS  HZ I        1052 21.87         2.2 0.12            144            107 174 
 PTB  HZ EP       1052  3.95                             131    0.18 9  145 256 
 PTB  HN ES       1052 24.11                             131   -0.14 9  145 256 
 PTB  HZ I        1052 27.33         3.5 0.15            133            145 256 
 ZAR  HN ES   1   1052 33.49                             122    0.03 7  198 291 
 SML  HZ EP       1052 12.98                             117   -0.05 8  236 336 
 SML  HN ES   1   1052 40.80                             117    0.07 6  236 336 
 SML  HZ I        1052 51.27         3.7 0.09            117            236 336 
 CHI  HZ EP       1052 15.23                             115   -0.22 8  253 194 
 CHI  HE ES       1052 45.22                             115    0.17 8  253 194 
 CHI  HZ I        1052 50.20         1.0 0.07            117            253 194 
                                                                                
