 2013 1128 1006 12.6 L   6.809 -73.174144.2  RSN  9 0.4 1.7LRSN                1
 GAP=133        0.69       2.8     3.9  5.4 -0.2508E+01  0.8896E+01 -0.5817E+01E
 Epicentro: LOS SANTOS - SANTANDER                                             3
 ACTION:UPD 14-01-09 16:31 OP:ep   STATUS:               ID:20131128100612 L   I
 OLDACT:UP  13-11-28 15:16 OP:cam  STATUS:               ID:20131128100001d    3
 OLDACT:DUP 13-11-28 15:12 OP:cam  STATUS:               ID:20131128100001d    3
 2013-11-28-1000-00M.COL___282                                                 6
 STAT SP IPHASW D HRMM SECON CODA AMPLIT PERI AZIMU VELO AIN AR TRES W  DIS CAZ7
 BAR2 SZ EP       10 6 31.93                             170   -0.1610 24.0 182 
 BAR2 SZ ES       10 6 47.10                             170   -0.1710 24.0 182 
 BAR2 SZ I        10 6 49.77        20.0 0.50            170           24.0 182 
 BRR  HZ EP       10 6 33.79                             153    0.3610 68.0 299 
 PAM  SZ EP       10 6 34.69                             150   -0.0710 78.6  42 
 PAM  SN ES       10 6 52.25                             150    0.2310 78.6  42 
 PAM  SZ I        10 6 54.02         6.8 0.44            155           78.6  42 
 RUS  HZ EP   2   10 6 36.19                             143   -0.13 5  102 174 
 RUS  HN ES       10 6 54.68                             143   -0.1210  102 174 
 RUS  HZ I        10 6 56.12         4.2 0.20            147            102 174 
 PTB  HZ EP       10 6 39.21                             132   -0.00 9  145 258 
 PTB  HN ES       10 7  0.01                             132    0.06 9  145 258 
 PTB  HZ I        10 7  7.21         6.1 0.56            133            145 258 
 OCA  HZ EP   1   10 6 41.36                             129    0.67 7  159 354 
 OCA  HN ES       10 7  2.28                             129   -0.30 9  159 354 
 ZAR  HZ EP   2   10 6 45.44                             122    0.80 4  201 292 
 SML  HZ EP   1   10 6 48.86                             117   -0.07 6  241 336 
 SML  HE ES   1   10 7 17.02                             117   -0.22 6  241 336 
 SML  HZ I        10 7 20.32         8.2 0.10            120            241 336 
 SJC  HZ EP   1   10 7  6.70                             105   -1.14 4  407 327 
                                                                                
