 2011  328 1345  1.4 L   6.742 -73.110135.8  RSN 10 0.3 2.0LRSN                1
 GAP=119        0.59       2.3     3.5  5.2 -0.1392E+00  0.4666E+01  0.3317E+01E
 Epicentro: JORDAN - SANTANDER                                                 3
 ACTION:UP  11-06-16 14:36 OP:jfem STATUS:               ID:20110328134501 L   I
 2011-03-28-1341-31S.COL___137                                                 6
 STAT SP IPHASW D HRMM SECON CODA AMPLIT PERI AZIMU VELO SNR AR TRES W  DIS CAZ7
 BAR2 SZ IP       1345 20.01                             172     0.310   18 206 
 BAR2 SZ ES   2   1345 33.56                             172    -0.5 5   18 206 
 BAR2 SZ I        1345 35.88        23.8 0.34                            18 206 
 GIR2 SZ EP       1345 20.15                             163     0.010   38 346 
 GIR2 SZ ES   2   1345 35.06                             163     0.3 5   38 346 
 BRR  HZ EP   1   1345 21.88                             148     0.0 7   78 301 
 BRR  HE ES   1   1345 38.17                             148     0.3 7   78 301 
 BRR  HZ I        1345 44.15        23.5 0.14                            78 301 
 PAM  SN ES   2   1345 39.70                             148     0.3 5   80  34 
 PAM  SZ I        1345 42.01        16.9 0.46                            80  34 
 GRA  SZ IP       1345 26.01                             134    -0.210  131  15 
 GRA  SZ ES   1   1345 45.35                             134    -0.2 7  131  15 
 GRA  SZ I        1345 46.65        23.0 0.37                           131  15 
 YOP  SN ES       1345 52.08                             125    -0.2 9  171 154 
 YOP  SZ I        1345 55.06        10.2 0.30                           171 154 
 NOR  SZ EP   2   1345 35.98                             116    -0.6 4  234 236 
 NOR  SN ES   2   1346  3.46                             116    -0.5 4  234 236 
 CHI  HZ EP   2   1345 38.16                             116     0.2 4  244 196 
 CHI  HN ES       1346  6.71                             116     0.2 8  244 196 
 CHI  HZ I        1346 10.80         4.8 0.30                           244 196 
 HEL  HZ EP       1345 41.55                             113     0.2 8  274 257 
 HEL  HN ES   2   1346 12.18                             113    -0.4 4  274 257 
 HEL  HZ I        1346 17.20         4.7 0.39                           274 257 
 PRA  HZ EP   2   1345 54.83                             105     0.7 3  388 211 
                                                                                
