 2015  328 1251 22.7 L   6.801 -73.187144.9  RSN  6 0.6 1.4LRSN                1
 GAP=131        1.49       6.1     7.4  9.9  0.1454E+01  0.1252E+02 -0.1242E+02E
 Epicentro: ZAPATOCA - SANTANDER                                               3
 ACTION:UPD 15-04-30 16:30 OP:nd   STATUS:               ID:20150328125122 L   I
 OLDACT:REG 15-03-28 20:26 OP:stll STATUS:               ID:20150328124748     3
 2015-03-28-1247-48M.COL___275                                                 6
 STAT SP IPHASW D HRMM SECON CODA AMPLIT PERI AZIMU VELO AIN AR TRES W  DIS CAZ7
 BAR2 EZ EP       1251 42.43                             171    0.2210 23.0 179 
 BAR2 EZ ES       1251 57.27                             171   -0.1710 23.0 179 
 BAR2 EZ I        1252  0.42         4.6 0.18            171           23.0 179 
 BRR  HZ EP       1251 44.41                             154    0.8910 67.2 300 
 BRR  HN ES       1252  0.74                             154    0.9610 67.2 300 
 PAM  SZ EP       1251 45.25                             150    0.2610 80.3  42 
 PAM  SN ES       1252  1.94                             150   -0.4410 80.3  42 
 PAM  SZ I        1252  4.71         8.2 0.70            153           80.3  42 
 RUS  HZ EP       1251 46.07                             143   -0.3210  101 173 
 RUS  HE ES       1252  4.61                             143   -0.2710  101 173 
 RUS  HZ I        1252  6.56         3.0 0.48            145            101 173 
 PTB  HZ EP       1251 49.62                             133    0.43 9  143 258 
 PTB  HN ES       1252  8.92                             133   -0.93 9  143 258 
 PTB  HZ I        1252 14.15         4.0 0.14            134            143 258 
 SML  HZ EP       1251 58.87                             117   -0.19 8  242 336 
 SML  HN ES       1252 26.52                             117   -0.91 8  242 336 
                                                                                
