 2011 1128 1800 13.2 L   6.781 -73.119138.0  RSN  5 0.2 1.6LRSN                1
 GAP=141        0.38       2.5     3.0  3.9 -0.1640E-01 -0.1649E+01  0.8603E+00E
 Epicentro: LOS SANTOS - SANTANDER                                             3
 ACTION:UPD 12-07-13 16:12 OP:ep   STATUS:               ID:20111128180013 L   I
 2011-11-28-1756-57S.COL___160                                                 6
 STAT SP IPHASW D HRMM SECON CODA AMPLIT PERI AZIMU VELO AIN AR TRES W  DIS CAZ7
 BAR2 SZ EP       18 0 31.90                             171    0.0710 22.0 198 
 BAR2 SZ I        18 0 35.01         6.2 0.70                          22.0 198 
 BAR2 SZ ES   2   18 0 46.25                             171   -0.14 5 22.0 198 
 BRR  HZ EP       18 0 33.54                             150   -0.1510 74.8 299 
 BRR  HZ I        18 0 33.90        11.1 0.15                          74.8 299 
 BRR  HE ES       18 0 49.85                             150    0.1510 74.8 299 
 PAM  SZ EP       18 0 34.47                             149   -0.0710 77.2  37 
 PAM  SE ES   2   18 0 51.17                             149   -0.05 5 77.2  37 
 RUS  HZ EP   1   18 0 36.26                             143    0.27 7 98.3 178 
 RUS  HE ES   1   18 0 53.71                             143   -0.08 7 98.3 178 
 NOR  SZ EP   2   18 0 48.58                             117    0.00 4  236 235 
 NOR  SN ES   2   18 1 15.82                             117   -0.38 4  236 235 
                                                                                
