 2011 1228 1754 16.5 L   6.762 -73.139151.7  RSN  9 0.4 1.9LRSN                1
 GAP=139        0.69       4.8     5.0  8.6 -0.2016E+01  0.1118E+02  0.4615E+01E
 Epicentro: LOS SANTOS - SANTANDER                                             3
 ACTION:UPD 12-07-13 16:19 OP:ep   STATUS:               ID:20111228175416 L   I
 2011-12-28-1750-00M.COL___186                                                 6
 STAT SP IPHASW D HRMM SECON CODA AMPLIT PERI AZIMU VELO AIN AR TRES W  DIS CAZ7
 BAR2 SZ EP   1   1754 37.16                             172    0.35 7 19.4 194 
 BAR2 SZ I        1754 40.09        62.8 0.75                          19.4 194 
 GIR2 SZ EP   1   1754 37.37                             166    0.34 7 35.5 350 
 BRR  HZ EP   1   1754 39.05                             153    0.57 7 73.9 301 
 BRR  HN ES   2   1754 55.91                             153    0.31 5 73.9 301 
 PAM  SZ EP   1   1754 39.57                             151    0.02 7 80.1  37 
 PAM  SZ I        1754 42.50         5.4 0.65                          80.1  37 
 PAM  SN ES   2   1754 56.84                             151   -0.66 5 80.1  37 
 RUS  HZ EP   1   1754 40.10                             146   -0.48 7 96.4 176 
 RUS  HN ES   2   1754 59.05                             146   -0.29 5 96.4 176 
 RUS  HZ I        1755  1.07         8.4 0.36                          96.4 176 
 PTB  HZ EP   1   1754 43.92                             133   -0.08 7  148 260 
 PTB  HN ES   2   1755  5.03                             133   -0.39 5  148 260 
 PTB  HZ I        1755  8.56         5.6 0.16                           148 260 
 ZAR  HZ EP   1   1754 49.45                             123   -0.16 6  206 293 
 ZAR  HE ES   2   1755 14.88                             123   -0.53 4  206 293 
 ZAR  HZ I        1755 22.22         8.3 0.28                           206 293 
 NOR  SZ EP   1   1754 51.94                             120   -0.49 6  233 235 
 NOR  SN ES   2   1755 20.72                             120    0.29 4  233 235 
 CHI  HN ES   2   1755 24.32                             119    0.81 4  245 196 
                                                                                
