 2010  728 1027 56.3 L   6.812 -73.060153.8  RSN  5 0.3 1.4LRSN                1
 GAP=168        0.72       5.4    12.0 10.2 -0.1007E+02 -0.4156E+02 -0.1087E+02E
 Epicentro: LOS SANTOS - SANTANDER                                             3
 ACTION:UPD 10-12-01 15:20 OP:pat  STATUS:               ID:20100728102756 L   I
 2010-07-28-1024-58S.COL___123                                                 6
 STAT SP IPHASW D HRMM SECON CODA AMPLIT PERI AZIMU VELO AIN AR TRES W  DIS CAZ7
 BAR2 SZ EP   1   1028 16.84                             169    -0.2 8   28 209 
 BAR2 SZ I        1028 17.38         6.2 0.41                            28 209 
 BAR2 SZ ES   2   1028 33.53                             169     0.4 5   28 209 
 BRR  HZ EP   1   1028 18.96                             151     0.2 8   79 294 
 BRR  HE ES   2   1028 36.18                             151    -0.1 5   79 294 
 BRR  HZ I        1028 42.54        10.9 0.31                            79 294 
 RUS  HZ EP   1   1028 21.28                             145     0.3 8  102 181 
 RUS  HE ES   2   1028 39.65                             145    -0.5 5  102 181 
 RUS  HZ I        1028 43.03         1.9 0.76                           102 181 
 GUE  SZ EP   1   1028 20.99                             142    -0.6 8  114   8 
 GRA  SZ EP       1028 22.19                             140     0.210  122  13 
 GRA  SZ ES   2   1028 42.18                             140     0.2 5  122  13 
 GRA  SZ I        1028 45.08         3.5 0.38                           122  13 
                                                                                
