 2013  628 1236 41.8 L   6.800 -73.150148.1  RSN 12 0.4 2.2LRSN                1
 GAP=136        0.94       2.9     3.6  5.8 -0.1399E+01  0.5992E+01  0.1854E+01E
 Epicentro: LOS SANTOS - SANTANDER                                             3
 ACTION:UPD 14-01-08 09:57 OP:ep   STATUS:               ID:20130628123641 L   I
 OLDACT:REG 13-06-28 16:01 OP:carl STATUS:               ID:20130628122959     3
 2013-06-28-1229-59M.COL___267                                                 6
 STAT SP IPHASW D HRMM SECON CODA AMPLIT PERI AZIMU VELO AIN AR TRES W  DIS CAZ7
 BAR2 SZ EP       1237  1.86                             171    0.1210 23.2 189 
 BAR2 SZ ES   1   1237 16.69                             171   -0.58 7 23.2 189 
 BAR2 SZ I        1237 19.73        22.9 0.32            171           23.2 189 
 GIR2 SZ EP       1237  1.96                             168    0.1810 31.2 351 
 GIR2 SZ ES   1   1237 16.85                             168   -0.49 7 31.2 351 
 BRR  HZ EP       1237  3.78                             153    0.5710 70.8 299 
 BRR  HN ES   1   1237 21.12                             153    1.24 7 70.8 299 
 BRR  HN I        1237 22.15        66.7 0.22            154           70.8 299 
 PAM  SZ EP       1237  4.50                             151    0.1810 77.7  40 
 PAM  SN ES       1237 21.72                             151   -0.1310 77.7  40 
 RUS  HZ EP       1237  5.70                             144   -0.1210  101 176 
 RUS  HN ES   1   1237 24.53                             144    0.01 7  101 176 
 RUS  HZ I        1237 25.40        13.4 0.28            146            101 176 
 PTB  HZ EP       1237  8.54                             133   -0.41 9  147 259 
 PTB  HN ES       1237 29.77                             133   -0.33 9  147 259 
 PTB  HZ I        1237 31.85        22.4 0.16            134            147 259 
 OCA  HN ES       1237 32.81                             130    0.27 9  160 353 
 ZAR  HE ES       1237 39.71                             123   -0.07 9  204 292 
 NOR  HZ EP       1237 17.88                             119    0.22 8  234 234 
 NOR  HE ES       1237 45.75                             119    0.15 8  234 234 
 SML  HZ EP       1237 18.05                             118   -0.52 8  244 335 
 SML  HN ES       1237 46.65                             118   -0.58 8  244 335 
 CHI  HZ EP   1   1237 19.98                             118    0.33 6  249 195 
 CHI  HN ES   1   1237 48.76                             118   -0.38 6  249 195 
 HEL  HN ES       1237 53.61                             115    0.07 8  272 256 
                                                                                
