 2016  728 1207 17.9 L   6.784 -73.119148.8  RSN 19 0.4 2.6LRSN                1
 GAP= 68        0.97       3.3     2.6  4.6 -0.2571E+00  0.2807E+01  0.3932E+01E
 Epicentro: LOS SANTOS - SANTANDER                                             3
 ACTION:UPD 17-03-29 16:55 OP:lp   STATUS:               ID:20160728120717 L   I
 OLDACT:UP  16-07-29 00:55 OP:ar   STATUS:               ID:20160728115005     3
 OLDACT:UP  16-07-28 23:38 OP:ar   STATUS:               ID:20160728115005     3
 OLDACT:REG 16-07-28 20:55 OP:ar   STATUS:               ID:20160728115005     3
 2016-07-28-1158-00M.COL___365                                                 3
 2016-07-28-1157-59S.COL___340                                                 6
 STAT SP IPHASW D HRMM SECON CODA AMPLIT PERI AZIMU VELO AIN AR TRES W  DIS CAZ7
 BAR2 EZ EP       12 7 37.72                             171   -0.1510 22.4 198 
 BAR2 EZ ES       12 7 52.82                             171   -0.6410 22.4 198 
 BAR2 EZ I        12 7 55.44       106.3 0.34            169           22.4 198 
 BRR  HZ EP       12 7 39.61                             152    0.0410 74.7 299 
 BRR  HE ES       12 7 57.03                             152    0.5510 74.7 299 
 BRR  HZ I        12 8  0.87        74.0 0.24            150           74.7 299 
 PAM  EE EP       12 7 40.62                             151    0.2210 76.9  37 
 PAM  EZ ES       12 7 57.97                             151    0.0010 76.9  37 
 PAM  EZ I        12 7 59.96        53.3 0.48            155           76.9  37 
 RUS  HZ EP       12 7 41.58                             145   -0.2310 98.7 178 
 RUS  HN ES       12 8  0.67                             145    0.2010 98.7 178 
 RUS  HZ I        12 8  1.54        33.4 0.26            146           98.7 178 
 PTB  HZ EP       12 7 44.65                             132   -0.69 9  150 260 
 PTB  HE ES       12 8  7.01                             132    0.25 9  150 260 
 PTB  HZ I        12 8  8.70        47.7 0.12            131            150 260 
 TAM  HZ EP       12 7 45.83                             132    0.32 9  152 105 
 TAM  HE ES       12 8  7.32                             132    0.27 9  152 105 
 SPBC HZ EP       12 7 46.71                             130    0.03 9  164 220 
 SPBC HE ES       12 8  9.18                             130    0.05 9  164 220 
 SPBC HZ I        12 8 10.94        94.4 0.12            129            164 220 
 ZAR  HZ EP       12 7 50.49                             123   -0.40 8  207 292 
 ZAR  HN ES       12 8 16.14                             123   -0.49 8  207 292 
 ZAR  HZ I        12 8 21.90        41.3 0.46            122            207 292 
 NOR  HZ EP       12 7 53.61                             119   -0.34 8  236 235 
 NOR  HN ES       12 8 22.26                             119    0.18 8  236 235 
 NOR  HZ I        12 8 25.72        44.2 0.20            119            236 235 
 CHI  HZ EP       12 7 56.01                             118    0.35 8  248 196 
 CHI  HN ES       12 8 24.68                             118   -0.45 8  248 196 
 CHI  HZ I        12 8 28.81        15.2 0.42            119            248 196 
 HEL  HZ EP       12 7 59.00                             115    0.47 8  275 256 
 HEL  HN ES       12 8 30.83                             115    0.59 8  275 256 
 HEL  HZ I        12 8 36.00        18.9 0.34            115            275 256 
 URE  HZ EP   4   12 7 57.86                             114   -1.63 0  287 292 
 URE  HE ES   4   12 8 28.97                             114   -2.97 0  287 292 
 URE  HZ I        12 8 40.21        23.7 0.24            114            287 292 
 GUY2CHZ EP       12 8  2.78                             113    0.98 7  303 235 
 GUY2CHN ES   4   12 8 40.18                             113    4.12 0  303 235 
 GUY2CHZ I        12 8 44.24        20.1 0.26                           303 235 
 PTGC HZ EP       12 8  0.72                             112   -0.86 7  306 159 
 PTGC HN ES   4   12 8 33.83                             112   -1.83 0  306 159 
 ELA  HZ EP   4   12 8  7.28                             111    2.28 0  330 230 
 ELA  HN ES   4   12 8 45.90                             111    4.15 0  330 230 
 ELA  HZ I        12 8 49.33        14.7 0.40            111            330 230 
 CBOC HZ IP       12 8  5.45                             110    0.25 7  336 253 
 CBOC HN ES       12 8 41.58                             110   -0.52 7  336 253 
 CBOC HZ I        12 8 51.31         5.1 0.62            111            336 253 
 PRA  HZ EP       12 8 11.30                             107   -0.21 6  392 210 
 PRA  HN ES       12 8 53.74                             107    0.40 6  392 210 
 PRA  HZ I        12 8 59.30        26.2 0.34            108            392 210 
 SJC  HZ EP   4   12 8 11.79                             106   -2.13 0  412 327 
 SJC  HN ES   4   12 8 53.03                             106   -4.59 0  412 327 
 SJC  HZ I        12 8 58.42         4.7 0.24            107            412 327 
 CRJC HZ EP   9   12 8 17.47                             104   -3.19 0  469   3 
 CRJC HN ES       12 9  5.69                             104   -0.74 5  469   3 
 CRJC HZ I        12 9  8.68         6.5 0.12            105            469   3 
                                                                                
