 2015 1128 1310  7.5 L   6.471 -73.865 21.3  RSN  8 0.4 1.9LRSN                1
 GAP= 78        0.94       1.9     1.8  3.4 -0.6536E+00  0.2182E+00 -0.3528E+00E
 Epicentro: CIMITARRA - SANTANDER                                              3
 ACTION:UPD 15-12-28 16:14 OP:cam  STATUS:               ID:20151128131007 L   I
 OLDACT:REG 15-11-28 20:53 OP:ak   STATUS:               ID:20151128130749     3
 2015-11-28-1307-49M.COL___307                                                 6
 STAT SP IPHASW D HRMM SECON CODA AMPLIT PERI AZIMU VELO AIN AR TRES W  DIS CAZ7
 PTB  HZ EP       1310 18.12                             106   -0.3610 65.8 277 
 PTB  HN ES       1310 26.52                             106   -0.5010 65.8 277 
 PTB  HZ I        1310 27.99        38.2 0.16            108           65.8 277 
 BRR  HZ IP     C 1310 19.36                             104   -0.0610 72.3  14 
 BRR  HN ES       1310 29.10                             104    0.4110 72.3  14 
 BRR  HZ I        1310 29.63       106.2 0.10            106           72.3  14 
 BAR2 EZ EP       1310 20.35                             104    0.0310 76.7  80 
 BAR2 EZ ES       1310 30.13                             104   -0.1510 76.7  80 
 BAR2 EZ I        1310 31.85        23.4 0.24            106           76.7  80 
 SPBC HZ EP       1310 23.00                             101    0.3710 93.4 194 
 SPBC HN ES       1310 34.64                             101    0.2310 93.4 194 
 SPBC HZ I        1310 36.21        28.8 0.12            103           93.4 194 
 RUS  HZ EP       1310 25.12                             100   -0.0510  108 126 
 RUS  HE ES       1310 38.72                             100   -0.2110  108 126 
 RUS  HZ I        1310 39.55        37.2 0.20             56            108 126 
 PAM  EZ EP       1310 32.29                              56    0.30 9  161  53 
 PAM  EN ES       1310 50.36                              56   -0.70 9  161  53 
 PAM  EZ I        1310 52.19        20.1 0.14             56            161  53 
 GUY2CHZ EP       1310 39.12                              56    0.25 8  216 230 
 GUY2CHN ES       1311  3.19                              56   -0.12 8  216 230 
 GUY2CHZ I        1311  5.73         4.0 0.22                           216 230 
 SML  HZ EP       1310 44.49                              56    0.85 8  259 355 
                                                                                
