 2010  828 1141 14.8 L   6.805 -73.080150.8  RSN 17 0.4 3.9LRSN                1
 GAP=131        1.01       3.2     6.0  4.9 -0.6415E+01  0.3246E+01  0.2128E+01E
 Epicentro: LOS SANTOS - SANTANDER                                             3
 ACTION:UP  10-09-07 10:58 OP:vdl  STATUS:               ID:20100828114114 L   I
 2010-08-28-1138-23S.COL___120                                                 6
 STAT SP IPHASW D HRMM SECON CODA AMPLIT PERI AZIMU VELO SNR AR TRES W  DIS CAZ7
 BAR2 SZ EP       1141 34.95                             170    -0.110   26 206 
 BAR2 SZ ES   1   1141 50.48                             170    -0.4 7   26 206 
 BAR2 SZ I        1141 51.49      3294.1 0.23                            26 206 
 GIR2 SZ EP       1141 35.05                             167     0.010   33 337 
 GIR2 SZ ES   1   1141 51.00                                     0.1 7   33 337 
 BRR  HZ IP     C 1141 36.84                             151     0.010   77 296 
 BRR  HN ES       1141 54.13                             151     0.110   77 296 
 BRR  HZ I        1141 56.32      1737.2 1.31                            77 296 
 RUS  HZ EP       1141 38.85                             145    -0.210  101 180 
 RUS  HE ES       1141 57.58                             145    -0.410  101 180 
 RUS  HZ I        1141 59.35      1249.0 0.45                           101 180 
 GUE  SZ EP       1141 39.96                             141     0.210  115   9 
 GUE  SZ I        1141 49.27       258.8 0.12                           115   9 
 GRA  SZ EP       1141 40.76                             139     0.510  123  14 
 GRA  SZ I        1142  6.64       695.4 0.13                           123  14 
 OCA  SZ EP       1141 43.35                             131    -0.2 9  161 351 
 OCA  SZ ES   1   1142  6.13                                     0.2 7  161 351 
 OCA  SZ I        1142 10.04      1272.9 0.28                           161 351 
 CHI  HZ EP       1141 52.65                             118    -0.4 8  251 197 
 CHI  HN ES       1142 23.37                             118     0.5 8  251 197 
 CHI  HZ I        1142 30.49       435.6 0.45                           251 197 
 ROSC BZ EP       1141 54.34                             117     0.7 8  257 212 
 ROSC BE ES   1   1142 24.29                             117     0.4 6  257 212 
 ROSC BZ I        1142 28.20       477.5 0.61                           257 212 
 CVER SZ EP       1141 56.24                             115     0.5 7  275 204 
 CVER SZ I        1142 35.09       564.1 0.24                           275 204 
 HEL  HZ EP       1141 55.38                             115    -0.7 7  279 256 
 HEL  HZ I        1142 32.99       456.3 0.91                           279 256 
 RREF HZ EP       1142  1.67                             111    -0.1 7  328 230 
 RREF HE ES   2   1142 39.50                                     1.0 3  328 230 
 RREF HZ I        1142 46.08       501.7 1.00                           328 230 
 DBB  SZ EP       1142  2.61                             110    -0.7 6  347 274 
 TOL  SZ EP       1142  3.80                             110    -0.1 6  349 225 
 SDV  BZ EP       1142  4.45                             109     0.1 6  354  49 
 SDV  BZ I        1142 43.72       161.9 0.32                           354  49 
 ANIL HZ EP       1142  5.90                             109     0.5 6  363 225 
 ANIL HN ES   2   1142 44.96                                     0.1 3  363 225 
 ANIL HZ I        1142 51.49       998.1 0.45                           363 225 
 PRA  HZ EP       1142  7.82                             107    -1.1 6  396 210 
 PRA  HN ES   1   1142 51.14                             107    -0.1 4  396 210 
 PRA  HZ I        1142 54.75       449.6 0.38                           396 210 
                                                                                
