 2011  928 1242  8.9 L   6.758 -73.317116.9  RSN  4 0.2 1.8LRSN                1
 GAP=147        0.45       5.9     9.8  4.7  0.4799E+02  0.1786E+01  0.1373E+01E
 Epicentro: ZAPATOCA - SANTANDER                                               3
 ACTION:UPD 12-07-13 16:00 OP:ep   STATUS:               ID:20110928124208 L   I
 2011-09-28-1241-31S.COL___165                                                 6
 STAT SP IPHASW D HRMM SECON CODA AMPLIT PERI AZIMU VELO AIN AR TRES W  DIS CAZ7
 BTL  SZ EP   1   1242 24.99                             170    0.06 7 18.5  17 
 BAR2 SZ EP       1242 25.27                             168    0.2310 23.6 141 
 BAR2 SZ I        1242 25.66        19.2 0.08                          23.6 141 
 BAR2 SZ ES       1242 37.50                             168   -0.1610 23.6 141 
 BRR  HZ EP   1   1242 25.93                             152   -0.23 7 58.2 312 
 BRR  HN ES   1   1242 39.77                             152    0.11 7 58.2 312 
 BRR  HZ I        1242 40.95        17.0 0.39                          58.2 312 
 RUS  HZ EP   1   1242 29.62                             137   -0.16 7 99.2 165 
 RUS  HE ES   1   1242 46.21                             137    0.11 7 99.2 165 
                                                                                
