 2011  828 1732 45.4 L   6.758 -73.101148.1  RSN  7 0.3 1.7LRSN                1
 GAP=195        0.51       3.7     3.8  4.5  0.9876E+00  0.5242E+01  0.2702E+01E
 Epicentro: LOS SANTOS - SANTANDER                                             3
 ACTION:UPD 12-07-13 15:54 OP:ep   STATUS:               ID:20110828173245 L   I
 2011-08-28-1720-00M.COL___162                                                 6
 STAT SP IPHASW D HRMM SECON CODA AMPLIT PERI AZIMU VELO AIN AR TRES W  DIS CAZ7
 BAR2 SZ EP       1733  5.22                             172   -0.0110 20.4 206 
 BAR2 SZ ES   1   1733 20.37                             172   -0.35 7 20.4 206 
 BAR2 SZ I        1733 23.49        13.3 0.21                          20.4 206 
 GIR2 SZ EP   1   1733  5.76                             165    0.28 7 36.9 344 
 BRR  HZ EP       1733  7.16                             151    0.0110 77.8 300 
 BRR  HN ES   1   1733 24.30                             151    0.16 7 77.8 300 
 BRR  HZ I        1733 26.40        21.6 0.14                          77.8 300 
 RUS  HZ EP   1   1733  9.08                             146    0.07 7 95.7 179 
 RUS  HZ I        1733  9.73         5.6 0.20                          95.7 179 
 RUS  HN ES   1   1733 27.44                             146   -0.01 7 95.7 179 
 NOR  SZ EP   1   1733 20.97                             119   -0.42 6  236 236 
 NOR  SN ES   1   1733 49.90                             119    0.42 6  236 236 
 NOR  SZ I        1733 53.08         1.6 0.25                           236 236 
 CHI  HZ EP   1   1733 23.16                             118    0.30 6  246 197 
 CHI  HZ I        1734  1.38         4.5 0.52                           246 197 
 HEL  HZ EP   1   1733 25.60                             115   -0.51 6  276 257 
 HEL  HN ES   1   1733 57.82                             115   -0.08 6  276 257 
 HEL  HZ I        1734  2.50         4.1 0.47                           276 257 
                                                                                
