 2013  828 1206 33.7 L   6.695 -73.201140.1  RSN  5 0.5 1.4LRSN                1
 GAP=221        1.18      10.0     8.6 10.6  0.3596E+02  0.2616E+02 -0.1081E+01E
 Epicentro: VILLANUEVA - SANTANDER                                             3
 ACTION:UPD 14-01-14 09:07 OP:ep   STATUS:               ID:20130828120633 L   I
 OLDACT:REG 13-08-28 14:25 OP:jn   STATUS:               ID:20130828115959     3
 2013-08-28-1159-59M.COL___270                                                 6
 STAT SP IPHASW D HRMM SECON CODA AMPLIT PERI AZIMU VELO AIN AR TRES W  DIS CAZ7
 BAR2 SZ EP       12 6 52.50                             175    0.0910 11.6 170 
 BAR2 SZ ES       12 7  6.29                             175   -0.7610 11.6 170 
 BAR2 SZ I        12 7  9.49         2.8 0.30            176           11.6 170 
 BRR  HZ EP       12 6 54.25                             151   -0.0210 72.5 309 
 BRR  HN ES       12 7 10.91                             151    0.5610 72.5 309 
 BRR  HZ I        12 7 16.68         6.4 0.53            148           72.5 309 
 RUS  HN ES   1   12 7 14.43                             146    0.87 7 89.7 172 
 PTB  HZ EP       12 6 59.12                             132   -0.32 9  140 263 
 PTB  HN ES       12 7 19.23                             132   -0.32 9  140 263 
 PTB  HZ I        12 7 22.28         2.7 0.52            134            140 263 
 ZAR  HN ES   1   12 7 31.09                             121    0.50 6  203 296 
 ZAR  HZ I        12 7 36.30         3.1 0.40            123            203 296 
                                                                                
