 2016  128 1354 44.9 L   6.812 -73.215134.0  RSN  5 0.3 1.5LRSN                1
 GAP=127        0.81       4.7     3.9  6.8 -0.4634E+01  0.1214E+02 -0.1330E+02E
 Epicentro: ZAPATOCA - SANTANDER                                               3
 ACTION:UPD 16-03-09 23:29 OP:cam  STATUS:               ID:20160128135444 L   I
 OLDACT:REG 16-01-28 21:52 OP:ak   STATUS:               ID:20160128135200     3
 2016-01-28-1351-59S.COL___223                                                 6
 STAT SP IPHASW D HRMM SECON CODA AMPLIT PERI AZIMU VELO AIN AR TRES W  DIS CAZ7
 BAR2 EZ EP       1355  3.09                             169   -0.0610 24.6 171 
 BAR2 EZ ES       1355 17.68                             169    0.3010 24.6 171 
 BAR2 EZ I        1355 18.81         8.5 0.20            171           24.6 171 
 PAM  EZ EP       1355  6.11                             147   -0.0410 81.5  44 
 PAM  EN ES       1355 22.64                             147   -0.0810 81.5  44 
 PAM  EZ I        1355 23.46         4.7 0.26            151           81.5  44 
 PTB  HZ EP       1355 10.21                             131   -0.05 9  140 258 
 PTB  HN ES       1355 29.42                             131   -0.61 9  140 258 
 PTB  HZ I        1355 34.70         2.7 0.12            131            140 258 
 ZAR  HZ EP       1355 16.20                             121    0.39 9  196 293 
 ZAR  HN ES       1355 40.49                             121    0.58 9  196 293 
 ZAR  HZ I        1355 45.90         3.2 0.28            122            196 293 
 SML  HZ EP       1355 20.39                             115   -0.03 8  239 337 
 SML  HE ES       1355 47.76                             115   -0.36 8  239 337 
 SML  HZ I        1355 50.06         4.3 0.13            117            239 337 
                                                                                
