 2016 1128 1950 50.7 L   6.774 -73.114141.1  RSN  4 0.3 1.6LRSN                1
 GAP=165        0.68       6.7     4.0  6.2 -0.1271E+02  0.1325E+02 -0.1424E+02E
 Epicentro: LOS SANTOS - SANTANDER                                             3
 ACTION:UPD 17-10-26 21:12 OP:lp   STATUS:               ID:20161128195050 L   I
 OLDACT:REG 16-11-28 21:57 OP:lv   STATUS:               ID:20161128194750     3
 2016-11-28-1948-00M.COL___349                                                 6
 STAT SP IPHASW D HRMM SECON CODA AMPLIT PERI AZIMU VELO AIN AR TRES W  DIS CAZ7
 BAR2 EZ ES       1951 24.46                             171   -0.1310 21.5 201 
 PAM  EZ EP       1951 12.60                             150    0.1610 77.5  36 
 PAM  EN ES       1951 29.37                             150   -0.0110 77.5  36 
 PAM  EZ I        1951 31.87         8.2 0.30            147           77.5  36 
 PTB  HZ EP       1951 17.91                             130    0.33 9  151 260 
 PTB  HN ES       1951 38.51                             130   -0.02 9  151 260 
 PTB  HZ I        1951 39.86         4.1 0.32            130            151 260 
 ZAR  HZ EP       1951 22.72                             121   -0.60 8  208 293 
 ZAR  HN ES       1951 48.94                             121    0.20 8  208 293 
 ZAR  HZ I        1951 54.76         3.0 0.11            120            208 293 
                                                                                
