 2016  428 1947 14.3 L   6.828 -73.139150.2  RSN 21 0.5 2.5LRSN                1
 GAP=109        0.92       3.1     2.9  4.4 -0.2300E+01  0.4298E+01  0.2336E+00E
 Epicentro: LOS SANTOS - SANTANDER                                             3
 ACTION:UPD 16-05-05 14:24 OP:rebc STATUS:               ID:20160428194714 L   I
 OLDACT:REG 16-04-28 22:04 OP:cara STATUS:               ID:20160428193748     3
 2016-04-28-1937-48M.COL___310                                                 6
 STAT SP IPHASW D HRMM SECON CODA AMPLIT PERI AZIMU VELO AIN AR TRES W  DIS CAZ7
 BAR2 EZ EP       1947 34.60                             170    0.1010 26.5 190 
 BAR2 EZ ES       1947 50.24                             170   -0.0410 26.5 190 
 BAR2 EZ I        1947 51.66        53.8 0.28            168           26.5 190 
 PAM  EZ EP       1947 37.27                             152    0.4710 74.5  41 
 PAM  EE ES       1947 55.01                             152    0.6410 74.5  41 
 RUS  HZ EP       1947 38.57                             144   -0.1110  104 177 
 RUS  HN ES       1947 57.49                             144   -0.2210  104 177 
 RUS  HZ I        1947 58.27        38.6 0.26            146            104 177 
 PTB  HZ EP       1947 41.00                             133   -0.72 9  149 258 
 PTB  HN ES       1948  2.54                             133   -0.60 9  149 258 
 PTB  HZ I        1948 10.19        59.0 0.42            132            149 258 
 SPBC HZ EP       1947 43.37                             129   -0.01 9  166 219 
 SPBC HN ES       1948  5.92                             129   -0.17 9  166 219 
 SPBC HZ I        1948 18.96        22.3 0.29            130            166 219 
 ZAR  HZ EP   1   1947 47.13                             123    0.17 6  204 291 
 ZAR  HN ES       1948 12.57                             123    0.11 9  204 291 
 ZAR  HZ I        1948 18.46        60.0 0.62            123            204 291 
 NOR  HZ EP       1947 50.46                             119   -0.05 8  237 234 
 NOR  HE ES       1948 18.20                             119   -0.58 8  237 234 
 NOR  HZ I        1948 25.96        34.0 0.20            120            237 234 
 CHI  HZ EP       1947 52.68                             118    0.12 8  252 195 
 CHI  HN ES       1948 21.86                             118   -0.56 8  252 195 
 CHI  HZ I        1948 27.89        21.8 0.28            119            252 195 
 ROSC BZ EP   9   1947 55.01                             117    2.05 0  256 211 
 ROSC BN ES       1948 25.41                                    0.22 8  256 211 
 ROSC BZ I        1948 28.11        44.5 0.40            118            256 211 
 HEL  HZ EP   2   1947 55.27                             115    0.40 4  274 255 
 HEL  HE ES       1948 26.06                             115   -0.48 8  274 255 
 HEL  HZ I        1948 32.95        20.5 0.30            116            274 255 
 URE  HZ EP   2   1947 55.14                             114   -0.36 4  283 291 
 URE  HE ES   4   1948 25.85                             114   -1.82 0  283 291 
 URE  HZ I        1948 38.78        30.6 0.28            115            283 291 
 GUY2CHZ EP       1947 58.67                             113    0.32 7  304 234 
 GUY2CHN ES       1948 32.97                             113    0.23 7  304 234 
 GUY2CHZ I        1948 43.58        18.5 0.46                           304 234 
 PTGC HZ EP   2   1947 57.59                             112   -1.03 3  311 159 
 PTGC HE ES   4   1948 30.58                             112   -2.64 0  311 159 
 ELA  HZ EP   2   1948  2.49                             111    0.89 3  332 229 
 ELA  HN ES       1948 39.14                             111    0.62 7  332 229 
 ELA  HZ I        1948 47.12        16.5 0.38            112            332 229 
 CBOC HZ EP       1948  1.57                             110    0.01 7  335 252 
 CBOC HN ES       1948 38.79                             110    0.35 7  335 252 
 CBOC HZ I        1948 40.26         6.7 0.42            111            335 252 
 DBB  SZ EP       1948  1.22                             110   -0.77 7  340 274 
 DBB  SZ ES       1948 39.10                             110   -0.11 7  340 274 
 SDV  BZ EP       1948  3.85                             109   -0.34 6  358  50 
 SDV  BE ES   4   1948 41.00                             109   -2.13 0  358  50 
 SDV  BZ I        1948 43.21         5.6 0.40            112            358  50 
 ANIL HZ EP       1948  5.47                             109    0.91 6  360 224 
 ANIL HE ES   1   1948 44.69                             109    0.90 5  360 224 
 ORTC HZ EP       1948  8.50                             107   -0.18 6  398 216 
 ORTC HN ES       1948 52.05                             107    0.92 6  398 216 
 ORTC HZ I        1948 56.13        10.3 0.70            108            398 216 
 SJC  HZ EP   4   1948  7.85                             106   -1.87 0  407 327 
 SJC  HN ES   4   1948 49.65                             106   -3.33 0  407 327 
 SJC  HZ I        1949  2.64         5.6 0.34            107            407 327 
 PAL  HZ EP       1948  9.85                             106    0.01 6  408 239 
 PAL  HN ES       1948 53.96                             106    0.78 6  408 239 
 PAL  HZ I        1948 59.06         6.5 0.50            107            408 239 
 CRJC HE ES   4   1949  0.21                             104   -4.87 0  464   3 
                                                                                
