 2013 1028 1841  3.3 L   6.778 -73.148142.0  RSN  8 0.5 2.0LRSN                1
 GAP=137        1.30       5.3     5.4  8.1 -0.1971E+01  0.1299E+02 -0.5783E+01E
 Epicentro: LOS SANTOS - SANTANDER                                             3
 ACTION:UPD 13-11-25 09:24 OP:ep   STATUS:               ID:20131028184103 L   I
 OLDACT:REG 13-10-28 17:16 OP:nd   STATUS:               ID:20131028184000     3
 2013-10-28-1840-00M.COL___273                                                 6
 STAT SP IPHASW D HRMM SECON CODA AMPLIT PERI AZIMU VELO AIN AR TRES W  DIS CAZ7
 BAR2 SZ EP       1841 22.02                             171   -0.4310 20.9 191 
 BAR2 SZ ES       1841 37.15                             171   -0.2210 20.9 191 
 BAR2 SZ I        1841 38.80        38.4 0.20            171           20.9 191 
 BRR  HZ IP     C 1841 24.48                             151    0.3610 72.2 300 
 BRR  HN ES       1841 41.33                             151    0.9910 72.2 300 
 BRR  HZ I        1841 45.66        17.1 0.14            151           72.2 300 
 PAM  SZ IP     D 1841 25.73                             149    0.4810 79.4  39 
 PAM  SN ES       1841 42.05                             149   -0.3110 79.4  39 
 PAM  SZ I        1841 44.78        26.8 0.56            153           79.4  39 
 RUS  HZ EP       1841 26.85                             144    0.3210 98.2 176 
 RUS  HN ES       1841 44.53                             144   -0.1010 98.2 176 
 RUS  HZ I        1841 45.97         5.1 0.22            147           98.2 176 
 PTB  HZ EP       1841 29.40                             131   -0.52 9  147 260 
 PTB  HN ES       1841 49.95                             131   -0.72 9  147 260 
 PTB  HZ I        1841 53.11        13.3 0.14            132            147 260 
 ZAR  HZ EP       1841 36.50                             121    0.91 9  205 293 
 ZAR  HN ES       1842  0.63                             121   -0.14 9  205 293 
 ZAR  HZ I        1842  3.81         8.4 0.26            123            205 293 
 NOR  HZ EP   2   1841 39.12                             118    0.46 4  233 235 
 NOR  HN ES       1842  6.27                             118    0.04 8  233 235 
 NOR  HZ I        1842 13.09         3.6 0.18            119            233 235 
 SML  HZ EP       1841 39.03                             116   -0.93 8  246 336 
 SML  HN ES   2   1842  7.98                             116   -0.56 4  246 336 
 SML  HZ I        1842 10.95        13.1 0.10            118            246 336 
                                                                                
