 2014  728 1036 56.7 L   6.812 -73.181139.0  RSN 16 0.4 2.3LRSN                1
 GAP=132        0.94       2.3     3.4  5.0 -0.1710E+01  0.7830E+01  0.4153E+00E
 Epicentro: ZAPATOCA - SANTANDER                                               3
 ACTION:UPD 15-03-16 20:47 OP:nd   STATUS:               ID:20140728103656 L   I
 OLDACT:REG 14-07-28 21:09 OP:carl STATUS:               ID:20140728102819     3
 2014-07-28-1028-19M.COL___260                                                 6
 STAT SP IPHASW D HRMM SECON CODA AMPLIT PERI AZIMU VELO AIN AR TRES W  DIS CAZ7
 BAR2 SZ EP       1037 15.66                             170    0.1310 24.3 180 
 BAR2 SZ ES       1037 29.87                             170   -0.3510 24.3 180 
 BAR2 SZ I        1037 31.93        35.6 0.22            169           24.3 180 
 PAM  SZ EP       1037 18.60                             149    0.3110 78.9  42 
 PAM  SN ES       1037 35.42                             149    0.2910 78.9  42 
 PAM  SZ I        1037 37.71        20.6 0.24            154           78.9  42 
 RUS  HZ EP       1037 19.69                             142   -0.2210  102 174 
 RUS  HE ES       1037 37.76                             142   -0.2610  102 174 
 PTB  HZ EP       1037 22.28                             131   -0.51 9  144 258 
 PTB  HN ES       1037 43.01                             131   -0.13 9  144 258 
 PTB  HZ I        1037 49.76        19.2 0.16            131            144 258 
 OCA  HE ES       1037 46.36                             128    0.50 9  158 354 
 OCA  HZ I        1037 50.32        20.1 0.24            131            158 354 
 SPBC HZ EP       1037 24.63                             128    0.08 9  162 218 
 SPBC HE ES       1037 46.19                             128   -0.09 9  162 218 
 NOR  HZ EP       1037 31.65                             117   -0.13 8  232 234 
 NOR  HN ES       1037 59.08                             117   -0.07 8  232 234 
 NOR  HZ I        1038  5.92        18.2 0.24            118            232 234 
 SML  HZ EP       1037 32.00                             116   -0.63 8  241 336 
 SML  HN ES       1038  0.88                             116    0.21 8  241 336 
 SML  HZ I        1038  6.11        18.2 0.32            118            241 336 
 CHI  HZ EP       1037 33.51                             115   -0.55 8  249 194 
 CHI  HN ES       1038  3.46                             115    0.25 8  249 194 
 CHI  HZ I        1038  9.03        11.5 0.22            118            249 194 
 HEL  HZ EP       1037 36.53                             114    0.35 8  269 255 
 HEL  HN ES       1038  7.71                             114    0.72 8  269 255 
 HEL  HZ I        1038 16.12         7.9 0.58            115            269 255 
 URE  HZ EP       1037 36.59                             112   -0.38 7  280 292 
 URE  HN ES       1038  7.39                             112   -1.01 7  280 292 
 URE  HZ I        1038  9.46        12.8 0.36            114            280 292 
 GUY2CHZ EP       1037 40.45                             111    0.73 7  299 234 
 GUY2CHE ES       1038 13.46                             111    0.17 7  299 234 
 GUY2CHZ I        1038 22.29        15.7 0.38                           299 234 
 RREF HZ EP       1037 42.41                             110    0.10 7  320 229 
 RREF HN ES       1038 18.29                             110    0.39 7  320 229 
 RREF HZ I        1038 27.41        12.9 0.26            111            320 229 
 TOL  SZ EP       1037 45.31                             108    0.83 7  342 224 
 TOL  SE ES       1038 22.15                             108    0.40 7  342 224 
 TOL  SZ I        1038 32.48        27.5 0.52            110            342 224 
 PRA  HZ EP       1037 49.23                             105   -0.67 6  391 209 
 PRA  HN ES       1038 31.35                             105   -0.05 6  391 209 
 PRA  HZ I        1038 38.15        11.0 0.38            107            391 209 
 SJC  HZ EP   4   1037 49.95                             105   -1.70 0  406 327 
 SJC  HN ES   4   1038 31.19                             105   -3.33 0  406 327 
 SJC  HZ I        1038 35.79         5.2 0.52            106            406 327 
                                                                                
