 2012  628 1401 35.8 L   6.790 -73.132142.6  RSN 14 0.5 2.7LRSN                1
 GAP=161        1.04       4.2     5.6  6.4  0.2937E+01  0.7129E+01  0.3822E+01E
 Epicentro: LOS SANTOS - SANTANDER                                             3
 ACTION:UPD 12-08-06 17:53 OP:ep   STATUS:               ID:20120628140135 L   I
 2012-06-28-1400-00M.COL___201                                                 6
 STAT SP IPHASW D HRMM SECON CODA AMPLIT PERI AZIMU VELO AIN AR TRES W  DIS CAZ7
 BAR2 SZ I        14 1 55.10        90.6 0.20                          22.6 194 
 BAR2 SZ IP       14 1 55.26                             171    0.2710 22.6 194 
 BAR2 SZ ES   1   14 2 10.06                             171    0.07 7 22.6 194 
 BRR  HZ IP     C 14 1 57.18                             151    0.5110 73.1 299 
 BRR  HN ES   1   14 2 13.91                             151    0.92 7 73.1 299 
 BRR  HZ I        14 2 16.87       131.3 0.14                          73.1 299 
 RUS  HZ IP     C 14 1 59.10                             144   -0.0110 99.4 177 
 RUS  HZ I        14 2  0.25        31.0 0.44                          99.4 177 
 RUS  HN ES   1   14 2 17.07                             144   -0.25 7 99.4 177 
 PTB  HZ EP       14 2  1.73                             131   -0.85 9  149 259 
 PTB  HN ES   1   14 2 22.65                             131   -0.86 7  149 259 
 PTB  HZ I        14 2 28.53        36.9 0.22                           149 259 
 OCA  HZ EP       14 2  3.26                             129   -0.68 9  162 353 
 OCA  HN ES   2   14 2 25.23                             129   -0.70 5  162 353 
 OCA  HZ I        14 2 30.08       101.2 0.44                           162 353 
 YOP  SZ EP       14 2  5.61                             126    0.21 9  177 154 
 ZAR  HZ EP       14 2  8.46                             122    0.27 8  206 292 
 NOR  SZ EP       14 2 11.17                             118   -0.19 8  235 235 
 NOR  SN ES   1   14 2 38.71                             118   -0.43 6  235 235 
 CHI  HZ EP       14 2 13.18                             117   -0.02 8  248 196 
 CHI  HN ES   2   14 2 42.02                             117   -0.39 4  248 196 
 CHI  HZ I        14 2 50.82        17.8 0.38                           248 196 
 HEL  HZ EP       14 2 16.78                             114    0.84 8  273 256 
 HEL  HN ES   3   14 2 48.10                             114    0.81 2  273 256 
 HEL  HZ I        14 2 53.53        19.4 0.26                           273 256 
 VIL  SN ES   2   14 2 51.84                             112   -0.78 4  303 192 
 DBB  SZ EP       14 2 23.26                             109   -0.03 7  341 274 
 TOL  SZ EP       14 2 24.52                             109    0.61 7  344 225 
 PRA  HZ EP       14 2 28.86                             106   -0.28 6  392 210 
 PRA  HZ I        14 2 30.75        65.4 0.20                           392 210 
 PRA  HN ES   1   14 3 11.42                             106    0.64 4  392 210 
                                                                                
