 2016  828 1500 58.0 L   6.742 -73.116146.0  RSN  6 0.5 1.5LRSN                1
 GAP=143        1.22       6.1     5.5  8.2  0.3161E+01  0.1158E+02 -0.2586E+01E
 Epicentro: LOS SANTOS - SANTANDER                                             3
 ACTION:UPD 16-10-29 15:40 OP:rebc STATUS:               ID:20160828150058 L   I
 OLDACT:REG 16-08-28 21:38 OP:ar   STATUS:               ID:20160828145740     3
 2016-08-28-1458-00M.COL___368                                                 6
 STAT SP IPHASW D HRMM SECON CODA AMPLIT PERI AZIMU VELO AIN AR TRES W  DIS CAZ7
 BAR2 EZ EP       15 1 17.51                             173   -0.0410 18.1 204 
 BAR2 EZ ES       15 1 32.51                             173   -0.3010 18.1 204 
 BAR2 EZ I        15 1 33.07         6.1 0.48                          18.1 204 
 BRR  HZ IP     C 15 1 19.40                             151   -0.1110 77.3 302 
 BRR  HN ES       15 1 37.23                             151    0.9310 77.3 302 
 PAM  EZ EP       15 1 20.55                             150    0.1410 80.5  35 
 PAM  EE ES       15 1 37.44                             150   -0.4710 80.5  35 
 PAM  EZ I        15 1 38.87         5.6 0.20                          80.5  35 
 RUS  HZ EP       15 1 21.48                             146    0.1910 93.9 178 
 RUS  HN ES       15 1 39.80                             146    0.3310 93.9 178 
 RUS  HZ I        15 1 41.10         3.7 0.28                          93.9 178 
 PTB  HZ EP       15 1 24.40                             132   -0.76 9  150 262 
 PTB  HE ES       15 1 45.87                             132   -0.49 9  150 262 
 PTB  HZ I        15 1 47.49         5.1 0.12                           150 262 
 ZAR  HZ EP       15 1 31.76                             122    0.74 8  210 293 
 ZAR  HN ES       15 1 56.61                             122   -0.17 8  210 293 
 ZAR  HZ I        15 2  4.17         5.3 0.52                           210 293 
                                                                                
