 2017  928 1508  1.3 L   6.775 -73.109136.9  RSN  9 0.5 1.6LRSN                1
 GAP=116        1.01       3.4     3.8  6.1  0.2104E+01  0.7400E+01  0.5429E+01E
 Epicentro: LOS SANTOS - SANTANDER                                             3
 ACTION:UPD 17-10-05 19:17 OP:rebc STATUS:               ID:20170928150801 L   I
 OLDACT:REG 17-09-28 20:40 OP:osc  STATUS:               ID:20170928145809     3
 2017-09-28-1508-00M.COL___440                                                 6
 STAT SP IPHASW D HRMM SECON CODA AMPLIT PERI AZIMU VELO AIN AR TRES W  DIS CAZ7
 BAR2 EZ EP       15 8 19.50                             170   -0.3610 21.8 202 
 BAR2 EZ ES       15 8 34.27                             170   -0.0410 21.8 202 
 BAR2 EZ I        15 8 35.53        14.4 0.28            169           21.8 202 
 BRR  HZ EP       15 8 21.51                             149   -0.3110 76.1 299 
 BRR  HN ES       15 8 37.89                             149    0.0910 76.1 299 
 PAM  EZ EP       15 8 22.36                             149   -0.2310 77.1  36 
 PAM  EE ES       15 8 39.47                             149    0.3110 77.1  36 
 PAM  EZ I        15 8 41.37        10.3 0.52            152           77.1  36 
 RUS  HZ EP       15 8 23.83                             143   -0.1710 97.6 178 
 RUS  HN ES       15 8 41.73                             143    0.0610 97.6 178 
 RUS  HZ I        15 8 43.41         3.8 0.42            144           97.6 178 
 YPLC HZ EP       15 8 29.93                             125   -0.13 9  172 152 
 YPLC HE ES       15 8 52.87                             125    0.41 9  172 152 
 ZAR  HZ EP       15 8 34.37                             120    0.65 8  209 292 
 ZAR  HE ES       15 8 58.96                             120   -0.02 8  209 292 
 ZAR  HZ I        15 9  4.55         6.8 0.26            120            209 292 
 NOR  HZ EP       15 8 36.11                             116   -0.64 8  236 236 
 NOR  HE ES       15 9  5.08                             116    0.70 8  236 236 
 NOR  HZ I        15 9 10.75         2.6 0.20            117            236 236 
 CHI  HN ES       15 9  7.20                             116   -0.08 8  247 196 
 GUY2CHZ EP   2   15 8 47.05                             111    2.31 4  303 236 
 GUY2CHE ES       15 9 18.01                             111   -0.60 7  303 236 
                                                                                
