 2014  328 1308 57.9 L   6.825 -73.072147.1  RSN  6 0.3 1.7LRSN                1
 GAP=207        0.85       4.1     7.6  6.8  0.1930E+02  0.2364E+01  0.1604E+01E
 Epicentro: LOS SANTOS - SANTANDER                                             3
 ACTION:UPD 14-04-09 23:21 OP:nd   STATUS:               ID:20140328130857 L   I
 OLDACT:REG 14-03-28 15:04 OP:mh   STATUS:               ID:20140328130805     3
 2014-03-28-1308-05M.COL___262                                                 6
 STAT SP IPHASW D HRMM SECON CODA AMPLIT PERI AZIMU VELO AIN AR TRES W  DIS CAZ7
 BAR2 SZ EP       13 9 17.65                             169   -0.1510 28.5 205 
 BAR2 SZ ES   1   13 9 33.00                             169   -0.32 7 28.5 205 
 BRR  HZ EP       13 9 20.08                             151    0.5510 77.2 294 
 BRR  HN ES       13 9 36.91                             151    0.5010 77.2 294 
 BRR  HZ I        13 9 41.57        13.2 0.37            144           77.2 294 
 RUS  HZ EP       13 9 22.03                             143    0.0710  103 181 
 RUS  HN ES       13 9 40.54                             143   -0.1910  103 181 
 RUS  HZ I        13 9 41.66         4.4 0.28            141            103 181 
 ZAR  HN ES       13 9 56.69                             122   -0.31 8  211 291 
 ZAR  HZ I        1310  3.18         4.5 0.16            119            211 291 
 SML  HN ES       1310  2.84                             118   -0.57 8  245 333 
 SML  HZ I        1310  4.62         7.2 0.13            117            245 333 
 CHI  HZ EP       13 9 36.39                             117    0.19 8  254 197 
 CHI  HN ES       1310  5.86                             117   -0.22 8  254 197 
 CHI  HZ I        1310 11.69         2.8 0.29            116            254 197 
                                                                                
