 2010 1228 1704 29.5 L   6.814 -73.174146.5  RSN 10 0.4 2.5LRSN                1
 GAP=134        0.73       3.3     6.7  6.6 -0.6935E+01  0.9336E+01  0.2659E+01E
 Epicentro: LOS SANTOS - SANTANDER                                             3
 ACTION:UP  11-01-14 15:27 OP:pat  STATUS:               ID:20101228170429 L   I
 2010-12-28-1659-09S.COL___135                                                 6
 STAT SP IPHASW D HRMM SECON CODA AMPLIT PERI AZIMU VELO SNR AR TRES W  DIS CAZ7
 BTL  SZ EP   1   17 4 49.54                             173     0.5 7   16 318 
 BTL  SZ ES   2   17 5  4.66                             173     0.3 5   16 318 
 BAR2 SZ IP       17 4 49.10                             170    -0.110   25 183 
 BAR2 SZ ES   2   17 5  4.55                             170    -0.1 5   25 183 
 BAR2 SZ I        17 5  5.72        58.8 0.43                            25 183 
 RUS  HZ EP   1   17 4 52.98                             144    -0.4 7  102 174 
 RUS  HE ES   2   17 5 11.78                             144    -0.3 5  102 174 
 RUS  HZ I        17 5 13.11        25.5 0.26                           102 174 
 GRA  SZ IP       17 4 54.91                             137     0.210  125  19 
 GRA  SZ ES   2   17 5 14.33                             137    -0.1 5  125  19 
 GRA  SZ I        17 5 15.88        46.3 0.40                           125  19 
 OCA  SZ EP   1   17 4 57.66                             130     0.0 7  158 354 
 OCA  SZ ES   2   17 5 18.77                             130    -0.9 5  158 354 
 OCA  SZ I        17 5 25.86        55.1 0.33                           158 354 
 YOP  SZ EP   1   17 4 59.54                             126    -0.3 7  182 153 
 YOP  SZ I        17 5  0.53        15.8 0.45                           182 153 
 YOP  SE ES   2   17 5 23.91                             126     0.4 4  182 153 
 NOR  SZ EP   1   17 5  5.30                             119     0.2 6  233 234 
 NOR  SE ES   2   17 5 32.65                             119    -0.2 4  233 234 
 CHI  HZ EP   1   17 5  7.06                             117    -0.2 6  249 194 
 CHI  HE ES   2   17 5 36.78                             117     0.0 4  249 194 
 CHI  HZ I        17 5 42.25        16.3 0.36                           249 194 
 ROSC BZ EP   1   17 5  8.46                             117     0.9 6  253 210 
 ROSC BE ES   2   17 5 37.84                             117     0.5 4  253 210 
 ROSC BZ I        17 5 47.07        40.2 0.45                           253 210 
 PRA  HZ EP   1   17 5 22.31                             107    -0.7 4  392 209 
 PRA  HE ES   2   17 6  4.28                             107    -0.5 3  392 209 
                                                                                
