 2016 1028 1306 14.8 L   6.814 -73.167145.1  RSN 10 0.5 1.9LRSN                1
 GAP=133        1.13       4.5     5.1  6.3 -0.6418E+01  0.5887E+01  0.8622E+01E
 Epicentro: LOS SANTOS - SANTANDER                                             3
 ACTION:UPD 16-11-09 19:23 OP:rebc STATUS:               ID:20161028130614 L   I
 OLDACT:UP  16-10-28 23:02 OP:edw  STATUS:               ID:20161028125749d    3
 OLDACT:DUP 16-10-28 22:59 OP:edw  STATUS:               ID:20161028125749d    3
 OLDACT:UP  16-10-28 22:59 OP:edw  STATUS:               ID:20161028125748     3
 OLDACT:UP  16-10-28 22:58 OP:edw  STATUS:               ID:20161028125748     3
 OLDACT:UP  16-10-28 22:58 OP:edw  STATUS:               ID:20161028125748     3
 OLDACT:REG 16-10-28 20:22 OP:edw  STATUS:               ID:20161028125748     3
 2016-10-28-1258-00M.COL___343                                                 6
 STAT SP IPHASW D HRMM SECON CODA AMPLIT PERI AZIMU VELO AIN AR TRES W  DIS CAZ7
 BAR2 EZ EP       13 6 34.16                             170   -0.1810 24.5 184 
 BAR2 EZ ES       13 6 49.33                             170   -0.2810 24.5 184 
 BAR2 EZ I        13 6 50.36        25.2 0.22            168           24.5 184 
 BRR  HZ EP       13 6 35.92                             153    0.2310 68.4 298 
 BRR  HN ES       13 6 52.64                             153    0.6310 68.4 298 
 BRR  HZ I        13 6 55.80        12.4 0.36            153           68.4 298 
 PAM  EZ IP     C 13 6 37.12                             151    0.1810 77.8  42 
 PAM  EN ES       13 6 54.30                             151    0.0810 77.8  42 
 PAM  EZ I        13 6 56.29        11.1 0.42            155           77.8  42 
 RUS  HZ EP       13 6 38.14                             143   -0.4410  102 175 
 RUS  HN ES       13 6 57.08                             143   -0.0710  102 175 
 RUS  HZ I        13 6 57.88        11.7 0.26            144            102 175 
 PTB  HZ EP       13 6 40.72                             132   -0.78 9  146 258 
 PTB  HN ES       13 7  1.68                             132   -0.67 9  146 258 
 PTB  HZ I        13 7  3.65         8.0 0.14            132            146 258 
 SPBC HZ EP       13 6 43.17                             129   -0.02 9  163 218 
 SPBC HN ES       13 7  6.08                             129    0.72 9  163 218 
 SPBC HZ I        13 7 13.09        21.8 0.10            129            163 218 
 NOR  HZ EP       13 6 50.64                             118    0.29 8  234 234 
 NOR  HN ES       13 7 17.58                             118   -0.52 8  234 234 
 NOR  HZ I        13 7 22.79         7.1 0.30            119            234 234 
 CHI  HZ EP       13 6 52.41                             117   -0.11 8  249 195 
 CHI  HN ES       13 7 22.07                             117    0.10 8  249 195 
 CHI  HZ I        13 7 24.90         5.0 0.38            118            249 195 
 GUY2CHZ EP       13 6 59.20                             112    0.97 7  300 234 
 GUY2CHN ES   4   13 7 36.82                             112    4.69 0  300 234 
 GUY2CHZ I        13 7 39.36         4.1 0.58                           300 234 
 PRA  HZ EP       13 7  7.89                             106   -0.40 6  392 209 
 PRA  HN ES       13 7 51.02                             106    0.99 6  392 209 
 PRA  HZ I        13 7 56.63         2.5 0.22            107            392 209 
                                                                                
