 2015 1228 1140 36.2 L   6.789 -73.146144.0  RSN 14 0.5 2.1LRSN                1
 GAP=137        0.93       2.9     4.5  5.7 -0.1215E-01  0.9737E+01  0.2003E+01E
 Epicentro: LOS SANTOS - SANTANDER                                             3
 ACTION:UPD 16-02-04 15:08 OP:cam  STATUS:               ID:20151228114036 L   I
 OLDACT:REG 15-12-28 20:13 OP:dnl  STATUS:               ID:20151228113750     3
 2015-12-28-1137-50M.COL___337                                                 6
 STAT SP IPHASW D HRMM SECON CODA AMPLIT PERI AZIMU VELO AIN AR TRES W  DIS CAZ7
 BAR2 EZ EP       1140 55.67                             171    0.0910 22.1 190 
 BAR2 EZ ES       1141 10.95                             171    0.2410 22.1 190 
 BAR2 EZ I        1141 12.37        42.1 0.21            169           22.1 190 
 BRR  HZ EP       1140 57.77                             152    0.5910 71.7 299 
 BRR  HN ES       1141 14.47                             152    0.9210 71.7 299 
 BRR  HZ I        1141 17.28        16.1 0.17            145           71.7 299 
 PAM  EZ EP   2   1140 58.43                             151    0.15 5 78.4  39 
 PAM  EE ES   1   1141 14.60                             151   -0.91 7 78.4  39 
 PAM  EZ I        1141 19.00         9.1 0.47            136           78.4  39 
 RUS  HZ EP       1140 59.56                             144   -0.1210 99.3 176 
 RUS  HE ES       1141 17.93                             144   -0.0710 99.3 176 
 RUS  HZ I        1141 19.71        12.6 0.34            133           99.3 176 
 PTB  HZ EP       1141  2.46                             132   -0.53 9  147 259 
 PTB  HN ES   2   1141 23.18                             132   -0.71 5  147 259 
 PTB  HZ I        1141 25.75        12.9 0.21            122            147 259 
 SPBC HZ EP   2   1141  4.67                             129    0.21 5  162 219 
 SPBC HN ES   2   1141 26.64                             129    0.14 5  162 219 
 SPBC HZ I        1141 31.57        21.4 0.11            119            162 219 
 OCA  HZ EP   2   1141  5.06                             129    0.58 5  162 353 
 OCA  HE ES       1141 26.30                             129   -0.25 9  162 353 
 OCA  HZ I        1141 29.73        27.6 0.24            117            162 353 
 ZAR  HZ EP       1141  8.45                             122   -0.11 9  204 292 
 ZAR  HN ES       1141 33.42                             122   -0.39 9  204 292 
 ZAR  HZ I        1141 39.01         7.6 0.10            112            204 292 
 NOR  HZ EP       1141 11.75                             118    0.02 8  234 235 
 NOR  HN ES       1141 38.93                             118   -0.52 8  234 235 
 NOR  HZ I        1141 44.37         9.6 0.17            109            234 235 
 SML  HZ EP   2   1141 12.21                             117   -0.63 4  245 335 
 SML  HN ES   4   1141 39.90                             117   -1.52 0  245 335 
 SML  HZ I        1141 44.71        21.8 0.06            106            245 335 
 CHI  HN ES       1141 42.80                             117   -0.08 8  247 195 
 CHI  HZ I        1141 48.77         4.6 0.36            107            247 195 
 GUY2CHZ EP   2   1141 20.51                             112    0.88 4  300 235 
 GUY2CHN ES   2   1141 54.17                             112    0.66 4  300 235 
 GUY2CHZ I        1142  2.26         5.7 0.22                           300 235 
 ANIL HZ EP   2   1141 26.69                             108    0.87 3  356 225 
 ANIL HN ES   4   1142  3.69                             108   -0.84 0  356 225 
 ANIL HZ I        1142 12.34        15.0 0.31             99            356 225 
 PRA  HZ EP   2   1141 29.66                             107    0.14 3  391 210 
 PRA  HE ES   2   1142 11.02                             107   -0.09 3  391 210 
 PRA  HZ I        1142 17.54         5.2 0.28             97            391 210 
                                                                                
