 2012  828 1135 15.0 L   6.684 -73.192149.1  RSN  5 0.3 1.9LRSN                1
 GAP=225        0.66       5.2     6.4  7.6  0.1190E+02  0.1235E+02  0.9559E+01E
 Epicentro: VILLANUEVA - SANTANDER                                             3
 ACTION:UPD 12-09-10 11:58 OP:ep   STATUS:               ID:20120828113515 L   I
 2012-08-28-1130-00M.COL___218                                                 6
 STAT SP IPHASW D HRMM SECON CODA AMPLIT PERI AZIMU VELO AIN AR TRES W  DIS CAZ7
 BAR2 SZ EP       1135 34.53                             176   -0.2910 10.2 174 
 BAR2 SZ ES   1   1135 50.17                             176   -0.13 7 10.2 174 
 BAR2 SZ I        1135 52.48        18.4 0.15                          10.2 174 
 BRR  HZ EP       1135 36.89                             152    0.2410 74.1 309 
 BRR  HZ I        1135 40.55        17.2 0.46                          74.1 309 
 BRR  HN ES   1   1135 53.95                             152    0.39 7 74.1 309 
 PTB  HZ EP   1   1135 41.47                             134   -0.13 7  141 264 
 PTB  HN ES   2   1136  1.59                             134   -0.77 5  141 264 
 PTB  HZ I        1136  8.69         7.5 0.24                           141 264 
 ZAR  HE ES   1   1136 13.18                             123   -0.04 6  205 296 
 ZAR  HZ I        1136 19.25         8.1 0.23                           205 296 
 CHI  HN ES   1   1136 20.23                             119    0.43 6  235 195 
 CHI  HZ I        1136 26.27         3.5 0.41                           235 195 
                                                                                
