 2013  328 1404 34.6 L   6.736 -73.150155.1  RSN  4 0.2 2.1LRSN                1
 GAP=232        0.47       4.2     3.7  4.0  0.6962E+01  0.1498E+00  0.1049E+01E
 Epicentro: JORDAN - SANTANDER                                                 3
 ACTION:UPD 13-04-09 14:05 OP:ep   STATUS:               ID:20130328140434 L   I
 2013-03-28-1400-00M.COL___245                                                 6
 STAT SP IPHASW D HRMM SECON CODA AMPLIT PERI AZIMU VELO AIN AR TRES W  DIS CAZ7
 BAR2 SZ EP       14 4 55.06                             174   -0.1910 16.3 193 
 BAR2 SZ ES       14 5 11.13                             174   -0.2110 16.3 193 
 BAR2 SZ I        14 5 20.95        16.1 0.38            176           16.3 193 
 BRR  HZ EP       14 4 57.05                             153    0.1010 74.4 303 
 BRR  HN ES       14 5 14.57                             153    0.2010 74.4 303 
 BRR  HN I        14 5 17.68        36.1 0.22            156           74.4 303 
 RUS  HZ EP       14 4 58.95                             148    0.1310 93.6 175 
 RUS  HN ES   1   14 5 17.87                             148    0.17 7 93.6 175 
 RUS  HN I        14 5 18.02         8.3 0.30            154           93.6 175 
 PTB  HZ EP   1   14 5  2.03                             134   -0.17 7  146 262 
 PTB  HN ES       14 5 23.66                             134   -0.06 9  146 262 
 PTB  HN I        14 5 28.31        22.0 0.26            139            146 262 
 HEL  HZ EP   4   14 5 17.21                             117    2.13 0  270 257 
                                                                                
