 2017  828 1614  0.7 L   6.799 -73.096139.5  RSN 11 0.6 1.8LRSN                1
 GAP=100        1.32       5.3     5.7  7.5 -0.9000E+01 -0.1361E+01  0.1326E+02E
 Epicentro: LOS SANTOS - SANTANDER                                             3
 ACTION:UPD 17-09-04 20:25 OP:rebc STATUS:               ID:20170828161400 L   I
 OLDACT:UP  17-08-29 00:42 OP:dani STATUS:               ID:20170828160744     3
 OLDACT:UP  17-08-29 00:40 OP:dani STATUS:               ID:20170828160744     3
 OLDACT:REG 17-08-28 20:35 OP:dani STATUS:               ID:20170828160744     3
 2017-08-28-1608-00M.COL___414                                                 6
 STAT SP IPHASW D HRMM SECON CODA AMPLIT PERI AZIMU VELO AIN AR TRES W  DIS CAZ7
 BAR2 EZ EP     C 1614 19.25                             169   -0.3810 24.8 203 
 BAR2 EZ ES       1614 34.42                             169    0.0510 24.8 203 
 BAR2 EZ I        1614 36.67        18.5 0.44            168           24.8 203 
 PAM  EZ EP       1614 22.09                             151    0.0210 74.0  36 
 PAM  EN ES       1614 39.17                             151    0.4610 74.0  36 
 PAM  EZ I        1614 41.11        19.4 0.64            154           74.0  36 
 BRR  HZ EP       1614 21.25                             150   -0.2410 76.1 297 
 BRR  HN ES       1614 37.89                             150    0.2010 76.1 297 
 BRR  HZ I        1614 42.13        16.5 0.12            148           76.1 297 
 RUS  HZ EP       1614 23.24                             143   -0.6010  100 179 
 RUS  HN ES       1614 41.56                             143   -0.3010  100 179 
 RUS  HZ I        1614 42.55         4.8 0.22            144            100 179 
 TAM  HZ EP       1614 27.66                             130    0.26 9  150 106 
 SPBC HZ EP   3   1614 28.33                             127   -0.75 2  167 220 
 SPBC HE ES       1614 50.65                             127   -0.55 9  167 220 
 SPBC HZ I        1614 57.49         8.4 0.16            128            167 220 
 YPLC HZ EP       1614 29.57                             126   -0.23 9  174 153 
 ZAR  HZ EP   3   1614 35.29                             120    1.98 2  209 292 
 ZAR  HN ES   3   1614 58.16                             120   -0.56 2  209 292 
 ZAR  HZ I        1615  3.52        13.5 0.39            121            209 292 
 NOR  HZ EP       1614 35.34                             117   -1.24 8  239 235 
 NOR  HE ES       1615  5.09                             117    0.54 8  239 235 
 NOR  HZ I        1615  6.14         3.9 0.32            117            239 235 
 CHI  HZ EP       1614 38.77                             116    0.53 8  250 196 
 CHI  HE ES       1615  8.97                             116    1.47 8  250 196 
 CHI  HZ I        1615 13.71         3.0 0.28            117            250 196 
 GUY2CHZ EP       1614 45.34                             111    0.78 7  306 235 
 GUY2CHN ES   4   1615 21.74                             111    2.99 0  306 235 
 GUY2CHZ I        1615 26.90         2.6 0.62                           306 235 
                                                                                
