 2012 1028 1448  9.8 L   6.771 -73.067146.0  RSN  6 0.1 1.9LRSN                1
 GAP=148        0.37       2.5     3.4  3.0  0.2226E-01  0.1678E+01  0.2194E+00E
 Epicentro: LOS SANTOS - SANTANDER                                             3
 ACTION:UPD 12-11-22 17:06 OP:ep   STATUS:               ID:20121028144809 L   I
 2012-10-28-1440-00M.COL___231                                                 6
 STAT SP IPHASW D HRMM SECON CODA AMPLIT PERI AZIMU VELO AIN AR TRES W  DIS CAZ7
 BAR2 SZ EP       1448 29.33                             170   -0.1010 23.5 213 
 BAR2 SZ ES       1448 44.75                             170   -0.0110 23.5 213 
 BAR2 SZ I        1448 46.04        27.4 0.39                          23.5 213 
 GIR2 SZ EP   1   1448 29.74                             165    0.11 7 36.8 338 
 PAM  SZ EP   1   1448 31.73                             152   -0.13 7 74.9  33 
 PAM  SN ES   1   1448 49.31                             152    0.22 7 74.9  33 
 PAM  SZ I        1448 51.78        10.7 0.58                          74.9  33 
 BRR  HZ EP       1448 31.33                             150   -0.1510 80.4 298 
 BRR  HZ I        1448 31.59        17.6 0.15                          80.4 298 
 BRR  HE ES   1   1448 48.44                             150    0.02 7 80.4 298 
 RUS  HZ EP       1448 33.29                             145   -0.0110 97.1 181 
 RUS  HN ES   1   1448 51.71                             145    0.06 7 97.1 181 
 RUS  HN I        1448 52.87        12.6 0.33                          97.1 181 
 HEL  HZ EP   1   1448 51.22                             114    0.38 6  280 257 
 HEL  HZ I        1449 29.93         5.1 0.30                           280 257 
                                                                                
