 2012  428 1810  6.4 L   6.760 -73.154143.6  RSN  6 0.4 1.7LRSN                1
 GAP=137        0.98       5.4     5.5  9.3  0.3908E+00  0.1479E+02 -0.4057E+00E
 Epicentro: LOS SANTOS - SANTANDER                                             3
 ACTION:UP  12-07-05 11:56 OP:tino STATUS:               ID:20120428181006 L   I
 2012-04-28-1810-00M.COL___189                                                 6
 STAT SP IPHASW D HRMM SECON CODA AMPLIT PERI AZIMU VELO AIN AR TRES W  DIS CAZ7
 BAR2 SZ EP   1   1810 25.82                             172     0.1 7   19 190 
 BAR2 SZ ES   1   1810 40.49                             172    -0.3 7   19 190 
 BAR2 SZ I        1810 41.74         9.8 0.08                            19 190 
 BRR  HZ EP   1   1810 27.66                             151     0.2 7   73 302 
 BRR  HZ I        1810 27.83        25.8 0.20                            73 302 
 BRR  HN ES   1   1810 44.71                             151     0.9 7   73 302 
 PAM  SZ EP   1   1810 28.74                             149     0.1 7   81  38 
 PAM  SZ I        1810 29.02        12.2 0.17                            81  38 
 PAM  SN ES       1810 45.63                             149    -0.410   81  38 
 RUS  HZ EP   1   1810 29.87                             144     0.2 7   96 175 
 RUS  HN ES       1810 47.89                             144     0.110   96 175 
 RUS  HZ I        1810 49.93         8.0 0.33                            96 175 
 PTB  HZ EP   1   1810 32.85                             132    -0.2 7  146 260 
 PTB  HN ES   1   1810 53.12                             132    -0.7 7  146 260 
 PTB  HZ I        1810 57.46         4.0 0.09                           146 260 
 ZAR  HN ES   1   1811  4.18                             122     0.1 6  205 293 
                                                                                
