 2016  328 1115 57.2 L   6.417 -73.574110.3  RSN  6 0.4 1.6LRSN                1
 GAP=125        0.97       4.8     8.1 11.6  0.2402E+02  0.7184E+02  0.2808E+02E
 Epicentro: SANTA HELENA DEL OPON - SANTANDER                                  3
 ACTION:UPD 16-05-13 21:28 OP:cam  STATUS:               ID:20160328111557 L   I
 OLDACT:UP  16-03-31 22:05 OP:cam  STATUS:               ID:20160328111557 L   3
 OLDACT:UP  16-03-31 22:04 OP:cam  STATUS:               ID:20160328111557 L   3
 OLDACT:UP  16-03-31 22:03 OP:cam  STATUS:               ID:20160328111557 L   3
 OLDACT:UP  16-03-29 11:54 OP:dnl  STATUS:               ID:20160328111557 L   3
 OLDACT:REG 16-03-28 20:06 OP:drio STATUS:               ID:20160328110745     3
 2016-03-28-1107-45M.COL___303                                                 6
 STAT SP IPHASW D HRMM SECON CODA AMPLIT PERI AZIMU VELO AIN AR TRES W  DIS CAZ7
 BAR2 EZ EP       1116 13.94                             155    0.4210 47.5  66 
 BAR2 EZ ES       1116 26.61                             155    0.3510 47.5  66 
 BAR2 EZ I        1116 28.02        18.1 0.44            168           47.5  66 
 RUS  HZ EP       1116 15.83                             142   -0.0910 79.4 137 
 RUS  HE ES       1116 29.87                             142   -0.6810 79.4 137 
 RUS  HZ I        1116 38.85         4.6 0.30            150           79.4 137 
 PTB  HZ EP   4   1116 15.13                             135   -1.68 0 98.5 278 
 PTB  HN ES   4   1116 29.31                             135   -2.82 0 98.5 278 
 PTB  HZ I        1116 32.34         5.7 0.22            136           98.5 278 
 PAM  EZ EP   4   1116 18.11                             124   -3.30 0  141  43 
 PAM  EE ES   4   1116 35.04                             124   -5.27 0  141  43 
 PAM  EZ I        1116 36.97         9.1 0.48            135            141  43 
 ZAR  HZ EP       1116 25.25                             116   -0.25 9  185 310 
 ZAR  HN ES       1116 47.48                             116   -0.11 9  185 310 
 ZAR  HZ I        1116 59.78         7.7 0.56            121            185 310 
 CHI  HZ EP       1116 27.31                             114   -0.16 9  198 185 
 CHI  HE ES       1116 51.64                             114    0.53 9  198 185 
 CHI  HZ I        1116 53.83         2.4 0.24            119            198 185 
                                                                                
