 2013  428 1144 31.4 L   6.813 -73.471111.7  RSN  7 0.4 1.8LRSN                1
 GAP= 97        0.89       3.9     5.0  6.8  0.7031E+00  0.4661E+01 -0.1160E+01E
 Epicentro: SAN VICENTE DE CHUCURI - SANTANDER                                 3
 ACTION:UPD 13-05-22 14:41 OP:EP   STATUS:               ID:20130428114431 L   I
 2013-04-28-1140-00M.COL___248                                                 6
 STAT SP IPHASW D HRMM SECON CODA AMPLIT PERI AZIMU VELO AIN AR TRES W  DIS CAZ7
 BAR2 SZ IP     C 1144 47.90                             159    0.3610 40.2 127 
 BAR2 SZ ES   1   1145  0.21                             159    0.08 7 40.2 127 
 BAR2 SZ I        1145  1.99        48.6 0.34            161           40.2 127 
 BRR  HZ EP       1144 47.94                             158    0.6710 42.0 321 
 BRR  HN ES   1   1145  0.01                             158    0.36 7 42.0 321 
 BRR  HZ I        1145  1.03        14.7 0.18            159           42.0 321 
 GIR2 SZ IP     D 1144 47.64                             158    0.1410 42.4  46 
 GIR2 SZ ES   1   1144 59.72                             158   -0.34 7 42.4  46 
 GIR2 SZ I        1145  1.93        18.5 0.30            165           42.4  46 
 RUS  HZ EP     D 1144 52.78                             132   -0.0710  110 157 
 RUS  HN ES   1   1145  9.06                             132   -0.52 7  110 157 
 RUS  HZ I        1145 14.08         5.0 0.38            133            110 157 
 PTB  HZ EP       1144 52.34                             131   -0.1010  113 255 
 PTB  HN ES   1   1145  8.36                             131   -0.50 7  113 255 
 PTB  HZ I        1145 13.11        15.4 0.22            130            113 255 
 OCA  HZ EP       1144 56.92                             121   -0.21 9  159   6 
 OCA  HN ES   1   1145 16.52                             121   -0.67 7  159   6 
 OCA  HZ I        1145 17.08        13.8 0.18            125            159   6 
 HEL  HZ EP   4   1145  8.62                             110    2.46 0  238 253 
 HEL  HN ES   4   1145 33.28                             110    0.01 0  238 253 
 HEL  HZ I        1145 38.99         3.8 0.26            111            238 253 
                                                                                
