 2012 1228 1216 35.3 L   6.742 -73.169148.4  RSN  4 0.1 1.6LRSN                1
 GAP=230        0.36       8.0     7.1  6.5  0.3765E+02  0.6320E+01  0.3157E+02E
 Epicentro: VILLANUEVA - SANTANDER                                             3
 ACTION:UPD 13-01-04 14:31 OP:ep   STATUS:               ID:20121228121635 L   I
 2012-12-28-1210-00M.COL___243                                                 6
 STAT SP IPHASW D HRMM SECON CODA AMPLIT PERI AZIMU VELO AIN AR TRES W  DIS CAZ7
 BAR2 SZ EP       1216 55.03                             173   -0.1110 16.6 185 
 BAR2 SZ I        1216 55.33         6.9 0.11                          16.6 185 
 BRR  HZ EP       1216 56.89                             152    0.0810 72.4 304 
 BRR  HN ES       1217 13.59                             152    0.0110 72.4 304 
 BRR  HZ I        1217 14.65        12.1 0.27                          72.4 304 
 RUS  HZ EP   1   1216 59.00                             146    0.11 7 94.3 174 
 PTB  HZ EP   1   1217  2.10                             133   -0.07 7  144 261 
 PTB  HZ I        1217 25.20         3.6 0.11                           144 261 
                                                                                
