 2017 1028 1905 54.0 L   6.818 -73.156143.4  RSN 15 0.5 2.3LRSN                1
 GAP=110        1.08       3.6     3.7  5.4  0.1127E+01  0.5021E+01  0.6383E+01E
 Epicentro: LOS SANTOS - SANTANDER                                             3
 ACTION:UPD 17-11-07 19:38 OP:rebc STATUS:               ID:20171028190554 L   I
 OLDACT:UP  17-10-29 00:16 OP:edw  STATUS:               ID:20171028185742     3
 OLDACT:UP  17-10-29 00:16 OP:edw  STATUS:               ID:20171028185742     3
 OLDACT:REG 17-10-28 20:25 OP:dhb  STATUS:               ID:20171028185742     3
 2017-10-28-1858-00M.COL___447                                                 6
 STAT SP IPHASW D HRMM SECON CODA AMPLIT PERI AZIMU VELO AIN AR TRES W  DIS CAZ7
 BAR2 EZ EP       19 6 13.27                             170   -0.1510 25.2 187 
 BAR2 EZ ES       19 6 28.23                             170   -0.3110 25.2 187 
 BAR2 EZ I        19 6 29.73        64.4 0.42            167           25.2 187 
 BRR  HZ EP       19 6 15.27                             153    0.4510 69.2 298 
 BRR  HN ES       19 6 31.99                             153    0.9610 69.2 298 
 BRR  HZ I        19 6 37.03        28.6 0.12            153           69.2 298 
 PAM  EZ EP       19 6 16.09                             150    0.1410 76.6  41 
 PAM  EE ES       19 6 33.02                             150   -0.0310 76.6  41 
 PAM  EZ I        19 6 35.46        25.3 0.30            157           76.6  41 
 RUS  HZ EP       19 6 17.29                             143   -0.4210  103 175 
 RUS  HN ES       19 6 35.76                             143   -0.4210  103 175 
 RUS  HZ I        19 6 37.17        13.6 0.50            143            103 175 
 PTB  HZ EP       19 6 20.13                             132   -0.62 9  147 258 
 PTB  HN ES       19 6 41.11                             132   -0.47 9  147 258 
 PTB  HZ I        19 6 42.55        14.9 0.30            132            147 258 
 SPBC HZ EP       19 6 22.21                             128   -0.23 9  164 218 
 SPBC HN ES       19 6 44.84                             128    0.25 9  164 218 
 SPBC HZ I        19 6 49.26        39.2 0.20            129            164 218 
 YPLC HZ EP     C 19 6 23.76                             126   -0.13 9  179 151 
 YPLC HE ES       19 6 47.54                             126    0.36 9  179 151 
 YPLC HZ I        19 6 48.57        12.3 0.28            128            179 151 
 ZAR  HZ EP       19 6 26.35                             122    0.21 9  202 292 
 ZAR  HN ES       19 6 50.64                             122   -0.54 9  202 292 
 ZAR  HZ I        19 6 57.45        23.9 0.38            124            202 292 
 TABC EZ EP       19 6 30.58                             119    0.81 8  231 210 
 TABC EZ ES   4   19 7  0.94                             119    3.30 0  231 210 
 TABC EZ I        19 7  4.96        25.3 0.66            120            231 210 
 NOR  HZ EP       19 6 29.66                             118    0.00 8  235 234 
 NOR  HE ES       19 6 57.08                             118   -0.36 8  235 234 
 NOR  HZ I        19 7  2.36        16.3 0.20            119            235 234 
 CHI  HZ EP       19 6 31.65                             116   -0.14 8  250 195 
 CHI  HN ES   4   19 7  0.30                             116   -0.93 0  250 195 
 CHI  HZ I        19 7  7.93        10.6 0.52            118            250 195 
 URE  HZ EP   4   19 6 36.41                             113    1.62 0  282 292 
 URE  HN ES   4   19 7  4.22                             113   -2.35 0  282 292 
 URE  HZ I        19 7  5.58        11.1 0.16            115            282 292 
 GUY2CHZ EP       19 6 37.95                             112    0.39 7  301 234 
 GUY2CHN ES   4   19 7 13.56                             112    2.05 0  301 234 
 GUY2CHZ I        19 7 19.88         8.4 0.56                           301 234 
 PRA  HZ EP       19 6 47.14                             106   -0.48 6  393 209 
 PRA  HN ES       19 7 29.98                             106    0.57 6  393 209 
 PRA  HZ I        19 7 34.64        11.4 0.54            107            393 209 
 ORTC HZ EP       19 6 47.79                             106   -0.20 6  396 216 
 ORTC HN ES       19 7 31.24                             106    1.17 6  396 216 
 ORTC HZ I        19 7 38.84         6.8 0.32            107            396 216 
                                                                                
