 2013  328 1851 58.8 L   6.701 -73.187152.4  RSN  4 0.1 1.8LRSN                1
 GAP=225        0.35       3.2     3.9  4.0  0.7740E+01 -0.3141E+01 -0.1717E+01E
 Epicentro: VILLANUEVA - SANTANDER                                             3
 ACTION:UPD 13-04-09 14:05 OP:ep   STATUS:               ID:20130328185158 L   I
 2013-03-28-1850-00M.COL___245                                                 6
 STAT SP IPHASW D HRMM SECON CODA AMPLIT PERI AZIMU VELO AIN AR TRES W  DIS CAZ7
 BAR2 SZ EP   2   1852 18.69                             175   -0.38 5 12.0 178 
 BRR  HZ EP       1852 20.84                             153    0.0410 73.4 308 
 BRR  HN ES       1852 37.97                             153    0.0310 73.4 308 
 BRR  HN I        1852 38.51        12.9 0.20            148           73.4 308 
 RUS  HZ EP       1852 22.54                             148    0.0310 90.1 173 
 RUS  HN ES       1852 41.02                             148    0.0210 90.1 173 
 RUS  HN I        1852 41.36         6.9 0.32            144           90.1 173 
 PTB  HZ EP   2   1852 25.91                             135    0.13 5  141 263 
 PTB  HN ES   1   1852 46.70                             135   -0.11 7  141 263 
 PTB  HN I        1852 51.71         7.3 0.20            129            141 263 
                                                                                
