 2017  328 1101 51.7 L   6.821 -73.140153.6  RSN  9 0.5 1.7LRSN                1
 GAP=136        1.16       4.8     4.9  7.3 -0.3411E+01  0.7237E+01  0.7842E+01E
 Epicentro: LOS SANTOS - SANTANDER                                             3
 ACTION:UPD 17-05-25 18:46 OP:jn   STATUS:               ID:20170328110151 L   I
 OLDACT:REG 17-03-28 20:05 OP:lv   STATUS:               ID:20170328105744     3
 2017-03-28-1058-00M.COL___352                                                 6
 STAT SP IPHASW D HRMM SECON CODA AMPLIT PERI AZIMU VELO AIN AR TRES W  DIS CAZ7
 BAR2 EZ EP       11 2 11.86                             170   -0.4310 25.7 190 
 BAR2 EZ ES       11 2 29.03                             170    0.6510 25.7 190 
 BRR  HZ EP       11 2 13.82                             154    0.1710 70.7 297 
 BRR  HE ES       11 2 31.37                             154    0.5810 70.7 297 
 PAM  EZ EP       11 2 14.72                             153    0.1110 75.2  40 
 PAM  EN ES       11 2 32.05                             153   -0.4510 75.2  40 
 RUS  HZ EP       11 2 16.90                             145    0.5410  103 176 
 RUS  HN ES       11 2 35.20                             145   -0.4210  103 176 
 PTB  HZ EP       11 2 19.31                             134   -0.07 9  149 258 
 PTB  HE ES       11 2 40.53                             134   -0.47 9  149 258 
 SPBC HZ EP       11 2 20.76                             130   -0.22 9  165 219 
 SPBC HN ES       11 2 43.23                             130   -0.62 9  165 219 
 SPBC HZ I        11 2 47.83                             129            165 219 
 ZAR  HN ES       11 2 49.90                             124   -0.41 9  204 291 
 NOR  HN ES       11 2 57.32                             120    0.87 8  237 234 
 NOR  HZ I        11 3  1.80         3.3 0.22            119            237 234 
 PRA  HZ EP       11 2 46.28                             108    0.54 6  394 209 
 PRA  HN ES       11 3 27.77                             108   -0.14 6  394 209 
 PRA  HZ I        11 3 31.09         1.3 0.06            107            394 209 
 SJC  HZ EP   4   11 2 46.05                             107   -1.27 0  408 327 
 SJC  HN ES   4   11 3 29.37                             107   -1.35 0  408 327 
                                                                                
