 2011  928 1154 32.9 L   6.934 -72.906133.8  RSN  4 0.1 1.4LRSN                1
 GAP=264        0.36       6.2     9.5  4.8  0.5151E+02 -0.2522E+02 -0.1832E+02E
 Epicentro: GUACA - SANTANDER                                                  3
 ACTION:UPD 12-07-13 16:00 OP:ep   STATUS:               ID:20110928115432 L   I
 2011-09-28-1151-21S.COL___165                                                 6
 STAT SP IPHASW D HRMM SECON CODA AMPLIT PERI AZIMU VELO AIN AR TRES W  DIS CAZ7
 BAR2 SZ EP   1   1154 51.93                             159    0.05 7 48.6 219 
 BAR2 SZ ES   1   1155  6.62                             159   -0.11 7 48.6 219 
 BAR2 SZ I        1155  8.15         3.9 0.27                          48.6 219 
 BRR  HZ EP       1154 53.95                             144   -0.1010 91.1 282 
 BRR  HZ I        1155  4.11        20.9 0.43                          91.1 282 
 BRR  HE ES   1   1155 10.74                             144    0.17 7 91.1 282 
 RUS  HZ EP   1   1154 56.95                             137    0.20 7  117 190 
 RUS  HN ES   1   1155 15.32                             137   -0.07 7  117 190 
 RUS  HZ I        1155 17.64         1.8 0.30                           117 190 
 ZAR  HZ EP   1   1155  6.63                             117   -0.09 6  224 286 
 ZAR  HZ I        1155 39.42         2.4 0.11                           224 286 
                                                                                
