 2014 1028 1038  1.1 L   6.778 -73.133151.2  RSN  7 0.4 1.7LRSN                1
 GAP=139        1.09       4.2     5.5  7.8 -0.5624E+01  0.4642E+01  0.3544E+01E
 Epicentro: LOS SANTOS - SANTANDER                                             3
 ACTION:UPD 14-11-29 23:57 OP:nd   STATUS:               ID:20141028103801 L   I
 OLDACT:DUP 14-10-30 16:26 OP:fm   STATUS:               ID:20141028102746d    3
 2014-10-28-1027-44M.COL___271                                                 6
 STAT SP IPHASW D HRMM SECON CODA AMPLIT PERI AZIMU VELO AIN AR TRES W  DIS CAZ7
 BAR2 SZ EP       1038 21.57                             172    0.2010 21.2 195 
 BAR2 SZ ES   1   1038 36.86                             172   -0.30 7 21.2 195 
 BAR2 SZ I        1038 38.39         7.6 0.26            171           21.2 195 
 BRR  HZ EP       1038 23.34                             153    0.3510 73.6 300 
 BRR  HN ES       1038 40.81                             153    0.7610 73.6 300 
 BRR  HZ I        1038 42.33         8.7 0.34            151           73.6 300 
 PAM  SZ EP       1038 24.38                             151    0.4010 78.4  38 
 PAM  SN ES       1038 41.45                             151   -0.3610 78.4  38 
 PAM  SZ I        1038 43.83        12.2 0.56            154           78.4  38 
 RUS  HZ EP       1038 25.23                             146   -0.0110 98.1 177 
 RUS  HE ES       1038 43.92                             146   -0.1310 98.1 177 
 RUS  HZ I        1038 46.88         4.4 0.56            148           98.1 177 
 PTB  HZ EP       1038 27.71                             133   -0.91 9  149 260 
 PTB  HN ES       1038 49.86                             133   -0.21 9  149 260 
 PTB  HZ I        1038 57.19         5.6 0.36            133            149 260 
 SPBC HZ EP       1038 30.32                             130    0.37 9  162 220 
 SPBC HE ES       1038 52.38                             130   -0.06 9  162 220 
 SPBC HZ I        1038 55.15         8.7 0.24            132            162 220 
 OCA  HN ES       1038 52.30                             130   -0.40 9  163 353 
 OCA  HZ I        1038 57.37         5.6 0.22            132            163 353 
                                                                                
