 2011  528 1310  6.9 L   6.129 -73.773 99.7  RSN  5 0.4 1.6LRSN                1
 GAP=134        0.92       8.6     6.4 15.9 -0.2807E+02  0.6484E+02 -0.5561E+02E
 Epicentro: LANDAZURI - SANTANDER                                              3
 ACTION:UP  11-06-29 08:56 OP:tino STATUS:               ID:20110528131006 L   I
 2011-05-28-1305-18S.COL___115                                                 6
 STAT SP IPHASW D HRMM SECON CODA AMPLIT PERI AZIMU VELO SNR AR TRES W  DIS CAZ7
 RUS  HZ EP   1   1310 24.39                             139    -0.3 7   81 109 
 RUS  HZ I        1310 24.76         5.3 0.11                            81 109 
 RUS  HN ES   1   1310 39.01                             139     0.3 7   81 109 
 BAR2 SZ EP   1   1310 24.45                             138    -0.1 7   83  52 
 BAR2 SZ ES   1   1310 38.50                             138     0.1 7   83  52 
 BAR2 SZ I        1310 39.71        23.6 0.19                            83  52 
 BRR  HZ EP   1   1310 26.22                             129    -0.3 7  108   4 
 BRR  HZ I        1310 40.36         9.3 0.24                           108   4 
 NOR  SN ES   1   1310 46.66                             122    -0.4 7  137 243 
 HEL  HZ EP   1   1310 37.05                             113     0.9 6  194 272 
                                                                                
