 2010  928 1529 25.4 L   6.765 -73.129141.7  RSN 11 0.4 2.5LRSN                1
 GAP=161        0.77       3.8     5.7  6.9 -0.6919E+01  0.3378E+01  0.1151E+01E
 Epicentro: LOS SANTOS - SANTANDER                                             3
 ACTION:UP  11-02-18 11:06 OP:tino STATUS:               ID:20100928152925 L   I
 2010-09-28-1527-02S.COL___122                                                 6
 STAT SP IPHASW D HRMM SECON CODA AMPLIT PERI AZIMU VELO SNR AR TRES W  DIS CAZ7
 BAR2 SZ IP       1529 44.40                             172    -0.110   20 198 
 BAR2 SZ I        1529 44.73       105.1 0.06                            20 198 
 BAR2 SZ ES   2   1529 58.85                             172    -0.5 5   20 198 
 BTL  SZ EP       1529 44.76                             170     0.210   23 318 
 BRR  HZ IP     C 1529 46.30                             151     0.010   75 300 
 BRR  HZ I        1529 46.66        98.3 0.08                            75 300 
 BRR  HE ES   1   1530  3.10                             151     0.4 7   75 300 
 RUS  HZ EP       1529 48.37                             144    -0.110   97 177 
 RUS  HE ES   2   1530  6.83                             144     0.3 5   97 177 
 RUS  HZ I        1530  8.04        25.2 0.22                            97 177 
 GUE  SZ EP       1529 50.53                             138     0.510  120  11 
 GRA  SZ EP   1   1529 50.30                             135    -0.3 7  129  16 
 GRA  SZ ES   1   1530  9.88                             135    -0.3 7  129  16 
 GRA  SZ I        1530 10.95        55.0 0.37                           129  16 
 OCA  SZ EP   1   1529 53.23                             128    -0.6 7  164 353 
 OCA  SZ I        1530 18.06        52.5 0.24                           164 353 
 NOR  SZ EP   2   1530  1.03                             118     0.2 4  234 236 
 NOR  SN ES   2   1530 27.86                             118    -0.6 4  234 236 
 CHI  HZ EP   2   1530  2.55                             117     0.0 4  245 196 
 CHI  HE ES   2   1530 31.62                             117     0.1 4  245 196 
 CHI  HZ I        1530 38.59        14.1 0.28                           245 196 
 HEL  HZ EP   1   1530  6.16                             114     0.6 6  273 257 
 HEL  HE ES   2   1530 35.98                             114    -0.8 4  273 257 
 DBB  SZ EP   2   1530 12.74                             109    -0.2 3  342 275 
                                                                                
