 2014 1028 1245 36.6 L   6.795 -73.127150.5  RSN  9 0.4 1.7LRSN                1
 GAP=139        1.08       4.6     5.1  6.2 -0.6680E+01  0.5204E+01  0.8621E+01E
 Epicentro: LOS SANTOS - SANTANDER                                             3
 ACTION:UPD 14-11-29 23:57 OP:nd   STATUS:               ID:20141028124536 L   I
 OLDACT:REG 14-10-30 15:15 OP:fm   STATUS:               ID:20141028123744     3
 2014-10-28-1237-44M.COL___283                                                 6
 STAT SP IPHASW D HRMM SECON CODA AMPLIT PERI AZIMU VELO AIN AR TRES W  DIS CAZ7
 BAR2 SZ EP       1245 56.78                             171   -0.0510 23.2 195 
 BAR2 SZ ES       1246 12.56                             171   -0.0210 23.2 195 
 BAR2 SZ I        1246 14.83         8.1 0.28            168           23.2 195 
 BRR  HZ EP       1245 58.76                             153    0.3510 73.3 298 
 BRR  HN ES       1246 16.04                             153    0.6410 73.3 298 
 BRR  HZ I        1246 20.56        10.4 0.62            152           73.3 298 
 PAM  SZ EP       1245 59.59                             152    0.2910 76.6  38 
 PAM  SN ES       1246 16.40                             152   -0.5910 76.6  38 
 PAM  SZ I        1246 19.09         7.5 0.54            157           76.6  38 
 RUS  HZ EP       1246  0.78                             145   -0.0210 99.9 177 
 RUS  HN ES       1246 20.06                             145    0.4110 99.9 177 
 RUS  HZ I        1246 21.07         4.2 0.20            146           99.9 177 
 PTB  HZ EP       1246  3.45                             133   -0.71 9  150 259 
 PTB  HN ES       1246 24.88                             133   -0.75 9  150 259 
 PTB  HZ I        1246 32.11        12.0 0.34            133            150 259 
 SPBC HZ EP       1246  5.80                             130    0.23 9  164 220 
 SPBC HN ES       1246 28.00                             130   -0.15 9  164 220 
 SPBC HZ I        1246 31.90         9.5 0.24            131            164 220 
 CHI  HZ EP       1246 14.09                             118   -0.50 8  249 196 
 CHI  HN ES   1   1246 43.97                             118   -0.23 6  249 196 
 CHI  HZ I        1246 52.46         2.5 0.36            120            249 196 
 GUY2CHZ EP       1246 21.56                             113    0.95 7  303 235 
 GUY2CHN ES       1246 55.24                             113    0.33 7  303 235 
 GUY2CHZ I        1247  1.83         2.5 0.34                           303 235 
 PRA  HZ EP       1246 30.28                             107   -0.09 6  392 210 
 PRA  HN ES       1247 12.16                             107   -0.13 6  392 210 
 PRA  HZ I        1247 16.46         2.1 0.58            109            392 210 
                                                                                
