 2014 1028 1731  5.4 L   6.810 -73.154140.9  RSN  6 0.3 1.7LRSN                1
 GAP=142        0.72       4.1     4.0  5.1 -0.7267E+01  0.8706E+01  0.6371E+00E
 Epicentro: LOS SANTOS - SANTANDER                                             3
 ACTION:UPD 14-11-29 23:58 OP:nd   STATUS:               ID:20141028173105 L   I
 OLDACT:REG 14-10-30 15:35 OP:fm   STATUS:               ID:20141028172748     3
 2014-10-28-1727-48M.COL___274                                                 6
 STAT SP IPHASW D HRMM SECON CODA AMPLIT PERI AZIMU VELO AIN AR TRES W  DIS CAZ7
 BAR2 SZ EP       1731 24.50                             170    0.0010 24.3 187 
 BAR2 SZ ES       1731 39.41                             170    0.0410 24.3 187 
 BAR2 SZ I        1731 42.23         7.8 0.30            170           24.3 187 
 PAM  SZ EP       1731 27.10                             150   -0.0110 77.1  41 
 PAM  SN ES       1731 44.36                             150    0.3310 77.1  41 
 PAM  SZ I        1731 46.67         7.2 0.20            154           77.1  41 
 RUS  HZ EP       1731 28.87                             142    0.0810  102 176 
 RUS  HN ES       1731 46.69                             142   -0.3310  102 176 
 RUS  HZ I        1731 48.55         3.0 0.36            146            102 176 
 PTB  HZ EP       1731 31.46                             131   -0.48 9  147 258 
 PTB  HN ES       1731 52.45                             131   -0.18 9  147 258 
 PTB  HZ I        1731 58.32         6.1 0.18            132            147 258 
 GUY2CHZ EP       1731 48.50                             111   -0.31 7  301 234 
 GUY2CHN ES       1732 23.00                             111    0.36 7  301 234 
 GUY2CHZ I        1732 31.43         4.3 0.76                           301 234 
 TOL  SZ EP       1731 53.93                             108    0.42 7  344 224 
 TOL  SN ES       1732 31.65                             108    0.63 7  344 224 
 TOL  SZ I        1732 38.59         5.8 0.38            110            344 224 
                                                                                
