 2016 1028 1624 44.5 L   6.755 -73.109143.2  RSN 12 0.3 2.0LRSN                1
 GAP=124        0.73       2.7     3.2  4.0 -0.2123E+01 -0.6735E+00  0.4458E+01E
 Epicentro: LOS SANTOS - SANTANDER                                             3
 ACTION:UPD 16-11-09 19:23 OP:rebc STATUS:               ID:20161028162444 L   I
 OLDACT:UP  16-10-29 01:32 OP:edw  STATUS:               ID:20161028161746     3
 OLDACT:UP  16-10-29 01:31 OP:edw  STATUS:               ID:20161028161746     3
 OLDACT:REG 16-10-28 20:44 OP:edw  STATUS:               ID:20161028161746     3
 2016-10-28-1618-00M.COL___346                                                 6
 STAT SP IPHASW D HRMM SECON CODA AMPLIT PERI AZIMU VELO AIN AR TRES W  DIS CAZ7
 BAR2 EZ IP     D 1625  3.78                             172   -0.0010 19.7 204 
 BAR2 EZ ES       1625 18.69                             172   -0.1110 19.7 204 
 BAR2 EZ I        1625 20.39        24.6 0.18            169           19.7 204 
 BRR  HZ EP       1625  5.66                             150   -0.1010 77.2 300 
 BRR  HN ES       1625 22.13                             150   -0.1810 77.2 300 
 PAM  EZ EP       1625  6.74                             150    0.1710 78.9  35 
 PAM  EN ES       1625 23.91                             150    0.1610 78.9  35 
 PAM  EZ I        1625 27.24        12.0 0.45            152           78.9  35 
 RUS  HZ EP       1625  7.75                             145    0.0910 95.4 178 
 RUS  HN ES       1625 25.61                             145   -0.0810 95.4 178 
 RUS  HZ I        1625 27.67         9.2 0.26            143           95.4 178 
 PTB  HZ EP   9   1625 10.62                             131   -0.96 0  151 261 
 PTB  HN ES       1625 31.37                             130   -0.34 9  151 261 
 PTB  HZ I        1625 34.12         9.9 0.08            131            151 261 
 SPBC HZ EP       1625 12.74                             129    0.02 9  162 221 
 SPBC HN ES       1625 34.91                             129    0.21 9  162 221 
 SPBC HZ I        1625 37.76        17.7 0.20            128            162 221 
 NOR  HZ EP       1625 20.07                             118   -0.10 8  235 236 
 NOR  HN ES       1625 47.88                             118   -0.08 8  235 236 
 NOR  HZ I        1625 52.97         8.5 0.34            118            235 236 
 CHI  HZ EP       1625 22.06                             117    0.37 8  245 196 
 CHI  HN ES       1625 51.50                             117    0.84 8  245 196 
 CHI  HZ I        1625 57.20         5.5 0.66            117            245 196 
 GUY2CHZ EP   4   1625 29.21                             112    1.13 0  302 236 
 GUY2CHN ES   4   1626  4.94                             112    2.89 0  302 236 
 GUY2CHZ I        1626  9.98         6.8 0.36                           302 236 
 PTGC HZ EP       1625 26.89                             111   -0.69 7  303 159 
 PTGC HN ES       1626  0.64                             111   -0.51 7  303 159 
 PTGC HZ I        1626 10.34        12.1 0.34            111            303 159 
 PRA  HZ EP       1625 37.79                             106    0.09 6  390 210 
 PRA  HN ES       1626 18.55                             106   -0.61 6  390 210 
 PRA  HZ I        1626 25.99         5.1 0.54            106            390 210 
 SJC  HZ EP   4   1625 37.95                             105   -2.82 0  416 327 
 SJC  HN ES   4   1626 19.09                             105   -5.54 0  416 327 
 SJC  HZ I        1626 25.90         1.7 0.38            106            416 327 
                                                                                
