 2011  628 1229 44.1 L   6.837 -73.091145.1  RSN  5 0.2 1.6LRSN                1
 GAP=182        0.53       5.5     7.3  6.2 -0.2098E+02 -0.1877E+02  0.9403E+01E
 Epicentro: LOS SANTOS - SANTANDER                                             3
 ACTION:UP  11-07-14 19:08 OP:ep   STATUS:               ID:20110628122944 L   I
 2011-06-28-1228-00S.COL___140                                                 6
 STAT SP IPHASW D HRMM SECON CODA AMPLIT PERI AZIMU VELO SNR AR TRES W  DIS CAZ7
 BTL  SZ EP       1230  3.88                             171     0.310   21 295 
 BTL  SZ ES   1   1230 18.87                             171     0.0 7   21 295 
 BAR2 SZ EP       1230  3.59                             168    -0.210   29 200 
 BAR2 SZ I        1230  4.05         4.0 0.08                            29 200 
 BRR  HZ EP       1230  5.20                             151    -0.210   75 294 
 BRR  HN ES   1   1230 22.07                             151     0.1 7   75 294 
 BRR  HZ I        1230 23.83        10.4 0.60                            75 294 
 BRI  SZ ES   3   1230 25.73                             143     0.0 2  103  18 
 GRA  SZ EP       1230  8.97                             138     0.210  120  15 
 GRA  SZ ES   1   1230 27.89                             138    -0.2 7  120  15 
 GRA  SZ I        1230 29.21         7.4 0.32                           120  15 
                                                                                
