 2012  728 1300 41.0 L   6.547 -73.171148.3  RSN  4 0.3 1.4LRSN                1
 GAP=187        0.72       8.2     7.9  9.6  0.2851E+02  0.2878E+02  0.8656E+01E
 Epicentro: PINCHOTE - SANTANDER                                               3
 ACTION:UPD 12-08-14 11:46 OP:ep   STATUS:               ID:20120728130041 L   I
 2012-07-28-1300-00M.COL___215                                                 6
 STAT SP IPHASW D HRMM SECON CODA AMPLIT PERI AZIMU VELO AIN AR TRES W  DIS CAZ7
 BAR2 SZ EP   1   13 1  0.94                             178     0.3 7    5 345 
 BAR2 SZ I        13 1  1.04         7.7 0.16            167              5 345 
 BAR2 SZ ES   1   13 1 16.36                             178     0.3 7    5 345 
 RUS  HN ES   1   13 1 20.27                             153    -0.3 7   73 172 
 RUS  HZ I        13 1 24.20         3.4 0.30            145             73 172 
 BRR  HN ES   1   13 1 20.31                             148    -0.4 7   86 316 
 PTB  HZ EP   1   13 1  7.46                             134    -0.2 7  142 270 
 PTB  HE ES   1   13 1 28.74                             134     0.3 7  142 270 
 PTB  HZ I        13 1 35.19         2.7 0.27            129            142 270 
