 2010  928 1717 10.7 L   6.784 -73.105152.3  RSN 11 0.4 2.2LRSN                1
 GAP=169        0.81       4.1     7.1  6.6 -0.4910E+01  0.5709E+01 -0.5110E+00E
 Epicentro: LOS SANTOS - SANTANDER                                             3
 ACTION:UP  11-02-18 11:06 OP:tino STATUS:               ID:20100928171710 L   I
 2010-09-28-1713-42S.COL___122                                                 6
 STAT SP IPHASW D HRMM SECON CODA AMPLIT PERI AZIMU VELO SNR AR TRES W  DIS CAZ7
 BAR2 SZ IP       1717 30.87                             171    -0.210   23 202 
 BAR2 SZ I        1717 31.20        27.9 0.28                            23 202 
 BAR2 SZ ES   1   1717 46.94                             171    -0.1 7   23 202 
 BTL  SZ EP       1717 31.81                             171     0.710   23 310 
 GIR2 SZ EP   2   1717 31.30                             167     0.1 5   34 343 
 BRR  HZ EP       1717 32.87                             152     0.110   76 298 
 BRR  HZ I        1717 33.12        50.4 0.10                            76 298 
 BRR  HN ES   1   1717 50.28                             152     0.2 7   76 298 
 RUS  HZ EP   1   1717 34.75                             146    -0.2 7   99 179 
 RUS  HE ES   1   1717 53.82                             146    -0.1 7   99 179 
 RUS  HZ I        1717 54.57         9.7 0.20                            99 179 
 GUE  SZ EP   1   1717 35.88                             141    -0.2 7  117  10 
 OCA  SZ EP   1   1717 39.71                             131     0.0 7  163 352 
 OCA  SZ ES   2   1718  1.66                             131    -0.7 5  163 352 
 OCA  SZ I        1718  6.28        30.2 0.27                           163 352 
 NOR  SZ EP   1   1717 46.35                             120    -0.7 6  238 236 
 NOR  SE ES   1   1718 15.03                             120    -0.5 6  238 236 
 CHI  HZ EP   1   1717 48.76                             119     0.1 6  248 196 
 CHI  HN ES   2   1718 18.69                             119     0.3 4  248 196 
 CHI  HZ I        1718 26.07         8.8 0.19                           248 196 
 HEL  HZ EP   2   1717 52.52                             116     0.9 4  276 256 
 TOL  SZ EP   2   1717 59.67                             110     0.2 3  345 225 
                                                                                
