 2014  928 1440 32.4 L   6.805 -73.146152.3  RSN 17 0.5 2.7LRSN                1
 GAP= 65        1.12       3.3     3.4  5.1  0.1194E+01  0.3325E+01  0.1126E+01E
 Epicentro: LOS SANTOS - SANTANDER                                             3
 ACTION:UPD 14-10-03 23:09 OP:nd   STATUS:               ID:20140928144032 L   I
 OLDACT:UP  14-09-28 22:41 OP:cam  STATUS:               ID:20140928144000     3
 OLDACT:UP  14-09-28 22:41 OP:cam  STATUS:               ID:20140928144000     3
 OLDACT:REG 14-09-28 20:17 OP:cam  STATUS:               ID:20140928144000     3
 2014-09-28-1440-00M.COL___252                                                 6
 STAT SP IPHASW D HRMM SECON CODA AMPLIT PERI AZIMU VELO AIN AR TRES W  DIS CAZ7
 BAR2 SZ IP     C 1440 52.83                             171   -0.0410 23.9 190 
 BAR2 SZ ES       1441  8.18                             171   -0.6210 23.9 190 
 BAR2 SZ I        1441 10.55       118.2 0.24            168           23.9 190 
 BRR  HZ IP     C 1440 54.63                             154    0.3510 70.9 298 
 BRR  HN ES       1441 12.20                             154    0.8810 70.9 298 
 BRR  HZ I        1441 15.07        64.1 0.36            149           70.9 298 
 PAM  SZ EP       1440 55.75                             152    0.4210 77.0  40 
 PAM  SN ES       1441 13.07                             152   -0.1210 77.0  40 
 PAM  SZ I        1441 14.81        70.9 0.58            149           77.0  40 
 RUS  HZ EP       1440 56.64                             145   -0.2410  101 176 
 RUS  HN ES       1441 15.89                             145   -0.0510  101 176 
 RUS  HZ I        1441 16.25        39.2 0.36            140            101 176 
 PTB  HZ EP       1440 59.38                             133   -0.57 9  148 259 
 PTB  HN ES       1441 20.94                             133   -0.47 9  148 259 
 PTB  HZ I        1441 28.07       103.7 0.46            127            148 259 
 TAM  HZ IP     D 1441  0.97                             132    0.31 9  155 105 
 TAM  HZ I        1441 21.73        33.1 0.40            128            155 105 
 TAM  HE ES       1441 22.76                             132    0.09 9  155 105 
 SPBC HZ EP       1441  1.75                             130    0.27 9  164 219 
 SPBC HN ES       1441 23.58                             130   -0.56 9  164 219 
 SPBC HZ I        1441 30.90       122.4 0.26            125            164 219 
 ZAR  HZ EP       1441  5.55                             124    0.26 9  204 292 
 ZAR  HE ES       1441 31.28                             124    0.37 9  204 292 
 ZAR  HZ I        1441 38.59        53.3 0.20            118            204 292 
 SML  HZ EP       1441  9.36                             119   -0.02 8  243 335 
 SML  HN ES       1441 37.65                             119   -0.55 8  243 335 
 SML  HZ I        1441 39.69        75.5 0.12            114            243 335 
 CHI  HZ EP       1441 10.57                             118    0.01 8  249 195 
 CHI  HE ES       1441 41.17                             118    0.87 8  249 195 
 CHI  HZ I        1441 45.42        16.5 0.68            113            249 195 
 ROSC BZ EP   4   1441 13.13                             118    2.16 0  253 211 
 URE  HZ EP   4   1441 13.25                             115   -0.55 0  284 292 
 GUY2CHZ EP   4   1441 17.72                             113    1.33 0  301 235 
 GUY2CHE ES   4   1441 52.09                             113    1.43 0  301 235 
 GUY2CHN I        1442  2.86        51.6 0.42                           301 235 
 PTGC HZ EP       1441 15.74                             113   -0.92 7  309 159 
 PTGC HN ES   4   1441 49.22                             113   -1.92 0  309 159 
 PTGC HN I        1441 50.77        47.9 0.32            109            309 159 
 CBOC HZ EP       1441 20.40                             111    0.76 7  334 252 
 CBOC HZ I        1442  8.21        14.2 0.60            107            334 252 
 DBB  SZ EP       1441 20.35                             111    0.17 7  339 274 
 TOL  SZ EP   4   1441 22.69                             110    1.68 0  344 225 
 MON  HZ EP   4   1441 20.18                             110   -1.48 0  353 308 
 ANIL HZ EP       1441 22.41                             109   -0.13 6  358 224 
 PRA  HZ EP       1441 26.28                             107    0.04 6  392 210 
 PAL  HZ EP   4   1441 28.18                             107    0.33 0  406 239 
 SJC  HZ EP       1441 27.05                             107   -1.11 6  409 327 
 SJC  HN ES   4   1442  8.14                             107   -3.49 0  409 327 
 SJC  HZ I        1442 12.48        13.8 0.50            103            409 327 
                                                                                
