 2013  528 1510 43.9 L   6.796 -73.201152.0  RSN  4 0.4 1.8LRSN                1
 GAP=196        0.69       4.9     5.8  6.4  0.1398E+02 -0.8505E+01 -0.1006E+02E
 Epicentro: ZAPATOCA - SANTANDER                                               3
 ACTION:UPD 13-06-20 09:54 OP:ep   STATUS:               ID:20130528151043 L   I
 OLDACT:UP  13-05-31 22:29 OP:Juan STATUS:               ID:20130528151043 L   3
 2013-05-28-1508-49M.COL___221                                                 6
 STAT SP IPHASW D HRMM SECON CODA AMPLIT PERI AZIMU VELO AIN AR TRES W  DIS CAZ7
 BRR  HZ  Sn    C 1510 11.28                                           66.1 301 
 BRR  HN ES       1511 22.60                             155    0.3210 66.1 301 
 BRR  HN I        1511 23.13        16.0 0.24            152           66.1 301 
 RUS  HZ EP       1511  8.30                             145    0.0110  101 173 
 RUS  HE ES       1511 27.08                             145   -0.2210  101 173 
 RUS  HN I        1511 27.88         4.2 0.36            144            101 173 
 PTB  HZ EP       1511 11.06                             135    0.21 9  142 259 
 PTB  HN ES       1511 31.57                             135   -0.30 9  142 259 
 PTB  HN I        1511 36.96         9.8 0.38            131            142 259 
 SML  HZ EP       1511 20.75                             119    0.08 8  242 337 
 SML  HN ES   3   1511 47.33                             119   -2.01 2  242 337 
                                                                                
