 2010  228 1645 14.4 L   6.821 -72.956144.0  RSN  4 0.3 2.0LRSN                1
 GAP=202        0.76       7.6    17.7 10.8  0.8193E+02 -0.1067E+03 -0.4958E+02E
 Epicentro: CEPITA - SANTANDER                                                 3
 ACTION:UP  10-08-24 09:51 OP:vdl  STATUS:               ID:20100228164514 L   I
 2010-02-28-1643-19S.COL___093                                                 6
 STAT SP IPHASW D HRMM SECON CODA AMPLIT PERI AZIMU VELO SNR AR TRES W  DIS CAZ7
 BAR2 SZ EP       1645 34.64                             165     0.510   36 225 
 BAR2 SZ ES   1   1645 49.48                             165     0.0 7   36 225 
 BRR  HZ IP       1645 36.51                             146     0.010   89 291 
 BRR  HN ES   2   1645 53.56                             146    -0.1 5   89 291 
 BRR  HZ I        1646  7.92        22.9 0.05                            89 291 
 RUS  BZ EP       1645 37.99                             143    -0.210  104 188 
 RUS  BN ES   2   1645 56.26                             143    -0.5 5  104 188 
 OCA  SZ EP       1645 42.46                             129    -0.2 9  162 346 
 OCA  SZ I        1645 43.55         9.3 0.23                           162 346 
                                                                                
