 2017 1028 1801 31.6 L   6.812 -73.129144.2  RSN 26 0.7 2.5LRSN                1
 GAP= 72        1.49       3.4     3.4  6.0  0.1027E+01  0.5204E+01  0.3449E+01E
 Epicentro: LOS SANTOS - SANTANDER                                             3
 ACTION:UPD 17-11-07 19:38 OP:rebc STATUS:               ID:20171028180131 L   I
 OLDACT:UP  17-10-29 00:28 OP:dhb  STATUS:               ID:20171028175747     3
 OLDACT:UP  17-10-29 00:28 OP:dhb  STATUS:               ID:20171028175747     3
 OLDACT:REG 17-10-28 20:17 OP:dhb  STATUS:               ID:20171028175747     3
 2017-10-28-1758-00M.COL___444                                                 6
 STAT SP IPHASW D HRMM SECON CODA AMPLIT PERI AZIMU VELO AIN AR TRES W  DIS CAZ7
 BAR2 EZ EP       18 1 51.06                             170    0.0310 25.0 194 
 BAR2 EZ ES       18 2  6.18                             170   -0.0510 25.0 194 
 BAR2 EZ I        18 2 10.24        29.3 0.18            168           25.0 194 
 BRR  HZ IP     D 18 1 52.97                             152    0.3710 72.2 297 
 BRR  HN ES       18 2  9.84                             152    0.8310 72.2 297 
 BRR  HZ I        18 2 14.97        31.5 0.14            151           72.2 297 
 PAM  EZ EP       18 1 54.09                             151    0.6210 75.2  39 
 PAM  EE ES       18 2 10.80                             151    0.2310 75.2  39 
 PAM  EZ I        18 2 13.28        88.3 0.48            157           75.2  39 
 RUS  HZ EP       18 1 55.06                             143   -0.1810  102 177 
 RUS  HN ES       18 2 13.03                             143   -0.6910  102 177 
 RUS  HZ I        18 2 14.29        35.4 0.44            145            102 177 
 PTB  HZ EP       18 1 57.90                             131   -0.69 9  150 258 
 PTB  HN ES       18 2 19.10                             131   -0.58 9  150 258 
 PTB  HZ I        18 2 21.87        32.8 0.22            132            150 258 
 TAM  HZ IP     C 18 1 59.44                             130    0.47 9  154 106 
 TAM  HN ES       18 2 20.69                             130    0.33 9  154 106 
 TAM  HZ I        18 2 21.97        16.0 0.40            136            154 106 
 SPBC HZ EP       18 2  0.04                             128   -0.11 9  165 219 
 SPBC HN ES       18 2 21.72                             128   -0.73 9  165 219 
 SPBC HZ I        18 2 32.27        32.7 0.24            130            165 219 
 YPLC HZ IP     D 18 2  1.53                             126    0.27 9  177 152 
 YPLC HN ES       18 2 24.76                             126    0.32 9  177 152 
 YPLC HZ I        18 2 27.87        31.7 0.32            130            177 152 
 ZAR  HZ EP       18 2  4.24                             122    0.21 8  205 292 
 ZAR  HN ES       18 2 29.79                             122    0.43 8  205 292 
 ZAR  HZ I        18 2 37.10        37.6 0.44            124            205 292 
 TABC EZ EP   2   18 2  8.72                             119    1.28 4  232 211 
 TABC EZ ES       18 2 35.69                             119    0.26 8  232 211 
 TABC EZ I        18 2 41.79        20.1 0.40            121            232 211 
 NOR  HZ EP       18 2  7.62                             118    0.18 8  237 234 
 NOR  HN ES       18 2 35.57                             118    0.14 8  237 234 
 NOR  HZ I        18 2 42.37        18.1 0.24            120            237 234 
 CHI  HZ EP       18 2  8.99                             117   -0.37 8  250 196 
 CHI  HE ES       18 2 38.42                             117   -0.43 8  250 196 
 CHI  HZ I        18 2 42.59        10.2 0.26            119            250 196 
 ROSC BZ EP   9   18 2 12.27                             116    2.45 0  255 211 
 ROSC BN ES       18 2 42.37                             116    0.25 8  255 211 
 ROSC BZ I        18 2 43.14        23.5 0.40            118            255 211 
 URE  HZ EP       18 2 13.85                             113    1.16 7  285 292 
 URE  HN ES       18 2 42.16                             113   -2.62 7  285 292 
 URE  HZ I        18 2 54.63        28.0 0.18            115            285 292 
 GUY2CHZ EP       18 2 15.83                             112    0.48 7  303 235 
 GUY2CHE ES       18 2 49.43                             112   -0.09 7  303 235 
 GUY2CHZ I        18 2 56.40        13.6 0.32                           303 235 
 VIL  EZ EP       18 2 15.28                             112    0.19 7  305 192 
 VIL  EN ES       18 2 48.78                             112   -0.27 7  305 192 
 VIL  EZ I        18 2 52.80        21.8 0.30            114            305 192 
 PTGC HZ EP       18 2 14.39                             111   -1.02 7  309 159 
 PTGC HE ES       18 2 47.25                             111   -2.36 7  309 159 
 PTGC HZ I        18 2 48.74        23.8 0.38            114            309 159 
 ELA  HZ EP   4   18 2 21.54                             110    2.94 0  331 230 
 ELA  HN ES       18 2 56.12                             110    0.82 7  331 230 
 ELA  HZ I        18 3  4.77        11.1 0.36            112            331 230 
 DBB  EZ EP   9   18 2 18.33                             109   -0.84 0  341 274 
 DBB  EN ES       18 2 55.38                             109   -0.09 7  341 274 
 DBB  EZ I        18 2 58.73        15.4 0.34            111            341 274 
 ANIL HZ EP       18 2 22.07                             108    0.51 6  360 225 
 ANIL HE ES       18 3  1.29                             108    0.72 6  360 225 
 ANIL HZ I        18 3  8.16        31.0 0.24            110            360 225 
 PRA  HZ EP       18 2 25.48                             106    0.21 6  394 210 
 PRA  HE ES       18 3  7.17                             106    0.01 6  394 210 
 PRA  HZ I        18 3 13.29        14.3 0.44            108            394 210 
 ORTC HZ EP       18 2 26.09                             106    0.41 6  398 216 
 ORTC HE ES       18 3  9.03                             106    1.14 6  398 216 
 ORTC HZ I        18 3 14.00         9.1 0.38            108            398 216 
 APAC HZ EP       18 2 25.56                             106   -0.29 6  400 288 
 APAC HN ES   2   18 3  7.19                             106   -1.02 3  400 288 
 APAC HZ I        18 3 12.91         9.4 0.62            108            400 288 
 PAL  HZ EP       18 2 27.25                             105    0.32 6  408 239 
 PAL  HN ES       18 3 11.18                             105    1.05 6  408 239 
 PAL  HZ I        18 3 14.47         6.4 0.48            107            408 239 
 SJC  HZ EP       18 2 26.06                             105   -1.00 6  409 327 
 SJC  HN ES       18 3  9.82                             105   -0.53 6  409 327 
 SJC  HZ I        18 3 10.62         7.8 0.56            108            409 327 
 CAP2 HZ EP       18 2 38.79                             102   -0.03 4  509 294 
 CAP2 HN ES   4   18 3 28.03                             102   -3.26 0  509 294 
 CAP2 HZ I        18 3 28.77         5.1 0.30            103            509 294 
                                                                                
