 2014  528 1002  7.2 L   6.511 -73.768 40.0  RSN  5 0.6 1.3LRSN                1
 GAP=140        1.58       9.7     6.3 14.7  0.3426E+02  0.9916E+01 -0.2394E+02E
 Epicentro: SANTA HELENA DEL OPON - SANTANDER                                  3
 ACTION:UPD 15-03-16 17:01 OP:nd   STATUS:               ID:20140528100207 L   I
 OLDACT:REG 14-05-28 20:59 OP:stll STATUS:               ID:20140528095808     3
 2014-05-28-0958-08M.COL___254                                                 6
 STAT SP IPHASW D HRMM SECON CODA AMPLIT PERI AZIMU VELO AIN AR TRES W  DIS CAZ7
 BAR2 SZ EP       10 2 22.72                             142   -0.1710 65.4  82 
 BAR2 SZ ES       10 2 34.69                             142   -0.4210 65.4  82 
 BAR2 SZ I        10 2 36.64        18.4 0.16            143           65.4  82 
 BRR  HZ EP       10 2 22.11                             142   -0.5110 66.2   5 
 PTB  HZ EP       10 2 23.14                             137   -0.3110 76.2 272 
 PTB  HN ES       10 2 35.39                             137   -0.7210 76.2 272 
 PTB  HZ I        10 2 37.18         5.5 0.12            138           76.2 272 
 RUS  HZ EP       10 2 26.77                             129    0.3110  102 132 
 RUS  HE ES       10 2 42.15                             129    0.6910  102 132 
 RUS  HZ I        10 2 43.77         3.7 0.18            131            102 132 
 ZAR  HZ EP       10 2 32.22                             115   -0.00 9  162 312 
 ZAR  HN ES       10 2 53.10                             115    1.38 9  162 312 
 ZAR  HZ I        10 2 56.18         5.9 0.36            116            162 312 
                                                                                
