 2016  428 1211 38.9 L   6.803 -73.184144.4  RSN  4 0.2 1.7LRSN                1
 GAP=144        0.52       3.2     3.0  4.4 -0.2979E+01  0.3611E+01 -0.1339E+01E
 Epicentro: ZAPATOCA - SANTANDER                                               3
 ACTION:UPD 16-05-05 14:24 OP:rebc STATUS:               ID:20160428121138 L   I
 OLDACT:REG 16-04-28 21:42 OP:cara STATUS:               ID:20160428120748     3
 2016-04-28-1207-48M.COL___318                                                 6
 STAT SP IPHASW D HRMM SECON CODA AMPLIT PERI AZIMU VELO AIN AR TRES W  DIS CAZ7
 BAR2 EZ IP       1211 58.45                             170    0.0710 23.3 179 
 BAR2 EZ ES       1212 13.82                             170    0.2610 23.3 179 
 BAR2 EZ I        1212 14.92         8.5 0.14            170           23.3 179 
 PAM  EZ IP       1212  1.36                             150    0.2210 79.9  42 
 PAM  EZ I        1212  1.45        15.9 0.20            152           79.9  42 
 PAM  EN ES       1212 18.21                             150   -0.2610 79.9  42 
 RUS  HZ EP       1212  2.61                             143    0.0310  101 174 
 RUS  HN ES       1212 20.87                             143   -0.1710  101 174 
 RUS  HZ I        1212 22.09         7.5 0.34            144            101 174 
 PTB  HZ EP       1212  5.23                             133   -0.17 9  144 258 
 PTB  HN ES       1212 26.06                             133    0.01 9  144 258 
 PTB  HZ I        1212 28.01         4.6 0.14            133            144 258 
                                                                                
