 2017  128 1723 12.3 L   6.678 -73.282146.0  RSN  5 0.3 1.4LRSN                1
 GAP=176        0.65       5.1     4.8  6.7  0.1366E+02  0.9202E+01 -0.1172E+01E
 Epicentro: GALAN - SANTANDER                                                  3
 ACTION:UPD 17-05-22 16:04 OP:jn   STATUS:               ID:20170128172312 L   I
 OLDACT:REG 17-01-28 21:41 OP:dnl  STATUS:               ID:20170128171747     3
 2017-01-28-1718-00M.COL___351                                                 6
 STAT SP IPHASW D HRMM SECON CODA AMPLIT PERI AZIMU VELO AIN AR TRES W  DIS CAZ7
 BAR2 EZ EP   2   1723 31.29                             174   -0.52 5 14.5 131 
 BAR2 EZ ES       1723 46.94                             174   -0.0910 14.5 131 
 BAR2 EZ I        1723 51.78        10.3 0.50            170           14.5 131 
 BRR  HZ IP     D 1723 33.06                             154   -0.1910 67.2 315 
 BRR  HE ES       1723 49.98                             154    0.3810 67.2 315 
 BRR  HZ I        1723 50.55         6.4 0.36            152           67.2 315 
 RUS  HZ EP   2   1723 35.55                             147    0.24 5 89.5 166 
 RUS  HN ES       1723 53.26                             147    0.0110 89.5 166 
 RUS  HZ I        1723 55.03         2.3 0.40            147           89.5 166 
 PTB  HZ EP   2   1723 38.63                             136    0.84 5  131 263 
 PTB  HE ES       1723 57.63                             136   -0.0510  131 263 
 PTB  HZ I        1724  6.16         2.1 0.40            133            131 263 
 ZAR  HZ EP   4   1723 45.33                             124    1.39 0  196 297 
 ZAR  HE ES       1724  8.38                             124   -0.24 9  196 297 
 ZAR  HZ I        1724 15.24         2.7 0.26            124            196 297 
                                                                                
