 2011  628 1527 37.7 L   6.734 -73.071146.0  RSN  4 0.1 1.5LRSN                1
 GAP=165        0.40       4.6     6.4  6.5  0.7088E+01 -0.2358E+02 -0.8890E+01E
 Epicentro: JORDAN - SANTANDER                                                 3
 ACTION:UP  11-07-14 19:08 OP:ep   STATUS:               ID:20110628152737 L   I
 2011-06-28-1525-09S.COL___140                                                 6
 STAT SP IPHASW D HRMM SECON CODA AMPLIT PERI AZIMU VELO SNR AR TRES W  DIS CAZ7
 BAR2 SZ EP       1527 57.24                             172    -0.110   20 218 
 BAR2 SZ ES   2   1528 12.60                             172     0.0 5   20 218 
 BAR2 SZ I        1528 14.12        10.5 0.47                            20 218 
 BRR  HZ EP       1527 59.38                             150    -0.110   82 300 
 BRR  HZ I        1528  1.40         9.2 0.28                            82 300 
 BRR  HN ES   1   1528 16.71                             150     0.2 7   82 300 
 RUS  HZ EP   2   1528  1.25                             146     0.3 5   93 181 
 RUS  HZ I        1528  2.55         2.1 0.18                            93 181 
 RUS  HN ES   3   1528 18.99                             146    -0.1 2   93 181 
 BRI  SZ EP       1528  2.00                             140     0.010  113  16 
                                                                                
