 2011  128 1900 49.1 L   6.720 -73.115149.7  RSN  6 0.3 1.6LRSN                1
 GAP=185        0.87       8.1    10.8 17.2 -0.4279E+02  0.9756E+02 -0.3571E+02E
 Epicentro: JORDAN - SANTANDER                                                 3
 ACTION:UP  11-02-08 08:43 OP:pat  STATUS:               ID:20110128190049 L   I
 2011-01-28-1900-00M.COL___139                                                 6
 STAT SP IPHASW D HRMM SECON CODA AMPLIT PERI AZIMU VELO SNR AR TRES W  DIS CAZ7
 BAR2 SZ EP       19 1  8.77                             174    -0.310   16 208 
 BAR2 SZ I        19 1 26.81        10.5 0.17                            16 208 
 BTL  SZ EP       19 1  9.97                             169     0.710   28 323 
 GIR2 SZ EP       19 1  9.19                             164    -0.310   41 348 
 RUS  HZ EP       19 1 12.68                             147     0.010   92 178 
 RUS  HN ES   2   19 1 30.96                             147     0.0 5   92 178 
 RUS  HZ I        19 1 32.72         5.6 0.24                            92 178 
 OCA  SZ EP   2   19 1 18.46                             129    -0.1 5  170 352 
 NOR  SZ EP       19 1 24.90                             119     0.0 8  233 237 
 NOR  SN ES   1   19 1 52.60                             119    -0.1 6  233 237 
                                                                                
