 2012 1228 1058 23.6 L   6.734 -73.187146.4  RSN  5 0.3 1.7LRSN                1
 GAP=227        0.78       7.1     6.6  6.6  0.2751E+02  0.9705E+01  0.4523E+01E
 Epicentro: VILLANUEVA - SANTANDER                                             3
 ACTION:UPD 13-01-04 14:31 OP:ep   STATUS:               ID:20121228105823 L   I
 2012-12-28-1050-00M.COL___243                                                 6
 STAT SP IPHASW D HRMM SECON CODA AMPLIT PERI AZIMU VELO AIN AR TRES W  DIS CAZ7
 BAR2 SZ EP       1058 43.07                             174   -0.0610 15.6 178 
 BAR2 SZ ES       1058 57.92                             174   -0.4710 15.6 178 
 BAR2 SZ I        1059  0.83        11.6 0.18                          15.6 178 
 BRR  HZ EP       1058 44.97                             152    0.2010 71.2 305 
 BRR  HE ES       1059  1.54                             152    0.2210 71.2 305 
 BRR  HZ I        1059  3.67         8.7 0.21                          71.2 305 
 RUS  HZ EP   1   1058 47.03                             146    0.15 7 93.7 173 
 RUS  HE ES   1   1059  5.62                             146    0.55 7 93.7 173 
 RUS  HE I        1059  7.80         9.6 0.23                          93.7 173 
 PTB  HZ EP       1058 49.64                             133   -0.41 9  142 261 
 PTB  HE ES   1   1059 10.56                             133   -0.17 7  142 261 
 PTB  HZ I        1059 13.34         7.5 0.24                           142 261 
 ZAR  HE ES   1   1059 21.54                             123    0.40 6  203 295 
 ZAR  HZ I        1059 26.06         3.9 0.31                           203 295 
                                                                                
