 2015  228 1528 19.9 L   6.821 -73.179141.4  RSN 13 0.3 2.7LRSN                1
 GAP=131        0.72       2.4     3.4  3.9 -0.1553E+01  0.4463E+01  0.5667E+00E
 Epicentro: ZAPATOCA - SANTANDER                                               3
 ACTION:UPD 15-04-30 21:29 OP:nd   STATUS:               ID:20150228152819 L   I
 OLDACT:UP  15-03-01 00:54 OP:mh   STATUS:               ID:20150228152750     3
 OLDACT:UP  15-03-01 00:54 OP:mh   STATUS:               ID:20150228152750     3
 OLDACT:UP  15-03-01 00:52 OP:mh   STATUS:               ID:20150228152750     3
 OLDACT:UP  15-03-01 00:52 OP:mh   STATUS:               ID:20150228152750     3
 OLDACT:REG 15-02-28 22:18 OP:y    STATUS:               ID:20150228152750     3
 2015-02-28-1527-50M.COL___251                                                 6
 STAT SP IPHASW D HRMM SECON CODA AMPLIT PERI AZIMU VELO AIN AR TRES W  DIS CAZ7
 BAR2 EZ EP       1528 39.16                             169    0.1210 25.3 181 
 BAR2 EZ ES       1528 53.77                             169   -0.2110 25.3 181 
 BAR2 EZ I        1528 55.37        85.2 0.45            166           25.3 181 
 BRR  HZ EP       1528 41.01                             153    0.6810 66.9 298 
 BRR  HN ES       1528 56.44                             153    0.1710 66.9 298 
 BRR  HZ I        1528 59.22        54.6 0.14            149           66.9 298 
 PAM  SZ EP   1   1528 41.89                             150    0.20 7 78.1  43 
 PAM  SN ES   1   1528 58.56                             150   -0.13 7 78.1  43 
 PAM  SZ I        1529  1.13        87.9 0.42            157           78.1  43 
 RUS  HZ EP   1   1528 43.30                             142   -0.11 7  103 174 
 RUS  HN ES       1529  1.75                             142   -0.0110  103 174 
 RUS  HZ I        1529  3.02        61.3 0.22            143            103 174 
 PTB  HZ EP       1528 45.60                             132   -0.62 9  145 258 
 PTB  HN ES       1529  6.92                             132    0.16 9  145 258 
 PTB  HZ I        1529 13.72        55.4 0.24            130            145 258 
 SPBC HZ EP       1528 47.92                             128   -0.10 9  163 217 
 SPBC HN ES   1   1529  9.88                             128   -0.07 7  163 217 
 SPBC HZ I        1529 17.04        82.3 0.22            127            163 217 
 NOR  HZ EP       1528 55.08                             118   -0.12 8  233 233 
 NOR  HN ES       1529 22.75                             118    0.02 8  233 233 
 NOR  HZ I        1529 30.92        35.4 0.18            118            233 233 
 SML  HZ EP       1528 55.80                             117   -0.09 8  240 336 
 SML  HN ES       1529 23.55                             117   -0.41 8  240 336 
 SML  HZ I        1529 27.27        70.8 0.10            118            240 336 
 URE  HZ EP   4   1528 58.40                             113   -1.87 0  280 292 
 URE  HN ES   4   1529 30.84                             113   -0.93 0  280 292 
 GUY2CHZ EP   1   1529  3.80                             112    0.68 5  300 234 
 GUY2CHN ES   4   1529 40.90                             112    4.07 0  300 234 
 GUY2CHZ I        1529 43.19        17.0 0.34                           300 234 
 RREF HZ EP   1   1529  5.53                             110   -0.17 5  320 229 
 RREF HN ES   4   1529 44.61                             110    3.17 0  320 229 
 RREF HZ I        1529 51.15        24.5 0.44            111            320 229 
 TOL  SZ EP       1529  8.51                             109    0.64 7  343 224 
 TOL  SN ES       1529 45.08                             109   -0.21 7  343 224 
 TOL  SZ I        1529 52.45        17.9 0.56            109            343 224 
 PRA  HZ EP   1   1529 12.84                             106   -0.45 4  392 209 
 PRA  HN ES       1529 54.77                             106   -0.17 6  392 209 
 PRA  HZ I        1530  2.87        14.4 0.24            107            392 209 
 PAL  HZ EP   4   1529 14.40                             105   -0.28 0  404 239 
 PAL  HN ES   4   1529 57.92                             105    0.51 0  404 239 
 PAL  HZ I        1530  2.77         8.1 0.36            106            404 239 
                                                                                
