 2013 1228 1442 36.3 L   6.739 -73.242151.9  RSN  4 0.4 1.5LRSN                1
 GAP=210        0.95       9.5     7.5 10.1  0.3157E+02  0.1587E+02  0.5642E+01E
 Epicentro: VILLANUEVA - SANTANDER                                             3
 ACTION:UPD 14-01-13 10:21 OP:ep   STATUS:               ID:20131228144236 L   I
 OLDACT:REG 13-12-28 14:45 OP:jn   STATUS:               ID:20131228144000     3
 2013-12-28-1440-00M.COL___285                                                 6
 STAT SP IPHASW D HRMM SECON CODA AMPLIT PERI AZIMU VELO AIN AR TRES W  DIS CAZ7
 BAR2 SZ EP       1442 56.67                             173    0.0510 17.5 158 
 BAR2 SZ ES       1443 11.81                             173   -0.6110 17.5 158 
 BAR2 SZ I        1443 14.81        10.9 0.42            169           17.5 158 
 BRR  HN ES   1   1443 15.39                             155    0.70 7 66.0 308 
 RUS  HZ EP   2   1443  0.68                             146    0.34 5 95.2 169 
 RUS  HN ES       1443 19.42                             146    0.3710 95.2 169 
 RUS  HZ I        1443 20.71         2.5 0.44            146           95.2 169 
 PTB  HZ EP   1   1443  2.44                             136   -0.37 7  136 261 
 PTB  HN ES       1443 23.33                             136   -0.12 9  136 261 
 PTB  HZ I        1443 29.63         3.8 0.40            134            136 261 
                                                                                
