 2014  628 1145 23.1 L   6.817 -73.124147.5  RSN 12 0.4 2.2LRSN                1
 GAP=138        0.96       2.8     3.7  5.3 -0.1317E+01  0.7904E+01  0.5036E+00E
 Epicentro: LOS SANTOS - SANTANDER                                             3
 ACTION:UPD 14-07-01 22:57 OP:nd   STATUS:               ID:20140628114523 L   I
 OLDACT:REG 14-06-28 21:57 OP:carl STATUS:               ID:20140628113818     3
 2014-06-28-1138-18M.COL___237                                                 6
 STAT SP IPHASW D HRMM SECON CODA AMPLIT PERI AZIMU VELO AIN AR TRES W  DIS CAZ7
 BAR2 SZ IP     D 1145 42.98                             170   -0.0310 25.7 195 
 BAR2 SZ ES       1145 58.71                             170    0.1910 25.7 195 
 BAR2 SZ I        1145 59.60        23.3 0.22            167           25.7 195 
 PAM  SZ EP       1145 45.87                             152    0.5210 74.4  39 
 PAM  SN ES       1146  3.13                             152    0.4410 74.4  39 
 PAM  SZ I        1146  5.12        18.6 0.48            157           74.4  39 
 RUS  HZ EP       1145 46.89                             144   -0.2810  102 177 
 RUS  HN ES       1146  5.61                             144   -0.3110  102 177 
 RUS  HZ I        1146  6.97         9.1 0.40            145            102 177 
 PTB  HZ EP       1145 49.81                             132   -0.67 9  150 258 
 PTB  HN ES       1146 11.36                             132   -0.46 9  150 258 
 PTB  HZ I        1146 16.80        21.7 0.52            131            150 258 
 SPBC HZ EP       1145 51.85                             129   -0.19 9  166 219 
 SPBC HN ES       1146 14.44                             129   -0.15 9  166 219 
 SPBC HZ I        1146 21.02        26.5 0.22            129            166 219 
 ZAR  HZ EP       1145 55.64                             122   -0.20 8  206 291 
 ZAR  HE ES       1146 21.04                             122   -0.32 8  206 291 
 ZAR  HZ I        1146 27.42        19.2 0.52            123            206 291 
 SML  HZ EP       1145 59.87                             118    0.09 8  243 335 
 SML  HN ES       1146 27.90                             118   -0.47 8  243 335 
 SML  HZ I        1146 31.46        28.2 0.10            120            243 335 
 CHI  HZ EP       1146  1.01                             117   -0.17 8  251 196 
 CHI  HN ES       1146 30.90                             117    0.03 8  251 196 
 CHI  HZ I        1146 38.99         4.5 0.56            119            251 196 
 HEL  HZ EP       1146  4.11                             115    0.38 8  275 256 
 HEL  HE ES       1146 36.44                             115    1.03 8  275 256 
 HEL  HZ I        1146 41.57         8.4 0.30            116            275 256 
 GUY2CHZ EP       1146  8.06                             112    0.90 7  304 235 
 GUY2CHN ES       1146 42.14                             112    0.64 7  304 235 
 GUY2CHZ I        1146 49.76        12.7 0.74                           304 235 
 RREF HZ EP       1146  9.72                             111    0.03 7  325 229 
 RREF HN ES       1146 46.07                             111    0.06 7  325 229 
 RREF HZ I        1146 51.57         9.0 0.22            112            325 229 
 PRA  HZ EP       1146 16.59                             107   -0.44 6  395 210 
 PRA  HE ES       1146 58.93                             107   -0.15 6  395 210 
 PRA  HZ I        1147  7.17         6.3 0.56            108            395 210 
                                                                                
