 2010  428 1629  4.6 L   6.017 -73.666115.0  RSN  9 0.4 2.2LRSN                1
 GAP=143        0.67       4.8     5.3 10.4 -0.6971E+01  0.2569E+02  0.2060E+02E
 Epicentro: VELEZ - SANTANDER                                                  3
 ACTION:UPD 10-08-24 10:01 OP:vdl  STATUS:               ID:20100428162911 L   I
 2010-04-28-1627-09S.COL___104                                                 6
 STAT SP IPHASW D HRMM SECON CODA AMPLIT PERI AZIMU VELO AIN AR TRES W  DIS CAZ7
 BAR2 SZ IP       1629 23.50                             142    -0.210   83  40 
 BAR2 SZ ES   1   1629 38.40                             142    -0.2 7   83  40 
 BRR  HZ EP   1   1629 26.67                             130     0.1 7  121 358 
 BRR  HN ES   1   1629 43.66                             130     0.0 7  121 358 
 BRR  HZ I        1629 47.63        51.0 0.14                           121 358 
 CHI  HZ EP   2   1629 30.23                             123    -0.1 5  154 183 
 CHI  HZ I        1629 58.41        14.6 0.51                           154 183 
 HEL  HZ EP   2   1629 35.83                             115    -0.2 4  207 275 
 HEL  HN ES   2   1630  0.22                             115    -0.3 4  207 275 
 HEL  HZ I        1630  4.51        13.0 0.49                           207 275 
 RREF BZ IP     D 1629 38.52                             113     0.3 8  224 237 
 RREF BE ES   2   1630  5.39                             113     1.0 4  224 237 
 GRA  SZ ES   2   1630  5.12                             112     1.0 4  227  25 
 TOL  SZ EP   2   1629 39.50                             111    -0.4 4  242 229 
 PRA  HZ EP   2   1629 44.51                             106    -0.4 4  288 208 
 PRA  HZ I        1630 23.77        10.0 0.30                           288 208 
 DBB  SZ IP       1629 46.33                             106    -0.3 7  302 292 
                                                                                
