 2010  228 1249 22.4 L   7.453 -73.142126.6  RSN 11 0.5 3.2LRSN                1
 GAP=190        0.98       4.8     8.7  8.7  0.4224E+01  0.2728E+02  0.8549E+01E
 Epicentro: EL PLAYON - SANTANDER                                              3
 ACTION:UP  10-08-24 09:51 OP:vdl  STATUS:               ID:20100228124922 L   I
 2010-02-28-1247-35S.COL___093                                                 6
 STAT SP IPHASW D HRMM SECON CODA AMPLIT PERI AZIMU VELO SNR AR TRES W  DIS CAZ7
 BRR  HZ IP       1249 41.63                             148     0.010   74 239 
 BRR  HZ I        1249 41.94       648.5 0.15                            74 239 
 BRR  HE ES   2   1249 56.75                             148     0.1 5   74 239 
 OCA  SZ EP       1249 43.37                             142     0.410   89 347 
 OCA  SZ ES   2   1249 58.73                             142    -0.2 5   89 347 
 BAR2 SZ IP       1249 43.55                             141     0.010   95 183 
 BAR2 SZ ES   1   1249 59.85                             141    -0.2 7   95 183 
 RUS  BZ EP       1249 50.32                             123    -0.6 9  173 178 
 RUS  BE ES   2   1250 12.99                             123    -0.3 4  173 178 
 RUS  BZ I        1250 19.31        51.9 0.45                           173 178 
 NOR  SZ EP   2   1250  1.79                             109    -0.7 4  283 223 
 HEL  HZ EP       1250  4.17                             108    -0.5 7  298 242 
 HEL  HE ES   2   1250 38.36                             108     0.6 4  298 242 
 HEL  HZ I        1250 46.81        60.8 0.27                           298 242 
 CHI  HZ EP       1250  8.02                             107     0.9 7  319 192 
 CHI  HE ES   2   1250 42.01                             107     0.0 3  319 192 
 CHI  HZ I        1250 53.80        36.8 0.50                           319 192 
 DBB  SZ EP       1250  8.68                             105    -0.8 7  342 262 
 RREF BZ EP       1250 14.77                             104     1.0 6  373 221 
 RREF BN ES   2   1250 53.91                             104     0.0 3  373 221 
 RREF BZ I        1251  0.64        96.1 0.37                           373 221 
 TOL  SZ EP   2   1250 16.72                             103     0.3 3  398 217 
 PRA  HZ EP   2   1250 22.71                             100    -0.3 2  456 205 
 PRA  HE ES   2   1251 10.50                             100     0.3 2  456 205 
 PRA  HZ I        1251 16.42        47.2 0.44                           456 205 
                                                                                
