 2010  628 1751 18.4 L   6.776 -73.075143.1  RSN 10 0.3 2.4LRSN                1
 GAP=131        0.77       2.8     5.5  5.0 -0.6573E+01 -0.5092E+01  0.3091E+01E
 Epicentro: LOS SANTOS - SANTANDER                                             3
 ACTION:UP  10-08-24 10:13 OP:vdl  STATUS:               ID:20100628175118 L   I
 2010-06-28-1747-32S.COL___118                                                 6
 STAT SP IPHASW D HRMM SECON CODA AMPLIT PERI AZIMU VELO SNR AR TRES W  DIS CAZ7
 BAR2 SZ IP       1751 37.78                             170     0.010   24 211 
 BAR2 SZ ES   1   1751 52.30                             170    -0.5 7   24 211 
 BRR  HZ IP       1751 39.59                             149    -0.210   79 298 
 BRR  HE ES       1751 56.59                             149     0.210   79 298 
 BRR  HZ I        1752  0.70        49.5 0.09                            79 298 
 RUS  HZ IP     C 1751 41.80                             144     0.110   98 181 
 RUS  HN ES   1   1752  0.15                             144     0.3 7   98 181 
 RUS  HZ I        1752  2.26        22.3 0.28                            98 181 
 BRI  SZ IP       1751 42.37                             141     0.310  108  16 
 BRI  SZ ES   1   1752  0.20                             141    -0.3 7  108  16 
 GRA  SZ IP       1751 43.56                             136     0.110  126  14 
 GRA  SZ ES       1752  3.18                             136     0.210  126  14 
 OCA  SZ EP   1   1751 47.13                             128     0.3 7  164 351 
 OCA  SZ ES   2   1752  8.14                             128    -0.9 5  164 351 
 OCA  SZ I        1752 11.21        36.8 0.27                           164 351 
 CHI  HZ EP   1   1751 56.02                             117     0.1 6  248 197 
 CHI  HE ES   1   1752 24.58                             117    -0.6 6  248 197 
 CHI  HZ I        1752 32.63        11.6 0.53                           248 197 
 HEL  HZ EP   1   1751 59.18                             113    -0.1 6  279 257 
 HEL  HZ I        1752 36.17        13.7 0.32                           279 257 
 SDV  BZ IP     C 1752  7.40                             108    -0.5 6  356  49 
 SDV  BZ I        1752  8.12         5.8 0.29                           356  49 
 PRA  HZ EP   1   1752 11.53                             106    -0.5 4  394 211 
 PRA  HE ES   1   1752 54.53                             106     0.7 4  394 211 
 PRA  HZ I        1752 58.46        15.5 0.69                           394 211 
                                                                                
