 2013 1028 1423 17.5 L   6.867 -73.155120.0  RSN  4 0.3 1.4LRSN                1
 GAP=201        0.75       4.1     5.3  9.6  0.7343E+01 -0.2111E+01 -0.2319E+02E
 Epicentro: LOS SANTOS - SANTANDER                                             3
 ACTION:UPD 13-11-25 09:24 OP:ep   STATUS:               ID:20131028142317 L   I
 OLDACT:REG 13-10-28 16:38 OP:nd   STATUS:               ID:20131028142000     3
 2013-10-28-1420-00M.COL___273                                                 6
 STAT SP IPHASW D HRMM SECON CODA AMPLIT PERI AZIMU VELO AIN AR TRES W  DIS CAZ7
 BAR2 SZ EP   2   1423 33.78                             165   -0.46 5 30.5 186 
 BAR2 SZ ES   2   1423 47.75                             165    0.45 5 30.5 186 
 BAR2 SZ I        1424  0.44        11.2 0.50            176           30.5 186 
 RUS  HZ EP       1423 39.75                             135    0.3110  108 176 
 RUS  HN ES       1423 56.31                             135   -0.2410  108 176 
 RUS  HZ I        1423 58.80         1.2 0.54            154            108 176 
 PTB  HZ EP       1423 42.16                             125   -0.40 9  148 256 
 PTB  HN ES       1424  2.34                             125    0.24 9  148 256 
 PTB  HZ I        1424  5.51         2.6 0.50            142            148 256 
 SML  HZ EP       1423 52.40                             112    0.40 8  237 335 
 SML  HN ES       1424 18.64                             112   -0.28 8  237 335 
 SML  HZ I        1424 23.23         5.2 0.10            124            237 335 
                                                                                
