 2016  128 1047 35.8 L   6.806 -73.132145.9  RSN 11 0.5 1.6LRSN                1
 GAP=138        1.09       3.3     4.5  6.8 -0.2872E+01  0.1220E+02 -0.4016E+01E
 Epicentro: LOS SANTOS - SANTANDER                                             3
 ACTION:UPD 16-03-09 23:29 OP:cam  STATUS:               ID:20160128104735 L   I
 OLDACT:REG 16-01-28 21:14 OP:ak   STATUS:               ID:20160128103600     3
 2016-01-28-1035-59S.COL___211                                                 6
 STAT SP IPHASW D HRMM SECON CODA AMPLIT PERI AZIMU VELO AIN AR TRES W  DIS CAZ7
 BAR2 EZ EP       1047 55.78                             170    0.3610 24.3 193 
 BAR2 EZ ES       1048 10.42                             170   -0.3410 24.3 193 
 BAR2 EZ I        1048 11.57        10.1 0.34            169           24.3 193 
 PAM  EZ EP       1047 58.76                             151    0.8610 75.9  39 
 PAM  EN ES       1048 15.35                             151    0.1810 75.9  39 
 PAM  EZ I        1048 17.63        10.5 0.62            156           75.9  39 
 RUS  HZ EP       1047 58.99                             144   -0.5810  101 177 
 RUS  HN ES       1048 18.25                             144    0.1110  101 177 
 RUS  HZ I        1048 19.95         4.2 0.40            146            101 177 
 PTB  HZ EP       1048  2.69                             132   -0.19 9  149 259 
 PTB  HN ES       1048 23.43                             132   -0.60 9  149 259 
 PTB  HZ I        1048 28.09         3.3 0.09            132            149 259 
 SPBC HZ EP       1048  4.53                             129    0.12 9  165 219 
 SPBC HN ES       1048 26.35                             129   -0.40 9  165 219 
 SPBC HZ I        1048 34.31         4.7 0.11            130            165 219 
 ZAR  HZ EP       1048  8.51                             122    0.18 9  205 292 
 ZAR  HN ES       1048 34.64                             122    0.91 9  205 292 
 ZAR  HZ I        1048 40.71         4.0 0.12            123            205 292 
 NOR  HN ES       1048 39.90                             118    0.22 8  236 235 
 NOR  HZ I        1048 47.12         3.0 0.22            119            236 235 
 SML  HZ EP       1048 11.83                             117   -0.56 8  244 335 
 SML  HN ES       1048 40.45                             117   -0.51 8  244 335 
 SML  HZ I        1048 45.94         6.9 0.11            119            244 335 
 CHI  HZ EP   2   1048 13.16                             117   -0.42 4  250 195 
 CHI  HN ES       1048 43.08                             117    0.00 8  250 195 
 CHI  HZ I        1048 46.53         1.4 0.28            119            250 195 
 GUY2CHZ EP   2   1048 19.92                             112    0.37 4  303 235 
 GUY2CHN ES       1048 54.24                             112    0.53 7  303 235 
 GUY2CHZ I        1049  0.80         1.6 0.32                           303 235 
 SJC  HZ EP       1048 30.77                             106   -0.58 6  409 327 
 SJC  HN ES   4   1049 11.44                             106   -3.27 0  409 327 
 SJC  HZ I        1049 16.28         1.8 0.50            107            409 327 
                                                                                
