 2017  628 1217 30.9 L   6.189 -73.670106.3  RSN  7 0.2 1.8LRSN                1
 GAP=132        0.60       2.0     2.4  5.3 -0.9198E+00  0.3715E+01 -0.9304E+00E
 Epicentro: LA PAZ - SANTANDER                                                 3
 ACTION:UPD 17-09-14 16:56 OP:jn   STATUS:               ID:20170628121730 L   I
 OLDACT:DUP 17-06-28 23:08 OP:osc  STATUS:               ID:20170628120742d    3
 2017-06-28-1208-00M.COL___366                                                 6
 STAT SP IPHASW D HRMM SECON CODA AMPLIT PERI AZIMU VELO AIN AR TRES W  DIS CAZ7
 BAR2 EZ EP       1217 48.14                             144   -0.0610 70.0  50 
 BAR2 EZ ES       1218  1.79                             144    0.1010 70.0  50 
 SPBC HE ES       1218  1.88                             142    0.0110 74.2 217 
 PTB  HZ EP   4   1217 48.68                             135   -1.22 0 95.2 294 
 PTB  HE ES       1218  4.59                             135   -0.1310 95.2 294 
 NOR  HN ES       1218 13.88                             121   -0.34 9  150 243 
 CHI  HE ES       1218 19.46                             117    0.06 9  173 182 
 ZAR  HZ EP       1217 59.81                             113   -0.29 9  195 318 
 ZAR  HE ES       1218 23.20                             113    0.33 9  195 318 
 ZAR  HZ I        1218 24.70         7.3 0.49            113            195 318 
 GUY2CHZ EP   4   1218  4.17                             111    1.11 0  216 240 
 GUY2CHN ES       1218 28.57                             111    0.42 8  216 240 
                                                                                
