 2012  328 1921 57.2 L   6.767 -73.148140.0  RSN  6 0.3 1.7LRSN                1
 GAP=138        0.82       5.4     4.9  9.6  0.1338E+01  0.1476E+02 -0.1939E+01E
 ACTION:UP  12-03-31 23:23 OP:EP   STATUS:               ID:20120328192157 L   I
 2012-03-28-1920-00M.COL___197                                                 6
 STAT SP IPHASW D HRMM SECON CODA AMPLIT PERI AZIMU VELO SNR AR TRES W  DIS CAZ7
 BAR2 SZ EP   1   1922 16.25                             172     0.1 7   20 191 
 BAR2 SZ I        1922 33.05         8.2 0.24                            20 191 
 BRR  HZ EP   1   1922 18.33                             151     0.5 7   73 301 
 BRR  HZ I        1922 19.76        17.9 0.17                            73 301 
 BRR  HN ES   2   1922 34.42                             151     0.5 5   73 301 
 PAM  SZ EP   1   1922 19.20                             149     0.2 7   80  38 
 PAM  SN ES   1   1922 35.59                             149    -0.4 7   80  38 
 PAM  SZ I        1922 38.25         9.5 0.35                            80  38 
 RUS  HZ EP   1   1922 20.55                             143     0.4 7   97 176 
 RUS  HZ I        1922 21.84         5.2 0.15                            97 176 
 RUS  HN ES   1   1922 37.83                             143    -0.2 7   97 176 
 PTB  HZ EP   1   1922 23.08                             131    -0.6 7  147 260 
 PTB  HN ES   1   1922 44.16                             131    -0.1 7  147 260 
 PTB  HZ I        1922 50.11         4.3 0.21                           147 260 
 ZAR  HZ EP   1   1922 29.13                             121    -0.3 6  205 293 
 ZAR  HE ES   1   1922 54.64                             121     0.1 6  205 293 
 ZAR  HZ I        1923  0.14         9.4 0.23                           205 293 
                                                                                
