 2016  428 1940  6.6 L   6.763 -73.175143.3  RSN  7 0.3 1.7LRSN                1
 GAP=135        0.69       3.1     3.2  5.5 -0.5264E+00  0.5672E+01 -0.5678E+00E
 Epicentro: LOS SANTOS - SANTANDER                                             3
 ACTION:UPD 16-05-05 14:24 OP:rebc STATUS:               ID:20160428194006 L   I
 OLDACT:DUP 16-04-29 00:01 OP:ak   STATUS:               ID:20160428193749d    3
 OLDACT:REG 16-04-28 22:04 OP:cara STATUS:               ID:20160428193748     3
 2016-04-28-1937-48M.COL___310                                                 6
 STAT SP IPHASW D HRMM SECON CODA AMPLIT PERI AZIMU VELO AIN AR TRES W  DIS CAZ7
 BAR2 EZ EP       1940 25.65                             172   -0.2310 18.9 183 
 BAR2 EZ ES       1940 40.88                             172   -0.0210 18.9 183 
 BAR2 EZ I        1940 42.19        11.9 0.32            172           18.9 183 
 PAM  EZ IP     C 1940 28.97                             149    0.0610 82.6  39 
 PAM  EN ES       1940 46.17                             149   -0.1210 82.6  39 
 PAM  EZ I        1940 48.15        12.3 0.52            152           82.6  39 
 RUS  HZ EP       1940 30.06                             144    0.1910 96.8 174 
 RUS  HE ES       1940 48.29                             144    0.3010 96.8 174 
 RUS  HZ I        1940 49.86         3.4 0.32            148           96.8 174 
 PTB  HZ EP       1940 32.93                             132   -0.12 9  144 260 
 PTB  HE ES       1940 53.14                             132   -0.51 9  144 260 
 PTB  HZ I        1941  0.96         6.2 0.44            132            144 260 
 SPBC HN ES   2   1940 56.57                             129    0.42 5  158 219 
 ZAR  HZ EP   2   1940 38.79                             122    0.01 4  203 294 
 ZAR  HE ES       1941  4.40                             122    0.55 9  203 294 
 ZAR  HZ I        1941 10.11         5.4 0.12            123            203 294 
 CHI  HN ES   1   1941 12.23                             117   -0.34 6  244 195 
                                                                                
