 2016 1228 1020 42.8 L   6.766 -73.158144.3  RSN  6 0.4 1.5LRSN                1
 GAP=136        1.09       5.4     4.8  7.4  0.2699E+01  0.9038E+01 -0.1860E+01E
 Epicentro: LOS SANTOS - SANTANDER                                             3
 ACTION:UPD 17-01-11 20:20 OP:rebc STATUS:               ID:20161228102042 L   I
 OLDACT:REG 16-12-28 20:50 OP:cog  STATUS:               ID:20161228101741     3
 2016-12-28-1018-00M.COL___365                                                 6
 STAT SP IPHASW D HRMM SECON CODA AMPLIT PERI AZIMU VELO AIN AR TRES W  DIS CAZ7
 BAR2 EZ EP       1021  2.17                             172   -0.0110 19.4 188 
 BAR2 EZ ES       1021 16.78                             172   -0.5110 19.4 188 
 BAR2 EZ I        1021 19.44         7.9 0.30            173           19.4 188 
 BRR  HZ EP       1021  4.07                             152    0.2510 71.9 302 
 BRR  HN ES       1021 20.88                             152    0.6510 71.9 302 
 BRR  HZ I        1021 23.55         8.9 0.32            152           71.9 302 
 PAM  EZ EP       1021  5.07                             149   -0.0210 81.2  39 
 PAM  EE ES       1021 22.14                             149   -0.3310 81.2  39 
 PAM  EZ I        1021 23.92         6.3 0.50            152           81.2  39 
 RUS  HZ EP       1021  6.38                             145    0.2410 96.9 175 
 RUS  HN ES       1021 24.84                             145    0.4910 96.9 175 
 PTB  HZ EP       1021  8.92                             132   -0.54 9  146 260 
 PTB  HN ES       1021 29.59                             132   -0.66 9  146 260 
 PTB  HZ I        1021 33.08         2.2 0.16            134            146 260 
 ZAR  HZ EP       1021 15.08                             122   -0.08 9  204 293 
 ZAR  HN ES       1021 40.89                             122    0.48 9  204 293 
                                                                                
