 2013 1228 1616 33.1 L   6.796 -73.139148.3  RSN 10 0.5 2.3LRSN                1
 GAP=138        1.32       4.0     5.4  8.3 -0.2663E+01  0.1230E+02  0.1655E+01E
 Epicentro: LOS SANTOS - SANTANDER                                             3
 ACTION:UPD 14-01-13 10:21 OP:ep   STATUS:               ID:20131228161633 L   I
 OLDACT:REG 13-12-28 14:53 OP:jn   STATUS:               ID:20131228161000     3
 2013-12-28-1610-00M.COL___285                                                 6
 STAT SP IPHASW D HRMM SECON CODA AMPLIT PERI AZIMU VELO AIN AR TRES W  DIS CAZ7
 BAR2 SZ IP     C 1616 53.24                             171    0.2510 23.0 192 
 BAR2 SZ ES       1617  8.47                             171   -0.0610 23.0 192 
 BAR2 SZ I        1617 10.91        42.6 0.22            168           23.0 192 
 BRR  HZ IP       1616 55.09                             153    0.5610 72.0 299 
 BRR  HN ES       1617 12.49                             153    1.2210 72.0 299 
 BRR  HZ I        1617 16.28        27.4 0.14            150           72.0 299 
 PAM  SZ EP     D 1616 55.95                             151    0.4110 77.3  39 
 PAM  SN ES       1617 12.94                             151   -0.1310 77.3  39 
 PAM  SZ I        1617 15.10        15.4 0.44            157           77.3  39 
 RUS  HZ EP       1616 57.13                             144    0.1110  100 176 
 RUS  HN ES       1617 15.18                             144   -0.5410  100 176 
 RUS  HZ I        1617 16.61        20.8 0.42            147            100 176 
 PTB  HZ EP       1616 59.87                             132   -0.42 9  148 259 
 PTB  HN ES       1617 21.00                             132   -0.53 9  148 259 
 PTB  HZ I        1617 28.32        24.6 0.28            132            148 259 
 OCA  HN ES       1617 22.93                             130   -0.96 9  161 353 
 SPBC HZ EP       1617  2.07                             130    0.31 9  163 219 
 SPBC HN ES       1617 23.71                             130   -0.44 9  163 219 
 SPBC HZ I        1617 28.83        27.8 0.16            131            163 219 
 ZAR  HN ES       1617 31.52                             123    0.27 9  205 292 
 ZAR  HZ I        1617 37.35        33.3 0.26            124            205 292 
 NOR  HZ EP       1617  9.01                             119    0.04 8  235 235 
 NOR  HN ES       1617 37.04                             119    0.06 8  235 235 
 NOR  HZ I        1617 45.57        13.2 0.14            120            235 235 
 SML  HN ES       1617 38.07                             118   -0.57 8  244 335 
                                                                                
