 2017 1228 1000 48.6 L   6.776 -73.152148.0  RSN 14 0.7 2.0LRSN                1
 GAP= 65        1.20       4.2     3.9  8.7  0.2355E+01  0.8123E+01  0.1115E+02E
 Epicentro: LOS SANTOS - SANTANDER                                             3
 ACTION:UPD 18-01-04 13:25 OP:rebc STATUS:               ID:20171228100048 L   I
 OLDACT:UP  17-12-28 22:04 OP:mg   STATUS:               ID:20171228095614     3
 OLDACT:UP  17-12-28 22:03 OP:mg   STATUS:               ID:20171228095614     3
 OLDACT:UP  17-12-28 22:03 OP:mg   STATUS:               ID:20171228095614     3
 OLDACT:UP  17-12-28 22:02 OP:mg   STATUS:               ID:20171228095614     3
 OLDACT:UP  17-12-28 22:01 OP:mg   STATUS:               ID:20171228095614     3
 OLDACT:REG 17-12-28 19:51 OP:mg   STATUS:               ID:20171228095614     3
 2017-12-28-0958-00M.COL___448                                                 6
 STAT SP IPHASW D HRMM SECON CODA AMPLIT PERI AZIMU VELO AIN AR TRES W  DIS CAZ7
 BAR2 EZ IP     D 10 1  8.65                             172    0.1510 20.6 189 
 BAR2 EZ ES   2   10 1 23.38                             172   -0.60 5 20.6 189 
 BAR2 EZ I        10 1 24.45        26.3 0.18            171           20.6 189 
 PAM  EZ IP     D 10 1 11.67                             150    0.4210 79.9  39 
 PAM  EE ES       10 1 29.01                             150    0.1310 79.9  39 
 PAM  EZ I        10 1 31.57        12.8 0.46            154           79.9  39 
 PTB  HZ EP       10 1 15.31                             133   -0.39 9  147 260 
 PTB  HN ES   1   10 1 36.24                             133   -0.55 7  147 260 
 PTB  HZ I        10 1 40.54         9.5 0.14            134            147 260 
 TAM  HZ IP     D 10 1 16.91                             131    0.41 9  155 104 
 TAM  HN ES       10 1 38.17                             131   -0.05 9  155 104 
 TAM  HZ I        10 1 38.98         8.6 0.18            135            155 104 
 SPBC HZ EP       10 1 17.37                             130    0.28 9  161 219 
 SPBC HN ES   1   10 1 39.21                             130   -0.06 7  161 219 
 SPBC HZ I        10 1 41.75         8.9 0.17            131            161 219 
 OCA  HZ EP       10 1 17.24                             130   -0.13 9  163 353 
 OCA  HE ES       10 1 39.16                             130   -0.62 9  163 353 
 OCA  HZ I        10 1 44.38        52.8 0.19            132            163 353 
 YPLC HZ EP   1   10 1 18.80                             127    0.39 7  175 151 
 YPLC HE ES   1   10 1 42.26                             127    0.64 7  175 151 
 YPLC HZ I        10 1 45.77         9.1 0.26            130            175 151 
 ZAR  HZ EP       10 1 20.39                             123   -0.89 9  204 293 
 ZAR  HE ES       10 1 47.75                             123    1.01 9  204 293 
 ZAR  HZ I        10 1 53.34        15.7 0.09            124            204 293 
 DRL03HZ EP   9   10 1 32.17                             113    1.52 0  291 353 
 DRL03HN ES       10 2  5.63                             113    0.70 7  291 353 
 GUY2CHZ EP   4   10 1 35.40                             113    3.27 0  299 235 
 GUY2CHN ES   2   10 2  7.30                             113    1.26 4  299 235 
 GUY2CHZ I        10 2 13.72         3.8 0.44                           299 235 
 PTGC HZ EP       10 1 31.53                             112   -0.82 7  306 158 
 PTGC HE ES   2   10 2  4.49                             112   -1.95 4  306 158 
 PTGC HZ I        10 2  5.03         6.7 0.43            114            306 158 
 CBOC HZ EP   2   10 1 36.58                             110    1.09 3  332 252 
 CBOC HE ES   2   10 2 13.40                             110    1.37 3  332 252 
 CBOC HZ I        10 2 15.42         1.9 0.20            112            332 252 
 PRA  HZ EP   2   10 1 42.89                             107    0.95 3  389 210 
 PRA  HN ES   2   10 2 21.56                             107   -1.94 3  389 210 
 PRA  HZ I        10 2 30.27         2.2 0.20            109            389 210 
 PAL  HZ EP   9   10 1 46.71                             106    3.05 0  404 239 
 PAL  HN ES   4   10 2 28.88                             106   -0.74 0  404 239 
 SJC  HZ EP   2   10 1 43.40                             106   -1.11 3  411 327 
 SJC  HN ES   4   10 2 25.32                             106   -2.75 0  411 327 
 SJC  HZ I        10 2 28.57         3.1 0.34            108            411 327 
                                                                                
