 2017 1028 1309 27.1 L   6.823 -73.145145.1  RSN 23 0.8 2.7LRSN                1
 GAP= 74        1.51       3.8     3.7  6.4  0.2270E+00  0.6630E+01  0.4910E+01E
 Epicentro: LOS SANTOS - SANTANDER                                             3
 ACTION:UPD 17-11-07 19:38 OP:rebc STATUS:               ID:20171028130927 L   I
 OLDACT:REG 17-10-28 19:51 OP:dhb  STATUS:               ID:20171028130739     3
 2017-10-28-1308-00M.COL___444                                                 6
 STAT SP IPHASW D HRMM SECON CODA AMPLIT PERI AZIMU VELO AIN AR TRES W  DIS CAZ7
 BAR2 EZ IP     D 13 9 46.69                             170   -0.0210 25.9 189 
 BAR2 EZ ES       1310  1.65                             170   -0.3510 25.9 189 
 BAR2 EZ I        1310  2.72       198.8 0.20            168           25.9 189 
 BRR  HZ IP     C 13 9 48.53                             153    0.4110 70.1 297 
 BRR  HN ES       1310  5.51                             153    1.0010 70.1 297 
 BRR  HZ I        1310  9.46       112.1 0.14            152           70.1 297 
 PAM  EZ IP     D 13 9 49.50                             151    0.3810 75.3  41 
 PAM  EN ES       1310  6.50                             151    0.2010 75.3  41 
 PAM  EZ I        1310 11.15        64.2 0.48            155           75.3  41 
 RUS  HZ IP     C 13 9 50.70                             143   -0.2710  103 176 
 RUS  HN ES       1310  9.41                             143   -0.1910  103 176 
 RUS  HZ I        1310 10.29       107.0 0.24            144            103 176 
 PTB  HZ EP   9   13 9 53.22                             132   -0.85 0  148 258 
 PTB  HN ES       1310 14.23                                   -0.03 9  148 258 
 PTB  HZ I        1310 16.05        40.8 0.28            132            148 258 
 TAM  HN EP       13 9 55.08                             130    0.30 9  156 106 
 TAM  HE ES       1310 15.70                             130   -0.67 9  156 106 
 TAM  HN I        1310 17.52        65.2 0.52            134            156 106 
 SPBC HZ EP       13 9 55.58                             129   -0.17 9  165 218 
 SPBC HE ES       1310 18.10                             129    0.01 9  165 218 
 SPBC HZ I        1310 22.59        91.7 0.20            129            165 218 
 YPLC HZ IP     D 13 9 57.03                             126   -0.03 9  179 152 
 YPLC HN ES       1310 20.42                             126   -0.01 9  179 152 
 YPLC HZ I        1310 23.73        35.6 0.28            129            179 152 
 ZAR  HZ EP       13 9 59.67                             122    0.26 9  203 291 
 ZAR  HN ES       1310 25.14                             122    0.52 9  203 291 
 ZAR  HZ I        1310 32.77        61.1 0.44            123            203 291 
 TABC EZ EP       1310  3.78                             119    0.73 8  232 210 
 TABC EZ ES       1310 31.03                             119   -0.07 8  232 210 
 TABC EZ I        1310 36.40        64.8 0.52            120            232 210 
 NOR  HZ IP     C 1310  3.03                             118    0.07 8  236 234 
 NOR  HE ES       1310 30.10                             118   -0.84 8  236 234 
 NOR  HZ I        1310 35.82        37.4 0.40            119            236 234 
 CHI  HZ EP       1310  5.00                             117   -0.03 8  251 195 
 CHI  HE ES       1310 34.15                             117   -0.48 8  251 195 
 CHI  HZ I        1310 41.58        18.3 0.40            118            251 195 
 ROSC BZ EP       1310  6.00                             116    0.57 8  255 211 
 ROSC BE ES       1310 36.04                             116    0.71 8  255 211 
 ROSC BZ I        1310 45.08        46.6 0.40            118            255 211 
 URE  HZ EP       1310  7.60                             113   -0.44 7  283 291 
 URE  HN ES       1310 37.51                             113   -2.47 7  283 291 
 URE  HZ I        1310 51.56        42.0 0.18            115            283 291 
 GUY2CHZ EP       1310 11.44                             112    0.58 7  303 234 
 GUY2CHN ES       1310 46.31                             112    1.32 7  303 234 
 GUY2CHZ I        1310 51.66        22.7 0.32                           303 234 
 VIL  EZ EP       1310 10.75                             112   -0.02 7  306 191 
 VIL  EE ES       1310 42.79                             112   -2.05 7  306 191 
 VIL  EZ I        1310 48.62        24.0 0.42            113            306 191 
 ELA  HZ EP   9   1310 15.75                             110    1.63 0  331 229 
 ELA  HE ES       1310 53.05                                    0.62 7  331 229 
 ELA  HZ I        1310 58.95        19.9 0.30            111            331 229 
 DBB  EZ EP       1310 15.16                             109    0.62 7  339 274 
 DBB  EN ES       1310 50.38                             109   -1.17 7  339 274 
 DBB  EZ I        1310 53.57        15.6 0.52            110            339 274 
 ANIL HZ EP   2   1310 18.58                             108    1.48 3  359 224 
 ANIL HE ES       1310 55.70                             108   -0.40 6  359 224 
 PRA  HZ EP       1310 21.23                             106    0.36 6  394 209 
 PRA  HE ES       1311  2.40                             106   -0.40 6  394 209 
 PRA  HZ I        1311  9.51        14.6 0.26            108            394 209 
 ORTC HZ EP       1310 21.33                             106    0.08 6  398 216 
 ORTC HN ES       1311  5.21                             106    1.73 6  398 216 
 ORTC HZ I        1311  8.09        12.3 0.46            107            398 216 
 SJC  HZ EP   2   1310 20.84                             106   -1.55 3  407 327 
 SJC  HN ES   3   1311  2.85                             106   -2.67 1  407 327 
 SJC  HZ I        1311  5.88         6.9 0.58            107            407 327 
 PAL  HZ EP       1310 22.59                             106    0.19 6  407 239 
 PAL  HE ES       1311  4.91                             106   -0.63 6  407 239 
 PAL  HZ I        1311  7.03         9.0 0.68            107            407 239 
                                                                                
