 2015  628 1457 32.0 L   6.840 -73.130148.0  RSN 10 0.4 2.4LRSN                1
 GAP=200        0.85       3.2     5.7  5.6 -0.7837E+01  0.3908E+01  0.3292E+01E
 Epicentro: LOS SANTOS - SANTANDER                                             3
 ACTION:UPD 15-09-10 22:15 OP:cam  STATUS:               ID:20150628145732 L   I
 OLDACT:UP  15-06-28 22:35 OP:mh   STATUS:               ID:20150628144748     3
 OLDACT:REG 15-06-28 20:02 OP:mh   STATUS:               ID:20150628144748     3
 2015-06-28-1447-48M.COL___322                                                 6
 STAT SP IPHASW D HRMM SECON CODA AMPLIT PERI AZIMU VELO AIN AR TRES W  DIS CAZ7
 BAR2 EZ EP     C 1457 52.15                             169    0.1110 28.0 192 
 BAR2 EZ ES   1   1458  7.11                             169   -0.53 7 28.0 192 
 BAR2 EZ I        1458  8.25        39.1 0.48            165           28.0 192 
 BRR  HZ EP   1   1457 53.61                             153    0.20 7 70.8 295 
 BRR  HN ES       1458 10.51                             153    0.4410 70.8 295 
 BRR  HZ I        1458 13.58        37.0 0.34            147           70.8 295 
 OCA  HZ EP       1457 59.98                             131   -0.16 9  156 352 
 OCA  HN ES       1458 22.44                             131    0.39 9  156 352 
 OCA  HZ I        1458 26.10        72.8 0.24            131            156 352 
 NOR  HZ EP       1458  8.53                             119    0.20 8  239 234 
 NOR  HN ES       1458 36.11                             119   -0.52 8  239 234 
 NOR  HZ I        1458 41.97        22.3 0.18            118            239 234 
 SML  HZ EP       1458  7.86                             118   -0.58 8  240 334 
 SML  HN ES       1458 36.32                             118   -0.51 8  240 334 
 SML  HZ I        1458 42.71        33.7 0.10            118            240 334 
 ROSC BZ EP   4   1458 11.94                             117    1.15 0  257 211 
 ROSC BN ES   4   1458 44.02                             117    3.00 0  257 211 
 ROSC BZ I        1458 47.66        16.1 0.40            116            257 211 
 HEL  HZ EP   1   1458 13.11                             115    0.43 6  275 255 
 HEL  HN ES       1458 44.28                             115   -0.09 8  275 255 
 HEL  HZ I        1458 51.43         9.6 0.30            114            275 255 
 GUY2CHZ EP   1   1458 17.31                             113    1.11 5  305 234 
 GUY2CHN ES   1   1458 50.97                             113    0.32 5  305 234 
 GUY2CHZ I        1459  0.28        11.7 0.62                           305 234 
 TOL  SZ EP       1458 20.95                             109    0.06 6  348 224 
 TOL  SN ES   4   1458 59.96                             109    0.97 0  348 224 
 TOL  SZ I        1459  6.77         9.4 0.30            109            348 224 
 PRA  HZ EP       1458 26.00                             107   -0.19 6  397 209 
 PRA  HN ES       1459  8.10                             107   -0.32 6  397 209 
 PRA  HZ I        1459 12.74         8.5 0.32            107            397 209 
                                                                                
