 2016  928 1318 38.4 L   6.788 -73.095149.2  RSN 12 0.3 2.1LRSN                1
 GAP=123        0.72       2.9     3.4  4.0 -0.4245E+01 -0.8800E+00  0.1835E+01E
 Epicentro: LOS SANTOS - SANTANDER                                             3
 ACTION:UPD 17-08-17 21:17 OP:lp   STATUS:               ID:20160928131838 L   I
 OLDACT:UP  16-09-28 23:33 OP:edw  STATUS:               ID:20160928131745     3
 OLDACT:UP  16-09-28 23:33 OP:edw  STATUS:               ID:20160928131745     3
 OLDACT:UP  16-09-28 23:32 OP:edw  STATUS:               ID:20160928131745     3
 OLDACT:UP  16-09-28 23:31 OP:edw  STATUS:               ID:20160928131745     3
 OLDACT:REG 16-09-28 20:59 OP:edw  STATUS:               ID:20160928131745     3
 2016-09-28-1318-00M.COL___387                                                 6
 STAT SP IPHASW D HRMM SECON CODA AMPLIT PERI AZIMU VELO AIN AR TRES W  DIS CAZ7
 BAR2 EZ EP       1318 58.33                             171   -0.1310 23.7 204 
 BAR2 EZ ES       1319 13.75                             171   -0.3510 23.7 204 
 BAR2 EZ I        1319 14.97        47.2 0.14            168           23.7 204 
 PAM  EZ EP       1319  1.30                             152    0.4510 75.0  36 
 PAM  EN ES       1319 18.38                             152    0.0210 75.0  36 
 PAM  EZ I        1319 20.49        31.8 0.52            153           75.0  36 
 BRR  HZ EP       1319  0.35                             151    0.1010 76.7 297 
 BRR  HN ES       1319 17.23                             151   -0.0510 76.7 297 
 RUS  HZ EP       1319  2.37                             145   -0.0210 99.1 179 
 RUS  HN ES       1319 21.41                             145    0.3110 99.1 179 
 RUS  HZ I        1319 22.02         7.1 0.18            146           99.1 179 
 PTB  HZ EP   9   1319  5.34                             132   -0.79 0  153 260 
 PTB  HN ES       1319 26.54                             132   -0.42 9  153 260 
 PTB  HZ I        1319 33.24        12.3 0.20            128            153 260 
 SPBC HZ EP       1319  6.85                             129   -0.57 9  166 221 
 SPBC HN ES       1319 30.02                             129   -0.02 9  166 221 
 SPBC HZ I        1319 33.76        21.4 0.52            128            166 221 
 ZAR  HZ EP   4   1319 13.93                             122    2.27 0  210 292 
 ZAR  HN ES   2   1319 37.97                             122    0.37 4  210 292 
 ZAR  HZ I        1319 43.08        14.1 0.34            120            210 292 
 NOR  HZ EP       1319 14.45                             119   -0.30 8  239 235 
 NOR  HN ES       1319 43.51                             119    0.42 8  239 235 
 NOR  HZ I        1319 47.87         8.8 0.14            117            239 235 
 CHI  HZ EP   4   1319 14.57                             118   -1.76 0  249 196 
 CHI  HN ES       1319 45.89                             118   -0.02 8  249 196 
 CHI  HZ I        1319 49.40         8.3 0.46            117            249 196 
 ROSC BZ EP   4   1319 14.38                             117   -2.54 0  255 212 
 ROSC BN ES   4   1319 49.18                             117    2.23 0  255 212 
 URE  HZ EP   4   1319 23.26                             114    2.98 0  289 292 
 URE  HE ES   4   1319 51.54                             114   -1.39 0  289 2923
 URE  HZ I        1320  0.69         6.0 0.22            112            289 292 
 SOCV BZ EP       1319 21.24                             113    0.06 7  297  56 
 SOCV BN ES   4   1319 53.21                             113   -1.32 0  297  56 
 GUY2CHZ EP   4   1319 24.35                             113    1.74 0  305 236 
 GUY2CHN ES   4   1320  0.08                             113    2.99 0  305 236 
 GUY2CHZ I        1320  5.75         5.2 0.32                           305 236 
                                                                                
