 2017  728 1020 55.4 L   6.828 -73.134144.2  RSN 14 0.7 2.0LRSN                1
 GAP=104        1.65       5.5     4.6  9.2  0.3515E+01  0.6942E+01  0.8846E+01E
 Epicentro: LOS SANTOS - SANTANDER                                             3
 ACTION:UPD 17-08-30 15:37 OP:rebc STATUS:               ID:20170728102055 L   I
 OLDACT:UP  17-07-28 16:38 OP:ar   STATUS:               ID:20170728101743     3
 OLDACT:UP  17-07-28 16:31 OP:ar   STATUS:               ID:20170728101743     3
 OLDACT:UP  17-07-28 16:08 OP:ar   STATUS:               ID:20170728101743     3
 OLDACT:REG 17-07-28 14:28 OP:ar   STATUS:               ID:20170728101743     3
 2017-07-28-1018-00M.COL___371                                                 6
 STAT SP IPHASW D HRMM SECON CODA AMPLIT PERI AZIMU VELO AIN AR TRES W  DIS CAZ7
 BAR2 EZ EP       1021 14.67                             169   -0.2710 26.6 192 
 BAR2 EZ I        1021 30.94        17.3 0.18            170           26.6 192 
 BRR  HZ EP       1021 16.76                             152    0.3710 70.9 296 
 BRR  HE ES       1021 33.45                             152    0.7110 70.9 296 
 BRR  HZ I        1021 37.60        17.8 0.10            154           70.9 296 
 PAM  EZ EP       1021 17.65                             151    0.3610 74.2  40 
 PAM  EN ES       1021 34.31                             151   -0.0310 74.2  40 
 PAM  EZ I        1021 36.39        28.9 0.52            154           74.2  40 
 RUS  HZ EP       1021 19.09                             143   -0.1510  104 177 
 RUS  HN ES       1021 37.26                             143   -0.5510  104 177 
 RUS  HZ I        1021 38.79        11.1 0.42            145            104 177 
 PTB  HZ EP       1021 22.24                             131   -0.19 9  150 258 
 PTB  HN ES       1021 43.74                             131    0.24 9  150 258 
 PTB  HZ I        1021 45.31         7.2 0.46            133            150 258 
 TAM  HZ IP     D 1021 23.04                             130    0.10 9  155 106 
 SPBC HZ EP       1021 24.85                             128    0.74 9  166 219 
 SPBC HN ES       1021 45.90                             128   -0.58 9  166 219 
 SPBC HZ I        1021 51.15        15.7 0.24            130            166 219 
 YPLC HZ EP       1021 25.44                             126    0.13 9  179 152 
 YPLC HN ES       1021 48.88                             126    0.26 9  179 152 
 YPLC HZ I        1021 51.56        17.0 0.26            128            179 152 
 ZAR  HZ EP       1021 27.80                             122    0.03 9  204 291 
 ZAR  HN ES       1021 52.65                             122   -0.35 9  204 291 
 ZAR  HZ I        1021 59.65        10.7 0.24            124            204 291 
 NOR  HZ EP       1021 31.29                             118   -0.08 8  238 234 
 NOR  HN ES       1021 58.19                             118   -1.21 8  238 234 
 NOR  HZ I        1022  6.03         6.1 0.14            120            238 234 
 HEL  HZ EP   4   1021 37.15                             114    1.37 0  274 255 
 HEL  HE ES       1022  6.75                             114   -0.50 8  274 255 
 URE  HZ EP       1021 35.67                             113   -0.75 7  284 291 
 URE  HE ES       1022  7.34                             113   -1.06 7  284 291 
 URE  HZ I        1022  8.49         8.2 0.16            115            284 291 
 GUY2CHZ EP       1021 41.01                             112    1.73 7  304 234 
 GUY2CHN ES       1022 15.61                             112    2.13 7  304 234 
 GUY2CHZ I        1022 22.29         3.0 0.56                           304 234 
 PTGC HZ EP       1021 38.22                             111   -1.27 7  311 159 
 PTGC HE ES   4   1022 11.44                             111   -2.41 0  311 159 
                                                                                
