 2017  328 1601 43.7 L   6.782 -73.168140.8  RSN  6 0.3 1.4LRSN                1
 GAP=135        0.88       4.3     3.8  7.3 -0.2634E+01  0.1054E+02 -0.1587E+01E
 Epicentro: LOS SANTOS - SANTANDER                                             3
 ACTION:UPD 17-05-25 18:46 OP:jn   STATUS:               ID:20170328160143 L   I
 OLDACT:REG 17-03-28 20:34 OP:lv   STATUS:               ID:20170328155742     3
 2017-03-28-1558-00M.COL___370                                                 6
 STAT SP IPHASW D HRMM SECON CODA AMPLIT PERI AZIMU VELO AIN AR TRES W  DIS CAZ7
 BAR2 EZ EP       16 2  2.67                             171   -0.0210 21.0 184 
 BAR2 EZ ES       16 2 17.65                             171    0.1510 21.0 184 
 BAR2 EZ I        16 2 19.07        10.0 0.09            172           21.0 184 
 PAM  EZ EP       16 2  5.55                             149   -0.0310 80.5  40 
 PAM  EN ES       16 2 22.53                             149   -0.1210 80.5  40 
 PAM  EZ I        16 2 24.78         3.0 0.14            150           80.5  40 
 RUS  HZ EP       16 2  7.12                             143    0.2810 98.8 175 
 RUS  HN ES       16 2 24.92                             143    0.0410 98.8 175 
 RUS  HZ I        16 2 26.43         5.1 0.32            145           98.8 175 
 PTB  HZ EP       16 2  9.53                             131   -0.49 9  145 259 
 PTB  HN ES       16 2 29.92                             131   -0.62 9  145 259 
 PTB  HZ I        16 2 31.71         1.7 0.12            133            145 259 
 ZAR  HE ES       16 2 41.27                             121    0.65 9  203 293 
 NOR  HN ES       16 2 46.50                             118    0.31 8  232 235 
                                                                                
