 2016  928 1955 55.3 L   6.808 -73.132147.7  RSN 19 0.3 2.9LRSN                1
 GAP=138        0.73       2.6     3.1  3.7 -0.2616E+00  0.2624E+01  0.2340E+01E
 Epicentro: LOS SANTOS - SANTANDER                                             3
 ACTION:UPD 17-08-17 21:17 OP:lp   STATUS:               ID:20160928195555 L   I
 OLDACT:UP  16-09-29 01:56 OP:edw  STATUS:               ID:20160928194744     3
 OLDACT:UP  16-09-29 01:55 OP:edw  STATUS:               ID:20160928194744     3
 OLDACT:REG 16-09-28 21:38 OP:edw  STATUS:               ID:20160928194744     3
 2016-09-28-1948-00M.COL___371                                                 6
 STAT SP IPHASW D HRMM SECON CODA AMPLIT PERI AZIMU VELO AIN AR TRES W  DIS CAZ7
 BAR2 EZ EP       1956 15.03                             170   -0.1410 24.5 193 
 BAR2 EZ ES       1956 30.53                             170   -0.1610 24.5 193 
 BAR2 EZ I        1956 32.86       215.6 0.30            165           24.5 193 
 BRR  HZ IP     C 1956 16.82                             153    0.1210 72.1 297 
 BRR  HN ES       1956 33.65                             153    0.2510 72.1 297 
 BRR  HZ I        1956 38.03       107.8 0.14            147           72.1 297 
 PAM  EZ EP       1956 17.85                             152    0.2310 75.8  39 
 PAM  EN ES       1956 35.24                             152    0.2010 75.8  39 
 PAM  EZ I        1956 37.23       188.5 0.48            157           75.8  39 
 RUS  HZ EP     C 1956 18.90                             144   -0.3910  101 177 
 RUS  HN ES       1956 38.09                             144    0.0910  101 177 
 RUS  HZ I        1956 38.92       134.5 0.30            144            101 177 
 PTB  HZ EP   9   1956 21.83                             132   -0.73 0  149 259 
 PTB  HN ES       1956 43.21                             131    0.11 9  149 259 
 PTB  HZ I        1956 45.45        73.1 0.13            129            149 259 
 SPBC HZ EP       1956 23.80                             129   -0.29 9  165 219 
 SPBC HN ES       1956 46.22                             129   -0.33 9  165 219 
 SPBC HZ I        1956 51.79       124.3 0.11            128            165 219 
 ZAR  HZ EP       1956 27.57                             123   -0.40 9  205 292 
 ZAR  HN ES       1956 53.22                             123   -0.23 9  205 292 
 ZAR  HZ I        1957  1.01        68.0 0.14            121            205 292 
 NOR  HZ EP   2   1956 31.30                             119   -0.01 4  236 234 
 NOR  HN ES   2   1956 59.28                             119   -0.13 4  236 234 
 NOR  HZ I        1957  4.67        95.4 0.18            118            236 234 
 CHI  HZ EP       1956 33.24                             117    0.02 8  250 195 
 CHI  HN ES   2   1957  2.49                             117   -0.33 4  250 195 
 CHI  HZ I        1957  5.99        41.6 0.40            118            250 195 
 HEL  HZ EP   4   1956 36.96                             115    1.18 0  274 256 
 HEL  HN ES   4   1957  9.16                             115    1.80 0  274 256 
 HEL  HZ I        1957 13.82        58.9 0.38            114            274 256 
 URE  HZ EP   4   1956 34.76                             114   -1.81 0  285 292 
 URE  HN ES   4   1957  7.90                             114   -0.86 0  285 292 
 URE  HZ I        1957 17.74        48.0 0.24            113            285 292 
 GUY2CHZ EP   4   1956 40.68                             113    1.50 0  303 235 
 GUY2CHN ES   4   1957 17.32                             113    3.91 0  303 235 
 GUY2CHZ I        1957 20.28        46.8 0.28                           303 235 
 VIL  EZ EP       1956 38.73                             112   -0.19 7  305 192 
 VIL  EN ES       1957 13.70                             112    0.74 7  305 192 
 VIL  EZ I        1957 15.94        51.9 0.54            113            305 192 
 PTGC HZ EP   4   1956 38.37                             112   -0.89 0  309 159 
 PTGC HN ES   4   1957 11.34                             112   -2.22 0  309 159 
 ELA  HZ EP   4   1956 44.47                             111    2.06 0  331 230 
 ELA  HN ES   4   1957 24.27                             111    5.10 0  331 230 
 ELA  HZ I        1957 34.49        40.7 0.54            110            331 230 
 CBOC HZ EP       1956 43.08                             110    0.61 7  335 252 
 CBOC HN ES   4   1957 19.15                             110   -0.12 0  335 252 
 CBOC HZ I        1957 23.17        16.9 0.20            110            335 252 
 ARGC HZ EP   4   1956 46.91                             109    1.93 0  359 340 
 ARGC HN ES   4   1957 25.38                             109    1.64 0  359 340 
 ANIL HZ EP   4   1956 46.62                             109    1.27 0  359 225 
 ANIL HN ES   4   1957 27.16                             109    2.75 0  359 225 
 PAL  HZ EP       1956 50.74                             106    0.03 6  407 239 
 PAL  HN ES       1957 34.74                             106    0.80 6  407 239 
 PAL  HZ I        1957 36.63        16.7 0.22            106            407 239 
 SJC  HZ EP   4   1956 49.23                             106   -1.69 0  409 327 
 SJC  HN ES   4   1957 30.32                             106   -4.00 0  409 327 
 SJC  HZ I        1957 36.69        12.5 0.28            106            409 327 
 CRJC HZ EP   9   1956 55.24                             104   -2.49 0  467   3 
 CRJC HN ES       1957 43.02                             104   -0.92 5  467   3 
 CRJC HZ I        1957 45.50        19.4 0.14            105            467   3 
 YOT  HZ EP   4   1956 59.96                             103    1.38 0  474 229 
 YOT  HN ES   4   1957 53.30                             103    5.35 0  474 229 
 YOT  HZ I        1957 59.83         4.0 0.52            104            474 229 
 SMAR HZ EP   4   1957  0.83                             103   -0.32 0  497 346 
 SMAR HN ES   4   1957 48.07                             103   -4.45 0  497 346 
 MACC HZ EP   4   1957  2.29                             102   -1.88 0  522 189 
 MACC HN ES   4   1957 53.90                             102   -4.00 0  522 189 
                                                                                
