 2012 1128 1851 32.2 L   6.833 -73.174143.0  RSN  6 0.1 1.7LRSN                1
 GAP=179        0.28       3.5     2.8  3.0  0.5427E+01  0.9287E+00  0.7432E+00E
 Epicentro: LOS SANTOS - SANTANDER                                             3
 ACTION:UPD 12-12-05 15:36 OP:}ep  STATUS:               ID:20121128185132 L   I
 2012-11-28-1850-00M.COL___237                                                 6
 STAT SP IPHASW D HRMM SECON CODA AMPLIT PERI AZIMU VELO AIN AR TRES W  DIS CAZ7
 BAR2 SZ ES   1   1852  6.66                             169   -0.03 8 26.7 182 
 BAR2 SZ I        1852  8.36        30.2 0.28                          26.7 182 
 GIR2 SZ EP   2   1851 51.47                             169    0.02 5 27.2 355 
 RUS  HZ EP       1851 56.04                             142    0.0610  104 174 
 RUS  HE ES   1   1852 14.47                             142   -0.05 7  104 174 
 RUS  HZ I        1852 15.99         4.4 0.37                           104 174 
 PTB  HZ EP   2   1851 58.74                             132    0.00 5  145 257 
 PTB  HN ES   1   1852 19.52                             132    0.08 7  145 257 
 PTB  HZ I        1852 23.74         5.1 0.18                           145 257 
 ZAR  HN ES   2   1852 28.72                             122   -0.14 4  200 292 
 ZAR  HZ I        1852 35.84         4.9 0.51                           200 292 
 CHI  HZ EP   1   1852  9.96                             116   -0.09 6  251 194 
                                                                                
