 2013  228 1421 32.0 L   6.710 -73.197142.0  RSN  6 0.4 2.0LRSN                1
 GAP=224        1.01       6.1     5.7  6.9  0.8384E+01  0.1053E+02  0.1268E+02E
 Epicentro: VILLANUEVA - SANTANDER                                             3
 ACTION:UPD 13-03-12 09:36 OP:ep   STATUS:               ID:20130228142132 L   I
 2013-02-28-1418-41M.COL___203                                                 6
 STAT SP IPHASW D HRMM SECON CODA AMPLIT PERI AZIMU VELO AIN AR TRES W  DIS CAZ7
 BAR2 SZ EP       1421 50.79                             174   -0.2710 13.2 173 
 BAR2 SZ ES       1422  5.43                             174   -0.4510 13.2 173 
 BAR2 SZ I        1422  7.01        16.1 0.32            166           13.2 173 
 BRR  HZ EP       1421 52.65                             152   -0.1810 71.9 308 
 BRR  HN ES       1422  9.86                             152    0.8310 71.9 308 
 BRR  HN I        1422 10.36        22.7 0.28            148           71.9 308 
 RUS  HZ EP       1421 54.99                             146    0.2210 91.3 172 
 RUS  HN ES       1422 12.57                             146    0.0810 91.3 172 
 PTB  HZ EP       1421 57.57                             133   -0.48 9  141 262 
 PTB  HN ES       1422 18.09                             133   -0.25 9  141 262 
 PTB  HN I        1422 24.23        15.0 0.28            129            141 262 
 NOR  HZ EP       1422  6.46                             119    0.01 8  224 236 
 NOR  HN ES       1422 33.33                             119    0.04 8  224 236 
 NOR  HN I        1422 44.10        10.1 0.16            117            224 236 
 CHI  HZ EP       1422  8.93                             117    0.59 8  238 194 
                                                                                
