 2014  128 1138 20.6 L   6.818 -73.162141.3  RSN 11 0.5 2.0LRSN                1
 GAP=134        1.32       3.4     5.3  7.7 -0.2961E+01  0.1395E+02 -0.2115E+01E
 Epicentro: LOS SANTOS - SANTANDER                                             3
 ACTION:UPD 14-03-13 09:59 OP:ep   STATUS:               ID:20140128113820 L   I
 OLDACT:REG 14-01-28 16:41 OP:fm   STATUS:               ID:20140128113000     3
 2014-01-28-1130-00M.COL___285                                                 6
 STAT SP IPHASW D HRMM SECON CODA AMPLIT PERI AZIMU VELO AIN AR TRES W  DIS CAZ7
 BAR2 SZ EP       1138 39.98                             169    0.2210 25.1 185 
 BAR2 SZ ES       1138 54.80                             169    0.1210 25.1 185 
 BAR2 SZ I        1138 56.05        54.5 0.22            170           25.1 185 
 PAM  SZ EP       1138 42.77                             150    0.4210 77.0  42 
 PAM  SN ES       1138 59.72                             150    0.4310 77.0  42 
 PAM  SZ I        1139  2.01        20.1 0.50            154           77.0  42 
 RUS  HZ EP       1138 43.84                             142   -0.2610  103 175 
 RUS  HN ES       1139  2.29                             142   -0.1210  103 175 
 RUS  HZ I        1139  3.71         9.3 0.32            145            103 175 
 PTB  HZ EP       1138 46.75                             131   -0.36 9  146 258 
 PTB  HN ES       1139  7.50                             131   -0.27 9  146 258 
 PTB  HZ I        1139 10.09        13.3 0.14            132            146 258 
 OCA  HZ EP       1138 48.91                             129    0.52 9  158 354 
 OCA  HN ES       1139  8.57                             129   -1.46 9  158 354 
 OCA  HZ I        1139 13.38         9.4 0.22            131            158 354 
 SPBC HZ EP       1138 48.58                             128   -0.26 9  164 218 
 SPBC HN ES       1139 11.32                             128    0.49 9  164 218 
 SPBC HZ I        1139 15.94        10.0 0.18            129            164 218 
 ZAR  HZ EP       1138 53.23                             122    0.69 9  202 292 
 ZAR  HN ES       1139 18.47                             122    1.05 9  202 292 
 ZAR  HZ I        1139 24.65        17.1 0.36            123            202 292 
 NOR  HZ EP       1138 56.26                             118    0.18 8  234 234 
 NOR  HN ES       1139 23.09                             118   -0.63 8  234 234 
 NOR  HZ I        1139 28.19         5.0 0.18            119            234 234 
 SML  HZ EP       1138 56.67                             117   -0.06 8  241 335 
 SML  HN ES       1139 24.41                             117   -0.47 8  241 335 
 SML  HZ I        1139 28.13        12.1 0.10            118            241 335 
 CHI  HZ EP       1138 58.16                             116   -0.09 8  250 195 
 CHI  HN ES       1139 27.17                             116   -0.42 8  250 195 
 CHI  HZ I        1139 30.76         2.6 0.28            118            250 195 
 GUY2CHZ EP   4   1139  6.44                             111    2.44 0  301 234 
 GUY2CHN ES   4   1139 37.58                             111   -0.25 0  301 234 
 GUY2CHZ I        1139 44.99         2.0 0.24                           301 234 
                                                                                
