 2013  928 1825 51.2 L   6.752 -73.159140.3  RSN  7 0.5 1.6LRSN                1
 GAP=137        1.10       6.3     5.8  8.4  0.3591E+01  0.7326E+01 -0.3370E+01E
 Epicentro: LOS SANTOS - SANTANDER                                             3
 ACTION:UPD 13-10-22 09:25 OP:ep   STATUS:               ID:20130928182551 L   I
 OLDACT:REG 13-09-28 16:03 OP:jn   STATUS:               ID:20130928181959     3
 2013-09-28-1819-59M.COL___272                                                 6
 STAT SP IPHASW D HRMM SECON CODA AMPLIT PERI AZIMU VELO AIN AR TRES W  DIS CAZ7
 BAR2 SZ EP       1826 10.20                             173    0.1610 17.8 188 
 BAR2 SZ ES       1826 24.48                             173   -0.2810 17.8 188 
 BAR2 SZ I        1826 25.83        10.3 0.12            172           17.8 188 
 BRR  HZ EP       1826 12.05                             151    0.2310 72.7 303 
 BRR  HN ES       1826 28.38                             151    0.4610 72.7 303 
 BRR  HZ I        1826 30.42        11.3 0.16            150           72.7 303 
 PAM  SZ EP       1826 13.06                             148   -0.0710 82.5  38 
 PAM  SN ES   1   1826 29.78                             148   -0.47 7 82.5  38 
 PAM  SZ I        1826 32.18         7.3 0.58            151           82.5  38 
 RUS  HZ EP   1   1826 14.24                             144    0.23 7 95.4 175 
 RUS  HN ES   1   1826 32.39                             144    0.57 7 95.4 175 
 RUS  HZ I        1826 34.17         3.4 0.32            146           95.4 175 
 PTB  HZ EP       1826 16.87                             131   -0.61 9  145 261 
 PTB  HN ES   1   1826 36.95                             131   -1.05 7  145 261 
 PTB  HZ I        1826 41.09         5.9 0.22            132            145 261 
 ZAR  HN ES   1   1826 49.45                             121    1.01 6  205 294 
 ZAR  HZ I        1826 53.56         4.1 0.24            122            205 294 
 SML  HE ES   2   1826 56.48                             116   -0.19 4  248 336 
                                                                                
