 2015  228 1626 50.8 L   6.758 -73.136146.9  RSN  5 0.5 1.7LRSN                1
 GAP=140        1.12       6.8     6.7  8.8 -0.1521E+02  0.1490E+02 -0.6059E+01E
 Epicentro: LOS SANTOS - SANTANDER                                             3
 ACTION:UPD 15-04-30 21:29 OP:nd   STATUS:               ID:20150228162650 L   I
 OLDACT:UP  15-03-01 00:59 OP:mh   STATUS:               ID:20150228161748     3
 OLDACT:REG 15-02-28 22:20 OP:y    STATUS:               ID:20150228161748     3
 2015-02-28-1617-48M.COL___293                                                 6
 STAT SP IPHASW D HRMM SECON CODA AMPLIT PERI AZIMU VELO AIN AR TRES W  DIS CAZ7
 BAR2 EZ EP   1   1627 10.67                             172    0.16 7 19.1 196 
 BAR2 EZ ES       1627 26.14                             172    0.2810 19.1 196 
 BAR2 EZ I        1627 28.75        11.5 0.27            171           19.1 196 
 PAM  SZ EP       1627 13.35                             150    0.0210 80.3  37 
 PAM  SN ES   1   1627 30.62                             150   -0.27 7 80.3  37 
 PAM  SZ I        1627 33.21         6.4 0.24            155           80.3  37 
 RUS  HZ EP       1627 14.85                             145    0.5010 95.9 176 
 RUS  HN ES       1627 32.35                             145   -0.3610 95.9 176 
 RUS  HZ I        1627 35.32         5.1 0.22            149           95.9 176 
 PTB  HZ EP       1627 18.41                             132    0.51 9  148 261 
 PTB  HN ES       1627 38.71                             132   -0.31 9  148 261 
 PTB  HZ I        1627 44.60         9.7 0.42            133            148 261 
 SPBC HZ EP       1627 18.17                             130   -0.97 9  160 220 
 SPBC HN ES   1   1627 41.78                             130    0.56 7  160 220 
 SPBC HZ I        1627 45.53        10.4 0.40            132            160 220 
                                                                                
