 2013  828 1108 21.7 L   6.853 -73.275127.4  RSN  8 0.5 1.6LRSN                1
 GAP=162        1.10       4.8     9.0  9.2  0.3697E+01  0.3075E+02 -0.7284E+01E
 Epicentro: ZAPATOCA - SANTANDER                                               3
 ACTION:UPD 14-01-14 09:07 OP:ep   STATUS:               ID:20130828110821 L   I
 OLDACT:REG 13-08-28 19:26 OP:jn   STATUS:               ID:20130828110635     3
 2013-08-28-1106-35M.COL___218                                                 6
 STAT SP IPHASW D HRMM SECON CODA AMPLIT PERI AZIMU VELO AIN AR TRES W  DIS CAZ7
 BAR2 SZ EP       11 8 39.98                             166    0.7010 30.6 160 
 BAR2 SZ ES       11 8 52.60                             166   -0.4210 30.6 160 
 BRR  HZ EP       11 8 40.42                             155    0.4510 55.9 300 
 BRR  HN ES       11 8 54.53                             155    0.2810 55.9 300 
 RUS  HN ES   1   11 9  1.57                             137   -0.35 7  108 169 
 RUS  HZ I        11 9  3.34         3.0 0.32            137            108 169 
 PTB  HZ EP       11 8 45.24                             130   -0.75 9  135 255 
 OCA  HN ES   1   11 9  7.98                             126   -0.42 7  153 358 
 OCA  HZ I        11 9 12.98        10.0 0.26            125            153 358 
 NOR  HN ES   1   11 9 22.25                             115    0.31 6  227 231 
 NOR  HZ I        11 9 23.44         5.1 0.24            115            227 231 
 SML  HZ EP   1   11 8 56.20                             114    0.12 6  233 338 
 SML  HE ES   1   11 9 22.63                             114   -0.31 6  233 338 
 MACC HZ E      C 11 7 29.49                                            524 187 
                                                                                
