 2012  228 1554  5.0 L   6.793 -73.404118.0  RSN  4 0.4 1.5LRSN                1
 GAP=177        0.79       8.4     9.7 10.4  0.5271E+02  0.1812E+02  0.2469E+02E
 ACTION:UP  12-03-07 16:35 OP:epov STATUS:               ID:20120228155405 L   I
 2012-02-28-1550-00M.COL___192                                                 6
 STAT SP IPHASW D HRMM SECON CODA AMPLIT PERI AZIMU VELO AIN AR TRES W  DIS CAZ7
 BAR2 SZ ES   1   1554 33.92                             163   -0.57 7 33.1 132 
 BAR2 SZ I        1554 35.57         6.7 0.29                          33.1 132 
 BRR  HZ EP   1   1554 21.68                             156   -0.18 7 48.6 316 
 BRR  HZ I        1554 22.48         9.8 0.37                          48.6 316 
 BRR  HE ES   1   1554 35.57                             156    0.53 7 48.6 316 
 RUS  HZ EP   1   1554 26.49                             136   -0.03 7  106 160 
 RUS  HE ES   1   1554 43.79                             136    0.45 7  106 160 
 PTB  HN ES   2   1554 43.96                             131   -0.44 5  120 257 
                                                                                
