 2017  628 1707 43.9 L   6.824 -73.136149.6  RSN 12 0.5 2.3LRSN                1
 GAP=216        1.14       4.8     4.8  6.5  0.8698E+01  0.6525E+01  0.8315E+01E
 Epicentro: LOS SANTOS - SANTANDER                                             3
 ACTION:UPD 17-09-14 16:56 OP:jn   STATUS:               ID:20170628170743 L   I
 OLDACT:REG 17-06-28 21:14 OP:osc  STATUS:               ID:20170628170739     3
 2017-06-28-1708-00M.COL___364                                                 6
 STAT SP IPHASW D HRMM SECON CODA AMPLIT PERI AZIMU VELO AIN AR TRES W  DIS CAZ7
 BAR2 EZ EP       17 8  3.85                             170   -0.1510 26.2 191 
 BAR2 EZ ES       17 8 19.13                             170   -0.5810 26.2 191 
 BAR2 EZ I        17 8 23.32        21.7 0.18            170           26.2 191 
 BRR  HZ EP       17 8  5.75                             153    0.3610 70.9 296 
 BRR  HE ES       17 8 22.82                             153    0.6210 70.9 296 
 BRR  HZ I        17 8 26.80        18.7 0.15            155           70.9 296 
 PTB  HZ EP       17 8 10.59                             133   -0.68 9  149 258 
 PTB  HE ES       17 8 32.33                             133   -0.33 9  149 258 
 PTB  HZ I        17 8 33.56        19.6 0.26            134            149 258 
 SPBC HE ES   2   17 8 36.55                             129    0.99 5  166 219 
 YPLC HZ EP       17 8 14.25                             127    0.14 9  179 152 
 YPLC HE ES       17 8 38.29                             127    0.59 9  179 152 
 YPLC HZ I        17 8 45.56        12.9 0.34            130            179 152 
 ZAR  HZ EP       17 8 16.95                             123    0.41 9  204 291 
 ZAR  HE ES       17 8 42.07                             123    0.03 9  204 291 
 ZAR  HZ I        17 8 48.13        28.3 0.30            125            204 291 
 NOR  HZ EP       17 8 20.39                             119    0.33 8  237 234 
 NOR  HE ES       17 8 47.96                             119   -0.34 8  237 234 
 NOR  HZ I        17 8 52.12        12.8 0.44            121            237 234 
 CHI  HZ EP       17 8 21.46                             118   -0.61 8  252 195 
 CHI  HN ES       17 8 51.33                             118   -0.56 8  252 195 
 HEL  HZ EP   2   17 8 25.89                             115    1.45 4  274 255 
 HEL  HN ES       17 8 56.26                             115    0.15 8  274 255 
 URE  HZ EP       17 8 24.26                             114   -0.84 7  284 291 
 URE  HE ES   4   17 8 56.00                             114   -1.28 0  284 291 
 URE  HZ I        17 9  4.62        16.8 0.24            116            284 291 
 GUY2CHZ EP       17 8 28.57                             113    0.66 7  304 234 
 GUY2CHE ES   4   17 9  3.54                             113    1.27 0  304 234 
 GUY2CHZ I        17 9  9.19        12.5 0.30                           304 234 
 ORTC HZ EP       17 8 37.90                             107   -0.33 6  398 216 
 ORTC HN ES       17 9 21.26                             107    0.62 6  398 216 
 ORTC HZ I        17 9 27.10         5.7 0.34            108            398 216 
                                                                                
