 2010  228 1139 44.3 L   6.772 -73.144151.0  RSN  5 0.5 1.8LRSN                1
 GAP=183        0.80       5.9    14.7  9.0  0.4597E+02 -0.6156E+02 -0.2084E+02E
 Epicentro: LOS SANTOS - SANTANDER                                             3
 ACTION:UP  10-08-24 09:51 OP:vdl  STATUS:               ID:20100228113944 L   I
 2010-02-28-1137-45S.COL___093                                                 6
 STAT SP IPHASW D HRMM SECON CODA AMPLIT PERI AZIMU VELO SNR AR TRES W  DIS CAZ7
 BAR2 SZ EP       1140  4.38                             170    -0.110   20 192 
 BAR2 SZ ES   1   1140 19.98                             170    -0.3 7   20 192 
 BRR  HZ EP       1140  6.22                             151     0.110   73 301 
 BRR  HZ I        1140  6.37        32.0 0.08                            73 301 
 BRR  HN ES   1   1140 23.55                             151     0.4 7   73 301 
 RUS  BZ EP       1140  8.75                             145     0.410   97 176 
 RUS  BE ES   2   1140 27.22                             145     0.1 5   97 176 
 RUS  BZ I        1140 27.82         3.7 0.48                            97 176 
 OCA  SZ EP       1140 13.02                             130    -0.3 9  163 353 
 OCA  SZ ES   2   1140 35.46                             130    -0.5 5  163 353 
 CHI  HN ES   3   1140 49.25                             118    -2.1 2  246 195 
                                                                                
