 2011  128 1855 59.3 L   6.771 -73.176135.8  RSN  6 0.2 1.9LRSN                1
 GAP=177        0.58       3.6     9.9  5.5 -0.5790E+01  0.2783E+02 -0.3151E+00E
 Epicentro: LOS SANTOS - SANTANDER                                             3
 ACTION:UP  11-02-08 08:43 OP:pat  STATUS:               ID:20110128185559 L   I
 2011-01-28-1840-00M.COL___139                                                 6
 STAT SP IPHASW D HRMM SECON CODA AMPLIT PERI AZIMU VELO SNR AR TRES W  DIS CAZ7
 BAR2 SZ EP       1856 17.76                             171     0.110   20 182 
 BAR2 SZ ES   1   1856 31.90                             171    -0.1 7   20 182 
 BAR2 SZ I        1856 33.83        18.4 0.36                            20 182 
 GIR2 SZ EP       1856 17.51                             165    -0.410   34 357 
 GIR2 SZ ES   2   1856 32.49                             165     0.1 5   34 357 
 RUS  HZ EP       1856 21.80                             142    -0.110   98 174 
 RUS  HZ I        1856 22.96         9.7 0.17                            98 174 
 RUS  HN ES   2   1856 39.89                             142     0.4 5   98 174 
 OCA  SZ EP       1856 27.44                             127     0.3 9  163 354 
 OCA  SZ I        1856 53.48        19.6 0.44                           163 354 
 NOR  SZ EP       1856 34.01                             117     0.0 8  230 235 
 CHI  HZ EP       1856 36.09                             115     0.1 8  245 195 
                                                                                
