 2015  628 1958 36.0 L   6.800 -73.153147.1  RSN  6 0.4 2.0LRSN                1
 GAP=182        1.01       4.6     7.8  7.5  0.1822E+02  0.1823E+01 -0.9163E+01E
 Epicentro: LOS SANTOS - SANTANDER                                             3
 ACTION:UPD 15-09-10 22:15 OP:cam  STATUS:               ID:20150628195836 L   I
 OLDACT:REG 15-06-29 00:32 OP:mh   STATUS:               ID:20150628195749     3
 2015-06-28-1957-49M.COL___322                                                 6
 STAT SP IPHASW D HRMM SECON CODA AMPLIT PERI AZIMU VELO AIN AR TRES W  DIS CAZ7
 BAR2 EZ EP       1958 55.48                             171   -0.3510 23.2 188 
 BAR2 EZ ES       1959 10.88                             171   -0.3810 23.2 188 
 BAR2 EZ I        1959 11.83        19.3 0.30            171           23.2 188 
 BRR  HZ EP       1958 57.65                             153    0.3510 70.5 299 
 BRR  HN ES       1959 14.20                             153    0.3310 70.5 299 
 BRR  HZ I        1959 17.74        15.0 0.40            152           70.5 299 
 RUS  HZ EP       1959  0.12                             144    0.1910  101 176 
 RUS  HN ES       1959 18.57                             144    0.0110  101 176 
 RUS  HZ I        1959 20.30         7.5 0.30            147            101 176 
 OCA  HN ES       1959 27.21                             130    0.61 9  160 353 
 OCA  HZ I        1959 28.77        23.1 0.20            131            160 353 
 ZAR  HZ EP   1   1959  9.18                             123    0.68 6  203 292 
 ZAR  HN ES       1959 33.54                             123   -0.27 9  203 292 
 ZAR  HZ I        1959 36.52         6.6 0.16            124            203 292 
 SML  HZ EP       1959 12.18                             118   -0.53 8  243 335 
 SML  HN ES       1959 40.66                             118   -0.64 8  243 335 
 SML  HZ I        1959 43.16        11.1 0.10            119            243 335 
                                                                                
