 2011  728 1402  4.1 L   6.738 -73.117137.8  RSN  5 0.3 1.8LRSN                1
 GAP=160        0.56       4.5     8.3  6.0  0.1771E+02 -0.1634E+02 -0.7936E+01E
 Epicentro: JORDAN - SANTANDER                                                 3
 ACTION:UPD 12-07-25 14:03 OP:epov STATUS:               ID:20110728140204 L   I
 2011-07-28-1359-53S.COL___138                                                 6
 STAT SP IPHASW D HRMM SECON CODA AMPLIT PERI AZIMU VELO AIN AR TRES W  DIS CAZ7
 BAR2 SZ EP       14 2 22.85                             172    0.1910 17.7 204 
 BAR2 SZ ES   1   14 2 37.48                             172    0.35 7 17.7 204 
 BAR2 SZ I        14 2 40.88        17.8 0.33                          17.7 204 
 BRR  HZ EP       14 2 24.79                             149    0.0210 77.4 302 
 BRR  HN ES   1   14 2 40.70                             149   -0.19 7 77.4 302 
 BRR  HZ I        14 2 44.49        21.3 0.13                          77.4 302 
 RUS  HZ EP   1   14 2 26.73                             144    0.18 7 93.5 178 
 RUS  HN ES   1   14 2 43.61                             144   -0.46 7 93.5 178 
 RUS  HZ I        14 2 46.81         5.7 0.16                          93.5 178 
 BRI  SZ EP   1   14 2 27.39                             138   -0.28 7  114  18 
 BRI  SZ I        14 2 48.15        13.4 0.21                           114  18 
 CHI  HZ EP   2   14 2 40.73                             116    0.00 4  243 196 
                                                                                
