 2010  628 1623 16.6 L   6.774 -73.065150.2  RSN 11 0.4 2.1LRSN                1
 GAP=165        0.64       3.1     5.2  5.4 -0.7142E+01  0.1232E+01  0.4947E+00E
 Epicentro: LOS SANTOS - SANTANDER                                             3
 ACTION:UP  10-08-24 10:13 OP:vdl  STATUS:               ID:20100628162316 L   I
 2010-06-28-1619-32S.COL___118                                                 6
 STAT SP IPHASW D HRMM SECON CODA AMPLIT PERI AZIMU VELO SNR AR TRES W  DIS CAZ7
 BAR2 SZ EP   2   1623 36.49                             171    -0.3 5   24 213 
 BAR2 SZ ES   2   1623 51.77                             171    -0.7 5   24 213 
 BRR  HZ IP     D 1623 38.47                             150    -0.310   80 297 
 BRR  HE ES   1   1623 56.00                             150    -0.1 7   80 297 
 BRR  HZ I        1623 59.94        19.3 0.09                            80 297 
 RUS  HZ EP   1   1623 40.46                             146    -0.1 7   97 181 
 RUS  HE ES   1   1623 59.55                             146     0.3 7   97 181 
 RUS  HZ I        1624  0.93        11.9 0.23                            97 181 
 BRI  SZ IP       1623 41.17                             142     0.310  108  16 
 BRI  SZ ES   2   1624  0.41                             142     0.5 5  108  16 
 GUE  SZ EP   1   1623 41.47                             140    -0.4 7  118   8 
 GRA  SZ IP       1623 42.30                             138     0.010  126  13 
 GRA  SZ ES   1   1624  2.62                             138     0.3 7  126  13 
 OCA  SZ EP   2   1623 45.01                             130    -0.6 5  164 350 
 OCA  SZ I        1624 11.70        14.3 0.34                           164 350 
 CHI  HZ EP   2   1623 54.53                             118     0.0 4  248 197 
 CHI  HE ES   2   1624 24.35                             118     0.3 4  248 197 
 CHI  HZ I        1624 29.22         5.7 0.35                           248 197 
 HEL  HZ EP   2   1623 58.10                             115     0.2 4  280 257 
 HEL  HN ES   2   1624 31.05                             115     0.9 4  280 257 
 HEL  HZ I        1624 34.71         6.0 0.57                           280 257 
 RREF HZ EP   2   1624  3.61                             111     0.1 3  327 231 
 RREF HN ES   2   1624 40.23                             111     0.1 3  327 231 
 RREF HZ I        1624 47.47         6.5 0.24                           327 231 
 PRA  HZ EP   2   1624 10.46                             107     0.0 3  394 211 
 PRA  HN ES   2   1624 52.77                             107     0.2 3  394 211 
 PRA  HZ I        1625  0.96         4.2 0.38                           394 211 
                                                                                
