 2016  428 1033 45.5 L   6.813 -73.145143.9  RSN  9 0.3 2.1LRSN                1
 GAP=136        0.76       2.8     3.1  5.0 -0.1451E+01  0.5580E+01  0.1072E+01E
 Epicentro: LOS SANTOS - SANTANDER                                             3
 ACTION:UPD 16-05-05 14:24 OP:rebc STATUS:               ID:20160428103345 L   I
 OLDACT:REG 16-04-28 21:38 OP:cara STATUS:               ID:20160428102745     3
 2016-04-28-1027-45M.COL___312                                                 6
 STAT SP IPHASW D HRMM SECON CODA AMPLIT PERI AZIMU VELO AIN AR TRES W  DIS CAZ7
 BAR2 EZ IP       1034  5.13                             170    0.1810 24.8 190 
 BAR2 EZ ES       1034 19.58                             170   -0.5310 24.8 190 
 BAR2 EZ I        1034 21.41        59.4 0.22            170           24.8 190 
 PAM  EZ EP       1034  7.80                             151    0.3410 76.2  40 
 PAM  EN ES       1034 24.54                             151   -0.0410 76.2  40 
 PAM  EZ I        1034 27.31        21.7 0.40            155           76.2  40 
 RUS  HZ EP       1034  9.11                             143   -0.0810  102 176 
 RUS  HN ES       1034 28.13                             143    0.4710  102 176 
 RUS  HZ I        1034 29.55         8.3 0.48            146            102 176 
 PTB  HZ EP       1034 12.12                             131   -0.25 9  148 258 
 PTB  HN ES       1034 33.09                             131   -0.22 9  148 258 
 PTB  HZ I        1034 40.32        23.5 0.40            132            148 258 
 SPBC HZ IP       1034 14.16                             128    0.17 9  164 219 
 SPBC HN ES       1034 36.31                             128    0.11 9  164 219 
 SPBC HZ I        1034 39.39        18.7 0.12            130            164 219 
 ZAR  HZ EP       1034 17.38                             122   -0.41 9  204 292 
 ZAR  HN ES       1034 43.41                             122    0.44 9  204 292 
 ZAR  HZ I        1034 48.54        14.9 0.34            123            204 292 
 NOR  HE ES       1034 49.20                             118    0.10 8  236 234 
 NOR  HZ I        1034 52.53         9.6 0.18            120            236 234 
 CHI  HZ EP       1034 22.94                             116   -0.33 8  250 195 
 CHI  HE ES       1034 52.44                             116   -0.28 8  250 195 
 CHI  HZ I        1034 54.76         8.9 0.34            119            250 195 
 GUY2CHZ EP   4   1034 30.01                             112    0.86 0  302 235 
 GUY2CHN ES       1035  3.41                             112    0.23 7  302 235 
 GUY2CHZ I        1035 11.12         6.5 0.38                           302 235 
                                                                                
