 2011 1228 1053 46.0 L   6.829 -73.130149.4  RSN  5 0.1 1.3LRSN                1
 GAP=246        0.35       4.8     4.8  8.6  0.1092E+02  0.4889E+01 -0.6146E+01E
 Epicentro: LOS SANTOS - SANTANDER                                             3
 ACTION:UPD 12-07-13 16:19 OP:ep   STATUS:               ID:20111228105346 L   I
 2011-12-28-1050-00M.COL___186                                                 6
 STAT SP IPHASW D HRMM SECON CODA AMPLIT PERI AZIMU VELO AIN AR TRES W  DIS CAZ7
 BAR2 SZ EP   1   1054  6.26                             170    0.13 7 26.9 193 
 BAR2 SZ I        1054 24.36         4.8 0.36                          26.9 193 
 RUS  HE ES   2   1054 29.11                             144   -0.19 5  104 177 
 PTB  HZ EP   1   1054 13.32                             132   -0.15 7  150 258 
 PTB  HN ES   2   1054 35.06                             132    0.16 5  150 258 
 PTB  HZ I        1054 36.84         2.4 0.13                           150 258 
 ZAR  HN ES   2   1054 44.23                             123   -0.02 4  205 291 
 VIL  SE ES   2   1055  4.39                             112    0.11 4  307 192 
                                                                                
