 2014  328 1040 53.0 L   6.561 -73.447118.8  RSN 11 0.5 1.9LRSN                1
 GAP= 79        0.97       2.7     3.3  6.8 -0.6381E+00  0.5827E+01 -0.4935E+01E
 Epicentro: HATO - SANTANDER                                                   3
 ACTION:UPD 14-04-09 23:21 OP:nd   STATUS:               ID:20140328104053 L   I
 OLDACT:REG 14-03-28 14:58 OP:mh   STATUS:               ID:20140328103812     3
 2014-03-28-1038-12M.COL___253                                                 6
 STAT SP IPHASW D HRMM SECON CODA AMPLIT PERI AZIMU VELO AIN AR TRES W  DIS CAZ7
 BAR2 SZ EP       1041  9.96                             165    0.3910 29.5  83 
 BAR2 SZ ES   1   1041 22.68                             165    0.18 7 29.5  83 
 BAR2 SZ I        1041 24.98        20.3 0.25            169           29.5  83 
 RUS  HZ EP       1041 12.71                             143   -0.2110 84.1 151 
 RUS  HN ES       1041 28.44                             143   -0.0110 84.1 151 
 RUS  HZ I        1041 30.26        11.5 0.25            147           84.1 151 
 PTB  HZ EP     C 1041 13.77                             134   -0.7410  112 269 
 PTB  HN ES   1   1041 30.65                             134   -0.62 7  112 269 
 PTB  HZ I        1041 33.83        18.7 0.10            135            112 269 
 SPBC HZ EP       1041 15.54                             131   -0.0010  122 215 
 SPBC HN ES       1041 32.95                             131   -0.1710  122 215 
 SPBC HZ I        1041 39.95        14.1 0.30            134            122 215 
 TAM  HZ EP   1   1041 21.64                             119   -0.04 7  184  94 
 OCA  HZ EP   1   1041 22.48                             118    0.39 7  186   4 
 OCA  HE ES       1041 44.71                             118   -0.06 9  186   4 
 OCA  HZ I        1041 49.66         9.6 0.16            121            186   4 
 ZAR  HZ EP       1041 22.23                             118    0.25 9  187 304 
 ZAR  HN ES       1041 45.14                             118    0.56 9  187 304 
 ZAR  HZ I        1041 48.61         7.9 0.29            120            187 304 
 NOR  HZ EP   1   1041 21.75                             117   -0.87 7  192 235 
 NOR  HN ES       1041 46.12                             117    0.41 9  192 235 
 NOR  HZ I        1041 50.74         5.9 0.14            120            192 235 
 CHI  HZ EP   1   1041 25.20                             114   -0.47 6  216 188 
 CHI  HN ES   1   1041 51.99                             114    0.84 6  216 188 
 CHI  HZ I        1041 56.33         3.8 0.29            118            216 188 
 HEL  HZ EP   1   1041 28.70                             112    1.06 6  234 260 
 HEL  HN ES       1041 54.62                             112   -0.03 8  234 260 
 SML  HZ EP   1   1041 29.62                             110   -0.19 6  257 345 
 SML  HN ES       1041 58.24                             110   -0.27 8  257 345 
 SML  HZ I        1042  7.50         9.4 0.08            112            257 345 
 URE  HN ES   4   1041 58.52                             109   -1.72 0  265 300 
                                                                                
