 2015 1028 1128  2.8 L   6.137 -73.719108.9  RSN  7 0.2 1.5LRSN                1
 GAP= 76        0.34       1.6     2.1  3.8 -0.4393E+00  0.3905E+01 -0.5909E+00E
 Epicentro: CHIPATA - SANTANDER                                                3
 ACTION:UPD 15-12-22 20:43 OP:cam  STATUS:               ID:20151028112802 L   I
 OLDACT:REG 15-10-28 21:15 OP:ar   STATUS:               ID:20151028111748     3
 2015-10-28-1117-48M.COL___316                                                 6
 STAT SP IPHASW D HRMM SECON CODA AMPLIT PERI AZIMU VELO AIN AR TRES W  DIS CAZ7
 SPBC HZ EP   2   1128 19.79                             146   -0.07 5 66.3 216 
 SPBC HN ES   2   1128 32.98                             146   -0.23 5 66.3 216 
 SPBC HZ I        1128 35.62        13.4 0.23            159           66.3 216 
 RUS  HZ EP       1128 21.02                             143   -0.0510 75.4 111 
 RUS  HE ES   2   1128 35.07                             143   -0.28 5 75.4 111 
 RUS  HZ I        1128 36.55         3.5 0.30            159           75.4 111 
 BAR2 EZ EP     D 1128 21.07                             142    0.1710 77.8  50 
 BAR2 EZ ES       1128 35.18                             142    0.1410 77.8  50 
 BRR  HZ EP       1128 22.92                             132   -0.1110  107   0 
 BRR  HE ES   2   1128 38.54                             132   -0.30 5  107   0 
 BRR  HZ I        1129  8.56        12.2 0.30            136            107   0 
 NOR  HZ EP   2   1128 26.76                             123    0.26 5  142 244 
 NOR  HN ES   2   1128 45.22                             123    0.21 5  142 244 
 NOR  HZ I        1128 47.92         8.9 0.26            135            142 244 
 CHI  HZ EP   2   1128 29.35                             119   -0.17 5  167 180 
 CHI  HN ES   2   1128 50.50                             119    0.11 5  167 180 
 CHI  HZ I        1128 54.72         2.1 0.22            137            167 180 
 ZAR  HZ EP       1128 32.15                             114   -0.03 9  196 320 
 ZAR  HN ES   2   1128 55.14                             114    0.01 4  196 320 
 ZAR  HZ I        1128 59.07         5.9 0.34            122            196 320 
                                                                                
