 2014  828 1559 11.6 L   6.781 -73.126144.5  RSN  6 0.4 1.5LRSN                1
 GAP=140        1.07       5.0     5.3  7.3 -0.6606E+01  0.5403E+01  0.3978E+01E
 Epicentro: LOS SANTOS - SANTANDER                                             3
 ACTION:UPD 14-09-15 21:53 OP:nd   STATUS:               ID:20140828155911 L   I
 OLDACT:REG 14-08-28 20:45 OP:stll STATUS:               ID:20140828155816     3
 2014-08-28-1558-16M.COL___263                                                 6
 STAT SP IPHASW D HRMM SECON CODA AMPLIT PERI AZIMU VELO AIN AR TRES W  DIS CAZ7
 BAR2 SZ EP       1559 31.12                             171    0.0510 21.8 197 
 BAR2 SZ ES       1559 46.15                             171   -0.0910 21.8 197 
 BAR2 SZ I        1559 48.79         5.4 0.18            171           21.8 197 
 BRR  HZ EP       1559 33.25                             151    0.4510 74.1 299 
 BRR  HN ES       1559 50.07                             151    0.7510 74.1 299 
 PAM  SZ EP       1559 33.90                             150    0.1910 77.6  37 
 PAM  SZ I        1559 34.30         8.7 0.26            152           77.6  37 
 PAM  SN ES       1559 50.26                             150   -0.6910 77.6  37 
 RUS  HZ EP       1559 35.29                             144    0.2010 98.4 177 
 RUS  HN ES       1559 53.49                             144    0.1010 98.4 177 
 RUS  HZ I        1559 55.01         3.7 0.36            145           98.4 177 
 PTB  HZ EP       1559 38.15                             131   -0.50 9  150 260 
 PTB  HN ES       1559 59.12                             131   -0.61 9  150 260 
 PTB  HZ I        16 0  1.44         3.6 0.14            133            150 260 
 SPBC HZ EP       1559 39.97                             129   -0.03 9  163 220 
 SPBC HE ES       16 0  2.16                             129    0.02 9  163 220 
                                                                                
