 2010 1128 1332 15.7 L   7.202 -74.001  6.0  RSN  5 0.2 1.4LRSN                1
 GAP=275        0.50       3.6     5.3  6.1 -0.2945E+01  0.1332E+02  0.9184E+01E
 Epicentro: PUERTO WILCHES - SANTANDER                                         3
 ACTION:UP  10-12-17 16:55 OP:REBC STATUS:               ID:20101128133215 L   I
 2010-11-28-1331-06S.COL___132                                                 6
 STAT SP IPHASW D HRMM SECON CODA AMPLIT PERI AZIMU VELO SNR AR TRES W  DIS CAZ7
 BRR  HZ IP     D 1332 21.15                              92    -0.210   34 108 
 BRR  HN ES   1   1332 25.59                              92    -0.2 7   34 108 
 BRR  HZ I        1332 27.62        20.7 0.30                            34 108 
 BTL  SZ EP   2   1332 29.65                              91     0.0 5   87 111 
 BAR2 SZ EP   2   1332 34.03                              91     0.4 5  113 127 
 BAR2 SZ ES   2   1332 47.94                              91     0.4 5  113 127 
 GRA  SZ ES   1   1332 58.23                              90     0.2 7  152  60 
 GRA  SZ I        1332 59.54        11.6 0.28                           152  60 
 RUS  HZ EP   1   1332 43.41                              56     0.0 7  177 145 
 RUS  HN ES   1   1333  5.22                              56     0.1 7  177 145 
 RUS  HZ I        1333  6.67         3.4 0.16                           177 145 
                                                                                
