 2016 1028 1601 53.7 L   6.894 -73.171124.1  RSN  5 0.2 1.1LRSN                1
 GAP=128        0.44       2.7     3.8  4.9 -0.4311E+01  0.8719E+01 -0.4632E+01E
 Epicentro: BETULIA - SANTANDER                                                3
 ACTION:UPD 16-11-09 19:23 OP:rebc STATUS:               ID:20161028160153 L   I
 OLDACT:UP  16-10-29 01:24 OP:edw  STATUS:               ID:20161028155747     3
 OLDACT:UP  16-10-29 01:24 OP:edw  STATUS:               ID:20161028155747     3
 OLDACT:REG 16-10-28 20:42 OP:edw  STATUS:               ID:20161028155747     3
 2016-10-28-1558-00M.COL___346                                                 6
 STAT SP IPHASW D HRMM SECON CODA AMPLIT PERI AZIMU VELO AIN AR TRES W  DIS CAZ7
 BAR2 EZ EP       16 2 10.72                             164   -0.3010 33.4 182 
 BAR2 EZ ES       16 2 24.62                             164    0.1010 33.4 182 
 BRR  HZ EP       16 2 12.25                             151    0.1310 64.2 292 
 PAM  EZ EP       16 2 13.44                             148    0.1610 71.7  47 
 PAM  EN ES       16 2 28.46                             148   -0.1010 71.7  47 
 PAM  EZ I        16 2 30.91         4.7 0.28            151           71.7  47 
 RUS  HZ EP   4   16 2 15.12                             136   -1.14 0  111 175 
 RUS  HN ES       16 2 33.90                             136    0.0410  111 175 
 RUS  HZ I        16 2 35.34         1.3 0.20            139            111 175 
 PTB  HZ EP   2   16 2 19.04                             127    0.08 5  147 255 
 PTB  HN ES   2   16 2 38.47                             127   -0.19 5  147 255 
 PTB  HZ I        16 2 41.12         2.3 0.24            128            147 255 
 NOR  HZ EP   4   16 2 33.85                             113    5.13 0  239 232 
 NOR  HN ES   4   16 2 53.95                             113   -2.07 0  239 232 
                                                                                
