 2012 1228 1644 22.4 L   6.586 -73.413120.5  RSN  7 0.3 2.2LRSN                1
 GAP=118        0.67       3.5     3.9  5.5  0.4121E+01  0.1263E+02  0.6650E+01E
 Epicentro: HATO - SANTANDER                                                   3
 ACTION:UPD 13-01-04 14:31 OP:ep   STATUS:               ID:20121228164422 L   I
 2012-12-28-1640-00M.COL___242                                                 6
 STAT SP IPHASW D HRMM SECON CODA AMPLIT PERI AZIMU VELO AIN AR TRES W  DIS CAZ7
 BAR2 SZ IP       1644 39.19                             167    0.1210 25.5  88 
 BAR2 SZ ES       1644 52.05                             167   -0.0110 25.5  88 
 BAR2 SZ I        1644 53.45        45.6 0.11                          25.5  88 
 BRR  HZ EP       1644 40.68                             149    0.1010 66.4 330 
 BRR  HN ES       1644 54.82                             149    0.0610 66.4 330 
 BRR  HZ I        1644 55.74        45.4 0.16                          66.4 330 
 RUS  HZ EP       1644 42.42                             143   -0.1310 84.9 154 
 RUS  HN ES   1   1644 58.24                             143   -0.01 7 84.9 154 
 RUS  HN I        1645  0.24        24.2 0.36                          84.9 154 
 PTB  HZ EP   1   1644 43.40                             133   -0.99 7  115 268 
 PTB  HZ I        1645  3.69        36.0 0.22                           115 268 
 ZAR  HZ EP   1   1644 51.67                             118    0.01 7  188 302 
 ZAR  HE ES   1   1645 14.46                             118   -0.01 7  188 302 
 ZAR  HZ I        1645 22.02        15.6 0.19                           188 302 
 NOR  HZ EP       1644 52.96                             117    0.34 9  197 235 
 NOR  HN ES       1645 16.24                             117    0.06 9  197 235 
 NOR  HZ I        1645 20.31        14.7 0.16                           197 235 
 HEL  HZ EP   1   1644 57.83                             112    0.24 6  238 260 
 HEL  HZ I        1645 29.32         9.2 0.24                           238 260 
                                                                                
