 2012 1228 1651 33.7 L   6.762 -73.159145.3  RSN  6 0.3 2.0LRSN                1
 GAP=233        0.79       5.4     5.3  6.5  0.1526E+02  0.9600E+01  0.4661E+01E
 Epicentro: LOS SANTOS - SANTANDER                                             3
 ACTION:UPD 13-01-04 14:31 OP:ep   STATUS:               ID:20121228165133 L   I
 2012-12-28-1650-00M.COL___242                                                 6
 STAT SP IPHASW D HRMM SECON CODA AMPLIT PERI AZIMU VELO AIN AR TRES W  DIS CAZ7
 BAR2 SZ EP       1651 53.13                             172   -0.0710 19.0 188 
 BAR2 SZ ES       1652  7.98                             172   -0.4310 19.0 188 
 BAR2 SZ I        1652  9.48        28.4 0.08                          19.0 188 
 BRR  HZ EP   1   1651 55.02                             152    0.17 7 72.0 302 
 BRR  HZ I        1652  2.05        25.4 0.38                          72.0 302 
 BRR  HE ES       1652 11.82                             152    0.4810 72.0 302 
 RUS  HZ EP       1651 57.28                             145    0.1510 96.5 175 
 RUS  HN ES       1652 15.58                             145    0.1910 96.5 175 
 RUS  HN I        1652 17.66        21.5 0.48                          96.5 175 
 PTB  HZ EP       1652  0.07                             132   -0.37 9  146 260 
 PTB  HE ES   1   1652 20.74                             132   -0.54 7  146 260 
 PTB  HZ I        1652 25.19         9.6 0.19                           146 260 
 ZAR  HN ES       1652 31.44                             122   -0.01 9  204 293 
 ZAR  HZ I        1652 36.96        11.1 0.29                           204 293 
 NOR  HN ES   1   1652 37.05                             119    0.49 6  231 235 
 NOR  HZ I        1652 38.89         6.3 0.26                           231 235 
                                                                                
