 2015  228 1055 24.7 L   6.743 -73.199149.3  RSN  4 0.4 1.7LRSN                1
 GAP=228        0.91       7.2     9.0 11.2 -0.2403E+02 -0.4386E+02  0.3447E+02E
 Epicentro: VILLANUEVA - SANTANDER                                             3
 ACTION:UPD 15-04-30 21:29 OP:nd   STATUS:               ID:20150228105524 L   I
 OLDACT:DUP 15-02-28 23:47 OP:mh   STATUS:               ID:20150228104748d    3
 OLDACT:UP  15-02-28 23:46 OP:mh   STATUS:               ID:20150228104747     3
 OLDACT:UP  15-02-28 23:46 OP:mh   STATUS:               ID:20150228104747     3
 OLDACT:UP  15-02-28 23:46 OP:mh   STATUS:               ID:20150228104747     3
 OLDACT:UP  15-02-28 23:46 OP:mh   STATUS:               ID:20150228104747     3
 OLDACT:REG 15-02-28 21:59 OP:y    STATUS:               ID:20150228104747     3
 2015-02-28-1047-47M.COL___291                                                 6
 STAT SP IPHASW D HRMM SECON CODA AMPLIT PERI AZIMU VELO AIN AR TRES W  DIS CAZ7
 BAR2 EZ EP       1055 44.37                             173   -0.2910 16.8 174 
 BAR2 EZ I        1056  0.96                             155           16.8 174 
 BRR  HZ EP       1055 45.99                             154   -0.1610 69.5 305 
 BRR  HN ES       1056  3.21                             154    0.3310 69.5 305 
 PTB  HZ EP       1055 51.12                             134   -0.24 9  141 261 
 PTB  HN ES       1056 12.01                             134   -0.14 9  141 261 
 SPBC HZ EP       1055 53.45                             131    0.76 9  155 219 
 SPBC HN ES       1056 14.31                             131   -0.21 9  155 219 
 SPBC HZ I        1056 16.70         5.9 0.12            136            155 219 
                                                                                
