 2016  128 1031  6.3 L   6.827 -73.196143.1  RSN 12 0.4 1.9LRSN                1
 GAP=129        0.90       2.5     3.5  5.1 -0.1099E+01  0.7057E+01 -0.3413E+00E
 Epicentro: ZAPATOCA - SANTANDER                                               3
 ACTION:UPD 16-03-09 23:29 OP:cam  STATUS:               ID:20160128103106 L   I
 OLDACT:REG 16-01-29 01:39 OP:ak   STATUS:               ID:20160128102150     3
 2016-1-28-1026_102600_600.mseed                                               6
 STAT SP IPHASW D HRMM SECON CODA AMPLIT PERI AZIMU VELO AIN AR TRES W  DIS CAZ7
 BAR2 EZ EP       1031 25.60                             169   -0.0410 25.9 177 
 BAR2 EZ ES       1031 40.55                             169   -0.2010 25.9 177 
 BAR2 EZ I        1031 42.36        14.0 0.14            169           25.9 177 
 PAM  EZ EP       1031 28.72                             150    0.4210 78.9  44 
 PAM  EN ES       1031 45.72                             150    0.2510 78.9  44 
 PAM  EZ I        1031 47.91        15.1 0.46            155           78.9  44 
 RUS  HZ EP       1031 29.54                             142   -0.4810  104 173 
 RUS  HN ES       1031 48.78                             142    0.2410  104 173 
 RUS  HZ I        1031 49.56         9.7 0.34            146            104 173 
 PTB  HZ EP       1031 32.04                             132   -0.55 9  143 257 
 PTB  HN ES       1031 52.79                             132   -0.33 9  143 257 
 PTB  HZ I        1031 57.03         6.7 0.16            131            143 257 
 SPBC HZ EP       1031 34.88                             129    0.41 9  162 217 
 SPBC HN ES       1031 56.24                             129   -0.22 9  162 217 
 SPBC HZ I        1031 59.27        14.8 0.34            130            162 217 
 ZAR  HZ EP       1031 38.33                             123    0.43 9  198 292 
 ZAR  HN ES       1032  2.79                             123    0.21 9  198 292 
 ZAR  HZ I        1032 12.51         5.3 0.20            122            198 292 
 NOR  HZ EP       1031 42.35                             118    0.79 8  232 233 
 NOR  HN ES       1032  9.18                             118    0.10 8  232 233 
 NOR  HZ I        1032 17.59         6.8 0.14            119            232 233 
 SML  HZ EP       1031 42.03                             117   -0.18 8  239 336 
 SML  HN ES       1032 10.13                             117   -0.12 8  239 336 
 SML  HZ I        1032 14.13        14.6 0.08            119            239 336 
 CHI  HZ EP       1031 43.63                             116   -0.35 8  250 194 
 CHI  HN ES       1032 13.14                             116   -0.26 8  250 194 
 CHI  HZ I        1032 16.73         3.1 0.38            119            250 194 
 URE  HZ EP       1031 45.84                             114   -0.68 7  278 292 
 URE  BE ES   4   1032 15.80                             114   -2.11 0  278 292 
 URE  HZ I        1032 30.57         3.2 0.18            114            278 292 
 GUY2CBZ EP   2   1031 50.02                             112    0.57 4  298 234 
 GUY2CBN ES       1032 23.39                             112    0.27 7  298 234 
 GUY2CBZ I        1032 31.84         4.0 0.28                           298 234 
 PRA  HZ EP       1031 59.17                             106   -0.52 6  392 209 
 PRA  HN ES       1032 42.12                             106    0.77 6  392 209 
 PRA  HZ I        1032 47.44         2.7 0.26            108            392 209 
                                                                                
