 2013  128 1616 51.4 L   6.722 -73.176143.2  RSN  4 0.3 1.8LRSN                1
 GAP=228        0.71       6.0     5.3  5.8  0.1445E+02  0.3827E+01  0.4245E+01E
 Epicentro: VILLANUEVA - SANTANDER                                             3
 ACTION:UPD 13-02-15 09:17 OP:ep   STATUS:               ID:20130128161651 L   I
 2013-01-28-1610-00M.COL___241                                                 6
 STAT SP IPHASW D HRMM SECON CODA AMPLIT PERI AZIMU VELO AIN AR TRES W  DIS CAZ7
 BAR2 SZ EP       1617 10.60                             174    0.0010 14.4 183 
 BAR2 SZ ES       1617 25.08                             174   -0.4610 14.4 183 
 BAR2 SZ I        1617 26.80        13.7 0.20            173           14.4 183 
 BRR  HZ EP       1617 12.45                             151    0.0510 72.9 306 
 BRR  HN ES       1617 29.10                             151    0.3510 72.9 306 
 BRR  HN I        1617 29.75        16.0 0.20            154           72.9 306 
 RUS  HZ EP       1617 14.29                             146   -0.0510 92.3 174 
 RUS  HE ES   1   1617 32.74                             146    0.54 7 92.3 174 
 RUS  HE I        1617 34.26         9.1 0.20            146           92.3 174 
 PTB  HZ EP       1617 17.66                             132   -0.09 9  143 262 
 PTB  HN ES       1617 38.14                             132   -0.14 9  143 262 
                                                                                
