 2014 1028 1940 48.2 L   6.363 -73.483114.8  RSN 10 0.3 2.0LRSN                1
 GAP=104        0.66       2.0     3.0  4.3 -0.2575E+01  0.3759E+01  0.2514E+00E
 Epicentro: CONTRATACION - SANTANDER                                           3
 ACTION:UPD 14-11-29 23:58 OP:nd   STATUS:               ID:20141028194048 L   I
 OLDACT:REG 14-10-30 15:41 OP:fm   STATUS:               ID:20141028193744     3
 2014-10-28-1937-44M.COL___277                                                 6
 STAT SP IPHASW D HRMM SECON CODA AMPLIT PERI AZIMU VELO AIN AR TRES W  DIS CAZ7
 BAR2 SZ EP       1941  4.79                             159    0.0410 41.8  53 
 BAR2 SZ ES       1941 17.76                             159    0.0810 41.8  53 
 BAR2 SZ I        1941 18.57        62.2 0.16            161           41.8  53 
 RUS  HZ EP       1941  6.42                             147   -0.1710 68.3 140 
 RUS  HN ES       1941 21.10                             147    0.1510 68.3 140 
 RUS  HZ I        1941 23.10        15.9 0.30            146           68.3 140 
 BRR  HN ES       1941 21.80                             140   -0.1910 86.1 343 
 SPBC HZ EP       1941  8.21                             135   -0.4110  102 220 
 SPBC HN ES       1941 24.32                             135   -0.2410  102 220 
 SPBC HZ I        1941 26.62        20.3 0.12            133            102 220 
 PTB  HZ EP   4   1941  7.58                             133   -1.58 0  109 280 
 PTB  HN ES   4   1941 23.21                             133   -2.30 0  109 280 
 PTB  HZ I        1941 26.62        21.2 0.36            132            109 280 
 PAM  SZ EP       1941 12.38                             126   -0.13 9  138  39 
 PAM  SN ES       1941 31.51                             126    0.02 9  138  39 
 PAM  SZ I        1941 32.92        14.8 0.18            127            138  39 
 CHI  HZ EP       1941 18.17                             116   -0.03 9  194 188 
 CHI  HN ES       1941 42.00                             116    0.40 9  194 188 
 CHI  HZ I        1941 46.67         5.4 0.30            115            194 188 
 OCA  HN ES       1941 44.33                             114    0.46 8  208   5 
 GUY2CHZ EP       1941 23.72                             110   -0.15 8  244 239 
 GUY2CHN ES       1941 52.22                             110    0.52 8  244 239 
 GUY2CHZ I        1941 57.39         7.0 0.30                           244 239 
 TOL  SZ EP   4   1941 27.14                             107   -1.11 0  283 226 
 TOL  SN ES   4   1942  0.89                             107    1.38 0  283 226 
 TOL  SZ I        1942 10.55         9.2 0.52            106            283 226 
                                                                                
