 2013  328 1417 13.7 L   6.745 -73.227152.0  RSN  4 0.3 1.6LRSN                1
 GAP=217        0.65       6.0     5.3  6.2  0.1107E+02  0.4039E+01  0.1282E+01E
 Epicentro: VILLANUEVA - SANTANDER                                             3
 ACTION:UPD 13-04-09 14:05 OP:ep   STATUS:               ID:20130328141713 L   I
 2013-03-28-1410-00M.COL___245                                                 6
 STAT SP IPHASW D HRMM SECON CODA AMPLIT PERI AZIMU VELO AIN AR TRES W  DIS CAZ7
 BAR2 SZ EP   1   1417 34.47                             173    0.48 7 17.6 164 
 BAR2 SZ I        1417 49.28         7.2 0.38            170           17.6 164 
 BAR2 SZ ES   1   1417 49.34                             173   -0.47 7 17.6 164 
 BRR  HZ EP       1417 35.16                             155   -0.1510 66.9 307 
 BRR  HN ES       1417 52.37                             155    0.2110 66.9 307 
 BRR  HN I        1417 52.85        14.9 0.24            152           66.9 307 
 RUS  HZ EP   2   1417 37.82                             147    0.09 5 95.6 170 
 RUS  HN ES   1   1417 56.62                             147    0.15 7 95.6 170 
 RUS  HN I        1417 56.68         3.4 0.26            141           95.6 170 
 PTB  HZ EP       1417 40.02                             136   -0.31 9  138 261 
 PTB  HN ES       1418  1.20                             136    0.11 9  138 261 
 PTB  HN I        1418  6.27         4.5 0.38            132            138 261 
                                                                                
