 2012  128 1609 49.6 L   6.799 -73.142146.0  RSN 10 0.4 2.0LRSN                1
 GAP=137        0.93       4.8     5.7  6.9 -0.3819E+01  0.6889E+01  0.8283E+01E
 Epicentro: LOS SANTOS - SANTANDER                                             3
 ACTION:UP  12-02-03 08:21 OP:REBC STATUS:               ID:20120128160949 L   I
 2012-01-28-1610-00M.COL___188                                                 6
 STAT SP IPHASW D HRMM SECON CODA AMPLIT PERI AZIMU VELO SNR AR TRES W  DIS CAZ7
 BAR2 SZ IP       1610  9.29                             170     0.010   23 191 
 BAR2 SZ ES   1   1610 24.32                             170    -0.3 7   23 191 
 BAR2 SZ I        1610 27.42        20.0 0.18                            23 191 
 GIR2 SZ EP       1610  9.23                             167    -0.110   31 350 
 BRR  HZ IP     C 1610 11.09                             152     0.310   72 298 
 BRR  HZ I        1610 13.53        29.2 0.52                            72 298 
 BRR  HN ES   1   1610 28.12                             152     0.8 7   72 298 
 PAM  SZ EP       1610 11.81                             151     0.010   77  39 
 PAM  SN ES   1   1610 28.89                             151    -0.3 7   77  39 
 RUS  HZ EP       1610 13.34                             144     0.010  100 176 
 RUS  HE ES   1   1610 32.20                             144     0.3 7  100 176 
 RUS  HZ I        1610 33.70        10.8 0.38                           100 176 
 PTB  HZ EP       1610 15.97                             132    -0.7 9  148 259 
 PTB  HN ES   1   1610 37.25                             132    -0.5 7  148 259 
 PTB  HZ I        1610 40.90        12.7 0.12                           148 259 
 ZAR  HZ EP   3   1610 21.56                             122    -0.6 2  204 292 
 ZAR  HZ I        1610 53.98        20.0 0.38                           204 292 
 NOR  SZ EP       1610 25.86                             118     0.5 8  235 235 
 CHI  HZ EP       1610 27.63                             117     0.3 8  249 195 
 CHI  HN ES   1   1610 56.34                             117    -0.4 6  249 195 
 CHI  HZ I        1611  2.74         4.2 0.30                           249 195 
 PRA  HZ EP   3   1610 43.60                             106     0.4 1  392 210 
                                                                                
