 2011  128 1617 54.7 L   6.807 -73.149139.8  RSN  8 0.3 2.0LRSN                1
 GAP=158        0.57       3.2     5.6  5.0 -0.7732E+01  0.4362E+01  0.2669E+01E
 Epicentro: LOS SANTOS - SANTANDER                                             3
 ACTION:UP  11-02-08 08:43 OP:pat  STATUS:               ID:20110128161754 L   I
 2011-01-28-1615-41S.COL___138                                                 6
 STAT SP IPHASW D HRMM SECON CODA AMPLIT PERI AZIMU VELO SNR AR TRES W  DIS CAZ7
 BTL  SZ EP       1618 13.78                             172     0.310   18 313 
 BTL  SZ ES   2   1618 28.86                             172     0.7 5   18 313 
 BAR2 SZ EP       1618 13.56                             170     0.010   24 189 
 BAR2 SZ ES   2   1618 28.27                             170    -0.1 5   24 189 
 BAR2 SZ I        1618 30.77        32.5 0.17                            24 189 
 GIR2 SZ EP       1618 13.58                             167     0.010   30 351 
 GIR2 SZ ES   2   1618 27.53                             167    -0.8 5   30 351 
 RUS  HZ EP       1618 17.86                             142     0.010  101 176 
 RUS  HN ES   2   1618 35.89                             142    -0.1 5  101 176 
 RUS  HZ I        1618 38.03        16.8 0.13                           101 176 
 GRA  SZ EP       1618 19.30                             136     0.010  125  18 
 GRA  SZ I        1618 20.59        11.1 0.10                           125  18 
 OCA  SZ ES   2   1618 43.97                             128    -0.1 5  159 353 
 NOR  SZ EP       1618 30.05                             117     0.0 8  235 234 
 NOR  SN ES   1   1618 57.64                             117    -0.1 6  235 234 
 CHI  HZ EP       1618 31.99                             116    -0.1 8  249 195 
 CHI  HN ES   2   1619  1.62                             116     0.3 4  249 195 
 CHI  HZ I        1619  8.52         5.2 0.62                           249 195 
                                                                                
