 2016  128 1616 20.0 L   6.842 -73.178144.0  RSN 12 0.4 1.9LRSN                1
 GAP=130        0.92       2.5     3.6  5.2 -0.1872E+00  0.8158E+01  0.1108E+01E
 Epicentro: ZAPATOCA - SANTANDER                                               3
 ACTION:UPD 16-03-09 23:29 OP:cam  STATUS:               ID:20160128161620 L   I
 OLDACT:DUP 16-01-28 23:58 OP:ak   STATUS:               ID:20160128161001d    3
 2016-01-28-1609-59S.COL___220                                                 6
 STAT SP IPHASW D HRMM SECON CODA AMPLIT PERI AZIMU VELO AIN AR TRES W  DIS CAZ7
 BAR2 EZ EP       1616 39.48                             169   -0.0510 27.6 181 
 BAR2 EZ ES       1616 55.36                             169    0.6110 27.6 181 
 BAR2 EZ I        1616 57.23         9.0 0.20            168           27.6 181 
 PAM  EZ EP       1616 42.24                             151    0.2610 76.3  44 
 PAM  EN ES       1616 59.11                             151   -0.0010 76.3  44 
 PAM  EZ I        1617  1.38        24.9 0.52            156           76.3  44 
 RUS  HZ EP       1616 43.98                             142    0.0210  106 174 
 RUS  HN ES       1617  1.94                             142   -0.6910  106 174 
 RUS  HZ I        1617  4.21         9.6 0.30            145            106 174 
 PTB  HZ EP       1616 46.42                             132   -0.19 9  145 257 
 PTB  HN ES       1617  7.38                             132    0.03 9  145 257 
 PTB  HZ I        1617 13.45         6.5 0.09            132            145 257 
 ZAR  HZ EP       1616 52.40                             123    0.58 9  199 291 
 ZAR  HE ES       1617 16.84                             123    0.21 9  199 291 
 ZAR  HZ I        1617 23.45        11.8 0.20            124            199 291 
 NOR  HZ EP       1616 55.11                             118   -0.52 8  235 233 
 NOR  HN ES       1617 23.26                             118   -0.14 8  235 233 
 NOR  HZ I        1617 29.34         5.4 0.20            120            235 233 
 SML  HZ EP       1616 55.71                             118   -0.22 8  238 336 
 SML  HN ES       1617 23.62                             118   -0.31 8  238 336 
 SML  HZ I        1617 27.75        15.1 0.10            120            238 336 
 CHI  HZ EP       1616 57.87                             116   -0.14 8  252 194 
 CHI  HN ES       1617 27.20                             116   -0.44 8  252 194 
 CHI  HZ I        1617 31.13         3.5 0.68            119            252 194 
 GUY2CHZ EP       1617  4.36                             112    0.84 7  301 234 
 GUY2CHE ES       1617 37.48                             112    0.03 7  301 234 
 GUY2CHZ I        1617 46.14         3.5 0.32                           301 234 
 MON  HZ EP   4   1617  6.79                             109   -1.50 0  348 308 
 MON  HE ES       1617 45.02                             109   -0.92 6  348 308 
 MON  HZ I        1617 46.76         1.9 0.37            110            348 308 
 PRA  HZ EP       1617 13.89                             106    0.15 6  394 209 
 PRA  HE ES       1617 55.85                             106    0.20 6  394 209 
 PRA  HZ I        1617 58.72         3.9 0.36            108            394 209 
 ORTC HZ EP       1617 14.57                             106    0.50 6  397 215 
 ORTC HE ES       1617 56.79                             106    0.56 6  397 215 
 ORTC HZ I        1618  4.62         2.0 0.48            108            397 215 
                                                                                
