 2011  228 1403 53.6 L   7.432 -73.574105.2  RSN  6 0.4 1.8LRSN                1
 GAP=178        0.93       4.7    15.4 15.3 -0.4055E+01  0.1482E+03  0.2153E+02E
 Epicentro: SABANA DE TORRES - SANTANDER                                       3
 ACTION:UP  11-03-28 15:11 OP:jfem STATUS:               ID:20110228140353 L   I
 2011-02-28-1401-03S.COL___135                                                 6
 STAT SP IPHASW D HRMM SECON CODA AMPLIT PERI AZIMU VELO SNR AR TRES W  DIS CAZ7
 OCA  SZ EP   1   14 4 12.91                             135     0.3 8   93  17 
 OCA  SZ ES   1   14 4 27.05                             135    -0.3 8   93  17 
 GRA  SZ EP   1   14 4 13.56                             133     0.5 8   99  59 
 GRA  SZ ES   1   14 4 27.90                             133    -0.3 8   99  59 
 GRA  SZ I        14 4 31.33        10.0 0.46                            99  59 
 BAR2 SZ EP       14 4 13.46                             132     0.010  102 155 
 BAR2 SZ ES   1   14 4 29.31                             132     0.3 7  102 155 
 BAR2 SZ I        14 4 30.41        60.6 0.27                           102 155 
 RUS  HZ EP   1   14 4 20.76                             116    -0.8 7  179 162 
 RUS  HZ I        14 4 44.67         2.8 0.28                           179 162 
 CHI  HZ EP   2   14 4 37.37                             102     0.6 4  310 183 
 CHI  HZ I        14 5 19.89         2.5 0.56                           310 183 
 PRA  HZ EP   1   14 4 51.19                              96    -0.2 4  436 200 
                                                                                
