 2015  228 1858 13.1 L   6.784 -73.196136.1  RSN 11 0.4 2.3LRSN                1
 GAP=134        0.93       4.2     4.3  7.7 -0.5398E+01  0.5907E+01  0.1251E+02E
 Epicentro: ZAPATOCA - SANTANDER                                               3
 ACTION:UPD 15-04-30 21:29 OP:nd   STATUS:               ID:20150228185813 L   I
 OLDACT:UP  15-03-01 01:34 OP:mh   STATUS:               ID:20150228185748     3
 OLDACT:REG 15-02-28 22:23 OP:y    STATUS:               ID:20150228185748     3
 2015-02-28-1857-48M.COL___293                                                 6
 STAT SP IPHASW D HRMM SECON CODA AMPLIT PERI AZIMU VELO AIN AR TRES W  DIS CAZ7
 BAR2 EZ EP       1858 31.85                             171    0.2810 21.3 176 
 BAR2 EZ I        1858 48.65        28.1 0.21            169           21.3 176 
 PAM  SZ EP       1858 34.46                             147   -0.2010 82.3  42 
 PAM  SN ES       1858 51.43                             147   -0.0110 82.3  42 
 PAM  SZ I        1858 53.97        33.0 0.14            155           82.3  42 
 PTB  HZ EP       1858 38.43                             131   -0.37 9  142 259 
 PTB  HN ES       1858 57.97                             131   -0.85 9  142 259 
 PTB  HZ I        1859  5.75        22.6 0.13            134            142 259 
 SPBC HZ EP   1   1858 40.70                             127    0.25 7  158 218 
 SPBC HN ES   1   1859  2.00                             127    0.25 7  158 218 
 ZAR  HZ EP       1858 45.01                             121    0.50 9  200 293 
 ZAR  HN ES   1   1859  9.64                             121    0.67 6  200 293 
 ZAR  HZ I        1859 16.03        21.5 0.62            125            200 293 
 NOR  HZ EP   1   1858 47.93                             117    0.20 6  229 234 
 NOR  HN ES       1859 14.95                             117    0.24 8  229 234 
 NOR  HZ I        1859 22.89        12.6 0.28            121            229 234 
 CHI  HZ EP       1858 49.88                             115   -0.11 8  246 194 
 CHI  HN ES       1859 19.08                             115    0.36 8  246 194 
 CHI  HZ I        1859 23.31        35.6 0.99            119            246 194 
 GUY2CHZ EP       1858 56.21                             111    0.52 7  296 234 
 GUY2CHN ES   4   1859 33.57                             111    4.69 0  296 234 
 GUY2CHZ I        1859 38.43        14.2 0.72                           296 234 
 RREF HZ EP   1   1858 58.44                             109    0.17 5  316 229 
 RREF HN ES   4   1859 35.92                             109    2.45 0  316 229 
 RREF HZ I        1859 43.36        10.3 0.50            113            316 229 
 TOL  SZ EP       1858 59.45                             108   -0.99 7  338 224 
 TOL  SN ES   4   1859 38.04                             108    0.72 0  338 224 
 TOL  SZ I        1859 45.74         9.4 0.42            111            338 224 
 PRA  HZ EP       1859  5.42                             105   -0.43 6  388 209 
 PRA  HN ES       1859 46.99                             105    0.03 6  388 209 
 PRA  HZ I        1859 53.51         9.1 0.36            108            388 209 
                                                                                
