 2014  928 1355 40.7 L   6.789 -73.157152.0  RSN  4 0.5 1.9LRSN                1
 GAP=212        1.27       8.3    10.2 10.3  0.4917E+01  0.6255E+01 -0.3084E+02E
 Epicentro: LOS SANTOS - SANTANDER                                             3
 ACTION:UPD 14-10-03 23:09 OP:nd   STATUS:               ID:20140928135540 L   I
 OLDACT:REG 14-09-28 20:15 OP:cam  STATUS:               ID:20140928135000     3
 2014-09-28-1350-00M.COL___252                                                 6
 STAT SP IPHASW D HRMM SECON CODA AMPLIT PERI AZIMU VELO AIN AR TRES W  DIS CAZ7
 BAR2 SZ EP       1356  1.03                             171    0.0010 22.0 187 
 BAR2 SZ ES       1356 16.36                             171   -0.5410 22.0 187 
 BAR2 SZ I        1356 17.63         9.3 0.18            169           22.0 187 
 BRR  HZ EP       1356  3.08                             154    0.6110 70.7 300 
 BRR  HE ES       1356 20.20                             154    0.7310 70.7 300 
 BRR  HE I        1356 20.99        13.4 0.44            150           70.7 300 
 PTB  HZ EP       1356  7.70                             134   -0.33 9  146 259 
 PTB  HN ES       1356 29.17                             134   -0.19 9  146 259 
 PTB  HN I        1356 34.54        11.1 0.22            131            146 259 
 SML  HZ EP       1356 18.04                             119    0.32 8  244 336 
 SML  HN ES       1356 45.73                             119   -0.88 8  244 336 
 SML  HN I        1356 49.04         5.7 0.10            119            244 336 
                                                                                
