 2012  128 1518 32.0 L   6.780 -73.153141.1  RSN 13 0.3 2.7LRSN                1
 GAP=114        0.58       2.8     3.7  4.0  0.1161E+01  0.6196E+01  0.3827E+01E
 Epicentro: LOS SANTOS - SANTANDER                                             3
 ACTION:UP  12-02-03 08:21 OP:REBC STATUS:               ID:20120128151832 L   I
 2012-01-28-1510-00M.COL___188                                                 6
 STAT SP IPHASW D HRMM SECON CODA AMPLIT PERI AZIMU VELO SNR AR TRES W  DIS CAZ7
 BAR2 SZ IP       1518 51.09                             171     0.010   21 189 
 BAR2 SZ I        1518 51.26       147.6 0.20                            21 189 
 BAR2 SZ ES   1   1519  5.80                             171    -0.1 7   21 189 
 GIR2 SZ IP       1518 51.17                             166     0.010   33 352 
 GIR2 SZ ES   1   1519  5.82                             166    -0.3 7   33 352 
 BRR  HZ IP     C 1518 52.96                             152     0.310   72 300 
 BRR  HZ I        1518 53.32       161.4 0.13                            72 300 
 BRR  HE ES   1   1519  9.23                             152     0.4 7   72 300 
 PAM  SZ IP       1518 53.92                             149     0.010   80  39 
 PAM  SN ES   1   1519 10.93                             149     0.0 7   80  39 
 RUS  HZ EP       1518 55.05                             143    -0.110   98 175 
 RUS  HN ES   1   1519 13.32                             143     0.1 7   98 175 
 RUS  HZ I        1519 15.25        73.2 0.46                            98 175 
 PTB  HZ EP       1518 57.97                             131    -0.5 9  147 260 
 PTB  HE ES   3   1519 18.53                             131    -0.6 2  147 260 
 PTB  HZ I        1519 24.05        39.6 0.36                           147 260 
 YOP  SZ EP   3   1519  1.80                             125     0.2 2  177 153 
 YOP  SN ES   1   1519 24.59                             125     0.0 7  177 153 
 ZAR  HZ EP   2   1519  4.07                             121    -0.1 4  204 293 
 ZAR  HZ I        1519 35.03       106.1 0.28                           204 293 
 NOR  SZ EP       1519  7.56                             118     0.3 8  233 235 
 CHI  HZ EP   2   1519  9.62                             116     0.4 4  246 195 
 CHI  HN ES   2   1519 38.56                             116     0.3 4  246 195 
 CHI  HZ I        1519 46.72        21.1 0.60                           246 195 
 HEL  HZ EP   2   1519 12.28                             114     0.4 4  271 256 
 HEL  HZ I        1519 49.49        41.3 0.32                           271 256 
 RREF HZ EP       1519 17.56                             110    -0.2 7  320 230 
 PRA  HZ EP       1519 25.11                             106     0.0 6  390 210 
                                                                                
