 2011  928 1423 53.0 L   6.529 -73.489107.1  RSN  9 0.4 1.8LRSN                1
 GAP= 69        0.85       3.7     3.9  6.3  0.1518E+01  0.1091E+02  0.6076E+01E
 Epicentro: EL CARMEN DE CHUCURI - SANTANDER                                   3
 ACTION:UPD 12-07-13 16:00 OP:ep   STATUS:               ID:20110928142353 L   I
 2011-09-28-1420-51S.COL___165                                                 6
 STAT SP IPHASW D HRMM SECON CODA AMPLIT PERI AZIMU VELO AIN AR TRES W  DIS CAZ7
 BAR2 SZ IP       1424  8.66                             161    0.2910 34.6  78 
 BAR2 SZ ES       1424 20.44                             161    0.0710 34.6  78 
 BRR  HZ EP       1424  9.49                             145   -0.4410 68.6 339 
 BRR  HZ I        1424 17.75        24.7 0.11                          68.6 339 
 BRR  HN ES       1424 23.25                             145    0.1110 68.6 339 
 RUS  HZ EP   1   1424 11.37                             140   -0.36 7 83.4 147 
 RUS  HZ I        1424 12.92         4.2 0.03                          83.4 147 
 RUS  HE ES   2   1424 26.53                             140    0.18 5 83.4 147 
 PAM  SZ EP   1   1424 15.14                             127   -0.31 7  125  44 
 PAM  SN ES   1   1424 32.96                             127   -0.01 7  125  44 
 ZAR  HZ EP   1   1424 21.98                             115    0.86 7  185 305 
 ZAR  HN ES   1   1424 42.85                             115   -0.22 7  185 305 
 ZAR  HZ I        1424 45.06         8.0 0.34                           185 305 
 NOR  SZ EP   1   1424 20.42                             115   -0.91 7  186 235 
 OCA  SZ EP   1   1424 21.89                             114    0.03 7  190   6 
 OCA  SZ I        1424 57.51        14.6 0.35                           190   6 
 CHI  HZ EP   1   1424 25.35                             112    0.73 6  212 187 
 CHI  HE ES   2   1424 48.95                             112   -0.35 4  212 187 
 CHI  HZ I        1424 54.71         4.1 0.51                           212 187 
 HEL  HZ EP   1   1424 27.17                             110    0.65 6  229 261 
 HEL  HN ES   1   1424 52.47                             110   -0.20 6  229 261 
 HEL  HZ I        1424 53.53         5.5 0.42                           229 261 
                                                                                
