 2016 1128 1333 39.1 L   6.797 -73.161147.1  RSN  9 0.4 2.1LRSN                1
 GAP=145        1.01       4.2     4.4  6.3 -0.2365E+01  0.5587E+01  0.1046E+02E
 Epicentro: LOS SANTOS - SANTANDER                                             3
 ACTION:UPD 17-10-26 21:12 OP:lp   STATUS:               ID:20161128133339 L   I
 OLDACT:REG 16-11-29 01:32 OP:lv   STATUS:               ID:20161128132743     3
 2016-11-28-1328-00M.COL___328                                                 6
 STAT SP IPHASW D HRMM SECON CODA AMPLIT PERI AZIMU VELO AIN AR TRES W  DIS CAZ7
 BAR2 EZ EP       1333 58.69                             171   -0.1610 22.8 186 
 BAR2 EZ ES       1334 13.90                             171   -0.3810 22.8 186 
 BAR2 EZ I        1334 14.98        43.1 0.25            170           22.8 186 
 BRR  HZ EP       1334  0.49                             153    0.2110 69.8 299 
 BRR  HN ES       1334 17.66                             153    0.8210 69.8 299 
 BRR  HZ I        1334 20.15        18.2 0.18            152           69.8 299 
 PAM  EZ EP       1334  1.64                             151    0.1410 78.7  40 
 PAM  EN ES       1334 18.84                             151   -0.1710 78.7  40 
 PAM  EZ I        1334 21.30        11.6 0.31            153           78.7  40 
 PTB  HZ EP       1334  5.16                             133   -0.82 9  146 259 
 PTB  HN ES       1334 26.59                             133   -0.39 9  146 259 
 PTB  HZ I        1334 28.30        16.0 0.10            132            146 259 
 ZAR  HZ EP       1334 11.48                             123    0.04 9  203 292 
 ZAR  HN ES       1334 36.44                             123   -0.26 9  203 292 
 ZAR  HZ I        1334 43.04        14.0 0.11            123            203 292 
 NOR  HZ EP       1334 14.73                             119    0.03 8  233 234 
 NOR  HN ES       1334 42.79                             119    0.29 8  233 234 
 NOR  HZ I        1334 47.62         9.2 0.18            119            233 234 
 CHI  HZ EP       1334 17.28                             117    0.52 8  248 195 
 CHI  HN ES       1334 46.22                             117    0.06 8  248 195 
 CHI  HZ I        1334 48.56        10.4 0.32            118            248 195 
 LL6C HZ EP   9   1334  4.73                             111   -20.1 0  325 358 
 LL6C HN ES       1334 41.23                                    0.79 7  325 358 
 PRA  HZ EP       1334 32.60                             107    0.10 6  391 209 
 PRA  HE ES       1335 14.68                             107    0.50 6  391 209 
 PRA  HZ I        1335 18.90         5.9 0.32            108            391 209 
                                                                                
