 2016 1228 1620 52.3 L   6.791 -73.169149.3  RSN  8 0.5 1.6LRSN                1
 GAP=134        1.28       4.9     5.3  7.6  0.3340E+00  0.1102E+02  0.7397E+01E
 Epicentro: LOS SANTOS - SANTANDER                                             3
 ACTION:UPD 17-01-11 20:20 OP:rebc STATUS:               ID:20161228162052 L   I
 OLDACT:REG 16-12-28 23:44 OP:cog  STATUS:               ID:20161228161437d    3
 2016-12-28-1618-00M.COL___378                                                 6
 STAT SP IPHASW D HRMM SECON CODA AMPLIT PERI AZIMU VELO AIN AR TRES W  DIS CAZ7
 BAR2 EZ EP       1621 12.30                             171    0.0110 22.0 184 
 BAR2 EZ ES       1621 27.76                             171   -0.1510 22.0 184 
 BAR2 EZ I        1621 28.48        14.2 0.24            169           22.0 184 
 BRR  HZ EP       1621 14.17                             154    0.4710 69.5 300 
 BRR  HN ES       1621 31.48                             154    1.0610 69.5 300 
 PAM  EZ EP       1621 14.29                             151   -0.7110 79.8  40 
 PAM  EN ES       1621 32.60                             151   -0.1310 79.8  40 
 PAM  EZ I        1621 35.10         6.3 0.60            152           79.8  40 
 RUS  HZ EP       1621 16.36                             145    0.0610 99.8 175 
 RUS  HN ES       1621 34.82                             145   -0.2310 99.8 175 
 RUS  HZ I        1621 37.59         3.3 0.32            144           99.8 175 
 PTB  HZ EP       1621 19.13                             133   -0.14 9  145 259 
 PTB  HN ES       1621 39.76                             133   -0.59 9  145 259 
 PTB  HZ I        1621 41.92         6.7 0.16            134            145 259 
 ZAR  HZ EP       1621 25.37                             123    0.64 9  202 293 
 ZAR  HN ES       1621 49.52                             123   -0.54 9  202 293 
 NOR  HZ EP       1621 28.02                             120    0.11 8  232 234 
 NOR  HE ES       1621 55.03                             120   -0.69 8  232 234 
 CHI  HZ EP       1621 30.03                             118    0.05 8  247 195 
 CHI  HN ES       1622  0.25                             118    0.85 8  247 195 
 CHI  HZ I        1622  4.88         3.5 0.38            118            247 195 
 GUY2CHZ EP   4   1621 37.64                             113    1.91 0  298 235 
 GUY2CHN ES   4   1622 13.57                             113    3.93 0  298 235 
                                                                                
