 2011 1228 1746 17.6 L   6.784 -73.136141.1  RSN 11 0.3 2.1LRSN                1
 GAP=138        0.55       3.0     3.6  4.6 -0.1864E+01  0.5279E+01 -0.4056E+00E
 Epicentro: LOS SANTOS - SANTANDER                                             3
 *COD-ZAR-PAM                                                                  3
 ACTION:UPD 12-07-13 16:19 OP:ep   STATUS:               ID:20111228174617 L   I
 2011-12-28-1740-00M.COL___186                                                 6
 STAT SP IPHASW D HRMM SECON CODA AMPLIT PERI AZIMU VELO AIN AR TRES W  DIS CAZ7
 BAR2 SZ EP   1   1746 36.69                             171    0.06 7 21.8 194 
 BAR2 SZ ES   1   1746 51.04                             171   -0.44 7 21.8 194 
 BAR2 SZ I        1746 52.46        43.9 0.31                          21.8 194 
 GIR2 SZ EP   1   1746 36.78                             166    0.02 7 33.2 349 
 GIR2 SZ ES   2   1746 51.60                             166   -0.11 5 33.2 349 
 BRR  HZ EP   1   1746 38.58                             151    0.24 7 73.0 299 
 BRR  HZ I        1746 39.63        56.3 0.09                          73.0 299 
 BRR  HN ES   2   1746 55.20                             151    0.68 5 73.0 299 
 PAM  SZ EP   1   1746 39.50                             150    0.15 7 78.1  38 
 PAM  SN ES   2   1746 56.54                             150    0.21 5 78.1  38 
 PAM  SZ I        1746 58.40        29.0 0.43                          78.1  38 
 RUS  HZ EP   1   1746 40.77                             143    0.02 7 98.8 177 
 RUS  HN ES   2   1746 59.13                             143    0.31 5 98.8 177 
 RUS  HZ I        1747  1.03         8.8 0.21                          98.8 177 
 PTB  HZ EP   1   1746 43.68                             131   -0.56 7  148 260 
 PTB  HN ES   2   1747  5.25                             131    0.22 5  148 260 
 OCA  SZ EP   1   1746 45.62                             128   -0.10 7  162 353 
 OCA  SZ ES   2   1747  7.10                             128   -0.56 5  162 353 
 OCA  SZ I        1747 13.67        11.8 0.13                           162 353 
 ZAR  HZ EP   1   1746 50.20                             121    0.30 6  206 292 
 ZAR  HN ES   2   1747 15.07                             121   -0.04 4  206 292 
 ZAR  HZ I        1747 18.82        14.7 0.11                           206 292 
 NOR  SZ EP   1   1746 53.18                             117    0.15 6  235 235 
 NOR  SN ES   2   1747 21.17                             117    0.49 4  235 235 
 CHI  HN ES   2   1747 23.68                             116   -0.28 4  247 196 
 HEL  HE ES   2   1747 28.03                             114   -0.84 4  273 256 
                                                                                
