 2017  728 1325 14.6 L   6.773 -73.133145.0  RSN 13 0.5 2.2LRSN                1
 GAP=114        1.29       4.5     4.5  6.9 -0.3648E+00  0.6632E+01  0.7288E+01E
 Epicentro: LOS SANTOS - SANTANDER                                             3
 ACTION:UPD 17-08-30 15:37 OP:rebc STATUS:               ID:20170728132514 L   I
 OLDACT:UP  17-07-28 19:06 OP:ar   STATUS:               ID:20170728131737d    3
 OLDACT:DUP 17-07-28 18:58 OP:ar   STATUS:               ID:20170728131737d    3
 2017-07-28-1318-00M.COL___380                                                 6
 STAT SP IPHASW D HRMM SECON CODA AMPLIT PERI AZIMU VELO AIN AR TRES W  DIS CAZ7
 BAR2 EZ EP       1325 33.84                             171   -0.2010 20.7 195 
 BAR2 EZ ES       1325 49.03                             171   -0.2110 20.7 195 
 BAR2 EZ I        1325 50.56        38.5 0.38            171           20.7 195 
 BRR  HZ EP       1325 35.70                             152   -0.0810 73.9 300 
 BRR  HN ES       1325 53.20                             152    0.8810 73.9 300 
 BRR  HZ I        1325 56.96        39.4 0.14            149           73.9 300 
 PAM  EZ EP       1325 36.68                             150   -0.1010 78.8  37 
 PAM  EE ES       1325 54.18                             150    0.0710 78.8  37 
 PAM  EZ I        1325 56.09        18.2 0.18            145           78.8  37 
 RUS  HZ EP       1325 37.97                             144   -0.0410 97.5 177 
 RUS  HE ES       1325 56.39                             144    0.0810 97.5 177 
 RUS  HZ I        1325 57.50        15.1 0.28            140           97.5 177 
 PTB  HZ EP       1325 40.75                             132   -0.79 9  149 260 
 PTB  HN ES       1326  1.62                             132   -0.96 9  149 260 
 PTB  HZ I        1326  4.70        11.7 0.30            128            149 260 
 SPBC HZ EP       1325 42.81                             129   -0.05 9  162 220 
 SPBC HE ES       1326  5.37                             129    0.43 9  162 220 
 SPBC HZ I        1326  6.95        33.6 0.12            125            162 220 
 YPLC HZ EP       1325 43.96                             127   -0.02 9  174 151 
 YPLC HZ I        1326  8.55         8.9 0.34            122            174 151 
 YPLC HE ES   4   1326  8.76                             127    1.84 0  174 151 
 ZAR  HZ EP       1325 47.79                             122    0.59 8  206 293 
 ZAR  HN ES       1326 12.24                             122   -0.42 8  206 293 
 ZAR  HZ I        1326 19.40        12.6 0.10            118            206 293 
 NOR  HZ EP       1325 49.82                             118   -0.36 8  234 235 
 NOR  HN ES       1326 17.14                             118   -0.82 8  234 235 
 NOR  HZ I        1326 24.68        14.2 0.14            115            234 235 
 CHI  HZ EP       1325 52.00                             117    0.06 8  246 196 
 CHI  HN ES       1326 21.54                             117    0.44 8  246 196 
 CHI  HZ I        1326 26.96         6.4 0.62            113            246 196 
 HEL  HE ES       1326 27.45                             115    1.26 8  273 256 
 URE  HE ES   4   1326 25.91                             113   -2.16 0  286 292 
 URE  HZ I        1326 38.63         9.1 0.16            110            286 292 
 GUY2CHZ EP       1325 58.94                             112    0.87 7  301 235 
 GUY2CHN ES   4   1326 34.85                             112    2.85 0  301 235 
 GUY2CHZ I        1326 40.22        10.1 0.28                           301 235 
                                                                                
