 2017  128 1516  2.1 L   6.784 -73.183144.0  RSN  5 0.4 1.4LRSN                1
 GAP=133        0.88       5.1     4.7  8.8 -0.4155E+01 -0.9968E+00  0.2461E+01E
 Epicentro: LOS SANTOS - SANTANDER                                             3
 ACTION:UPD 17-05-22 16:04 OP:jn   STATUS:               ID:20170128151602 L   I
 OLDACT:DUP 17-01-28 23:56 OP:dnl  STATUS:               ID:20170128150751d    3
 2017-01-28-1508-00M.COL___345                                                 6
 STAT SP IPHASW D HRMM SECON CODA AMPLIT PERI AZIMU VELO AIN AR TRES W  DIS CAZ7
 BAR2 EZ EP       1516 21.50                             171    0.0110 21.2 180 
 BAR2 EZ ES   2   1516 35.90                             171   -0.71 5 21.2 180 
 BAR2 EZ I        1516 37.95         7.0 0.44            171           21.2 180 
 BRR  HZ EP   2   1516 23.20                             153    0.28 5 68.5 301 
 BRR  HE ES       1516 39.83                             153    0.6810 68.5 301 
 BRR  HZ I        1516 40.16        14.0 0.34            155           68.5 301 
 PAM  EZ EP       1516 24.36                             149   -0.0310 81.4  41 
 PAM  EN ES       1516 41.47                             149   -0.2910 81.4  41 
 PAM  EZ I        1516 43.79         3.7 0.62            151           81.4  41 
 RUS  HZ EP   2   1516 25.99                             144    0.40 5 99.2 174 
 RUS  HE ES       1516 44.10                             144    0.1910 99.2 174 
 RUS  HZ I        1516 45.51         1.8 0.58            146           99.2 174 
 PTB  HZ EP   2   1516 27.99                             133   -0.56 5  143 259 
 PTB  HN ES       1516 48.67                             133   -0.49 9  143 259 
 PTB  HZ I        1516 50.62         2.7 0.34            135            143 259 
                                                                                
