 2014  628 1123 17.2 L   6.003 -73.834110.2  RSN  7 0.4 1.3LRSN                1
 GAP= 97        1.10       4.5     4.0  8.5 -0.2721E+01  0.7835E+01  0.1511E+02E
 Epicentro: EL PEON - SANTANDER                                                3
 ACTION:UPD 14-07-01 22:57 OP:nd   STATUS:               ID:20140628112317 L   I
 OLDACT:REG 14-06-28 21:57 OP:carl STATUS:               ID:20140628111818     3
 2014-06-28-1118-18M.COL___237                                                 6
 STAT SP IPHASW D HRMM SECON CODA AMPLIT PERI AZIMU VELO AIN AR TRES W  DIS CAZ7
 SPBC HZ EP       1123 33.34                             155    0.0910 46.9 214 
 SPBC HE ES       1123 46.21                             155    0.4110 46.9 214 
 SPBC HZ I        1123 46.91        10.0 0.18            153           46.9 214 
 RUS  HZ EP       1123 36.56                             140    0.3010 84.0  98 
 RUS  HN ES       1123 50.57                             140   -0.5810 84.0  98 
 RUS  HZ I        1123 52.54         1.5 0.42            138           84.0  98 
 PTB  HN ES       1123 50.22                             137   -0.7410 90.9 311 
 BAR2 SZ ES       1123 53.00                             135    0.5610 97.2  48 
 BAR2 SZ I        1123 55.87        12.9 0.26            135           97.2  48 
 CHI  HN ES       1124  1.93                             122   -0.31 9  152 176 
 CHI  HZ I        1124  6.63         2.8 0.32            120            152 176 
 GUY2CHZ EP       1123 46.74                             115    0.11 9  190 243 
 GUY2CHE ES       1124 10.08                             115    0.46 9  190 243 
 GUY2CHZ I        1124 13.98         2.7 0.30                           190 243 
 PRA  HZ EP       1123 55.75                             106   -0.45 7  279 205 
 PRA  HN ES       1124 26.71                             106    0.05 7  279 205 
 PRA  HZ I        1124 34.10         1.2 0.42            105            279 205 
                                                                                
