 2014  528 1246 56.5 L   6.808 -73.129139.1  RSN  7 0.4 1.9LRSN                1
 GAP=102        0.96       4.4     4.1  6.1 -0.4251E+01 -0.8629E+00  0.4383E+01E
 Epicentro: LOS SANTOS - SANTANDER                                             3
 ACTION:UPD 15-03-16 17:01 OP:nd   STATUS:               ID:20140528124656 L   I
 OLDACT:REG 14-05-28 21:44 OP:stll STATUS:               ID:20140528123817     3
 2014-05-28-1238-17M.COL___257                                                 6
 STAT SP IPHASW D HRMM SECON CODA AMPLIT PERI AZIMU VELO AIN AR TRES W  DIS CAZ7
 BAR2 SZ EP       1247 15.59                             169    0.2910 24.5 194 
 BAR2 SZ ES       1247 29.85                             169   -0.1610 24.5 194 
 BAR2 SZ I        1247 32.27        10.0 0.14            166           24.5 194 
 BRR  HZ EP       1247 16.90                             151   -0.0510 72.4 297 
 BRR  HN ES       1247 33.54                             151    0.6010 72.4 297 
 BRR  HZ I        1247 34.79        11.4 0.18            152           72.4 297 
 PAM  SZ EP       1247 17.74                             150   -0.1110 75.6  39 
 PAM  SZ I        1247 18.30        30.1 0.16            155           75.6  39 
 PAM  SE ES       1247 34.37                             150   -0.1710 75.6  39 
 RUS  HZ EP       1247 19.44                             142   -0.1710  101 177 
 RUS  HN ES       1247 37.31                             142   -0.3510  101 177 
 RUS  HZ I        1247 40.31         8.0 0.24            141            101 177 
 PTB  HZ EP       1247 22.40                             130   -0.66 9  150 259 
 PTB  HN ES       1247 43.41                             130   -0.41 9  150 259 
 PTB  HZ I        1247 46.91         8.4 0.38            130            150 259 
 TAM  HZ EP       1247 23.83                             129    0.36 9  154 105 
 TAM  HZ I        1247 23.96        21.8 0.20            131            154 105 
 SPBC HZ EP       1247 24.97                             127    0.35 9  165 219 
 SPBC HN ES       1247 47.12                             127    0.53 9  165 219 
 SPBC HZ I        1247 54.09         6.5 0.28            127            165 219 
                                                                                
