 2015  228 1050 52.0 L   6.804 -73.175142.7  RSN 20 0.5 2.4LRSN                1
 GAP= 69        1.03       2.7     3.8  4.9 -0.2311E+01  0.4058E+01  0.1239E+01E
 Epicentro: LOS SANTOS - SANTANDER                                             3
 ACTION:UPD 15-04-30 21:29 OP:nd   STATUS:               ID:20150228105052 L   I
 OLDACT:UP  15-02-28 23:46 OP:mh   STATUS:               ID:20150228104747     3
 OLDACT:UP  15-02-28 23:46 OP:mh   STATUS:               ID:20150228104747     3
 OLDACT:UP  15-02-28 23:46 OP:mh   STATUS:               ID:20150228104747     3
 OLDACT:UP  15-02-28 23:46 OP:mh   STATUS:               ID:20150228104747     3
 OLDACT:REG 15-02-28 21:59 OP:y    STATUS:               ID:20150228104747     3
 2015-02-28-1047-47M.COL___291                                                 6
 STAT SP IPHASW D HRMM SECON CODA AMPLIT PERI AZIMU VELO AIN AR TRES W  DIS CAZ7
 BAR2 EZ EP       1051 11.47                             170    0.2010 23.5 182 
 BAR2 EZ ES       1051 26.36                             170    0.0710 23.5 182 
 BAR2 EZ I        1051 27.76        44.7 0.16            170           23.5 182 
 BRR  HZ EP     C 1051 13.35                             153    0.7110 68.1 299 
 BRR  HN ES       1051 29.07                             153    0.3310 68.1 299 
 BRR  HZ I        1051 33.65        38.8 0.24            150           68.1 299 
 PAM  SZ EP       1051 14.18                             150    0.1810 79.1  42 
 PAM  SN ES   1   1051 31.75                             150    0.60 7 79.1  42 
 PAM  SZ I        1051 33.65        74.4 0.50            152           79.1  42 
 RUS  HZ EP       1051 15.37                             143   -0.1410  101 174 
 RUS  HN ES       1051 33.22                             143   -0.6210  101 174 
 RUS  HZ I        1051 34.81        28.7 0.38            144            101 174 
 PTB  HZ EP       1051 18.21                             132   -0.22 9  145 258 
 PTB  HN ES       1051 38.50                             132   -0.55 9  145 258 
 PTB  HZ I        1051 41.22        30.7 0.16            130            145 258 
 TAM  HZ EP   1   1051 19.61                             129   -0.14 7  158 105 
 TAM  HZ I        1051 23.30        44.9 0.05            132            158 105 
 OCA  HZ EP       1051 19.80                             129   -0.19 9  159 354 
 OCA  HN ES   1   1051 41.57                             129   -0.26 7  159 354 
 OCA  HZ I        1051 46.32        50.0 0.32            129            159 354 
 SPBC HZ EP       1051 20.30                             129    0.19 9  162 218 
 SPBC HN ES       1051 42.05                             129    0.02 9  162 218 
 NOR  HZ EP       1051 27.16                             118   -0.14 8  232 234 
 NOR  HN ES   1   1051 55.67                             118    0.84 6  232 234 
 NOR  HZ I        1052  0.35        33.9 0.28            118            232 234 
 SML  HZ EP       1051 27.64                             117   -0.62 8  242 336 
 SML  HN ES       1051 56.04                             117   -0.50 8  242 336 
 CHI  HZ EP       1051 29.29                             116   -0.20 8  248 194 
 CHI  HN ES       1051 58.21                             116   -0.52 8  248 194 
 CHI  HZ I        1052  4.51        11.6 0.64            117            248 194 
 ROSC BZ EP       1051 30.70                             116    0.88 8  252 210 
 ROSC BN ES   4   1052  1.41                             116    2.10 0  252 210 
 GUY2CHZ IP   2   1051 36.02                             112    0.82 4  299 234 
 GUY2CHN ES   4   1052 10.76                             112    1.87 0  299 234 
 GUY2CHZ I        1052 21.62        13.4 0.62                           299 234 
 RREF HZ EP   4   1051 39.09                             110    1.32 0  320 229 
 RREF HN ES       1052 13.75                             110    0.29 7  320 229 
 RREF HZ I        1052 22.52        23.3 0.39            110            320 229 
 CBOC HZ EP       1051 38.91                             109    0.46 7  331 252 
 CBOC HN ES       1052 14.07                             109   -0.61 7  331 252 
 CBOC HZ I        1052 20.58         5.7 0.22            109            331 252 
 TOL  SZ EP       1051 40.55                             109    0.64 7  342 224 
 TOL  SN ES   4   1052 19.22                             109    1.94 0  342 224 
 TOL  SZ I        1052 23.25        13.9 0.29            109            342 224 
 MON  HZ EP   4   1051 37.39                             108   -3.16 0  351 309 
 MON  HN ES   4   1052 16.30                             108   -2.12 0  351 309 
 MON  HZ I        1052 31.64        11.2 0.50            108            351 309 
 ANIL HZ EP   4   1051 41.49                             108    0.03 0  355 224 
 ANIL HN ES   4   1052 21.46                             108    1.42 0  355 224 
 SDV  BZ EP   4   1051 40.69                             108   -1.50 0  363  51 
 SDV  BN ES   4   1052 16.59                             108   -4.74 0  363  51 
 SDV  BZ I        1052 20.14         6.2 0.45            108            363  51 
 PRA  HZ EP       1051 44.08                             106   -1.20 6  391 209 
 PRA  HN ES   1   1052 27.00                             106    0.17 4  391 209 
 PRA  HZ I        1052 32.08        12.7 0.50            106            391 209 
 PAL  HZ EP   4   1051 45.64                             105   -1.12 0  403 239 
 PAL  HN ES       1052 29.80                             105    0.33 6  403 239 
 PAL  HZ I        1052 35.44         6.4 0.26            105            403 239 
                                                                                
