 2014  428 1649 48.5 L   6.778 -73.152144.7  RSN 11 0.4 2.2LRSN                1
 GAP=137        0.77       2.9     3.5  6.2 -0.1008E+01  0.7934E+01 -0.5085E+00E
 Epicentro: LOS SANTOS - SANTANDER                                             3
 OLDACT:REG 14-04-28 22:02 OP:fm   STATUS:               ID:20140428164815     3
 ACTION:UPD 14-05-13 23:12 OP:nd   STATUS:               ID:20140428164948 L   I
 OLDACT:UP  14-04-29 00:50 OP:fm   STATUS:               ID:20140428164815     3
 2014-04-28-1648-15M.COL___248                                                 6
 STAT SP IPHASW D HRMM SECON CODA AMPLIT PERI AZIMU VELO AIN AR TRES W  DIS CAZ7
 PAM  SZ EP       1650 10.91                             150    0.1610 79.7  39 
 PAM  SN ES       1650 28.09                             150   -0.0110 79.7  39 
 RUS  HZ EP       1650 12.16                             144    0.1910 98.2 176 
 RUS  HE ES       1650 30.27                             144   -0.0210 98.2 176 
 RUS  SZ I        1650 30.95        21.7 0.56            142           98.2 176 
 PTB  HZ EP       1650 14.62                             132   -0.66 9  147 260 
 PTB  HN ES       1650 35.68                             132   -0.49 9  147 260 
 PTB  SZ I        1650 36.95        21.0 0.26            128            147 260 
 SPBC HZ EP   1   1650 16.87                             129    0.17 7  161 219 
 SPBC HN ES   2   1650 38.79                             129    0.10 5  161 219 
 SPBC SZ I        1650 40.70        18.1 0.26            126            161 219 
 OCA  HN ES   2   1650 38.97                             129   -0.18 5  163 353 
 ZAR  HZ EP   1   1650 21.06                             122    0.15 6  204 293 
 ZAR  HN ES       1650 46.56                             122    0.37 9  204 293 
 ZAR  SZ I        1650 53.20        15.5 0.22            120            204 293 
 NOR  HE ES   1   1650 52.33                             118    0.72 6  233 235 
 SML  HZ EP   1   1650 24.71                             117   -0.57 6  246 336 
 SML  HN ES   1   1650 54.41                             117    0.44 6  246 336 
 HEL  HE ES   4   1651  1.81                             115    2.07 0  271 256 
 URE  HN ES   4   1651  0.05                             113   -1.52 0  284 292 
 GUY2CHZ EP   1   1650 31.81                             112   -0.03 5  299 235 
 GUY2CHN ES   4   1651  9.38                             112    3.74 0  299 235 
 GUY2CSZ I        1651 13.81         6.7 0.30                           299 235 
 RREF HZ EP   2   1650 35.47                             111    1.12 3  320 230 
 RREF HN ES   4   1651 14.23                             111    4.11 0  320 230 
 RREF SZ I        1651 16.60         7.5 0.36            109            320 230 
 PRA  HZ EP   1   1650 41.38                             106   -0.31 4  390 210 
 PRA  HN ES   4   1651 24.68                             106    1.50 0  390 210 
 PRA  SZ I        1651 34.03         5.3 0.92            105            390 210 
                                                                                
