 2016  828 1200 46.5 L   6.660 -73.168146.0  RSN  7 0.3 1.5LRSN                1
 GAP=139        0.66       3.0     3.0  5.0 -0.1276E+01  0.3812E+01 -0.2289E+01E
 Epicentro: VILLANUEVA - SANTANDER                                             3
 ACTION:UPD 16-10-29 15:40 OP:rebc STATUS:               ID:20160828120046 L   I
 OLDACT:DUP 16-08-28 23:19 OP:ar   STATUS:               ID:20160828115737d    3
 OLDACT:UP  16-08-28 23:18 OP:ar   STATUS:               ID:20160828115736     3
 OLDACT:REG 16-08-28 21:14 OP:ar   STATUS:               ID:20160828115736     3
 2016-08-28-1158-00M.COL___368                                                 6
 STAT SP IPHASW D HRMM SECON CODA AMPLIT PERI AZIMU VELO AIN AR TRES W  DIS CAZ7
 BAR2 EZ EP       12 1  6.06                             177    0.0910 7.70 192 
 BAR2 EZ ES       12 1 21.13                             177   -0.0110 7.70 192 
 BAR2 EZ I        12 1 22.01         7.4 0.26                          7.70 192 
 BRR  HZ EP       12 1  8.13                             150    0.0510 77.8 309 
 BRR  HN ES       12 1 25.30                             150    0.4010 77.8 309 
 BRR  HZ I        12 1 26.36         7.3 0.60                          77.8 309 
 RUS  HZ EP   2   12 1  9.96                             149    0.70 5 85.4 174 
 RUS  HN ES       12 1 27.15                             149    0.1510 85.4 174 
 PAM  EZ EP       12 1  9.31                             147   -0.3310 91.2  35 
 PAM  EN ES       12 1 27.55                             147   -0.1210 91.2  35 
 PAM  EZ I        12 1 29.67         3.0 0.24                          91.2  35 
 PTB  HZ EP       12 1 12.86                             133   -0.23 9  143 265 
 PTB  HN ES       12 1 33.39                             133   -0.42 9  143 265 
 PTB  HZ I        12 1 34.87         4.2 0.12                           143 265 
 SPBC HZ EP   4   12 1  9.79                             132   -4.01 0  150 222 
 SPBC HN ES       12 1 35.00                             132   -0.07 9  150 222 
 SPBC HZ I        12 1 35.24         5.3 0.10                           150 222 
 ZAR  HZ EP   2   12 1 20.00                             122    0.60 4  208 296 
 ZAR  HN ES       12 1 45.22                             122    0.17 8  208 296 
 ZAR  HZ I        12 1 50.74         3.2 0.74                           208 296 
                                                                                
