 2012 1228 1711 47.9 L   6.741 -73.131142.0  RSN  7 0.4 2.1LRSN                1
 GAP=234        0.80       5.7     5.7  5.9  0.9974E+01  0.8893E+01  0.1066E+02E
 Epicentro: JORDAN - SANTANDER                                                 3
 ACTION:UPD 13-01-04 14:31 OP:ep   STATUS:               ID:20121228171147 L   I
 2012-12-28-1710-00M.COL___242                                                 6
 STAT SP IPHASW D HRMM SECON CODA AMPLIT PERI AZIMU VELO AIN AR TRES W  DIS CAZ7
 BAR2 SZ EP       1712  6.99                             173    0.0010 17.4 199 
 BAR2 SZ ES       1712 21.65                             173   -0.2110 17.4 199 
 BAR2 SZ I        1712 23.61        74.3 0.25                          17.4 199 
 BRR  HZ EP       1712  8.81                             150   -0.1410 75.9 302 
 BRR  HN ES       1712 25.81                             150    0.4710 75.9 302 
 BRR  HZ I        1712 28.51        23.6 0.13                          75.9 302 
 RUS  HZ EP       1712 11.00                             145    0.1710 93.9 177 
 RUS  HN ES   1   1712 28.67                             145   -0.02 7 93.9 177 
 RUS  HN I        1712 31.61        21.0 0.25                          93.9 177 
 PTB  HZ EP   1   1712 13.82                             131   -0.81 7  148 261 
 PTB  HE ES   1   1712 34.89                             131   -0.57 7  148 261 
 PTB  HZ I        1712 41.58        13.7 0.29                           148 261 
 NOR  HZ EP   1   1712 23.12                             118   -0.06 6  232 236 
 NOR  HN ES   1   1712 51.06                             118    0.39 6  232 236 
 NOR  HZ I        1713  0.76         9.7 0.40                           232 236 
 CHI  HZ EP   1   1712 24.92                             117    0.14 6  243 196 
 HEL  HZ EP   1   1712 28.67                             114    0.71 6  272 257 
 HEL  HZ I        1713  5.13         7.0 0.40                           272 257 
                                                                                
