 2010  428 1329 12.0 L   6.783 -72.998140.1  RSN  4 0.3 2.0LRSN                1
 GAP=208        0.60       6.7     9.3  6.9  0.8947E+01 -0.1041E+02  0.9265E+00E
 Epicentro: CEPITA - SANTANDER                                                 3
 ACTION:UPD 10-08-24 10:01 OP:vdl  STATUS:               ID:20100428132621dL   I
 2010-04-28-1326-20S.COL___104                                                 6
 STAT SP IPHASW D HRMM SECON CODA AMPLIT PERI AZIMU VELO AIN AR TRES W  DIS CAZ7
 BAR2 SZ IP       1329 30.96                             167    -0.110   29 224 
 BAR2 SZ ES   1   1329 46.04                             167     0.1 7   29 224 
 BRR  HZ IP     C 1329 33.75                             147     0.210   87 294 
 BRR  HE ES   1   1329 50.03                             147    -0.3 7   87 294 
 BRR  HZ I        1329 55.15        17.3 0.20                            87 294 
 GUE  SZ EP   2   1329 36.25                             139     0.1 5  116   4 
 PRA  HZ EP   2   1330  5.09                             105    -1.0 3  399 212 
 PRA  HE ES   2   1330 48.97                             105     0.7 3  399 212 
 PRA  HZ I        1330 52.48         2.5 0.38                           399 212 
                                                                                
