 2014  728 1156 42.3 L   6.818 -73.127146.5  RSN  4 0.4 1.7LRSN                1
 GAP=219        0.89       6.1     6.2  8.5  0.2991E+01  0.9737E+01 -0.2562E+02E
 Epicentro: LOS SANTOS - SANTANDER                                             3
 ACTION:UPD 15-03-16 20:47 OP:nd   STATUS:               ID:20140728115642 L   I
 OLDACT:REG 14-07-28 21:11 OP:carl STATUS:               ID:20140728114814     3
 2014-07-28-1148-14M.COL___257                                                 6
 STAT SP IPHASW D HRMM SECON CODA AMPLIT PERI AZIMU VELO AIN AR TRES W  DIS CAZ7
 BAR2 SZ EP       1157  2.57                             170    0.5210 25.8 194 
 BAR2 SZ ES       1157 17.21                             170   -0.2610 25.8 194 
 BAR2 SZ I        1157 19.73         5.0 0.40            169           25.8 194 
 PTB  HZ EP       1157  9.30                             132   -0.23 9  150 258 
 PTB  HN ES       1157 30.81                             132    0.03 9  150 258 
 PTB  HZ I        1157 37.99         6.8 0.50            132            150 258 
 ZAR  HZ EP       1157 14.28                             122   -0.61 8  205 291 
 ZAR  HN ES       1157 40.79                             122    0.46 8  205 291 
 ZAR  HZ I        1157 47.55         7.2 0.26            123            205 291 
 SML  HZ EP       1157 19.11                             118    0.27 8  243 335 
 SML  HE ES       1157 47.14                             118   -0.22 8  243 335 
 SML  HZ I        1157 54.69         6.0 0.28            119            243 335 
                                                                                
