 2014  828 1137 51.2 L   6.809 -73.201141.2  RSN 11 0.6 2.0LRSN                1
 GAP=129        1.50       4.2     5.6  8.0 -0.2263E+01  0.1365E+02  0.1118E+01E
 Epicentro: ZAPATOCA - SANTANDER                                               3
 ACTION:UPD 14-09-15 21:53 OP:nd   STATUS:               ID:20140828113751 L   I
 OLDACT:DUP 14-08-28 23:11 OP:stll STATUS:               ID:20140828112820d    3
 2014-08-28-1128-19M.COL___260                                                 6
 STAT SP IPHASW D HRMM SECON CODA AMPLIT PERI AZIMU VELO AIN AR TRES W  DIS CAZ7
 BAR2 SZ EP       1138 10.58                             170    0.3110 24.1 175 
 BAR2 SZ ES       1138 25.47                             170    0.3010 24.1 175 
 BAR2 SZ I        1138 26.45        30.6 0.26            171           24.1 175 
 BRR  HZ EP       1138 12.17                             154    0.6610 65.4 300 
 BRR  HZ I        1138 12.37        32.9 0.24            153           65.4 300 
 BRR  HN ES       1138 28.00                             154    0.6410 65.4 300 
 PAM  SZ EP       1138 13.32                             149    0.2110 80.6  43 
 PAM  SN ES       1138 29.93                             149   -0.2910 80.6  43 
 PAM  SZ I        1138 32.69        21.5 0.80            152           80.6  43 
 RUS  HZ EP       1138 14.46                             142   -0.1410  102 173 
 RUS  HN ES       1138 32.37                             142   -0.5010  102 173 
 RUS  HZ I        1138 34.87         7.5 0.20            145            102 173 
 PTB  HZ EP       1138 17.10                             132   -0.15 9  142 258 
 PTB  HN ES       1138 37.43                             132   -0.15 9  142 258 
 PTB  HZ I        1138 40.15         9.9 0.46            133            142 258 
 SPBC HN ES       1138 40.25                             129   -0.54 9  160 217 
 SPBC HZ I        1138 48.34        12.7 0.18            130            160 217 
 ZAR  HZ EP       1138 22.81                             122    0.11 9  198 293 
 ZAR  HN ES       1138 46.40                             122   -0.89 9  198 293 
 ZAR  HZ I        1138 53.53         8.1 0.42            123            198 293 
 NOR  HZ EP       1138 24.36                             118   -1.82 8  230 233 
 NOR  HE ES       1138 53.52                             118    0.04 8  230 233 
 SML  HZ EP       1138 26.80                             117   -0.38 8  240 337 
 SML  HE ES       1138 55.24                             117   -0.01 8  240 337 
 SML  HZ I        1138 59.30        11.9 0.26            118            240 337 
 CHI  HZ EP       1138 28.94                             116    0.37 8  248 194 
 CHI  HN ES       1138 57.74                             116    0.00 8  248 194 
 GUY2CHZ EP       1138 35.49                             112    1.40 7  297 234 
 GUY2CHN ES       1139  8.69                             112    1.14 7  297 234 
                                                                                
