 2017  328 1358  5.6 L   6.530 -73.589106.0  RSN  4 0.3 0.9LRSN                1
 GAP=134        0.82       6.3     4.3  9.2  0.1668E+02  0.8197E+01 -0.3821E+00E
 Epicentro: EL CARMEN - SANTANDER                                              3
 ACTION:UPD 17-05-25 18:46 OP:jn   STATUS:               ID:20170328135805 L   I
 OLDACT:REG 17-03-28 20:23 OP:lv   STATUS:               ID:20170328134745     3
 2017-03-28-1348-00M.COL___367                                                 6
 STAT SP IPHASW D HRMM SECON CODA AMPLIT PERI AZIMU VELO AIN AR TRES W  DIS CAZ7
 BAR2 EZ EP       1358 20.98                             155   -0.3810 45.4  81 
 BAR2 EZ ES       1358 33.65                             155   -0.0010 45.4  81 
 BAR2 EZ I        1358 34.25         4.8 0.17            157           45.4  81 
 RUS  HZ EP       1358 24.70                             137   -0.0910 89.9 142 
 RUS  HN ES       1358 40.14                             137    0.3910 89.9 142 
 RUS  HZ I        1358 42.20         1.2 0.31            137           89.9 142 
 PTB  HZ EP   4   1358 19.80                             134   -4.85 0 96.0 271 
 PTB  HN ES       1358 39.21                             134   -0.2910 96.0 271 
 PTB  HZ I        1358 40.34         1.4 0.09            136           96.0 271 
 ZAR  HN ES       1358 54.30                             116    0.46 9  176 307 
                                                                                
