 2017  928 1237 36.6 L   6.673 -73.567108.2  RSN  5 0.3 1.6LRSN                1
 GAP=120        0.83       4.0     4.3  7.4  0.8352E+01  0.1767E+02  0.9305E+01E
 Epicentro: EL CARMEN - SANTANDER                                              3
 ACTION:UPD 17-10-05 19:17 OP:rebc STATUS:               ID:20170928123736 L   I
 OLDACT:UP  17-09-28 22:02 OP:osc  STATUS:               ID:20170928122741d    3
 OLDACT:DUP 17-09-28 21:55 OP:osc  STATUS:               ID:20170928122741d    3
 OLDACT:REG 17-09-28 20:22 OP:osc  STATUS:               ID:20170928122740     3
 2017-09-28-1228-00M.COL___416                                                 6
 STAT SP IPHASW D HRMM SECON CODA AMPLIT PERI AZIMU VELO AIN AR TRES W  DIS CAZ7
 BAR2 EZ EP       1237 52.67                             156    0.1910 43.5 102 
 BAR2 EZ ES       1238  5.10                             156    0.2110 43.5 102 
 BAR2 EZ I        1238  5.78        31.0 0.16            157           43.5 102 
 BRR  HZ EP       1237 52.44                             153   -0.0610 50.5 342 
 BRR  HN ES       1238  4.74                             153   -0.1810 50.5 342 
 RUS  HZ EP       1237 57.35                             134    0.4010  102 148 
 RUS  HN ES       1238 12.40                             134   -0.4410  102 148 
 RUS  HZ I        1238 13.93         3.4 0.18            134            102 148 
 ZAR  HZ EP       1238  2.44                             118   -0.57 9  169 302 
 ZAR  HE ES       1238 24.00                             118    0.37 9  169 302 
 NOR  HE ES       1238 27.77                             115    0.07 9  189 230 
                                                                                
