 2014 1128 1400 14.3 L   6.585 -73.547105.7  RSN 14 0.5 2.0LRSN                1
 GAP= 66        1.15       2.9     3.1  6.1 -0.1714E+01  0.8095E+01  0.2966E+01E
 Epicentro: EL CARMEN - SANTANDER                                              3
 ACTION:UPD 14-12-19 15:48 OP:nd   STATUS:               ID:20141128140014 L   I
 OLDACT:REG 14-11-28 21:11 OP:fm   STATUS:               ID:20141128135747     3
 2014-11-28-1357-47M.COL___306                                                 6
 STAT SP IPHASW D HRMM SECON CODA AMPLIT PERI AZIMU VELO AIN AR TRES W  DIS CAZ7
 BAR2 SZ IP     D 14 0 30.12                             158    0.3310 40.4  89 
 BAR2 SZ ES       14 0 42.42                             158    0.5610 40.4  89 
 BAR2 SZ I        14 0 44.24        99.1 0.44            161           40.4  89 
 BRR  HZ EP       14 0 30.97                             148    0.4010 60.6 343 
 BRR  HN ES       14 0 43.49                             148    0.2310 60.6 343 
 BRR  HZ I        14 0 55.35        18.2 0.18            147           60.6 343 
 RUS  HZ EP       14 0 33.16                             136   -0.4910 92.2 146 
 RUS  HN ES       14 0 48.14                             136   -0.6010 92.2 146 
 RUS  HZ I        14 0 50.27        18.4 0.38            140           92.2 146 
 PTB  HZ IP     C 14 0 32.95                             133   -0.7910  101 267 
 PTB  HE ES       14 0 48.27                             133   -0.6310  101 267 
 PTB  HZ I        14 0 52.52        27.4 0.22            133            101 267 
 PAM  SZ EP       14 0 36.51                             126   -0.2010  125  48 
 PAM  SN ES       14 0 54.33                             126    0.1410  125  48 
 PAM  SZ I        14 0 58.71        12.1 0.52            129            125  48 
 ZAR  HN ES       14 1  2.86                             116    0.33 9  176 305 
 ZAR  HZ I        14 1  6.60        27.1 0.34            117            176 305 
 NOR  HN ES       14 1  4.82                             115    0.49 9  185 232 
 OCA  HN ES       14 1  4.49                             115   -0.04 9  185   8 
 OCA  HZ I        14 1  9.96        14.9 0.52            116            185   8 
 NOR  HZ EP       14 0 41.69                             115   -0.72 9  185 232 
 NOR  HZ I        14 1  7.69        17.3 0.14            116            185 232 
 HEL  HZ EP       14 0 47.65                             110    0.47 8  224 259 
 HEL  HE ES       14 1 12.03                             110   -0.79 8  224 259 
 HEL  HZ I        14 1 17.84        10.6 0.32            111            224 259 
 GUY2CHZ EP       14 0 50.54                             107    0.01 8  251 233 
 GUY2CHN ES       14 1 19.29                             107    0.51 8  251 233 
 GUY2CHZ I        14 1 28.30         8.6 0.48                           251 233 
 RREF HZ EP       14 0 53.58                             105    0.34 8  273 227 
 RREF HN ES       14 1 24.51                             105    0.90 8  273 227 
 RREF HZ I        14 1 28.29         5.1 0.30            107            273 227 
 TOL  SZ EP       14 0 56.20                             104    0.62 7  296 222 
 TOL  SE ES       14 1 27.84                             104    0.06 7  296 222 
 TOL  SZ I        14 1 31.87         8.3 0.62            105            296 222 
 MON  HZ EP       14 1  0.05                             101   -0.01 7  337 316 
 MON  HE ES       14 1 35.31                             101   -0.43 7  337 316 
 MON  HZ I        14 1 37.71         3.3 0.22            102            337 316 
 ORTC HZ EP       14 1  1.88                             100    0.10 6  351 213 
 ORTC HN ES       14 1 38.72                             100   -0.09 6  351 213 
 ORTC HZ I        14 1 41.40         3.3 0.20            102            351 213 
 SJC  HZ EP   4   14 1  6.56                              97   -2.16 0  408 334 
                                                                                
