 2011  128 1047 17.8 L   6.783 -73.114140.7  RSN  8 0.3 1.5LRSN                1
 GAP=162        0.60       3.1     8.7  5.1 -0.1502E+02  0.4423E+01 -0.8955E+00E
 Epicentro: LOS SANTOS - SANTANDER                                             3
 ACTION:UP  11-02-08 08:43 OP:pat  STATUS:               ID:20110128104717 L   I
 2011-01-28-1043-42S.COL___138                                                 6
 STAT SP IPHASW D HRMM SECON CODA AMPLIT PERI AZIMU VELO SNR AR TRES W  DIS CAZ7
 BAR2 SZ EP       1047 36.84                             170     0.010   23 200 
 BTL  SZ EP       1047 37.02                             171     0.210   23 311 
 BTL  SZ ES   2   1047 52.29                             171     0.6 5   23 311 
 BAR2 SZ ES   1   1047 51.49                             170    -0.2 7   23 200 
 BAR2 SZ I        1047 54.65        10.4 0.38                            23 200 
 GIR2 SZ ES   3   1047 51.45                             166    -0.4 2   34 345 
 RUS  HZ EP       1047 41.23                             143     0.310   99 178 
 RUS  HN ES   2   1047 58.40                             143    -0.5 5   99 178 
 RUS  HZ I        1048  0.87         3.4 0.30                            99 178 
 GRA  SZ EP       1047 42.44                             136    -0.210  127  16 
 GRA  SZ ES   1   1048  2.00                             136    -0.1 7  127  16 
 GRA  SZ I        1048  5.36         5.8 0.56                           127  16 
 OCA  SZ EP       1047 45.92                             128     0.0 9  163 352 
 OCA  SZ I        1048 10.39         4.9 0.24                           163 352 
 NOR  SN ES   2   1048 20.95                             117    -0.3 4  237 235 
 CHI  HZ EP   1   1047 55.06                             116    -0.1 6  248 196 
 CHI  HN ES   1   1048 24.08                             116    -0.2 6  248 196 
 CHI  HZ I        1048 32.61         2.6 0.67                           248 196 
                                                                                
