 2017 1028 1124  8.1 L   6.811 -73.148146.3  RSN 10 0.4 1.7LRSN                1
 GAP=111        1.12       3.7     3.9  6.1  0.1758E+01  0.4666E+01  0.5177E+01E
 Epicentro: LOS SANTOS - SANTANDER                                             3
 ACTION:UPD 17-11-07 19:38 OP:rebc STATUS:               ID:20171028112408 L   I
 OLDACT:REG 17-10-28 19:36 OP:dhb  STATUS:               ID:20171028111739     3
 2017-10-28-1118-00M.COL___435                                                 6
 STAT SP IPHASW D HRMM SECON CODA AMPLIT PERI AZIMU VELO AIN AR TRES W  DIS CAZ7
 BAR2 EZ IP     D 1124 27.61                             170   -0.2510 24.4 189 
 BAR2 EZ ES       1124 42.37                             170   -0.8710 24.4 189 
 BAR2 EZ I        1124 43.69        10.3 0.32            169           24.4 189 
 BRR  HZ IP     D 1124 29.41                             153    0.1110 70.4 298 
 BRR  HE ES       1124 46.50                             153    0.6910 70.4 298 
 BRR  HZ I        1124 50.34        11.7 0.42            153           70.4 298 
 PAM  EZ IP     D 1124 30.63                             151    0.2610 76.6  40 
 PAM  EE ES       1124 47.64                             151   -0.0710 76.6  40 
 PAM  EZ I        1124 49.97         7.6 0.84            154           76.6  40 
 RUS  HZ EP       1124 31.81                             144   -0.2210  102 176 
 RUS  HN ES       1124 50.79                             144    0.1310  102 176 
 RUS  HZ I        1124 51.42         7.5 0.24            144            102 176 
 PTB  HZ EP       1124 34.38                             132   -0.77 9  148 258 
 PTB  HE ES       1124 56.25                             132    0.03 9  148 258 
 PTB  HZ I        1124 57.42         3.5 0.14            132            148 258 
 SPBC HZ EP       1124 36.55                             129   -0.20 9  164 219 
 SPBC HN ES       1124 59.26                             129    0.19 9  164 219 
 SPBC HZ I        1125  2.49         6.0 0.12            130            164 219 
 YPLC HZ EP       1124 38.06                             126   -0.02 9  178 151 
 YPLC HE ES       1125  2.27                             126    0.83 9  178 151 
 YPLC HZ I        1125  6.07         8.4 0.86            128            178 151 
 ZAR  HZ EP       1124 41.17                             123    0.62 9  203 292 
 ZAR  HN ES       1125  5.52                             123   -0.31 9  203 292 
 ZAR  HZ I        1125 11.13         4.9 0.52            123            203 292 
 NOR  HZ EP       1124 43.87                             118   -0.08 8  235 234 
 NOR  HN ES       1125 12.53                             118    0.64 8  235 234 
 NOR  HZ I        1125 19.48         2.7 0.20            119            235 234 
 CHI  HZ EP       1124 45.88                             117   -0.10 8  250 195 
 CHI  HE ES       1125 15.03                             117   -0.47 8  250 195 
 CHI  HZ I        1125 17.59         3.0 0.28            118            250 195 
                                                                                
