 2013  328 1335 36.0 L   6.295 -73.876 18.0  RSN  5 0.2 2.0LRSN                1
 GAP=176        0.50       1.9     1.2  5.7  0.8433E+00 -0.1526E+01 -0.1435E+01E
 Epicentro: CIMITARRA - SANTANDER                                              3
 ACTION:UPD 13-04-09 14:05 OP:ep   STATUS:               ID:20130328133536 L   I
 2013-03-28-1330-00M.COL___245                                                 6
 STAT SP IPHASW D HRMM SECON CODA AMPLIT PERI AZIMU VELO AIN AR TRES W  DIS CAZ7
 PTB  HZ EP       1335 47.21                             102   -0.1510 69.7 293 
 PTB  HN ES       1335 56.49                             102    0.2410 69.7 293 
 PTB  HN I        1335 57.18        81.4 0.36            106           69.7 293 
 BAR2 SZ EP       1335 49.75                             101    0.1110 83.4  67 
 BAR2 SZ ES       1336  0.51                             101    0.2110 83.4  67 
 BAR2 SZ I        1336  1.67        26.0 0.20            104           83.4  67 
 BRR  HZ EP       1335 50.30                              99   -0.3110 91.6  11 
 BRR  HN ES   1   1336  1.94                              99   -0.10 7 91.6  11 
 BRR  HN I        1336  2.42        45.7 0.42            102           91.6  11 
 RUS  HZ EP       1335 52.17                              99    0.0410 98.4 117 
 RUS  HN ES       1336  4.63                              99   -0.1110 98.4 117 
 RUS  HN I        1336  4.97        76.5 0.40            102           98.4 117 
 PAM  SN ES   2   1336 23.10                              56    0.17 4  174  48 
                                                                                
