 2017  328 1303 20.6 L   6.375 -73.625102.6  RSN  6 0.4 1.2LRSN                1
 GAP= 80        1.14       4.2     4.1  9.1 -0.1673E+01  0.1193E+02  0.6413E+01E
 Epicentro: SANTA HELENA DEL OPON - SANTANDER                                  3
 ACTION:UPD 17-05-25 18:46 OP:jn   STATUS:               ID:20170328130320 L   I
 OLDACT:DUP 17-03-28 22:10 OP:lv   STATUS:               ID:20170328125741d    3
 2017-03-28-1258-00M.COL___367                                                 6
 STAT SP IPHASW D HRMM SECON CODA AMPLIT PERI AZIMU VELO AIN AR TRES W  DIS CAZ7
 BAR2 EZ EP       13 3 36.69                             150    0.2210 54.6  64 
 BAR2 EZ ES       13 3 49.05                             150    0.1810 54.6  64 
 BAR2 EZ I        13 3 50.56         6.4 0.37            155           54.6  64 
 RUS  HZ EP       13 3 39.14                             139    0.4910 80.3 132 
 RUS  HN ES       13 3 52.07                             139   -0.6910 80.3 132 
 RUS  HZ I        13 3 53.60         2.8 0.35            146           80.3 132 
 BRR  HZ EP       13 3 38.02                             138   -0.0510 81.5 353 
 BRR  HN ES       13 3 52.11                             138    0.3910 81.5 353 
 BRR  HZ I        13 3 57.33         4.0 0.20            141           81.5 353 
 PTB  HZ EP       13 3 38.34                             134   -0.7810 93.7 281 
 PTB  HN ES       13 3 53.21                             134   -0.3810 93.7 281 
 PTB  HZ I        13 3 56.07         3.1 0.10            137           93.7 281 
 SPBC HZ EP       13 3 39.07                             134   -0.1810 94.0 212 
 SPBC HN ES       13 3 54.07                             134    0.2510 94.0 212 
 SPBC HZ I        13 3 56.17         6.2 0.10            139           94.0 212 
 NOR  HZ EP       13 3 46.25                             117   -0.00 9  164 237 
 NOR  HN ES       13 4  6.95                             117    0.66 9  164 237 
 NOR  HZ I        13 4  8.70         3.9 0.18            121            164 237 
                                                                                
