 2012  728 1611 35.1 L   6.858 -73.390115.7  RSN  6 0.5 1.9LRSN                1
 GAP=194        1.31       9.8     7.7 12.4  0.2004E+02  0.2987E+02  0.2230E+02E
 Epicentro: SAN VICENTE DE CHUCURI - SANTANDER                                 3
 ACTION:UPD 12-08-14 11:46 OP:ep   STATUS:               ID:20120728161135 L   I
 2012-07-28-1610-00M.COL___215                                                 6
 STAT SP IPHASW D HRMM SECON CODA AMPLIT PERI AZIMU VELO AIN AR TRES W  DIS CAZ7
 BAR2 SZ EP       1611 51.90                             161     0.310   37 142 
 BAR2 SZ ES   1   1612  3.94                             161    -0.6 7   37 142 
 BAR2 SZ I        1612  5.96        36.9 0.21            165             37 142 
 BRR  HZ EP       1611 51.70                             157     0.110   45 308 
 BRR  HN ES   1   1612  4.95                             157     0.5 7   45 308 
 BRR  HZ I        1612  5.78        27.8 0.14            155             45 308 
 RUS  HZ EP   1   1611 57.59                             133     0.5 7  112 162 
 PTB  HZ EP       1611 56.60                             130    -0.810  123 253 
 PTB  HN ES   1   1612 14.30                             130    -0.5 7  123 253 
 PTB  HZ I        1612 17.75         9.4 0.18            130            123 253 
 ZAR  HZ EP   1   1612  2.68                             119    -0.2 7  177 293 
 ZAR  HN ES   1   1612 24.97                             119     0.5 7  177 293 
 ZAR  HZ I        1612 28.57        11.7 0.29            120            177 293 
 NOR  SN ES   1   1612 33.35                             113     0.8 6  217 229 
