 2013  928 1330 56.3 L   6.760 -73.186142.4  RSN 10 0.3 1.9LRSN                1
 GAP=133        0.79       2.8     3.3  4.7 -0.2943E+00  0.4436E+01  0.2385E+01E
 Epicentro: VILLANUEVA - SANTANDER                                             3
 ACTION:UPD 13-10-22 09:25 OP:ep   STATUS:               ID:20130928133056 L   I
 OLDACT:REG 13-09-28 15:46 OP:jn   STATUS:               ID:20130928132959     3
 2013-09-28-1329-59M.COL___272                                                 6
 STAT SP IPHASW D HRMM SECON CODA AMPLIT PERI AZIMU VELO AIN AR TRES W  DIS CAZ7
 BAR2 SZ EP       1331 15.46                             172   -0.0110 18.6 179 
 BAR2 SZ ES       1331 30.61                             172    0.2210 18.6 179 
 BAR2 SZ I        1331 32.04        20.3 0.20            170           18.6 179 
 BRR  HZ EP       1331 17.30                             152    0.2710 69.7 303 
 BRR  HN ES       1331 33.80                             152    0.6310 69.7 303 
 BRR  HZ I        1331 36.92        20.8 0.28            151           69.7 303 
 PAM  SZ EP       1331 18.43                             148   -0.1410 83.6  40 
 PAM  SN ES       1331 35.45                             148   -0.4810 83.6  40 
 PAM  SZ I        1331 37.91        11.7 0.58            153           83.6  40 
 RUS  HZ EP       1331 19.51                             144    0.0510 96.6 173 
 RUS  HN ES       1331 37.51                             144    0.0010 96.6 173 
 RUS  HZ I        1331 39.47         7.2 0.36            145           96.6 173 
 PTB  HZ EP       1331 22.26                             132   -0.29 9  143 260 
 PTB  HN ES       1331 42.57                             132   -0.44 9  143 260 
 PTB  HZ I        1331 45.83        13.5 0.16            132            143 260 
 ZAR  HZ EP       1331 28.30                             122   -0.01 9  202 294 
 ZAR  HN ES   1   1331 53.31                             122    0.05 6  202 294 
 ZAR  HZ I        1331 59.28        11.4 0.26            123            202 294 
 NOR  HZ EP       1331 31.57                             118    0.37 8  229 235 
 NOR  HN ES       1331 57.94                             118   -0.46 8  229 235 
 NOR  HZ I        1332  7.35         7.1 0.16            119            229 235 
 CHI  HZ EP       1331 33.77                             117    0.52 8  243 194 
 CHI  HN ES       1332  1.82                             117   -0.24 8  243 194 
 CHI  HZ I        1332  8.10         5.4 0.42            118            243 194 
 SML  HN ES   2   1332  1.31                             116   -0.31 4  246 337 
 RREF HZ EP   2   1331 41.79                             111    0.18 3  316 229 
                                                                                
