 2014  328 1032 59.4 L   6.747 -73.175143.8  RSN  7 0.4 1.6LRSN                1
 GAP=197        0.94       3.6     5.3  8.8  0.4222E+01  0.2575E+01 -0.9276E+01E
 Epicentro: VILLANUEVA - SANTANDER                                             3
 ACTION:UPD 14-04-09 23:21 OP:nd   STATUS:               ID:20140328103259 L   I
 OLDACT:UP  14-03-28 17:51 OP:mh   STATUS:               ID:20140328102815d    3
 OLDACT:UP  14-03-28 17:51 OP:mh   STATUS:               ID:20140328102815d    3
 OLDACT:DUP 14-03-28 17:41 OP:mh   STATUS:               ID:20140328102815d    3
 2014-03-28-1028-14M.COL___253                                                 6
 STAT SP IPHASW D HRMM SECON CODA AMPLIT PERI AZIMU VELO AIN AR TRES W  DIS CAZ7
 BAR2 SZ EP       1033 18.84                             173    0.1110 17.2 183 
 BAR2 SZ I        1033 35.60        10.6 0.21            174           17.2 183 
 RUS  HZ EP   1   1033 22.27                             145   -0.34 7 95.1 174 
 RUS  HN ES       1033 40.92                             145    0.2510 95.1 174 
 RUS  HZ I        1033 42.46         3.4 0.23            148           95.1 174 
 PTB  HZ EP       1033 25.47                             132   -0.40 9  144 261 
 PTB  HN ES       1033 45.64                             132   -0.83 9  144 261 
 PTB  HZ I        1033 50.69         6.1 0.06            136            144 261 
 ZAR  HZ EP       1033 32.05                             122    0.36 9  203 294 
 ZAR  HN ES   1   1033 57.37                             122    0.54 6  203 294 
 ZAR  HZ I        1034  0.10         4.9 0.23            125            203 294 
 NOR  HZ EP   1   1033 34.15                             119   -0.27 6  229 235 
 NOR  HN ES       1034  2.45                             119    0.76 8  229 235 
 NOR  HZ I        1034  9.12         3.3 0.16            122            229 235 
 CHI  HZ EP       1033 36.39                             117    0.06 8  242 195 
 CHI  HE ES       1034  4.99                             117   -0.11 8  242 195 
 CHI  HZ I        1034 11.93         1.2 0.09            120            242 195 
 SML  HZ EP       1033 36.33                             116   -0.06 8  248 337 
 SML  HN ES       1034  5.38                             116    0.17 8  248 337 
 SML  HZ I        1034 12.09         3.2 0.08            119            248 337 
                                                                                
