 2012  428 1456 18.7 L   6.787 -73.153145.7  RSN  6 0.3 1.8LRSN                1
 GAP=136        0.83       5.5     4.8  7.6  0.3542E+01  0.4887E+01  0.3378E+01E
 Epicentro: LOS SANTOS - SANTANDER                                             3
 ACTION:UPD 12-07-05 11:56 OP:tino STATUS:               ID:20120428145618 L   I
 2012-04-28-1450-00M.COL___189                                                 6
 STAT SP IPHASW D HRMM SECON CODA AMPLIT PERI AZIMU VELO AIN AR TRES W  DIS CAZ7
 BAR2 SZ EP   1   1456 38.32                             171     0.0 7   22 189 
 BAR2 SZ ES   1   1456 53.03                             171    -0.6 7   22 189 
 BAR2 SZ I        1456 56.06        15.8 0.30                            22 189 
 BRR  HZ EP   1   1456 40.24                             152     0.4 7   71 300 
 BRR  HN ES       1456 56.69                             152     0.410   71 300 
 BRR  HZ I        1456 59.48        18.6 0.27                            71 300 
 PAM  SZ EP   1   1456 41.24                             150     0.2 7   79  39 
 PAM  SZ I        1456 41.44        15.4 0.12                            79  39 
 PAM  SN ES   1   1456 58.10                             150    -0.3 7   79  39 
 RUS  HZ EP   1   1456 42.12                             144    -0.2 7   99 176 
 RUS  HN ES   1   1457  1.24                             144     0.4 7   99 176 
 RUS  HZ I        1457  2.97         7.3 0.24                            99 176 
 PTB  HZ EP   1   1456 45.28                             132    -0.3 7  147 259 
 PTB  HN ES   1   1457  6.35                             132    -0.2 7  147 259 
 PTB  HZ I        1457 11.65         5.1 0.21                           147 259 
 ZAR  HN ES   1   1457 16.14                             122    -0.3 6  204 293 
                                                                                
