 2015  428 1704  1.6 L   6.749 -73.157135.5  RSN  7 0.4 1.8LRSN                1
 GAP=137        0.87       4.3     4.4  5.8  0.5356E+01  0.9509E+01  0.2661E+01E
 Epicentro: LOS SANTOS - SANTANDER                                             3
 ACTION:UPD 15-06-03 16:58 OP:cam  STATUS:               ID:20150428170401 L   I
 OLDACT:REG 15-04-28 22:07 OP:ak   STATUS:               ID:20150428165750     3
 2015-04-28-1657-50M.COL___280                                                 6
 STAT SP IPHASW D HRMM SECON CODA AMPLIT PERI AZIMU VELO AIN AR TRES W  DIS CAZ7
 BAR2 EZ EP       17 4 20.07                             172    0.1610 17.6 189 
 BAR2 EZ ES       17 4 34.47                             172    0.3010 17.6 189 
 BAR2 EZ I        17 4 36.12        24.6 0.17            174           17.6 189 
 BRR  HZ EP       17 4 21.93                             150    0.1510 73.0 303 
 BRR  HN ES       17 4 37.31                             150   -0.1810 73.0 303 
 PAM  SN ES   2   17 4 39.85                             147    0.02 5 82.6  38 
 PAM  SZ I        17 4 42.49         6.4 0.44            148           82.6  38 
 RUS  HZ EP       17 4 23.92                             143   -0.0510 95.1 175 
 RUS  HE ES       17 4 41.22                             143   -0.1710 95.1 175 
 PTB  HZ EP       17 4 26.92                             130   -0.64 9  145 261 
 PTB  HN ES       17 4 47.23                             130   -0.56 9  145 261 
 PTB  HZ I        17 4 50.14         7.9 0.18            130            145 261 
 ZAR  HZ EP       17 4 33.36                             120   -0.17 9  205 294 
 ZAR  HN ES       17 4 58.92                             120    0.51 9  205 294 
 ZAR  HZ I        17 5  6.74         5.3 0.14            120            205 294 
 NOR  HZ EP       17 4 36.65                             117    0.34 8  230 235 
 NOR  HN ES       17 5  3.88                             117    0.52 8  230 235 
 NOR  HZ I        17 5  6.37         5.4 0.17            118            230 235 
                                                                                
