 2012  128 1825 40.1 L   6.800 -73.121134.0  RSN  5 0.4 1.5LRSN                1
 GAP=140        1.08       6.6     9.8 10.4 -0.1189E+01 -0.6699E+01  0.9348E+00E
 Epicentro: LOS SANTOS - SANTANDER                                             3
 ACTION:UP  12-02-03 08:21 OP:REBC STATUS:               ID:20120128182540 L   I
 2012-01-28-1820-00M.COL___188                                                 6
 STAT SP IPHASW D HRMM SECON CODA AMPLIT PERI AZIMU VELO SNR AR TRES W  DIS CAZ7
 BAR2 SZ EP       1825 58.17                             169    -0.110   24 197 
 BAR2 SZ ES   1   1826 11.55                             169    -1.0 7   24 197 
 BAR2 SZ I        1826 14.26         7.3 0.60                            24 197 
 GIR2 SZ EP       1825 58.17                             166    -0.210   32 345 
 BRR  HZ EP       1825 59.95                             149    -0.210   74 298 
 BRR  HZ I        1826  0.04        13.7 0.14                            74 298 
 BRR  HN ES   1   1826 16.35                             149     0.6 7   74 298 
 PAM  SZ EP       1826  1.09                             149     0.210   76  38 
 PAM  SN ES   1   1826 17.47                             149     0.3 7   76  38 
 RUS  HZ EP       1826  2.66                             141     0.010  100 178 
 RUS  HN ES   1   1826 20.95                             141     0.7 7  100 178 
 RUS  HZ I        1826 22.43         4.2 0.28                           100 178 
                                                                                
