 2017  228 1108 51.8 L   6.164 -73.691109.5  RSN  4 0.1 1.0LRSN                1
 GAP=182        0.40       2.7     2.2  5.2  0.2642E+01  0.8718E+00  0.2372E+01E
 Epicentro: LA PAZ - SANTANDER                                                 3
 ACTION:UPD 17-05-24 15:41 OP:jn   STATUS:               ID:20170228110851 L   I
 OLDACT:REG 17-02-28 20:12 OP:lv   STATUS:               ID:20170228110749     3
 2017-02-28-1108-00M.COL___372                                                 6
 STAT SP IPHASW D HRMM SECON CODA AMPLIT PERI AZIMU VELO AIN AR TRES W  DIS CAZ7
 RUS  HZ EP       11 9  9.93                             144   -0.1410 73.6 114 
 RUS  HN ES       11 9 24.42                             144    0.1210 73.6 114 
 BAR2 EZ EP       11 9  9.83                             144    0.1210 73.6  50 
 BAR2 EZ ES       11 9 23.50                             144   -0.1510 73.6  50 
 BAR2 EZ I        11 9 24.77         6.2 0.20             61           73.6  50 
 PTB  HN ES       11 9 25.99                             136   -0.0210 94.3 296 
 PTB  HZ I        11 9 27.49         1.0 0.18             61           94.3 296 
 BRR  HZ ES       11 9 27.59                             133    0.0610  104 359 
                                                                                
