 2017 1028 1948 24.6 L   6.765 -73.136140.7  RSN  8 0.3 1.5LRSN                1
 GAP=139        0.79       3.0     3.3  5.2 -0.2232E+00  0.5103E+01  0.2019E+01E
 Epicentro: LOS SANTOS - SANTANDER                                             3
 ACTION:UPD 17-11-07 19:38 OP:rebc STATUS:               ID:20171028194824 L   I
 OLDACT:UP  17-10-29 00:53 OP:edw  STATUS:               ID:20171028194743     3
 OLDACT:REG 17-10-28 20:30 OP:dhb  STATUS:               ID:20171028194743     3
 2017-10-28-1948-00M.COL___447                                                 6
 STAT SP IPHASW D HRMM SECON CODA AMPLIT PERI AZIMU VELO AIN AR TRES W  DIS CAZ7
 BAR2 EZ EP       1948 43.25                             172   -0.2810 19.8 195 
 BAR2 EZ ES       1948 57.97                             172   -0.3510 19.8 195 
 BAR2 EZ I        1948 59.30         8.6 0.20            170           19.8 195 
 BRR  HZ EP       1948 45.65                             151    0.3010 74.0 301 
 BRR  HE ES       1949  1.74                             151    0.1810 74.0 301 
 PAM  EZ EP       1948 46.44                             149    0.0310 79.8  37 
 PAM  EE ES       1949  3.09                             149   -0.3410 79.8  37 
 PAM  EZ I        1949  5.38         8.2 0.50            152           79.8  37 
 RUS  HZ EP       1948 47.77                             144    0.2210 96.6 177 
 RUS  HN ES       1949  6.13                             144    0.6610 96.6 177 
 RUS  HZ I        1949  6.81         4.2 0.36            144           96.6 177 
 PTB  HN ES       1949 11.87                             131   -0.04 9  148 260 
 ZAR  HZ EP       1948 56.98                             121    0.02 8  207 293 
 ZAR  HN ES       1949 22.47                             121    0.25 8  207 293 
 ZAR  HZ I        1949 27.34         4.5 0.46            121            207 293 
 NOR  HZ EP       1948 59.67                             117   -0.20 8  233 235 
 NOR  HE ES       1949 27.03                             117   -0.37 8  233 235 
 NOR  HZ I        1949 34.68         2.5 0.18            117            233 235 
 CHI  HE ES       1949 30.20                             116   -0.32 8  245 196 
 CHI  HZ I        1949 34.09         1.8 0.38            116            245 196 
                                                                                
