 2010  828 1649 16.8 L   6.805 -73.035141.2  RSN 13 0.4 2.5LRSN                1
 GAP=134        1.00       4.0     6.5  5.7 -0.8846E+01 -0.4709E+01 -0.7126E+00E
 Epicentro: CEPITA - SANTANDER                                                 3
 ACTION:UP  10-09-07 10:58 OP:vdl  STATUS:               ID:20100828164916 L   I
 2010-08-28-1645-39S.COL___120                                                 6
 STAT SP IPHASW D HRMM SECON CODA AMPLIT PERI AZIMU VELO SNR AR TRES W  DIS CAZ7
 BAR2 SZ EP       1649 35.92                             168     0.010   29 215 
 BTL  SZ EP       1649 36.11                             168     0.110   29 296 
 BTL  SZ ES   1   1649 49.70                             168    -1.2 7   29 296 
 BAR2 SZ ES       1649 51.13                             168     0.210   29 215 
 BAR2 SZ I        1649 53.16        64.4 0.22                            29 215 
 GIR2 SZ EP   1   1649 35.99                             165     0.0 7   35 330 
 BRR  HZ IP     C 1649 37.84                             148    -0.210   82 294 
 BRR  HZ I        1649 38.17       133.1 0.22                            82 294 
 BRR  HN ES       1649 55.15                             148     0.510   82 294 
 RUS  HZ EP   1   1649 39.72                             143    -0.4 7  101 183 
 RUS  HN ES   1   1649 58.51                             143     0.2 7  101 183 
 RUS  HZ I        1650  0.37        25.5 0.21                           101 183 
 GUE  SZ EP       1649 41.00                             139     0.110  114   6 
 GRA  SZ EP       1649 41.71                             137     0.410  122  12 
 GRA  SZ I        1650  2.62        56.0 0.37                           122  12 
 OCA  SZ EP       1649 44.77                             128    -0.1 9  162 349 
 OCA  SZ ES   1   1650  6.60                             128    -0.2 7  162 349 
 OCA  SZ I        1650 11.43        46.8 0.04                           162 349 
 ROSC BN ES   1   1650 26.13                             115     0.6 6  260 213 
 ROSC BZ I        1650 31.79        23.6 0.32                           260 213 
 HEL  HZ EP   1   1649 58.27                                     0.2 6  284 256 
 HEL  HN ES   2   1650 29.55                             113    -0.8 4  284 256 
 HEL  HZ I        1650 34.89        13.2 0.28                           284 256 
 RREF HZ EP   1   1650  3.91                             109     0.1 5  331 231 
 RREF HE ES   2   1650 39.66                             109    -0.9 3  331 231 
 RREF HZ I        1650 45.60        22.2 0.24                           331 231 
 SDV  BZ EP       1650  5.23                             108    -0.3 6  351  49 
 SDV  BZ I        1650  6.05         7.2 0.16                           351  49 
 PRA  HZ EP   1   1650 10.23                             105    -0.7 4  399 211 
 PRA  HN ES   1   1650 53.24                             105     0.1 4  399 211 
 PRA  HZ I        1650 57.44        11.4 0.36                           399 211 
                                                                                
