 2010 1128 1738  2.0 L   6.788 -73.077149.1  RSN  8 0.4 1.9LRSN                1
 GAP=166        0.69       3.5     7.2  6.3 -0.7261E+01  0.3072E+01  0.1722E+01E
 Epicentro: LOS SANTOS - SANTANDER                                             3
 ACTION:UP  10-12-17 16:55 OP:REBC STATUS:               ID:20101128173802 L   I
 2010-11-28-1720-00M.COL___133                                                 6
 STAT SP IPHASW D HRMM SECON CODA AMPLIT PERI AZIMU VELO SNR AR TRES W  DIS CAZ7
 BAR2 SZ EP   1   1738 22.26                             170     0.2 7   25 209 
 BAR2 SZ ES   1   1738 37.38                             170    -0.4 7   25 209 
 BAR2 SZ I        1738 38.98        20.2 0.31                            25 209 
 BRR  HZ EP   1   1738 24.04                             151     0.1 7   79 297 
 BRR  HN ES   1   1738 41.36                             151     0.3 7   79 297 
 BRR  HZ I        1738 44.86        25.1 0.15                            79 297 
 RUS  HZ EP   2   1738 26.20                             145     0.2 5   99 180 
 RUS  HN ES   2   1738 44.84                             145     0.1 5   99 180 
 RUS  HZ I        1738 46.14        10.7 0.38                            99 180 
 GRA  SZ EP   2   1738 28.20                             138     0.7 5  125  14 
 GRA  SZ ES   2   1738 47.76                             138     0.4 5  125  14 
 GRA  SZ I        1738 53.45         6.3 0.18                           125  14 
 OCA  SZ EP   1   1738 30.04                             130    -0.8 7  163 351 
 OCA  SZ ES   1   1738 53.30                             130     0.0 7  163 351 
 OCA  SZ I        1738 57.24        10.7 0.37                           163 351 
 NOR  SZ EP   2   1738 38.59                             119     0.0 4  240 236 
 NOR  SN ES   2   1739  6.54                             119    -0.5 4  240 236 
 CHI  HZ EP   2   1738 39.92                             118    -0.1 4  249 197 
 CHI  HE ES   2   1739  9.52                             118    -0.1 4  249 197 
 CHI  HZ I        1739 15.61         4.0 0.36                           249 197 
 RREF HZ EP   2   1738 49.28                             111     0.4 3  327 230 
 RREF HN ES   2   1739 25.93                             111     0.5 3  327 230 
 RREF HZ I        1739 33.55         5.9 0.46                           327 230 
                                                                                
