 2016 1028 1445 54.4 L   6.420 -73.324128.0  RSN 10 0.4 1.8LRSN                1
 GAP=116        1.16       4.0     4.9  6.5 -0.8627E+01  0.3156E+01  0.6429E+01E
 Epicentro: SIMACOTA - SANTANDER                                               3
 ACTION:UPD 16-11-09 19:23 OP:rebc STATUS:               ID:20161028144554 L   I
 OLDACT:UP  16-10-29 00:09 OP:edw  STATUS:               ID:20161028143745d    3
 OLDACT:UP  16-10-29 00:08 OP:edw  STATUS:               ID:20161028143745d    3
 OLDACT:DUP 16-10-28 23:40 OP:edw  STATUS:               ID:20161028143745d    3
 2016-10-28-1438-00M.COL___349                                                 6
 STAT SP IPHASW D HRMM SECON CODA AMPLIT PERI AZIMU VELO AIN AR TRES W  DIS CAZ7
 BAR2 EZ EP       1446 11.50                             169   -0.4210 24.6  39 
 BAR2 EZ ES       1446 25.22                             169   -0.3710 24.6  39 
 BAR2 EZ I        1446 26.67        20.1 0.42            170           24.6  39 
 RUS  HZ EP       1446 13.80                             152   -0.1410 64.1 155 
 RUS  HN ES       1446 29.43                             152    0.2510 64.1 155 
 RUS  HZ I        1446 31.14         7.7 0.34            152           64.1 155 
 BRR  HZ EP       1446 14.31                             144   -0.4310 87.3 331 
 BRR  HN ES       1446 30.86                             144    0.2410 87.3 331 
 SPBC HN ES       1446 35.05                             135   -0.2810  119 224 
 PAM  EZ EP       1446 18.43                             134    0.1210  123  34 
 PAM  EN ES       1446 37.52                             134    0.5610  123  34 
 PAM  EZ I        1446 39.81         7.1 0.36            135            123  34 
 PTB  HZ EP   9   1446 16.20                             133   -1.74 0  126 276 
 PTB  HN ES       1446 35.80                             133    1.2410  126 276 
 PTB  HZ I        1446 36.81         7.9 0.09            133            126 276 
 NOR  HZ EP       1446 25.13                             120    0.23 9  196 241 
 NOR  HN ES       1446 48.82                             120    0.13 9  196 241 
 NOR  HZ I        1446 54.31         9.6 0.44            120            196 241 
 CHI  HZ EP       1446 26.27                             119    0.10 9  203 193 
 CHI  HN ES       1446 51.39                             119    0.44 9  203 193 
 GUY2CHZ EP   4   1446 28.35                             112   -4.39 0  262 240 
 GUY2CHN ES       1447  1.89                             112   -0.76 8  262 240 
 GUY2CHZ I        1447 10.70         7.6 0.38                           262 240 
 PRA  HZ EP       1446 42.22                             106    0.33 6  346 210 
 PRA  HN ES       1447 19.26                             106    0.32 6  346 210 
 PRA  HZ I        1447 24.40         3.1 0.28            106            346 210 
                                                                                
