 2010  228 1502 35.1 L   6.807 -73.007148.5  RSN  7 0.4 2.2LRSN                1
 GAP=197        0.77       4.0    10.1  7.7 -0.2411E+01  0.5202E+01  0.5574E+01E
 Epicentro: CEPITA - SANTANDER                                                 3
 ACTION:UP  10-08-24 09:51 OP:vdl  STATUS:               ID:20100228150235 L   I
 2010-02-28-1501-03S.COL___093                                                 6
 STAT SP IPHASW D HRMM SECON CODA AMPLIT PERI AZIMU VELO SNR AR TRES W  DIS CAZ7
 BAR2 SZ EP       15 2 55.21                             168     0.010   31 219 
 BAR2 SZ ES   2   15 3 10.74                             168    -0.2 5   31 219 
 BRR  HZ EP       15 2 57.21                             149    -0.110   85 293 
 BRR  HZ I        15 2 57.63        27.1 0.12                            85 293 
 BRR  HN ES   2   15 3 14.98                             149     0.3 5   85 293 
 RUS  BZ EP       15 2 59.58                             144     0.410  102 185 
 RUS  BN ES   2   15 3 18.29                             144     0.3 5  102 185 
 RUS  BZ I        15 3 18.93         9.8 0.38                           102 185 
 OCA  SZ EP       15 3  3.87                             130     0.1 9  162 348 
 OCA  SZ ES   2   15 3 25.80                             130    -0.4 5  162 348 
 OCA  SZ I        15 3 30.94        31.1 0.23                           162 348 
 CHI  HZ EP       15 3 13.31                             117    -0.2 8  254 198 
 CHI  HN ES   2   15 3 42.97                             117    -0.5 4  254 198 
 CHI  HZ I        15 3 48.39         7.6 0.30                           254 198 
 RREF BZ EP   2   15 3 24.09                             111     1.3 3  334 231 
 RREF BN ES   2   15 4  0.55                             111     0.6 3  334 231 
 RREF BZ I        15 4  5.17         6.4 0.36                           334 231 
 PRA  HZ EP       15 3 28.93                             107    -0.8 6  401 211 
 PRA  HN ES   2   15 4 11.91                             107    -0.4 3  401 211 
 PRA  HZ I        15 4 15.23         9.2 0.44                           401 211 
                                                                                
