 2017  928 1504 16.8 L   6.798 -73.131147.4  RSN  5 0.1 1.4LRSN                1
 GAP=138        0.39       2.4     2.9  3.3 -0.3200E+01  0.4098E+01 -0.6256E+00E
 Epicentro: LOS SANTOS - SANTANDER                                             3
 ACTION:UPD 17-10-05 19:17 OP:rebc STATUS:               ID:20170928150416 L   I
 OLDACT:REG 17-09-28 20:38 OP:osc  STATUS:               ID:20170928145740     3
 2017-09-28-1458-00M.COL___440                                                 6
 STAT SP IPHASW D HRMM SECON CODA AMPLIT PERI AZIMU VELO AIN AR TRES W  DIS CAZ7
 BAR2 EZ EP       15 4 36.30                             171   -0.3110 23.4 194 
 BAR2 EZ ES       15 4 52.14                             171    0.0710 23.4 194 
 BAR2 EZ I        15 4 54.16         7.5 0.26            170           23.4 194 
 PAM  EZ EP       15 4 39.23                             151    0.1110 76.6  39 
 PAM  EN ES       15 4 56.54                             151   -0.0110 76.6  39 
 PAM  EZ I        15 4 59.43         3.8 0.32            154           76.6  39 
 RUS  HZ EP       15 4 40.70                             144    0.0410  100 177 
 RUS  HN ES       15 4 59.32                             144    0.0310  100 177 
 RUS  HZ I        15 5  0.19         2.9 0.36            147            100 177 
 ZAR  HN ES   2   15 5 15.04                             122    0.04 4  206 292 
 NOR  HZ EP       15 4 52.86                             119    0.14 8  236 235 
 NOR  HN ES       15 5 20.72                             119   -0.04 8  236 235 
 NOR  HZ I        15 5 27.18         2.0 0.22            120            236 235 
                                                                                
