 2016 1028 1305 13.2 L   6.814 -73.153143.4  RSN  8 0.4 1.6LRSN                1
 GAP=135        1.09       4.7     5.0  6.6 -0.4334E+01  0.7195E+01  0.8759E+01E
 Epicentro: LOS SANTOS - SANTANDER                                             3
 ACTION:UPD 16-11-09 19:23 OP:rebc STATUS:               ID:20161028130513 L   I
 OLDACT:UP  16-10-28 22:59 OP:edw  STATUS:               ID:20161028125748     3
 OLDACT:UP  16-10-28 22:58 OP:edw  STATUS:               ID:20161028125748     3
 OLDACT:UP  16-10-28 22:58 OP:edw  STATUS:               ID:20161028125748     3
 OLDACT:REG 16-10-28 20:22 OP:edw  STATUS:               ID:20161028125748     3
 2016-10-28-1258-00M.COL___343                                                 6
 STAT SP IPHASW D HRMM SECON CODA AMPLIT PERI AZIMU VELO AIN AR TRES W  DIS CAZ7
 BAR2 EZ EP       13 5 32.46                             170   -0.0910 24.7 188 
 BAR2 EZ ES       13 5 47.05                             170   -0.6110 24.7 188 
 BAR2 EZ I        13 5 48.77        17.7 0.26            169           24.7 188 
 BRR  HZ EP       13 5 34.24                             153    0.2510 69.8 298 
 BRR  HN ES       13 5 51.02                             153    0.8010 69.8 298 
 PAM  EZ EP       13 5 35.04                             151   -0.0610 76.7  41 
 PAM  EN ES       13 5 52.20                             151    0.0010 76.7  41 
 PAM  EZ I        13 5 54.72         6.1 0.48            153           76.7  41 
 RUS  HZ EP       13 5 36.80                             143   -0.0110  102 176 
 RUS  HN ES       13 5 55.60                             143    0.3510  102 176 
 RUS  HZ I        13 5 56.30         6.2 0.28            143            102 176 
 PTB  HZ EP       13 5 39.31                             132   -0.60 9  147 258 
 PTB  HN ES       13 5 59.99                             132   -0.77 9  147 258 
 PTB  HZ I        13 6  2.29         3.4 0.08            132            147 258 
 NOR  HZ EP       13 5 48.67                             118   -0.13 8  235 234 
 NOR  HE ES       13 6 17.10                             118    0.52 8  235 234 
 NOR  HZ I        13 6 21.21         2.8 0.32            119            235 234 
 CHI  HZ EP       13 5 50.81                             116   -0.08 8  250 195 
 CHI  HN ES       13 6 20.36                             116    0.06 8  250 195 
 CHI  HZ I        13 6 23.32         3.3 0.40            117            250 195 
 GUY2CHZ EP       13 5 57.30                             112    0.59 7  301 234 
 GUY2CHN ES   4   13 6 32.04                             112    1.39 0  301 234 
 GUY2CHZ I        13 6 40.39         2.0 0.28                           301 234 
                                                                                
