 2010 1128 1047 29.5 L   6.782 -73.096152.1  RSN  5 0.2 1.3LRSN                1
 GAP=188        0.46       3.3     9.1  7.2  0.1037E+02 -0.2864E+02  0.1276E+00E
 Epicentro: LOS SANTOS - SANTANDER                                             3
 ACTION:UP  10-12-17 16:55 OP:REBC STATUS:               ID:20101128104729 L   I
 2010-11-28-1045-47S.COL___131                                                 6
 STAT SP IPHASW D HRMM SECON CODA AMPLIT PERI AZIMU VELO SNR AR TRES W  DIS CAZ7
 BAR2 SZ EP   1   1047 49.80                             171    -0.1 7   23 205 
 BRR  HZ IP     C 1047 51.77                             152     0.110   77 298 
 BRR  HZ I        1047 51.98         9.5 0.13                            77 298 
 BRR  HE ES   1   1048  8.92                             152     0.0 7   77 298 
 RUS  HZ EP   1   1047 53.51                             146    -0.2 7   98 179 
 RUS  HN ES   2   1048 13.00                             146     0.4 5   98 179 
 RUS  HZ I        1048 13.78         1.8 0.18                            98 179 
 OCA  SZ EP   2   1047 58.79                             130     0.2 5  163 351 
 OCA  SZ ES   2   1048 21.07                             130    -0.2 5  163 351 
 OCA  SZ I        1048 21.99         3.4 0.30                           163 351 
 CHI  HZ EP   2   1048  7.92                             118     0.4 4  248 197 
 CHI  HZ I        1048  8.49         0.7 0.15                           248 197 
 CHI  HE ES   2   1048 36.82                             118    -0.3 4  248 197 
                                                                                
