 2015  428 1947 42.2 L   6.806 -73.127142.0  RSN 10 0.4 2.0LRSN                1
 GAP=202        0.89       3.6     4.7  5.6  0.4652E+01  0.6433E+01  0.1138E+01E
 Epicentro: LOS SANTOS - SANTANDER                                             3
 ACTION:UPD 15-06-03 16:58 OP:cam  STATUS:               ID:20150428194742 L   I
 OLDACT:DUP 15-04-29 01:51 OP:ak   STATUS:               ID:20150428193747d    3
 2015-04-28-1937-46M.COL___280                                                 6
 STAT SP IPHASW D HRMM SECON CODA AMPLIT PERI AZIMU VELO AIN AR TRES W  DIS CAZ7
 BAR2 EZ EP       1948  1.76                             170    0.3410 24.4 194 
 BAR2 EZ ES       1948 16.05                             170   -0.3510 24.4 194 
 BAR2 EZ I        1948 19.51        17.3 0.30            166           24.4 194 
 BRR  HZ EP   2   1948  3.69                             151    0.65 5 72.7 297 
 BRR  HN ES       1948 19.95                             151    0.6610 72.7 297 
 RUS  HZ EP       1948  5.65                             143    0.0110  101 177 
 RUS  HN ES       1948 23.56                             143   -0.3510  101 177 
 RUS  HZ I        1948 25.38         7.8 0.22            144            101 177 
 PTB  HZ EP       1948  8.82                             131   -0.25 9  150 259 
 PTB  HN ES       1948 29.35                             131   -0.68 9  150 259 
 PTB  HZ I        1948 34.34        12.2 0.20            130            150 259 
 SPBC HZ EP   1   1948 10.57                             128   -0.03 7  165 219 
 SPBC HN ES       1948 33.31                             128    0.57 9  165 219 
 SPBC HZ I        1948 38.37        14.4 0.18            128            165 219 
 ZAR  HZ EP       1948 14.46                             121   -0.13 8  206 292 
 ZAR  HN ES       1948 39.93                             121    0.09 8  206 292 
 ZAR  HZ I        1948 45.88        10.6 0.29            122            206 292 
 NOR  HZ EP       1948 17.90                             117   -0.05 8  237 235 
 NOR  HN ES       1948 45.71                             117   -0.11 8  237 235 
 NOR  HZ I        1948 52.08         9.0 0.16            118            237 235 
 SML  HZ EP   2   1948 18.67                             117    0.01 4  244 335 
 SML  HN ES   2   1948 46.29                             117   -0.79 4  244 335 
 CHI  HE ES       1948 49.38                             116    0.20 8  250 196 
 GUY2CHZ EP   4   1948 28.07                             111    2.19 0  303 235 
 GUY2CHN ES   4   1949  3.80                             111    3.85 0  303 235 
 GUY2CHZ I        1949  8.29         7.9 0.40                           303 235 
                                                                                
