 2016  228 1308 12.1 L   6.804 -73.143144.5  RSN 11 0.4 1.8LRSN                1
 GAP=137        0.76       2.3     3.3  5.0 -0.1478E+01  0.5794E+01  0.5848E+00E
 Epicentro: LOS SANTOS - SANTANDER                                             3
 ACTION:UPD 16-03-04 21:30 OP:rebc STATUS:               ID:20160228130812 L   I
 OLDACT:DUP 16-02-28 23:12 OP:mh   STATUS:               ID:20160228125751d    3
 2016-02-28-1257-50M.COL___321                                                 6
 STAT SP IPHASW D HRMM SECON CODA AMPLIT PERI AZIMU VELO AIN AR TRES W  DIS CAZ7
 BAR2 EZ EP   1   13 8 31.64                             170    0.07 7 23.9 191 
 BAR2 EZ ES       13 8 47.03                             170    0.2610 23.9 191 
 BAR2 EZ I        13 8 47.60        16.4 0.27            170           23.9 191 
 PAM  EZ EP       13 8 34.21                             151    0.0810 76.8  40 
 PAM  EN ES       13 8 51.13                             151   -0.1910 76.8  40 
 PAM  EZ I        13 8 53.04        19.3 0.54            154           76.8  40 
 RUS  HZ EP   1   13 8 35.65                             143   -0.09 7  101 176 
 RUS  HN ES       13 8 54.08                             143   -0.1110  101 176 
 RUS  HZ I        13 8 56.08         4.4 0.20            145            101 176 
 PTB  HZ EP   1   13 8 38.02                             132   -0.96 7  148 259 
 PTB  HN ES       13 8 59.65                             132   -0.32 9  148 259 
 PTB  HZ I        13 9  4.50         7.7 0.38            132            148 259 
 OCA  HZ EP   1   13 8 40.74                             129    0.49 7  160 353 
 OCA  HN ES       13 9  2.34                             129    0.12 9  160 353 
 OCA  HZ I        13 9  4.38        23.7 0.17            131            160 353 
 SPBC HZ EP   1   13 8 40.48                             129   -0.05 7  164 219 
 SPBC HN ES   1   13 9  2.90                             129    0.17 7  164 219 
 SPBC HZ I        13 9  6.43         7.7 0.32            130            164 219 
 ZAR  HZ EP       13 8 44.24                             122   -0.21 9  204 292 
 ZAR  HN ES       13 9 10.02                             122    0.31 9  204 292 
 ZAR  HZ I        13 9 10.91         8.8 0.10            123            204 292 
 NOR  HN ES       13 9 15.58                             118   -0.07 8  235 234 
 CHI  HZ EP       13 8 49.63                             117   -0.13 8  249 195 
 CHI  HN ES       13 9 19.18                             117    0.02 8  249 195 
 CHI  HZ I        13 9 21.98         1.9 0.28            118            249 195 
 URE  HZ EP   4   13 8 54.33                             113    1.23 0  284 292 
 URE  HN ES   4   13 9 22.86                             113   -2.24 0  284 292 
 GUY2CHZ EP   4   13 8 58.10                             112    2.41 0  302 235 
 GUY2CHN ES   4   13 9 31.86                             112    2.15 0  302 235 
 GUY2CHZ I        13 9 37.39         2.6 0.54                           302 235 
 MON  HZ EP   4   13 9  4.21                             108    3.19 0  354 308 
 MON  HN ES   4   13 9 36.47                             108   -2.73 0  354 308 
 ORTC HN ES       13 9 49.24                             106    1.14 6  396 216 
                                                                                
