 2012 1128 1123 45.5 L   6.800 -73.199137.2  RSN  9 0.3 2.1LRSN                1
 GAP=130        0.54       2.1     2.9  3.9 -0.7159E+00  0.3867E+01  0.4412E+00E
 Epicentro: ZAPATOCA - SANTANDER                                               3
 ACTION:UPD 12-12-05 15:36 OP:}ep  STATUS:               ID:20121128112345 L   I
 2012-11-28-1120-00M.COL___234                                                 6
 STAT SP IPHASW D HRMM SECON CODA AMPLIT PERI AZIMU VELO AIN AR TRES W  DIS CAZ7
 BAR2 SZ EP       1124  4.27                             170    0.1910 23.1 175 
 BAR2 SZ ES       1124 18.68                             170    0.1010 23.1 175 
 BAR2 SZ I        1124 20.35        83.1 0.33                          23.1 175 
 GIR2 SZ EP       1124  4.30                             167    0.1810 30.8   1 
 PAM  SZ EP       1124  7.20                             148    0.1610 81.2  43 
 PAM  SN ES       1124 23.84                             148   -0.0110 81.2  43 
 PAM  SZ I        1124 26.25        27.4 0.39                          81.2  43 
 RUS  HZ EP       1124  8.34                             142   -0.1110  101 173 
 RUS  HN ES   1   1124 26.01                             142   -0.35 7  101 173 
 RUS  HZ I        1124 28.83        10.1 0.35                           101 173 
 PTB  HZ EP   1   1124 10.80                             131   -0.43 7  142 258 
 PTB  HE ES   1   1124 31.35                             131    0.04 7  142 258 
 PTB  HZ I        1124 33.51        14.1 0.21                           142 258 
 OCA  HZ EP   1   1124 12.46                             128   -0.62 7  160 355 
 OCA  HN ES   1   1124 34.44                             128   -0.16 7  160 355 
 ZAR  HZ EP   1   1124 17.21                             121    0.40 6  199 293 
 ZAR  HE ES   1   1124 41.24                             121    0.00 6  199 293 
 ZAR  HZ I        1124 48.74        14.0 0.33                           199 293 
 CHI  HZ EP   1   1124 22.57                             115    0.00 6  247 194 
 CHI  HN ES   1   1124 51.38                             115   -0.11 6  247 194 
 PRA  HZ EP   1   1124 38.99                             105    0.60 4  389 209 
 PRA  HN ES   2   1125 19.75                             105    0.10 3  389 209 
 PRA  HZ I        1125 26.29         3.7 0.32                           389 209 
                                                                                
