 2011  928 1049 11.1 L   6.790 -73.111139.9  RSN  9 0.3 1.9LRSN                1
 GAP=141        0.61       2.5     3.9  4.0  0.1514E+00  0.1063E+01 -0.1493E+00E
 Epicentro: LOS SANTOS - SANTANDER                                             3
 ACTION:UPD 12-07-13 16:00 OP:ep   STATUS:               ID:20110928104911 L   I
 2011-09-28-1043-48S.COL___165                                                 6
 STAT SP IPHASW D HRMM SECON CODA AMPLIT PERI AZIMU VELO AIN AR TRES W  DIS CAZ7
 BTL  SZ EP       1049 29.93                             170   -0.0410 22.4 309 
 BAR2 SZ EP       1049 29.96                             170   -0.0310 23.2 200 
 BAR2 SZ ES       1049 44.60                             170   -0.1510 23.2 200 
 BAR2 SZ I        1049 46.48        30.5 0.30                          23.2 200 
 BRR  HZ EP       1049 31.73                             150   -0.0910 75.1 298 
 BRR  HN ES       1049 48.23                             150    0.2210 75.1 298 
 BRR  HZ I        1049 49.72        25.1 0.14                          75.1 298 
 PAM  SZ EP       1049 32.75                             150    0.1810 75.9  37 
 PAM  SN ES   1   1049 49.50                             150    0.16 7 75.9  37 
 RUS  HZ EP       1049 34.12                             143   -0.0310 99.3 178 
 RUS  HZ I        1049 35.31         6.2 0.16                          99.3 178 
 RUS  HN ES   1   1049 52.25                             143    0.10 7 99.3 178 
 OCA  SZ EP       1049 38.61                             128   -0.47 9  162 352 
 OCA  SZ ES   1   1050  0.90                             128   -0.04 7  162 352 
 OCA  SZ I        1050  3.44        10.2 0.24                           162 352 
 ZAR  HZ EP   1   1049 44.45                             121    0.90 6  208 292 
 ZAR  HE ES   2   1050  8.58                             121   -0.32 4  208 292 
 ZAR  HZ I        1050 15.91         8.3 0.22                           208 292 
 NOR  SN ES   2   1050 13.92                             117   -0.63 4  237 235 
 CHI  HZ EP   1   1049 48.35                             116   -0.09 6  249 196 
 CHI  HE ES   2   1050 17.78                             116    0.19 4  249 196 
 CHI  HZ I        1050 25.52         4.9 0.40                           249 196 
                                                                                
