 2017  328 1816  0.5 L   6.775 -73.144143.2  RSN  8 0.4 1.5LRSN                1
 GAP=236        0.96       4.8     5.0  7.6  0.6137E+01  0.9512E+01  0.1908E+01E
 Epicentro: LOS SANTOS - SANTANDER                                             3
 ACTION:UPD 17-05-25 18:46 OP:jn   STATUS:               ID:20170328181600 L   I
 OLDACT:DUP 17-03-29 01:16 OP:lv   STATUS:               ID:20170328180747d    3
 2017-03-28-1808-00M.COL___367                                                 6
 STAT SP IPHASW D HRMM SECON CODA AMPLIT PERI AZIMU VELO AIN AR TRES W  DIS CAZ7
 BAR2 EZ EP       1816 19.59                             171   -0.1710 20.6 192 
 BAR2 EZ ES       1816 35.33                             171    0.5410 20.6 192 
 BAR2 EZ I        1816 36.11         8.7 0.19            162           20.6 192 
 BRR  HZ EP       1816 21.80                             152    0.3410 72.8 300 
 BRR  HE ES       1816 37.73                             152   -0.0810 72.8 300 
 RUS  HZ EP       1816 23.82                             144    0.0310 97.8 176 
 RUS  HN ES       1816 41.44                             144   -0.5210 97.8 176 
 RUS  HZ I        1816 43.48         4.9 0.22            127           97.8 176 
 PTB  HZ EP       1816 27.04                             131   -0.19 9  147 260 
 PTB  HN ES       1816 47.42                             131   -0.66 9  147 260 
 PTB  HZ I        1816 54.56         3.4 0.07            117            147 260 
 SPBC HN ES       1816 50.83                             129    0.30 9  161 220 
 ZAR  HE ES       1816 58.19                             122    0.00 8  205 293 
 ZAR  HZ I        1817  3.86         3.1 0.19            109            205 293 
 NOR  HN ES       1817  4.07                             118    0.52 8  233 235 
 PRA  HZ EP   4   1816 54.04                             106    0.39 0  390 210 
 PRA  HZ I        1817 42.08         1.4 0.18             99            390 210 
                                                                                
