 2017  328 1238 25.3 L   6.770 -73.126138.6  RSN  8 0.3 1.6LRSN                1
 GAP=140        0.71       2.9     2.9  4.8 -0.1140E+01  0.3597E+01  0.1481E+01E
 Epicentro: LOS SANTOS - SANTANDER                                             3
 ACTION:UPD 17-05-25 18:46 OP:jn   STATUS:               ID:20170328123825 L   I
 OLDACT:UP  17-03-28 22:04 OP:lv   STATUS:               ID:20170328123742     3
 OLDACT:REG 17-03-28 20:17 OP:lv   STATUS:               ID:20170328123742     3
 2017-03-28-1238-00M.COL___367                                                 6
 STAT SP IPHASW D HRMM SECON CODA AMPLIT PERI AZIMU VELO AIN AR TRES W  DIS CAZ7
 BAR2 EZ EP       1238 43.88                             171   -0.1310 20.6 198 
 BAR2 EZ ES       1238 58.53                             171   -0.0810 20.6 198 
 BAR2 EZ I        1239  0.03        11.7 0.21            171           20.6 198 
 BRR  HZ EP       1238 45.82                             150   -0.0710 74.7 300 
 BRR  HN ES       1239  2.46                             150    0.5110 74.7 300 
 BRR  HZ I        1239  3.70         8.4 0.22            149           74.7 300 
 PAM  HZ EP       1238 46.90                             149    0.0610 78.7  37 
 PAM  EE ES       1239  3.50                             149   -0.1410 78.7  37 
 PAM  HZ I        1239  5.84         4.4 0.18            150           78.7  37 
 RUS  HZ EP       1238 48.43                             143    0.3310 97.1 177 
 RUS  HN ES       1239  5.65                             143   -0.2310 97.1 177 
 PTB  HZ EP       1238 51.97                             130    0.14 9  149 260 
 PTB  HN ES       1239 12.02                             130   -0.51 9  149 260 
 PTB  HZ I        1239 13.31         4.4 0.26            130            149 260 
 SPBC HZ EP       1238 52.88                             128   -0.26 9  162 220 
 SPBC HN ES       1239 15.26                             128    0.40 9  162 220 
 SPBC HZ I        1239 18.98         3.9 0.10            129            162 220 
 ZAR  HN ES       1239 22.74                             120   -0.11 8  207 293 
 ZAR  HZ I        1239 28.93         6.9 0.27            121            207 293 
 NOR  HN ES       1239 28.17                             117    0.03 8  235 235 
                                                                                
