 2010  728 1214 55.7 L   6.817 -73.007138.5  RSN  5 0.3 1.4LRSN                1
 GAP=180        0.81       7.9    16.5 14.5  0.4999E+02 -0.1228E+03 -0.4963E+02E
 Epicentro: CEPITA - SANTANDER                                                 3
 ACTION:UPD 10-12-01 15:20 OP:pat  STATUS:               ID:20100728121455 L   I
 2010-07-28-1211-43S.COL___123                                                 6
 STAT SP IPHASW D HRMM SECON CODA AMPLIT PERI AZIMU VELO AIN AR TRES W  DIS CAZ7
 BAR2 SZ EP       1215 14.16                             166    -0.510   32 218 
 BAR2 SZ ES   2   1215 29.48                             166     0.0 5   32 218 
 BAR2 SZ I        1215 30.54        13.4 0.26                            32 218 
 GIR2 SZ EP   1   1215 15.03                             165     0.4 7   36 325 
 BRR  HZ EP   1   1215 16.82                             147    -0.1 7   84 292 
 BRR  HN ES   2   1215 33.72                             147     0.3 5   84 292 
 RUS  HZ EP   1   1215 19.39                             142     0.5 7  103 185 
 RUS  HN ES   2   1215 37.10                             142     0.1 5  103 185 
 RUS  HZ I        1215 38.02         4.1 0.17                           103 185 
 GUE  SZ EP   1   1215 19.55                             139     0.1 7  112   5 
 GUE  SZ I        1215 45.46         2.3 0.07                           112   5 
                                                                                
