 2012  428 1942 31.8 L   6.791 -73.132138.6  RSN  6 0.4 1.7LRSN                1
 GAP=139        0.93       5.9     5.1  9.0  0.4989E+01  0.1161E+02  0.2473E+00E
 Epicentro: LOS SANTOS - SANTANDER                                             3
 ACTION:UPD 12-07-05 11:56 OP:tino STATUS:               ID:20120428194231 L   I
 2012-04-28-1940-00M.COL___189                                                 6
 STAT SP IPHASW D HRMM SECON CODA AMPLIT PERI AZIMU VELO AIN AR TRES W  DIS CAZ7
 BAR2 SZ EP   1   1942 50.51                             170     0.0 9   23 194 
 BAR2 SZ I        1942 50.92        11.2 0.18                            23 194 
 BAR2 SZ ES   1   1943  4.76                             170    -0.4 9   23 194 
 BRR  HZ EP   1   1942 52.80                             151     0.6 9   73 299 
 BRR  HZ I        1942 53.11        14.7 0.09                            73 299 
 BRR  HN ES   1   1943  8.57                             151     0.3 9   73 299 
 PAM  SZ EP   1   1942 53.25                             150     0.0 9   77  38 
 PAM  SN ES   1   1943  9.58                             150    -0.4 9   77  38 
 RUS  HZ EP   1   1942 54.67                             143    -0.1 9  100 177 
 RUS  HN ES   1   1943 13.23                             143     0.6 9  100 177 
 PTB  HZ EP   1   1942 57.59                             130    -0.7 8  149 259 
 PTB  HN ES   1   1943 18.42                             130    -0.5 8  149 259 
 PTB  HZ I        1943 22.66         3.7 0.18                           149 259 
 ZAR  HE ES       1943 29.32                             120     0.310  206 292 
                                                                                
