 2014  128 1950 20.0 L   6.694 -73.201153.9  RSN  5 0.3 1.8LRSN                1
 GAP=221        0.76       6.2     5.9  7.0  0.1814E+02 -0.1809E+01 -0.2052E+01E
 Epicentro: VILLANUEVA - SANTANDER                                             3
 ACTION:UPD 14-03-13 09:59 OP:ep   STATUS:               ID:20140128195020 L   I
 OLDACT:REG 14-01-28 16:23 OP:nd   STATUS:               ID:20140128195000     3
 2014-01-28-1950-00M.COL___285                                                 6
 STAT SP IPHASW D HRMM SECON CODA AMPLIT PERI AZIMU VELO AIN AR TRES W  DIS CAZ7
 BAR2 SZ EP       1950 39.92                             176   -0.5110 11.4 170 
 BAR2 SZ ES   2   1950 55.81                             176   -0.57 5 11.4 170 
 BAR2 SZ I        1950 56.31        16.5 0.30            174           11.4 170 
 BRR  HZ EP       1950 42.22                             154    0.1110 72.7 309 
 BRR  HN ES       1950 59.68                             154    0.3210 72.7 309 
 BRR  HZ I        1951 13.30        13.8 0.34            150           72.7 309 
 RUS  HZ EP       1950 44.02                             149    0.2010 89.6 172 
 RUS  HN ES       1951  2.62                             149    0.2110 89.6 172 
 RUS  HZ I        1951  4.19         4.1 0.32            159           89.6 172 
 PTB  HZ EP       1950 47.01                             136    0.05 9  140 263 
 PTB  HN ES       1951  7.72                             136   -0.27 9  140 263 
 PTB  HZ I        1951 13.98         9.0 0.26            138            140 263 
 GUY2CHZ EP   4   1951  5.13                             115    2.44 0  290 236 
 GUY2CHN ES   4   1951 42.10                             115    6.10 0  290 236 
 GUY2CHZ I        1951 46.84         4.7 0.36                           290 236 
                                                                                
