 2013 1228 1159 57.0 L   6.360 -73.624107.5  RSN  9 0.5 2.0LRSN                1
 GAP= 75        1.08       3.8     5.2  9.2 -0.1095E+02  0.1146E+02 -0.5881E+00E
 Epicentro: SANTA HELENA DEL OPON - SANTANDER                                  3
 ACTION:UPD 14-01-13 10:21 OP:ep   STATUS:               ID:20131228115957 L   I
 OLDACT:REG 13-12-28 14:28 OP:jn   STATUS:               ID:20131228120000     3
 2013-12-28-1200-00M.COL___285                                                 6
 STAT SP IPHASW D HRMM SECON CODA AMPLIT PERI AZIMU VELO AIN AR TRES W  DIS CAZ7
 BAR2 SZ EP       12 0 13.46                             151    0.0210 55.2  62 
 BAR2 SZ ES       12 0 26.21                             151   -0.0610 55.2  62 
 BAR2 SZ I        12 0 27.41        95.5 0.14            153           55.2  62 
 RUS  HZ EP       12 0 15.38                             141   -0.0510 79.1 131 
 SPBC HZ EP       12 0 15.73                             136   -0.2410 92.7 212 
 SPBC HN ES       12 0 30.67                             136   -0.1110 92.7 212 
 SPBC HZ I        12 0 32.72        29.2 0.28            136           92.7 212 
 PTB  HZ EP   4   12 0 14.52                             135   -1.47 0 94.2 282 
 PTB  HN ES   4   12 0 30.20                             135   -0.62 0 94.2 282 
 PTB  HZ I        12 0 31.28        30.7 0.26            137           94.2 282 
 PAM  SE ES       12 0 40.86                             122   -0.43 9  149  43 
 NOR  HZ EP       12 0 22.94                             118    0.08 9  164 237 
 NOR  HN ES       12 0 43.40                             118    0.36 9  164 237 
 NOR  HZ I        12 0 45.01        11.2 0.16            120            164 237 
 ZAR  HE ES   2   12 0 45.77                             115   -1.35 4  185 313 
 CHI  HZ EP       12 0 25.78                             114   -0.61 9  192 184 
 CHI  HN ES       12 0 50.01                             114    0.67 9  192 184 
 CHI  HZ I        12 0 52.94         2.9 0.32            115            192 184 
 OCA  HN ES       12 0 53.43                             112    0.93 8  210   9 
                                                                                
