 2011  128 1431 26.8 L   6.830 -73.096144.0  RSN  9 0.4 2.1LRSN                1
 GAP=164        0.95       4.5     8.8  7.2 -0.1417E+02  0.2459E+02 -0.3866E+01E
 Epicentro: LOS SANTOS - SANTANDER                                             3
 ACTION:UP  11-02-08 08:43 OP:pat  STATUS:               ID:20110128143126 L   I
 2011-01-28-1428-31S.COL___138                                                 6
 STAT SP IPHASW D HRMM SECON CODA AMPLIT PERI AZIMU VELO SNR AR TRES W  DIS CAZ7
 BTL  SZ IP       1431 46.24                             171     0.010   21 297 
 BTL  SZ ES   1   1432  1.78                             171     0.5 7   21 297 
 BAR2 SZ IP       1431 46.30                             168     0.010   28 200 
 BAR2 SZ I        1431 46.74        26.7 0.12                            28 200 
 BAR2 SZ ES   2   1432  1.64                             168     0.1 5   28 200 
 GIR2 SZ EP       1431 46.08                             168    -0.210   30 339 
 GIR2 SZ ES   2   1432  1.24                             168    -0.1 5   30 339 
 URB  SZ EP       1431 47.69                             159     0.710   52 330 
 RUS  HZ EP       1431 50.45                             143    -0.210  104 179 
 RUS  HN ES   1   1432  8.78                             143    -0.4 7  104 179 
 RUS  HZ I        1432 10.76         9.2 0.34                           104 179 
 GRA  SZ IP       1431 51.69                             138     0.210  121  15 
 GRA  SZ I        1431 52.85        21.8 0.26                           121  15 
 GRA  SZ ES   1   1432 10.48                             138    -0.3 7  121  15 
 OCA  SZ EP       1431 54.43                             130    -0.3 9  158 351 
 OCA  SZ ES   2   1432 15.63                             130    -0.9 5  158 351 
 OCA  SZ I        1432 20.29        25.5 0.19                           158 351 
 NOR  SZ EP       1432  2.89                             117    -0.3 8  241 235 
 HEL  HZ EP       1432  8.13                             114     0.5 7  278 255 
 HEL  HN ES   2   1432 38.53                             114    -0.9 4  278 255 
 HEL  HZ I        1432 45.16         8.0 0.30                           278 255 
                                                                                
