 2016  928 1911  0.3 L   6.829 -73.077152.7  RSN 13 0.4 2.1LRSN                1
 GAP=144        1.11       4.5     6.0  5.6  0.6183E+01  0.4628E+01  0.1808E+01E
 Epicentro: LOS SANTOS - SANTANDER                                             3
 ACTION:UPD 17-08-17 21:17 OP:lp   STATUS:               ID:20160928191100 L   I
 OLDACT:UP  16-09-29 01:23 OP:edw  STATUS:               ID:20160928190745     3
 OLDACT:UP  16-09-29 01:22 OP:edw  STATUS:               ID:20160928190745     3
 OLDACT:UP  16-09-29 01:20 OP:edw  STATUS:               ID:20160928190745     3
 OLDACT:REG 16-09-28 21:36 OP:edw  STATUS:               ID:20160928190745     3
 2016-09-28-1908-00M.COL___368                                                 6
 STAT SP IPHASW D HRMM SECON CODA AMPLIT PERI AZIMU VELO AIN AR TRES W  DIS CAZ7
 BAR2 EZ EP       1911 20.99                             169    0.1210 28.7 204 
 BAR2 EZ ES       1911 36.85                             169   -0.0810 28.7 204 
 BAR2 EZ I        1911 37.86        22.0 0.27            165           28.7 204 
 PAM  EZ EP   9   1911 24.61                             153    1.76 0 70.1  36 
 PAM  EE ES       1911 41.32                             154   -0.8910 70.1  36 
 PAM  EZ I        1911 43.18         9.7 0.22            158           70.1  36 
 BRR  HZ EP       1911 22.88                             152    0.3910 76.6 294 
 BRR  HN ES       1911 40.47                             152    0.6510 76.6 294 
 RUS  HZ EP       1911 24.88                             144   -0.0610  104 180 
 RUS  HN ES       1911 43.54                             144   -0.6310  104 180 
 RUS  HZ I        1911 44.74         8.8 0.27            144            104 180 
 PTB  HZ EP   9   1911 27.99                             131   -0.57 0  156 258 
 PTB  HE ES       1911 49.43                             132   -0.61 9  156 258 
 PTB  HZ I        1911 54.89        13.2 0.20            130            156 258 
 SPBC HZ EP       1911 30.17                             129    0.15 9  171 220 
 SPBC HN ES       1911 52.63                             129   -0.58 9  171 220 
 SPBC HZ I        1911 59.24        21.8 0.19            128            171 220 
 ZAR  HZ EP       1911 33.50                             122   -0.30 8  210 291 
 ZAR  HN ES       1911 59.64                             122   -0.29 8  210 291 
 ZAR  HZ I        1912  5.15        13.1 0.28            122            210 291 
 NOR  HZ EP       1911 37.53                             118    0.24 8  243 235 
 NOR  HE ES       1912  5.99                             118   -0.16 8  243 235 
 NOR  HZ I        1912 12.28        11.0 0.32            118            243 235 
 CHI  HZ EP       1911 39.28                             117    0.34 8  254 197 
 CHI  HN ES       1912  9.54                             117    0.45 8  254 197 
 CHI  HZ I        1912 14.31         6.1 0.24            118            254 197 
 HEL  HZ EP   2   1911 42.05                             115    0.29 4  280 256 
 HEL  HN ES   4   1912 16.35                             115    2.24 0  280 256 
 GUY2CHZ EP   4   1911 46.39                             112    1.26 0  309 235 
 GUY2CHN ES   4   1912 24.59                             112    4.48 0  309 235 
 GUY2CHZ I        1912 28.24         7.6 0.58                           309 235 
 ELA  HZ EP   2   1911 49.23                             111    0.89 3  337 230 
 ELA  HN ES   4   1912 29.42                             111    3.60 0  337 230 
 ELA  HZ I        1912 32.77         5.0 0.48            111            337 230 
 CBOC HZ EP   4   1911 45.75                             110   -2.69 0  342 252 
 SJC  HZ EP       1911 55.30                             106   -0.96 6  411 326 
 SJC  HN ES   4   1912 36.14                             106   -3.78 0  411 326 
                                                                                
