 2012 1128 1458 28.8 L   6.821 -73.152145.7  RSN  4 0.3 1.4LRSN                1
 GAP=143        0.62       7.0     5.3  8.1 -0.5625E+00  0.3803E+01 -0.2151E+02E
 Epicentro: LOS SANTOS - SANTANDER                                             3
 ACTION:UPD 12-12-05 15:36 OP:}ep  STATUS:               ID:20121128145828 L   I
 2012-11-28-1450-00M.COL___237                                                 6
 STAT SP IPHASW D HRMM SECON CODA AMPLIT PERI AZIMU VELO AIN AR TRES W  DIS CAZ7
 BAR2 SZ EP   2   1458 48.25                             170   -0.21 5 25.5 188 
 BAR2 SZ ES   1   1459  3.43                             170   -0.37 7 25.5 188 
 BAR2 SZ I        1459  5.93         7.2 0.20                          25.5 188 
 PAM  SZ EP   1   1458 51.28                             151    0.35 7 76.1  41 
 RUS  HZ EP   1   1458 52.61                             143   -0.10 7  103 176 
 RUS  HN ES   1   1459 11.62                             143    0.26 7  103 176 
 RUS  HN I        1459 12.22         3.8 0.18                           103 176 
 PTB  HZ EP   1   1458 55.33                             132   -0.41 7  148 258 
 PTB  HN ES   1   1459 17.10                             132    0.35 7  148 258 
 PTB  HZ I        1459 18.75         3.2 0.21                           148 258 
                                                                                
