 2017 1228 1221 55.6 L   6.827 -73.190142.7  RSN 10 0.5 2.1LRSN                1
 GAP=107        0.82       3.1     3.6  6.1 -0.1410E+01  0.3647E+01  0.1612E+01E
 Epicentro: ZAPATOCA - SANTANDER                                               3
 ACTION:UPD 18-01-04 13:25 OP:rebc STATUS:               ID:20171228122155 L   I
 OLDACT:UP  17-12-28 23:44 OP:mg   STATUS:               ID:20171228120738d    3
 OLDACT:DUP 17-12-28 23:40 OP:mg   STATUS:               ID:20171228120738d    3
 2017-12-28-1218-00M.COL___455                                                 6
 STAT SP IPHASW D HRMM SECON CODA AMPLIT PERI AZIMU VELO AIN AR TRES W  DIS CAZ7
 BAR2 EZ EP       1222 14.88                             169   -0.0910 25.9 178 
 BAR2 EZ ES   2   1222 29.54                             169   -0.50 5 25.9 178 
 BAR2 EZ I        1222 32.72        36.8 0.32            169           25.9 178 
 PAM  EZ EP       1222 17.75                             150    0.1510 78.4  44 
 PAM  EN ES       1222 34.95                             150    0.2210 78.4  44 
 PAM  EZ I        1222 36.72        13.1 0.18            156           78.4  44 
 PTB  HZ EP       1222 21.67                             132   -0.32 9  144 257 
 PTB  HN ES       1222 42.27                             132   -0.27 9  144 257 
 PTB  HZ I        1222 46.81         9.3 0.12            132            144 257 
 SPBC HZ EP       1222 23.79                             128   -0.06 9  163 217 
 SPBC HN ES   1   1222 46.21                             128    0.36 7  163 217 
 SPBC HZ I        1222 52.18        23.6 0.22            130            163 217 
 YPLC HZ EP       1222 25.39                             125   -0.33 9  182 150 
 YPLC HE ES       1222 49.40                             125    0.23 9  182 150 
 YPLC HZ I        1222 50.47        21.1 0.29            129            182 150 
 ZAR  HN ES   2   1222 53.18                             122    1.17 4  198 292 
 ZAR  HZ I        1222 59.40        11.6 0.24            124            198 292 
 GUY2CHZ EP   2   1222 40.45                             112    1.59 4  299 234 
 GUY2CHN ES   4   1223 16.78                             112    4.21 0  299 234 
 GUY2CHZ I        1223 20.99         6.4 0.41                           299 234 
 DRL02HZ EP       1222 40.34                             110   -0.52 7  322 358 
 DRL02HE ES   1   1223 16.92                             110    0.79 5  322 358 
 PRA  HZ EP       1222 49.00                             106   -0.09 6  392 209 
 PRA  HN ES   1   1223 31.13                             106    0.36 4  392 209 
 PRA  HZ I        1223 36.76         6.3 0.28            108            392 209 
 SJC  HZ EP   2   1222 49.17                             105   -1.34 3  404 327 
 SJC  HN ES   4   1223 29.76                             105   -3.54 0  404 327 
 SJC  HZ I        1223 37.70         1.8 0.30            107            404 327 
                                                                                
