 2016  328 1409  0.6 L   6.701 -73.169142.2  RSN  4 0.2 1.4LRSN                1
 GAP=239        0.46       4.6     3.5  4.3  0.1027E+02  0.2656E+01 -0.2325E+01E
 Epicentro: VILLANUEVA - SANTANDER                                             3
 ACTION:UPD 16-05-13 21:28 OP:cam  STATUS:               ID:20160328140900 L   I
 OLDACT:REG 16-03-28 20:47 OP:drio STATUS:               ID:20160328140748     3
 2016-03-28-1407-48M.COL___309                                                 6
 STAT SP IPHASW D HRMM SECON CODA AMPLIT PERI AZIMU VELO AIN AR TRES W  DIS CAZ7
 BAR2 EZ EP       14 9 19.68                             175    0.0210 12.1 187 
 BAR2 EZ ES       14 9 34.35                             175   -0.1410 12.1 187 
 BAR2 EZ I        14 9 35.66         5.5 0.26            173           12.1 187 
 RUS  HZ EP       14 9 23.29                             146    0.0110 89.9 174 
 RUS  HE ES       14 9 41.14                             146    0.1910 89.9 174 
 RUS  HZ I        14 9 42.83         3.7 0.22            149           89.9 174 
 PTB  HZ EP       14 9 26.75                             132   -0.17 9  143 263 
 PTB  HN ES       14 9 47.29                             132   -0.13 9  143 263 
 PTB  HZ I        14 9 51.41         2.7 0.16            131            143 263 
 ZAR  HZ EP   4   14 9 34.84                             121    1.78 0  206 295 
 ZAR  HE ES       14 9 58.61                             121    0.26 8  206 295 
 ZAR  HZ I        1410  7.16         4.3 0.32            121            206 295 
                                                                                
