 2014  928 1113  4.2 L   6.754 -73.423119.4  RSN  5 0.6 1.4LRSN                1
 GAP=141        1.37       8.7     7.3 10.9  0.9022E+01  0.1388E+02 -0.4414E+02E
 Epicentro: EL CARMEN - SANTANDER                                              3
 ACTION:UPD 14-10-03 23:09 OP:nd   STATUS:               ID:20140928111304 L   I
 OLDACT:UP  14-09-28 21:41 OP:cam  STATUS:               ID:20140928111000     3
 OLDACT:REG 14-09-28 20:06 OP:cam  STATUS:               ID:20140928111000     3
 2014-09-28-1110-00M.COL___252                                                 6
 STAT SP IPHASW D HRMM SECON CODA AMPLIT PERI AZIMU VELO AIN AR TRES W  DIS CAZ7
 BAR2 SZ EP       1113 20.96                             164    0.0310 32.1 124 
 BAR2 SZ ES       1113 33.83                             164   -0.1510 32.1 124 
 BAR2 SZ I        1113 34.99         8.4 0.36            171           32.1 124 
 BRR  HZ EP     C 1113 21.44                             156    0.0910 50.4 321 
 BRR  HN ES       1113 35.38                             156    0.6510 50.4 321 
 BRR  HN I        1113 35.73        12.1 0.16            151           50.4 321 
 PTB  HE ES       1113 42.51                             133   -0.8610  117 258 
 PTB  HZ I        1113 47.56         2.9 0.28            132            117 258 
 ZAR  HZ EP       1113 33.09                             120    0.78 9  178 297 
 ZAR  HE ES       1113 54.65                             120    0.43 9  178 297 
 ZAR  HZ I        1113 58.83         1.8 0.14            119            178 297 
 SML  HZ EP       1113 38.58                             112   -0.20 8  237 343 
 SML  HE ES       1114  4.80                             112   -0.95 8  237 343 
 SML  HZ I        1114 14.42         2.3 0.10            112            237 343 
                                                                                
