 2012  728 1342 37.0 L   6.791 -73.163147.4  RSN  9 0.4 2.5LRSN                1
 GAP=135        0.84       4.0     4.0  6.4 -0.7881E+00  0.8507E+01  0.1402E+01E
 Epicentro: LOS SANTOS - SANTANDER                                             3
 ACTION:UPD 12-08-14 11:46 OP:ep   STATUS:               ID:20120728134237 L   I
 2012-07-28-1340-00M.COL___215                                                 6
 STAT SP IPHASW D HRMM SECON CODA AMPLIT PERI AZIMU VELO AIN AR TRES W  DIS CAZ7
 BAR2 SZ EP       1342 56.92                             171     0.110   22 186 
 BAR2 SZ ES   1   1343 12.01                             171    -0.3 7   22 186 
 BAR2 SZ I        1343 14.45        78.8 0.30            171             22 186 
 BRR  HZ EP       1342 58.75                             153     0.410   70 300 
 BRR  HZ I        1342 59.12       111.3 0.14            151             70 300 
 BRR  HN ES   1   1343 15.71                             153     0.8 7   70 300 
 PAM  SZ EP       1342 59.62                             150     0.110   79  40 
 PAM  SN ES   1   1343 17.16                             150     0.1 7   79  40 
 RUS  HZ EP       1343  0.77                             144    -0.110  100 175 
 RUS  HE ES   1   1343 19.30                             144    -0.2 7  100 175 
 RUS  HZ I        1343 20.30        28.3 0.44            148            100 175 
 PTB  HZ EP       1343  3.80                             133    -0.2 9  146 259 
 PTB  HN ES   1   1343 24.51                             133    -0.4 7  146 259 
 PTB  HZ I        1343 29.83        20.3 0.27            133            146 259 
 OCA  HN ES   1   1343 26.91                             130    -0.9 7  161 354 
 ZAR  HZ EP   1   1343  9.39                             123    -0.1 6  203 293 
 ZAR  HE ES   1   1343 34.77                             123     0.0 6  203 293 
 ZAR  HZ I        1343 42.05        40.1 0.35            124            203 293 
 NOR  SZ EP   1   1343 12.79                             119     0.1 6  233 234 
 NOR  SN ES   1   1343 40.47                             119     0.1 6  233 234 
 DBB  SZ EP   1   1343 24.63                             110     0.3 5  338 274 
 DBB  SZ ES   1   1344  0.92                             110    -0.4 5  338 274 
