 2016  228 1543 26.5 L   6.797 -73.131148.8  RSN 17 0.4 2.4LRSN                1
 GAP=139        0.82       2.6     3.5  4.5 -0.2241E+01  0.5993E+01  0.6119E+00E
 Epicentro: LOS SANTOS - SANTANDER                                             3
 ACTION:UPD 16-03-04 21:30 OP:rebc STATUS:               ID:20160228154326 L   I
 OLDACT:UP  16-02-29 00:39 OP:mh   STATUS:               ID:20160228153746     3
 OLDACT:UP  16-02-29 00:38 OP:mh   STATUS:               ID:20160228153746     3
 OLDACT:REG 16-02-28 21:23 OP:mh   STATUS:               ID:20160228153746     3
 2016-02-28-1537-46M.COL___319                                                 6
 STAT SP IPHASW D HRMM SECON CODA AMPLIT PERI AZIMU VELO AIN AR TRES W  DIS CAZ7
 BAR2 EZ EP       1543 46.49                             171   -0.0410 23.3 194 
 BAR2 EZ ES       1544  2.04                             171   -0.0910 23.3 194 
 BAR2 EZ I        1544  3.68        32.0 0.34            168           23.3 194 
 PAM  EZ EP     D 1543 49.28                             151    0.2510 76.6  38 
 PAM  EN ES       1544  6.58                             151    0.0010 76.6  38 
 PAM  EZ I        1544  8.49        34.5 0.54            152           76.6  38 
 RUS  HZ EP       1543 50.40                             144   -0.1510  100 177 
 RUS  HN ES       1544  9.56                             144    0.2710  100 177 
 RUS  HZ I        1544 11.40        15.7 0.62            143            100 177 
 PTB  HZ EP   1   1543 53.10                             132   -0.79 7  149 259 
 PTB  HN ES       1544 14.77                             132   -0.46 9  149 259 
 PTB  HZ I        1544 20.27        35.5 0.62            127            149 259 
 OCA  HZ EP   1   1543 54.95                             130   -0.18 7  161 353 
 OCA  HN ES       1544 17.58                             130    0.14 9  161 353 
 OCA  HZ I        1544 22.35        55.7 0.40            127            161 353 
 SPBC HZ EP   1   1543 54.67                             129   -0.67 7  164 220 
 SPBC HN ES       1544 17.71                             129   -0.10 9  164 220 
 SPBC HZ I        1544 24.30        48.8 0.34            126            164 220 
 ZAR  HZ EP   1   1543 59.11                             123   -0.24 6  206 292 
 ZAR  HN ES   1   1544 25.45                             123    0.51 6  206 292 
 ZAR  HZ I        1544 30.86        32.5 0.56            119            206 292 
 NOR  HZ EP       1544  2.57                             119    0.01 8  236 235 
 NOR  HN ES       1544 30.82                             119    0.16 8  236 235 
 NOR  HZ I        1544 32.52        19.0 0.28            116            236 235 
 CHI  HZ EP       1544  4.47                             118    0.06 8  249 196 
 CHI  HN ES   1   1544 33.98                             118    0.02 6  249 196 
 CHI  HZ I        1544 37.33         6.7 0.38            116            249 196 
 ROSC BZ EP   1   1544  4.21                             117   -0.67 6  253 211 
 ROSC BN ES   4   1544 38.66                             117    3.87 0  253 211 
 ROSC BZ I        1544 40.71        17.2 0.35            115            253 211 
 HEL  HZ EP       1544  7.79                             115    0.72 8  274 256 
 HEL  HN ES   1   1544 38.95                             115    0.26 6  274 256 
 URE  HZ EP   4   1544  6.82                             114   -1.12 0  285 292 
 URE  HN ES   4   1544 38.61                             114   -1.62 0  285 292 
 GUY2CHZ EP   1   1544 10.84                             113    0.43 5  302 235 
 GUY2CHN ES   4   1544 48.77                             113    4.13 0  302 235 
 GUY2CHZ I        1544 53.18        11.8 0.40                           302 235 
 ELA  HZ EP   1   1544 14.92                             111    1.29 5  330 230 
 ELA  HN ES   4   1544 54.22                             111    3.85 0  330 230 
 ELA  HZ I        1544 58.09         7.6 0.32            108            330 230 
 DBB  SZ EP       1544 13.96                             110   -0.37 7  341 274 
 DBB  SZ I        1544 52.85        25.7 0.58            107            341 274 
 MON  HZ EP   4   1544 13.76                             109   -2.07 0  355 308 
 MON  HN ES   4   1544 52.28                             109   -2.00 0  355 308 
 MON  HZ I        1544 55.91         4.6 0.30            107            355 308 
 ANIL HE ES   4   1544 57.81                             109    2.23 0  358 225 
 ANIL HZ I        1545  2.30        24.8 0.46            107            358 225 
 ORTC HZ EP   1   1544 20.19                             107   -0.45 4  396 216 
 ORTC HN ES   1   1545  3.78                             107    0.94 4  396 216 
 ORTC HZ I        1545 10.09         5.4 0.44            105            396 216 
                                                                                
