 2016  728 1122 14.5 L   6.769 -73.151144.2  RSN  6 0.3 1.6LRSN                1
 GAP=137        0.81       3.4     4.0  5.4 -0.5244E-02  0.5945E+01  0.2588E+00E
 Epicentro: LOS SANTOS - SANTANDER                                             3
 ACTION:UPD 17-03-29 16:55 OP:lp   STATUS:               ID:20160728112214 L   I
 OLDACT:UP  16-07-28 23:12 OP:ar   STATUS:               ID:20160728111743     3
 OLDACT:REG 16-07-28 20:31 OP:ar   STATUS:               ID:20160728111743     3
 2016-07-28-1118-00M.COL___359                                                 6
 STAT SP IPHASW D HRMM SECON CODA AMPLIT PERI AZIMU VELO AIN AR TRES W  DIS CAZ7
 BAR2 EZ EP       1122 34.01                             172    0.1610 19.8 190 
 BAR2 EZ ES       1122 49.00                             172    0.0310 19.8 190 
 BAR2 EZ I        1122 49.51        14.5 0.32            172           19.8 190 
 BRR  HZ EP       1122 35.32                             152   -0.2110 72.4 301 
 BRR  HE ES       1122 52.44                             152    0.4910 72.4 301 
 BRR  HZ I        1122 55.77         7.5 0.07            151           72.4 301 
 PAM  EZ EP       1122 36.54                             150   -0.1710 80.4  38 
 PAM  EE ES       1122 54.03                             150   -0.0210 80.4  38 
 PAM  EZ I        1122 55.37         5.2 0.31            152           80.4  38 
 RUS  HZ EP       1122 37.60                             145   -0.2310 97.2 176 
 RUS  HN ES       1122 55.90                             145   -0.1510 97.2 176 
 RUS  HZ I        1122 58.10         3.7 0.18            147           97.2 176 
 SPBC HZ EP       1122 43.00                             129    0.43 9  160 220 
 SPBC HE ES       1123  4.35                             129   -0.13 9  160 220 
 SPBC HZ I        1123  6.57         7.0 0.08            130            160 220 
 ZAR  HZ EP       1122 47.35                             122    0.45 9  205 293 
 ZAR  HN ES       1123 11.55                             122   -0.65 9  205 293 
 ZAR  HZ I        1123 16.62         4.5 0.17            123            205 293 
                                                                                
