 2014 1228 1331 56.0 L   6.802 -73.145152.0  RSN  6 0.6 1.4LRSN                1
 GAP=238        1.40       7.5     9.0 10.5  0.1364E+02  0.2298E+02  0.2133E+02E
 Epicentro: LOS SANTOS - SANTANDER                                             3
 ACTION:UPD 15-02-10 17:07 OP:nd   STATUS:               ID:20141228133156 L   I
 OLDACT:REG 14-12-28 22:27 OP:y    STATUS:               ID:20141228132750     3
 2014-12-28-1327-50M.COL___268                                                 6
 STAT SP IPHASW D HRMM SECON CODA AMPLIT PERI AZIMU VELO AIN AR TRES W  DIS CAZ7
 BAR2 EZ EP       1332 16.22                             171   -0.2010 23.5 190 
 BAR2 EZ ES       1332 32.20                             171   -0.1210 23.5 190 
 BAR2 EZ I        1332 34.18         5.3 0.30             81           23.5 190 
 BRR  HZ EP       1332 18.22                             154    0.3610 71.1 298 
 BRR  HN ES       1332 35.74                             154    0.8610 71.1 298 
 RUS  HN ES       1332 39.03                             145   -0.4110  101 176 
 PTB  HZ EP       1332 22.73                             133   -0.80 9  148 259 
 PTB  HN ES       1332 44.11                             133   -0.86 9  148 259 
 PTB  HZ I        1332 46.50         3.7 0.18             81            148 259 
 NOR  HN ES       1333  0.86                             120    0.54 8  235 234 
 NOR  HZ I        1334 45.13         2.3 0.10             81            235 234 
 CHI  HZ EP       1332 34.56                             118    0.45 8  249 195 
 CHI  HN ES       1333  4.33                             118    0.52 8  249 195 
 CHI  HZ I        1333  8.35         1.5 0.64             81            249 195 
                                                                                
