 2016 1028 1332 24.3 L   5.868 -73.820110.5  RSN  5 0.1 1.3LRSN                1
 GAP= 88        0.42       2.0     2.9  4.1 -0.2507E+01  0.4410E+00  0.2013E+01E
 Epicentro: JESUS MARIA - SANTANDER                                            3
 ACTION:UPD 16-11-09 19:23 OP:rebc STATUS:               ID:20161028133224 L   I
 OLDACT:UP  16-10-28 23:20 OP:edw  STATUS:               ID:20161028132750d    3
 OLDACT:UP  16-10-28 23:20 OP:edw  STATUS:               ID:20161028132750d    3
 OLDACT:UP  16-10-28 23:19 OP:edw  STATUS:               ID:20161028132750d    3
 OLDACT:DUP 16-10-28 23:16 OP:edw  STATUS:               ID:20161028132750d    3
 OLDACT:DUP 16-10-28 23:11 OP:edw  STATUS:               ID:20161028132749d    3
 2016-10-28-1328-00M.COL___343                                                 6
 STAT SP IPHASW D HRMM SECON CODA AMPLIT PERI AZIMU VELO AIN AR TRES W  DIS CAZ7
 RUS  HZ EP       1332 43.20                             140   -0.0710 81.7  88 
 RUS  HN ES       1332 58.01                             140   -0.0210 81.7  88 
 PTB  HZ EP   9   1332 43.42                             133   -0.89 0  102 317 
 PTB  HN ES       1332 58.67                             134   -0.3310  102 317 
 PTB  HZ I        1333  0.67         4.2 0.36            136            102 317 
 BAR2 EZ EP       1332 45.04                             132    0.0310  107  41 
 BAR2 EZ ES       1333  1.11                             132   -0.0310  107  41 
 BAR2 EZ I        1333  3.29         6.3 0.46            136            107  41 
 NOR  HN ES   2   1333  3.25                             128    0.22 5  121 254 
 CHI  HZ EP       1332 48.21                             124    0.06 9  137 176 
 CHI  HN ES       1333  6.71                             124   -0.01 9  137 176 
 CHI  HZ I        1333 10.53         2.1 0.24            126            137 176 
                                                                                
