 2017  328 1452 25.1 L   6.785 -73.151146.0  RSN 17 0.4 2.2LRSN                1
 GAP=119        0.86       3.0     3.1  4.3 -0.8111E+00  0.2559E+01  0.4907E+01E
 Epicentro: LOS SANTOS - SANTANDER                                             3
 ACTION:UPD 17-05-25 18:46 OP:jn   STATUS:               ID:20170328145225 L   I
 OLDACT:REG 17-03-28 20:28 OP:lv   STATUS:               ID:20170328144742     3
 2017-03-28-1448-00M.COL___367                                                 6
 STAT SP IPHASW D HRMM SECON CODA AMPLIT PERI AZIMU VELO AIN AR TRES W  DIS CAZ7
 BAR2 EZ EP       1452 44.58                             171   -0.1310 21.6 189 
 BAR2 EZ ES       1452 59.88                             171   -0.1410 21.6 189 
 BAR2 EZ I        1453  2.45        68.5 0.10            167           21.6 189 
 BRR  HZ EP       1452 46.37                             152    0.0910 71.5 300 
 BRR  HN ES       1453  3.55                             152    0.7510 71.5 300 
 BRR  HZ I        1453  7.46        46.9 0.28            149           71.5 300 
 PAM  EZ EP       1452 47.55                             150    0.1310 79.0  39 
 PAM  EN ES       1453  4.81                             150   -0.0310 79.0  39 
 PAM  EZ I        1453  7.85        13.1 0.26            157           79.0  39 
 RUS  HZ EP       1452 48.61                             144   -0.1410 99.0 176 
 RUS  HN ES       1453  7.14                             144   -0.0610 99.0 176 
 RUS  HZ I        1453  8.66        28.2 0.30            145           99.0 176 
 PTB  HZ EP       1452 51.63                             132   -0.36 9  147 259 
 PTB  HN ES       1453 12.30                             132   -0.68 9  147 259 
 PTB  HZ I        1453 19.02        15.9 0.10            131            147 259 
 SPBC HZ EP       1452 53.57                             129    0.12 9  162 219 
 SPBC HN ES       1453 15.43                             129   -0.14 9  162 219 
 ZAR  HE ES       1453 22.70                             122   -0.18 9  204 293 
 ZAR  HZ I        1453 28.01        19.8 0.29            122            204 293 
 NOR  HZ EP       1453  0.85                             119    0.17 8  233 235 
 NOR  HN ES       1453 28.20                             119   -0.24 8  233 235 
 NOR  HZ I        1453 35.54        12.6 0.10            119            233 235 
 CHI  HZ EP       1453  2.92                             117    0.31 8  247 195 
 CHI  HN ES       1453 32.50                             117    0.62 8  247 195 
 CHI  HZ I        1453 35.85         7.5 0.22            118            247 195 
 HEL  HZ EP   4   1453  7.45                             115    2.24 0  271 256 
 HEL  HN ES   4   1453 39.38                             115    2.88 0  271 256 
 HEL  HZ I        1453 42.91         8.3 0.61            115            271 256 
 VIL  EZ EP       1453  8.52                             112    0.20 7  302 192 
 VIL  EN ES   4   1453 43.11                             112    1.07 0  302 192 
 VIL  EZ I        1453 48.18        14.0 0.08            113            302 192 
 PTGC HZ EP       1453  7.65                             112   -1.15 7  307 158 
 PTGC HN ES   4   1453 41.47                             112   -1.43 0  307 158 
 ELA  HZ EP   4   1453 14.40                             110    2.62 0  328 230 
 ELA  HN ES   4   1453 50.48                             110    2.29 0  328 230 
 ELA  HZ I        1453 57.36         6.3 0.32            111            328 230 
 CBOC HZ EP       1453 12.38                             110    0.49 7  333 252 
 CBOC HE ES   4   1453 47.47                             110   -0.93 0  333 252 
 CBOC HZ I        1453 59.52         3.3 0.09            110            333 252 
 ANIL HN ES   4   1453 55.76                             109    2.33 0  356 225 
 PRA  HZ EP       1453 18.43                             107    0.01 6  390 210 
 PRA  HN ES       1454  0.39                             107    0.38 6  390 210 
 PRA  HZ I        1454  6.85        17.5 0.34            108            390 210 
 ORTC HZ EP       1453 19.13                             106    0.31 6  394 216 
 ORTC HN ES       1454  1.12                             106    0.39 6  394 216 
 ORTC HZ I        1454  8.49         5.8 0.27            107            394 216 
 PAL  HZ EP       1453 20.21                             106    0.11 6  404 239 
 PAL  HN ES       1454  2.70                             106   -0.31 6  404 239 
 PAL  HZ I        1454 10.10         2.4 0.29            107            404 239 
 SJC  HZ EP   4   1453 18.15                             106   -2.63 0  410 327 
 SJC  HN ES   4   1453 59.68                             106   -4.54 0  410 327 
 CRJC HZ EP   4   1453 24.94                             103   -2.85 0  469   4 
 CRJC HN ES   4   1454 13.48                             103   -3.22 0  469   4 
                                                                                
