 2014 1128 1422 31.6 L   6.813 -73.136146.0  RSN  6 0.4 1.4LRSN                1
 GAP=137        0.95       5.9     6.1  8.9 -0.1729E+02  0.2500E+02 -0.1809E+02E
 Epicentro: LOS SANTOS - SANTANDER                                             3
 ACTION:UPD 14-12-19 15:48 OP:nd   STATUS:               ID:20141128142231 L   I
 OLDACT:REG 14-11-28 21:12 OP:fm   STATUS:               ID:20141128141749     3
 2014-11-28-1417-49M.COL___309                                                 6
 STAT SP IPHASW D HRMM SECON CODA AMPLIT PERI AZIMU VELO AIN AR TRES W  DIS CAZ7
 BAR2 SZ EP       1422 51.60                             170    0.2910 25.0 192 
 BAR2 SZ ES       1423  6.91                             170    0.2310 25.0 192 
 BAR2 SZ I        1423  8.60         5.5 0.34            171           25.0 192 
 BRR  HZ EP       1422 53.35                             152    0.5410 71.5 297 
 PAM  SZ EP       1422 53.87                             151    0.1210 75.5  40 
 PAM  SN ES       1423 10.51                             151   -0.5110 75.5  40 
 PAM  SZ I        1423 13.68         3.3 0.34            153           75.5  40 
 RUS  HN ES       1423 14.12                             143   -0.0010  102 177 
 RUS  HZ I        1423 16.24         3.0 0.40            146            102 177 
 PTB  HZ EP       1422 58.12                             132   -0.61 9  149 258 
 PTB  HE ES       1423 19.96                             132    0.08 9  149 258 
 PTB  HZ I        1423 21.12         4.5 0.38            134            149 258 
 SPBC HN ES   1   1423 22.25                             129   -0.44 7  165 219 
                                                                                
