 2016 1128 1551 32.7 L   6.786 -73.136144.7  RSN 10 0.4 2.0LRSN                1
 GAP=155        0.91       3.8     4.0  5.6 -0.2082E+01  0.4466E+01  0.8765E+01E
 Epicentro: LOS SANTOS - SANTANDER                                             3
 ACTION:UPD 17-10-26 21:12 OP:lp   STATUS:               ID:20161128155132 L   I
 OLDACT:REG 16-11-28 21:10 OP:lv   STATUS:               ID:20161128154745     3
 2016-11-28-1548-00M.COL___328                                                 6
 STAT SP IPHASW D HRMM SECON CODA AMPLIT PERI AZIMU VELO AIN AR TRES W  DIS CAZ7
 BAR2 EZ EP       1551 52.02                             171   -0.1410 22.1 194 
 BAR2 EZ ES       1552  7.37                             171    0.0210 22.1 194 
 BAR2 EZ I        1552  8.72        22.4 0.23            166           22.1 194 
 BRR  HZ EP       1551 53.65                             152   -0.1710 72.9 299 
 BRR  HN ES       1552 10.89                             152    0.5910 72.9 299 
 PAM  EZ EP       1551 54.86                             150    0.0410 77.9  38 
 PAM  EN ES       1552 11.91                             150   -0.1710 77.9  38 
 PAM  EZ I        1552 14.27        14.3 0.17            157           77.9  38 
 PTB  HZ EP       1551 58.98                             132   -0.66 9  149 259 
 PTB  HN ES       1552 19.97                             132   -0.69 9  149 259 
 PTB  HZ I        1552 27.75        11.9 0.35            131            149 259 
 ZAR  HZ EP       1552  5.89                             122    0.66 8  206 292 
 ZAR  HN ES       1552 30.77                             122    0.16 8  206 292 
 ZAR  HZ I        1552 36.41        10.3 0.19            123            206 292 
 NOR  HZ EP       1552  8.14                             118   -0.22 8  235 235 
 NOR  HE ES       1552 36.34                             118    0.16 8  235 235 
 NOR  HZ I        1552 41.33         6.5 0.22            118            235 235 
 CHI  HZ EP       1552 10.24                             117    0.04 8  247 196 
 CHI  HE ES       1552 39.85                             117    0.39 8  247 196 
 CHI  HZ I        1552 45.41         4.7 0.34            118            247 196 
 ELA  HZ EP   4   1552 21.59                             110    2.11 0  329 230 
 ELA  HN ES   4   1553  0.64                             110    4.67 0  329 230 
 ELA  HZ I        1553  3.89         6.3 0.38            111            329 230 
 PRA  HZ EP       1552 26.78                             106    0.70 6  391 210 
 PRA  HN ES       1553  7.67                             106   -0.05 6  391 210 
 PRA  HZ I        1553 14.06         5.6 0.42            107            391 210 
 ORTC HZ EP       1552 26.29                             106   -0.21 6  395 216 
 ORTC HN ES   4   1553 10.20                             106    1.72 0  395 216 
 ORTC HZ I        1553 16.77         3.9 0.56            107            395 216 
 SJC  HZ EP   4   1552 26.26                             105   -2.17 0  411 327 
 SJC  HN ES   4   1553  6.52                             105   -5.39 0  411 327 
                                                                                
