 2010 1228 1922 30.1 L   6.811 -73.181145.4  RSN 11 0.3 2.4LRSN                1
 GAP=133        0.59       2.7     5.5  5.4 -0.3979E+01  0.7230E+01  0.2511E+01E
 Epicentro: LOS SANTOS - SANTANDER                                             3
 ACTION:UP  11-01-14 15:27 OP:pat  STATUS:               ID:20101228192230 L   I
 2010-12-28-1920-00M.COL___137                                                 6
 STAT SP IPHASW D HRMM SECON CODA AMPLIT PERI AZIMU VELO SNR AR TRES W  DIS CAZ7
 BTL  SZ EP   1   1922 50.10                             174     0.5 7   15 321 
 BTL  SZ ES   2   1923  5.59                             174     0.8 5   15 321 
 BAR2 SZ IP     D 1922 49.61                             170    -0.110   24 181 
 BAR2 SZ ES   2   1923  4.30                             170    -0.7 5   24 181 
 BAR2 SZ I        1923  7.07        98.7 0.25                            24 181 
 GIR2 SZ EP   1   1922 49.65                             168    -0.1 7   30 357 
 RUS  HZ EP   1   1922 53.60                             143    -0.3 7  102 174 
 RUS  HE ES   2   1923 12.44                             143    -0.1 5  102 174 
 RUS  HZ I        1923 14.72        31.2 0.42                           102 174 
 GRA  SZ EP   1   1922 55.40                             137     0.1 7  126  19 
 GRA  SZ ES   2   1923 15.11                             137     0.1 5  126  19 
 GRA  SZ I        1923 17.24        23.0 0.41                           126  19 
 OCA  SZ EP   1   1922 58.20                             130    -0.1 7  159 354 
 OCA  SZ ES   2   1923 19.83                             130    -0.4 5  159 354 
 OCA  SZ I        1923 28.04        33.7 0.44                           159 354 
 YOP  SZ EP   1   1923  0.40                             126     0.0 7  182 152 
 YOP  SE ES   2   1923 24.41                             126     0.3 4  182 152 
 YOP  SZ I        1923 26.32        23.3 0.29                           182 152 
 NOR  SZ EP   1   1923  5.49                             119    -0.1 6  232 234 
 NOR  SE ES   2   1923 32.99                             119    -0.2 4  232 234 
 NOR  SZ I        1923 39.93         3.1 0.16                           232 234 
 CHI  HZ EP   1   1923  7.74                             117    -0.1 6  249 194 
 CHI  HN ES   2   1923 37.14                             117    -0.1 4  249 194 
 CHI  HZ I        1923 39.61        23.9 0.31                           249 194 
 ROSC BZ EP   1   1923  8.25                             117     0.1 6  252 210 
 ROSC BN ES   2   1923 37.75                             117     0.0 4  252 210 
 ROSC BZ I        1923 46.11        39.1 0.47                           252 210 
 PRA  HZ EP   1   1923 23.75                             106     0.2 4  391 209 
 PRA  HE ES   2   1924  5.75                             106     0.6 3  391 209 
                                                                                
