 2013  528 1457 10.2 L   7.146 -74.078 16.2  RSN  6 0.3 2.0LRSN                1
 GAP=183        0.78       3.1     2.7  3.1 -0.5006E+01 -0.1580E+00 -0.2658E+01E
 Epicentro: BARRANCABERMEJA - SANTANDER                                        3
 ACTION:UPD 13-06-20 09:54 OP:ep   STATUS:               ID:20130528145710 L   I
 2013-05-28-1448-42M.COL___221                                                 6
 STAT SP IPHASW D HRMM SECON CODA AMPLIT PERI AZIMU VELO AIN AR TRES W  DIS CAZ7
 BRR  HZ IP     D 1457 17.26                             108    0.0510 40.7  96 
 BRR  HN ES       1457 22.66                             108   -0.0510 40.7  96 
 BRR  HE I        1457 23.19       176.4 0.18            107           40.7  96 
 PTB  HZ EP       1457 23.03                              99    0.1310 79.1 212 
 PTB  HN ES       1457 32.49                              99   -0.3510 79.1 212 
 PTB  HE I        1457 33.22        29.3 0.28             99           79.1 212 
 GIR2 SZ EP       1457 26.09                              97    0.2210 98.0  94 
 OCA  HN ES       1457 50.91                              56    0.21 9  147  35 
 PAM  SZ EP       1457 33.95                              56   -0.23 9  154  82 
 PAM  SE ES       1457 52.29                              56   -0.62 9  154  82 
 PAM  SN I        1457 54.10        19.3 0.18             56            154  82 
 RUS  HZ EP       1457 37.51                              56    0.42 9  177 142 
 RUS  HN ES       1457 58.37                              56    0.27 9  177 142 
                                                                                
