 2012  728 1524 25.8 L   6.803 -73.155139.7  RSN 14 0.5 2.7LRSN                1
 GAP= 70        1.03       3.5     3.5  6.3 -0.3039E+00  0.5306E+01  0.4737E+01E
 Epicentro: LOS SANTOS - SANTANDER                                             3
 SPEC SD       MO  0.4 ST 11.9 OM  1.2 f00.537 R0.0271 AL      WI      MW  0.2 3
 SPEC OCA HH N MO 14.3 ST 37.9 OM  2.6 f0 5.18 R0.2838 AL 2.34 WI 15.2 MW  3.5 3
 SPEC OCA HH N T152514 K 0.000 GD  212 VS 4.20 DE 3.00 Q0230.0 QA 0.60 VS 4.20 3
 SPEC PTB HH N MO 13.5 ST  9.1 OM  1.8 f0 6.05 R0.2430 AL 2.19 WI 18.6 MW  2.9 3
 SPEC PTB HH N T152511 K 0.000 GD  202 VS 4.20 DE 3.00 Q0230.0 QA 0.60 VS 4.20 3
 SPEC RUS HH N MO 14.1 ST 18.9 OM  2.5 f0 4.76 R0.3088 AL 1.31 WI 16.9 MW  3.3 3
 SPEC RUS HH N T1525 5 K 0.000 GD  172 VS 4.20 DE 3.00 Q0230.0 QA 0.60 VS 4.20 3
 ACTION:UP  12-08-14 11:46 OP:ep   STATUS:               ID:20120728152425 L   I
 2012-07-28-1520-00M.COL___215                                                 6
 STAT SP IPHASW D HRMM SECON CODA AMPLIT PERI AZIMU VELO AIN AR TRES W  DIS CAZ7
 BAR2 SZ IP       1524 44.72                             170     0.110   24 187 
 BAR2 SZ ES   1   1524 59.17                             170    -0.2 7   24 187 
 BAR2 SZ I        1525  1.26       107.6 0.23            167             24 187 
 BRR  HZ EP       1524 46.54                             152     0.410   70 299 
 BRR  HN ES   1   1525  2.65                             152     0.5 7   70 299 
 BRR  HZ I        1525  7.61       142.4 0.16            151             70 299 
 PAM  SZ EP       1524 47.79                             149     0.410   78  40 
 PAM  SN ES   1   1525  4.47                             149     0.3 7   78  40 
 RUS  HZ EP       1524 48.81                             142    -0.110  101 175 
 RUS  HN ES   1   1525  6.83                             142    -0.2 7  101 175 
 RUS  HZ I        1525  9.23        43.4 0.40            143            101 175 
 PTB  HZ EP       1524 51.49                             131    -0.7 9  147 259 
 PTB  HN ES   1   1525 12.15                             131    -0.6 7  147 259 
 PTB  HZ I        1525 15.18        40.4 0.12            131            147 259 
 TAM  HZ EP       1524 53.08                             129     0.0 9  156 105 
 TAM  HN ES   1   1525 14.42                             129     0.1 7  156 105 
 OCA  HZ EP   1   1524 53.02                             128    -0.5 7  160 353 
 OCA  HN ES   1   1525 14.56                             128    -0.7 7  160 353 
 OCA  HZ I        1525 17.80       147.5 0.20            131            160 353 
 ZAR  HZ EP   1   1524 58.51                             121     0.8 6  203 292 
 ZAR  HN ES   1   1525 21.83                             121    -0.8 6  203 292 
 ZAR  HZ I        1525 28.84        41.4 0.29            122            203 292 
 NOR  SZ EP       1525  1.21                             117     0.1 8  234 234 
 NOR  SN ES   1   1525 29.06                             117     0.4 6  234 234 
 CHI  HZ EP   1   1525  2.73                             116    -0.4 6  249 195 
 CHI  HE ES   1   1525 32.19                             116    -0.1 6  249 195 
 CHI  HZ I        1525 39.52        22.0 0.43            117            249 195 
 HEL  HZ EP   1   1525  6.21                             114     0.6 6  271 256 
 HEL  HN ES   1   1525 37.16                             114     0.5 6  271 256 
 HEL  HZ I        1525 43.80        26.6 0.30            115            271 256 
 VIL  SN ES   1   1525 42.63                             111     0.0 5  304 191 
 VIL  SZ I        1525 53.50        18.2 0.28            112            304 191 
 DBB  SZ EP       1525 13.21                             108     0.3 7  338 274 
 PRA  HZ EP       1525 18.31                             105    -0.7 6  392 209 
 PRA  HN ES   1   1526  1.18                             105     0.6 4  392 209 
