 2016  428 1516 35.4 L   6.815 -73.204149.2  RSN  4 0.3 1.4LRSN                1
 GAP=146        0.70       4.4     4.1  5.9 -0.5647E+01  0.6455E+01 -0.2564E+01E
 Epicentro: ZAPATOCA - SANTANDER                                               3
 ACTION:UPD 16-05-05 14:24 OP:rebc STATUS:               ID:20160428151635 L   I
 OLDACT:REG 16-04-28 21:54 OP:cara STATUS:               ID:20160428150746     3
 2016-04-28-1507-46M.COL___325                                                 6
 STAT SP IPHASW D HRMM SECON CODA AMPLIT PERI AZIMU VELO AIN AR TRES W  DIS CAZ7
 BAR2 EZ EP       1516 55.65                             170    0.1710 24.8 175 
 BAR2 EZ ES       1517 11.13                             170   -0.0110 24.8 175 
 BAR2 EZ I        1517 12.13         5.4 0.14            172           24.8 175 
 PAM  EZ IP       1516 58.54                             150    0.3810 80.4  44 
 PAM  EE ES       1517 15.66                             150   -0.2610 80.4  44 
 PAM  EZ I        1517 17.64         5.5 0.50            152           80.4  44 
 RUS  HZ EP       1516 59.62                             144   -0.0410  103 173 
 RUS  HN ES       1517 18.56                             144   -0.0210  103 173 
 RUS  HZ I        1517 19.37         3.7 0.30            146            103 173 
 PTB  HZ EP       1517  1.63                             134   -0.50 9  142 258 
 PTB  HN ES       1517 23.23                             134    0.25 9  142 258 
 PTB  HZ I        1517 26.23         2.4 0.14            135            142 258 
                                                                                
