 2015  128 1721  9.7 L   6.786 -73.128152.8  RSN  6 0.4 1.6LRSN                1
 GAP=139        0.98       5.4     5.5  7.4 -0.1062E+02  0.3694E+01  0.6713E+01E
 Epicentro: LOS SANTOS - SANTANDER                                             3
 ACTION:UPD 15-03-02 15:43 OP:nd   STATUS:               ID:20150128172109 L   I
 OLDACT:REG 15-01-28 20:28 OP:spq  STATUS:               ID:20150128171748     3
 2015-01-28-1717-48M.COL___268                                                 6
 STAT SP IPHASW D HRMM SECON CODA AMPLIT PERI AZIMU VELO AIN AR TRES W  DIS CAZ7
 BAR2 EZ ES   1   1721 46.04                             171   -0.05 7 22.2 196 
 BAR2 EZ I        1721 46.72         6.8 0.47            170           22.2 196 
 BRR  HZ EP       1721 32.03                             153    0.3010 73.7 299 
 BRR  HN ES       1721 49.37                             153    0.4410 73.7 299 
 BRR  HZ I        1721 51.69        16.5 0.21            152           73.7 299 
 PAM  SZ EP       1721 32.89                             152    0.2410 77.4  38 
 PAM  SE ES       1721 50.28                             152   -0.2810 77.4  38 
 PAM  SZ I        1721 52.19         4.8 0.48            155           77.4  38 
 RUS  HZ EP   1   1721 33.84                             146   -0.18 7 98.9 177 
 RUS  HE ES   1   1721 52.65                             146   -0.34 7 98.9 177 
 RUS  HZ I        1721 53.82         2.7 0.44            147           98.9 177 
 PTB  HZ EP       1721 36.81                             133   -0.57 9  149 260 
 PTB  HN ES       1721 58.37                             133   -0.61 9  149 260 
 PTB  HZ I        1722  3.91         6.6 0.22            133            149 260 
 SPBC HZ EP       1721 38.94                             131    0.20 9  163 220 
 SPBC HE ES       1722  1.99                             131    0.59 9  163 220 
 SPBC HZ I        1722  5.74         9.8 0.34            131            163 220 
                                                                                
