 2011  728 1322 48.8 L   6.772 -73.086135.4  RSN  6 0.5 1.8LRSN                1
 GAP=146        1.06       5.9    14.1 12.7  0.3471E+02 -0.8909E+02 -0.4046E+02E
 Epicentro: LOS SANTOS - SANTANDER                                             3
 ACTION:UPD 12-07-25 14:03 OP:epov STATUS:               ID:20110728132248 L   I
 2011-07-28-1320-05S.COL___138                                                 6
 STAT SP IPHASW D HRMM SECON CODA AMPLIT PERI AZIMU VELO AIN AR TRES W  DIS CAZ7
 BAR2 SZ EP       1323  7.36                             170    0.2110 22.5 208 
 BAR2 SZ ES   1   1323 21.95                             170    0.47 7 22.5 208 
 BAR2 SZ I        1323 23.38         9.6 0.10                          22.5 208 
 PAM  SZ EP   1   1323 10.33                             149    0.51 7 75.9  34 
 BRR  HZ EP   1   1323  9.37                             148    0.09 7 78.5 298 
 BRR  HN ES   1   1323 25.69                             148    0.43 7 78.5 298 
 BRR  HZ I        1323 31.43        22.3 0.17                          78.5 298 
 RUS  HZ EP   1   1323 11.65                             142    0.37 7 97.2 180 
 RUS  HN ES       1323 28.11                             142   -0.7110 97.2 180 
 RUS  HZ I        1323 31.04         6.1 0.36                          97.2 180 
 BRI  SZ EP   1   1323 11.98                             139    0.21 7  109  17 
 BRI  SZ I        1323 35.87        14.0 0.45                           109  17 
 OCA  SZ EP   1   1323 16.18                             126   -0.52 7  164 351 
 OCA  SZ ES   1   1323 37.56                             126   -0.92 7  164 351 
 OCA  SZ I        1323 41.36        15.8 0.36                           164 351 
                                                                                
