 2013  828 1701 45.6 L   6.809 -73.364124.0  RSN  7 0.4 1.6LRSN                1
 GAP= 93        0.91       4.3     4.7  7.1  0.6356E+01  0.1189E+02 -0.3828E+00E
 Epicentro: ZAPATOCA - SANTANDER                                               3
 ACTION:UPD 14-01-14 09:08 OP:ep   STATUS:               ID:20130828170145 L   I
 OLDACT:REG 13-08-28 14:47 OP:jn   STATUS:               ID:20130828165959     3
 2013-08-28-1659-59M.COL___270                                                 6
 STAT SP IPHASW D HRMM SECON CODA AMPLIT PERI AZIMU VELO AIN AR TRES W  DIS CAZ7
 BAR2 SZ EP       17 2  3.15                             165    0.3310 31.3 140 
 BAR2 SZ ES       17 2 16.49                             165    0.2210 31.3 140 
 BAR2 SZ I        17 2 17.47        41.9 0.42            168           31.3 140 
 BRR  HZ EP       17 2  3.53                             156    0.2810 50.6 311 
 BRR  HN ES       17 2 17.42                             156    0.3910 50.6 311 
 BRR  HZ I        17 2 18.48        16.3 0.12            155           50.6 311 
 PAM  SN ES   1   17 2 22.59                             141   -0.64 7 94.0  51 
 PAM  SZ I        17 2 25.34         5.4 0.18            144           94.0  51 
 RUS  HZ EP   1   17 2  7.94                             137    0.23 7  106 163 
 RUS  HN ES       17 2 24.58                             137   -0.3810  106 163 
 RUS  HZ I        17 2 26.48         2.1 0.38            140            106 163 
 PTB  HZ EP       17 2  8.38                             132   -0.2810  124 256 
 PTB  HN ES   1   17 2 26.07                             132   -0.58 7  124 256 
 PTB  HZ I        17 2 30.64         6.5 0.10            132            124 256 
 ZAR  HZ EP   1   17 2 14.90                             120    0.60 7  181 295 
 ZAR  HN ES   1   17 2 36.41                             120   -0.28 7  181 295 
 ZAR  HZ I        17 2 41.81         5.3 0.32            121            181 295 
 SML  HE ES   1   17 2 46.25                             114   -0.52 6  234 341 
                                                                                
