 2016 1228 1724 43.3 L   6.787 -73.154145.0  RSN  6 0.5 1.6LRSN                1
 GAP=136        1.21       6.0     5.4  8.2  0.3405E+01  0.1111E+02 -0.2120E+01E
 Epicentro: LOS SANTOS - SANTANDER                                             3
 ACTION:UPD 17-01-11 20:20 OP:rebc STATUS:               ID:20161228172443 L   I
 OLDACT:REG 16-12-28 21:43 OP:cog  STATUS:               ID:20161228171744     3
 2016-12-28-1718-00M.COL___375                                                 6
 STAT SP IPHASW D HRMM SECON CODA AMPLIT PERI AZIMU VELO AIN AR TRES W  DIS CAZ7
 BAR2 EZ EP       1725  2.76                             171   -0.0510 21.8 188 
 BAR2 EZ ES       1725 17.91                             171   -0.1210 21.8 188 
 BAR2 EZ I        1725 20.48        14.0 0.34            171           21.8 188 
 BRR  HZ EP       1725  4.74                             152    0.3710 71.1 300 
 BRR  HN ES       1725 21.62                             152    0.8210 71.1 300 
 PAM  EZ EP       1725  5.62                             150    0.0810 79.1  39 
 PAM  EE ES       1725 22.22                             150   -0.6710 79.1  39 
 PAM  EZ I        1725 24.85         5.6 0.40            152           79.1  39 
 RUS  HZ EP       1725  7.06                             144    0.1810 99.2 175 
 RUS  HN ES       1725 25.60                             144    0.3210 99.2 175 
 RUS  HZ I        1725 26.57         5.7 0.36            146           99.2 175 
 PTB  HZ EP       1725  9.59                             132   -0.51 9  147 259 
 PTB  HN ES       1725 30.10                             132   -0.91 9  147 259 
 PTB  HZ I        1725 33.04         4.0 0.12            134            147 259 
 ZAR  HZ EP       1725 15.89                             122    0.22 9  204 293 
 ZAR  HN ES       1725 41.11                             122    0.20 9  204 293 
 GUY2CHZ EP   4   1725 28.90                             112    2.20 0  300 235 
 GUY2CHN ES   4   1726  0.31                             112   -0.24 0  300 235 
                                                                                
