 2013  528 1310 58.3 L   6.802 -73.149150.0  RSN 10 0.5 2.4LRSN                1
 GAP=119        1.32       3.9     6.1  6.7 -0.1538E+01  0.1657E+01  0.9019E+00E
 Epicentro: LOS SANTOS - SANTANDER                                             3
 ACTION:UPD 13-06-20 09:54 OP:ep   STATUS:               ID:20130528131058 L   I
 2013-05-28-1308-37M.COL___220                                                 6
 STAT SP IPHASW D HRMM SECON CODA AMPLIT PERI AZIMU VELO AIN AR TRES W  DIS CAZ7
 BAR2 SZ EP       1311 18.59                             171    0.1710 23.5 189 
 BAR2 SZ ES       1311 33.98                             171   -0.1510 23.5 189 
 BAR2 SZ I        1311 36.18        31.4 0.28            169           23.5 189 
 GIR2 SZ EP       1311 18.71                             168    0.2610 31.0 351 
 GIR2 SZ ES       1311 33.55                             168   -0.6310 31.0 351 
 BRR  HZ EP       1311 20.39                             153    0.5310 70.8 299 
 BRR  HN ES       1311 37.52                             153    0.8210 70.8 299 
 BRR  HE I        1311 39.66        40.8 0.18            151           70.8 299 
 PAM  SZ EP       1311 21.47                             152    0.5210 77.4  40 
 PAM  SZ I        1311 21.65        43.7 0.42            154           77.4  40 
 PAM  SN ES       1311 38.74                             152    0.1110 77.4  40 
 RUS  HZ EP       1311 22.47                             145    0.0110  101 176 
 RUS  HN ES       1311 40.68                             145   -0.6510  101 176 
 RUS  HE I        1311 42.16        37.3 0.48            145            101 176 
 PTB  HZ EP       1311 25.23                             133   -0.34 9  147 259 
 PTB  HN ES       1311 46.27                             133   -0.58 9  147 259 
 PTB  HE I        1311 52.09        38.1 0.50            131            147 259 
 OCA  HN ES       1311 49.75                             131    0.53 9  160 353 
 SML  HZ EP       1311 34.34                             118   -0.77 8  243 335 
 SML  HN ES       1312  3.33                             118   -0.50 8  243 335 
 SML  HE I        1312  7.95        57.3 0.10            118            243 335 
 CHI  HZ EP       1311 36.82                             118    0.60 8  249 195 
 CHI  HE ES       1312  6.35                             118    0.52 8  249 195 
 CHI  HN I        1312  9.72        15.9 0.22            118            249 195 
 SOCV BZ EP       1311 40.53                             113   -1.01 7  301  57 
                                                                                
