 2017  628 1922 27.9 L   6.239 -72.818  0.0  RSN 17 0.8 2.9LRSN                1
 GAP=125        1.87       4.2     3.7  7.0  0.6036E+01  0.9200E+01  0.7390E+01E
 Epicentro: ONZAGA - SANTANDER                                                 3
 ACTION:UPD 17-09-14 16:56 OP:jn   STATUS:               ID:20170628192227 L   I
 OLDACT:UP  17-07-07 17:19 OP:nlst STATUS:               ID:20170628192227 L   3
 OLDACT:UP  17-06-29 02:11 OP:osc  STATUS:               ID:20170628191739     3
 OLDACT:REG 17-06-28 21:57 OP:osc  STATUS:               ID:20170628191739     3
 2017-06-28-1918-00M.COL___370                                                 6
 STAT SP IPHASW D HRMM SECON CODA AMPLIT PERI AZIMU VELO AIN AR TRES W  DIS CAZ7
 BAR2 EZ IP     D 1922 36.04                              47   -1.7210 56.1 314 
 BAR2 EZ ES   1   1922 45.09                              47   -0.40 7 56.1 314 
 BAR2 EZ I        1922 53.50       271.7 0.62             47           56.1 314 
 YPLC HZ EP       1922 43.45                              47   -1.5610  105 152 
 YPLC HE ES       1922 58.76                              47    0.3710  105 152 
 YPLC HZ I        1923  1.03       261.4 0.40             47            105 152 
 TAM  HZ EP       1922 46.74                              47    0.1510  116  79 
 TAM  HE ES       1923  1.98                              47    0.7710  116  79 
 TAM  HZ I        1923  3.84       114.6 0.38             47            116  79 
 BRR  HZ EP       1922 50.21                              47    0.32 9  138 314 
 BRR  HE ES       1923  7.65                              47    0.57 9  138 314 
 BRR  HZ I        1923 13.57       169.3 0.22             47            138 314 
 SPBC HZ EP   9 D 1922 50.44                              47   -1.89 0  153 245 
 SPBC HE ES       1923  8.35                                   -1.18 9  153 245 
 SPBC HZ I        1923 11.69       202.9 0.32             47            153 245 
 PTB  HZ EP       1922 56.69                              37   -0.13 9  184 280 
 PTB  HE ES       1923 20.05                              37    0.63 9  184 280 
 PTB  HZ I        1923 22.00       223.2 0.52             37            184 280 
 CHI  HZ EP       1922 59.35                              37   -0.52 9  205 210 
 CHI  HN ES       1923 23.71                              37   -1.13 9  205 210 
 CHI  HZ I        1923 34.73        92.6 0.48             37            205 210 
 ROSC BZ EP   4   1923  4.44                              37    1.79 0  227 227 
 ROSC BE ES   4   1923 32.20                              37    2.42 0  227 227 
 ROSC BZ I        1923 36.48        58.2 0.35             37            227 227 
 PTGC HZ EP       1923  3.54                              37    0.01 8  238 161 
 PTGC HE ES       1923 32.21                              37    0.86 8  238 161 
 PTGC HZ I        1923 34.99       145.4 0.58             37            238 161 
 NOR  HZ EP       1923  3.83                              37    0.11 8  239 252 
 NOR  HE ES       1923 32.86                              37    1.16 8  239 252 
 NOR  HZ I        1923 33.52       126.0 0.44             37            239 252 
 VIL  EZ EP       1923  5.87                              37    0.13 8  254 202 
 VIL  EE ES   4   1923 38.65                              37    3.36 0  254 202 
 VIL  EZ I        1923 46.81       195.4 0.38             37            254 202 
 ZAR  HZ EP   9   1923  8.31                              37    1.45 0  265 302 
 ZAR  HE ES       1923 38.51                                   -0.23 8  265 302 
 ZAR  HZ I        1923 47.00        70.8 0.44             37            265 302 
 HEL  HZ EP       1923 11.50                              36   -0.21 7  300 269 
 HEL  HE ES       1923 46.51                              36    0.58 7  300 269 
 HEL  HZ I        1923 48.15        49.9 0.32             36            300 269 
 GUY2CHZ EP   4   1923 13.30                              36    1.02 0  304 248 
 GUY2CHE ES       1923 47.53                              36    0.59 7  304 248 
 GUY2CHZ I        1923 54.04        49.0 0.42                           304 248 
 URE  HZ EP   9   1923 18.89                              36    2.25 0  343 299 
 URE  HN ES   2   1923 57.46                                    0.51 3  343 299 
 URE  HZ I        1924  5.88        22.1 0.38             36            343 299 
 ORTC HZ EP       1923 21.08                              36    0.80 6  373 226 
 ORTC HE ES   4   1924  5.85                              36    4.68 0  373 226 
 ORTC HZ I        1924 16.45        25.9 0.66             36            373 226 
 DBB  EZ EP   4   1923 24.84                              36    3.01 0  385 283 
 DBB  EE ES   4   1924  8.86                              36    4.92 0  385 283 
 DBB  EZ I        1924 17.21         9.3 0.38             36            385 283 
 PAL  HZ EP   4   1923 28.55                              36    3.47 0  411 249 
 PAL  HE ES   4   1924 15.67                              36    5.95 0  411 249 
 CRJC HZ EP   4   1923 41.11                              36    1.48 0  529 359 
                                                                                
