 2010 1028 1711  2.3 L   6.787 -73.098142.4  RSN  9 0.3 1.8LRSN                1
 GAP=164        0.56       3.0     5.3  4.6 -0.1574E+01  0.3291E+01  0.2250E+01E
 Epicentro: LOS SANTOS - SANTANDER                                             3
 ACTION:UP  11-02-18 11:12 OP:tino STATUS:               ID:20101028171102 L   I
 2010-10-28-1706-26S.COL___126                                                 6
 STAT SP IPHASW D HRMM SECON CODA AMPLIT PERI AZIMU VELO SNR AR TRES W  DIS CAZ7
 BAR2 SZ EP   1   1711 21.46                             170    -0.1 7   24 204 
 BAR2 SZ ES   1   1711 36.42                             170    -0.1 7   24 204 
 BAR2 SZ I        1711 37.59        17.7 0.26                            24 204 
 BRR  HZ IP     C 1711 23.31                             150    -0.110   77 298 
 BRR  HZ I        1711 23.46        23.9 0.10                            77 298 
 BRR  HE ES   1   1711 40.15                             150     0.3 7   77 298 
 RUS  HZ EP   1   1711 25.49                             144    -0.1 7   99 179 
 RUS  HZ I        1711 26.69         6.6 0.11                            99 179 
 RUS  HN ES   1   1711 43.94                             144     0.2 7   99 179 
 GUE  SZ EP   2   1711 26.35                             139    -0.4 5  117   9 
 GRA  SZ EP   2   1711 27.87                             136     0.6 5  126  15 
 GRA  SZ ES   2   1711 46.30                             136    -0.4 5  126  15 
 GRA  SZ I        1711 51.02         8.1 0.27                           126  15 
 NOR  SZ EP   2   1711 37.68                             117    -0.5 4  238 236 
 NOR  SN ES   2   1712  5.72                             117    -0.5 4  238 236 
 CHI  HZ EP   1   1711 39.86                             116     0.0 6  249 196 
 CHI  HE ES   2   1712  9.48                             116     0.4 4  249 196 
 CHI  HZ I        1712 16.79         4.0 0.41                           249 196 
 HEL  HZ EP   2   1711 43.41                             114     0.5 4  277 256 
 PRA  HZ EP   1   1711 56.18                             106     0.3 4  393 210 
 PRA  HN ES   2   1712 36.96                             106    -0.7 3  393 210 
                                                                                
