 2014  928 1211 12.4 L   6.805 -73.147140.2  RSN  8 0.4 2.0LRSN                1
 GAP=201        1.05       4.1     5.8  6.8  0.6913E+01  0.3749E+01 -0.4592E+01E
 Epicentro: LOS SANTOS - SANTANDER                                             3
 ACTION:UPD 14-10-03 23:09 OP:nd   STATUS:               ID:20140928121112 L   I
 OLDACT:REG 14-09-28 20:13 OP:cam  STATUS:               ID:20140928121000     3
 2014-09-28-1210-00M.COL___252                                                 6
 STAT SP IPHASW D HRMM SECON CODA AMPLIT PERI AZIMU VELO AIN AR TRES W  DIS CAZ7
 BAR2 SZ IP     C 1211 31.34                             170   -0.0410 23.9 189 
 BAR2 SZ ES       1211 45.66                             170   -0.5210 23.9 189 
 BAR2 SZ I        1211 48.91        16.4 0.52            168           23.9 189 
 BRR  HZ EP     D 1211 33.28                             152    0.3410 70.8 298 
 BRR  HN ES       1211 49.32                             152    0.3710 70.8 298 
 BRR  HZ I        1211 53.51        16.5 0.26            149           70.8 298 
 RUS  HZ EP       1211 35.84                             142    0.1810  101 176 
 RUS  HE ES       1211 54.28                             142    0.4810  101 176 
 RUS  HZ I        1211 55.21        11.5 0.42            145            101 176 
 PTB  HZ EP     D 1211 38.40                             131   -0.52 9  148 259 
 PTB  HN ES       1211 59.18                             131   -0.43 9  148 259 
 PTB  HZ I        1212  4.19        11.2 0.20            130            148 259 
 SPBC HZ EP       1211 40.28                             128   -0.24 9  164 219 
 SPBC HN ES       1212  2.26                             128   -0.19 9  164 219 
 SPBC HZ I        1212  8.03        15.9 0.30            129            164 219 
 ZAR  HN ES       1212 10.30                             121    0.84 9  204 292 
 ZAR  HZ I        1212 16.42        10.0 0.32            122            204 292 
 SML  HZ EP       1211 48.87                             116    0.21 8  243 335 
 SML  HE ES       1212 16.27                             116   -0.68 8  243 335 
 SML  HZ I        1212 21.31         9.6 0.10            118            243 335 
 GUY2CHZ EP   1   1211 55.97                             111    0.18 5  301 235 
                                                                                
