 2011  128 1741  6.4 L   6.798 -73.076141.1  RSN  4 0.2 1.5LRSN                1
 GAP=166        0.40       3.8    19.8  8.0 -0.3342E+02 -0.1220E+03  0.1123E+02E
 Epicentro: LOS SANTOS - SANTANDER                                             3
 ACTION:UP  11-02-08 08:43 OP:pat  STATUS:               ID:20110128174106 L   I
 2011-01-28-1740-00M.COL___139                                                 6
 STAT SP IPHASW D HRMM SECON CODA AMPLIT PERI AZIMU VELO SNR AR TRES W  DIS CAZ7
 BTL  SZ EP       1741 25.57                             170     0.010   25 302 
 BTL  SZ ES   2   1741 40.68                             170     0.2 5   25 302 
 GIR2 SZ EP   2   1741 25.19                             166    -0.4 5   34 337 
 GIR2 SZ ES   2   1741 40.45                             166    -0.1 5   34 337 
 RUS  HZ EP       1741 29.73                             143     0.010  100 180 
 RUS  HZ I        1741 30.61         5.8 0.16                           100 180 
 RUS  HN ES   3   1741 47.70                             143    -0.1 2  100 180 
 GRA  SZ EP       1741 31.16                             136     0.010  124  14 
 GRA  SZ I        1741 59.57         4.9 0.43                           124  14 
                                                                                
