 2012 1128 1004 58.0 L   6.810 -73.187145.5  RSN  8 0.2 1.8LRSN                1
 GAP=131        0.52       2.3     3.0  4.1 -0.8190E+00  0.2881E+01 -0.8729E+00E
 Epicentro: ZAPATOCA - SANTANDER                                               3
 ACTION:UPD 12-12-05 15:36 OP:}ep  STATUS:               ID:20121128100458 L   I
 2012-11-28-1000-00M.COL___234                                                 6
 STAT SP IPHASW D HRMM SECON CODA AMPLIT PERI AZIMU VELO AIN AR TRES W  DIS CAZ7
 BAR2 SZ EP       10 5 17.67                             170    0.0810 24.1 179 
 BAR2 SZ ES   1   10 5 33.26                             170    0.37 7 24.1 179 
 BAR2 SZ I        10 5 35.63        14.6 0.28                          24.1 179 
 GIR2 SZ EP       10 5 17.74                             168    0.1610 29.7 359 
 PAM  SZ EP       10 5 20.49                             150    0.2010 79.5  43 
 PAM  SZ I        10 5 20.68        18.6 0.18                          79.5  43 
 PAM  SE ES   1   10 5 37.39                             150   -0.31 7 79.5  43 
 RUS  HZ EP       10 5 21.68                             143   -0.1310  102 174 
 RUS  HE ES       10 5 40.18                             143   -0.2310  102 174 
 RUS  HE I        10 5 41.71        14.1 0.19                           102 174 
 PTB  HZ EP   1   10 5 24.35                             133   -0.19 7  144 258 
 PTB  HN ES       10 5 45.12                             133   -0.15 9  144 258 
 PTB  HZ I        10 5 51.64         5.6 0.38                           144 258 
 SML  HZ EP   1   10 5 33.87                             118   -0.41 6  241 336 
 SML  HN ES   1   10 6  2.96                             118    0.37 6  241 336 
 CHI  HZ EP   1   10 5 35.72                             117    0.07 6  249 194 
 CHI  HZ I        10 6 15.34         2.1 0.64                           249 194 
 PRA  HZ EP   1   10 5 51.46                             106    0.12 4  391 209 
 PRA  HE ES   1   10 6 33.40                             106    0.43 4  391 209 
 PRA  HZ I        10 6 37.32         2.0 0.30                           391 209 
                                                                                
