 2010 1128 1401  1.9 L   6.816 -73.054145.3  RSN  7 0.3 1.7LRSN                1
 GAP=192        0.55       4.2     6.6  5.7  0.1032E+02  0.3364E+01  0.1654E+01E
 Epicentro: LOS SANTOS - SANTANDER                                             3
 ACTION:UP  10-12-17 16:55 OP:REBC STATUS:               ID:20101128140101 L   I
 2010-11-28-1357-37S.COL___132                                                 6
 STAT SP IPHASW D HRMM SECON CODA AMPLIT PERI AZIMU VELO SNR AR TRES W  DIS CAZ7
 BAR2 SZ EP   2   14 1 21.23                             168    -0.3 5   29 210 
 BAR2 SZ ES   2   14 1 37.02                             168     0.1 5   29 210 
 BAR2 SZ I        14 1 37.55        10.2 0.35                            29 210 
 BRR  HZ EP   1   14 1 23.62                             150     0.1 7   80 294 
 BRR  HN ES   1   14 1 40.44                             150     0.1 7   80 294 
 BRR  HZ I        14 1 44.90        10.8 0.17                            80 294 
 RUS  HZ EP   1   14 1 26.00                             143     0.3 7  102 182 
 RUS  HN ES   1   14 1 44.09                             143    -0.2 7  102 182 
 RUS  HZ I        14 1 46.03         6.4 0.29                           102 182 
 OCA  SZ EP   2   14 1 29.60                             129    -0.5 5  160 349 
 OCA  SZ I        14 1 56.68         8.2 0.36                           160 349 
 CHI  HZ EP   2   14 1 39.94                             116    -0.1 4  253 197 
 CHI  HN ES   2   14 2  9.86                             116     0.0 4  253 197 
 CHI  HZ I        14 2 12.98         1.9 0.30                           253 197 
 HEL  HZ EP   2   14 1 43.71                             114     0.5 4  282 256 
 HEL  HZ I        14 1 50.18         2.2 0.37                           282 256 
 HEL  HE ES   2   14 2 14.82                             114    -0.6 4  282 256 
 RREF HZ EP   2   14 1 49.09                             110     0.1 3  331 230 
 RREF HZ I        14 2 29.86         2.4 0.46                           331 230 
                                                                                
