 2012  728 1514 13.3 L   6.747 -73.123139.4  RSN  6 0.5 2.0LRSN                1
 GAP=142        1.20       7.5     6.6 10.4  0.2011E+01  0.1435E+02 -0.8147E+01E
 Epicentro: LOS SANTOS - SANTANDER                                             3
 ACTION:UPD 12-08-14 11:46 OP:ep   STATUS:               ID:20120728151413 L   I
 2012-07-28-1510-00M.COL___215                                                 6
 STAT SP IPHASW D HRMM SECON CODA AMPLIT PERI AZIMU VELO AIN AR TRES W  DIS CAZ7
 BAR2 SZ EP       1514 32.26                             172     0.210   18 201 
 BAR2 SZ I        1514 32.52        25.5 0.21            170             18 201 
 BAR2 SZ ES   1   1514 46.59                             172    -0.1 7   18 201 
 BRR  HZ EP       1514 34.19                             150     0.210   76 301 
 BRR  HN ES   1   1514 50.93                             150     0.7 7   76 301 
 BRR  HZ I        1514 55.34        41.7 0.14            148             76 301 
 PAM  SZ EP       1514 35.16                             149     0.210   81  36 
 PAM  SN ES   1   1514 51.12                             149    -0.8 7   81  36 
 RUS  HZ EP   1   1514 36.22                             144     0.3 7   95 177 
 RUS  HN ES   1   1514 53.77                             144     0.1 7   95 177 
 RUS  HZ I        1514 55.93        10.3 0.48            148             95 177 
 PTB  HZ EP   1   1514 39.40                             130    -0.5 7  149 261 
 PTB  HN ES   1   1514 59.63                             130    -1.0 7  149 261 
 PTB  HZ I        1515  3.19        12.9 0.13            131            149 261 
 ZAR  HZ EP   1   1514 45.24                             120    -0.5 6  209 293 
 ZAR  HN ES   1   1515 11.85                             120     0.7 6  209 293 
 ZAR  HZ I        1515 17.35        11.0 0.23            122            209 293 
