 2011 1228 1432  5.1 L   6.760 -73.117145.5  RSN 10 0.5 1.6LRSN                1
 GAP=142        0.77       5.2     6.3  8.4 -0.8175E+01  0.1258E+02 -0.6995E+01E
 Epicentro: LOS SANTOS - SANTANDER                                             3
 ACTION:UPD 12-07-13 16:19 OP:ep   STATUS:               ID:20111228143205 L   I
 2011-12-28-1430-00M.COL___186                                                 6
 STAT SP IPHASW D HRMM SECON CODA AMPLIT PERI AZIMU VELO AIN AR TRES W  DIS CAZ7
 BAR2 SZ EP   1   1432 24.46                             172   -0.20 7 19.9 201 
 BAR2 SZ ES   2   1432 39.91                             172    0.01 5 19.9 201 
 BAR2 SZ I        1432 41.80        18.4 0.19                          19.9 201 
 GIR2 SZ EP   1   1432 25.20                             165    0.28 7 36.3 347 
 BRR  HN ES   2   1432 43.87                             151    0.63 5 76.2 300 
 PAM  SZ EP   1   1432 27.62                             150    0.21 7 79.0  36 
 PAM  SZ I        1432 28.13        10.8 0.17                          79.0  36 
 PAM  SN ES   2   1432 44.18                             150   -0.62 5 79.0  36 
 RUS  HZ EP   1   1432 27.93                             145   -0.60 7 95.9 178 
 RUS  HN ES   2   1432 47.55                             145    0.78 5 95.9 178 
 RUS  HZ I        1432 49.06         3.3 0.28                          95.9 178 
 PTB  HZ EP   1   1432 31.70                             132   -0.59 7  150 261 
 PTB  HN ES   2   1432 52.71                             132   -0.76 5  150 261 
 PTB  HZ I        1432 56.95         4.0 0.09                           150 261 
 OCA  SZ EP   1   1432 34.23                             129    0.35 7  165 352 
 ZAR  HZ EP   1   1432 38.36                             122    0.32 6  209 293 
 ZAR  HZ I        1433  9.67         3.0 0.25                           209 293 
 NOR  SN ES   2   1433  9.07                             119    0.36 4  235 236 
 CHI  HN ES   2   1433 11.99                             118    0.45 4  245 196 
                                                                                
