 2016  428 1642 50.6 L   6.813 -73.230136.0  RSN  4 0.2 1.7LRSN                1
 GAP=148        0.57       3.3     3.2  4.8 -0.3259E+01  0.4381E+01 -0.1714E+01E
 Epicentro: ZAPATOCA - SANTANDER                                               3
 ACTION:UPD 16-05-05 14:24 OP:rebc STATUS:               ID:20160428164250 L   I
 OLDACT:REG 16-04-28 21:57 OP:cara STATUS:               ID:20160428163743     3
 2016-04-28-1637-43M.COL___305                                                 6
 STAT SP IPHASW D HRMM SECON CODA AMPLIT PERI AZIMU VELO AIN AR TRES W  DIS CAZ7
 BAR2 EZ EP       1643  9.26                             169    0.1410 25.0 168 
 BAR2 EZ ES       1643 23.31                             169   -0.2310 25.0 168 
 BAR2 EZ I        1643 25.32        10.5 0.52            169           25.0 168 
 PAM  EZ IP       1643 12.17                             147    0.0210 82.6  45 
 PAM  EZ I        1643 12.33        25.5 0.16            152           82.6  45 
 PAM  EN ES       1643 28.99                             147    0.0610 82.6  45 
 RUS  HZ EP       1643 13.75                             141    0.1310  103 171 
 RUS  HN ES       1643 31.55                             141    0.0010  103 171 
 RUS  HZ I        1643 33.55         5.3 0.30            143            103 171 
 PTB  HZ EP       1643 15.59                             131   -0.41 9  139 258 
 PTB  HN ES       1643 36.06                             131    0.27 9  139 258 
 PTB  HZ I        1643 42.31         4.0 0.22            131            139 258 
                                                                                
