 2016  428 1102 16.2 L   6.784 -73.134148.0  RSN  6 0.3 1.6LRSN                1
 GAP=139        0.83       3.9     4.2  6.3  0.1235E+00  0.1163E+02 -0.2051E+00E
 Epicentro: LOS SANTOS - SANTANDER                                             3
 ACTION:UPD 16-05-05 14:24 OP:rebc STATUS:               ID:20160428110216 L   I
 OLDACT:DUP 16-04-28 22:56 OP:cara STATUS:               ID:20160428105749d    3
 OLDACT:REG 16-04-28 21:39 OP:cara STATUS:               ID:20160428105748     3
 2016-04-28-1057-48M.COL___314                                                 6
 STAT SP IPHASW D HRMM SECON CODA AMPLIT PERI AZIMU VELO AIN AR TRES W  DIS CAZ7
 BAR2 EZ IP       11 2 36.19                             171    0.1310 21.9 194 
 BAR2 EZ ES       11 2 51.53                             171   -0.0310 21.9 194 
 BAR2 EZ I        11 2 52.81         7.5 0.22            169           21.9 194 
 PAM  EE ES       11 2 56.31                             151    0.0910 77.9  38 
 PAM  EZ I        11 2 58.16        10.9 0.54            156           77.9  38 
 RUS  HZ EP       11 2 39.79                             145   -0.2410 98.7 177 
 RUS  HE ES       11 2 58.56                             145   -0.0710 98.7 177 
 RUS  HZ I        11 3  0.49         2.8 0.46            147           98.7 177 
 PTB  HZ EP       11 2 42.96                             132   -0.47 9  149 260 
 PTB  HN ES       11 3  4.37                             132   -0.31 9  149 260 
 PTB  HZ I        11 3 10.04         3.7 0.34            133            149 260 
 SPBC HZ EP       11 2 44.67                             130   -0.14 9  163 220 
 SPBC HN ES       11 3  7.78                             130    0.64 9  163 220 
 SPBC HZ I        11 3 12.84         7.9 0.10            131            163 220 
 ZAR  HZ EP       11 2 49.60                             123    0.62 8  206 292 
 ZAR  HE ES       11 3 14.47                             123   -0.08 8  206 292 
 ZAR  HZ I        11 3 17.10         3.5 0.32            124            206 292 
                                                                                
