 2011  228 1059 51.6 L   6.821 -73.095143.9  RSN  7 0.4 1.9LRSN                1
 GAP=129        0.87       4.5     7.6  7.4 -0.1769E+02  0.1220E+02 -0.2043E+01E
 Epicentro: LOS SANTOS - SANTANDER                                             3
 ACTION:UP  11-03-28 15:11 OP:jfem STATUS:               ID:20110228105951 L   I
 2011-02-28-1057-38S.COL___135                                                 6
 STAT SP IPHASW D HRMM SECON CODA AMPLIT PERI AZIMU VELO SNR AR TRES W  DIS CAZ7
 BAR2 SZ EP       11 0 10.92                             169    -0.110   27 201 
 BAR2 SZ ES   1   11 0 25.50                             169    -0.8 7   27 201 
 BAR2 SZ I        11 0 29.27        17.2 0.44                            27 201 
 RUS  HZ EP   1   11 0 15.08                             143    -0.2 7  103 179 
 RUS  HN ES   1   11 0 34.30                             143     0.5 7  103 179 
 RUS  HZ I        11 0 35.56        10.2 0.28                           103 179 
 GRA  SZ EP       11 0 16.41                             137     0.110  122  15 
 GRA  SZ ES   1   11 0 36.23                             137     0.6 7  122  15 
 GRA  SZ I        11 0 38.24         9.0 0.43                           122  15 
 CHI  HZ EP   1   11 0 29.58                             116     0.0 6  252 196 
 CHI  HE ES   1   11 0 59.42                             116     0.2 6  252 196 
 CHI  HZ I        11 1  2.14         3.1 0.20                           252 196 
 HEL  HZ EP   2   11 0 32.60                             114     0.2 4  278 256 
 HEL  HN ES   1   11 1  3.87                             114    -0.3 6  278 256 
 HEL  HZ I        11 1  9.46         6.0 0.34                           278 256 
 SDV  BZ EP   1   11 0 40.37                             108    -0.5 5  355  50 
 SDV  BZ I        11 1 21.21         2.0 0.56                           355  50 
 PRA  HZ EP   1   11 0 45.47                             106    -0.1 4  397 210 
 PRA  HE ES   1   11 1 28.16                             106     0.4 4  397 210 
 PRA  HZ I        11 1 34.80        13.4 0.22                           397 210 
                                                                                
