 2014  828 1117  5.2 L   6.816 -73.155152.0  RSN  6 0.4 1.6LRSN                1
 GAP=135        0.97       3.6     6.1  6.4 -0.1677E+01  0.8122E+01 -0.3002E+01E
 Epicentro: LOS SANTOS - SANTANDER                                             3
 ACTION:UPD 14-09-15 21:53 OP:nd   STATUS:               ID:20140828111705 L   I
 OLDACT:DUP 14-08-28 22:54 OP:stll STATUS:               ID:20140828110821d    3
 2014-08-28-1108-19M.COL___260                                                 6
 STAT SP IPHASW D HRMM SECON CODA AMPLIT PERI AZIMU VELO AIN AR TRES W  DIS CAZ7
 BAR2 SZ EP       1117 25.56                             170   -0.0610 24.9 187 
 BAR2 SZ ES       1117 41.51                             170   -0.0310 24.9 187 
 BAR2 SZ I        1117 43.11         6.1 0.38            172           24.9 187 
 BRR  HZ EP       1117 27.55                             154    0.6110 69.4 298 
 BRR  HN ES       1117 44.37                             154    0.4810 69.4 298 
 PAM  SZ EP       1117 28.38                             152    0.3210 76.8  41 
 PAM  SZ I        1117 28.63         5.9 0.22            152           76.8  41 
 PAM  SN ES       1117 45.77                             152   -0.1010 76.8  41 
 RUS  HZ EP       1117 29.58                             145   -0.1210  102 176 
 RUS  HN ES       1117 48.39                             145   -0.4210  102 176 
 RUS  HZ I        1117 50.74         3.5 0.52            146            102 176 
 SPBC HZ EP       1117 34.58                             130    0.32 9  164 218 
 SPBC HZ I        1117 34.81         6.3 0.22            131            164 218 
 SPBC HN ES       1117 56.53                             130   -0.38 9  164 218 
 SML  HZ EP       1117 41.73                             119   -0.25 8  242 335 
 SML  HN ES       1118  9.89                             119   -0.76 8  242 335 
 SML  HZ I        1118 17.20         5.8 0.10            119            242 335 
                                                                                
