 2011 1228 1004 36.0 L   6.748 -73.129138.5  RSN  7 0.4 1.5LRSN                1
 GAP=141        0.64       6.3     5.1  7.8 -0.3508E+01  0.1284E+02 -0.1144E+02E
 Epicentro: LOS SANTOS - SANTANDER                                             3
 ACTION:UPD 12-07-13 16:19 OP:ep   STATUS:               ID:20111228100436 L   I
 2011-12-28-1000-00M.COL___186                                                 6
 STAT SP IPHASW D HRMM SECON CODA AMPLIT PERI AZIMU VELO AIN AR TRES W  DIS CAZ7
 BAR2 SZ EP   1   10 4 54.50                             172   -0.13 7 18.2 199 
 BAR2 SZ ES   2   10 5  9.18                             172   -0.01 5 18.2 199 
 BAR2 SZ I        10 5 10.71         5.8 0.27                          18.2 199 
 GIR2 SZ EP   1   10 4 54.99                             164    0.02 7 37.2 349 
 BRR  HZ EP   1   10 4 56.72                             150    0.11 7 75.7 302 
 BRR  HE ES   2   10 5 13.38                             150    0.67 5 75.7 302 
 BRR  HZ I        10 5 15.79         8.2 0.27                          75.7 302 
 PAM  SZ EP   1   10 4 57.64                             148    0.00 7 80.8  36 
 PAM  SN ES   2   10 5 13.98                             148   -0.56 5 80.8  36 
 RUS  HE ES   2   10 5 16.69                             144    0.46 5 94.7 177 
 PTB  HZ EP   1   10 5  2.04                             130   -0.39 7  149 261 
 PTB  HN ES   2   10 5 22.23                             130   -0.84 5  149 261 
 ZAR  HZ EP   1   10 5  8.95                             120    0.59 6  208 293 
 ZAR  HE ES   2   10 5 33.61                             120   -0.02 4  208 293 
 ZAR  HZ I        10 5 39.83         3.1 0.30                           208 293 
                                                                                
