 2017 1128 1441 37.1 L   6.786 -73.190140.8  RSN  4 0.3 1.3LRSN                1
 GAP=142        0.82       4.9     4.7  6.9 -0.7174E+01  0.9066E+01 -0.3478E+01E
 Epicentro: ZAPATOCA - SANTANDER                                               3
 ACTION:UPD 17-12-12 20:01 OP:rebc STATUS:               ID:20171128144137 L   I
 OLDACT:REG 17-11-28 19:49 OP:dhb  STATUS:               ID:20171128143740     3
 2017-11-28-1438-00M.COL___486                                                 6
 STAT SP IPHASW D HRMM SECON CODA AMPLIT PERI AZIMU VELO AIN AR TRES W  DIS CAZ7
 BAR2 EZ EP       1441 55.79                             171   -0.3510 21.4 178 
 BAR2 EZ ES       1442 11.41                             171    0.4610 21.4 178 
 BAR2 EZ I        1442 12.25         5.2 0.18            172           21.4 178 
 PAM  EZ EP       1441 59.06                             148   -0.0510 81.8  41 
 PAM  EE ES       1442 16.14                             148   -0.1010 81.8  41 
 PAM  EZ I        1442 18.64         4.0 0.46            152           81.8  41 
 RUS  HZ EP       1442  0.41                             143    0.0810 99.5 173 
 RUS  HN ES       1442 18.23                             143   -0.1810 99.5 173 
 RUS  HZ I        1442 20.94         4.1 0.42            146           99.5 173 
 PTB  HZ EP       1442  3.76                             132    0.52 9  143 259 
 PTB  HN ES       1442 23.23                             132   -0.37 9  143 259 
 PTB  HZ I        1442 29.76         1.8 0.18            133            143 259 
                                                                                
