 2013  528 1715 17.4 L   6.805 -73.179144.3  RSN  8 0.4 2.3LRSN                1
 GAP=108        1.07       4.3     4.8  6.6  0.2388E+01 -0.3358E+00 -0.4729E+01E
 Epicentro: LOS SANTOS - SANTANDER                                             3
 ACTION:UPD 13-06-20 09:54 OP:ep   STATUS:               ID:20130528171517 L   I
 2013-05-28-1708-48M.COL___218                                                 6
 STAT SP IPHASW D HRMM SECON CODA AMPLIT PERI AZIMU VELO AIN AR TRES W  DIS CAZ7
 BAR2 SZ EP       1715 37.04                             170    0.1310 23.5 181 
 BAR2 SZ ES       1715 51.38                             170   -0.7010 23.5 181 
 BAR2 SZ I        1715 53.02        23.7 0.22            171           23.5 181 
 GIR2 SZ EP       1715 37.01                             167    0.0910 30.3 357 
 BRR  HZ EP       1715 38.63                             153    0.3910 67.7 300 
 BRR  HN ES       1715 55.33                             153    0.8710 67.7 300 
 BRR  HE I        1715 56.37        67.4 0.22            154           67.7 300 
 RUS  HZ EP       1715 41.59                             143    0.4710  101 174 
 RUS  HN ES       1715 59.49                             143   -0.0910  101 174 
 PTB  HZ EP       1715 43.59                             132   -0.39 9  144 258 
 PTB  HN ES       1716  4.43                             132   -0.24 9  144 258 
 TAM  HZ IP       1715 45.20                             129   -0.16 9  159 105 
 NOR  HZ EP       1715 53.12                             118    0.31 8  232 234 
 NOR  HN ES       1716 20.14                             118   -0.24 8  232 234 
 SML  HZ EP       1715 53.39                             117   -0.38 8  242 336 
 SML  HE ES       1716 21.68                             117   -0.42 8  242 336 
                                                                                
