 2011 1128 1637 17.9 L   6.514 -73.499117.9  RSN  4 0.1 1.6LRSN                1
 GAP=194        0.37       2.4     3.9  4.4  0.2642E+01  0.2817E+01  0.2141E+01E
 Epicentro: SIMACOTA - SANTANDER                                               3
 ACTION:UPD 12-07-13 16:12 OP:ep   STATUS:               ID:20111128163717 L   I
 2011-11-28-1633-13S.COL___160                                                 6
 STAT SP IPHASW D HRMM SECON CODA AMPLIT PERI AZIMU VELO AIN AR TRES W  DIS CAZ7
 BAR2 SZ EP       1637 34.65                             162    0.0910 36.1  76 
 BAR2 SZ I        1637 35.00        17.7 0.25                          36.1  76 
 BAR2 SZ ES   1   1637 47.54                             162   -0.04 7 36.1  76 
 BRR  HZ EP   1   1637 35.74                             147   -0.24 7 69.7 340 
 BRR  HZ I        1637 42.38         7.4 0.36                          69.7 340 
 BRR  HE ES   1   1637 50.23                             147    0.11 7 69.7 340 
 RUS  HZ EP       1637 37.67                             143    0.0810 82.7 146 
 RUS  HN ES   1   1637 52.85                             143   -0.12 7 82.7 146 
 PAM  SN ES   1   1637 59.63                             130   -0.02 7  127  44 
                                                                                
