 2010 1228 1435 53.4 L   6.753 -73.191141.5  RSN  9 0.4 2.4LRSN                1
 GAP=132        0.77       3.7     7.0  7.2 -0.6468E+01  0.1288E+02  0.2736E+01E
 Epicentro: VILLANUEVA - SANTANDER                                             3
 ACTION:UP  11-01-14 15:27 OP:pat  STATUS:               ID:20101228143553 L   I
 2010-12-28-1420-00M.COL___136                                                 6
 STAT SP IPHASW D HRMM SECON CODA AMPLIT PERI AZIMU VELO SNR AR TRES W  DIS CAZ7
 BAR2 SZ IP       1436 11.99                             172    -0.410   18 177 
 BAR2 SZ ES   2   1436 26.46                             172    -0.7 5   18 177 
 BAR2 SZ I        1436 27.99       102.2 0.48                            18 177 
 BTL  SZ ES   2   1436 28.30                             171     1.0 5   20 335 
 RUS  HZ EP   1   1436 16.08                             144    -0.3 7   96 173 
 RUS  HE ES   2   1436 34.50                             144     0.2 5   96 173 
 RUS  HZ I        1436 35.92        43.0 0.39                            96 173 
 GRA  SZ EP   1   1436 19.02                             134     0.2 7  132  19 
 GRA  SZ ES   2   1436 38.68                             134     0.1 5  132  19 
 GRA  SZ I        1436 39.86        37.8 0.32                           132  19 
 OCA  SZ EP   1   1436 21.88                             128     0.1 7  165 355 
 OCA  SZ ES   2   1436 44.02                             128     0.1 5  165 355 
 OCA  SZ I        1436 45.83        32.5 0.51                           165 355 
 YOP  SZ EP   1   1436 22.77                             126    -0.1 7  177 151 
 YOP  SN ES   2   1436 46.53                             126     0.6 4  177 151 
 YOP  SZ I        1436 47.13        24.3 0.35                           177 151 
 NOR  SZ EP   1   1436 27.66                             118    -0.4 6  228 235 
 NOR  SN ES   2   1436 55.32                             118     0.1 4  228 235 
 ROSC BZ EP   1   1436 30.88                             116     0.4 6  246 211 
 ROSC BE ES   2   1436 59.23                             116    -0.2 4  246 211 
 ROSC BZ I        1437  7.78        13.8 0.63                           246 211 
 PRA  HZ EP   1   1436 46.33                             106     0.4 4  385 209 
 PRA  HN ES   2   1437 27.83                             106     0.9 3  385 209 
                                                                                
