 2015  428 1429 49.9 L   6.801 -73.133128.7  RSN  4 0.6 1.7LRSN                1
 GAP=154        1.30      10.8     7.6 12.4 -0.2642E+02  0.5609E+02 -0.3398E+02E
 Epicentro: LOS SANTOS - SANTANDER                                             3
 ACTION:UPD 15-06-03 16:58 OP:cam  STATUS:               ID:20150428142949 L   I
 OLDACT:REG 15-04-28 21:36 OP:ak   STATUS:               ID:20150428142750     3
 2015-04-28-1427-50M.COL___281                                                 6
 STAT SP IPHASW D HRMM SECON CODA AMPLIT PERI AZIMU VELO AIN AR TRES W  DIS CAZ7
 BAR2 EZ EP       1430  7.84                             169    0.3710 23.7 193 
 BAR2 EZ ES       1430 21.59                             169    0.4110 23.7 193 
 BAR2 EZ I        1430 23.58         9.6 0.17            173           23.7 193 
 PAM  SZ EP   2   1430 10.57                             148    0.32 5 76.4  39 
 PAM  SN ES       1430 25.63                             148   -0.5010 76.4  39 
 PAM  SZ I        1430 29.78        16.2 0.72            148           76.4  39 
 PTB  HZ EP       1430 14.68                             127   -0.96 9  149 259 
 PTB  HN ES       1430 35.42                             127   -0.32 9  149 259 
 PTB  HZ I        1430 37.44         6.4 0.26            130            149 259 
 ZAR  HZ EP       1430 22.22                             118    0.81 8  205 292 
 ZAR  HN ES       1430 46.21                             118    0.22 8  205 292 
 ZAR  HZ I        1430 52.58         6.1 0.16            120            205 292 
                                                                                
