 2016 1228 1005 32.7 L   6.789 -73.233139.0  RSN  5 0.3 1.2LRSN                1
 GAP=121        0.73       4.3     4.2  6.3 -0.1382E+01  0.1281E+02 -0.2731E+01E
 Epicentro: ZAPATOCA - SANTANDER                                               3
 ACTION:UPD 17-01-11 20:20 OP:rebc STATUS:               ID:20161228100532 L   I
 OLDACT:REG 16-12-28 22:00 OP:cog  STATUS:               ID:20161228095747d    3
 2016-12-28-0958-00M.COL___365                                                 6
 STAT SP IPHASW D HRMM SECON CODA AMPLIT PERI AZIMU VELO AIN AR TRES W  DIS CAZ7
 BAR2 EZ EP       10 5 51.33                             170   -0.1610 22.4 165 
 BAR2 EZ ES       10 6  5.67                             170   -0.4810 22.4 165 
 BAR2 EZ I        10 6  9.98         6.3 0.64            171           22.4 165 
 PAM  EN ES       10 6 12.08                             147    0.2710 84.8  44 
 RUS  HZ EP       10 5 55.66                             142   -0.1210  100 170 
 RUS  HN ES       10 6 13.98                             142    0.2010  100 170 
 RUS  HZ I        10 6 15.30         1.6 0.42            145            100 170 
 PTB  HZ EP       10 5 58.33                             132    0.10 9  138 259 
 PTB  HN ES       10 6 18.57                             132    0.43 9  138 259 
 PTB  HZ I        10 6 20.24         1.9 0.18            135            138 259 
 ZAR  HZ EP       10 6  3.66                             122   -0.17 9  196 294 
 ZAR  HN ES   3   10 6 27.07                             122   -1.04 2  196 294 
                                                                                
