 2011 1128 1343 37.1 L   6.719 -73.095135.4  RSN  4 0.2 1.7LRSN                1
 GAP=147        0.40       4.0     5.7  7.6  0.1152E+01  0.3258E+01  0.1685E+01E
 Epicentro: JORDAN - SANTANDER                                                 3
 ACTION:UPD 12-07-13 16:12 OP:ep   STATUS:               ID:20111128134337 L   I
 2011-11-28-1339-37S.COL___160                                                 6
 STAT SP IPHASW D HRMM SECON CODA AMPLIT PERI AZIMU VELO AIN AR TRES W  DIS CAZ7
 BAR2 SZ EP   2   1343 55.31                             172   -0.02 5 17.0 215 
 BAR2 SZ I        1343 55.81         4.9 0.10                          17.0 215 
 BRR  HZ EP   1   1343 57.60                             147   -0.10 7 80.6 302 
 BRR  HN ES   2   1344 13.92                             147    0.13 5 80.6 302 
 BRR  HZ I        1344 29.34        24.7 0.39                          80.6 302 
 PAM  SZ EP   2   1343 58.22                             147   -0.23 5 81.3  32 
 PAM  SN ES   2   1344 15.25                             147    0.13 5 81.3  32 
 RUS  HZ EP   2   1343 59.59                             144    0.46 5 91.4 179 
 RUS  HE ES   2   1344 16.10                             144   -0.25 5 91.4 179 
                                                                                
