 2016  928 1702 39.1 L   6.801 -73.095137.5  RSN  7 0.4 1.5LRSN                1
 GAP=143        0.78       3.9     3.9  6.6 -0.3542E+01  0.6786E+01  0.3824E+01E
 Epicentro: LOS SANTOS - SANTANDER                                             3
 ACTION:UPD 17-08-17 21:17 OP:lp   STATUS:               ID:20160928170239 L   I
 OLDACT:UP  16-09-29 00:49 OP:edw  STATUS:               ID:20160928165739d    3
 OLDACT:UP  16-09-29 00:49 OP:edw  STATUS:               ID:20160928165739d    3
 OLDACT:UP  16-09-29 00:48 OP:edw  STATUS:               ID:20160928165739d    3
 OLDACT:DUP 16-09-29 00:41 OP:edw  STATUS:               ID:20160928165739d    3
 2016-09-28-1658-00M.COL___378                                                 6
 STAT SP IPHASW D HRMM SECON CODA AMPLIT PERI AZIMU VELO AIN AR TRES W  DIS CAZ7
 PAM  EZ EP       17 3  0.30                             150    0.0510 73.8  36 
 PAM  EN ES       17 3 16.94                             150    0.2110 73.8  36 
 PAM  EZ I        17 3 18.19         4.2 0.18            156           73.8  36 
 RUS  HZ EP       17 3  1.95                             142   -0.1110  100 179 
 RUS  HN ES   2   17 3 20.16                             142    0.20 5  100 179 
 PTB  HZ EP   9   17 3  4.41                             129   -1.54 0  153 259 
 PTB  HN ES       17 3 25.15                             128   -0.19 9  153 259 
 PTB  HZ I        17 3 27.79         5.9 0.20            130            153 259 
 SPBC HZ EP       17 3  6.86                             126   -0.50 9  167 220 
 SPBC HN ES       17 3 29.20                             126   -0.19 9  167 220 
 SPBC HZ I        17 3 36.40         4.8 0.15            127            167 220 
 ZAR  HZ EP       17 3 11.58                             120   -0.01 8  209 292 
 ZAR  HN ES       17 3 36.66                             120   -0.25 8  209 292 
 ZAR  HZ I        17 3 40.05         4.8 0.05            122            209 292 
 CHI  HZ EP   4   17 3 14.06                             115   -2.50 0  250 196 
 CHI  HN ES   4   17 3 47.13                             115    1.37 0  250 196 
 CHI  HZ I        17 3 51.61         1.2 0.11            116            250 196 
 HEL  HZ EP   4   17 3 25.21                             112    5.67 0  278 256 
 HEL  HN ES   4   17 3 55.05                             112    3.98 0  278 256 
 GUY2CHZ EP       17 3 23.70                             110    0.81 7  306 235 
 GUY2CHN ES   2   17 3 58.28                             110    1.24 4  306 235 
 GUY2CHZ I        17 4  5.96         1.7 0.32                           306 235 
                                                                                
