 2012  628 1328 56.7 L   6.733 -73.208144.0  RSN  4 0.2 1.5LRSN                1
 GAP=223        0.56       6.6     6.2  6.0  0.2047E+02  0.8777E+01  0.3843E+01E
 Epicentro: VILLANUEVA - SANTANDER                                             3
 ACTION:UPD 12-08-06 17:53 OP:ep   STATUS:               ID:20120628132856 L   I
 2012-06-28-1320-00M.COL___201                                                 6
 STAT SP IPHASW D HRMM SECON CODA AMPLIT PERI AZIMU VELO AIN AR TRES W  DIS CAZ7
 BAR2 SZ EP       1329 15.79                             173   -0.2110 15.8 170 
 BAR2 SZ ES   1   1329 30.84                             173   -0.20 7 15.8 170 
 BAR2 SZ I        1329 32.45         8.6 0.26                          15.8 170 
 BRR  HZ EP       1329 17.67                             153    0.1010 69.4 307 
 BRR  HN ES   2   1329 34.28                             153    0.44 5 69.4 307 
 RUS  HZ EP       1329 20.14                             145    0.3210 93.9 172 
 RUS  HN ES   2   1329 37.68                             145   -0.16 5 93.9 172 
 PTB  HZ EP       1329 22.57                             133   -0.24 9  140 261 
 PTB  HN ES   2   1329 43.37                             133    0.20 5  140 261 
 PTB  HZ I        1329 49.39         3.7 0.44                           140 261 
                                                                                
