 2012  228 1140 54.6 L   5.778 -73.949103.8  RSN  5 0.3 1.3LRSN                1
 GAP= 88        0.66       3.1     3.1 10.0 -0.1485E+01  0.5441E+01 -0.4798E+01E
 ACTION:UP  12-03-07 16:35 OP:epov STATUS:               ID:20120228114054 L   I
 2012-02-28-1140-00M.COL___191                                                 6
 STAT SP IPHASW D HRMM SECON CODA AMPLIT PERI AZIMU VELO AIN AR TRES W  DIS CAZ7
 RUS  HZ EP   1   1141 14.20                             134    0.04 7 96.8  82 
 RUS  HN ES   1   1141 28.87                             134   -0.56 7 96.8  82 
 RUS  HZ I        1141 32.76         2.9 0.44                          96.8  82 
 NOR  SZ EP   1   1141 13.97                             131   -0.30 7  105 257 
 NOR  SN ES   1   1141 29.91                             131    0.28 7  105 257 
 BAR2 SZ EP   1   1141 16.56                             126    0.21 7  124  43 
 BAR2 SZ ES   1   1141 33.84                             126    0.52 7  124  43 
 CHI  HZ EP   1   1141 17.27                             125    0.14 7  129 169 
 CHI  HN ES   1   1141 34.70                             125   -0.01 7  129 169 
 CHI  HZ I        1141 40.18         2.9 0.39                           129 169 
 ZAR  HN ES   1   1141 49.93                             110   -0.39 6  215 332 
 ZAR  HZ I        1141 53.98         3.9 0.36                           215 332 
                                                                                
