 2013  328 1003 38.8 L   6.501 -73.751 16.0  RSN 10 0.5 2.2LRSN                1
 GAP=141        1.22       3.5     2.6  5.4  0.2065E+01 -0.9039E+00 -0.6564E+01E
 Epicentro: SANTA HELENA DEL OPON - SANTANDER                                  3
 ACTION:UPD 13-04-09 14:05 OP:ep   STATUS:               ID:20130328100338 L   I
 2013-03-28-1000-00M.COL___245                                                 6
 STAT SP IPHASW D HRMM SECON CODA AMPLIT PERI AZIMU VELO AIN AR TRES W  DIS CAZ7
 BAR2 SZ IP       10 3 49.34                             102   -0.1810 63.7  81 
 BRR  HN ES       10 3 58.20                             101   -0.1210 67.2   4 
 BRR  HN I        10 3 58.55       143.1 0.50             47           67.2   4 
 PTB  HZ EP       10 3 50.84                              99   -0.5810 78.1 273 
 PTB  HN ES       10 4  1.83                              99    0.5910 78.1 273 
 PTB  HN I        10 4  5.08        30.8 0.22             47           78.1 273 
 GIR2 SZ EP       10 3 53.22                              98    0.0610 88.8  44 
 RUS  HZ EP       10 3 55.57                              97    0.3710 99.9 132 
 RUS  HN ES       10 4  7.53                              97   -0.4310 99.9 132 
 RUS  HN I        10 4 10.20        26.3 0.24             47           99.9 132 
 PAM  SZ EP       10 4  3.33                              56    1.09 9  149  51 
 PAM  SN ES       10 4 20.31                              56   -0.19 9  149  51 
 PAM  SN I        10 4 26.08        40.3 0.20             47            149  51 
 ZAR  HZ EP       10 4  3.33                              56   -0.27 9  164 312 
 ZAR  HN ES       10 4 22.60                              56   -0.32 9  164 312 
 ZAR  HN I        10 4 23.65        49.0 0.26             47            164 312 
 OCA  HZ EP   4   10 4 11.91                              56    3.91 0  198  14 
 OCA  HN ES   4   10 4 32.99                              56    2.23 0  198  14 
 HEL  HZ EP   4   10 4  8.87                              56    0.41 0  200 260 
 HEL  HN ES   4   10 4 31.61                              56    0.05 0  200 260 
 HEL  HN I        10 4 32.39        17.7 0.24             37            200 260 
 CHI  HZ EP   4   10 4 13.73                              56    4.31 0  207 179 
 CHI  HN ES   4   10 4 40.78                              56    7.50 0  207 179 
 CHI  HN I        10 4 43.37        18.3 0.26             37            207 179 
 TAM  HZ EP   4   10 4 14.13                              56    3.90 0  217  92 
 TAM  HN ES   4   10 4 41.74                              56    7.02 0  217  92 
 TAM  HN I        10 4 46.01        24.9 0.38             37            217  92 
 URE  HZ EP   4   10 4 14.84                              56    1.70 0  241 305 
                                                                                
