 2017 1028 1912 36.0 L   6.581 -73.459118.7  RSN 10 0.4 1.5LRSN                1
 GAP= 71        1.12       3.4     3.3  6.8  0.1900E+01  0.4942E+01  0.5144E+01E
 Epicentro: EL CARMEN - SANTANDER                                              3
 ACTION:UPD 17-11-07 19:38 OP:rebc STATUS:               ID:20171028191236 L   I
 OLDACT:UP  17-10-29 00:26 OP:edw  STATUS:               ID:20171028190740     3
 OLDACT:UP  17-10-29 00:25 OP:edw  STATUS:               ID:20171028190740     3
 OLDACT:UP  17-10-29 00:21 OP:edw  STATUS:               ID:20171028190740     3
 OLDACT:REG 17-10-28 20:27 OP:dhb  STATUS:               ID:20171028190740     3
 2017-10-28-1908-00M.COL___447                                                 6
 STAT SP IPHASW D HRMM SECON CODA AMPLIT PERI AZIMU VELO AIN AR TRES W  DIS CAZ7
 BAR2 EZ EP       1912 52.60                             165   -0.0310 30.6  88 
 BAR2 EZ ES       1913  5.14                             165   -0.4410 30.6  88 
 BAR2 EZ I        1913  6.96         8.1 0.22            166           30.6  88 
 BRR  HZ EP       1912 54.07                             149    0.1610 64.6 334 
 BRR  HN ES       1913  8.54                             149    0.6910 64.6 334 
 BRR  HZ I        1913  9.63        13.5 0.26            150           64.6 334 
 RUS  HZ EP       1912 55.87                             142   -0.2710 86.7 151 
 RUS  HN ES       1913 11.83                             142    0.0110 86.7 151 
 RUS  HZ I        1913 12.97         5.0 0.30            144           86.7 151 
 PTB  HZ EP       1912 57.28                             134   -0.1410  110 268 
 PTB  HE ES       1913 13.44                             134   -0.6610  110 268 
 PTB  HZ I        1913 16.99         7.7 0.18            135            110 268 
 PAM  EZ EP       1912 58.70                             132   -0.1010  119  45 
 PAM  EN ES       1913 16.19                             132   -0.3710  119  45 
 PAM  EZ I        1913 21.61         2.7 0.44            134            119  45 
 YPLC HZ EP       1913  3.82                             120   -0.25 9  177 138 
 YPLC HE ES       1913 26.97                             120    1.04 9  177 138 
 YPLC HZ I        1913 28.71        12.4 0.26            121            177 138 
 ZAR  HZ EP       1913  4.75                             118   -0.01 9  185 303 
 ZAR  HN ES       1913 27.95                             118    0.79 9  185 303 
 ZAR  HZ I        1913 31.10         6.2 0.44            120            185 303 
 NOR  HZ EP       1913  5.27                             117   -0.40 9  192 234 
 NOR  HN ES       1913 28.90                             117    0.12 9  192 234 
 NOR  HZ I        1913 33.81         2.3 0.18            119            192 234 
 CHI  HN ES       1913 34.71                             114    0.14 8  218 188 
 GUY2CHZ EP   4   1913 16.84                             110    3.19 0  259 235 
 GUY2CHN ES   4   1913 46.52                             110    3.54 0  259 235 
 GUY2CHZ I        1913 53.37         1.6 0.36                           259 235 
                                                                                
