 2017  928 1625 43.4 L   6.855 -73.123138.8  RSN  5 0.2 1.4LRSN                1
 GAP=244        0.62       4.2     4.4  6.5  0.6681E+01  0.9603E+01 -0.2597E+01E
 Epicentro: LOS SANTOS - SANTANDER                                             3
 ACTION:UPD 17-10-05 19:17 OP:rebc STATUS:               ID:20170928162543 L   I
 OLDACT:UP  17-09-29 00:03 OP:osc  STATUS:               ID:20170928161740d    3
 OLDACT:UP  17-09-29 00:02 OP:osc  STATUS:               ID:20170928161740d    3
 OLDACT:DUP 17-09-28 23:58 OP:osc  STATUS:               ID:20170928161740d    3
 OLDACT:REG 17-09-28 20:51 OP:osc  STATUS:               ID:20170928161739     3
 2017-09-28-1618-00M.COL___443                                                 6
 STAT SP IPHASW D HRMM SECON CODA AMPLIT PERI AZIMU VELO AIN AR TRES W  DIS CAZ7
 BAR2 EZ EP       1626  2.06                             167   -0.3410 29.8 193 
 BAR2 EZ ES       1626 17.19                             167    0.0110 29.8 193 
 BAR2 EZ I        1626 17.92         8.8 0.20            167           29.8 193 
 BRR  HZ EP       1626  4.26                             151    0.4310 70.9 293 
 BRR  HN ES   4   1626 18.22                             151   -1.51 0 70.9 293 
 RUS  HZ EP       1626  6.93                             141   -0.0410  106 178 
 RUS  HN ES       1626 25.37                             141    0.0510  106 178 
 RUS  HZ I        1626 26.33         2.4 0.42            141            106 178 
 ZAR  HN ES       1626 40.24                             121   -0.21 9  204 290 
 NOR  HE ES       1626 47.48                             116    0.05 8  240 234 
                                                                                
