 2016  628 1332  7.4 L   6.833 -73.093145.7  RSN 15 0.5 2.2LRSN                1
 GAP=123        1.07       3.4     3.5  5.2 -0.3257E+01  0.4623E+00  0.1084E+01E
 Epicentro: LOS SANTOS - SANTANDER                                             3
 ACTION:UPD 16-07-21 22:23 OP:rebc STATUS:               ID:20160628133207 L   I
 OLDACT:DUP 16-06-28 22:22 OP:ak   STATUS:               ID:20160628132746d    3
 2016-06-28-1327-45M.COL___343                                                 6
 STAT SP IPHASW D HRMM SECON CODA AMPLIT PERI AZIMU VELO AIN AR TRES W  DIS CAZ7
 BAR2 EZ EP       1332 27.47                             169    0.3410 28.4 200 
 BAR2 EZ ES       1332 42.27                             169   -0.2510 28.4 200 
 BAR2 EZ I        1332 43.70        38.6 0.22                          28.4 200 
 BRR  HZ EP       1332 29.26                             151    0.5210 74.8 294 
 BRR  HN ES       1332 46.31                             151    0.9110 74.8 294 
 BRR  HZ I        1332 50.66        17.7 0.06                          74.8 294 
 RUS  HZ EP       1332 31.44                             143    0.0510  104 179 
 RUS  HN ES       1332 50.23                             143    0.1310  104 179 
 RUS  HZ I        1332 51.20        18.5 0.28                           104 179 
 PTB  HZ EP       1332 34.12                             131   -0.83 9  154 258 
 PTB  HN ES       1332 55.57                             131   -0.87 9  154 258 
 PTB  HZ I        1332 58.27        15.0 0.19                           154 258 
 SPBC HZ EP       1332 36.59                             128    0.08 9  170 220 
 SPBC HN ES       1332 59.27                             128    0.05 9  170 220 
 ZAR  HZ EP   2   1332 40.57                             122    0.31 4  208 291 
 ZAR  HN ES       1333  5.69                             122   -0.20 8  208 291 
 ZAR  HZ I        1333 10.74        14.2 0.30                           208 291 
 NOR  HZ EP       1332 43.70                             118   -0.16 8  242 235 
 NOR  HE ES       1333 11.97                             118   -0.33 8  242 235 
 NOR  HZ I        1333 14.10         7.9 0.28                           242 235 
 CHI  HZ EP       1332 45.61                             117   -0.03 8  254 196 
 CHI  HN ES       1333 14.98                             117   -0.50 8  254 196 
 CHI  HZ I        1333 18.70         9.8 0.56                           254 196 
 HEL  HZ EP       1332 48.32                             114   -0.01 7  279 255 
 HEL  HN ES       1333 19.79                             114   -0.47 7  279 255 
 HEL  HZ I        1333 25.51         8.8 0.26                           279 255 
 URE  HN ES   4   1333 18.45                             113   -2.86 0  288 291 
 SOCV BZ EP       1332 49.95                             113    0.30 7  294  57 
 SOCV BN ES       1333 21.97                             113   -0.65 7  294  57 
 GUY2CHZ EP       1332 52.46                             112    0.69 7  308 235 
 GUY2CHN ES       1333 27.11                             112    0.71 7  308 235 
 GUY2CHZ I        1333 33.73         7.5 0.36                           308 235 
 ANIL HN ES   4   1333 40.27                             108    2.85 0  364 225 
 PRA  HZ EP       1333  1.72                             106    0.10 6  398 210 
 PRA  HN ES       1333 43.06                             106   -0.86 6  398 210 
 PRA  HZ I        1333 47.90         7.5 0.72                           398 210 
 ORTC HZ EP       1333  2.73                             106    0.67 6  402 217 
 ORTC HN ES       1333 45.57                             106    0.87 6  402 217 
 ORTC HZ I        1333 48.80         4.8 0.32                           402 217 
 PAL  HZ EP   1   1333  3.41                             106    0.05 4  413 239 
 PAL  HN ES       1333 46.99                             106   -0.02 6  413 239 
 PAL  HZ I        1333 49.04         2.8 0.24                           413 239 
 CRJC HZ EP   4   1333  7.98                             104   -1.43 0  464   3 
 CRJC HE ES       1333 57.28                             104   -0.51 5  464   3 
 CRJC HZ I        1333 59.56         4.7 0.28                           464   3 
                                                                                
