 2010  328 1109 28.8 L   6.801 -73.107147.2  RSN  8 0.3 2.8LRSN                1
 GAP=187        0.58       3.3     5.9  6.0 -0.1286E+01  0.1028E+02  0.3599E+01E
 Epicentro: LOS SANTOS - SANTANDER                                             3
 ACTION:UP  10-08-24 09:56 OP:vdl  STATUS:               ID:20100328110928 L   I
 2010-03-28-1106-26S.COL___098                                                 6
 STAT SP IPHASW D HRMM SECON CODA AMPLIT PERI AZIMU VELO SNR AR TRES W  DIS CAZ7
 BAR2 SZ IP       11 9 48.61                             170     0.010   25 200 
 BAR2 SZ ES   2   1110  3.57                             170    -0.5 5   25 200 
 BRR  HZ EP   1   11 9 50.59                             151     0.2 7   75 297 
 BRR  HN ES   2   1110  7.75                             151     0.6 5   75 297 
 BRR  HZ I        1110  9.98       216.4 0.16                            75 297 
 RUS  HZ EP   1   11 9 52.75                             144     0.0 7  101 179 
 RUS  HE ES   2   1110 11.28                             144    -0.1 5  101 179 
 RUS  HZ I        1110 12.16        63.7 0.25                           101 179 
 OCA  SZ EP   1   11 9 57.14                             130    -0.1 7  161 352 
 OCA  SZ ES   2   1110 19.48                             130     0.0 5  161 352 
 CHI  HZ EP   1   1110  6.94                             117     0.2 6  250 196 
 CHI  HE ES   2   1110 36.35                             117     0.0 4  250 196 
 CHI  HZ I        1110 39.64        21.5 0.64                           250 196 
 HEL  HZ EP   1   1110  8.87                             115    -0.7 6  276 256 
 HEL  HE ES   2   1110 41.04                             115    -0.3 4  276 256 
 HEL  HZ I        1110 47.89        53.5 0.44                           276 256 
 RREF BZ EP   1   1110 15.55                             111     0.1 5  325 230 
 RREF BN ES   2   1110 52.17                             111     0.4 3  325 230 
 RREF BZ I        1110 58.51        37.9 0.29                           325 230 
 PRA  HZ EP   1   1110 23.14                             107     0.5 4  394 210 
 PRA  HE ES   2   1111  4.21                             107    -0.4 3  394 210 
 PRA  HZ I        1111 11.65        22.1 0.53                           394 210 
                                                                                
