 2010 1128 1533 51.8 L   6.785 -73.069140.7  RSN 13 0.2 2.3LRSN                1
 GAP=132        0.53       2.0     3.8  3.6 -0.3112E+01  0.1328E+01  0.1014E+01E
 Epicentro: LOS SANTOS - SANTANDER                                             3
 ACTION:UP  10-12-17 16:55 OP:REBC STATUS:               ID:20101128153351 L   I
 2010-11-28-1531-06S.COL___131                                                 6
 STAT SP IPHASW D HRMM SECON CODA AMPLIT PERI AZIMU VELO SNR AR TRES W  DIS CAZ7
 BAR2 SZ EP   1   1534 10.92                             169     0.0 7   25 211 
 BAR2 SZ ES   1   1534 25.54                             169    -0.2 7   25 211 
 BAR2 SZ I        1534 27.37        58.6 0.31                            25 211 
 BTL  SZ EP       1534 11.17                             169     0.210   26 304 
 BRR  HZ IP     C 1534 12.81                             149    -0.110   80 297 
 BRR  HE ES   1   1534 29.28                             149    -0.1 7   80 297 
 BRR  HZ I        1534 31.80        47.7 0.18                            80 297 
 RUS  HZ EP   1   1534 14.96                             143     0.0 7   99 181 
 RUS  HE ES   1   1534 33.05                             143     0.1 7   99 181 
 RUS  HZ I        1534 35.11        31.3 0.28                            99 181 
 GRA  SZ IP       1534 16.82                             136     0.310  125  14 
 GRA  SZ ES   1   1534 36.02                             136     0.2 7  125  14 
 GRA  SZ I        1534 37.19        21.2 0.33                           125  14 
 OCA  SZ EP   1   1534 19.66                             128    -0.4 7  163 350 
 OCA  SZ ES   1   1534 41.70                             128    -0.3 7  163 350 
 OCA  SZ I        1534 47.53        15.4 0.17                           163 350 
 CHI  HZ EP   1   1534 29.14                             116    -0.2 6  249 197 
 CHI  HE ES   1   1534 58.56                             116     0.0 6  249 197 
 CHI  HZ I        1535  2.07         8.1 0.52                           249 197 
 ROSC BZ EP   1   1534 30.48                             115     0.5 6  256 213 
 ROSC BZ I        1535  7.59        12.7 0.38                           256 213 
 HEL  HZ EP   1   1534 32.88                             113     0.2 6  280 257 
 HEL  HZ I        1535 10.13        12.0 0.46                           280 257 
 GUY  SZ EP   2   1534 36.02                             111     0.1 4  307 236 
 GUY  SE ES   2   1535 10.31                             111     0.0 4  307 236 
 GUY  SZ I        1535 18.72        11.4 0.50                           307 236 
 RREF HZ EP   1   1534 38.16                             109    -0.2 5  327 231 
 RREF HZ I        1534 42.30         6.9 0.17                           327 231 
 RREF HN ES   1   1535 14.97                             109     0.3 5  327 231 
 SDV  BZ EP   1   1534 40.78                             108    -0.3 5  355  49 
 SDV  BZ I        1535 22.53         6.3 0.60                           355  49 
 PRA  HZ EP   1   1534 45.08                             105    -0.4 4  395 211 
 PRA  HE ES   1   1535 27.03                             105    -0.3 4  395 211 
                                                                                
