 2017  228 1031 35.2 L   6.434 -73.774 92.2  RSN  6 0.2 1.1LRSN                1
 GAP=151        0.52       2.5     1.9  4.4  0.2057E+01  0.4560E+00  0.7655E+00E
 Epicentro: SANTA HELENA DEL OPON - SANTANDER                                  3
 ACTION:UPD 17-05-24 15:41 OP:jn   STATUS:               ID:20170228103135 L   I
 OLDACT:REG 17-02-28 20:11 OP:lv   STATUS:               ID:20170228102741     3
 2017-02-28-1028-00M.COL___372                                                 6
 STAT SP IPHASW D HRMM SECON CODA AMPLIT PERI AZIMU VELO AIN AR TRES W  DIS CAZ7
 BAR2 EZ EP       1031 50.77                             141   -0.2110 67.7  75 
 BAR2 EZ ES       1032  3.01                             141   -0.2610 67.7  75 
 BAR2 EZ I        1032  4.63         5.2 0.16            145           67.7  75 
 BRR  HN ES       1032  3.96                             138    0.2710 74.8   5 
 PTB  HZ EP       1031 51.22                             137   -0.1610 76.4 279 
 PTB  HN ES       1032  4.03                             137    0.0510 76.4 279 
 PTB  HZ I        1032  5.16         2.5 0.14            139           76.4 279 
 RUS  HZ EP       1031 54.09                             130    0.2210 97.0 128 
 RUS  HN ES       1032  8.48                             130    0.0810 97.0 128 
 PAM  EZ EP       1031 59.98                             117    0.08 9  155  50 
 PAM  EN ES   4   1032 13.83                             117   -5.31 0  155  50 
 PAM  EZ I        1032 16.40         1.9 0.29            119            155  50 
 ZAR  HN ES       1032 20.40                             114   -0.08 9  168 314 
                                                                                
