 2013 1228 1847 28.1 L   6.329 -73.643112.6  RSN 13 0.3 2.2LRSN                1
 GAP= 68        0.57       1.6     1.9  3.7  0.1153E+00  0.1891E+01  0.7261E+00E
 Epicentro: SANTA HELENA DEL OPON - SANTANDER                                  3
 ACTION:UPD 14-01-13 10:22 OP:ep   STATUS:               ID:20131228184728 L   I
 OLDACT:REG 13-12-28 15:06 OP:jn   STATUS:               ID:20131228184001d    3
 2013-12-28-1840-00M.COL___285                                                 6
 STAT SP IPHASW D HRMM SECON CODA AMPLIT PERI AZIMU VELO AIN AR TRES W  DIS CAZ7
 BAR2 SZ IP     C 1847 45.42                             150    0.1610 58.6  60 
 BAR2 SZ ES       1847 58.70                             150    0.0210 58.6  60 
 BAR2 SZ I        1848  0.00       129.9 0.28            147           58.6  60 
 RUS  HZ IP     D 1847 46.64                             143   -0.3210 78.5 128 
 RUS  HE ES       1848  1.58                             143   -0.1210 78.5 128 
 RUS  HZ I        1848  2.31        17.4 0.16            133           78.5 128 
 BRR  HZ EP       1847 46.99                             140    0.1310 86.3 355 
 BRR  HN ES       1848  1.83                             140    0.3010 86.3 355 
 BRR  HZ I        1848  2.73        30.1 0.10            132           86.3 355 
 SPBC HZ EP       1847 47.45                             139    0.2710 88.7 212 
 SPBC HN ES       1848  2.25                             139    0.1610 88.7 212 
 SPBC HZ I        1848  9.85        37.2 0.20            126           88.7 212 
 PTB  HZ EP       1847 47.25                             137   -0.1710 92.9 285 
 PTB  HN ES       1848  2.19                             137   -0.3310 92.9 285 
 PTB  HZ I        1848  2.74        52.4 0.34            126           92.9 285 
 NOR  HZ EP       1847 54.02                             121    0.15 9  160 238 
 NOR  HN ES       1848 13.88                             121   -0.12 9  160 238 
 NOR  HZ I        1848 20.38        31.4 0.16            111            160 238 
 ZAR  HN ES       1848 18.75                             116   -0.09 9  186 314 
 ZAR  HZ I        1848 24.16        36.7 0.44            109            186 314 
 CHI  HZ EP       1847 57.43                             116    0.08 9  188 183 
 CHI  HN ES       1848 20.10                             116   -0.11 9  188 183 
 CHI  HZ I        1848 25.22        10.2 0.26            108            188 183 
 HEL  HZ EP   2   1848  0.21                             113    0.59 4  209 266 
 OCA  HE ES   2   1848 25.09                             113    0.36 4  214  10 
 GUY2CHZ EP   4   1848  2.94                             112    1.24 0  227 237 
 GUY2CHZ I        1848 34.33         9.4 0.48                           227 237 
 RREF HZ EP   4   1848  5.28                             110    1.13 0  246 230 
 RREF HZ I        1848 41.30        10.2 0.22            103            246 230 
 SML  HZ EP   2   1848  6.41                             107   -0.55 4  277 350 
 SML  HN ES   2   1848 36.45                             107   -0.86 4  277 350 
                                                                                
