 2012  128 1913  5.8 L   6.802 -73.136146.3  RSN 20 0.4 2.8LRSN                1
 GAP=104        0.77       2.7     3.5  5.0 -0.2105E+01  0.3464E+01  0.2362E+01E
 Epicentro: LOS SANTOS - SANTANDER                                             3
 ACTION:UP  12-02-03 08:21 OP:REBC STATUS:               ID:20120128191305 L   I
 2012-01-28-1910-00M.COL___188                                                 6
 STAT SP IPHASW D HRMM SECON CODA AMPLIT PERI AZIMU VELO SNR AR TRES W  DIS CAZ7
 BAR2 SZ IP       1913 25.50                             170     0.010   24 192 
 BAR2 SZ I        1913 26.04       114.8 0.14                            24 192 
 GIR2 SZ IP       1913 25.50                             167     0.010   31 348 
 BRR  HZ IP     C 1913 27.30                             152     0.310   72 298 
 BRR  HZ I        1913 27.54       129.1 0.28                            72 298 
 BRR  HN ES   1   1913 44.24                             152     0.6 7   72 298 
 PAM  SZ EP       1913 28.19                             151     0.210   77  39 
 PAM  SN ES   1   1913 45.18                             151    -0.1 7   77  39 
 RUS  HZ IP     C 1913 29.51                             144    -0.110  101 177 
 RUS  HZ I        1913 30.35        43.5 0.12                           101 177 
 RUS  HN ES   1   1913 47.90                             144    -0.2 7  101 177 
 PTB  HZ EP       1913 32.14                             132    -0.7 9  149 259 
 PTB  HE ES   2   1913 53.74                             132    -0.3 5  149 259 
 PTB  HZ I        1913 55.64        29.6 0.14                           149 259 
 OCA  SZ EP       1913 34.11                             130     0.0 9  160 353 
 OCA  SZ I        1914  0.02        79.9 0.20                           160 353 
 YOP  SZ EP   3   1913 36.18                             126     0.4 2  179 154 
 YOP  SN ES   3   1914  0.27                             126     1.0 2  179 154 
 ZAR  HZ EP       1913 38.36                             122     0.0 9  205 292 
 ZAR  HN ES   1   1914  3.42                             122    -0.3 6  205 292 
 ZAR  HZ I        1914  9.27        92.3 0.58                           205 292 
 NOR  SZ EP       1913 41.64                             118     0.0 8  236 235 
 NOR  SN ES   1   1914  9.01                             118    -0.6 6  236 235 
 CHI  HZ EP       1913 43.80                             117     0.3 8  249 195 
 CHI  HN ES   1   1914 12.62                             117    -0.4 6  249 195 
 CHI  HZ I        1914 20.03        28.0 0.56                           249 195 
 ROSC BZ EP   3   1913 45.20                             117     1.2 2  253 211 
 ROSC BE ES   1   1914 13.58                             117    -0.2 6  253 211 
 ROSC BZ I        1914 19.40        62.6 0.55                           253 211 
 HEL  HZ EP       1913 46.19                             115     0.1 8  273 256 
 HEL  HN ES   3   1914 17.12                             115    -0.5 2  273 256 
 HEL  HZ I        1914 24.62        34.4 0.46                           273 256 
 VIL  SZ EP   3   1913 48.84                             112    -0.4 2  304 192 
 VIL  SN ES   2   1914 23.28                             112     0.1 4  304 192 
 VIL  SZ I        1914 33.31        23.4 0.42                           304 192 
 GUY  SZ EP       1913 50.06                             112     0.3 7  305 235 
 GUY  SN ES   3   1914 24.30                             112     0.2 2  305 235 
 GUY  SZ I        1914 31.16        45.8 0.38                           305 235 
 RREF HZ EP   3   1913 52.80                             111     0.8 2  323 229 
 TOL  SZ EP       1913 54.98                             109     0.8 7  344 225 
 ANIL HZ EP   3   1913 55.71                             108     0.0 2  358 225 
 ANIL HZ I        1914 41.67        64.6 0.28                           358 225 
 SDV  BZ EP       1913 55.06                             108    -0.6 6  359  50 
 PRA  HZ EP       1913 59.17                             107    -0.2 6  393 210 
 PRA  HN ES   1   1914 41.56                             107     0.4 4  393 210 
                                                                                
