 2010  228 1004 55.4 L   6.775 -73.103145.7  RSN  8 0.4 1.8LRSN                1
 GAP=187        0.89       3.7     9.2  6.5 -0.6158E+00  0.1282E+02  0.4174E+01E
 Epicentro: LOS SANTOS - SANTANDER                                             3
 ACTION:UP  10-08-24 09:51 OP:vdl  STATUS:               ID:20100228100455 L   I
 2010-02-28-1001-39S.COL___093                                                 6
 STAT SP IPHASW D HRMM SECON CODA AMPLIT PERI AZIMU VELO SNR AR TRES W  DIS CAZ7
 BAR2 SZ EP       10 5 14.72                             170    -0.310   22 204 
 BAR2 SZ ES   1   10 5 29.91                             170    -0.3 7   22 204 
 BRR  HZ EP       10 5 16.73                             150    -0.110   77 299 
 BRR  HZ I        10 5 18.91        11.9 0.16                            77 299 
 BRR  HN ES   1   10 5 34.09                             150     0.5 7   77 299 
 RUS  BZ EP       10 5 18.75                             144    -0.210   98 179 
 RUS  BE ES   1   10 5 37.45                             144     0.2 7   98 179 
 OCA  SZ EP       10 5 24.02                             129     0.0 9  164 352 
 OCA  SZ ES   1   10 5 46.20                             129    -0.1 7  164 352 
 OCA  SZ I        10 5 50.81        12.1 0.26                           164 352 
 CHI  HZ EP       10 5 33.57                             117     0.6 8  247 196 
 CHI  HE ES   1   10 6  2.37                             117     0.2 6  247 196 
 CHI  HZ I        10 6  7.85         2.0 0.43                           247 196 
 RREF BZ EP       10 5 42.51                             110     0.8 7  324 230 
 RREF BE ES   2   10 6 17.60                             110    -0.3 3  324 230 
 RREF BZ I        10 6 25.71         2.6 0.18                           324 230 
 TOL  SZ EP       10 5 43.16                             109    -0.6 7  345 226 
 PRA  HZ EP   2   10 5 48.45                             106    -0.4 3  392 210 
 PRA  HN ES   2   10 6 29.52                             106    -1.1 3  392 210 
 PRA  HZ I        10 6 37.01         2.4 0.28                           392 210 
                                                                                
