 2017  428 1734 33.2 L   6.799 -73.153152.8  RSN  6 0.4 2.1LRSN                1
 GAP=136        1.05       5.0     5.2  8.1  0.2389E-01  0.1547E+02  0.6275E+01E
 Epicentro: LOS SANTOS - SANTANDER                                             3
 ACTION:UPD 17-05-30 21:16 OP:jn   STATUS:               ID:20170428173433 L   I
 OLDACT:UP  17-04-29 00:12 OP:dnl  STATUS:               ID:20170428172742d    3
 OLDACT:UP  17-04-29 00:12 OP:dnl  STATUS:               ID:20170428172742d    3
 OLDACT:DUP 17-04-29 00:09 OP:dnl  STATUS:               ID:20170428172742d    3
 2017-04-28-1728-00M.COL___374                                                 6
 STAT SP IPHASW D HRMM SECON CODA AMPLIT PERI AZIMU VELO AIN AR TRES W  DIS CAZ7
 BRR  HZ EP       1734 55.10                             154    0.0310 70.5 299 
 BRR  HE ES       1735 12.54                             154    0.4110 70.5 299 
 BRR  HZ I        1735 14.93        58.1 0.34            151           70.5 299 
 PAM  EZ EP       1734 56.56                             152    0.3710 77.9  40 
 PAM  EE ES       1735 13.94                             152   -0.1910 77.9  40 
 PAM  EZ I        1735 15.75        31.0 0.50            157           77.9  40 
 RUS  HZ EP       1734 57.52                             145   -0.1210  101 176 
 RUS  HE ES       1735 16.56                             145   -0.1510  101 176 
 RUS  HZ I        1735 17.15         6.7 0.32            148            101 176 
 PTB  HZ EP       1734 59.70                             134   -0.97 9  147 259 
 PTB  HN ES   4   1735 20.52                             134   -1.58 0  147 259 
 PTB  HZ I        1735 27.04         9.4 0.58            133            147 259 
 ZAR  HZ EP       1735  6.34                             124    0.30 9  203 292 
 ZAR  HE ES       1735 31.23                             124   -0.42 9  203 292 
 ZAR  HZ I        1735 38.07        16.1 0.50            124            203 292 
 NOR  HZ EP       1735  9.85                             120    0.58 8  234 234 
 NOR  HE ES       1735 37.72                             120    0.32 8  234 234 
 NOR  HZ I        1735 45.36         5.0 0.14            121            234 234 
                                                                                
