 2010  128 1210 53.9 L   6.810 -73.171135.0  RSN  7 0.6 2.2LRSN                1
 GAP=156        1.00       6.2    10.5 13.4 -0.2744E+02  0.8760E+02 -0.3234E+02E
 Epicentro: LOS SANTOS - SANTANDER                                             3
 ACTION:UP  10-08-24 09:46 OP:vdl  STATUS:               ID:20100128121053 L   I
 2010-01-28-1159-52S.COL___090                                                 6
 STAT SP IPHASW D HRMM SECON CODA AMPLIT PERI AZIMU VELO SNR AR TRES W  DIS CAZ7
 BAR2 SZ IP       1211 11.83                             169    -0.410   24 183 
 BAR2 SZ ES   2   1211 26.46                             169    -0.1 5   24 183 
 RUS  HZ EP   2   1211 16.53                             141    -0.2 5  102 175 
 RUS  HE ES   1   1211 34.40                             141    -0.1 7  102 175 
 RUS  HZ I        1211 36.20        24.0 0.29                           102 175 
 GUE  SZ EP   1   1211 17.90                             137     0.3 7  116  14 
 GUE  SZ ES   2   1211 37.20                             137     1.1 5  116  14 
 GRA  SZ EP   1   1211 17.73                             134    -0.5 7  126  19 
 GRA  SZ ES   2   1211 37.29                             134     0.2 5  126  19 
 HEL  HZ EP       1211 34.04                             112     0.7 8  270 255 
 HEL  HN ES   2   1212  4.32                             112     0.2 4  270 255 
 HEL  HZ I        1212 12.08        11.6 0.40                           270 255 
 RREF HZ EP   2   1211 40.36                             109     0.9 3  320 229 
 MON  HE ES   2   1212 18.00                             107    -1.8 3  350 309 
                                                                                
