 2013  228 1328 41.2 L   6.504 -73.510130.8  RSN 12 0.5 2.7LRSN 3.2WRSN        1
 SPEC AVERAGE  MO 13.8 ST 20.8 OM  2.5 f0 5.13 R0.3094 AL 2.44 WI 17.4 MW  3.2 3
 SPEC SD       MO  0.4 ST 25.9 OM  0.7 f0 1.48 R0.0831 AL      WI      MW  0.2 3
 GAP= 53        1.18       3.8     3.3  6.2  0.3299E+00  0.2014E+01 -0.2919E-01E
 Epicentro: SIMACOTA - SANTANDER                                               3
 SPEC HEL HH N MO 13.4 ST  3.6 OM  1.6 f0 4.64 R0.3168 AL 1.87 WI 20.1 MW  2.9 3
 SPEC HEL HH N T132941 K 0.000 GD  261 VS 4.20 DE 3.20 Q0300.0 QA 0.60 VS 4.20 3
 SPEC OCA HH N MO 14.4 ST 11.5 OM  2.6 f0 3.30 R0.4455 AL 1.76 WI 19.8 MW  3.5 3
 SPEC OCA HH N T132934 K 0.000 GD  233 VS 4.20 DE 3.20 Q0300.0 QA 0.60 VS 4.20 3
 SPEC NOR HH N MO 14.0 ST 72.1 OM  2.3 f0 7.76 R0.1894 AL 3.16 WI 18.5 MW  3.3 3
 SPEC NOR HH N T132932 K 0.000 GD  224 VS 4.20 DE 3.20 Q0300.0 QA 0.60 VS 4.20 3
 SPEC BRR HH N MO 13.8 ST 12.7 OM  2.2 f0 5.40 R0.2722 AL 3.53 WI 15.3 MW  3.1 3
 SPEC BRR HH N T132916 K 0.000 GD  148 VS 4.20 DE 3.20 Q0300.0 QA 0.60 VS 4.20 3
 SPEC BAR2SH Z MO 13.5 ST  4.1 OM  1.2 f0 4.55 R0.3231 AL 1.89 WI 13.4 MW  2.9 3
 SPEC BAR2SH Z T132859 K 0.000 GD  136 VP 7.60 DE 3.20 Q0300.0 QA 0.60 VS 4.20 3
 ACTION:UPD 13-03-12 09:36 OP:ep   STATUS:               ID:20130228132841 L   I
 2013-02-28-1318-48M.COL___202                                                 6
 STAT SP IPHASW D HRMM SECON CODA AMPLIT PERI AZIMU VELO AIN AR TRES W  DIS CAZ7
 BAR2 SZ EP       1328 59.58                             163    0.1210 37.5  75 
 BAR2 SZ ES       1329 13.45                             163   -0.2410 37.5  75 
 BAR2 SZ I        1329 15.66       231.8 0.26            160           37.5  75 
 BRR  HZ EP       1329  0.92                             150    0.2110 70.3 342 
 BRR  HN ES       1329 16.75                             150    0.8310 70.3 342 
 BRR  HN I        1329 18.89       136.6 0.20            140           70.3 342 
 RUS  HZ EP       1329  2.09                             146   -0.1210 82.5 145 
 RUS  HE ES       1329 18.71                             146    0.1310 82.5 145 
 PTB  HZ IP     C 1329  2.73                             139   -0.4610  105 272 
 PTB  HN ES       1329 20.06                             139   -0.2710  105 272 
 PAM  SZ EP       1329  6.66                             133    0.7810  129  44 
 PAM  SN I        1329 28.37        54.2 0.62            125            129  44 
 NOR  HZ EP       1329 10.74                             122    0.18 9  183 235 
 NOR  HE ES       1329 32.86                             122   -0.60 9  183 235 
 NOR  HE I        1329 36.10       101.0 0.18            115            183 235 
 ZAR  HZ EP       1329 10.27                             122   -0.42 9  185 306 
 ZAR  HN ES       1329 33.51                             122   -0.18 9  185 306 
 ZAR  HN I        1329 41.27        57.4 0.30            113            185 306 
 TAM  HZ EP       1329 11.24                             121   -0.08 9  190  92 
 TAM  HZ I        1329 11.32        20.0 0.16            114            190  92 
 TAM  HN ES       1329 34.11                             121   -0.69 9  190  92 
 OCA  HZ EP       1329 11.51                             120   -0.24 9  193   6 
 OCA  HE ES       1329 35.38                             120   -0.18 9  193   6 
 OCA  HN I        1329 38.47       349.4 0.38            113            193   6 
 CHI  HZ EP       1329 14.31                             118    0.55 8  209 187 
 CHI  HZ I        1329 15.09        19.5 0.18            112            209 187 
 HEL  HZ EP       1329 16.55                             116    0.98 8  226 261 
 HEL  HN I        1329 47.32        24.4 0.26            109            226 261 
 SML  HZ EP   1   1329 18.15                             112   -0.89 6  261 346 
                                                                                
