 2014  128 1045 46.4 L   6.834 -73.204139.4  RSN  7 0.4 1.5LRSN                1
 GAP=128        0.90       3.0     4.8  6.2 -0.1146E+01  0.1005E+02 -0.1491E+01E
 Epicentro: ZAPATOCA - SANTANDER                                               3
 ACTION:UPD 14-03-13 09:59 OP:ep   STATUS:               ID:20140128104546 L   I
 OLDACT:REG 14-01-28 16:16 OP:fm   STATUS:               ID:20140128104000     3
 2014-01-28-1040-00M.COL___285                                                 6
 STAT SP IPHASW D HRMM SECON CODA AMPLIT PERI AZIMU VELO AIN AR TRES W  DIS CAZ7
 BAR2 SZ EP       1046  5.58                             169    0.2510 26.8 175 
 BAR2 SZ ES       1046 20.43                             169    0.3310 26.8 175 
 BAR2 SZ I        1046 21.53        11.6 0.12            170           26.8 175 
 PAM  SZ EP       1046  8.20                             149    0.1810 78.9  45 
 PAM  SN ES       1046 24.75                             149   -0.1510 78.9  45 
 PAM  SZ I        1046 27.57         6.7 0.54            151           78.9  45 
 RUS  HZ EP       1046 10.12                             141    0.2810  105 173 
 RUS  HN ES       1046 27.46                             141   -0.6810  105 173 
 RUS  HZ I        1046 29.16         3.6 0.34            144            105 173 
 PTB  HZ EP       1046 12.32                             132   -0.01 9  142 257 
 PTB  HN ES       1046 32.59                             132    0.02 9  142 257 
 PTB  HZ I        1046 36.54         3.1 0.12            132            142 257 
 SML  HZ EP       1046 21.20                             117   -0.80 8  238 336 
 SML  HN ES       1046 49.97                             117    0.19 8  238 336 
 SML  HZ I        1046 54.61         3.9 0.26            118            238 336 
 CHI  HZ EP       1046 24.37                             115    0.41 8  251 194 
 CHI  HN ES       1046 53.12                             115   -0.15 8  251 194 
 CHI  HZ I        1046 56.47         0.9 0.54            117            251 194 
 GUY2CHZ EP   4   1046 32.31                             111    2.95 0  298 233 
 GUY2CHN ES   4   1047  4.22                             111    1.34 0  298 233 
 GUY2CHZ I        1047 10.68         1.3 0.26                           298 233 
                                                                                
