 2012  628 1307 10.0 L   6.703 -73.221144.6  RSN  4 0.4 1.6LRSN                1
 GAP=211        0.79       9.0     8.8  9.2  0.4241E+02  0.1127E+02  0.1827E+02E
 Epicentro: VILLANUEVA - SANTANDER                                             3
 ACTION:UPD 12-08-06 17:53 OP:ep   STATUS:               ID:20120628130710 L   I
 2012-06-28-1300-00M.COL___201                                                 6
 STAT SP IPHASW D HRMM SECON CODA AMPLIT PERI AZIMU VELO AIN AR TRES W  DIS CAZ7
 BAR2 SZ EP       13 7 29.10                             174   -0.1810 13.0 161 
 BAR2 SZ ES   2   13 7 43.52                             174   -0.83 5 13.0 161 
 BAR2 SZ I        13 7 45.07        11.3 0.26                          13.0 161 
 BRR  HZ EP       13 7 30.80                             153   -0.1210 70.3 309 
 BRR  HZ I        13 7 30.99        26.6 0.30                          70.3 309 
 BRR  HN ES   1   13 7 47.81                             153    0.53 7 70.3 309 
 RUS  HZ EP       13 7 33.40                             146    0.4910 90.9 170 
 RUS  HN ES   2   13 7 50.68                             146   -0.14 5 90.9 170 
 RUS  HZ I        13 7 53.32         3.4 0.48                          90.9 170 
 PTB  HZ EP       13 7 35.67                             134   -0.26 9  138 263 
 PTB  HN ES   2   13 7 56.16                             134   -0.04 5  138 263 
 PTB  HZ I        13 7 58.39         2.8 0.54                           138 263 
                                                                                
