 2017  928 1324 26.5 L   6.851 -73.146149.4  RSN 14 0.6 2.1LRSN                1
 GAP=110        1.26       4.2     4.6  6.7  0.1215E+01  0.8814E+01  0.5848E+01E
 Epicentro: LOS SANTOS - SANTANDER                                             3
 ACTION:UPD 17-10-05 19:17 OP:rebc STATUS:               ID:20170928132426 L   I
 OLDACT:UP  17-09-28 22:30 OP:osc  STATUS:               ID:20170928131740d    3
 OLDACT:DUP 17-09-28 22:13 OP:osc  STATUS:               ID:20170928131740d    3
 2017-09-28-1318-00M.COL___428                                                 6
 STAT SP IPHASW D HRMM SECON CODA AMPLIT PERI AZIMU VELO AIN AR TRES W  DIS CAZ7
 BAR2 EZ EP       1324 46.37                             169   -0.2810 28.9 188 
 BAR2 EZ ES       1325  1.66                             169   -0.7410 28.9 188 
 BAR2 EZ I        1325  2.60        36.4 0.30            167           28.9 188 
 BRR  HZ EP       1324 48.15                             154    0.2810 68.6 294 
 BRR  HN ES       1325  5.28                             154    0.7210 68.6 294 
 BRR  HZ I        1325  9.38        22.1 0.13            151           68.6 294 
 PAM  EZ EP       1324 49.30                             152    0.4710 73.2  42 
 PAM  EE ES       1325  6.36                             152    0.0910 73.2  42 
 PAM  EZ I        1325  8.75        24.8 0.30            157           73.2  42 
 RUS  HZ EP       1324 50.40                             143   -0.5810  106 176 
 RUS  HN ES       1325  9.35                             143   -0.7510  106 176 
 RUS  HZ I        1325 10.17        11.3 0.26            144            106 176 
 SPBC HE ES   2   1325 17.27                             129   -1.15 5  168 218 
 YPLC HZ EP       1324 56.85                             126   -0.16 9  182 152 
 YPLC HE ES       1325 22.20                             126    1.36 9  182 152 
 ZAR  HZ EP       1324 59.40                             123    0.47 9  202 291 
 ZAR  HN ES       1325 24.17                             123   -0.09 9  202 291 
 ZAR  HZ I        1325 29.53         9.0 0.10            123            202 291 
 TABC EZ EP       1325  2.77                             119   -0.17 8  235 210 
 TABC EZ ES   3   1325 32.70                             119    1.30 2  235 210 
 TABC EZ I        1325 37.94        14.8 0.38            120            235 210 
 NOR  HZ EP       1325  2.55                             119   -0.21 8  238 233 
 NOR  HE ES       1325 31.25                             119    0.19 8  238 233 
 NOR  HZ I        1325 38.40         7.0 0.12            119            238 233 
 ROSC BN ES   4   1325 36.49                             117    0.89 0  258 210 
 HEL  HN ES   4   1325 35.94                             115   -2.70 0  273 255 
 GUY2CHZ EP   4   1325 12.33                             113    1.72 0  304 234 
 GUY2CHE ES       1325 45.12                             113    0.09 7  304 234 
 GUY2CHZ I        1325 52.66         5.9 0.32                           304 234 
 ELA  HZ EP   9   1325 15.76                             111    1.87 0  333 229 
 ELA  HN ES       1325 52.67                             110   -0.08 7  333 229 
 ELA  HZ I        1325 55.45         5.8 0.16            111            333 229 
 ANIL HE ES   2   1325 57.24                             109    1.05 3  361 224 
 PRA  HZ EP       1325 20.62                             107   -0.06 6  397 209 
 PRA  HE ES       1326  3.11                             107    0.14 6  397 209 
 PRA  HZ I        1326  6.68         6.6 0.40            108            397 209 
 SJC  HZ EP       1325 20.57                             106   -1.02 6  404 327 
 SJC  HN ES   4   1326  2.58                             106   -2.01 0  404 327 
                                                                                
