 2012 1028 1416 50.5 L   6.804 -73.140146.1  RSN  8 0.3 2.1LRSN                1
 GAP=137        0.55       2.8     3.2  4.8  0.6795E+00  0.3473E+01  0.4189E+01E
 Epicentro: LOS SANTOS - SANTANDER                                             3
 ACTION:UPD 12-11-22 17:06 OP:ep   STATUS:               ID:20121028141650 L   I
 2012-10-28-1410-00M.COL___231                                                 6
 STAT SP IPHASW D HRMM SECON CODA AMPLIT PERI AZIMU VELO AIN AR TRES W  DIS CAZ7
 BAR2 SZ EP       1417 10.08                             170   -0.0710 23.8 191 
 BAR2 SZ I        1417 27.24        34.4 0.22                          23.8 191 
 GIR2 SZ EP   1   1417 10.07                             167   -0.10 7 31.0 349 
 BRR  HZ EP       1417 11.79                             152    0.1210 71.6 298 
 BRR  HN ES       1417 28.45                             152    0.2410 71.6 298 
 BRR  HZ I        1417 30.87        21.8 0.22                          71.6 298 
 PAM  SZ EP       1417 12.92                             151    0.2510 76.7  39 
 PAM  SZ I        1417 13.23        17.0 0.16                          76.7  39 
 PAM  SN ES       1417 29.86                             151   -0.1310 76.7  39 
 RUS  HZ EP   1   1417 14.19                             144   -0.09 7  101 176 
 RUS  HN ES   1   1417 32.55                             144   -0.29 7  101 176 
 RUS  HN I        1417 34.63        23.3 0.36                           101 176 
 ZAR  HZ EP   1   1417 22.31                             122   -0.67 6  204 292 
 ZAR  HE ES   1   1417 48.14                             122   -0.20 6  204 292 
 ZAR  HZ I        1417 54.33        13.8 0.39                           204 292 
 CHI  HZ EP   1   1417 28.47                             117    0.23 6  249 195 
 CHI  HN ES   1   1417 57.90                             117    0.19 6  249 195 
 CHI  HZ I        1418  8.76         4.6 0.63                           249 195 
 HEL  HZ EP   2   1417 31.21                             115    0.43 4  273 256 
 HEL  HZ I        1418  9.86         6.6 0.33                           273 256 
                                                                                
