 2017 1228 1608  1.5 L   6.721 -73.166142.9  RSN  4 0.2 1.4LRSN                1
 GAP=150        0.41       5.6     3.2  5.4 -0.9539E+01  0.3285E+01  0.2180E+01E
 Epicentro: VILLANUEVA - SANTANDER                                             3
 ACTION:UPD 18-01-04 13:25 OP:rebc STATUS:               ID:20171228160801 L   I
 OLDACT:REG 17-12-28 20:38 OP:mg   STATUS:               ID:20171228155738     3
 2017-12-28-1558-00M.COL___450                                                 6
 STAT SP IPHASW D HRMM SECON CODA AMPLIT PERI AZIMU VELO AIN AR TRES W  DIS CAZ7
 BAR2 EZ EP       16 8 20.88                             174    0.2210 14.3 187 
 BAR2 EZ ES   2   16 8 35.57                             174   -0.01 5 14.3 187 
 BAR2 EZ I        16 8 37.47         7.6 0.50            172           14.3 187 
 PAM  EZ EP       16 8 23.94                             148   -0.0110 85.6  37 
 PAM  EN ES   1   16 8 41.29                             148   -0.16 7 85.6  37 
 PAM  EZ I        16 8 43.84         3.6 0.38            148           85.6  37 
 PTB  HZ EP       16 8 27.77                             132   -0.15 9  144 262 
 PTB  HN ES   1   16 8 48.43                             132   -0.09 7  144 262 
 PTB  HZ I        16 8 52.85         1.8 0.09            132            144 262 
 ZAR  HN ES   2   16 8 59.51                             121    0.31 4  205 295 
 ZAR  HZ I        16 9  5.12         4.3 0.30            122            205 295 
                                                                                
