 2010  628 1610  2.9 L   6.746 -73.130151.5  RSN  4 0.1 1.6LRSN                1
 GAP=166        0.32       4.3     7.6  5.0  0.2459E+02 -0.1972E+02 -0.1212E+02E
 Epicentro: JORDAN - SANTANDER                                                 3
 ACTION:UP  10-08-24 10:13 OP:vdl  STATUS:               ID:20100628161002 L   I
 2010-06-28-1607-32S.COL___118                                                 6
 STAT SP IPHASW D HRMM SECON CODA AMPLIT PERI AZIMU VELO SNR AR TRES W  DIS CAZ7
 BAR2 SZ EP   1   1610 22.94                             173    -0.2 7   18 199 
 BAR2 SZ ES   2   1610 38.82                             173    -0.1 5   18 199 
 BRR  HZ IP     C 1610 24.92                             152     0.010   76 302 
 BRR  HZ I        1610 25.34        11.1 0.09                            76 302 
 BRR  HE ES   1   1610 42.07                             152     0.0 7   76 302 
 RUS  HZ EP   2   1610 26.76                             147     0.0 5   95 177 
 RUS  HN ES   1   1610 45.49                             147     0.1 7   95 177 
 RUS  HZ I        1610 47.49         3.7 0.50                            95 177 
 GUE  SZ EP   2   1610 28.67                             139     0.1 5  122  11 
                                                                                
