 2010  928 1043 39.6 L   6.764 -73.124155.7  RSN  7 0.3 1.7LRSN                1
 GAP=167        0.59       3.5     9.2 11.2 -0.7740E+01  0.2419E+02 -0.9265E+00E
 Epicentro: LOS SANTOS - SANTANDER                                             3
 ACTION:UP  11-02-18 11:06 OP:tino STATUS:               ID:20100928104339 L   I
 2010-09-28-1041-19S.COL___122                                                 6
 STAT SP IPHASW D HRMM SECON CODA AMPLIT PERI AZIMU VELO SNR AR TRES W  DIS CAZ7
 BAR2 SZ EP   2   1044  0.25                             172    -0.2 6   20 199 
 BAR2 SZ I        1044 14.90         9.5 0.44                            20 199 
 BTL  SZ EP   1   1044  0.67                             171     0.2 8   23 317 
 BRR  HZ EP   1   1044  2.16                             153     0.1 8   75 300 
 BRR  HZ I        1044 11.49        18.3 0.46                            75 300 
 RUS  HZ EP   2   1044  4.37                             147     0.3 6   96 177 
 RUS  HN ES   2   1044 22.83                             147    -0.3 6   96 177 
 RUS  HZ I        1044 23.86         5.6 0.34                            96 177 
 GUE  SZ EP   2   1044  6.17                             141     0.6 5  120  11 
 OCA  SZ EP   1   1044  8.75                             131    -0.4 7  165 352 
 OCA  SZ ES       1044 32.08                             131    -0.110  165 352 
 OCA  SZ I        1044 35.58         5.4 0.37                           165 352 
 NOR  SZ EP   2   1044 15.41                             121    -0.5 4  235 236 
 NOR  SE ES   2   1044 44.60                             121     0.3 4  235 236 
                                                                                
