 2016 1028 1337 23.0 L   6.792 -73.130146.1  RSN  9 0.4 1.8LRSN                1
 GAP=139        1.01       4.2     4.7  6.1 -0.4150E+01  0.5208E+01  0.8681E+01E
 Epicentro: LOS SANTOS - SANTANDER                                             3
 ACTION:UPD 16-11-09 19:23 OP:rebc STATUS:               ID:20161028133723 L   I
 OLDACT:DUP 16-10-28 23:11 OP:edw  STATUS:               ID:20161028132749d    3
 2016-10-28-1328-00M.COL___343                                                 6
 STAT SP IPHASW D HRMM SECON CODA AMPLIT PERI AZIMU VELO AIN AR TRES W  DIS CAZ7
 BAR2 EZ EP       1337 42.56                             171   -0.1010 22.9 195 
 BAR2 EZ ES       1337 57.24                             171   -0.7610 22.9 195 
 BAR2 EZ I        1337 58.92        22.4 0.76            169           22.9 195 
 BRR  HZ EP       1337 44.63                             152    0.3410 73.1 298 
 BRR  HE ES       1338  1.51                             152    0.6110 73.1 298 
 PAM  EZ EP       1337 45.54                             151    0.3210 77.0  38 
 PAM  EN ES       1338  2.48                             151   -0.0810 77.0  38 
 PAM  EZ I        1338  4.74        17.3 0.50            153           77.0  38 
 RUS  HZ EP       1337 46.61                             144   -0.1010 99.6 177 
 RUS  HN ES       1338  5.59                             144    0.3810 99.6 177 
 RUS  HZ I        1338  6.46         7.0 0.28            144           99.6 177 
 PTB  HZ EP       1337 49.38                             132   -0.75 9  149 259 
 PTB  HN ES       1338 11.03                             132   -0.26 9  149 259 
 PTB  HZ I        1338 13.27         5.3 0.12            132            149 259 
 NOR  HZ EP       1337 58.57                             118   -0.27 8  236 235 
 NOR  HN ES       1338 27.14                             118    0.34 8  236 235 
 NOR  HZ I        1338 29.10         3.8 0.16            119            236 235 
 CHI  HZ EP       1338  0.94                             117    0.27 8  248 196 
 CHI  HN ES       1338 29.95                             117   -0.11 8  248 196 
 CHI  HZ I        1338 33.52         3.5 0.54            118            248 196 
 GUY2CHZ EP   4   1338  8.62                             112    1.90 0  302 235 
 GUY2CHN ES   4   1338 44.12                             112    3.29 0  302 235 
 GUY2CHZ I        1338 48.69         3.3 0.30                           302 235 
 PRA  HZ EP       1338 16.32                             106   -0.22 6  392 210 
 PRA  HE ES       1338 58.90                             106    0.60 6  392 210 
 PRA  HZ I        1339  2.89         2.4 0.22            107            392 210 
 SJC  HZ EP   4   1338 16.82                             106   -1.94 0  411 327 
 SJC  HN ES   4   1338 57.84                             106   -4.42 0  411 327 
                                                                                
