 2015 1128 1019 29.5 L   6.813 -73.096142.9  RSN  6 0.4 1.3LRSN                1
 GAP=248        1.07       6.3     6.1  7.8  0.1027E+02  0.1455E+02 -0.5712E+01E
 Epicentro: LOS SANTOS - SANTANDER                                             3
 ACTION:UPD 15-12-28 16:13 OP:cam  STATUS:               ID:20151128101929 L   I
 OLDACT:REG 15-11-28 20:45 OP:ak   STATUS:               ID:20151128101747     3
 2015-11-28-1017-47M.COL___304                                                 6
 STAT SP IPHASW D HRMM SECON CODA AMPLIT PERI AZIMU VELO AIN AR TRES W  DIS CAZ7
 BAR2 EZ EP       1019 49.09                             169    0.2210 26.3 201 
 BAR2 EZ ES       1020  3.99                             169    0.0310 26.3 201 
 BAR2 EZ I        1020  5.01         3.6 0.16            167           26.3 201 
 RUS  HZ EP       1019 52.74                             143   -0.3410  102 179 
 RUS  HE ES       1020 11.62                             143    0.1610  102 179 
 RUS  HZ I        1020 13.58         1.3 0.14            144            102 179 
 PTB  HZ EP       1019 56.15                             130   -0.63 9  153 259 
 PTB  HN ES       1020 17.16                             130   -0.88 9  153 259 
 PTB  HZ I        1020 20.14         2.9 0.12            130            153 259 
 SPBC HZ EP       1019 58.03                             128   -0.22 9  168 220 
 SPBC HE ES       1020 21.16                             128    0.51 9  168 220 
 SPBC HZ I        1020 25.42         3.4 0.20            128            168 220 
 ZAR  HZ EP       1020  2.60                             121    0.34 8  209 291 
 ZAR  HN ES       1020 28.39                             121    0.60 8  209 291 
 ZAR  HZ I        1020 33.56         2.7 0.30            122            209 291 
 GUY2CHZ EP       1020 13.99                             111    0.39 7  307 235 
 GUY2CHN ES       1020 48.22                             111    0.23 7  307 235 
 GUY2CHZ I        1020 55.56         1.3 0.54                           307 235 
                                                                                
