 2014 1228 1021 30.8 L   7.462 -73.156126.5  RSN  6 0.4 1.6LRSN                1
 GAP=216        0.99       4.0     6.3  8.7  0.5943E+01  0.9084E+00 -0.1063E+02E
 Epicentro: EL PLAYON - SANTANDER                                              3
 ACTION:UPD 15-02-10 17:07 OP:nd   STATUS:               ID:20141228102130 L   I
 OLDACT:REG 14-12-28 22:23 OP:y    STATUS:               ID:20141228101748     3
 2014-12-28-1017-48M.COL___265                                                 6
 STAT SP IPHASW D HRMM SECON CODA AMPLIT PERI AZIMU VELO AIN AR TRES W  DIS CAZ7
 BRR  HZ EP       1021 50.39                             148    0.3510 72.9 237 
 BRR  HN ES       1022  5.24                             148    0.2210 72.9 237 
 BRR  HZ I        1022  6.10         7.6 0.40            142           72.9 237 
 BAR2 EZ EP       1021 52.16                             140    0.1210 96.2 182 
 BAR2 EZ ES       1022  8.49                             140   -0.0910 96.2 182 
 BAR2 EZ I        1022  9.52        16.2 0.36            137           96.2 182 
 PTB  HZ EP       1021 59.19                             122    0.03 9  176 235 
 PTB  HN ES       1022 20.36                             122   -0.90 9  176 235 
 PTB  HZ I        1022 25.12         3.7 0.30            118            176 235 
 SML  HZ EP       1021 59.14                             121   -0.30 9  179 326 
 SML  HE ES       1022 21.35                             121   -0.42 9  179 326 
 SML  HZ I        1022 22.04         5.1 0.28            120            179 326 
 ZAR  HZ EP       1022  0.70                             120    0.32 9  188 271 
 ZAR  HE ES       1022 24.08                             120    0.66 9  188 271 
 ZAR  HZ I        1022 27.54         3.2 0.32            117            188 271 
 SPBC HN ES       1022 30.47                             115   -0.14 8  224 207 
 SPBC HZ I        1022 36.83         3.4 0.24            113            224 207 
                                                                                
