 2010 1028 1608  6.1 L   6.782 -73.090148.0  RSN  4 0.3 1.6LRSN                1
 GAP=242        0.51       5.5     7.8  8.1  0.1296E+02  0.6897E+01 -0.7606E+01E
 Epicentro: LOS SANTOS - SANTANDER                                             3
 ACTION:UP  11-02-18 11:12 OP:tino STATUS:               ID:20101028160806 L   I
 2010-10-28-1605-34S.COL___124                                                 6
 STAT SP IPHASW D HRMM SECON CODA AMPLIT PERI AZIMU VELO SNR AR TRES W  DIS CAZ7
 BAR2 SZ EP   1   16 8 25.87                             171    -0.1 7   23 206 
 BAR2 SZ I        16 8 26.26         7.0 0.12                            23 206 
 BAR2 SZ ES   2   16 8 41.14                             171    -0.4 5   23 206 
 BRR  HZ EP   1   16 8 27.82                             151    -0.1 7   78 298 
 BRR  HN ES   2   16 8 45.27                             151     0.4 5   78 298 
 BRR  HZ I        16 8 47.71        19.0 0.05                            78 298 
 RUS  HZ EP   2   16 8 30.28                             145     0.4 5   98 180 
 RUS  HN ES   1   16 8 48.59                             145     0.1 7   98 180 
 RUS  HZ I        16 8 49.57         3.5 0.28                            98 180 
 NOR  SE ES   2   16 9 10.48                             118    -0.2 4  239 236 
                                                                                
