 2011  928 1629 34.8 L   6.806 -73.130141.9  RSN  7 0.2 2.1LRSN                1
 GAP=138        0.60       3.1     3.2  4.2 -0.4187E+00  0.3406E+01  0.1545E+01E
 Epicentro: LOS SANTOS - SANTANDER                                             3
 ACTION:UPD 12-07-13 16:00 OP:ep   STATUS:               ID:20110928162934 L   I
 2011-09-28-1626-44S.COL___165                                                 6
 STAT SP IPHASW D HRMM SECON CODA AMPLIT PERI AZIMU VELO AIN AR TRES W  DIS CAZ7
 BTL  SZ EP       1629 54.18                             172    0.2810 19.7 309 
 BAR2 SZ EP       1629 53.99                             170    0.0010 24.3 194 
 BAR2 SZ ES       1630  9.25                             170    0.3010 24.3 194 
 BAR2 SZ I        1630 12.64        20.3 0.50                          24.3 194 
 BRR  HZ EP       1629 55.60                             151   -0.0110 72.5 297 
 BRR  HE ES       1630 11.99                             151    0.1610 72.5 297 
 BRR  HZ I        1630 13.72        27.3 0.20                          72.5 297 
 PAM  SZ EP       1629 56.50                             151   -0.0110 75.8  39 
 PAM  SE ES       1630 13.09                             151   -0.3510 75.8  39 
 RUS  HZ EP       1629 58.04                             143   -0.1710  101 177 
 RUS  HE ES   1   1630 16.29                             143   -0.18 7  101 177 
 RUS  HZ I        1630 19.62         6.2 0.44                           101 177 
 ZAR  HZ EP   1   1630  7.53                             121    0.39 6  205 292 
 ZAR  HN ES   1   1630 31.84                             121   -0.53 6  205 292 
 ZAR  HZ I        1630 37.35        34.4 0.45                           205 292 
 NOR  SZ EP   1   1630 10.66                             117    0.16 6  236 235 
 NOR  SN ES   1   1630 38.09                             117   -0.26 6  236 235 
                                                                                
