 2012 1028 1549 21.7 L   6.440 -73.743 96.2  RSN  7 0.3 2.3LRSN                1
 GAP= 82        0.78       3.1     3.2  6.4  0.9754E+00  0.1049E+02  0.3586E+01E
 Epicentro: SANTA HELENA DEL OPON - SANTANDER                                  3
 ACTION:UPD 12-11-22 17:06 OP:ep   STATUS:               ID:20121028154921 L   I
 2012-10-28-1544-50M.COL___202                                                 6
 STAT SP IPHASW D HRMM SECON CODA AMPLIT PERI AZIMU VELO AIN AR TRES W  DIS CAZ7
 BAR2 SZ EP       1549 37.90                             144    0.3210 64.2  75 
 BAR2 SZ ES       1549 49.95                             144   -0.0210 64.2  75 
 BAR2 SZ I        1549 52.66       251.8 0.29                          64.2  75 
 BRR  HZ EP       1549 38.03                             140    0.0510 73.8   3 
 BRR  HZ I        1549 38.53        68.3 0.18                          73.8   3 
 BRR  HE ES       1549 50.96                             140    0.2810 73.8   3 
 RUS  HZ EP       1549 40.21                             133   -0.2510 94.9 130 
 RUS  HN ES       1549 55.11                             133    0.0110 94.9 130 
 RUS  HZ I        1549 57.37        24.3 0.53                          94.9 130 
 PAM  SZ EP       1549 46.35                             119    0.09 9  152  49 
 PAM  SE ES       1550  4.76                             119   -0.66 9  152  49 
 PAM  SZ I        1550  6.37        46.6 0.27                           152  49 
 ZAR  HZ EP       1549 47.74                             115    0.20 9  169 313 
 ZAR  HZ I        1550 10.61        41.3 0.35                           169 313 
 HEL  HZ EP       1549 51.36                             112   -0.04 9  200 262 
 HEL  HN ES   1   1550 13.94                             112   -0.64 6  200 262 
 HEL  HZ I        1550 18.79        24.9 0.66                           200 262 
 CHI  HZ EP   1   1549 52.10                             112    0.56 6  200 180 
 CHI  HZ I        1550 22.48         7.9 0.27                           200 180 
                                                                                
