 2010  828 1915  7.7 L   6.745 -73.126148.6  RSN  6 0.4 1.9LRSN                1
 GAP=161        1.20       9.2    17.4 11.5  0.9326E+02 -0.9775E+02 -0.4649E+02E
 Epicentro: JORDAN - SANTANDER                                                 3
 ACTION:UP  10-09-07 10:58 OP:vdl  STATUS:               ID:20100828191507 L   I
 2010-08-28-1910-29S.COL___120                                                 6
 STAT SP IPHASW D HRMM SECON CODA AMPLIT PERI AZIMU VELO SNR AR TRES W  DIS CAZ7
 BAR2 SZ EP       1915 27.22                             173    -0.410   18 200 
 BAR2 SZ I        1915 27.56        26.1 0.05                            18 200 
 BAR2 SZ ES   1   1915 42.35                             173    -0.7 7   18 200 
 BTL  SZ EP       1915 28.37                             170     0.710   25 321 
 BTL  SZ ES   1   1915 43.69                             170     0.4 7   25 321 
 GIR2 SZ EP       1915 28.39                             165     0.510   38 349 
 BRR  HZ IP     C 1915 29.16                             151    -0.310   76 302 
 BRR  HZ I        1915 29.50        35.9 0.11                            76 302 
 BRR  HN ES       1915 46.33                             151    -0.110   76 302 
 RUS  HZ EP   1   1915 31.26                             146    -0.1 7   94 177 
 RUS  HN ES       1915 49.81                             146     0.110   94 177 
 RUS  HZ I        1915 50.58         7.0 0.27                            94 177 
 GRA  SZ EP   1   1915 33.12                             136    -0.5 7  131  16 
 GRA  SZ I        1915 53.18         7.9 0.52                           131  16 
                                                                                
