 2015  128 1547 22.4 L   6.794 -73.130151.6  RSN  7 0.2 1.4LRSN                1
 GAP=139        0.51       4.8     3.6  5.1 -0.6101E+01  0.5935E+01 -0.4811E+01E
 Epicentro: LOS SANTOS - SANTANDER                                             3
 ACTION:UPD 15-03-02 15:43 OP:nd   STATUS:               ID:20150128154722 L   I
 OLDACT:REG 15-01-28 20:21 OP:spq  STATUS:               ID:20150128153747     3
 2015-01-28-1537-47M.COL___259                                                 6
 STAT SP IPHASW D HRMM SECON CODA AMPLIT PERI AZIMU VELO AIN AR TRES W  DIS CAZ7
 BAR2 EZ EP       1547 42.55                             171   -0.1310 23.0 194 
 BAR2 EZ ES   1   1547 58.60                             171    0.07 7 23.0 194 
 BAR2 EZ I        1548  0.40         4.1 0.56            172           23.0 194 
 BRR  HN E        1538 26.38                                           73.0 298 
 PAM  SZ EP   1   1547 45.44                             152    0.28 7 76.9  38 
 PAM  SZ I        1548  4.96         2.5 0.46            137           76.9  38 
 RUS  HZ EP   1   1547 46.38                             145   -0.25 7 99.8 177 
 RUS  HE ES   1   1548  5.54                             145   -0.02 7 99.8 177 
 RUS  HZ I        1548  7.38         2.3 0.24            154           99.8 177 
 PTB  HZ EP       1547 49.59                             133   -0.35 9  149 259 
 PTB  HN ES   1   1548 11.55                             133    0.10 7  149 259 
 PTB  HZ I        1548 16.41         4.3 0.16            132            149 259 
 SPBC HZ EP       1547 51.58                             130    0.23 9  164 220 
 NOR  HZ EP   1   1547 58.93                             120    0.40 6  236 235 
 NOR  HE ES       1548 26.75                             120    0.00 8  236 235 
 NOR  HZ I        1548 30.25         3.3 0.18            120            236 235 
                                                                                
