 2011  228 1013 33.1 L   7.401 -73.194133.8  RSN  4 0.3 1.6LRSN                1
 GAP=172        0.61       2.9    11.7  7.6 -0.1153E+01  0.2153E+02  0.5499E+01E
 Epicentro: EL PLAYON - SANTANDER                                              3
 ACTION:UP  11-03-28 15:11 OP:jfem STATUS:               ID:20110228101333 L   I
 2011-02-28-1010-27S.COL___135                                                 6
 STAT SP IPHASW D HRMM SECON CODA AMPLIT PERI AZIMU VELO SNR AR TRES W  DIS CAZ7
 GRA  SZ EP   1   1013 53.27                             151     0.2 7   69  39 
 GRA  SZ ES   1   1014  8.50                             151    -0.1 7   69  39 
 GRA  SZ I        1014 12.29        11.8 0.27                            69  39 
 BAR2 SZ EP   1   1013 54.17                             144    -0.4 7   90 179 
 BAR2 SZ ES   1   1014 11.07                             144    -0.2 7   90 179 
 BAR2 SZ I        1014 12.18         6.8 0.14                            90 179 
 OCA  SZ EP   1   1013 54.72                             143     0.0 7   94 352 
 OCA  SZ ES   1   1014 11.74                             143     0.2 7   94 352 
 OCA  SZ I        1014 13.70         4.7 0.16                            94 352 
 RUS  HZ EP   1   1014  1.63                             126    -0.1 7  167 176 
 RUS  HN ES   1   1014 24.45                             126     0.5 7  167 176 
                                                                                
