 2017 1228 1126 59.4 L   6.367 -73.672106.0  RSN 10 0.3 1.7LRSN                1
 GAP= 78        0.59       2.3     2.5  5.8 -0.1544E+01  0.6716E+00 -0.3505E+01E
 Epicentro: SANTA HELENA DEL OPON - SANTANDER                                  3
 ACTION:UPD 18-01-04 13:25 OP:rebc STATUS:               ID:20171228112659 L   I
 OLDACT:UP  17-12-28 23:28 OP:mg   STATUS:               ID:20171228111136     3
 OLDACT:REG 17-12-28 20:01 OP:mg   STATUS:               ID:20171228111136     3
 2017-12-28-1118-00M.COL___457                                                 6
 STAT SP IPHASW D HRMM SECON CODA AMPLIT PERI AZIMU VELO AIN AR TRES W  DIS CAZ7
 BAR2 EZ EP       1127 16.30                             149    0.3210 59.6  65 
 BAR2 EZ ES   2   1127 29.17                             149    0.26 5 59.6  65 
 BAR2 EZ I        1127 30.14        22.6 0.15            149           59.6  65 
 PTB  HZ EP       1127 17.40                             137   -0.4410 88.8 282 
 PTB  HN ES   2   1127 31.39                             137   -0.83 5 88.8 282 
 PTB  HZ I        1127 33.19         6.0 0.16            136           88.8 282 
 SPBC HZ EP   1   1127 18.14                             136    0.04 7 90.6 209 
 SPBC HE ES   1   1127 32.98                             136    0.31 7 90.6 209 
 SPBC HZ I        1127 36.01        15.3 0.08            134           90.6 209 
 PAM  EZ EP       1127 24.53                             121   -0.01 9  152  45 
 PAM  EN ES   1   1127 43.88                             121   -0.26 7  152  45 
 PAM  EZ I        1127 48.95         6.2 0.30            121            152  45 
 YPLC HZ EP   2   1127 26.78                             116   -0.12 4  179 127 
 YPLC HE ES   2   1127 48.06                             116   -0.27 4  179 127 
 YPLC HZ I        1127 51.23        18.2 0.23            115            179 127 
 ZAR  HZ EP   1   1127 27.12                             115    0.10 7  181 314 
 ZAR  HN ES   1   1127 49.24                             115    0.69 7  181 314 
 ZAR  HZ I        1127 54.14        10.5 0.30            115            181 314 
 OCA  HZ EP       1127 30.42                             111   -0.13 8  211  11 
 OCA  HN ES   1   1127 54.91                             111    0.07 6  211  11 
 GUY2CHZ EP   2   1127 32.72                             110   -0.01 4  226 236 
 GUY2CHN ES   2   1127 58.80                             110    0.08 4  226 236 
 GUY2CHZ I        1128  5.78         2.1 0.26                           226 236 
 PRA  HZ EP   2   1127 43.58                             102    0.03 3  323 205 
 PRA  HN ES   2   1128 17.95                             102   -0.03 3  323 205 
 PRA  HZ I        1128 27.40         2.2 0.11            101            323 205 
 DRL03HZ EP   4   1127 45.05                             101    0.08 0  335   4 
 DRL03HN ES   1   1128 20.48                             101   -0.02 5  335   4 
                                                                                
