 2016  528 1054 52.1 L   6.790 -73.140143.9  RSN  6 0.3 1.5LRSN                1
 GAP=138        0.70       3.4     3.6  5.4 -0.2093E+01  0.5607E+00  0.1008E+00E
 Epicentro: LOS SANTOS - SANTANDER                                             3
 ACTION:UPD 16-08-18 17:50 OP:cam  STATUS:               ID:20160528105452 L   I
 OLDACT:UP  16-05-28 23:42 OP:mh   STATUS:               ID:20160528104744     3
 OLDACT:UP  16-05-28 22:56 OP:mh   STATUS:               ID:20160528104744     3
 OLDACT:UP  16-05-28 22:56 OP:mh   STATUS:               ID:20160528104744     3
 OLDACT:UP  16-05-28 22:53 OP:mh   STATUS:               ID:20160528104744     3
 OLDACT:REG 16-05-28 20:46 OP:mh   STATUS:               ID:20160528104744     3
 2016-05-28-1047-44M.COL___307                                                 6
 STAT SP IPHASW D HRMM SECON CODA AMPLIT PERI AZIMU VELO AIN AR TRES W  DIS CAZ7
 BAR2 EZ EP       1055 11.33                             171   -0.1410 22.3 192 
 BAR2 EZ ES       1055 26.29                             171   -0.3010 22.3 192 
 BAR2 EZ I        1055 27.65         6.8 0.29            171           22.3 192 
 BRR  HZ EP       1055 13.30                             152    0.2110 72.3 299 
 BRR  HE ES       1055 29.34                             152   -0.1410 72.3 299 
 BRR  HZ I        1055 33.04        13.0 0.24            151           72.3 299 
 PAM  EZ EP       1055 14.48                             150    0.3510 77.8  39 
 PAM  EN ES   1   1055 31.34                             150    0.02 7 77.8  39 
 PAM  EZ I        1055 32.29         3.6 0.17            153           77.8  39 
 RUS  HZ EP       1055 15.13                             144   -0.4310 99.4 176 
 RUS  HN ES       1055 34.24                             144    0.3610 99.4 176 
 RUS  HZ I        1055 35.61         2.6 0.18            146           99.4 176 
 PTB  HZ EP   1   1055 18.64                             131   -0.30 7  148 259 
 PTB  HN ES       1055 40.05                             131    0.16 9  148 259 
 PTB  HZ I        1055 44.45         5.4 0.09            132            148 259 
 SPBC HE ES       1055 42.58                             129    0.10 9  163 219 
                                                                                
