 2010  328 1000 10.0 L   6.778 -73.009146.3  RSN  7 0.3 2.2LRSN                1
 GAP=211        0.53       3.5     8.0  6.0 -0.7537E+01  0.5420E+01  0.6297E+01E
 Epicentro: CEPITA - SANTANDER                                                 3
 ACTION:UP  10-08-24 09:56 OP:vdl  STATUS:               ID:20100328100010 L   I
 2010-03-28-0956-03S.COL___098                                                 6
 STAT SP IPHASW D HRMM SECON CODA AMPLIT PERI AZIMU VELO SNR AR TRES W  DIS CAZ7
 BAR2 SZ EP   1   10 0 29.94                             169     0.2 7   28 223 
 BAR2 SZ ES   2   10 0 45.15                             169    -0.1 5   28 223 
 BRR  HZ IP       10 0 31.93                             148    -0.110   86 295 
 BRR  HZ I        10 0 32.21        54.2 0.20                            86 295 
 BRR  HN ES   2   10 0 49.48                             148     0.2 5   86 295 
 OCA  SZ EP   1   10 0 38.37                             129    -0.4 7  165 348 
 OCA  SZ ES   2   10 1  1.80                             129     0.5 5  165 348 
 OCA  SZ I        10 1  6.68        26.0 0.23                           165 348 
 CHI  HZ EP   1   10 0 47.94                             117     0.0 6  251 199 
 CHI  HZ I        10 0 50.60         4.3 0.42                           251 199 
 CHI  HE ES   2   10 1 17.75                             117     0.2 4  251 199 
 HEL  HZ EP   1   10 0 51.85                             114     0.1 6  286 257 
 HEL  HZ I        10 1 28.60         6.0 0.30                           286 257 
 RREF BZ EP   1   10 0 57.72                             110     0.4 5  332 231 
 RREF BE ES   2   10 1 33.69                             110    -0.5 3  332 231 
 RREF BZ I        10 1 38.36         5.3 0.28                           332 231 
 PRA  HZ EP   1   10 1  4.38                             106     0.2 4  398 212 
 PRA  HN ES   2   10 1 45.92                             106    -0.5 3  398 212 
 PRA  HZ I        10 1 50.94         4.3 0.71                           398 212 
                                                                                
