 2017 1028 1416 35.4 L   6.658 -74.075  4.0  RSN  9 0.5 1.5LRSN                1
 GAP= 88        1.18       2.4     1.9  5.1 -0.1262E+01  0.2394E+00  0.1461E+01E
 Epicentro: PUERTO PARRA - SANTANDER                                           3
 ACTION:UPD 17-11-07 19:38 OP:rebc STATUS:               ID:20171028141635 L   I
 OLDACT:REG 17-10-28 20:00 OP:dhb  STATUS:               ID:20171028140738     3
 2017-10-28-1408-00M.COL___438                                                 6
 STAT SP IPHASW D HRMM SECON CODA AMPLIT PERI AZIMU VELO AIN AR TRES W  DIS CAZ7
 PTB  HZ IP     D 1416 42.77                              47    0.0710 44.2 253 
 PTB  HE ES       1416 48.61                              47    0.2110 44.2 253 
 PTB  HZ I        1416 48.86        17.4 0.20             47           44.2 253 
 BRR  HZ IP     D 1416 45.80                              47    0.1310 63.8  39 
 BRR  HE ES       1416 54.04                              47    0.3710 63.8  39 
 BRR  HZ I        1416 54.83        30.8 0.44             47           63.8  39 
 BAR2 EZ IP     D 1416 51.18                              47   -0.0610 99.0  94 
 BAR2 EZ ES       1417  3.14                              47   -0.4510 99.0  94 
 BAR2 EZ I        1417  9.40         8.7 0.40             47           99.0  94 
 ZAR  HZ EP       1416 55.02                              47   -0.1510  126 317 
 ZAR  HN ES       1417 10.12                              47   -0.4610  126 317 
 ZAR  HZ I        1417 12.45        13.1 0.26             47            126 317 
 RUS  HZ EP       1416 57.57                              47    0.06 9  139 128 
 RUS  HN ES       1417 14.94                              47    0.19 9  139 128 
 RUS  HZ I        1417 17.78         9.9 0.20             47            139 128 
 NOR  HZ EP       1416 59.29                              47    0.57 9  150 216 
 NOR  HN ES       1417 15.55                              47   -1.35 9  150 216 
 NOR  HZ I        1417 19.93         4.7 0.36             47            150 216 
 PAM  EZ EP       1417  2.57                              47    0.36 9  170  64 
 PAM  EN ES       1417 22.58                              47   -0.53 9  170  64 
 PAM  EZ I        1417 25.30        12.4 0.18             47            170  64 
 GUY2CHZ EP       1417  8.63                              37    0.72 8  213 222 
 GUY2CHN ES       1417 33.32                              37    0.06 8  213 222 
 GUY2CHZ I        1417 37.90         3.3 0.60                           213 222 
 ELA  HZ EP       1417 12.22                              37    0.03 8  247 217 
 ELA  HN ES       1417 41.39                              37    0.52 8  247 217 
 ELA  HZ I        1417 47.40         3.9 0.22             37            247 217 
                                                                                
