 2013 1228 1221 12.9 L   6.801 -73.179144.6  RSN  5 0.1 1.6LRSN                1
 GAP=198        0.35       2.9     2.6  4.8  0.3324E+01  0.2998E+01 -0.5071E+01E
 Epicentro: LOS SANTOS - SANTANDER                                             3
 ACTION:UPD 14-01-13 10:21 OP:ep   STATUS:               ID:20131228122112 L   I
 OLDACT:REG 13-12-28 14:31 OP:jn   STATUS:               ID:20131228122000     3
 2013-12-28-1220-00M.COL___285                                                 6
 STAT SP IPHASW D HRMM SECON CODA AMPLIT PERI AZIMU VELO AIN AR TRES W  DIS CAZ7
 BAR2 SZ EP       1221 32.39                             171   -0.0110 23.0 181 
 BAR2 SZ ES       1221 47.57                             171   -0.0310 23.0 181 
 BAR2 SZ I        1221 48.64        11.9 0.20            170           23.0 181 
 RUS  HN ES       1221 55.12                             143    0.0810  101 174 
 PTB  HZ EP   2   1221 39.35                             132   -0.11 5  144 259 
 PTB  HN ES       1222  0.03                             132   -0.14 9  144 259 
 PTB  HZ I        1222  2.19         4.2 0.16            133            144 259 
 ZAR  HN ES       1222 10.07                             123    0.17 9  201 293 
 SML  HE ES   2   1222 17.58                             117   -0.11 4  242 336 
                                                                                
