 2011  728 1331 25.6 L   6.780 -73.151142.0  RSN  9 0.3 2.4LRSN                1
 GAP=137        0.59       2.9     4.6  4.8 -0.5107E+01  0.6034E+01  0.3930E+01E
 Epicentro: LOS SANTOS - SANTANDER                                             3
 ACTION:UPD 12-07-25 14:03 OP:epov STATUS:               ID:20110728133125 L   I
 2011-07-28-1329-21S.COL___137                                                 6
 STAT SP IPHASW D HRMM SECON CODA AMPLIT PERI AZIMU VELO AIN AR TRES W  DIS CAZ7
 BAR2 SZ EP       1331 44.72                             171   -0.0110 21.0 189 
 BAR2 SZ ES   1   1331 59.45                             171   -0.20 7 21.0 189 
 BAR2 SZ I        1332  1.53        52.0 0.19                          21.0 189 
 BRR  HZ EP       1331 46.66                             152    0.2910 71.8 300 
 BRR  HN ES   1   1332  2.50                             152   -0.08 7 71.8 300 
 BRR  HZ I        1332  7.64        35.5 0.17                          71.8 300 
 PAM  SN ES   1   1332  4.63                             149   -0.03 7 79.5  39 
 RUS  HZ EP   1   1331 48.62                             144   -0.20 7 98.4 176 
 RUS  HN ES   1   1332  7.32                             144    0.39 7 98.4 176 
 RUS  HZ I        1332  8.56        32.5 0.16                          98.4 176 
 BRI  SZ EP   1   1331 49.19                             140   -0.12 7  111  21 
 BRI  SZ ES   1   1332  7.81                             140    0.00 7  111  21 
 BRI  SZ I        1332  9.98        22.7 0.35                           111  21 
 CHI  HZ EP   1   1332  2.54                             117   -0.29 6  246 195 
 CHI  HE ES   1   1332 31.65                             117   -0.23 6  246 195 
 CHI  HZ I        1332 38.09        16.7 0.50                           246 195 
 RREF HN ES       1332 46.65                             110   -0.40 7  320 230 
 RREF HZ I        1332 54.43        24.0 0.21                           320 230 
 TOL  SZ EP   1   1332 14.11                             109    0.64 5  341 225 
 PRA  HZ EP   1   1332 18.20                             106   -0.52 4  390 210 
 PRA  HN ES   1   1333  1.07                             106    0.91 4  390 210 
                                                                                
