 2010  228 1130 16.6 L   6.836 -73.063142.0  RSN  6 0.3 1.8LRSN                1
 GAP=192        0.55       2.8     8.8  6.0  0.3311E+01 -0.5947E+01  0.1094E+01E
 Epicentro: LOS SANTOS - SANTANDER                                             3
 ACTION:UP  10-08-24 09:51 OP:vdl  STATUS:               ID:20100228113016 L   I
 2010-02-28-1127-52S.COL___093                                                 6
 STAT SP IPHASW D HRMM SECON CODA AMPLIT PERI AZIMU VELO SNR AR TRES W  DIS CAZ7
 BAR2 SZ IP       1130 35.99                             167     0.010   30 206 
 BAR2 SZ ES   2   1130 50.92                             167    -0.1 5   30 206 
 BRR  HZ EP       1130 37.75                             149     0.010   78 293 
 BRR  HN ES   2   1130 54.76                             149     0.5 5   78 293 
 BRR  HZ I        1130 58.83        23.1 0.14                            78 293 
 RUS  BZ EP       1130 40.43                             142     0.110  104 181 
 RUS  BN ES   2   1130 58.43                             142    -0.3 5  104 181 
 OCA  SZ EP       1130 44.43                             129     0.0 9  158 350 
 OCA  SZ ES   2   1131  5.36                             129    -0.7 5  158 350 
 CHI  HZ EP       1130 54.95                             115     0.1 8  255 197 
 CHI  HN ES   2   1131 24.24                             115    -0.4 4  255 197 
 CHI  HZ I        1131 28.31         1.7 0.06                           255 197 
 PRA  HN ES   2   1131 52.47                             105    -0.9 3  400 210 
 PRA  HZ I        1131 55.13         2.8 0.24                           400 210 
                                                                                
