 2015  628 1738 41.6 L   6.862 -73.009142.0  RSN  4 0.4 1.7LRSN                1
 GAP=241        1.04       9.3    10.4  9.5  0.4389E+02 -0.1076E+02 -0.4890E+02E
 Epicentro: CEPITA - SANTANDER                                                 3
 ACTION:UPD 15-09-10 22:15 OP:cam  STATUS:               ID:20150628173841 L   I
 OLDACT:UP  15-06-28 23:44 OP:mh   STATUS:               ID:20150628172750d    3
 OLDACT:UP  15-06-28 23:44 OP:mh   STATUS:               ID:20150628172750d    3
 OLDACT:UP  15-06-28 23:43 OP:mh   STATUS:               ID:20150628172750d    3
 OLDACT:DUP 15-06-28 23:35 OP:mh   STATUS:               ID:20150628172750d    3
 OLDACT:UP  15-06-28 23:33 OP:mh   STATUS:               ID:20150628172749     3
 OLDACT:UP  15-06-28 23:33 OP:mh   STATUS:               ID:20150628172749     3
 OLDACT:UP  15-06-28 23:28 OP:mh   STATUS:               ID:20150628172749     3
 OLDACT:UP  15-06-28 23:28 OP:mh   STATUS:               ID:20150628172749     3
 OLDACT:REG 15-06-28 20:05 OP:mh   STATUS:               ID:20150628172749     3
 2015-06-28-1727-49M.COL___316                                                 6
 STAT SP IPHASW D HRMM SECON CODA AMPLIT PERI AZIMU VELO AIN AR TRES W  DIS CAZ7
 BAR2 EZ EP   1   1739  1.21                             165    0.07 7 35.5 213 
 BAR2 EZ ES       1739 15.92                             165   -0.4210 35.5 213 
 BAR2 EZ I        1739 17.92         8.9 0.16            156           35.5 213 
 BRR  HZ EP       1739  3.04                             148   -0.0310 82.3 289 
 BRR  HN ES       1739 20.51                             148    0.7310 82.3 289 
 BRR  HZ I        1739 34.59        16.5 0.32            140           82.3 289 
 ZAR  HZ EP       1739 15.57                             120    0.48 8  216 289 
 ZAR  HN ES       1739 40.49                             120   -0.68 8  216 289 
 ZAR  HZ I        1739 52.19         3.0 0.26            120            216 289 
 SML  HZ EP       1739 18.05                             117   -0.09 8  244 331 
 SML  HN ES       1739 46.39                             117   -0.21 8  244 331 
 SML  HZ I        1739 51.91         5.2 0.75            118            244 331 
                                                                                
