 2015  528 1904 17.4 L   6.863 -73.152140.7  RSN 16 0.6 2.3LRSN                1
 GAP= 69        1.21       3.5     4.0  5.9 -0.1208E+01  0.6611E+01  0.4310E+01E
 Epicentro: LOS SANTOS - SANTANDER                                             3
 ACTION:UPD 15-09-10 22:07 OP:cam  STATUS:               ID:20150528190417 L   I
 OLDACT:REG 15-05-28 22:23 OP:ar   STATUS:               ID:20150528185750     3
 2015-05-28-1857-50M.COL___315                                                 6
 STAT SP IPHASW D HRMM SECON CODA AMPLIT PERI AZIMU VELO AIN AR TRES W  DIS CAZ7
 BAR2 EZ EP       19 4 36.47                             167   -0.1310 30.1 186 
 BAR2 EZ ES       19 4 51.62                             167    0.0610 30.1 186 
 BAR2 EZ I        19 4 52.48        38.2 0.18            164           30.1 186 
 BRR  HZ EP       19 4 37.98                             153    0.1710 67.6 294 
 BRR  HN ES       19 4 54.06                             153    0.3410 67.6 294 
 BRR  HZ I        19 4 58.91        31.1 0.40            147           67.6 294 
 PAM  SZ EP       19 4 39.01                             151    0.2010 72.6  43 
 PAM  SN ES       19 4 55.54                             151    0.0410 72.6  43 
 PAM  SZ I        19 4 57.70        41.5 0.34            153           72.6  43 
 RUS  HZ EP       19 4 41.25                             141    0.0610  108 176 
 RUS  HN ES       19 4 59.58                             141   -0.1710  108 176 
 RUS  HZ I        19 5  1.07        19.4 0.42            138            108 176 
 TAM  HZ IP     C 19 4 45.01                             129    0.08 9  158 107 
 TAM  HZ I        19 4 45.21        61.3 0.42            129            158 107 
 SPBC HZ EP       19 4 46.22                             127    0.20 9  168 217 
 SPBC HE ES       19 5  8.79                             127    0.46 9  168 217 
 SPBC HZ I        19 5 14.13        23.6 0.26            123            168 217 
 ZAR  HZ EP       19 4 49.07                             122   -0.14 9  201 290 
 ZAR  HE ES       19 5 13.64                             122   -0.37 9  201 290 
 ZAR  HZ I        19 5 21.00        31.9 0.24            118            201 290 
 SML  HZ EP   1   19 4 51.71                             117   -1.33 6  237 335 
 SML  HN ES   1   19 5 19.93                             117   -0.91 6  237 335 
 NOR  HZ EP       19 4 53.03                             117   -0.21 8  238 233 
 NOR  HN ES       19 5 20.91                             117   -0.28 8  238 233 
 NOR  HZ I        19 5 25.87        15.4 0.14            114            238 233 
 CHI  HZ EP       19 4 55.60                             115    0.05 8  255 195 
 CHI  HN ES       19 5 24.03                             115   -1.27 8  255 195 
 CHI  HZ I        19 5 32.88         8.2 0.40            113            255 195 
 HEL  HZ EP       19 4 58.67                             114    1.17 8  273 254 
 HEL  HN ES       19 5 28.35                             114   -0.42 8  273 254 
 HEL  HZ I        19 5 35.58        13.7 0.34            111            273 254 
 GUY2CHZ EP       19 5  1.63                             111    0.44 7  305 234 
 GUY2CHE ES       19 5 36.35                             111    1.01 7  305 234 
 GUY2CHZ I        19 5 46.32        11.3 0.68                           305 234 
 CBOC HZ EP   1   19 5  5.22                             109    0.92 5  335 251 
 CBOC HZ I        19 5 51.32         5.2 0.54            106            335 251 
 MON  HZ EP   9   19 5  3.14                             108   -2.52 0  349 308 
 MON  HN ES       19 5 39.94                                   -0.84 6  349 308 
 MON  HZ I        19 5 44.65         3.6 0.44            106            349 308 
 PRA  HZ EP       19 5 11.60                             105    0.17 6  398 209 
 PRA  HE ES       19 5 51.84                             105   -1.73 6  398 209 
 PRA  HZ I        19 5 59.94        11.9 0.26            103            398 209 
 ORTC HZ EP       19 5 12.18                             105    0.40 6  401 216 
 ORTC HN ES       19 5 54.36                             105    0.18 6  401 216 
 ORTC HZ I        19 6  4.51         5.2 0.30            103            401 216 
                                                                                
