 2016  328 1701 12.5 L   6.789 -73.143147.4  RSN  5 0.2 1.3LRSN                1
 GAP=140        0.58       3.3     3.4  4.4 -0.4904E+01  0.4116E+01 -0.7506E+00E
 Epicentro: LOS SANTOS - SANTANDER                                             3
 ACTION:UPD 16-05-13 21:28 OP:cam  STATUS:               ID:20160328170112 L   I
 OLDACT:DUP 16-03-29 00:07 OP:drio STATUS:               ID:20160328165749d    3
 2016-03-28-1657-48M.COL___325                                                 6
 STAT SP IPHASW D HRMM SECON CODA AMPLIT PERI AZIMU VELO AIN AR TRES W  DIS CAZ7
 BAR2 EZ EP       17 1 32.42                             171    0.1010 22.2 191 
 BAR2 EZ ES       17 1 47.58                             171   -0.1810 22.2 191 
 BAR2 EZ I        17 1 48.22         7.2 0.34            171           22.2 191 
 PAM  EZ EP       17 1 35.28                             151    0.3310 78.1  39 
 PAM  EN ES       17 1 52.40                             151   -0.0410 78.1  39 
 PAM  EZ I        17 1 53.93         4.0 0.16            154           78.1  39 
 RUS  HZ EP       17 1 36.00                             144   -0.3410 99.4 176 
 RUS  HE ES       17 1 55.00                             144    0.0810 99.4 176 
 RUS  HZ I        17 1 58.32         2.4 0.34            146           99.4 176 
 PTB  HZ EP       17 1 39.36                             132   -0.26 9  148 259 
 PTB  HE ES       17 2  0.77                             132    0.01 9  148 259 
 PTB  HZ I        17 2  5.04         2.1 0.14            133            148 259 
 SPBC HZ EP       17 1 41.10                             129    0.03 9  162 219 
 SPBC HN ES       17 2  3.62                             129    0.28 9  162 219 
                                                                                
