 2017 1228 1407 43.6 L   6.904 -73.336125.1  RSN 20 0.7 2.8LRSN                1
 GAP= 57        1.09       2.8     2.9  6.6 -0.6938E+00  0.5124E+01 -0.9725E+00E
 Epicentro: BETULIA - SANTANDER                                                3
 ACTION:UPD 18-01-04 13:25 OP:rebc STATUS:               ID:20171228140743 L   I
 OLDACT:UP  17-12-29 00:05 OP:mg   STATUS:               ID:20171228135745d    3
 OLDACT:DUP 17-12-28 23:55 OP:mg   STATUS:               ID:20171228135745d    3
 2017-12-28-1358-00M.COL___435                                                 6
 STAT SP IPHASW D HRMM SECON CODA AMPLIT PERI AZIMU VELO AIN AR TRES W  DIS CAZ7
 BAR2 EZ IP     D 14 8  1.23                             162    0.0310 38.4 154 
 BAR2 HE ES   2   14 8 14.40                             162   -0.53 5 38.4 154 
 PAM  EZ EP       14 8  4.33                             144    0.1410 85.2  56 
 PAM  EN ES       14 8 21.03                             144    0.7710 85.2  56 
 PAM  EZ I        14 8 24.73        95.4 0.42            141           85.2  56 
 PTB  HZ IP     C 14 8  6.49                             131   -0.7910  130 252 
 PTB  HN ES   1   14 8 25.23                             131   -0.54 7  130 252 
 PTB  HZ I        14 8 28.55       105.8 0.28            125            130 252 
 OCA  HZ EP       14 8  9.53                             127    0.41 9  148   1 
 OCA  HN ES       14 8 29.18                             127    0.14 9  148   1 
 SPBC HZ EP       14 8 10.39                             124    0.06 9  161 211 
 SPBC HN ES       14 8 30.25                             124   -0.93 9  161 211 
 SPBC HZ I        14 8 33.41        98.6 0.18            120            161 211 
 TAM  HZ EP       14 8 12.14                             121    0.04 9  178 107 
 TAM  HN ES   1   14 8 34.07                             121   -0.26 7  178 107 
 TAM  HZ I        14 8 34.53        56.9 0.20            118            178 107 
 ZAR  HZ EP       14 8 12.83                             121    0.59 9  180 291 
 ZAR  HN ES   1   14 8 35.16                             121    0.58 7  180 291 
 ZAR  HZ I        14 8 38.94        87.5 0.13            116            180 291 
 YPLC HZ EP       14 8 14.14                             118   -0.01 9  197 148 
 YPLC HE ES       14 8 37.84                             118   -0.14 9  197 148 
 YPLC HZ I        14 8 40.05        71.2 0.20            115            197 148 
 ROSC BN ES   4   14 8 54.54                             112    4.92 0  253 206 
 URE  HZ EP       14 8 20.51                             111   -0.50 8  260 291 
 URE  HN ES   1   14 8 49.29                             111   -0.91 6  260 291 
 URE  HZ I        14 8 51.26        74.8 0.18            107            260 291 
 GUY2CHZ EP       14 8 25.92                             109    0.72 7  291 231 
 GUY2CHN ES   4   14 8 54.57                             109   -3.08 0  291 231 
 GUY2CHZ I        14 9  4.89        33.3 0.43                           291 231 
 DRL02HZ EP   1   14 8 26.90                             107   -0.22 5  313   1 
 DRL02HN ES   2   14 9  1.54                             107    0.46 3  313   1 
 CBOC HZ EP       14 8 29.02                             107    1.16 7  318 249 
 DBB  EZ EP   1   14 8 28.17                             107    0.40 5  318 272 
 DBB  EZ I        14 9  9.09        18.3 0.22            103            318 272 
 CBOC HN ES   1   14 9  2.30                             107   -0.08 5  318 249 
 DBB  EN ES   1   14 9  2.11                             107   -0.11 5  318 272 
 CBOC HZ I        14 9  5.90        18.6 0.24            103            318 249 
 PTGC HN ES   4   14 8 59.93                             106   -4.12 0  327 156 
 PTGC HZ I        14 9  7.67        22.4 0.23            103            327 156 
 SDV  BZ EP       14 8 33.97                             104   -0.07 6  370  54 
 SDV  B1 ES   2   14 9 11.96                             104   -1.43 3  370  54 
 SDV  BZ I        14 9 14.91        20.1 0.39            101            370  54 
 SJC  HZ EP       14 8 35.36                             103   -0.69 6  388 329 
 SJC  HN ES   3   14 9 14.80                             103   -2.17 1  388 329 
 SJC  HZ I        14 9 17.92        15.4 0.44             99            388 329 
 ORTC HZ EP   2   14 8 38.48                             103    1.89 3  393 213 
 ORTC HN ES   2   14 9 19.77                             103    1.84 3  393 213 
 ORTC HZ I        14 9 28.23         8.0 0.23             99            393 213 
 PAL  HZ EP   1   14 8 37.09                             103    0.34 4  394 236 
 PAL  HN ES   2   14 9 16.90                             103   -1.32 3  394 236 
 PAL  HZ I        14 9 22.57        14.7 0.38             99            394 236 
 VALLCHZ EP   1   14 8 36.21                             102   -1.04 4  399   1 
 VALLCHE ES   1   14 9 18.87                             102   -0.23 4  399   1 
 CRJC HZ EP   2   14 8 45.45                             100    1.03 2  458   6 
 CRJC HE ES   1   14 9 31.05                             100   -0.81 4  458   6 
 CRJC HZ I        14 9 43.24        19.5 0.18             97            458   6 
                                                                                
