 2011  228 1444 19.6 L   6.762 -73.229139.1  RSN  4 0.4 1.5LRSN                1
 GAP=187        0.72       8.9    35.3  8.7 -0.2785E+03  0.1094E+03 -0.2823E+02E
 Epicentro: ZAPATOCA - SANTANDER                                               3
 ACTION:UP  11-03-28 15:11 OP:jfem STATUS:               ID:20110228144419 L   I
 2011-02-28-1440-51S.COL___135                                                 6
 STAT SP IPHASW D HRMM SECON CODA AMPLIT PERI AZIMU VELO SNR AR TRES W  DIS CAZ7
 BAR2 SZ EP   1   1444 38.36                             172     0.0 8   19 165 
 BAR2 SZ ES   1   1444 53.03                             172     0.1 8   19 165 
 BAR2 SZ I        1444 54.56        13.0 0.30                            19 165 
 RUS  HZ EP   2   1444 41.75                             143    -0.7 5   97 170 
 RUS  HZ I        1444 43.71         3.3 0.23                            97 170 
 RUS  HE ES   2   1445  0.65                             143     0.3 5   97 170 
 GRA  SZ EP       1444 45.18                             134     0.310  133  21 
 GRA  SZ ES   1   1445  4.17                             134    -0.4 7  133  21 
 GRA  SZ I        1445  5.98         5.4 0.36                           133  21 
 CHI  HZ EP   2   1444 56.48                             116     0.2 4  242 193 
 CHI  HE ES   2   1445 24.42                             116    -0.4 4  242 193 
 CHI  HZ I        1445 30.20         1.9 0.58                           242 193 
                                                                                
