 2010 1028 1400 23.5 L   6.796 -73.117151.3  RSN  7 0.3 1.8LRSN                1
 GAP=162        0.60       3.4     6.1  5.2 -0.9622E+01 -0.3907E+01  0.1420E+01E
 Epicentro: LOS SANTOS - SANTANDER                                             3
 ACTION:UP  11-02-18 11:12 OP:tino STATUS:               ID:20101028140023 L   I
 2010-10-28-1356-45S.COL___127                                                 6
 STAT SP IPHASW D HRMM SECON CODA AMPLIT PERI AZIMU VELO SNR AR TRES W  DIS CAZ7
 BAR2 SZ EP   2   14 0 43.72                             171    -0.1 5   24 198 
 BAR2 SZ ES   1   14 0 59.70                             171     0.0 7   24 198 
 BAR2 SZ I        14 1  1.55        15.1 0.31                            24 198 
 BRR  HZ IP     C 14 0 45.45                             152     0.010   74 298 
 BRR  HZ I        14 0 45.72        31.3 0.17                            74 298 
 BRR  HN ES   1   14 1  2.99                             152     0.5 7   74 298 
 RUS  HZ EP   2   14 0 47.76                             145     0.0 5  100 178 
 RUS  HN ES   2   14 1  6.42                             145    -0.3 5  100 178 
 RUS  HZ I        14 1  7.42         4.3 0.28                           100 178 
 GUE  SZ EP       14 0 48.60                             141    -0.110  116  11 
 GRA  SZ IP       14 0 49.37                             138     0.210  125  16 
 GRA  SZ ES   1   14 1  8.91                             138    -0.3 7  125  16 
 GRA  SZ I        14 1 11.29         8.2 0.37                           125  16 
 NOR  SZ EP   2   14 0 59.86                             119     0.0 4  237 235 
 NOR  SN ES   2   14 1 27.19                             119    -1.0 4  237 235 
 CHI  HZ EP   1   14 1  1.75                             118     0.2 6  249 196 
 CHI  HZ I        14 1  4.24         3.6 0.38                           249 196 
 CHI  HE ES   2   14 1 31.49                             118     0.2 4  249 196 
                                                                                
