 2013  128 1614 19.8 L   6.738 -73.155145.3  RSN  5 0.2 1.7LRSN                1
 GAP=232        0.56       5.5     8.8  4.9  0.3721E+02  0.1220E+02  0.8724E+01E
 Epicentro: JORDAN - SANTANDER                                                 3
 ACTION:UPD 13-02-15 09:17 OP:ep   STATUS:               ID:20130128161419 L   I
 2013-01-28-1610-00M.COL___241                                                 6
 STAT SP IPHASW D HRMM SECON CODA AMPLIT PERI AZIMU VELO AIN AR TRES W  DIS CAZ7
 BAR2 SZ EP   1   1614 38.95                             173   -0.27 7 16.4 191 
 BAR2 SZ ES   2   1614 54.18                             173   -0.22 5 16.4 191 
 BAR2 SZ I        1614 54.97        13.3 0.17            131           16.4 191 
 BRR  HZ EP       1614 41.20                             152    0.1810 73.9 304 
 BRR  HZ I        1614 47.30         7.9 0.18            118           73.9 304 
 BRR  HN ES       1614 57.74                             152    0.1410 73.9 304 
 RUS  HZ EP       1614 43.00                             146    0.0010 93.8 175 
 RUS  HN ES       1615  1.09                             146   -0.0310 93.8 175 
 RUS  HN I        1615  2.89        11.6 0.34            119           93.8 175 
 PTB  HZ EP       1614 46.14                             132   -0.36 9  146 261 
 PTB  HZ I        1615  8.98         4.0 0.16            107            146 261 
 CHI  HZ EP       1614 57.04                             118    0.35 8  242 195 
                                                                                
