 2016  828 1242 29.3 L   7.369 -73.123  7.5  RSN  8 0.5 1.9LRSN                1
 GAP=107        1.28       2.5     3.1  7.3 -0.2271E+00  0.1219E+02 -0.7333E+00E
 Epicentro: RIONEGRO - SANTANDER                                               3
 ACTION:UPD 16-10-29 15:40 OP:rebc STATUS:               ID:20160828124229 L   I
 OLDACT:UP  16-08-28 23:59 OP:ar   STATUS:               ID:20160828123735     3
 OLDACT:REG 16-08-28 21:17 OP:ar   STATUS:               ID:20160828123735     3
 2016-08-28-1238-00M.COL___368                                                 6
 STAT SP IPHASW D HRMM SECON CODA AMPLIT PERI AZIMU VELO AIN AR TRES W  DIS CAZ7
 PAM  EZ IP     D 1242 37.87                              95    0.3410 46.8  94 
 PAM  HN ES       1242 44.19                              95    0.2510 46.8  94 
 PAM  EZ I        1242 44.96        91.1 0.17                          46.8  94 
 BRR  HZ EP       1242 41.12                              93    0.4110 71.2 246 
 BRR  HN ES       1242 50.06                              93    0.4610 71.2 246 
 BRR  HZ I        1242 50.49        25.6 0.12                          71.2 246 
 BAR2 EZ EP       1242 43.36                              92    0.1410 86.2 184 
 BAR2 EZ ES       1242 53.35                              92   -0.7110 86.2 184 
 BAR2 EZ I        1242 54.80        25.7 0.18                          86.2 184 
 OCA  HZ EP       1242 44.62                              92   -0.3910 98.6 347 
 OCA  HE ES       1242 56.62                              92   -0.6310 98.6 347 
 OCA  HZ I        1243  0.04        44.4 0.32                          98.6 347 
 RUS  HZ EP       1242 55.91                              91    0.74 9  163 178 
 RUS  HN ES       1243 14.42                              91   -0.91 9  163 178 
 RUS  HZ I        1243 16.32         7.7 0.30                           163 178 
 PTB  HZ EP       1242 56.22                              56    0.24 9  174 238 
 PTB  HE ES       1243 16.42                              56   -0.37 9  174 238 
 PTB  HZ I        1243 17.82        19.6 0.46                           174 238 
 ZAR  HZ EP       1242 58.76                              56    0.48 9  192 274 
 ZAR  HN ES       1243 20.89                              56    0.01 9  192 274 
 ZAR  HZ I        1243 22.39        21.8 0.30                           192 274 
 SPBC HZ EP   4   1243  4.18                              56    2.68 0  217 209 
 SPBC HN ES   4   1243 29.94                              56    3.33 0  217 209 
 SPBC HZ I        1243 32.24        11.4 0.32                           217 209 
                                                                                
