 2010  928 1344 47.3 L   6.766 -73.102148.0  RSN  5 0.2 1.8LRSN                1
 GAP=169        0.57       6.8    10.9  9.1  0.3854E+02 -0.5516E+02 -0.3047E+02E
 Epicentro: LOS SANTOS - SANTANDER                                             3
 ACTION:UP  11-02-18 11:06 OP:tino STATUS:               ID:20100928134447 L   I
 2010-09-28-1342-07S.COL___122                                                 6
 STAT SP IPHASW D HRMM SECON CODA AMPLIT PERI AZIMU VELO SNR AR TRES W  DIS CAZ7
 BAR2 SZ EP   2   1345  6.74                             172    -0.4 5   21 205 
 BAR2 SZ ES   2   1345 22.40                             172    -0.2 5   21 205 
 BAR2 SZ I        1345 23.47        18.2 0.20                            21 205 
 BTL  SZ EP       1345  7.52                             170     0.310   25 313 
 BRR  HZ IP     C 1345  8.78                             151    -0.210   77 299 
 BRR  HZ I        1345  9.13        14.4 0.11                            77 299 
 BRR  HE ES   1   1345 26.14                             151     0.2 7   77 299 
 RUS  HZ EP   2   1345 11.02                             146     0.1 5   97 179 
 RUS  HE ES   2   1345 29.50                             146     0.1 5   97 179 
 RUS  HZ I        1345 30.69         5.7 0.16                            97 179 
 GUE  SZ EP   1   1345 12.35                             139    -0.1 7  119   9 
                                                                                
