 2013  928 1535  7.8 L   6.430 -73.438127.1  RSN 10 0.4 1.8LRSN                1
 GAP= 89        0.90       3.3     3.8  6.5 -0.1177E+01  0.9895E+01 -0.5286E+01E
 Epicentro: SIMACOTA - SANTANDER                                               3
 ACTION:UPD 13-10-22 09:25 OP:ep   STATUS:               ID:20130928153507 L   I
 OLDACT:REG 13-09-28 15:55 OP:jn   STATUS:               ID:20130928152959     3
 2013-09-28-1529-59M.COL___272                                                 6
 STAT SP IPHASW D HRMM SECON CODA AMPLIT PERI AZIMU VELO AIN AR TRES W  DIS CAZ7
 BAR2 SZ EP       1535 25.60                             164    0.1410 33.4  58 
 BAR2 SZ ES       1535 39.23                             164   -0.0110 33.4  58 
 BAR2 SZ I        1535 40.55        26.7 0.44            169           33.4  58 
 RUS  HZ EP       1535 27.83                             149    0.1710 71.2 147 
 RUS  HN ES       1535 43.08                             149   -0.0810 71.2 147 
 RUS  HZ I        1535 44.40         6.9 0.26            152           71.2 147 
 BRR  HZ EP       1535 27.71                             145    0.1310 80.8 338 
 BRR  HN ES       1535 43.07                             145    0.0410 80.8 338 
 SPBC HN ES   1   1535 47.41                             136   -0.01 7  111 219 
 SPBC HZ I        1535 53.72         9.1 0.22            136            111 219 
 PTB  HZ EP       1535 29.26                             135   -0.8810  113 276 
 PTB  HN ES   1   1535 47.14                             135   -0.44 7  113 276 
 PTB  HZ I        1535 49.10        13.3 0.34            134            113 276 
 NOR  HE ES       1536  0.73                             121    0.69 9  185 239 
 NOR  HZ I        1536  5.26         6.0 0.12            121            185 239 
 ZAR  HZ EP       1535 38.16                             119   -0.07 9  196 307 
 ZAR  HN ES   1   1536  2.41                             119    0.44 6  196 307 
 ZAR  HZ I        1536  7.48        13.1 0.36            119            196 307 
 OCA  HN ES   1   1536  2.75                             118   -0.40 6  200   4 
 OCA  HZ I        1536  8.95        11.9 0.18            120            200   4 
 HEL  HE ES   1   1536  9.66                             115   -0.28 6  233 264 
 HEL  HZ I        1536 14.78         3.9 0.30            115            233 264 
 SML  HZ EP   1   1535 46.64                             111    0.08 6  271 345 
 SML  HE ES   1   1536 17.65                             111    0.84 6  271 345 
                                                                                
