 2011 1228 1511 57.8 L   6.756 -73.165150.1  RSN  9 0.5 2.0LRSN                1
 GAP=136        0.77       6.1     5.6  8.4 -0.7732E+01  0.1564E+02 -0.7380E-01E
 Epicentro: LOS SANTOS - SANTANDER                                             3
 ACTION:UPD 12-07-13 16:19 OP:ep   STATUS:               ID:20111228151157 L   I
 2011-12-28-1510-00M.COL___186                                                 6
 STAT SP IPHASW D HRMM SECON CODA AMPLIT PERI AZIMU VELO AIN AR TRES W  DIS CAZ7
 BAR2 SZ EP   1   1512 18.03                             173    0.15 7 18.2 186 
 BAR2 SZ ES   2   1512 33.08                             173   -0.45 5 18.2 186 
 BAR2 SZ I        1512 34.52        30.0 0.24                          18.2 186 
 GIR2 SZ EP   1   1512 18.29                             166    0.15 7 35.9 355 
 BRR  HZ EP   1   1512 20.05                             153    0.57 7 71.9 303 
 BRR  HN ES   2   1512 36.97                             153    0.60 5 71.9 303 
 BRR  HZ I        1512 38.02        26.7 0.21                          71.9 303 
 PAM  SZ EP   1   1512 20.92                             150    0.12 7 82.5  38 
 PAM  SZ I        1512 21.35         8.1 0.19                          82.5  38 
 PAM  SN ES   2   1512 38.03                             150   -0.70 5 82.5  38 
 RUS  HZ EP   2   1512 20.86                             146   -0.81 5 95.9 175 
 RUS  HN ES   2   1512 40.72                             146    0.44 5 95.9 175 
 RUS  HZ I        1512 41.78        10.3 0.26                          95.9 175 
 PTB  HZ EP   1   1512 24.70                             134   -0.18 7  145 261 
 PTB  HN ES   2   1512 45.19                             134   -0.80 5  145 261 
 ZAR  HZ EP   1   1512 29.86                             123   -0.69 6  204 294 
 ZAR  HN ES   2   1512 56.35                             123    0.28 4  204 294 
 ZAR  HZ I        1513  3.16        11.9 0.25                           204 294 
 NOR  SZ EP   1   1512 33.78                             120    0.46 6  230 235 
 NOR  SE ES   2   1513  1.53                             120    0.52 4  230 235 
 RREF HE ES   2   1513 18.60                             112   -0.73 3  317 230 
                                                                                
