 2011 1128 1431 46.7 L   6.733 -73.069147.7  RSN  4 0.2 1.7LRSN                1
 GAP=150        0.43       4.1     5.4  5.7 -0.4052E+01  0.6529E+01 -0.5075E+00E
 Epicentro: JORDAN - SANTANDER                                                 3
 ACTION:UPD 12-07-13 16:12 OP:ep   STATUS:               ID:20111128143146 L   I
 2011-11-28-1428-29S.COL___160                                                 6
 STAT SP IPHASW D HRMM SECON CODA AMPLIT PERI AZIMU VELO AIN AR TRES W  DIS CAZ7
 BAR2 SZ EP   2   1432  6.44                             172   -0.09 5 20.0 219 
 BAR2 SZ ES   2   1432 22.19                             172    0.21 5 20.0 219 
 BAR2 SZ I        1432 25.21         7.2 0.75                          20.0 219 
 PAM  SZ EP   1   1432  9.59                             151    0.37 7 78.5  31 
 PAM  SE ES   1   1432 26.51                             151   -0.25 7 78.5  31 
 BRR  HZ EP       1432  8.65                             149   -0.0910 82.2 300 
 BRR  HN ES   2   1432 26.03                             149    0.13 5 82.2 300 
 BRR  HN I        1432 27.07        34.4 0.21                          82.2 300 
 RUS  HZ EP   2   1432  9.96                             146   -0.19 5 93.0 181 
 RUS  HE ES   2   1432 28.44                             146    0.03 5 93.0 181 
 RUS  HZ I        1432 30.32         2.7 0.30                          93.0 181 
                                                                                
