 2014  128 1450 43.0 L   6.720 -73.150143.3  RSN  5 0.4 1.8LRSN                1
 GAP=158        0.95       9.6     5.8  7.7 -0.2753E+02  0.3595E+01  0.7344E+01E
 Epicentro: VILLANUEVA - SANTANDER                                             3
 ACTION:UPD 14-03-13 09:59 OP:ep   STATUS:               ID:20140128145043 L   I
 OLDACT:REG 14-01-28 17:15 OP:fm   STATUS:               ID:20140128145000     3
 2014-01-28-1450-00M.COL___285                                                 6
 STAT SP IPHASW D HRMM SECON CODA AMPLIT PERI AZIMU VELO AIN AR TRES W  DIS CAZ7
 BAR2 SZ EP       1451  2.13                             174   -0.0110 14.6 194 
 BAR2 SZ ES       1451 17.30                             174    0.2010 14.6 194 
 BAR2 SZ I        1451 19.99        28.1 0.28            173           14.6 194 
 BRR  HZ EP       1451  4.54                             151    0.4610 75.4 305 
 BRR  HZ I        1451 18.27        19.1 0.42            143           75.4 305 
 BRR  HN ES       1451 20.85                             151    0.2910 75.4 305 
 PAM  SZ IP     C 1451  5.65                             148    0.2910 84.7  36 
 PAM  SN ES       1451 22.24                             148   -0.6010 84.7  36 
 PAM  SZ I        1451 27.11         5.1 0.56            144           84.7  36 
 PTB  HZ EP       1451  9.12                             132   -0.42 9  146 262 
 PTB  HN ES       1451 29.97                             132   -0.31 9  146 262 
 PTB  HZ I        1451 37.70         7.0 0.18            127            146 262 
 GUY2CHZ EP   4   1451 28.98                             112    3.14 0  296 236 
 GUY2CHN ES   4   1452  1.59                             112    2.31 0  296 236 
 GUY2CHZ I        1452  9.23         3.6 0.38                           296 236 
                                                                                
