 2015  928 1254 24.0 L   6.760 -73.702 98.6  RSN 10 0.5 1.9LRSN                1
 GAP=110        1.02       3.3     3.9  6.8  0.3082E+01  0.7879E+01  0.6586E+00E
 Epicentro: EL CARMEN - SANTANDER                                              3
 ACTION:UPD 15-10-28 16:28 OP:cam  STATUS:               ID:20150928125424 L   I
 OLDACT:REG 15-09-28 21:36 OP:ar   STATUS:               ID:20150928124748     3
 2015-09-28-1247-48M.COL___352                                                 6
 STAT SP IPHASW D HRMM SECON CODA AMPLIT PERI AZIMU VELO AIN AR TRES W  DIS CAZ7
 BRR  HZ EP       1254 38.03                             157   -0.2110 38.4 358 
 BRR  HN ES       1254 49.65                             157    0.3110 38.4 358 
 BRR  HZ I        1254 50.45        36.6 0.14            156           38.4 358 
 BAR2 EZ EP       1254 39.72                             146   -0.1510 60.4 108 
 BAR2 EZ ES       1254 52.50                             146    0.2510 60.4 108 
 BAR2 EZ I        1254 53.81        24.7 0.20            147           60.4 108 
 PTB  HZ IP     C 1254 41.26                             136   -0.3710 86.9 254 
 PTB  HN ES       1254 54.78                             136   -0.5910 86.9 254 
 PTB  HZ I        1254 55.91        19.7 0.12            134           86.9 254 
 RUS  HZ EP   2   1254 45.77                             127    0.62 5  118 144 
 RUS  HN ES       1255  1.33                             127   -0.3210  118 144 
 RUS  HZ I        1255  3.66        15.8 0.30            127            118 144 
 ZAR  HZ EP       1254 48.73                             119    0.75 9  151 302 
 ZAR  HE ES   2   1255  7.49                             119    0.81 5  151 302 
 ZAR  HZ I        1255 10.36        18.8 0.44            118            151 302 
 NOR  HN ES   2   1255 14.27                             114    0.84 4  185 224 
 NOR  HZ I        1255 18.42         9.4 0.12            113            185 224 
 SML  HZ EP       1254 56.11                             109   -0.70 8  229 350 
 SML  HN ES   1   1255 22.85                             109    0.46 6  229 350 
 SML  HZ I        1255 26.62        14.4 0.10            108            229 350 
 URE  HN ES   2   1255 22.27                             109   -0.30 4  230 299 
 URE  HZ I        1255 24.42         6.1 0.12            108            230 299 
 CHI  HZ EP   4   1255  0.12                             109    2.05 0  236 181 
 CHI  HN ES       1255 24.84                             109    0.21 8  236 181 
 GUY2CHN ES   2   1255 28.77                             107    0.90 4  250 227 
 GUY2CHZ I        1255 42.16         3.6 0.40                           250 227 
                                                                                
