 2017  428 1317 26.7 L   6.706 -73.188148.0  RSN  4 0.4 1.8LRSN                1
 GAP=225        0.91       7.4     7.5  9.1  0.3689E+02  0.3311E+00 -0.4859E+01E
 Epicentro: VILLANUEVA - SANTANDER                                             3
 ACTION:UPD 17-05-30 21:16 OP:jn   STATUS:               ID:20170428131726 L   I
 OLDACT:UP  17-05-12 14:49 OP:nlst STATUS:               ID:20170428131726 L   3
 OLDACT:UP  17-04-28 23:17 OP:dani STATUS:               ID:20170428130548d    3
 OLDACT:UP  17-04-28 23:16 OP:dani STATUS:               ID:20170428130548d    3
 OLDACT:DUP 17-04-28 23:11 OP:dani STATUS:               ID:20170428130548d    3
 OLDACT:UP  17-04-28 23:10 OP:dani STATUS:               ID:20170428130547     3
 OLDACT:UP  17-04-28 22:54 OP:dani STATUS:               ID:20170428130547     3
 OLDACT:REG 17-04-28 20:18 OP:dani STATUS:               ID:20170428130547     3
 2017-04-28-1308-00M.COL___374                                                 6
 STAT SP IPHASW D HRMM SECON CODA AMPLIT PERI AZIMU VELO AIN AR TRES W  DIS CAZ7
 BRR  HZ EP       1317 48.27                             152    0.0410 72.9 307 
 BRR  HN ES       1318  5.00                             152    0.0110 72.9 307 
 BRR  HZ I        1318  8.66        12.2 0.26            149           72.9 307 
 RUS  HZ EP       1317 50.62                             146    0.5810 90.7 173 
 RUS  HN ES       1318  7.66                             146   -0.5510 90.7 173 
 PTB  HZ EP       1317 53.24                             133   -0.09 9  141 263 
 PTB  HN ES       1318 14.42                             133    0.35 9  141 263 
 PTB  HZ I        1318 19.90         6.1 0.37            132            141 263 
 ZAR  HZ EP   3   1317 57.91                             122   -1.41 2  204 295 
 ZAR  HE ES       1318 24.39                             122   -0.34 9  204 295 
 ZAR  HZ I        1318 29.98         8.2 0.56            123            204 295 
                                                                                
