 2012  928 1242 52.2 L   6.771 -73.141140.0  RSN  8 0.3 2.4LRSN                1
 GAP=139        0.65       3.1     3.6  5.1  0.3991E-01  0.1092E+01  0.3979E+01E
 Epicentro: LOS SANTOS - SANTANDER                                             3
 ACTION:UPD 12-10-22 14:21 OP:ep   STATUS:               ID:20120928124252 L   I
 2012-09-28-1239-47M.COL___199                                                 6
 STAT SP IPHASW D HRMM SECON CODA AMPLIT PERI AZIMU VELO AIN AR TRES W  DIS CAZ7
 BAR2 SZ EP       1243 11.09                             171    0.0210 20.2 193 
 BAR2 SZ ES   1   1243 25.68                             171   -0.12 7 20.2 193 
 BAR2 SZ I        1243 27.28        59.5 0.18                          20.2 193 
 GIR2 SZ EP       1243 11.16                             165   -0.1210 34.6 350 
 GIR2 SZ ES   1   1243 26.24                             165    0.07 7 34.6 350 
 BRR  HZ EP       1243 12.97                             151    0.1210 73.3 301 
 BRR  HN ES   1   1243 29.68                             151    0.72 7 73.3 301 
 BRR  HN I        1243 33.85       171.9 0.20                          73.3 301 
 PAM  SZ EP       1243 13.84                             149   -0.1010 79.6  38 
 PAM  SE ES   1   1243 30.62                             149   -0.28 7 79.6  38 
 PAM  SE I        1243 32.62        28.9 0.50                          79.6  38 
 RUS  HZ EP       1243 15.16                             144    0.0110 97.3 176 
 RUS  HE ES   1   1243 33.25                             144    0.21 7 97.3 176 
 PTB  HN ES   1   1243 38.63                             131   -0.74 7  148 260 
 ZAR  HN ES   1   1243 49.65                             121    0.03 6  206 293 
 ZAR  HN I        1243 54.92        25.7 0.18                           206 293 
 CHI  HZ EP   1   1243 29.70                             116    0.45 6  246 195 
 CHI  HN ES   1   1243 57.94                             116   -0.22 6  246 195 
 CHI  HN I        1244  6.55        10.5 0.32                           246 195 
                                                                                
