 2016  728 1058 29.5 L   6.828 -73.108147.7  RSN 21 0.5 2.6LRSN                1
 GAP= 72        1.18       3.3     3.5  5.3 -0.1831E+01  0.5838E+01 -0.3754E+00E
 Epicentro: LOS SANTOS - SANTANDER                                             3
 ACTION:UPD 17-03-29 16:55 OP:lp   STATUS:               ID:20160728105829 L   I
 OLDACT:UP  16-07-28 22:48 OP:ar   STATUS:               ID:20160728105742     3
 OLDACT:REG 16-07-28 20:29 OP:ar   STATUS:               ID:20160728105742     3
 2016-07-28-1058-00M.COL___356                                                 6
 STAT SP IPHASW D HRMM SECON CODA AMPLIT PERI AZIMU VELO AIN AR TRES W  DIS CAZ7
 BAR2 EZ EP       1058 49.38                             169   -0.1110 27.4 197 
 BAR2 EZ ES       1059  4.56                             169   -0.4910 27.4 197 
 BAR2 EZ I        1059  7.19       109.5 0.35            165           27.4 197 
 PAM  EZ IP     C 1058 52.19                             153    0.5210 72.3  39 
 PAM  EN ES       1059  9.15                             153    0.2210 72.3  39 
 PAM  EZ I        1059  9.93        46.5 0.32            153           72.3  39 
 BRR  HZ EP       1058 51.28                             152    0.2610 73.5 295 
 BRR  HN ES       1059  8.29                             152    0.5010 73.5 295 
 BRR  HZ I        1059  9.54        65.6 0.14            151           73.5 295 
 RUS  HZ EP       1058 53.23                             143   -0.4610  104 178 
 RUS  HN ES       1059 11.53                             143   -1.0010  104 178 
 TAM  HZ EP       1058 57.55                             132    0.47 9  152 107 
 TAM  HZ I        1059 18.58        23.6 0.29            128            152 107 
 TAM  HN ES       1059 19.05                             132    0.49 9  152 107 
 SPBC HZ EP       1058 58.54                             129   -0.12 9  168 219 
 SPBC HN ES       1059 21.49                             129    0.11 9  168 219 
 SPBC HZ I        1059 27.28        62.7 0.22            125            168 219 
 ZAR  HZ EP       1059  3.13                             122    0.74 8  207 291 
 ZAR  HN ES       1059 28.28                             122    0.27 8  207 291 
 ZAR  HZ I        1059 34.58        46.4 0.26            120            207 291 
 NOR  HZ EP       1059  5.79                             118   -0.14 8  240 234 
 NOR  HN ES       1059 33.59                             118   -0.74 8  240 234 
 NOR  HZ I        1059 39.71        50.3 0.18            116            240 234 
 CHI  HZ EP       1059  7.45                             117   -0.34 8  253 196 
 CHI  HN ES       1059 38.32                             117    0.69 8  253 196 
 CHI  HZ I        1059 42.69        22.1 0.26            114            253 196 
 ROSC BZ EP   9   1059  9.75                             117    1.46 0  258 211 
 ROSC BN ES       1059 39.99                             116    0.01 8  258 211 
 ROSC BZ I        1059 45.29        39.7 0.35            114            258 211 
 HEL  HZ EP       1059 10.89                             115    0.51 7  277 255 
 HEL  HN ES   4   1059 45.04                             115    2.80 0  277 255 
 HEL  HZ I        1059 49.33        17.8 0.40            112            277 255 
 URE  HZ EP       1059 10.18                             114   -0.82 7  287 291 
 URE  HN ES   4   1059 39.57                             114   -3.78 0  287 291 
 URE  HZ I        1059 48.43        23.1 0.14            112            287 291 
 GUY2CHZ EP   4   1059 15.39                             112    1.57 0  306 235 
 GUY2CHN ES   4   1059 51.32                             112    2.96 0  306 235 
 GUY2CHZ I        1059 55.92        35.6 0.42                           306 235 
 PTGC HZ EP   4   1059 12.35                             112   -1.29 0  310 160 
 PTGC HN ES   4   1059 45.40                             112   -2.64 0  310 160 
 PTGC HZ I        1059 55.57        15.6 0.34            109            310 160 
 LL6C HZ EP       1059 14.39                             111   -0.59 7  322 357 
 LL6C HN ES       1059 49.27                             111   -1.16 7  322 357 
 LL6C HZ I        1059 52.80         5.9 0.30            109            322 357 
 ELA  HZ EP   9   1059 18.69                             110    1.63 0  334 230 
 ELA  HN ES       1059 56.61                             110    0.85 7  334 230 
 ELA  HZ I        11 0  1.92        16.6 0.60            108            334 230 
 CBOC HZ EP       1059 17.25                             110    0.16 7  339 252 
 CBOC HN ES       1059 54.13                             110   -0.06 7  339 252 
 CBOC HZ I        11 0  6.11         9.0 0.60            108            339 252 
 DBB  EZ EP       1059 17.94                             109    0.40 7  343 274 
 DBB  EZ ES   4   1059 53.19                             109   -1.80 0  343 274 
 DBB  EZ I        1059 57.56         9.3 0.48            108            343 274 
 PRA  HZ EP       1059 23.04                             107   -0.64 6  397 210 
 PRA  HN ES       11 0  6.48                             107    0.57 6  397 210 
 PRA  HZ I        11 0 11.89        24.4 0.38            105            397 210 
 PAL  HZ EP       1059 25.30                             106   -0.07 6  411 239 
 PAL  HN ES       11 0  9.43                             106    0.52 6  411 239 
 PAL  HZ I        11 0 12.34        11.8 0.18            104            411 239 
 CRJC HZ EP   4   1059 29.97                             104   -1.72 0  464   3 
 CRJC HN ES   4   11 0 16.82                             104   -3.35 0  464   3 
 CRJC HZ I        11 0 18.93         9.0 0.54            102            464   3 
                                                                                
