 2014  528 1340 45.1 L   6.790 -73.147144.4  RSN  8 0.4 1.8LRSN                1
 GAP=137        1.12       3.7     5.5  7.0 -0.4295E+01  0.4080E+01  0.5848E+01E
 Epicentro: LOS SANTOS - SANTANDER                                             3
 ACTION:UPD 15-03-16 17:01 OP:nd   STATUS:               ID:20140528134045 L   I
 OLDACT:REG 14-05-28 21:45 OP:stll STATUS:               ID:20140528133815     3
 2014-05-28-1338-15M.COL___257                                                 6
 STAT SP IPHASW D HRMM SECON CODA AMPLIT PERI AZIMU VELO AIN AR TRES W  DIS CAZ7
 BAR2 SZ EP       1341  4.65                             171    0.1410 22.2 190 
 BAR2 SZ I        1341  5.14        11.2 0.14            169           22.2 190 
 BAR2 SZ ES       1341 19.86                             171    0.1810 22.2 190 
 BRR  HZ EP       1341  6.48                             152    0.3910 71.6 299 
 BRR  HZ I        1341  6.78        16.4 0.26            150           71.6 299 
 BRR  HN ES       1341 23.39                             152    0.9010 71.6 299 
 PAM  SZ EP       1341  7.44                             150    0.2510 78.3  39 
 PAM  SZ I        1341  7.72        20.1 0.24            153           78.3  39 
 PAM  SN ES       1341 24.09                             150   -0.3610 78.3  39 
 RUS  HZ EP       1341  9.00                             144    0.4010 99.5 176 
 RUS  HN ES       1341 26.36                             144   -0.6010 99.5 176 
 RUS  HZ I        1341 28.44         7.0 0.24            143           99.5 176 
 PTB  HZ EP       1341 11.42                             132   -0.47 9  147 259 
 PTB  HN ES       1341 32.43                             132   -0.38 9  147 259 
 PTB  HZ I        1341 38.28         7.0 0.44            130            147 259 
 OCA  HE ES       1341 34.89                             129   -0.56 9  161 353 
 SPBC HZ EP       1341 13.02                             129   -0.35 9  162 219 
 SPBC HN ES       1341 35.25                             129   -0.19 9  162 219 
 SPBC HZ I        1341 39.54        11.6 0.40            128            162 219 
 CHI  HZ EP       1341 22.80                             117    0.24 8  248 195 
 CHI  HZ I        1341 25.28         3.1 0.42            117            248 195 
 CHI  HN ES       1341 52.15                             117    0.34 8  248 195 
                                                                                
