 2017 1128 1234 24.7 L   6.820 -73.168139.7  RSN  6 0.3 1.4LRSN                1
 GAP=133        0.70       3.4     3.1  5.4 -0.1557E+01  0.6612E+01  0.3412E+00E
 Epicentro: LOS SANTOS - SANTANDER                                             3
 ACTION:UPD 17-12-12 20:01 OP:rebc STATUS:               ID:20171128123424 L   I
 OLDACT:REG 17-11-28 19:32 OP:dhb  STATUS:               ID:20171128122740     3
 2017-11-28-1228-00M.COL___492                                                 6
 STAT SP IPHASW D HRMM SECON CODA AMPLIT PERI AZIMU VELO AIN AR TRES W  DIS CAZ7
 BAR2 EZ EP       1234 43.26                             169   -0.3510 25.2 184 
 BAR2 EZ ES       1234 58.58                             169    0.1910 25.2 184 
 BAR2 EZ I        1235  0.98         6.8 0.28            170           25.2 184 
 PAM  EZ EP       1234 46.20                             150   -0.0410 77.3  42 
 PAM  EN ES       1235  3.16                             150    0.0910 77.3  42 
 PAM  EZ I        1235  6.19         3.6 0.48            153           77.3  42 
 RUS  HZ EP       1234 47.97                             142   -0.0410  103 175 
 RUS  HN ES       1235  6.29                             142    0.0710  103 175 
 RUS  HZ I        1235  7.21         4.5 0.36            145            103 175 
 PTB  HZ EP       1234 50.73                             131   -0.24 9  146 258 
 PTB  HN ES       1235 11.00                             131   -0.48 9  146 258 
 PTB  HZ I        1235 13.90         2.6 0.30            132            146 258 
 ZAR  HE ES       1235 21.50                             121    0.35 9  201 292 
 ZAR  HZ I        1235 26.64         3.8 0.34            123            201 292 
 NOR  HZ EP       1235  0.46                             117    0.48 8  234 234 
 NOR  HE ES       1235 27.74                             117    0.22 8  234 234 
 NOR  HZ I        1235 33.72         2.7 0.30            119            234 234 
                                                                                
