 2011 1128 1321  0.7 L   6.762 -73.068150.0  RSN  6 0.2 1.8LRSN                1
 GAP=149        0.50       3.0     3.7  4.1 -0.3619E+01  0.2450E+01  0.3227E+01E
 Epicentro: LOS SANTOS - SANTANDER                                             3
 ACTION:UPD 12-07-13 16:12 OP:ep   STATUS:               ID:20111128132100 L   I
 2011-11-28-1319-01S.COL___160                                                 6
 STAT SP IPHASW D HRMM SECON CODA AMPLIT PERI AZIMU VELO AIN AR TRES W  DIS CAZ7
 BAR2 SZ EP       1321 20.83                             171   -0.0410 22.6 214 
 BAR2 SZ ES   1   1321 36.63                             171    0.07 7 22.6 214 
 BAR2 SZ I        1321 39.10        14.8 0.39                          22.6 214 
 PAM  SZ EP       1321 23.59                             152    0.2710 75.8  32 
 PAM  SE ES       1321 40.63                             152   -0.2910 75.8  32 
 BRR  HZ EP       1321 22.73                             150   -0.1710 80.8 298 
 BRR  HZ I        1321 26.34        30.1 0.34                          80.8 298 
 BRR  HN ES   1   1321 40.50                             150    0.32 7 80.8 298 
 RUS  HZ EP       1321 24.74                             146    0.1410 96.1 181 
 RUS  HE ES   1   1321 43.17                             146   -0.04 7 96.1 181 
 RUS  HZ I        1321 46.26         7.8 0.35                          96.1 181 
 NOR  SZ EP   1   1321 36.88                             119   -0.34 6  239 236 
 NOR  SE ES   1   1322  5.59                             119   -0.08 6  239 236 
 CHI  HZ EP   1   1321 38.61                             118    0.11 6  247 197 
 CHI  HZ I        1322 12.16         2.7 0.33                           247 197 
                                                                                
