 2013  228 1450 58.6 L   6.810 -73.136144.9  RSN 11 0.5 2.5LRSN 3.1WRSN        1
 SPEC AVERAGE  MO 13.7 ST  7.5 OM  2.6 f0 4.54 R0.3436 AL 2.68 WI 18.1 MW  3.1 3
 SPEC SD       MO  0.2 ST  5.1 OM  0.9 f0 1.05 R0.0851 AL      WI      MW  0.1 3
 GAP= 71        1.31       3.7     4.1  7.2  0.1653E+01  0.2004E+01 -0.1731E+01E
 Epicentro: LOS SANTOS - SANTANDER                                             3
 SPEC NOR HH N MO 13.7 ST 14.7 OM  1.9 f0 5.79 R0.2539 AL 3.28 WI 22.5 MW  3.1 3
 SPEC NOR HH N T1452 1 K 0.000 GD  276 VS 4.20 DE 3.20 Q0300.0 QA 0.60 VS 4.20 3
 SPEC PAM SH Z MO 13.9 ST  3.5 OM  1.5 f0 3.21 R0.4579 AL 1.81 WI 13.1 MW  3.2 3
 SPEC PAM SH Z T145120 K 0.000 GD  163 VP 7.60 DE 3.20 Q0300.0 QA 0.60 VS 4.20 3
 SPEC BRR HH N MO 13.5 ST  4.3 OM  1.9 f0 4.61 R0.3189 AL 2.96 WI 18.7 MW  2.9 3
 SPEC BRR HH N T145136 K 0.000 GD  161 VS 4.20 DE 3.20 Q0300.0 QA 0.60 VS 4.20 3
 ACTION:UPD 13-03-12 09:36 OP:ep   STATUS:               ID:20130228145058 L   I
 2013-02-28-1448-48M.COL___199                                                 6
 STAT SP IPHASW D HRMM SECON CODA AMPLIT PERI AZIMU VELO AIN AR TRES W  DIS CAZ7
 BAR2 SZ IP       1451 18.16                             170   -0.0310 24.6 192 
 BAR2 SZ ES       1451 33.47                             170    0.0310 24.6 192 
 BAR2 SZ I        1451 34.61        78.0 0.28            168           24.6 192 
 BRR  HZ IP     D 1451 20.01                             152    0.2910 71.6 297 
 BRR  HZ I        1451 20.18        32.7 0.22            151           71.6 297 
 BRR  HN ES       1451 37.10                             152    0.9410 71.6 297 
 PAM  SZ EP       1451 20.77                             151    0.0910 75.9  39 
 PAM  SZ I        1451 21.20        81.0 0.24            154           75.9  39 
 RUS  HZ EP       1451 22.03                             143   -0.3510  102 177 
 RUS  HN ES       1451 40.64                             143   -0.2510  102 177 
 RUS  HN I        1451 42.73        32.8 0.72            143            102 177 
 PTB  HZ EP       1451 24.93                             132   -0.72 9  149 259 
 PTB  HN ES       1451 46.00                             132   -0.71 9  149 259 
 PTB  HN I        1451 48.90        39.9 0.22            131            149 259 
 TAM  HZ EP       1451 26.35                             130    0.17 9  154 105 
 TAM  HN ES       1451 47.77                             130    0.11 9  154 105 
 TAM  HN I        1451 48.79        48.1 0.44            132            154 105 
 OCA  HZ EP       1451 27.07                             130    0.27 9  159 353 
 OCA  HN ES       1451 48.09                             130   -0.67 9  159 353 
 OCA  HN I        1451 51.67       156.7 0.18            130            159 353 
 ZAR  HZ EP       1451 32.67                             122    1.58 9  205 292 
 ZAR  HE ES       1451 56.64                             122    0.24 9  205 292 
 ZAR  HN I        1452  3.81        33.2 0.18            122            205 292 
 NOR  HZ EP       1451 34.61                             118    0.13 8  236 234 
 NOR  HN ES       1452  2.22                             118   -0.21 8  236 234 
 NOR  HN I        1452 11.45        40.1 0.18            118            236 234 
 SML  HZ EP       1451 34.62                             117   -0.54 8  243 335 
 SML  HN ES       1452  3.04                             117   -0.61 8  243 335 
 CHI  HZ EP       1451 36.41                             117   -0.02 8  250 195 
 CHI  HZ I        1451 38.92         7.4 0.50            117            250 195 
 CHI  HE ES       1452  6.04                             117    0.13 8  250 195 
                                                                                
