 2011 1128 1434 37.4 L   6.777 -73.133143.3  RSN  4 0.1 1.4LRSN                1
 GAP=139        0.30       3.8     6.7  8.5  0.9439E+01 -0.3608E+02 -0.1276E+02E
 Epicentro: LOS SANTOS - SANTANDER                                             3
 ACTION:UPD 12-07-13 16:12 OP:ep   STATUS:               ID:20111128143437 L   I
 2011-11-28-1431-37S.COL___160                                                 6
 STAT SP IPHASW D HRMM SECON CODA AMPLIT PERI AZIMU VELO AIN AR TRES W  DIS CAZ7
 BAR2 SZ EP   2   1434 56.65                             171   -0.01 5 21.2 195 
 BAR2 SZ I        1435 13.36         6.2 0.33                          21.2 195 
 BRR  HZ EP   2   1434 58.31                             151   -0.09 5 73.7 300 
 BRR  HE ES   2   1435 14.85                             151    0.05 5 73.7 300 
 BRR  HE I        1435 16.25        11.4 0.19                          73.7 300 
 PAM  SZ EP   1   1434 59.39                             150    0.00 7 78.5  38 
 PAM  SZ I        1435 18.93         1.8 0.30                          78.5  38 
 RUS  HZ EP   2   1435  0.78                             144    0.09 5 98.0 177 
 RUS  HE ES   2   1435 18.83                             144   -0.05 5 98.0 177 
 RUS  HZ I        1435 21.79         2.9 0.61                          98.0 177 
                                                                                
