 2014 1128 1058 34.9 L   6.834 -73.124149.8  RSN 10 0.5 1.8LRSN                1
 GAP=230        1.17       4.6     5.5  6.5  0.7973E+01  0.1085E+02  0.2507E+01E
 Epicentro: LOS SANTOS - SANTANDER                                             3
 ACTION:UPD 14-12-19 15:48 OP:nd   STATUS:               ID:20141128105834 L   I
 OLDACT:DUP 14-11-28 22:42 OP:fm   STATUS:               ID:20141128104748d    3
 OLDACT:REG 14-11-28 21:02 OP:fm   STATUS:               ID:20141128104747     3
 2014-11-28-1047-47M.COL___309                                                 6
 STAT SP IPHASW D HRMM SECON CODA AMPLIT PERI AZIMU VELO AIN AR TRES W  DIS CAZ7
 BAR2 SZ EP       1058 55.05                             169   -0.0410 27.5 194 
 BAR2 SZ ES       1059 10.49                             169   -0.3610 27.5 194 
 BAR2 SZ I        1059 12.01        15.2 0.52            165           27.5 194 
 BRR  HZ EP       1058 57.21                             153    0.7110 71.7 295 
 BRR  HN ES       1059 14.01                             153    0.6610 71.7 295 
 BRR  HZ I        1059 15.50        12.0 0.30            150           71.7 295 
 RUS  HZ EP       1058 59.22                             144   -0.0810  104 178 
 RUS  HN ES       1059 18.25                             144   -0.0910  104 178 
 RUS  HZ I        1059 20.11        21.1 0.88            143            104 178 
 PTB  HZ EP       1059  1.86                             132   -0.61 9  151 258 
 PTB  HN ES       1059 23.22                             132   -0.76 9  151 258 
 PTB  HZ I        1059 28.90         5.6 0.22            130            151 258 
 ZAR  HZ EP       1059  8.55                             123    0.87 9  205 291 
 ZAR  HN ES       1059 33.08                             123   -0.19 9  205 291 
 ZAR  HZ I        1059 41.37         7.4 0.26            123            205 291 
 NOR  HZ EP       1059 10.95                             119   -0.35 8  239 234 
 NOR  HN ES       1059 39.21                             119   -0.49 8  239 234 
 NOR  HZ I        1059 44.71         3.7 0.18            119            239 234 
 CHI  HZ EP       1059 13.39                             118    0.12 8  253 195 
 CHI  HN ES       1059 43.34                             118    0.12 8  253 195 
 CHI  HZ I        1059 50.98         2.4 0.32            118            253 195 
 HEL  HZ EP       1059 15.35                             115   -0.32 7  275 255 
 HEL  HN ES       1059 48.17                             115    0.69 7  275 255 
 HEL  HZ I        1059 53.69         2.7 0.26            115            275 255 
 GUY2CHZ EP       1059 18.89                             113   -0.26 7  305 234 
 GUY2CHN ES       1059 54.65                             113    0.97 7  305 234 
 GUY2CHZ I        11 0  1.91         3.3 0.28                           305 234 
 MON  HZ EP       1059 23.67                             109   -0.32 6  353 308 
 MON  HE ES       11 0  1.88                             109   -0.42 6  353 308 
 MON  HZ I        11 0  6.72         1.2 0.48            110            353 308 
                                                                                
