 2010 1228 1440 27.4 L   6.770 -73.211143.8  RSN  7 0.4 2.1LRSN                1
 GAP=131        0.80       4.2     7.9  8.2 -0.2468E+01  0.9519E+01  0.5707E+00E
 Epicentro: ZAPATOCA - SANTANDER                                               3
 ACTION:UP  11-01-14 15:27 OP:pat  STATUS:               ID:20101228144027 L   I
 2010-12-28-1440-00M.COL___136                                                 6
 STAT SP IPHASW D HRMM SECON CODA AMPLIT PERI AZIMU VELO SNR AR TRES W  DIS CAZ7
 BTL  SZ EP   1   1440 46.93                             173     0.2 7   18 339 
 BTL  SZ ES   2   1441  1.41                             173    -0.3 5   18 339 
 BAR2 SZ IP       1440 46.66                             172    -0.110   20 171 
 BAR2 SZ ES   2   1441  1.25                             172    -0.6 5   20 171 
 BAR2 SZ I        1441  4.50        33.8 0.23                            20 171 
 RUS  HZ EP   1   1440 50.62                             144    -0.2 7   98 172 
 RUS  HN ES   2   1441  9.77                             144     0.7 5   98 172 
 RUS  HZ I        1441 11.58        17.8 0.30                            98 172 
 GRA  SZ EP   1   1440 53.48                             135     0.5 7  131  20 
 GRA  SZ ES   2   1441 13.44                             135     0.6 5  131  20 
 GRA  SZ I        1441 17.62        10.8 0.29                           131  20 
 OCA  SZ EP   1   1440 55.70                             129    -0.1 7  163 356 
 OCA  SZ I        1441 14.03        15.8 0.53                           163 356 
 OCA  SZ ES   2   1441 17.29                             129    -0.7 5  163 356 
 YOP  SZ EP   1   1440 56.84                             126    -0.5 7  179 151 
 YOP  SN ES   2   1441 21.08                             126     0.3 4  179 151 
 YOP  SZ I        1441 24.57        14.3 0.33                           179 151 
 NOR  SZ EP   1   1441  2.05                             119    -0.2 6  227 234 
 NOR  SE ES   2   1441 30.07                             119     0.7 4  227 234 
                                                                                
