 2012 1028 1146 13.0 L   6.421 -73.375124.0  RSN  7 0.3 2.1LRSN                1
 GAP=103        0.56       2.6     4.9  4.8  0.4921E+01  0.1372E+02  0.5517E+01E
 Epicentro: SIMACOTA - SANTANDER                                               3
 ACTION:UPD 12-11-22 17:06 OP:ep   STATUS:               ID:20121028114613 L   I
 2012-10-28-1140-00M.COL___231                                                 6
 STAT SP IPHASW D HRMM SECON CODA AMPLIT PERI AZIMU VELO AIN AR TRES W  DIS CAZ7
 BAR2 SZ IP       1146 30.20                             166    0.0110 28.5  48 
 BAR2 SZ ES       1146 43.38                             166   -0.2010 28.5  48 
 BAR2 SZ I        1146 45.27        58.3 0.24                          28.5  48 
 RUS  HZ EP   1   1146 32.29                             150   -0.02 7 66.7 151 
 RUS  HN ES   1   1146 47.06                             150   -0.28 7 66.7 151 
 RUS  HN I        1146 48.46        19.5 0.20                          66.7 151 
 GIR2 SZ EP       1146 32.46                             147    0.1010 75.5  15 
 GIR2 SZ ES   1   1146 47.75                             147    0.31 7 75.5  15 
 BRR  HZ EP       1146 32.57                             143   -0.2310 84.6 334 
 BRR  HZ I        1146 32.77        31.4 0.19                          84.6 334 
 BRR  HN ES       1146 48.51                             143    0.2910 84.6 334 
 CHI  HZ EP       1146 44.57                             118    0.11 9  202 191 
 CHI  HN ES   1   1147  9.25                             118    0.28 6  202 191 
 ZAR  HZ EP   1   1146 43.63                             117   -0.34 6  202 306 
 ZAR  HN ES   2   1147  7.37                             117   -0.73 4  202 306 
 ZAR  HZ I        1147 13.49        19.2 0.22                           202 306 
 HEL  HZ EP   1   1146 48.85                             113    0.28 6  240 264 
 HEL  HZ I        1147 20.64         6.3 0.37                           240 264 
                                                                                
