 2011  328 1030 30.7 L   7.119 -73.497103.8  RSN  4 0.1 1.5LRSN                1
 GAP=118        0.35       2.3     5.5  6.5 -0.2963E+01  0.1422E+02 -0.7442E+01E
 Epicentro: SAN VICENTE DE CHUCURI - SANTANDER                                 3
 ACTION:UP  11-06-16 14:36 OP:jfem STATUS:               ID:20110328103030 L   I
 2011-03-28-1028-50S.COL___137                                                 6
 STAT SP IPHASW D HRMM SECON CODA AMPLIT PERI AZIMU VELO SNR AR TRES W  DIS CAZ7
 BRR  HZ EP   2   1030 45.19                             166     0.2 5   24 267 
 BRR  HZ I        1031 15.32         6.1 0.44                            24 267 
 BAR2 SZ EP   2   1030 47.75                             144     0.1 5   68 149 
 BAR2 SZ ES   1   1031  0.72                             144    -0.1 7   68 149 
 BAR2 SZ I        1031  1.65         9.8 0.14                            68 149 
 GRA  SZ EP   1   1030 51.52                             128     0.1 7  114  42 
 GRA  SZ ES   1   1031  7.68                             128     0.1 7  114  42 
 GRA  SZ I        1031  9.35         6.6 0.34                           114  42 
 OCA  SZ EP   1   1030 52.40                             125    -0.2 7  125   9 
 OCA  SZ ES   1   1031  9.58                             125     0.0 7  125   9 
 OCA  SZ I        1031 17.81        10.1 0.28                           125   9 
                                                                                
