 2011 1128 1350 37.1 L   6.557 -73.505113.1  RSN  5 0.2 1.5LRSN                1
 GAP=105        0.46       4.1     5.1  6.9  0.6449E+01  0.1059E+02  0.1069E+02E
 Epicentro: EL CARMEN DE CHUCURI - SANTANDER                                   3
 ACTION:UPD 12-07-13 16:12 OP:ep   STATUS:               ID:20111128135037 L   I
 2011-11-28-1349-28S.COL___160                                                 6
 STAT SP IPHASW D HRMM SECON CODA AMPLIT PERI AZIMU VELO AIN AR TRES W  DIS CAZ7
 BAR2 SZ EP       1350 53.44                             161    0.2410 35.9  84 
 BAR2 SZ ES   2   1351  5.60                             161   -0.18 5 35.9  84 
 BAR2 SZ I        1351  7.06        15.9 0.50                          35.9  84 
 BRR  HZ EP   1   1350 54.26                             148   -0.12 7 65.0 339 
 BRR  HZ I        1350 58.45        12.6 0.45                          65.0 339 
 BRR  HN ES   1   1351  7.98                             148    0.09 7 65.0 339 
 RUS  HZ EP   2   1350 56.88                             140    0.22 5 87.0 148 
 RUS  HE ES   2   1351 11.72                             140   -0.22 5 87.0 148 
 RUS  HZ I        1351 13.63         2.8 0.26                          87.0 148 
 PAM  SN ES   2   1351 17.31                             129   -0.40 5  124  46 
 NOR  SZ EP   2   1351  5.35                             116   -0.42 4  187 234 
                                                                                
