 2014  428 1558 23.2 L   6.765 -73.166142.6  RSN  5 0.2 1.6LRSN                1
 GAP=136        0.55       3.2     3.4  6.5 -0.2979E+01  0.6436E+01 -0.2724E+01E
 Epicentro: LOS SANTOS - SANTANDER                                             3
 OLDACT:REG 14-04-28 21:44 OP:fm   STATUS:               ID:20140428155819     3
 ACTION:UPD 14-05-13 23:12 OP:nd   STATUS:               ID:20140428155823 L   I
 OLDACT:UP  14-04-29 00:31 OP:fm   STATUS:               ID:20140428155819     3
 2014-04-28-1558-19M.COL___248                                                 6
 STAT SP IPHASW D HRMM SECON CODA AMPLIT PERI AZIMU VELO AIN AR TRES W  DIS CAZ7
 PAM  SZ EP   1   1558 45.05                             149   -0.25 7 81.8  39 
 PAM  SN ES   1   1559  2.84                             149    0.26 7 81.8  39 
 PAM  SZ I        1559  4.00         6.6 0.68            152           81.8  39 
 RUS  HZ EP       1558 46.60                             144    0.2810 96.9 175 
 RUS  HN ES       1559  4.10                             144   -0.3010 96.9 175 
 RUS  SZ I        1559  6.37         4.7 0.32            146           96.9 175 
 PTB  HZ EP   1   1558 49.25                             132   -0.35 7  145 260 
 PTB  HN ES   1   1559 10.25                             132    0.03 7  145 260 
 PTB  SZ I        1559 11.99         5.7 0.42            134            145 260 
 SPBC HZ EP   1   1558 51.13                             129    0.14 7  159 219 
 SPBC HE ES       1559 12.83                             129    0.13 9  159 219 
 SPBC SZ I        1559 15.97        10.1 0.20            131            159 219 
 ZAR  HN ES   2   1559 20.37                             122   -0.06 4  204 293 
                                                                                
