 2015 1228 1844 29.4 L   6.895 -73.142144.4  RSN  4 0.2 1.5LRSN                1
 GAP=150        0.63       4.2     4.0  5.8 -0.2674E+01  0.8890E+01  0.2368E+01E
 Epicentro: PIEDECUESTA - SANTANDER                                            3
 ACTION:UPD 16-02-04 15:08 OP:cam  STATUS:               ID:20151228184429 L   I
 OLDACT:REG 15-12-28 20:34 OP:dnl  STATUS:               ID:20151228183750     3
 2015-12-28-1837-50M.COL___340                                                 6
 STAT SP IPHASW D HRMM SECON CODA AMPLIT PERI AZIMU VELO AIN AR TRES W  DIS CAZ7
 BAR2 EZ EP       1844 49.55                             166    0.4410 33.8 188 
 BAR2 EZ ES       1845  4.68                             166    0.1910 33.8 188 
 BAR2 EZ I        1845  5.54         7.7 0.22            170           33.8 188 
 PAM  EZ EP   4   1844 52.56                             153    1.57 0 69.4  45 
 PAM  EE ES       1845  7.65                             153   -0.2010 69.4  45 
 PAM  EZ I        1845 11.84         8.3 0.50            153           69.4  45 
 RUS  HZ EP       1844 53.56                             141   -0.2310  111 177 
 RUS  HN ES       1845 12.71                             141   -0.1110  111 177 
 RUS  HZ I        1845 13.43         2.7 0.29            145            111 177 
 PTB  HZ EP       1844 56.50                             131    0.01 9  150 255 
 PTB  HN ES       1845 17.50                             131   -0.13 9  150 255 
 PTB  HZ I        1845 20.34         3.1 0.09            133            150 255 
                                                                                
