 2017  228 1412 43.7 L   6.860 -73.274124.0  RSN 10 0.4 2.1LRSN                1
 GAP=111        0.99       3.6     3.8  6.2  0.1055E+01  0.1033E+02  0.5720E+01E
 Epicentro: BETULIA - SANTANDER                                                3
 ACTION:UPD 17-05-24 15:41 OP:jn   STATUS:               ID:20170228141243 L   I
 OLDACT:UP  17-02-28 23:25 OP:lv   STATUS:               ID:20170228140746     3
 OLDACT:REG 17-02-28 20:19 OP:lv   STATUS:               ID:20170228140746     3
 2017-02-28-1408-00M.COL___388                                                 6
 STAT SP IPHASW D HRMM SECON CODA AMPLIT PERI AZIMU VELO AIN AR TRES W  DIS CAZ7
 BAR2 EZ EP       1413  0.86                             165   -0.0710 31.3 161 
 BAR2 EZ ES       1413 14.18                             165   -0.2010 31.3 161 
 BAR2 EZ I        1413 15.57        58.9 0.32            165           31.3 161 
 BRR  HZ IP     D 1413  1.63                             154    0.0210 55.6 299 
 BRR  HN ES       1413 16.04                             154    0.4510 55.6 299 
 BRR  HZ I        1413 17.70        28.8 0.17            154           55.6 299 
 PAM  EZ EP       1413  3.82                             144   -0.1810 82.6  50 
 PAM  EN ES       1413 19.97                             144    0.1210 82.6  50 
 PAM  EZ I        1413 22.08        41.0 0.40            148           82.6  50 
 RUS  HZ EP       1413  5.79                             136   -0.2810  109 169 
 RUS  HN ES       1413 23.49                             136   -0.0310  109 169 
 PTB  HZ EP       1413  6.84                             129   -0.95 9  135 255 
 PTB  HN ES   4   1413 25.01                             129   -1.58 0  135 255 
 PTB  HZ I        1413 28.60        35.1 0.22            129            135 255 
 ZAR  HZ EP       1413 13.47                             119    0.33 9  188 292 
 ZAR  HE ES       1413 36.12                             119    0.02 9  188 292 
 ZAR  HZ I        1413 40.26        18.3 0.13            120            188 292 
 NOR  HZ EP       1413 18.18                             114    0.73 8  227 231 
 NOR  HN ES       1413 43.32                             114   -0.46 8  227 231 
 NOR  HZ I        1413 45.56         7.7 0.23            115            227 231 
 CHI  HZ EP       1413 21.00                             112    0.36 8  252 192 
 CHI  HN ES       1413 50.11                             112    0.65 8  252 192 
 CHI  HZ I        1413 57.85         4.6 0.38            113            252 192 
 URE  HZ EP   4   1413 23.34                             110    1.34 0  268 292 
 URE  HN ES   4   1413 50.60                             110   -1.28 0  268 292 
 URE  HZ I        1413 52.87        10.9 0.11            111            268 292 
 CBOC HZ EP   4   1413 30.00                             106    1.52 0  322 250 
 CBOC HN ES       1414  3.29                             106   -0.12 7  322 250 
 CBOC HZ I        1414  7.10         3.4 0.48            107            322 250 
                                                                                
