 2016  328 1039 23.1 L   6.818 -73.162145.6  RSN 13 0.4 2.1LRSN                1
 GAP=134        0.94       2.7     3.4  5.4 -0.1065E+01  0.7084E+01 -0.1019E+00E
 Epicentro: LOS SANTOS - SANTANDER                                             3
 ACTION:UPD 16-05-13 21:28 OP:cam  STATUS:               ID:20160328103923 L   I
 OLDACT:UP  16-03-28 23:07 OP:drio STATUS:               ID:20160328103743     3
 OLDACT:UP  16-03-28 23:07 OP:drio STATUS:               ID:20160328103743     3
 OLDACT:REG 16-03-28 20:03 OP:drio STATUS:               ID:20160328103743     3
 2016-03-28-1037-43M.COL___302                                                 6
 STAT SP IPHASW D HRMM SECON CODA AMPLIT PERI AZIMU VELO AIN AR TRES W  DIS CAZ7
 BAR2 EZ EP       1039 42.86                             170    0.1410 25.1 185 
 BAR2 EZ ES       1039 57.78                             170   -0.2610 25.1 185 
 BAR2 EZ I        1040  4.47        17.0 0.18            168           25.1 185 
 PAM  EZ EP       1039 44.85                             151   -0.4010 77.0  42 
 PAM  EN ES       1040  2.87                             151    0.3310 77.0  42 
 PAM  EZ I        1040  4.95        11.1 0.50            157           77.0  42 
 RUS  HZ EP       1039 46.71                             143   -0.2610  103 175 
 RUS  HE ES       1040  5.76                             143    0.1610  103 175 
 RUS  HZ I        1040  8.45         8.4 0.22            149            103 175 
 PTB  HZ EP       1039 49.47                             132   -0.44 9  146 258 
 PTB  HN ES       1040 10.52                             132   -0.31 9  146 258 
 PTB  HZ I        1040 18.03        21.1 0.40            133            146 258 
 OCA  HZ EP       1039 51.09                             130   -0.08 9  158 354 
 OCA  HN ES       1040 13.38                             130    0.31 9  158 354 
 OCA  HZ I        1040 20.56        21.5 0.22            133            158 354 
 SPBC HZ EP       1039 51.71                             129    0.10 9  164 218 
 SPBC HE ES       1040 13.61                             129   -0.25 9  164 218 
 SPBC HZ I        1040 20.35        21.2 0.22            132            164 218 
 ZAR  HZ EP       1039 55.57                             123    0.31 9  202 292 
 ZAR  HN ES       1040 20.97                             123    0.61 9  202 292 
 ZAR  HZ I        1040 26.93        19.5 0.36            124            202 292 
 NOR  HZ EP       1039 58.76                             118   -0.01 8  234 234 
 NOR  HN ES       1040 26.81                             118    0.20 8  234 234 
 NOR  HZ I        1040 32.36         9.5 0.28            121            234 234 
 CHI  HZ EP       1040  1.19                             117    0.26 8  250 195 
 CHI  HN ES       1040 30.41                             117   -0.04 8  250 195 
 CHI  HZ I        1040 37.44         5.4 0.38            121            250 195 
 HEL  HZ EP   4   1040  5.04                             115    1.89 0  271 255 
 HEL  HE ES       1040 35.00                             115    0.60 8  271 255 
 HEL  HZ I        1040 44.73         8.1 0.44            117            271 255 
 URE  HZ EP       1040  3.14                             114   -0.73 7  281 292 
 URE  HE ES       1040 34.85                             114   -0.83 7  281 292 
 URE  HZ I        1040 46.40         9.1 0.18            116            281 292 
 GUY2CHZ EP       1040  7.57                             112    0.92 7  301 234 
 GUY2CHN ES   4   1040 42.71                             112    2.08 0  301 234 
 GUY2CHZ I        1040 48.99         6.8 0.30                           301 234 
 MON  HZ EP   4   1040  9.52                             109   -2.24 0  351 308 
 MON  HN ES   4   1040 48.06                             109   -1.68 0  351 308 
 MON  HZ I        1041  5.28         2.1 0.30            111            351 308 
                                                                                
