 2017  228 1123 45.3 L   6.693 -73.284140.2  RSN  5 0.3 1.5LRSN                1
 GAP=180        0.82       6.0     5.4  6.7  0.1954E+02  0.7979E+01  0.3222E+01E
 Epicentro: GALAN - SANTANDER                                                  3
 ACTION:UPD 17-05-24 15:41 OP:jn   STATUS:               ID:20170228112345 L   I
 OLDACT:DUP 17-02-28 21:41 OP:lv   STATUS:               ID:20170228111745d    3
 2017-02-28-1118-00M.COL___372                                                 6
 STAT SP IPHASW D HRMM SECON CODA AMPLIT PERI AZIMU VELO AIN AR TRES W  DIS CAZ7
 BAR2 EZ EP       1124  3.50                             173   -0.5810 15.8 135 
 BAR2 EZ ES       1124 18.58                             173   -0.1910 15.8 135 
 BAR2 EZ I        1124 19.74         6.5 0.22            175           15.8 135 
 BRR  HZ EP       1124  5.55                             153    0.0510 65.8 314 
 BRR  HN ES       1124 21.70                             153    0.4010 65.8 314 
 BRR  HZ I        1124 25.23         9.2 0.44            153           65.8 314 
 RUS  HZ EP       1124  7.96                             145    0.1710 91.2 166 
 RUS  HN ES       1124 25.59                             145    0.2210 91.2 166 
 PTB  HZ EP       1124 10.57                             134    0.3310  131 263 
 PTB  HN ES       1124 29.39                             134   -0.3410  131 263 
 ZAR  HN ES       1124 40.65                             122   -0.06 9  195 297 
                                                                                
