 2017  428 1619 15.3 L   6.769 -73.151142.0  RSN  6 0.5 1.9LRSN                1
 GAP=137        1.19       5.2     5.3  9.3  0.2348E+01  0.1197E+02  0.4969E+01E
 Epicentro: LOS SANTOS - SANTANDER                                             3
 ACTION:UPD 17-05-30 21:16 OP:jn   STATUS:               ID:20170428161915 L   I
 OLDACT:UP  17-04-29 00:25 OP:dani STATUS:               ID:20170428161744     3
 OLDACT:UP  17-04-29 00:25 OP:dani STATUS:               ID:20170428161744     3
 OLDACT:REG 17-04-28 21:12 OP:dani STATUS:               ID:20170428161744     3
 2017-04-28-1618-00M.COL___374                                                 6
 STAT SP IPHASW D HRMM SECON CODA AMPLIT PERI AZIMU VELO AIN AR TRES W  DIS CAZ7
 BRR  HZ EP     C 1619 36.23                             152    0.1010 72.4 301 
 BRR  HN ES       1619 53.02                             152    0.6510 72.4 301 
 BRR  HZ I        1619 58.05        14.7 0.12            151           72.4 301 
 PAM  EZ EP       1619 37.13                             149   -0.1910 80.4  38 
 PAM  EN ES       1619 54.15                             149   -0.3410 80.4  38 
 PAM  EZ I        1619 55.74        13.7 0.48            153           80.4  38 
 RUS  HZ EP       1619 38.86                             144    0.4010 97.2 176 
 RUS  HN ES       1619 56.65                             144    0.1510 97.2 176 
 RUS  HZ I        1619 57.68        10.8 0.23            147           97.2 176 
 PTB  HZ EP       1619 41.21                             132   -0.66 9  147 260 
 PTB  HN ES       1620  1.67                             132   -0.92 9  147 260 
 PTB  HZ I        1620  4.31        12.0 0.18            132            147 260 
 ZAR  HZ EP       1619 47.56                             122   -0.05 9  205 293 
 ZAR  HN ES       1620 13.51                             122    0.72 9  205 293 
 ZAR  HZ I        1620 19.85        10.1 0.34            123            205 293 
 CHI  HZ EP   3   1619 53.72                             117    1.29 2  245 195 
 CHI  HN ES   1   1620 21.58                             117    0.20 6  245 195 
 CHI  HZ I        1620 25.60         2.8 0.27            119            245 195 
                                                                                
