 2011  528 1806 37.0 L   6.772 -73.066144.9  RSN  6 0.1 1.6LRSN                1
 GAP=165        0.41       2.8     5.3  6.7 -0.1027E+01 -0.9794E+01 -0.3253E+01E
 Epicentro: LOS SANTOS - SANTANDER                                             3
 ACTION:UP  11-06-29 08:56 OP:tino STATUS:               ID:20110528180637 L   I
 2011-05-28-1803-20S.COL___115                                                 6
 STAT SP IPHASW D HRMM SECON CODA AMPLIT PERI AZIMU VELO SNR AR TRES W  DIS CAZ7
 BAR2 SZ EP   1   18 6 56.48                             170    -0.1 7   24 213 
 BAR2 SZ I        18 7 12.84         7.9 0.41                            24 213 
 BTL  SZ EP   1   18 6 56.89                             169     0.3 7   28 306 
 BRR  HZ EP   1   18 6 58.43                             149    -0.2 7   80 297 
 BRR  HZ I        18 6 58.89        10.0 0.13                            80 297 
 BRR  HN ES   1   18 7 15.53                             149     0.1 7   80 297 
 RUS  HN ES   1   18 7 18.68                             145     0.0 7   97 181 
 BRI  SZ EP   1   18 7  0.91                             141     0.1 7  109  16 
 BRI  SZ I        18 7 24.08         3.3 0.43                           109  16 
 GRA  SZ ES   1   18 7 21.83                             137    -0.1 7  126  13 
 GRA  SZ I        18 7 24.94         8.0 0.43                           126  13 
                                                                                
