 2015 1028 1930 20.9 L   6.790 -73.137148.0  RSN 12 0.4 2.3LRSN                1
 GAP=154        0.89       2.9     4.3  5.4 -0.3518E+01  0.4152E+01  0.2616E+01E
 Epicentro: LOS SANTOS - SANTANDER                                             3
 ACTION:UPD 15-12-22 20:43 OP:cam  STATUS:               ID:20151028193020 L   I
 OLDACT:REG 15-10-28 21:44 OP:ar   STATUS:               ID:20151028192748     3
 2015-10-28-1927-48M.COL___319                                                 6
 STAT SP IPHASW D HRMM SECON CODA AMPLIT PERI AZIMU VELO AIN AR TRES W  DIS CAZ7
 BAR2 EZ EP       1930 40.68                             171   -0.0810 22.4 193 
 BAR2 EZ ES       1930 55.93                             171   -0.3410 22.4 193 
 BAR2 EZ I        1930 58.32        49.0 0.24            169           22.4 193 
 BRR  HZ EP       1930 42.42                             152    0.0710 72.6 299 
 BRR  HN ES       1930 59.54                             152    0.4510 72.6 299 
 BRR  HZ I        1930 59.84        37.6 0.30            146           72.6 299 
 PAM  EZ EP       1930 43.45                             151    0.1010 77.7  38 
 PAM  EN ES       1931  0.65                             151   -0.2310 77.7  38 
 PAM  EZ I        1931  3.76        18.8 0.50            152           77.7  38 
 OCA  HZ EP       1930 48.78                             130   -0.70 9  162 353 
 OCA  HN ES       1931 12.59                             130    0.80 9  162 353 
 OCA  HZ I        1931 19.01        39.8 0.22            128            162 353 
 SPBC HZ EP       1930 49.69                             130    0.17 9  163 219 
 SPBC HN ES       1931 11.79                             130   -0.07 9  163 219 
 SPBC HZ I        1931 17.52        24.9 0.16            128            163 219 
 ZAR  HZ EP   2   1930 54.34                             123    0.74 4  205 292 
 ZAR  HN ES       1931 18.75                             123   -0.38 8  205 292 
 ZAR  HZ I        1931 23.83        22.2 0.38            120            205 292 
 NOR  HZ EP       1930 56.85                             119    0.10 8  235 235 
 NOR  HN ES       1931 24.41                             119   -0.32 8  235 235 
 NOR  HZ I        1931 31.92        11.2 0.14            118            235 235 
 SML  HZ EP   2   1930 57.17                             118   -0.62 4  245 335 
 SML  HN ES   2   1931 25.79                             118   -0.78 4  245 335 
 SML  HZ I        1931 33.14        36.5 0.24            116            245 335 
 CHI  HZ EP       1930 58.96                             118    0.35 8  248 195 
 CHI  HN ES       1931 28.26                             118    0.22 8  248 195 
 CHI  HZ I        1931 31.51        10.3 0.64            118            248 195 
 HEL  HE ES   4   1931 36.45                             115    3.67 0  273 256 
 HEL  HZ I        1931 38.17         7.7 0.22            114            273 256 
 GUY2CHZ EP   4   1931  5.43                             113    0.83 0  301 235 
 GUY2CHN ES   4   1931 43.16                             113    4.45 0  301 235 
 GUY2CHZ I        1931 46.96         9.2 0.60                           301 235 
 MON  HN ES   4   1931 46.38                             109   -2.17 0  355 308 
 MON  HZ I        1932  1.14         4.7 0.54            108            355 308 
                                                                                
