 2013  828 1901 18.9 L   6.835 -73.167144.6  RSN 17 0.5 2.7LRSN                1
 GAP= 63        1.23       3.1     3.6  5.8  0.6250E+00  0.3323E+01  0.1028E+01E
 Epicentro: LOS SANTOS - SANTANDER                                             3
 ACTION:UPD 14-01-14 09:08 OP:ep   STATUS:               ID:20130828190118 L   I
 OLDACT:REG 13-08-28 20:06 OP:jn   STATUS:               ID:20130828185947     3
 2013-08-28-1859-47M.COL___212                                                 6
 STAT SP IPHASW D HRMM SECON CODA AMPLIT PERI AZIMU VELO AIN AR TRES W  DIS CAZ7
 BAR2 SZ EP       19 1 38.65                             169    0.1310 26.9 184 
 BAR2 SZ ES       19 1 53.39                             169   -0.3910 26.9 184 
 BAR2 SZ I        19 1 54.54       137.5 0.32            167           26.9 184 
 BRR  HZ EP       19 1 40.43                             154    0.6810 67.3 297 
 BRR  HN ES       19 1 57.26                             154    1.2810 67.3 297 
 BRR  HZ I        19 2  0.54       143.3 0.48            142           67.3 297 
 PAM  SZ EP       19 1 41.35                             151    0.3910 76.0  43 
 PAM  SN ES       19 1 57.92                             151   -0.2110 76.0  43 
 PAM  SZ I        19 2  0.52       150.7 0.48            139           76.0  43 
 RUS  HZ EP       19 1 42.70                             142   -0.1810  105 175 
 RUS  HN ES       19 2  1.12                             142   -0.4310  105 175 
 RUS  HZ I        19 2  3.23        39.7 0.34            132            105 175 
 PTB  HZ EP       19 1 45.38                             132   -0.30 9  146 257 
 PTB  HN ES       19 2  5.60                             132   -0.93 9  146 257 
 PTB  HZ I        19 2  7.78        66.2 0.20            120            146 257 
 OCA  HZ EP       19 1 46.67                             130   -0.11 9  156 354 
 OCA  HN ES       19 2  8.44                             130   -0.05 9  156 354 
 OCA  HZ I        19 2 13.32        80.6 0.36            117            156 354 
 TAM  HZ EP       19 1 47.09                             130    0.25 9  158 106 
 TAM  HE ES       19 2  8.21                             130   -0.40 9  158 106 
 SPBC HZ EP       19 1 47.57                             128    0.07 9  165 217 
 SPBC HN ES       19 2  9.85                             128    0.07 9  165 217 
 SPBC HZ I        19 2 16.79        65.5 0.28            118            165 217 
 YOP  SZ EP       19 1 49.54                             125    0.18 9  183 153 
 YOP  SN ES   1   19 2 13.83                             125    0.76 7  183 153 
 YOP  SZ I        19 2 17.60        37.6 0.20            115            183 153 
 ZAR  HZ EP       19 1 51.47                             123    0.53 9  200 291 
 ZAR  HN ES   1   19 2 16.55                             123    0.66 6  200 291 
 ZAR  HZ I        19 2 23.00        90.6 0.46            112            200 291 
 NOR  HZ EP       19 1 54.69                             118    0.04 8  235 233 
 NOR  HN ES   1   19 2 21.66                             118   -0.83 6  235 233 
 NOR  HZ I        19 2 28.49        31.5 0.22            109            235 233 
 SML  HZ EP   1   19 1 54.75                             118   -0.27 6  239 335 
 SML  HN ES       19 2 22.17                             118   -0.98 8  239 335 
 CHI  HZ EP       19 1 57.09                             116    0.17 8  252 194 
 CHI  HZ I        19 2 30.27        14.3 0.40            108            252 194 
 DBB  SZ EP       19 2  6.19                             109    0.12 7  337 274 
 COD  HZ EP   1   19 2  5.39                             109   -1.42 5  344 355 
 COD  HZ I        19 2 53.30         7.0 0.30            102            344 355 
 PRA  HZ EP   1   19 2 13.00                             106    0.32 4  394 209 
 PRA  HN ES   1   19 2 54.31                             106   -0.29 4  394 209 
 PRA  HZ I        19 3  2.44        19.6 0.42            101            394 209 
 SJC  HZ EP   4   19 2 12.33                             106   -1.60 0  405 327 
 SJC  HZ I        19 2 58.07        18.0 0.54            100            405 327 
                                                                                
