 2014  428 1420 16.2 L   6.838 -73.141136.0  RSN  8 0.5 1.8LRSN                1
 GAP=202        0.91       5.4     7.2 11.1  0.1022E+02  0.1620E+02 -0.1594E+02E
 Epicentro: LOS SANTOS - SANTANDER                                             3
 OLDACT:REG 14-04-28 21:20 OP:fm   STATUS:               ID:20140428141819     3
 ACTION:UPD 14-05-13 23:12 OP:nd   STATUS:               ID:20140428142016 L   I
 OLDACT:UP  14-04-29 00:13 OP:fm   STATUS:               ID:20140428141819     3
 2014-04-28-1418-19M.COL___248                                                 6
 STAT SP IPHASW D HRMM SECON CODA AMPLIT PERI AZIMU VELO AIN AR TRES W  DIS CAZ7
 RUS  HZ EP   1   1420 38.77                             141   -0.54 7  105 176 
 RUS  HE ES       1420 57.79                             141    0.4510  105 176 
 RUS  HZ I        1420 58.42         5.1 0.28            142            105 176 
 PTB  HZ EP   1   1420 41.79                             130   -0.71 7  149 257 
 PTB  HN ES   1   1421  2.89                             130   -0.14 7  149 257 
 PTB  HZ I        1421 10.02         8.8 0.16            128            149 257 
 SPBC HZ EP   1   1420 43.78                             127   -0.52 7  167 218 
 SPBC HN ES   1   1421  5.82                             127   -0.41 7  167 218 
 SPBC HZ I        1421 10.39         9.4 0.20            126            167 218 
 ZAR  HN ES   2   1421 13.33                             121    0.69 4  203 291 
 NOR  HN ES   1   1421 19.67                             117    0.31 6  238 234 
 SML  HN ES   1   1421 19.98                             116    0.24 6  240 335 
 GUY2CHZ EP   1   1421  0.24                             111    0.56 5  304 234 
 GUY2CHN ES   4   1421 37.51                             111    3.90 0  304 234 
 GUY2CHZ I        1421 41.02         5.5 0.42                           304 234 
 RREF HZ EP   1   1421  3.13                             109    0.85 5  325 229 
 RREF HN ES   4   1421 41.08                             109    2.85 0  325 229 
 RREF HZ I        1421 44.47         3.2 1.24            110            325 229 
 PRA  HN ES   4   1421 47.38                             105   -4.31 0  396 209 
                                                                                
