 2011 1028 1247 33.4 L   6.798 -73.159138.5  RSN 12 0.4 2.3LRSN                1
 GAP=113        0.84       3.4     3.9  5.5  0.2280E+01  0.7203E+01  0.1463E+01E
 Epicentro: LOS SANTOS - SANTANDER                                             3
 ACTION:UPD 12-07-13 16:06 OP:ep   STATUS:               ID:20111028124733 L   I
 2011-10-28-1240-00M.COL___177                                                 6
 STAT SP IPHASW D HRMM SECON CODA AMPLIT PERI AZIMU VELO AIN AR TRES W  DIS CAZ7
 BAR2 SZ IP     C 1247 52.04                             170   -0.1010 22.9 186 
 BAR2 SZ ES   1   1248  5.94                             170   -0.82 7 22.9 186 
 BAR2 SZ I        1248  8.26        55.4 0.36                          22.9 186 
 GIR2 SZ EP       1247 52.06                             166   -0.1410 31.3 353 
 BRR  HZ EP       1247 53.89                             151    0.2010 70.0 299 
 BRR  HZ I        1247 55.72        54.6 0.34                          70.0 299 
 BRR  HE ES   1   1248 10.41                             151    0.89 7 70.0 299 
 PAM  SZ IP       1247 55.04                             149    0.1310 78.5  40 
 PAM  SN ES   1   1248 11.54                             149   -0.15 7 78.5  40 
 RUS  HZ IP       1247 56.10                             142   -0.3210  100 175 
 RUS  HZ I        1247 57.29        18.6 0.22                           100 175 
 RUS  HN ES   1   1248 14.07                             142   -0.32 7  100 175 
 OCA  SZ EP       1248  1.41                             128    0.26 9  160 354 
 OCA  SZ I        1248 30.93        18.3 0.20                           160 354 
 YOP  SZ EP       1248  3.08                             124    0.11 9  179 153 
 YOP  SE ES   1   1248 26.82                             124    0.78 7  179 153 
 ZAR  HZ EP       1248  4.87                             121   -0.36 9  203 292 
 ZAR  HE ES   1   1248 30.33                             121    0.26 6  203 292 
 NOR  SZ EP       1248  8.76                             117    0.20 8  233 234 
 NOR  SN ES   1   1248 36.10                             117    0.11 6  233 234 
 HEL  HZ EP       1248 12.90                             113   -0.17 8  271 256 
 HEL  HZ I        1248 50.46        15.9 0.50                           271 256 
 DBB  SZ EP       1248 20.26                             108   -0.14 7  338 274 
 MON  HZ EP   3   1248 19.72                             107   -2.27 2  353 309 
                                                                                
