 2017  328 1615 41.2 L   6.842 -73.151142.6  RSN  5 0.4 1.3LRSN                1
 GAP=134        1.13       6.0     5.3  9.5 -0.6587E+00  0.1610E+02 -0.3574E+01E
 Epicentro: LOS SANTOS - SANTANDER                                             3
 ACTION:UPD 17-05-25 18:46 OP:jn   STATUS:               ID:20170328161541 L   I
 OLDACT:DUP 17-03-29 00:33 OP:lv   STATUS:               ID:20170328160747d    3
 2017-03-28-1608-00M.COL___370                                                 6
 STAT SP IPHASW D HRMM SECON CODA AMPLIT PERI AZIMU VELO AIN AR TRES W  DIS CAZ7
 BAR2 EZ EP       1616  0.60                             168    0.0510 27.8 187 
 BAR2 EZ ES       1616 16.25                             168    0.6110 27.8 187 
 BAR2 EZ I        1616 17.05         4.5 0.10            168           27.8 187 
 PAM  EZ EP       1616  3.10                             151    0.2110 74.3  42 
 PAM  EN ES       1616 19.25                             151   -0.5610 74.3  42 
 PAM  EZ I        1616 20.86        10.9 0.04            154           74.3  42 
 RUS  HZ EP       1616  5.29                             142    0.3110  105 176 
 RUS  HN ES       1616 23.37                             142   -0.1610  105 176 
 RUS  HZ I        1616 25.18         1.8 0.16            143            105 176 
 PTB  HZ EP       1616  7.49                             131   -0.46 9  148 257 
 PTB  HN ES       1616 28.22                             131   -0.58 9  148 257 
 PTB  HZ I        1616 30.98         2.0 0.21            132            148 257 
 ZAR  HE ES       1616 38.80                             122    0.63 9  202 291 
                                                                                
