 2016  428 1752 53.6 L   6.782 -73.179141.9  RSN  4 0.4 1.5LRSN                1
 GAP=141        0.94       5.7     5.5  8.1 -0.9609E+01  0.1284E+02 -0.4706E+01E
 Epicentro: LOS SANTOS - SANTANDER                                             3
 ACTION:UPD 16-05-05 14:24 OP:rebc STATUS:               ID:20160428175253 L   I
 OLDACT:DUP 16-04-29 00:13 OP:ak   STATUS:               ID:20160428174744d    3
 2016-04-28-1747-43M.COL___305                                                 6
 STAT SP IPHASW D HRMM SECON CODA AMPLIT PERI AZIMU VELO AIN AR TRES W  DIS CAZ7
 BAR2 EZ ES       1753 28.27                             171    0.6210 21.0 181 
 BAR2 EZ I        1753 28.68         8.1 0.14            171           21.0 181 
 PAM  EZ IP       1753 15.52                             149   -0.1410 81.2  41 
 PAM  EZ I        1753 15.70        10.9 0.24            152           81.2  41 
 PAM  EN ES       1753 32.64                             149   -0.2110 81.2  41 
 RUS  HZ EP       1753 17.01                             143    0.1410 99.0 174 
 RUS  HN ES       1753 34.61                             143   -0.4010 99.0 174 
 RUS  HZ I        1753 36.21         4.7 0.30            145           99.0 174 
 PTB  HZ EP       1753 20.26                             132    0.36 9  144 259 
 PTB  HN ES       1753 40.02                             132   -0.39 9  144 259 
 PTB  HZ I        1753 44.28         3.3 0.20            131            144 259 
                                                                                
