 2012 1128 1014 44.1 L   6.772 -73.183134.8  RSN  4 0.2 1.2LRSN                1
 GAP=178        0.35       5.3    15.8  9.9 -0.6116E+02  0.8972E+02 -0.2488E+02E
 Epicentro: LOS SANTOS - SANTANDER                                             3
 ACTION:UPD 12-12-05 15:36 OP:}ep  STATUS:               ID:20121128101444 L   I
 2012-11-28-1010-00M.COL___234                                                 6
 STAT SP IPHASW D HRMM SECON CODA AMPLIT PERI AZIMU VELO AIN AR TRES W  DIS CAZ7
 BAR2 SZ EP   2   1015  2.67                             171    0.31 5 19.8 180 
 GIR2 SZ EP   2   1015  2.36                             165   -0.21 5 34.0 358 
 PAM  SZ EP   1   1015  5.48                             147   -0.02 7 82.4  40 
 PAM  SZ I        1015  5.77         4.6 0.12                          82.4  40 
 PAM  SE ES   2   1015 22.23                             147    0.04 5 82.4  40 
 RUS  HZ EP   2   1015  6.60                             142    0.00 5 97.8 174 
 RUS  HE ES   2   1015 24.05                             142   -0.09 5 97.8 174 
 RUS  HE I        1015 27.01         2.1 0.29                          97.8 174 
                                                                                
