 2014  128 1604 47.0 L   6.794 -73.150144.9  RSN 16 0.3 2.2LRSN                1
 GAP=136        0.76       2.2     3.3  4.0 -0.1102E+01  0.3174E+01  0.9506E+00E
 Epicentro: LOS SANTOS - SANTANDER                                             3
 ACTION:UPD 14-03-13 09:59 OP:ep   STATUS:               ID:20140128160447 L   I
 OLDACT:UP  14-01-28 18:23 OP:nd   STATUS:               ID:20140128160001d    3
 OLDACT:REG 14-01-28 15:27 OP:nd   STATUS:               ID:20140128160001d    3
 2014-01-28-1600-00M.COL___285                                                 6
 STAT SP IPHASW D HRMM SECON CODA AMPLIT PERI AZIMU VELO AIN AR TRES W  DIS CAZ7
 BAR2 SZ EP       16 5  6.58                             171    0.0910 22.6 189 
 BAR2 SZ ES       16 5 21.82                             171    0.1110 22.6 189 
 BAR2 SZ I        16 5 24.28        35.0 0.18            172           22.6 189 
 BRR  HZ EP     C 16 5  8.74                             152    0.7110 71.1 299 
 BRR  HN ES       16 5 24.41                             152   -0.0410 71.1 299 
 BRR  HZ I        16 5 27.23        18.0 0.36            146           71.1 299 
 PAM  SZ EP       16 5  9.41                             150    0.2610 78.1  39 
 PAM  SN ES       16 5 26.58                             150    0.1410 78.1  39 
 PAM  SZ I        16 5 28.86        19.8 0.52            147           78.1  39 
 RUS  HZ EP     C 16 5 10.37                             144   -0.2310100.0 176 
 RUS  HN ES       16 5 28.64                             144   -0.3910100.0 176 
 RUS  HZ I        16 5 30.21        12.8 0.38            143          100.0 176 
 PTB  HZ EP       16 5 13.49                             132   -0.34 9  147 259 
 PTB  HN ES       16 5 34.79                             132    0.02 9  147 259 
 PTB  HZ I        16 5 36.70        21.1 0.12            128            147 259 
 OCA  HZ EP   4   16 5 15.65                             129    0.37 0  161 353 
 OCA  HN ES   4   16 5 36.01                             129   -1.34 0  161 353 
 OCA  HZ I        16 5 42.85        16.1 0.40            124            161 353 
 SPBC HZ EP       16 5 15.58                             129    0.24 9  162 219 
 SPBC HN ES       16 5 37.47                             129    0.01 9  162 219 
 SPBC HZ I        16 5 42.63        21.9 0.34            126            162 219 
 ZAR  HZ EP   2   16 5 19.35                             122   -0.01 4  204 292 
 ZAR  HN ES   2   16 5 44.44                             122   -0.16 4  204 292 
 ZAR  HZ I        16 5 50.27        18.1 0.30            118            204 292 
 NOR  HZ EP       16 5 22.56                             118   -0.02 8  234 235 
 NOR  HN ES       16 5 50.65                             118    0.30 8  234 235 
 NOR  HZ I        16 5 57.86         9.2 0.32            115            234 235 
 SML  HZ EP       16 5 23.54                             117   -0.06 8  244 335 
 SML  HN ES       16 5 51.42                             117   -0.75 8  244 335 
 SML  HZ I        16 5 58.61        25.1 0.24            113            244 335 
 CHI  HZ EP       16 5 24.52                             117   -0.03 8  248 195 
 CHI  HN ES       16 5 53.39                             117   -0.47 8  248 195 
 CHI  HZ I        16 5 58.03         7.2 0.42            115            248 195 
 HEL  HZ EP   4   16 5 28.65                             115    1.56 0  271 256 
 HEL  HN ES   4   16 5 58.05                             115   -0.32 0  271 256 
 HEL  HZ I        16 6  5.54         7.3 0.30            111            271 256 
 GUY2CHZ EP   4   16 5 30.83                             112    0.36 0  300 235 
 GUY2CHN ES   4   16 6  8.64                             112    4.25 0  300 235 
 GUY2CHZ I        16 6 13.12         9.3 0.28                           300 235 
 COD  HZ EP   4   16 5 33.96                             109   -1.43 0  349 355 
 COD  HZ I        16 6  1.90         4.1 0.78            106            349 355 
 COD  HN ES   4   16 6 11.51                             109   -1.64 0  349 355 
 PRA  HZ EP       16 5 40.11                             106   -0.27 6  391 210 
 PRA  HN ES       16 6 22.63                             106    0.59 6  391 210 
 PRA  HZ I        16 6 28.28         7.2 0.40            104            391 210 
 SJC  HZ EP   4   16 5 40.75                             106   -1.80 0  410 327 
 SJC  HN ES   4   16 6 21.38                             106   -4.51 0  410 327 
 SJC  HZ I        16 6 29.31         2.6 0.64            103            410 327 
                                                                                
