 2012  128 1326 24.0 L   6.762 -73.141150.3  RSN  7 0.3 2.1LRSN                1
 GAP=139        0.82       5.2     6.0  6.5  0.1521E+01  0.7621E+01  0.4208E+01E
 Epicentro: LOS SANTOS - SANTANDER                                             3
 ACTION:UP  12-02-03 08:21 OP:REBC STATUS:               ID:20120128132624 L   I
 2012-01-28-1320-00M.COL___188                                                 6
 STAT SP IPHASW D HRMM SECON CODA AMPLIT PERI AZIMU VELO SNR AR TRES W  DIS CAZ7
 BAR2 SZ IP       1326 44.13                             172     0.010   19 194 
 BAR2 SZ ES   1   1326 59.47                             172    -0.3 7   19 194 
 BAR2 SZ I        1327  0.78        44.8 0.24                            19 194 
 GIR2 SZ EP       1326 44.28                             166    -0.110   36 351 
 GIR2 SZ ES   1   1327  0.07                             166    -0.1 7   36 351 
 BRR  HZ IP     C 1326 46.00                             152     0.210   74 301 
 BRR  HZ I        1326 46.27        58.5 0.13                            74 301 
 BRR  HN ES   1   1327  3.56                             152     0.8 7   74 301 
 PAM  SZ EP       1326 47.02                             151     0.110   80  37 
 PAM  SN ES   1   1327  4.43                             151    -0.3 7   80  37 
 RUS  HZ EP       1326 48.02                             146     0.110   96 176 
 RUS  HN ES   1   1327  6.61                             146     0.0 7   96 176 
 RUS  HZ I        1327  7.98         6.9 0.42                            96 176 
 PTB  HZ EP       1326 51.09                             133    -0.2 9  147 260 
 PTB  HZ I        1327 19.39        14.2 0.42                           147 260 
 ZAR  HE ES   2   1327 21.68                             123    -1.0 4  206 293 
 ZAR  HZ I        1327 28.91        11.8 0.38                           206 293 
                                                                                
