 2015  428 1240 45.6 L   6.737 -73.139136.5  RSN  7 0.4 1.7LRSN                1
 GAP=160        1.00       5.2     4.7  7.2 -0.9669E+01  0.8112E+01  0.4978E+01E
 Epicentro: LOS SANTOS - SANTANDER                                             3
 ACTION:UPD 15-06-03 16:58 OP:cam  STATUS:               ID:20150428124045 L   I
 OLDACT:REG 15-04-28 23:38 OP:ak   STATUS:               ID:20150428123848     3
 2015-04-28-1238-48M.COL___286                                                 6
 STAT SP IPHASW D HRMM SECON CODA AMPLIT PERI AZIMU VELO AIN AR TRES W  DIS CAZ7
 BAR2 EZ EP       1241  4.33                             173    0.3010 16.7 197 
 BAR2 EZ ES       1241 18.07                             173   -0.3110 16.7 197 
 BAR2 EZ I        1241 20.46         8.7 0.31            171           16.7 197 
 BRR  HZ EP       1241  6.19                             149    0.1510 75.4 303 
 BRR  HN ES       1241 22.77                             149    0.8110 75.4 303 
 BRR  HZ I        1241 26.59        10.9 0.23            151           75.4 303 
 PAM  SZ IP     C 1241  7.26                             147    0.0710 82.4  36 
 PAM  SN ES       1241 23.70                             147   -0.3110 82.4  36 
 PAM  SZ I        1241 26.55         4.9 0.50            153           82.4  36 
 PTB  HZ EP       1241 11.38                             130   -0.43 9  147 262 
 PTB  HN ES       1241 31.57                             130   -0.67 9  147 262 
 PTB  HZ I        1241 36.74         4.4 0.12            132            147 262 
 SPBC HE ES       1241 34.38                             128    0.10 9  158 221 
 SPBC HZ I        1241 36.96         5.8 0.14            130            158 221 
 ZAR  HN ES       1241 42.78                             120   -0.19 8  207 294 
 ZAR  HZ I        1241 43.18        12.4 0.10            122            207 294 
 NOR  HZ EP       1241 20.56                             117    0.09 8  231 236 
 NOR  HE ES       1241 48.00                             117    0.35 8  231 236 
 NOR  HZ I        1241 55.39         2.9 0.20            119            231 236 
                                                                                
