 2014  328 1120 49.8 L   6.881 -73.163144.4  RSN 10 0.4 2.2LRSN                1
 GAP=130        0.89       2.5     4.6  5.7 -0.1935E+01  0.1073E+02 -0.9855E+00E
 Epicentro: ZAPATOCA - SANTANDER                                               3
 ACTION:UPD 14-04-09 23:21 OP:nd   STATUS:               ID:20140328112049 L   I
 OLDACT:UP  14-03-28 19:10 OP:mh   STATUS:               ID:20140328111818     3
 OLDACT:UP  14-03-28 19:10 OP:mh   STATUS:               ID:20140328111818     3
 OLDACT:UP  14-03-28 19:09 OP:mh   STATUS:               ID:20140328111818     3
 OLDACT:REG 14-03-28 14:59 OP:mh   STATUS:               ID:20140328111818     3
 2014-03-28-1118-18M.COL___253                                                 6
 STAT SP IPHASW D HRMM SECON CODA AMPLIT PERI AZIMU VELO AIN AR TRES W  DIS CAZ7
 BAR2 SZ EP   1   1121  9.39                             167   -0.07 7 32.1 184 
 BAR2 SZ ES       1121 25.02                             167    0.2110 32.1 184 
 BAR2 SZ I    1   1121 25.59        42.5 0.20            168           32.1 184 
 PAM  SZ EP       1121 12.05                             152    0.5110 72.0  45 
 PAM  SN ES   1   1121 28.47                             152   -0.04 7 72.0  45 
 PAM  SZ I        1121 31.08        49.7 0.37            156           72.0  45 
 RUS  HZ EP       1121 14.14                             141    0.0510  110 175 
 RUS  HN ES       1121 32.68                             141   -0.3610  110 175 
 RUS  HZ I        1121 33.95         7.6 0.26            144            110 175 
 PTB  HZ EP       1121 16.10                             132   -0.56 9  148 255 
 PTB  HN ES   1   1121 37.51                             132   -0.11 7  148 255 
 PTB  HZ I        1121 39.69        20.6 0.21            132            148 255 
 OCA  HZ EP       1121 17.13                             131   -0.01 9  151 353 
 OCA  HN ES       1121 38.06                             131   -0.41 9  151 353 
 OCA  HZ I        1121 43.87        18.8 0.37            133            151 353 
 ZAR  HZ EP       1121 21.99                             123    0.36 9  199 290 
 ZAR  HN ES   2   1121 47.35                             123    0.88 4  199 290 
 ZAR  HZ I        1121 52.87        21.3 0.24            123            199 290 
 SML  HZ EP       1121 24.93                             118   -0.44 8  235 335 
 SML  HN ES   1   1121 54.02                             118    0.90 6  235 335 
 NOR  HZ EP       1121 25.63                             118   -0.22 8  239 232 
 NOR  HN ES       1121 53.55                             118   -0.44 8  239 232 
 NOR  HZ I        1121 57.20        12.3 0.16            119            239 232 
 CHI  HZ EP       1121 28.22                             116   -0.09 8  257 194 
 CHI  HN ES     C 1121 59.16                             116    0.80 8  257 194 
 CHI  HZ I        1122  5.74         5.4 0.44            118            257 194 
 URE  HZ EP   4   1121 28.80                             114   -1.43 0  279 290 
 URE  HN ES   4   1121 59.67                             114   -2.11 0  279 290 
 RREF HZ EP   4   1121 37.78                             110    1.39 0  326 228 
 SJC  HZ EP   4   1121 41.97                             106   -2.33 0  401 326 
 SJC  HN ES   4   1122 23.73                             106   -3.09 0  401 326 
 ORTC HZ EP   1   1121 44.58                             106    0.19 4  402 215 
 ORTC HN ES   1   1122 27.19                             106    0.21 4  402 215 
                                                                                
