 2011  928 1934  3.4 L   6.756 -73.097143.6  RSN  7 0.3 1.6LRSN                1
 GAP=145        0.60       3.1     5.2  6.0 -0.3303E+01  0.6764E+01  0.4826E+01E
 Epicentro: LOS SANTOS - SANTANDER                                             3
 ACTION:UPD 12-07-13 16:00 OP:ep   STATUS:               ID:20110928193403 L   I
 2011-09-28-1920-00M.COL___166                                                 6
 STAT SP IPHASW D HRMM SECON CODA AMPLIT PERI AZIMU VELO AIN AR TRES W  DIS CAZ7
 BAR2 SZ ES   2   1934 37.08                             171   -0.71 5 20.4 208 
 BAR2 SZ I        1934 40.55        14.1 0.85                          20.4 208 
 GIR2 SZ EP   2   1934 23.16                             165    0.16 5 37.3 343 
 PAM  SZ EP   1   1934 25.53                             151    0.10 7 78.0  34 
 PAM  SN ES   1   1934 42.39                             151   -0.22 7 78.0  34 
 BRR  HZ EP       1934 24.72                             150   -0.0210 78.3 300 
 BRR  HZ I        1934 31.82        12.5 0.43                          78.3 300 
 BRR  HE ES   1   1934 41.86                             150    0.47 7 78.3 300 
 RUS  HZ EP   1   1934 26.53                             145   -0.05 7 95.5 179 
 RUS  HN ES   1   1934 44.74                             145    0.08 7 95.5 179 
 RUS  HZ I        1934 46.45         4.1 0.20                          95.5 179 
 NOR  SZ EP   1   1934 38.74                             118   -0.45 6  236 236 
 NOR  SE ES   2   1935  6.51                             118   -0.59 4  236 236 
 CHI  HZ EP   2   1934 40.36                             117   -0.28 4  245 197 
 CHI  HN ES       1935 10.08                             117    0.40 8  245 197 
 CHI  HZ I        1935 16.35         2.6 0.56                           245 197 
                                                                                
