 2010  728 1526 20.7 L   6.293 -73.205  2.0  RSN  8 0.5 2.1LRSN                1
 GAP=147        1.04       2.8     7.9  8.4  0.2484E+01 -0.4774E+00 -0.1909E+01E
 Epicentro: CHARALA - SANTANDER                                                3
 ACTION:UPD 10-12-01 15:20 OP:pat  STATUS:               ID:20100728152620 L   I
 2010-07-28-1521-40S.COL___123                                                 6
 STAT SP IPHASW D HRMM SECON CODA AMPLIT PERI AZIMU VELO AIN AR TRES W  DIS CAZ7
 BAR2 SZ IP     D 1526 26.58                              47    -0.310   33   4 
 BAR2 SZ ES   2   1526 31.23                              47    -0.4 5   33   4 
 BAR2 SZ I        1526 32.12       118.7 0.12                            33   4 
 RUS  HZ EP   1   1526 28.99                              47    -0.1 7   46 163 
 RUS  HN ES   2   1526 34.96                              47    -0.7 5   46 163 
 RUS  HZ I        1526 35.91        91.5 0.32                            46 163 
 GIR2 SZ EP   1   1526 35.00                              47     0.1 7   87   1 
 GIR2 SZ ES   2   1526 45.96                              47     0.0 5   87   1 
 BRR  HZ EP   1   1526 38.05                              47     0.4 7  106 328 
 BRR  HE ES   2   1526 50.29                              47    -0.6 5  106 328 
 BRR  HZ I        1526 52.07        46.5 0.16                           106 328 
 BRI  SZ ES   2   1527  7.77                              47     1.0 5  164  16 
 BRI  SZ I        1527  9.95        20.3 0.26                           164  16 
 CHI  HZ EP   1   1526 52.13                              37     1.2 7  193 198 
 CHI  HZ I        1526 53.98        16.3 0.26                           193 198 
 CHI  HE ES   2   1527 14.44                              37    -0.1 4  193 198 
 OCA  SZ EP   1   1526 53.09                              37    -0.4 6  216 357 
 OCA  SZ ES   2   1527 19.52                              37     0.5 4  216 357 
 OCA  SZ I        1527 30.69        24.0 0.33                           216 357 
 HEL  HZ EP   1   1526 58.81                              37    -0.1 6  257 268 
 HEL  HZ I        1527 28.48        10.4 0.17                           257 268 
                                                                                
