 2016 1128 1138 18.1 L   6.782 -73.151149.4  RSN  4 0.2 1.3LRSN                1
 GAP=249        0.47       5.4     3.5  4.2  0.7557E+01  0.3103E+01  0.3087E+00E
 Epicentro: LOS SANTOS - SANTANDER                                             3
 ACTION:UPD 17-10-26 21:12 OP:lp   STATUS:               ID:20161128113818 L   I
 OLDACT:UP  16-11-28 22:10 OP:lv   STATUS:               ID:20161128113744     3
 OLDACT:REG 16-11-28 20:56 OP:lv   STATUS:               ID:20161128113744     3
 2016-11-28-1138-00M.COL___346                                                 6
 STAT SP IPHASW D HRMM SECON CODA AMPLIT PERI AZIMU VELO AIN AR TRES W  DIS CAZ7
 BAR2 EZ EP       1138 37.91                             172   -0.2010 21.3 189 
 BAR2 EZ ES       1138 53.94                             172    0.2110 21.3 189 
 BRR  HZ EP       1138 39.72                             153    0.0710 71.6 300 
 BRR  HN ES       1138 56.30                             153   -0.1710 71.6 300 
 PTB  HZ EP       1138 45.37                             133    0.11 9  147 260 
 PTB  HE ES       1139  6.34                             133   -0.12 9  147 260 
 PTB  HZ I        1139  7.67         1.7 0.17            131            147 260 
 ZAR  HZ EP   4   1138 52.50                             123    1.71 0  204 293 
 ZAR  HN ES       1139 16.44                             123    0.15 9  204 293 
 ZAR  HZ I        1139 22.38         2.2 0.20            121            204 293 
                                                                                
