 2010 1028 1631 43.9 L   6.577 -73.383120.0  RSN  5 0.3 1.6LRSN                1
 GAP=118        0.67       5.6     7.3 10.3  0.1254E+02  0.1480E+02  0.2630E+02E
 Epicentro: HATO - SANTANDER                                                   3
 ACTION:UP  11-02-18 11:12 OP:tino STATUS:               ID:20101028163143 L   I
 2010-10-28-1626-11S.COL___124                                                 6
 STAT SP IPHASW D HRMM SECON CODA AMPLIT PERI AZIMU VELO SNR AR TRES W  DIS CAZ7
 BAR2 SZ EP   1   1632  0.09                             169    -0.3 7   22  86 
 BAR2 SZ I        1632 14.27        17.3 0.11                            22  86 
 BRR  HZ EP       1632  2.08                             149    -0.110   69 328 
 BRR  HN ES   1   1632 16.79                             149     0.3 7   69 328 
 BRR  HZ I        1632 17.64        21.9 0.18                            69 328 
 RUS  HZ EP   1   1632  3.80                             144     0.0 7   83 156 
 RUS  HN ES   2   1632 19.56                             144     0.2 5   83 156 
 RUS  HZ I        1632 20.83         5.9 0.20                            83 156 
 NOR  SZ EP   2   1632 14.36                             117     0.0 4  199 236 
 NOR  SN ES   2   1632 37.64                             117    -0.4 4  199 236 
 CHI  HZ EP   2   1632 17.80                             115     0.8 4  219 190 
 CHI  HZ I        1632 18.73         1.6 0.16                           219 190 
                                                                                
