 2014  328 1448 26.3 L   6.607 -73.229142.7  RSN  5 0.5 1.7LRSN                1
 GAP=151        1.11       9.4     8.0 11.5  0.4566E+02 -0.7025E+01 -0.2388E+02E
 Epicentro: CABRERA - SANTANDER                                                3
 ACTION:UPD 14-04-09 23:21 OP:nd   STATUS:               ID:20140328144826 L   I
 OLDACT:REG 14-03-28 20:41 OP:mh   STATUS:               ID:20140328144647     3
 2014-03-28-1446-47M.COL___262                                                 6
 STAT SP IPHASW D HRMM SECON CODA AMPLIT PERI AZIMU VELO AIN AR TRES W  DIS CAZ7
 BAR2 SZ EP       1448 44.92                             178   -0.4210 5.39 107 
 BAR2 SZ I        1449  0.93        15.6 0.36            170           5.39 107 
 BRR  HZ EP       1448 46.81                             150   -0.6510 76.9 316 
 BRR  HN ES   1   1449  4.74                             150    0.78 7 76.9 316 
 RUS  HZ EP       1448 49.06                             149    0.6610 80.6 168 
 RUS  HN ES   1   1449  5.37                             149   -0.26 7 80.6 168 
 RUS  HZ I        1449  9.12         5.8 0.14            154           80.6 168 
 PTB  HZ EP       1448 51.99                             134    0.03 9  136 267 
 PTB  HN ES       1449 11.76                             134   -0.22 9  136 267 
 PTB  HZ I        1449 16.22         5.1 0.20            140            136 267 
 ZAR  HZ EP       1448 59.02                             121    0.38 9  205 299 
 ZAR  HN ES       1449 23.88                             121    0.02 9  205 299 
 ZAR  HZ I        1449 29.33         6.5 0.21            125            205 299 
                                                                                
