 2012  628 1207 46.9 L   6.714 -73.179139.8  RSN  5 0.5 1.5LRSN                1
 GAP=227        0.60      15.3    13.1  8.2  0.1400E+03 -0.1948E+01 -0.2247E+02E
 Epicentro: VILLANUEVA - SANTANDER                                             3
 ACTION:UP  12-08-06 17:53 OP:ep   STATUS:               ID:20120628120746 L   I
 2012-06-28-1200-00M.COL___201                                                 6
 STAT SP IPHASW D HRMM SECON CODA AMPLIT PERI AZIMU VELO AIN AR TRES W  DIS CAZ7
 BAR2 SZ EP       12 8  5.50                             175   -0.1010 13.5 181 
 BAR2 SZ ES       12 8 20.08                             175   -0.1410 13.5 181 
 BAR2 SZ I        12 8 21.41         4.8 0.24                          13.5 181 
 BRR  HZ EP   2   12 8  8.27                             150    0.80 5 73.2 306 
 BRR  HZ I        12 8 21.64        11.0 0.30                          73.2 306 
 BRR  HN ES   2   12 8 23.77                             150    0.22 5 73.2 306 
 RUS  HN ES   3   12 8 27.60                             145    0.68 2 91.5 173 
 PTB  HN ES   3   12 8 33.12                             131   -0.02 2  143 262 
 ZAR  HE ES   3   12 8 42.67                             121   -1.32 2  204 295 
                                                                                
