 2010  728 1014  1.4 L   6.807 -73.069141.7  RSN  5 0.2 1.4LRSN                1
 GAP=167        0.47       4.2     8.8  8.2  0.8767E+01 -0.3708E+02 -0.1562E+02E
 Epicentro: LOS SANTOS - SANTANDER                                             3
 ACTION:UPD 10-12-01 15:20 OP:pat  STATUS:               ID:20100728101401 L   I
 2010-07-28-1010-58S.COL___123                                                 6
 STAT SP IPHASW D HRMM SECON CODA AMPLIT PERI AZIMU VELO AIN AR TRES W  DIS CAZ7
 BAR2 SZ EP   1   1014 20.47                             169    -0.1 7   27 208 
 BAR2 SZ ES   2   1014 35.24                             169    -0.3 5   27 208 
 BAR2 SZ I        1014 38.39         8.1 0.44                            27 208 
 BRR  HZ EP   1   1014 22.37                             150    -0.2 7   79 295 
 BRR  HE ES   2   1014 39.28                             150     0.3 5   79 295 
 BRR  HZ I        1014 44.02         7.0 0.37                            79 295 
 RUS  HZ EP   1   1014 24.79                             143     0.0 7  101 181 
 RUS  HZ I        1014 25.64         1.7 0.19                           101 181 
 RUS  HN ES   2   1014 43.30                             143     0.3 5  101 181 
 GUE  SZ EP   1   1014 25.44                             139    -0.1 7  114   8 
 GRA  SZ EP   1   1014 26.29                             137     0.3 7  123  14 
                                                                                
