 2011  628 1906 59.4 L   7.246 -73.207160.4  RSN  5 0.5 2.0LRSN                1
 GAP= 99        1.59      17.2    16.5 17.9 -0.5246E+02  0.1664E+02 -0.4209E+02E
 Epicentro: RIONEGRO - SANTANDER                                               3
 ACTION:UP  11-07-14 19:08 OP:ep   STATUS:               ID:20110628190659 L   I
 2011-06-28-1904-58S.COL___139                                                 6
 STAT SP IPHASW D HRMM SECON CODA AMPLIT PERI AZIMU VELO SNR AR TRES W  DIS CAZ7
 BTL  SZ EP       19 7 20.57                             166    -0.510   37 191 
 PAM  SZ EP       19 7 23.07                             160     0.910   57  80 
 PAM  SN ES   1   19 7 39.67                             160    -0.3 7   57  80 
 BRR  HZ EP       19 7 22.08                             159     0.610   58 255 
 BRR  HZ I        19 7 23.50        13.7 0.11                            58 255 
 BRR  HN ES   1   19 7 38.89                             159     0.2 7   58 255 
 BAR2 SZ EP       19 7 22.12                             155    -0.410   72 178 
 BAR2 SZ I        19 7 37.22         8.1 0.45                            72 178 
 OCA  SZ EP       19 7 24.34                             144    -0.510  110 354 
 OCA  SZ I        19 7 24.87        27.0 0.08                           110 354 
                                                                                
