 2011 1028 1612 32.4 L   6.773 -73.083149.2  RSN  4 0.1 1.4LRSN                1
 GAP=200        0.31       6.6    11.6  4.9  0.6643E+02 -0.2285E+02 -0.1168E+02E
 Epicentro: LOS SANTOS - SANTANDER                                             3
 ACTION:UPD 12-07-13 16:06 OP:ep   STATUS:               ID:20111028161232 L   I
 2011-10-28-1600-00M.COL___177                                                 6
 STAT SP IPHASW D HRMM SECON CODA AMPLIT PERI AZIMU VELO AIN AR TRES W  DIS CAZ7
 BAR2 SZ EP       1612 52.49                             171    0.1110 22.8 209 
 BAR2 SZ ES   2   1613  7.85                             171   -0.16 5 22.8 209 
 BAR2 SZ I        1613  9.97         5.3 0.80                          22.8 209 
 GIR2 SZ EP   3   1612 52.49                             166   -0.08 2 36.0 340 
 BRR  HZ EP       1612 54.30                             151   -0.0110 78.7 298 
 BRR  HZ I        1612 55.27         7.6 0.46                          78.7 298 
 BRR  HE ES   2   1613 11.39                             151   -0.04 5 78.7 298 
 RUS  HZ EP       1612 56.15                             146   -0.0610 97.3 180 
 RUS  HN ES   2   1613 14.90                             146    0.08 5 97.3 180 
 RUS  HZ I        1613 16.63         2.1 0.46                          97.3 180 
                                                                                
