 2016  928 1304 47.7 L   6.774 -73.158140.5  RSN  8 0.3 1.5LRSN                1
 GAP=234        0.76       3.1     3.8  4.7  0.3770E+01  0.3853E+01  0.2241E+01E
 Epicentro: LOS SANTOS - SANTANDER                                             3
 ACTION:UPD 17-08-17 21:17 OP:lp   STATUS:               ID:20160928130447 L   I
 OLDACT:UP  16-09-28 23:23 OP:edw  STATUS:               ID:20160928125731     3
 OLDACT:REG 16-09-28 20:51 OP:edw  STATUS:               ID:20160928125731     3
 2016-09-28-1258-00M.COL___387                                                 6
 STAT SP IPHASW D HRMM SECON CODA AMPLIT PERI AZIMU VELO AIN AR TRES W  DIS CAZ7
 BAR2 EZ EP       13 5  6.17                             171   -0.4610 20.3 188 
 BAR2 EZ ES       13 5 21.43                             171    0.0310 20.3 188 
 BAR2 EZ I        13 5 22.77        12.0 0.18            169           20.3 188 
 BRR  HZ EP       13 5  8.06                             151   -0.2310 71.5 301 
 BRR  HN ES       13 5 24.42                             151    0.0610 71.5 301 
 RUS  HZ EP       13 5 10.65                             143   -0.0810 97.8 175 
 RUS  HN ES       13 5 29.07                             143    0.3710 97.8 175 
 RUS  HZ I        13 5 29.94         4.8 0.28            144           97.8 175 
 PTB  HZ EP       13 5 14.27                             131    0.20 9  146 260 
 PTB  HE ES       13 5 34.50                             131   -0.14 9  146 260 
 PTB  HZ I        13 5 38.56         2.1 0.15            130            146 260 
 SPBC HZ EP       13 5 15.88                             128    0.38 9  160 219 
 SPBC HN ES       13 5 37.04                             128   -0.15 9  160 219 
 SPBC HZ I        13 5 40.31         6.8 0.14            128            160 219 
 ZAR  HZ EP       13 5 20.42                             121    0.63 9  204 293 
 ZAR  HN ES       13 5 44.78                             121   -0.04 9  204 293 
 ZAR  HZ I        13 5 50.78         3.6 0.11            121            204 293 
 NOR  HE ES       13 5 49.97                             118   -0.26 8  232 235 
 CHI  HZ EP       13 5 24.28                             116   -0.49 8  246 195 
 CHI  HN ES       13 5 53.88                             116    0.20 8  246 195 
 CHI  HZ I        13 5 56.04         1.5 0.14            117            246 195 
                                                                                
