 2017 1128 1032 35.4 L   6.570 -73.536105.0  RSN 20 0.6 2.0LRSN                1
 GAP= 56        1.40       2.7     2.6  6.6 -0.6242E+00  0.5208E+01 -0.8476E+00E
 Epicentro: EL CARMEN - SANTANDER                                              3
 ACTION:UPD 17-12-12 20:01 OP:rebc STATUS:               ID:20171128103235 L   I
 OLDACT:DUP 17-11-28 21:56 OP:dhb  STATUS:               ID:20171128102745d    3
 OLDACT:REG 17-11-28 19:23 OP:dhb  STATUS:               ID:20171128102744     3
 2017-11-28-1028-00M.COL___483                                                 6
 STAT SP IPHASW D HRMM SECON CODA AMPLIT PERI AZIMU VELO AIN AR TRES W  DIS CAZ7
 BAR2 EZ IP     D 1032 51.07                             158    0.3110 39.2  86 
 BAR2 EZ ES       1033  3.50                             158    0.7710 39.2  86 
 RUS  HZ EP       1032 54.25                             136   -0.2810 90.2 146 
 RUS  HN ES       1033  9.44                             136    0.0110 90.2 146 
 RUS  HZ I        1033 11.12        11.6 0.36            132           90.2 146 
 PTB  HZ EP       1032 53.70                             132   -1.1910  102 268 
 PTB  HE ES       1033  9.40                             132   -0.6910  102 268 
 PTB  HZ I        1033 10.38        18.7 0.10            128            102 268 
 SPBC HZ EP       1032 56.07                             128   -0.4010  118 210 
 SPBC HE ES       1033 12.75                             128   -0.1410  118 210 
 SPBC HZ I        1033 19.82        17.7 0.30            123            118 210 
 PAM  EZ IP     D 1032 57.74                             126   -0.0410  126  47 
 PAM  EE ES       1033 15.29                             126    0.0610  126  47 
 PAM  EZ I        1033 16.70        13.2 0.42            125            126  47 
 ZAR  HZ EP       1033  3.45                             115    0.77 9  178 305 
 ZAR  HN ES       1033 24.25                             115    0.30 9  178 305 
 ZAR  HZ I        1033 28.31        23.4 0.50            113            178 305 
 YPLC HZ EP       1033  2.97                             115   -0.25 9  182 135 
 YPLC HN ES       1033 25.25                             115    0.33 9  182 135 
 YPLC HZ I        1033 27.08        31.5 0.44            112            182 135 
 NOR  HZ EP       1033  2.61                             114   -0.87 9  185 233 
 NOR  HE ES       1033 24.32                             114   -1.06 9  185 233 
 NOR  HZ I        1033 29.23        11.3 0.22            111            185 233 
 OCA  HZ EP       1033  3.15                             114   -0.60 9  186   7 
 OCA  HE ES       1033 26.16                             114    0.31 9  186   7 
 TAM  HZ EP       1033  3.76                             113   -0.68 9  194  94 
 TAM  HN ES       1033 26.90                             113   -0.18 9  194  94 
 TAM  HZ I        1033 29.17        10.0 0.20            112            194  94 
 CHI  HZ EP       1033  7.81                             110    0.39 8  216 186 
 CHI  HE ES       1033 32.70                             110    0.32 8  216 186 
 CHI  HZ I        1033 39.40         3.9 0.48            108            216 186 
 HEL  HZ EP       1033  9.37                             109    1.01 8  224 259 
 HEL  HE ES       1033 34.50                             109    0.44 8  224 259 
 HEL  HZ I        1033 37.85        11.0 0.36            108            224 259 
 GUY2CHZ EP       1033 12.08                             107    0.47 8  251 234 
 GUY2CHE ES       1033 40.83                             107    0.98 8  251 234 
 GUY2CHZ I        1033 45.95         7.3 0.26                           251 234 
 URE  HZ EP       1033 10.50                             106   -1.12 8  256 301 
 URE  HN ES       1033 39.26                             106   -0.60 8  256 301 
 URE  HZ I        1033 41.19        12.4 0.38            106            256 301 
 CBOC HZ EP       1033 15.93                             104    0.74 7  285 254 
 CBOC HE ES       1033 46.64                             104    0.43 7  285 254 
 CBOC HZ I        1033 57.28         2.4 0.30            104            285 254 
 DBB  HN ES       1033 49.63                             103    0.51 7  300 280 
 DBB  HZ I        1033 53.85         7.1 0.34            103            300 280 
 PTGC HZ EP   9   1033 15.52                             103   -1.81 0  305 149 
 PTGC HE ES       1033 48.36                                    0.14 7  305 149 
 PTGC HZ I        1033 50.28        10.7 0.40            103            305 149 
 DRL03HZ EP       1033 19.04                             102    0.85 7  312   1 
 DRL03HE ES       1033 51.83                             102    0.28 7  312   1 
 ORTC HZ EP       1033 22.96                             100    0.17 6  350 213 
 ORTC HZ I        1034  5.98         3.9 0.68            101            350 213 
 PRA  HZ EP       1033 22.37                             100   -0.36 6  350 205 
 PRA  HE ES       1033 59.54                             100   -0.10 6  350 205 
 PRA  HZ I        1034  6.21         3.9 0.38            101            350 205 
 ORTC HE ES       1034  0.66                             100    0.92 6  350 213 
                                                                                
