 2010  528 1009 29.3 L   6.797 -73.047141.0  RSN  6 0.5 2.0LRSN                1
 GAP=185        1.06       6.5    14.8 12.9 -0.5884E+02  0.4164E+02  0.9752E+01E
 Epicentro: CEPITA - SANTANDER                                                 3
 ACTION:UP  10-08-24 10:07 OP:vdl  STATUS:               ID:20100528100929 L   I
 2010-05-28-1006-47S.COL___108                                                 6
 STAT SP IPHASW D HRMM SECON CODA AMPLIT PERI AZIMU VELO SNR AR TRES W  DIS CAZ7
 BAR2 SZ EP       10 9 48.44                             168     0.010   27 214 
 BAR2 SZ ES   2   1010  2.75                             168    -0.6 5   27 214 
 GUE  SZ EP       10 9 53.60                             139     0.110  115   7 
 GRA  SZ EP   1   10 9 54.26                             137     0.3 7  123  13 
 GRA  SZ ES   1   1010 13.95                             137     0.8 7  123  13 
 OCA  SZ EP   1   10 9 57.18                             128    -0.3 7  162 349 
 OCA  SZ ES   1   1010 18.50                             128    -0.9 7  162 349 
 OCA  SZ I        1010 27.60        11.0 0.53                           162 349 
 CHI  HZ EP   1   1010  6.29                             116    -0.8 6  251 198 
 CHI  HZ I        1010  7.45         5.3 0.16                           251 198 
 CHI  HN ES   2   1010 36.66                             116     0.2 4  251 198 
 RREF BZ EP   1   1010 16.20                             109     0.0 5  330 231 
 RREF BN ES   1   1010 53.63                             109     0.9 5  330 231 
 RREF BZ I        1010 57.54         5.7 0.30                           330 231 
                                                                                
