 2013  628 1237 11.6 L   6.799 -72.986146.0  RSN  9 0.4 2.4LRSN                1
 GAP=158        0.88       4.4     5.9  8.8 -0.2412E+01  0.1232E+02  0.8172E+01E
 Epicentro: CEPITA - SANTANDER                                                 3
 ACTION:UPD 14-01-08 09:57 OP:ep   STATUS:               ID:20130628123711 L   I
 OLDACT:REG 13-06-28 16:02 OP:carl STATUS:               ID:20130628122960d    3
 2013-06-28-1229-59M.COL___267                                                 6
 STAT SP IPHASW D HRMM SECON CODA AMPLIT PERI AZIMU VELO AIN AR TRES W  DIS CAZ7
 BAR2 SZ EP       1237 31.02                             167   -0.3910 31.6 224 
 BAR2 SZ I        1237 49.06        30.4 0.20            166           31.6 224 
 GIR2 SZ EP       1237 31.46                             164   -0.0210 38.5 323 
 GIR2 SZ ES   1   1237 47.00                             164   -0.01 7 38.5 323 
 PAM  SZ EP   1   1237 33.74                             154    0.49 7 67.6  28 
 PAM  SN ES   1   1237 50.90                             154    0.74 7 67.6  28 
 PAM  SZ I        1237 53.04        17.7 0.52            150           67.6  28 
 BRR  HN ES   1   1237 50.51                             147   -0.48 7 87.2 293 
 BRR  HN I        1237 51.50       111.6 0.22            145           87.2 293 
 RUS  HZ EP   1   1237 34.89                             144   -0.46 7  101 186 
 RUS  HN ES   1   1237 54.04                             144    0.13 7  101 186 
 RUS  HZ I        1237 54.72        15.8 0.26            138            101 186 
 OCA  HN ES       1238  2.25                             129   -0.26 9  163 347 
 OCA  HZ I        1238  6.01        27.1 0.34            125            163 347 
 PTB  HE ES   4   1238  0.03                             129   -2.44 0  165 260 
 PTB  HZ I        1238  6.52        40.9 0.38            125            165 260 
 NOR  HN ES   4   1238 16.00                             117   -1.98 0  249 237 
 NOR  HZ I        1238 19.36        23.4 0.22            113            249 237 
 SML  HN ES   4   1238 16.04                             117   -2.28 0  252 332 
 HEL  HZ EP   2   1237 54.11                             113    0.41 4  289 257 
 HEL  HN ES       1238 27.19                             113    0.63 7  289 257 
 HEL  HZ I        1238 30.27        15.1 0.28            109            289 257 
                                                                                
