 2016  328 1121 45.8 L   6.798 -73.147145.1  RSN  9 0.4 2.1LRSN                1
 GAP=136        0.86       3.2     3.5  5.3 -0.1850E+01  0.5716E+01  0.8011E+00E
 Epicentro: LOS SANTOS - SANTANDER                                             3
 ACTION:UPD 16-05-13 21:28 OP:cam  STATUS:               ID:20160328112145 L   I
 OLDACT:UP  16-03-29 11:54 OP:dnl  STATUS:               ID:20160328112145 L   3
 OLDACT:REG 16-03-28 20:09 OP:drio STATUS:               ID:20160328111748     3
 2016-03-28-1117-48M.COL___302                                                 6
 STAT SP IPHASW D HRMM SECON CODA AMPLIT PERI AZIMU VELO AIN AR TRES W  DIS CAZ7
 BAR2 EZ EP       1122  5.38                             171    0.0410 23.1 190 
 BAR2 EZ ES       1122 20.02                             171   -0.5610 23.1 190 
 BAR2 EZ I        1122 21.56        48.1 0.24            171           23.1 190 
 PAM  EZ EP       1122  8.34                             150    0.3910 77.6  40 
 PAM  EE ES       1122 25.48                             150    0.2510 77.6  40 
 PAM  EZ I        1122 30.23        14.4 0.56            152           77.6  40 
 RUS  HZ EP       1122  9.42                             144   -0.0510  100 176 
 RUS  HE ES       1122 28.10                             144    0.1710  100 176 
 RUS  HZ I        1122 28.85        17.4 0.22            146            100 176 
 PTB  HZ EP       1122 11.96                             132   -0.73 9  148 259 
 PTB  HN ES       1122 33.43                             132   -0.23 9  148 259 
 PTB  HZ I        1122 35.60        16.5 0.12            132            148 259 
 SPBC HZ EP       1122 14.07                             129   -0.15 9  163 219 
 SPBC HE ES       1122 36.60                             129    0.22 9  163 219 
 SPBC HZ I        1122 37.55        28.3 0.28            130            163 219 
 ZAR  HZ EP       1122 17.97                             122   -0.21 9  204 292 
 ZAR  HE ES       1122 43.70                             122    0.25 9  204 292 
 ZAR  HZ I        1122 49.32        15.7 0.32            123            204 292 
 NOR  HZ EP       1122 21.80                             118    0.34 8  234 234 
 NOR  HN ES       1122 50.00                             118    0.73 8  234 234 
 NOR  HZ I        1122 55.48        11.3 0.20            119            234 234 
 CHI  HZ EP       1122 23.21                             117   -0.22 8  248 195 
 CHI  HN ES       1122 52.69                             117   -0.10 8  248 195 
 CHI  HZ I        1122 58.62         3.0 0.42            118            248 195 
 GUY2CHZ EP   9   1122 30.96                             112    1.62 0  301 235 
 GUY2CHE ES       1123  4.82                             112   -0.11 7  301 235 
 GUY2CHZ I        1123  9.53         7.5 0.24                           301 235 
                                                                                
