 2016 1028 1820 31.8 L   6.791 -73.122151.6  RSN  5 0.4 1.8LRSN                1
 GAP=140        1.01       5.4     5.1  8.8 -0.7122E+01  0.6019E+01  0.8047E+01E
 Epicentro: LOS SANTOS - SANTANDER                                             3
 ACTION:UPD 16-11-09 19:23 OP:rebc STATUS:               ID:20161028182031 L   I
 OLDACT:DUP 16-10-29 01:14 OP:dani STATUS:               ID:20161028181748d    3
 OLDACT:UP  16-10-29 01:14 OP:dani STATUS:               ID:20161028181747d    3
 OLDACT:UP  16-10-29 01:12 OP:dani STATUS:               ID:20161028181747d    3
 OLDACT:DUP 16-10-29 01:09 OP:dani STATUS:               ID:20161028181747d    3
 2016-10-28-1818-00M.COL___349                                                 6
 STAT SP IPHASW D HRMM SECON CODA AMPLIT PERI AZIMU VELO AIN AR TRES W  DIS CAZ7
 BRR  HZ EP       1820 53.91                             153    0.1710 74.0 298 
 BRR  HE ES       1821 11.35                             153    0.4910 74.0 298 
 BRR  HZ I        1821 12.88        22.9 0.43            152           74.0 298 
 PAM  EZ EP       1820 54.85                             152    0.2510 76.5  38 
 PAM  EN ES       1821 12.12                             152   -0.2510 76.5  38 
 PAM  EZ I        1821 14.13        11.3 0.57            155           76.5  38 
 RUS  HZ EP       1820 56.02                             145   -0.0410 99.4 178 
 RUS  HE ES       1821 14.91                             145   -0.0610 99.4 178 
 RUS  HZ I        1821 16.19         3.0 0.16            148           99.4 178 
 PTB  HZ EP       1820 59.06                             133   -0.41 9  150 259 
 PTB  HN ES       1821 20.33                             133   -0.72 9  150 259 
 PTB  HZ I        1821 27.20         8.3 0.33            134            150 259 
 NOR  HE ES       1821 36.97                             119    0.65 8  236 235 
                                                                                
