 2016  628 1152 39.1 L   7.172 -73.263116.2  RSN 14 0.5 2.0LRSN                1
 GAP=107        1.06       3.3     3.8  5.5 -0.2515E+01  0.2562E+01 -0.1698E+01E
 Epicentro: LEBRIJA - SANTANDER                                                3
 ACTION:UPD 16-07-21 22:23 OP:rebc STATUS:               ID:20160628115239 L   I
 OLDACT:UP  16-06-28 22:16 OP:ak   STATUS:               ID:20160628114746     3
 OLDACT:REG 16-06-28 20:49 OP:ak   STATUS:               ID:20160628114746     3
 2016-06-28-1147-46M.COL___337                                                 6
 STAT SP IPHASW D HRMM SECON CODA AMPLIT PERI AZIMU VELO AIN AR TRES W  DIS CAZ7
 BRR  HZ IP     D 1152 55.88                             155   -0.0210 50.1 262 
 BRR  HN ES       1153  9.09                             155    0.1110 50.1 262 
 BRR  HZ I        1153 10.51        24.5 0.09                          50.1 262 
 BAR2 EZ IP     D 1152 57.11                             149    0.0310 64.7 172 
 BAR2 EZ ES       1153 10.78                             149   -0.3110 64.7 172 
 BAR2 EZ I        1153 12.25        46.8 0.20                          64.7 172 
 PAM  EN ES   4   1153 13.77                             149    2.01 0 64.9  73 
 RUS  HZ EP   9   1153  1.50                             126   -2.50 0  143 172 
 RUS  HN ES       1153 20.97                                    0.07 9  143 172 
 RUS  HZ I        1153 23.90         6.0 0.17                           143 172 
 PTB  HZ EP   2   1153  2.99                             124   -1.02 5  149 242 
 PTB  HN ES   4   1153 21.47                             124   -1.95 0  149 242 
 PTB  HZ I        1153 24.05        23.2 0.05                           149 242 
 ZAR  HZ EP       1153  7.16                             118   -0.01 9  180 281 
 ZAR  HN ES       1153 29.27                             118    0.22 9  180 281 
 ZAR  HZ I        1153 35.53        11.5 0.30                           180 281 
 SPBC HZ EP       1153  9.40                             117    0.96 9  190 208 
 SPBC HE ES       1153 32.01                             117    0.71 9  190 208 
 SPBC HZ I        1153 36.20        14.4 0.15                           190 208 
 NOR  HZ EP       1153 14.55                             110   -0.68 8  251 225 
 NOR  HN ES       1153 42.84                             110   -0.55 8  251 225 
 NOR  HZ I        1153 46.16                                            251 225 
 HEL  HZ EP       1153 18.73                             108    0.61 8  273 247 
 HEL  HN ES       1153 48.36                             108   -0.17 8  273 247 
 HEL  HZ I        1153 52.74         6.1 0.46                           273 247 
 CHI  HZ EP       1153 20.27                             107    0.60 7  286 190 
 CHI  HN ES       1153 50.29                             107   -1.01 7  286 190 
 CHI  HZ I        1154  2.56         3.5 0.50                           286 190 
 SOCV BZ EP   4   1153 18.09                             106   -1.89 0  293  65 
 SOCV BN ES       1153 51.85                             106    0.01 7  293  65 
 GUY2CHZ EP       1153 23.09                             105   -0.31 7  317 227 
 GUY2CHE ES       1153 57.74                             105   -0.19 7  317 227 
 GUY2CHZ I        1154  5.11         4.1 0.38                           317 227 
 SJC  HZ EP       1153 28.06                             102   -0.86 6  368 325 
 SJC  HN ES   4   1154  5.76                             102   -2.00 0  368 325 
 SJC  HZ I        1154 13.45         1.9 0.46                           368 325 
 PRA  HZ EP   2   1153 35.21                             100   -0.24 3  423 205 
 PRA  HN ES       1154 20.07                             100    0.69 5  423 205 
 PRA  HZ I        1154 26.44         4.4 0.34                           423 205 
 CRJC HZ EP   4   1153 37.41                              99    1.28 0  428   6 
 CRJC HN ES       1154 20.86                              99    0.27 5  428   6 
 CRJC HZ I        1154 29.14         5.5 0.31                           428   6 
                                                                                
