 2014  828 1440  7.7 L   6.808 -73.137146.4  RSN 10 0.5 1.9LRSN                1
 GAP=137        1.10       3.5     5.1  6.1 -0.1855E+01  0.4460E+01 -0.1239E+00E
 Epicentro: LOS SANTOS - SANTANDER                                             3
 ACTION:UPD 14-09-15 21:53 OP:nd   STATUS:               ID:20140828144007 L   I
 OLDACT:REG 14-08-28 20:42 OP:stll STATUS:               ID:20140828143817     3
 2014-08-28-1438-17M.COL___263                                                 6
 STAT SP IPHASW D HRMM SECON CODA AMPLIT PERI AZIMU VELO AIN AR TRES W  DIS CAZ7
 BAR2 SZ EP       1440 27.54                             170    0.1010 24.3 192 
 BAR2 SZ ES       1440 42.53                             170   -0.3010 24.3 192 
 BAR2 SZ I        1440 43.98        31.4 0.18            169           24.3 192 
 BRR  HZ EP       1440 29.31                             153    0.3510 71.6 298 
 BRR  HN ES       1440 46.40                             153    0.8810 71.6 298 
 BRR  HZ I        1440 48.97        11.6 0.30            150           71.6 298 
 PAM  SZ EP       1440 30.27                             151    0.3510 76.1  39 
 PAM  SZ I        1440 30.61        19.4 0.22            154           76.1  39 
 RUS  HZ EP       1440 31.40                             144   -0.1810  101 177 
 RUS  HZ I        1440 32.51         6.4 0.16            145            101 177 
 RUS  HN ES       1440 50.00                             144   -0.2010  101 177 
 PTB  HZ EP       1440 34.52                             132   -0.31 9  149 259 
 PTB  HN ES       1440 55.16                             132   -0.82 9  149 259 
 PTB  HZ I        1440 58.54         8.7 0.32            131            149 259 
 SPBC HZ EP       1440 36.64                             129    0.26 9  164 219 
 SPBC HN ES       1440 58.85                             129    0.11 9  164 219 
 SPBC HZ I        1441  3.35        12.4 0.28            129            164 219 
 NOR  HZ EP       1440 43.55                             118   -0.06 8  236 234 
 NOR  HE ES       1441 11.65                             118    0.03 8  236 234 
 NOR  HZ I        1441 17.62         5.2 0.14            118            236 234 
 SML  HZ EP       1440 43.82                             118   -0.51 8  243 335 
 SML  HN ES       1441 12.39                             118   -0.51 8  243 335 
 SML  HZ I        1441 20.39         9.1 0.24            118            243 335 
 CHI  HZ EP       1440 45.11                             117   -0.45 8  250 195 
 CHI  HN ES       1441 14.97                             117   -0.11 8  250 195 
 CHI  HZ I        1441 20.63         4.1 0.26            118            250 195 
 GUY2CHZ EP       1440 52.62                             112    1.13 7  302 235 
 GUY2CHE ES       1441 25.89                             112    0.25 7  302 235 
 GUY2CHZ I        1441 33.84         3.3 0.54                           302 235 
                                                                                
