 2013  128 1715 23.2 L   6.740 -73.098144.8  RSN  4 0.2 1.7LRSN                1
 GAP=145        0.45       2.4     3.6  4.0 -0.1318E+00 -0.9064E+00  0.4731E+00E
 Epicentro: JORDAN - SANTANDER                                                 3
 ACTION:UPD 13-02-15 09:17 OP:ep   STATUS:               ID:20130128171523 L   I
 2013-01-28-1710-00M.COL___241                                                 6
 STAT SP IPHASW D HRMM SECON CODA AMPLIT PERI AZIMU VELO AIN AR TRES W  DIS CAZ7
 BAR2 SZ EP   1   1715 42.14                             172   -0.48 7 18.8 209 
 BAR2 SZ ES   1   1715 57.78                             172    0.01 7 18.8 209 
 BAR2 SZ I        1715 58.69        14.7 0.16            170           18.8 209 
 BRR  HZ EP       1715 44.71                             150    0.0210 79.0 301 
 BRR  HE ES       1716  1.50                             150    0.0410 79.0 301 
 BRR  HE I        1716  6.55        16.1 0.51            147           79.0 301 
 PAM  SZ EP       1715 45.59                             150    0.1610 79.6  34 
 PAM  SZ I        1715 45.90         6.6 0.30            152           79.6  34 
 PAM  SN ES       1716  2.73                             150   -0.0510 79.6  34 
 RUS  HZ EP       1715 46.43                             146    0.0710 93.8 179 
 RUS  HN ES       1716  4.48                             146    0.0410 93.8 179 
 RUS  HN I        1716  5.38         5.2 0.42            147           93.8 179 
                                                                                
