 2014  328 1941 22.6 L   6.799 -73.123147.8  RSN 19 0.4 2.6LRSN                1
 GAP=139        0.92       2.4     3.6  4.8 -0.1623E+01  0.6665E+01  0.1316E+01E
 Epicentro: LOS SANTOS - SANTANDER                                             3
 ACTION:UPD 14-04-09 23:21 OP:nd   STATUS:               ID:20140328194122 L   I
 OLDACT:UP  14-03-28 20:31 OP:mh   STATUS:               ID:20140328193818     3
 OLDACT:UP  14-03-28 20:31 OP:mh   STATUS:               ID:20140328193818     3
 OLDACT:UP  14-03-28 20:31 OP:mh   STATUS:               ID:20140328193818     3
 OLDACT:UP  14-03-28 20:30 OP:mh   STATUS:               ID:20140328193818     3
 OLDACT:REG 14-03-28 17:18 OP:mh   STATUS:               ID:20140328193818     3
 2014-03-28-1938-18M.COL___259                                                 6
 STAT SP IPHASW D HRMM SECON CODA AMPLIT PERI AZIMU VELO AIN AR TRES W  DIS CAZ7
 BAR2 SZ EP       1941 42.44                             170   -0.0010 23.8 196 
 BAR2 SZ ES   1   1941 57.33                             170   -0.62 7 23.8 196 
 BAR2 SZ I        1942  0.33       127.8 0.18            168           23.8 196 
 BRR  HZ EP       1941 44.36                             152    0.3010 73.5 298 
 BRR  HN ES       1942  1.49                             152    0.6710 73.5 298 
 BRR  HZ I        1942  5.29        42.5 0.12            148           73.5 298 
 PAM  SZ EP     C 1941 45.20                             152    0.2910 75.9  38 
 PAM  SN ES       1942  2.43                             152    0.1010 75.9  38 
 PAM  SZ I        1942  4.64        68.3 0.18            154           75.9  38 
 RUS  HZ EP       1941 46.33                             144   -0.1610  100 177 
 RUS  HN ES       1942  4.89                             144   -0.2710  100 177 
 RUS  HZ I        1942  6.31        32.4 0.29            145            100 177 
 PTB  HZ EP   1   1941 49.08                             132   -0.84 7  150 259 
 PTB  HZ I        1942 16.33        61.6 0.23            129            150 259 
 OCA  HZ EP       1941 51.79                             130    0.72 9  161 352 
 OCA  HN ES       1942 13.02                             130   -0.28 9  161 352 
 OCA  HZ I        1942 20.95        43.6 0.20            130            161 352 
 SPBC HZ EP       1941 51.34                             129   -0.02 9  165 220 
 SPBC HE ES   1   1942 14.08                             129    0.26 7  165 220 
 ZAR  HZ EP       1941 55.04                             122   -0.34 8  206 292 
 ZAR  HN ES       1942 20.88                             122   -0.10 8  206 292 
 ZAR  HZ I        1942 26.92        44.4 0.10            121            206 292 
 NOR  HZ EP       1941 58.30                             119   -0.32 8  237 235 
 NOR  HN ES       1942 26.30                             119   -0.45 8  237 235 
 NOR  HZ I        1942 32.29        33.9 0.20            118            237 235 
 SML  HZ EP       1941 58.86                             118   -0.57 8  245 335 
 SML  HN ES   1   1942 27.22                             118   -0.96 6  245 335 
 CHI  HZ EP   1   1942  0.40                             117   -0.03 6  249 196 
 CHI  HN ES       1942 29.67                             117   -0.30 8  249 196 
 CHI  HZ I        1942 35.84        14.7 0.38            118            249 196 
 ROSC BZ EP   1   1942  2.07                             117    1.15 6  254 212 
 ROSC BN ES   4   1942 32.89                             117    2.05 0  254 212 
 ROSC BZ I        1942 40.34        46.2 0.38            117            254 212 
 HEL  HZ EP       1942  3.48                             115    0.34 8  274 256 
 HEL  HN ES   1   1942 35.32                             115    0.52 6  274 256 
 HEL  HZ I        1942 41.35        19.3 0.41            114            274 256 
 URE  HZ EP   4   1942  1.51                             114   -2.49 0  286 292 
 URE  HN ES   4   1942 33.07                             114   -3.24 0  286 292 
 GUY2CHZ EP       1942  6.63                             112    0.14 7  303 235 
 GUY2CHN ES   1   1942 41.30                             112    0.55 5  303 235 
 GUY2CHZ I        1942 49.35        30.8 0.33                           303 235 
 RREF HZ EP       1942  9.37                             111    0.37 7  324 230 
 RREF HN ES   1   1942 45.41                             111    0.19 5  324 230 
 RREF HZ I        1942 53.52        20.6 0.22            111            324 230 
 CBOC HZ EP   1   1942 10.19                             110    0.36 5  336 252 
 CBOC HN ES       1942 46.62                             110   -0.08 7  336 252 
 DBB  SZ EP   1   1942  9.79                             110   -0.62 5  342 274 
 ORTC HZ EP       1942 16.32                             107   -0.40 6  397 216 
 ORTC HN ES       1942 59.25                             107    0.30 6  397 216 
 ORTC HZ I        1943  5.42        14.6 0.49            107            397 216 
 SJC  HZ EP   4   1942 16.21                             106   -2.15 0  411 327 
 SJC  HN ES   4   1942 57.43                             106   -4.46 0  411 327 
 SJC  HZ I        1943 10.62         6.7 0.12            106            411 327 
                                                                                
