 2013 1128 1702 25.9 L   6.804 -73.145146.8  RSN  5 0.2 1.8LRSN                1
 GAP=136        0.50       3.2     3.8  4.8 -0.5085E+00  0.2231E+01  0.2779E+00E
 Epicentro: LOS SANTOS - SANTANDER                                             3
 ACTION:UPD 14-01-09 16:31 OP:ep   STATUS:               ID:20131128170225 L   I
 OLDACT:REG 13-11-28 15:01 OP:cam  STATUS:               ID:20131128170000     3
 2013-11-28-1700-00M.COL___282                                                 6
 STAT SP IPHASW D HRMM SECON CODA AMPLIT PERI AZIMU VELO AIN AR TRES W  DIS CAZ7
 BAR2 SZ EP   1   17 2 45.39                             170   -0.29 7 23.8 190 
 BAR2 SZ ES   1   17 3  1.15                             170    0.05 7 23.8 190 
 BAR2 SZ I        17 3  1.55        18.7 0.26            171           23.8 190 
 BRR  HZ EP       17 2 46.97                             153   -0.2010 71.0 298 
 BRR  HN ES   1   17 3  4.00                             153    0.25 7 71.0 298 
 BRR  HZ I        17 3  8.87        11.4 0.22            151           71.0 298 
 PAM  SZ EP       17 2 48.50                             151    0.2810 77.0  40 
 PAM  SN ES       17 3  5.47                             151   -0.1510 77.0  40 
 PAM  SZ I        17 3  7.30        14.6 0.54            154           77.0  40 
 RUS  HZ EP   1   17 2 50.01                             144    0.20 7  101 176 
 RUS  HN ES   1   17 3  8.37                             144   -0.07 7  101 176 
 RUS  HZ I        17 3 10.07         5.7 0.30            147            101 176 
 ZAR  HN ES   2   17 3 23.71                             123   -0.06 4  204 292 
                                                                                
