 2012  328 1156 23.4 L   6.804 -73.139138.0  RSN  6 0.4 1.5LRSN                1
 GAP=137        0.74       6.9     6.3  8.3  0.4322E+01  0.1684E+02 -0.5361E+01E
 ACTION:UP  12-03-31 23:23 OP:EP   STATUS:               ID:20120328115623 L   I
 2012-03-28-1150-00M.COL___197                                                 6
 STAT SP IPHASW D HRMM SECON CODA AMPLIT PERI AZIMU VELO SNR AR TRES W  DIS CAZ7
 BAR2 SZ EP   1   1156 42.15                             170     0.0 7   24 192 
 BAR2 SZ ES   1   1156 57.17                             170     0.4 7   24 192 
 BAR2 SZ I        1156 57.84         8.6 0.32                            24 192 
 BRR  HZ EP   1   1156 44.02                             151     0.3 7   72 298 
 BRR  HN ES   2   1156 59.27                             151    -0.4 5   72 298 
 PAM  SZ EP   2   1156 44.81                             150     0.0 5   77  39 
 PAM  SE ES   2   1157  0.89                             150    -0.5 5   77  39 
 RUS  HZ EP   2   1156 46.23                             142    -0.2 5  101 176 
 RUS  HE ES   2   1157  4.53                             142     0.1 5  101 176 
 RUS  HZ I        1157  5.49         4.6 0.48                           101 176 
 PTB  HZ EP   1   1156 49.20                             130    -0.6 7  149 259 
 PTB  HN ES   2   1157 10.10                             130    -0.4 5  149 259 
 PTB  HZ I        1157 16.16         2.2 0.19                           149 259 
 ZAR  HZ EP   2   1156 56.02                             121     0.6 4  205 292 
 ZAR  HN ES   2   1157 21.06                             121     0.7 4  205 292 
 ZAR  HZ I        1157 26.39         4.1 0.43                           205 292 
                                                                                
