 2015 1128 1845  7.9 L   6.836 -73.118148.5  RSN 23 0.6 2.7LRSN                1
 GAP=121        1.22       2.7     3.6  5.3 -0.2778E+01  0.4536E+01 -0.3250E+00E
 Epicentro: LOS SANTOS - SANTANDER                                             3
 ACTION:UPD 15-12-28 16:14 OP:cam  STATUS:               ID:20151128184507 L   I
 OLDACT:UP  15-12-14 15:07 OP:cam  STATUS:               ID:20151128184507 L   3
 OLDACT:UP  15-12-01 10:59 OP:ak   STATUS:               ID:20151128184507 L   3
 OLDACT:UP  15-11-29 01:31 OP:ak   STATUS:               ID:20151128183749     3
 OLDACT:REG 15-11-28 21:08 OP:ak   STATUS:               ID:20151128183749     3
 2015-11-28-1837-49M.COL___310                                                 6
 STAT SP IPHASW D HRMM SECON CODA AMPLIT PERI AZIMU VELO AIN AR TRES W  DIS CAZ7
 BAR2 EZ IP     C 1845 28.20                             169    0.2110 27.8 195 
 BAR2 EZ ES       1845 43.03                             169   -0.6010 27.8 195 
 BAR2 EZ I        1845 45.99        64.7 0.48            168           27.8 195 
 BRR  HZ EP       1845 30.09                             153    0.6610 72.2 295 
 BRR  HN ES       1845 46.76                             153    0.5610 72.2 295 
 BRR  HZ I        1845 52.73        57.8 0.14            149           72.2 295 
 PAM  EZ EP       1845 30.68                             153    0.5310 72.4  40 
 PAM  EN ES       1845 48.17                             153    0.6810 72.4  40 
 RUS  HZ EP       1845 32.10                             143   -0.1210  104 178 
 RUS  HN ES       1845 50.82                             143   -0.3510  104 178 
 RUS  HZ I        1845 51.77        47.8 0.28            146            104 178 
 PTB  HZ EP       1845 34.77                             132   -0.70 9  152 258 
 PTB  HN ES       1845 56.03                             132   -0.92 9  152 258 
 PTB  HZ I        1845 58.21        66.2 0.14            131            152 258 
 OCA  HZ EP       1845 35.95                             131   -0.18 9  157 352 
 OCA  HN ES       1845 58.61                             131    0.48 9  157 352 
 OCA  HZ I        1846  3.07       136.5 0.26            131            157 352 
 SPBC HZ EP       1845 37.01                             129   -0.10 9  168 219 
 SPBC HN ES       1845 59.22                             129   -0.66 9  168 219 
 SPBC HZ I        1846  4.11        93.2 0.28            129            168 219 
 ZAR  HZ EP       1845 40.78                             123    0.08 8  205 291 
 ZAR  HN ES       1846  6.30                             123    0.04 8  205 291 
 ZAR  HZ I        1846 12.20        58.8 0.30            122            205 291 
 NOR  HZ EP       1845 44.22                             119   -0.11 8  239 234 
 NOR  HN ES       1846 12.26                             119   -0.47 8  239 234 
 NOR  HZ I        1846 15.83        39.0 0.20            119            239 234 
 SML  HZ EP       1845 44.55                             118    0.08 8  241 334 
 SML  HE ES       1846 13.18                             118    0.21 8  241 334 
 SML  HZ I        1846 16.04        75.2 0.07            119            241 334 
 ROSC BZ EP       1845 47.63                             117    0.89 8  258 211 
 ROSC BE ES       1846 17.44                             117    0.43 8  258 211 
 ROSC BZ I        1846 22.61        34.5 0.40            118            258 211 
 HEL  HZ EP   4   1845 50.35                             115    1.63 0  276 255 
 HEL  HN ES       1846 20.25                             115   -0.29 7  276 255 
 HEL  HZ I        1846 27.30        32.3 0.38            115            276 255 
 URE  HZ EP   9   1845 47.55                             114   -1.74 0  285 291 
 URE  HN ES       1846 19.77                             114   -0.04 7  285 291 
 URE  HZ I        1846 32.36        35.2 0.18            114            285 291 
 SOCV BZ EP       1845 49.81                             113   -0.76 7  297  57 
 SOCV BN ES   4   1846 21.07                             113   -2.76 0  297  57 
 GUY2CHZ EP       1845 52.63                             112    0.42 7  306 235 
 GUY2CHE ES       1846 27.46                             112    0.72 7  306 235 
 GUY2CHZ I        1846 33.53        24.9 0.26                           306 235 
 LL6C HZ EP       1845 52.69                             111   -0.63 7  321 357 
 LL6C HN ES       1846 27.72                             111   -1.00 7  321 357 
 ELA  HZ EP   4   1845 57.94                             110    2.48 0  334 229 
 ELA  HN ES       1846 32.98                             110    0.45 7  334 229 
 ELA  HZ I        1846 39.97        16.7 0.54            111            334 229 
 CBOC HZ EP       1845 56.30                             110    0.86 7  338 252 
 CBOC HN ES       1846 33.45                             110    0.96 7  338 252 
 CBOC HZ I        1846 33.95         8.0 0.38            111            338 252 
 DBB  SZ EP       1845 55.85                             110    0.01 7  342 274 
 DBB  SZ ES       1846 32.47                             110   -0.74 7  342 274 
 DBB  SZ I        1846 36.19        63.0 0.52            110            342 274 
 MON  HZ EP   4   1845 54.94                             109   -2.10 0  354 308 
 MON  HN ES       1846 34.60                             109   -0.75 6  354 308 
 MON  HZ I        1846 53.17        10.6 0.42            109            354 308 
 ANIL HZ EP   4   1845 59.60                             109    1.19 0  362 224 
 ANIL HE ES       1846 38.28                             109    0.49 6  362 224 
 ANIL HZ I        1846 45.08        41.4 0.32            109            362 224 
 PRA  HZ EP       1846  1.36                             107   -0.76 6  397 210 
 PRA  HN ES       1846 44.21                             107   -0.18 6  397 210 
 PRA  HZ I        1846 48.19        21.3 0.36            108            397 210 
 SJC  HZ EP   4   1846  1.86                             106   -1.54 0  408 326 
 SJC  HN ES   4   1846 41.90                             106   -4.76 0  408 326 
 SJC  HZ I        1846 48.61         7.2 0.20            107            408 326 
                                                                                
