 2016  228 1254  5.8 L   6.843 -73.147142.0  RSN 13 0.4 2.0LRSN                1
 GAP=134        0.91       2.9     3.7  5.9 -0.1825E+01  0.9604E+01  0.1147E+01E
 Epicentro: LOS SANTOS - SANTANDER                                             3
 ACTION:UPD 16-03-04 21:30 OP:rebc STATUS:               ID:20160228125405 L   I
 OLDACT:UP  16-02-28 23:07 OP:mh   STATUS:               ID:20160228124748     3
 OLDACT:REG 16-02-28 21:18 OP:mh   STATUS:               ID:20160228124748     3
 2016-02-28-1247-48M.COL___321                                                 6
 STAT SP IPHASW D HRMM SECON CODA AMPLIT PERI AZIMU VELO AIN AR TRES W  DIS CAZ7
 BAR2 EZ EP   1   1254 25.15                             168    0.09 7 27.9 188 
 BAR2 EZ ES       1254 40.00                             168   -0.1010 27.9 188 
 BAR2 EZ I        1254 41.18        16.6 0.50            168           27.9 188 
 PAM  EZ EP       1254 27.49                             151    0.1010 73.9  42 
 PAM  EN ES       1254 44.41                             151    0.1710 73.9  42 
 PAM  EZ I        1254 45.86        12.4 0.23            155           73.9  42 
 RUS  HZ EP   1   1254 29.09                             142   -0.42 7  105 176 
 RUS  HN ES       1254 48.41                             142    0.3910  105 176 
 RUS  HZ I        1254 49.73         6.6 0.32            144            105 176 
 PTB  HZ EP       1254 31.66                             131   -0.85 9  149 257 
 PTB  HN ES     C 1254 53.02                             131   -0.35 9  149 257 
 PTB  HZ I        1254 55.19        15.4 0.60            131            149 257 
 OCA  HN ES       1254 54.54                             130   -0.32 9  156 353 
 OCA  HZ I        1254 58.73        16.4 0.17            131            156 353 
 SPBC HZ EP   1   1254 34.03                             128   -0.30 7  167 218 
 SPBC HN ES       1254 57.10                             128    0.49 9  167 218 
 SPBC HZ I        1255  3.10        12.9 0.38            129            167 218 
 ZAR  HZ EP   1   1254 37.99                             122    0.21 6  202 291 
 ZAR  HE ES       1255  3.45                             122    0.71 9  202 291 
 ZAR  HZ I        1255  7.75        13.5 0.40            122            202 291 
 NOR  HZ EP   1   1254 41.57                             118   -0.00 6  237 234 
 NOR  HN ES       1255  9.32                             118   -0.17 8  237 234 
 CHI  HZ EP   1   1254 43.83                             116    0.07 6  253 195 
 CHI  HN ES       1255 12.97                             116   -0.42 8  253 195 
 CHI  HZ I        1255 16.74         3.4 0.24            118            253 195 
 HEL  HZ EP       1254 46.35                             114    0.44 8  273 255 
 HEL  HN ES       1255 17.10                             114   -0.12 8  273 255 
 HEL  HZ I        1255 23.59         8.2 0.36            115            273 255 
 URE  HZ EP   4   1254 47.37                             113    0.92 0  282 291 
 URE  HN ES   4   1255 15.30                             113   -2.88 0  282 291 
 URE  HZ I        1255 24.49         9.6 0.30            114            282 291 
 GUY2CHZ EP   1   1254 50.33                             112    0.82 5  304 234 
 GUY2CHN ES   4   1255 26.87                             112    3.26 0  304 234 
 GUY2CHZ I        1255 33.27         6.5 0.48                           304 234 
 MON  HZ EP   4   1254 51.94                             108   -2.34 0  351 308 
 MON  HN ES   4   1255 29.88                             108   -2.23 0  351 308 
 MON  HZ I        1255 31.02         1.6 0.14            109            351 308 
                                                                                
