 2017 1028 1107 55.8 L   6.813 -73.140133.3  RSN  5 0.3 1.1LRSN                1
 GAP=137        0.75       3.7     3.5  5.9 -0.3520E+00  0.8321E+01 -0.3405E+01E
 Epicentro: LOS SANTOS - SANTANDER                                             3
 ACTION:UPD 17-11-07 19:38 OP:rebc STATUS:               ID:20171028110755 L   I
 OLDACT:DUP 17-10-28 21:43 OP:dhb  STATUS:               ID:20171028105741d    3
 OLDACT:REG 17-10-28 19:34 OP:dhb  STATUS:               ID:20171028105737     3
 2017-10-28-1058-00M.COL___435                                                 6
 STAT SP IPHASW D HRMM SECON CODA AMPLIT PERI AZIMU VELO AIN AR TRES W  DIS CAZ7
 BAR2 EZ EP       11 8 14.19                             169    0.2510 24.8 191 
 BAR2 EZ ES       11 8 28.07                             169   -0.0410 24.8 191 
 BAR2 EZ I        11 8 29.69         5.1 0.46            175           24.8 191 
 PAM  EZ IP     C 11 8 16.65                             149    0.0610 75.9  40 
 PAM  EE ES       11 8 32.62                             149   -0.2010 75.9  40 
 PAM  EZ I        11 8 53.71         1.9 0.29            145           75.9  40 
 RUS  HZ EP       11 8 18.07                             141   -0.3610  102 176 
 RUS  HE ES       11 8 36.49                             141    0.4010  102 176 
 RUS  HZ I        11 8 37.23         2.0 0.30            158            102 176 
 PTB  HZ EP       11 8 21.80                             129   -0.04 9  149 258 
 PTB  HN ES       11 8 41.68                             129   -0.48 9  149 258 
 PTB  HZ I        11 8 46.98         1.2 0.14            138            149 258 
 ZAR  HZ EP       11 8 27.46                             119    0.02 9  204 292 
 ZAR  HN ES       11 8 52.59                             119    0.45 9  204 292 
 ZAR  HZ I        11 8 57.67         1.6 0.12            125            204 292 
                                                                                
