 2010  928 1804 55.3 L   6.764 -73.091148.8  RSN  7 0.3 2.0LRSN                1
 GAP=165        0.61       3.6     7.5  6.2  0.3429E+01 -0.2292E+01  0.3637E+01E
 Epicentro: LOS SANTOS - SANTANDER                                             3
 ACTION:UP  11-02-18 11:06 OP:tino STATUS:               ID:20100928180455 L   I
 2010-09-28-1802-09S.COL___122                                                 6
 STAT SP IPHASW D HRMM SECON CODA AMPLIT PERI AZIMU VELO SNR AR TRES W  DIS CAZ7
 BAR2 SZ EP   1   18 5 14.96                             171    -0.3 7   22 208 
 BAR2 SZ ES   2   18 5 30.34                             171    -0.5 5   22 208 
 BAR2 SZ I        18 5 33.12        23.9 0.33                            22 208 
 BTL  SZ EP   1   18 5 15.56                             170     0.2 7   26 311 
 BRR  HZ EP       18 5 17.12                             151    -0.110   78 299 
 BRR  HZ I        18 5 18.58        31.5 0.13                            78 299 
 BRR  HN ES   1   18 5 34.47                             151     0.2 7   78 299 
 RUS  HZ EP       18 5 18.96                             146    -0.110   96 179 
 RUS  HN ES   1   18 5 37.82                             146     0.2 7   96 179 
 RUS  HZ I        18 5 39.62         9.7 0.38                            96 179 
 GRA  SZ EP   2   18 5 21.44                             137     0.5 5  128  14 
 GRA  SZ ES   2   18 5 40.73                             137    -0.3 5  128  14 
 GRA  SZ I        18 5 43.47        15.1 0.37                           128  14 
 NOR  SZ EP   2   18 5 30.79                             119    -0.7 4  238 236 
 CHI  HZ EP   1   18 5 33.25                             118     0.3 6  246 197 
 CHI  HN ES   2   18 6  2.13                             118    -0.1 4  246 197 
 CHI  HZ I        18 6 10.25         5.6 0.34                           246 197 
                                                                                
