 2013  828 1424 32.5 L   6.871 -73.374119.9  RSN 13 0.5 2.2LRSN                1
 GAP= 90        1.27       3.2     4.8  7.9 -0.8291E+00  0.1040E+02 -0.3558E+01E
 Epicentro: SAN VICENTE DE CHUCURI - SANTANDER                                 3
 ACTION:UPD 14-01-14 09:07 OP:ep   STATUS:               ID:20130828142432 L   I
 OLDACT:REG 13-08-28 14:36 OP:jn   STATUS:               ID:20130828141959     3
 2013-08-28-1419-59M.COL___270                                                 6
 STAT SP IPHASW D HRMM SECON CODA AMPLIT PERI AZIMU VELO AIN AR TRES W  DIS CAZ7
 BAR2 SZ EP       1424 49.67                             162    0.2010 37.5 145 
 BAR2 SZ ES       1425  2.59                             162   -0.1210 37.5 145 
 BAR2 SZ I        1425  4.08       186.8 0.24            162           37.5 145 
 BRR  HZ EP       1424 50.08                             158    0.6210 45.5 305 
 BRR  HN ES   1   1425  3.62                             158    0.93 7 45.5 305 
 BRR  HZ I        1425  4.52        45.0 0.12            151           45.5 305 
 PAM  SZ EP       1424 53.11                             141    0.1010 90.7  55 
 PAM  SN ES       1425  9.26                             141    0.2510 90.7  55 
 PAM  SZ I        1425 13.10        33.3 0.48            139           90.7  55 
 RUS  HZ EP       1424 54.58                             134   -0.2710  113 163 
 RUS  HE ES       1425 11.36                             134   -0.9210  113 163 
 RUS  HZ I        1425 14.19         9.5 0.28            131            113 163 
 PTB  HZ EP     D 1424 55.01                             130   -0.3010  125 253 
 PTB  HN ES       1425 12.20                             130   -0.9010  125 253 
 PTB  HZ I        1425 17.11        47.4 0.22            124            125 253 
 OCA  HZ EP   1   1424 57.95                             125   -0.08 7  151   2 
 OCA  HE ES       1425 17.65                             125   -0.29 9  151   2 
 OCA  HZ I        1425 20.84        49.6 0.24            120            151   2 
 SPBC HZ EP   1   1424 58.74                             124    0.39 7  155 210 
 SPBC HN ES       1425 19.18                             124    0.66 9  155 210 
 SPBC HZ I        1425 21.97        20.5 0.54            119            155 210 
 ZAR  HZ EP       1425  1.32                             120    0.77 9  178 293 
 ZAR  HZ I        1425 26.65        30.4 0.26            114            178 293 
 YOP  SN ES   1   1425 26.63                             117    0.03 6  198 148 
 YOP  SZ I        1425 28.05        29.8 0.24            113            198 148 
 SML  HZ EP       1425  5.48                             113   -0.42 8  227 340 
 SML  HN ES       1425 31.49                             113   -0.47 8  227 340 
 CHI  HN ES   1   1425 38.35                             111    0.57 6  251 189 
 CHI  HZ I        1425 43.76         4.1 0.54            107            251 189 
 URE  HZ EP   4   1425  9.24                             110   -0.16 0  257 292 
 URE  HN ES   4   1425 37.92                             110   -0.26 0  257 292 
 GUY2CHZ EP   4   1425 14.50                             108    1.24 0  286 231 
 GUY2CHN ES   4   1425 43.71                             108   -1.34 0  286 231 
 GUY2CHZ I        1425 49.24         6.8 0.30                           286 231 
 SJC  HN ES   4   1426  3.45                             102   -2.38 0  389 329 
 SJC  HZ I        1426  8.57         4.6 0.28             98            389 329 
                                                                                
