 2016 1028 1144 14.4 L   6.797 -73.149145.7  RSN 22 0.4 2.6LRSN                1
 GAP= 71        0.84       2.9     2.9  4.0 -0.2710E+01  0.1342E+01  0.2782E+01E
 Epicentro: LOS SANTOS - SANTANDER                                             3
 ACTION:UPD 16-11-09 19:23 OP:rebc STATUS:               ID:20161028114414 L   I
 OLDACT:UP  16-10-28 22:19 OP:edw  STATUS:               ID:20161028113744     3
 OLDACT:UP  16-10-28 22:17 OP:edw  STATUS:               ID:20161028113744     3
 OLDACT:UP  16-10-28 22:17 OP:edw  STATUS:               ID:20161028113744     3
 OLDACT:REG 16-10-28 20:16 OP:edw  STATUS:               ID:20161028113744     3
 2016-10-28-1138-00M.COL___340                                                 6
 STAT SP IPHASW D HRMM SECON CODA AMPLIT PERI AZIMU VELO AIN AR TRES W  DIS CAZ7
 BAR2 EZ IP     C 1144 33.70                             171   -0.2910 22.9 189 
 BAR2 EZ ES       1144 48.95                             171   -0.3310 22.9 189 
 BAR2 EZ I        1144 49.94       191.8 0.30            168           22.9 189 
 BRR  HZ IP     C 1144 35.49                             153   -0.0210 71.1 299 
 BRR  HE ES       1144 52.70                             153    0.7110 71.1 299 
 BRR  HZ I        1144 57.50        74.1 0.26            148           71.1 299 
 PAM  EZ IP     C 1144 36.45                             151   -0.1610 77.9  40 
 PAM  EN ES       1144 53.91                             151   -0.0510 77.9  40 
 PAM  EZ I        1144 56.19        61.3 0.60            154           77.9  40 
 RUS  HZ EP       1144 37.69                             144   -0.4010  100 176 
 RUS  HN ES       1144 56.66                             144    0.0710  100 176 
 RUS  HZ I        1144 57.32        48.6 0.28            145            100 176 
 PTB  HZ EP   9   1144 40.09                             132   -1.21 0  147 259 
 PTB  HN ES       1145  1.33                             132    0.24 9  147 259 
 PTB  HZ I        1145  7.08        59.5 0.12            130            147 259 
 TAM  HZ IP     D 1144 42.12                             131    0.05 9  155 105 
 TAM  HN ES       1145  4.04                             131    0.37 9  155 105 
 SPBC HZ EP       1144 42.66                             129   -0.16 9  163 219 
 SPBC HE ES       1145  5.12                             129    0.12 9  163 219 
 SPBC HZ I        1145  7.82        78.7 0.50            128            163 219 
 NOR  HZ EP       1144 49.78                             119   -0.27 8  234 234 
 NOR  HN ES       1145 17.17                             119   -0.70 8  234 234 
 NOR  HZ I        1145 24.08        23.7 0.20            118            234 234 
 CHI  HZ EP       1144 52.06                             117    0.04 8  248 195 
 CHI  HN ES       1145 21.83                             117    0.45 8  248 195 
 CHI  HZ I        1145 23.58        20.7 0.38            117            248 195 
 ROSC BZ EP   4   1144 54.30                             117    1.86 0  252 211 
 ROSC BN ES   4   1145 23.83                             117    1.71 0  252 211 
 ROSC BZ I        1145 28.41        50.6 0.35            117            252 211 
 HEL  HZ EP   4   1144 55.89                             115    1.35 0  272 256 
 HEL  HN ES   4   1145 27.65                             115    1.79 0  272 256 
 HEL  HZ I        1145 33.03        16.7 0.58            114            272 256 
 GUY2CHZ EP       1144 58.89                             112    0.97 7  301 235 
 GUY2CHN ES   4   1145 35.42                             112    3.53 0  301 235 
 GUY2CHZ I        1145 42.26        16.1 0.38                           301 235 
 PTGC HZ EP   4   1144 56.62                             112   -1.58 0  308 159 
 PTGC HN ES   4   1145 30.74                             112   -1.65 0  308 159 
 LL6C HZ EP   9   1144 39.11                             110   -21.0 0  325 358 
 LL6C HN ES       1145 14.36                             113   -0.43 7  325 358 
 ELA  HZ EP   4   1145 21.31                             110   20.15 0  329 229 
 ELA  HN ES   4   1145 39.00                             110    1.34 0  329 229 
 ELA  HZ I        1145 45.32        11.5 0.60            110            329 229 
 CBOC HZ EP   4   1145  2.70                             110    1.47 0  333 252 
 CBOC HE ES   2   1145 37.50                             110   -0.28 3  333 252 
 ANIL HZ EP   4   1145  5.79                             108    1.67 0  357 225 
 ANIL HN ES   4   1145 44.74                             108    1.83 0  357 225 
 ANIL HZ I        1145 53.00        31.4 0.30            108            357 225 
 ARGC HZ EP       1145  3.93                             108   -0.13 6  359 340 
 ARGC HN ES   4   1145 47.75                             108    4.94 0  359 340 
 PRA  HZ EP       1145  7.67                             107   -0.16 6  392 210 
 PRA  HN ES       1145 49.31                             107   -0.22 6  392 210 
 PRA  HZ I        1145 53.93        14.9 0.62            107            392 210 
 ORTC HZ EP       1145  8.92                             106    0.69 6  395 216 
 ORTC HN ES       1145 50.17                             106   -0.07 6  395 216 
 SJC  HZ EP   4   1145  7.86                             106   -2.09 0  409 327 
 SJC  HN ES   4   1145 49.20                             106   -4.10 0  409 327 
 SJC  HZ I        1145 55.58         6.6 0.32            106            409 327 
 CRJC HZ EP   9   1145 14.06                             103   -2.86 0  468   4 
 CRJC HE ES       1146  2.37                             104   -0.47 5  468   4 
 CRJC HZ I        1146  4.65        11.3 0.44            104            468   4 
 URI  HZ EP   4   1145 24.48                             101   -2.95 0  557  13 
 URI  HN ES   4   1146 20.04                             101   -4.37 0  557  13 
 URI  HZ I        1146 26.68         2.1 0.40            101            557  13 
                                                                                
