 2017 1028 1630 14.6 L   6.788 -73.080140.5  RSN  7 0.4 1.5LRSN                1
 GAP=146        1.04       4.6     4.4  6.6 -0.9658E+00  0.9811E+01  0.1639E+01E
 Epicentro: LOS SANTOS - SANTANDER                                             3
 ACTION:UPD 17-11-07 19:38 OP:rebc STATUS:               ID:20171028163014 L   I
 OLDACT:REG 17-10-28 20:11 OP:dhb  STATUS:               ID:20171028162739     3
 2017-10-28-1628-00M.COL___444                                                 6
 STAT SP IPHASW D HRMM SECON CODA AMPLIT PERI AZIMU VELO AIN AR TRES W  DIS CAZ7
 BAR2 EZ EP       1630 33.75                             170    0.1810 24.4 208 
 BAR2 EZ ES       1630 48.25                             170   -0.1510 24.4 208 
 BAR2 EZ I        1630 49.76         7.7 0.20            169           24.4 208 
 PAM  EZ IP     C 1630 36.65                             151    0.6410 74.1  35 
 PAM  EN ES       1630 52.29                             151   -0.4610 74.1  35 
 PAM  EZ I        1630 55.85         3.4 0.52            153           74.1  35 
 BRR  HZ EP       1630 35.67                             149    0.1110 78.2 297 
 BRR  HN ES       1630 52.50                             149    0.5610 78.2 297 
 BRR  HZ I        1630 56.61        10.0 0.40            148           78.2 297 
 RUS  HZ EP       1630 37.79                             143    0.1210 99.0 180 
 RUS  HN ES       1630 55.53                             143   -0.1710 99.0 180 
 RUS  HZ I        1630 57.23         4.1 0.10            146           99.0 180 
 PTB  HZ EP       1630 41.13                             129   -0.60 9  155 260 
 PTB  HN ES       1631  2.47                             129   -0.46 9  155 260 
 PTB  HZ I        1631  4.56         2.4 0.20            130            155 260 
 ZAR  HZ EP       1630 46.90                             120   -0.52 8  211 292 
 ZAR  HE ES       1631 13.12                             120    0.07 8  211 292 
 ZAR  HZ I        1631 18.02         5.3 0.44            121            211 292 
 NOR  HZ EP       1630 50.42                             117   -0.12 8  240 236 
 NOR  HE ES       1631 19.32                             117    0.71 8  240 236 
 NOR  HZ I        1631 23.89         1.9 0.16            118            240 236 
                                                                                
