 2014  528 1421 15.4 L   6.791 -73.113149.4  RSN  7 0.5 2.0LRSN                1
 GAP=162        1.24       6.9     7.6  8.9 -0.2683E+02  0.1709E+02  0.1385E+02E
 Epicentro: LOS SANTOS - SANTANDER                                             3
 ACTION:UPD 15-03-16 17:01 OP:nd   STATUS:               ID:20140528142115 L   I
 OLDACT:REG 14-05-28 21:47 OP:stll STATUS:               ID:20140528141811     3
 2014-05-28-1418-11M.COL___257                                                 6
 STAT SP IPHASW D HRMM SECON CODA AMPLIT PERI AZIMU VELO AIN AR TRES W  DIS CAZ7
 BAR2 SZ EP       1421 35.53                             171    0.0610 23.3 199 
 BAR2 SZ ES       1421 51.19                             171    0.0710 23.3 199 
 BAR2 SZ I        1421 52.25        17.8 0.16            170           23.3 199 
 BRR  HZ EP       1421 37.52                             152    0.3710 74.8 298 
 BRR  HN ES       1421 54.84                             152    0.7310 74.8 298 
 BRR  HZ I        1421 55.56        24.5 0.48            153           74.8 298 
 PAM  SZ EP   2   1421 37.96                             152    0.03 5 75.9  37 
 PAM  SN ES       1421 55.13                             152   -0.3610 75.9  37 
 PAM  SZ I        1421 58.01        12.7 0.22            154           75.9  37 
 PTB  HZ EP       1421 42.11                             132   -0.86 9  151 259 
 PTB  HN ES       1422  3.75                             132   -0.72 9  151 259 
 PTB  HZ I        1422  6.45        16.3 0.42            133            151 259 
 OCA  HN ES       1422  6.52                             130   -0.02 9  162 352 
 NOR  HZ EP       1421 51.40                             119   -0.20 8  237 235 
 NOR  HN ES       1422 19.52                             119   -0.31 8  237 235 
 NOR  HZ I        1422 24.86         9.2 0.26            120            237 235 
 GUY2CHZ EP       1422  0.54                             113    1.09 7  304 235 
 GUY2CHN ES       1422 34.42                             113    0.61 7  304 235 
 GUY2CHZ I        1422 42.14         6.1 0.28                           304 235 
                                                                                
