 2010  328 1854 59.2 L   6.797 -73.047148.7  RSN 11 0.5 3.5LRSN                1
 GAP=133        0.75       4.0     6.3  6.7 -0.7415E+01  0.3849E+01  0.4090E+01E
 Epicentro: LOS SANTOS - SANTANDER                                             3
 ACTION:UP  10-08-24 09:56 OP:vdl  STATUS:               ID:20100328185459 L   I
 2010-03-28-1852-05S.COL___098                                                 6
 STAT SP IPHASW D HRMM SECON CODA AMPLIT PERI AZIMU VELO SNR AR TRES W  DIS CAZ7
 BAR2 SZ IP       1855 19.33                             169     0.110   27 214 
 BAR2 SZ ES   2   1855 34.57                             169    -0.3 5   27 214 
 BRR  HZ IP       1855 21.28                             150     0.110   81 295 
 BRR  HZ I        1855 21.55       813.8 0.17                            81 295 
 BRR  HN ES   2   1855 38.62                             150     0.2 5   81 295 
 RUS  HZ EP   1   1855 23.12                             145    -0.1 7  100 182 
 RUS  HE ES   2   1855 41.76                             145    -0.2 5  100 182 
 RUS  HZ I        1855 43.22       377.3 0.40                           100 182 
 OCA  SZ EP   1   1855 27.59                             130    -0.3 7  162 349 
 OCA  SZ ES   2   1855 50.65                             130     0.3 5  162 349 
 CHI  HZ EP   1   1855 37.28                             117    -0.1 6  251 198 
 CHI  HZ I        1855 38.33       113.0 0.43                           251 198 
 CHI  HE ES   2   1856  6.47                             117    -0.6 4  251 198 
 ROSC BZ EP   1   1855 38.84                             117     0.8 6  258 213 
 ROSC BN ES   2   1856  9.56                             117     1.2 4  258 213 
 ROSC BZ I        1856 16.99       186.5 0.35                           258 213 
 HEL  HZ EP   1   1855 40.20                             114    -0.5 6  283 256 
 HEL  HN ES   2   1856 12.51                             114    -0.6 4  283 256 
 HEL  HZ I        1856 18.28        81.9 0.53                           283 256 
 RREF BZ EP   1   1855 46.40                             111     0.0 5  330 231 
 RREF BN ES   2   1856 22.60                             111    -0.6 3  330 231 
 RREF BZ I        1856 26.41       136.7 0.71                           330 231 
 SDV  BZ EP   1   1855 48.52                             109     0.1 5  352  49 
 ANIL BZ EP   1   1855 50.28                             108     0.3 5  365 226 
 ANIL BN ES   2   1856 30.86                             108     1.3 3  365 226 
 ANIL BZ I        1856 35.80       262.7 0.37                           365 226 
 PRA  HZ EP   1   1855 52.61                             107    -0.8 4  397 211 
 PRA  HE ES   2   1856 34.94                             107    -0.8 3  397 211 
 PRA  HZ I        1856 41.01       165.2 0.76                           397 211 
                                                                                
