 2012  528 1405 44.1 L   6.859 -73.174138.0  RSN  5 0.4 1.6LRSN                1
 GAP=148        0.83       6.3     5.8  8.6 -0.1110E+02  0.1670E+02 -0.1439E+01E
 Epicentro: ZAPATOCA - SANTANDER                                               3
 ACTION:UP  12-07-05 12:08 OP:pat  STATUS:               ID:20120528140544 L   I
 2012-05-28-1400-00M.COL___200                                                 6
 STAT SP IPHASW D HRMM SECON CODA AMPLIT PERI AZIMU VELO AIN AR TRES W  DIS CAZ7
 BAR2 SZ EP       14 6  3.46                             167     0.510   29 182 
 BAR2 SZ ES   1   14 6 18.03                             167     0.4 7   29 182 
 BAR2 SZ I        14 6 19.88        11.3 0.24                            29 182 
 PAM  SZ EP   1   14 6  5.20                             150    -0.1 7   75  45 
 PAM  SN ES   1   14 6 21.65                             150    -0.2 7   75  45 
 RUS  HZ EP       14 6  7.39                             140    -0.210  107 175 
 RUS  HN ES   1   14 6 25.54                             140    -0.4 7  107 175 
 RUS  HZ I        14 6 27.07         4.7 0.30                           107 175 
 PTB  HZ EP       14 6 10.30                             130     0.0 9  146 256 
 PTB  HN ES   1   14 6 30.22                             130    -0.5 7  146 256 
 NOR  SE ES   2   14 6 47.70                             117     0.5 4  236 233 
                                                                                
