 2015  428 1208  5.0 L   6.811 -73.167138.0  RSN 10 0.5 2.0LRSN                1
 GAP=143        0.95       4.6     4.1  5.7 -0.7236E+01  0.8032E+01  0.1085E+01E
 Epicentro: LOS SANTOS - SANTANDER                                             3
 ACTION:UPD 15-06-03 16:58 OP:cam  STATUS:               ID:20150428120805 L   I
 OLDACT:REG 15-04-28 21:22 OP:ak   STATUS:               ID:20150428115748     3
 2015-04-28-1157-48M.COL___286                                                 6
 STAT SP IPHASW D HRMM SECON CODA AMPLIT PERI AZIMU VELO AIN AR TRES W  DIS CAZ7
 BAR2 EZ IP     C 12 8 23.68                             170   -0.0610 24.2 184 
 BAR2 EZ ES       12 8 38.21                             170   -0.1310 24.2 184 
 BAR2 EZ I        12 8 39.96        18.6 0.17            168           24.2 184 
 BRR  HZ IP     C 12 8 25.51                             152    0.3310 68.6 299 
 BRR  HN ES       12 8 41.28                             152    0.3710 68.6 299 
 BRR  HZ I        12 8 46.43        18.3 0.14            151           68.6 299 
 PAM  SZ IP     D 12 8 26.68                             149    0.2310 78.0  41 
 PAM  SN ES       12 8 43.24                             149    0.0710 78.0  41 
 PAM  SZ I        12 8 45.94        22.5 0.39            155           78.0  41 
 PTB  HZ EP       12 8 30.54                             131   -0.64 9  146 258 
 PTB  HN ES       12 8 50.96                             131   -0.61 9  146 258 
 PTB  HZ I        12 8 56.60        14.8 0.22            131            146 258 
 ZAR  HZ EP   1   12 8 36.99                             121    0.29 6  201 292 
 ZAR  HN ES       12 9  1.77                             121    0.37 9  201 292 
 ZAR  HZ I        12 9  7.73        16.3 0.36            122            201 292 
 NOR  HZ IP     C 12 8 40.41                             117    0.23 8  233 234 
 NOR  HN ES       12 9  7.32                             117   -0.29 8  233 234 
 NOR  HZ I        12 9 13.36         8.4 0.24            119            233 234 
 SML  HZ EP       12 8 40.10                             116   -0.90 8  242 336 
 SML  HE ES   2   12 9  8.36                             116   -0.70 4  242 336 
 GUY2CHZ EP   2   12 8 48.84                             111    0.70 4  300 234 
 GUY2CHN ES   2   12 9 22.61                             111    0.83 4  300 234 
 GUY2CHZ I        12 9 30.54         4.2 0.34                           300 234 
 CBOC HZ EP   2   12 8 52.35                             109    0.94 3  332 252 
 CBOC HN ES       12 9 28.32                             109    0.73 7  332 252 
 TOL  SZ EP   2   12 8 53.49                             108    0.60 3  343 224 
 TOL  SN ES   1   12 9 29.90                             108   -0.32 5  343 224 
 TOL  SZ I        12 9 40.19         3.1 0.18            110            343 224 
                                                                                
