 2013  228 1259 54.0 L   6.792 -73.156144.4  RSN  8 0.4 2.3LRSN 2.8WRSN        1
 SPEC AVERAGE  MO 13.3 ST  2.8 OM  2.6 f0 3.91 R0.4184 AL 2.66 WI 17.7 MW  2.8 3
 SPEC SD       MO  0.2 ST  2.8 OM  1.0 f0 1.15 R0.1494 AL      WI      MW  0.2 3
 GAP=136        1.14       4.5     4.7  7.2 -0.1546E+00  0.8057E+01  0.8762E+01E
 Epicentro: LOS SANTOS - SANTANDER                                             3
 SPEC RUS HH N MO 12.9 ST0.595 OM  1.3 f0 3.67 R0.4005 AL 1.89 WI 17.0 MW  2.6 3
 SPEC RUS HH N T13 035 K 0.000 GD  175 VS 4.20 DE 3.20 Q0300.0 QA 0.60 VS 4.20 3
 SPEC NOR HH N MO 13.5 ST  7.3 OM  1.7 f0 5.37 R0.2737 AL 3.57 WI 29.2 MW  3.0 3
 SPEC NOR HH N T13 056 K 0.000 GD  274 VS 4.20 DE 3.20 Q0300.0 QA 0.60 VS 4.20 3
 SPEC CHI HH N MO 13.5 ST0.424 OM  1.6 f0 2.21 R0.6652 AL 2.06 WI 10.6 MW  2.9 3
 SPEC CHI HH N T13 1 0 K 0.000 GD  286 VS 4.20 DE 3.20 Q0300.0 QA 0.60 VS 4.20 3
 SPEC BRR HH N MO 13.4 ST  3.0 OM  1.8 f0 4.40 R0.3341 AL 3.11 WI 14.1 MW  2.9 3
 SPEC BRR HH N T13 032 K 0.000 GD  160 VS 4.20 DE 3.20 Q0300.0 QA 0.60 VS 4.20 3
 ACTION:UPD 13-03-12 09:36 OP:ep   STATUS:               ID:20130228125954 L   I
 2013-02-28-1258-48M.COL___202                                                 6
 STAT SP IPHASW D HRMM SECON CODA AMPLIT PERI AZIMU VELO AIN AR TRES W  DIS CAZ7
 BAR2 SZ EP       13 0 13.37                             171   -0.0310 22.3 187 
 BAR2 SZ ES       13 0 28.01                             171   -0.5610 22.3 187 
 BAR2 SZ I        13 0 29.88        38.0 0.18            167           22.3 187 
 BRR  HZ IP     D 13 0 15.18                             152    0.2610 70.6 300 
 BRR  HN ES       13 0 32.30                             152    1.0210 70.6 300 
 BRR  HN I        13 0 32.93        67.0 0.26            149           70.6 300 
 PAM  SZ EP       13 0 16.29                             150    0.1810 78.8  40 
 PAM  SN ES       13 0 33.27                             150   -0.1210 78.8  40 
 RUS  HZ EP       13 0 17.47                             144   -0.0510 99.8 175 
 RUS  HN ES       13 0 35.86                             144   -0.0410 99.8 175 
 RUS  HN I        13 0 36.77        16.2 0.28            143           99.8 175 
 PTB  HZ EP       13 0 20.03                             132   -0.66 9  146 259 
 PTB  HN ES       13 0 40.93                             132   -0.62 9  146 259 
 PTB  HN I        13 0 46.16        24.4 0.30            130            146 259 
 ZAR  HN ES       13 0 51.05                             122   -0.36 9  203 292 
 ZAR  HN I        13 0 56.59        19.5 0.26            121            203 292 
 NOR  HZ EP       13 0 29.47                             118    0.02 8  233 234 
 NOR  HN ES       13 0 57.80                             118    0.66 8  233 234 
 NOR  HN I        13 1  7.43        15.8 0.18            118            233 234 
 CHI  HZ EP       13 0 31.61                             117    0.16 8  248 195 
 CHI  HN ES       13 1  0.97                             117    0.27 8  248 195 
 CHI  HN I        13 1  3.35        14.9 0.46            117            248 195 
                                                                                
