 2016 1228 1235 42.8 L   7.346 -73.178131.7  RSN  8 0.6 1.7LRSN                1
 GAP=176        1.35       6.7     5.4  8.4  0.3312E-01  0.1704E+02  0.6061E+01E
 Epicentro: RIONEGRO - SANTANDER                                               3
 ACTION:UPD 17-01-11 20:20 OP:rebc STATUS:               ID:20161228123542 L   I
 OLDACT:DUP 16-12-28 22:44 OP:cog  STATUS:               ID:20161228122748d    3
 2016-12-28-1228-00M.COL___366                                                 6
 STAT SP IPHASW D HRMM SECON CODA AMPLIT PERI AZIMU VELO AIN AR TRES W  DIS CAZ7
 PAM  EZ EP       1236  2.41                             157    0.2010 52.9  91 
 PAM  EE ES       1236 17.24                             157   -0.0710 52.9  91 
 PAM  EZ I        1236 20.20        13.8 0.32            157           52.9  91 
 BRR  HZ EP       1236  2.08                             152   -0.0210 64.6 246 
 BRR  HE ES       1236 17.59                             152    0.4610 64.6 246 
 BAR2 EZ EP       1236  4.04                             146    0.4110 83.4 180 
 BAR2 EZ ES       1236 20.19                             146    0.3510 83.4 180 
 BAR2 EZ I        1236 21.58        28.8 0.14            142           83.4 180 
 RUS  HZ EP       1236 10.60                             126   -0.03 9  161 176 
 RUS  HN ES       1236 30.88                             126   -1.43 9  161 176 
 RUS  HZ I        1236 40.70         2.0 0.26            125            161 176 
 PTB  HZ EP       1236 10.22                             125   -0.37 9  167 238 
 PTB  HN ES       1236 32.75                             125    0.51 9  167 238 
 PTB  HZ I        1236 35.17         7.1 0.20            125            167 238 
 ZAR  HZ EP       1236 12.26                             122   -0.27 9  186 275 
 ZAR  HN ES       1236 34.66                             122   -1.03 9  186 275 
 NOR  HZ EP       1236 22.18                             112    0.23 8  272 224 
 NOR  HN ES       1236 52.53                             112    0.09 8  272 224 
 NOR  HZ I        1237  0.23         3.7 0.38            112            272 224 
 GUY2CHZ EP       1236 31.02                             107    1.02 7  337 226 
 GUY2CHE ES       1237  7.07                             107    0.30 7  337 226 
                                                                                
