 2013  128 1606 57.5 L   6.713 -73.123142.6  RSN  6 0.4 1.7LRSN                1
 GAP=143        0.92       6.3     8.6  7.1  0.1539E+02 -0.6192E+01 -0.2601E+00E
 Epicentro: JORDAN - SANTANDER                                                 3
 ACTION:UPD 13-02-15 09:17 OP:ep   STATUS:               ID:20130128160657 L   I
 2013-01-28-1600-00M.COL___241                                                 6
 STAT SP IPHASW D HRMM SECON CODA AMPLIT PERI AZIMU VELO AIN AR TRES W  DIS CAZ7
 BAR2 SZ EP       16 7 16.92                             174    0.3510 14.8 206 
 BAR2 SZ ES       16 7 30.81                             174   -0.6610 14.8 206 
 BAR2 SZ I        16 7 33.24        12.6 0.26            148           14.8 206 
 BRR  HZ EP       16 7 18.78                             149    0.0910 78.3 304 
 BRR  HN ES       16 7 35.55                             149    0.2910 78.3 304 
 BRR  HN I        16 7 39.00        16.4 0.22            127           78.3 304 
 PAM  SZ EP       16 7 19.60                             148   -0.1310 83.6  34 
 PAM  SZ I        16 7 20.05        10.8 0.26            150           83.6  34 
 RUS  HZ EP   1   16 7 20.70                             146    0.49 7 90.8 177 
 RUS  HN ES   1   16 7 38.26                             146    0.31 7 90.8 177 
 RUS  HN I        16 7 41.28         6.6 0.45            128           90.8 177 
 PTB  HZ EP   1   16 7 23.78                             131   -0.47 7  149 263 
 PTB  HZ I        16 7 46.20         2.9 0.13            111            149 263 
 CHI  HZ EP   1   16 7 33.61                             117   -0.44 6  240 196 
                                                                                
