 2012  328 1621  1.8 L   6.710 -73.112148.6  RSN  6 0.3 1.7LRSN                1
 GAP=178        0.79       8.1     5.7  8.4 -0.2322E+02  0.7110E+01  0.9623E+01E
 ACTION:UP  12-03-31 23:23 OP:EP   STATUS:               ID:20120328162101 L   I
 2012-03-28-1620-00M.COL___197                                                 6
 STAT SP IPHASW D HRMM SECON CODA AMPLIT PERI AZIMU VELO SNR AR TRES W  DIS CAZ7
 BAR2 SZ EP   1   1621 22.07                             174     0.4 7   15 211 
 BAR2 SZ ES   1   1621 37.18                             174     0.1 7   15 211 
 BAR2 SZ I        1621 39.89         9.2 0.28                            15 211 
 BRR  HZ EP   1   1621 23.76                             150     0.0 7   80 304 
 BRR  HZ I        1621 28.48        17.2 0.32                            80 304 
 BRR  HN ES   1   1621 41.25                             150     0.4 7   80 304 
 PAM  SZ EP   1   1621 24.77                             150     0.1 7   83  33 
 PAM  SZ I        1621 24.93         6.4 0.20                            83  33 
 PAM  SN ES   1   1621 42.07                             150    -0.4 7   83  33 
 PTB  HZ EP   1   1621 28.77                             132    -0.4 7  150 263 
 PTB  HN ES   1   1621 49.98                             132    -0.6 7  150 263 
 PTB  HZ I        1621 57.22         4.6 0.29                           150 263 
 ZAR  HN ES   2   1622  1.61                             122     0.4 4  211 294 
 NOR  SN ES   1   1622  5.38                             119     0.2 6  232 237 
                                                                                
