 2017  228 1033 24.6 L   6.778 -73.162136.8  RSN  9 0.4 1.7LRSN                1
 GAP=135        0.97       3.6     3.7  5.5  0.7494E+00  0.8226E+01  0.2393E+01E
 Epicentro: LOS SANTOS - SANTANDER                                             3
 ACTION:UPD 17-05-24 15:41 OP:jn   STATUS:               ID:20170228103324 L   I
 OLDACT:DUP 17-02-28 21:15 OP:lv   STATUS:               ID:20170228102742d    3
 2017-02-28-1028-00M.COL___372                                                 6
 STAT SP IPHASW D HRMM SECON CODA AMPLIT PERI AZIMU VELO AIN AR TRES W  DIS CAZ7
 BAR2 EZ EP       1033 42.96                             171   -0.1010 20.7 186 
 BAR2 EZ ES       1033 57.66                             171    0.1710 20.7 186 
 BAR2 EZ I        1033 59.13        14.9 0.19            169           20.7 186 
 BRR  HZ IP     C 1033 44.88                             151    0.1510 70.8 301 
 BRR  HN ES       1034  0.21                             151   -0.2410 70.8 301 
 BRR  HZ I        1034  3.42         9.6 0.15            147           70.8 301 
 PAM  EZ EP       1033 45.98                             148   -0.0510 80.4  39 
 PAM  EN ES       1034  2.91                             148    0.1410 80.4  39 
 PAM  EZ I        1034  3.90         4.1 0.26            152           80.4  39 
 RUS  HZ EP       1033 47.37                             142    0.0910 98.3 175 
 RUS  HN ES       1034  4.74                             142   -0.2510 98.3 175 
 RUS  HZ I        1034  6.65         4.3 0.23            144           98.3 175 
 PTB  HZ EP       1033 50.07                             130   -0.54 9  145 260 
 PTB  HN ES       1034 10.76                             130   -0.15 9  145 260 
 PTB  HZ I        1034 13.05         6.9 0.16            129            145 260 
 ZAR  HZ EP       1033 56.29                             120   -0.07 9  203 293 
 ZAR  HN ES       1034 22.08                             120    0.92 9  203 293 
 ZAR  HZ I        1034 29.87         7.2 0.30            120            203 293 
 NOR  HN EP       1034  0.28                             117    0.80 8  232 235 
 NOR  HE ES       1034 26.99                             117    0.29 8  232 235 
 NOR  HN I        1034 34.94         6.9 0.18            117            232 235 
 URE  HZ EP       1034  4.41                             112   -0.72 7  283 293 
 URE  HN ES       1034 36.23                             112   -0.53 7  283 293 
 URE  HZ I        1034 47.93         3.6 0.19            112            283 293 
 PRA  HZ EP       1034 18.05                             105    0.61 6  389 210 
 PRA  HN ES       1034 58.14                             105   -0.53 6  389 210 
 PRA  HZ I        1035  3.56         1.8 0.25            106            389 210 
                                                                                
