 2010 1128 1411 22.7 L   6.775 -73.100147.3  RSN 16 0.4 2.5LRSN                1
 GAP=130        0.86       3.3     4.6  5.3 -0.6327E+01  0.3292E+01  0.2045E+01E
 Epicentro: LOS SANTOS - SANTANDER                                             3
 ACTION:UP  10-12-17 16:55 OP:REBC STATUS:               ID:20101128141122 L   I
 2010-11-28-1406-47S.COL___132                                                 6
 STAT SP IPHASW D HRMM SECON CODA AMPLIT PERI AZIMU VELO SNR AR TRES W  DIS CAZ7
 BAR2 SZ IP       1411 42.47                             171     0.010   22 205 
 BAR2 SZ ES   1   1411 57.78                             171    -0.1 7   22 205 
 BAR2 SZ I        1411 59.15       183.4 0.15                            22 205 
 BTL  SZ EP       1411 43.13                             170     0.610   24 310 
 BRR  HZ EP       1411 44.29                             151     0.010   77 299 
 BRR  HE ES   1   1412  1.10                             151    -0.1 7   77 299 
 BRR  HZ I        1412  5.67        64.1 0.23                            77 299 
 RUS  HZ IP     D 1411 46.37                             145     0.010   98 179 
 RUS  HN ES   1   1412  4.91                             145     0.1 7   98 179 
 RUS  HZ I        1412  6.69        44.7 0.21                            98 179 
 GRA  SZ IP       1411 48.25                             137     0.110  127  15 
 GRA  SZ ES   1   1412  7.86                             137    -0.2 7  127  15 
 GRA  SZ I        1412  9.42        30.7 0.49                           127  15 
 OCA  SZ EP   1   1411 50.90                             129    -0.5 7  164 351 
 OCA  SZ ES   2   1412 14.72                             129     0.9 5  164 351 
 OCA  SZ I        1412 17.63        33.8 0.16                           164 351 
 NOR  SZ EP   1   1411 58.50                             118    -0.3 6  237 236 
 NOR  SN ES   1   1412 26.33                             118    -0.6 6  237 236 
 CHI  HZ EP       1412  0.39                             118     0.1 8  247 196 
 CHI  HZ I        1412  0.96        18.2 0.19                           247 196 
 CHI  HE ES   1   1412 29.06                             118    -0.6 6  247 196 
 ROSC BZ EP   2   1412  1.81                             117     0.9 4  253 212 
 ROSC BZ I        1412 37.94        31.0 0.37                           253 212 
 HEL  HZ EP   1   1412  3.61                             115     0.2 6  276 257 
 HEL  HE ES   1   1412 34.99                             115    -0.3 6  276 257 
 HEL  HZ I        1412 41.96        18.8 0.23                           276 257 
 GUY  SZ EP   1   1412  7.41                             112     0.7 5  304 236 
 GUY  SN ES   1   1412 41.15                             112     0.2 5  304 236 
 GUY  SZ I        1412 52.18        37.5 0.46                           304 236 
 RREF HZ EP   1   1412  9.19                             111     0.1 5  324 230 
 RREF HE ES   2   1412 45.20                             111    -0.2 3  324 230 
 RREF HZ I        1412 53.28        25.0 0.28                           324 230 
 DBB  SZ EP   1   1412 10.18                             109    -0.6 5  345 275 
 DBB  SZ I        1412 59.64         3.1 0.44                           345 275 
 TOL  SZ EP   1   1412 11.95                             109     0.8 5  345 226 
 SDV  BZ IP     C 1412 11.87                             109    -0.7 6  358  49 
 SDV  BZ I        1412 12.74         8.4 0.16                           358  49 
 PRA  HZ EP   1   1412 16.03                             107    -0.2 4  392 210 
 PRA  HE ES   1   1412 58.39                             107     0.3 4  392 210 
                                                                                
