 2011  328 1401 28.7 L   6.804 -73.099141.8  RSN 11 0.4 2.5LRSN                1
 GAP=118        1.01       4.1     5.8  7.3 -0.7570E+01  0.3091E+01  0.7891E+01E
 Epicentro: LOS SANTOS - SANTANDER                                             3
 ACTION:UP  11-06-16 14:36 OP:jfem STATUS:               ID:20110328140128 L   I
 2011-03-28-1358-18S.COL___137                                                 6
 STAT SP IPHASW D HRMM SECON CODA AMPLIT PERI AZIMU VELO SNR AR TRES W  DIS CAZ7
 BAR2 SZ EP       14 1 47.99                             169     0.110   25 202 
 BAR2 SZ ES   1   14 2  2.23                             169    -0.6 7   25 202 
 BAR2 SZ I        14 2  4.16       113.0 0.44                            25 202 
 GIR2 SZ EP       14 1 48.06                             167     0.110   32 341 
 GIR2 SZ ES   2   14 2  3.62                             167     0.7 5   32 341 
 PAM  SZ EP       14 1 51.01                             151     0.710   74  37 
 PAM  SZ I        14 1 51.20        29.6 0.18                            74  37 
 BRR  HZ IP     D 14 1 49.79                             150     0.110   76 296 
 BRR  HZ I        14 1 49.99       154.2 0.16                            76 296 
 BRR  HE ES   1   14 2  6.59                             150     0.5 7   76 296 
 GRA  SZ IP       14 1 52.76                             137    -0.710  124  15 
 GRA  SZ ES   1   14 2 12.11                             137    -0.6 7  124  15 
 GRA  SZ I        14 2 16.84        43.1 0.28                           124  15 
 OCA  SZ EP       14 1 56.80                             129     0.1 9  161 351 
 OCA  SZ ES   2   14 2 18.48                             129    -0.1 5  161 351 
 OCA  SZ I        14 2 23.27        59.6 0.21                           161 351 
 YOP  SZ EP   2   14 1 58.60                             126     0.3 4  177 155 
 YOP  SZ I        14 1 59.25        22.6 0.40                           177 155 
 YOP  SN ES   2   14 2 21.33                             126     0.0 4  177 155 
 NOR  SZ EP       14 2  4.40                             117    -0.3 8  239 235 
 CHI  HZ EP       14 2  6.38                             116     0.0 8  250 196 
 CHI  HE ES   1   14 2 35.58                             116    -0.2 6  250 196 
 CHI  HZ I        14 2 40.81        11.6 0.26                           250 196 
 HEL  HZ EP   2   14 2 10.07                             114     0.8 4  277 256 
 HEL  HE ES       14 2 40.66                             114    -0.3 7  277 256 
 HEL  HZ I        14 2 47.24        23.5 0.56                           277 256 
 PRA  HZ EP   1   14 2 22.18                             106    -0.2 4  395 210 
 PRA  HN ES   1   14 3  4.53                             106     0.2 4  395 210 
                                                                                
