 2017  328 1820  2.8 L   6.793 -73.199136.2  RSN  4 0.2 1.1LRSN                1
 GAP=130        0.56       2.9     2.6  7.2 -0.1299E+00  0.4664E+01 -0.9541E+00E
 Epicentro: ZAPATOCA - SANTANDER                                               3
 ACTION:UPD 17-05-25 18:46 OP:jn   STATUS:               ID:20170328182002 L   I
 OLDACT:UP  17-03-29 01:24 OP:lv   STATUS:               ID:20170328181652     3
 OLDACT:UP  17-03-29 01:24 OP:lv   STATUS:               ID:20170328181652     3
 OLDACT:REG 17-03-28 20:44 OP:lv   STATUS:               ID:20170328181652     3
 2017-03-28-1818-00M.COL___367                                                 6
 STAT SP IPHASW D HRMM SECON CODA AMPLIT PERI AZIMU VELO AIN AR TRES W  DIS CAZ7
 PAM  EZ EP       1820 24.01                             147   -0.3110 81.9  42 
 PAM  HN ES       1820 41.22                             147    0.1410 81.9  42 
 RUS  HZ EP       1820 25.89                             142    0.2610  100 173 
 RUS  HN ES       1820 43.34                             142   -0.0810  100 173 
 RUS  HZ I        1820 45.79         2.0 0.11            142            100 173 
 PTB  HE ES       1820 48.33                             131   -0.14 9  142 259 
 ZAR  HN ES       1820 58.68                             121    0.15 9  199 293 
                                                                                
