 2010  928 1845 16.7 L   6.741 -73.140149.6  RSN  6 0.3 2.2LRSN                1
 GAP=185        0.57       4.7     6.8  5.9  0.9266E+01  0.2778E+01 -0.1497E+01E
 Epicentro: JORDAN - SANTANDER                                                 3
 ACTION:UP  11-02-18 11:06 OP:tino STATUS:               ID:20100928184516 L   I
 2010-09-28-1842-19S.COL___122                                                 6
 STAT SP IPHASW D HRMM SECON CODA AMPLIT PERI AZIMU VELO SNR AR TRES W  DIS CAZ7
 BAR2 SZ EP   1   1845 36.38                             173    -0.3 7   17 196 
 BAR2 SZ ES   1   1845 52.08                             173    -0.2 7   17 196 
 BAR2 SZ I        1845 52.89        44.1 0.27                            17 196 
 BTL  SZ EP       1845 37.00                             170     0.210   24 324 
 GIR2 SZ EP   2   1845 36.58                             165    -0.4 5   38 351 
 BRR  HZ IP     D 1845 38.33                             152    -0.110   75 303 
 BRR  HZ I        1845 38.49        47.5 0.15                            75 303 
 BRR  HN ES   1   1845 55.64                             152     0.2 7   75 303 
 RUS  HZ EP   1   1845 40.37                             146     0.0 7   94 176 
 RUS  HN ES   1   1845 58.94                             146     0.1 7   94 176 
 RUS  HZ I        1846  0.17         9.9 0.27                            94 176 
 NOR  SZ EP   2   1845 52.91                             120     0.6 4  232 236 
 NOR  SE ES   2   1846 19.55                             120    -0.5 4  232 236 
                                                                                
