 2017  928 1652 46.7 L   6.782 -73.077141.4  RSN  5 0.3 1.5LRSN                1
 GAP=146        0.69       3.5     3.8  5.0  0.2828E+01  0.4531E+01 -0.8885E+00E
 Epicentro: LOS SANTOS - SANTANDER                                             3
 ACTION:UPD 17-10-05 19:17 OP:rebc STATUS:               ID:20170928165246 L   I
 OLDACT:REG 17-09-28 20:53 OP:osc  STATUS:               ID:20170928164740     3
 2017-09-28-1648-00M.COL___443                                                 6
 STAT SP IPHASW D HRMM SECON CODA AMPLIT PERI AZIMU VELO AIN AR TRES W  DIS CAZ7
 BAR2 EZ EP       1653  5.38                             170   -0.4310 24.0 209 
 BAR2 EZ ES       1653 20.59                             170   -0.1410 24.0 209 
 BAR2 EZ I        1653 21.47         8.3 0.20            172           24.0 209 
 PAM  EZ EP       1653  8.31                             151    0.0410 74.5  34 
 PAM  EN ES       1653 25.26                             151    0.1610 74.5  34 
 PAM  EZ I        1653 27.77         5.0 0.56            152           74.5  34 
 BRR  HZ EP       1653  7.44                             149   -0.3910 78.9 297 
 BRR  HN ES       1653 24.48                             149    0.1610 78.9 297 
 BRR  HZ I        1653 27.38         9.9 0.34            150           78.9 297 
 RUS  HZ EP       1653  9.97                             144    0.1210 98.3 180 
 RUS  HN ES       1653 28.12                             144    0.2010 98.3 180 
 RUS  HZ I        1653 28.81         2.7 0.24            147           98.3 180 
 ZAR  HZ EP       1653 20.14                             120    0.47 8  212 292 
 ZAR  HN ES       1653 45.34                             120   -0.06 8  212 292 
                                                                                
