 2014  728 1824 17.5 L   7.483 -73.164127.1  RSN  4 0.4 1.8LRSN                1
 GAP=216        0.95       4.9     6.8 12.3  0.1249E+02  0.1476E+02 -0.1214E+02E
 Epicentro: EL PLAYON - SANTANDER                                              3
 ACTION:UPD 15-03-16 20:47 OP:nd   STATUS:               ID:20140728182417 L   I
 OLDACT:UP  14-07-29 00:56 OP:carl STATUS:               ID:20140728181819     3
 OLDACT:REG 14-07-28 21:28 OP:carl STATUS:               ID:20140728181819     3
 2014-07-28-1818-19M.COL___258                                                 6
 STAT SP IPHASW D HRMM SECON CODA AMPLIT PERI AZIMU VELO AIN AR TRES W  DIS CAZ7
 BAR2 SZ EP       1824 39.05                             140    0.1210 98.6 181 
 BAR2 SZ ES       1824 55.78                             140    0.1210 98.6 181 
 BAR2 SZ I        1824 56.65        23.5 0.14            140           98.6 181 
 PTB  HZ EP       1824 45.82                             122   -0.10 9  177 234 
 PTB  HN ES       1825  7.41                             122   -0.69 9  177 234 
 PTB  HZ I        1825 11.57         5.6 0.42            122            177 234 
 SML  HN ES       1825  7.69                             122   -0.33 9  177 326 
 ZAR  HZ EP       1824 47.08                             120    0.12 9  187 270 
 ZAR  HN ES       1825 10.68                             120    0.72 9  187 270 
 ZAR  HZ I        1825 14.10         5.2 0.16            121            187 270 
                                                                                
