 2014  628 1411 32.1 L   6.820 -73.081143.8  RSN 12 0.5 2.2LRSN                1
 GAP=144        1.21       3.3     5.3  6.2 -0.1871E+01  0.1241E+02  0.3182E+01E
 Epicentro: LOS SANTOS - SANTANDER                                             3
 ACTION:UPD 14-07-01 22:57 OP:nd   STATUS:               ID:20140628141132 L   I
 OLDACT:REG 14-06-28 22:01 OP:carl STATUS:               ID:20140628140818     3
 2014-06-28-1408-18M.COL___240                                                 6
 STAT SP IPHASW D HRMM SECON CODA AMPLIT PERI AZIMU VELO AIN AR TRES W  DIS CAZ7
 BAR2 SZ EP       1411 51.52                             169   -0.0710 27.5 204 
 BAR2 SZ ES       1412  6.33                             169   -0.4610 27.5 204 
 BAR2 SZ I        1412  7.89        32.4 0.20            165           27.5 204 
 PAM  SZ EP     C 1411 54.42                             152    0.6710 71.3  36 
 PAM  SN ES       1412 11.02                             152    0.3910 71.3  36 
 PAM  SZ I        1412 13.54        22.1 0.40            157           71.3  36 
 BRR  HZ EP       1411 53.27                             150   -0.0910 76.7 295 
 BRR  HN ES       1412 10.24                             150    0.3010 76.7 295 
 BRR  HZ I        1412 10.77        54.8 0.34            150           76.7 295 
 RUS  HZ EP       1411 55.63                             143   -0.1710  103 180 
 RUS  HN ES       1412 14.41                             143    0.1310  103 180 
 RUS  HZ I        1412 16.06         9.7 0.36            142            103 180 
 SPBC HZ EP       1412  0.64                             127   -0.41 9  169 220 
 SPBC HN ES       1412 23.41                             127   -0.22 9  169 220 
 SPBC HZ I        1412 30.73        11.2 0.20            127            169 220 
 ZAR  HZ EP       1412  5.99                             121    0.96 8  210 291 
 ZAR  HN ES       1412 31.07                             121    0.36 8  210 291 
 ZAR  HZ I        1412 34.38        11.6 0.26            122            210 291 
 SML  HZ EP       1412  7.84                             117   -0.90 8  245 334 
 SML  HN ES       1412 36.03                             117   -1.29 8  245 334 
 SML  HZ I        1412 38.16        16.8 0.22            118            245 334 
 CHI  HZ EP       1412  9.87                             116   -0.26 8  253 197 
 CHI  HN ES       1412 39.47                             116   -0.33 8  253 197 
 CHI  HZ I        1412 48.26         6.2 0.36            117            253 197 
 GUY2CHZ EP       1412 17.01                             111    0.58 7  308 235 
 GUY2CHN ES       1412 51.34                             111    0.34 7  308 235 
 GUY2CHZ I        1412 57.10         5.2 0.30                           308 235 
 RREF HZ EP       1412 19.70                             110    0.75 7  329 230 
 RREF HN ES       1412 54.86                             110   -0.62 7  329 230 
 RREF HZ I        1413  3.33         7.9 0.24            110            329 230 
 TOL  SZ EP       1412 21.79                             108    0.75 6  350 225 
 TOL  SN ES       1412 59.54                             108    0.33 6  350 225 
 TOL  SZ I        1413  5.16        13.1 0.70            109            350 225 
 PRA  HZ EP       1412 25.68                             106   -0.52 6  397 210 
 PRA  HN ES       1413  7.85                             106   -0.54 6  397 210 
 PRA  HZ I        1413 15.10         8.6 0.46            106            397 210 
                                                                                
