 2017 1128 1000 23.7 L   6.793 -73.133136.0  RSN 10 0.5 1.4LRSN                1
 GAP=138        1.18       4.0     5.7  7.5 -0.1028E+02  0.1870E+02 -0.3889E+01E
 Epicentro: LOS SANTOS - SANTANDER                                             3
 ACTION:UPD 17-12-12 20:01 OP:rebc STATUS:               ID:20171128100023 L   I
 OLDACT:REG 17-11-28 19:20 OP:dhb  STATUS:               ID:20171128095743     3
 2017-11-28-0958-00M.COL___483                                                 6
 STAT SP IPHASW D HRMM SECON CODA AMPLIT PERI AZIMU VELO AIN AR TRES W  DIS CAZ7
 BAR2 EZ EP       10 0 42.25                             170    0.0910 22.8 194 
 BAR2 EZ ES       10 0 57.23                             170    0.6810 22.8 194 
 BAR2 EZ I        10 1  4.83         4.2 0.44            169           22.8 194 
 PAM  EZ EP       10 0 44.93                             149    0.0510 77.1  38 
 PAM  EE ES       10 1  1.35                             149   -0.0510 77.1  38 
 PAM  EZ I        10 1  4.17         6.9 0.66            146           77.1  38 
 RUS  HZ EP       10 0 46.48                             142    0.0310 99.7 177 
 RUS  HN ES       10 1  3.87                             142   -0.3110 99.7 177 
 RUS  HZ I        10 1  5.64         1.8 0.32            143           99.7 177 
 PTB  HZ EP       10 0 49.16                             130   -0.85 9  149 259 
 PTB  HE ES       10 1 11.07                             130    0.54 9  149 259 
 PTB  HZ I        10 1 11.95         2.3 0.14            125            149 259 
 OCA  HZ EP       10 0 51.63                             127    0.25 9  161 353 
 OCA  HE ES       10 1 12.23                             127   -0.73 9  161 353 
 OCA  HZ I        10 1 14.11        11.1 0.46            122            161 353 
 SPBC HN ES       10 1 12.65                             127   -0.53 9  163 220 
 SPBC HZ I        10 1 20.54         3.0 0.10            124            163 220 
 ZAR  HZ EP       10 0 56.63                             120    0.92 8  206 292 
 ZAR  HZ I        10 1 37.67         3.2 0.28            115            206 292 
 NOR  HZ EP       10 0 58.55                             116   -0.42 8  235 235 
 NOR  HN ES       10 1 26.55                             116    0.09 8  235 235 
 NOR  HZ I        10 1 27.08         1.6 0.34            113            235 235 
 GUY2CHZ EP   3   10 1  9.12                             110    2.16 2  302 235 
 GUY2CHE ES       10 1 40.19                             110   -0.51 7  302 235 
 GUY2CHZ I        10 1 49.41         1.0 0.48                           302 235 
 PRA  HZ EP       10 1 17.50                             105    0.59 6  392 210 
 PRA  HE ES       10 1 58.83                             105    0.43 6  392 210 
 PRA  HZ I        10 2  2.21         1.3 0.32            103            392 210 
                                                                                
