 2010  328 1050 28.3 L   6.827 -73.018140.7  RSN  7 0.3 2.0LRSN                1
 GAP=252        0.53       4.4     7.2  5.9  0.7997E+01  0.1474E+02  0.8768E+01E
 Epicentro: CEPITA - SANTANDER                                                 3
 ACTION:UP  10-08-24 09:56 OP:vdl  STATUS:               ID:20100328105028 L   I
 2010-03-28-1047-00S.COL___098                                                 6
 STAT SP IPHASW D HRMM SECON CODA AMPLIT PERI AZIMU VELO SNR AR TRES W  DIS CAZ7
 BAR2 SZ EP   1   1050 47.60                             166     0.1 7   32 215 
 BAR2 SZ ES   2   1051  2.12                             166    -0.4 5   32 215 
 BRR  HZ IP       1050 49.46                             148    -0.110   83 292 
 BRR  HZ I        1050 49.64        36.7 0.12                            83 292 
 BRR  HN ES   2   1051  6.43                             148     0.2 5   83 292 
 RUS  HZ EP   1   1050 51.62                             142    -0.1 7  104 184 
 RUS  HE ES   2   1051 10.67                             142     0.6 5  104 184 
 RUS  HZ I        1051 12.56        10.6 0.33                           104 184 
 CHI  HZ EP   1   1051  6.11                             115    -0.3 6  255 198 
 CHI  HE ES   2   1051 36.07                             115    -0.1 4  255 198 
 CHI  HZ I        1051 42.16         4.0 0.32                           255 198 
 HEL  HZ EP   1   1051  9.98                             112     0.1 6  286 256 
 RREF BZ EP   1   1051 16.20                             109     0.5 5  334 231 
 RREF BN ES   2   1051 52.22                             109    -0.4 3  334 231 
 RREF BZ I        1051 59.60         4.0 0.39                           334 231 
 PRA  HZ EP   1   1051 22.78                             105     0.0 4  402 211 
 PRA  HN ES   2   1052  5.25                             105     0.0 3  402 211 
 PRA  HZ I        1052  8.32         3.6 0.53                           402 211 
                                                                                
