 2015 1228 1954 22.6 L   6.788 -73.159145.4  RSN 10 0.4 2.0LRSN                1
 GAP=135        0.88       2.7     3.6  5.6 -0.6660E-01  0.4075E+01  0.9658E+00E
 Epicentro: LOS SANTOS - SANTANDER                                             3
 ACTION:UPD 16-02-04 15:08 OP:cam  STATUS:               ID:20151228195422 L   I
 OLDACT:REG 15-12-28 20:37 OP:dnl  STATUS:               ID:20151228194747     3
 2015-12-28-1947-47M.COL___340                                                 6
 STAT SP IPHASW D HRMM SECON CODA AMPLIT PERI AZIMU VELO AIN AR TRES W  DIS CAZ7
 BAR2 EZ EP   2   1954 42.09                             171   -0.04 5 21.8 187 
 BAR2 EZ ES   2   1954 56.45                             171   -0.93 5 21.8 187 
 BAR2 EZ I        1954 58.30        24.0 0.18            170           21.8 187 
 BRR  HZ EP   2   1954 44.05                             153    0.40 5 70.6 300 
 BRR  HN ES       1955  0.77                             153    0.6910 70.6 300 
 BRR  HZ I        1955  4.12        14.4 0.10            151           70.6 300 
 PAM  EZ EP       1954 44.90                             150    0.0310 79.4  40 
 PAM  EN ES       1955  2.01                             150   -0.2510 79.4  40 
 PAM  EZ I        1955  2.94        14.3 0.21            154           79.4  40 
 RUS  HZ EP       1954 46.07                             144   -0.1310 99.4 175 
 RUS  HE ES       1955  4.96                             144    0.3310 99.4 175 
 RUS  HZ I        1955  5.79         9.1 0.28            145           99.4 175 
 PTB  HZ EP       1954 48.92                             132   -0.44 9  146 259 
 PTB  HN ES       1955  9.50                             132   -0.75 9  146 259 
 PTB  HZ I        1955 11.80        12.3 0.14            132            146 259 
 SPBC HZ EP   2   1954 51.30                             129    0.44 5  161 219 
 SPBC HE ES   2   1955 13.23                             129    0.31 5  161 219 
 SPBC HZ I        1955 16.29        18.8 0.12            129            161 219 
 ZAR  HZ EP   1   1954 55.26                             123    0.35 6  203 293 
 ZAR  HN ES       1955 20.03                             123   -0.10 9  203 293 
 ZAR  HZ I        1955 25.47         8.2 0.16            123            203 293 
 NOR  HZ EP   2   1954 58.28                             119    0.21 4  233 235 
 NOR  HN ES       1955 25.71                             119   -0.05 8  233 235 
 NOR  HZ I        1955 31.99         7.3 0.21            119            233 235 
 SML  HZ EP       1954 58.82                             117   -0.43 8  244 336 
 SML  HE ES       1955 28.35                             117    0.50 8  244 336 
 SML  HZ I        1955 31.30        17.5 0.12            118            244 336 
 CHI  HZ EP       1955  0.28                             117    0.21 8  247 195 
 CHI  HN ES       1955 29.52                             117    0.20 8  247 195 
 CHI  HZ I        1955 33.63         7.9 0.47            118            247 195 
                                                                                
