 2014  928 1046  6.9 L   6.796 -73.147145.6  RSN  5 0.4 1.5LRSN                1
 GAP=214        0.92       4.3     6.0  7.9  0.4293E+00  0.7594E+01 -0.1084E+02E
 Epicentro: LOS SANTOS - SANTANDER                                             3
 ACTION:UPD 14-10-03 23:09 OP:nd   STATUS:               ID:20140928104606 L   I
 OLDACT:DUP 14-09-28 21:09 OP:cam  STATUS:               ID:20140928104001d    3
 OLDACT:UP  14-09-28 21:09 OP:cam  STATUS:               ID:20140928104000     3
 OLDACT:REG 14-09-28 20:05 OP:cam  STATUS:               ID:20140928104000     3
 2014-09-28-1040-00M.COL___252                                                 6
 STAT SP IPHASW D HRMM SECON CODA AMPLIT PERI AZIMU VELO AIN AR TRES W  DIS CAZ7
 BAR2 SZ EP       1046 26.78                             171    0.3210 22.9 190 
 BAR2 SZ ES       1046 41.76                             171    0.0110 22.9 190 
 BAR2 SZ I        1046 43.32         6.7 0.22            168           22.9 190 
 PTB  HZ EP       1046 33.65                             132   -0.14 9  148 259 
 PTB  HN ES       1046 54.65                             132   -0.15 9  148 259 
 PTB  HZ I        1046 57.26         2.4 0.12            131            148 259 
 SPBC HZ EP       1046 35.79                             129    0.49 9  163 219 
 SPBC HN ES       1046 56.94                             129   -0.55 9  163 219 
 SPBC HZ I        1047  4.74         3.4 0.24            129            163 219 
 ZAR  HN ES       1047  5.20                             122    0.60 9  204 292 
 ZAR  HZ I        1047 10.97         2.4 0.42            122            204 292 
 SML  HZ EP       1046 43.02                             117   -0.49 8  244 335 
 SML  HN ES       1047 11.85                             117   -0.25 8  244 335 
 SML  HZ I        1047 16.03         3.3 0.10            118            244 335 
                                                                                
