 2012  828 1405 53.0 L   6.807 -73.155140.8  RSN  6 0.4 1.9LRSN                1
 GAP=249        0.87       6.0     6.5  8.3  0.7604E+01  0.1088E+02  0.1783E+02E
 Epicentro: LOS SANTOS - SANTANDER                                             3
 ACTION:UPD 12-09-10 11:58 OP:ep   STATUS:               ID:20120828140553 L   I
 2012-08-28-1400-00M.COL___218                                                 6
 STAT SP IPHASW D HRMM SECON CODA AMPLIT PERI AZIMU VELO AIN AR TRES W  DIS CAZ7
 BAR2 SZ EP       14 6 12.09                             170    0.0810 24.0 187 
 BAR2 SZ ES   1   14 6 26.49                             170   -0.38 7 24.0 187 
 BAR2 SZ I        14 6 28.60        34.6 0.13                          24.0 187 
 BRR  HZ EP       14 6 13.64                             152    0.1310 69.9 298 
 BRR  HN ES   1   14 6 30.19                             152    0.66 7 69.9 298 
 BRR  HZ I        14 6 34.08        19.3 0.14                          69.9 298 
 PTB  HZ EP       14 6 18.93                             131   -0.52 9  147 258 
 PTB  HN ES   1   14 6 39.35                             131   -0.77 7  147 258 
 PTB  HZ I        14 6 44.81         6.1 0.21                           147 258 
 ZAR  HN ES   1   14 6 50.05                             121    0.13 6  203 292 
 NOR  SZ EP   1   14 6 28.49                             117    0.12 6  234 234 
 NOR  SN ES   1   14 6 56.77                             117    0.78 6  234 234 
 CHI  HZ EP   1   14 6 30.68                             116    0.23 6  249 195 
 CHI  HN ES   1   14 6 59.68                             116   -0.01 6  249 195 
 CHI  HZ I        14 7  8.07         4.7 0.43                           249 195 
                                                                                
