 2010  628 1403 53.1 L   6.760 -73.128145.5  RSN  5 0.3 1.4LRSN                1
 GAP=158        0.66       5.0     8.9  7.7  0.4009E+01 -0.2424E+02 -0.5881E+01E
 Epicentro: LOS SANTOS - SANTANDER                                             3
 ACTION:UP  10-08-24 10:13 OP:vdl  STATUS:               ID:20100628140353 L   I
 2010-06-28-1401-01S.COL___118                                                 6
 STAT SP IPHASW D HRMM SECON CODA AMPLIT PERI AZIMU VELO SNR AR TRES W  DIS CAZ7
 BAR2 SZ EP   1   14 4 12.49                             172    -0.1 7   20 198 
 BAR2 SZ ES   1   14 4 27.32                             172    -0.5 7   20 198 
 BRR  HZ EP   1   14 4 14.63                             151     0.2 7   75 301 
 BRR  HZ I        14 4 22.40         8.0 0.50                            75 301 
 BRR  HE ES   1   14 4 31.10                             151     0.0 7   75 301 
 RUS  HZ EP   1   14 4 16.58                             145     0.1 7   96 177 
 RUS  HE ES   2   14 4 35.30                             145     0.6 5   96 177 
 RUS  HZ I        14 4 36.07         3.0 0.27                            96 177 
 BRI  SZ EP   1   14 4 17.11                             140    -0.1 7  112  19 
 BRI  SZ ES   2   14 4 36.64                             140     0.6 5  112  19 
 GUE  SZ EP   2   14 4 17.63                             138    -0.4 5  120  11 
                                                                                
