 2010  428 1519 50.6 L   6.761 -73.093151.9  RSN 15 0.6 3.9LRSN                1
 GAP=148        1.36       5.9     8.9  8.8 -0.3289E+02 -0.2836E+00  0.1554E+02E
 Epicentro: LOS SANTOS - SANTANDER                                             3
 ACTION:UPD 10-08-24 10:01 OP:vdl  STATUS:               ID:20100428151957 L   I
 2010-04-28-1517-31S.COL___104                                                 6
 STAT SP IPHASW D HRMM SECON CODA AMPLIT PERI AZIMU VELO AIN AR TRES W  DIS CAZ7
 BAR2 SZ IP       1520 10.55                             172    -0.410   21 208 
 BAR2 SZ ES   1   1520 25.98                             172    -0.8 7   21 208 
 BRR  HZ IP     D 1520 12.96                             151     0.210   78 299 
 BRR  HZ I        1520 13.28       843.1 0.13                            78 299 
 BRR  HN ES   1   1520 30.09                             151     0.0 7   78 299 
 BRI  SZ IP       1520 16.07                             142     0.910  111  17 
 BRI  SZ ES   1   1520 35.05                             142     0.6 7  111  17 
 GUE  SZ EP       1520 15.47                             140    -0.610  120   9 
 GUE  SZ ES   2   1520 35.35                             140    -0.7 5  120   9 
 GRA  SZ IP       1520 17.36                             138     0.810  128  14 
 GRA  SZ ES   1   1520 37.08                             138     0.2 7  128  14 
 OCA  SZ EP       1520 19.06                             130    -0.8 9  165 351 
 OCA  SZ ES   1   1520 42.95                             130     0.3 7  165 351 
 OCA  SZ I        1520 45.83      1159.3 0.47                           165 351 
 CHI  HZ EP   1   1520 28.34                             119     0.0 6  246 197 
 CHI  HE ES   1   1520 57.67                             119    -0.1 6  246 197 
 CHI  HZ I        1521  6.79       254.2 0.51                           246 197 
 ROSC BZ IP     D 1520 30.11                             118     1.1 8  252 213 
 ROSC BZ I        1521  8.47       523.6 0.35                           252 213 
 HEL  HZ EP   1   1520 31.19                             116    -0.4 6  277 257 
 HEL  HE ES   2   1521  3.92                             116     0.3 4  277 257 
 HEL  HZ I        1521 11.09       390.6 0.37                           277 257 
 RREF BZ EP   1   1520 36.92                             112    -0.3 5  323 231 
 RREF BE ES   1   1521 14.35                             112     0.8 5  323 231 
 RREF BZ I        1521 22.59       411.3 0.35                           323 231 
 TOL  SZ EP   1   1520 39.25                             110     0.0 5  345 226 
 TOL  SZ ES   2   1521 16.59                             110    -0.5 3  345 226 
 DBB  SZ IP       1520 38.30                             110    -0.7 6  346 275 
 ANIL BZ EP   1   1520 40.90                             109     0.2 5  358 226 
 ANIL BE ES   1   1521 19.30                             109    -0.6 5  358 226 
 ANIL BZ I        1521 27.29       922.9 0.44                           358 226 
 SDV  BZ IP     C 1520 39.71                             109    -1.0 6  359  49 
 SDV  BZ I        1520 40.78       106.9 0.29                           359  49 
 PRA  HZ EP   1   1520 43.51                             107    -0.7 4  391 211 
 PRA  HE ES   1   1521 26.82                             107     0.8 4  391 211 
 PRA  HZ I        1521 34.75       333.3 0.43                           391 211 
                                                                                
