 2017 1228 1620 10.5 L   6.728 -73.157137.7  RSN  4 0.3 1.5LRSN                1
 GAP=154        0.65       7.6     4.3  7.1 -0.1925E+02  0.9150E+01  0.2992E+00E
 Epicentro: VILLANUEVA - SANTANDER                                             3
 ACTION:UPD 18-01-04 13:25 OP:rebc STATUS:               ID:20171228162010 L   I
 OLDACT:UP  17-12-29 00:19 OP:mg   STATUS:               ID:20171228161736     3
 OLDACT:REG 17-12-28 20:40 OP:mg   STATUS:               ID:20171228161736     3
 2017-12-28-1618-00M.COL___450                                                 6
 STAT SP IPHASW D HRMM SECON CODA AMPLIT PERI AZIMU VELO AIN AR TRES W  DIS CAZ7
 BAR2 EZ EP       1620 29.35                             173    0.3710 15.3 191 
 BAR2 EZ ES   2   1620 43.59                             173    0.17 5 15.3 191 
 BAR2 EZ I        1620 46.27         9.5 0.30            174           15.3 191 
 PAM  EZ EP       1620 32.34                             147    0.0610 84.4  37 
 PAM  EN ES       1620 49.14                             147   -0.1510 84.4  37 
 PAM  EZ I        1620 50.20         5.0 0.18            151           84.4  37 
 PTB  HZ EP       1620 36.10                             131   -0.45 9  145 262 
 PTB  HN ES       1620 56.75                             131   -0.14 9  145 262 
 PTB  HZ I        1620 59.36         4.2 0.10            133            145 262 
 ZAR  HZ EP   1   1620 42.88                             120    0.27 6  206 294 
 ZAR  HN ES   2   1621  8.09                             120    0.41 4  206 294 
 ZAR  HZ I        1621 10.50         3.7 0.25            123            206 294 
                                                                                
