 2010 1228 1924 27.1 L   6.788 -73.075150.8  RSN 19 0.5 4.0LRSN                1
 GAP=106        0.98       3.7     6.5  7.2 -0.8884E+01  0.3454E+01  0.7318E+01E
 Epicentro: LOS SANTOS - SANTANDER                                             3
 ACTION:UP  11-01-14 15:27 OP:pat  STATUS:               ID:20101228192427 L   I
 2010-12-28-1920-00M.COL___137                                                 6
 STAT SP IPHASW D HRMM SECON CODA AMPLIT PERI AZIMU VELO SNR AR TRES W  DIS CAZ7
 BAR2 SZ IP       1924 47.31                             170    -0.110   25 209 
 BAR2 SZ ES   2   1925  2.58                             170    -0.6 5   25 209 
 BAR2 SZ I        1925  5.94      1915.4 0.40                            25 209 
 BTL  SZ EP   1   1924 48.04                             170     0.6 7   26 304 
 GIR2 SZ IP     C 1924 47.40                             167    -0.110   35 338 
 GIR2 SZ ES   2   1925  3.55                             167     0.2 5   35 338 
 RUS  HZ IP     D 1924 51.07                             145    -0.210   99 181 
 RUS  HE ES   2   1925  9.74                             145    -0.3 5   99 181 
 RUS  HZ I        1925 12.52      1107.0 0.54                            99 181 
 GUE  SZ EP   1   1924 52.21                             140    -0.1 7  116   8 
 GRA  SZ IP     D 1924 53.13                             138     0.410  125  14 
 GRA  SZ ES   2   1925 12.64                             138    -0.1 5  125  14 
 GRA  SZ I        1925 14.83       857.2 0.46                           125  14 
 OCA  SZ EP   1   1924 55.14                             130    -0.9 7  163 350 
 OCA  SZ ES   2   1925 18.64                             130     0.0 5  163 350 
 OCA  SZ I        1925 22.88       961.0 0.48                           163 350 
 YOP  SZ IP     D 1924 57.74                             128     0.6 9  174 155 
 YOP  SN ES   2   1925 20.67                             128     0.2 4  174 155 
 YOP  SZ I        1925 25.96       516.1 0.57                           174 155 
 NOR  SZ EP   1   1925  2.93                             119    -0.8 6  240 236 
 NOR  SN ES   2   1925 31.83                             119    -0.5 4  240 236 
 CHI  HZ EP   1   1925  5.33                             118     0.1 6  249 197 
 CHI  HE ES   2   1925 34.61                             118    -0.3 4  249 197 
 CHI  HZ I        1925 40.47       494.8 0.44                           249 197 
 ROSC BZ EP   1   1925  6.79                             117     0.9 6  256 213 
 ROSC BN ES   2   1925 36.12                             117     0.1 4  256 213 
 ROSC BZ I        1925 40.64      1181.2 0.44                           256 213 
 CVER SZ EP   1   1925  8.59                             115     0.6 6  274 204 
 VIL  SZ EP   1   1925  9.86                             113    -0.7 5  302 191 
 VIL  SN ES   2   1925 45.05                             113     0.5 4  302 191 
 VIL  SZ I        1925 51.68       308.5 0.52                           302 191 
 GUY  SZ EP   1   1925 11.47                             113    -0.2 5  307 236 
 GUY  SE ES   2   1925 47.13                             113     0.8 4  307 236 
 GUY  SZ I        1925 52.50       824.3 0.30                           307 236 
 TOL  SZ EP       1925 17.11                             110     1.0 6  348 226 
 SDV  BZ EP   1   1925 16.71                             109    -0.1 5  355  49 
 SDV  BE ES   2   1925 54.85                             109    -0.7 3  355  49 
 SDV  BZ I        1925 56.09       207.3 0.38                           355  49 
 PRA  HZ EP   1   1925 20.53                             107    -0.6 4  395 211 
 PRA  HN ES   2   1926  2.86                             107    -0.4 3  395 211 
 SJA  SZ EP       1925 20.97                             107    -0.9 6  401 194 
 SJA  SZ ES   1   1926  4.14                             107    -0.5 4  401 194 
 SJA  SZ I        1926 14.48       447.5 0.48                           401 194 
 GUA  SZ EP   1   1925 29.99                             104    -0.2 4  472 174 
 GUA  SZ ES   2   1926 18.90                             104    -0.4 2  472 174 
                                                                                
