 2017 1128 1028 23.8 L   6.820 -73.130144.5  RSN 24 0.8 2.3LRSN                1
 GAP= 56        1.75       3.5     3.9  7.8 -0.7031E+00  0.9099E+01  0.1549E+01E
 Epicentro: LOS SANTOS - SANTANDER                                             3
 ACTION:UPD 17-12-12 20:01 OP:rebc STATUS:               ID:20171128102823 L   I
 OLDACT:REG 17-11-28 19:23 OP:dhb  STATUS:               ID:20171128102744     3
 2017-11-28-1028-00M.COL___483                                                 6
 STAT SP IPHASW D HRMM SECON CODA AMPLIT PERI AZIMU VELO AIN AR TRES W  DIS CAZ7
 BAR2 EZ IP     C 1028 43.38                             169    0.0910 25.9 193 
 BAR2 EZ ES       1028 57.56                             169   -0.9710 25.9 193 
 BAR2 EZ I        1028 59.43        75.5 0.38            168           25.9 193 
 PAM  EZ EP       1028 46.19                             151    0.5210 74.5  40 
 PAM  EN ES       1029  3.39                             151    0.6310 74.5  40 
 PAM  EZ I        1029  5.67        52.1 0.66            152           74.5  40 
 RUS  HZ IP     C 1028 47.32                             143   -0.2210  103 177 
 RUS  HN ES       1029  6.03                             143   -0.0610  103 177 
 RUS  HZ I        1029  6.85        35.0 0.28            142            103 177 
 PTB  HZ EP       1028 50.39                             131   -0.43 9  150 258 
 PTB  HN ES       1029 11.24                             131   -0.70 9  150 258 
 PTB  HZ I        1029 12.56        25.0 0.16            131            150 258 
 TAM  HZ IP     C 1028 51.64                             130    0.41 9  154 106 
 TAM  HE ES       1029 13.02                             130    0.36 9  154 106 
 TAM  HZ I        1029 20.81         9.3 0.42            130            154 106 
 OCA  HZ EP       1028 52.15                             129    0.37 9  158 352 
 OCA  HN ES       1029 13.67                             129    0.02 9  158 352 
 OCA  HZ I        1029 17.12        61.4 0.48            130            158 352 
 SPBC HZ EP       1028 52.36                             128   -0.07 9  166 219 
 SPBC HE ES       1029 14.71                             128   -0.09 9  166 219 
 SPBC HZ I        1029 17.01        38.0 0.20            127            166 219 
 YPLC HZ EP       1028 53.66                             126    0.09 9  178 152 
 YPLC HN ES       1029 17.40                             126    0.57 9  178 152 
 YPLC HZ I        1029 20.78        12.2 0.28            125            178 152 
 ZAR  HZ EP       1028 56.52                             122    0.31 9  205 291 
 ZAR  HE ES       1029 21.89                             122    0.37 9  205 291 
 ZAR  HZ I        1029 28.13        38.9 0.26            122            205 291 
 NOR  HZ EP       1028 59.54                             118   -0.17 8  237 234 
 NOR  HE ES       1029 27.31                             118   -0.44 8  237 234 
 NOR  HZ I        1029 33.67        19.2 0.48            117            237 234 
 CHI  HZ EP       1029  1.55                             116   -0.12 8  251 195 
 CHI  HE ES       1029 31.09                             116   -0.16 8  251 195 
 CHI  HZ I        1029 38.09         5.1 0.42            116            251 195 
 ROSC BN ES       1029 34.32                             116    2.28 8  256 211 
 ROSC BZ I        1029 39.17        15.9 0.35            115            256 211 
 URE  HZ EP       1029  3.73                             113   -1.13 7  285 291 
 URE  HE ES       1029 34.74                             113   -2.18 7  285 291 
 URE  HZ I        1029 47.86        23.9 0.30            113            285 291 
 DRL03HE ES       1029 38.31                             113    0.99 7  287 352 
 GUY2CHZ EP       1029  8.62                             112    1.00 7  304 235 
 GUY2CHE ES       1029 41.41                             112   -0.42 7  304 235 
 GUY2CHZ I        1029 51.34        10.6 0.60                           304 235 
 PTGC HZ EP       1029  6.41                             111   -1.31 7  310 159 
 PTGC HE ES       1029 39.46                             111   -2.55 7  310 159 
 PTGC HZ I        1029 54.61        14.8 0.38            111            310 159 
 ELA  HZ EP   4   1029 13.97                             110    3.09 0  332 229 
 ELA  HE ES       1029 47.93                             110    0.30 7  332 229 
 ELA  HZ I        1030  0.46        10.7 0.44            109            332 229 
 CBOC HZ EP       1029 12.18                             109    1.29 7  336 252 
 CBOC HE ES       1029 47.73                             109    0.07 7  336 252 
 CBOC HZ I        1029 57.04         4.3 0.32            109            336 252 
 DBB  HZ EP       1029 12.03                             109    0.66 7  341 274 
 DBB  HE ES       1029 49.54                             109    1.03 7  341 274 
 DBB  HZ I        1029 52.01        14.1 0.24            109            341 274 
 SDV  B1 ES       1029 51.35                             108   -0.82 6  358  50 
 SDV  BZ I        1029 59.56         4.7 0.80            108            358  50 
 ANIL HE ES   4   1029 55.63                             108    2.72 0  360 224 
 PRA  HZ EP       1029 17.78                             106    0.21 6  395 210 
 PRA  HE ES       1030  0.11                             106    0.58 6  395 210 
 PRA  HZ I        1030  5.68         5.9 0.52            106            395 210 
 ORTC HZ EP       1029 18.13                             106    0.16 6  398 216 
 ORTC HN ES       1030  1.30                             106    1.05 6  398 216 
 ORTC HZ I        1030  5.27         4.3 0.46            106            398 216 
 SJC  HZ EP       1029 18.17                             105   -1.00 6  408 327 
 SJC  HN ES   2   1030  1.66                             105   -0.74 3  408 327 
 SJC  HZ I        1030  2.48         3.7 0.34            105            408 327 
 PAL  HZ EP       1029 19.42                             105    0.23 6  408 239 
 PAL  HE ES       1030  1.44                             105   -0.99 6  408 239 
 PAL  HZ I        1030  4.77         4.6 0.30            105            408 239 
                                                                                
