 2017  328 1214  1.4 L   6.718 -73.138142.4  RSN  8 0.5 1.7LRSN                1
 GAP=141        1.22       4.9     5.1  7.3 -0.1452E+01  0.1193E+02  0.6369E+01E
 Epicentro: JORDAN - SANTANDER                                                 3
 ACTION:UPD 17-05-25 18:46 OP:jn   STATUS:               ID:20170328121401 L   I
 OLDACT:REG 17-03-28 20:14 OP:lv   STATUS:               ID:20170328120744     3
 2017-03-28-1208-00M.COL___358                                                 6
 STAT SP IPHASW D HRMM SECON CODA AMPLIT PERI AZIMU VELO AIN AR TRES W  DIS CAZ7
 BAR2 EZ EP       1214 20.27                             174   -0.2110 14.8 199 
 BAR2 EZ ES       1214 35.47                             174    0.1110 14.8 199 
 BRR  HZ EP       1214 22.37                             150   -0.1310 76.6 304 
 BRR  HN ES       1214 39.57                             150    0.6010 76.6 304 
 BRR  HZ I        1214 46.81        14.5 0.10            150           76.6 304 
 PAM  EZ EP       1214 23.38                             148   -0.3010 84.1  35 
 PAM  EN ES       1214 41.01                             148   -0.0410 84.1  35 
 PAM  EZ I        1214 43.39         4.2 0.22            151           84.1  35 
 RUS  HZ EP       1214 24.47                             146    0.2910 91.5 176 
 RUS  HN ES       1214 41.92                             146   -0.0210 91.5 176 
 RUS  HZ I        1214 43.66         9.2 0.18            150           91.5 176 
 PTB  HZ EP       1214 27.13                             131   -0.90 9  147 262 
 PTB  HN ES       1214 47.97                             131   -0.83 9  147 262 
 PTB  HZ I        1214 48.54         8.1 0.21            133            147 262 
 ZAR  HZ EP       1214 34.88                             121    0.81 8  208 294 
 ZAR  HN ES       1214 59.44                             121   -0.12 8  208 294 
 ZAR  HZ I        1215  4.36         5.6 0.06            123            208 294 
 NOR  HZ EP       1214 37.42                             118    0.97 8  230 236 
 NOR  HN ES       1215  4.24                             118    0.44 8  230 236 
 NOR  HZ I        1215  8.88         3.7 0.20            121            230 236 
 PRA  HZ EP       1214 53.44                             106   -0.49 6  385 210 
 PRA  HN ES       1215 34.78                             106   -0.13 6  385 210 
                                                                                
