 2014 1028 1853 40.2 L   6.808 -73.113150.1  RSN  5 0.5 1.8LRSN                1
 GAP=160        1.09       8.8     9.0  9.0 -0.5438E+02  0.4009E+01  0.2255E+02E
 Epicentro: LOS SANTOS - SANTANDER                                             3
 ACTION:UPD 14-11-29 23:58 OP:nd   STATUS:               ID:20141028185340 L   I
 OLDACT:REG 14-10-30 15:39 OP:fm   STATUS:               ID:20141028184747     3
 2014-10-28-1847-47M.COL___277                                                 6
 STAT SP IPHASW D HRMM SECON CODA AMPLIT PERI AZIMU VELO AIN AR TRES W  DIS CAZ7
 BAR2 SZ ES   1   1854 16.58                             170    0.46 7 25.1 198 
 BAR2 SZ I        1854 17.66         8.9 0.34            170           25.1 198 
 BRR  HZ EP       1854  1.26                             152   -0.7110 74.0 297 
 BRR  HN ES       1854 19.30                             152    0.3510 74.0 297 
 BRR  HZ I        1854 20.36         7.4 0.38            155           74.0 297 
 PAM  SZ EP       1854  3.30                             152    0.6010 74.4  38 
 PAM  SN ES       1854 19.81                             152   -0.4410 74.4  38 
 PAM  SZ I        1854 22.71        14.4 0.50            154           74.4  38 
 SPBC HZ EP   1   1854  9.52                             129    0.21 7  166 220 
 SPBC HN ES       1854 31.58                             129   -0.44 9  166 220 
 SPBC HZ I        1854 34.01        17.5 0.30            131            166 220 
 GUY2CHZ EP       1854 24.52                             113    0.12 7  305 235 
 GUY2CHN ES       1854 59.14                             113    0.26 7  305 235 
 GUY2CHZ I        1855  6.71         2.5 0.30                           305 235 
                                                                                
