 2014 1028 1023 31.3 L   6.781 -73.154152.6  RSN  4 0.3 1.3LRSN                1
 GAP=136        0.80       6.2    10.6  8.7  0.3465E+02 -0.4682E+02 -0.2057E+02E
 Epicentro: LOS SANTOS - SANTANDER                                             3
 ACTION:UPD 14-11-29 23:57 OP:nd   STATUS:               ID:20141028102331 L   I
 OLDACT:DUP 14-10-30 16:07 OP:fm   STATUS:               ID:20141028101738d    3
 2014-10-28-1017-37M.COL___271                                                 6
 STAT SP IPHASW D HRMM SECON CODA AMPLIT PERI AZIMU VELO AIN AR TRES W  DIS CAZ7
 BAR2 SZ EP       1023 51.09                             172   -0.5910 21.1 188 
 BAR2 SZ ES   1   1024  7.34                             172   -0.26 7 21.1 188 
 BAR2 SZ I        1024  8.44         5.1 0.18            172           21.1 188 
 BRR  HZ EP       1023 53.03                             154   -0.1310 71.4 300 
 BRR  HN ES       1024 10.48                             154    0.2310 71.4 300 
 BRR  HZ I        1024 11.36         7.1 0.34            154           71.4 300 
 PAM  SZ EP       1023 54.57                             151    0.2310 79.6  39 
 RUS  HZ EP       1023 55.87                             146    0.3210 98.6 175 
 RUS  HN ES       1024 14.59                             146    0.0910 98.6 175 
 RUS  HZ I        1024 15.36         1.6 0.30            147           98.6 175 
                                                                                
