 2012  728 1336 58.9 L   6.088 -73.257185.7  RSN 10 0.4 2.4LRSN                1
 GAP=130        0.87       5.4     5.7  7.4 -0.3999E+01  0.1357E+02 -0.1626E+01E
 Epicentro: GAMBITA - SANTANDER                                                3
 ACTION:UPD 12-08-14 11:46 OP:ep   STATUS:               ID:20120728133659 L   I
 2012-07-28-1330-00M.COL___215                                                 6
 STAT SP IPHASW D HRMM SECON CODA AMPLIT PERI AZIMU VELO AIN AR TRES W  DIS CAZ7
 RUS  HZ EP   1   1337 23.93                             171     0.1 7   29 138 
 RUS  HN ES   1   1337 43.03                             171    -0.3 7   29 138 
 RUS  HZ I        1337 45.65        22.6 0.29            160             29 138 
 BAR2 SZ EP       1337 24.12                             162    -0.110   56   8 
 BAR2 SZ ES   1   1337 43.78                             162    -0.2 7   56   8 
 BAR2 SZ I        1337 46.73        25.3 0.67            140             56   8 
 BRR  HZ EP   1   1337 28.12                             145     0.5 7  123 336 
 BRR  HZ I        1337 54.85        44.5 0.25            126            123 336 
 PTB  HZ EP       1337 28.86                             141    -0.1 9  142 291 
 PTB  HN ES   1   1337 52.71                             141     0.4 7  142 291 
 PTB  HZ I        1337 54.50        17.6 0.11            128            142 291 
 NOR  SZ EP   1   1337 33.32                             132     0.5 7  188 252 
 NOR  SN ES   1   1337 59.57                             132     0.3 7  188 252 
 ZAR  HZ EP   1   1337 36.89                             126    -0.4 6  235 311 
 ZAR  HE ES   1   1338  6.72                             126    -0.5 6  235 311 
 ZAR  HZ I        1338 13.58        20.4 0.35            112            235 311 
 OCA  HN ES   1   1338  8.35                             126     0.4 6  238 358 
 HEL  HZ EP   1   1337 40.27                             124     0.9 6  252 273 
 HEL  HZ I        1337 41.42        14.8 0.26            113            252 273 
 HEL  HN ES   2   1338 10.41                             124    -0.5 4  252 273 
 URE  HZ EP   1   1337 44.38                             118    -0.8 5  312 306 
 URE  HZ I        1338 23.55        22.1 0.17            106            312 306 
 PRA  HZ EP   2   1337 45.45                             117    -0.5 3  319 215 
 PRA  HE ES   2   1338 22.19                             117    -0.5 3  319 215 
