 2015  628 1735 57.8 L   6.785 -73.149139.6  RSN 16 0.5 2.5LRSN                1
 GAP=182        1.05       2.6     4.8  5.2 -0.1328E+01  0.7083E+01  0.1368E+00E
 Epicentro: LOS SANTOS - SANTANDER                                             3
 ACTION:UPD 15-09-10 22:15 OP:cam  STATUS:               ID:20150628173557 L   I
 OLDACT:UP  15-06-28 23:33 OP:mh   STATUS:               ID:20150628172749     3
 OLDACT:UP  15-06-28 23:33 OP:mh   STATUS:               ID:20150628172749     3
 OLDACT:UP  15-06-28 23:28 OP:mh   STATUS:               ID:20150628172749     3
 OLDACT:UP  15-06-28 23:28 OP:mh   STATUS:               ID:20150628172749     3
 OLDACT:REG 15-06-28 20:05 OP:mh   STATUS:               ID:20150628172749     3
 2015-06-28-1727-49M.COL___316                                                 6
 STAT SP IPHASW D HRMM SECON CODA AMPLIT PERI AZIMU VELO AIN AR TRES W  DIS CAZ7
 BAR2 EZ EP       1736 16.89                             171    0.2110 21.6 190 
 BAR2 EZ ES       1736 31.65                             171    0.2610 21.6 190 
 BAR2 EZ I        1736 34.47        42.7 0.38            169           21.6 190 
 BRR  HZ EP       1736 18.69                             151    0.3510 71.7 300 
 BRR  HN ES       1736 34.54                             151    0.2010 71.7 300 
 BRR  HZ I        1736 39.90        32.3 0.19            150           71.7 300 
 RUS  HZ EP       1736 20.51                             143   -0.3510 98.9 176 
 RUS  HN ES       1736 38.36                             143   -0.4610 98.9 176 
 OCA  HZ EP       1736 25.54                             128   -0.28 9  162 353 
 OCA  HN ES       1736 47.44                             128   -0.22 9  162 353 
 OCA  HZ I        1736 52.20        60.1 0.18            124            162 353 
 ZAR  HZ EP       1736 29.43                             121   -0.48 9  204 293 
 ZAR  HN ES       1736 54.87                             121   -0.06 9  204 293 
 ZAR  HZ I        1737  0.72        43.0 0.28            118            204 293 
 NOR  HZ EP       1736 32.60                             117   -0.46 8  233 235 
 NOR  HN ES       1737  0.86                             117    0.31 8  233 235 
 NOR  HZ I        1737  6.11        26.4 0.30            114            233 235 
 SML  HZ EP       1736 33.34                             116   -0.93 8  245 336 
 SML  HN ES       1737  2.72                             116    0.03 8  245 336 
 SML  HZ I        1737 12.02        27.9 0.10            113            245 336 
 ROSC BZ EP       1736 36.17                             116    0.74 8  251 211 
 ROSC BN ES   4   1737  8.50                             116    3.73 0  251 211 
 ROSC BZ I        1737 13.89        26.2 0.40            112            251 211 
 HEL  HZ EP       1736 38.16                             114    0.52 8  271 256 
 HEL  HN ES       1737  8.19                             114   -0.51 8  271 256 
 HEL  HZ I        1737 15.52        24.0 0.36            111            271 256 
 URE  HZ EP   4   1736 36.91                             112   -1.72 0  284 292 
 URE  HN ES   4   1737 13.29                             112    2.83 0  284 292 
 GUY2CHZ EP       1736 41.53                             111    0.52 7  300 235 
 GUY2CHN ES   4   1737 16.31                             111    1.62 0  300 235 
 GUY2CHZ I        1737 21.93        15.3 0.26                           300 235 
 PTGC HZ EP   4   1736 39.32                             111   -1.93 0  307 158 
 PTGC HZ I        1737  4.14        25.9 0.46            107            307 158 
 PTGC HN ES   4   1737 12.76                             111   -2.36 0  307 158 
 LL2C HZ EP       1736 41.75                             110    0.42 7  308 354 
 LL2C HZ I        1737  2.06        30.6 0.56            107            308 354 
 LL2C HN ES       1737 16.05                             110    0.79 7  308 354 
 TOL  SZ EP       1736 44.83                             108   -0.84 7  342 225 
 TOL  SN ES   4   1737 24.24                             108    1.26 0  342 225 
 TOL  SZ I        1737 28.33        11.9 0.74            105            342 225 
 PRA  HZ EP       1736 51.89                             106    0.95 6  390 210 
 PRA  HE ES       1737 32.19                             106   -0.18 6  390 210 
 PRA  HZ I        1737 39.11         9.8 0.32            103            390 210 
 ORTC HZ EP       1736 50.81                             105   -0.54 6  394 216 
 ORTC HN ES       1737 33.74                             105    0.64 6  394 216 
 ORTC HZ I        1737 40.21         6.1 0.52            103            394 216 
 SJC  HZ EP   4   1736 49.52                             105   -3.81 0  410 327 
 SJC  HN ES   4   1737 31.07                             105   -5.56 0  410 327 
 SJC  HZ I        1737 36.15         5.8 0.60            102            410 327 
                                                                                
