 2016 1128 1554  1.2 L   6.798 -73.167136.0  RSN  6 0.5 1.6LRSN                1
 GAP=143        1.20       6.4     5.7  8.7 -0.1121E+02  0.1847E+02  0.9265E+01E
 Epicentro: LOS SANTOS - SANTANDER                                             3
 ACTION:UPD 17-10-26 21:12 OP:lp   STATUS:               ID:20161128155401 L   I
 OLDACT:DUP 16-11-28 23:54 OP:lv   STATUS:               ID:20161128154746d    3
 2016-11-28-1548-00M.COL___328                                                 6
 STAT SP IPHASW D HRMM SECON CODA AMPLIT PERI AZIMU VELO AIN AR TRES W  DIS CAZ7
 BAR2 EZ EP       1554 19.50                             170   -0.1410 22.9 184 
 BAR2 EZ ES       1554 34.24                             170    0.2110 22.9 184 
 BAR2 EZ I        1554 36.17         9.6 0.37            169           22.9 184 
 PAM  EZ IP     D 1554 22.41                             149   -0.0810 79.1  41 
 PAM  EN ES       1554 39.26                             149    0.1710 79.1  41 
 PAM  EZ I        1554 40.73         6.0 0.19            153           79.1  41 
 PTB  HZ EP       1554 26.37                             130   -0.79 9  145 259 
 PTB  HE ES       1554 46.47                             130   -0.94 9  145 259 
 PTB  HZ I        1554 49.67         6.1 0.14            130            145 259 
 ZAR  HZ EP       1554 32.76                             120   -0.04 9  202 292 
 ZAR  HE ES       1554 58.32                             120    0.88 9  202 292 
 ZAR  HZ I        1555  2.70         4.8 0.27            121            202 292 
 NOR  HZ EP       1554 36.27                             117    0.12 8  233 234 
 NOR  HE ES       1555  4.13                             117    0.71 8  233 234 
 NOR  HZ I        1555  9.61         3.1 0.21            118            233 234 
 PRA  HZ EP       1554 54.38                             105    0.14 6  391 209 
 PRA  HE ES       1555 36.04                             105    0.43 6  391 209 
 PRA  HZ I        1555 40.14         1.8 0.38            106            391 209 
                                                                                
