 2011  128 1037  6.2 L   6.783 -73.063128.0  RSN  5 0.3 1.2LRSN                1
 GAP=168        0.70      11.2    32.4 13.6 -0.3102E+03 -0.2816E+03  0.8781E+02E
 Epicentro: LOS SANTOS - SANTANDER                                             3
 ACTION:UP  11-02-08 08:43 OP:pat  STATUS:               ID:20110128103705 L   I
 2011-01-28-1034-46S.COL___138                                                 6
 STAT SP IPHASW D HRMM SECON CODA AMPLIT PERI AZIMU VELO SNR AR TRES W  DIS CAZ7
 BAR2 SZ EP   1   1037 24.05                                     0.3 7   25 212 
 BAR2 SZ I        1037 41.78         7.1 0.47                            25 212 
 BTL  SZ EP       1037 23.98                             169     0.110   27 304 
 BTL  SZ ES   2   1037 37.01                             169    -0.5 5   27 304 
 GIR2 SZ ES   3   1037 37.91                             164     0.1 2   36 336 
 RUS  HZ EP   2   1037 27.95                             141    -0.2 5   99 181 
 RUS  HZ I        1037 29.17         1.4 0.27                            99 181 
 GRA  SZ EP       1037 29.56                             133    -0.310  125  13 
 GRA  SZ ES   1   1037 48.69                             133     0.3 7  125  13 
 GRA  SZ I        1037 49.80         3.9 0.25                           125  13 
                                                                                
