 2013 1028 1354  3.7 L   6.799 -73.109137.1  RSN 11 0.5 2.0LRSN                1
 GAP=141        0.92       3.3     4.1  5.4  0.1557E+00  0.7057E+01  0.2843E+01E
 Epicentro: LOS SANTOS - SANTANDER                                             3
 ACTION:UPD 13-11-25 09:24 OP:ep   STATUS:               ID:20131028135403 L   I
 OLDACT:REG 13-10-28 16:36 OP:nd   STATUS:               ID:20131028135000     3
 2013-10-28-1350-00M.COL___273                                                 6
 STAT SP IPHASW D HRMM SECON CODA AMPLIT PERI AZIMU VELO AIN AR TRES W  DIS CAZ7
 BAR2 SZ EP       1354 22.42                             169    0.1310 24.2 200 
 BAR2 SZ ES       1354 36.12                             169   -0.6910 24.2 200 
 BAR2 SZ I        1354 38.40        47.7 0.36            166           24.2 200 
 BRR  HZ EP       1354 24.23                             150    0.1010 74.9 297 
 BRR  HN ES       1354 40.55                             150    0.4810 74.9 297 
 BRR  HZ I        1354 47.64        48.1 0.14            146           74.9 297 
 PAM  SZ EP       1354 25.34                             150    0.5010 75.0  37 
 PAM  SN ES       1354 41.33                             150   -0.0010 75.0  37 
 PAM  SZ I        1354 44.38        20.1 0.58            156           75.0  37 
 RUS  HZ EP       1354 26.40                             142   -0.1710  100 178 
 RUS  HN ES       1354 44.52                             142    0.1010  100 178 
 RUS  HZ I        1354 46.02         3.1 0.26            145            100 178 
 PTB  HZ EP   4   1354 29.12                             129   -1.21 0  152 259 
 PTB  HN ES   2   1354 50.86                             129   -0.26 5  152 259 
 PTB  HZ I        1354 57.22        11.8 0.50            129            152 259 
 SPBC HZ EP       1354 31.34                             126   -0.44 9  166 220 
 SPBC HN ES   2   1354 54.05                             126    0.36 5  166 220 
 SPBC HZ I        1354 59.57         5.8 0.12            127            166 220 
 ZAR  HZ EP       1354 36.36                             120    0.37 8  208 292 
 ZAR  HN ES       1355  1.00                             120   -0.18 8  208 292 
 ZAR  HZ I        1355  7.09        12.6 0.44            120            208 292 
 NOR  HZ EP       1354 39.06                             116   -0.22 8  238 235 
 NOR  HN ES       1355  7.29                             116    0.25 8  238 235 
 NOR  HZ I        1355 14.23         4.8 0.16            117            238 235 
 SML  HZ EP   2   1354 38.80                             115   -1.25 4  246 334 
 SML  HN ES   2   1355  6.83                             115   -1.58 4  246 334 
 SML  HZ I        1355 16.58        16.3 0.24            117            246 334 
 CHI  HZ EP       1354 41.32                             115    0.29 8  250 196 
 CHI  HN ES   2   1355 10.05                             115   -0.10 4  250 196 
 CHI  HZ I        1355 17.48         3.6 0.38            117            250 196 
 SJC  HZ EP   4   1354 56.51                             104   -2.75 0  412 326 
 SJC  HN ES   4   1355 38.31                             104   -4.29 0  412 326 
 SJC  HZ I        1355 42.31         2.6 0.50            106            412 326 
                                                                                
