 2013  928 1430 43.3 L   6.783 -73.121143.8  RSN 10 0.5 1.8LRSN                1
 GAP=141        1.20       5.1     5.0  7.2 -0.6250E+01  0.9655E+01  0.6878E+01E
 Epicentro: LOS SANTOS - SANTANDER                                             3
 ACTION:UPD 13-10-22 09:25 OP:ep   STATUS:               ID:20130928143043 L   I
 OLDACT:REG 13-09-28 15:53 OP:jn   STATUS:               ID:20130928142959     3
 2013-09-28-1429-59M.COL___272                                                 6
 STAT SP IPHASW D HRMM SECON CODA AMPLIT PERI AZIMU VELO AIN AR TRES W  DIS CAZ7
 BAR2 SZ EP       1431  2.81                             171    0.1110 22.1 198 
 BAR2 SZ ES       1431 17.95                             171    0.1410 22.1 198 
 BAR2 SZ I        1431 18.85        10.3 0.26            168           22.1 198 
 BRR  HZ EP       1431  4.69                             151    0.2310 74.5 299 
 BRR  HN ES       1431 21.67                             151    0.7210 74.5 299 
 BRR  HZ I        1431 24.85        16.2 0.30            147           74.5 299 
 PAM  SZ EP       1431  5.62                             150    0.2910 77.2  37 
 PAM  SN ES       1431 22.07                             150   -0.4110 77.2  37 
 PAM  SZ I        1431 24.81        15.4 0.54            145           77.2  37 
 RUS  HZ EP       1431  6.70                             144   -0.0410 98.5 178 
 RUS  HN ES       1431 25.06                             144    0.0610 98.5 178 
 RUS  HZ I        1431 26.86         8.2 0.40            137           98.5 178 
 PTB  HZ EP       1431  9.53                             131   -0.83 9  150 260 
 PTB  HN ES       1431 30.46                             131   -0.97 9  150 260 
 PTB  HZ I        1431 35.87         7.8 0.20            125            150 260 
 SPBC HZ EP       1431 11.49                             129   -0.22 9  163 220 
 SPBC HN ES       1431 33.53                             129   -0.31 9  163 220 
 SPBC HZ I        1431 36.32        12.9 0.28            122            163 220 
 ZAR  HE ES   1   1431 41.47                             121    0.01 6  207 292 
 ZAR  HZ I        1431 47.93         8.7 0.32            116            207 292 
 NOR  HZ EP       1431 18.97                             118   -0.10 8  236 235 
 NOR  HN ES       1431 46.89                             118   -0.06 8  236 235 
 NOR  HZ I        1431 51.33         4.9 0.18            112            236 235 
 CHI  HZ EP   2   1431 20.85                             117    0.05 4  248 196 
 CHI  HZ I        1431 53.30         3.1 0.44            111            248 196 
 GUY2CHZ EP       1431 27.60                             112    0.62 7  302 235 
 GUY2CHN ES       1432  2.36                             112    1.33 7  302 235 
 GUY2CHZ I        1432 10.48         3.9 0.56                           302 235 
                                                                                
