 2016  828 1245 58.6 L   6.799 -73.129151.0  RSN 10 0.5 2.1LRSN                1
 GAP=139        1.24       4.2     4.8  7.4 -0.4802E+01  0.8828E+01  0.7016E+00E
 Epicentro: LOS SANTOS - SANTANDER                                             3
 ACTION:UPD 16-10-29 15:40 OP:rebc STATUS:               ID:20160828124558 L   I
 OLDACT:DUP 16-08-29 00:04 OP:ar   STATUS:               ID:20160828123736d    3
 OLDACT:UP  16-08-28 23:59 OP:ar   STATUS:               ID:20160828123735     3
 OLDACT:REG 16-08-28 21:17 OP:ar   STATUS:               ID:20160828123735     3
 2016-08-28-1238-00M.COL___368                                                 6
 STAT SP IPHASW D HRMM SECON CODA AMPLIT PERI AZIMU VELO AIN AR TRES W  DIS CAZ7
 BAR2 EZ EP       1246 18.88                             171    0.0210 23.6 195 
 BAR2 HN ES       1246 34.24                             171   -0.4310 23.6 195 
 BAR2 EZ I        1246 35.83        17.3 0.34                          23.6 195 
 BRR  HZ IP     C 1246 20.82                             153    0.4110 72.9 298 
 BRR  HN ES       1246 38.34                             153    0.9210 72.9 298 
 BRR  HZ I        1246 42.70        20.2 0.26                          72.9 298 
 PAM  EZ EP     C 1246 21.70                             152    0.3910 76.3  38 
 PAM  EN ES       1246 38.97                             152   -0.0610 76.3  38 
 PAM  EZ I        1246 40.92        13.1 0.44                          76.3  38 
 RUS  HZ EP       1246 23.26                             145    0.4110  100 177 
 RUS  HN ES       1246 41.67                             145   -0.1010  100 177 
 RUS  HZ I        1246 42.72         8.5 0.30                           100 177 
 PTB  HZ EP       1246 25.78                             133   -0.38 9  150 259 
 PTB  HE ES       1246 47.63                             133   -0.03 9  150 259 
 PTB  HZ I        1246 48.62        12.0 0.14                           150 259 
 OCA  HZ EP       1246 27.58                             131    0.23 9  161 352 
 OCA  HN ES       1246 48.98                             131   -0.80 9  161 352 
 OCA  HZ I        1246 54.88        33.9 0.22                           161 352 
 SPBC HZ EP       1246 26.80                             130   -0.80 9  164 220 
 SPBC HE ES       1246 50.37                             130    0.14 9  164 220 
 SPBC HZ I        1246 53.95        17.4 0.20                           164 220 
 ZAR  HZ EP   4   1246 33.60                             123    2.03 0  206 292 
 ZAR  HN ES       1246 56.79                             123   -0.50 8  206 292 
 ZAR  HZ I        1247  4.02        20.7 0.28                           206 292 
 NOR  HZ EP       1246 34.95                             119    0.16 8  236 235 
 NOR  HN ES       1247  2.35                             119   -0.67 8  236 235 
 NOR  HZ I        1247 10.76         9.5 0.34                           236 235 
 HEL  HZ EP   4   1246 40.70                             116    1.43 0  274 256 
 HEL  HN ES       1247 11.92                             116    0.92 8  274 256 
 HEL  HZ I        1247 18.01         5.3 0.26                           274 256 
                                                                                
