 2014  928 1053 18.9 L   6.837 -73.179114.9  RSN  4 0.3 1.1LRSN                1
 GAP=205        0.77       5.2     5.5 15.0  0.2709E+01  0.2632E+00 -0.3498E+02E
 Epicentro: ZAPATOCA - SANTANDER                                               3
 ACTION:UPD 14-10-03 23:09 OP:nd   STATUS:               ID:20140928105318 L   I
 OLDACT:UP  14-09-28 21:15 OP:cam  STATUS:               ID:20140928105000     3
 OLDACT:REG 14-09-28 20:06 OP:cam  STATUS:               ID:20140928105000     3
 2014-09-28-1050-00M.COL___252                                                 6
 STAT SP IPHASW D HRMM SECON CODA AMPLIT PERI AZIMU VELO AIN AR TRES W  DIS CAZ7
 BAR2 SZ EP       1053 35.16                             166    0.2010 27.1 181 
 PTB  HZ EP       1053 42.98                             124   -0.31 9  145 257 
 PTB  HN ES       1054  2.04                             124   -0.26 9  145 257 
 PTB  HZ I        1054  5.22         1.5 0.28            126            145 257 
 ZAR  HZ EP       1053 49.28                             115    0.26 9  199 291 
 ZAR  HN ES       1054 12.96                             115    0.47 9  199 291 
 ZAR  HZ I        1054 18.61         1.8 0.36            117            199 291 
 SML  HE ES       1054 19.96                             111   -0.37 8  238 336 
                                                                                
