 2013 1128 1210 43.4 L   6.900 -73.422116.0  RSN 12 0.5 2.6LRSN                1
 GAP= 66        0.97       3.3     3.2  5.8 -0.3616E+00  0.2325E+01  0.2600E+00E
 Epicentro: SAN VICENTE DE CHUCURI - SANTANDER                                 3
 ACTION:UPD 14-01-09 16:31 OP:ep   STATUS:               ID:20131128121043 L   I
 OLDACT:UP  13-11-28 15:23 OP:cam  STATUS:               ID:20131128121000     3
 OLDACT:UP  13-11-28 15:23 OP:cam  STATUS:               ID:20131128121000     3
 OLDACT:REG 13-11-28 14:47 OP:cam  STATUS:               ID:20131128121000     3
 2013-11-28-1210-00M.COL___282                                                 6
 STAT SP IPHASW D HRMM SECON CODA AMPLIT PERI AZIMU VELO AIN AR TRES W  DIS CAZ7
 BRR  HZ IP     C 1210 59.95                             160    0.2910 39.4 306 
 BRR  HN ES       1211 12.93                             160    0.5910 39.4 306 
 BRR  HZ I        1211 15.88        87.1 0.36            157           39.4 306 
 BAR2 SZ IP     D 1211  0.30                             159    0.1310 43.1 142 
 BAR2 SZ ES       1211 13.00                             159   -0.2510 43.1 142 
 BAR2 SZ I        1211 13.65       196.5 0.38            157           43.1 142 
 PAM  SZ EP       1211  3.77                             139   -0.0110 93.5  59 
 PAM  SN ES   2   1211 19.52                             139   -0.14 5 93.5  59 
 PAM  SZ I        1211 22.71        45.3 0.44            139           93.5  59 
 PTB  HZ EP       1211  4.80                             131   -0.7410  121 251 
 PTB  HZ I        1211 23.49        80.4 0.44            126            121 251 
 OCA  HZ EP   2   1211  8.41                             124    0.02 5  149   4 
 OCA  HN ES       1211 27.42                             124   -0.46 9  149   4 
 OCA  HZ I        1211 28.10        53.1 0.16            123            149   4 
 SPBC HZ EP       1211  8.47                             123   -0.56 9  156 208 
 SPBC HN ES   1   1211 28.67                             123   -0.34 7  156 208 
 SPBC HZ I        1211 33.73        51.4 0.20            119            156 208 
 ZAR  HZ EP   1   1211 11.46                             120    0.87 7  172 293 
 ZAR  HE ES   4   1211 33.67                             120    1.88 0  172 293 
 ZAR  HZ I        1211 35.64        74.5 0.22            117            172 293 
 TAM  HZ EP       1211 12.48                             118    0.15 9  187 106 
 TAM  HN ES       1211 35.22                             118    0.32 9  187 106 
 TAM  HZ I        1211 40.93        33.0 0.30            116            187 106 
 SML  HZ EP   1   1211 16.40                             113    0.29 6  222 341 
 SML  HE ES   1   1211 41.05                             113   -0.56 6  222 341 
 SML  HZ I        1211 47.97        67.4 0.26            111            222 341 
 HEL  HZ EP   4   1211 21.03                             111    1.76 0  246 252 
 HEL  HN ES       1211 47.69                             111    0.45 8  246 252 
 HEL  HZ I        1211 52.37        34.5 0.36            108            246 252 
 GUY2CHZ EP   2   1211 24.63                             107    0.84 4  284 229 
 DBB  SZ EP   4   1211 27.93                             106    1.76 0  308 273 
 CBOC HZ EP   4   1211 27.79                             106    1.48 0  309 248 
 COD  HZ EP   4   1211 29.78                             104    0.49 0  336 360 
 SJC  HZ EP   2   1211 34.54                             101   -0.57 3  384 330 
 SJC  HN ES   4   1212 13.75                             101   -1.68 0  384 330 
 SJC  HZ I        1212 15.62         9.0 0.54             99            384 330 
 PRA  HZ EP   4   1211 36.59                             101    1.02 0  388 205 
                                                                                
