 2010  628 1444 18.5 L   6.759 -73.109150.1  RSN  6 0.2 1.7LRSN                1
 GAP=169        0.50       3.4     6.9  4.9  0.1129E+01 -0.3751E+01  0.1228E+01E
 Epicentro: LOS SANTOS - SANTANDER                                             3
 ACTION:UP  10-08-24 10:13 OP:vdl  STATUS:               ID:20100628144418 L   I
 2010-06-28-1441-15S.COL___118                                                 6
 STAT SP IPHASW D HRMM SECON CODA AMPLIT PERI AZIMU VELO SNR AR TRES W  DIS CAZ7
 BAR2 SZ IP       1444 38.29                             172    -0.310   20 204 
 BAR2 SZ ES   1   1444 54.51                             172     0.3 7   20 204 
 BRR  HZ IP     D 1444 40.35                             152    -0.110   77 300 
 BRR  HZ I        1444 40.51        14.3 0.08                            77 300 
 BRR  HN ES   1   1444 57.56                             152     0.0 7   77 300 
 RUS  HZ EP   2   1444 42.20                             146    -0.1 5   96 178 
 RUS  HE ES   2   1445  1.07                             146     0.1 5   96 178 
 RUS  HZ I        1445  1.89         3.2 0.34                            96 178 
 GUE  SZ EP   1   1444 44.20                             140     0.3 7  120  10 
 CHI  HZ EP   2   1444 56.35                             118     0.3 4  245 196 
 CHI  HN ES   2   1445 25.25                             118    -0.2 4  245 196 
 CHI  HZ I        1445 33.94         3.2 0.35                           245 196 
 PRA  HZ EP   2   1445 12.18                             107     0.2 3  390 210 
 PRA  HE ES   2   1445 54.10                             107     0.5 3  390 210 
 PRA  HZ I        1445 58.23         2.4 0.40                           390 210 
                                                                                
