 2017  128 1630  1.6 L   6.819 -73.191145.4  RSN  4 0.1 1.4LRSN                1
 GAP=130        0.34       2.0     2.1  3.6  0.5147E-01  0.2749E+01 -0.1959E+01E
 Epicentro: ZAPATOCA - SANTANDER                                               3
 ACTION:UPD 17-05-22 16:04 OP:jn   STATUS:               ID:20170128163001 L   I
 OLDACT:REG 17-01-28 21:38 OP:dnl  STATUS:               ID:20170128162744     3
 2017-01-28-1628-00M.COL___348                                                 6
 STAT SP IPHASW D HRMM SECON CODA AMPLIT PERI AZIMU VELO AIN AR TRES W  DIS CAZ7
 BAR2 EZ EP   2   1630 21.10                             170   -0.13 5 25.1 178 
 BAR2 EZ ES       1630 36.57                             170    0.0410 25.1 178 
 BAR2 EZ I        1630 39.56         6.6 0.18            163           25.1 178 
 PAM  EZ EP       1630 24.05                             150    0.1610 79.2  43 
 PAM  EN ES       1630 41.16                             150   -0.1110 79.2  43 
 PAM  EZ I        1630 43.19         4.7 0.52            147           79.2  43 
 RUS  HZ EP   2   1630 25.49                             143   -0.02 5  103 173 
 RUS  HN ES       1630 44.13                             143   -0.0210  103 173 
 RUS  HZ I        1630 45.96         2.6 0.38            140            103 173 
 ZAR  HZ EP   2   1630 33.18                             123   -0.28 4  199 292 
 ZAR  HE ES       1630 58.32                             123    0.01 9  199 292 
 ZAR  HZ I        1631  5.85         4.5 0.40            129            199 292 
                                                                                
