 2016 1028 1212 45.6 L   6.106 -73.708102.0  RSN 10 0.4 1.4LRSN                1
 GAP= 72        1.21       3.8     4.3  7.4 -0.7425E+01  0.8221E+01 -0.3185E+01E
 Epicentro: CHIPATA - SANTANDER                                                3
 ACTION:UPD 16-11-09 19:23 OP:rebc STATUS:               ID:20161028121245 L   I
 OLDACT:UP  16-10-28 22:47 OP:edw  STATUS:               ID:20161028120743     3
 OLDACT:UP  16-10-28 22:47 OP:edw  STATUS:               ID:20161028120743     3
 OLDACT:REG 16-10-28 20:19 OP:edw  STATUS:               ID:20161028120743     3
 2016-10-28-1208-00M.COL___340                                                 6
 STAT SP IPHASW D HRMM SECON CODA AMPLIT PERI AZIMU VELO AIN AR TRES W  DIS CAZ7
 SPBC HZ EP       1213  1.67                             146   -0.2010 64.4 219 
 SPBC HN ES       1213 14.72                             146    0.1610 64.4 219 
 SPBC HZ I        1213 17.52        10.1 0.20            148           64.4 219 
 RUS  HZ EP     C 1213  3.04                             144   -0.0210 73.1 109 
 RUS  HN ES       1213 16.52                             144   -0.1710 73.1 109 
 RUS  HZ I        1213 19.57         3.7 0.32            146           73.1 109 
 BAR2 EZ IP     D 1213  3.06                             140   -0.1210 79.2  47 
 BAR2 EZ ES       1213 17.09                             140    0.1910 79.2  47 
 PTB  HZ EP   9   1213  2.51                             134   -1.76 0 95.7 300 
 PTB  HN ES       1213 18.29                             133    1.2110 95.7 300 
 PTB  HZ I        1213 19.94         7.2 0.10            136           95.7 300 
 BRR  HZ EP       1213  4.85                             129   -0.7810  111 360 
 BRR  HN ES       1213 20.96                             129   -0.3110  111 360 
 NOR  HZ EP   2   1213  9.20                             122    0.35 5  142 245 
 NOR  HN ES   2   1213 26.84                             122   -0.14 5  142 245 
 NOR  HZ I        1213 30.22         8.1 0.14            124            142 245 
 CHI  HE ES       1213 31.61                             118   -0.27 9  163 181 
 PAM  EZ EP       1213 13.32                             116    0.22 9  176  39 
 PAM  EN ES       1213 35.40                             116    0.85 9  176  39 
 PAM  EZ I        1213 37.60         3.5 0.24            119            176  39 
 HEL  HZ EP       1213 15.84                             112    0.02 9  202 273 
 HEL  HN ES   4   1213 40.26                             112    0.86 0  202 273 
 GUY2CHZ EP       1213 16.70                             111    0.05 8  208 242 
 GUY2CHN ES       1213 41.55                             111    0.67 8  208 242 
 GUY2CHZ I        1213 46.98         2.8 0.44                           208 242 
                                                                                
