 2011  428 1520  7.6 L   6.776 -73.122142.8  RSN  4 0.2 1.7LRSN                1
 GAP=141        0.63       4.4     6.6  6.7 -0.5237E+00 -0.2936E+01  0.1423E+01E
 Epicentro: LOS SANTOS - SANTANDER                                             3
 ACTION:UP  11-06-22 15:33 OP:REBC STATUS:               ID:20110428152007 L   I
 2011-04-28-1515-58S.COL___139                                                 6
 STAT SP IPHASW D HRMM SECON CODA AMPLIT PERI AZIMU VELO SNR AR TRES W  DIS CAZ7
 BAR2 SZ EP       1520 26.81                             171     0.010   21 198 
 BAR2 SZ ES   1   1520 41.47                             171    -0.4 7   21 198 
 BAR2 SZ I        1520 42.73        16.2 0.12                            21 198 
 BRR  HZ EP   1   1520 28.37                             151    -0.3 7   75 299 
 BRR  HN ES   1   1520 45.36                             151     0.3 7   75 299 
 BRR  HZ I        1520 46.39        22.4 0.34                            75 299 
 PAM  SZ EP   1   1520 29.80                             150     0.3 7   78  37 
 PAM  SN ES   1   1520 46.61                             150     0.0 7   78  37 
 PAM  SZ I        1520 48.25         3.6 0.18                            78  37 
 RUS  HZ EP   1   1520 30.79                             144    -0.1 7   98 177 
 RUS  HN ES   1   1520 49.31                             144     0.3 7   98 177 
 RUS  HZ I        1520 50.37        10.4 0.28                            98 177 
                                                                                
