 2013  128 1723 28.4 L   6.759 -73.122145.2  RSN  8 0.3 2.0LRSN                1
 GAP=141        0.69       3.1     3.3  4.5 -0.4774E+00  0.3475E+01  0.4059E+01E
 Epicentro: LOS SANTOS - SANTANDER                                             3
 ACTION:UPD 13-02-15 09:17 OP:ep   STATUS:               ID:20130128172328 L   I
 2013-01-28-1720-00M.COL___241                                                 6
 STAT SP IPHASW D HRMM SECON CODA AMPLIT PERI AZIMU VELO AIN AR TRES W  DIS CAZ7
 BAR2 SZ IP       1723 47.93                             172    0.0410 19.6 200 
 BAR2 SZ I        1723 48.33        41.0 0.11            167           19.6 200 
 BAR2 SZ ES       1724  3.02                             172   -0.0810 19.6 200 
 BRR  HN ES       1724  6.87                             151    0.4710 75.7 301 
 BRR  HN I        1724  8.33       102.7 0.17            149           75.7 301 
 PAM  SZ EP       1723 50.79                             150    0.1210 79.4  36 
 PAM  SE ES       1724  7.99                             150   -0.0610 79.4  36 
 PAM  SZ I        1724  8.60         7.9 0.22            156           79.4  36 
 RUS  HZ EP       1723 51.77                             145    0.0110 95.9 177 
 RUS  HE ES       1724  9.72                             145   -0.2610 95.9 177 
 RUS  HE I        1724 12.50         9.9 0.29            144           95.9 177 
 PTB  HZ EP       1723 54.97                             131   -0.51 9  150 261 
 PTB  HE ES   1   1724 16.13                             131   -0.48 7  150 261 
 PTB  HZ I        1724 20.59        12.5 0.14            130            150 261 
 ZAR  HE ES   1   1724 26.68                             122   -0.17 6  208 293 
 ZAR  HZ I        1724 31.95         9.3 0.31            121            208 293 
 NOR  HZ EP       1724  4.15                             118    0.10 8  234 236 
 NOR  HN ES   1   1724 32.33                             118    0.48 6  234 236 
 NOR  HZ I        1724 39.51         7.4 0.08            118            234 236 
 CHI  HZ EP       1724  5.79                             117    0.13 8  245 196 
 CHI  HN ES   1   1724 35.27                             117    0.54 6  245 196 
 CHI  HZ I        1724 41.23         3.0 0.43            117            245 196 
                                                                                
