 2013  428 1742 41.2 L   6.763 -73.168141.6  RSN  9 0.3 2.0LRSN                1
 GAP=179        0.73       4.3     4.8  5.2  0.1375E+01  0.8326E+01  0.1714E+01E
 Epicentro: LOS SANTOS - SANTANDER                                             3
 ACTION:UPD 13-05-22 14:41 OP:EP   STATUS:               ID:20130428174241 L   I
 2013-04-28-1740-00M.COL___248                                                 6
 STAT SP IPHASW D HRMM SECON CODA AMPLIT PERI AZIMU VELO AIN AR TRES W  DIS CAZ7
 BAR2 SZ IP     D 1743  0.20                             172   -0.0210 18.9 185 
 BAR2 SZ ES   1   1743 14.99                             172   -0.08 7 18.9 185 
 BAR2 SZ I        1743 16.01        21.6 0.16            167           18.9 185 
 GIR2 SZ EP     C 1743  0.33                             165   -0.1310 35.1 355 
 GIR2 SZ ES   1   1743 15.32                             165   -0.19 7 35.1 355 
 GIR2 SZ I        1743 17.31        19.3 0.46            159           35.1 355 
 BRR  HZ IP     C 1743  2.14                             152    0.2610 71.2 302 
 BRR  HN ES   1   1743 18.60                             152    0.58 7 71.2 302 
 BRR  HZ I        1743 22.39        14.8 0.14            144           71.2 302 
 RUS  HZ EP       1743  4.11                             144   -0.1310 96.7 174 
 RUS  HN ES   1   1743 22.34                             144    0.12 7 96.7 174 
 RUS  HZ I        1743 24.18        12.4 0.32            148           96.7 174 
 PTB  HZ EP       1743  7.16                             132   -0.36 9  145 260 
 PTB  HN ES   1   1743 27.66                             132   -0.40 7  145 260 
 PTB  HZ I        1743 32.46        13.5 0.12            128            145 260 
 ZAR  HZ EP       1743 12.92                             121   -0.37 9  203 293 
 ZAR  HN ES   4   1743 37.96                             121   -0.37 0  203 293 
 ZAR  HZ I        1743 46.22        10.3 0.16            120            203 293 
 NOR  HZ IP     C 1743 16.85                             118    0.65 8  230 235 
 NOR  HN ES   1   1743 43.55                             118    0.04 6  230 235 
 NOR  HZ I        1743 50.04         7.0 0.26            118            230 235 
 SML  HZ EP   2   1743 18.58                             116    0.70 4  246 336 
 SML  HN ES   4   1743 48.83                             116    2.33 0  246 336 
 SML  HZ I        1743 54.83        11.2 0.10            116            246 336 
 HEL  HZ IP   4 C 1743 22.72                             114    1.91 0  269 257 
 HEL  HN ES   4   1743 53.35                             114    1.63 0  269 257 
 HEL  HZ I        1743 59.55         6.2 0.30            114            269 257 
                                                                                
