 2010  328 1804 19.0 L   6.830 -73.008143.0  RSN  7 0.3 2.0LRSN                1
 GAP=197        0.63       3.7     9.4  6.7  0.2544E+01  0.9188E+01  0.3697E+01E
 Epicentro: CEPITA - SANTANDER                                                 3
 ACTION:UP  10-08-24 09:56 OP:vdl  STATUS:               ID:20100328180419 L   I
 2010-03-28-1803-09S.COL___098                                                 6
 STAT SP IPHASW D HRMM SECON CODA AMPLIT PERI AZIMU VELO SNR AR TRES W  DIS CAZ7
 BAR2 SZ EP   1   18 4 38.59                             166     0.0 7   33 216 
 BAR2 SZ ES   2   18 4 53.45                             166    -0.3 5   33 216 
 BRR  HZ EP   1   18 4 40.63                             148     0.0 7   84 292 
 BRR  HN ES   2   18 4 57.55                             148     0.1 5   84 292 
 BRR  HZ I        18 5  1.90        15.9 0.53                            84 292 
 RUS  HZ EP   1   18 4 42.81                             142     0.1 7  104 185 
 RUS  HE ES   2   18 5  1.55                             142     0.3 5  104 185 
 RUS  HZ I        18 5  2.95        10.7 0.21                           104 185 
 OCA  SZ EP   1   18 4 47.50                             129     0.4 7  160 348 
 OCA  SZ ES   2   18 5  8.29                             129    -0.6 5  160 348 
 OCA  SZ I        18 5 12.17        22.3 0.34                           160 348 
 CHI  HZ EP   1   18 4 56.76                             116    -0.6 6  256 198 
 CHI  HN ES   2   18 5 27.93                             116     0.6 4  256 198 
 CHI  HZ I        18 5 33.92         3.4 0.42                           256 198 
 HEL  HZ EP   1   18 5  1.02                             113     0.2 5  288 256 
 HEL  HZ I        18 5 36.29         4.9 0.51                           288 256 
 PRA  HZ EP   1   18 5 13.39                             105    -0.3 4  403 211 
 PRA  HN ES   2   18 5 56.21                             105    -0.1 3  403 211 
 PRA  HZ I        18 6  1.33         6.4 0.33                           403 211 
                                                                                
