 2012 1028 1527 11.2 L   6.806 -73.093145.5  RSN  4 0.4 1.7LRSN                1
 GAP=243        0.67      13.3    17.2  9.6  0.1979E+03 -0.4053E+02 -0.2761E+02E
 Epicentro: LOS SANTOS - SANTANDER                                             3
 ACTION:UPD 12-11-22 17:06 OP:ep   STATUS:               ID:20121028152711 L   I
 2012-10-28-1520-00M.COL___231                                                 6
 STAT SP IPHASW D HRMM SECON CODA AMPLIT PERI AZIMU VELO AIN AR TRES W  DIS CAZ7
 BAR2 SZ ES   2   1527 45.32                             169   -0.87 5 25.7 203 
 BAR2 SZ I        1527 46.87        15.5 0.32                          25.7 203 
 BRR  HZ EP       1527 32.62                             151    0.0010 76.1 296 
 BRR  HE ES   1   1527 49.70                             151    0.38 7 76.1 296 
 BRR  HZ I        1527 51.46         8.1 0.29                          76.1 296 
 RUS  HZ EP   1   1527 35.00                             143    0.03 7  101 179 
 RUS  HE ES   2   1527 53.84                             143    0.34 5  101 179 
 RUS  HE I        1527 54.74         6.7 0.19                           101 179 
 ZAR  HE ES   2   1528  9.36                             121   -0.54 4  209 291 
 ZAR  HZ I        1528 35.72         3.4 0.39                           209 291 
                                                                                
