 2010 1028 1916 11.9 L   6.774 -73.102144.7  RSN 21 0.5 3.0LRSN                1
 GAP=105        1.09       4.0     6.2  5.8 -0.9987E+01  0.4159E+01  0.4604E+01E
 Epicentro: LOS SANTOS - SANTANDER                                             3
 ACTION:UP  11-02-18 11:12 OP:tino STATUS:               ID:20101028191611 L   I
 2010-10-28-1916-06S.COL___129                                                 6
 STAT SP IPHASW D HRMM SECON CODA AMPLIT PERI AZIMU VELO SNR AR TRES W  DIS CAZ7
 BAR2 SZ EP       1916 31.16                             171    -0.210   22 204 
 BAR2 SZ ES       1916 46.05                             171    -0.510   22 204 
 BAR2 SZ I        1916 47.26       224.7 0.39                            22 204 
 BTL  SZ EP       1916 31.39                             170     0.010   24 311 
 GIR2 SZ EP       1916 31.27                             166    -0.310   35 343 
 BRR  HZ IP     C 1916 32.99                             150    -0.310   77 299 
 BRR  HZ I        1916 33.25       203.2 0.12                            77 299 
 BRR  HN ES       1916 50.33                             150     0.410   77 299 
 RUS  HZ EP       1916 35.21                             144    -0.110   98 179 
 RUS  HN ES   1   1916 53.97                             144     0.4 7   98 179 
 RUS  HZ I        1916 55.05       133.3 0.19                            98 179 
 BRI  SZ EP   2   1916 35.75                             141     0.0 5  110  18 
 GRA  SZ EP       1916 37.69                             136     0.510  127  15 
 GRA  SZ ES       1916 57.51                             136     0.610  127  15 
 GRA  SZ I        1916 59.07       122.4 0.26                           127  15 
 OCA  SZ EP       1916 39.57                             129    -0.9 9  164 352 
 OCA  SZ I        1917  6.09        90.4 0.34                           164 352 
 YOP  SZ EP   2   1916 41.92                             127     0.5 4  174 154 
 NOR  SZ EP       1916 47.06                             118    -0.8 8  237 236 
 NOR  SE ES   2   1917 15.92                             118     0.1 4  237 236 
 CHI  HZ EP   1   1916 49.47                             117     0.1 6  247 196 
 CHI  HE ES   2   1917 18.68                             117     0.1 4  247 196 
 CHI  HZ I        1917 21.98        68.0 0.26                           247 196 
 ROSC BZ EP   1   1916 50.80                             116     0.8 6  253 212 
 ROSC BN ES   2   1917 18.81                             116    -0.9 4  253 212 
 ROSC BZ I        1917 25.87        65.4 0.32                           253 212 
 CVER SZ EP       1916 52.70                             115     0.6 8  271 203 
 HEL  HZ EP   1   1916 52.96                             114     0.5 6  276 257 
 HEL  HN ES   2   1917 23.74                             114    -0.4 4  276 257 
 HEL  HZ I        1917 29.41        58.2 0.12                           276 257 
 GUY  SZ EP       1916 56.29                             112     0.6 7  304 236 
 GUY  SZ I        1917 38.11        68.9 0.13                           304 236 
 RREF HZ EP   2   1916 58.84                             110     0.6 3  324 230 
 RREF HN ES   2   1917 34.01                             110    -0.3 3  324 230 
 RREF HZ I        1917 43.35        64.4 0.66                           324 230 
 DBB  SZ EP   2   1916 59.66                             109    -0.2 3  344 275 
 TOL  SZ EP   2   1917  0.82                             109     0.6 3  345 226 
 SDV  BZ EP   1   1917  0.76                             108    -0.9 5  359  49 
 SDV  BZ I        1917 42.32        17.9 0.80                           359  49 
 ANIL HZ EP   1   1917  2.12                             108     0.3 5  359 225 
 ANIL HE ES   2   1917 41.38                             108     0.6 3  359 225 
 ANIL HZ I        1917 52.45       115.6 0.24                           359 225 
 PRA  HZ EP   1   1917  5.01                             106    -0.4 4  392 210 
 PRA  HE ES   2   1917 46.54                             106    -0.5 3  392 210 
                                                                                
