 2016  428 1554 58.2 L   6.197 -73.667 96.5  RSN  7 0.5 1.8LRSN                1
 GAP= 93        1.19       3.7     3.8  8.4  0.1003E+01  0.1007E+02  0.8285E+00E
 Epicentro: LA PAZ - SANTANDER                                                 3
 ACTION:UPD 16-05-05 14:24 OP:rebc STATUS:               ID:20160428155458 L   I
 OLDACT:REG 16-04-28 21:56 OP:cara STATUS:               ID:20160428154749     3
 2016-04-28-1547-49M.COL___323                                                 6
 STAT SP IPHASW D HRMM SECON CODA AMPLIT PERI AZIMU VELO AIN AR TRES W  DIS CAZ7
 BAR2 EZ IP       1555 14.90                             142    0.4110 69.1  51 
 BAR2 EZ ES       1555 27.60                             142    0.4110 69.1  51 
 BAR2 EZ I        1555 30.02        60.2 0.56            149           69.1  51 
 RUS  HZ EP       1555 14.90                             141   -0.2210 72.8 117 
 RUS  HN ES       1555 27.80                             141   -0.5310 72.8 117 
 RUS  HZ I        1555 30.10         8.3 0.32            148           72.8 117 
 SPBC HZ IP       1555 15.01                             139    0.2610 75.1 217 
 SPBC HN ES       1555 28.15                             139    0.4910 75.1 217 
 SPBC HZ I        1555 34.43        26.7 0.44            143           75.1 217 
 PTB  HZ EP       1555 16.28                             132   -0.1010 95.2 293 
 PTB  HN ES       1555 29.74                             132   -0.8310 95.2 293 
 PTB  HZ I        1555 33.56        11.0 0.14            136           95.2 293 
 NOR  HZ EP       1555 22.69                             118    0.66 9  150 242 
 NOR  HN ES       1555 40.50                             118   -0.12 9  150 242 
 NOR  HZ I        1555 43.50         8.6 0.36            123            150 242 
 CHI  HZ EP       1555 24.29                             115   -0.73 9  173 182 
 CHI  HZ I        1555 24.79         7.9 0.36            120            173 182 
 CHI  HN ES       1555 46.17                             115    0.22 9  173 182 
 ZAR  HZ EP       1555 26.59                             112   -0.32 9  195 317 
 ZAR  HE ES       1555 49.67                             112    0.37 9  195 317 
 ZAR  HZ I        1555 52.44         8.9 0.18            116            195 317 
                                                                                
