 2016 1028 1229 27.0 L   6.775 -73.128145.4  RSN  8 0.3 1.5LRSN                1
 GAP=140        0.72       3.5     3.3  4.5 -0.3037E+01  0.3031E+01  0.3984E+01E
 Epicentro: LOS SANTOS - SANTANDER                                             3
 ACTION:UPD 16-11-09 19:23 OP:rebc STATUS:               ID:20161028122927 L   I
 OLDACT:UP  16-10-28 22:51 OP:edw  STATUS:               ID:20161028122746     3
 OLDACT:REG 16-10-28 20:20 OP:edw  STATUS:               ID:20161028122746     3
 2016-10-28-1228-00M.COL___343                                                 6
 STAT SP IPHASW D HRMM SECON CODA AMPLIT PERI AZIMU VELO AIN AR TRES W  DIS CAZ7
 BAR2 EZ EP       1229 46.53                             171   -0.0510 21.1 197 
 BAR2 EZ ES       1230  1.92                             171    0.1010 21.1 197 
 BAR2 EZ I        1230  4.29        12.4 0.28            172           21.1 197 
 BRR  HZ EP       1229 48.45                             151    0.1310 74.2 300 
 BRR  HN ES       1230  5.23                             151    0.3110 74.2 300 
 PAM  EZ EP       1229 49.30                             150    0.0310 78.4  37 
 PAM  EN ES       1230  6.46                             150   -0.1610 78.4  37 
 PAM  EZ I        1230  9.71         4.5 0.46            152           78.4  37 
 RUS  HZ EP       1229 50.72                             145    0.1710 97.7 177 
 RUS  HN ES       1230  8.77                             145   -0.1110 97.7 177 
 RUS  HZ I        1230 10.59         3.4 0.22            146           97.7 177 
 PTB  HZ EP       1229 53.62                             132   -0.48 9  149 260 
 PTB  HN ES       1230 15.00                             132   -0.21 9  149 260 
 PTB  HZ I        1230 16.87         3.6 0.12            134            149 260 
 NOR  HN ES       1230 30.07                             118   -0.53 8  235 235 
 CHI  HZ EP       1230  4.55                             117    0.07 8  246 196 
 CHI  HN ES   4   1230 35.99                             117    2.30 0  246 196 
 GUY2CHZ EP       1230 10.84                             112    0.21 7  301 235 
 GUY2CHN ES       1230 45.41                             112    0.78 7  301 235 
 GUY2CHZ I        1230 52.74         2.5 0.40                           301 235 
 SJC  HZ EP   4   1230 20.68                             105   -2.31 0  413 327 
 SJC  HN ES   4   1231  1.67                             105   -4.95 0  413 327 
                                                                                
