 2016  828 1649 38.0 L   7.377 -73.123  9.4  RSN  8 0.4 1.8LRSN                1
 GAP=108        1.06       2.2     2.4  4.8  0.4290E+00  0.4641E+01  0.2533E+01E
 Epicentro: RIONEGRO - SANTANDER                                               3
 ACTION:UPD 16-10-29 15:40 OP:rebc STATUS:               ID:20160828164938 L   I
 OLDACT:REG 16-08-28 21:41 OP:ar   STATUS:               ID:20160828164735     3
 2016-08-28-1648-00M.COL___362                                                 6
 STAT SP IPHASW D HRMM SECON CODA AMPLIT PERI AZIMU VELO AIN AR TRES W  DIS CAZ7
 PAM  EZ IP     D 1649 46.56                              98    0.3010 46.9  95 
 PAM  EE ES       1649 52.86                              98    0.1610 46.9  95 
 PAM  EZ I        1649 53.79        74.0 0.16                          46.9  95 
 BRR  HZ EP       1649 49.75                              95    0.2710 71.6 245 
 BRR  HN ES       1649 58.52                              95    0.0910 71.6 245 
 BRR  HZ I        1649 59.02        26.4 0.12                          71.6 245 
 BAR2 EZ EP       1649 52.29                              94    0.2310 87.0 184 
 BAR2 EZ ES       1650  2.41                              94   -0.6110 87.0 184 
 BAR2 EZ I        1650  3.52        24.6 0.24                          87.0 184 
 OCA  HZ EP       1649 53.26                              93   -0.3310 97.7 347 
 OCA  HN ES       1650  5.17                              93   -0.5710 97.7 347 
 OCA  HZ I        1650 14.07        29.7 0.48                          97.7 347 
 RUS  HZ EP       1650  4.37                              56    0.45 9  164 178 
 RUS  HN ES       1650 23.54                              56   -0.59 9  164 178 
 RUS  HZ I        1650 24.95         7.2 0.28                           164 178 
 PTB  HZ EP       1650  4.81                              56    0.24 9  174 238 
 PTB  HE ES       1650 24.82                              56   -0.48 9  174 238 
 PTB  HZ I        1650 25.39        17.7 0.20                           174 238 
 ZAR  HZ EP       1650  7.43                              56    0.62 9  192 274 
 ZAR  HN ES       1650 29.65                              56    0.38 9  192 274 
 ZAR  HZ I        1650 30.85        15.8 0.22                           192 274 
 SPBC HZ EP   4   1650 12.79                              56    2.67 0  218 209 
 SPBC HN ES   4   1650 38.69                              56    3.51 0  218 209 
 SPBC HZ I        1650 40.71        12.2 0.30                           218 209 
                                                                                
