 2016 1028 1741 53.5 L   6.774 -73.211160.9  RSN  4 0.1 1.2LRSN                1
 GAP=130        0.34       2.3     2.3  3.3  0.1220E+01 -0.1922E+01 -0.1389E+01E
 Epicentro: ZAPATOCA - SANTANDER                                               3
 ACTION:UPD 16-11-09 19:23 OP:rebc STATUS:               ID:20161028174153 L   I
 OLDACT:DUP 16-10-29 00:29 OP:dani STATUS:               ID:20161028173748d    3
 OLDACT:UP  16-10-29 00:29 OP:dani STATUS:               ID:20161028173747     3
 OLDACT:UP  16-10-29 00:29 OP:dani STATUS:               ID:20161028173747     3
 OLDACT:UP  16-10-29 00:28 OP:dani STATUS:               ID:20161028173747     3
 OLDACT:UP  16-10-29 00:28 OP:dani STATUS:               ID:20161028173747     3
 OLDACT:REG 16-10-28 20:54 OP:edw  STATUS:               ID:20161028173747     3
 2016-10-28-1738-00M.COL___349                                                 6
 STAT SP IPHASW D HRMM SECON CODA AMPLIT PERI AZIMU VELO AIN AR TRES W  DIS CAZ7
 BRR  HZ EP       1742 16.22                             156    0.1610 66.5 304 
 BRR  HE ES       1742 33.59                             156   -0.0710 66.5 304 
 BRR  HZ I        1742 35.26         7.1 0.25            153           66.5 304 
 PAM  EZ EP       1742 17.70                             151   -0.0310 84.3  42 
 RUS  HZ EP       1742 18.55                             147   -0.0710 98.5 172 
 RUS  HN ES       1742 38.26                             147    0.0410 98.5 172 
 RUS  HZ I        1742 38.36         1.1 0.38            147           98.5 172 
 PTB  HZ EP       1742 21.02                             137   -0.06 9  140 259 
 PTB  HN ES       1742 42.61                             137    0.01 9  140 259 
 PTB  HZ I        1742 48.21         1.8 0.22            134            140 259 
                                                                                
