 2015  328 1043 39.9 L   6.706 -73.220130.7  RSN  5 0.6 1.0LRSN                1
 GAP=213        1.45      10.0     9.5 10.5  0.5895E+02  0.2357E+02 -0.9025E+00E
 Epicentro: VILLANUEVA - SANTANDER                                             3
 ACTION:UPD 15-04-30 16:30 OP:nd   STATUS:               ID:20150328104339 L   I
 OLDACT:REG 15-03-28 20:11 OP:stll STATUS:               ID:20150328103749     3
 2015-03-28-1037-49M.COL___275                                                 6
 STAT SP IPHASW D HRMM SECON CODA AMPLIT PERI AZIMU VELO AIN AR TRES W  DIS CAZ7
 BAR2 EZ EP       1043 57.50                             174   -0.0610 13.3 162 
 BAR2 EZ ES       1044 12.04                             174    0.7210 13.3 162 
 BAR2 EZ I        1044 13.58         3.4 0.18            170           13.3 162 
 BRR  HZ EP       1043 58.18                             150   -1.2210 70.2 309 
 BRR  HN ES       1044 14.53                             150   -0.0610 70.2 309 
 RUS  HZ EP       1044  2.07                             143    0.5610 91.2 170 
 RUS  HN ES       1044 17.82                             143   -0.5410 91.2 170 
 RUS  HZ I        1044 21.66         1.1 0.38            143           91.2 170 
 PTB  HZ EP       1044  5.16                             130    0.38 9  138 262 
 PTB  HN ES       1044 23.89                             130   -0.28 9  138 262 
 PTB  HZ I        1044 28.36         2.0 0.10            129            138 262 
 ZAR  HZ EP       1044 11.46                             119    0.38 9  201 296 
 ZAR  HN ES       1044 35.72                             119    0.33 9  201 296 
 ZAR  HZ I        1044 43.33         1.1 0.34            120            201 296 
                                                                                
