 2010  328 1332  4.5 L   6.592 -73.498115.7  RSN  8 0.4 2.0LRSN                1
 GAP= 84        0.76       3.8     6.0  8.4 -0.1191E+01  0.2528E+02  0.6929E+01E
 Epicentro: EL CARMEN DE CHUCURI - SANTANDER                                   3
 ACTION:UP  10-08-24 09:56 OP:vdl  STATUS:               ID:20100328133204 L   I
 2010-03-28-1329-27S.COL___098                                                 6
 STAT SP IPHASW D HRMM SECON CODA AMPLIT PERI AZIMU VELO SNR AR TRES W  DIS CAZ7
 BAR2 SZ IP       1332 20.70                             162    -0.210   35  90 
 BAR2 SZ ES   2   1332 33.17                             162    -0.5 5   35  90 
 BRR  HZ EP   1   1332 21.58                             150    -0.3 7   62 337 
 BRR  HN ES   2   1332 35.58                             150     0.1 5   62 337 
 BRR  HZ I        1332 42.17        33.1 0.08                            62 337 
 RUS  HZ EP   1   1332 25.27                             140     0.7 7   90 149 
 RUS  HE ES   2   1332 40.44                             140     0.2 5   90 149 
 RUS  HZ I        1332 41.72        21.9 0.52                            90 149 
 OCA  SZ EP   1   1332 33.16                             118     0.1 7  183   6 
 OCA  SZ ES   2   1332 55.86                             118     0.5 4  183   6 
 CHI  HZ EP   1   1332 37.23                             113    -0.1 6  219 187 
 CHI  HN ES   2   1333  2.87                             113     0.0 4  219 187 
 CHI  HZ I        1333 11.82         3.6 0.39                           219 187 
 HEL  HZ EP   1   1332 38.63                             112     0.2 6  229 259 
 HEL  HN ES   2   1333  4.69                             112    -0.2 4  229 259 
 HEL  HZ I        1333  8.97         7.8 0.60                           229 259 
 RREF BZ EP   1   1332 43.97                             108    -0.3 6  277 228 
 RREF BE ES   2   1333 16.51                             108     1.2 4  277 228 
 RREF BZ I        1333 18.81         7.1 0.19                           277 228 
 PRA  HZ EP   1   1332 51.92                             103    -0.6 5  353 206 
 PRA  HE ES   2   1333 29.31                             103    -0.7 3  353 206 
 PRA  HZ I        1333 32.45         4.5 0.25                           353 206 
                                                                                
