 2010  728 1735 59.0 L   6.786 -73.155147.4  RSN  5 0.4 1.7LRSN                1
 GAP=158        0.73       5.4    11.3 10.6 -0.1566E+02 -0.1904E+02  0.6078E+01E
 Epicentro: LOS SANTOS - SANTANDER                                             3
 ACTION:UPD 10-12-01 15:20 OP:pat  STATUS:               ID:20100728173559 L   I
 2010-07-28-1732-31S.COL___123                                                 6
 STAT SP IPHASW D HRMM SECON CODA AMPLIT PERI AZIMU VELO AIN AR TRES W  DIS CAZ7
 BRR  HZ EP   1   1736 20.09                             153    -0.3 7   71 300 
 BRR  HE ES   2   1736 37.12                             153     0.1 5   71 300 
 RUS  HZ EP   1   1736 22.75                             145    -0.1 7   99 175 
 RUS  HE ES   2   1736 41.40                             145     0.0 5   99 175 
 RUS  HZ I        1736 42.72         5.8 0.38                            99 175 
 GUE  SZ EP   1   1736 23.44                             139    -0.6 7  118  12 
 GRA  SZ EP   1   1736 25.00                             137     0.4 7  128  18 
 GRA  SZ ES   2   1736 44.96                             137     0.5 5  128  18 
 PRA  HZ EP   1   1736 53.01                             107     0.6 4  390 210 
 PRA  HZ I        1737 41.28         2.4 0.30                           390 210 
                                                                                
