 2015  428 1832  3.0 L   6.817 -73.168144.7  RSN 11 0.3 2.3LRSN                1
 GAP=199        0.71       2.2     3.3  4.0  0.1105E+01  0.3346E+01  0.1024E+01E
 Epicentro: LOS SANTOS - SANTANDER                                             3
 ACTION:UPD 15-06-03 16:58 OP:cam  STATUS:               ID:20150428183203 L   I
 OLDACT:REG 15-04-28 22:17 OP:ak   STATUS:               ID:20150428182748     3
 2015-04-28-1827-48M.COL___283                                                 6
 STAT SP IPHASW D HRMM SECON CODA AMPLIT PERI AZIMU VELO AIN AR TRES W  DIS CAZ7
 BAR2 EZ IP     C 1832 22.51                             170    0.0110 24.9 184 
 BAR2 EZ ES       1832 37.54                             170   -0.1910 24.9 184 
 BAR2 EZ I        1832 40.35        42.6 0.23            167           24.9 184 
 BRR  HZ IP     D 1832 24.38                             153    0.5510 68.2 298 
 BRR  HN ES       1832 40.24                             153    0.1410 68.2 298 
 RUS  HZ EP       1832 26.47                             143   -0.2910  103 175 
 RUS  HN ES       1832 45.64                             143    0.3210  103 175 
 RUS  HZ I        1832 46.78        21.0 0.26            145            103 175 
 PTB  HZ EP       1832 29.48                             132   -0.19 9  146 258 
 PTB  HN ES       1832 50.10                             132   -0.39 9  146 258 
 PTB  HZ I        1832 57.93        20.3 0.23            131            146 258 
 SPBC HZ IP     D 1832 31.58                             129    0.20 9  163 218 
 SPBC HE ES       1832 53.67                             129    0.13 9  163 218 
 SPBC HZ I        1832 56.32        32.1 0.20            129            163 218 
 ZAR  HZ EP       1832 34.86                             123   -0.18 9  201 292 
 ZAR  HE ES       1833  0.34                             123    0.29 9  201 292 
 ZAR  HZ I        1833  6.83        15.0 0.21            123            201 292 
 NOR  HZ EP       1832 38.64                             118    0.10 8  234 234 
 NOR  HN ES       1833  5.67                             118   -0.62 8  234 234 
 NOR  HZ I        1833 11.99        14.3 0.19            119            234 234 
 SML  HZ EP   2   1832 38.87                             117   -0.37 4  241 336 
 SML  HN ES       1833  7.29                             117   -0.24 8  241 336 
 CHI  HZ EP       1832 40.63                             117   -0.11 8  250 195 
 CHI  HN ES       1833  9.88                             117   -0.32 8  250 195 
 GUY2CHZ EP       1832 46.65                             112    0.22 7  300 234 
 GUY2CHN ES       1833 20.49                             112    0.17 7  300 234 
 GUY2CHZ I        1833 26.79        10.0 0.26                           300 234 
 TOL  SZ EP   4   1832 52.34                             109    1.20 0  343 224 
 TOL  SE ES       1833 29.24                             109    0.53 7  343 224 
 TOL  SZ I        1833 35.22         6.9 0.32            110            343 224 
                                                                                
