 2011  428 1345 32.1 L   6.789 -73.107141.8  RSN  6 0.3 1.6LRSN                1
 GAP=142        0.66       3.9     6.6  6.1 -0.5207E+01 -0.7690E+01 -0.4377E+01E
 Epicentro: LOS SANTOS - SANTANDER                                             3
 ACTION:UP  11-06-22 15:33 OP:REBC STATUS:               ID:20110428134532 L   I
 2011-04-28-1342-28S.COL___139                                                 6
 STAT SP IPHASW D HRMM SECON CODA AMPLIT PERI AZIMU VELO SNR AR TRES W  DIS CAZ7
 BAR2 SZ EP   1   1345 51.14                             170    -0.1 7   23 201 
 BAR2 SZ ES   1   1346  5.64                             170    -0.5 7   23 201 
 BAR2 SZ I        1346  7.56        21.9 0.15                            23 201 
 PAM  SZ EP       1345 54.05                             151     0.310   76  36 
 BRR  HZ EP   1   1345 52.92                             150    -0.2 7   76 298 
 BRR  HN ES   1   1346  9.75                             150     0.3 7   76 298 
 BRR  HZ I        1346 10.93        19.5 0.14                            76 298 
 PAM  SN ES   1   1346 10.86                             151     0.1 7   76  36 
 PAM  SZ I        1346 12.88         5.0 0.50                            76  36 
 RUS  HZ EP   1   1345 55.18                             144    -0.2 7   99 178 
 RUS  HE ES   1   1346 13.82                             144     0.3 7   99 178 
 RUS  HZ I        1346 15.34         2.9 0.24                            99 178 
 BRI  SZ EP   1   1345 55.59                             141     0.0 7  108  18 
 GRA  SZ EP       1345 56.86                             136    -0.110  126  15 
 GRA  SZ ES   2   1346 16.16                                    -0.2 5  126  15 
 GRA  SZ I        1346 19.29         4.6 0.49                           126  15 
                                                                                
