 2017 1028 1020 16.8 L   6.265 -73.721106.5  RSN 19 0.5 2.1LRSN                1
 GAP= 52        1.07       2.2     2.3  5.0 -0.6001E+00  0.1258E+01  0.1211E+01E
 Epicentro: LANDAZURI - SANTANDER                                              3
 ACTION:UPD 17-11-07 19:38 OP:rebc STATUS:               ID:20171028102016 L   I
 OLDACT:REG 17-10-28 19:31 OP:dhb  STATUS:               ID:20171028101738     3
 2017-10-28-1018-00M.COL___435                                                 6
 STAT SP IPHASW D HRMM SECON CODA AMPLIT PERI AZIMU VELO AIN AR TRES W  DIS CAZ7
 BAR2 EZ IP     D 1020 34.43                             144    0.3310 69.7  59 
 BAR2 EZ ES       1020 47.66                             144    0.0710 69.7  59 
 BAR2 EZ I        1020 48.93        36.4 0.44            144           69.7  59 
 SPBC HZ EP       1020 34.37                             141   -0.1410 78.1 210 
 SPBC HE ES       1020 48.29                             141   -0.0410 78.1 210 
 SPBC HZ I        1020 51.67        38.7 0.22            138           78.1 210 
 RUS  HZ IP     D 1020 35.02                             140   -0.3410 81.7 120 
 RUS  HN ES       1020 49.42                             140   -0.4110 81.7 120 
 RUS  HZ I        1020 51.87        44.3 0.40            139           81.7 120 
 PTB  HZ EP       1020 34.62                             138   -0.4810 86.8 291 
 PTB  HE ES       1020 48.75                             138   -0.6310 86.8 291 
 PTB  HZ I        1020 49.95        12.6 0.20            134           86.8 291 
 BRR  HZ EP       1020 35.88                             135    0.2710 93.1   1 
 BRR  HE ES       1020 51.16                             135    0.8710 93.1   1 
 BRR  HZ I        1020 55.39        18.3 0.38            134           93.1   1 
 NOR  HZ EP       1020 40.67                             121   -0.39 9  149 239 
 NOR  HN ES       1020 59.30                             121   -0.69 9  149 239 
 NOR  HZ I        1021  1.67        14.9 0.14            118            149 239 
 PAM  EZ IP     C 1020 43.40                             118    0.18 9  164  43 
 PAM  EN ES       1021  3.76                             118   -0.06 9  164  43 
 PAM  EZ I        1021  9.15         9.0 0.28            117            164  43 
 ROSC BZ EP   9   1020 45.23                             117    1.38 0  171 203 
 ROSC BN ES       1021  6.98                                    0.65 9  171 203 
 ROSC BZ I        1021 11.89        14.6 0.40            115            171 203 
 YPLC HZ IP     C 1020 44.14                             116    0.05 9  177 123 
 YPLC HE ES       1021  5.52                             116    0.15 9  177 123 
 YPLC HZ I        1021  7.75        39.1 0.24            115            177 123 
 CHI  HZ EP       1020 44.49                             116   -0.47 9  181 180 
 CHI  HE ES       1021  7.74                             116    0.81 9  181 180 
 CHI  HZ I        1021 16.49         5.0 0.38            114            181 180 
 ZAR  HZ EP       1020 45.37                             115    0.47 9  185 317 
 ZAR  HE ES       1021  7.17                             115    0.36 9  185 317 
 ZAR  HZ I        1021 12.60        29.1 0.28            112            185 317 
 TAM  HZ IP     D 1020 48.12                             111   -0.12 8  214  85 
 TAM  HN ES   2   1021 11.27                             111   -1.50 4  214  85 
 TAM  HZ I        1021 11.43        15.9 0.24            110            214  85 
 GUY2CHZ EP       1020 49.06                             111    0.15 8  215 238 
 GUY2CHN ES       1021 14.32                             111    0.36 8  215 238 
 GUY2CHZ I        1021 19.21         6.9 0.22                           215 238 
 URE  HZ EP   9   1020 52.23                             106   -1.14 0  259 310 
 URE  HN ES       1021 20.50                                   -0.26 8  259 310 
 DBB  EZ EP   4   1020 51.17                             104   -5.64 0  287 287 
 DBB  EZ I        1021 17.61        16.6 0.14            102            287 287 
 PTGC HZ EP   9   1020 55.26                             104   -1.55 0  288 142 
 PTGC HE ES       1021 26.39                                   -0.08 7  288 142 
 PTGC HZ I        1021 29.63         8.7 0.44            103            288 142 
 PRA  HZ EP       1020 59.03                             103   -0.43 7  310 205 
 PRA  HE ES       1021 33.41                             103    0.68 7  310 205 
 PRA  HZ I        1021 37.85         8.3 0.28            101            310 205 
 ORTC HZ EP       1020 59.95                             103    0.46 7  311 213 
 ORTC HN ES       1021 33.10                             103    0.31 7  311 213 
 ORTC HZ I        1021 39.57         5.3 0.60            101            311 213 
 SJC  HZ EP       1021 13.68                              97   -0.51 5  433 338 
 SJC  HE ES       1021 58.60                              97   -0.36 5  433 338 
 SJC  HZ I        1022  5.08         1.9 0.68             94            433 338 
                                                                                
