 2014  528 1900 24.6 L   6.757 -73.108135.1  RSN  9 0.5 2.0LRSN                1
 GAP=203        1.01       4.0     6.6  6.5  0.7390E+00  0.1056E+02  0.1934E+01E
 Epicentro: LOS SANTOS - SANTANDER                                             3
 ACTION:UPD 15-03-16 17:01 OP:nd   STATUS:               ID:20140528190024 L   I
 OLDACT:UP  14-05-29 03:06 OP:spq  STATUS:               ID:20140528185820     3
 OLDACT:REG 14-05-28 22:16 OP:stll STATUS:               ID:20140528185820     3
 2014-05-28-1858-20M.COL___253                                                 6
 STAT SP IPHASW D HRMM SECON CODA AMPLIT PERI AZIMU VELO AIN AR TRES W  DIS CAZ7
 BAR2 SZ ES       19 0 56.70                             171   -0.4710 20.0 204 
 BAR2 SZ I        19 1  1.26        14.0 0.14            165           20.0 204 
 BRR  HZ EP       19 0 45.56                             149    0.5610 77.1 300 
 BRR  HE ES       19 1  1.64                             149    0.7510 77.1 300 
 BRR  HZ I        19 1 13.01        14.3 0.40            147           77.1 300 
 RUS  HZ EP   1   19 0 46.97                             143   -0.01 7 95.7 178 
 RUS  HN ES   1   19 1  4.65                             143    0.24 7 95.7 178 
 PTB  HZ EP       19 0 50.52                             129   -0.54 9  151 261 
 PTB  HN ES       19 1 11.44                             129   -0.23 9  151 261 
 PTB  HZ I        19 1 17.31        10.2 0.18            129            151 261 
 SPBC HZ EP       19 0 52.45                             127    0.21 9  162 221 
 SPBC HN ES       19 1 13.66                             127   -0.12 9  162 221 
 SPBC HZ I        19 1 20.36        13.8 0.22            128            162 221 
 CHI  HN ES   1   19 1 29.58                             115   -0.47 6  245 196 
 CHI  HZ I        19 1 39.56         3.4 0.48            118            245 196 
 SML  HZ EP   1   19 1  0.89                             115   -0.46 6  250 335 
 SML  HE ES   1   19 1 29.12                             115   -0.87 6  250 335 
 SML  HZ I        19 1 31.97        13.9 0.24            118            250 335 
 GUY2CHZ EP   1   19 1  8.63                             110    0.78 5  302 236 
 GUY2CHE ES   1   19 1 41.18                             110   -0.38 5  302 236 
 GUY2CHZ I        19 1 50.36         6.1 0.74                           302 236 
 RREF HZ EP   1   19 1 10.95                             109    0.60 5  322 230 
 RREF HE ES   1   19 1 45.95                             109   -0.06 5  322 230 
 RREF HZ I        19 1 55.19         4.2 0.52            111            322 230 
                                                                                
