 2010  628 1318 41.1 L   6.785 -73.067140.0  RSN  4 0.1 1.4LRSN                1
 GAP=173        0.36       5.1     8.6  6.7  0.2942E+02 -0.3369E+02 -0.1674E+02E
 Epicentro: LOS SANTOS - SANTANDER                                             3
 ACTION:UP  10-08-24 10:13 OP:vdl  STATUS:               ID:20100628131841 L   I
 2010-06-28-1315-24S.COL___118                                                 6
 STAT SP IPHASW D HRMM SECON CODA AMPLIT PERI AZIMU VELO SNR AR TRES W  DIS CAZ7
 BAR2 SZ EP   2   1318 59.88                             169    -0.2 5   25 211 
 BAR2 SZ ES   2   1319 14.77                             169    -0.1 5   25 211 
 BRR  HZ EP   1   1319  2.03                             149    -0.1 7   80 297 
 BRR  HZ I        1319  5.01         9.0 0.47                            80 297 
 BRR  HE ES   1   1319 18.69                             149     0.1 7   80 297 
 RUS  HZ EP   2   1319  4.38                             143     0.2 5   99 181 
 RUS  HE ES   2   1319 22.21                             143     0.1 5   99 181 
 RUS  HZ I        1319 23.44         2.9 0.23                            99 181 
 GUE  SZ EP   2   1319  5.47                             138     0.2 5  117   8 
                                                                                
