 2010 1028 1819 42.6 L   6.779 -73.114149.0  RSN 20 0.5 3.6LRSN                1
 GAP=104        1.23       3.7     6.0  6.0 -0.7064E+01  0.3374E+01  0.4524E+01E
 Epicentro: LOS SANTOS - SANTANDER                                             3
 ACTION:UP  11-02-18 11:12 OP:tino STATUS:               ID:20101028181942 L   I
 2010-10-28-1816-11S.COL___129                                                 6
 STAT SP IPHASW D HRMM SECON CODA AMPLIT PERI AZIMU VELO SNR AR TRES W  DIS CAZ7
 BAR2 SZ IP       1820  2.51                             171    -0.110   22 201 
 BAR2 SZ ES   1   1820 17.59                             171    -0.6 7   22 201 
 BAR2 SZ I        1820 18.77       461.7 0.42                            22 201 
 GIR2 SZ EP       1820  2.59                             166    -0.210   34 345 
 GIR2 SZ ES   1   1820 18.69                             166     0.2 7   34 345 
 BRR  HZ IP     C 1820  4.43                             152     0.010   75 299 
 BRR  HZ I        1820  4.73      1024.1 0.16                            75 299 
 BRR  HN ES       1820 21.89                             152     0.610   75 299 
 RUS  HZ IP     D 1820  6.33                             145    -0.210   98 178 
 RUS  HN ES       1820 24.83                             145    -0.310   98 178 
 RUS  HZ I        1820 28.63       182.1 0.67                            98 178 
 GUE  SZ EP       1820  7.63                             140    -0.110  118  10 
 GRA  SZ IP       1820  9.32                             137     1.010  127  16 
 GRA  SZ ES   1   1820 28.74                             137     0.5 7  127  16 
 GRA  SZ I        1820 31.88       456.5 0.25                           127  16 
 OCA  SZ EP       1820 10.92                             130    -0.5 9  163 352 
 OCA  SZ ES   1   1820 33.31                             130    -0.6 7  163 352 
 OCA  SZ I        1820 37.87       585.2 0.36                           163 352 
 YOP  SZ IP       1820 12.91                             128     0.3 9  175 154 
 NOR  SZ EP       1820 18.20                             119    -0.5 8  236 236 
 NOR  SN ES   2   1820 46.62                             119    -0.3 4  236 236 
 CHI  HZ EP       1820 20.16                             118    -0.2 8  247 196 
 CHI  HZ I        1820 23.21       118.9 0.32                           247 196 
 CHI  HN ES   1   1820 50.41                             118     0.6 6  247 196 
 ROSC BZ IP     D 1820 21.93                             117     1.0 8  253 212 
 ROSC BZ I        1821  0.29       194.4 0.30                           253 212 
 CVER SZ EP   1   1820 23.58                             115     0.5 6  271 203 
 CVER SZ I        1820 25.18       264.0 0.30                           271 203 
 HEL  HZ EP   1   1820 22.86                             115    -0.5 6  275 256 
 GUY  SZ EP   1   1820 27.15                             113     0.6 5  303 236 
 GUY  SN ES   1   1821  1.14                             113     0.3 5  303 236 
 GUY  SZ I        1821 12.46       275.2 0.33                           303 236 
 RREF HZ EP   1   1820 29.36                             111     0.3 5  323 230 
 RREF HE ES   1   1821  4.31                             111    -1.0 5  323 230 
 RREF HZ I        1821 14.79       190.9 0.44                           323 230 
 DBB  SZ EP       1820 30.24                             110    -0.4 7  343 275 
 TOL  SZ EP   1   1820 31.67                             110     0.5 5  344 225 
 ANIL HZ EP   2   1820 33.39                             109     0.7 3  358 225 
 ANIL HZ I        1821 19.13       285.3 0.31                           358 225 
 SDV  BZ EP       1820 31.86                             109    -0.8 6  359  50 
 PRA  HZ EP       1820 35.92                             107    -0.3 6  392 210 
 PRA  HZ I        1820 38.18       409.7 0.13                           392 210 
 PRA  HE ES   1   1821 18.00                             107    -0.1 4  392 210 
                                                                                
