 2016  728 1315 14.6 L   6.815 -73.093147.5  RSN  8 0.4 2.0LRSN                1
 GAP=143        1.05       3.8     4.9  6.3 -0.9253E+00  0.9699E+01  0.4930E+01E
 Epicentro: LOS SANTOS - SANTANDER                                             3
 ACTION:UPD 17-03-29 16:55 OP:lp   STATUS:               ID:20160728131514 L   I
 OLDACT:REG 16-07-28 20:58 OP:ar   STATUS:               ID:20160728130743     3
 2016-07-28-1308-00M.COL___368                                                 6
 STAT SP IPHASW D HRMM SECON CODA AMPLIT PERI AZIMU VELO AIN AR TRES W  DIS CAZ7
 BAR2 EZ EP       1315 34.20                             169   -0.3110 26.5 202 
 BAR2 EZ ES       1315 49.80                             169   -0.2310 26.5 202 
 BAR2 EZ I        1315 50.86        22.8 0.24            166           26.5 202 
 PAM  EZ EP       1315 36.93                             153    0.2110 72.5  37 
 PAM  EN ES       1315 54.26                             153    0.2910 72.5  37 
 PAM  EZ I        1315 54.97        13.0 0.24            158           72.5  37 
 BRR  HZ EP       1315 36.13                             151   -0.0610 75.7 295 
 BRR  HN ES       1315 53.15                             151    0.1210 75.7 295 
 BRR  HZ I        1315 57.04        25.3 0.40            150           75.7 295 
 RUS  HZ EP       1315 38.42                             144   -0.2010  102 179 
 RUS  HN ES       1315 57.45                             144    0.0910  102 179 
 RUS  HZ I        1315 59.25         8.4 0.30            145            102 179 
 SPBC HZ EP       1315 43.36                             129   -0.34 9  168 220 
 SPBC HN ES       1316  7.24                             129    0.84 9  168 220 
 SPBC HZ I        1316 12.35        19.6 0.34            129            168 220 
 ZAR  HZ EP       1315 47.99                             122    0.33 8  209 291 
 ZAR  HN ES       1316 12.59                             122   -0.85 8  209 291 
 ZAR  HZ I        1316 18.52        10.1 0.15            123            209 291 
 CHI  HZ EP       1315 52.72                             117   -0.02 8  252 196 
 CHI  HN ES       1316 21.64                             117   -0.84 8  252 196 
 CHI  HZ I        1316 28.27         5.8 0.38            118            252 196 
 GUY2CHZ EP       1315 59.55                             112    0.62 7  307 235 
 GUY2CHE ES       1316 34.06                             112    0.55 7  307 235 
 GUY2CHZ I        1316 40.25         4.7 0.28                           307 235 
                                                                                
