 2011  228 1625 20.0 L   6.783 -73.137139.1  RSN  5 0.3 2.0LRSN                1
 GAP=137        0.68       3.8     9.1  6.4 -0.3538E+01  0.3532E+01 -0.2351E+00E
 Epicentro: LOS SANTOS - SANTANDER                                             3
 ACTION:UP  11-03-28 15:11 OP:jfem STATUS:               ID:20110228162520 L   I
 2011-02-28-1622-24S.COL___135                                                 6
 STAT SP IPHASW D HRMM SECON CODA AMPLIT PERI AZIMU VELO SNR AR TRES W  DIS CAZ7
 BAR2 SZ EP   1   1625 38.69                             171    -0.1 8   22 194 
 BAR2 SZ ES   1   1625 53.19                             171    -0.3 8   22 194 
 BAR2 SZ I        1625 54.34        39.5 0.25                            22 194 
 RUS  HZ EP   1   1625 42.61                             143    -0.4 8   99 177 
 RUS  HN ES   1   1626  1.32                             143     0.4 8   99 177 
 RUS  HZ I        1626  2.63         9.0 0.37                            99 177 
 GRA  SZ EP   1   1625 44.61                             135    -0.2 8  127  17 
 GRA  SZ ES   1   1626  4.42                             135     0.3 8  127  17 
 GRA  SZ I        1626  6.44        22.8 0.24                           127  17 
 YOP  SZ EP       1625 49.44                             125     0.110  177 153 
 YOP  SZ I        1626 15.68         6.7 0.34                           177 153 
 DBB  SZ EP   1   1626  7.67                             108     0.3 6  341 275 
                                                                                
