 2013 1228 1306 59.3 L   6.791 -73.155145.8  RSN 10 0.4 2.3LRSN                1
 GAP=136        0.98       3.0     3.9  5.8 -0.1129E+01  0.5223E+01  0.2697E+01E
 Epicentro: LOS SANTOS - SANTANDER                                             3
 ACTION:UPD 14-01-13 10:21 OP:ep   STATUS:               ID:20131228130659 L   I
 OLDACT:REG 13-12-28 14:32 OP:jn   STATUS:               ID:20131228130001d    3
 2013-12-28-1300-00M.COL___285                                                 6
 STAT SP IPHASW D HRMM SECON CODA AMPLIT PERI AZIMU VELO AIN AR TRES W  DIS CAZ7
 BAR2 SZ IP     D 13 7 18.95                             171    0.0510 22.2 188 
 BAR2 SZ ES       13 7 34.20                             171    0.0010 22.2 188 
 BAR2 SZ I        13 7 35.11        49.5 0.26            170           22.2 188 
 BRR  HZ IP     C 13 7 20.83                             153    0.4110 70.8 300 
 BRR  HN ES       13 7 37.72                             153    0.8210 70.8 300 
 BRR  HZ I        13 7 42.70        25.4 0.22            150           70.8 300 
 PAM  SZ EP       13 7 21.73                             150    0.1410 78.8  40 
 PAM  SN ES       13 7 38.92                             150   -0.0710 78.8  40 
 PAM  SZ I        13 7 41.15        23.5 0.60            154           78.8  40 
 RUS  HZ EP       13 7 23.29                             144    0.3210 99.6 175 
 RUS  HN ES       13 7 40.92                             144   -0.5310 99.6 175 
 RUS  HZ I        13 7 42.79        24.3 0.24            148           99.6 175 
 PTB  HZ EP       13 7 25.49                             132   -0.66 9  147 259 
 PTB  HN ES       13 7 46.91                             132   -0.19 9  147 259 
 PTB  HZ I        13 7 52.84        14.4 0.20            132            147 259 
 OCA  HN ES       13 7 49.09                             129   -0.74 9  161 354 
 OCA  HZ I        13 7 54.85        36.5 0.26            131            161 354 
 SPBC HZ EP       13 7 27.87                             129    0.22 9  162 219 
 SPBC HN ES       13 7 49.87                             129    0.09 9  162 219 
 SPBC HZ I        13 7 53.98        43.9 0.22            131            162 219 
 ZAR  HZ EP       13 7 31.73                             122    0.05 9  204 293 
 ZAR  HN ES       13 7 56.88                             122   -0.06 9  204 293 
 ZAR  HZ I        13 8  4.01        27.5 0.20            123            204 293 
 NOR  HN ES       13 8  2.44                             119   -0.18 8  233 235 
 NOR  HZ I        13 8  8.28        22.1 0.26            120            233 235 
 CHI  HZ EP       13 7 37.18                             117    0.33 8  247 195 
 CHI  HN ES       13 8  5.92                             117   -0.23 8  247 195 
                                                                                
