 2015  928 1416 23.5 L   6.359 -73.457116.3  RSN 11 0.5 2.2LRSN                1
 GAP= 92        1.16       3.6     4.8  6.5 -0.5594E+01  0.1095E+02 -0.4112E+01E
 Epicentro: CONTRATACION - SANTANDER                                           3
 ACTION:UPD 15-10-28 16:28 OP:cam  STATUS:               ID:20150928141623 L   I
 OLDACT:UP  15-09-28 23:35 OP:ar   STATUS:               ID:20150928140750     3
 OLDACT:REG 15-09-28 21:44 OP:ar   STATUS:               ID:20150928140750     3
 2015-09-28-1407-50M.COL___358                                                 6
 STAT SP IPHASW D HRMM SECON CODA AMPLIT PERI AZIMU VELO AIN AR TRES W  DIS CAZ7
 BAR2 EZ EP       1416 40.37                             160    0.2410 39.9  50 
 BAR2 EZ ES       1416 53.80                             160    0.6810 39.9  50 
 BAR2 EZ I        1416 54.30       161.9 0.20            160           39.9  50 
 RUS  HZ EP   2   1416 42.03                             149    0.14 5 66.1 141 
 RUS  HE ES   2   1416 56.25                             149   -0.01 5 66.1 141 
 RUS  HZ I        1416 58.72        17.8 0.28            149           66.1 141 
 BRR  HZ EP       1416 42.33                             140   -0.3810 87.4 341 
 BRR  HZ I        1416 55.88        21.4 0.36            140           87.4 341 
 BRR  HE ES       1416 56.97                             140   -0.7410 87.4 341 
 SPBC HZ EP       1416 43.90                             135   -0.2610  104 221 
 SPBC HN ES       1417  0.68                             135    0.3810  104 221 
 SPBC HZ I        1417  4.49        30.9 0.12            136            104 221 
 PTB  HZ EP   9   1416 43.22                             133   -1.60 0  112 280 
 PTB  HN ES       1416 59.10                              94   -0.7710  112 280 
 PTB  HZ I        1417  3.45        23.7 0.28            133            112 280 
 NOR  HZ EP       1416 50.60                             119   -0.96 9  179 241 
 NOR  HN ES   2   1417 13.86                             119    0.40 4  179 241 
 NOR  HZ I        1417 17.69        13.3 0.16            119            179 241 
 ZAR  HZ EP       1416 54.44                             116    0.79 9  199 309 
 ZAR  HE ES       1417 17.42                             116    0.23 9  199 309 
 ZAR  HZ I        1417 18.46        11.7 0.42            116            199 309 
 OCA  HZ EP       1416 54.59                             115   -0.28 8  208   4 
 OCA  HN ES       1417 18.94                             115   -0.41 8  208   4 
 OCA  HZ I        1417 24.93        43.2 0.74            115            208   4 
 HEL  HZ EP       1416 57.14                             112   -0.41 8  230 265 
 HEL  HN ES   2   1417 24.38                             112    0.26 4  230 265 
 HEL  HZ I        1417 26.76         9.4 0.46            112            230 265 
 URE  HN ES   4   1417 27.93                             108   -4.84 0  276 304 
 SML  HZ EP       1417  3.10                             107    0.46 7  278 346 
 SML  HE ES       1417 33.57                             107    0.38 7  278 346 
 SML  HZ I        1417 37.99        15.3 0.10            108            278 346 
 CBOC HZ EP       1417  4.31                             107    0.33 7  288 259 
 CBOC HN ES       1417 35.67                             107    0.10 7  288 259 
 CBOC HZ I        1417 38.87         4.4 0.36            107            288 259 
                                                                                
