 2014 1228 1031 40.6 L   6.808 -73.149142.7  RSN 15 0.5 2.4LRSN                1
 GAP= 71        1.10       2.7     3.0  5.2 -0.6805E+00  0.3768E+01  0.9462E+00E
 Epicentro: LOS SANTOS - SANTANDER                                             3
 ACTION:UPD 15-02-10 17:07 OP:nd   STATUS:               ID:20141228103140 L   I
 OLDACT:REG 14-12-28 22:23 OP:y    STATUS:               ID:20141228102747     3
 2014-12-28-1027-47M.COL___265                                                 6
 STAT SP IPHASW D HRMM SECON CODA AMPLIT PERI AZIMU VELO AIN AR TRES W  DIS CAZ7
 BAR2 EZ IP     C 1031 59.93                             170    0.0510 24.2 189 
 BAR2 EZ ES       1032 14.75                             170   -0.1710 24.2 189 
 BAR2 EZ I        1032 15.63        58.3 0.34            168           24.2 189 
 BRR  HZ IP     C 1032  1.83                             152    0.4510 70.5 298 
 BRR  HN ES       1032 18.53                             152    0.9410 70.5 298 
 BRR  HZ I        1032 22.87        47.7 0.12            151           70.5 298 
 PAM  SZ EP     C 1032  2.71                             150    0.2410 76.9  40 
 PAM  SN ES       1032 19.60                             150    0.0810 76.9  40 
 PAM  SZ I        1032 21.79        61.6 0.48            156           76.9  40 
 RUS  HZ EP       1032  4.02                             143   -0.1010  102 176 
 RUS  HN ES       1032 22.28                             143   -0.1910  102 176 
 RUS  HZ I        1032 24.02        15.7 0.32            144            102 176 
 PTB  HZ EP       1032  6.99                             131   -0.32 9  148 258 
 PTB  HN ES       1032 27.23                             131   -0.91 9  148 258 
 PTB  HZ I        1032 30.78        29.9 0.46            131            148 258 
 TAM  HZ IP     D 1032  8.32                             130    0.23 9  156 105 
 TAM  HN ES       1032 29.43                             130   -0.10 9  156 105 
 OCA  HZ EP       1032  8.24                             129   -0.35 9  159 353 
 OCA  HN ES       1032 30.01                             129   -0.41 9  159 353 
 OCA  HZ I        1032 33.99        46.0 0.18            132            159 353 
 SPBC HZ EP       1032  8.94                             128    0.02 9  164 219 
 SPBC HN ES       1032 31.00                             128   -0.00 9  164 219 
 SPBC HZ I        1032 40.59        21.4 0.22            129            164 219 
 ZAR  HZ EP       1032 12.97                             122    0.19 9  203 292 
 ZAR  HN ES       1032 38.69                             122    0.80 9  203 292 
 ZAR  HZ I        1032 42.98        29.2 0.30            123            203 292 
 NOR  HZ EP       1032 16.05                             118   -0.13 8  235 234 
 NOR  HN ES       1032 43.51                             118   -0.43 8  235 234 
 NOR  HZ I        1032 52.52        12.8 0.20            119            235 234 
 SML  HZ EP       1032 16.28                             117   -0.67 8  243 335 
 SML  HN ES       1032 44.89                             117   -0.42 8  243 335 
 SML  HZ I        1032 48.54        36.9 0.10            119            243 335 
 CHI  HZ EP       1032 18.77                             116    0.55 8  249 195 
 CHI  HN ES       1032 47.31                             116   -0.25 8  249 195 
 CHI  HZ I        1032 51.96         5.5 0.50            118            249 195 
 HEL  HZ EP       1032 20.42                             114   -0.23 8  272 256 
 HEL  HN ES       1032 52.10                             114    0.21 8  272 256 
 HEL  HZ I        1033  0.40        10.0 0.36            115            272 256 
 URE  HZ EP   4   1032 20.38                             113   -1.07 0  283 292 
 TOL  SZ EP       1032 30.12                             109    1.34 7  344 224 
 TOL  SE ES       1033  6.09                             109   -0.28 7  344 224 
 TOL  SZ I        1033 15.40        15.3 0.58            110            344 224 
 MON  HZ IP   4 C 1032 27.86                             108   -1.53 0  353 308 
 MON  HN ES   4   1033  6.37                             108   -1.08 0  353 308 
 MON  HZ I        1033  7.05         7.5 0.18            109            353 308 
                                                                                
