 2015  428 1914 50.4 L   6.807 -73.111139.3  RSN 21 0.5 2.9LRSN                1
 GAP= 73        1.18       2.8     3.2  5.2 -0.1367E+01  0.4631E+01  0.2025E+01E
 Epicentro: LOS SANTOS - SANTANDER                                             3
 ACTION:UPD 15-06-03 16:58 OP:cam  STATUS:               ID:20150428191450 L   I
 OLDACT:REG 15-04-28 22:20 OP:ak   STATUS:               ID:20150428190748     3
 2015-04-28-1907-48M.COL___283                                                 6
 STAT SP IPHASW D HRMM SECON CODA AMPLIT PERI AZIMU VELO AIN AR TRES W  DIS CAZ7
 BAR2 EZ IP     D 1915  9.41                             169    0.1710 25.0 198 
 BAR2 EZ ES       1915 24.03                             169    0.0610 25.0 198 
 BAR2 EZ I        1915 28.00       112.2 0.40            169           25.0 198 
 BRR  HZ IP     D 1915 11.34                             150    0.3510 74.3 297 
 BRR  HN ES       1915 27.96                             150    0.8710 74.3 297 
 BRR  HZ I        1915 33.14       136.1 0.26            152           74.3 297 
 PAM  SZ IP     D 1915 12.37                             151    0.6710 74.4  38 
 PAM  SN ES       1915 28.86                             151    0.5110 74.4  38 
 PAM  SZ I        1915 31.73        96.7 0.46            149           74.4  38 
 RUS  HZ IP     D 1915 13.34                             142   -0.1710  101 178 
 RUS  HN ES       1915 31.60                             142    0.0210  101 178 
 RUS  HZ I        1915 32.74        90.2 0.23            141            101 178 
 PTB  HZ EP       1915 16.29                             130   -0.88 9  152 259 
 PTB  HN ES       1915 37.50                             130   -0.58 9  152 259 
 PTB  HZ I        1915 40.26       137.8 0.18            130            152 259 
 TAM  HZ EP       1915 17.74                             130    0.55 9  152 106 
 TAM  HN ES       1915 37.35                             130   -0.77 9  152 106 
 TAM  HZ I        1915 40.34        54.4 0.22            128            152 106 
 OCA  HZ EP       1915 17.98                             128   -0.17 9  160 352 
 OCA  HN ES       1915 38.84                             128   -0.99 9  160 352 
 OCA  HZ I        1915 42.83       322.1 0.34            128            160 352 
 SPBC HZ EP       1915 18.10                             127   -0.56 9  166 220 
 SPBC HN ES       1915 40.36                             127   -0.37 9  166 220 
 SPBC HZ I        1915 42.46        87.4 0.10            127            166 220 
 ZAR  HZ EP       1915 22.52                             120   -0.21 8  207 292 
 ZAR  HN ES       1915 48.00                             120    0.01 8  207 292 
 ZAR  HZ I        1915 54.34       134.1 0.22            121            207 292 
 NOR  HZ EP       1915 25.50                             117   -0.61 8  238 235 
 NOR  HN ES       1915 53.72                             117   -0.27 8  238 235 
 NOR  HZ I        1915 59.24        61.3 0.32            116            238 235 
 SML  HZ EP   1   1915 26.31                             116   -0.42 6  245 334 
 SML  HN ES   2   1915 54.96                             116   -0.15 4  245 334 
 SML  HZ I        1915 57.73       123.2 0.08            116            245 334 
 CHI  HZ EP       1915 27.78                             116   -0.11 8  250 196 
 CHI  HN ES       1915 56.48                             116   -0.69 8  250 196 
 CHI  HZ I        1916  0.06        32.9 0.30            115            250 196 
 ROSC BZ EP       1915 29.22                             115    0.80 8  255 212 
 HEL  HZ EP       1915 31.42                             113    0.73 7  276 256 
 HEL  HE ES   2   1916  1.61                             113   -0.53 4  276 256 
 HEL  HZ I        1916  8.54        43.8 0.44            113            276 256 
 GUY2CHZ EP       1915 34.37                             111    0.29 7  305 235 
 GUY2CHN ES       1916  8.87                             111    0.69 7  305 235 
 GUY2CHZ I        1916 15.43        29.8 0.40                           305 235 
 LL2C HZ EP   2   1915 33.41                             111   -0.21 4  306 353 
 LL2C HN ES   2   1916  7.64                             111    0.28 4  306 353 
 PTGC HZ IP   4 C 1915 32.67                             110   -1.18 0  308 159 
 PTGC HN ES   4   1916  5.81                             110   -1.96 0  308 159 
 PTGC HZ I        1916 14.51        44.6 0.51            110            308 159 
 CRECREN ES   4   1916 18.67                             110    6.93 0  321 231 
 LL4C HN ES   2   1916 10.54                             109   -0.30 3  323 351 
 CBOC HZ EP       1915 37.92                             108    0.46 7  338 252 
 CBOC HN ES       1916 14.03                             108   -0.17 7  338 252 
 CBOC HZ I        1916 17.31        15.9 0.20            108            338 252 
 TOL  SZ EP       1915 39.36                             108    0.63 6  347 225 
 TOL  SN ES       1916 17.03                             108    0.56 6  347 225 
 TOL  SZ I        1916 25.65        23.2 0.38            108            347 225 
 ORTC HZ EP       1915 44.21                             105   -0.19 6  398 217 
 ORTC HE ES       1916 27.28                             105    0.73 6  398 217 
 ORTC HZ I        1916 32.74        20.7 0.54            105            398 217 
 SJC  HZ EP   4   1915 43.78                             105   -2.11 0  411 326 
 SJC  HN ES   4   1916 25.42                             105   -3.79 0  411 326 
                                                                                
