 2012  228 1259 55.4 L   6.735 -73.164138.0  RSN  8 0.4 1.9LRSN                1
 GAP=137        0.81       4.4     4.4  7.6 -0.1561E+01  0.1197E+02 -0.6728E-01E
 ACTION:UP  12-03-07 16:35 OP:epov STATUS:               ID:20120228125955 L   I
 2012-02-28-1257-59S.COL___194                                                 6
 STAT SP IPHASW D HRMM SECON CODA AMPLIT PERI AZIMU VELO AIN AR TRES W  DIS CAZ7
 BAR2 SZ EP       13 0 14.04                             173    0.0610 15.9 187 
 BAR2 SZ ES   1   13 0 28.71                             173    0.25 7 15.9 187 
 BAR2 SZ I        13 0 30.25        28.0 0.25                          15.9 187 
 BRR  HZ EP   1   13 0 16.17                             150    0.32 7 73.3 304 
 PAM  SZ EP       13 0 17.04                             147   -0.2110 84.3  37 
 PAM  SN ES   1   13 0 33.61                             147   -0.67 7 84.3  37 
 PAM  SZ I        13 0 36.07         9.0 0.49                          84.3  37 
 RUS  HZ EP       13 0 17.97                             144    0.0710 93.5 175 
 RUS  HZ I        13 0 18.87         8.5 0.10                          93.5 175 
 RUS  HN ES   2   13 0 35.96                             144    0.53 5 93.5 175 
 PTB  HZ EP   1   13 0 20.73                             131   -0.74 7  145 261 
 PTB  HN ES   1   13 0 41.55                             131   -0.23 7  145 261 
 OCA  SZ ES   1   13 0 46.69                             126    0.73 7  167 354 
 ZAR  HZ EP   1   13 0 28.10                             120    0.63 6  205 294 
 ZAR  HN ES   1   13 0 52.16                             120   -0.32 6  205 294 
 HEL  HZ EP   1   13 0 34.82                             113   -0.02 6  268 257 
 HEL  HN ES   2   13 1  5.78                             113    0.19 4  268 257 
 HEL  HZ I        13 1 13.12         6.3 0.30                           268 257 
                                                                                
