 2010  728 1008 26.3 L   6.779 -73.064144.6  RSN  5 0.3 1.2LRSN                1
 GAP=168        0.55       4.1     8.9  7.9 -0.2828E+01 -0.2228E+02 -0.6466E+01E
 Epicentro: LOS SANTOS - SANTANDER                                             3
 ACTION:UPD 10-12-01 15:20 OP:pat  STATUS:               ID:20100728100826 L   I
 2010-07-28-1006-01S.COL___123                                                 6
 STAT SP IPHASW D HRMM SECON CODA AMPLIT PERI AZIMU VELO AIN AR TRES W  DIS CAZ7
 BAR2 SZ EP   1   10 8 45.83                             170     0.1 7   25 212 
 BAR2 SZ ES   2   10 9  0.40                             170    -0.6 5   25 212 
 BAR2 SZ I        10 9  2.34         6.8 0.37                            25 212 
 BRR  HZ EP   1   10 8 47.54                             149    -0.3 7   80 297 
 BRR  HZ I        10 8 54.68         5.7 0.44                            80 297 
 BRR  HE ES   2   10 9  5.04                             149     0.4 5   80 297 
 RUS  HZ EP   1   10 8 49.81                             144     0.1 7   98 181 
 RUS  HE ES   2   10 9  8.25                             144     0.2 5   98 181 
 RUS  HZ I        10 9 11.32         1.6 0.31                            98 181 
 GUE  SZ EP   1   10 8 50.97                             139     0.0 7  117   8 
 GUE  SZ I        10 8 51.23         0.7 0.08                           117   8 
 GRA  SZ EP   1   10 8 51.36                             137     0.0 7  126  13 
 GRA  SZ ES   2   10 9 11.18                             137     0.2 5  126  13 
 GRA  SZ I        10 9 12.04         3.0 0.46                           126  13 
                                                                                
