 2010  728 1844 28.9 L   6.724 -73.162140.9  RSN  6 0.3 1.9LRSN                1
 GAP=158        0.72       5.3    11.4  9.9 -0.2464E+01 -0.3699E+02 -0.1520E+02E
 Epicentro: VILLANUEVA - SANTANDER                                             3
 ACTION:UPD 10-12-01 15:20 OP:pat  STATUS:               ID:20100728184428 L   I
 2010-07-28-1842-08S.COL___123                                                 6
 STAT SP IPHASW D HRMM SECON CODA AMPLIT PERI AZIMU VELO AIN AR TRES W  DIS CAZ7
 BAR2 SZ EP   1   1844 47.34                             174    -0.4 8   15 189 
 BAR2 SZ ES   2   1845  2.10                             174    -0.4 5   15 189 
 BAR2 SZ I        1845  3.13        16.3 0.17                            15 189 
 GIR2 SZ EP   1   1844 48.57                             164     0.3 8   39 355 
 BRR  HZ EP   1   1844 49.41                             151    -0.3 8   74 305 
 BRR  HE ES   2   1845  6.38                             151     0.5 5   74 305 
 BRR  HZ I        1845 11.08        28.3 0.17                            74 305 
 RUS  HZ EP   1   1844 51.99                             145     0.4 8   92 175 
 RUS  HE ES   2   1845  9.21                             145     0.0 5   92 175 
 RUS  HZ I        1845 10.77         7.6 0.35                            92 175 
 GUE  SZ EP   1   1844 53.58                             136    -0.3 8  125  12 
 GRA  SZ IP     C 1844 54.50                             134     0.110  134  17 
 GRA  SZ I        1844 55.87        14.6 0.21                           134  17 
 GRA  SZ ES   2   1845 14.64                             134     0.3 5  134  17 
                                                                                
