 2011 1028 1437 44.7 L   6.785 -73.099149.2  RSN  5 0.4 2.0LRSN                1
 GAP=143        0.76       5.0     7.1  7.3  0.3913E+00 -0.2559E+01  0.1030E+01E
 Epicentro: LOS SANTOS - SANTANDER                                             3
 ACTION:UPD 12-07-13 16:06 OP:ep   STATUS:               ID:20111028143744 L   I
 2011-10-28-1434-58S.COL___175                                                 6
 STAT SP IPHASW D HRMM SECON CODA AMPLIT PERI AZIMU VELO AIN AR TRES W  DIS CAZ7
 BAR2 SZ EP       1438  4.64                             171   -0.1310 23.2 203 
 BAR2 SZ I        1438  4.96        19.9 0.38                          23.2 203 
 BAR2 SZ ES   1   1438 19.72                             171   -0.68 7 23.2 203 
 PAM  SZ EP       1438  7.41                             152    0.2110 75.5  36 
 PAM  SN ES   1   1438 24.68                             152   -0.05 7 75.5  36 
 BRR  HZ EP       1438  6.55                             151    0.0010 76.5 298 
 BRR  HE ES   1   1438 23.98                             151    0.40 7 76.5 298 
 BRR  HZ I        1438 26.28        23.5 0.66                          76.5 298 
 RUS  HZ EP       1438  8.52                             145   -0.1610 98.7 179 
 RUS  HZ I        1438  9.90         6.7 0.52                          98.7 179 
 RUS  HE ES   1   1438 27.95                             145    0.58 7 98.7 179 
 ZAR  HE ES   3   1438 42.71                             122   -1.16 2  209 292 
 ZAR  HZ I        1438 48.89        17.0 0.40                           209 292 
                                                                                
