 2016 1228 1737 29.7 L   6.790 -73.163145.2  RSN  7 0.2 1.5LRSN                1
 GAP=135        0.50       2.6     2.6  3.4 -0.2021E+01  0.3434E+01 -0.2101E+00E
 Epicentro: LOS SANTOS - SANTANDER                                             3
 ACTION:UPD 17-01-11 20:20 OP:rebc STATUS:               ID:20161228173729 L   I
 OLDACT:REG 16-12-28 21:44 OP:cog  STATUS:               ID:20161228172746     3
 2016-12-28-1728-00M.COL___375                                                 6
 STAT SP IPHASW D HRMM SECON CODA AMPLIT PERI AZIMU VELO AIN AR TRES W  DIS CAZ7
 BAR2 EZ EP       1737 49.03                             171   -0.2010 21.9 186 
 BAR2 EZ ES       1738  4.70                             171    0.2310 21.9 186 
 BAR2 EZ I        1738  5.80         9.4 0.18            171           21.9 186 
 PAM  EZ EP       1737 52.11                             150    0.1310 79.4  40 
 PAM  EN ES       1738  9.26                             150   -0.0910 79.4  40 
 PAM  EZ I        1738 11.20         4.9 0.52            153           79.4  40 
 RUS  HZ EP       1737 53.21                             144   -0.1110 99.6 175 
 RUS  HN ES       1738 11.77                             144    0.0210 99.6 175 
 RUS  HZ I        1738 12.80         2.5 0.36            146           99.6 175 
 PTB  HZ EP       1737 56.19                             132   -0.25 9  146 259 
 PTB  HN ES       1738 17.09                             132   -0.20 9  146 259 
 PTB  HZ I        1738 20.46         3.5 0.16            133            146 259 
 ZAR  HZ EP       1738  2.21                             122    0.24 9  203 293 
 ZAR  HN ES   4   1738 24.04                             122   -3.11 0  203 293 
 NOR  HZ EP       1738  5.52                             119    0.36 8  233 234 
 NOR  HN ES       1738 32.90                             119    0.08 8  233 234 
 NOR  HZ I        1738 37.86         3.5 0.18            120            233 234 
 CHI  HZ EP       1738  7.11                             117   -0.09 8  247 195 
                                                                                
