 2017  828 1600 44.9 L   6.849 -73.140145.4  RSN 24 0.7 2.7LRSN                1
 GAP= 75        1.35       3.4     3.1  5.9 -0.6839E+00  0.4648E+01  0.2255E+01E
 Epicentro: LOS SANTOS - SANTANDER                                             3
 ACTION:UPD 17-09-04 20:25 OP:rebc STATUS:               ID:20170828160044 L   I
 OLDACT:UP  17-08-29 00:35 OP:dani STATUS:               ID:20170828155749d    3
 OLDACT:UP  17-08-29 00:35 OP:dani STATUS:               ID:20170828155749d    3
 OLDACT:UP  17-08-29 00:34 OP:dani STATUS:               ID:20170828155749d    3
 OLDACT:UP  17-08-29 00:33 OP:dani STATUS:               ID:20170828155749d    3
 OLDACT:UP  17-08-29 00:33 OP:dani STATUS:               ID:20170828155749d    3
 OLDACT:DUP 17-08-29 00:23 OP:dani STATUS:               ID:20170828155749d    3
 2017-08-28-1558-00M.COL___414                                                 6
 STAT SP IPHASW D HRMM SECON CODA AMPLIT PERI AZIMU VELO AIN AR TRES W  DIS CAZ7
 BAR2 EZ EP     D 16 1  4.61                             169    0.0210 28.8 189 
 BAR2 EZ ES       16 1 19.53                             169   -0.4410 28.8 189 
 BAR2 EZ I        16 1 21.02       195.6 0.20            168           28.8 189 
 BRR  HZ IP     C 16 1  6.45                             153    0.5610 69.3 294 
 BRR  HN ES       16 1 22.97                             153    0.7010 69.3 294 
 BRR  HZ I        16 1 26.70       134.7 0.32            153           69.3 294 
 PAM  EZ EP       16 1  7.49                             152    0.6910 72.9  42 
 PAM  EE ES       16 1 24.48                             152    0.5910 72.9  42 
 PAM  EZ I        16 1 26.59       168.9 0.56            155           72.9  42 
 RUS  HZ EP       16 1  8.50                             143   -0.4910  106 177 
 RUS  HN ES       16 1 26.92                             143   -0.8910  106 177 
 RUS  HZ I        16 1 28.18        48.5 0.24            143            106 177 
 TAM  HZ IP     D 16 1 12.92                             130    0.30 9  156 107 
 TAM  HN ES       16 1 34.59                             130    0.34 9  156 107 
 TAM  HZ I        16 1 44.18        17.1 0.22            133            156 107 
 SPBC HZ EP       16 1 13.75                             128   -0.04 9  168 218 
 SPBC HN ES       16 1 35.67                             128   -0.68 9  168 218 
 SPBC HZ I        16 1 42.79        75.5 0.24            129            168 218 
 YPLC HZ EP     D 16 1 14.98                             126   -0.11 9  181 152 
 YPLC HN ES       16 1 38.81                             126    0.15 9  181 152 
 YPLC HZ I        16 1 41.60        45.0 0.34            128            181 152 
 ZAR  HZ EP       16 1 17.75                             122    0.60 9  203 291 
 ZAR  HN ES       16 1 43.11                             122    0.78 9  203 291 
 ZAR  HZ I        16 1 49.30       120.3 0.22            123            203 291 
 TABC EZ EP   3   16 1 22.86                             119    1.72 2  235 210 
 TABC EZ ES   4   16 1 52.03                             119    2.60 0  235 210 
 TABC EZ I        16 1 55.41        40.9 0.48            120            235 210 
 NOR  HZ EP       16 1 21.02                             118    0.04 8  238 233 
 NOR  HN ES       16 1 48.56                             118   -0.59 8  238 233 
 NOR  HZ I        16 1 53.77        36.0 0.16            119            238 233 
 CHI  HZ EP       16 1 22.98                             117   -0.17 8  254 195 
 CHI  HE ES       16 1 52.38                             117   -0.62 8  254 195 
 CHI  HZ I        16 1 59.56        18.8 0.50            118            254 195 
 ROSC BZ EP   3   16 1 25.31                             116    1.79 2  258 211 
 ROSC BE ES       16 1 53.72                             116    0.05 8  258 211 
 ROSC BZ I        16 2  2.37        27.2 0.30            117            258 211 
 HEL  HZ EP   3   16 1 26.67                             115    1.38 2  274 255 
 HEL  HE ES       16 1 56.29                             115   -0.52 8  274 255 
 HEL  HZ I        16 2  4.90        21.5 0.56            115            274 255 
 URE  HZ EP       16 1 25.41                             114   -0.36 7  282 291 
 URE  HE ES       16 1 56.54                             114   -1.13 7  282 291 
 URE  HZ I        16 2  9.90        46.8 0.18            115            282 291 
 GUY2CHZ EP       16 1 29.05                             112    0.17 7  305 234 
 GUY2CHE ES       16 2  4.02                             112    0.81 7  305 234 
 GUY2CHZ I        16 2  9.58        20.4 0.54                           305 234 
 VIL  EZ EP   3   16 1 27.90                             112   -1.00 2  309 191 
 VIL  EE ES       16 2  4.11                             112    0.87 7  309 191 
 VIL  EZ I        16 2  5.59        28.2 0.46            113            309 191 
 PTGC HZ EP   3   16 1 27.72                             111   -1.55 2  314 159 
 PTGC HN ES   4   16 2  1.24                             111   -2.66 0  314 159 
 PTGC HZ I        16 2  3.62        29.8 0.32            112            314 159 
 ELA  HZ EP   3   16 1 34.03                             110    1.86 2  333 229 
 ELA  HE ES   4   16 2 13.87                             110    4.81 0  333 229 
 ELA  HZ I        16 2 16.21        17.8 0.38            111            333 229 
 DBB  EZ EP       16 1 33.12                             109    0.75 7  340 273 
 DBB  EN ES       16 2  8.30                             109   -1.11 7  340 273 
 DBB  EZ I        16 2 11.53        19.5 0.54            110            340 273 
 SDV  BZ EP       16 1 33.76                             108   -0.69 6  356  51 
 SDV  B2 ES       16 2 11.58                             108   -1.54 6  356  51 
 SDV  BZ I        16 2 16.17        13.6 0.06            110            356  51 
 PRA  HZ EP       16 1 38.74                             106   -0.24 6  397 209 
 PRA  HN ES       16 2 20.50                             106   -0.67 6  397 209 
 PRA  HZ I        16 2 27.65        21.7 0.74            107            397 209 
 ORTC HZ EP       16 1 39.48                             106    0.14 6  400 216 
 ORTC HE ES       16 2 23.85                             106    2.02 6  400 216 
 ORTC HZ I        16 2 25.40         7.2 0.26            107            400 216 
 SJC  HZ EP   3   16 1 38.75                             106   -1.18 1  405 326 
 SJC  HN ES   4   16 2 20.25                             106   -2.62 0  405 326 
 SJC  HZ I        16 2 24.43        15.3 0.60            107            405 326 
 PAL  HZ EP       16 1 40.58                             106    0.16 6  409 238 
 PAL  HE ES       16 2 22.78                             106   -0.96 6  409 238 
 PAL  HZ I        16 2 29.39         6.8 0.59            106            409 238 
                                                                                
