 2017 1128 1851 56.2 L   6.548 -73.557 96.8  RSN  4 0.1 1.0LRSN                1
 GAP=138        0.39       1.9     1.4  4.3 -0.8865E+00  0.1120E+01 -0.1121E+01E
 Epicentro: EL CARMEN - SANTANDER                                              3
 ACTION:UPD 17-12-12 20:01 OP:rebc STATUS:               ID:20171128185156 L   I
 OLDACT:REG 17-11-28 20:35 OP:dhb  STATUS:               ID:20171128184230     3
 2017-11-28-1848-00M.COL___491                                                 6
 STAT SP IPHASW D HRMM SECON CODA AMPLIT PERI AZIMU VELO AIN AR TRES W  DIS CAZ7
 RUS  HZ EP       1852 14.54                             135   -0.0410 89.5 144 
 RUS  HN ES       1852 28.91                             135    0.0310 89.5 144 
 RUS  HZ I        1852 31.96         1.9 0.42            142           89.5 144 
 PTB  HZ EP       1852 14.66                             131   -0.1810 99.5 269 
 PTB  HE ES       1852 29.47                             131    0.1210 99.5 269 
 PTB  HZ I        1852 33.94         1.6 0.30            136           99.5 269 
 PAM  EZ EP       1852 18.51                             123    0.1310  129  47 
 PAM  EN ES       1852 35.55                             123   -0.0910  129  47 
 PAM  EZ I        1852 39.33         3.8 0.30            130            129  47 
 NOR  HZ EP       1852 23.70                             114    0.16 9  182 233 
 NOR  HE ES       1852 44.70                             114   -0.13 9  182 233 
 NOR  HZ I        1852 48.28         1.6 0.32            119            182 233 
                                                                                
