 2010  128 1924 54.9 L   6.849 -73.153144.0  RSN 10 0.7 2.8LRSN                1
 GAP=183        1.10       6.8    14.9 11.6  0.1454E+02  0.1030E+03 -0.2579E+00E
 Epicentro: LOS SANTOS - SANTANDER                                             3
 ACTION:UP  10-08-24 09:46 OP:vdl  STATUS:               ID:20100128192454 L   I
 2010-01-28-1923-00S.COL___094                                                 6
 STAT SP IPHASW D HRMM SECON CODA AMPLIT PERI AZIMU VELO SNR AR TRES W  DIS CAZ7
 BAR2 SZ EP       1925 14.79                             168     0.310   29 187 
 BAR2 SZ ES   1   1925 29.93                             168     0.2 7   29 187 
 RUS  BZ IP       1925 18.76                             142    -0.210  106 176 
 RUS  BN ES   1   1925 36.96                             142    -0.7 7  106 176 
 RUS  BZ I        1925 38.81        96.0 0.33                           106 176 
 OCA  SZ EP   2   1925 23.27                             130     0.7 5  155 353 
 CHI  HZ EP   1   1925 32.79                             116    -0.3 6  254 195 
 CHI  HZ I        1925 33.92        37.6 0.40                           254 195 
 CHI  HN ES   1   1926  3.63                             116     0.8 6  254 195 
 ROSC BZ EP   2   1925 34.44                             116     1.0 4  257 210 
 HEL  HZ EP   2   1925 36.47                             114     1.3 4  273 255 
 HEL  HZ I        1926 13.17        21.3 0.49                           273 255 
 DBB  SZ EP   2   1925 43.22                             109     1.0 3  338 273 
 MON  HZ EP   1   1925 41.92                             109    -1.5 5  349 308 
 MON  HE ES   2   1926 20.46                             109    -0.7 3  349 308 
 ANIL BZ EP   3   1925 45.47                             108     0.4 2  361 224 
 PRA  HZ EP   1   1925 48.21                             106    -0.7 4  396 209 
 PRA  HE ES   1   1926 30.53                             106    -0.5 4  396 209 
 PRA  HZ I        1926 36.60        40.6 0.79                           396 209 
                                                                                
