 2011 1228 1044 48.6 L   7.479 -73.119  6.0  RSN  8 0.4 2.0LRSN                1
 GAP=123        0.69       2.5     2.6  5.7  0.7550E+00  0.6345E+01  0.2359E+01E
 Epicentro: EL PLAYON - SANTANDER                                              3
 ACTION:UPD 12-07-13 16:19 OP:ep   STATUS:               ID:20111228104448 L   I
 2011-12-28-1040-00M.COL___186                                                 6
 STAT SP IPHASW D HRMM SECON CODA AMPLIT PERI AZIMU VELO AIN AR TRES W  DIS CAZ7
 GIR2 SZ EP   1   1044 55.81                              92   -0.32 7 45.0 190 
 PAM  SZ EP       1044 57.17                              92    0.1010 48.8 108 
 PAM  SE ES   2   1045  3.56                              92   -0.15 5 48.8 108 
 BRR  HZ EP   1   1045  1.32                              91    0.45 7 77.3 238 
 BRR  HE ES   2   1045 10.69                              91    0.21 5 77.3 238 
 BRR  HZ I        1045 12.47        34.0 0.13                          77.3 238 
 OCA  SZ EP   1   1045  2.71                              91    0.23 7 86.8 345 
 OCA  SZ ES   2   1045 12.48                              91   -0.85 5 86.8 345 
 OCA  SZ I        1045 16.63        78.4 0.46                          86.8 345 
 BAR2 SZ EP   1   1045  3.99                              91   -0.32 7 98.3 184 
 BAR2 SZ ES   2   1045 15.92                              91   -0.67 5 98.3 184 
 BAR2 SZ I        1045 16.82        25.4 0.29                          98.3 184 
 RUS  HZ EP   1   1045 16.54                              56    0.36 7  176 179 
 RUS  HZ I        1045 18.40        12.7 0.14                           176 179 
 RUS  HN ES   2   1045 37.76                              56    0.04 4  176 179 
 PTB  HZ EP   1   1045 16.59                              56    0.35 7  181 235 
 PTB  HN ES   2   1045 37.32                              56   -0.51 4  181 235 
 ZAR  HZ EP   1   1045 18.05                              56    0.40 7  192 271 
 ZAR  HN ES   2   1045 39.55                              56   -0.78 4  192 271 
 ZAR  HZ I        1045 42.18        22.1 0.29                           192 271 
                                                                                
