 2013  328 1004 52.8 L   7.555 -73.201146.0  RSN  9 0.4 2.2LRSN                1
 GAP=123        0.96       4.8     4.1  6.2 -0.2344E+01  0.7671E+01 -0.4777E+01E
 Epicentro: EL PLAYON - SANTANDER                                              3
 ACTION:UPD 13-04-09 14:05 OP:ep   STATUS:               ID:20130328100452 L   I
 2013-03-28-1000-00M.COL___245                                                 6
 STAT SP IPHASW D HRMM SECON CODA AMPLIT PERI AZIMU VELO AIN AR TRES W  DIS CAZ7
 GIR2 SZ EP       10 5 13.28                             159    0.0410 52.7 179 
 GIR2 SZ ES       10 5 29.32                             159    0.1310 52.7 179 
 GIR2 SZ I        10 5 30.49        15.7 0.12            157           52.7 179 
 PAM  SZ EP       10 5 14.08                             157   -0.0210 60.2 113 
 PAM  SN ES       10 5 30.67                             157   -0.0510 60.2 113 
 PAM  SN I        10 5 31.31        58.2 0.54            158           60.2 113 
 BRR  HZ IP     C 10 5 14.49                             151    0.3110 75.1 229 
 BRR  HN ES       10 5 31.66                             151    0.7910 75.1 229 
 OCA  HZ EP       10 5 14.27                             151   -0.2310 76.7 350 
 OCA  HN ES   1   10 5 31.01                             151   -0.44 7 76.7 350 
 OCA  HN I        10 5 32.05        55.9 0.18            152           76.7 350 
 BAR2 SZ EP       10 5 16.64                             142    0.0010  107 179 
 BAR2 SZ ES       10 5 35.09                             142   -0.1510  107 179 
 BAR2 SZ I        10 5 36.31        37.3 0.28            140            107 179 
 PTB  HZ EP   1   10 5 22.61                             127   -0.07 7  178 231 
 PTB  HN ES       10 5 44.86                             127   -1.14 9  178 231 
 PTB  HN I        10 5 47.94        15.1 0.22            124            178 231 
 ZAR  HZ EP       10 5 23.15                             126    0.03 9  183 268 
 ZAR  HN ES       10 5 47.12                             126    0.34 9  183 268 
 ZAR  HN I        10 5 47.52        19.9 0.22            124            183 268 
 TAM  HZ EP   2   10 5 24.86                             123    0.09 4  199 128 
 HEL  HZ EP   2   10 5 36.50                             113    0.56 4  298 240 
 HEL  HN ES   1   10 6  9.53                             113   -0.07 5  298 240 
 HEL  HN I        10 6 24.10         3.1 0.36            112            298 240 
                                                                                
