 2011 1128 1358 57.9 L   6.479 -73.687102.8  RSN  5 0.2 1.8LRSN                1
 GAP=125        0.40       2.8     3.4  5.3 -0.1375E+01  0.4296E+01  0.1941E+01E
 Epicentro: SANTA HELENA DEL OPON - SANTANDER                                  3
 ACTION:UPD 12-07-13 16:12 OP:ep   STATUS:               ID:20111128135857 L   I
 2011-11-28-1354-17S.COL___160                                                 6
 STAT SP IPHASW D HRMM SECON CODA AMPLIT PERI AZIMU VELO AIN AR TRES W  DIS CAZ7
 BAR2 SZ EP       1359 14.16                             148    0.1810 57.1  77 
 BAR2 SZ I        1359 14.62        14.0 0.21                          57.1  77 
 BAR2 SZ ES   1   1359 26.69                             148    0.17 7 57.1  77 
 BRR  HE ES   2   1359 27.22                             143   -0.20 5 69.5 358 
 BRR  HN I        1359 29.48        51.9 0.17                          69.5 358 
 RUS  HZ EP       1359 17.07                             135    0.0110 93.1 134 
 RUS  HN ES   1   1359 31.79                             135   -0.22 7 93.1 134 
 RUS  HZ I        1359 33.72         5.6 0.29                          93.1 134 
 PAM  SZ EP   2   1359 21.97                             121   -0.09 5  145  49 
 PAM  SN ES   2   1359 40.65                             121   -0.26 5  145  49 
 NOR  SN ES   2   1359 43.70                             117   -0.16 5  166 232 
                                                                                
