 2010  728 1937 11.5 L   6.753 -73.084147.9  RSN 10 0.4 2.5LRSN                1
 GAP=172        0.72       4.7     7.3  6.7 -0.8502E+01  0.1428E+02  0.7425E+01E
 Epicentro: LOS SANTOS - SANTANDER                                             3
 ACTION:UPD 10-12-01 15:20 OP:pat  STATUS:               ID:20100728193711 L   I
 2010-07-28-1934-08S.COL___122                                                 6
 STAT SP IPHASW D HRMM SECON CODA AMPLIT PERI AZIMU VELO AIN AR TRES W  DIS CAZ7
 BAR2 SZ EP   1   1937 31.00                             172    -0.4 7   21 212 
 BAR2 SZ ES   2   1937 46.34                             172    -0.5 5   21 212 
 BAR2 SZ I        1937 47.74        88.5 0.15                            21 212 
 GIR2 SZ EP   1   1937 32.10                             165     0.5 7   38 341 
 GIR2 SZ ES   2   1937 48.04                             165     0.7 5   38 341 
 BRR  HZ EP   1   1937 32.93                             150    -0.5 7   80 300 
 BRR  HN ES   2   1937 50.41                             150     0.0 5   80 300 
 BRR  HZ I        1937 51.98        51.1 0.14                            80 300 
 RUS  HZ EP   1   1937 34.89                             146    -0.2 7   95 180 
 RUS  HN ES   2   1937 53.32                             146    -0.2 5   95 180 
 RUS  HZ I        1937 54.90        19.4 0.37                            95 180 
 GUE  SZ EP   1   1937 37.03                             139     0.3 7  120   8 
 CHI  HZ EP   1   1937 49.09                             118     0.1 6  245 197 
 CHI  HZ I        1937 49.64        11.5 0.18                           245 197 
 CHI  HN ES   2   1938 19.27                             118     1.0 4  245 197 
 HEL  HZ EP   1   1937 52.20                             115    -0.2 6  277 257 
 HEL  HZ I        1938 30.50        14.1 0.27                           277 257 
 GUY  SZ EP   1   1937 55.89                             112     0.3 5  304 236 
 GUY  SE ES   2   1938 30.06                             112     0.2 4  304 236 
 GUY  SZ I        1938 41.81        39.7 0.51                           304 236 
 RREF HZ EP   1   1937 58.01                             111     0.0 5  324 231 
 RREF HN ES   2   1938 34.24                             111     0.0 3  324 231 
 RREF HZ I        1938 41.53        13.2 0.30                           324 231 
 PRA  HZ EP   1   1938  4.65                             107    -0.3 4  391 211 
 PRA  HE ES   2   1938 46.54                             107    -0.1 3  391 211 
 PRA  HZ I        1938 52.71        15.8 0.32                           391 211 
                                                                                
