 2016 1228 1921 13.1 L   6.772 -73.171141.7  RSN  9 0.6 1.7LRSN                1
 GAP=135        1.50       6.0     6.1  9.6 -0.1802E+00  0.1413E+02  0.1781E+02E
 Epicentro: LOS SANTOS - SANTANDER                                             3
 ACTION:UPD 17-01-11 20:20 OP:rebc STATUS:               ID:20161228192113 L   I
 OLDACT:REG 16-12-28 21:52 OP:cog  STATUS:               ID:20161228191746     3
 2016-12-28-1918-00M.COL___369                                                 6
 STAT SP IPHASW D HRMM SECON CODA AMPLIT PERI AZIMU VELO AIN AR TRES W  DIS CAZ7
 BAR2 EZ EP       1921 32.17                             172    0.0310 20.0 184 
 BAR2 HE ES       1921 47.37                             172    0.3510 20.0 184 
 BAR2 EZ I        1921 48.55        17.7 0.18            167           20.0 184 
 BRR  HE ES       1921 50.55                             152    0.7110 70.3 302 
 PAM  EZ EP       1921 35.09                             149   -0.0210 81.5  40 
 PAM  EE ES       1921 51.66                             149   -0.6410 81.5  40 
 PAM  EZ I        1921 52.69         6.4 0.18            153           81.5  40 
 RUS  HZ EP       1921 36.21                             144   -0.0110 97.8 174 
 RUS  HN ES       1921 54.50                             144    0.2310 97.8 174 
 RUS  HZ I        1921 56.17         3.6 0.28            142           97.8 174 
 PTB  HZ EP       1921 39.91                             132    0.51 9  144 260 
 PTB  HN ES       1921 59.30                             132   -0.64 9  144 260 
 PTB  HZ I        1922  2.44         9.5 0.14            132            144 260 
 ZAR  HE ES       1922  9.21                             122   -0.88 9  203 293 
 NOR  HZ EP       1921 48.57                             118    0.44 8  231 235 
 NOR  HN ES       1922 16.19                             118    0.72 8  231 235 
 NOR  HZ I        1922 21.31         6.8 0.16            118            231 235 
 CHI  HZ EP       1921 50.63                             117    0.49 8  245 195 
 CHI  HN ES       1922 17.53                             117   -1.53 8  245 195 
 CHI  HZ I        1922 26.91         3.2 0.44            116            245 195 
 GUY2CHZ EP   4   1921 57.71                             112    1.68 0  297 235 
 GUY2CHN ES   4   1922 29.99                             112    0.45 0  297 235 
 GUY2CHZ I        1922 35.18         2.1 0.36                           297 235 
                                                                                
