 2016 1028 1452 29.9 L   6.755 -73.121144.0  RSN 10 0.3 1.6LRSN                1
 GAP=142        0.76       3.1     3.9  4.1 -0.4749E+01  0.1301E+01  0.3834E+01E
 Epicentro: LOS SANTOS - SANTANDER                                             3
 ACTION:UPD 16-11-09 19:23 OP:rebc STATUS:               ID:20161028145229 L   I
 OLDACT:UP  16-10-29 00:29 OP:edw  STATUS:               ID:20161028144749     3
 OLDACT:REG 16-10-28 20:36 OP:edw  STATUS:               ID:20161028144749     3
 2016-10-28-1448-00M.COL___349                                                 6
 STAT SP IPHASW D HRMM SECON CODA AMPLIT PERI AZIMU VELO AIN AR TRES W  DIS CAZ7
 BAR2 EZ EP       1452 49.19                             172   -0.0910 19.3 201 
 BAR2 EZ ES       1453  4.68                             172    0.3210 19.3 201 
 BAR2 EZ I        1453  5.72        12.6 0.26            169           19.3 201 
 BRR  HZ EP       1452 51.20                             150    0.0210 76.0 301 
 BRR  HN ES       1453  8.04                             150    0.3010 76.0 301 
 PAM  EZ EP       1452 52.06                             150   -0.0410 79.6  36 
 PAM  EN ES       1453  9.11                             150   -0.2710 79.6  36 
 PAM  EZ I        1453 11.30         6.4 0.54            153           79.6  36 
 RUS  HZ EP       1452 53.24                             145    0.0910 95.5 178 
 RUS  HN ES       1453 10.75                             145   -0.5110 95.5 178 
 RUS  HZ I        1453 12.76         2.1 0.26            144           95.5 178 
 PTB  HZ EP   9   1452 56.30                             131   -0.63 0  150 261 
 PTB  HN ES       1453 16.77                             131   -0.58 9  150 261 
 PTB  HZ I        1453 18.20         2.6 0.14            131            150 261 
 SPBC HZ EP       1452 58.13                             129    0.02 9  161 221 
 SPBC HN ES       1453 20.15                             129    0.07 9  161 221 
 SPBC HZ I        1453 24.95         9.0 0.24            129            161 221 
 NOR  HZ EP       1453  5.05                             118   -0.45 8  234 236 
 NOR  HN ES       1453 32.98                             118   -0.26 8  234 236 
 NOR  HZ I        1453 40.73         2.8 0.14            118            234 236 
 CHI  HZ EP       1453  7.33                             117    0.23 8  245 196 
 CHI  HN ES       1453 36.65                             117    0.56 8  245 196 
 GUY2CHZ EP       1453 13.75                             112    0.35 7  301 236 
 GUY2CHN ES   4   1453 51.91                             112    4.61 0  301 236 
 GUY2CHZ I        1453 55.38         2.0 0.32                           301 236 
 PRA  HZ EP       1453 23.02                             106   -0.03 6  389 210 
 PRA  HN ES       1454  4.20                             106   -0.29 6  389 210 
 PRA  HZ I        1454 11.37         2.4 0.32            107            389 210 
 SJC  HZ EP   4   1453 23.35                             105   -2.75 0  415 327 
 SJC  HN ES   4   1454  6.51                             105   -3.40 0  415 327 
                                                                                
