 2013  328 1822 59.2 L   6.785 -73.131151.3  RSN  8 0.4 2.2LRSN                1
 GAP=139        0.85       3.5     4.4  5.5  0.7646E+00  0.5504E+01  0.2256E+01E
 Epicentro: LOS SANTOS - SANTANDER                                             3
 ACTION:UPD 13-04-09 14:05 OP:ep   STATUS:               ID:20130328182259 L   I
 2013-03-28-1820-00M.COL___245                                                 6
 STAT SP IPHASW D HRMM SECON CODA AMPLIT PERI AZIMU VELO AIN AR TRES W  DIS CAZ7
 BAR2 SZ EP       1823 19.27                             171   -0.1810 22.1 195 
 BAR2 SZ ES       1823 35.22                             171   -0.0510 22.1 195 
 BAR2 SZ I        1823 36.70        24.9 0.18            169           22.1 195 
 GIR2 SZ EP   1   1823 19.44                             167   -0.12 7 33.2 348 
 BRR  HZ EP       1823 21.23                             153    0.1810 73.4 299 
 BRR  HN ES       1823 38.84                             153    0.7310 73.4 299 
 BRR  HN I        1823 39.16        50.4 0.26            151           73.4 299 
 PAM  SZ IP     C 1823 22.19                             152    0.1910 77.6  38 
 PAM  SN ES       1823 39.41                             152   -0.3910 77.6  38 
 PAM  SN I        1823 40.76        38.6 0.44            155           77.6  38 
 RUS  HZ EP       1823 23.11                             145   -0.2510 98.9 177 
 RUS  HN ES       1823 42.32                             145    0.1010 98.9 177 
 RUS  HN I        1823 43.39        13.0 0.34            146           98.9 177 
 PTB  HZ EP   1   1823 26.17                             133   -0.55 7  149 260 
 PTB  HN ES   1   1823 47.69                             133   -0.51 7  149 260 
 PTB  HN I        1823 52.77        37.1 0.38            132            149 260 
 ZAR  HZ EP       1823 32.50                             123    0.30 8  206 292 
 ZAR  HN ES   1   1823 57.38                             123   -0.58 6  206 292 
 ZAR  HN I        1824  2.69        18.6 0.54            123            206 292 
 CHI  HZ EP   1   1823 37.45                             118    0.38 6  248 196 
 CHI  HN ES       1824  6.84                             118    0.22 8  248 196 
 CHI  HN I        1824  9.08         7.1 0.32            119            248 196 
                                                                                
