 2013  328 1244 29.3 L   6.781 -73.185146.0  RSN  6 0.4 1.9LRSN                1
 GAP=232        0.91       5.1     6.1  7.2  0.1498E+02  0.5589E+01  0.7751E+01E
 Epicentro: LOS SANTOS - SANTANDER                                             3
 ACTION:UPD 13-04-09 14:05 OP:ep   STATUS:               ID:20130328124429 L   I
 2013-03-28-1240-00M.COL___245                                                 6
 STAT SP IPHASW D HRMM SECON CODA AMPLIT PERI AZIMU VELO AIN AR TRES W  DIS CAZ7
 BAR2 SZ EP       1244 48.70                             171   -0.2010 20.9 179 
 BAR2 SZ ES   1   1245  3.99                             171   -0.20 7 20.9 179 
 BAR2 SZ I        1245  7.01        14.0 0.50            168           20.9 179 
 BRR  HZ EP       1244 50.34                             154    0.0310 68.5 302 
 BRR  HN ES       1245  7.32                             154    0.6110 68.5 302 
 BRR  HN I        1245  7.61        34.7 0.30            153           68.5 302 
 RUS  HZ EP       1244 52.96                             144    0.0210 98.9 173 
 RUS  HN ES       1245 11.23                             144   -0.1610 98.9 173 
 RUS  HN I        1245 13.08         8.3 0.40            144           98.9 173 
 PTB  HZ EP       1244 55.21                             133   -0.64 9  143 259 
 PTB  HN ES       1245 16.26                             133   -0.31 9  143 259 
 PTB  HN I        1245 21.62        10.1 0.36            133            143 259 
 ZAR  HN ES   1   1245 26.72                             123    0.24 6  201 293 
 CHI  HZ EP   1   1245  7.26                             118    0.61 6  245 194 
 CHI  HN ES       1245 36.31                             118    0.51 8  245 194 
 CHI  HN I        1245 38.90         4.6 0.34            119            245 194 
                                                                                
