 2010  828 1004 24.9 L   6.390 -72.995179.7  RSN 10 0.3 2.0LRSN                1
 GAP=183        0.83       4.8     8.0  6.3 -0.1318E+01 -0.1043E+02 -0.1007E+02E
 Epicentro: MOGOTES - SANTANDER                                                3
 ACTION:UP  10-09-07 10:58 OP:vdl  STATUS:               ID:20100828100424 L   I
 2010-08-28-1000-12S.COL___120                                                 6
 STAT SP IPHASW D HRMM SECON CODA AMPLIT PERI AZIMU VELO SNR AR TRES W  DIS CAZ7
 BAR2 SZ EP       10 4 48.48                             170    -0.310   31 317 
 BAR2 SZ ES   1   10 5  6.91                             170    -0.4 7   31 317 
 BAR2 SZ I        10 5  8.73        45.8 0.36                            31 317 
 RUS  HZ EP       10 4 50.11                             162     0.210   56 190 
 RUS  HN ES       10 5  9.52                             162     0.210   56 190 
 RUS  HZ I        10 5 10.58        17.7 0.08                            56 190 
 BTL  SZ EP       10 4 49.78                             159    -0.110   66 333 
 BTL  SZ ES   2   10 5  9.06                             159    -0.3 5   66 333 
 GIR2 SZ EP   1   10 4 50.20                             155    -0.2 7   79 344 
 BRR  HZ EP       10 4 52.10                             147    -0.110  112 315 
 BRR  HZ I        10 4 52.33        19.9 0.22                           112 315 
 BRR  HN ES       10 5 13.89                             147     0.510  112 315 
 BTN  SZ EP       10 4 53.27                             144    -0.310  126 355 
 BTN  SZ I        10 5 18.12        32.6 0.26                           126 355 
 GUE  SZ EP       10 4 56.56                             137     0.4 9  159   3 
 GUE  SZ I        10 4 58.32         1.5 0.21                           159   3 
 GRA  SZ EP   1   10 4 56.94                             135     0.4 7  167   7 
 OCA  SZ EP       10 5  0.32                             129     0.0 8  208 350 
 OCA  SZ ES   2   10 5 27.20                             129    -0.7 4  208 350 
 OCA  SZ I        10 5 32.15         6.4 0.08                           208 350 
 RREF HN ES   1   10 5 47.01                             118    -0.4 5  308 238 
 RREF HZ I        10 5 50.48         1.8 1.66                           308 238 
                                                                                
