 2013  728 1939 11.8 L   6.816 -73.173141.8  RSN 12 0.4 2.6LRSN                1
 GAP=132        0.81       2.5     3.4  5.1 -0.1632E+01  0.6229E+01 -0.1457E+01E
 Epicentro: LOS SANTOS - SANTANDER                                             3
 ACTION:UPD 13-08-12 10:40 OP:ep   STATUS:               ID:20130728193911 L   I
 OLDACT:UP  13-07-28 17:22 OP:mh   STATUS:               ID:20130728193740     3
 OLDACT:REG 13-07-28 17:17 OP:mh   STATUS:               ID:20130728193740     3
 2013-07-28-1937-40M.COL___236                                                 6
 STAT SP IPHASW D HRMM SECON CODA AMPLIT PERI AZIMU VELO AIN AR TRES W  DIS CAZ7
 BAR2 SZ EP       1939 31.08                             170    0.0910 24.7 182 
 BAR2 SZ ES   1   1939 45.53                             170   -0.42 7 24.7 182 
 BAR2 SZ I        1939 47.47        31.1 0.46            169           24.7 182 
 GIR2 SZ EP   1   1939 31.09                             168    0.14 7 29.2 355 
 GIR2 SZ ES   1   1939 45.68                             168   -0.20 7 29.2 355 
 GIR2 SZ I        1939 48.19        53.2 0.24            167           29.2 355 
 BRR  HZ IP     C 1939 32.84                             153    0.5110 67.8 298 
 BRR  HN ES   1   1939 49.00                             153    0.66 7 67.8 298 
 BRR  HN I        1939 50.11       264.1 0.30            150           67.8 298 
 PAM  SZ EP   1   1939 34.05                             150    0.41 7 78.0  42 
 PAM  SN ES       1939 50.61                             150   -0.0610 78.0  42 
 PAM  SN I        1939 52.27        50.6 0.26            154           78.0  42 
 RUS  HZ EP   1   1939 35.06                             142   -0.25 7  103 174 
 RUS  HN ES       1939 53.59                             142   -0.0610  103 174 
 RUS  HZ I        1939 56.03        21.5 0.34            145            103 174 
 PTB  HZ EP       1939 37.62                             132   -0.59 9  145 258 
 PTB  HN ES       1939 58.40                             132   -0.42 9  145 258 
 PTB  HZ I        1940  4.11        31.8 0.24            131            145 258 
 OCA  HZ EP   1   1939 39.00                             129   -0.61 7  158 354 
 OCA  HN ES   1   1940  1.78                             129    0.47 7  158 354 
 OCA  HN I        1940  3.66       133.1 0.22            131            158 354 
 SPBC HZ EP   1   1939 40.14                             128    0.19 7  163 218 
 SPBC HN ES       1940  2.03                             128    0.12 9  163 218 
 SPBC HZ I        1940  5.71        25.9 0.30            129            163 218 
 ZAR  HZ EP   1   1939 44.24                             122    0.60 6  201 292 
 ZAR  HE ES       1940  8.45                             122   -0.02 9  201 292 
 ZAR  HZ I        1940 14.33        49.8 0.32            122            201 292 
 NOR  HZ EP   1   1939 47.29                             118    0.14 6  233 234 
 NOR  HN ES       1940 14.95                             118    0.22 8  233 234 
 NOR  HN I        1940 22.67        71.8 0.18            119            233 234 
 SML  HZ EP   1   1939 47.61                             117   -0.29 6  241 336 
 SML  HN ES       1940 15.69                             117   -0.37 8  241 336 
 SML  HN I        1940 20.13        85.9 0.10            118            241 336 
 GUY2CHZ EP   4   1939 56.23                             112    1.16 0  300 234 
 GUY2CHN ES   4   1940 31.88                             112    3.06 0  300 234 
 RREF HZ EP   4   1939 59.23                             110    1.58 0  321 229 
 RREF HN ES   4   1940 36.86                             110    3.45 0  321 229 
 SJC  HZ EP   4   1940  4.82                             105   -2.05 0  406 327 
 SJC  HN ES   4   1940 45.29                             105   -4.54 0  406 327 
 SJC  HN I        1940 53.68         8.5 0.28            106            406 327 
                                                                                
