 2010  628 1650 48.9 L   6.765 -73.081142.3  RSN  6 0.3 1.9LRSN                1
 GAP=164        0.67       3.7     7.3  6.2  0.8134E+00 -0.4765E+01 -0.2326E+01E
 Epicentro: LOS SANTOS - SANTANDER                                             3
 ACTION:UP  10-08-24 10:13 OP:vdl  STATUS:               ID:20100628165048 L   I
 2010-06-28-1647-32S.COL___118                                                 6
 STAT SP IPHASW D HRMM SECON CODA AMPLIT PERI AZIMU VELO SNR AR TRES W  DIS CAZ7
 BAR2 SZ IP       1651  8.02                             171     0.010   22 211 
 BAR2 SZ ES   1   1651 22.49                             171    -0.5 7   22 211 
 BRR  HZ IP     C 1651 10.01                             149    -0.110   79 299 
 BRR  HN ES   1   1651 26.92                             149     0.2 7   79 299 
 BRR  HZ I        1651 28.29        18.9 0.16                            79 299 
 RUS  HZ EP       1651 11.91                             144    -0.110   96 180 
 RUS  HE ES   1   1651 30.43                             144     0.4 7   96 180 
 RUS  HZ I        1651 32.11         8.3 0.45                            96 180 
 BRI  SZ ES   2   1651 31.66                             140     0.7 5  110  17 
 GUE  SZ IP       1651 13.38                             138    -0.110  119   8 
 GUE  SZ ES   2   1651 32.60                             138     0.0 5  119   8 
 HEL  HZ EP   2   1651 29.93                             114     0.4 4  278 257 
 HEL  HZ I        1652 11.34         4.8 0.63                           278 257 
                                                                                
