 2015 1128 1557 28.7 L   6.580 -73.557112.0  RSN  4 0.3 1.7LRSN                1
 GAP=179        0.66       5.6     2.7  7.4 -0.4104E+01  0.7958E+01 -0.1438E+02E
 Epicentro: EL CARMEN - SANTANDER                                              3
 ACTION:UPD 15-12-28 16:14 OP:cam  STATUS:               ID:20151128155728 L   I
 OLDACT:UP  15-11-29 00:45 OP:ak   STATUS:               ID:20151128154751d    3
 OLDACT:DUP 15-11-29 00:35 OP:ak   STATUS:               ID:20151128154751d    3
 2015-11-28-1547-50M.COL___313                                                 6
 STAT SP IPHASW D HRMM SECON CODA AMPLIT PERI AZIMU VELO AIN AR TRES W  DIS CAZ7
 BAR2 EZ EP       1557 44.97                             158   -0.0110 41.4  88 
 BAR2 EZ ES       1557 57.64                             158   -0.0110 41.4  88 
 BAR2 EZ I        1557 58.75        39.3 0.30            163           41.4  88 
 PTB  HZ EP       1557 49.08                             134    0.4610 99.6 267 
 PTB  HN ES       1558  3.76                             134   -0.3510 99.6 267 
 PTB  HZ I        1558  7.54         6.7 0.23            136           99.6 267 
 PAM  EZ EP   2   1557 51.36                             127   -0.36 5  127  48 
 PAM  EN ES       1558  9.64                             127   -0.0010  127  48 
 PAM  EZ I        1558 10.93         5.2 0.38            130            127  48 
 ZAR  HZ EP   2   1557 55.55                             117   -0.57 4  176 305 
 ZAR  HE ES       1558 17.61                             117    0.14 9  176 305 
 ZAR  HZ I        1558 23.65         4.9 0.10            119            176 305 
                                                                                
