 2014  328 1315 17.4 L   6.750 -73.166136.0  RSN 10 0.4 1.8LRSN                1
 GAP=198        0.96       3.8     5.4  5.7  0.8051E+01  0.1089E+02  0.5765E+01E
 Epicentro: VILLANUEVA - SANTANDER                                             3
 ACTION:UPD 14-04-09 23:21 OP:nd   STATUS:               ID:20140328131517 L   I
 OLDACT:UP  14-03-28 19:52 OP:mh   STATUS:               ID:20140328130806d    3
 OLDACT:DUP 14-03-28 19:46 OP:mh   STATUS:               ID:20140328130806d    3
 2014-03-28-1308-05M.COL___262                                                 6
 STAT SP IPHASW D HRMM SECON CODA AMPLIT PERI AZIMU VELO AIN AR TRES W  DIS CAZ7
 BAR2 SZ EP       1315 35.62                             172   -0.1410 17.5 186 
 BAR2 SZ ES       1315 50.04                             172   -0.0310 17.5 186 
 BAR2 SZ I        1315 52.01        29.2 0.23            168           17.5 186 
 BRR  HZ EP       1315 37.47                             150   -0.1010 72.1 303 
 BRR  HN ES       1315 53.68                             150    0.3910 72.1 303 
 BRR  HZ I        1315 58.38        14.4 0.15            148           72.1 303 
 RUS  HZ EP       1315 39.74                             143   -0.0910 95.3 174 
 RUS  HN ES       1315 57.52                             143    0.2210 95.3 174 
 RUS  HZ I        1316  0.01         6.0 0.25            145           95.3 174 
 PTB  HZ EP       1315 42.40                             130   -0.91 9  145 261 
 PTB  HN ES   1   1316  2.78                             130   -0.72 7  145 261 
 PTB  HZ I        1316  9.29         8.2 0.26            130            145 261 
 ZAR  HZ EP   1   1315 50.12                             120    0.87 6  204 294 
 ZAR  HN ES       1316 14.04                             120   -0.04 9  204 294 
 ZAR  HZ I        1316 20.55         7.7 0.25            121            204 294 
 NOR  HZ EP       1315 52.24                             117    0.19 8  230 235 
 NOR  HN ES       1316 19.29                             117    0.23 8  230 235 
 NOR  HZ I        1316 23.74         6.1 0.24            118            230 235 
 CHI  HZ EP       1315 53.50                             116   -0.44 8  243 195 
 CHI  HN ES       1316 22.72                             116    0.29 8  243 195 
 CHI  HZ I        1316 26.96         2.6 0.49            118            243 195 
 SML  HN ES   1   1316 22.71                             115    0.23 6  248 336 
 SML  HZ I        1316 23.18         8.0 0.08            118            248 336 
 GUY2CHZ EP       1316  0.76                             111    0.74 7  296 235 
 GUY2CHN ES   4   1316 36.80                             111    3.55 0  296 235 
 ORTC HZ EP       1316 10.16                             105   -0.18 6  390 216 
                                                                                
