 2012 1028 1705  7.7 L   6.770 -73.082141.8  RSN  4 0.4 1.7LRSN                1
 GAP=146        0.87       5.9     8.2 10.4 -0.8973E+01  0.6424E+00  0.1199E+02E
 Epicentro: LOS SANTOS - SANTANDER                                             3
 ACTION:UPD 12-11-22 17:06 OP:ep   STATUS:               ID:20121028170507 L   I
 2012-10-28-1700-00M.COL___231                                                 6
 STAT SP IPHASW D HRMM SECON CODA AMPLIT PERI AZIMU VELO AIN AR TRES W  DIS CAZ7
 BAR2 SZ EP   1   17 5 25.84                             170   -1.01 7 22.6 209 
 BAR2 SZ I        17 5 43.41        11.2 0.56                          22.6 209 
 PAM  SZ EP       17 5 29.42                             151    0.0110 75.8  34 
 PAM  SN ES       17 5 46.41                             151    0.0810 75.8  34 
 PAM  SZ I        17 5 48.70         6.9 0.55                          75.8  34 
 BRR  HZ EP   1   17 5 29.23                             149    0.33 7 79.0 298 
 BRR  HZ I        17 5 31.76         9.6 0.47                          79.0 298 
 BRR  HE ES   1   17 5 45.43                             149    0.01 7 79.0 298 
 RUS  HZ EP   1   17 5 31.23                             144    0.41 7 97.1 180 
 RUS  HE ES   1   17 5 48.93                             144    0.09 7 97.1 180 
 RUS  HE I        17 5 52.18         7.9 0.24                          97.1 180 
                                                                                
