 2011  528 1950 30.7 L   6.780 -73.126148.4  RSN 15 0.3 2.7LRSN                1
 GAP=140        0.74       3.2     4.5  4.7 -0.5889E+01  0.6392E+01  0.1465E+01E
 Epicentro: LOS SANTOS - SANTANDER                                             3
 ACTION:UP  11-06-29 08:56 OP:tino STATUS:               ID:20110528195030 L   I
 2011-05-28-1949-25S.COL___115                                                 6
 STAT SP IPHASW D HRMM SECON CODA AMPLIT PERI AZIMU VELO SNR AR TRES W  DIS CAZ7
 BTL  SZ EP       1950 50.61                             171     0.010   22 314 
 BAR2 SZ EP       1950 50.46                             171    -0.210   22 197 
 BAR2 SZ ES   1   1951  6.25                             171     0.1 7   22 197 
 BAR2 SZ I        1951  7.01       185.0 0.19                            22 197 
 GIR2 SZ EP   1   1950 50.42                             167    -0.4 7   34 347 
 GIR2 SZ ES   1   1951  6.00                             167    -0.4 7   34 347 
 BRR  HZ EP   1   1950 52.39                             152     0.1 7   74 299 
 BRR  HN ES   1   1951  9.79                             152     0.6 7   74 299 
 BRR  HZ I        1951 11.44       109.4 0.12                            74 299 
 PAM  SZ EP   1   1950 53.47                             151     0.2 7   78  37 
 PAM  SN ES   1   1951 10.90                             151     0.1 7   78  37 
 PAM  SZ I        1951 12.69        38.7 0.47                            78  37 
 RUS  HZ EP   1   1950 54.40                             145    -0.2 7   98 177 
 RUS  HN ES   1   1951 13.48                             145     0.3 7   98 177 
 RUS  HZ I        1951 14.83        77.2 0.36                            98 177 
 BRI  SZ EP   1   1950 54.99                             142     0.0 7  110  19 
 BRI  SZ I        1951 16.69        49.1 0.26                           110  19 
 GRA  SZ EP   1   1950 56.27                             137    -0.1 7  127  16 
 GRA  SZ ES   1   1951 16.13                             137    -0.2 7  127  16 
 GRA  SZ I        1951 17.15        74.7 0.52                           127  16 
 OCA  SZ EP   1   1950 59.04                             130    -0.4 7  163 352 
 OCA  SZ ES   1   1951 22.32                             130     0.4 7  163 352 
 NOR  SZ EP   1   1951  6.55                             119    -0.1 6  235 235 
 NOR  SN ES   1   1951 34.66                             119     0.0 6  235 235 
 NOR  SZ I        1951 38.44         7.2 0.20                           235 235 
 ROSC BZ EP   1   1951  9.57                             117     0.7 6  252 212 
 HEL  HZ EP   1   1951 11.65                             115     0.4 6  274 256 
 HEL  HN ES   1   1951 42.01                             115    -0.9 6  274 256 
 HEL  HZ I        1951 48.47        27.2 0.31                           274 256 
 GUY  SZ EP   1   1951 15.21                             113     0.4 5  304 236 
 GUY  SZ I        1951 57.88        58.1 0.42                           304 236 
 DBB  SZ EP   1   1951 18.76                             110     0.2 5  342 275 
 DBB  SZ I        1951 56.70         6.2 0.21                           342 275 
 PRA  HZ EP   1   1951 24.44                             107     0.2 4  391 210 
 PRA  HZ I        1951 26.21       130.4 0.17                           391 210 
 PRA  HN ES   1   1952  5.67                             107    -0.3 4  391 210 
                                                                                
