 2014  128 1557 35.7 L   6.805 -73.128151.2  RSN  6 0.4 1.5LRSN                1
 GAP=138        0.96       5.1     5.4  7.8 -0.7059E+01  0.1063E+02  0.8155E+01E
 Epicentro: LOS SANTOS - SANTANDER                                             3
 ACTION:UPD 14-03-13 09:59 OP:ep   STATUS:               ID:20140128155735 L   I
 OLDACT:REG 14-01-28 15:27 OP:nd   STATUS:               ID:20140128155000     3
 2014-01-28-1550-00M.COL___285                                                 6
 STAT SP IPHASW D HRMM SECON CODA AMPLIT PERI AZIMU VELO AIN AR TRES W  DIS CAZ7
 BRR  HZ EP       1557 57.78                             153    0.2210 72.6 297 
 BRR  HN ES       1558 15.16                             153    0.5810 72.6 297 
 BRR  HZ I        1558 19.32        11.5 0.30            140           72.6 297 
 PAM  SZ EP       1557 58.64                             152    0.2010 75.8  39 
 PAM  SN ES       1558 15.59                             152   -0.5710 75.8  39 
 PAM  SZ I        1558 18.16         6.5 0.58            143           75.8  39 
 RUS  HZ EP       1558  0.22                             145    0.1610  101 177 
 RUS  HN ES       1558 19.07                             145    0.0410  101 177 
 RUS  HZ I        1558 19.66         2.0 0.32            143            101 177 
 PTB  HZ EP       1558  2.82                             133   -0.51 9  150 259 
 PTB  HN ES   2   1558 24.17                             133   -0.69 5  150 259 
 PTB  HZ I        1558 27.32         4.5 0.18            123            150 259 
 NOR  HZ EP       1558 12.30                             119    0.31 8  237 235 
 NOR  HN ES       1558 39.89                             119   -0.37 8  237 235 
 NOR  HZ I        1558 47.68         2.2 0.12            112            237 235 
 SJC  HZ EP   4   1558 30.18                             106   -1.37 0  410 327 
 SJC  HZ I        1559  7.37         1.0 0.56            100            410 327 
 SJC  HN ES   4   1559 11.92                             106   -3.17 0  410 327 
                                                                                
