 2016  228 1303 18.4 L   6.789 -73.151141.8  RSN 13 0.4 2.0LRSN                1
 GAP=136        0.75       2.3     3.1  4.6 -0.1457E+01  0.5603E+01  0.6222E+00E
 Epicentro: LOS SANTOS - SANTANDER                                             3
 ACTION:UPD 16-03-04 21:30 OP:rebc STATUS:               ID:20160228130318 L   I
 OLDACT:UP  16-02-28 23:12 OP:mh   STATUS:               ID:20160228125750     3
 OLDACT:REG 16-02-28 21:18 OP:mh   STATUS:               ID:20160228125750     3
 2016-02-28-1257-50M.COL___321                                                 6
 STAT SP IPHASW D HRMM SECON CODA AMPLIT PERI AZIMU VELO AIN AR TRES W  DIS CAZ7
 BAR2 EZ EP       13 3 37.61                             171    0.1210 22.0 189 
 BAR2 EZ ES       13 3 52.64                             171    0.2310 22.0 189 
 BAR2 EZ I        13 3 55.09        18.3 0.10            168           22.0 189 
 PAM  EZ IP     D 13 3 40.46                             150    0.2210 78.7  39 
 PAM  EN ES       13 3 57.40                             150    0.1010 78.7  39 
 PAM  EZ I        13 3 58.43        10.6 0.16            154           78.7  39 
 RUS  HZ EP   1   13 3 41.78                             143    0.14 7 99.4 176 
 RUS  HN ES       13 3 59.50                             143   -0.3010 99.4 176 
 RUS  HZ I        13 4  1.56        11.1 0.12            143           99.4 176 
 PTB  HZ EP   1   13 3 44.22                             131   -0.72 7  147 259 
 PTB  HN ES       13 4  5.83                             131    0.16 9  147 259 
 PTB  HZ I        13 4  7.52        12.6 0.06            131            147 259 
 OCA  HZ EP   1   13 3 46.27                             128   -0.21 7  161 353 
 OCA  HN ES       13 4  8.17                             128   -0.24 9  161 353 
 SPBC HZ EP   1   13 3 46.34                             128   -0.10 7  162 219 
 SPBC HN ES   1   13 4  7.98                             128   -0.35 7  162 219 
 SPBC HZ I        13 4 11.19        30.8 0.26            128            162 219 
 ZAR  HZ EP   1   13 3 50.01                             121   -0.54 6  204 293 
 ZAR  HN ES       13 4 15.73                             121    0.08 9  204 293 
 ZAR  HZ I        13 4 22.30        15.1 0.28            122            204 293 
 NOR  HZ EP   1   13 3 53.78                             118    0.04 6  234 235 
 NOR  HN ES       13 4 20.83                             118   -0.50 8  234 235 
 NOR  HZ I        13 4 26.11         9.1 0.22            118            234 235 
 CHI  HZ EP   1   13 3 55.47                             116   -0.23 6  247 195 
 CHI  HN ES       13 4 24.88                             116    0.05 8  247 195 
 CHI  HZ I        13 4 34.61         2.9 0.44            117            247 195 
 HEL  HZ EP   1   13 3 59.31                             114    1.02 6  271 256 
 HEL  HE ES   1   13 4 30.03                             114    0.61 6  271 256 
 HEL  HZ I        13 4 36.63         6.2 0.24            114            271 256 
 URE  HZ EP   4   13 4  1.39                             113    2.15 0  284 292 
 URE  HN ES   4   13 4 37.88                             113    6.76 0  284 292 
 GUY2CHZ EP       13 4  1.84                             112    0.18 7  300 235 
 GUY2CHN ES   4   13 4 36.00                             112    0.57 0  300 235 
 GUY2CHZ I        13 4 43.35         4.8 0.30                           300 235 
 MON  HZ EP   4   13 4  3.97                             108   -3.28 0  354 309 
 MON  HN ES   4   13 4 43.40                             108   -1.98 0  354 309 
 MON  HZ I        13 4 46.05                             109            354 309 
 ORTC HZ EP   1   13 4 11.89                             106   -0.11 4  394 216 
 ORTC HN ES   1   13 4 54.98                             106    1.15 4  394 216 
 ORTC HZ I        13 4 58.42         2.6 0.20            106            394 216 
                                                                                
