 2013 1128 1716 34.2 L   6.816 -73.157146.3  RSN 12 0.5 2.5LRSN                1
 GAP=134        1.05       3.1     4.2  5.8 -0.5785E+00  0.5513E+01 -0.1182E+00E
 Epicentro: LOS SANTOS - SANTANDER                                             3
 ACTION:UPD 14-01-09 16:31 OP:ep   STATUS:               ID:20131128171634 L   I
 OLDACT:UP  13-11-28 16:15 OP:cam  STATUS:               ID:20131128171000     3
 OLDACT:REG 13-11-28 15:01 OP:cam  STATUS:               ID:20131128171000     3
 2013-11-28-1710-00M.COL___282                                                 6
 STAT SP IPHASW D HRMM SECON CODA AMPLIT PERI AZIMU VELO AIN AR TRES W  DIS CAZ7
 BAR2 SZ EP       1716 53.91                             170    0.0010 24.9 186 
 BAR2 SZ ES       1717  9.22                             170   -0.0710 24.9 186 
 BAR2 SZ I        1717 10.13       154.2 0.26            170           24.9 186 
 BRR  HZ EP       1716 55.71                             153    0.4310 69.2 298 
 BRR  HN ES       1717 12.36                             153    0.6310 69.2 298 
 BRR  HZ I        1717 15.97        50.1 0.44            150           69.2 298 
 PAM  SZ EP       1716 56.87                             151    0.4410 76.9  41 
 PAM  SN ES       1717 13.45                             151   -0.3210 76.9  41 
 PAM  SZ I        1717 16.05        61.0 0.50            154           76.9  41 
 RUS  HZ EP       1716 57.87                             143   -0.2510  102 175 
 RUS  HN ES       1717 16.88                             143    0.0910  102 175 
 RUS  HZ I        1717 17.64        41.0 0.26            146            102 175 
 PTB  HZ EP       1717  0.44                             132   -0.67 9  147 258 
 PTB  HN ES       1717 21.18                             132   -0.93 9  147 258 
 PTB  HZ I        1717 28.87        32.2 0.16            132            147 258 
 OCA  HZ EP   1   1717  3.03                             130    0.67 7  158 354 
 OCA  HN ES   4   1717 22.52                             130   -1.81 0  158 354 
 OCA  HZ I        1717 28.87        39.3 0.34            131            158 354 
 SPBC HZ EP   4   1717  2.72                             129   -0.06 0  164 218 
 ZAR  HZ EP   2   1717  7.04                             123    0.57 4  202 292 
 ZAR  HN ES       1717 31.83                             123    0.17 9  202 292 
 ZAR  HZ I        1717 37.13        42.9 0.52            122            202 292 
 NOR  HZ EP       1717  9.90                             119   -0.04 8  235 234 
 NOR  HN ES       1717 38.67                             119    0.84 8  235 234 
 NOR  HZ I        1717 43.32        23.8 0.18            119            235 234 
 SML  HZ EP   1   1717 10.65                             118    0.04 6  242 335 
 SML  HN ES       1717 38.37                             118   -0.65 8  242 335 
 SML  HZ I        1717 42.01        28.5 0.24            118            242 335 
 CHI  HZ EP       1717 11.86                             117   -0.20 8  250 195 
 CHI  HN ES       1717 41.45                             117   -0.15 8  250 195 
 CHI  HZ I        1717 46.66        25.1 0.32            119            250 195 
 GUY2CHZ EP   2   1717 18.32                             112    0.51 4  301 234 
 COD  HZ EP   2   1717 21.88                             109   -0.49 3  346 355 
 COD  HN ES   1   1717 59.88                             109   -0.07 5  346 355 
 COD  HZ I        1718  5.69         7.6 0.48            110            346 355 
 PRA  HZ EP   4   1717 28.13                             107    0.30 0  393 209 
                                                                                
