 2017 1028 1420 46.7 L   6.855 -73.149145.4  RSN 15 0.7 2.2LRSN                1
 GAP=109        1.46       4.0     4.8  7.0  0.7274E+00  0.8991E+01  0.5244E+01E
 Epicentro: LOS SANTOS - SANTANDER                                             3
 ACTION:UPD 17-11-07 19:38 OP:rebc STATUS:               ID:20171028142046 L   I
 OLDACT:UP  17-10-28 23:00 OP:dhb  STATUS:               ID:20171028141730     3
 OLDACT:REG 17-10-28 20:00 OP:dhb  STATUS:               ID:20171028141730     3
 2017-10-28-1418-00M.COL___438                                                 6
 STAT SP IPHASW D HRMM SECON CODA AMPLIT PERI AZIMU VELO AIN AR TRES W  DIS CAZ7
 BAR2 EZ IP     C 1421  6.53                             169    0.0810 29.3 187 
 BAR2 EZ ES       1421 21.31                             169   -0.5210 29.3 187 
 BAR2 EZ I        1421 22.90        48.3 0.22            167           29.3 187 
 BRR  HZ EP       1421  8.41                             153    0.7410 68.2 294 
 BRR  HN ES       1421 24.34                             153    0.3410 68.2 294 
 BRR  HZ I        1421 29.63        15.8 0.58            152           68.2 294 
 PAM  EZ IP     C 1421  9.37                             152    0.7110 73.1  43 
 PAM  EE ES       1421 26.40                             152    0.6510 73.1  43 
 PAM  EZ I        1421 28.77        31.9 0.50            156           73.1  43 
 RUS  HZ EP       1421 10.50                             142   -0.4010  107 176 
 RUS  HN ES       1421 29.26                             142   -0.4810  107 176 
 RUS  HZ I        1421 30.43        28.0 0.32            143            107 176 
 PTB  HZ EP       1421 13.54                             132   -0.22 9  149 257 
 PTB  HN ES       1421 34.40                             132   -0.43 9  149 257 
 PTB  HZ I        1421 36.29        10.2 0.14            132            149 257 
 SPBC HZ EP       1421 15.49                             128   -0.15 9  168 218 
 SPBC HN ES       1421 37.43                             128   -0.75 9  168 218 
 SPBC HZ I        1421 42.12        30.2 0.34            129            168 218 
 YPLC HZ EP       1421 16.93                             126   -0.12 9  182 152 
 YPLC HE ES       1421 40.61                             126   -0.08 9  182 152 
 YPLC HZ I        1421 44.49        14.4 0.36            128            182 152 
 ZAR  HZ EP       1421 19.06                             123    0.17 9  201 291 
 ZAR  HN ES       1421 44.96                             123    0.99 9  201 291 
 ZAR  HZ I        1421 55.21        10.8 0.28            123            201 291 
 TABC EZ EP   2   1421 23.88                             119    0.88 4  235 210 
 TABC EZ ES       1421 50.81                             119   -0.48 8  235 210 
 TABC EZ I        1421 57.56        14.6 0.28            120            235 210 
 NOR  HZ EP       1421 22.55                             118   -0.24 8  238 233 
 NOR  HE ES       1421 50.34                             118   -0.58 8  238 233 
 NOR  HZ I        1421 56.22        10.7 0.16            119            238 233 
 CHI  HZ EP       1421 24.52                             116   -0.52 8  254 195 
 CHI  HE ES       1421 55.67                             116    0.75 8  254 195 
 CHI  HZ I        1422  3.81         7.0 0.50            118            254 195 
 GUY2CHZ EP       1421 31.96                             112    1.27 7  304 234 
 GUY2CHE ES       1422  5.14                             112    0.16 7  304 234 
 GUY2CHZ I        1422 14.41         5.7 0.46                           304 234 
 PRA  HZ EP       1421 39.96                             106   -0.88 6  397 209 
 PRA  HE ES       1422 23.29                             106    0.25 6  397 209 
 PRA  HZ I        1422 28.61         6.0 0.36            107            397 209 
 ORTC HZ EP       1421 41.44                             106    0.25 6  400 216 
 ORTC HE ES       1422 25.12                             106    1.45 6  400 216 
 ORTC HZ I        1422 29.35         4.7 0.44            107            400 216 
 SJC  HZ EP       1421 40.67                             106   -0.99 6  404 327 
 SJC  HN ES       1422 22.22                             106   -2.29 6  404 327 
 SJC  HZ I        1422 29.64         2.1 0.62            107            404 327 
                                                                                
