 2017  328 1025  8.9 L   6.807 -73.149148.3  RSN 12 0.5 2.0LRSN                1
 GAP=119        1.13       4.0     4.3  5.7 -0.8584E+00  0.5831E+01  0.2369E+01E
 Epicentro: LOS SANTOS - SANTANDER                                             3
 ACTION:UPD 17-05-25 18:46 OP:jn   STATUS:               ID:20170328102508 L   I
 OLDACT:REG 17-03-28 20:03 OP:lv   STATUS:               ID:20170328101741     3
 2017-03-28-1018-00M.COL___352                                                 6
 STAT SP IPHASW D HRMM SECON CODA AMPLIT PERI AZIMU VELO AIN AR TRES W  DIS CAZ7
 BAR2 EZ EP       1025 28.85                             170    0.0110 24.1 189 
 BAR2 EZ ES       1025 43.88                             170   -0.5310 24.1 189 
 BAR2 EZ I        1025 45.09        17.5 0.27            171           24.1 189 
 BRR  HZ EP       1025 30.65                             153    0.3710 70.5 298 
 BRR  HN ES       1025 47.84                             153    0.8810 70.5 298 
 BRR  HZ I        1025 49.10        16.5 0.22            150           70.5 298 
 PAM  EZ EP       1025 31.87                             151    0.5110 77.0  40 
 PAM  EN ES       1025 48.84                             151   -0.0410 77.0  40 
 PAM  EZ I        1025 51.04        28.6 0.50            153           77.0  40 
 RUS  HZ EP       1025 33.12                             144    0.1710  101 176 
 RUS  HN ES       1025 51.31                             144   -0.4110  101 176 
 RUS  HZ I        1025 52.66        11.4 0.16            146            101 176 
 PTB  HZ EP       1025 35.93                             133   -0.12 9  148 259 
 PTB  HN ES       1025 56.59                             133   -0.65 9  148 259 
 SPBC HZ EP       1025 37.95                             129    0.32 9  164 219 
 SPBC HN ES       1026  0.08                             129    0.04 9  164 219 
 ZAR  HZ EP       1025 41.45                             123    0.01 9  203 292 
 ZAR  HN ES       1026  6.12                             123   -0.71 9  203 292 
 ZAR  HZ I        1026 12.96         7.8 0.18            122            203 292 
 NOR  HZ EP       1025 45.21                             119    0.42 8  235 234 
 NOR  HN ES       1026 13.39                             119    0.60 8  235 234 
 NOR  HZ I        1026 15.36         5.0 0.26            119            235 234 
 URE  HN EP       1025 49.57                             114   -0.45 7  283 292 
 URE  HE ES   4   1026 20.31                             114   -1.79 0  283 292 
 URE  HN I        1026 30.80        15.3 0.26            114            283 292 
 PTGC HZ EP       1025 52.08                             112   -0.88 7  310 159 
 PTGC HN ES   4   1026 23.39                             112   -3.94 0  310 159 
 PRA  HZ EP       1026  2.84                             107    0.28 6  393 209 
 PRA  HN ES       1026 44.71                             107    0.28 6  393 209 
 PRA  HZ I        1026 50.05         3.6 0.37            107            393 209 
 ORTC HN ES   4   1026 46.68                             107    1.56 0  396 216 
 SJC  HZ EP       1026  3.63                             106   -0.81 6  408 327 
 SJC  HN ES   4   1026 44.55                             106   -3.22 0  408 327 
 SJC  HZ I        1026 48.75         1.4 0.20            106            408 327 
                                                                                
