 2012  728 1515 41.1 L   6.759 -73.163149.3  RSN  6 0.4 2.0LRSN                1
 GAP=136        1.07       7.5     6.7  9.4  0.1483E+02  0.6364E+01 -0.5866E+01E
 Epicentro: LOS SANTOS - SANTANDER                                             3
 ACTION:UPD 12-08-14 11:46 OP:ep   STATUS:               ID:20120728151541 L   I
 2012-07-28-1510-00M.COL___215                                                 6
 STAT SP IPHASW D HRMM SECON CODA AMPLIT PERI AZIMU VELO AIN AR TRES W  DIS CAZ7
 BAR2 SZ EP       1516  0.98                             173    -0.110   19 187 
 BAR2 SZ ES   1   1516 16.38                             173    -0.3 7   19 187 
 BAR2 SZ I        1516 18.09        21.8 0.46            172             19 187 
 BRR  HZ EP       1516  2.87                             153     0.210   72 302 
 BRR  HZ I        1516  3.17        34.0 0.21            151             72 302 
 BRR  HN ES   1   1516 20.43                             153     0.9 7   72 302 
 PAM  SZ EP   1   1516  3.68                             150    -0.3 7   82  39 
 PAM  SN ES   2   1516 21.23                             150    -0.6 5   82  39 
 RUS  HZ EP       1516  5.37                             146     0.510   96 175 
 RUS  HN ES   1   1516 23.23                             146    -0.2 7   96 175 
 RUS  HZ I        1516 24.87         9.5 0.45            148             96 175 
 PTB  HZ EP   1   1516  7.49                             133    -0.6 7  145 260 
 PTB  HN ES   1   1516 28.85                             133    -0.3 7  145 260 
 PTB  HZ I        1516 31.01         8.4 0.12            133            145 260 
 ZAR  HZ EP   1   1516 14.02                             123     0.3 6  204 294 
 ZAR  HN ES   1   1516 38.81                             123    -0.4 6  204 294 
 ZAR  HZ I        1516 46.10        19.4 0.33            123            204 294 
