 2013  128 1025 26.2 L   6.770 -73.147146.7  RSN  5 0.3 1.5LRSN                1
 GAP=235        0.57       4.0     5.4  4.9  0.9817E+01  0.2057E+01  0.6704E+01E
 Epicentro: LOS SANTOS - SANTANDER                                             3
 ACTION:UPD 13-02-15 09:17 OP:ep   STATUS:               ID:20130128102526 L   I
 2013-01-28-1020-00M.COL___239                                                 6
 STAT SP IPHASW D HRMM SECON CODA AMPLIT PERI AZIMU VELO AIN AR TRES W  DIS CAZ7
 BAR2 SZ EP   2   1025 45.53                             172   -0.36 5 20.0 191 
 BAR2 SZ ES   1   1026  1.10                             172   -0.15 7 20.0 191 
 BAR2 SZ I        1026  3.61         7.6 0.29            160           20.0 191 
 BRR  HZ EP       1025 47.64                             152    0.0910 72.7 301 
 BRR  HN ES       1026  4.49                             152    0.3010 72.7 301 
 BRR  HZ I        1026  7.73         7.6 0.39            147           72.7 301 
 RUS  HZ EP       1025 49.86                             145    0.0410 97.3 176 
 RUS  HN ES   1   1026  7.98                             145   -0.26 7 97.3 176 
 RUS  HE I        1026 10.12         4.6 0.35            141           97.3 176 
 PTB  HZ EP   1   1025 52.67                             132   -0.52 7  147 260 
 PTB  HE ES   1   1026 14.02                             132   -0.21 7  147 260 
 PTB  HZ I        1026 21.37         4.6 0.42            128            147 260 
 CHI  HZ EP       1026  3.81                             118    0.20 8  245 195 
 CHI  HN ES   1   1026 33.13                             118    0.35 6  245 195 
 CHI  HZ I        1026 40.90         1.1 0.51            117            245 195 
                                                                                
