 2017  628 1954 34.6 L   6.812 -73.125140.6  RSN  7 0.4 2.0LRSN                1
 GAP=263        0.81       5.1     4.6  6.3  0.6060E+01  0.1010E+02  0.1074E+02E
 Epicentro: LOS SANTOS - SANTANDER                                             3
 ACTION:UPD 17-09-14 16:56 OP:jn   STATUS:               ID:20170628195434 L   I
 OLDACT:REG 17-06-28 21:59 OP:osc  STATUS:               ID:20170628194743     3
 2017-06-28-1948-00M.COL___370                                                 6
 STAT SP IPHASW D HRMM SECON CODA AMPLIT PERI AZIMU VELO AIN AR TRES W  DIS CAZ7
 BAR2 EZ EP       1954 53.70                             169    0.0910 25.1 195 
 BAR2 EZ ES       1955  8.63                             169    0.1610 25.1 195 
 BAR2 EZ I        1955  9.66        25.4 0.34            166           25.1 195 
 PTB  HZ EP   4   1955  0.21                             130   -1.14 0  150 259 
 PTB  HE ES       1955 22.11                             130   -0.13 9  150 259 
 PTB  HZ I        1955 28.33         9.6 0.64            130            150 259 
 ZAR  HE ES       1955 31.85                             121   -0.18 8  206 292 
 ZAR  HZ I        1955 37.94         9.6 0.10            121            206 292 
 NOR  HZ EP       1955  9.78                             117   -0.50 8  237 235 
 NOR  HE ES       1955 37.72                             117   -0.42 8  237 235 
 NOR  HZ I        1955 42.27         8.1 0.22            118            237 235 
 CHI  HZ EP       1955 11.83                             116   -0.36 8  250 196 
 CHI  HE ES       1955 41.43                             116   -0.10 8  250 196 
 CHI  HZ I        1955 45.15         7.8 0.68            117            250 196 
 HEL  HZ EP       1955 15.17                             113    0.37 8  275 256 
 HEL  HN ES       1955 46.08                             113   -0.11 8  275 256 
 HEL  HZ I        1955 51.16         7.9 0.54            114            275 256 
 GUY2CHZ EP       1955 18.82                             111    0.58 7  304 235 
 GUY2CHE ES       1955 53.15                             111    0.85 7  304 235 
 GUY2CHZ I        1955 59.85         4.6 0.34                           304 235 
                                                                                
