 2016 1028 1105 34.5 L   6.782 -73.110140.2  RSN  6 0.2 1.4LRSN                1
 GAP=142        0.63       3.2     3.1  4.6 -0.1369E+01  0.2242E+01  0.8889E+00E
 Epicentro: LOS SANTOS - SANTANDER                                             3
 ACTION:UPD 16-11-09 19:23 OP:rebc STATUS:               ID:20161028110534 L   I
 OLDACT:REG 16-10-28 20:03 OP:edw  STATUS:               ID:20161028105743     3
 2016-10-28-1058-00M.COL___337                                                 6
 STAT SP IPHASW D HRMM SECON CODA AMPLIT PERI AZIMU VELO AIN AR TRES W  DIS CAZ7
 BAR2 EZ EP       11 5 53.19                             170   -0.2610 22.5 201 
 BAR2 EZ ES       11 6  7.82                             170   -0.4110 22.5 201 
 BAR2 EZ I        11 6  8.86         6.9 0.30            171           22.5 201 
 BRR  HZ EP       11 5 55.34                             150    0.0310 75.6 298 
 BRR  HN ES       11 6 11.91                             150    0.3610 75.6 298 
 PAM  EZ EP       11 5 56.24                             150    0.1710 76.5  36 
 PAM  EN ES       11 6 12.85                             150   -0.0510 76.5  36 
 PAM  EZ I        11 6 15.09         9.7 0.50            151           76.5  36 
 RUS  HZ EP       11 5 57.69                             143    0.1410 98.5 178 
 RUS  HN ES       11 6 15.81                             143    0.2710 98.5 178 
 RUS  HZ I        11 6 17.31         3.4 0.40            144           98.5 178 
 PTB  HZ EP       11 6  1.10                             130   -0.25 9  151 260 
 PTB  HN ES       11 6 22.25                             130   -0.04 9  151 260 
 PTB  HZ I        11 6 24.20         2.2 0.12            131            151 260 
 NOR  HN ES   2   11 6 37.97                             117    0.03 4  237 235 
                                                                                
