 2013  128 1713 55.1 L   6.749 -73.145143.0  RSN  6 0.4 1.8LRSN                1
 GAP=139        0.86       5.0     4.2  6.8  0.1195E+01  0.5477E+01  0.4036E-01E
 Epicentro: LOS SANTOS - SANTANDER                                             3
 ACTION:UPD 13-02-15 09:17 OP:ep   STATUS:               ID:20130128171355 L   I
 2013-01-28-1710-00M.COL___241                                                 6
 STAT SP IPHASW D HRMM SECON CODA AMPLIT PERI AZIMU VELO AIN AR TRES W  DIS CAZ7
 BAR2 SZ EP       1714 14.40                             173    0.1410 17.9 193 
 BAR2 SZ ES       1714 29.02                             173   -0.2110 17.9 193 
 BAR2 SZ I        1714 30.25        21.6 0.37            172           17.9 193 
 BRR  HZ IP     C 1714 16.16                             151    0.0810 74.1 302 
 BRR  HE ES       1714 33.19                             151    0.7210 74.1 302 
 BRR  HE I        1714 33.82        18.6 0.17            150           74.1 302 
 PAM  SZ EP       1714 17.24                             149   -0.0110 81.7  37 
 PAM  SN ES       1714 34.20                             149   -0.3510 81.7  37 
 PAM  SZ I        1714 35.73         7.2 0.38            151           81.7  37 
 RUS  HZ EP   1   1714 18.58                             145    0.44 7 95.0 176 
 RUS  HE ES   1   1714 36.14                             145    0.00 7 95.0 176 
 RUS  HE I        1714 38.12         8.4 0.16            146           95.0 176 
 PTB  HZ EP   1   1714 21.20                             132   -0.52 7  147 261 
 PTB  HN ES   1   1714 42.00                             132   -0.52 7  147 261 
 PTB  HZ I        1714 44.63         4.8 0.19            131            147 261 
 ZAR  HN ES       1714 52.78                             121   -0.13 8  206 294 
 ZAR  HZ I        1714 57.16         5.1 0.28            122            206 294 
                                                                                
