 2010  128 1212 50.9 L   6.799 -73.075147.6  RSN  7 0.5 2.5LRSN                1
 GAP=266        0.84       7.4    10.6  8.3  0.1479E+02  0.4797E+02  0.5834E+01E
 Epicentro: LOS SANTOS - SANTANDER                                             3
 ACTION:UP  10-08-24 09:46 OP:vdl  STATUS:               ID:20100128121251 L   I
 2010-01-28-1212-23S.COL___093                                                 6
 STAT SP IPHASW D HRMM SECON CODA AMPLIT PERI AZIMU VELO SNR AR TRES W  DIS CAZ7
 BAR2 SZ IP       1213 10.82                             170     0.110   26 208 
 BAR2 SZ ES   1   1213 26.19                             170    -0.1 7   26 208 
 RUS  BZ EP   1   1213 14.77                             144     0.0 7  100 181 
 RUS  BN ES   1   1213 33.53                             144     0.1 7  100 181 
 RUS  BZ I        1213 35.42        45.2 0.36                           100 181 
 CHI  HZ EP       1213 28.82                             117    -0.1 8  251 197 
 CHI  HZ I        1213 31.59        14.2 0.45                           251 197 
 CHI  HE ES   1   1213 58.07                             117    -0.5 6  251 197 
 HEL  HN ES   2   1214  4.36                             114     0.3 4  280 256 
 RREF BZ EP   1   1213 39.12                             111     1.4 5  328 230 
 RREF BZ I        1214 17.98        16.1 0.72                           328 230 
 DBB  SZ EP       1213 38.76                             109    -0.5 6  347 274 
 PRA  HZ EP   2   1213 44.48                             107    -0.4 3  396 211 
                                                                                
