 2016 1028 1835 22.7 L   6.787 -73.129143.5  RSN  4 0.2 1.6LRSN                1
 GAP=139        0.55       3.0     2.9  4.9 -0.9467E+00  0.1393E+01  0.2041E+01E
 Epicentro: LOS SANTOS - SANTANDER                                             3
 ACTION:UPD 16-11-09 19:23 OP:rebc STATUS:               ID:20161028183522 L   I
 OLDACT:UP  16-10-29 01:22 OP:dani STATUS:               ID:20161028182745     3
 OLDACT:UP  16-10-29 01:22 OP:dani STATUS:               ID:20161028182745     3
 OLDACT:UP  16-10-29 01:21 OP:dani STATUS:               ID:20161028182745     3
 OLDACT:UP  16-10-29 01:21 OP:dani STATUS:               ID:20161028182745     3
 OLDACT:REG 16-10-28 21:03 OP:edw  STATUS:               ID:20161028182745     3
 2016-10-28-1828-00M.COL___349                                                 6
 STAT SP IPHASW D HRMM SECON CODA AMPLIT PERI AZIMU VELO AIN AR TRES W  DIS CAZ7
 BRR  HZ EP       1835 43.96                             151    0.2310 73.5 299 
 BRR  HN ES       1835 59.83                             151   -0.3110 73.5 299 
 BRR  HZ I        1836  5.88        21.9 0.28            151           73.5 299 
 PAM  EZ EP       1835 44.71                             150    0.0510 77.4  38 
 PAM  EN ES       1836  1.88                             150    0.0810 77.4  38 
 PAM  EZ I        1836  3.91         7.1 0.58            153           77.4  38 
 RUS  HZ EP       1835 45.87                             144   -0.2310 99.0 177 
 RUS  HE ES       1836  4.46                             144    0.0910 99.0 177 
 RUS  HZ I        1836  4.90         2.5 0.30            149           99.0 177 
 PTB  HZ EP       1835 49.48                             131   -0.13 9  149 260 
 PTB  HE ES       1836 10.85                             131    0.23 9  149 260 
 PTB  HZ I        1836 13.36         4.4 0.20            133            149 260 
                                                                                
