 2017  228 1144 59.7 L   6.574 -73.247138.6  RSN  4 0.2 1.2LRSN                1
 GAP=116        0.50       4.5     4.2  5.0  0.1166E+02  0.9587E+01  0.8858E+01E
 Epicentro: CABRERA - SANTANDER                                                3
 ACTION:UPD 17-05-24 15:41 OP:jn   STATUS:               ID:20170228114459 L   I
 OLDACT:UP  17-02-28 22:00 OP:lv   STATUS:               ID:20170228113658     3
 OLDACT:REG 17-02-28 20:13 OP:lv   STATUS:               ID:20170228113658     3
 2017-02-28-1138-00M.COL___374                                                 6
 STAT SP IPHASW D HRMM SECON CODA AMPLIT PERI AZIMU VELO AIN AR TRES W  DIS CAZ7
 BAR2 EZ EP   4   1145 16.75                             177   -1.51 0 7.43  75 
 BAR2 EZ ES       1145 32.89                             177    0.1610 7.43  75 
 BAR2 EZ I        1145 34.77         4.3 0.51            174           7.43  75 
 RUS  HZ EP       1145 20.98                             149   -0.2110 77.5 166 
 RUS  HN ES       1145 37.96                             149    0.0210 77.5 166 
 BRR  HN ES       1145 36.62                             149   -0.1310 78.2 319 
 PTB  HZ EP       1145 25.11                             133    0.2710  134 268 
 PTB  HN ES       1145 44.35                             133   -0.0910  134 268 
 PTB  HZ I        1145 50.61         2.1 0.19            132            134 268 
                                                                                
