 2015 1128 1453  5.8 L   5.761 -73.881107.0  RSN  9 0.3 1.7LRSN                1
 GAP=170        0.75       2.7     2.2  5.6 -0.2378E+01  0.1758E+01 -0.2452E+01E
 Epicentro: ALBANIA - SANTANDER                                                3
 ACTION:UPD 15-12-28 16:14 OP:cam  STATUS:               ID:20151128145305 L   I
 OLDACT:REG 15-11-28 20:58 OP:ak   STATUS:               ID:20151128144749     3
 2015-11-28-1447-49M.COL___310                                                 6
 STAT SP IPHASW D HRMM SECON CODA AMPLIT PERI AZIMU VELO AIN AR TRES W  DIS CAZ7
 RUS  HZ EP       1453 24.96                             137   -0.0810 89.6  81 
 RUS  HE ES       1453 39.81                             137   -0.2410 89.6  81 
 RUS  HZ I        1453 42.71         5.0 0.38            142           89.6  81 
 PTB  HZ EP       1453 25.28                             131   -0.6410  107 324 
 PTB  HE ES       1453 41.47                             131   -0.1410  107 324 
 PTB  HZ I        1453 45.07        13.0 0.12            134            107 324 
 NOR  HZ EP       1453 26.46                             130    0.0710  112 259 
 NOR  HN ES       1453 42.53                             130    0.0810  112 259 
 NOR  HZ I        1453 45.10        13.5 0.20            134            112 259 
 BAR2 EZ EP       1453 27.80                             128    0.3510  120  40 
 BAR2 EZ ES       1453 44.73                             128    0.4010  120  40 
 BAR2 EZ I        1453 45.81        17.3 0.16            131            120  40 
 BRR  HZ EP       1453 30.60                             121    0.45 9  150   7 
 BRR  HN ES       1453 49.31                             121    0.17 9  150   7 
 BRR  HZ I        1453 53.90        11.4 0.28            124            150   7 
 GUY2CHZ EP       1453 33.41                             117    0.00 9  175 250 
 GUY2CHN ES       1453 55.16                             117    0.22 9  175 250 
 GUY2CHZ I        1453 59.39         4.5 0.30                           175 250 
 PAM  EZ EP       1453 38.12                             111   -0.14 8  218  37 
 PAM  EN ES       1454  3.17                             111   -0.41 8  218  37 
 PAM  EZ I        1454  7.05         4.3 0.24            115            218  37 
 ZAR  HZ EP       1453 37.61                             110   -0.24 8  220 331 
 ZAR  HN ES       1454  2.72                             110   -0.13 8  220 331 
 ZAR  HZ I        1454  6.61         7.5 0.38            114            220 331 
 SML  HZ EP   4   1454  4.74                             101   13.15 0  337 356 
 SML  HE ES       1454 27.67                             101    0.36 7  337 356 
                                                                                
