 2016  828 1158 59.2 L   6.817 -73.137148.0  RSN  9 0.4 1.8LRSN                1
 GAP=137        0.99       3.6     4.2  6.1 -0.1151E+01  0.6045E+01 -0.1871E+01E
 Epicentro: LOS SANTOS - SANTANDER                                             3
 ACTION:UPD 16-10-29 15:40 OP:rebc STATUS:               ID:20160828115859 L   I
 OLDACT:UP  16-08-28 23:18 OP:ar   STATUS:               ID:20160828115736     3
 OLDACT:REG 16-08-28 21:14 OP:ar   STATUS:               ID:20160828115736     3
 2016-08-28-1158-00M.COL___368                                                 6
 STAT SP IPHASW D HRMM SECON CODA AMPLIT PERI AZIMU VELO AIN AR TRES W  DIS CAZ7
 BAR2 EZ EP       1159 19.21                             170    0.0210 25.4 191 
 BAR2 EZ ES       1159 34.15                             170   -0.6010 25.4 191 
 BAR2 EZ I        1159 35.83        19.9 0.14                          25.4 191 
 BRR  HZ EP       1159 21.06                             153    0.4210 71.1 297 
 BRR  HN ES       1159 38.09                             153    0.7710 71.1 297 
 BRR  HZ I        1159 42.06        15.4 0.34                          71.1 297 
 PAM  EZ EP       1159 22.16                             152    0.5810 75.3  40 
 PAM  EE ES       1159 38.79                             152   -0.2210 75.3  40 
 PAM  EZ I        1159 41.35        14.4 0.54                          75.3  40 
 RUS  HZ EP       1159 23.24                             144   -0.1110  102 177 
 RUS  HN ES       1159 42.40                             144    0.2510  102 177 
 RUS  HZ I        1159 42.89         4.3 0.30                           102 177 
 PTB  HZ EP       1159 25.94                             132   -0.57 9  149 258 
 PTB  HE ES       1159 47.74                             132   -0.04 9  149 258 
 PTB  HZ I        1159 54.40         6.4 0.20                           149 258 
 OCA  HZ EP       1159 27.29                             130   -0.28 9  159 353 
 OCA  HE ES       1159 49.27                             130   -0.39 9  159 353 
 OCA  HZ I        1159 52.48        11.2 0.20                           159 353 
 SPBC HZ EP   2   1159 27.55                             129   -0.56 5  165 219 
 SPBC HN ES   2   1159 50.78                             129    0.15 5  165 219 
 SPBC HZ I        1159 53.51        11.1 0.08                           165 219 
 ZAR  HZ EP       1159 32.30                             123    0.44 9  204 292 
 ZAR  HE ES       1159 57.04                             123   -0.25 9  204 292 
 ZAR  HZ I        12 0  2.40         6.6 0.26                           204 292 
 NOR  HZ EP   2   1159 35.33                             119    0.02 4  237 234 
 NOR  HE ES   2   12 0  2.95                             119   -0.48 4  237 234 
 NOR  HZ I        12 0  8.80         3.9 0.14                           237 234 
                                                                                
