 2016  828 1753 49.4 L   6.531 -73.437120.1  RSN  4 0.1 1.4LRSN                1
 GAP=194        0.40       3.6     2.3  3.4  0.2150E+01  0.3217E+01  0.1006E+01E
 Epicentro: HATO - SANTANDER                                                   3
 ACTION:UPD 16-10-29 15:40 OP:rebc STATUS:               ID:20160828175349 L   I
 OLDACT:REG 16-08-28 21:44 OP:ar   STATUS:               ID:20160828174735     3
 2016-08-28-1748-00M.COL___362                                                 6
 STAT SP IPHASW D HRMM SECON CODA AMPLIT PERI AZIMU VELO AIN AR TRES W  DIS CAZ7
 BAR2 EZ EP       1754  6.30                             166    0.1610 28.9  77 
 BAR2 EZ ES       1754 19.11                             166   -0.0610 28.9  77 
 BAR2 EZ I        1754 20.96         7.1 0.24                          28.9  77 
 BRR  HZ EP       1754  7.81                             147   -0.0210 70.6 334 
 BRR  HN ES       1754 22.15                             147   -0.0310 70.6 334 
 BRR  HZ I        1754 23.30         7.3 0.56                          70.6 334 
 PTB  HZ EP       1754 11.21                             134    0.0610  113 271 
 PTB  HE ES       1754 28.03                             134   -0.0510  113 271 
 PTB  HZ I        1754 30.76         4.4 0.10                           113 271 
 ZAR  HZ EP       1754 18.53                             118   -0.25 9  190 304 
 ZAR  HN ES       1754 41.86                             118    0.19 9  190 304 
                                                                                
