 2017 1028 1738 57.7 L   6.555 -73.526109.7  RSN 23 0.7 2.3LRSN                1
 GAP= 65        1.35       2.6     2.8  5.8  0.6625E-01  0.5053E+01  0.2126E+01E
 Epicentro: EL CARMEN - SANTANDER                                              3
 ACTION:UPD 17-11-07 19:38 OP:rebc STATUS:               ID:20171028173857 L   I
 OLDACT:UP  17-10-29 00:11 OP:dhb  STATUS:               ID:20171028173741     3
 OLDACT:REG 17-10-28 20:15 OP:dhb  STATUS:               ID:20171028173741     3
 2017-10-28-1738-00M.COL___444                                                 6
 STAT SP IPHASW D HRMM SECON CODA AMPLIT PERI AZIMU VELO AIN AR TRES W  DIS CAZ7
 BAR2 EZ IP     D 1739 13.77                             159    0.2610 38.2  84 
 BAR2 EZ ES       1739 25.60                             159   -0.2610 38.2  84 
 BRR  HZ EP       1739 14.68                             147    0.0810 64.4 341 
 BRR  HE ES       1739 28.56                             147    0.7610 64.4 341 
 BRR  HZ I        1739 38.45        39.1 0.14            147           64.4 341 
 RUS  HZ IP     C 1739 16.71                             138   -0.3410 88.2 146 
 RUS  HN ES       1739 31.65                             138   -0.5010 88.2 146 
 RUS  HZ I        1739 33.75        69.1 0.38            137           88.2 146 
 PTB  HZ IP   9 C 1739 16.58                             133   -1.06 0  103 269 
 PTB  HN ES       1739 31.46                                   -0.6910  103 269 
 PTB  HZ I        1739 32.79        51.3 0.14            131            103 269 
 SPBC HZ EP       1739 18.57                             129   -0.4410  117 211 
 SPBC HN ES       1739 34.67                             129   -0.9810  117 211 
 SPBC HZ I        1739 38.95        39.4 0.28            127            117 211 
 PAM  EZ EP       1739 20.46                             127    0.0410  126  46 
 PAM  EE ES       1739 38.45                             127    0.2910  126  46 
 PAM  EZ I        1739 40.00        16.1 0.24            128            126  46 
 YPLC HZ EP       1739 25.62                             116    0.10 9  180 135 
 YPLC HE ES       1739 47.87                             116    0.63 9  180 135 
 YPLC HZ I        1739 49.85        69.6 0.32            115            180 135 
 ZAR  HZ EP       1739 25.89                             116    0.49 9  180 305 
 ZAR  HN ES       1739 48.05                             116    1.03 9  180 305 
 ZAR  HZ I        1739 50.32        35.4 0.52            115            180 305 
 NOR  HZ EP       1739 25.28                             116   -0.70 9  185 234 
 NOR  HN ES       1739 46.91                             116   -1.15 9  185 234 
 NOR  HZ I        1739 50.40        18.5 0.12            114            185 234 
 TABC EZ EP   2   1739 27.91                             116    1.21 4  187 204 
 TABC EZ ES       1739 49.19                             116   -0.14 9  187 204 
 TABC EZ I        1739 54.84        14.7 0.50            114            187 204 
 TAM  HZ EP       1739 26.52                             114   -0.28 9  192  94 
 TAM  HN ES       1739 49.04                             114   -0.48 9  192  94 
 TAM  HZ I        1739 51.22        13.6 0.30            114            192  94 
 CHI  HZ EP       1739 29.53                             112   -0.19 8  214 186 
 CHI  HE ES       1739 55.17                             112    0.46 8  214 186 
 CHI  HZ I        1739 58.48         8.7 0.26            111            214 186 
 GUY2CHZ EP       1739 34.49                             108    0.45 8  251 234 
 GUY2CHN ES       1740  3.20                             108    0.79 8  251 234 
 GUY2CHZ I        1740  7.13        13.6 0.26                           251 234 
 URE  HZ EP       1739 33.77                             107   -0.49 8  258 301 
 URE  HN ES       1740  3.14                             107    0.34 8  258 301 
 URE  HZ I        1740 11.56        16.1 0.18            106            258 301 
 VIL  EZ EP       1739 35.98                             106    0.09 8  271 184 
 VIL  EE ES       1740  7.16                             106    1.47 8  271 184 
 VIL  EZ I        1740 14.16        20.1 0.38            105            271 184 
 ELA  HZ EP   3   1739 39.75                             106    2.33 2  280 228 
 ELA  HE ES   3   1740  6.95                             106   -1.47 2  280 228 
 ELA  HZ I        1740 14.82        11.1 0.46            104            280 228 
 DBB  EZ EP       1739 40.05                             104    0.67 7  301 280 
 DBB  EN ES       1740 12.07                             104    0.16 7  301 280 
 DBB  EZ I        1740 18.54         5.4 0.40            103            301 280 
 PTGC HZ EP   9   1739 37.81                             104   -1.68 0  303 149 
 PTGC HE ES       1740 10.27                                   -0.16 7  303 149 
 PTGC HZ I        1740 15.79        14.1 0.24            103            303 149 
 ANIL HZ EP   9   1739 41.86                             103    1.30 0  309 222 
 ANIL HE ES       1740 15.84                             103    0.53 7  309 222 
 ANIL HZ I        1740 22.77        17.3 0.62            102            309 222 
 PRA  HZ EP       1739 44.56                             101   -0.42 6  349 206 
 PRA  HE ES       1740 21.85                             101   -0.02 6  349 206 
 PRA  HZ I        1740 26.57        15.6 0.24            100            349 206 
 ORTC HZ EP       1739 45.49                             101    0.43 6  349 213 
 ORTC HN ES       1740 21.98                             101   -0.05 6  349 213 
 ORTC HZ I        1740 29.71         5.9 0.18            100            349 213 
 PAL  HZ EP       1739 45.81                             101   -0.07 6  356 239 
 PAL  HN ES       1740 23.01                             101   -0.46 6  356 239 
 PAL  HZ I        1740 27.17         8.5 0.24            100            356 239 
 SJC  HZ EP       1739 51.91                              98   -0.72 6  412 334 
 SJC  HN ES       1740 33.55                              98   -1.94 6  412 334 
 SJC  HZ I        1740 34.81         3.8 0.34             97            412 334 
                                                                                
