 2013  728 1104  7.0 L   6.838 -73.129143.6  RSN 13 0.4 2.2LRSN                1
 GAP=185        0.92       2.8     4.5  6.3 -0.4275E+00  0.5001E+01  0.4948E+00E
 Epicentro: LOS SANTOS - SANTANDER                                             3
 ACTION:UPD 13-08-12 10:40 OP:ep   STATUS:               ID:20130728110407 L   I
 OLDACT:UP  13-07-28 15:03 OP:mh   STATUS:               ID:20130728105959     3
 OLDACT:UP  13-07-28 15:03 OP:mh   STATUS:               ID:20130728105959     3
 OLDACT:UP  13-07-28 15:03 OP:mh   STATUS:               ID:20130728105959     3
 OLDACT:REG 13-07-28 14:22 OP:mh   STATUS:               ID:20130728105959     3
 2013-07-28-1059-59M.COL___268                                                 6
 STAT SP IPHASW D HRMM SECON CODA AMPLIT PERI AZIMU VELO AIN AR TRES W  DIS CAZ7
 GIR2 SZ EP   1   11 4 26.79                             169    0.50 7 27.5 345 
 GIR2 SZ I        11 4 43.20        10.4 0.12            168           27.5 345 
 BAR2 SZ EP       11 4 26.78                             169    0.3310 27.9 192 
 BAR2 SZ ES   1   11 4 41.43                             169   -0.20 7 27.9 192 
 BAR2 SZ I        11 4 42.99        17.1 0.22            169           27.9 192 
 BRR  HZ IP     C 11 4 28.52                             152    0.6410 70.9 295 
 BRR  HN ES   1   11 4 44.75                             152    0.57 7 70.9 295 
 BRR  HN I        11 4 45.74        51.4 0.30            152           70.9 295 
 RUS  HZ EP   1   11 4 31.06                             142    0.24 7  105 177 
 RUS  HN ES   1   11 4 49.29                             142   -0.13 7  105 177 
 RUS  HN I        11 4 51.13        21.3 0.36            143            105 177 
 PTB  HZ EP       11 4 33.32                             131   -0.69 9  150 257 
 PTB  HN ES       11 4 54.62                             131   -0.48 9  150 257 
 PTB  HN I        11 4 59.71        35.2 0.28            131            150 257 
 OCA  HN ES       11 4 56.02                             130   -0.38 9  156 352 
 OCA  HN I        11 4 59.56        38.6 0.24            129            156 352 
 SPBC HZ EP   1   11 4 35.72                             128   -0.02 7  168 219 
 SPBC HN ES       11 4 58.04                             128   -0.13 9  168 219 
 SPBC HN I        11 5  3.19        30.5 0.40            128            168 219 
 ZAR  HZ EP   1   11 4 39.30                             122    0.00 6  204 291 
 ZAR  HE ES       11 5  5.06                             122    0.55 9  204 291 
 ZAR  HE I        11 5 10.63        44.4 0.24            122            204 291 
 NOR  HZ EP   1   11 4 43.03                             118    0.02 6  239 234 
 NOR  HN ES       11 5 11.29                             118    0.17 8  239 234 
 NOR  HN I        11 5 15.20        19.8 0.16            118            239 234 
 SML  HZ EP   1   11 4 42.80                             117   -0.35 6  241 334 
 SML  HN ES       11 5 10.76                             117   -0.60 8  241 334 
 SML  HZ I        11 5 15.25        12.4 0.10            117            241 334 
 CHI  HZ EP   1   11 4 44.68                             116   -0.38 6  253 195 
 CHI  HN ES   1   11 5 14.05                             116   -0.71 6  253 195 
 CHI  HZ I        11 5 17.83         3.8 0.42            116            253 195 
 HEL  HZ EP   1   11 4 47.82                             114    0.42 6  275 255 
 HEL  HN ES   1   11 5 18.85                             114   -0.07 6  275 255 
 HEL  HN I        11 5 26.23         7.4 0.50            114            275 255 
 GUY2CHZ EP   1   11 4 51.53                             112    0.60 5  305 234 
 GUY2CHE ES   4   11 5 27.71                             112    2.49 0  305 234 
                                                                                
