 2014  528 1155 51.6 L   6.804 -73.163146.8  RSN  8 0.4 1.8LRSN                1
 GAP=199        0.96       3.2     5.2  5.6  0.1492E+01  0.3595E+01 -0.7145E-01E
 Epicentro: LOS SANTOS - SANTANDER                                             3
 ACTION:UPD 15-03-16 17:01 OP:nd   STATUS:               ID:20140528115551 L   I
 OLDACT:REG 14-05-28 21:42 OP:stll STATUS:               ID:20140528114811     3
 2014-05-28-1148-11M.COL___245                                                 6
 STAT SP IPHASW D HRMM SECON CODA AMPLIT PERI AZIMU VELO AIN AR TRES W  DIS CAZ7
 BAR2 SZ EP       1156 11.46                             170    0.0510 23.5 185 
 BAR2 SZ ES       1156 26.52                             170   -0.3010 23.5 185 
 BAR2 SZ I        1156 28.21        14.3 0.44            168           23.5 185 
 BRR  HZ EP       1156 13.35                             153    0.5410 69.3 299 
 BRR  HZ I        1156 13.60        17.5 0.22            151           69.3 299 
 BRR  HN ES       1156 29.38                             153    0.0710 69.3 299 
 RUS  HZ EP       1156 15.53                             144   -0.0110  101 175 
 RUS  HN ES       1156 34.32                             144    0.1410  101 175 
 PTB  HZ EP       1156 18.49                             133   -0.05 9  146 259 
 PTB  HN ES       1156 39.50                             133   -0.01 9  146 259 
 PTB  HZ I        1156 42.87         9.0 0.12            130            146 259 
 SPBC HZ EP       1156 20.12                             129   -0.02 9  162 218 
 SPBC HE ES       1156 43.05                             129    0.68 9  162 218 
 NOR  HZ EP       1156 27.35                             119    0.05 8  233 234 
 NOR  HN ES       1156 54.88                             119   -0.22 8  233 234 
 NOR  HZ I        1157  2.74         4.8 0.18            118            233 234 
 SML  HZ EP       1156 28.55                             118    0.34 8  243 336 
 SML  HN ES       1156 55.92                             118   -0.80 8  243 336 
 CHI  HZ EP       1156 29.44                             117    0.05 8  249 195 
 CHI  HZ I        1156 32.00         2.9 0.34            117            249 195 
 CHI  HN ES       1156 57.82                             117   -1.01 8  249 195 
                                                                                
