 2013  928 1010 30.5 L   6.787 -73.151144.5  RSN 10 0.4 1.9LRSN                1
 GAP=136        0.92       3.1     3.8  5.4 -0.1354E+01  0.4512E+01  0.3309E+01E
 Epicentro: LOS SANTOS - SANTANDER                                             3
 ACTION:UPD 13-10-22 09:25 OP:ep   STATUS:               ID:20130928101030 L   I
 OLDACT:REG 13-09-28 15:08 OP:jn   STATUS:               ID:20130928100901d    3
 2013-09-28-1009-59M.COL___272                                                 6
 STAT SP IPHASW D HRMM SECON CODA AMPLIT PERI AZIMU VELO AIN AR TRES W  DIS CAZ7
 BAR2 SZ EP       1010 49.94                             171   -0.0010 21.8 189 
 BAR2 SZ ES       1011  4.87                             171   -0.2410 21.8 189 
 BAR2 SZ I        1011  6.50        36.6 0.16            168           21.8 189 
 BRR  HZ EP       1010 51.80                             152    0.2910 71.3 300 
 BRR  HN ES       1011  8.83                             152    0.9210 71.3 300 
 BRR  HZ I        1011 11.47        15.4 0.24            151           71.3 300 
 PAM  SZ EP       1010 52.75                             150    0.0910 78.9  39 
 PAM  SN ES       1011  9.48                             150   -0.4810 78.9  39 
 PAM  SZ I        1011 10.70         8.3 0.22            155           78.9  39 
 RUS  HZ EP       1010 53.89                             144   -0.1310 99.2 176 
 RUS  HN ES       1011 12.63                             144    0.2510 99.2 176 
 RUS  HZ I        1011 13.85         6.3 0.24            144           99.2 176 
 PTB  HZ EP       1010 57.01                             132   -0.27 9  147 259 
 PTB  HN ES       1011 17.37                             132   -0.80 9  147 259 
 PTB  HZ I        1011 19.77        10.8 0.40            131            147 259 
 SPBC HZ EP       1010 58.81                             129    0.06 9  162 219 
 SPBC HN ES       1011 20.67                             129   -0.13 9  162 219 
 SPBC HZ I        1011 27.08        11.5 0.24            129            162 219 
 ZAR  HE ES   1   1011 27.94                             122   -0.15 6  204 293 
 ZAR  HZ I        1011 34.05         9.1 0.54            123            204 293 
 NOR  HZ EP       1011  6.08                             118    0.07 8  233 235 
 NOR  HE ES       1011 33.85                             118    0.14 8  233 235 
 NOR  HZ I        1011 39.36         7.7 0.14            119            233 235 
 SML  HN ES   1   1011 35.90                             117    0.14 6  245 336 
 CHI  HZ EP       1011  8.02                             117    0.06 8  247 195 
 CHI  HN ES       1011 37.40                             117    0.22 8  247 195 
 CHI  HZ I        1011 43.13         3.7 0.41            118            247 195 
                                                                                
