 2012 1228 1113 30.8 L   6.708 -73.198144.2  RSN  6 0.3 1.6LRSN                1
 GAP=171        0.69       6.3     5.5  7.5  0.1464E+02  0.1869E+01 -0.1532E+02E
 Epicentro: VILLANUEVA - SANTANDER                                             3
 ACTION:UPD 13-01-04 14:31 OP:ep   STATUS:               ID:20121228111330 L   I
 2012-12-28-1110-00M.COL___243                                                 6
 STAT SP IPHASW D HRMM SECON CODA AMPLIT PERI AZIMU VELO AIN AR TRES W  DIS CAZ7
 BAR2 SZ ES       1114  4.93                             175   -0.1410 12.9 172 
 BAR2 SZ I        1114  6.44        16.5 0.23                          12.9 172 
 GIR2 SZ EP       1113 50.15                             163   -0.4010 41.0   1 
 BRR  HZ EP       1113 52.10                             152    0.3110 72.0 308 
 BRR  HZ I        1114  5.74         8.3 0.34                          72.0 308 
 BRR  HE ES   1   1114  8.70                             152    0.52 7 72.0 308 
 RUS  HZ EP   2   1113 54.04                             146    0.34 5 91.1 172 
 RUS  HE ES   1   1114 11.61                             146    0.03 7 91.1 172 
 RUS  HE I        1114 14.57         5.6 0.27                          91.1 172 
 PTB  HN ES   1   1114 17.22                             133   -0.14 7  140 262 
 PTB  HZ I        1114 22.82         3.1 0.16                           140 262 
 ZAR  HN ES   1   1114 27.91                             122   -0.21 6  203 295 
 ZAR  HZ I        1114 35.04         3.5 0.18                           203 295 
                                                                                
