 2016  328 1831 38.4 L   6.745 -73.169142.2  RSN  5 0.5 1.7LRSN                1
 GAP=136        1.23       6.4     5.8  9.7 -0.1028E+01  0.2179E+02 -0.1116E+02E
 Epicentro: LOS SANTOS - SANTANDER                                             3
 *PAM-RUS-PTB                                                                  3
 ACTION:UPD 16-05-13 21:28 OP:cam  STATUS:               ID:20160328183138 L   I
 OLDACT:UP  16-03-29 00:25 OP:drio STATUS:               ID:20160328182746     3
 OLDACT:REG 16-03-28 21:06 OP:drio STATUS:               ID:20160328182746     3
 2016-03-28-1827-46M.COL___325                                                 6
 STAT SP IPHASW D HRMM SECON CODA AMPLIT PERI AZIMU VELO AIN AR TRES W  DIS CAZ7
 BAR2 EZ ES       1832 12.47                             173    0.1310 17.0 185 
 BAR2 EZ I        1832 13.35        19.3 0.18            177           17.0 185 
 PAM  EZ EP       1832  0.47                             148   -0.1310 83.7  38 
 PAM  EE ES       1832 17.68                             148   -0.2610 83.7  38 
 PAM  EZ I        1832 26.73         3.2 0.22            148           83.7  38 
 RUS  HZ EP       1832  1.46                             145    0.1110 94.8 174 
 RUS  HN ES       1832 19.70                             145    0.4210 94.8 174 
 RUS  HZ I        1832 20.41         7.3 0.38            153           94.8 174 
 PTB  HZ EP       1832  4.00                             132   -0.72 9  144 261 
 PTB  HN ES       1832 24.54                             132   -0.73 9  144 261 
 PTB  HZ I        1832 30.90         4.0 0.34            135            144 261 
 ZAR  HZ EP       1832 11.18                             122    0.60 9  204 294 
 ZAR  HE ES       1832 36.50                             122    0.79 9  204 294 
 ZAR  HZ I        1832 42.31         8.6 0.36            124            204 294 
                                                                                
