 2016 1028 1527 31.1 L   6.763 -73.158141.4  RSN  7 0.2 1.3LRSN                1
 GAP=137        0.52       2.6     3.2  4.1 -0.1540E+01  0.5362E+00  0.1023E+01E
 Epicentro: LOS SANTOS - SANTANDER                                             3
 ACTION:UPD 16-11-09 19:23 OP:rebc STATUS:               ID:20161028152731 L   I
 OLDACT:UP  16-10-29 01:12 OP:edw  STATUS:               ID:20161028151745     3
 OLDACT:REG 16-10-28 20:39 OP:edw  STATUS:               ID:20161028151745     3
 2016-10-28-1518-00M.COL___349                                                 6
 STAT SP IPHASW D HRMM SECON CODA AMPLIT PERI AZIMU VELO AIN AR TRES W  DIS CAZ7
 BAR2 EZ EP       1527 50.10                             172   -0.0110 19.1 188 
 BAR2 EZ ES       1528  5.16                             172    0.2110 19.1 188 
 BAR2 EZ I        1528  6.27         8.5 0.18            171           19.1 188 
 BRR  HZ EP       1527 52.02                             151    0.2110 72.0 302 
 BRR  HN ES       1528  8.12                             151    0.1410 72.0 302 
 PAM  EZ EP       1527 53.01                             149   -0.0810 81.4  38 
 PAM  EN ES       1528  9.89                             149   -0.3610 81.4  38 
 PAM  EZ I        1528 12.06         5.9 0.32            150           81.4  38 
 RUS  HZ EP       1527 54.11                             144   -0.0210 96.7 175 
 RUS  HN ES       1528 12.10                             144    0.0110 96.7 175 
 RUS  HZ I        1528 14.39         1.2 0.24            144           96.7 175 
 PTB  HN ES   2   1528 17.85                             131   -0.26 5  146 260 
 SPBC HZ EP   2   1527 59.39                             129    0.52 5  159 220 
 SPBC HN ES   2   1528 20.25                             129   -0.29 5  159 220 
 NOR  HN ES   2   1528 33.02                             118   -0.55 4  231 235 
                                                                                
