 2014  828 1603 33.5 L   6.807 -73.162147.2  RSN  5 0.3 1.9LRSN                1
 GAP=134        0.86       4.8     4.5  7.5 -0.2324E+01  0.2060E+01  0.5624E+01E
 Epicentro: LOS SANTOS - SANTANDER                                             3
 ACTION:UPD 14-09-15 21:53 OP:nd   STATUS:               ID:20140828160333 L   I
 OLDACT:DUP 14-08-29 01:08 OP:stll STATUS:               ID:20140828155817d    3
 2014-08-28-1558-16M.COL___263                                                 6
 STAT SP IPHASW D HRMM SECON CODA AMPLIT PERI AZIMU VELO AIN AR TRES W  DIS CAZ7
 BAR2 SZ EP       16 3 53.23                             170   -0.0710 23.9 186 
 BAR2 SZ I        16 4  9.88         9.9 0.16            169           23.9 186 
 BRR  HZ EP       16 3 55.05                             153    0.3710 69.3 299 
 BRR  HN ES       16 4 11.71                             153    0.5010 69.3 299 
 BRR  HZ I        16 4 15.68        16.5 0.42            154           69.3 299 
 PAM  SZ EP       16 3 56.02                             151    0.1410 77.9  41 
 PAM  SZ I        16 3 56.24        24.2 0.18            151           77.9  41 
 PAM  SN ES       16 4 12.88                             151   -0.4710 77.9  41 
 RUS  HZ EP       16 3 57.43                             144   -0.0110  102 175 
 RUS  HN ES       16 4 16.28                             144    0.1510  102 175 
 RUS  HZ I        16 4 17.90         7.1 0.26            143            102 175 
 PTB  HZ EP       16 4  0.25                             133   -0.18 9  146 258 
 PTB  HN ES       16 4 20.93                             133   -0.51 9  146 258 
 PTB  HZ I        16 4 23.50         9.8 0.48            132            146 258 
                                                                                
