 2017  928 1616 14.0 L   6.786 -73.081145.1  RSN  6 0.2 1.1LRSN                1
 GAP=146        0.54       2.8     3.5  4.3 -0.2754E+00  0.8250E+00  0.5807E+00E
 Epicentro: LOS SANTOS - SANTANDER                                             3
 ACTION:UPD 17-10-05 19:17 OP:rebc STATUS:               ID:20170928161614 L   I
 OLDACT:DUP 17-09-28 23:31 OP:osc  STATUS:               ID:20170928160738d    3
 2017-09-28-1608-00M.COL___443                                                 6
 STAT SP IPHASW D HRMM SECON CODA AMPLIT PERI AZIMU VELO AIN AR TRES W  DIS CAZ7
 BAR2 EZ EP       1616 33.23                             170   -0.2910 24.2 208 
 BAR2 EZ ES       1616 48.86                             170    0.0810 24.2 208 
 PAM  EZ EP       1616 36.28                             152    0.3710 74.3  35 
 PAM  EE ES       1616 52.78                             152   -0.2610 74.3  35 
 BRR  HZ EP       1616 35.54                             150    0.1010 78.2 297 
 BRR  HE ES       1616 52.29                             150    0.0910 78.2 297 
 RUS  HZ EP       1616 37.44                             144   -0.0710 98.8 180 
 RUS  HN ES       1616 55.96                             144    0.0810 98.8 180 
 RUS  HZ I        1616 56.75         2.2 0.32            144           98.8 180 
 ZAR  HE ES   2   1617 12.64                             121   -0.32 4  211 292 
 NOR  HE ES   2   1617 18.17                             118   -0.26 4  240 236 
                                                                                
