 2013  828 1856 42.5 L   6.734 -73.207147.2  RSN  4 0.4 1.1LRSN                1
 GAP=223        0.83       8.3     8.2  8.0  0.3637E+02  0.1051E+02  0.4802E+01E
 Epicentro: VILLANUEVA - SANTANDER                                             3
 ACTION:UPD 14-01-14 09:08 OP:ep   STATUS:               ID:20130828185642 L   I
 OLDACT:DUP 13-08-28 16:50 OP:carl STATUS:               ID:20130828184960d    3
 2013-08-28-1849-59M.COL___236                                                 6
 STAT SP IPHASW D HRMM SECON CODA AMPLIT PERI AZIMU VELO AIN AR TRES W  DIS CAZ7
 BAR2 SZ ES   1   1857 16.77                             174   -0.72 7 15.9 170 
 BRR  HZ EP       1857  3.57                             153   -0.1010 69.4 307 
 BRR  HN ES   1   1857 20.86                             153    0.65 7 69.4 307 
 RUS  HZ EP       1857  6.12                             146    0.2210 94.0 172 
 RUS  HN ES   1   1857 24.42                             146    0.25 7 94.0 172 
 RUS  HZ I        1857 25.34         1.6 0.22            144           94.0 172 
 PTB  HZ EP       1857  8.63                             134   -0.21 9  140 261 
 PTB  HN ES   1   1857 29.34                             134   -0.07 7  140 261 
 PTB  HZ I        1857 32.89         2.6 0.20            131            140 261 
                                                                                
