 2017  728 1205 14.5 L   6.782 -73.128150.8  RSN  7 0.4 1.6LRSN                1
 GAP=140        1.03       4.8     4.4  6.9 -0.9967E+00  0.8770E+01 -0.5182E+00E
 Epicentro: LOS SANTOS - SANTANDER                                             3
 ACTION:UPD 17-08-30 15:37 OP:rebc STATUS:               ID:20170728120514 L   I
 OLDACT:UP  17-07-28 18:16 OP:ar   STATUS:               ID:20170728115745     3
 OLDACT:UP  17-07-28 18:14 OP:ar   STATUS:               ID:20170728115745     3
 OLDACT:REG 17-07-28 15:31 OP:ar   STATUS:               ID:20170728115745     3
 2017-07-28-1158-00M.COL___377                                                 6
 STAT SP IPHASW D HRMM SECON CODA AMPLIT PERI AZIMU VELO AIN AR TRES W  DIS CAZ7
 BAR2 EZ EP       12 5 34.50                             171   -0.2510 21.9 196 
 BAR2 EZ ES       12 5 50.67                             171    0.1610 21.9 196 
 BAR2 EZ I        12 5 52.32         4.2 0.18            170           21.9 196 
 BRR  HZ EP       12 5 36.38                             152   -0.0110 73.9 299 
 BRR  HN ES       12 5 53.92                             152    0.5010 73.9 299 
 PAM  EZ EP       12 5 37.32                             152    0.0110 77.6  37 
 PAM  EE ES       12 5 54.75                             152   -0.3110 77.6  37 
 PAM  EZ I        12 5 56.42         8.5 0.20            155           77.6  37 
 RUS  HZ EP       12 5 38.92                             145    0.2710 98.5 177 
 RUS  HE ES       12 5 57.42                             145   -0.0310 98.5 177 
 RUS  HZ I        12 5 57.81         4.5 0.52            147           98.5 177 
 PTB  HZ EP       12 5 41.30                             133   -0.77 9  149 260 
 PTB  HE ES       12 6  3.26                             133   -0.28 9  149 260 
 PTB  HZ I        12 6  9.13         4.2 0.40            132            149 260 
 ZAR  HZ EP       12 5 48.57                             123    0.98 8  207 292 
 ZAR  HE ES       12 6 13.03                             123   -0.33 8  207 292 
 ZAR  HZ I        12 6 18.49         9.6 0.36            123            207 292 
 NOR  HZ EP   4   12 5 54.70                             119    4.07 0  235 235 
 NOR  HE ES       12 6 18.89                             119    0.12 8  235 235 
 NOR  HZ I        12 6 23.48         3.2 0.36            120            235 235 
                                                                                
