 2013  328 1232 44.5 L   6.792 -73.171145.5  RSN  6 0.4 2.1LRSN                1
 GAP=134        1.17       6.0     6.1  7.9 -0.4226E+01  0.3001E+01  0.5579E+01E
 Epicentro: LOS SANTOS - SANTANDER                                             3
 ACTION:UPD 13-04-09 14:05 OP:ep   STATUS:               ID:20130328123244 L   I
 2013-03-28-1230-00M.COL___245                                                 6
 STAT SP IPHASW D HRMM SECON CODA AMPLIT PERI AZIMU VELO AIN AR TRES W  DIS CAZ7
 BAR2 SZ EP       1233  4.06                             171   -0.0510 22.2 183 
 BAR2 SZ ES       1233 18.89                             171   -0.4810 22.2 183 
 BAR2 SZ I        1233 19.90        32.9 0.26            170           22.2 183 
 GIR2 SZ EP       1233  4.15                             167   -0.0310 31.8 356 
 GIR2 SZ ES       1233 19.26                             167   -0.2610 31.8 356 
 GIR2 SZ I        1233 19.99        16.2 0.38            166           31.8 356 
 BRR  HZ EP       1233  5.94                             153    0.4010 69.2 300 
 BRR  HN ES       1233 22.85                             153    0.9310 69.2 300 
 BRR  HN I        1233 26.67        33.3 0.14            151           69.2 300 
 PAM  SZ EP       1233  7.03                             150    0.1610 79.8  41 
 PAM  SN ES       1233 23.94                             150   -0.3510 79.8  41 
 PAM  SN I        1233 24.68        29.6 0.24            153           79.8  41 
 RUS  HZ EP       1233  8.06                             144   -0.1510100.0 174 
 RUS  HN ES       1233 27.27                             144    0.5910100.0 174 
 RUS  HN I        1233 28.12        19.0 0.32            145          100.0 174 
 PTB  HZ EP   1   1233 10.75                             132   -0.46 7  145 259 
 PTB  HN ES       1233 31.41                             132   -0.61 9  145 259 
 PTB  HN I        1233 36.96        23.5 0.36            131            145 259 
                                                                                
