 2015  828 1023 12.2 L   6.812 -73.119153.7  RSN 18 0.4 2.4LRSN                1
 GAP=167        0.93       2.4     3.9  4.9  0.6110E-02  0.2195E+01  0.1147E+01E
 Epicentro: LOS SANTOS - SANTANDER                                             3
 ACTION:UPD 15-09-15 23:05 OP:cam  STATUS:               ID:20150828102312 L   I
 OLDACT:REG 15-08-28 21:45 OP:spq  STATUS:               ID:20150828101746     3
 2015-08-28-1017-46M.COL___355                                                 6
 STAT SP IPHASW D HRMM SECON CODA AMPLIT PERI AZIMU VELO AIN AR TRES W  DIS CAZ7
 BAR2 EZ IP     D 1023 32.84                             170    0.0310 25.3 196 
 BAR2 EZ ES   1   1023 48.75                             170   -0.14 7 25.3 196 
 BAR2 EZ E        1023 49.09                                           25.3 196 
 BAR2 EZ I        1023 50.59        28.8 0.32            168           25.3 196 
 BRR  HZ EP     D 1023 34.70                             153    0.4010 73.2 296 
 BRR  HE ES       1023 52.19                             153    0.6310 73.2 296 
 BRR  HZ I        1023 57.00        24.6 0.14            151           73.2 296 
 RUS  HZ EP       1023 36.63                             145   -0.1710  102 178 
 RUS  HN ES       1023 55.76                             145   -0.2510  102 178 
 RUS  HZ I        1023 56.43        16.8 0.26            146            102 178 
 OCA  HZ EP       1023 41.03                             132   -0.00 9  159 352 
 OCA  HN ES       1024  3.47                             132   -0.07 9  159 352 
 OCA  HZ I        1024 12.62        38.3 0.30            133            159 352 
 SPBC HZ EP       1023 41.75                             130    0.18 9  166 219 
 SPBC HE ES       1024  3.77                             130   -0.72 9  166 219 
 SPBC HZ I        1024  8.37        27.5 0.18            130            166 219 
 ZAR  HZ EP       1023 45.52                             124    0.14 8  206 291 
 ZAR  HE ES       1024 11.14                             124   -0.14 8  206 291 
 ZAR  HZ I        1024 16.94        41.4 0.36            124            206 291 
 NOR  HZ EP       1023 48.72                             120    0.00 8  238 235 
 NOR  HE ES       1024 16.97                             120   -0.25 8  238 235 
 NOR  HZ I        1024 22.39        14.7 0.32            120            238 235 
 SML  HZ EP       1023 49.26                             119   -0.01 8  244 335 
 SML  HN ES   1   1024 17.78                             119   -0.42 6  244 335 
 SML  HZ I        1024 22.71        22.7 0.24            120            244 335 
 CHI  HZ EP       1023 51.12                             118    0.57 8  251 196 
 CHI  HN ES   1   1024 20.16                             118   -0.33 6  251 196 
 CHI  HZ I        1024 30.10         8.0 0.34            120            251 196 
 ROSC BZ EP   1   1023 51.79                             118    0.76 6  255 211 
 ROSC BN ES       1024 21.98                             118    0.64 8  255 211 
 ROSC BZ I        1024 30.36        15.4 0.55            119            255 211 
 HEL  HZ EP   4   1023 54.83                             116    1.67 0  275 256 
 HEL  HE ES       1024 25.22                             116    0.10 8  275 256 
 HEL  HZ I        1024 31.90        10.2 0.35            116            275 256 
 URE  HZ EP       1023 52.87                             115   -1.03 7  286 291 
 URE  HN ES   4   1024 23.81                             115   -2.62 0  286 291 
 URE  HZ I        1024 36.82        16.3 0.16            115            286 291 
 GUY2CHZ EP   4   1023 57.83                             114    1.31 0  304 235 
 GUY2CHE ES   4   1024 33.16                             114    2.05 0  304 235 
 GUY2CHZ I        1024 41.60        12.0 0.50                           304 235 
 PTGC HZ EP       1023 55.81                             113   -0.62 7  309 159 
 PTGC HN ES   4   1024 28.72                             113   -2.22 0  309 159 
 PTGC HZ I        1024 36.02        16.6 0.50            115            309 159 
 DBB  SZ ES   1   1024 37.29                             111   -0.57 5  342 274 
 DBB  SZ I        1024 38.09        28.8 0.40            111            342 274 
 TOL  SZ EP   4   1024  2.73                             110    1.62 0  347 225 
 TOL  SE ES   1   1024 40.09                             110    0.81 5  347 225 
 TOL  SZ I        1024 44.04         7.7 0.40            111            347 225 
 PRA  HZ EP       1024  6.90                             108    0.61 6  395 210 
 PRA  HE ES       1024 47.96                             108   -0.54 6  395 210 
 PRA  HZ I        1024 52.37         9.8 0.56            109            395 210 
 ORTC HZ EP       1024  7.01                             107    0.30 6  398 216 
 ORTC HN ES   4   1024 50.43                             107    1.19 0  398 216 
 ORTC HZ I        1024 55.79         4.7 0.48            108            398 216 
                                                                                
