 2016  928 1150 27.1 L   6.602 -73.152145.5  RSN  5 0.2 1.4LRSN                1
 GAP=222        0.63       4.7     4.5  4.9  0.1269E+02  0.4476E+01 -0.7909E-01E
 Epicentro: SAN GIL - SANTANDER                                                3
 ACTION:UPD 17-08-17 21:17 OP:lp   STATUS:               ID:20160928115027 L   I
 OLDACT:UP  16-09-28 22:36 OP:edw  STATUS:               ID:20160928114734     3
 OLDACT:UP  16-09-28 22:34 OP:edw  STATUS:               ID:20160928114734     3
 OLDACT:UP  16-09-28 22:29 OP:edw  STATUS:               ID:20160928114734     3
 OLDACT:UP  16-09-28 22:29 OP:edw  STATUS:               ID:20160928114734     3
 OLDACT:REG 16-09-28 20:44 OP:edw  STATUS:               ID:20160928114734     3
 2016-09-28-1148-00M.COL___384                                                 6
 STAT SP IPHASW D HRMM SECON CODA AMPLIT PERI AZIMU VELO AIN AR TRES W  DIS CAZ7
 BAR2 EZ EP       1150 46.92                             179    0.4910 3.47 252 
 BAR2 EZ ES       1151  1.65                             179    0.1210 3.47 252 
 BAR2 EZ I        1151  2.77         6.1 0.11            172           3.47 252 
 RUS  HZ EP       1150 49.06                             150   -0.2810 78.8 174 
 RUS  HN ES       1151  6.61                             150   -0.1010 78.8 174 
 RUS  HZ I        1151 10.19         2.7 0.26            148           78.8 174 
 BRR  HZ EP       1150 48.93                             148    0.0210 83.4 312 
 BRR  HN ES       1151  5.62                             148   -0.3310 83.4 312 
 PTB  HZ EP       1150 53.65                             133   -0.05 9  144 267 
 PTB  HE ES       1151 14.66                             133    0.18 9  144 267 
 PTB  HZ I        1151 18.33         3.0 0.10            132            144 267 
 ZAR  HZ EP   2   1151  0.08                             121   -0.30 4  213 298 
 ZAR  HN ES       1151 26.40                             121    0.03 8  213 298 
 ZAR  HZ I        1151 28.09         2.4 0.22            122            213 298 
                                                                                
