 2015  428 1152  6.0 L   6.824 -73.183135.1  RSN 12 0.5 2.2LRSN                1
 GAP=131        1.22       3.4     4.6  7.2 -0.3456E+01  0.1215E+02 -0.7607E+00E
 Epicentro: ZAPATOCA - SANTANDER                                               3
 ACTION:UPD 15-06-03 16:58 OP:cam  STATUS:               ID:20150428115206 L   I
 OLDACT:REG 15-04-28 21:20 OP:ak   STATUS:               ID:20150428114749     3
 2015-04-28-1147-49M.COL___286                                                 6
 STAT SP IPHASW D HRMM SECON CODA AMPLIT PERI AZIMU VELO AIN AR TRES W  DIS CAZ7
 BAR2 EZ IP     C 1152 24.39                             169   -0.0110 25.7 180 
 BAR2 EZ ES       1152 38.22                             169   -0.5310 25.7 180 
 BAR2 EZ I        1152 40.27        48.1 0.32            169           25.7 180 
 BRR  HZ IP     C 1152 26.31                             152    0.6010 66.3 298 
 BRR  HN ES       1152 42.00                             152    0.9110 66.3 298 
 BRR  HZ I        1152 46.30        22.9 0.27            150           66.3 298 
 PAM  SZ EP       1152 27.54                             148    0.4110 78.1  43 
 PAM  SN ES       1152 44.31                             148    0.6910 78.1  43 
 PAM  SZ I        1152 46.54        26.5 0.48            152           78.1  43 
 RUS  HZ EP       1152 28.97                             141    0.0210  104 174 
 RUS  HN ES       1152 46.21                             141   -0.6410  104 174 
 RUS  HZ I        1152 47.61        16.0 0.26            143            104 174 
 PTB  HZ EP       1152 31.33                             130   -0.45 9  144 257 
 PTB  HN ES       1152 51.35                             130   -0.55 9  144 257 
 PTB  HZ I        1152 54.81        15.4 0.14            130            144 257 
 OCA  HN ES       1152 53.72                             128   -0.69 9  157 355 
 SPBC HN ES       1152 55.05                             127   -0.18 9  163 217 
 SPBC HZ I        1152 57.39        20.5 0.23            128            163 217 
 ZAR  HZ EP   2   1152 37.31                             121    0.05 4  199 292 
 ZAR  HN ES       1153  1.95                             121    0.31 9  199 292 
 ZAR  HZ I        1153  6.77        21.0 0.10            121            199 292 
 NOR  HZ EP       1152 40.99                             116    0.06 8  233 233 
 NOR  HE ES       1153  8.43                             116    0.24 8  233 233 
 NOR  HZ I        1153 14.14         9.9 0.14            117            233 233 
 SML  HZ EP       1152 41.18                             116   -0.41 8  240 336 
 SML  HN ES       1153  8.66                             116   -0.69 8  240 336 
 SML  HZ I        1153 15.08        20.7 0.24            117            240 336 
 GUY2CHZ EP   4   1152 50.99                             110    2.07 0  299 234 
 GUY2CHE ES       1153 22.45                             110    0.04 7  299 234 
 GUY2CHZ I        1153 29.75         5.6 0.28                           299 234 
 TOL  SZ EP   2   1152 54.47                             107    0.74 3  343 224 
 TOL  SE ES       1153 31.71                             107    0.75 7  343 224 
 TOL  SZ I        1153 39.74         4.1 0.53            109            343 224 
                                                                                
