 2015  328 1517  8.9 L   6.617 -72.931  4.0  RSN  8 0.4 1.9LRSN                1
 GAP= 93        1.08       2.2     2.9  4.9 -0.1568E+01  0.1421E+01 -0.4973E+00E
 Epicentro: ARATOCA - SANTANDER                                                3
 ACTION:UPD 15-04-30 16:30 OP:nd   STATUS:               ID:20150328151708 L   I
 OLDACT:REG 15-03-28 20:32 OP:stll STATUS:               ID:20150328150750     3
 2015-03-28-1507-50M.COL___275                                                 6
 STAT SP IPHASW D HRMM SECON CODA AMPLIT PERI AZIMU VELO AIN AR TRES W  DIS CAZ7
 BAR2 EZ IP     D 1517 13.88                              47   -0.1110 27.9 264 
 BAR2 EZ I        1517 14.02        85.3 0.24             47           27.9 264 
 BAR2 EZ ES       1517 17.60                              47   -0.3510 27.9 264 
 RUS  HZ IP     C 1517 22.83                              47    0.4110 81.9 192 
 RUS  HZ I        1517 23.20        57.3 0.24             47           81.9 192 
 RUS  HN ES       1517 32.58                              47   -0.3810 81.9 192 
 PAM  SZ IP     D 1517 22.79                              47    0.0710 83.9  18 
 PAM  SZ I        1517 22.97        17.1 0.16             47           83.9  18 
 PAM  SN ES       1517 32.80                              47   -0.6910 83.9  18 
 BRR  HZ IP     D 1517 25.77                              47    0.8210  102 302 
 BRR  HE ES       1517 37.33                              47   -0.1310  102 302 
 BRR  HZ I        1517 39.08        12.7 0.32             47            102 302 
 TAM  HZ EP   9   1517 32.24                              47    3.35 0  128  99 
 TAM  HN ES       1517 48.01                                    0.1910  128  99 
 SPBC HE ES       1517 54.65                              47   -0.09 9  165 230 
 SPBC HZ I        1517 57.10        18.0 0.24             47            165 230 
 PTB  HZ EP       1517 35.59                              47    0.47 9  169 267 
 PTB  HE ES       1517 55.27                              47   -0.29 9  169 267 
 PTB  HZ I        1517 56.96        38.8 0.20             47            169 267 
 SML  HN ES       1518 19.39                              37    0.54 8  272 333 
                                                                                
