 2016  528 1542 46.0 L   6.775 -73.107146.5  RSN 17 0.5 2.4LRSN                1
 GAP=143        1.15       3.4     4.4  5.7 -0.4506E+01  0.5958E+01  0.3615E+01E
 Epicentro: LOS SANTOS - SANTANDER                                             3
 ACTION:UPD 16-08-18 17:50 OP:cam  STATUS:               ID:20160528154246 L   I
 OLDACT:UP  16-06-01 05:07 OP:dnl  STATUS:               ID:20160528154246 L   3
 OLDACT:UP  16-05-28 23:52 OP:mh   STATUS:               ID:20160528153743     3
 OLDACT:UP  16-05-28 23:44 OP:mh   STATUS:               ID:20160528153743     3
 OLDACT:UP  16-05-28 23:32 OP:mh   STATUS:               ID:20160528153743     3
 OLDACT:UP  16-05-28 23:32 OP:mh   STATUS:               ID:20160528153743     3
 OLDACT:UP  16-05-28 23:32 OP:mh   STATUS:               ID:20160528153743     3
 OLDACT:UP  16-05-28 23:31 OP:mh   STATUS:               ID:20160528153743     3
 OLDACT:UP  16-05-28 23:31 OP:mh   STATUS:               ID:20160528153743     3
 OLDACT:UP  16-05-28 23:30 OP:mh   STATUS:               ID:20160528153743     3
 OLDACT:REG 16-05-28 21:25 OP:mh   STATUS:               ID:20160528153743     3
 2016-05-28-1537-43M.COL___314                                                 6
 STAT SP IPHASW D HRMM SECON CODA AMPLIT PERI AZIMU VELO AIN AR TRES W  DIS CAZ7
 BAR2 EZ EP       1543  5.66                             171   -0.0610 21.9 203 
 BAR2 EZ ES       1543 20.22                             171   -0.8510 21.9 203 
 BAR2 EZ I        1543 22.65        36.1 0.36            169           21.9 203 
 BRR  HZ EP       1543  7.71                             151    0.1610 76.3 299 
 BRR  HN ES       1543 24.61                             151    0.2710 76.3 299 
 BRR  HZ I        1543 24.82        33.6 0.14            149           76.3 299 
 PAM  EZ EP     D 1543  8.54                             151    0.2510 76.9  36 
 PAM  EN ES       1543 25.90                             151    0.2410 76.9  36 
 PAM  EZ I        1543 27.83        14.1 0.44            154           76.9  36 
 RUS  HZ EP       1543  9.63                             145   -0.0110 97.6 178 
 RUS  HN ES       1543 28.65                             145    0.6010 97.6 178 
 RUS  HZ I        1543 30.89        24.3 0.50            145           97.6 178 
 PTB  HZ EP       1543 12.71                             131   -0.68 9  152 260 
 PTB  HN ES       1543 33.81                             131   -0.93 9  152 260 
 PTB  HZ I        1543 36.69        33.4 0.28            130            152 260 
 OCA  HZ EP       1543 14.21                             129   -0.50 9  164 352 
 OCA  HN ES       1543 37.65                             129    0.57 9  164 352 
 OCA  HZ I        1543 43.22        40.2 0.36            130            164 352 
 SPBC HZ EP       1543 14.55                             129   -0.09 9  164 221 
 SPBC HN ES       1543 36.77                             129   -0.19 9  164 221 
 SPBC HZ I        1543 43.34        41.2 0.24            128            164 221 
 NOR  HZ EP       1543 21.42                             118   -0.59 8  237 236 
 NOR  HN ES       1543 50.81                             118    0.74 8  237 236 
 NOR  HZ I        1543 53.96        30.3 0.22            118            237 236 
 CHI  HZ EP       1543 23.63                             117    0.03 8  247 196 
 CHI  HN ES       1543 52.68                             117   -0.23 8  247 196 
 CHI  HZ I        1543 58.30        11.5 0.40            118            247 196 
 HEL  HZ EP       1543 27.60                             114    0.93 7  276 257 
 HEL  HN ES       1543 58.47                             114    0.10 7  276 257 
 HEL  HZ I        1544  3.99        13.9 0.30            114            276 257 
 URE  HZ EP   4   1543 25.54                             113   -2.16 0  289 292 
 URE  HN ES   4   1544  4.54                             113    4.34 0  289 292 
 URE  HZ I        1544 10.69        21.0 0.20            113            289 292 
 VIL  SN ES   4   1544  5.78                             112    2.78 0  302 192 
 ELA  HZ EP   4   1543 35.29                             110    2.21 0  331 230 
 ELA  HN ES       1544 10.72                             110    0.94 7  331 230 
 ELA  HZ I        1544 18.42         8.5 0.39            110            331 230 
 CBOC HZ EP       1543 33.12                             110   -0.23 7  337 253 
 CBOC HN ES   1   1544 10.40                             110    0.14 5  337 253 
 CBOC HZ I        1544 14.13         4.6 0.33            110            337 253 
 DBB  SZ EP   9   1543 32.56                             109   -1.49 0  344 275 
 DBB  SZ ES       1544  9.95                             109   -0.07 7  344 275 
 DBB  SZ I        1544 13.91        32.3 0.44            109            344 275 
 ANIL HZ EP   4   1543 34.66                             108   -1.33 0  358 225 
 ANIL HE ES   4   1544 17.57                             108    2.62 0  358 225 
 PRA  HZ EP       1543 38.99                             107   -0.55 6  392 210 
 PRA  HN ES   1   1544 21.86                             107    0.57 4  392 210 
 PRA  HZ I        1544 25.46         9.9 0.54            107            392 210 
 ORTC HZ EP       1543 39.80                             106   -0.21 6  396 217 
 ORTC HN ES   1   1544 23.13                             106    1.01 4  396 217 
 ORTC HZ I        1544 29.32         7.3 0.44            107            396 217 
 SJC  HZ EP   4   1543 39.28                             105   -2.88 0  414 327 
 SJC  HN ES   4   1544 20.07                             105   -5.88 0  414 327 
 SJC  HZ I        1544 25.68         4.6 0.79            106            414 327 
                                                                                
