 2017 1028 1442 39.8 L   6.822 -73.198136.7  RSN  4 0.3 1.3LRSN                1
 GAP=129        0.73       5.5     5.5  6.2 -0.4394E+01 -0.4195E+01  0.9005E+01E
 Epicentro: ZAPATOCA - SANTANDER                                               3
 ACTION:UPD 17-11-07 19:38 OP:rebc STATUS:               ID:20171028144239 L   I
 OLDACT:DUP 17-10-28 23:14 OP:dhb  STATUS:               ID:20171028143745d    3
 OLDACT:DUP 17-10-28 23:10 OP:dhb  STATUS:               ID:20171028143744d    3
 OLDACT:REG 17-10-28 20:03 OP:dhb  STATUS:               ID:20171028143743     3
 2017-10-28-1438-00M.COL___438                                                 6
 STAT SP IPHASW D HRMM SECON CODA AMPLIT PERI AZIMU VELO AIN AR TRES W  DIS CAZ7
 BAR2 EZ EP       1442 58.24                             169   -0.1610 25.4 176 
 BAR2 EZ ES       1443 13.20                             169    0.3110 25.4 176 
 BAR2 EZ I        1443 14.43         3.2 0.30            150           25.4 176 
 BRR  HZ EP       1443  0.08                             153    0.4610 64.9 299 
 BRR  HE ES       1443 14.75                             153   -0.3310 64.9 299 
 BRR  HZ I        1443 14.79         9.5 0.42            154           64.9 299 
 PAM  EZ EP       1443  1.22                             148    0.0210 79.5  44 
 PAM  EN ES       1443 17.81                             148   -0.0710 79.5  44 
 PAM  EZ I        1443 20.39         4.1 0.54            143           79.5  44 
 RUS  HZ EP       1443  2.67                             141   -0.2310  104 173 
 RUS  HZ I        1443 22.89         2.1 0.34            124            104 173 
                                                                                
