 2013  228 1731  9.3 L   6.837 -73.143142.0  RSN 17 0.5 3.0LRSN 3.3WRSN        1
 SPEC AVERAGE  MO 14.1 ST 13.8 OM  2.2 f0 3.70 R0.4270 AL 2.20 WI 25.1 MW  3.3 3
 SPEC SD       MO  0.3 ST 15.6 OM  0.5 f00.941 R0.1194 AL      WI      MW  0.2 3
 GAP= 70        1.26       3.0     3.4  5.8 -0.9939E+00  0.4898E+01  0.2160E+01E
 Epicentro: LOS SANTOS - SANTANDER                                             3
 SPEC ZAR HH N MO 14.2 ST 19.6 OM  2.4 f0 4.51 R0.3259 AL 1.70 WI 33.3 MW  3.4 3
 SPEC ZAR HH N T1732 7 K 0.000 GD  247 VS 4.20 DE 3.20 Q0300.0 QA 0.60 VS 4.20 3
 SPEC PRA HH N MO 13.8 ST  7.2 OM  1.8 f0 4.28 R0.3435 AL 3.09 WI 24.5 MW  3.2 3
 SPEC PRA HH N T173243 K 0.000 GD  420 VS 4.20 DE 3.20 Q0300.0 QA 0.60 VS 4.20 3
 SPEC RREFHH Z MO 14.2 ST 13.0 OM  1.5 f0 3.85 R0.3818 AL 3.06 WI 35.3 MW  3.4 3
 SPEC RREFHH Z T173155 K 0.000 GD  354 VP 7.60 DE 3.20 Q0300.0 QA 0.60 VS 4.20 3
 SPEC PTB HH N MO 14.0 ST  2.3 OM  2.3 f0 2.54 R0.5787 AL 1.15 WI 25.0 MW  3.3 3
 SPEC PTB HH N T173155 K 0.000 GD  205 VS 4.20 DE 3.20 Q0300.0 QA 0.60 VS 4.20 3
 SPEC RUS HH N MO 13.5 ST0.888 OM  1.9 f0 2.64 R0.5568 AL 1.59 WI 28.6 MW  3.0 3
 SPEC RUS HH N T173149 K 0.000 GD  176 VS 4.20 DE 3.20 Q0300.0 QA 0.60 VS 4.20 3
 SPEC HEL HH Z MO 13.9 ST  1.0 OM  1.2 f0 2.17 R0.6774 AL 1.12 WI 24.9 MW  3.2 3
 SPEC HEL HH Z T173150 K 0.000 GD  307 VP 7.60 DE 3.20 Q0300.0 QA 0.60 VS 4.20 3
 SPEC NOR HH N MO 14.4 ST 61.2 OM  2.6 f0 5.45 R0.2697 AL 3.85 WI 27.4 MW  3.6 3
 SPEC NOR HH N T173212 K 0.000 GD  276 VS 4.20 DE 3.20 Q0300.0 QA 0.60 VS 4.20 3
 SPEC OCA HH N MO 14.4 ST 14.0 OM  2.7 f0 3.38 R0.4349 AL 2.19 WI 33.9 MW  3.6 3
 SPEC OCA HH N T173157 K 0.000 GD  210 VS 4.20 DE 3.20 Q0300.0 QA 0.60 VS 4.20 3
 SPEC PAM SH Z MO 13.9 ST  9.2 OM  1.5 f0 4.47 R0.3289 AL 2.19 WI 16.6 MW  3.2 3
 SPEC PAM SH Z T173131 K 0.000 GD  160 VP 7.60 DE 3.20 Q0300.0 QA 0.60 VS 4.20 3
 SPEC CHI HH N MO 14.1 ST  4.1 OM  2.2 f0 2.95 R0.4983 AL 2.48 WI 21.9 MW  3.3 3
 SPEC CHI HH N T173215 K 0.000 GD  290 VS 4.20 DE 3.20 Q0300.0 QA 0.60 VS 4.20 3
 SPEC BRR HH Z MO 14.2 ST 17.3 OM  1.8 f0 4.40 R0.3341 AL 2.61 WI 16.2 MW  3.4 3
 SPEC BRR HH Z T173130 K 0.000 GD  158 VP 7.60 DE 3.20 Q0300.0 QA 0.60 VS 4.20 3
 SPEC BAR2SH Z MO 14.3 ST 15.3 OM  2.0 f0 3.73 R0.3941 AL 1.42 WI 14.1 MW  3.5 3
 SPEC BAR2SH Z T173128 K 0.000 GD  144 VP 7.60 DE 3.20 Q0300.0 QA 0.60 VS 4.20 3
 ACTION:UPD 13-03-12 09:36 OP:ep   STATUS:               ID:20130228173109 L   I
 2013-02-28-1728-48M.COL___199                                                 6
 STAT SP IPHASW D HRMM SECON CODA AMPLIT PERI AZIMU VELO AIN AR TRES W  DIS CAZ7
 BAR2 SZ IP       1731 28.64                             169    0.0910 27.5 189 
 BAR2 SZ I        1731 29.15       218.8 0.26            166           27.5 189 
 BAR2 SZ ES       1731 43.32                             169   -0.2610 27.5 189 
 BRR  HZ IP     C 1731 30.50                             152    0.5710 69.6 295 
 BRR  HZ I        1731 30.77       138.5 0.26            152           69.6 295 
 BRR  HN ES       1731 47.04                             152    1.0010 69.6 295 
 PAM  SZ EP       1731 31.59                             151    0.6910 74.1  41 
 PAM  SN ES       1731 47.83                             151    0.0710 74.1  41 
 PAM  SE I        1731 50.82       289.2 0.44            155           74.1  41 
 RUS  HN EP       1731 32.58                             142   -0.3910  105 176 
 RUS  HE ES       1731 51.10                             142   -0.3510  105 176 
 RUS  HN I        1731 54.14        66.2 0.48            141            105 176 
 PTB  HZ EP       1731 35.21                             131   -0.84 9  149 257 
 PTB  HE ES       1731 56.25                             131   -0.67 9  149 257 
 PTB  HN I        1731 58.54       167.6 0.40            131            149 257 
 TAM  HZ EP       1731 37.07                             130    0.32 9  156 106 
 TAM  HN ES       1731 58.09                             130   -0.08 9  156 106 
 TAM  HE I        1731 59.69       174.0 0.64            131            156 106 
 OCA  HZ EP       1731 36.54                             130   -0.38 9  156 353 
 OCA  HN ES       1731 57.92                             130   -0.55 9  156 353 
 OCA  HE I        1731 59.58       261.6 0.20            132            156 353 
 ZAR  HZ EP       1731 41.73                             122    0.38 9  203 291 
 ZAR  HN ES       1732  7.32                             122    0.95 9  203 291 
 ZAR  HE I        1732  9.13       247.0 0.14            122            203 291 
 NOR  HZ EP       1731 44.71                             117   -0.37 8  237 234 
 NOR  HE ES       1732 12.79                             117   -0.21 8  237 234 
 NOR  HN I        1732 14.88       199.7 0.16            118            237 234 
 SML  HZ EP   1   1731 45.11                             117   -0.19 6  240 335 
 SML  HE ES       1732 12.54                             117   -0.86 8  240 335 
 CHI  HZ EP       1731 47.06                             116   -0.16 8  253 195 
 CHI  HN ES       1732 16.52                             116   -0.29 8  253 195 
 CHI  HN I        1732 20.64        59.4 0.20            116            253 195 
 ROSC BZ EP       1731 48.65                             116    1.04 8  256 211 
 ROSC BN ES       1732 17.86                             116    0.36 8  256 211 
 ROSC BZ I        1732 24.98        48.6 0.50            116            256 211 
 HEL  HZ EP   1   1731 50.26                             114    0.81 6  273 255 
 HEL  HE ES       1732 20.09                             114   -0.69 8  273 255 
 HEL  HN I        1732 32.64        35.4 0.30            114            273 255 
 RREF HZ EP       1731 55.89                             110    0.29 7  325 229 
 RREF HN ES       1732 32.04                             110    0.32 7  325 229 
 RREF HZ I        1732 38.90        32.0 0.28            110            325 229 
 COD  HZ EP       1731 56.78                             108   -0.26 7  344 354 
 ANIL HN ES       1732 38.36                             108    0.03 6  360 224 
 PRA  HZ EP       1732  2.69                             106   -0.42 6  396 209 
 PRA  HN ES   4   1732 43.64                             106   -1.46 0  396 209 
 PRA  HE I        1732 52.57        32.0 0.36            106            396 209 
                                                                                
