 2012 1128 1541  7.9 L   6.575 -73.555103.0  RSN 13 0.4 2.8LRSN                1
 GAP= 63        0.87       2.7     2.7  5.1 -0.1786E+01  0.3483E+01  0.1114E+01E
 Epicentro: EL CARMEN DE CHUCURI - SANTANDER                                   3
 ACTION:UPD 12-12-05 15:36 OP:}ep  STATUS:               ID:20121128154107 L   I
 2012-11-28-1540-00M.COL___237                                                 6
 STAT SP IPHASW D HRMM SECON CODA AMPLIT PERI AZIMU VELO AIN AR TRES W  DIS CAZ7
 BAR2 SZ IP       1541 23.79                             157    0.6310 41.3  87 
 BAR2 SZ ES       1541 35.14                             157    0.1110 41.3  87 
 GIR2 SZ EP       1541 25.21                             144    0.5210 68.6  36 
 RUS  HZ EP       1541 26.92                             135   -0.0910 91.8 145 
 RUS  HE ES   1   1541 42.06                             135    0.17 7 91.8 145 
 RUS  HE I        1541 43.74       146.6 0.14                          91.8 145 
 PTB  HZ IP     C 1541 26.64                             132   -0.4310 99.7 268 
 PTB  HZ I        1541 26.95       170.5 0.28                          99.7 268 
 PTB  HN ES       1541 41.51                             132   -0.4810 99.7 268 
 PAM  SZ EP       1541 30.14                             125   -0.1510  127  48 
 PAM  SN ES       1541 47.64                             125   -0.0810  127  48 
 PAM  SZ I        1541 49.55        85.2 0.16                           127  48 
 ZAR  HZ EP       1541 35.54                             115    0.66 9  176 305 
 ZAR  HZ I        1542  0.31       245.3 0.66                           176 305 
 OCA  HZ EP       1541 35.87                             114   -0.28 9  186   8 
 OCA  HN ES   1   1541 57.80                             114   -0.36 7  186   8 
 OCA  HZ I        1542  4.73       130.3 0.39                           186   8 
 TAM  HZ EP       1541 36.57                             112   -0.55 9  196  94 
 CHI  HZ EP   1   1541 39.65                             110   -0.24 6  216 185 
 CHI  HE ES   1   1542  4.37                             110   -0.45 6  216 185 
 CHI  HZ I        1542  8.42        18.0 0.40                           216 185 
 HEL  HZ EP       1541 40.90                             109    0.32 8  222 259 
 HEL  HN ES   1   1542  5.81                             109   -0.23 6  222 259 
 HEL  HZ I        1542 12.05        58.4 0.21                           222 259 
 RREF HZ EP   1   1541 47.10                             105    0.47 6  271 227 
 RREF HN ES   1   1542 16.98                             105    0.18 6  271 227 
 RREF HZ I        1542 25.83        26.6 0.28                           271 227 
 VIL  SZ EP       1541 46.12                             104   -0.04 8  273 183 
 VIL  SZ I        1542 23.25        29.2 0.41                           273 183 
 PRA  HZ EP   1   1541 54.91                              99   -0.25 5  349 205 
 PRA  HN ES   1   1542 32.52                              99    0.52 5  349 205 
 PRA  HZ I        1542 37.21        24.5 0.29                           349 205 
                                                                                
