 2017  428 1206 20.5 L   6.792 -73.158148.0  RSN 11 0.4 2.2LRSN                1
 GAP=135        0.94       3.3     4.0  5.7 -0.8412E+00  0.6372E+01  0.2983E+01E
 Epicentro: LOS SANTOS - SANTANDER                                             3
 ACTION:UPD 17-05-30 21:16 OP:jn   STATUS:               ID:20170428120620 L   I
 OLDACT:UP  17-04-28 22:20 OP:dani STATUS:               ID:20170428115715     3
 OLDACT:UP  17-04-28 22:20 OP:dani STATUS:               ID:20170428115715     3
 OLDACT:REG 17-04-28 20:14 OP:dani STATUS:               ID:20170428115715     3
 2017-04-28-1158-00M.COL___368                                                 6
 STAT SP IPHASW D HRMM SECON CODA AMPLIT PERI AZIMU VELO AIN AR TRES W  DIS CAZ7
 BRR  HZ EP     C 12 6 41.97                             153    0.0910 70.5 300 
 BRR  HN ES       12 6 59.31                             153    0.7810 70.5 300 
 BRR  HZ I        12 7  2.31        22.9 0.24            145           70.5 300 
 PAM  EZ EP       12 6 43.20                             151    0.1210 78.9  40 
 PAM  EN ES       12 7  0.56                             151   -0.1010 78.9  40 
 PAM  EZ I        12 7  3.27        24.3 0.32            149           78.9  40 
 RUS  HZ EP       12 6 44.13                             145   -0.3210 99.8 175 
 RUS  HN ES       12 7  2.82                             145   -0.2810 99.8 175 
 RUS  HZ I        12 7  5.72        15.0 0.44            143           99.8 175 
 PTB  HZ EP       12 6 46.73                             133   -0.82 9  146 259 
 PTB  HN ES   3   12 7  7.60                             133   -1.02 2  146 259 
 PTB  HZ I        12 7 13.15        17.1 0.42            127            146 259 
 SPBC HZ EP       12 6 49.26                             130    0.20 9  162 219 
 SPBC HN ES       12 7 11.54                             130    0.23 9  162 219 
 SPBC HZ I        12 7 15.30        35.4 0.10            126            162 219 
 ZAR  HZ EP       12 6 52.49                             123   -0.54 9  203 293 
 ZAR  HN ES       12 7 18.09                             123   -0.29 9  203 293 
 ZAR  HZ I        12 7 24.22        19.4 0.40            118            203 293 
 NOR  HZ EP       12 6 56.34                             119    0.12 8  233 234 
 NOR  HE ES       12 7 24.00                             119   -0.06 8  233 234 
 NOR  HZ I        12 7 29.38        11.8 0.32            115            233 234 
 CHI  HZ EP       12 6 58.66                             118    0.43 8  247 195 
 CHI  HN ES       12 7 27.70                             118    0.07 8  247 195 
 CHI  HZ I        12 7 33.01        11.3 0.33            115            247 195 
 HEL  HZ EP   9   12 7  2.35                             115    1.66 0  271 256 
 HEL  HN ES       12 7 33.35                             115   -0.32 8  271 256 
 HEL  HZ I        12 7 38.78         7.9 0.24            111            271 256 
 CBOC HZ EP       12 7  8.05                             110    0.68 7  332 252 
 DBB  EZ EP       12 7  8.15                             110    0.20 7  338 274 
 DBB  EZ I        12 7 48.89         3.6 0.14            107            338 274 
                                                                                
