 2013  528 1312 41.2 L   6.814 -73.152150.4  RSN  7 0.4 2.1LRSN                1
 GAP=119        1.11       4.7     5.2  6.7 -0.9942E+00  0.1111E+00 -0.3539E+01E
 Epicentro: LOS SANTOS - SANTANDER                                             3
 ACTION:UPD 13-06-20 09:54 OP:ep   STATUS:               ID:20130528131241 L   I
 2013-05-28-1308-37M.COL___220                                                 6
 STAT SP IPHASW D HRMM SECON CODA AMPLIT PERI AZIMU VELO AIN AR TRES W  DIS CAZ7
 GIR2 SZ EP       1313  1.24                             168   -0.1310 29.6 351 
 GIR2 SZ ES       1313 16.89                             168   -0.2210 29.6 351 
 BRR  HZ EP       1313  3.25                             154    0.4810 69.8 298 
 BRR  HN ES       1313 20.42                             154    0.8310 69.8 298 
 BRR  HE I        1313 21.09        48.0 0.22            154           69.8 298 
 PAM  SZ EP       1313  4.38                             152    0.5210 76.7  41 
 PAM  SN ES       1313 21.07                             152   -0.4710 76.7  41 
 PAM  SE I        1313 23.55        21.8 0.40            154           76.7  41 
 RUS  HZ EP       1313  5.58                             144    0.0710  102 176 
 RUS  HN ES       1313 24.54                             144    0.0610  102 176 
 RUS  HE I        1313 26.16        11.8 0.30            145            102 176 
 PTB  HZ EP       1313  8.35                             133   -0.15 9  147 258 
 PTB  HN ES       1313 29.01                             133   -0.79 9  147 258 
 PTB  HE I        1313 34.87         8.8 0.16            133            147 258 
 SML  HZ EP       1313 18.01                             119    0.11 8  242 335 
 SML  HN ES       1313 46.27                             119   -0.25 8  242 335 
 SOCV BZ EP       1313 23.98                             113   -0.45 7  301  57 
                                                                                
