 2012 1228 1634 55.1 L   6.764 -73.149151.6  RSN  4 0.2 1.8LRSN                1
 GAP=234        0.43       5.4     6.7  4.1  0.3040E+02  0.4949E+00  0.6880E-01E
 Epicentro: LOS SANTOS - SANTANDER                                             3
 ACTION:UPD 13-01-04 14:31 OP:ep   STATUS:               ID:20121228163455 L   I
 2012-12-28-1630-00M.COL___242                                                 6
 STAT SP IPHASW D HRMM SECON CODA AMPLIT PERI AZIMU VELO AIN AR TRES W  DIS CAZ7
 BAR2 SZ EP   1   1635 15.17                             172   -0.15 7 19.3 191 
 BAR2 SZ ES       1635 31.00                             172   -0.1210 19.3 191 
 BAR2 SZ I        1635 31.67        21.6 0.21                          19.3 191 
 BRR  HZ EP   1   1635 17.25                             153    0.31 7 72.9 301 
 BRR  HN ES       1635 34.05                             153    0.0510 72.9 301 
 BRR  HZ I        1635 40.26        14.3 0.23                          72.9 301 
 RUS  HZ EP       1635 19.04                             146   -0.0810 96.6 176 
 RUS  HE ES       1635 38.00                             146    0.1210 96.6 176 
 RUS  HE I        1635 39.23         7.9 0.17                          96.6 176 
 ZAR  HN ES   1   1635 53.57                             123   -0.15 6  205 293 
 ZAR  HZ I        1635 55.77         4.2 0.14                           205 293 
                                                                                
