 2016 1028 1739 30.6 L   6.798 -73.170147.2  RSN  9 0.4 1.7LRSN                1
 GAP=134        1.07       4.9     5.4  6.7 -0.7506E+00  0.3389E+01  0.6937E+01E
 Epicentro: LOS SANTOS - SANTANDER                                             3
 ACTION:UPD 16-11-09 19:23 OP:rebc STATUS:               ID:20161028173930 L   I
 OLDACT:UP  16-10-29 00:29 OP:dani STATUS:               ID:20161028173747     3
 OLDACT:UP  16-10-29 00:29 OP:dani STATUS:               ID:20161028173747     3
 OLDACT:UP  16-10-29 00:28 OP:dani STATUS:               ID:20161028173747     3
 OLDACT:UP  16-10-29 00:28 OP:dani STATUS:               ID:20161028173747     3
 OLDACT:REG 16-10-28 20:54 OP:edw  STATUS:               ID:20161028173747     3
 2016-10-28-1738-00M.COL___349                                                 6
 STAT SP IPHASW D HRMM SECON CODA AMPLIT PERI AZIMU VELO AIN AR TRES W  DIS CAZ7
 BAR2 EZ EP       1739 50.09                             171   -0.3410 22.8 183 
 BAR2 EZ ES       1740  5.47                             171   -0.4010 22.8 183 
 BAR2 EZ I        1740  6.41        16.1 0.24            169           22.8 183 
 BRR  HZ EP       1739 51.89                             153    0.0710 68.9 300 
 BRR  HN ES       1740  9.20                             153    0.8610 68.9 300 
 BRR  HZ I        1740 12.32        10.2 0.26            153           68.9 300 
 PAM  EZ EP       1739 53.19                             150    0.0710 79.3  41 
 RUS  HZ EP       1739 54.38                             144   -0.1510  101 175 
 RUS  HN ES       1740 13.20                             144    0.0310  101 175 
 RUS  HZ I        1740 13.93         5.5 0.30            144            101 175 
 PTB  HZ EP       1739 56.75                             133   -0.73 9  145 259 
 PTB  HN ES       1740 18.05                             133   -0.37 9  145 259 
 PTB  HZ I        1740 19.86         6.4 0.42            133            145 259 
 SPBC HZ EP       1739 59.14                             130    0.06 9  161 218 
 NOR  HZ EP       1740  6.87                             119    0.66 8  232 234 
 NOR  HN ES       1740 33.69                             119   -0.26 8  232 234 
 NOR  HZ I        1740 36.18         3.1 0.21            120            232 234 
 CHI  HZ EP       1740  8.67                             117    0.35 8  248 195 
 CHI  HN ES       1740 38.18                             117    0.46 8  248 195 
 CHI  HZ I        1740 43.02         3.1 0.41            118            248 195 
 GUY2CHZ EP   4   1740 16.69                             113    2.64 0  299 234 
 GUY2CHN ES   4   1740 53.97                             113    6.05 0  299 234 
 GUY2CHZ I        1740 56.41         2.5 0.39                           299 234 
                                                                                
