 2010  928 1114 37.2 L   6.253 -73.495135.6  RSN  4 0.2 1.8LRSN                1
 GAP=215        0.53      11.0    18.6 11.0  0.1795E+03  0.1138E+03  0.7854E+02E
 Epicentro: EL GUACAMAYO - SANTANDER                                           3
 ACTION:UP  11-02-18 11:06 OP:tino STATUS:               ID:20100928111437 L   I
 2010-09-28-1112-15S.COL___122                                                 6
 STAT SP IPHASW D HRMM SECON CODA AMPLIT PERI AZIMU VELO SNR AR TRES W  DIS CAZ7
 BAR2 SZ EP   2   1114 56.31                             159    -0.2 5   51  43 
 BAR2 SZ ES   2   1115 11.88                             159     0.3 5   51  43 
 BAR2 SZ I        1115 14.99        14.4 0.37                            51  43 
 RUS  HZ IP     D 1114 57.37                             155     0.010   60 131 
 RUS  HZ I        1115 21.53         8.6 0.36                            60 131 
 BTL  SZ EP   1   1114 57.83                             149    -0.2 7   78  19 
 BRR  HZ IP     D 1114 59.26                             142     0.210   98 346 
 BRR  HE ES   1   1115 15.86                             142    -0.2 7   98 346 
 BRR  HZ I        1115 20.35        15.4 0.19                            98 346 
                                                                                
