 2013  928 1211 13.3 L   6.787 -73.137147.1  RSN 10 0.5 1.9LRSN                1
 GAP=184        1.12       4.5     6.8  8.2  0.5690E+01  0.1038E+02  0.1930E+01E
 Epicentro: LOS SANTOS - SANTANDER                                             3
 ACTION:UPD 13-10-22 09:25 OP:ep   STATUS:               ID:20130928121113 L   I
 OLDACT:REG 13-09-28 15:22 OP:jn   STATUS:               ID:20130928120959     3
 2013-09-28-1209-59M.COL___272                                                 6
 STAT SP IPHASW D HRMM SECON CODA AMPLIT PERI AZIMU VELO AIN AR TRES W  DIS CAZ7
 BAR2 SZ EP       1211 32.91                             171   -0.1110 22.1 193 
 BAR2 SZ ES       1211 48.70                             171    0.2610 22.1 193 
 BAR2 SZ I        1211 49.59        17.6 0.24            169           22.1 193 
 BRR  HZ EP       1211 34.79                             152    0.1610 72.7 299 
 BRR  HN ES       1211 52.19                             152    0.8810 72.7 299 
 BRR  HZ I        1211 55.15        17.5 0.42            150           72.7 299 
 RUS  HZ EP       1211 37.12                             145    0.0810 99.1 177 
 RUS  HN ES       1211 55.02                             145   -0.5610 99.1 177 
 RUS  HZ I        1211 56.34         8.5 0.44            146           99.1 177 
 PTB  HE ES   1   1212  1.80                             132    0.24 7  148 259 
 PTB  HZ I        1212  4.18         7.9 0.16            131            148 259 
 OCA  HE ES   1   1212  3.61                             130   -0.47 7  162 353 
 SPBC HZ EP       1211 41.87                             130    0.06 9  163 220 
 SPBC HN ES   1   1212  3.27                             130   -0.81 7  163 220 
 SPBC HZ I        1212  5.30        13.9 0.18            130            163 220 
 ZAR  HE ES   1   1212 10.82                             123   -0.60 6  205 292 
 NOR  HE ES   1   1212 16.57                             119   -0.41 6  235 235 
 NOR  HZ I        1212 22.23         7.4 0.28            119            235 235 
 SML  HE ES   1   1212 18.29                             118   -0.61 6  245 335 
 GUY2CHZ EP   1   1211 58.12                             113    1.19 5  301 235 
 GUY2CHZ I        1212 40.76         4.7 0.26                           301 235 
                                                                                
