 2013  728 1200 28.3 L   6.814 -73.148144.0  RSN 16 0.5 2.7LRSN                1
 GAP=136        0.92       2.5     3.8  5.0 -0.9681E+00  0.6507E+01  0.2222E+01E
 Epicentro: LOS SANTOS - SANTANDER                                             3
 ACTION:UPD 13-08-12 10:40 OP:ep   STATUS:               ID:20130728120028 L   I
 OLDACT:UP  13-07-28 16:15 OP:mh   STATUS:               ID:20130728115959     3
 OLDACT:UP  13-07-28 16:13 OP:mh   STATUS:               ID:20130728115959     3
 OLDACT:UP  13-07-28 16:13 OP:mh   STATUS:               ID:20130728115959     3
 OLDACT:REG 13-07-28 14:24 OP:mh   STATUS:               ID:20130728115959     3
 2013-07-28-1159-59M.COL___267                                                 6
 STAT SP IPHASW D HRMM SECON CODA AMPLIT PERI AZIMU VELO AIN AR TRES W  DIS CAZ7
 BAR2 SZ IP     D 12 0 47.85                             170    0.1210 24.9 189 
 BAR2 SZ ES   1   12 1  2.91                             170    0.01 7 24.9 189 
 GIR2 SZ EP   1   12 0 47.88                             168    0.18 7 29.7 350 
 GIR2 SZ ES   1   12 1  2.88                             168    0.03 7 29.7 350 
 GIR2 SZ I        12 1  5.43        58.5 0.22            164           29.7 350 
 BRR  HZ IP     C 12 0 49.60                             153    0.4210 70.2 297 
 BRR  HN ES       12 1  6.01                             153    0.5310 70.2 297 
 PAM  SN ES       12 1  7.27                             151   -0.1110 76.3  40 
 PAM  SN I        12 1  8.81        38.5 0.32            154           76.3  40 
 RUS  HZ EP       12 0 51.87                             143   -0.1010  102 176 
 RUS  HN ES   1   12 1 10.04                             143   -0.42 7  102 176 
 PTB  HZ EP     C 12 0 54.25                             132   -0.86 9  148 258 
 PTB  HN ES   1   12 1 15.44                             132   -0.59 7  148 258 
 PTB  HN I        12 1 20.71       111.0 0.38            130            148 258 
 OCA  HZ EP   1   12 0 55.83                             130   -0.47 7  159 353 
 OCA  HN ES       12 1 18.02                             130   -0.14 9  159 353 
 OCA  HN I        12 1 24.19        87.4 0.22            129            159 353 
 SPBC HZ EP   1   12 0 56.77                             128    0.03 7  164 219 
 SPBC HN ES       12 1 19.16                             128    0.21 9  164 219 
 SPBC HN I        12 1 25.03        62.6 0.20            128            164 219 
 ZAR  HZ EP   1   12 1  0.80                             122    0.28 6  203 292 
 ZAR  HE ES       12 1 25.70                             122    0.03 9  203 292 
 ZAR  HZ I        12 1 30.96        46.1 0.32            121            203 292 
 NOR  HZ IP       12 1  4.21                             118    0.23 8  235 234 
 NOR  HN ES   1   12 1 31.96                             118    0.13 6  235 234 
 NOR  HN I        12 1 39.48        63.1 0.20            118            235 234 
 SML  HZ EP   1   12 1  4.22                             117   -0.42 6  242 335 
 SML  HE ES       12 1 32.95                             117   -0.04 8  242 335 
 SML  HE I        12 1 45.63        49.1 0.10            117            242 335 
 CHI  HZ EP   1   12 1  5.98                             117   -0.06 6  250 195 
 CHI  HN ES   1   12 1 35.68                             117    0.19 6  250 195 
 CHI  HN I        12 1 37.97        56.9 0.32            118            250 195 
 HEL  HZ EP   4   12 1  9.93                             114    1.51 0  272 255 
 HEL  HN ES       12 1 39.03                             114   -0.69 8  272 255 
 HEL  HN I        12 1 47.18        21.1 0.30            114            272 255 
 URE  HZ EP   4   12 1  8.43                             113   -0.74 0  283 292 
 GUY2CHZ EP   1   12 1 13.32                             112    1.43 5  302 234 
 GUY2CHN ES   4   12 1 49.18                             112    3.28 0  302 234 
 GUY2CHZ I        12 1 55.77        11.4 0.56                           302 234 
 RREF HZ EP   4   12 1 16.29                             110    1.85 0  323 229 
 RREF HN ES   4   12 1 52.10                             110    1.66 0  323 229 
 DBB  SZ EP   1   12 1 17.01                             109    1.37 5  339 274 
 PRA  HZ EP   1   12 1 21.67                             106   -0.21 4  393 209 
 PRA  HN ES       12 2  3.46                             106   -0.24 6  393 209 
 PRA  HN I        12 2 10.19        15.5 0.68            107            393 209 
                                                                                
