 2010  928 1649 33.5 L   6.770 -73.069141.1  RSN  7 0.5 1.9LRSN                1
 GAP=168        0.71       6.9     9.7 11.2 -0.8653E+01 -0.1249E+02 -0.2019E+02E
 Epicentro: LOS SANTOS - SANTANDER                                             3
 ACTION:UP  11-02-18 11:06 OP:tino STATUS:               ID:20100928164933 L   I
 2010-09-28-1647-37S.COL___122                                                 6
 STAT SP IPHASW D HRMM SECON CODA AMPLIT PERI AZIMU VELO SNR AR TRES W  DIS CAZ7
 BAR2 SZ EP   2   1649 52.30                             170    -0.3 5   23 213 
 BAR2 SZ ES   2   1650  6.99                             170    -0.4 5   23 213 
 BAR2 SZ I        1650  8.76        18.8 0.30                            23 213 
 BTL  SZ EP   2   1649 53.35                             168     0.7 5   27 307 
 BRR  HZ EP   2   1649 55.48                             149     0.8 5   80 298 
 BRR  HE ES   2   1650 11.27                             149     0.0 5   80 298 
 BRR  HZ I        1650 23.93        21.1 0.34                            80 298 
 RUS  HZ EP   2   1649 56.52                             144     0.0 5   97 181 
 RUS  HE ES   2   1650 14.79                             144     0.3 5   97 181 
 GUE  SZ EP   2   1649 57.64                             138    -0.3 5  118   8 
 GRA  SZ EP   2   1649 57.89                             136    -0.5 5  127  13 
 GRA  SZ I        1650 24.41         8.3 0.24                           127  13 
 NOR  SN ES   2   1650 37.02                             117    -0.6 4  240 236 
                                                                                
