 2013  928 1400 40.0 L   6.651 -73.190144.2  RSN  4 0.1 1.5LRSN                1
 GAP=221        0.35       5.1     3.3  3.8  0.6793E+01  0.1241E+01 -0.7256E+00E
 Epicentro: BARICHARA - SANTANDER                                              3
 ACTION:UPD 13-10-22 09:25 OP:ep   STATUS:               ID:20130928140040 L   I
 OLDACT:UP  13-09-28 18:16 OP:jn   STATUS:               ID:20130928135959     3
 OLDACT:REG 13-09-28 15:51 OP:jn   STATUS:               ID:20130928135959     3
 2013-09-28-1359-59M.COL___272                                                 6
 STAT SP IPHASW D HRMM SECON CODA AMPLIT PERI AZIMU VELO AIN AR TRES W  DIS CAZ7
 BAR2 SZ EP       14 0 59.30                             177    0.1010 6.60 172 
 BAR2 SZ ES       14 1 14.10                             177   -0.1010 6.60 172 
 BAR2 SZ I        14 1 15.91         7.8 0.26            176           6.60 172 
 BRR  HZ EP       14 1  1.20                             150   -0.0710 76.6 311 
 BRR  HN ES       14 1 17.98                             150    0.0910 76.6 311 
 PTB  HN ES   1   14 1 26.62                             133    0.02 7  141 265 
 ZAR  HE ES   2   14 1 37.83                             122   -0.15 4  206 297 
                                                                                
