 2016  528 1444 20.9 L   6.796 -73.136147.0  RSN 21 0.4 2.7LRSN                1
 GAP= 72        0.97       2.9     2.8  4.6 -0.1559E+01  0.3079E+01  0.3325E+01E
 Epicentro: LOS SANTOS - SANTANDER                                             3
 ACTION:UPD 16-08-18 17:50 OP:cam  STATUS:               ID:20160528144420 L   I
 OLDACT:UP  16-05-28 23:44 OP:mh   STATUS:               ID:20160528143740     3
 OLDACT:UP  16-05-28 23:21 OP:mh   STATUS:               ID:20160528143740     3
 OLDACT:UP  16-05-28 23:21 OP:mh   STATUS:               ID:20160528143740     3
 OLDACT:UP  16-05-28 23:19 OP:mh   STATUS:               ID:20160528143740     3
 OLDACT:UP  16-05-28 23:19 OP:mh   STATUS:               ID:20160528143740     3
 OLDACT:UP  16-05-28 23:19 OP:mh   STATUS:               ID:20160528143740     3
 OLDACT:REG 16-05-28 21:06 OP:mh   STATUS:               ID:20160528143740     3
 2016-05-28-1437-40M.COL___316                                                 6
 STAT SP IPHASW D HRMM SECON CODA AMPLIT PERI AZIMU VELO AIN AR TRES W  DIS CAZ7
 BAR2 EZ IP     C 1444 40.72                             171    0.0310 23.1 193 
 BAR2 EZ ES       1444 55.63                             171   -0.4910 23.1 193 
 BAR2 EZ I        1444 56.71       123.0 0.14            167           23.1 193 
 BRR  HZ IP     C 1444 42.60                             152    0.3310 72.4 298 
 BRR  HN ES       1444 59.57                             152    0.6510 72.4 298 
 BRR  HZ I        1445  3.40        82.6 0.14            150           72.4 298 
 PAM  EZ EP       1444 43.46                             151    0.2210 77.0  39 
 PAM  EN ES       1445  0.68                             151    0.0210 77.0  39 
 PAM  EZ I        1445  2.22        54.4 0.74            155           77.0  39 
 RUS  HZ EP     C 1444 44.58                             144   -0.1710  100 177 
 RUS  HN ES       1445  3.46                             144    0.1110  100 177 
 RUS  HZ I        1445  4.21        50.2 0.26            144            100 177 
 PTB  HZ EP       1444 47.09                             132   -0.99 9  149 259 
 PTB  HN ES       1445  8.38                             132   -0.88 9  149 259 
 TAM  HZ IP     D 1444 48.92                             131    0.34 9  154 105 
 TAM  HN ES       1445 10.15                             131   -0.01 9  154 105 
 TAM  HZ I        1445 11.13        27.3 0.28            134            154 105 
 OCA  HZ EP   1   1444 48.90                             130   -0.48 7  161 353 
 OCA  HN ES       1445 11.52                             130   -0.06 9  161 353 
 OCA  HZ I        1445 14.58        96.1 0.18            131            161 353 
 SPBC HZ EP       1444 49.63                             129    0.09 9  164 219 
 SPBC HN ES       1445 12.10                             129    0.23 9  164 219 
 SPBC HZ I        1445 18.48        94.7 0.18            128            164 219 
 NOR  HZ EP   1   1444 56.05                             119   -0.74 6  235 235 
 NOR  HN ES       1445 25.38                             119    0.61 8  235 235 
 NOR  HZ I        1445 30.13        57.2 0.40            118            235 235 
 CHI  HZ EP       1444 58.80                             117    0.13 8  249 195 
 CHI  HN ES   1   1445 27.65                             117   -0.47 6  249 195 
 CHI  HZ I        1445 32.03        16.8 0.36            117            249 195 
 HEL  HZ EP       1445  1.91                             115    0.61 8  273 256 
 HEL  HN ES       1445 33.32                             115    0.52 8  273 256 
 HEL  HZ I        1445 39.17        32.0 0.24            114            273 256 
 URE  HZ EP   4   1445  1.26                             114   -0.92 0  285 292 
 URE  HN ES   4 C 1445 36.57                             114    2.21 0  285 292 
 URE  HZ I        1445 43.42        31.7 0.18            113            285 292 
 VIL  SZ EP       1445  4.18                             112   -0.18 7  303 192 
 VIL  SN ES   4   1445 39.67                             112    1.41 0  303 192 
 PTGC HZ EP   4   1445  3.27                             112   -1.46 0  308 159 
 PTGC HN ES   4   1445 35.79                             112   -3.12 0  308 159 
 PTGC HZ I        1445 43.44        30.7 0.07            112            308 159 
 ELA  HZ EP   4   1445  9.56                             110    1.68 0  330 230 
 ELA  HN ES   4   1445 48.51                             110    3.99 0  330 230 
 ELA  HZ I        1446  0.52        27.3 0.18            110            330 230 
 CBOC HZ EP   1   1445  8.63                             110    0.64 5  335 252 
 CBOC HN ES       1445 44.72                             110    0.02 7  335 252 
 CBOC HZ I        1445 58.16        12.6 0.46            110            335 252 
 DBB  SZ EP       1445  8.08                             110   -0.49 7  341 274 
 DBB  SZ ES   4   1445 43.86                             110   -1.89 0  341 274 
 DBB  SZ I        1445 49.46        81.9 0.81            109            341 274 
 PRA  HZ EP       1445 14.08                             107   -0.42 6  392 210 
 PRA  HN ES       1445 56.05                             107   -0.24 6  392 210 
 PRA  HZ I        1446  3.30        20.3 0.10            107            392 210 
 ORTC HZ EP   1   1445 15.44                             106    0.53 4  396 216 
 ORTC HN ES       1445 57.49                             106    0.46 6  396 216 
 ORTC HZ I        1446  3.60        17.6 0.38            106            396 216 
 PAL  HZ EP   1   1445 16.23                             106    0.03 4  406 239 
 PAL  HN ES       1445 59.49                             106    0.17 6  406 239 
 PAL  HZ I        1446  4.92        14.2 0.36            106            406 239 
 SJC  HZ EP   4   1445 14.63                             106   -2.00 0  410 327 
 SJC  HN ES   4   1445 55.81                             106   -4.28 0  410 327 
 SJC  HZ I        1445 59.62         7.2 0.63            106            410 327 
 CRJC HZ EP   4   1445 21.18                             103   -2.31 0  468   3 
 CRJC HN ES   4   1446  6.39                             103   -5.91 0  468   3 
                                                                                
