 2015  528 1919 18.4 L   6.842 -73.214142.2  RSN  6 0.4 1.9LRSN                1
 GAP=126        0.96       4.5     7.5  8.4 -0.1362E+02  0.2724E+02 -0.5890E+01E
 Epicentro: ZAPATOCA - SANTANDER                                               3
 ACTION:UPD 15-09-10 22:07 OP:cam  STATUS:               ID:20150528191918 L   I
 OLDACT:UP  15-06-01 11:34 OP:Mher STATUS:               ID:20150528191918 L   3
 OLDACT:REG 15-05-28 22:25 OP:ar   STATUS:               ID:20150528191750     3
 2015-05-28-1917-50M.COL___315                                                 6
 STAT SP IPHASW D HRMM SECON CODA AMPLIT PERI AZIMU VELO AIN AR TRES W  DIS CAZ7
 BAR2 EZ EP       1919 37.95                             168    0.2510 27.8 173 
 BAR2 EZ ES       1919 52.46                             168   -0.2910 27.8 173 
 BAR2 EZ I        1919 55.29        13.9 0.26            169           27.8 173 
 BRR  HZ EP       1919 39.52                             155    0.8510 62.4 298 
 PAM  SZ EP       1919 40.17                             150   -0.1610 79.1  46 
 PAM  SZ I        1919 40.47        15.0 0.24            151           79.1  46 
 PAM  SN ES       1919 57.49                             150    0.0410 79.1  46 
 RUS  HZ EP       1919 41.84                             141   -0.3610  106 172 
 RUS  HE ES   1   1920  0.92                             141    0.16 7  106 172 
 SPBC HZ EP       1919 46.49                             128   -0.04 9  162 216 
 SPBC HZ I        1919 46.66        11.1 0.56            130            162 216 
 SPBC HE ES       1920  8.34                             128   -0.14 9  162 216 
 SML  HN ES   1   1920 21.07                             117   -0.75 6  236 336 
                                                                                
