 2010  828 2345 48.7 L   6.809 -73.061142.4  RSN 10 0.4 2.2LRSN                1
 GAP=168        0.86       3.2     6.4  5.8 -0.3946E+01 -0.1542E+01  0.2342E+01E
 Epicentro: LOS SANTOS - SANTANDER                                             3
 ACTION:UP  10-09-07 10:59 OP:vdl  STATUS:               ID:20100828234548 L   I
 2010-08-28-2343-12S.COL___120                                                 6
 STAT SP IPHASW D HRMM SECON CODA AMPLIT PERI AZIMU VELO SNR AR TRES W  DIS CAZ7
 BTL  SZ IP       2346  8.01                             169     0.110   26 298 
 BTL  SZ ES   2   2346 23.56                             169     0.6 5   26 298 
 BAR2 SZ EP       2346  7.95                             168     0.010   28 209 
 BAR2 SZ I        2346  8.40        37.1 0.27                            28 209 
 BAR2 SZ ES   1   2346 22.60                             168    -0.4 7   28 209 
 GIR2 SZ EP   1   2346  8.83                             166     0.8 7   33 334 
 BRR  HZ IP     C 2346  9.70                             149    -0.210   79 295 
 BRR  HZ I        2346  9.98        42.2 0.13                            79 295 
 BRR  HE ES       2346 26.66                             149     0.210   79 295 
 RUS  HZ EP       2346 12.00                             143    -0.110  101 181 
 RUS  HE ES   1   2346 30.61                             143     0.2 7  101 181 
 RUS  HZ I        2346 32.53        21.4 0.34                           101 181 
 GRA  SZ EP       2346 13.64                             137     0.310  122  13 
 GRA  SZ ES   1   2346 32.31                             137    -0.2 7  122  13 
 GRA  SZ I        2346 34.34        29.5 0.30                           122  13 
 OCA  SZ EP       2346 16.70                             129     0.0 9  161 350 
 OCA  SZ ES   1   2346 37.83                             129    -0.8 7  161 350 
 OCA  SZ I        2346 42.93        15.5 0.35                           161 350 
 CHI  HZ EP   1   2346 26.52                             116     0.0 6  252 197 
 CHI  HE ES   2   2346 55.91                             116    -0.2 4  252 197 
 CHI  HZ I        2346 58.97         6.0 0.18                           252 197 
 HEL  HZ EP   1   2346 30.15                             113     0.4 6  281 256 
 HEL  HN ES   2   2347  1.92                             113     0.1 4  281 256 
 HEL  HZ I        2347  7.10         9.3 0.62                           281 256 
 PRA  HZ EP   1   2346 42.54                             106    -0.2 4  398 211 
 PRA  HN ES   1   2347 24.27                             106    -0.6 4  398 211 
 PRA  HZ I        2347 30.50         7.3 0.18                           398 211 
                                                                                
