 2014 1128 2312 49.4 L   6.802 -73.116147.6  RSN  4 0.6 1.2LRSN                1
 GAP=140        1.48       8.5     8.0 13.8 -0.9373E+01  0.6450E+01  0.2479E+02E
 Epicentro: LOS SANTOS - SANTANDER                                             3
 ACTION:UPD 14-12-19 15:48 OP:nd   STATUS:               ID:20141128231249 L   I
 OLDACT:REG 14-11-29 03:22 OP:stll STATUS:               ID:20141128230743     3
 2014-11-28-2307-43M.COL___303                                                 6
 STAT SP IPHASW D HRMM SECON CODA AMPLIT PERI AZIMU VELO AIN AR TRES W  DIS CAZ7
 BRR  HN ES       2313 28.58                             152    0.8610 74.0 297 
 PAM  SZ EP       2313 11.84                             152    0.1210 75.1  38 
 PAM  SZ I        2313 12.16         6.1 0.20            154           75.1  38 
 PAM  SN ES       2313 28.50                             152   -0.6010 75.1  38 
 RUS  HZ EP       2313 13.20                             144   -0.1810  101 178 
 RUS  HN ES       2313 32.34                             144    0.2910  101 178 
 RUS  HZ I        2313 33.14         1.3 0.26            144            101 178 
 PTB  HZ EP       2313 17.30                             132    0.45 9  151 259 
 PTB  HN ES       2313 37.21                             132   -1.03 9  151 259 
 PTB  HZ I        2313 43.55         1.6 0.28            130            151 259 
                                                                                
