 2015 1028 2249 45.9 L   7.501 -73.203131.9  RSN  4 0.2 1.8LRSN                1
 GAP=141        0.61       3.9     3.0  5.8  0.1185E+01  0.5327E+01 -0.8993E+01E
 Epicentro: EL PLAYON - SANTANDER                                              3
 ACTION:UPD 15-12-22 20:43 OP:cam  STATUS:               ID:20151028224945 L   I
 OLDACT:REG 15-10-29 02:59 OP:drio STATUS:               ID:20151028224746     3
 2015-10-28-2247-46M.COL___316                                                 6
 STAT SP IPHASW D HRMM SECON CODA AMPLIT PERI AZIMU VELO AIN AR TRES W  DIS CAZ7
 PAM  EZ EP       2250  5.78                             155    0.2110 58.4 108 
 PAM  EN ES       2250 20.84                             155   -0.0510 58.4 108 
 PAM  EZ I        2250 23.58        11.8 0.34            159           58.4 108 
 BRR  HZ EP       2250  5.46                             150   -0.1210 71.1 232 
 BRR  HN ES       2250 20.86                             150   -0.0510 71.1 232 
 BRR  HZ I        2250 21.19        11.8 0.28            157           71.1 232 
 SML  HZ EP       2250 14.46                             124    0.24 9  173 326 
 SML  HN ES       2250 36.11                             124   -0.18 9  173 326 
 SML  HZ I        2250 46.15         9.1 0.10            124            173 326 
 ZAR  HZ EP       2250 14.84                             122   -0.42 9  183 270 
 ZAR  HN ES       2250 38.50                             122    0.36 9  183 270 
 ZAR  HZ I        2250 40.14         8.8 0.24            126            183 270 
                                                                                
