 2013 1128 2316 52.5 L   6.797 -73.174144.4  RSN 10 0.5 1.8LRSN                1
 GAP=133        1.19       4.2     5.3  7.3 -0.5300E+01  0.1105E+02 -0.4114E+01E
 Epicentro: LOS SANTOS - SANTANDER                                             3
 ACTION:UPD 14-01-09 16:31 OP:ep   STATUS:               ID:20131128231652 L   I
 OLDACT:DUP 13-11-29 00:05 OP:nd   STATUS:               ID:20131128231001d    3
 2013-11-28-2310-00M.COL___282                                                 6
 STAT SP IPHASW D HRMM SECON CODA AMPLIT PERI AZIMU VELO AIN AR TRES W  DIS CAZ7
 BAR2 SZ IP     C 2317 12.16                             171    0.2310 22.7 182 
 BAR2 SZ ES       2317 27.26                             171    0.1610 22.7 182 
 BAR2 SZ I        2317 28.89        16.8 0.28            171           22.7 182 
 BRR  HZ EP       2317 14.21                             153    0.8810 68.6 300 
 BRR  HN ES       2317 29.78                             153    0.1810 68.6 300 
 BRR  HZ I        2317 32.79        16.5 0.32            146           68.6 300 
 PAM  SZ EP       2317 15.00                             150    0.3210 79.7  41 
 PAM  SN ES       2317 31.69                             150   -0.3110 79.7  41 
 PAM  SZ I        2317 34.36        10.1 0.20            147           79.7  41 
 RUS  HZ EP     D 2317 16.05                             144   -0.0410  101 174 
 RUS  HN ES       2317 33.96                             144   -0.5410  101 174 
 RUS  HZ I        2317 36.23         3.7 0.32            143            101 174 
 PTB  HZ EP       2317 17.89                             132   -1.16 9  145 259 
 PTB  HN ES       2317 39.48                             132   -0.29 9  145 259 
 PTB  HZ I        2317 46.05         7.5 0.24            127            145 259 
 SPBC HZ EP   4   2317 14.27                             129   -6.39 0  161 218 
 SPBC HN ES       2317 42.97                             129    0.33 9  161 218 
 SPBC HZ I        2317 48.26         9.8 0.20            126            161 218 
 NOR  HZ EP       2317 27.87                             118    0.04 8  232 234 
 NOR  HN ES       2317 55.75                             118    0.34 8  232 234 
 NOR  HZ I        2318  0.02         4.0 0.20            115            232 234 
 SML  HZ EP       2317 29.07                             117    0.15 8  243 336 
 SML  HN ES       2317 56.99                             117   -0.35 8  243 336 
 SML  HZ I        2318  3.56         9.8 0.10            113            243 336 
 GUY2CHZ EP   4 D 2317 38.49                             112    2.78 0  298 234 
 GUY2CHN ES   4   2318 11.00                             112    1.57 0  298 234 
 GUY2CHZ I        2318 18.87         3.7 0.38                           298 234 
 SJC  HZ EP   4   2317 46.43                             105   -1.40 0  408 327 
 SJC  HZ I        2318 22.77         2.1 0.58            103            408 327 
 SJC  HN ES   4   2318 26.64                             105   -4.36 0  408 327 
                                                                                
