 2017  928 2340 23.2 L   6.797 -73.103136.0  RSN  8 0.4 2.0LRSN                1
 GAP=142        1.01       3.9     4.6  7.5 -0.4352E+00  0.7375E+01  0.1019E+02E
 Epicentro: LOS SANTOS - SANTANDER                                             3
 ACTION:UPD 17-10-05 19:17 OP:rebc STATUS:               ID:20170928234023 L   I
 OLDACT:UP  17-09-29 05:44 OP:y    STATUS:               ID:20170928233740     3
 OLDACT:UP  17-09-29 05:42 OP:y    STATUS:               ID:20170928233740     3
 OLDACT:UP  17-09-29 05:42 OP:y    STATUS:               ID:20170928233740     3
 OLDACT:REG 17-09-29 03:53 OP:leo  STATUS:               ID:20170928233740     3
 2017-09-28-2338-00M.COL___447                                                 6
 STAT SP IPHASW D HRMM SECON CODA AMPLIT PERI AZIMU VELO AIN AR TRES W  DIS CAZ7
 BAR2 EZ IP     C 2340 41.24                             169   -0.4010 24.3 201 
 BAR2 EZ ES   4   2340 54.53                             169   -1.53 0 24.3 201 
 BAR2 EZ I        2340 56.93        27.5 0.26            169           24.3 201 
 PAM  EZ EP       2340 44.27                             150    0.0810 74.7  37 
 PAM  EN ES       2341  1.02                             150    0.4410 74.7  37 
 PAM  EZ I        2341  3.42        21.5 0.60            152           74.7  37 
 BRR  HZ IP       2340 43.16                             149   -0.3710 75.5 297 
 BRR  HN ES       2340 59.78                             149    0.3710 75.5 297 
 BRR  HZ I        2341  4.16        21.1 0.12            147           75.5 297 
 RUS  HZ EP       2340 45.23                             142   -0.7010  100 179 
 RUS  HN ES       2341  3.50                             142   -0.1810  100 179 
 RUS  HZ I        2341  4.50        13.4 0.26            145            100 179 
 ZAR  HZ EP   4   2340 54.19                             120   -1.28 0  209 292 
 ZAR  HE ES       2341 20.31                             120   -0.35 8  209 292 
 ZAR  HZ I        2341 28.11        12.8 0.26            120            209 292 
 NOR  HZ EP   9   2340 57.78                             116   -0.97 0  238 235 
 NOR  HE ES       2341 25.42                             116   -0.11 8  238 235 
 NOR  HZ I        2341 27.14         7.1 0.34            117            238 235 
 CHI  HZ EP       2341  1.13                             115    0.68 8  250 196 
 CHI  HN ES       2341 29.96                             115    0.43 8  250 196 
 CHI  HZ I        2341 34.12         2.1 0.36            117            250 196 
 GUY2CHZ EP       2341  7.22                             110    0.46 7  305 235 
 GUY2CHN ES       2341 40.98                             110    0.21 7  305 235 
 GUY2CHZ I        2341 46.60         6.5 0.24                           305 235 
                                                                                
