 2017 1128 2234  3.7 L   6.767 -73.171150.5  RSN  7 0.3 1.4LRSN                1
 GAP=135        0.82       3.5     3.6  6.1 -0.1179E+01  0.7459E+01  0.3030E+01E
 Epicentro: LOS SANTOS - SANTANDER                                             3
 ACTION:UPD 17-12-12 20:01 OP:rebc STATUS:               ID:20171128223403 L   I
 OLDACT:UP  17-11-29 03:52 OP:edw  STATUS:               ID:20171128222744d    3
 OLDACT:DUP 17-11-29 03:47 OP:edw  STATUS:               ID:20171128222744d    3
 2017-11-28-2228-00M.COL___501                                                 6
 STAT SP IPHASW D HRMM SECON CODA AMPLIT PERI AZIMU VELO AIN AR TRES W  DIS CAZ7
 BAR2 EZ EP       2234 23.72                             172   -0.1010 19.4 184 
 BAR2 EZ ES       2234 39.26                             172   -0.2510 19.4 184 
 BAR2 EZ I        2234 39.95        11.7 0.38            170           19.4 184 
 PAM  EZ EP       2234 26.92                             150    0.2410 82.0  39 
 PAM  EN ES       2234 44.32                             150   -0.2910 82.0  39 
 PAM  EZ I        2234 45.09         4.0 0.34            155           82.0  39 
 RUS  HZ EP       2234 28.23                             146    0.5610 97.2 174 
 RUS  HN ES       2234 46.72                             146    0.3410 97.2 174 
 RUS  HZ I        2234 49.44         2.0 0.40            146           97.2 174 
 PTB  HZ EP       2234 30.69                             134   -0.05 9  144 260 
 PTB  HN ES       2234 51.95                             134    0.12 9  144 260 
 PTB  HZ I        2234 56.83         2.9 0.48            134            144 260 
 ZAR  HZ ES       2235  1.90                             124    0.13 9  203 293 
 NOR  HZ EP       2234 38.62                             120   -0.61 8  230 235 
 NOR  HN ES       2235  6.99                             120    0.04 8  230 235 
 NOR  HZ I        2235 13.26         2.6 0.18            121            230 235 
 VIL  EN ES       2235 20.00                             113   -0.54 7  299 191 
                                                                                
