 2012  328 2125 26.5 L   6.782 -73.169132.0  RSN  4 0.4 1.4LRSN                1
 GAP=134        0.82       5.4     4.8 11.2 -0.2760E+01  0.1831E+02 -0.7890E+01E
 ACTION:UP  12-03-31 23:23 OP:EP   STATUS:               ID:20120328212526 L   I
 2012-03-28-2120-00M.COL___196                                                 6
 STAT SP IPHASW D HRMM SECON CODA AMPLIT PERI AZIMU VELO SNR AR TRES W  DIS CAZ7
 PAM  SZ EP       2125 47.20                             147    -0.210   81  40 
 PAM  SN ES   1   2126  3.93                             147     0.1 7   81  40 
 RUS  HZ EP   1   2125 48.66                             142    -0.1 7   99 174 
 RUS  HN ES   1   2126  6.53                             142     0.4 7   99 174 
 RUS  HZ I        2126  7.97         5.3 0.44                            99 174 
 PTB  HZ EP   1   2125 51.76                             130    -0.3 7  145 259 
 PTB  HN ES   1   2126 11.52                             130    -0.5 7  145 259 
 PTB  HZ I        2126 15.48         3.2 0.12                           145 259 
 ZAR  HZ EP   2   2125 58.71                             120     0.8 4  202 293 
 ZAR  HN ES   1   2126 22.91                             120     0.5 6  202 293 
                                                                                
