 2012 1228 2016  9.3 L   6.762 -73.175148.7  RSN  4 0.4 2.1LRSN                1
 GAP=231        1.16       9.3     8.8  9.3  0.4036E+02  0.7154E+01  0.1527E+01E
 Epicentro: LOS SANTOS - SANTANDER                                             3
 ACTION:UPD 13-01-04 14:31 OP:ep   STATUS:               ID:20121228201609 L   I
 2012-12-28-2010-00M.COL___242                                                 6
 STAT SP IPHASW D HRMM SECON CODA AMPLIT PERI AZIMU VELO AIN AR TRES W  DIS CAZ7
 BAR2 SZ EP       2016 28.78                             172   -0.4610 18.8 182 
 BAR2 SZ ES       2016 44.05                             172   -0.7110 18.8 182 
 BAR2 SZ I        2016 45.49        27.3 0.22                          18.8 182 
 BRR  HZ EP     D 2016 31.08                             153    0.3210 70.5 303 
 BRR  HN ES       2016 48.05                             153    0.5810 70.5 303 
 BRR  HN I        2016 48.28        45.6 0.22                          70.5 303 
 RUS  HZ EP       2016 33.31                             145    0.2110 96.7 174 
 RUS  HN ES       2016 52.15                             145    0.5110 96.7 174 
 RUS  HN I        2016 53.35        12.8 0.40                          96.7 174 
 PTB  HZ EP       2016 35.91                             133   -0.28 9  144 260 
 PTB  HN ES       2016 56.90                             133   -0.23 9  144 260 
 PTB  HN I        2017  2.22        17.4 0.28                           144 260 
                                                                                
