 2014  328 2142  5.9 L   6.107 -73.710118.7  RSN  7 0.4 1.5LRSN                1
 GAP=107        0.82       3.8     3.1  7.0  0.6367E+00  0.6254E+01  0.6736E+01E
 Epicentro: BOLIVAR - SANTANDER                                                3
 OLDACT:REG 14-03-29 00:37 OP:fm   STATUS:               ID:20140328213813     3
 ACTION:UPD 14-04-09 23:21 OP:nd   STATUS:               ID:20140328214205 L   I
 OLDACT:UP  14-03-31 23:18 OP:nd   STATUS:               ID:20140328213813     3
 OLDACT:UP  14-03-29 01:18 OP:fm   STATUS:               ID:20140328213813     3
 OLDACT:UP  14-03-29 01:18 OP:fm   STATUS:               ID:20140328213813     3
 2014-03-28-2138-13M.COL___262                                                 6
 STAT SP IPHASW D HRMM SECON CODA AMPLIT PERI AZIMU VELO AIN AR TRES W  DIS CAZ7
 SPBC HZ EP   1   2142 23.29                             150   -0.58 7 64.3 219 
 SPBC HN ES   1   2142 37.37                             150   -0.52 7 64.3 219 
 SPBC HZ I        2142 39.40         6.8 0.46            147           64.3 219 
 RUS  HZ EP     C 2142 25.03                             147    0.0010 73.4 109 
 RUS  HN ES       2142 40.05                             147    0.0910 73.4 109 
 RUS  HZ I        2142 47.12         4.0 1.04            145           73.4 109 
 BAR2 SZ ES   1   2142 40.62                             144    0.56 7 79.3  47 
 PTB  HZ EP       2142 25.65                             138   -0.3510 95.4 300 
 PTB  HN ES       2142 41.59                             138   -0.1010 95.4 300 
 PTB  HZ I        2142 43.51         5.9 0.10            148           95.4 300 
 NOR  HZ EP   1   2142 30.28                             126    0.04 7  142 245 
 NOR  HN ES       2142 49.59                             126    0.35 9  142 245 
 NOR  HZ I        2142 50.99         6.8 0.18            130            142 245 
 CHI  HZ EP   1   2142 32.45                             122   -0.45 7  163 181 
 CHI  HN ES       2142 54.04                             122    0.07 9  163 181 
 CHI  HZ I        2143  9.69         5.6 4.20            123            163 181 
 GUY2CHZ EP   1   2142 38.33                             116    0.61 6  208 242 
 GUY2CHN ES   1   2143  3.11                             116    0.56 6  208 242 
                                                                                
