 2013  528 2129 53.6 L   6.797 -73.217142.0  RSN  7 0.4 1.6LRSN                1
 GAP=127        1.13       5.1     5.9  7.8  0.1552E+01  0.1252E+02  0.4186E+01E
 Epicentro: ZAPATOCA - SANTANDER                                               3
 ACTION:UPD 13-06-20 09:54 OP:ep   STATUS:               ID:20130528212953 L   I
 2013-05-28-2127-51M.COL___221                                                 6
 STAT SP IPHASW D HRMM SECON CODA AMPLIT PERI AZIMU VELO AIN AR TRES W  DIS CAZ7
 BAR2 SZ EP       2130 12.77                             170    0.0310 23.0 170 
 BAR2 SZ ES       2130 27.52                             170   -0.1710 23.0 170 
 BAR2 SZ I        2130 28.90        15.0 0.27            169           23.0 170 
 GIR2 SZ EP       2130 12.81                             167    0.0210 31.2   5 
 GIR2 SZ ES       2130 27.22                             167   -0.5610 31.2   5 
 GIR2 SZ I        2130 29.82        11.0 0.30            169           31.2   5 
 BRR  HZ EP       2130 14.59                             154    0.6510 64.6 302 
 BRR  HN ES       2130 30.72                             154    0.8910 64.6 302 
 BRR  HZ I        2130 32.14        16.5 0.40            153           64.6 302 
 PAM  SN ES       2130 32.97                             148   -0.0310 82.8  44 
 RUS  HZ EP       2130 16.95                             143   -0.0410  101 172 
 RUS  HN ES       2130 35.30                             143    0.0410  101 172 
 RUS  HZ I        2130 37.10         2.5 0.36            144            101 172 
 PTB  HZ EP       2130 19.52                             133   -0.00 9  140 258 
 PTB  HN ES       2130 39.17                             133   -0.60 9  140 258 
 PTB  HZ I        2130 46.03         5.0 0.30            132            140 258 
 SML  HN ES   1   2130 57.00                             117   -0.83 6  241 337 
                                                                                
