 2012  828 2047 50.7 L   6.782 -73.136148.0  RSN  8 0.3 2.0LRSN                1
 GAP=139        0.77       3.9     3.7  6.4 -0.1116E+01  0.3655E+01  0.8666E+01E
 Epicentro: LOS SANTOS - SANTANDER                                             3
 ACTION:UPD 12-09-10 11:58 OP:ep   STATUS:               ID:20120828204750 L   I
 2012-08-28-2040-00M.COL___217                                                 6
 STAT SP IPHASW D HRMM SECON CODA AMPLIT PERI AZIMU VELO AIN AR TRES W  DIS CAZ7
 BAR2 SZ EP       2048  9.96                             171   -0.5810 21.6 194 
 BAR2 SZ ES   1   2048 25.89                             171   -0.15 7 21.6 194 
 BAR2 SZ I        2048 28.77        32.1 0.22                          21.6 194 
 BRR  HZ EP   1   2048 12.40                             152    0.23 7 73.1 300 
 BRR  HZ I        2048 14.00        17.2 0.13                          73.1 300 
 BRR  HN ES       2048 29.52                             152    0.5810 73.1 300 
 PAM  SZ EP   1   2048 13.39                             151    0.21 7 78.3  38 
 PAM  SZ I        2048 13.52        31.5 0.19                          78.3  38 
 PAM  SN ES       2048 30.68                             151   -0.0610 78.3  38 
 RUS  HZ EP   1   2048 14.46                             145   -0.04 7 98.5 177 
 RUS  HN ES   1   2048 33.23                             145    0.15 7 98.5 177 
 RUS  HZ I        2048 34.33         8.4 0.20                          98.5 177 
 PTB  HZ EP   1   2048 17.70                             133   -0.19 7  148 260 
 PTB  HN ES       2048 38.67                             133   -0.44 9  148 260 
 PTB  HZ I        2048 44.37         8.6 0.25                           148 260 
 ZAR  HN ES   1   2048 49.01                             123    0.00 6  206 293 
 NOR  SN ES   1   2048 54.49                             119    0.04 6  234 235 
 CHI  HZ EP   1   2048 28.53                             118    0.21 6  247 196 
 CHI  HN ES   1   2048 58.31                             118    0.63 6  247 196 
 CHI  HZ I        2049  3.35         3.9 0.39                           247 196 
                                                                                
