 2016 1028 2328  3.7 L   6.782 -73.124149.8  RSN 11 0.5 1.7LRSN                1
 GAP= 98        0.87       3.6     4.3  5.2 -0.4557E+01 -0.4227E+01  0.7198E+01E
 Epicentro: LOS SANTOS - SANTANDER                                             3
 ACTION:UPD 16-11-09 19:23 OP:rebc STATUS:               ID:20161028232803 L   I
 OLDACT:UP  16-10-29 05:08 OP:and  STATUS:               ID:20161028231744     3
 OLDACT:UP  16-10-29 05:05 OP:and  STATUS:               ID:20161028231744     3
 OLDACT:REG 16-10-29 03:09 OP:y    STATUS:               ID:20161028231744     3
 2016-10-28-2318-00M.COL___337                                                 6
 STAT SP IPHASW D HRMM SECON CODA AMPLIT PERI AZIMU VELO AIN AR TRES W  DIS CAZ7
 BAR2 EZ EP       2328 23.69                             171   -0.1010 21.9 197 
 BAR2 EZ ES       2328 39.67                             171    0.2110 21.9 197 
 BAR2 EZ I        2328 40.39         6.2 0.17            168           21.9 197 
 BRR  HZ EP       2328 25.45                             152   -0.0110 74.2 299 
 BRR  HE ES       2328 42.73                             152    0.3110 74.2 299 
 BRR  HZ I        2328 45.98        13.7 0.31            148           74.2 299 
 PAM  EZ IP     C 2328 26.69                             151    0.3410 77.5  37 
 PAM  EN ES       2328 43.70                             151   -0.3210 77.5  37 
 PAM  EZ I        2328 45.83        17.2 0.54            154           77.5  37 
 RUS  HZ EP       2328 27.73                             145    0.0310 98.4 177 
 RUS  HN ES       2328 46.34                             145   -0.0810 98.4 177 
 RUS  HZ I        2328 47.53         6.4 0.36            145           98.4 177 
 PTB  HZ EP   2   2328 30.26                             132   -0.91 5  150 260 
 PTB  HN ES   2   2328 51.59                             132   -1.01 5  150 260 
 PTB  HZ I        2328 57.03         4.2 0.13            130            150 260 
 TAM  HZ EP       2328 31.47                             132    0.02 9  152 104 
 SPBC HN ES       2328 54.59                             130   -0.38 9  163 220 
 NOR  HN ES   2   2329  7.54                             119   -0.33 4  235 235 
 NOR  HZ I        2329 15.20         3.8 0.18            118            235 235 
 CHI  HZ EP       2328 42.22                             118    0.73 8  247 196 
 CHI  HN ES       2329 11.52                             118    0.56 8  247 196 
 CHI  HZ I        2329 14.91         4.1 0.36            118            247 196 
 PTGC HZ EP       2328 46.88                             112   -0.56 7  306 159 
 PTGC HE ES   2   2329 20.10                             112   -1.45 4  306 159 
 PRA  HZ EP       2328 57.26                             107   -0.04 6  391 210 
 PRA  HN ES   2   2329 39.73                             107    0.63 3  391 210 
 PRA  HZ I        2329 44.43         2.8 0.38            107            391 210 
                                                                                
