 2012  628 2032 42.9 L   6.784 -73.139142.2  RSN 11 0.3 2.3LRSN                1
 GAP=138        0.58       2.3     2.9  4.4 -0.7660E+00  0.4037E+01  0.1215E+01E
 Epicentro: LOS SANTOS - SANTANDER                                             3
 ACTION:UPD 12-08-06 17:53 OP:ep   STATUS:               ID:20120628203242 L   I
 2012-06-28-2030-00M.COL___201                                                 6
 STAT SP IPHASW D HRMM SECON CODA AMPLIT PERI AZIMU VELO AIN AR TRES W  DIS CAZ7
 BAR2 SZ EP   1   2033  1.85                             171   -0.20 7 21.7 193 
 BAR2 SZ ES   1   2033 16.65                             171   -0.35 7 21.7 193 
 BAR2 SZ I        2033 18.38        38.7 0.14                          21.7 193 
 BRR  HZ EP   1   2033  3.88                             151    0.14 7 72.7 299 
 BRR  HN ES   2   2033 20.76                             151    0.76 5 72.7 299 
 BRR  HZ I        2033 23.20        42.4 0.13                          72.7 299 
 PAM  SZ EP       2033  5.12                             150    0.3410 78.3  38 
 PAM  SN ES   1   2033 22.20                             150    0.34 7 78.3  38 
 RUS  HZ EP       2033  6.06                             143   -0.0910 98.7 176 
 RUS  HN ES   1   2033 24.11                             143   -0.19 7 98.7 176 
 RUS  HZ I        2033 25.81        24.3 0.31                          98.7 176 
 PTB  HZ EP   1   2033  9.24                             131   -0.36 7  148 260 
 PTB  HE ES   1   2033 30.67                             131    0.24 7  148 260 
 PTB  HZ I        2033 32.85        14.6 0.13                           148 260 
 OCA  HZ EP   2   2033 10.85                             128   -0.25 5  162 353 
 OCA  HN ES   1   2033 32.52                             128   -0.59 7  162 353 
 OCA  HZ I        2033 37.24        52.4 0.29                           162 353 
 ZAR  HZ EP   1   2033 15.30                             121    0.06 6  205 293 
 ZAR  HN ES   1   2033 40.19                             121   -0.29 6  205 293 
 ZAR  HZ I        2033 46.45        20.9 0.32                           205 293 
 NOR  SZ EP   1   2033 18.42                             118    0.06 6  234 235 
 NOR  SE ES   1   2033 45.84                             118   -0.19 6  234 235 
 CHI  HZ EP   2   2033 19.93                             116   -0.29 4  247 195 
 CHI  HZ I        2033 23.17         8.7 0.18                           247 195 
 CHI  HN ES   1   2033 49.51                             116    0.17 6  247 195 
 HEL  HZ EP   1   2033 23.34                             114    0.39 6  272 256 
 HEL  HN ES   2   2033 54.69                             114    0.49 4  272 256 
 HEL  HZ I        2034  1.12        10.7 0.60                           272 256 
 PRA  HZ EP   1   2033 36.03                             106   -0.11 4  391 210 
 PRA  HN ES   2   2034 18.26                             106    0.58 3  391 210 
                                                                                
