 2016 1128 2256 19.7 L   6.767 -73.134142.0  RSN  6 0.4 1.7LRSN                1
 GAP=158        0.83       4.7     6.2  5.1  0.1254E+02  0.6008E+01  0.7196E+01E
 Epicentro: LOS SANTOS - SANTANDER                                             3
 ACTION:UPD 17-10-26 21:12 OP:lp   STATUS:               ID:20161128225619 L   I
 OLDACT:UP  16-11-29 04:40 OP:edw  STATUS:               ID:20161128224743     3
 OLDACT:REG 16-11-29 03:19 OP:edw  STATUS:               ID:20161128224743     3
 2016-11-28-2248-00M.COL___346                                                 6
 STAT SP IPHASW D HRMM SECON CODA AMPLIT PERI AZIMU VELO AIN AR TRES W  DIS CAZ7
 BAR2 EZ EP       2256 38.59                             172   -0.2210 20.0 195 
 BAR2 EZ ES       2256 53.51                             172   -0.2110 20.0 195 
 BAR2 EZ I        2256 55.36        17.3 0.18            170           20.0 195 
 BRR  HZ EP       2256 40.52                             151   -0.0910 74.1 301 
 BRR  HN ES       2256 57.47                             151    0.5510 74.1 301 
 PAM  EZ EP   9   2256 41.62                             150   -0.02 0 79.5  37 
 PAM  EN ES       2256 58.86                             149    0.1210 79.5  37 
 PAM  EZ I        2257  0.89        11.2 0.52            152           79.5  37 
 PTB  HZ EP   9   2256 45.52                             131   -0.89 0  148 260 
 PTB  HN ES       2257  6.56                             132    0.20 9  148 260 
 PTB  HZ I        2257 13.74         4.0 0.48            130            148 260 
 ZAR  HZ EP       2256 52.44                             121    0.27 8  207 293 
 ZAR  HN ES       2257 16.89                             121   -0.60 8  207 293 
 ZAR  HZ I        2257 22.80         3.0 0.21            121            207 293 
 CHI  HZ EP       2256 57.32                             117    0.48 8  245 196 
 CHI  HN ES       2257 25.68                             117   -0.13 8  245 196 
 LL6C HZ EP   4   2256 44.52                             110   -21.1 0  329 357 
 LL6C HN ES   4   2257 21.70                             110   -19.8 0  329 357 
                                                                                
