 2016  328 2313  8.8 L   6.804 -73.218127.2  RSN  4 0.1 1.5LRSN                1
 GAP=146        0.33       4.0     2.1 10.0  0.8228E+00 -0.3075E+01 -0.3205E+02E
 Epicentro: ZAPATOCA - SANTANDER                                               3
 ACTION:UPD 16-05-13 21:28 OP:cam  STATUS:               ID:20160328231308 L   I
 OLDACT:REG 16-03-29 02:21 OP:dnl  STATUS:               ID:20160328230744     3
 2016-03-28-2307-44M.COL___304                                                 6
 STAT SP IPHASW D HRMM SECON CODA AMPLIT PERI AZIMU VELO AIN AR TRES W  DIS CAZ7
 PAM  EZ EP       2313 29.38                             145   -0.0110 82.4  44 
 PAM  EN EP       2313 29.62                             145           82.4  44 
 PAM  EN I        2313 47.75        10.6 0.44            133           82.4  44 
 RUS  HZ EP   2   2313 30.72                             139   -0.13 5  102 172 
 RUS  HN ES       2313 48.10                             139    0.0310  102 172 
 RUS  HZ I        2313 50.17         2.8 0.26            165            102 172 
 PTB  HZ EP   2   2313 33.71                             129    0.16 5  140 258 
 PTB  HN ES       2313 52.85                             129   -0.03 9  140 258 
 PTB  HZ I        2313 58.10         2.8 0.22            143            140 258 
 ZAR  HZ EP   4   2313 42.34                             119    3.07 0  196 293 
 ZAR  HN ES   4   2314  5.56                             119    2.51 0  196 293 
 ZAR  HZ I        2314 11.43         4.7 0.38            125            196 293 
                                                                                
