 2017  528 2158 50.7 L   6.729 -73.120148.6  RSN  5 0.3 1.3LRSN                1
 GAP=235        0.66       4.0     4.6  6.7  0.8608E+01 -0.8654E+00 -0.3477E+01E
 Epicentro: JORDAN - SANTANDER                                                 3
 ACTION:UPD 17-06-16 13:39 OP:jn   STATUS:               ID:20170528215850 L   I
 OLDACT:UP  17-05-29 03:41 OP:edw  STATUS:               ID:20170528215744     3
 OLDACT:REG 17-05-29 02:54 OP:edw  STATUS:               ID:20170528215744     3
 2017-05-28-2158-00M.COL___344                                                 6
 STAT SP IPHASW D HRMM SECON CODA AMPLIT PERI AZIMU VELO AIN AR TRES W  DIS CAZ7
 BRR  HZ EP     C 2159 12.51                             151    0.0010 77.6 303 
 BRR  HN ES       2159 29.40                             151   -0.1310 77.6 303 
 RUS  HZ EP       2159 14.15                             147   -0.0110 92.6 177 
 RUS  HE ES       2159 32.61                             147    0.1310 92.6 177 
 RUS  HZ I        2159 33.60         2.5 0.36            147           92.6 177 
 PTB  HZ EP       2159 17.79                             132   -0.23 9  149 262 
 PTB  HN ES       2159 38.95                             132   -0.38 9  149 262 
 PTB  HZ I        2159 40.15         3.3 0.22            133            149 262 
 SPBC HE ES       2159 41.28                             130    0.17 9  159 222 
 ZAR  HN ES       2159 50.35                             122    0.55 8  210 294 
                                                                                
