 2011  828 2040  5.6 L   6.730 -73.184147.4  RSN  6 0.4 1.8LRSN                1
 GAP=175        0.68       3.7     7.3  7.0  0.1693E+01  0.4497E+01 -0.1370E+01E
 Epicentro: VILLANUEVA - SANTANDER                                             3
 ACTION:UPD 12-07-13 15:54 OP:ep   STATUS:               ID:20110828204005 L   I
 2011-08-28-2038-21S.COL___161                                                 6
 STAT SP IPHASW D HRMM SECON CODA AMPLIT PERI AZIMU VELO AIN AR TRES W  DIS CAZ7
 BAR2 SZ EP       2040 25.13                             174   -0.2010 15.2 179 
 BAR2 SZ ES   2   2040 40.81                             174    0.12 5 15.2 179 
 BAR2 SZ I        2040 43.71         8.4 0.09                          15.2 179 
 GIR2 SZ EP   2   2040 25.20                             165   -0.52 5 38.6 358 
 BRR  HZ EP   1   2040 26.57                             153   -0.42 7 71.7 306 
 BRR  HE ES   1   2040 43.27                             153   -0.38 7 71.7 306 
 BRR  HZ I        2040 46.43        17.0 0.45                          71.7 306 
 RUS  HZ EP   1   2040 29.09                             146    0.05 7 93.2 173 
 RUS  HE ES   1   2040 47.58                             146    0.29 7 93.2 173 
 OCA  SZ EP   1   2040 34.89                             129    0.13 7  168 355 
 OCA  SZ ES   1   2040 58.17                             129    0.69 7  168 355 
 OCA  SZ I        2041  1.05         6.0 0.30                           168 355 
 NOR  SZ EP   1   2040 40.83                             120    0.21 6  227 235 
 NOR  SE ES   2   2041  8.54                             120    0.64 4  227 235 
                                                                                
