 2016  528 2023 58.7 L   6.810 -73.167140.9  RSN  5 0.3 1.5LRSN                1
 GAP=143        0.78       4.3     4.4  6.0 -0.8412E+01  0.7880E+01 -0.1364E+01E
 Epicentro: LOS SANTOS - SANTANDER                                             3
 ACTION:UPD 16-08-18 17:50 OP:cam  STATUS:               ID:20160528202358 L   I
 OLDACT:DUP 16-05-29 03:26 OP:edw  STATUS:               ID:20160528201742d    3
 2016-05-28-2017-41M.COL___316                                                 6
 STAT SP IPHASW D HRMM SECON CODA AMPLIT PERI AZIMU VELO AIN AR TRES W  DIS CAZ7
 BAR2 EZ EP       2024 17.68                             170   -0.0410 24.1 184 
 BAR2 EZ ES       2024 32.42                             170   -0.1710 24.1 184 
 BAR2 EZ I        2024 34.98         6.2 0.28            170           24.1 184 
 PAM  EZ EP       2024 20.51                             150    0.1110 78.1  41 
 PAM  EN ES       2024 37.59                             150    0.2210 78.1  41 
 PAM  EZ I        2024 38.21         5.7 0.18            152           78.1  41 
 RUS  HZ EP       2024 21.71                             142   -0.3210  102 175 
 RUS  HE ES       2024 40.15                             142   -0.1110  102 175 
 RUS  HZ I        2024 41.77         4.6 0.24            145            102 175 
 PTB  HZ EP       2024 24.54                             131   -0.50 9  146 258 
 PTB  HN ES       2024 45.60                             131   -0.02 9  146 258 
 PTB  HZ I        2024 47.83         4.7 0.44            133            146 258 
 SPBC HZ EP       2024 27.28                             128    0.55 9  163 218 
 SPBC HN ES       2024 49.01                             128    0.38 9  163 218 
                                                                                
