 2010  428 2219 17.2 L   6.774 -72.988142.0  RSN  6 0.3 2.1LRSN                1
 GAP=188        0.68       4.0     7.3  6.7 -0.1234E+02 -0.2004E+02  0.9569E+01E
 Epicentro: CEPITA - SANTANDER                                                 3
 ACTION:UP  10-08-24 10:01 OP:vdl  STATUS:               ID:20100428221917 L   I
 2010-04-28-2213-54S.COL___104                                                 6
 STAT SP IPHASW D HRMM SECON CODA AMPLIT PERI AZIMU VELO SNR AR TRES W  DIS CAZ7
 BAR2 SZ EP       2219 36.43                             168    -0.110   30 227 
 BAR2 SZ ES   1   2219 51.63                             168     0.0 7   30 227 
 BRR  HZ EP       2219 38.73                             147    -0.310   88 295 
 BRR  HN ES       2219 56.19                             147     0.210   88 295 
 BRR  HZ I        2219 56.52        25.1 0.22                            88 295 
 BRI  SZ EP       2219 40.98                             141     0.410  106  11 
 BRI  SZ ES   2   2219 59.03                             141     0.2 5  106  11 
 GUE  SZ EP   1   2219 41.46                             139    -0.2 7  117   3 
 GUE  SZ ES   2   2220  0.18                             139    -0.5 5  117   3 
 CHI  HZ EP   1   2219 54.52                             116    -0.5 6  251 199 
 CHI  HN ES   1   2220 24.79                             116     0.4 6  251 199 
 CHI  HZ I        2220 27.62         7.0 0.42                           251 199 
 RREF BZ EP   2   2220  5.19                             109     0.7 3  333 232 
 RREF BZ I        2220 44.56         4.1 0.53                           333 232 
                                                                                
