 2012  528 2347 31.6 L   6.215 -73.870102.0  RSN  4 0.1 1.0LRSN                1
 GAP=125        0.41       6.2     2.4  9.6 -0.4071E+01 -0.4560E+01  0.4321E+02E
 Epicentro: LANDAZURI - SANTANDER                                              3
 ACTION:UP  12-07-05 12:08 OP:pat  STATUS:               ID:20120528234731 L   I
 2012-05-28-2340-00M.COL___201                                                 6
 STAT SP IPHASW D HRMM SECON CODA AMPLIT PERI AZIMU VELO AIN AR TRES W  DIS CAZ7
 PTB  HZ EP   1   2347 48.70                             140     0.2 7   74 299 
 PTB  HN ES   1   2348  1.55                             140    -0.1 7   74 299 
 PTB  HZ I        2348  2.42         1.8 0.12                            74 299 
 BAR2 SZ ES   1   2348  4.05                             136     0.0 7   87  61 
 BAR2 SZ I        2348  4.52         7.1 0.13                            87  61 
 RUS  HZ EP   1   2347 50.77                             134     0.0 7   94 112 
 RUS  HZ I        2347 51.41         1.6 0.10                            94 112 
 NOR  SZ EP   2   2347 53.60                             123    -0.3 5  132 237 
 NOR  SE ES   2   2348 11.36                             123     0.2 5  132 237 
                                                                                
