 2011 1228 2218 14.4 L   6.968 -73.026166.0  RSN 11 0.5 2.1LRSN                1
 GAP=142        0.99       5.8     5.9  7.4  0.1247E+01  0.7306E+01  0.1317E+02E
 Epicentro: PIEDECUESTA - SANTANDER                                            3
 ACTION:UPD 12-07-13 16:19 OP:ep   STATUS:               ID:20111228221814 L   I
 2011-12-28-2216-00S.MAN___179                                                 6
 STAT SP IPHASW D HRMM SECON CODA AMPLIT PERI AZIMU VELO AIN AR TRES W  DIS CAZ7
 BAR2 SZ EP       2218 37.05                             164    0.0610 45.0 203 
 BAR2 SZ ES   1   2218 54.20                             164   -0.43 7 45.0 203 
 BAR2 SZ I        2218 55.23        24.8 0.28                          45.0 203 
 PAM  SZ EP   1   2218 37.56                             162   -0.16 7 54.7  41 
 PAM  SE ES   1   2218 55.37                             162   -0.56 7 54.7  41 
 BRR  HZ EP       2218 38.33                             154    0.2710 77.3 282 
 BRR  HN ES       2218 57.55                             154    1.0210 77.3 282 
 BRR  HZ I        2218 58.47        26.1 0.09                          77.3 282 
 RUS  HZ EP   1   2218 41.37                             143   -0.08 7  119 183 
 RUS  HN ES   1   2219  3.15                             143    0.58 7  119 183 
 RUS  HZ I        2219  3.66        12.8 0.32                           119 183 
 PTB  HZ EP       2218 44.06                             133   -0.50 9  165 253 
 PTB  HN ES   1   2219  7.31                             133   -0.79 7  165 253 
 ZAR  HN ES   1   2219 15.15                             126   -0.58 6  210 286 
 NOR  SZ EP   2   2218 53.51                             120   -0.10 4  256 233 
 CHI  HZ EP   1   2218 55.60                             119    0.06 6  270 197 
 CHI  HN ES   1   2219 27.27                             119   -0.38 6  270 197 
 CHI  HZ I        2219 29.95         5.8 0.35                           270 197 
 HEL  HZ EP   2   2218 57.86                             117    0.26 4  290 253 
 HEL  HE ES   3   2219 30.96                             117   -0.36 2  290 253 
 HEL  HZ I        2219 39.90         4.5 0.28                           290 253 
 RREF HN ES   1   2219 42.80                             113    0.21 5  344 228 
 RREF HZ I        2219 55.07         8.6 0.37                           344 228 
 PRA  HZ EP   1   2219 11.69                             109    0.42 4  415 210 
                                                                                
