 2016  728 2021 47.1 L   6.796 -73.171143.7  RSN 10 0.3 2.2LRSN                1
 GAP=134        0.71       2.9     3.0  4.9 -0.1546E+01  0.6268E+01  0.4970E+00E
 Epicentro: LOS SANTOS - SANTANDER                                             3
 ACTION:UPD 17-03-29 16:55 OP:lp   STATUS:               ID:20160728202147 L   I
 OLDACT:REG 16-07-29 02:46 OP:lv   STATUS:               ID:20160728201759     3
 2016-07-28-2017-59S.COL___346                                                 6
 STAT SP IPHASW D HRMM SECON CODA AMPLIT PERI AZIMU VELO AIN AR TRES W  DIS CAZ7
 BAR2 EZ EP       2022  6.52                             171    0.0410 22.5 183 
 BAR2 EZ ES       2022 21.64                             171    0.0610 22.5 183 
 BAR2 EZ I        2022 24.33        51.2 0.34            170           22.5 183 
 BRR  HZ EP       2022  7.38                             153   -0.5410 69.0 300 
 BRR  HN ES   4   2022 25.45                             153    1.31 0 69.0 300 
 BRR  HZ I        2022 27.90        25.6 0.18            149           69.0 300 
 PAM  EZ EP       2022  9.40                             150    0.1610 79.6  41 
 PAM  EN ES       2022 26.50                             150    0.0010 79.6  41 
 PAM  EZ I        2022 28.68        30.8 0.48            154           79.6  41 
 RUS  HZ EP       2022 10.44                             143   -0.2110  100 174 
 RUS  HE ES       2022 29.23                             143    0.2310  100 174 
 RUS  HZ I        2022 30.40        28.0 0.32            147            100 174 
 PTB  HZ EP       2022 13.30                             132   -0.36 9  145 259 
 PTB  HN ES       2022 34.07                             132   -0.29 9  145 259 
 PTB  HZ I        2022 39.49        13.1 0.14            132            145 259 
 ZAR  HZ EP       2022 19.76                             122    0.58 9  202 293 
 ZAR  HN ES       2022 44.54                             122    0.35 9  202 293 
 ZAR  HZ I        2022 50.20        12.7 0.28            123            202 293 
 NOR  HN ES       2022 50.07                             118    0.06 8  232 234 
 NOR  HZ I        2022 56.14        15.6 0.18            120            232 234 
 URE  HE ES   4   2022 58.16                             113   -1.40 0  281 292 
 URE  HZ I        2023  9.22         9.1 0.20            114            281 292 
 GUY2CHZ EP   4   2022 31.94                             112    1.60 0  299 235 
 GUY2CHN ES       2023  4.10                             112    0.04 7  299 235 
 GUY2CHZ I        2023 12.48         8.0 0.37                           299 235 
 PRA  HZ EP       2022 40.30                             106   -0.06 6  390 209 
 PRA  HN ES       2023 22.16                             106    0.28 6  390 209 
 PRA  HZ I        2023 28.71         8.9 0.48            108            390 209 
                                                                                
