 2012 1028 2027 13.9 L   6.793 -73.141146.5  RSN  6 0.4 1.8LRSN                1
 GAP=138        0.71       5.4     5.4  7.7  0.3377E+01  0.7136E+01 -0.7502E+01E
 Epicentro: LOS SANTOS - SANTANDER                                             3
 ACTION:UPD 12-11-22 17:06 OP:ep   STATUS:               ID:20121028202713 L   I
 2012-10-28-2020-00M.COL___231                                                 6
 STAT SP IPHASW D HRMM SECON CODA AMPLIT PERI AZIMU VELO AIN AR TRES W  DIS CAZ7
 BAR2 SZ ES   1   2027 48.42                             171   -0.55 7 22.6 192 
 BAR2 SZ I        2027 49.69        20.7 0.20                          22.6 192 
 GIR2 SZ EP   1   2027 33.32                             167   -0.37 7 32.2 350 
 GIR2 SZ ES   1   2027 49.18                             167    0.07 7 32.2 350 
 BRR  HZ EP   1   2027 35.31                             152    0.13 7 72.1 299 
 BRR  HZ I        2027 35.85         9.0 0.12                          72.1 299 
 BRR  HE ES   1   2027 52.40                             152    0.63 7 72.1 299 
 PAM  SZ EP   1   2027 36.46                             151    0.25 7 77.6  39 
 PAM  SZ I        2027 36.68         8.1 0.22                          77.6  39 
 PAM  SN ES   1   2027 53.51                             151   -0.10 7 77.6  39 
 PAM  SN I        2027 54.72        21.3 0.68                          77.6  39 
 RUS  HE ES   1   2027 56.42                             144    0.22 7 99.7 176 
 ZAR  HN ES   1   2028 11.53                             122   -0.36 6  205 292 
                                                                                
