 2015  428 2211 47.3 L   6.761 -73.192143.7  RSN  6 0.4 1.5LRSN                1
 GAP=229        0.77       5.3     5.6  7.6  0.1181E+02  0.1838E+02  0.7163E+01E
 Epicentro: LOS SANTOS - SANTANDER                                             3
 ACTION:UPD 15-06-03 16:58 OP:cam  STATUS:               ID:20150428221147 L   I
 OLDACT:DUP 15-04-29 05:56 OP:spq  STATUS:               ID:20150428220751d    3
 2015-04-28-2207-50M.COL___287                                                 6
 STAT SP IPHASW D HRMM SECON CODA AMPLIT PERI AZIMU VELO AIN AR TRES W  DIS CAZ7
 BAR2 EZ ES   1   2212 21.19                             172   -0.43 7 18.7 177 
 BAR2 EZ I        2212 22.04         9.2 0.16            169           18.7 177 
 BRR  HZ EP   1   2212  8.08                             153   -0.01 7 69.1 304 
 BRR  HN ES   1   2212 25.14                             153    0.83 7 69.1 304 
 BRR  HZ I        2212 27.20         9.4 0.41            148           69.1 304 
 RUS  HZ EP   1   2212 10.57                             144    0.01 7 96.8 173 
 RUS  HE ES       2212 28.69                             144   -0.0210 96.8 173 
 RUS  HZ I        2212 29.36         4.6 0.30            146           96.8 173 
 PTB  HZ EP   1   2212 13.28                             133   -0.28 7  142 260 
 PTB  HN ES   1   2212 33.79                             133   -0.26 7  142 260 
 PTB  HZ I        2212 37.36         3.4 0.14            130            142 260 
 ZAR  HE ES   1   2212 43.69                             122   -0.55 6  201 294 
 ZAR  HZ I        2212 51.90         3.3 0.26            121            201 294 
 NOR  HZ EP   1   2212 22.65                             119    0.46 6  228 235 
 NOR  HE ES       2212 49.59                             119    0.18 8  228 235 
 NOR  HZ I        2212 56.04         2.8 0.48            118            228 235 
                                                                                
