 2013  428 2159 54.4 L   6.763 -73.108138.1  RSN  4 0.1 1.4LRSN                1
 GAP=143        0.39       2.0     2.9  3.9 -0.1082E+00 -0.6431E+00  0.1153E+01E
 Epicentro: LOS SANTOS - SANTANDER                                             3
 ACTION:UPD 13-05-22 14:41 OP:EP   STATUS:               ID:20130428215954 L   I
 2013-04-28-2158-44M.COL___211                                                 6
 STAT SP IPHASW D HRMM SECON CODA AMPLIT PERI AZIMU VELO AIN AR TRES W  DIS CAZ7
 BAR2 SZ EP       22 0 13.05                             171    0.0310 20.6 204 
 BRR  HZ EP       22 0 14.83                             149   -0.2110 76.8 300 
 BRR  HZ I        22 0 14.96         5.8 0.18            151           76.8 300 
 BRR  HN ES       22 0 31.27                             149    0.1110 76.8 300 
 PAM  SZ EP       22 0 15.89                             149    0.0710 78.1  35 
 PAM  SN ES       22 0 32.51                             149   -0.0410 78.1  35 
 RUS  HZ EP       22 0 17.17                             143    0.1110 96.3 178 
 RUS  HN ES       22 0 34.68                             143   -0.0710 96.3 178 
 RUS  HN I        22 0 36.46         3.6 0.24            143           96.3 178 
                                                                                
