 2015 1128 2352  0.8 L   6.808 -73.097143.3  RSN 12 0.5 2.1LRSN                1
 GAP=142        1.12       3.6     4.7  6.3 -0.1639E+01  0.1306E+02  0.1216E+01E
 Epicentro: LOS SANTOS - SANTANDER                                             3
 ACTION:UPD 15-12-28 16:14 OP:cam  STATUS:               ID:20151128235200 L   I
 OLDACT:REG 15-11-29 04:11 OP:dnl  STATUS:               ID:20151128234750     3
 2015-11-28-2347-50M.COL___307                                                 6
 STAT SP IPHASW D HRMM SECON CODA AMPLIT PERI AZIMU VELO AIN AR TRES W  DIS CAZ7
 BAR2 EZ EP       2352 20.24                             169    0.0410 25.7 202 
 BAR2 EZ ES       2352 35.26                             169   -0.0610 25.7 202 
 BAR2 EZ I        2352 36.35        24.2 0.14            166           25.7 202 
 PAM  EZ EP       2352 23.00                             152    0.4710 73.3  37 
 PAM  EE ES       2352 39.09                             152   -0.3810 73.3  37 
 PAM  EZ I        2352 42.49        19.3 0.45            154           73.3  37 
 BRR  HZ EP       2352 22.12                             151    0.1610 75.6 296 
 BRR  HE ES       2352 39.10                             151    0.6610 75.6 296 
 BRR  HZ I        2352 42.30        22.0 0.25            148           75.6 296 
 RUS  HZ EP       2352 24.23                             143   -0.1510  101 179 
 RUS  HN ES       2352 42.81                             143    0.0510  101 179 
 RUS  HZ I        2352 43.96        12.8 0.31            141            101 179 
 PTB  HZ EP       2352 27.21                             130   -0.88 9  153 259 
 PTB  HN ES   4   2352 47.43                             130   -1.93 0  153 259 
 PTB  HZ I        2352 55.33        10.7 0.11            128            153 259 
 SPBC HZ EP       2352 29.29                             128   -0.24 9  167 220 
 SPBC HZ I        2352 52.92        19.3 0.14            125            167 220 
 ZAR  HZ EP       2352 34.95                             121    1.36 8  209 291 
 ZAR  HE ES       2352 58.67                             121   -0.48 8  209 291 
 ZAR  HZ I        2353  4.41        19.9 0.26            119            209 291 
 NOR  HZ EP       2352 36.63                             117   -0.31 8  240 235 
 NOR  HE ES       2353  4.60                             117   -0.51 8  240 235 
 NOR  HZ I        2353 10.45         8.1 0.19            115            240 235 
 SML  HZ EP       2352 37.24                             117   -0.22 8  245 334 
 SML  HE ES       2353  5.50                             117   -0.55 8  245 334 
 SML  HZ I        2353  9.18        15.0 0.08            116            245 334 
 HEL  HZ EP   1   2352 41.88                             114    0.37 6  278 256 
 HEL  HE ES       2353 13.50                             114    0.24 7  278 256 
 HEL  HZ I        2353 19.36         4.3 0.07            112            278 256 
 GUY2CHZ EP   1   2352 45.12                             111    0.25 5  306 235 
 GUY2CHN ES       2353 19.35                             111    0.11 7  306 235 
 GUY2CHZ I        2353 28.14         2.8 0.26                           306 235 
 PRA  HZ EP   2   2352 55.29                             106    0.63 3  396 210 
 PRA  HE ES       2353 36.97                             106    0.31 6  396 210 
 PRA  HZ I        2353 41.61         3.6 0.15            105            396 210 
                                                                                
