 2015  328 2128 18.7 L   6.765 -73.092151.9  RSN  6 0.4 1.8LRSN                1
 GAP=145        0.91       4.6     6.2  7.2 -0.9466E+01  0.6030E+01  0.6446E+01E
 Epicentro: LOS SANTOS - SANTANDER                                             3
 ACTION:UPD 15-04-30 16:30 OP:nd   STATUS:               ID:20150328212818 L   I
 OLDACT:UP  15-03-29 02:49 OP:cma  STATUS:               ID:20150328211749     3
 OLDACT:REG 15-03-29 02:28 OP:cam  STATUS:               ID:20150328211749     3
 2015-03-28-2117-49M.COL___281                                                 6
 STAT SP IPHASW D HRMM SECON CODA AMPLIT PERI AZIMU VELO AIN AR TRES W  DIS CAZ7
 BAR2 EZ EP   1   2128 38.49                             172   -0.49 7 21.5 208 
 PAM  SZ EP     D 2128 41.78                             152    0.2810 76.9  34 
 PAM  SN ES       2128 59.09                             152   -0.2210 76.9  34 
 PAM  SZ I        2129  0.49        11.0 0.56            156           76.9  34 
 BRR  HZ EP     D 2128 40.95                             151    0.0910 78.2 299 
 BRR  HN ES       2128 58.30                             151    0.1110 78.2 299 
 BRR  HZ I        2129  1.03        11.0 0.16            151           78.2 299 
 RUS  HZ EP       2128 42.84                             146    0.1210 96.5 179 
 RUS  HN ES       2129  1.77                             146    0.2710 96.5 179 
 RUS  HN I        2129  2.65         5.6 0.58            148           96.5 179 
 SPBC HZ EP       2128 46.93                             130   -0.78 9  164 221 
 SPBC HN ES       2129 10.26                             130   -0.10 9  164 221 
 SPBC HN I        2129 15.52        16.0 0.24            131            164 221 
 GUY2CHZ EP       2129  3.56                             113    0.71 7  304 236 
 GUY2CHE ES   4   2129 40.35                             113    3.03 0  304 236 
 GUY2CHZ I        2129 45.84         4.0 0.14                           304 236 
                                                                                
