 2015  528 2133  3.1 L   6.364 -73.529115.0  RSN 12 0.4 2.2LRSN                1
 GAP= 81        0.81       2.3     2.7  5.1 -0.2147E+01  0.6447E+01 -0.2999E+01E
 Epicentro: SANTA HELENA DEL OPON - SANTANDER                                  3
 ACTION:UPD 15-09-10 22:07 OP:cam  STATUS:               ID:20150528213303 L   I
 OLDACT:UP  15-06-03 18:00 OP:cam  STATUS:               ID:20150528213303 L   3
 OLDACT:UP  15-06-03 17:59 OP:cam  STATUS:               ID:20150528213303 L   3
 OLDACT:UP  15-06-01 11:34 OP:Mher STATUS:               ID:20150528213303 L   3
 OLDACT:UP  15-05-29 05:54 OP:mh   STATUS:               ID:20150528212748     3
 OLDACT:UP  15-05-29 05:53 OP:mh   STATUS:               ID:20150528212748     3
 OLDACT:REG 15-05-29 04:20 OP:mh   STATUS:               ID:20150528212748     3
 2015-05-28-2127-48M.COL___318                                                 6
 STAT SP IPHASW D HRMM SECON CODA AMPLIT PERI AZIMU VELO AIN AR TRES W  DIS CAZ7
 BAR2 EZ EP       2133 20.16                             157    0.2910 45.8  57 
 BAR2 EZ ES       2133 32.95                             157   -0.0110 45.8  57 
 BAR2 EZ I        2133 34.34        70.9 0.32            159           45.8  57 
 RUS  HZ EP       2133 21.62                             146   -0.1310 71.8 137 
 RUS  HN ES       2133 36.11                             146   -0.2010 71.8 137 
 RUS  HZ I        2133 39.39        15.7 0.22            150           71.8 137 
 BRR  HZ EP       2133 21.82                             141   -0.1710 84.6 346 
 BRR  HN ES       2133 36.74                             141    0.0110 84.6 346 
 BRR  HZ I        2133 37.65        35.6 0.10            142           84.6 346 
 SPBC HZ EP   1   2133 23.13                             136   -0.15 7 99.1 217 
 SPBC HN ES       2133 38.90                             136   -0.1410 99.1 217 
 SPBC HZ I        2133 44.06        42.3 0.32            139           99.1 217 
 PAM  SZ EP       2133 28.02                             125    0.27 9  142  40 
 PAM  SN ES       2133 47.30                             125    0.32 9  142  40 
 PAM  SZ I        2133 48.66        15.7 0.24            128            142  40 
 NOR  HZ EP   1   2133 29.71                             119   -0.69 7  173 239 
 NOR  HN ES       2133 51.80                             119    0.10 9  173 239 
 NOR  HZ I        2133 53.54        22.2 0.36            121            173 239 
 ZAR  HZ EP       2133 32.01                             116   -0.48 9  193 310 
 ZAR  HN ES       2133 55.18                             116   -0.25 9  193 310 
 ZAR  HZ I        2133 59.93        30.7 0.30            118            193 310 
 OCA  HN ES       2133 58.97                             114    0.09 8  209   6 
 OCA  HZ I        2134  4.18        41.2 0.32            116            209   6 
 HEL  HZ EP       2133 36.12                             113   -0.10 8  222 265 
 HEL  HN ES       2134  2.96                             113    0.90 8  222 265 
 HEL  HZ I        2134  5.17        14.6 0.20            114            222 265 
 GUY2CHZ EP       2133 38.74                             111    0.45 8  239 238 
 GUY2CHN ES   4   2134  7.86                             111    2.11 0  239 238 
 GUY2CHZ I        2134 13.06         6.6 0.24                           239 238 
 SML  HZ EP   1   2133 42.14                             107    0.21 6  276 348 
 SML  HN ES   1   2134 11.42                             107   -0.81 6  276 348 
 SML  HZ I        2134 19.06        20.1 0.10            109            276 348 
 MON  HZ EP   4   2133 50.15                             102   -1.23 0  356 319 
 MON  HN ES   4   2134 27.52                             102   -1.53 0  356 319 
 MON  HZ I        2134 29.22         3.8 0.38            104            356 319 
                                                                                
