 2011  228 2250 45.6 L   6.821 -73.088145.4  RSN  5 0.2 1.9LRSN                1
 GAP=189        0.42       2.1     8.2  4.3 -0.1059E-01  0.7238E+01 -0.1194E+01E
 Epicentro: LOS SANTOS - SANTANDER                                             3
 ACTION:UP  11-03-28 15:11 OP:jfem STATUS:               ID:20110228225045 L   I
 2011-02-28-2248-31S.COL___135                                                 6
 STAT SP IPHASW D HRMM SECON CODA AMPLIT PERI AZIMU VELO SNR AR TRES W  DIS CAZ7
 BAR2 SZ ES   1   2251 20.48                             169    -0.1 8   27 203 
 BAR2 SZ I        2251 22.03        21.7 0.22                            27 203 
 RUS  HZ EP       2251  9.58                             143     0.110  103 180 
 RUS  HN ES   1   2251 28.09                             143     0.0 7  103 180 
 RUS  HZ I        2251 29.12         5.1 0.17                           103 180 
 OCA  SZ EP       2251 13.55                             130    -0.2 9  159 351 
 OCA  SZ ES   1   2251 35.85                             130     0.2 7  159 351 
 OCA  SZ I        2251 39.52        14.5 0.21                           159 351 
 CHI  HZ EP   1   2251 23.77                             117     0.1 6  253 196 
 CHI  HN ES   3   2251 52.53                             117    -0.9 2  253 196 
 RREF HN ES   2   2252  9.00                             110     0.0 3  328 230 
                                                                                
