 2015  828 2336 38.6 L   6.807 -73.158151.1  RSN  7 0.3 1.9LRSN                1
 GAP=200        0.66       3.5     5.7  5.7  0.8971E+01  0.7235E+01  0.3244E+01E
 Epicentro: LOS SANTOS - SANTANDER                                             3
 ACTION:UPD 15-09-15 23:05 OP:cam  STATUS:               ID:20150828233638 L   I
 OLDACT:REG 15-08-29 04:54 OP:ar   STATUS:               ID:20150828232747     3
 2015-08-28-2327-47M.COL___358                                                 6
 STAT SP IPHASW D HRMM SECON CODA AMPLIT PERI AZIMU VELO AIN AR TRES W  DIS CAZ7
 BAR2 EZ EP       2336 58.78                             171   -0.1010 23.9 187 
 BAR2 EZ ES       2337 14.48                             171   -0.2210 23.9 187 
 BAR2 EZ I        2337 14.83        16.7 0.20            171           23.9 187 
 BRR  HZ EP       2337  0.48                             154    0.2410 69.7 298 
 BRR  HZ I        2337 16.99        12.3 0.24            147           69.7 298 
 BRR  HN ES       2337 17.58                             154    0.4610 69.7 298 
 RUS  HN ES   2   2337 21.57                             145   -0.35 5  101 175 
 RUS  HZ I        2337 22.27         9.5 0.26            139            101 175 
 SPBC HZ EP   2   2337  7.55                             130    0.06 5  163 218 
 SPBC HE ES   2   2337 30.51                             130    0.48 5  163 218 
 SPBC HZ I        2337 33.75        11.7 0.26            124            163 218 
 ZAR  HN ES       2337 36.14                             124   -0.57 9  203 292 
 ZAR  HZ I        2337 41.83         7.3 0.54            116            203 292 
 SML  HZ EP   2   2337 15.18                             119   -0.22 4  242 335 
 SML  HE ES   2   2337 44.24                             119    0.14 4  242 335 
 SML  HZ I        2337 47.76         8.6 0.30            111            242 335 
 CHI  HZ EP   2   2337 17.06                             118    0.41 4  249 195 
 CHI  HE ES       2337 46.26                             118   -0.06 8  249 195 
 CHI  HZ I        2337 51.30         4.2 0.28            112            249 195 
 URE  HN ES   4   2337 49.18                             115   -2.70 0  282 292 
                                                                                
