 2014  928 2056 41.2 L   6.799 -73.151151.0  RSN  9 0.4 1.7LRSN                1
 GAP=136        0.99       3.1     4.3  6.0 -0.9695E-01  0.5128E+01 -0.8646E+00E
 Epicentro: LOS SANTOS - SANTANDER                                             3
 ACTION:UPD 14-10-03 23:09 OP:nd   STATUS:               ID:20140928205641 L   I
 OLDACT:REG 14-09-29 09:05 OP:carl STATUS:               ID:20140928204818     3
 2014-09-28-2048-18M.COL___298                                                 6
 STAT SP IPHASW D HRMM SECON CODA AMPLIT PERI AZIMU VELO AIN AR TRES W  DIS CAZ7
 BAR2 SZ EP       2057  1.36                             171   -0.1410 23.1 189 
 BAR2 SZ ES       2057 17.02                             171   -0.2810 23.1 189 
 BAR2 SZ I        2057 19.83         9.7 0.22            173           23.1 189 
 BRR  HZ EP       2057  3.37                             154    0.4310 70.7 299 
 BRR  HN ES       2057 20.67                             154    0.8210 70.7 299 
 BRR  HZ I        2057 25.56         7.3 0.18            153           70.7 299 
 PAM  SZ EP       2057  4.29                             152    0.2410 77.9  40 
 PAM  SN ES       2057 21.68                             152   -0.1510 77.9  40 
 PAM  SZ I        2057 25.85         7.4 0.86            154           77.9  40 
 RUS  HZ EP       2057  5.80                             145    0.2910  101 176 
 RUS  HN ES       2057 24.16                             145   -0.2710  101 176 
 RUS  HZ I        2057 25.01         6.6 0.30            150            101 176 
 PTB  HZ EP       2057  8.00                             133   -0.59 9  147 259 
 PTB  HN ES       2057 29.52                             133   -0.40 9  147 259 
 PTB  HZ I        2057 36.49         7.9 0.28            135            147 259 
 SPBC HZ EP       2057 10.33                             130    0.22 9  163 219 
 SPBC HN ES       2057 32.37                             130   -0.25 9  163 219 
 ZAR  HN ES       2057 39.83                             124    0.31 9  204 292 
 SML  HZ EP       2057 17.91                             119   -0.25 8  244 335 
 SML  HN ES       2057 46.41                             119   -0.53 8  244 335 
 SML  HZ I        2057 50.41         6.7 0.10            121            244 335 
 CHI  HE ES       2057 49.17                             118    0.35 8  248 195 
                                                                                
