 2011 1128 2036  3.8 L   6.840 -73.315139.6  RSN  4 0.4 1.3LRSN                1
 GAP=138        0.71       6.3    14.2  9.5 -0.4597E+02  0.5197E+02 -0.1475E+02E
 Epicentro: ZAPATOCA - SANTANDER                                               3
 ACTION:UPD 12-07-13 16:12 OP:ep   STATUS:               ID:20111128203603 L   I
 2011-11-28-2033-32S.COL___160                                                 6
 STAT SP IPHASW D HRMM SECON CODA AMPLIT PERI AZIMU VELO AIN AR TRES W  DIS CAZ7
 BAR2 SZ EP   1   2036 23.25                             167    0.34 7 31.1 152 
 BAR2 SZ I        2036 23.58         6.8 0.37                          31.1 152 
 BAR2 SZ ES   1   2036 38.22                             167    0.43 7 31.1 152 
 BRR  HZ EP   2   2036 22.75                             157   -0.62 5 52.9 304 
 PAM  SZ EP   1   2036 26.18                             147    0.12 7 87.6  51 
 PAM  SZ I        2036 26.41         2.6 0.17                          87.6  51 
 PAM  SN ES   1   2036 43.13                             147   -0.26 7 87.6  51 
 RUS  HZ EP   1   2036 27.70                             141    0.16 7  108 166 
 RUS  HN ES   1   2036 45.50                             141   -0.52 7  108 166 
 RUS  HZ I        2036 47.13         2.9 0.33                           108 166 
                                                                                
