 2011  528 2054 38.6 L   6.528 -73.555109.9  RSN  8 0.4 1.8LRSN                1
 GAP= 90        0.72       3.6     4.4  6.4 -0.4246E+01  0.9851E+01  0.6973E+00E
 Epicentro: EL CARMEN DE CHUCURI - SANTANDER                                   3
 ACTION:UP  11-06-29 08:57 OP:tino STATUS:               ID:20110528205438 L   I
 2011-05-28-2052-25S.COL___113                                                 6
 STAT SP IPHASW D HRMM SECON CODA AMPLIT PERI AZIMU VELO SNR AR TRES W  DIS CAZ7
 BAR2 SZ IP       2054 54.58                             158     0.010   42  80 
 BAR2 SZ I        2054 54.91        48.5 0.26                            42  80 
 BAR2 SZ ES   1   2055  7.09                             158     0.0 7   42  80 
 BRR  HZ EP       2054 55.41                             146    -0.210   66 345 
 BRR  HN ES   1   2055  9.21                             146     0.2 7   66 345 
 BRR  HZ I        2055 15.19        17.4 0.16                            66 345 
 RUS  HZ EP       2054 57.80                             139    -0.110   88 143 
 RUS  HN ES   2   2055 13.34                             139     0.3 5   88 143 
 RUS  HZ I        2055 14.60         5.1 0.51                            88 143 
 BRI  SZ EP   3   2055  4.16                             121     0.2 2  156  32 
 GRA  SZ EP       2055  5.73                             118     0.2 9  171  29 
 GRA  SZ ES   1   2055 26.50                             118    -0.1 7  171  29 
 GRA  SZ I        2055 29.99        11.5 0.34                           171  29 
 NOR  SZ EP       2055  6.36                             116    -0.1 9  180 234 
 NOR  SN ES   2   2055 27.47                             116    -0.6 4  180 234 
 OCA  SZ EP   3   2055  7.35                             115    -0.4 2  191   8 
 OCA  SZ ES   3   2055 28.76                             115    -1.7 2  191   8 
 OCA  SZ I        2055 36.93        11.6 0.21                           191   8 
 HEL  HZ EP   1   2055 12.33                             111     0.9 6  221 260 
 HEL  HN ES   3   2055 36.47                             111    -0.5 2  221 260 
 HEL  HZ I        2055 42.40         4.8 0.20                           221 260 
                                                                                
