 2011  128 2339  4.1 L   6.806 -73.163137.8  RSN 20 0.5 4.1LRSN                1
 GAP=102        1.05       3.0     4.6  6.2 -0.2802E+01  0.9033E+01  0.2232E+01E
 Epicentro: LOS SANTOS - SANTANDER                                             3
 ACTION:UP  11-02-08 08:43 OP:pat  STATUS:               ID:20110128233904 L   I
 2011-01-28-2336-13S.COL___137                                                 6
 STAT SP IPHASW D HRMM SECON CODA AMPLIT PERI AZIMU VELO SNR AR TRES W  DIS CAZ7
 BAR2 SZ IP       2339 23.11                             170     0.310   24 185 
 BAR2 SZ ES   1   2339 37.54                                     0.2 7   24 185 
 BAR2 SZ I        2339 38.82      4201.8 0.37                            24 185 
 GIR2 SZ IP       2339 23.21                             167     0.410   30 354 
 GIR2 SZ ES   1   2339 37.54                             167     0.1 7   30 354 
 RUS  HZ IP     D 2339 26.99                             142    -0.210  101 175 
 RUS  HN ES   1   2339 45.13                             142     0.0 7  101 175 
 RUS  HZ I        2339 47.12      1381.6 0.39                           101 175 
 GUE  SZ EP   1   2339 27.32                             137    -0.8 7  116  13 
 GRA  SZ IP       2339 29.13                             135     0.510  126  18 
 GRA  SZ ES   1   2339 47.31                             135    -0.5 7  126  18 
 GRA  SZ I        2339 49.74      3485.1 0.40                           126  18 
 OCA  SZ IP       2339 31.74                             128     0.0 9  159 354 
 OCA  SZ ES   1   2339 53.04                             128    -0.2 7  159 354 
 OCA  SZ I        2339 58.66      3244.2 0.26                           159 354 
 YOP  SZ IP       2339 33.82                             124     0.1 9  180 153 
 YOP  SN ES   1   2339 56.54                             124    -0.3 7  180 153 
 YOP  SZ I        2339 58.31       969.7 0.35                           180 153 
 NOR  SZ EP   1   2339 39.51                             117     0.2 6  234 234 
 NOR  SN ES   1   2340  6.45                             117    -0.3 6  234 234 
 CHI  HZ EP   1   2339 40.93                             115    -0.5 6  249 195 
 CHI  HN ES   1   2340  9.93                             115    -0.6 6  249 195 
 CHI  HZ I        2340 14.79       439.7 0.37                           249 195 
 ROSC BZ IP     C 2339 42.91                             115     1.1 8  252 211 
 ROSC BN ES   1   2340 11.28                             115     0.1 6  252 211 
 ROSC BZ I        2340 19.29      1024.0 0.39                           252 211 
 HEL  HZ EP   1   2339 43.38                             113    -0.4 6  270 256 
 HEL  HN ES   1   2340 13.63                             113    -1.0 6  270 256 
 HEL  HZ I        2340 22.21       565.4 0.35                           270 256 
 GUY  SZ EP   1   2339 47.57                             111     0.3 5  300 235 
 GUY  SZ I        2340 33.54       633.2 0.41                           300 235 
 VIL  SZ EP   1   2339 46.22                             110    -0.8 5  302 189 
 VIL  SN ES   1   2340 19.68                             110    -0.8 5  302 189 
 VIL  SZ I        2340 30.46       396.2 0.66                           302 189 
 DBB  SZ IP       2339 51.44                             108     0.4 7  338 274 
 DBB  SZ ES   1   2340 27.00                             108    -0.7 5  338 274 
 DBB  SZ I        2340 32.31       246.6 0.35                           338 274 
 TOL  SZ EP   1   2339 52.68                             108     0.7 5  343 224 
 TOL  SZ ES   1   2340 29.79                             108     0.5 5  343 224 
 SDV  BZ EP   1   2339 53.02                             107    -1.0 5  361  50 
 SDV  BZ I        2340 32.75       531.4 0.57                           361  50 
 HORQ SZ EP   1   2340 14.53                             100     0.3 3  531 226 
 PCON HZ EP   1   2340 24.36                              98     0.1 2  611 216 
 POP2 HZ EP   1   2340 23.84                              98    -0.1 2  612 220 
 SOTA HZ EP   1   2340 28.24                              98     0.3 2  642 217 
 SOTA HZ I        2341 46.84        77.3 0.67                           642 217 
                                                                                
