 2011 1028 2128 56.7 L   6.706 -73.502111.3  RSN  4 0.1 1.7LRSN                1
 GAP=180        0.33       2.1     3.3  3.7  0.6552E+00 -0.2130E+01  0.4612E+00E
 Epicentro: EL CARMEN DE CHUCURI - SANTANDER                                   3
 ACTION:UPD 12-07-13 16:06 OP:ep   STATUS:               ID:20111028212856 L   I
 2011-10-28-2120-00M.COL___177                                                 6
 STAT SP IPHASW D HRMM SECON CODA AMPLIT PERI AZIMU VELO AIN AR TRES W  DIS CAZ7
 BAR2 SZ EP   2   2129 13.12                             160    0.39 5 37.5 110 
 BAR2 SZ ES   1   2129 25.23                             160    0.03 7 37.5 110 
 BAR2 SZ I        2129 26.22        36.0 0.21                          37.5 110 
 BRR  HZ EP   2   2129 13.05                             154    0.07 5 50.1 332 
 BRR  HZ I        2129 18.22        13.5 0.29                          50.1 332 
 BRR  HE ES   1   2129 25.58                             154   -0.06 7 50.1 332 
 RUS  HZ EP   1   2129 17.23                             135   -0.11 7  101 153 
 RUS  HE ES   1   2129 33.39                             135   -0.01 7  101 153 
 RUS  HZ I        2129 34.43         3.7 0.21                           101 153 
 PAM  SZ EP   1   2129 18.34                             131   -0.05 7  113  52 
 PAM  SN ES   1   2129 35.26                             131   -0.01 7  113  52 
                                                                                
