 2015  228 2029 45.6 L   6.741 -73.102138.7  RSN  7 0.5 1.6LRSN                1
 GAP=267        1.05       7.9     8.5 10.2 -0.3634E+02 -0.2756E+02  0.4606E+02E
 Epicentro: JORDAN - SANTANDER                                                 3
 ACTION:UPD 15-04-30 21:29 OP:nd   STATUS:               ID:20150228202945 L   I
 OLDACT:REG 15-03-01 05:26 OP:fm   STATUS:               ID:20150228202744     3
 2015-02-28-2027-44M.COL___296                                                 6
 STAT SP IPHASW D HRMM SECON CODA AMPLIT PERI AZIMU VELO AIN AR TRES W  DIS CAZ7
 BAR2 EZ EP       2030  4.28                             172   -0.0410 18.7 208 
 BAR2 EZ I        2030 20.72         8.3 0.22            167           18.7 208 
 BRR  HZ EP       2030  6.57                             149    0.1010 78.6 301 
 BRR  HZ I        2030 22.21         8.9 0.44            159           78.6 301 
 BRR  HN ES       2030 23.36                             149    0.6410 78.6 301 
 PTB  HZ EP       2030 11.67                             130   -0.69 9  151 262 
 PTB  HN ES       2030 32.51                             130   -0.72 9  151 262 
 PTB  HZ I        2030 35.00         4.3 0.16            138            151 262 
 SPBC HZ EP       2030 13.22                             128   -0.19 9  161 222 
 SPBC HN ES       2030 34.84                             128   -0.25 9  161 222 
 SPBC HZ I        2030 38.16         5.9 0.32            132            161 222 
 NOR  HZ EP       2030 21.15                             117    0.17 8  235 236 
 NOR  HN ES       2030 48.28                             117   -0.29 8  235 236 
 NOR  HZ I        2030 55.78         2.5 0.14            121            235 236 
 GUY2CHZ EP       2030 29.23                             111    0.28 7  301 236 
 GUY2CHE ES       2031  3.34                             111    0.60 7  301 236 
 GUY2CHZ I        2031 11.34         1.8 0.40                           301 236 
 RREF HZ EP       2030 31.76                             109    0.35 7  321 231 
 RREF HE ES       2031  7.87                             109    0.74 7  321 231 
 RREF HZ I        2031 16.52         2.3 0.30            112            321 231 
                                                                                
