 2012 1028 2128 15.7 L   6.759 -73.118147.3  RSN  6 0.2 1.6LRSN                1
 GAP=142        0.51       3.5     3.9  4.8  0.2627E+01  0.2136E+01  0.9011E+00E
 Epicentro: LOS SANTOS - SANTANDER                                             3
 ACTION:UPD 12-11-22 17:06 OP:ep   STATUS:               ID:20121028212815 L   I
 2012-10-28-2120-00M.COL___231                                                 6
 STAT SP IPHASW D HRMM SECON CODA AMPLIT PERI AZIMU VELO AIN AR TRES W  DIS CAZ7
 BAR2 SZ EP   1   2128 35.17                             172   -0.23 7 19.7 201 
 BAR2 SZ I        2128 36.57        12.5 0.10                          19.7 201 
 BAR2 SZ ES   1   2128 50.59                             172   -0.21 7 19.7 201 
 GIR2 SZ EP   1   2128 35.43                             165   -0.22 7 36.3 347 
 GIR2 SZ ES   1   2128 51.32                             165    0.07 7 36.3 347 
 BRR  HZ EP   1   2128 37.43                             151    0.19 7 76.1 300 
 BRR  HZ I        2128 38.02         9.3 0.12                          76.1 300 
 BRR  HN ES   1   2128 54.53                             151    0.44 7 76.1 300 
 PAM  SZ EP   1   2128 38.35                             151    0.22 7 79.1  36 
 PAM  SZ I        2128 38.59         9.1 0.18                          79.1  36 
 PAM  SE ES   1   2128 55.48                             151   -0.19 7 79.1  36 
 RUS  HZ EP   1   2128 39.40                             145    0.18 7 95.9 178 
 RUS  HZ I        2128 40.14         2.6 0.17                          95.9 178 
 RUS  HN ES   1   2128 57.62                             145    0.02 7 95.9 178 
 ZAR  HE ES   1   2129 14.03                             122   -0.38 6  209 293 
                                                                                
