 2016 1128 2112 25.8 L   6.844 -73.125148.0  RSN 16 0.4 2.3LRSN                1
 GAP= 86        0.83       3.5     2.6  4.4 -0.1064E+01  0.1896E+01  0.4259E+01E
 Epicentro: LOS SANTOS - SANTANDER                                             3
 ACTION:UPD 17-10-26 21:12 OP:lp   STATUS:               ID:20161128211225 L   I
 OLDACT:UP  16-11-29 04:16 OP:edw  STATUS:               ID:20161128210746     3
 OLDACT:REG 16-11-29 03:08 OP:edw  STATUS:               ID:20161128210746     3
 2016-11-28-2108-00M.COL___352                                                 6
 STAT SP IPHASW D HRMM SECON CODA AMPLIT PERI AZIMU VELO AIN AR TRES W  DIS CAZ7
 BAR2 EZ IP     C 2112 45.52                             169   -0.3110 28.6 193 
 BAR2 EZ ES       2113  1.33                             169   -0.1110 28.6 193 
 BAR2 EZ I        2113  1.76        42.9 0.32            165           28.6 193 
 BRR  HZ IP     C 2112 47.31                             153    0.1210 71.1 294 
 BRR  HN ES       2113  4.28                             153    0.4010 71.1 294 
 BRR  HZ I        2113  7.36        35.4 0.18            152           71.1 294 
 PAM  EZ EP     C 2112 48.23                             153    0.2710 72.1  41 
 PAM  EN ES       2113  5.26                             153    0.0110 72.1  41 
 PAM  EZ I        2113  7.37        47.7 0.44            156           72.1  41 
 PTB  HZ EP   9   2112 52.18                             132   -1.08 0  151 257 
 PTB  HN ES       2113 13.33                             132   -0.26 9  151 257 
 PTB  HZ I        2113 15.47        20.3 0.32            130            151 257 
 TAM  HZ EP       2112 53.95                             131    0.37 9  154 107 
 TAM  HN ES       2113 15.01                             131   -0.24 9  154 107 
 TAM  HZ I        2113 22.25        23.0 0.36            131            154 107 
 ZAR  HZ EP       2112 58.32                             123   -0.12 9  204 291 
 ZAR  HN ES       2113 23.93                             123    0.04 9  204 291 
 ZAR  HZ I        2113 29.88        44.5 0.34            122            204 291 
 NOR  HZ EP       2113  2.08                             118   -0.10 8  239 234 
 NOR  HN ES       2113 30.07                             118   -0.47 8  239 234 
 NOR  HZ I        2113 31.38        12.6 0.32            117            239 234 
 CHI  HZ EP       2113  4.11                             117   -0.10 8  254 195 
 CHI  HN ES   2   2113 33.13                             117   -1.03 4  254 195 
 CHI  HZ I        2113 40.54        11.6 0.46            116            254 195 
 ROSC BZ EP   4   2113  6.41                             117    1.77 0  258 211 
 ROSC BN ES   4   2113 36.72                             117    1.79 0  258 211 
 ROSC BZ I        2113 42.34        18.0 0.60            115            258 211 
 URE  HZ EP   4   2113  8.36                             114    1.33 0  284 291 
 URE  HN ES   4   2113 37.32                             114   -1.86 0  284 291 
 URE  HZ I        2113 47.82        17.9 0.24            114            284 291 
 PTGC HZ EP   4   2113  8.96                             112   -1.23 0  312 159 
 PTGC HN ES   4   2113 42.09                             112   -2.72 0  312 159 
 ELA  HZ EP   4   2113 17.69                             110    4.37 0  334 229 
 ELA  HN ES   4   2113 53.72                             110    3.34 0  334 229 
 ELA  HZ I        2114  1.64         6.2 0.54            110            334 229 
 CBOC HZ EP   2   2113 13.46                             110    0.22 3  337 251 
 CBOC HE ES   2   2113 49.51                             110   -0.73 3  337 251 
 CBOC HZ I        2113 56.49         3.2 0.12            109            337 251 
 ANIL HN ES       2113 56.59                             108    0.92 6  362 224 
 PRA  HZ EP   9   2113 19.85                             107   -0.19 0  397 210 
 PRA  HN ES       2114  1.39                             107   -0.76 6  397 210 
 PRA  HZ I        2114  8.71         9.1 0.58            106            397 210 
 ORTC HZ EP       2113 21.00                             106    0.57 6  401 216 
 ORTC HN ES       2114  3.05                             106    0.02 6  401 216 
 ORTC HZ I        2114  7.64         5.5 0.19            106            401 216 
 SJC  HZ EP       2113 20.00                             106   -1.11 6  406 326 
 SJC  HN ES   4   2114  0.98                             106   -3.27 0  406 326 
 SJC  HZ I        2114  4.33         4.2 0.26            106            406 326 
                                                                                
