 2014 1228 2343 46.4 L   6.802 -73.178140.4  RSN 12 0.4 1.9LRSN                1
 GAP=132        0.97       2.4     3.7  5.8 -0.6971E+00  0.5207E+01  0.2046E+01E
 Epicentro: LOS SANTOS - SANTANDER                                             3
 ACTION:UPD 15-02-10 17:07 OP:nd   STATUS:               ID:20141228234346 L   I
 OLDACT:DUP 14-12-29 05:05 OP:fm   STATUS:               ID:20141228233752d    3
 2014-12-28-2337-50M.COL___259                                                 6
 STAT SP IPHASW D HRMM SECON CODA AMPLIT PERI AZIMU VELO AIN AR TRES W  DIS CAZ7
 BRR  HZ EP       2344  7.46                             153    0.6510 67.9 300 
 BRR  HE ES       2344 23.09                             153    0.3810 67.9 300 
 BRR  HZ I        2344 28.09        10.9 0.32            149           67.9 300 
 PAM  SZ EP       2344  8.41                             149    0.2010 79.5  42 
 PAM  SE ES       2344 25.38                             149    0.1910 79.5  42 
 PAM  SZ I        2344 28.20        14.0 0.64            153           79.5  42 
 RUS  HZ EP       2344  9.87                             142    0.1710  101 174 
 RUS  HE ES       2344 27.15                             142   -0.7010  101 174 
 RUS  HZ I        2344 29.50         8.9 0.30            144            101 174 
 PTB  HZ EP       2344 12.72                             131    0.07 9  144 258 
 PTB  HE ES       2344 32.63                             131   -0.46 9  144 258 
 PTB  HZ I        2344 35.07         7.7 0.18            130            144 258 
 OCA  HN ES       2344 35.70                             128   -0.28 9  160 354 
 SPBC HZ EP       2344 14.63                             128    0.30 9  161 218 
 SPBC HE ES       2344 35.98                             128   -0.10 9  161 218 
 SPBC HZ I        2344 39.42        18.2 0.34            128            161 218 
 ZAR  HN ES       2344 43.18                             122    0.25 9  201 292 
 ZAR  HZ I        2344 50.53         6.8 0.28            121            201 292 
 NOR  HZ EP       2344 22.21                             118    0.65 8  232 234 
 NOR  HE ES       2344 49.31                             118    0.36 8  232 234 
 NOR  HZ I        2344 54.82         5.1 0.16            118            232 234 
 SML  HZ EP       2344 21.73                             116   -0.84 8  242 336 
 SML  HE ES       2344 50.33                             116   -0.43 8  242 336 
 SML  HZ I        2344 55.58        10.4 0.26            117            242 336 
 CHI  HZ EP       2344 23.62                             116   -0.14 8  248 194 
 CHI  HN ES       2344 52.68                             116   -0.20 8  248 194 
 CHI  HZ I        2345  0.51         2.7 0.66            117            248 194 
 TOL  SZ EP       2344 34.00                             108   -0.21 7  341 224 
 TOL  SN ES       2345 11.28                             108   -0.19 7  341 224 
 TOL  SZ I        2345 20.65         6.3 0.40            109            341 224 
 MON  HN ES       2345 12.35                             108   -0.33 6  351 309 
 MON  HZ I        2345 28.82         1.9 0.60            108            351 309 
                                                                                
