 2014 1228 2026 35.0 L   6.842 -73.149129.8  RSN  4 0.3 1.1LRSN                1
 GAP=245        0.72       7.3     5.9 13.2  0.2904E+02 -0.2260E+02 -0.5500E+02E
 Epicentro: LOS SANTOS - SANTANDER                                             3
 ACTION:UPD 15-02-10 17:07 OP:nd   STATUS:               ID:20141228202635 L   I
 OLDACT:DUP 14-12-29 04:12 OP:fm   STATUS:               ID:20141228201749d    3
 2014-12-28-2017-48M.COL___262                                                 6
 STAT SP IPHASW D HRMM SECON CODA AMPLIT PERI AZIMU VELO AIN AR TRES W  DIS CAZ7
 RUS  HZ EP       2026 58.00                             139    0.3910  105 176 
 RUS  HN ES       2027 15.00                             139   -0.2210  105 176 
 RUS  HZ I        2027 17.26         1.8 0.26            144            105 176 
 PTB  HZ EP       2027  0.42                             128   -0.38 9  148 257 
 PTB  HN ES       2027 21.22                             128    0.32 9  148 257 
 PTB  HZ I        2027 26.23         2.3 0.32            132            148 257 
 SPBC HE ES       2027 24.21                             124   -0.06 9  167 218 
 ZAR  HE ES       2027 30.56                             119   -0.07 9  202 291 
                                                                                
