 2012 1128 2150 17.2 L   6.786 -73.128151.9  RSN  6 0.4 1.5LRSN                1
 GAP=139        0.82       6.2     6.0  9.2  0.6229E+01  0.2440E+02  0.1355E+02E
 Epicentro: LOS SANTOS - SANTANDER                                             3
 ACTION:UPD 12-12-05 15:36 OP:}ep  STATUS:               ID:20121128215017 L   I
 2012-11-28-2150-00M.COL___237                                                 6
 STAT SP IPHASW D HRMM SECON CODA AMPLIT PERI AZIMU VELO AIN AR TRES W  DIS CAZ7
 BAR2 SZ EP   1   2150 37.00                             171   -0.60 7 22.3 196 
 BAR2 SZ ES   1   2150 53.55                             171    0.08 7 22.3 196 
 BAR2 SZ I        2150 54.20        11.1 0.40                          22.3 196 
 GIR2 SZ ES   1   2150 53.97                             167    0.32 7 33.1 347 
 PAM  SN ES   1   2150 57.70                             152   -0.25 7 77.3  38 
 RUS  HZ EP   1   2150 42.23                             145    0.74 7 99.0 177 
 RUS  HE ES   1   2151  0.35                             145   -0.06 7 99.0 177 
 RUS  HZ I        2151  2.71         2.4 0.18                          99.0 177 
 PTB  HZ EP   1   2150 44.62                             133   -0.25 7  149 260 
 PTB  HN ES   1   2151  5.99                             133   -0.42 7  149 260 
 PTB  HZ I        2151  8.27         5.1 0.18                           149 260 
 ZAR  HN ES   1   2151 16.65                             123    0.49 6  206 292 
                                                                                
