 2013  628 2145 45.3 L   6.779 -73.132151.1  RSN  5 0.4 1.7LRSN                1
 GAP=139        0.97       5.7     6.4  8.7  0.5766E+00 -0.5689E+01  0.1084E+01E
 Epicentro: LOS SANTOS - SANTANDER                                             3
 ACTION:UPD 14-01-08 09:57 OP:ep   STATUS:               ID:20130628214545 L   I
 OLDACT:UP  13-06-29 00:49 OP:cam  STATUS:               ID:20130628213959     3
 OLDACT:REG 13-06-29 00:02 OP:cam  STATUS:               ID:20130628213959     3
 2013-06-28-2139-59M.COL___267                                                 6
 STAT SP IPHASW D HRMM SECON CODA AMPLIT PERI AZIMU VELO AIN AR TRES W  DIS CAZ7
 BAR2 SZ EP   1   2146  5.35                             172   -0.15 7 21.4 195 
 BAR2 SZ ES   1   2146 20.66                             172   -0.62 7 21.4 195 
 BRR  HZ EP   1   2146  7.14                             153    0.01 7 73.6 300 
 BRR  HN ES       2146 24.88                             153    0.7010 73.6 300 
 PAM  SZ EP       2146  8.14                             151    0.0310 78.3  38 
 PAM  SN ES   1   2146 25.48                             151   -0.44 7 78.3  38 
 PAM  SZ I        2146 27.37        10.5 0.56            153           78.3  38 
 RUS  HZ EP       2146  9.65                             146    0.2710 98.1 177 
 RUS  HN ES       2146 28.36                             146    0.1810 98.1 177 
 RUS  HZ I        2146 30.29         5.6 0.48            146           98.1 177 
 PTB  HZ EP   2   2146 12.11                             133   -0.65 5  149 260 
 PTB  HN ES   1   2146 33.46                             133   -0.75 7  149 260 
 PTB  HZ I        2146 35.23         5.5 0.28            134            149 260 
                                                                                
