 2014  628 2226 59.4 L   6.259 -73.587105.8  RSN  4 0.3 1.5LRSN                1
 GAP=162        0.68       5.6     4.3  8.4  0.9582E+01  0.1428E+02  0.1358E+02E
 Epicentro: LA PAZ - SANTANDER                                                 3
 ACTION:UPD 14-07-01 22:57 OP:nd   STATUS:               ID:20140628222659 L   I
 OLDACT:DUP 14-06-29 06:12 OP:mh   STATUS:               ID:20140628221820d    3
 2014-06-28-2218-19M.COL___236                                                 6
 STAT SP IPHASW D HRMM SECON CODA AMPLIT PERI AZIMU VELO AIN AR TRES W  DIS CAZ7
 BAR2 SZ EP       2227 15.94                             149    0.0410 58.0  51 
 BAR2 SZ ES       2227 28.88                             149    0.1510 58.0  51 
 BAR2 SZ I        2227 29.89         5.1 0.24            142           58.0  51 
 RUS  HZ EP       2227 17.33                             144    0.3510 69.0 126 
 RUS  HE ES   1   2227 30.12                             144   -0.55 7 69.0 126 
 BRR  HZ EP   2   2227 17.61                             134   -0.73 5 94.8 352 
 BRR  HN ES   2   2227 32.94                             134   -0.15 5 94.8 352 
 BRR  HZ I        2227 47.03        12.2 0.04            127           94.8 352 
 PTB  HZ EP   1   2227 18.76                             132   -0.15 7  101 288 
 PTB  HN ES   1   2227 34.24                             132    0.14 7  101 288 
 PTB  HZ I        2227 37.62         8.6 0.05            130            101 288 
 SML  HZ EP   4   2227 35.05                             104   -4.11 0  286 349 
 SML  HN ES   4   2227 45.47                             104   -24.7 0  286 349 
 SJC  HZ EP   4   2227 47.01                              96   -10.6 0  439 337 
 SJC  HN ES   4   2228  6.35                              96   -36.6 0  439 337 
                                                                                
