 2015 1228 2334 41.4 L   6.077 -73.700111.8  RSN 11 0.4 1.7LRSN                1
 GAP= 75        0.98       2.6     2.6  5.8 -0.1560E+01  0.3348E+01  0.5326E+00E
 Epicentro: CHIPATA - SANTANDER                                                3
 ACTION:UPD 16-02-04 15:08 OP:cam  STATUS:               ID:20151228233441 L   I
 OLDACT:UP  15-12-29 06:45 OP:cara STATUS:               ID:20151228232750     3
 OLDACT:REG 15-12-29 04:55 OP:cara STATUS:               ID:20151228232750     3
 2015-12-28-2327-50M.COL___337                                                 6
 STAT SP IPHASW D HRMM SECON CODA AMPLIT PERI AZIMU VELO AIN AR TRES W  DIS CAZ7
 SPBC HZ IP     C 2334 58.41                             149   -0.1710 62.5 221 
 SPBC HN ES       2335 12.08                             149    0.1310 62.5 221 
 SPBC HZ I        2335 13.38        15.8 0.20            149           62.5 221 
 RUS  HZ IP       2334 59.72                             145   -0.0210 71.2 107 
 RUS  HN ES       2335 13.63                             145   -0.3810 71.2 107 
 RUS  HZ I        2335 14.64         5.8 0.16            146           71.2 107 
 BAR2 EZ IP       2335  0.51                             142    0.4410 80.8  45 
 BAR2 EZ ES       2335 15.05                             142    0.4510 80.8  45 
 BAR2 EZ I        2335 15.81        42.4 0.14            141           80.8  45 
 PTB  HZ IP   4   2335  0.17                             135   -0.99 0 98.1 301 
 PTB  HE ES       2335 15.89                             135   -0.6510 98.1 301 
 PTB  HZ I        2335 18.25         8.4 0.10            135           98.1 301 
 BRR  HN ES       2335 19.26                             131    0.2510  114 359 
 BRR  HZ I        2335 22.26        10.3 0.14            131            114 359 
 NOR  HZ EP       2335  5.06                             124   -0.22 9  141 246 
 NOR  HE ES       2335 24.35                             124    0.48 9  141 246 
 NOR  HZ I        2335 25.70        21.6 0.18            124            141 246 
 CHI  HZ EP       2335  7.64                             121   -0.03 9  160 181 
 CHI  HN ES       2335 27.77                             121   -0.36 9  160 181 
 CHI  HZ I        2335 35.01         3.4 0.36            121            160 181 
 PAM  EZ EP       2335  9.07                             118   -0.62 9  178  38 
 PAM  EE ES       2335 31.99                             118    0.26 9  178  38 
 PAM  EZ I        2335 36.98         4.4 0.54            118            178  38 
 ZAR  HN ES       2335 35.12                             114   -0.22 9  202 321 
 ZAR  HZ I        2335 40.21         6.3 0.58            114            202 321 
 HEL  HZ EP       2335 12.23                             114   -0.02 9  203 274 
 HEL  HN ES       2335 35.87                             114   -0.41 9  203 274 
 HEL  HZ I        2335 40.15         5.1 0.66            114            203 274 
 GUY2CHZ EP       2335 13.41                             114    0.54 8  207 243 
 GUY2CHE ES       2335 37.97                             114    0.59 8  207 243 
 GUY2CHZ I        2335 43.58         5.6 0.44                           207 243 
                                                                                
