 2017 1228 2352 49.5 L   6.853 -73.200147.9  RSN  4 0.4 1.4LRSN                1
 GAP=130        1.06       9.4     5.4 10.2 -0.1534E+02  0.2026E+02 -0.1439E+02E
 Epicentro: ZAPATOCA - SANTANDER                                               3
 ACTION:UPD 18-01-04 13:25 OP:rebc STATUS:               ID:20171228235249 L   I
 OLDACT:UP  17-12-29 07:15 OP:dani STATUS:               ID:20171228234353     3
 OLDACT:REG 17-12-29 04:31 OP:dani STATUS:               ID:20171228234353     3
 2017-12-28-2348-00M.COL___448                                                 6
 STAT SP IPHASW D HRMM SECON CODA AMPLIT PERI AZIMU VELO AIN AR TRES W  DIS CAZ7
 BAR2 EZ EP       2353  9.22                             168   -0.3010 28.9 176 
 BAR2 EZ ES       2353 24.70                             168   -0.4310 28.9 176 
 BAR2 EZ I        2353 26.96        10.6 0.26            172           28.9 176 
 PAM  EZ EP       2353 12.11                             151    0.1710 77.2  46 
 PAM  EN ES       2353 29.73                             151    0.3010 77.2  46 
 PAM  EZ I        2353 32.61         2.5 0.58            152           77.2  46 
 PTB  HZ EP       2353 16.21                             133   -0.03 9  143 256 
 PTB  HE ES       2353 37.86                             133    0.77 9  143 256 
 PTB  HZ I        2353 44.12         2.3 0.44            133            143 256 
 ZAR  HE ES       2353 45.56                             124   -0.54 9  196 291 
 ZAR  HZ I        2353 56.05         4.4 0.22            123            196 291 
                                                                                
