 2016  328 2011 26.0 L   6.867 -73.458111.0  RSN  6 0.4 1.5LRSN                1
 GAP=201        0.73       5.3     3.7  7.6  0.3851E+01  0.1411E+02  0.3072E+01E
 Epicentro: SAN VICENTE DE CHUCURI - SANTANDER                                 3
 ACTION:UPD 16-05-13 21:28 OP:cam  STATUS:               ID:20160328201126 L   I
 OLDACT:REG 16-03-29 02:16 OP:dnl  STATUS:               ID:20160328200750     3
 2016-03-28-2007-50M.COL___325                                                 6
 STAT SP IPHASW D HRMM SECON CODA AMPLIT PERI AZIMU VELO AIN AR TRES W  DIS CAZ7
 BAR2 EZ EP       2011 42.09                             157   -0.0810 43.0 135 
 BAR2 EZ ES       2011 55.22                             157    0.4210 43.0 135 
 BAR2 EZ I        2011 56.08        19.0 0.19            164           43.0 135 
 RUS  HZ EP   2   2011 47.34                             131   -0.49 5  115 159 
 RUS  HN ES       2012  4.62                             131   -0.2510  115 159 
 RUS  HZ I        2012  5.57         2.7 0.24            136            115 159 
 PTB  HZ EP   2   2011 47.00                             130   -0.25 5  116 252 
 PTB  HN ES       2012  3.37                             130   -0.4710  116 252 
 PTB  HZ I        2012  8.31         6.7 0.12            131            116 252 
 ZAR  HZ EP   2   2011 52.84                             119    0.21 5  169 294 
 ZAR  HE ES   2   2012 13.56                             119    0.15 5  169 294 
 ZAR  HZ I        2012 18.58         7.9 0.20            120            169 294 
 NOR  HZ EP   2   2011 57.92                             112    0.49 4  212 227 
 NOR  HE ES       2012 22.49                             112    0.52 8  212 227 
 NOR  HZ I        2012 27.37         3.6 0.36            115            212 227 
 GUY2CHZ EP   2   2012  6.00                             106    0.44 4  278 229 
 GUY2CHN ES   2   2012 36.07                             106   -0.36 4  278 229 
 GUY2CHZ I        2012 45.38         1.8 0.41                           278 229 
                                                                                
