 2012  828 2211 13.8 L   6.768 -73.119141.2  RSN 12 0.4 2.5LRSN                1
 GAP=141        0.70       3.1     3.2  4.6  0.4980E+00  0.3486E+01  0.1994E+00E
 Epicentro: LOS SANTOS - SANTANDER                                             3
 ACTION:UPD 12-09-10 11:58 OP:ep   STATUS:               ID:20120828221113 L   I
 2012-08-28-2210-00M.COL___218                                                 6
 STAT SP IPHASW D HRMM SECON CODA AMPLIT PERI AZIMU VELO AIN AR TRES W  DIS CAZ7
 BAR2 SZ EP       2211 32.79                             171   -0.0910 20.7 200 
 BAR2 SZ I        2211 33.09       143.8 0.07                          20.7 200 
 BAR2 SZ ES   1   2211 47.29                             171   -0.43 7 20.7 200 
 GIR2 SZ EP   1   2211 32.88                             165   -0.22 7 35.3 346 
 BRR  HZ EP   1   2211 34.70                             150   -0.06 7 75.5 300 
 BRR  HZ I        2211 35.18       108.7 0.10                          75.5 300 
 BRR  HE ES       2211 51.52                             150    0.4510 75.5 300 
 PAM  SZ EP       2211 35.81                             150    0.1710 78.3  36 
 PAM  SN ES   1   2211 52.56                             150   -0.07 7 78.3  36 
 PAM  SZ I        2211 53.38        41.6 0.28                          78.3  36 
 RUS  HZ EP   1   2211 36.77                             144   -0.12 7 96.9 178 
 RUS  HN ES       2211 55.09                             144    0.2310 96.9 178 
 RUS  HZ I        2211 56.33        23.3 0.27                          96.9 178 
 PTB  HN ES   1   2212  1.12                             130   -0.45 7  150 260 
 PTB  HZ I        2212  3.00        25.8 0.26                           150 260 
 OCA  HZ EP   1   2211 41.47                             128   -0.70 7  164 352 
 OCA  HZ I        2212  6.48        73.2 0.30                           164 352 
 ZAR  HZ EP   1   2211 47.10                             121    0.67 6  208 293 
 ZAR  HN ES       2212 11.87                             121    0.03 8  208 293 
 ZAR  HZ I        2212 17.56        32.6 0.22                           208 293 
 NOR  SZ EP   1   2211 49.23                             117   -0.13 6  235 236 
 NOR  SN ES   2   2212 16.60                             117   -0.46 4  235 236 
 NOR  SZ I        2212 22.77        21.0 0.31                           235 236 
 CHI  HZ EP   1   2211 50.98                             116   -0.04 6  246 196 
 CHI  HN ES   2   2212 20.23                             116    0.22 4  246 196 
 CHI  HZ I        2212 23.46        10.4 0.29                           246 196 
 HEL  HZ EP   1   2211 54.83                             114    0.77 6  274 257 
 HEL  HE ES   2   2212 25.01                             114   -0.42 4  274 257 
 HEL  HZ I        2212 31.82        19.9 0.43                           274 257 
 DBB  SZ EP   1   2212  1.07                             108   -0.45 5  343 275 
                                                                                
