 2014  928 2047 35.7 L   6.815 -73.170150.2  RSN  6 0.5 1.6LRSN                1
 GAP=133        1.33       5.1     6.6 10.2 -0.4482E+01  0.9422E+01 -0.8959E+01E
 Epicentro: LOS SANTOS - SANTANDER                                             3
 ACTION:UPD 14-10-03 23:09 OP:nd   STATUS:               ID:20140928204735 L   I
 OLDACT:DUP 14-09-29 09:15 OP:carl STATUS:               ID:20140928203820d    3
 2014-09-28-2038-19M.COL___298                                                 6
 STAT SP IPHASW D HRMM SECON CODA AMPLIT PERI AZIMU VELO AIN AR TRES W  DIS CAZ7
 BRR  HZ EP       2047 57.72                             154    0.5710 68.0 298 
 BRR  HN ES       2048 14.80                             154    0.9210 68.0 298 
 BRR  HZ I        2048 19.24         9.8 0.26            153           68.0 298 
 PAM  SZ EP       2047 58.79                             151    0.3810 77.9  42 
 PAM  SE ES       2048 15.67                             151   -0.4610 77.9  42 
 PAM  SZ I        2048 16.31         6.9 0.20            154           77.9  42 
 RUS  HZ EP       2047 60.00                             144   -0.0210  102 175 
 RUS  HN ES       2048 18.55                             144   -0.4410  102 175 
 RUS  HZ I        2048 20.05         2.4 0.26            148            102 175 
 PTB  HZ EP       2048  2.64                             133   -0.18 9  145 258 
 PTB  HN ES       2048 23.11                             133   -0.87 9  145 258 
 PTB  HZ I        2048 26.39         5.4 0.44            135            145 258 
 SPBC HN ES       2048 27.39                             130    0.42 9  163 218 
 SML  HZ EP       2048 12.20                             119   -0.09 8  241 336 
 SML  HN ES       2048 40.30                             119   -0.53 8  241 336 
 SML  HZ I        2048 43.87         6.4 0.24            120            241 336 
                                                                                
