 2017 1128 2214 42.5 L   6.797 -73.186138.0  RSN  5 0.2 1.1LRSN                1
 GAP=132        0.57       4.0     3.0  5.4  0.3727E+01  0.1040E+01 -0.7598E+01E
 Epicentro: ZAPATOCA - SANTANDER                                               3
 ACTION:UPD 17-12-12 20:01 OP:rebc STATUS:               ID:20171128221442 L   I
 OLDACT:REG 17-11-29 03:31 OP:edw  STATUS:               ID:20171128220741     3
 2017-11-28-2208-00M.COL___501                                                 6
 STAT SP IPHASW D HRMM SECON CODA AMPLIT PERI AZIMU VELO AIN AR TRES W  DIS CAZ7
 BAR2 EZ ES       2215 15.81                             170    0.0710 22.6 179 
 PAM  EZ EP       2215  3.98                             148   -0.1010 80.6  42 
 RUS  HZ EP       2215  5.29                             142   -0.2010  101 173 
 RUS  HN ES       2215 23.56                             142    0.1410  101 173 
 RUS  HZ I        2215 25.18         1.7 0.24            141            101 173 
 PTB  HZ EP       2215  8.74                             131    0.32 9  143 259 
 PTB  HN ES       2215 28.32                             131   -0.33 9  143 259 
 PTB  HZ I        2215 31.15         1.9 0.30            131            143 259 
 ZAR  HN ES       2215 38.75                             121    0.13 9  200 293 
                                                                                
