 2013  828 2303 50.5 L   6.133 -73.699103.7  RSN  4 0.2 1.2LRSN                1
 GAP=187        0.62       3.7     2.9  6.3  0.4423E+01  0.5334E+01  0.2701E+01E
 Epicentro: CHIPATA - SANTANDER                                                3
 ACTION:UPD 14-01-14 09:08 OP:ep   STATUS:               ID:20130828230350 L   I
 OLDACT:REG 13-08-28 22:07 OP:stll STATUS:               ID:20130828225848     3
 2013-08-28-2258-48M.COL___217                                                 6
 STAT SP IPHASW D HRMM SECON CODA AMPLIT PERI AZIMU VELO AIN AR TRES W  DIS CAZ7
 RUS  HZ EP       23 4  8.35                             142    0.2510 73.2 111 
 RUS  HN ES       23 4 21.90                             142    0.0410 73.2 111 
 RUS  HZ I        23 4 23.33         2.5 0.32            147           73.2 111 
 BAR2 SZ EP       23 4  7.95                             141   -0.0410 76.5  48 
 BAR2 SZ ES       23 4 21.36                             141   -0.3110 76.5  48 
 BAR2 SZ I        23 4 23.18         7.6 0.16            146           76.5  48 
 PTB  HZ EP       23 4  9.15                             134   -0.0810 95.1 298 
 PTB  HN ES       23 4 23.82                             134   -0.0510 95.1 298 
 PTB  HZ I        23 4 26.44         4.1 0.54            137           95.1 298 
 BRR  HZ EP       23 4 10.14                             130   -0.2110  108 359 
 BRR  HN ES       23 4 26.28                             130    0.4010  108 359 
                                                                                
