 2013  628 2132 41.9 L   6.803 -73.157145.0  RSN 10 0.4 2.1LRSN                1
 GAP=135        0.82       3.5     3.5  5.7 -0.7569E+00  0.5275E+01  0.4569E+01E
 Epicentro: LOS SANTOS - SANTANDER                                             3
 ACTION:UPD 14-01-08 09:57 OP:ep   STATUS:               ID:20130628213241 L   I
 OLDACT:UP  13-06-29 00:44 OP:cam  STATUS:               ID:20130628212959     3
 OLDACT:UP  13-06-29 00:44 OP:cam  STATUS:               ID:20130628212959     3
 OLDACT:REG 13-06-29 00:01 OP:cam  STATUS:               ID:20130628212959     3
 2013-06-28-2129-59M.COL___266                                                 6
 STAT SP IPHASW D HRMM SECON CODA AMPLIT PERI AZIMU VELO AIN AR TRES W  DIS CAZ7
 BAR2 SZ EP       2133  1.44                             170    0.0210 23.5 187 
 BAR2 SZ ES   1   2133 16.08                             170   -0.58 7 23.5 187 
 BAR2 SZ I        2133 17.66        33.7 0.24            166           23.5 187 
 GIR2 SZ EP   2   2133  1.42                             168   -0.02 5 30.7 352 
 BRR  HZ EP       2133  2.93                             153    0.0610 69.9 299 
 BRR  HN ES   1   2133 19.85                             153    0.61 7 69.9 299 
 BRR  HZ I        2133 22.86        18.2 0.36            149           69.9 299 
 PAM  SZ EP     C 2133  4.38                             151    0.3410 77.9  40 
 PAM  SN ES       2133 21.16                             151   -0.1710 77.9  40 
 PAM  SZ I        2133 23.27        22.7 0.46            144           77.9  40 
 RUS  HZ EP   1   2133  5.37                             143   -0.22 7  101 175 
 RUS  HN ES       2133 24.44                             143    0.3610  101 175 
 RUS  HZ I        2133 24.90        18.6 0.28            135            101 175 
 PTB  HZ EP       2133  8.01                             132   -0.67 9  147 259 
 PTB  HN ES       2133 29.20                             132   -0.38 9  147 259 
 PTB  HZ I        2133 30.82        16.1 0.40            125            147 259 
 ZAR  HE ES       2133 39.40                             122    0.10 9  203 292 
 NOR  HZ EP       2133 17.49                             118    0.01 8  234 234 
 NOR  HN ES       2133 45.86                             118    0.62 8  234 234 
 NOR  HZ I        2133 47.85         8.3 0.16            112            234 234 
 CHI  HZ EP       2133 19.53                             117   -0.01 8  249 195 
 CHI  HE ES   1   2133 48.64                             117   -0.27 6  249 195 
 CHI  HZ I        2133 52.06         8.2 0.34            110            249 195 
 PRA  HZ EP   2   2133 35.73                             106    0.39 3  392 209 
 PRA  HZ I        2134 21.39         7.5 0.66            101            392 209 
                                                                                
