 2014  328 2048 39.7 L   6.454 -73.508 90.5  RSN  4 0.5 1.4LRSN                1
 GAP=195        1.25       9.7     6.7 21.0 -0.4791E+02 -0.5678E+02  0.9828E+02E
 Epicentro: SIMACOTA - SANTANDER                                               3
 OLDACT:REG 14-03-29 00:30 OP:fm   STATUS:               ID:20140328203819     3
 OLDACT:DUP 14-03-29 01:05 OP:fm   STATUS:               ID:20140328203820d    3
 OLDACT:UP  14-03-29 01:04 OP:fm   STATUS:               ID:20140328203819     3
 ACTION:UPD 14-04-09 23:21 OP:nd   STATUS:               ID:20140328204839 L   I
 OLDACT:UP  14-03-29 01:08 OP:fm   STATUS:               ID:20140328203820d    3
 2014-03-28-2038-19M.COL___262                                                 6
 STAT SP IPHASW D HRMM SECON CODA AMPLIT PERI AZIMU VELO AIN AR TRES W  DIS CAZ7
 PTB  HZ EP       2048 57.63                             127   -0.7110  105 275 
 PTB  HN ES       2049 12.50                             127   -0.4110  105 275 
 PTB  HZ I        2049 14.95         7.8 0.12            134            105 275 
 PAM  SZ EP       2049  1.54                             121   -0.2310  133  42 
 PAM  SN ES       2049 19.41                             121    0.4010  133  42 
 PAM  HZ I        2049 20.39         4.3 0.26            127            133  42 
 NOR  HZ EP       2049  6.46                             112   -0.02 9  180 237 
 NOR  HE ES       2049 28.21                             112    0.81 9  180 237 
 NOR  HZ I        2049 31.32         3.3 0.56            116            180 237 
 ZAR  HN ES   1   2049 29.74                             111    0.75 7  188 308 
                                                                                
