 2010 1128 2143 13.2 L   6.768 -73.066152.2  RSN 16 0.4 2.9LRSN                1
 GAP=168        0.79       3.6     6.8  6.3 -0.9776E+01  0.7692E+01  0.4929E+01E
 Epicentro: LOS SANTOS - SANTANDER                                             3
 ACTION:UP  10-12-17 16:55 OP:REBC STATUS:               ID:20101128214313 L   I
 2010-11-28-2139-54S.COL___132                                                 6
 STAT SP IPHASW D HRMM SECON CODA AMPLIT PERI AZIMU VELO SNR AR TRES W  DIS CAZ7
 BAR2 SZ EP   1   2143 33.68                             171     0.1 7   23 214 
 BAR2 SZ ES   2   2143 48.85                             171    -0.7 5   23 214 
 BAR2 SZ I        2143 50.44       152.2 0.32                            23 214 
 BTL  SZ IP     C 2143 34.14                             169     0.410   28 307 
 GIR2 SZ IP     D 2143 33.71                             166    -0.110   37 338 
 GIR2 SZ ES   2   2143 49.83                             166     0.0 5   37 338 
 BRR  HZ IP     C 2143 35.52                             151    -0.110   81 298 
 BRR  HZ I        2143 35.78       236.0 0.17                            81 298 
 BRR  HE ES   2   2143 53.04                             151     0.0 5   81 298 
 RUS  HZ IP     D 2143 37.45                             146     0.110   97 181 
 RUS  HE ES   2   2143 55.86                             146    -0.3 5   97 181 
 RUS  HZ I        2143 57.46        58.7 0.31                            97 181 
 GUE  SZ EP   1   2143 38.53                             140    -0.1 7  119   8 
 GRA  SZ IP     C 2143 39.40                             138     0.310  127  13 
 OCA  SZ EP   1   2143 41.93                             130    -0.5 7  165 350 
 OCA  SZ ES   2   2144  5.51                             130     0.2 5  165 350 
 OCA  SZ I        2144 10.17        82.3 0.28                           165 350 
 NOR  SZ EP   1   2143 48.92                             119    -1.0 6  240 236 
 CHI  HZ IP     C 2143 51.51                             118     0.3 8  248 197 
 CHI  HE ES   2   2144 20.33                             118    -0.4 4  248 197 
 CHI  HZ I        2144 25.06        21.4 0.51                           248 197 
 ROSC BZ EP   1   2143 52.23                             118     0.4 6  254 213 
 ROSC BE ES   2   2144 22.41                             118     0.4 4  254 213 
 HEL  HZ EP   1   2143 54.77                             115     0.2 6  280 257 
 HEL  HZ I        2144 31.96        26.3 0.34                           280 257 
 GUY  SZ EP   1   2143 58.10                             113     0.4 5  307 236 
 GUY  SN ES   2   2144 33.20                             113     0.8 4  307 236 
 GUY  SZ I        2144 40.96        39.9 0.48                           307 236 
 RREF HZ EP   1   2143 59.48                             112    -0.7 5  326 231 
 RREF HE ES   2   2144 36.19                             112    -0.6 3  326 231 
 RREF HZ I        2144 42.02        33.9 0.39                           326 231 
 PRA  HZ EP   1   2144  6.64                             107    -0.5 4  393 211 
 PRA  HN ES   2   2144 50.06                             107     0.9 3  393 211 
 PRA  HZ I        2144 54.71        67.5 0.46                           393 211 
 SJA  SZ EP   1   2144  6.83                             107    -1.0 4  399 194 
 SJA  SZ ES   2   2144 50.53                             107     0.1 3  399 194 
                                                                                
