 2014  128 2059 31.3 L   6.295 -74.016 32.0  RSN  5 0.3 1.7LRSN                1
 GAP=174        0.60       2.4     2.3  3.3  0.2906E+01 -0.3935E+01 -0.1767E+01E
 Epicentro: CIMITARRA - SANTANDER                                              3
 ACTION:UPD 14-03-13 09:59 OP:ep   STATUS:               ID:20140128205931 L   I
 OLDACT:REG 14-01-28 23:10 OP:cam  STATUS:               ID:20140128205747     3
 2014-01-28-2057-47M.COL___239                                                 6
 STAT SP IPHASW D HRMM SECON CODA AMPLIT PERI AZIMU VELO AIN AR TRES W  DIS CAZ7
 PTB  HZ IP     D 2059 41.05                             111   -0.1510 55.7 299 
 PTB  HN ES       2059 48.85                             111   -0.0610 55.7 299 
 PTB  HZ I        2059 50.59        33.8 0.10            108           55.7 299 
 SPBC HZ EP       2059 43.24                             105   -0.0110 71.4 185 
 SPBC HN ES       2059 52.44                             105   -0.1210 71.4 185 
 SPBC HZ I        2059 53.24        42.5 0.22            103           71.4 185 
 RUS  HZ EP     D 2059 49.01                              61    0.1410  112 113 
 RUS  HN ES       21 0  2.52                              61   -0.0410  112 113 
 RUS  HZ I        21 0  3.28        13.4 0.34             61            112 113 
 HEL  HZ EP       2059 55.87                              61    0.23 9  168 266 
 HEL  HN ES   1   21 0 14.27                              61   -0.34 7  168 266 
 HEL  HZ I        21 0 16.57         8.2 0.22             61            168 266 
 GUY2CHZ EP   2   2059 59.77                              61    1.14 4  191 232 
                                                                                
