 2014 1228 2341 15.7 L   6.841 -72.950  4.0  RSN  6 0.5 1.4LRSN                1
 GAP=203        1.25       2.9     6.7  8.1  0.2316E+01  0.2569E+02  0.8830E+00E
 Epicentro: CEPITA - SANTANDER                                                 3
 ACTION:UPD 15-02-10 17:07 OP:nd   STATUS:               ID:20141228234115 L   I
 OLDACT:DUP 14-12-29 04:56 OP:fm   STATUS:               ID:20141228233751d    3
 2014-12-28-2337-50M.COL___259                                                 6
 STAT SP IPHASW D HRMM SECON CODA AMPLIT PERI AZIMU VELO AIN AR TRES W  DIS CAZ7
 RUS  HZ EP       2341 32.84                              47   -0.0510  106 188 
 RUS  HN ES       2341 45.68                              47   -0.5810  106 188 
 RUS  HZ I        2341 48.83         2.6 0.20             47            106 188 
 OCA  HZ EP       2341 41.03                              47    0.30 9  160 345 
 OCA  HN ES   1   2341 59.51                              47   -0.71 7  160 345 
 OCA  HZ I        2342  1.29         7.1 0.30             47            160 345 
 PTB  HZ EP       2341 42.81                              47    0.72 9  170 259 
 PTB  HN ES       2342  2.13                              47   -0.52 9  170 259 
 PTB  HZ I        2342  5.34         3.0 0.38             47            170 259 
 SPBC HE ES       2342  6.41                              37    0.88 9  181 223 
 SPBC HZ I        2342 13.58         6.1 0.28             37            181 223 
 ZAR  HN ES       2342 14.29                              37   -0.39 8  223 289 
 ZAR  HZ I        2342 18.20         5.0 0.28             37            223 289 
 SML  HE ES       2342 20.81                              37    0.18 8  250 330 
 SML  HZ I        2342 25.09         4.4 0.26             37            250 330 
                                                                                
