 2012  728 2124 30.4 L   6.790 -73.142142.0  RSN 10 0.4 2.3LRSN                1
 GAP=100        1.08       5.9     3.9  7.0 -0.3773E-01  0.3487E+01  0.9162E+01E
 Epicentro: LOS SANTOS - SANTANDER                                             3
 ACTION:UPD 12-08-14 11:46 OP:ep   STATUS:               ID:20120728212430 L   I
 2012-07-28-2120-00M.COL___215                                                 6
 STAT SP IPHASW D HRMM SECON CODA AMPLIT PERI AZIMU VELO AIN AR TRES W  DIS CAZ7
 BAR2 SZ IP       2124 49.29                             171    -0.310   22 192 
 BAR2 SZ ES   1   2125  4.24                             171    -0.3 7   22 192 
 BAR2 SZ I        2125  5.65        54.7 0.23            163             22 192 
 BRR  HZ IP     C 2124 51.06                             152    -0.110   72 299 
 BRR  HZ I        2124 51.31       101.7 0.15            131             72 299 
 BRR  HN ES       2125  8.11                             152     0.710   72 299 
 PAM  SZ EP       2124 52.01                             150    -0.210   78  39 
 PAM  SN ES   1   2125  9.10                             150    -0.2 7   78  39 
 RUS  HZ EP       2124 53.63                             144    -0.110   99 176 
 RUS  HN ES   1   2125 12.30                             144     0.4 7   99 176 
 RUS  HZ I        2125 13.85        36.1 0.30            132             99 176 
 PTB  HZ EP   1   2124 56.14                             131    -0.9 7  148 259 
 PTB  HN ES   1   2125 17.31                             131    -0.6 7  148 259 
 PTB  HZ I        2125 18.36        19.4 0.24            114            148 259 
 TAM  HZ IP     C 2124 57.72                             130     0.0 9  154 105 
 TAM  HZ I        2124 58.09        23.0 0.12            120            154 105 
 TAM  HN ES       2125 19.30                             130     0.3 9  154 105 
 ZAR  HZ EP   1   2125  3.49                             122     0.8 6  205 292 
 ZAR  HZ I        2125 34.55        26.0 0.38            107            205 292 
 NOR  SZ EP       2125  5.84                             118     0.0 8  234 235 
 NOR  SN ES   1   2125 33.76                             118     0.2 6  234 235 
 NOR  SZ I        2125 39.06         1.5 0.14            106            234 235 
 HEL  HZ EP   1   2125 10.81                             114     0.4 6  272 256 
 HEL  HZ I        2125 47.84        14.3 0.58            103            272 256 
 PRA  HZ EP   1   2125 23.96                             106     0.3 4  391 210 
