 2013  628 2217 56.6 L   6.759 -73.159148.6  RSN  7 0.3 1.9LRSN                1
 GAP=137        0.88       5.1     4.2  6.9 -0.1114E+01  0.2566E+01  0.4321E+01E
 Epicentro: LOS SANTOS - SANTANDER                                             3
 ACTION:UPD 14-01-08 09:57 OP:ep   STATUS:               ID:20130628221756 L   I
 OLDACT:UP  13-06-29 00:53 OP:cam  STATUS:               ID:20130628220959     3
 OLDACT:REG 13-06-29 00:04 OP:cam  STATUS:               ID:20130628220959     3
 2013-06-28-2209-59M.COL___267                                                 6
 STAT SP IPHASW D HRMM SECON CODA AMPLIT PERI AZIMU VELO AIN AR TRES W  DIS CAZ7
 BAR2 SZ EP       2218 16.65                             173    0.1210 18.6 188 
 BAR2 SZ ES   1   2218 31.93                             173   -0.11 7 18.6 188 
 BAR2 SZ I        2218 33.09        18.2 0.22            171           18.6 188 
 GIR2 SZ EP       2218 16.71                             166   -0.0610 35.6 354 
 BRR  HZ EP       2218 18.54                             153    0.3810 72.3 302 
 BRR  HN ES       2218 35.61                             153    0.6710 72.3 302 
 PAM  SZ EP       2218 19.49                             150    0.0710 81.8  38 
 PAM  SZ I        2218 19.68        25.6 0.22            152           81.8  38 
 PAM  SE ES       2218 36.67                             150   -0.5210 81.8  38 
 RUS  HZ EP       2218 20.54                             146    0.1810 96.2 175 
 RUS  HN ES   1   2218 38.88                             146    0.02 7 96.2 175 
 RUS  HZ I        2218 40.67         5.3 0.18            145           96.2 175 
 PTB  HZ EP       2218 23.31                             133   -0.33 9  146 260 
 PTB  HN ES       2218 44.23                             133   -0.47 9  146 260 
 PTB  HZ I        2218 46.93         8.6 0.14            133            146 260 
 ZAR  HE ES   1   2218 54.59                             123   -0.21 6  204 293 
                                                                                
