 2011 1128 2215 56.5 L   6.828 -73.116148.7  RSN  4 0.2 1.6LRSN                1
 GAP=139        0.42       3.1     4.5  4.5 -0.3952E+00 -0.1306E+01  0.7459E+00E
 Epicentro: LOS SANTOS - SANTANDER                                             3
 ACTION:UPD 12-07-13 16:12 OP:ep   STATUS:               ID:20111128221556 L   I
 2011-11-28-2214-52S.COL___159                                                 6
 STAT SP IPHASW D HRMM SECON CODA AMPLIT PERI AZIMU VELO AIN AR TRES W  DIS CAZ7
 BAR2 SZ EP   1   2216 16.30                             169   -0.29 7 27.0 196 
 BAR2 SZ ES   1   2216 32.35                             169    0.11 7 27.0 196 
 BAR2 SZ I        2216 33.48         9.5 0.62                          27.0 196 
 BRR  HZ EP   1   2216 18.02                             152   -0.06 7 72.7 295 
 BRR  HZ I        2216 25.55        15.3 0.47                          72.7 295 
 BRR  HE ES   1   2216 34.94                             152    0.05 7 72.7 295 
 PAM  SZ EP   1   2216 19.13                             153    0.32 7 73.0  39 
 PAM  SZ I        2216 19.28        11.3 0.16                          73.0  39 
 PAM  SN ES   1   2216 36.01                             153   -0.17 7 73.0  39 
 RUS  HZ EP   1   2216 20.79                             144    0.01 7  103 178 
 RUS  HN ES   1   2216 39.71                             144    0.02 7  103 178 
 RUS  HZ I        2216 40.94         2.1 0.32                           103 178 
                                                                                
