 2014 1028 2032 49.4 L   6.804 -73.140146.0  RSN 14 0.5 2.4LRSN                1
 GAP=137        1.07       3.1     4.3  5.5 -0.4543E+01  0.6288E+01  0.3287E+01E
 Epicentro: LOS SANTOS - SANTANDER                                             3
 ACTION:UPD 14-11-29 23:58 OP:nd   STATUS:               ID:20141028203249 L   I
 OLDACT:REG 14-10-30 17:19 OP:carl STATUS:               ID:20141028202750     3
 2014-10-28-2027-50M.COL___274                                                 6
 STAT SP IPHASW D HRMM SECON CODA AMPLIT PERI AZIMU VELO AIN AR TRES W  DIS CAZ7
 BAR2 SZ EP       2033  8.89                             170   -0.2010 23.8 191 
 BAR2 SZ ES       2033 24.49                             170    0.0610 23.8 191 
 BAR2 SZ I        2033 26.79        58.1 0.28            170           23.8 191 
 BRR  HZ EP       2033 10.83                             152    0.2110 71.6 298 
 BRR  HN ES       2033 27.95                             152    0.8010 71.6 298 
 BRR  HZ I        2033 31.80        38.6 0.24            151           71.6 298 
 PAM  SZ EP       2033 11.98                             151    0.3610 76.6  39 
 PAM  SN ES       2033 29.04                             151    0.1110 76.6  39 
 PAM  SZ I        2033 32.19        27.8 0.50            154           76.6  39 
 RUS  HZ EP       2033 13.17                             144   -0.0510  101 176 
 RUS  HN ES       2033 31.53                             144   -0.2510  101 176 
 PTB  HZ EP       2033 15.64                             132   -0.84 9  149 259 
 PTB  HE ES       2033 37.14                             132   -0.44 9  149 259 
 PTB  HZ I        2033 38.72        16.7 0.16            132            149 259 
 OCA  HZ EP       2033 17.06                             130   -0.66 9  160 353 
 OCA  HN ES       2033 39.51                             130   -0.28 9  160 353 
 OCA  HZ I        2033 47.43        27.6 0.22            131            160 353 
 SPBC HZ EP       2033 17.99                             129   -0.02 9  164 219 
 SPBC HN ES       2033 39.99                             129   -0.31 9  164 219 
 SPBC HZ I        2033 46.24        29.4 0.20            130            164 219 
 CHI  HZ EP       2033 27.37                             117    0.18 8  249 195 
 CHI  HN ES       2033 56.82                             117    0.17 8  249 195 
 CHI  HZ I        2034  1.84        15.9 0.32            119            249 195 
 ROSC BN ES       2033 57.69                             117    0.26 8  253 211 
 HEL  HZ EP       2033 30.46                             115    0.73 8  273 256 
 HEL  HN ES       2034  1.79                             115    0.62 8  273 256 
 HEL  HZ I        2034  7.59        12.5 0.28            116            273 256 
 GUY2CHZ EP       2033 33.78                             112    0.65 7  302 235 
 GUY2CHN ES       2034  6.52                             112   -0.70 7  302 235 
 GUY2CHZ I        2034 15.39        15.7 0.60                           302 235 
 RREF HZ EP   4   2033 33.38                             111   -2.28 0  323 229 
 RREF HN ES       2034 10.85                             111   -0.88 7  323 229 
 RREF HZ I        2034 12.18        13.5 0.24            112            323 229 
 TOL  SZ EP       2033 37.72                             109   -0.05 7  344 225 
 TOL  SN ES       2034 16.29                             109    0.80 7  344 225 
 TOL  SZ I        2034 25.42        25.9 0.34            111            344 225 
 PRA  HZ EP       2033 43.16                             107    0.13 6  393 210 
 PRA  HN ES       2034 25.03                             107    0.19 6  393 210 
 PRA  HZ I        2034 31.50        16.8 0.26            108            393 210 
                                                                                
