 2012  928 2236  4.9 L   6.840 -73.294118.3  RSN  4 0.1 1.9LRSN                1
 GAP=135        0.38       2.0     3.2  3.4  0.8534E+00  0.9051E-01  0.1475E+00E
 Epicentro: ZAPATOCA - SANTANDER                                               3
 ACTION:UPD 12-10-22 14:21 OP:ep   STATUS:               ID:20120928223604 L   I
 2012-09-28-2230-39M.COL___215                                                 6
 STAT SP IPHASW D HRMM SECON CODA AMPLIT PERI AZIMU VELO AIN AR TRES W  DIS CAZ7
 BAR2 SZ EP       2236 21.67                             165    0.2110 30.1 156 
 BAR2 SZ ES       2236 34.33                             165   -0.0210 30.1 156 
 BAR2 SZ I        2236 36.07        61.1 0.19                          30.1 156 
 BRR  HZ EP       2236 22.00                             153   -0.1910 54.8 303 
 BRR  HZ I        2236 22.44        17.6 0.10                          54.8 303 
 BRR  HN ES   1   2236 35.76                             153    0.11 7 54.8 303 
 PAM  SZ EP   1   2236 24.89                             142   -0.02 7 85.8  50 
 PAM  SE ES   1   2236 40.46                             142   -0.05 7 85.8  50 
 PAM  SZ I        2236 43.33         8.2 0.40                          85.8  50 
 RUS  HZ EP       2236 26.71                             135    0.0510  107 167 
 RUS  HN ES       2236 43.54                             135   -0.0810  107 167 
                                                                                
