 2010 1028 2324 15.8 L   6.791 -73.090141.0  RSN 17 0.5 3.0LRSN                1
 GAP=106        0.97       3.5     5.5  6.1 -0.5270E+01 -0.1284E+00  0.1820E+01E
 Epicentro: LOS SANTOS - SANTANDER                                             3
 ACTION:UP  11-02-18 11:12 OP:tino STATUS:               ID:20101028232415 L   I
 2010-10-28-2323-08S.COL___127                                                 6
 STAT SP IPHASW D HRMM SECON CODA AMPLIT PERI AZIMU VELO SNR AR TRES W  DIS CAZ7
 BAR2 SZ EP       2324 34.87                             170     0.010   24 205 
 BAR2 SZ ES   1   2324 49.39                             170    -0.3 7   24 205 
 BAR2 SZ I        2324 51.04       341.3 0.39                            24 205 
 GIR2 SZ IP       2324 34.96                             166     0.010   34 340 
 BRR  HZ IP     D 2324 36.76                             150     0.010   77 297 
 BRR  HN ES   1   2324 53.52                             150     0.4 7   77 297 
 BRR  HZ I        2324 54.78       193.7 0.18                            77 297 
 RUS  HZ IP     C 2324 38.81                             143    -0.210   99 180 
 RUS  HN ES   1   2324 56.83                             143    -0.2 7   99 180 
 RUS  HZ I        2324 58.29        93.0 0.40                            99 180 
 BRI  SZ IP       2324 39.61                             141     0.510  107  18 
 GUE  SZ EP   1   2324 39.20                             138    -0.8 7  116   9 
 GRA  SZ IP       2324 40.78                             136     0.310  125  15 
 GRA  SZ I        2324 42.10       163.0 0.05                           125  15 
 OCA  SZ EP       2324 43.47                             128    -0.4 9  162 351 
 OCA  SZ ES   1   2325  6.08                             128     0.3 7  162 351 
 OCA  SZ I        2325  9.86       195.5 0.45                           162 351 
 YOP  SZ IP       2324 45.54                             126     0.4 9  175 155 
 NOR  SZ EP       2324 51.35                             117    -0.4 8  239 236 
 NOR  SN ES   2   2325 18.80                             117    -1.0 4  239 236 
 ROSC BZ EP   1   2324 54.74                             115     0.8 6  255 212 
 CVER SZ EP   1   2324 56.42                             114     0.4 6  274 204 
 HEL  HZ EP   1   2324 56.98                             113     0.6 6  278 256 
 HEL  HZ I        2325 34.19        41.4 0.63                           278 256 
 GUY  SZ EP   2   2325  0.12                             111     0.4 4  306 236 
 GUY  SN ES   2   2325 34.65                             111     0.7 4  306 236 
 GUY  SZ I        2325 42.09        78.1 0.82                           306 236 
 DBB  SZ EP   1   2325  3.00                             108    -0.8 5  346 274 
 SDV  BZ EP       2325  4.57                             108    -0.6 6  356  49 
 SDV  BZ I        2325  5.32        23.7 0.03                           356  49 
 PRA  HZ EP       2325  9.36                             106     0.0 6  394 210 
 PRA  HN ES   1   2325 50.61                             106    -0.6 4  394 210 
                                                                                
