 2017 1028 2112 22.1 L   6.796 -73.168138.0  RSN  8 0.4 1.5LRSN                1
 GAP=134        0.98       4.6     4.2  6.3  0.1395E+01  0.7402E+01  0.5317E+01E
 Epicentro: LOS SANTOS - SANTANDER                                             3
 ACTION:UPD 17-11-07 19:38 OP:rebc STATUS:               ID:20171028211222 L   I
 OLDACT:REG 17-10-29 02:29 OP:l    STATUS:               ID:20171028205925     3
 2017-10-28-2108-00M.COL___441                                                 6
 STAT SP IPHASW D HRMM SECON CODA AMPLIT PERI AZIMU VELO AIN AR TRES W  DIS CAZ7
 BAR2 EZ EP       2112 40.65                             170   -0.1210 22.6 184 
 BAR2 EZ ES       2112 55.96                             170    0.6210 22.6 184 
 BAR2 EZ I        2112 58.26         9.4 0.50            168           22.6 184 
 BRR  HZ EP       2112 42.36                             152    0.0810 69.2 300 
 BRR  HE ES       2112 57.58                             152   -0.4610 69.2 300 
 PAM  EZ EP       2112 43.47                             149   -0.1310 79.3  41 
 PAM  EN ES       2113  0.43                             149    0.0510 79.3  41 
 PAM  EZ I        2113  3.12         4.2 0.46            153           79.3  41 
 RUS  HZ EP       2112 44.67                             142   -0.4010  100 175 
 RUS  HN ES       2113  3.12                             142    0.1310  100 175 
 RUS  HZ I        2113  5.20         3.0 0.28            142            100 175 
 PTB  HZ EP       2112 48.30                             131    0.10 9  145 259 
 PTB  HN ES       2113  8.09                             131   -0.47 9  145 259 
 PTB  HZ I        2113  9.63         3.2 0.78            133            145 259 
 SPBC HZ EP       2112 49.48                             128   -0.34 9  161 218 
 SPBC HN ES   4   2113 10.64                             128   -0.81 0  161 218 
 SPBC HZ I        2113 17.68         5.9 0.20            129            161 218 
 ZAR  HN ES       2113 19.08                             121    0.53 9  202 293 
 GUY2CHZ EP       2113  5.95                             111    0.86 7  299 235 
 GUY2CHN ES   4   2113 41.06                             111    2.43 0  299 235 
 GUY2CHZ I        2113 45.97         1.7 0.66                           299 235 
                                                                                
