 2015  228 2010 27.6 L   6.798 -73.381120.2  RSN 15 0.5 2.2LRSN                1
 GAP= 85        1.15       2.6     3.8  5.6 -0.2008E+01  0.8009E+01  0.1616E+01E
 Epicentro: SAN VICENTE DE CHUCURI - SANTANDER                                 3
 ACTION:UPD 15-04-30 21:29 OP:nd   STATUS:               ID:20150228201027 L   I
 OLDACT:REG 15-03-01 05:24 OP:fm   STATUS:               ID:20150228200745     3
 2015-02-28-2007-45M.COL___293                                                 6
 STAT SP IPHASW D HRMM SECON CODA AMPLIT PERI AZIMU VELO AIN AR TRES W  DIS CAZ7
 BAR2 EZ EP       2010 44.68                             164    0.3110 31.6 136 
 BAR2 EZ ES       2010 57.95                             164    0.4710 31.6 136 
 BAR2 EZ I        2010 58.73        87.3 0.16            164           31.6 136 
 BRR  HZ IP     C 2010 45.45                             156    0.6610 50.0 313 
 BRR  HN ES       2010 58.91                             156    0.7010 50.0 313 
 BRR  HZ I        2011  1.19        30.7 0.44            151           50.0 313 
 PAM  SZ EP       2010 48.71                             139    0.1710 96.2  51 
 PAM  SE ES       2011  4.87                             139   -0.0310 96.2  51 
 RUS  HZ EP       2010 49.17                             136   -0.1410  105 162 
 RUS  HE ES       2011  5.49                             136   -0.7710  105 162 
 RUS  HZ I        2011  7.96        19.4 0.32            132            105 162 
 PTB  HZ EP       2010 49.59                             131   -0.5510  122 257 
 PTB  HN ES       2011  6.79                             131   -0.9610  122 257 
 PTB  HZ I        2011 12.43        21.7 0.20            125            122 257 
 OCA  HZ EP       2010 53.80                             123   -0.15 9  159   2 
 OCA  HE ES       2011 14.17                             123   -0.35 9  159   2 
 OCA  HZ I        2011 19.43        31.6 0.40            120            159   2 
 NOR  HZ EP       2010 59.26                             115   -0.37 8  214 230 
 NOR  HN ES       2011 24.80                             115    0.16 8  214 230 
 NOR  HZ I        2011 31.35        19.2 0.20            110            214 230 
 SML  HZ EP       2011  2.24                             113    0.41 8  234 341 
 SML  HN ES       2011 27.99                             113   -0.56 8  234 341 
 SML  HZ I        2011 34.09        30.2 0.12            109            234 341 
 CHI  HZ EP       2011  2.70                             112   -0.64 8  243 189 
 CHI  HN ES       2011 31.20                             112   -0.04 8  243 189 
 CHI  HZ I        2011 38.95         6.7 0.42            108            243 189 
 GUY2CHZ EP       2011  8.23                             109    0.54 7  280 232 
 GUY2CHN ES       2011 38.73                             109   -0.25 7  280 232 
 GUY2CHZ I        2011 49.11         7.0 0.42                           280 232 
 RREF HZ EP       2011 10.77                             107    0.31 7  302 226 
 RREF HN ES       2011 44.18                             107    0.27 7  302 226 
 RREF HZ I        2011 53.54         6.8 0.24            103            302 226 
 MON  HZ EP   4   2011 12.43                             105   -0.92 0  334 311 
 MON  HE ES       2011 49.11                             105    0.05 7  334 311 
 MON  HZ I        2011 56.48         3.4 0.20            101            334 311 
 PRA  HZ EP       2011 18.61                             102   -0.24 6  380 206 
 PRA  HN ES       2011 59.28                             102    0.43 6  380 206 
 PRA  HZ I        2012  4.40         9.9 0.24             99            380 206 
 ORTC HN IPn    D 2011 13.83                                            380 213 
 ORTC HZ EP       2011 19.79                             102    0.84 6  380 213 
 ORTC HN ES       2011 59.83                             102    0.80 6  380 213 
 ORTC HZ I        2012  5.62         6.4 0.10             99            380 213 
 SDV  BE ES   4   2011 57.93                             102   -1.53 0  381  53 
 SDV  BZ I        2012  0.31         5.6 0.50             99            381  53 
                                                                                
