 2010  628 2203 52.0 L   6.794 -73.080148.6  RSN 13 0.6 2.9LRSN                1
 GAP=131        1.22       3.7     6.5  6.8 -0.1078E+02 -0.3354E+01  0.3323E+01E
 Epicentro: LOS SANTOS - SANTANDER                                             3
 ACTION:UP  10-08-24 10:13 OP:vdl  STATUS:               ID:20100628220352 L   I
 2010-06-28-2159-41S.COL___118                                                 6
 STAT SP IPHASW D HRMM SECON CODA AMPLIT PERI AZIMU VELO SNR AR TRES W  DIS CAZ7
 BAR2 SZ EP       22 4 11.90                             170    -0.110   25 207 
 BAR2 SZ ES   1   22 4 27.18                             170    -0.4 7   25 207 
 BRR  HZ EP       22 4 13.80                             151     0.010   78 296 
 BRR  HN ES       22 4 30.98                             151     0.110   78 296 
 BRR  HZ I        22 4 33.62       223.1 0.15                            78 296 
 RUS  HZ EP       22 4 15.72                             145    -0.210  100 180 
 RUS  HN ES       22 4 34.83                             145     0.210  100 180 
 RUS  HZ I        22 4 36.53        82.2 0.40                           100 180 
 BRI  SZ IP       22 4 16.49                             142     0.510  107  17 
 BRI  SZ ES   1   22 4 35.24                             142     0.5 7  107  17 
 GUE  SZ EP       22 4 16.88                             140     0.010  116   9 
 GRA  SZ EP       22 4 17.72                             138     0.310  124  14 
 GRA  SZ ES   2   22 4 36.38                             138    -0.8 5  124  14 
 OCA  SZ EP       22 4 20.26                             130    -0.4 9  162 351 
 OCA  SZ ES   1   22 4 43.29                             130     0.2 7  162 351 
 CHI  HZ EP       22 4 29.92                             117    -0.1 8  250 197 
 CHI  HN ES       22 4 59.31                             117    -0.3 8  250 197 
 CHI  HZ I        22 5  8.87        51.7 0.91                           250 197 
 ROSC BZ EP       22 4 31.55                             117     0.9 8  256 212 
 ROSC BN ES   1   22 5  1.25                             117     0.5 6  256 212 
 ROSC BZ I        22 5  7.96        73.9 0.74                           256 212 
 HEL  HZ EP   1   22 4 34.01                             115     0.9 6  279 256 
 HEL  HN ES   1   22 5  3.28                             115    -1.9 6  279 256 
 HEL  HZ I        22 5 10.32        34.4 0.58                           279 256 
 TOL  SZ EP   1   22 4 41.51                             109     0.6 5  348 226 
 SDV  BZ EP       22 4 41.22                             109    -0.3 6  355  49 
 SDV  BZ I        22 4 42.13        17.4 0.03                           355  49 
 SDV  BN ES   1   22 5 18.87                             109    -1.3 5  355  49 
 PRA  HZ EP       22 4 45.62                             107    -0.3 6  395 211 
 PRA  HN ES   1   22 5 27.61                             107    -0.4 4  395 211 
 PRA  HZ I        22 5 30.98        32.8 1.11                           395 211 
                                                                                
