 2012 1228 2250 47.1 L   6.770 -73.175145.5  RSN  6 0.2 1.9LRSN                1
 GAP=180        0.50       2.3     2.9  4.0  0.2089E+01  0.1617E+01 -0.4526E+00E
 Epicentro: LOS SANTOS - SANTANDER                                             3
 ACTION:UPD 13-01-04 14:31 OP:ep   STATUS:               ID:20121228225047 L   I
 2012-12-28-2250-00M.COL___242                                                 6
 STAT SP IPHASW D HRMM SECON CODA AMPLIT PERI AZIMU VELO AIN AR TRES W  DIS CAZ7
 BAR2 SZ EP       2251  6.56                             172   -0.1010 19.6 183 
 BAR2 SZ ES       2251 21.81                             172   -0.0910 19.6 183 
 BAR2 SZ I        2251 24.16        18.9 0.38                          19.6 183 
 BRR  HZ EP       2251  8.44                             153    0.2510 70.1 302 
 BRR  HN ES       2251 24.82                             153    0.2010 70.1 302 
 BRR  HN I        2251 26.84        22.9 0.30                          70.1 302 
 RUS  HZ EP       2251 10.89                             145    0.2510 97.5 174 
 RUS  HN ES       2251 28.87                             145   -0.1110 97.5 174 
 RUS  HN I        2251 30.78         7.6 0.20                          97.5 174 
 PTB  HZ EP       2251 13.45                             133   -0.29 9  144 260 
 PTB  HN ES       2251 34.47                             133   -0.02 9  144 260 
 OCA  HN ES       2251 37.83                             129   -0.16 9  163 354 
 ZAR  HN ES       2251 44.56                             122    0.01 9  202 293 
 ZAR  HN I        2251 52.28        11.4 0.28                           202 293 
                                                                                
