 2015  228 2157 15.3 L   6.828 -73.203133.6  RSN 11 0.4 1.7LRSN                1
 GAP=128        0.94       2.6     3.5  5.2 -0.1564E+01  0.6560E+01 -0.2635E+00E
 Epicentro: ZAPATOCA - SANTANDER                                               3
 ACTION:UPD 15-04-30 21:30 OP:nd   STATUS:               ID:20150228215715 L   I
 OLDACT:REG 15-03-01 05:31 OP:fm   STATUS:               ID:20150228214735     3
 2015-02-28-2147-35M.COL___296                                                 6
 STAT SP IPHASW D HRMM SECON CODA AMPLIT PERI AZIMU VELO AIN AR TRES W  DIS CAZ7
 BAR2 EZ EP       2157 33.76                             168    0.2310 26.2 175 
 BAR2 EZ ES       2157 48.19                             168    0.4410 26.2 175 
 BAR2 EZ I        2157 49.94        10.5 0.26            170           26.2 175 
 BRR  HZ EP       2157 35.51                             153    0.7810 64.1 299 
 BRR  HN ES       2157 49.94                             153    0.0510 64.1 299 
 BRR  HZ I        2157 55.88         8.2 0.24            151           64.1 299 
 PAM  SZ EP       2157 36.52                             148    0.1610 79.3  45 
 PAM  SE ES       2157 52.80                             148    0.0210 79.3  45 
 PAM  SZ I        2157 58.60         4.9 0.38            154           79.3  45 
 RUS  HZ EP       2157 38.08                             140   -0.0810  104 173 
 RUS  HE ES       2157 55.51                             140   -0.4810  104 173 
 RUS  HZ I        2157 57.66         5.2 0.26            146            104 173 
 PTB  HZ EP       2157 40.69                             130   -0.09 9  142 257 
 PTB  HN ES       2158  0.45                             130   -0.20 9  142 257 
 PTB  HZ I        2158  8.96         5.6 0.60            132            142 257 
 OCA  HE ES       2158  2.83                             127   -0.58 9  157 355 
 SPBC HZ EP       2157 42.66                             126   -0.09 9  162 217 
 SPBC HN ES       2158  3.76                             126   -0.40 9  162 217 
 SPBC HZ I        2158  9.23         8.4 0.40            130            162 217 
 ZAR  HZ EP       2157 45.88                             121   -0.35 9  197 292 
 ZAR  HN ES       2158 10.71                             121    0.35 9  197 292 
 ZAR  HZ I        2158 17.87         4.2 0.32            123            197 292 
 NOR  HZ EP       2157 49.91                             116   -0.08 8  231 233 
 NOR  HN ES       2158 16.63                             116   -0.42 8  231 233 
 NOR  HZ I        2158 26.10         3.9 0.16            119            231 233 
 SML  HZ EP       2157 50.27                             115   -0.40 8  238 336 
 SML  HE ES       2158 18.14                             115   -0.12 8  238 336 
 SML  HZ I        2158 23.45         7.9 0.26            119            238 336 
 GUY2CHZ EP       2157 58.77                             110    0.78 7  298 234 
 GUY2CHN ES       2158 31.83                             110    0.54 7  298 234 
 GUY2CHZ I        2158 41.62         2.6 0.26                           298 234 
                                                                                
