 2017  228 2342 16.9 L   6.823 -73.153152.0  RSN 19 0.5 2.4LRSN                1
 GAP=117        1.21       3.4     4.2  5.5  0.1056E+01  0.6563E+01  0.4384E+01E
 Epicentro: LOS SANTOS - SANTANDER                                             3
 ACTION:UPD 17-05-24 15:41 OP:jn   STATUS:               ID:20170228234216 L   I
 OLDACT:UP  17-03-01 08:23 OP:edw  STATUS:               ID:20170228233745     3
 OLDACT:UP  17-03-01 08:22 OP:edw  STATUS:               ID:20170228233745     3
 OLDACT:REG 17-03-01 04:08 OP:edw  STATUS:               ID:20170228233745     3
 2017-02-28-2338-00M.COL___390                                                 6
 STAT SP IPHASW D HRMM SECON CODA AMPLIT PERI AZIMU VELO AIN AR TRES W  DIS CAZ7
 BAR2 EZ IP     C 2342 37.52                             170    0.1610 25.7 187 
 BAR2 EZ ES       2342 52.72                             170   -0.5710 25.7 187 
 BAR2 EZ I        2342 54.22        69.1 0.56            167           25.7 187 
 BRR  HZ EP     D 2342 39.12                             154    0.4710 69.3 297 
 BRR  HN ES       2342 56.31                             154    0.7110 69.3 297 
 BRR  HZ I        2342 57.17        27.6 0.48            150           69.3 297 
 PAM  EZ IP     D 2342 40.23                             152    0.5010 76.0  41 
 PAM  EN ES       2342 57.18                             152   -0.3410 76.0  41 
 PAM  EZ I        2342 59.59        69.8 0.50            157           76.0  41 
 RUS  HZ EP       2342 41.40                             144   -0.0810  103 176 
 RUS  HN ES       2343  0.15                             144   -0.4810  103 176 
 RUS  HZ I        2343  1.29        73.7 0.32            145            103 176 
 PTB  HZ EP   9   2342 43.89                             133   -0.49 0  147 258 
 PTB  HN ES       2343  4.28                             133   -1.02 9  147 258 
 PTB  HZ I        2343 12.16        26.1 0.66            131            147 258 
 ZAR  HZ EP       2342 49.97                             123    0.36 9  202 292 
 ZAR  HN ES       2343 14.56                             123   -0.55 9  202 292 
 ZAR  HZ I        2343 24.13        18.6 0.44            123            202 292 
 NOR  HZ EP       2342 53.48                             119    0.37 8  235 234 
 NOR  HN ES       2343 21.89                             119    0.56 8  235 234 
 NOR  HZ I        2343 26.08        20.3 0.28            119            235 234 
 CHI  HZ EP     C 2342 55.61                             118    0.39 8  251 195 
 CHI  HN ES       2343 24.70                             118   -0.38 8  251 195 
 CHI  HZ I        2343 28.40        13.9 0.46            118            251 195 
 ROSC BZ EP   6   2342 57.14                             117    1.56 0  254 211 
 ROSC BN ES       2343 25.78                             117    0.05 8  254 211 
 ROSC BZ I        2343 35.61        19.2 0.40            117            254 211 
 HEL  HZ EP   4   2342 59.56                             116    2.11 0  272 255 
 HEL  HN ES       2343 28.88                             116   -0.17 8  272 255 
 HEL  HZ I        2343 37.51        14.1 0.28            115            272 255 
 URE  HZ EP       2342 57.25                             114   -0.87 7  282 292 
 URE  HN ES       2343 29.79                             114   -0.46 7  282 292 
 URE  HZ I        2343 39.19        12.1 0.30            114            282 292 
 VIL  EZ EP       2343  1.23                             113    0.34 7  306 191 
 VIL  EN ES       2343 35.03                             113   -0.16 7  306 191 
 VIL  EZ I        2343 38.56        17.7 0.36            113            306 191 
 PTGC HZ EP       2343  0.50                             112   -0.87 7  311 159 
 PTGC HN ES   4   2343 33.34                             112   -2.69 0  311 159 
 CBOC HZ EP       2343  5.01                             111    0.90 7  334 252 
 CBOC HN ES   4   2343 40.21                             111   -0.69 0  334 252 
 CBOC HZ I        2343 45.38         4.0 0.48            111            334 252 
 DBB  EZ EP       2343  4.49                             110   -0.06 7  338 274 
 DBB  EN ES   4   2343 40.47                             110   -1.22 0  338 274 
 DBB  EZ I        2343 42.35         5.1 0.16            110            338 274 
 ANIL HZ EP   4   2343  9.67                             109    2.55 0  359 224 
 ANIL HN ES   4   2343 49.22                             109    2.96 0  359 224 
 PRA  HZ EP       2343 11.15                             107    0.27 6  394 209 
 PRA  HN ES       2343 52.51                             107   -0.44 6  394 209 
 PRA  HZ I        2343 59.62         8.9 0.40            108            394 209 
 ORTC HZ EP       2343 11.67                             107    0.42 6  397 216 
 ORTC HN ES       2343 53.79                             107    0.18 6  397 216 
 ORTC HZ I        2344  1.30         9.2 0.26            107            397 216 
 SJC  HZ EP       2343 11.62                             106   -0.78 6  407 327 
 SJC  HN ES   4   2343 52.88                             106   -2.79 0  407 327 
 SJC  HZ I        2343 59.05         3.5 0.28            107            407 327 
 CRJC HZ EP   9   2343 17.85                             104   -1.47 0  465   4 
 CRJC HN ES       2344  4.73                             104   -1.78 5  465   4 
 MACC HZ EP   4   2342 12.83                             102   -73.2 0  523 189 
 MACC HN ES   4   2342 44.91                             102   -95.1 0  523 189 
                                                                                
