 2010  928 2111 47.6 L   6.077 -73.534124.8  RSN  4 0.3 1.3LRSN                1
 GAP=238        0.68      12.8    24.4 11.6  0.2813E+03  0.1719E+03  0.6760E+02E
 Epicentro: SAN BENITO - SANTANDER                                             3
 ACTION:UP  11-02-18 11:06 OP:tino STATUS:               ID:20100928211147 L   I
 2010-09-28-2109-31S.COL___125                                                 6
 STAT SP IPHASW D HRMM SECON CODA AMPLIT PERI AZIMU VELO SNR AR TRES W  DIS CAZ7
 RUS  HZ EP       2112  6.45                             154     0.210   54 112 
 RUS  HZ I        2112  6.63         2.3 0.23                            54 112 
 RUS  HE ES   1   2112 20.54                             154    -0.3 7   54 112 
 BAR2 SZ EP       2112  7.01                             148     0.210   69  34 
 BAR2 SZ ES   3   2112 21.02                             148    -0.7 2   69  34 
 BTL  SZ EP   1   2112  8.73                             138    -0.1 7   98  18 
 BRR  HZ EP       2112  9.63                             133    -0.410  116 350 
 BRR  HZ I        2112 16.27         6.7 0.56                           116 350 
 BRR  HN ES   1   2112 27.70                             133     0.3 7  116 350 
                                                                                
