 2016  728 2141 35.2 L   6.905 -73.136134.0  RSN  4 0.4 1.6LRSN                1
 GAP=282        0.87       9.3     6.0  7.4  0.1617E+02  0.1803E+02  0.1086E+00E
 Epicentro: PIEDECUESTA - SANTANDER                                            3
 ACTION:UPD 17-03-29 16:56 OP:lp   STATUS:               ID:20160728214135 L   I
 OLDACT:REG 16-07-29 02:49 OP:lv   STATUS:               ID:20160728213759     3
 2016-07-28-2137-59S.COL___343                                                 6
 STAT SP IPHASW D HRMM SECON CODA AMPLIT PERI AZIMU VELO AIN AR TRES W  DIS CAZ7
 BAR2 EZ EP   2   2141 54.27                             165    0.58 5 34.9 188 
 BAR2 EZ ES       2142  8.47                             165    0.3210 34.9 188 
 BAR2 EZ I        2142 10.30         9.3 0.16            164           34.9 188 
 RUS  HZ EP       2141 58.47                             138   -0.2110  112 177 
 RUS  HE ES       2142 16.82                             138   -0.2110  112 177 
 RUS  HZ I        2142 19.01         2.6 0.21            140            112 177 
 PTB  HZ EP       2142  1.03                             129   -0.52 9  151 255 
 PTB  HN ES       2142 22.02                             129   -0.11 9  151 255 
 PTB  HZ I        2142 25.56         4.8 0.12            130            151 255 
 GUY2CHZ EP       2142 19.91                             109    0.77 7  309 233 
 GUY2CHE ES       2142 53.63                             109    0.20 7  309 233 
 GUY2CHZ I        2143  2.70         3.5 0.36                           309 233 
                                                                                
