 2011 1128 2329 50.7 L   6.742 -73.098146.5  RSN  4 0.2 1.4LRSN                1
 GAP=145        0.44       3.4     5.4  5.2  0.3463E+01 -0.5622E+01 -0.2185E+01E
 Epicentro: JORDAN - SANTANDER                                                 3
 ACTION:UPD 12-07-13 16:12 OP:ep   STATUS:               ID:20111128232950 L   I
 2011-11-28-2330-00M.COL___170                                                 6
 STAT SP IPHASW D HRMM SECON CODA AMPLIT PERI AZIMU VELO AIN AR TRES W  DIS CAZ7
 BAR2 SZ ES   1   2330 25.62                             172   -0.03 7 19.0 210 
 BAR2 SZ I        2330 26.22         6.9 0.35                          19.0 210 
 BRR  HZ EP   1   2330 12.11                             150   -0.27 7 79.0 301 
 BRR  HZ I        2330 12.48        10.0 0.09                          79.0 301 
 BRR  HE ES   1   2330 29.45                             150    0.16 7 79.0 301 
 PAM  SZ EP   1   2330 13.05                             150   -0.05 7 79.4  34 
 PAM  SN ES   2   2330 30.67                             150    0.08 5 79.4  34 
 PAM  SZ I        2330 33.87         1.7 0.47                          79.4  34 
 RUS  HZ EP   1   2330 14.36                             146    0.31 7 93.9 179 
 RUS  HN ES   1   2330 32.10                             146   -0.16 7 93.9 179 
 RUS  HZ I        2330 33.30         2.9 0.33                          93.9 179 
                                                                                
