 2012 1128 2252 56.2 L   6.802 -73.182146.5  RSN  6 0.2 1.6LRSN                1
 GAP=132        0.49       2.7     3.5  4.3 -0.6969E+00  0.4706E+01 -0.2289E+01E
 Epicentro: LOS SANTOS - SANTANDER                                             3
 ACTION:UPD 12-12-05 15:36 OP:}ep  STATUS:               ID:20121128225256 L   I
 2012-11-28-2250-00M.COL___236                                                 6
 STAT SP IPHASW D HRMM SECON CODA AMPLIT PERI AZIMU VELO AIN AR TRES W  DIS CAZ7
 BAR2 SZ EP   1   2253 16.20                             171    0.25 7 23.2 180 
 BAR2 SZ ES   1   2253 31.17                             171   -0.16 7 23.2 180 
 BAR2 SZ I        2253 32.34        21.0 0.24                          23.2 180 
 GIR2 SZ EP   1   2253 15.79                             168   -0.19 7 30.6 358 
 GIR2 SZ ES   1   2253 31.62                             168    0.24 7 30.6 358 
 GIR2 SZ I        2253 33.10         4.4 0.13                          30.6 358 
 PAM  SZ EP   1   2253 18.98                             150    0.31 7 79.8  42 
 PAM  SN ES   1   2253 36.13                             150   -0.05 7 79.8  42 
 PAM  SZ I        2253 38.64         4.1 0.60                          79.8  42 
 RUS  HZ EP   1   2253 20.25                             144    0.15 7  101 174 
 RUS  HN ES   1   2253 38.35                             144   -0.37 7  101 174 
 RUS  HZ I        2253 39.97         4.7 0.26                           101 174 
 PTB  HZ EP   1   2253 22.92                             133    0.01 7  144 258 
 PTB  HN ES   1   2253 43.91                             133    0.19 7  144 258 
 PTB  HZ I        2253 49.84         9.8 0.40                           144 258 
 SML  HZ EP   1   2253 32.31                             118   -0.38 6  242 336 
 SML  HE ES   1   2254  0.98                             118   -0.15 6  242 336 
                                                                                
