 2014  628 2039 58.3 L   6.784 -73.144144.0  RSN  6 0.4 1.3LRSN                1
 GAP=137        0.87       5.4     4.4  7.3  0.1447E+00  0.3129E+01  0.7386E+00E
 Epicentro: LOS SANTOS - SANTANDER                                             3
 ACTION:UPD 14-07-01 22:57 OP:nd   STATUS:               ID:20140628203958 L   I
 OLDACT:UP  14-06-29 06:51 OP:mh   STATUS:               ID:20140628203850     3
 OLDACT:REG 14-06-29 06:21 OP:mh   STATUS:               ID:20140628203850     3
 2014-06-28-2038-50M.COL___239                                                 6
 STAT SP IPHASW D HRMM SECON CODA AMPLIT PERI AZIMU VELO AIN AR TRES W  DIS CAZ7
 BAR2 SZ EP   1   2040 18.23                             171    0.51 7 21.7 191 
 BAR2 SZ ES   1   2040 32.48                             171   -0.36 7 21.7 191 
 BAR2 SZ I        2040 34.54         3.9 0.11            170           21.7 191 
 BRR  HZ EP       2040 19.87                             152    0.5210 72.2 300 
 BRR  HN ES       2040 35.88                             152    0.1410 72.2 300 
 BRR  HZ I        2040 40.52         6.0 0.11            153           72.2 300 
 PAM  SZ EP       2040 20.51                             150    0.0710 78.6  39 
 PAM  SN ES   1   2040 37.35                             150   -0.32 7 78.6  39 
 PAM  SZ I        2040 38.39         4.0 0.17            155           78.6  39 
 RUS  HZ EP   1   2040 21.39                             144   -0.40 7 98.9 176 
 RUS  HN ES   1   2040 40.15                             144    0.07 7 98.9 176 
 RUS  HZ I        2040 42.92         2.1 0.25            146           98.9 176 
 PTB  HZ EP       2040 24.71                             132   -0.44 9  148 260 
 PTB  HN ES       2040 46.32                             132    0.27 9  148 260 
 PTB  HZ I        2040 48.81         4.4 0.15            134            148 260 
 ZAR  HN ES   1   2040 55.29                             122   -0.74 6  205 293 
                                                                                
