 2014  928 2351  9.2 L   6.873 -73.512112.4  RSN 11 0.5 2.1LRSN                1
 GAP= 70        1.26       2.9     4.7  7.8 -0.5467E+00  0.5234E+01  0.3611E+00E
 Epicentro: SAN VICENTE DE CHUCURI - SANTANDER                                 3
 ACTION:UPD 14-10-03 23:09 OP:nd   STATUS:               ID:20140928235109 L   I
 OLDACT:REG 14-09-29 09:09 OP:carl STATUS:               ID:20140928234817     3
 2014-09-28-2348-17M.COL___292                                                 6
 STAT SP IPHASW D HRMM SECON CODA AMPLIT PERI AZIMU VELO AIN AR TRES W  DIS CAZ7
 BRR  HZ IP     D 2351 25.54                             162    0.7110 34.1 320 
 BRR  HN ES       2351 37.95                             162    0.9310 34.1 320 
 BRR  HZ I        2351 38.95        73.8 0.14            159           34.1 320 
 BAR2 SZ IP     D 2351 26.22                             155    0.4310 47.8 130 
 PAM  SN ES       2351 46.08                             135   -0.3110  104  60 
 PTB  HZ EP     D 2351 30.12                             132    0.0310  111 251 
 PTB  HN ES       2351 45.58                             132   -0.8110  111 251 
 PTB  HZ I        2351 47.11        30.6 0.42            129            111 251 
 RUS  HZ EP       2351 31.57                             130    0.1410  118 156 
 RUS  HN ES       2351 47.97                             130   -0.8010  118 156 
 RUS  HZ I        2351 49.90        16.9 0.16            130            118 156 
 SPBC HZ EP       2351 34.11                             123    0.25 9  149 205 
 SPBC HE ES       2351 52.77                             123   -0.33 9  149 205 
 SPBC HZ I        2352  2.26        10.9 0.20            121            149 205 
 OCA  HZ EP       2351 34.59                             122    0.23 9  153   8 
 OCA  HN ES       2351 53.49                             122   -0.49 9  153   8 
 OCA  HZ I        2351 55.32        27.8 0.48            122            153   8 
 ZAR  HZ EP   4   2351 36.66                             120    1.33 0  164 295 
 ZAR  HN ES   4   2351 58.52                             120    2.81 0  164 295 
 ZAR  HZ I        2352  0.10        23.3 0.40            118            164 295 
 SML  HZ EP       2351 41.49                             112   -0.23 8  222 344 
 SML  HN ES       2352  6.61                             112   -0.48 8  222 344 
 SML  HZ I        2352 13.10        29.6 0.10            111            222 344 
 URE  HZ EP   4   2351 46.92                             110    2.73 0  243 294 
 URE  HN ES   4   2352 11.86                             110    0.38 0  243 294 
 CHI  HZ EP       2351 45.48                             109    0.12 8  249 186 
 CHI  HN ES       2352 14.03                             109    0.46 8  249 186 
 CHI  HZ I        2352 21.86         4.4 0.54            108            249 186 
 MON  HZ EP   4   2351 53.01                             104    0.18 0  318 312 
 MON  HN ES       2352 26.97                             104    0.12 7  318 312 
 MON  HZ I        2352 31.35         2.7 0.64            103            318 312 
                                                                                
