 2017  328 2030 39.2 L   6.829 -73.158144.2  RSN  6 0.3 1.7LRSN                1
 GAP=134        0.78       3.4     3.4  6.2 -0.5151E+00  0.4641E+01  0.1124E-01E
 Epicentro: LOS SANTOS - SANTANDER                                             3
 ACTION:UPD 17-05-25 18:46 OP:jn   STATUS:               ID:20170328203038 L   I
 OLDACT:UP  17-05-02 15:42 OP:nlst STATUS:               ID:20170328203038 L   3
 OLDACT:UP  17-03-29 03:46 OP:dani STATUS:               ID:20170328202745     3
 OLDACT:UP  17-03-29 03:46 OP:dani STATUS:               ID:20170328202745     3
 OLDACT:REG 17-03-29 03:17 OP:dani STATUS:               ID:20170328202745     3
 2017-03-28-2028-00M.COL___367                                                 6
 STAT SP IPHASW D HRMM SECON CODA AMPLIT PERI AZIMU VELO AIN AR TRES W  DIS CAZ7
 BRR  HZ EP       2031  0.62                             153    0.5910 68.5 297 
 BRR  HN ES       2031 15.90                             153   -0.3810 68.5 297 
 BRR  HZ I        2031 18.33        16.2 0.51            152           68.5 297 
 PAM  EZ EP       2031  0.94                             151   -0.2110 75.8  42 
 PAM  EE ES       2031 18.52                             151    0.2410 75.8  42 
 PAM  EZ I        2031 20.54        17.3 0.50            153           75.8  42 
 RUS  HZ EP       2031  2.82                             143   -0.2210  104 175 
 RUS  HE ES       2031 21.59                             143   -0.0510  104 175 
 RUS  HZ I        2031 22.25         3.2 0.44            146            104 175 
 PTB  HZ EP       2031  5.57                             132   -0.41 9  147 257 
 PTB  HN ES       2031 26.93                             132    0.06 9  147 257 
 PTB  HZ I        2031 29.90         4.4 0.27            133            147 257 
 SPBC HN ES       2031 30.32                             128    0.31 9  165 218 
 ZAR  HZ EP       2031 11.44                             122    0.15 9  202 291 
 ZAR  HE ES       2031 36.29                             122   -0.03 9  202 291 
 ZAR  HZ I        2031 42.39         8.3 0.26            123            202 291 
                                                                                
