 2016  728 2112 33.1 L   6.792 -73.152142.1  RSN  5 0.5 1.6LRSN                1
 GAP=136        1.23       6.3     6.7  9.3  0.9214E+01  0.1484E+02 -0.2394E+01E
 Epicentro: LOS SANTOS - SANTANDER                                             3
 ACTION:UPD 17-03-29 16:56 OP:lp   STATUS:               ID:20160728211233 L   I
 OLDACT:REG 16-07-29 02:48 OP:lv   STATUS:               ID:20160728210759     3
 2016-07-28-2107-59S.COL___343                                                 6
 STAT SP IPHASW D HRMM SECON CODA AMPLIT PERI AZIMU VELO AIN AR TRES W  DIS CAZ7
 BAR2 EZ ES       2113  6.25                             171   -0.9810 22.4 189 
 BRR  HN ES       2113 10.44                             152    0.4110 71.0 299 
 PAM  EZ EP       2112 55.16                             150    0.1610 78.5  40 
 PAM  EN ES       2113 12.21                             150    0.1410 78.5  40 
 PAM  EZ I        2113 14.40         9.3 0.51            150           78.5  40 
 RUS  HZ EP       2112 56.47                             143    0.0210 99.8 176 
 RUS  HE ES       2113 15.15                             143    0.5110 99.8 176 
 RUS  HZ I        2113 16.13         7.9 0.28            145           99.8 176 
 ZAR  HZ EP       2113  4.67                             121   -0.62 9  204 292 
 ZAR  HN ES       2113 30.64                             121    0.26 9  204 292 
 ZAR  HZ I        2113 35.57         3.3 0.26            121            204 292 
                                                                                
