 2017  828 2238 35.3 L   6.824 -73.133141.8  RSN 19 0.6 2.3LRSN                1
 GAP= 73        1.03       3.6     3.1  5.9  0.8088E+00  0.4789E+01  0.7129E+01E
 Epicentro: LOS SANTOS - SANTANDER                                             3
 ACTION:UPD 17-09-04 20:25 OP:rebc STATUS:               ID:20170828223835 L   I
 OLDACT:UP  17-08-29 06:49 OP:and  STATUS:               ID:20170828223738     3
 OLDACT:UP  17-08-29 06:46 OP:and  STATUS:               ID:20170828223738     3
 OLDACT:UP  17-08-29 06:45 OP:and  STATUS:               ID:20170828223738     3
 OLDACT:UP  17-08-29 06:43 OP:and  STATUS:               ID:20170828223738     3
 OLDACT:UP  17-08-29 06:42 OP:and  STATUS:               ID:20170828223738     3
 OLDACT:REG 17-08-29 05:50 OP:and  STATUS:               ID:20170828223738     3
 2017-08-28-2238-00M.COL___417                                                 6
 STAT SP IPHASW D HRMM SECON CODA AMPLIT PERI AZIMU VELO AIN AR TRES W  DIS CAZ7
 BAR2 EZ IP     C 2238 54.19                             169   -0.3510 26.2 192 
 BAR2 EZ ES   2   2239  8.88                             169   -0.65 5 26.2 192 
 BAR2 EZ I        2239 10.65        60.6 0.18            166           26.2 192 
 BRR  HZ EP       2238 55.96                             152   -0.0810 71.2 296 
 BRR  HN ES       2239 12.70                             152    0.5010 71.2 296 
 BRR  HZ I        2239 16.50        31.9 0.11            151           71.2 296 
 PAM  EZ IP     D 2238 56.94                             151   -0.0010 74.4  40 
 PAM  EN ES       2239 13.99                             151    0.1910 74.4  40 
 PAM  EZ I        2239 16.11        34.4 0.48            157           74.4  40 
 RUS  HZ IP     C 2238 58.15                             142   -0.7310  103 177 
 RUS  HN ES       2239 16.70                             142   -0.5510  103 177 
 RUS  HZ I        2239 18.65        31.6 0.30            143            103 177 
 TAM  HZ IP     C 2239  2.58                             130   -0.05 9  155 106 
 TAM  HN ES       2239 24.21                             130    0.27 9  155 106 
 TAM  HZ I        2239 24.73        17.2 0.34            134            155 106 
 SPBC HZ EP       2239  3.45                             128   -0.35 9  166 219 
 SPBC HN ES   2   2239 25.52                             128   -0.50 5  166 219 
 SPBC HZ I        2239 27.46        37.2 0.10            128            166 219 
 YPLC HZ IP     C 2239  4.69                             125   -0.31 9  179 152 
 YPLC HE ES       2239 29.11                             125    0.96 9  179 152 
 YPLC HZ I        2239 29.54        11.7 0.26            128            179 152 
 ZAR  HZ EP   4   2239  9.94                             121    2.40 0  204 291 
 ZAR  HN ES       2239 32.56                             121   -0.11 9  204 291 
 ZAR  HZ I        2239 38.49        25.0 0.33            123            204 291 
 TABC EZ IP   3 C 2239 12.63                             118    1.47 2  233 211 
 TABC EZ ES       2239 40.08                             118    0.96 8  233 211 
 TABC EZ I        2239 45.87        22.6 0.66            119            233 211 
 NOR  HZ IP     C 2239 10.65                             117   -0.46 8  237 234 
 NOR  HN ES       2239 38.87                             117   -0.16 8  237 234 
 NOR  HZ I        2239 42.10        16.0 0.34            118            237 234 
 CHI  HZ IP     D 2239 12.66                             116   -0.47 8  252 195 
 CHI  HN ES   3   2239 41.38                             116   -1.24 2  252 195 
 CHI  HZ I        2239 48.88        12.5 0.50            117            252 195 
 ROSC BZ IP     D 2239 14.32                             116    0.76 8  256 211 
 ROSC BN ES   4   2239 45.47                             116    2.09 0  256 211 
 ROSC BZ I        2239 47.19        21.0 0.40            117            256 211 
 HEL  HZ EP   2   2239 16.19                             114    0.63 4  274 255 
 HEL  HN ES   2   2239 46.25                             114   -0.69 4  274 255 
 HEL  HZ I        2239 53.36        13.9 0.52            115            274 255 
 GUY2CHZ IP     C 2239 19.84                             111    0.79 7  304 235 
 GUY2CHN ES   3   2239 54.44                             111    1.28 2  304 235 
 GUY2CHZ I        2240  0.77         9.6 0.62                           304 235 
 PTGC HZ IP   9 D 2239 17.51                             111   -1.72 0  311 159 
 PTGC HN ES       2239 51.30                             111   -0.46 7  311 159 
 PTGC HZ I        2239 53.05        10.4 0.30            112            311 159 
 ELA  HZ EP       2239 22.63                             109    0.30 7  332 229 
 ELA  HN ES   3   2240  0.58                             109    1.59 2  332 229 
 ELA  HZ I        2240  6.09        10.4 0.54            110            332 229 
 DBB  EZ EP   3   2239 24.13                             109    1.36 2  341 274 
 DBB  EN ES   4   2239 57.57                             109   -2.22 0  341 274 
 DBB  EZ I        2240  0.39         6.6 0.14            110            341 274 
 PRA  HZ EP   2   2239 28.83                             106   -0.23 3  395 210 
 PRA  HN ES   2   2240 10.56                             106   -0.42 3  395 210 
 PRA  HZ I        2240 16.35        14.3 0.28            107            395 210 
 SJC  HZ IP   3 D 2239 28.60                             105   -1.98 1  408 327 
 SJC  HN ES   4   2240  9.71                             105   -3.97 0  408 327 
 SJC  HZ I        2240 13.93         4.1 0.27            107            408 327 
                                                                                
