 2011  928 2204  9.0 L   6.770 -73.124147.9  RSN  5 0.3 1.7LRSN                1
 GAP=141        0.50       5.2     5.8  7.5  0.1501E+02  0.4517E+01  0.1366E+02E
 Epicentro: LOS SANTOS - SANTANDER                                             3
 ACTION:UPD 12-07-13 16:00 OP:ep   STATUS:               ID:20110928220409 L   I
 2011-09-28-2203-49S.COL___167                                                 6
 STAT SP IPHASW D HRMM SECON CODA AMPLIT PERI AZIMU VELO AIN AR TRES W  DIS CAZ7
 BAR2 SZ EP       22 4 28.79                             172   -0.0710 20.7 198 
 BAR2 SZ I        22 4 28.94         7.8 0.40                          20.7 198 
 BRR  HZ EP       22 4 30.86                             152    0.2510 74.9 300 
 BRR  HZ I        22 4 31.21        16.4 0.32                          74.9 300 
 BRR  HE ES   1   22 4 47.56                             152    0.11 7 74.9 300 
 PAM  SN ES   2   22 4 48.83                             151   -0.25 5 78.5  37 
 RUS  HZ EP       22 4 32.66                             145   -0.0810 97.2 177 
 RUS  HN ES   2   22 4 51.31                             145    0.07 5 97.2 177 
 ZAR  HN ES   2   22 5  6.95                             122   -0.71 4  208 293 
 ZAR  HZ I        22 5 14.08         3.6 0.12                           208 293 
                                                                                
