 2013  428 2302 52.8 L   6.770 -73.093148.5  RSN 10 0.4 2.2LRSN                1
 GAP=145        1.01       4.7     5.2  6.6 -0.8378E+01  0.9970E+01 -0.1962E+01E
 Epicentro: LOS SANTOS - SANTANDER                                             3
 ACTION:UPD 13-05-22 14:41 OP:EP   STATUS:               ID:20130428230253 L   I
 2013-04-28-2258-46M.COL___211                                                 6
 STAT SP IPHASW D HRMM SECON CODA AMPLIT PERI AZIMU VELO AIN AR TRES W  DIS CAZ7
 GUY2CHZ EP       23 3 38.52                             112                    
 GUY2CHN ES   4   23 4 13.54                             112                    
 BAR2 SZ EP       23 3 12.99                             171    0.2810 22.0 207 
 BAR2 SZ ES       23 3 28.21                             171   -0.0510 22.0 207 
 BAR2 SZ I        23 3 29.09        21.6 0.26            169           22.0 207 
 GIR2 SZ EP       23 3 12.95                             166    0.0410 35.9 342 
 PAM  SZ EP       23 3 15.78                             151    0.5510 76.5  35 
 PAM  SZ I        23 3 15.97        17.1 0.24            154           76.5  35 
 PAM  SN ES       23 3 32.71                             151   -0.0410 76.5  35 
 BRR  HZ IP     C 23 3 14.80                             151    0.1910 77.9 299 
 BRR  HE ES       23 3 31.87                             151    0.2310 77.9 299 
 BRR  HN I        23 3 33.39        32.1 0.16            150           77.9 299 
 RUS  HZ EP       23 3 16.67                             145    0.1210 97.1 179 
 RUS  HN ES       23 3 34.53                             145   -0.5610 97.1 179 
 RUS  HN I        23 3 37.21        14.8 0.40            146           97.1 179 
 PTB  HZ EP   4   23 3 19.62                             131   -0.82 0  153 260 
 PTB  HN ES   4   23 3 40.86                             131   -1.15 0  153 260 
 PTB  HN I        23 3 46.51        51.2 0.48            131            153 260 
 OCA  HZ EP       23 3 20.67                             129   -1.01 9  164 351 
 NOR  HZ EP       23 3 29.23                             119    0.25 8  238 236 
 NOR  HN ES       23 3 57.46                             119    0.24 8  238 236 
 NOR  HN I        23 3 58.91        23.4 0.14            119            238 236 
 HEL  HN ES       23 4  5.18                             115   -0.40 7  277 257 
                                                                                
