 2017  128 2024 35.1 L   6.803 -73.187144.0  RSN  8 0.3 1.7LRSN                1
 GAP=131        0.73       3.2     3.0  4.8 -0.3578E+00  0.3759E+01  0.2764E+01E
 Epicentro: ZAPATOCA - SANTANDER                                               3
 ACTION:UPD 17-05-22 16:04 OP:jn   STATUS:               ID:20170128202435 L   I
 OLDACT:REG 17-01-29 03:24 OP:edw  STATUS:               ID:20170128201748     3
 2017-01-28-2018-00M.COL___351                                                 6
 STAT SP IPHASW D HRMM SECON CODA AMPLIT PERI AZIMU VELO AIN AR TRES W  DIS CAZ7
 BAR2 EZ EP       2024 54.53                             170    0.0210 23.3 179 
 BAR2 EZ ES       2025  9.75                             170    0.1010 23.3 179 
 BAR2 EZ I        2025 10.95        18.0 0.58            170           23.3 179 
 BRR  HZ EP       2024 56.30                             154    0.4810 67.1 300 
 BRR  HN ES       2025 12.52                             154    0.5310 67.1 300 
 BRR  HZ I        2025 13.84        14.0 0.12            152           67.1 300 
 PAM  EZ IP     D 2024 57.43                             150    0.1410 80.2  42 
 PAM  EN ES       2025 14.15                             150   -0.4510 80.2  42 
 PAM  EZ I        2025 15.75        10.6 0.18            153           80.2  42 
 RUS  HZ EP       2024 58.64                             143   -0.0810  101 173 
 RUS  HN ES       2025 17.03                             143   -0.1210  101 173 
 RUS  HZ I        2025 19.12         5.0 0.32            144            101 173 
 PTB  HZ EP       2025  1.23                             133   -0.28 9  143 258 
 PTB  HN ES       2025 21.94                             133   -0.18 9  143 258 
 PTB  HZ I        2025 25.35         5.7 0.15            132            143 258 
 ZAR  HZ EP   4   2025  4.60                             123   -2.37 0  200 293 
 ZAR  HN ES       2025 31.43                             123   -0.41 9  200 293 
 ZAR  HZ I        2025 38.18         7.9 0.28            123            200 293 
 NOR  HZ EP       2025 10.32                             119   -0.02 8  231 234 
 NOR  HE ES       2025 37.82                             119   -0.01 8  231 234 
 NOR  HZ I        2025 40.64         3.2 0.20            119            231 234 
 CHI  HZ EP   2   2025 12.97                             117    0.37 4  248 194 
 CHI  HN ES   2   2025 42.19                             117    0.34 4  248 194 
 CHI  HZ I        2025 45.64         2.5 0.34            118            248 194 
                                                                                
