 2010  628 2053 52.4 L   6.796 -73.037142.0  RSN  4 0.3 2.2LRSN                1
 GAP=177        0.64       6.7    11.8 10.3  0.3536E+02 -0.8234E+02 -0.1064E+02E
 Epicentro: CEPITA - SANTANDER                                                 3
 ACTION:UP  10-08-24 10:13 OP:vdl  STATUS:               ID:20100628205352 L   I
 2010-06-28-2050-33S.COL___118                                                 6
 STAT SP IPHASW D HRMM SECON CODA AMPLIT PERI AZIMU VELO SNR AR TRES W  DIS CAZ7
 BAR2 SZ EP   2   2054 11.49                             169    -0.2 5   28 216 
 BAR2 SZ ES   2   2054 26.50                             169    -0.3 5   28 216 
 BRR  HZ EP       2054 13.48                             149    -0.410   82 295 
 BRR  HZ I        2054 13.72        29.5 0.69                            82 295 
 BRR  HN ES       2054 30.79                             149     0.210   82 295 
 RUS  HZ EP       2054 15.94                             144     0.210  100 183 
 GUE  SZ EP   1   2054 16.86                             139     0.2 7  115   6 
                                                                                
