 2011  828 2304  2.9 L   6.749 -73.149145.8  RSN 14 0.4 3.1LRSN                1
 GAP= 74        0.84       2.9     4.0  5.0 -0.1694E+01  0.5557E+01  0.2920E+01E
 Epicentro: LOS SANTOS - SANTANDER                                             3
 ACTION:UPD 12-07-13 15:54 OP:ep   STATUS:               ID:20110828230403 L   I
 2011-08-28-2300-49S.COL___161                                                 6
 STAT SP IPHASW D HRMM SECON CODA AMPLIT PERI AZIMU VELO AIN AR TRES W  DIS CAZ7
 SAN  SZ EP   1   23 4 23.08                             177    0.76 7 8.52  78 
 BAR2 SZ EP       23 4 22.49                             173    0.0110 17.8 192 
 BAR2 SZ ES       23 4 37.52                             173   -0.1910 17.8 192 
 BAR2 SZ I        23 4 39.37       375.3 0.22                          17.8 192 
 GIR2 SZ EP       23 4 22.60                             165   -0.1810 36.7 352 
 BRR  HZ IP     C 23 4 24.40                             152    0.1610 73.7 302 
 BRR  HZ I        23 4 24.72       662.9 0.16                          73.7 302 
 BRR  HN ES       23 4 41.09                             152    0.2410 73.7 302 
 PAM  SZ EP       23 4 25.19                             150   -0.2510 82.0  37 
 PAM  SN ES   1   23 4 42.62                             150   -0.37 7 82.0  37 
 PAM  SZ I        23 4 45.18        81.3 0.37                          82.0  37 
 RUS  HZ EP       23 4 26.32                             145    0.0110 95.0 176 
 RUS  HN ES   1   23 4 44.63                             145    0.11 7 95.0 176 
 RUS  HZ I        23 4 46.46       124.2 0.34                          95.0 176 
 OCA  SZ EP       23 4 30.96                             129   -0.82 9  166 353 
 OCA  SZ ES   1   23 4 55.16                             129    0.89 7  166 353 
 OCA  SZ I        23 4 59.55       176.4 0.38                           166 353 
 YOP  SE ES   1   23 4 55.98                             127    0.40 7  174 152 
 NOR  SZ EP       23 4 38.12                             119   -0.18 8  231 236 
 NOR  SN ES   1   23 5  5.49                             119   -0.39 6  231 236 
 HEL  HZ EP   1   23 4 43.62                             115    0.65 6  270 257 
 HEL  HE ES   1   23 5 14.11                             115   -0.08 6  270 257 
 HEL  HZ I        23 5 21.22       127.6 0.29                           270 257 
 VIL  SZ EP   1   23 4 45.50                             113   -0.24 5  298 192 
 VIL  SN ES   1   23 5 19.17                             113    0.06 5  298 192 
 VIL  SZ I        23 5 26.65        44.8 0.95                           298 192 
 RREF HZ EP   1   23 4 49.24                             111    0.59 5  318 230 
 RREF HN ES   1   23 5 23.77                             111   -0.52 5  318 230 
 RREF HZ I        23 5 34.73        90.2 0.35                           318 230 
 TOL  SZ EP   1   23 4 51.54                             110    0.82 5  339 225 
 PRA  HZ EP   1   23 4 55.63                             107   -0.25 4  387 210 
 PRA  HN ES   1   23 5 36.92                             107   -0.24 4  387 210 
                                                                                
