 2016  928 2243 54.5 L   6.397 -73.525117.9  RSN 11 0.4 1.8LRSN                1
 GAP= 78        0.89       2.8     3.0  5.5 -0.1902E+01  0.7326E+01 -0.6203E+00E
 Epicentro: SANTA HELENA DEL OPON - SANTANDER                                  3
 ACTION:UPD 17-08-17 21:17 OP:lp   STATUS:               ID:20160928224354 L   I
 OLDACT:UP  16-09-29 07:11 OP:and  STATUS:               ID:20160928223750     3
 OLDACT:UP  16-09-29 07:10 OP:and  STATUS:               ID:20160928223750     3
 OLDACT:REG 16-09-29 04:27 OP:and  STATUS:               ID:20160928223750     3
 2016-09-28-2238-00M.COL___372                                                 6
 STAT SP IPHASW D HRMM SECON CODA AMPLIT PERI AZIMU VELO AIN AR TRES W  DIS CAZ7
 BAR2 EZ EP     D 2244 11.57                             159    0.0310 43.6  60 
 BAR2 EZ ES       2244 24.92                             159    0.1210 43.6  60 
 BAR2 EZ I        2244 26.60        52.0 0.28            161           43.6  60 
 RUS  HZ EP     D 2244 13.45                             146   -0.2010 74.2 139 
 RUS  HN ES       2244 28.67                             146    0.1110 74.2 139 
 RUS  HZ I        2244 29.71         6.8 0.26            147           74.2 139 
 BRR  HZ EP       2244 13.03                             143   -0.4210 81.2 345 
 BRR  HN ES       2244 27.95                             143   -0.2610 81.2 345 
 SPBC HZ EP       2244 14.60                             136   -0.6410  102 216 
 SPBC HE ES       2244 31.37                             136   -0.0310  102 216 
 SPBC HZ I        2244 35.98        14.3 0.08            137            102 216 
 PTB  HZ EP   4   2244 13.67                             136   -1.64 0  104 279 
 PTB  HN ES   4   2244 29.02                             136   -2.50 0  104 279 
 PTB  HZ I        2244 30.82        14.5 0.15            137            104 279 
 PAM  EZ EP       2244 19.39                             127    0.29 9  139  41 
 PAM  EE ES       2244 38.59                             127    0.33 9  139  41 
 PAM  EZ I        2244 41.19         7.1 0.16            130            139  41 
 NOR  HZ EP       2244 21.65                             120   -0.60 9  175 238 
 NOR  HN ES       2244 43.97                             120    0.10 9  175 238 
 NOR  HZ I        2244 47.24        14.7 0.56            121            175 238 
 ZAR  HZ EP       2244 23.58                             117   -0.29 9  191 310 
 ZAR  HN ES       2244 46.97                             117    0.21 9  191 310 
 ZAR  HZ I        2244 50.71         7.5 0.08            119            191 310 
 CHI  HZ EP   2   2244 25.62                             117    0.57 4  197 187 
 CHI  HN ES   2   2244 49.77                             117    0.92 4  197 187 
 CHI  HZ I        2244 52.60         2.4 0.21            118            197 187 
 HEL  HZ EP     C 2244 28.20                             113    0.32 8  223 264 
 HEL  HN ES       2244 54.56                             113    0.67 8  223 264 
 HEL  HZ I        2244 56.02         8.6 0.30            115            223 264 
 GUY2CHZ EP       2244 30.50                             111    0.38 8  242 238 
 GUY2CHN ES   4   2244 59.98                             111    2.10 0  242 238 
 GUY2CHZ I        2245  5.54         7.8 0.60                           242 238 
                                                                                
