 2016  128 2302  2.8 L   6.791 -73.139145.6  RSN  5 0.3 1.6LRSN                1
 GAP=139        0.75       4.4     4.1  7.4 -0.8361E+01  0.1244E+02  0.1767E+00E
 Epicentro: LOS SANTOS - SANTANDER                                             3
 ACTION:UPD 16-03-09 23:29 OP:cam  STATUS:               ID:20160128230202 L   I
 OLDACT:UP  16-01-29 10:52 OP:mh   STATUS:               ID:20160128224653d    3
 OLDACT:REG 16-01-29 04:32 OP:mh   STATUS:               ID:20160128224653d    3
 2016-01-28-225800.mseed                                                       6
 STAT SP IPHASW D HRMM SECON CODA AMPLIT PERI AZIMU VELO AIN AR TRES W  DIS CAZ7
 PAM  EZ EP       23 2 25.26                             151    0.2810 77.7  39 
 PAM  EN ES       23 2 42.42                             151    0.1210 77.7  39 
 PAM  EZ I        23 2 44.39         4.9 0.52            154           77.7  39 
 RUS  HZ EP       23 2 26.36                             144   -0.0610 99.6 176 
 RUS  HN ES       23 2 44.74                             144   -0.1410 99.6 176 
 RUS  HZ I        23 2 45.96         3.5 0.18            148           99.6 176 
 PTB  HZ EP       23 2 29.27                             132   -0.49 9  148 259 
 PTB  HN ES       23 2 50.61                             132   -0.21 9  148 259 
 PTB  HZ I        23 2 55.99         7.4 0.56            133            148 259 
 NOR  HE ES       23 3  6.52                             118    0.17 8  235 235 
 NOR  HZ I        23 3  9.97         3.9 0.14            121            235 235 
 GUY2CHZ EP   1   23 2 46.13                             112   -0.23 5  301 235 
 GUY2CHN ES       23 3 21.09                             112    0.71 7  301 235 
 GUY2CHZ I        23 3 29.00         4.1 0.76                           301 235 
                                                                                
