 2016  928 2013 20.9 L   6.703 -73.511109.5  RSN 13 0.4 2.3LRSN                1
 GAP= 47        0.96       3.1     3.0  5.5  0.1542E-01  0.5263E+01  0.2319E+01E
 Epicentro: EL CARMEN - SANTANDER                                              3
 ACTION:UPD 17-08-17 21:17 OP:lp   STATUS:               ID:20160928201320 L   I
 OLDACT:UP  16-09-29 05:08 OP:and  STATUS:               ID:20160928200741     3
 OLDACT:UP  16-09-29 05:01 OP:and  STATUS:               ID:20160928200741     3
 OLDACT:UP  16-09-29 04:52 OP:and  STATUS:               ID:20160928200741     3
 OLDACT:REG 16-09-29 04:00 OP:and  STATUS:               ID:20160928200741     3
 2016-09-28-2008-00M.COL___371                                                 6
 STAT SP IPHASW D HRMM SECON CODA AMPLIT PERI AZIMU VELO AIN AR TRES W  DIS CAZ7
 BAR2 EZ IP     C 2013 36.90                             159    0.1710 38.3 109 
 BAR2 EZ ES       2013 49.25                             159    0.1910 38.3 109 
 BAR2 EZ I        2013 50.97       189.6 0.21            159           38.3 109 
 BRR  HZ IP     D 2013 36.60                             154   -0.3510 50.0 334 
 BRR  HE ES       2013 49.57                             154    0.1210 50.0 334 
 BRR  HZ I        2013 51.35        43.9 0.12            155           50.0 334 
 RUS  HZ EP       2013 41.43                             134    0.0610  101 152 
 RUS  HE ES       2013 57.48                             134    0.1510  101 152 
 RUS  HZ I        2013 59.69        73.4 0.31            134            101 152 
 PTB  HZ IP   4 D 2013 39.84                             132   -1.32 0  106 260 
 PTB  HN ES   4   2013 54.67                             132   -2.27 0  106 260 
 PTB  HZ I        2013 55.84        40.7 0.10            133            106 260 
 PAM  EZ IP     C 2013 42.17                             130   -0.3410  114  52 
 PAM  EE ES   2   2013 59.03                             130   -0.32 5  114  52 
 PAM  EZ I        2014  2.17        20.9 0.19            132            114  52 
 SPBC HZ IP     D 2013 43.24                             126   -0.4510  132 208 
 SPBC HN ES       2014  1.05                             126   -0.3910  132 208 
 SPBC HZ I        2014  2.37        42.9 0.07            126            132 208 
 OCA  HN ES   2   2014  8.48                             118   -0.40 4  171   7 
 ZAR  HZ EP       2013 48.09                             118    0.26 9  173 300 
 ZAR  HE ES       2014  9.27                             118    0.46 9  173 300 
 ZAR  HZ I        2014 12.15        28.8 0.20            119            173 300 
 TAM  HZ IP     C 2013 50.39                             115    0.35 9  192  99 
 NOR  HZ EP     C 2013 49.79                             114   -0.68 9  196 230 
 NOR  HE ES   4   2014 14.59                             114    1.07 0  196 230 
 NOR  HZ I        2014 16.61        29.2 0.27            115            196 230 
 HEL  HZ EP   2   2013 55.59                             110    0.86 4  230 256 
 HEL  HE ES       2014 20.41                             110   -0.69 8  230 256 
 HEL  HZ I        2014 24.61        12.0 0.32            111            230 256 
 CHI  HZ EP   2   2013 55.59                             110    0.78 4  231 186 
 CHI  HN ES   4   2014 23.13                             110    1.88 0  231 186 
 CHI  HZ I        2014 28.91         6.8 0.23            111            231 186 
 GUY2CHZ EP       2013 59.28                             107    0.70 8  262 232 
 GUY2CHN ES       2014 28.59                             107    0.64 8  262 232 
 GUY2CHZ I        2014 36.51        11.2 0.46                           262 232 
                                                                                
