 2017  528 2116 10.0 L   6.761 -73.163148.0  RSN  8 0.3 1.8LRSN                1
 GAP=233        0.66       3.0     3.5  5.5  0.3525E+01  0.2636E+01  0.2690E+01E
 Epicentro: LOS SANTOS - SANTANDER                                             3
 ACTION:UPD 17-06-16 13:39 OP:jn   STATUS:               ID:20170528211610 L   I
 OLDACT:UP  17-05-29 03:23 OP:edw  STATUS:               ID:20170528210737     3
 OLDACT:UP  17-05-29 03:22 OP:edw  STATUS:               ID:20170528210737     3
 OLDACT:REG 17-05-29 02:45 OP:edw  STATUS:               ID:20170528210737     3
 2017-05-28-2108-00M.COL___350                                                 6
 STAT SP IPHASW D HRMM SECON CODA AMPLIT PERI AZIMU VELO AIN AR TRES W  DIS CAZ7
 BRR  HZ EP     C 2116 31.36                             153   -0.0210 71.7 302 
 BRR  HN ES       2116 48.36                             153    0.2810 71.7 302 
 BRR  HZ I        2116 49.30        12.4 0.46            149           71.7 302 
 RUS  HZ EP     C 2116 33.43                             145   -0.2110 96.5 175 
 RUS  HE ES       2116 51.97                             145   -0.1410 96.5 175 
 RUS  HZ I        2116 52.81         8.5 0.24            145           96.5 175 
 PTB  HZ EP       2116 36.51                             133   -0.36 9  145 260 
 PTB  HN ES       2116 57.44                             133   -0.42 9  145 260 
 PTB  HZ I        2117  2.96         6.1 0.24            130            145 260 
 SPBC HZ EP       2116 38.67                             130    0.46 9  159 219 
 SPBC HN ES       2117  0.29                             130    0.05 9  159 219 
 SPBC HZ I        2117  3.89        11.6 0.14            128            159 219 
 ZAR  HZ EP   4   2116 43.93                             123    1.39 0  204 293 
 ZAR  HN ES       2117  8.19                             123    0.24 9  204 293 
 ZAR  HZ I        2117 14.03        10.0 0.34            122            204 293 
 NOR  HN ES       2117 13.32                             119    0.29 8  231 235 
 CHI  HZ EP   2   2116 47.42                             118    0.14 4  244 195 
 CHI  HE ES       2117 16.60                             118    0.21 8  244 195 
 CHI  HZ I        2117 20.79         2.4 0.28            118            244 195 
 HEL  HZ EP   2   2116 49.96                             115   -0.01 4  269 257 
 HEL  HE ES       2117 20.86                             115   -0.32 8  269 257 
 HEL  HZ I        2117 28.16         2.3 0.26            114            269 257 
                                                                                
