 2017 1128 2136 56.6 L   6.764 -73.128147.5  RSN  5 0.3 1.4LRSN                1
 GAP=140        0.74       4.5     4.2  6.2 -0.8055E+01  0.8322E+01 -0.2052E+01E
 Epicentro: LOS SANTOS - SANTANDER                                             3
 ACTION:UPD 17-12-12 20:01 OP:rebc STATUS:               ID:20171128213656 L   I
 OLDACT:DUP 17-11-29 03:51 OP:osc  STATUS:               ID:20171128212740d    3
 2017-11-28-2128-00M.COL___501                                                 6
 STAT SP IPHASW D HRMM SECON CODA AMPLIT PERI AZIMU VELO AIN AR TRES W  DIS CAZ7
 BAR2 EZ EP       2137 16.74                             172    0.4110 19.9 198 
 BAR2 EZ ES       2137 31.91                             172    0.1510 19.9 198 
 BAR2 EZ I        2137 32.39         9.0 0.10            173           19.9 198 
 PAM  EZ EP       2137 19.35                             150    0.2710 79.3  37 
 PAM  EE ES       2137 36.41                             150   -0.2310 79.3  37 
 PAM  EZ I        2137 38.82         4.6 0.46            151           79.3  37 
 RUS  HZ EP       2137 20.07                             145   -0.1210 96.4 177 
 RUS  HN ES       2137 38.42                             145   -0.2010 96.4 177 
 RUS  HZ I        2137 40.02         4.8 0.30            146           96.4 177 
 PTB  HZ EP       2137 23.25                             132   -0.53 9  149 261 
 PTB  HE ES       2137 44.99                             132   -0.01 9  149 261 
 PTB  HZ I        2137 45.04         2.4 0.14            134            149 261 
 NOR  HN ES       2138  0.47                             119    0.27 8  234 236 
                                                                                
