 2013  728 2130 38.4 L   6.763 -73.204148.5  RSN  4 0.4 1.5LRSN                1
 GAP=228        1.08       8.9     8.7  9.0  0.4122E+02  0.1468E+02  0.7707E+01E
 Epicentro: VILLANUEVA - SANTANDER                                             3
 ACTION:UPD 13-08-12 10:40 OP:ep   STATUS:               ID:20130728213038 L   I
 OLDACT:REG 13-07-28 22:50 OP:nd   STATUS:               ID:20130728212959     3
 2013-07-28-2129-59M.COL___268                                                 6
 STAT SP IPHASW D HRMM SECON CODA AMPLIT PERI AZIMU VELO AIN AR TRES W  DIS CAZ7
 BAR2 SZ ES       2131 13.05                             172   -0.7310 19.1 173 
 BAR2 SZ I        2131 15.17         5.9 0.34            176           19.1 173 
 BRR  HZ EP       2130 59.93                             154    0.2710 67.8 304 
 BRR  HN ES       2131 16.65                             154    0.4110 67.8 304 
 BRR  HZ I        2131 22.09        13.8 0.46            154           67.8 304 
 RUS  HZ EP       2131  2.11                             145   -0.0710 97.2 172 
 RUS  HN ES       2131 21.24                             145    0.5110 97.2 172 
 RUS  HZ I        2131 21.86         4.2 0.26            150           97.2 172 
 PTB  HZ EP       2131  4.59                             134   -0.37 9  141 260 
 PTB  HN ES       2131 25.60                             134   -0.08 9  141 260 
 PTB  HZ I        2131 27.63         3.1 0.14            136            141 260 
                                                                                
