 2014  828 2329 56.8 L   7.465 -73.160127.7  RSN  7 0.3 2.1LRSN                1
 GAP=216        0.87       3.8     5.5  6.5  0.5711E+01  0.1334E+01 -0.6394E+01E
 Epicentro: EL PLAYON - SANTANDER                                              3
 ACTION:UPD 14-09-15 21:54 OP:nd   STATUS:               ID:20140828232956 L   I
 OLDACT:UP  14-08-29 03:33 OP:cam  STATUS:               ID:20140828233000     3
 OLDACT:UP  14-08-29 03:33 OP:cam  STATUS:               ID:20140828233000     3
 OLDACT:REG 14-08-29 02:48 OP:cam  STATUS:               ID:20140828233000     3
 2014-08-28-2330-00M.COL___282                                                 6
 STAT SP IPHASW D HRMM SECON CODA AMPLIT PERI AZIMU VELO AIN AR TRES W  DIS CAZ7
 BRR  HZ EP       2330 16.40                             148    0.3110 72.7 237 
 BRR  HN ES       2330 31.73                             148    0.5710 72.7 237 
 BRR  HZ I        2330 32.39        33.2 0.14            150           72.7 237 
 BAR2 SZ EP       2330 18.30                             141    0.1810 96.6 181 
 BAR2 SZ ES       2330 34.35                             141   -0.4310 96.6 181 
 BAR2 SZ I        2330 35.90        34.6 0.12            146           96.6 181 
 PTB  HZ EP       2330 24.96                             122   -0.21 9  176 235 
 PTB  HN ES       2330 46.69                             122   -0.62 9  176 235 
 PTB  HZ I        2330 49.01        12.7 0.40            125            176 235 
 SML  HZ EP       2330 25.37                             122   -0.04 9  179 326 
 SML  HE ES       2330 47.35                             122   -0.39 9  179 326 
 SML  HZ I        2330 55.27        12.3 0.10            123            179 326 
 ZAR  HZ EP       2330 26.28                             120   -0.06 9  187 271 
 ZAR  HN ES       2330 49.65                             120    0.24 9  187 271 
 ZAR  HZ I        2330 54.16        15.2 0.30            122            187 271 
 HEL  HZ EP       2330 39.33                             109    0.30 7  297 242 
 GUY2CHZ EP       2330 45.24                             106    0.20 6  348 225 
                                                                                
