 2017  128 2235 59.1 L   6.846 -73.170146.2  RSN 16 0.7 2.3LRSN                1
 GAP= 77        1.63       5.0     4.7  7.7  0.1629E+01  0.1109E+02  0.5789E+01E
 Epicentro: ZAPATOCA - SANTANDER                                               3
 ACTION:UPD 17-05-22 16:04 OP:jn   STATUS:               ID:20170128223559 L   I
 OLDACT:UP  17-01-29 04:49 OP:edw  STATUS:               ID:20170128222743     3
 OLDACT:REG 17-01-29 03:30 OP:edw  STATUS:               ID:20170128222743     3
 2017-01-28-2228-00M.COL___345                                                 6
 STAT SP IPHASW D HRMM SECON CODA AMPLIT PERI AZIMU VELO AIN AR TRES W  DIS CAZ7
 BAR2 EZ EP       2236 18.77                             169   -0.1310 28.1 183 
 BAR2 EZ ES       2236 34.01                             169   -0.3310 28.1 183 
 BAR2 EZ I        2236 36.61        85.3 0.28            165           28.1 183 
 BRR  HZ IP     C 2236 20.57                             154    0.5210 66.5 296 
 BRR  HN ES       2236 37.61                             154    1.2310 66.5 296 
 BRR  HZ I        2236 40.87        38.6 0.26            151           66.5 296 
 PAM  HZ IP     C 2236 21.54                             151    0.2910 75.3  44 
 PAM  EN ES       2236 38.65                             151    0.1310 75.3  44 
 RUS  HZ EP     C 2236 22.68                             143   -0.6210  106 175 
 RUS  HN ES       2236 41.48                             143   -0.6810  106 175 
 RUS  HZ I        2236 42.67        40.6 0.34            143            106 175 
 PTB  HZ EP       2236 25.51                             132   -0.47 9  146 257 
 PTB  HN ES       2236 46.52                             132   -0.41 9  146 257 
 PTB  HZ I        2236 53.20        24.7 0.32            130            146 257 
 TAM  HZ IP     C 2236 27.12                             130   -0.07 9  159 107 
 TAM  HN ES       2236 48.97                             130   -0.13 9  159 107 
 TAM  HZ I        2236 50.56        13.1 0.30            135            159 107 
 ZAR  HZ EP       2236 32.23                             123    1.09 9  200 291 
 ZAR  HN ES       2236 56.29                             123    0.18 9  200 291 
 ZAR  HZ I        2237  2.03        28.1 0.28            123            200 291 
 NOR  HZ EP       2236 34.89                             118   -0.07 8  236 233 
 NOR  HN ES       2237  2.36                             118   -0.56 8  236 233 
 NOR  HZ I        2237 12.33        14.2 0.40            118            236 233 
 CHI  HZ EP     C 2236 37.07                             117   -0.23 8  253 194 
 CHI  HN ES       2237  6.30                             117   -0.79 8  253 194 
 CHI  HZ I        2237  9.86        14.6 0.52            117            253 194 
 ROSC BZ EP       2236 38.94                             116    1.35 8  256 210 
 ROSC BE ES       2237  9.07                             116    1.47 8  256 210 
 ROSC BZ I        2237 13.46        41.4 0.45            117            256 210 
 URE  HZ EP       2236 39.09                             114   -0.62 7  279 291 
 URE  HE ES       2237  9.74                             114   -1.64 7  279 291 
 URE  HZ I        2237 22.51        12.6 0.32            114            279 291 
 PTGC HZ EP   4   2236 41.91                             111   -1.73 0  314 159 
 PTGC HN ES   4   2237 15.60                             111   -2.77 0  314 159 
 ELA  HZ EP   4   2236 47.15                             110    1.02 0  330 228 
 ELA  HN ES   4   2237 24.50                             110    1.69 0  330 228 
 ELA  HZ I        2237 31.47        12.0 0.60            110            330 228 
 CBOC HZ EP       2236 46.70                             110    0.76 7  333 251 
 CBOC HN ES   4   2237 24.82                             110    2.36 0  333 251 
 CBOC HZ I        2237 42.76         3.5 0.44            110            333 251 
 DBB  EZ EP       2236 46.46                             110    0.20 7  336 273 
 DBB  EN ES   4   2237 21.29                             110   -1.74 0  336 273 
 DBB  EZ I        2237 23.86         5.4 0.30            110            336 273 
 ORTC HZ EP       2236 53.27                             106   -0.08 6  398 215 
 ORTC HE ES       2237 35.95                             106    0.30 6  398 215 
 ORTC HZ I        2237 42.35         7.9 0.46            107            398 215 
 SJC  HZ EP       2236 52.90                             106   -1.11 6  403 327 
 SJC  HN ES   4   2237 33.64                             106   -3.19 0  403 327 
 SJC  HZ I        2237 38.13         4.5 0.40            107            403 327 
                                                                                
