 2014  828 2210  2.9 L   6.803 -73.132148.0  RSN 14 0.5 2.2LRSN                1
 GAP=138        1.10       3.3     4.7  5.6  0.1414E+00  0.7031E+01  0.2227E+01E
 Epicentro: LOS SANTOS - SANTANDER                                             3
 ACTION:UPD 14-09-15 21:54 OP:nd   STATUS:               ID:20140828221002 L   I
 OLDACT:UP  14-08-29 03:26 OP:cam  STATUS:               ID:20140828221000     3
 OLDACT:UP  14-08-29 03:26 OP:cam  STATUS:               ID:20140828221000     3
 OLDACT:REG 14-08-29 02:47 OP:cam  STATUS:               ID:20140828221000     3
 2014-08-28-2210-00M.COL___282                                                 6
 STAT SP IPHASW D HRMM SECON CODA AMPLIT PERI AZIMU VELO AIN AR TRES W  DIS CAZ7
 BAR2 SZ IP     C 2210 22.65                             170   -0.1210 24.0 194 
 BAR2 SZ ES       2210 38.11                             170   -0.1910 24.0 194 
 BAR2 SZ I        2210 40.27        37.7 0.26            171           24.0 194 
 BRR  HZ EP       2210 24.60                             153    0.2910 72.4 298 
 BRR  HE ES       2210 41.70                             153    0.6510 72.4 298 
 BRR  HZ I        2210 44.16        18.7 0.40            146           72.4 298 
 PAM  SZ EP     C 2210 25.47                             152    0.2410 76.1  39 
 PAM  SN ES       2210 42.85                             152    0.1610 76.1  39 
 PAM  SZ I        2210 44.71        34.9 0.46            148           76.1  39 
 RUS  HZ EP       2210 26.50                             144   -0.3410  101 177 
 RUS  HN ES       2210 45.44                             144   -0.1110  101 177 
 RUS  HZ I        2210 46.32        12.7 0.46            144            101 177 
 PTB  HZ EP       2210 29.27                             132   -0.88 9  149 259 
 PTB  HN ES       2210 50.64                             132   -0.80 9  149 259 
 PTB  HZ I        2210 58.17        23.5 0.36            128            149 259 
 SPBC HZ EP     C 2210 31.53                             129   -0.11 9  164 219 
 SPBC HN ES       2210 54.66                             129    0.56 9  164 219 
 SPBC HZ I        2210 58.58        33.4 0.40            126            164 219 
 ZAR  HN ES       2211  1.68                             123    0.57 8  205 292 
 ZAR  HZ I        2211  5.94        17.9 0.48            118            205 292 
 NOR  HZ EP       2210 38.63                             119   -0.24 8  236 235 
 SML  HZ EP       2210 39.57                             118   -0.07 8  244 335 
 SML  HN ES       2211  7.63                             118   -0.71 8  244 335 
 SML  HZ I        2211 11.09        31.2 0.10            114            244 335 
 CHI  HZ EP       2210 40.89                             118    0.13 8  249 195 
 CHI  HN ES       2211 10.20                             118   -0.12 8  249 195 
 CHI  HZ I        2211 13.79         6.1 0.58            115            249 195 
 HEL  HZ EP       2210 43.52                             115    0.16 8  274 256 
 GUY2CHZ EP       2210 47.63                             113    0.90 7  303 235 
 PRA  HZ EP       2210 57.12                             107    0.54 6  393 210 
 SJC  HZ EP   4   2210 56.91                             106   -1.65 0  410 327 
 SJC  HZ I        2211 51.13         3.4 0.38            103            410 327 
                                                                                
