 2012  428 2042  5.7 L   6.675 -73.193153.5  RSN  4 0.1 1.6LRSN                1
 GAP=222        0.32       3.3     3.4  4.1  0.5417E+01 -0.2001E+01 -0.2219E+01E
 Epicentro: VILLANUEVA - SANTANDER                                             3
 ACTION:UPD 12-07-05 11:56 OP:tino STATUS:               ID:20120428204205 L   I
 2012-04-28-2040-00M.COL___189                                                 6
 STAT SP IPHASW D HRMM SECON CODA AMPLIT PERI AZIMU VELO AIN AR TRES W  DIS CAZ7
 BAR2 SZ EP   1   2042 26.14                             176     0.1 7    9 172 
 BAR2 SZ I        2042 42.80         6.5 0.31                             9 172 
 BRR  HZ EP       2042 27.89                             153     0.010   75 310 
 BRR  HZ I        2042 36.35        16.7 0.45                            75 310 
 BRR  HN ES   1   2042 45.12                             153     0.0 7   75 310 
 RUS  HZ EP   1   2042 29.19                             149    -0.1 7   87 172 
 RUS  HN ES   1   2042 47.83                             149     0.1 7   87 172 
 RUS  HZ I        2042 50.43         3.1 0.40                            87 172 
 PTB  HZ EP   1   2042 32.72                             135     0.1 7  140 264 
 PTB  HN ES   1   2042 53.69                             135     0.0 7  140 264 
                                                                                
