 2016  228 2040 38.5 L   6.809 -73.179143.6  RSN  5 0.2 1.5LRSN                1
 GAP=132        0.50       1.9     3.0  5.0 -0.1339E+01  0.1657E+01  0.2696E+01E
 Epicentro: ZAPATOCA - SANTANDER                                               3
 ACTION:UPD 16-03-04 21:30 OP:rebc STATUS:               ID:20160228204038 L   I
 OLDACT:REG 16-02-29 03:24 OP:cara STATUS:               ID:20160228203747     3
 2016-02-28-2037-47M.COL___322                                                 6
 STAT SP IPHASW D HRMM SECON CODA AMPLIT PERI AZIMU VELO AIN AR TRES W  DIS CAZ7
 PAM  EZ EP       2041  0.81                             150    0.2110 79.0  42 
 PAM  EN ES       2041 17.77                             150   -0.0510 79.0  42 
 PAM  EZ I        2041 19.81         9.0 0.50            153           79.0  42 
 RUS  HZ EP       2041  2.37                             143    0.2210  102 174 
 RUS  HN ES       2041 20.44                             143   -0.1410  102 174 
 RUS  HZ I        2041 21.14         4.6 0.34            145            102 174 
 PTB  HN ES       2041 25.72                             132    0.07 9  144 258 
 PTB  HZ I        2041 29.11         4.9 0.14            133            144 258 
 OCA  HN ES       2041 28.23                             129   -0.14 9  159 354 
 CHI  HZ EP       2041 15.73                             116   -0.37 8  249 194 
 CHI  HN ES       2041 45.48                             116    0.07 8  249 194 
 CHI  HZ I        2041 47.37         1.5 0.48            118            249 194 
                                                                                
