 2010  928 2135  9.1 L   6.766 -73.094145.7  RSN  6 0.4 1.6LRSN                1
 GAP=165        0.89       5.1     8.8 11.2 -0.4726E+01 -0.2218E+00  0.8608E+01E
 Epicentro: LOS SANTOS - SANTANDER                                             3
 ACTION:UP  11-02-18 11:06 OP:tino STATUS:               ID:20100928213509 L   I
 2010-09-28-2133-31S.COL___125                                                 6
 STAT SP IPHASW D HRMM SECON CODA AMPLIT PERI AZIMU VELO SNR AR TRES W  DIS CAZ7
 BTL  SZ EP       2135 29.33                             169     0.510   26 311 
 BRR  HZ EP       2135 30.48                             150    -0.210   78 299 
 BRR  HN ES   1   2135 47.77                             150     0.3 7   78 299 
 BRR  HZ I        2136  0.26        13.6 0.39                            78 299 
 RUS  HZ EP       2135 32.49                             145    -0.110   97 179 
 RUS  HE ES   1   2135 50.76                             145    -0.1 7   97 179 
 RUS  HZ I        2135 52.95         4.3 0.85                            97 179 
 GUE  SZ EP   2   2135 34.46                             139     0.4 5  119   9 
 GRA  SZ ES   1   2135 53.73                             136    -0.6 7  128  15 
 GRA  SZ I        2135 55.09         6.1 0.35                           128  15 
 NOR  SZ EP   2   2135 44.99                             118    -0.1 4  237 236 
 NOR  SN ES   2   2136 12.46                             118    -0.8 4  237 236 
                                                                                
