 2012 1228 2311 42.6 L   6.758 -73.145141.7  RSN  5 0.3 1.8LRSN                1
 GAP=234        0.68       5.2     4.8  5.4  0.1550E+02  0.3864E+01 -0.3068E-01E
 Epicentro: LOS SANTOS - SANTANDER                                             3
 ACTION:UPD 13-01-04 14:31 OP:ep   STATUS:               ID:20121228231142 L   I
 2012-12-28-2310-00M.COL___242                                                 6
 STAT SP IPHASW D HRMM SECON CODA AMPLIT PERI AZIMU VELO AIN AR TRES W  DIS CAZ7
 BAR2 SZ EP       2312  1.69                             172    0.0410 18.7 193 
 BAR2 SZ ES       2312 16.10                             172   -0.4110 18.7 193 
 BAR2 SZ I        2312 17.76        16.7 0.18                          18.7 193 
 BRR  HZ EP       2312  3.53                             151    0.0810 73.6 302 
 BRR  HN ES       2312 19.94                             151    0.2310 73.6 302 
 BRR  HN I        2312 20.54        24.0 0.26                          73.6 302 
 RUS  HZ EP       2312  5.82                             144    0.2110 95.9 176 
 RUS  HN ES       2312 23.73                             144    0.1710 95.9 176 
 RUS  HN I        2312 26.97         4.5 0.48                          95.9 176 
 PTB  HZ EP       2312  8.66                             131   -0.50 9  147 261 
 PTB  HN ES       2312 29.95                             131    0.06 9  147 261 
 PTB  HN I        2312 32.34         7.1 0.24                           147 261 
 ZAR  HN ES       2312 40.32                             121    0.09 8  206 293 
 ZAR  HN I        2312 46.43        10.5 0.36                           206 293 
                                                                                
