 2013 1128 2044 47.3 L   6.841 -73.178144.6  RSN 11 0.5 2.3LRSN                1
 GAP=137        1.33       4.4     6.6  7.4 -0.1392E+02  0.1219E+02 -0.6571E+01E
 Epicentro: ZAPATOCA - SANTANDER                                               3
 ACTION:UPD 14-01-09 16:31 OP:ep   STATUS:               ID:20131128204447 L   I
 OLDACT:REG 13-11-28 23:42 OP:nd   STATUS:               ID:20131128204000     3
 2013-11-28-2040-00M.COL___282                                                 6
 STAT SP IPHASW D HRMM SECON CODA AMPLIT PERI AZIMU VELO AIN AR TRES W  DIS CAZ7
 BAR2 SZ EP       2045  6.84                             169    0.0010 27.5 181 
 BAR2 SZ ES       2045 21.60                             169   -0.5110 27.5 181 
 BAR2 SZ I        2045 22.84        78.6 0.32            168           27.5 181 
 BRR  HZ IP     C 2045  8.70                             154    0.7110 66.0 297 
 BRR  HN ES       2045 25.29                             154    1.1210 66.0 297 
 BRR  HZ I        2045 26.23        47.2 0.12            149           66.0 297 
 PAM  SZ EP       2045  9.82                             151    0.5310 76.4  44 
 PAM  SN ES       2045 26.07                             151   -0.4010 76.4  44 
 PAM  SZ I        2045 28.79        49.7 0.52            155           76.4  44 
 PTB  HZ EP       2045 13.67                             132   -0.23 9  145 257 
 PTB  HN ES       2045 33.85                             132   -0.84 9  145 257 
 PTB  HZ I        2045 40.22        21.7 0.28            131            145 257 
 OCA  HZ EP       2045 14.69                             130   -0.33 9  155 354 
 OCA  HN ES       2045 36.80                             130    0.12 9  155 354 
 OCA  HZ I        2045 39.84        31.9 0.18            131            155 354 
 SPBC HZ EP       2045 16.11                             128    0.32 9  165 217 
 SPBC HN ES       2045 37.49                             128   -0.57 9  165 217 
 SPBC HZ I        2045 45.82        15.5 0.20            129            165 217 
 ZAR  HZ EP   4   2045 20.92                             123    1.80 0  199 291 
 ZAR  HN ES   4   2045 45.30                             123    1.33 0  199 291 
 ZAR  HZ I        2045 50.93        23.8 0.52            122            199 291 
 NOR  HZ EP       2045 23.39                             118    0.49 8  235 233 
 NOR  HN ES       2045 51.12                             118    0.42 8  235 233 
 NOR  HZ I        2045 56.84        10.4 0.16            118            235 233 
 SML  HZ EP       2045 22.44                             118   -0.77 8  238 336 
 SML  HN ES       2045 51.00                             118   -0.26 8  238 336 
 SML  HZ I        2045 56.68        29.2 0.48            118            238 336 
 COD  HZ EP       2045 34.89                             109   -0.14 7  343 355 
 COD  HN ES       2046 12.27                             109   -0.03 7  343 355 
 COD  HZ I        2046 15.52         4.2 0.74            110            343 355 
 SJC  HZ EP   4   2045 41.30                             106   -0.81 0  404 327 
 SJC  HN ES   4   2046 21.95                             106   -2.95 0  404 327 
 SJC  HZ I        2046 26.41         7.1 0.48            106            404 327 
                                                                                
