 2017 1028 2228 22.7 L   6.785 -73.119140.4  RSN  4 0.3 1.1LRSN                1
 GAP=141        0.73       3.9     3.7  6.5 -0.1581E+01  0.2652E+01  0.3644E+01E
 Epicentro: LOS SANTOS - SANTANDER                                             3
 ACTION:UPD 17-11-07 19:38 OP:rebc STATUS:               ID:20171028222822 L   I
 OLDACT:REG 17-10-29 02:40 OP:l    STATUS:               ID:20171028221739     3
 2017-10-28-2218-00M.COL___414                                                 6
 STAT SP IPHASW D HRMM SECON CODA AMPLIT PERI AZIMU VELO AIN AR TRES W  DIS CAZ7
 BRR  HZ EP       2228 43.64                             150    0.1410 74.6 299 
 BRR  HN ES       2229  0.00                             150    0.3010 74.6 299 
 PAM  EZ EP       2228 44.19                             150   -0.1510 76.8  37 
 PAM  EN ES       2229  1.06                             150   -0.1410 76.8  37 
 PAM  EZ I        2229  3.48         4.2 0.64            150           76.8  37 
 RUS  HZ EP       2228 45.70                             143   -0.1210 98.8 178 
 RUS  HN ES       2229  3.98                             143    0.1510 98.8 178 
 RUS  HZ I        2229  5.04         1.1 0.24            144           98.8 178 
 PTB  HZ EP       2228 49.86                             130    0.35 9  150 260 
 PTB  HN ES       2229  9.84                             130   -0.55 9  150 260 
                                                                                
