 2017  628 2045 21.6 L   6.773 -73.113144.6  RSN  5 0.3 1.8LRSN                1
 GAP=257        0.65       9.1     5.3  6.4 -0.1842E+02  0.1043E+02  0.2052E+01E
 Epicentro: LOS SANTOS - SANTANDER                                             3
 ACTION:UPD 17-09-14 16:56 OP:jn   STATUS:               ID:20170628204521 L   I
 OLDACT:UP  17-06-29 03:53 OP:dnl  STATUS:               ID:20170628203530     3
 OLDACT:REG 17-06-29 03:45 OP:dnl  STATUS:               ID:20170628203530     3
 2017-06-28-2038-00M.COL___367                                                 6
 STAT SP IPHASW D HRMM SECON CODA AMPLIT PERI AZIMU VELO AIN AR TRES W  DIS CAZ7
 BAR2 EZ EP       2045 41.35                             171    0.2710 21.5 201 
 BAR2 EZ ES       2045 56.06                             171   -0.1910 21.5 201 
 BAR2 EZ I        2045 57.87        12.1 0.38            163           21.5 201 
 BRR  HZ EP   2   2045 43.18                             151    0.26 5 75.8 299 
 BRR  HE ES   4   2046  0.80                             151    1.28 0 75.8 299 
 BRR  HZ I        2046  1.29        22.2 0.32            151           75.8 299 
 PTB  HZ EP       2045 48.37                             131   -0.41 9  151 260 
 PTB  HN IS       2046 10.22                             131    0.26 9  151 260 
 PTB  HZ I        2046 16.73         6.7 0.46            130            151 260 
 NOR  HZ EP   2   2045 56.81                             118   -0.62 4  236 236 
 NOR  HE ES       2046 25.36                             118    0.01 8  236 236 
 NOR  HZ I        2046 29.02         5.7 0.26            118            236 236 
 CHI  HZ EP   2   2045 59.54                             117    0.48 4  247 196 
 CHI  HN ES   4   2046 30.23                             117    1.98 0  247 196 
 CHI  HZ I        2046 34.41         2.4 0.60            117            247 196 
                                                                                
