 2016  228 2117  7.0 L   6.798 -73.161147.1  RSN  7 0.2 1.9LRSN                1
 GAP=135        0.57       2.3     2.5  3.8  0.6862E-02  0.2795E+01  0.4530E+00E
 Epicentro: LOS SANTOS - SANTANDER                                             3
 ACTION:UPD 16-03-04 21:30 OP:rebc STATUS:               ID:20160228211707 L   I
 OLDACT:REG 16-02-29 03:28 OP:cara STATUS:               ID:20160228210747     3
 2016-02-28-2107-47M.COL___322                                                 6
 STAT SP IPHASW D HRMM SECON CODA AMPLIT PERI AZIMU VELO AIN AR TRES W  DIS CAZ7
 BAR2 EZ EP       2117 26.68                             171   -0.1010 22.8 186 
 BAR2 EZ ES       2117 42.34                             171    0.1310 22.8 186 
 BAR2 EZ I        2117 44.59        18.9 0.22            172           22.8 186 
 PAM  EZ EP       2117 29.56                             151    0.1310 78.7  40 
 PAM  EN ES       2117 46.85                             151   -0.0810 78.7  40 
 PAM  EZ I        2117 48.95        22.0 0.44            152           78.7  40 
 RUS  HZ EP       2117 30.58                             144   -0.2910  100 175 
 RUS  HE ES       2117 49.61                             144    0.1210  100 175 
 RUS  HZ I        2117 50.70        14.4 0.32            147            100 175 
 PTB  HZ EP       2117 33.59                             133   -0.33 9  146 259 
 PTB  HN ES       2117 54.68                             133   -0.23 9  146 259 
 PTB  HZ I        2117 57.00         7.2 0.42            133            146 259 
 ZAR  HZ EP       2117 39.45                             123    0.08 9  203 292 
 ZAR  HN ES       2118  4.99                             123    0.36 9  203 292 
 ZAR  HZ I        2118 10.49         7.3 0.16            124            203 292 
 CHI  HZ IP       2117 45.10                             118    0.41 8  248 195 
 CHI  HZ I        2117 45.73         5.1 0.24            119            248 195 
 CHI  HN ES       2118 14.12                             118    0.02 8  248 195 
 GUY2CHZ EP   9   2117 52.07                             113    1.58 0  300 235 
 GUY2CHN ES       2118 26.24                                    0.24 7  300 235 
 GUY2CHZ I        2118 37.02         4.1 0.46                           300 235 
                                                                                
