 2015 1228 2157  0.2 L   6.796 -73.129150.7  RSN  7 0.3 1.6LRSN                1
 GAP=139        0.72       2.4     3.8  4.3  0.1206E+00  0.2972E+01  0.1523E+00E
 Epicentro: LOS SANTOS - SANTANDER                                             3
 ACTION:UPD 16-02-04 15:08 OP:cam  STATUS:               ID:20151228215700 L   I
 OLDACT:REG 15-12-29 04:49 OP:cara STATUS:               ID:20151228214746     3
 2015-12-28-2147-46M.COL___340                                                 6
 STAT SP IPHASW D HRMM SECON CODA AMPLIT PERI AZIMU VELO AIN AR TRES W  DIS CAZ7
 BAR2 EZ ES       2157 35.80                             171   -0.4110 23.3 195 
 BAR2 EZ I        2157 38.07         6.5 0.22            170           23.3 195 
 BRR  HZ EP       2157 22.18                             153    0.1810 73.0 298 
 BRR  HN ES       2157 39.48                             153    0.4810 73.0 298 
 BRR  HZ I        2157 45.57        16.4 0.44            152           73.0 298 
 PAM  EZ EP       2157 23.05                             152    0.1410 76.6  38 
 PAM  EN ES       2157 40.52                             152   -0.1010 76.6  38 
 PAM  EZ I        2157 43.26         5.8 0.36            156           76.6  38 
 RUS  HZ EP       2157 24.60                             145    0.1910  100 177 
 RUS  HN ES       2157 43.28                             145   -0.0110  100 177 
 RUS  HZ I        2157 44.17         5.4 0.30            147            100 177 
 PTB  HZ EP       2157 27.51                             133   -0.23 9  149 259 
 PTB  HN ES       2157 49.04                             133   -0.17 9  149 259 
 PTB  HZ I        2157 52.88         6.4 0.12            133            149 259 
 SML  HZ EP       2157 37.36                             118    0.11 8  245 335 
 SML  HN ES       2158  5.91                             118   -0.23 8  245 335 
 CHI  HZ EP       2157 37.71                             118   -0.48 8  249 196 
 CHI  HN ES       2158  8.24                             118    0.42 8  249 196 
 CHI  HZ I        2158 13.44         1.4 0.46            120            249 196 
                                                                                
