 2014  228 2208 34.9 L   6.758 -73.147146.7  RSN  7 0.3 1.7LRSN                1
 GAP=138        0.87       3.9     3.6  5.5 -0.7282E+00  0.6310E+01  0.1040E+01E
 Epicentro: LOS SANTOS - SANTANDER                                             3
 ACTION:UPD 14-03-10 08:14 OP:ep   STATUS:               ID:20140228220834 L   I
 OLDACT:REG 14-02-28 22:31 OP:carl STATUS:               ID:20140228215949     3
 2014-02-28-2159-49M.COL___236                                                 6
 STAT SP IPHASW D HRMM SECON CODA AMPLIT PERI AZIMU VELO AIN AR TRES W  DIS CAZ7
 BAR2 SZ EP       22 8 54.62                             172    0.0210 18.7 192 
 BAR2 SZ ES       22 9  9.72                             172   -0.2110 18.7 192 
 BAR2 SZ I        22 9 12.33        16.1 0.24            171           18.7 192 
 BRR  HZ EP       22 8 56.58                             152    0.2610 73.4 302 
 BRR  HN ES       22 9 13.75                             152    0.7610 73.4 302 
 PAM  SZ EP       22 8 57.34                             150   -0.1410 81.1  38 
 PAM  SN ES       22 9 14.77                             150   -0.2910 81.1  38 
 PAM  SZ I        22 9 16.75         9.7 0.20            154           81.1  38 
 RUS  HZ EP       22 8 58.56                             145    0.1010 96.0 176 
 RUS  HN ES       22 9 16.95                             145    0.1510 96.0 176 
 RUS  HZ I        22 9 18.62         3.5 0.30            148           96.0 176 
 PTB  HZ EP       22 9  1.57                             132   -0.33 9  147 261 
 PTB  HN ES       22 9 22.24                             132   -0.68 9  147 261 
 PTB  HZ I        22 9 28.42         8.2 0.24            133            147 261 
 ZAR  HZ EP       22 9  7.76                             122    0.14 8  206 293 
 ZAR  HN ES       22 9 33.00                             122   -0.10 8  206 293 
 ZAR  HZ I        22 9 38.93         6.5 0.32            123            206 293 
 NOR  HZ EP       22 9 10.65                             119    0.22 8  232 235 
 NOR  HN ES       22 9 38.20                             119    0.10 8  232 235 
 NOR  HZ I        22 9 42.42         4.0 0.24            120            232 235 
                                                                                
