 2017 1128 2204  0.3 L   6.800 -73.167140.4  RSN  8 0.5 1.7LRSN                1
 GAP=134        1.03       4.1     4.5  7.0 -0.1649E+01  0.1440E+02  0.1355E+01E
 Epicentro: LOS SANTOS - SANTANDER                                             3
 ACTION:UPD 17-12-12 20:01 OP:rebc STATUS:               ID:20171128220400 L   I
 OLDACT:UP  17-11-29 04:01 OP:osc  STATUS:               ID:20171128215739     3
 OLDACT:REG 17-11-29 03:29 OP:edw  STATUS:               ID:20171128215739     3
 2017-11-28-2158-00M.COL___498                                                 6
 STAT SP IPHASW D HRMM SECON CODA AMPLIT PERI AZIMU VELO AIN AR TRES W  DIS CAZ7
 BAR2 EZ ES       22 4 34.37                             170    0.3410 23.0 184 
 BAR2 EZ I        22 4 34.85        19.8 0.32            169           23.0 184 
 PAM  EZ EP       22 4 21.85                             149   -0.1410 78.9  41 
 PAM  EE ES       22 4 38.97                             149    0.0210 78.9  41 
 PAM  EZ I        22 4 41.12         9.0 0.70            153           78.9  41 
 RUS  HZ EP       22 4 23.10                             143   -0.3910  101 175 
 RUS  HN ES       22 4 41.45                             143   -0.1610  101 175 
 RUS  HZ I        22 4 43.46         7.3 0.26            144            101 175 
 PTB  HZ EP       22 4 25.75                             131   -0.82 9  145 259 
 PTB  HN ES       22 4 46.70                             131   -0.40 9  145 259 
 PTB  HZ I        22 4 51.42         3.7 0.16            132            145 259 
 ZAR  HZ EP       22 4 32.63                             121    0.50 9  202 292 
 ZAR  HE ES       22 4 57.41                             121    0.42 9  202 292 
 NOR  HZ EP       22 4 35.48                             118    0.02 8  233 234 
 NOR  HE ES       22 5  2.98                             118    0.05 8  233 234 
 NOR  HZ I        22 5 10.06         2.8 0.24            119            233 234 
 CHI  HN ES       22 5  7.35                             116    0.65 8  248 195 
 GUY2CHZ EP       22 4 44.06                             111    0.66 7  299 235 
 GUY2CHZ ES   3   22 5 14.94                             111   -2.11 2  299 235 
 GUY2CHZ I        22 5 25.17         2.3 0.30                           299 235 
                                                                                
