 2011  428 2218 30.2 L   6.790 -73.108155.8  RSN  6 0.5 1.7LRSN                1
 GAP=142        1.11       7.7    12.2 12.5 -0.1092E+02 -0.2594E+02 -0.1017E+02E
 Epicentro: LOS SANTOS - SANTANDER                                             3
 ACTION:UP  11-06-22 15:33 OP:REBC STATUS:               ID:20110428221830 L   I
 2011-04-28-2213-36S.COL___138                                                 6
 STAT SP IPHASW D HRMM SECON CODA AMPLIT PERI AZIMU VELO SNR AR TRES W  DIS CAZ7
 BAR2 SZ EP   2   2218 50.99                             171    -0.1 5   23 200 
 BAR2 SZ I        2218 51.72         6.4 0.11                            23 200 
 BRR  HZ EP   1   2218 51.79                             153    -0.9 7   75 298 
 BRR  HZ I        2218 53.23        13.5 0.43                            75 298 
 BRR  HN ES   1   2219 10.70                             153     0.5 7   75 298 
 PAM  SZ EP   1   2218 53.56                             153     0.1 7   76  37 
 PAM  SN ES   1   2219 11.23                             153    -0.3 7   76  37 
 PAM  SZ I        2219 13.10         5.7 0.21                            76  37 
 RUS  HZ EP   1   2218 55.27                             146     0.4 7   99 178 
 RUS  HN ES   1   2219 13.97                             146    -0.2 7   99 178 
 BRI  SZ EP   1   2218 55.77                             144     0.7 7  108  19 
 GRA  SZ EP   1   2218 56.04                             139    -0.3 7  126  16 
 GRA  SZ I        2219 23.76        13.8 0.34                           126  16 
                                                                                
