 2010  728 2248 20.7 L   6.819 -73.046145.2  RSN  7 0.3 1.7LRSN                1
 GAP=170        0.64       3.7     7.2  6.7 -0.7185E+01 -0.6579E+01 -0.3252E+01E
 Epicentro: LOS SANTOS - SANTANDER                                             3
 ACTION:UPD 10-12-01 15:20 OP:pat  STATUS:               ID:20100728224820 L   I
 2010-07-28-2244-30S.COL___123                                                 6
 STAT SP IPHASW D HRMM SECON CODA AMPLIT PERI AZIMU VELO AIN AR TRES W  DIS CAZ7
 BAR2 SZ ES   2   2248 55.97                             168     0.2 5   29 211 
 BAR2 SZ I        2248 57.74         9.6 0.19                            29 211 
 BRR  HZ IP     C 2248 42.16                             149    -0.210   80 293 
 BRR  HZ I        2248 42.68        18.6 0.12                            80 293 
 BRR  HE ES   1   2248 59.31                             149     0.1 7   80 293 
 RUS  HZ EP   2   2248 44.12                             143    -0.4 5  103 182 
 RUS  HN ES   1   2249  3.13                             143     0.0 7  103 182 
 RUS  HZ I        2249  5.21         4.0 0.23                           103 182 
 GUE  SZ EP       2248 45.19                             140     0.110  113   7 
 GUE  SZ I        2248 46.77         2.9 0.12                           113   7 
 GRA  SZ EP   1   2248 45.97                             138     0.5 7  121  13 
 GRA  SZ ES   1   2249  4.61                             138    -0.2 7  121  13 
 GRA  SZ I        2249  6.99         8.2 0.38                           121  13 
 OCA  SZ EP   2   2248 48.83                             129    -0.1 5  160 349 
 OCA  SZ I        2249 13.99         8.8 0.35                           160 349 
 PRA  HZ EP   2   2249 14.49                             106    -0.6 3  399 211 
 PRA  HN ES   2   2249 58.41                             106     0.9 3  399 211 
 PRA  HZ I        2250  0.07         2.5 0.44                           399 211 
                                                                                
