 2010  428 2116  1.9 L   6.753 -72.997136.4  RSN 12 0.5 2.4LRSN                1
 GAP=151        1.10       5.6     7.3  7.7 -0.2787E+02 -0.2174E+02  0.2054E+02E
 Epicentro: CEPITA - SANTANDER                                                 3
 ACTION:UPD 10-08-24 10:01 OP:vdl  STATUS:               ID:20100428211601 L   I
 2010-04-28-2111-48S.COL___104                                                 6
 STAT SP IPHASW D HRMM SECON CODA AMPLIT PERI AZIMU VELO SNR AR TRES W  DIS CAZ7
 BAR2 SZ EP   1   2116 20.58                             168     0.1 7   27 229 
 BAR2 SZ ES   1   2116 34.63                             168    -0.3 7   27 229 
 BRR  HZ EP       2116 22.89                             146    -0.210   88 296 
 BRR  HE ES       2116 39.48                             146    -0.210   88 296 
 BRR  HZ I        2116 40.86        58.5 0.07                            88 296 
 BRI  SZ EP       2116 25.13                             140     0.210  109  12 
 BRI  SZ ES   1   2116 43.43                             140     0.5 7  109  12 
 GUE  SZ EP       2116 26.59                             137     0.610  119   4 
 GUE  SZ ES   1   2116 45.51                             137     0.7 7  119   4 
 GRA  SZ ES   2   2116 44.43                             135    -1.1 5  127  10 
 OCA  SZ EP   1   2116 29.54                             127    -0.7 7  168 348 
 OCA  SZ I        2116 52.58        37.5 0.34                           168 348 
 CHI  HZ EP   1   2116 39.50                             115     0.4 6  249 199 
 CHI  HN ES   1   2117  8.32                             115     0.3 6  249 199 
 CHI  HZ I        2117 11.81        10.5 1.38                           249 199 
 HEL  HZ EP   1   2116 42.96                             112    -0.3 6  287 258 
 HEL  HZ I        2117 18.06        10.9 0.61                           287 258 
 RREF BZ EP       2116 49.31                             109     0.6 7  331 232 
 RREF BN ES   1   2117 24.94                             109    -0.3 5  331 232 
 RREF BZ I        2117 32.15        11.6 0.44                           331 232 
 SDV  BZ EP       2116 50.39                             107    -0.1 6  351  48 
 SDV  BN ES       2117 27.51                             107    -1.0 6  351  48 
 SDV  BZ I        2117 31.57         6.7 0.06                           351  48 
 TOL  SZ EP   1   2116 50.90                             107     0.2 5  352 227 
 PRA  HZ EP   1   2116 55.48                             105    -0.1 4  396 212 
 PRA  HN ES   1   2117 36.56                             105    -0.9 4  396 212 
 PRA  HZ I        2117 42.53         8.0 0.72                           396 212 
                                                                                
