 2011  428 2138 59.9 L   6.785 -73.110150.4  RSN  8 0.3 2.1LRSN                1
 GAP=142        0.73       4.0     5.9  6.1 -0.1053E+02  0.7153E+01 -0.1713E+01E
 Epicentro: LOS SANTOS - SANTANDER                                             3
 ACTION:UP  11-06-22 15:33 OP:REBC STATUS:               ID:20110428213859 L   I
 2011-04-28-2136-26S.COL___139                                                 6
 STAT SP IPHASW D HRMM SECON CODA AMPLIT PERI AZIMU VELO SNR AR TRES W  DIS CAZ7
 BAR2 SZ EP   1   2139 20.19                             171     0.1 7   23 201 
 BAR2 SZ ES   1   2139 35.27                             171    -0.6 7   23 201 
 BAR2 SZ I        2139 38.08        43.8 0.29                            23 201 
 BTL  SZ EP   1   2139 20.49                             171     0.4 7   23 310 
 PAM  SZ EP   1   2139 22.90                             152     0.3 7   76  36 
 PAM  SN ES   1   2139 39.90                             152    -0.3 7   76  36 
 PAM  SZ I        2139 42.50        12.7 0.51                            76  36 
 BRR  HZ EP   1   2139 21.85                             152     0.0 7   76 298 
 BRR  HN ES   1   2139 39.24                             152     0.4 7   76 298 
 BRR  HZ I        2139 43.07        28.4 0.15                            76 298 
 RUS  HZ EP   1   2139 23.97                             145     0.0 7   99 178 
 RUS  HN ES   1   2139 42.96                             145     0.2 7   99 178 
 RUS  HZ I        2139 44.38        20.0 0.32                            99 178 
 GRA  SZ EP   1   2139 25.71                             138     0.1 7  126  16 
 GRA  SZ ES   1   2139 45.83                             138     0.2 7  126  16 
 GRA  SZ I        2139 48.52        25.2 0.35                           126  16 
 OCA  SZ EP   1   2139 28.17                             130    -0.6 7  162 352 
 NOR  SZ EP   1   2139 35.87                             119    -0.3 6  237 235 
 NOR  SN ES   1   2140  4.36                             119    -0.1 6  237 235 
                                                                                
