 2015 1228 2140 31.0 L   6.788 -73.170146.0  RSN  5 0.2 1.6LRSN                1
 GAP=134        0.63       2.7     3.0  5.9  0.2405E+00  0.4673E+01  0.3817E+01E
 Epicentro: LOS SANTOS - SANTANDER                                             3
 ACTION:UPD 16-02-04 15:08 OP:cam  STATUS:               ID:20151228214031 L   I
 OLDACT:REG 15-12-29 04:49 OP:cara STATUS:               ID:20151228213749     3
 2015-12-28-2137-49M.COL___340                                                 6
 STAT SP IPHASW D HRMM SECON CODA AMPLIT PERI AZIMU VELO AIN AR TRES W  DIS CAZ7
 PAM  EZ IP     C 2140 53.60                             150    0.2110 80.1  40 
 PAM  EN ES       2141 10.83                             150   -0.0310 80.1  40 
 PAM  EZ I        2141 12.73         5.7 0.54            156           80.1  40 
 RUS  HZ EP       2140 54.21                             144   -0.4710 99.5 174 
 RUS  HN ES       2141 13.29                             144    0.1310 99.5 174 
 RUS  HZ I        2141 14.14         4.8 0.28            147           99.5 174 
 PTB  HZ EP       2140 57.49                             133   -0.22 9  145 259 
 PTB  HN ES       2141 18.43                             133   -0.12 9  145 259 
 PTB  HZ I        2141 26.04         6.9 0.32            133            145 259 
 ZAR  HE ES       2141 28.62                             123    0.22 9  202 293 
 ZAR  HZ I        2141 34.15         6.0 0.34            124            202 293 
 CHI  HZ EP       2141  8.74                             117    0.26 8  247 195 
 CHI  HN ES       2141 37.96                             117    0.23 8  247 195 
 CHI  HZ I        2141 43.45         1.7 0.22            120            247 195 
                                                                                
