 2014  328 2328 18.7 L   6.793 -73.133146.6  RSN 11 0.4 2.0LRSN                1
 GAP=139        0.90       2.7     3.5  5.5 -0.6926E+00  0.4353E+01  0.1013E+01E
 Epicentro: LOS SANTOS - SANTANDER                                             3
 OLDACT:REG 14-03-29 00:47 OP:fm   STATUS:               ID:20140328232738     3
 ACTION:UPD 14-04-09 23:21 OP:nd   STATUS:               ID:20140328232818 L   I
 OLDACT:UP  14-03-29 01:32 OP:fm   STATUS:               ID:20140328232738     3
 2014-03-28-2327-38M.COL___250                                                 6
 STAT SP IPHASW D HRMM SECON CODA AMPLIT PERI AZIMU VELO AIN AR TRES W  DIS CAZ7
 BAR2 SZ EP       2328 38.13                             171   -0.2810 22.9 194 
 BAR2 SZ ES   1   2328 53.43                             171   -0.37 7 22.9 194 
 BAR2 SZ I        2328 54.37        32.6 0.38            168           22.9 194 
 BRR  HZ IP     C 2328 40.29                             152    0.2710 72.8 298 
 BRR  HN ES       2328 57.42                             152    0.7610 72.8 298 
 BRR  SZ I        2329  0.42        11.3 0.22            150           72.8 298 
 PAM  SZ EP     C 2328 41.18                             151    0.2110 77.0  38 
 PAM  SN ES       2328 58.23                             151   -0.1310 77.0  38 
 PAM  SZ I        2329  0.06         7.9 0.24            155           77.0  38 
 RUS  HZ EP       2328 42.67                             144    0.2110 99.7 177 
 RUS  HN ES       2329  1.05                             144    0.0410 99.7 177 
 RUS  SZ I        2329  2.02         9.8 0.36            145           99.7 177 
 PTB  HZ EP       2328 45.12                             132   -0.72 9  149 259 
 PTB  HN ES       2329  6.70                             132   -0.32 9  149 259 
 PTB  SZ I        2329 12.40         7.9 0.28            131            149 259 
 SPBC HZ EP   1   2328 46.85                             129   -0.43 7  164 220 
 SPBC HE ES       2329  9.38                             129   -0.21 9  164 220 
 SPBC SZ I        2329 11.86        15.9 0.24            129            164 220 
 ZAR  HZ EP   1   2328 52.00                             122    0.65 6  206 292 
 ZAR  HE ES       2329 16.72                             122   -0.12 8  206 292 
 ZAR  SZ I        2329 23.42        11.1 0.22            122            206 292 
 NOR  HZ EP   4   2328 52.50                             119   -2.04 0  235 235 
 NOR  HN ES       2329 22.32                             119   -0.20 8  235 235 
 NOR  SZ I        2329 27.59         7.3 0.18            119            235 235 
 SML  HZ EP   1   2328 55.29                             118   -0.21 6  245 335 
 SML  HN ES       2329 23.96                             118   -0.25 8  245 335 
 SML  SZ I        2329 26.95        21.9 0.08            118            245 335 
 CHI  HZ EP       2328 56.75                             117    0.36 8  248 196 
 CHI  HN ES       2329 26.02                             117    0.21 8  248 196 
 CHI  SZ I        2329 36.63         5.9 1.66            118            248 196 
 GUY2CHZ EP   4   2329  5.28                             112    2.86 0  302 235 
 GUY2CHN ES   1   2329 37.34                             112    0.81 5  302 235 
 GUY2CSZ I        2329 45.20         4.2 0.88                           302 235 
                                                                                
