 2011  728 2316 10.0 L   6.780 -73.101143.0  RSN  5 0.2 1.8LRSN                1
 GAP=143        0.40       2.3     4.0  4.0 -0.2293E+01 -0.1382E+01  0.1398E+00E
 Epicentro: LOS SANTOS - SANTANDER                                             3
 ACTION:UPD 12-07-25 14:04 OP:epov STATUS:               ID:20110728231610 L   I
 2011-07-28-2300-00M.COL___139                                                 6
 STAT SP IPHASW D HRMM SECON CODA AMPLIT PERI AZIMU VELO AIN AR TRES W  DIS CAZ7
 BAR2 SZ EP   1   2316 29.31                             171    0.03 7 22.6 203 
 BAR2 SZ ES   1   2316 44.17                             171   -0.15 7 22.6 203 
 BAR2 SZ I        2316 45.50        21.0 0.19                          22.6 203 
 PAM  SZ EP   1   2316 32.03                             151    0.18 7 76.1  36 
 PAM  SN ES   1   2316 49.11                             151    0.22 7 76.1  36 
 BRR  HZ EP   1   2316 30.98                             150   -0.19 7 76.6 298 
 BRR  HE ES   1   2316 47.88                             150    0.21 7 76.6 298 
 BRR  HZ I        2316 50.43        14.6 0.20                          76.6 298 
 RUS  HZ EP   1   2316 33.31                             144    0.01 7 98.2 179 
 RUS  HN ES   1   2316 51.47                             144   -0.01 7 98.2 179 
 RUS  HZ I        2316 53.21        10.6 0.24                          98.2 179 
 BRI  SZ EP   1   2316 33.67                             141    0.01 7  109  18 
 BRI  SZ ES   1   2316 51.81                             141   -0.31 7  109  18 
 BRI  SZ I        2316 57.12         8.3 0.44                           109  18 
                                                                                
