 2013  428 2320 50.2 L   6.794 -73.107138.9  RSN 11 0.4 2.3LRSN                1
 GAP=142        0.97       3.7     4.7  6.1 -0.3828E+01  0.1035E+02  0.2901E+01E
 Epicentro: LOS SANTOS - SANTANDER                                             3
 ACTION:UPD 13-05-22 14:41 OP:EP   STATUS:               ID:20130428232050 L   I
 2013-04-28-2318-35M.COL___211                                                 6
 STAT SP IPHASW D HRMM SECON CODA AMPLIT PERI AZIMU VELO AIN AR TRES W  DIS CAZ7
 GUY2CHZ EP       2321 34.66                             110                    
 GUY2CHN ES       2322  8.62                             110                    
 BAR2 SZ IP     C 2321  9.01                             170   -0.0510 23.9 201 
 BAR2 SZ ES       2321 23.43                             170   -0.3110 23.9 201 
 BAR2 SZ I        2321 24.92        26.9 0.26            171           23.9 201 
 GIR2 SZ EP       2321  9.12                             166   -0.0210 32.9 343 
 PAM  SZ IP     C 2321 12.06                             150    0.4610 75.2  37 
 PAM  SZ I        2321 12.20        23.3 0.26            152           75.2  37 
 PAM  SN ES       2321 28.63                             150    0.3710 75.2  37 
 BRR  HZ IP     D 2321 10.93                             150    0.0310 75.3 297 
 BRR  HN ES       2321 27.51                             150    0.5010 75.3 297 
 BRR  HN I        2321 32.00        42.9 0.14            149           75.3 297 
 RUS  HZ EP       2321 13.49                             143    0.2310 99.8 179 
 RUS  HN ES       2321 30.88                             143   -0.3410 99.8 179 
 RUS  HN I        2321 33.06        24.4 0.36            146           99.8 179 
 PTB  HZ EP   4   2321 15.81                             129   -1.23 0  152 259 
 PTB  HN ES   4   2321 35.88                             129   -2.07 0  152 259 
 PTB  HN I        2321 39.13        34.4 0.32            131            152 259 
 OCA  HN ES       2321 38.91                             128   -0.99 9  161 352 
 OCA  HN I        2321 44.26       104.0 0.26            129            161 352 
 NOR  HZ EP       2321 25.73                             117   -0.19 8  238 235 
 NOR  HE ES       2321 53.54                             117   -0.22 8  238 235 
 HEL  HZ EP       2321 30.80                             113    0.24 7  276 256 
 HEL  HN ES       2322  2.37                             113    0.35 7  276 256 
 PRA  HZ EP       2321 43.37                             105   -0.35 6  394 210 
                                                                                
