 2014 1228 2014 22.9 L   6.837 -73.146149.3  RSN  6 0.5 1.5LRSN                1
 GAP=183        1.21       5.2     7.1  9.6  0.4905E+00  0.1101E+02  0.2647E+01E
 Epicentro: LOS SANTOS - SANTANDER                                             3
 ACTION:UPD 15-02-10 17:07 OP:nd   STATUS:               ID:20141228201422 L   I
 OLDACT:DUP 14-12-29 04:06 OP:fm   STATUS:               ID:20141228200749d    3
 2014-12-28-2007-48M.COL___265                                                 6
 STAT SP IPHASW D HRMM SECON CODA AMPLIT PERI AZIMU VELO AIN AR TRES W  DIS CAZ7
 BAR2 EZ EP       2014 42.57                             169   -0.4710 27.3 188 
 BAR2 EZ ES       2014 58.98                             169    0.2310 27.3 188 
 BAR2 EZ I        2014 59.84         6.9 0.18            171           27.3 188 
 BRR  HZ EP       2014 44.64                             154    0.3210 69.3 296 
 BRR  HE ES       2015  1.74                             154    0.7010 69.3 296 
 BRR  HZ I        2015  6.27         9.6 0.70            152           69.3 296 
 RUS  HZ EP       2014 47.88                             143    0.6010  105 176 
 RUS  HN ES       2015  5.80                             143   -0.5110  105 176 
 RUS  HZ I        2015  7.46         4.3 0.24            147            105 176 
 PTB  HZ EP       2014 50.47                             133    0.25 9  149 257 
 PTB  HE ES       2015 11.09                             133   -0.45 9  149 257 
 PTB  HZ I        2015 14.74         2.2 0.38            134            149 257 
 OCA  HE ES       2015 12.49                             131   -0.63 9  156 353 
 OCA  HZ I        2015 17.12         3.3 0.12            132            156 353 
 NOR  HE ES       2015 27.06                             119   -0.24 8  237 234 
 NOR  HZ I        2015 29.43         1.7 0.18            121            237 234 
                                                                                
