 2013  228 2215  1.0 L   6.712 -73.208144.0  RSN  5 0.3 2.0LRSN                1
 GAP=220        0.76       7.5     8.5  7.7  0.5103E+02  0.8136E+01  0.1747E+01E
 Epicentro: VILLANUEVA - SANTANDER                                             3
 ACTION:UPD 13-03-12 09:36 OP:ep   STATUS:               ID:20130228221501 L   I
 2013-02-28-2210-00M.COL___228                                                 6
 STAT SP IPHASW D HRMM SECON CODA AMPLIT PERI AZIMU VELO AIN AR TRES W  DIS CAZ7
 BAR2 SZ ES   1   2215 35.29                             174    0.02 7 13.6 168 
 BRR  HZ EP       2215 21.41                             152   -0.5210 70.8 308 
 BRR  HN ES       2215 38.38                             152    0.1210 70.8 308 
 BRR  HN I        2215 42.86        22.6 0.14            155           70.8 308 
 RUS  HZ EP       2215 24.21                             146    0.2710 91.7 171 
 RUS  HN ES       2215 41.85                             146    0.0010 91.7 171 
 RUS  HN I        2215 45.12         8.3 0.36            149           91.7 171 
 PTB  HN ES   2   2215 46.73                             133   -0.67 5  139 262 
 ZAR  HN ES       2215 58.47                             122    0.36 9  202 295 
 ZAR  HN I        2215 59.30        11.5 0.12            126            202 295 
                                                                                
