 2013 1228 2034 44.6 L   6.788 -73.125147.1  RSN  5 0.5 1.8LRSN                1
 GAP=140        1.06       8.9    18.5 10.7  0.1333E+03 -0.8081E+02 -0.4654E+02E
 Epicentro: LOS SANTOS - SANTANDER                                             3
 ACTION:UPD 14-01-13 10:22 OP:ep   STATUS:               ID:20131228203444 L   I
 OLDACT:REG 13-12-28 21:42 OP:cam  STATUS:               ID:20131228203000     3
 2013-12-28-2030-00M.COL___285                                                 6
 STAT SP IPHASW D HRMM SECON CODA AMPLIT PERI AZIMU VELO AIN AR TRES W  DIS CAZ7
 BAR2 SZ ES       2035 19.73                             170   -0.0210 22.6 196 
 BAR2 SZ I        2035 20.17        16.6 0.34            170           22.6 196 
 BRR  HZ EP       2035  6.24                             151    0.2410 73.9 299 
 BRR  HE ES       2035 23.15                             151    0.4210 73.9 299 
 BRR  HZ I        2035 23.92         9.8 0.18            151           73.9 299 
 PAM  SZ EP   2   2035  7.50                             152    0.61 5 77.0  38 
 RUS  HZ EP       2035  8.61                             144    0.2810 99.1 177 
 RUS  HE ES       2035 26.29                             144   -0.5910 99.1 177 
 SML  HE ES       2035 49.53                             117   -0.77 8  246 335 
                                                                                
