 2015  928 2057 12.9 L   6.791 -73.182138.3  RSN  8 0.4 1.8LRSN                1
 GAP=132        0.95       3.8     4.1  7.3  0.1665E+01  0.5076E+01 -0.1363E+01E
 Epicentro: LOS SANTOS - SANTANDER                                             3
 ACTION:UPD 15-10-28 16:28 OP:cam  STATUS:               ID:20150928205712 L   I
 OLDACT:REG 15-09-29 04:06 OP:mh   STATUS:               ID:20150928204750     3
 2015-09-28-2047-50M.COL___358                                                 6
 STAT SP IPHASW D HRMM SECON CODA AMPLIT PERI AZIMU VELO AIN AR TRES W  DIS CAZ7
 BAR2 EZ EP       2057 31.94                             171    0.3210 22.0 180 
 BAR2 EZ I        2057 48.10        16.6 0.28            170           22.0 180 
 BRR  HZ EP       2057 33.54                             152    0.4510 68.2 301 
 BRR  HN ES       2057 49.30                             152    0.4810 68.2 301 
 BRR  HZ I        2057 54.48        19.5 0.30            152           68.2 301 
 PAM  EZ EP       2057 34.65                             148    0.1010 80.7  41 
 PAM  EN ES       2057 51.34                             148   -0.0910 80.7  41 
 PAM  EZ I        2057 53.89        12.2 0.50            151           80.7  41 
 RUS  HZ EP       2057 35.91                             142    0.0210100.0 174 
 RUS  HE ES       2057 53.20                             142   -0.6210100.0 174 
 RUS  HZ I        2057 56.05         4.5 0.44            143          100.0 174 
 PTB  HZ EP   1   2057 38.81                             131   -0.09 7  144 259 
 PTB  HN ES       2057 59.23                             131    0.05 9  144 259 
 PTB  HZ I        2058  5.34         6.4 0.32            131            144 259 
 ZAR  HZ EP   4   2057 46.67                             121    2.13 0  201 293 
 ZAR  HN ES       2058  8.66                             121   -0.54 9  201 293 
 ZAR  HZ ES       2058  9.53                             121            201 293 
 ZAR  HZ I        2058 14.44         8.8 0.30            122            201 293 
 SML  HZ EP   1   2057 48.23                             116   -0.82 6  243 336 
 SML  HN ES       2058 16.96                             116   -0.27 8  243 336 
 SML  HZ I        2058 19.93        11.5 0.31            117            243 336 
 GUY2CHZ EP   1   2057 56.42                             111    0.67 5  297 234 
 GUY2CHN ES   4   2058 31.74                             111    2.57 0  297 234 
 GUY2CHZ I        2058 39.03         3.8 0.38                           297 234 
                                                                                
