 2017  528 2252 16.7 L   6.791 -73.160152.0  RSN  4 0.1 1.1LRSN                1
 GAP=235        0.37       3.1     3.3  3.6  0.6211E+01 -0.1005E+01 -0.1266E+01E
 Epicentro: LOS SANTOS - SANTANDER                                             3
 ACTION:UPD 17-06-16 13:39 OP:jn   STATUS:               ID:20170528225216 L   I
 OLDACT:REG 17-05-29 02:59 OP:edw  STATUS:               ID:20170528224739     3
 2017-05-28-2248-00M.COL___344                                                 6
 STAT SP IPHASW D HRMM SECON CODA AMPLIT PERI AZIMU VELO AIN AR TRES W  DIS CAZ7
 BRR  HZ EP       2252 38.54                             154    0.0210 70.3 300 
 BRR  HN ES       2252 55.49                             154   -0.0110 70.3 300 
 RUS  HZ EP       2252 40.91                             145   -0.1410 99.7 175 
 RUS  HN ES       2253  0.13                             145    0.1210 99.7 175 
 RUS  HZ I        2253  0.54         2.2 0.34            141           99.7 175 
 PTB  HZ EP       2252 43.98                             134   -0.09 9  146 259 
 PTB  HN ES       2253  5.37                             134   -0.02 9  146 259 
 PTB  HZ I        2253 11.41         1.7 0.42            129            146 259 
 ZAR  HZ EP   2   2252 49.97                             124    0.48 4  203 293 
 ZAR  HN ES   2   2253 15.09                             124    0.05 4  203 293 
                                                                                
