 2013 1228 2021 35.9 L   6.806 -73.154148.6  RSN 19 0.5 4.0LRSN 4.1WRSN        1
 SPEC AVERAGE  MO 15.2 ST388.4 OM  3.8 f0 5.32 R0.4625 AL 0.00 WI 30.7 MW  4.1 3
 SPEC SD       MO  0.2 ST408.5 OM  0.4 f0 3.38 R0.2763 AL      WI      MW  0.1 3
 GAP= 70        1.07       2.7     3.3  5.4 -0.3981E+00  0.4891E+01  0.3829E+00E
 Epicentro: LOS SANTOS - SANTANDER                                             3
 SPEC CHI HH N MO 15.4 ST 32.1 OM  3.5 f0 2.29 R0.6786 AL 0.00 WI 49.9 MW  4.2 3
 SPEC CHI HH N T202240 K 0.000 GD  289 VS 4.20 DE 3.20 Q0300.0 QA 0.60 VS 4.20 3
 SPEC SML HH E MO 14.8 ST829.1 OM  3.0 f0 10.0 R0.1554 AL 0.00 WI 38.7 MW  3.8 3
 SPEC SML HH E T202240 K 0.000 GD  284 VS 4.20 DE 3.20 Q0300.0 QA 0.60 VS 4.20 3
 SPEC SPBCHH N MO 15.2 ST999.9 OM  3.5 f0 10.0 R0.1554 AL 0.00 WI 28.2 MW  4.1 3
 SPEC SPBCHH N T202225 K 0.000 GD  220 VS 4.20 DE 3.20 Q0300.0 QA 0.60 VS 4.20 3
 SPEC OCA HH N MO 15.4 ST859.9 OM  3.7 f0 6.47 R0.2402 AL 0.00 WI 55.2 MW  4.2 3
 SPEC OCA HH N T202225 K 0.000 GD  217 VS 4.20 DE 3.20 Q0300.0 QA 0.60 VS 4.20 3
 SPEC TAM HH N MO 15.1 ST 11.9 OM  3.4 f0 1.96 R0.7929 AL 0.00 WI 23.5 MW  4.0 3
 SPEC TAM HH N T202225 K 0.000 GD  215 VS 4.20 DE 3.20 Q0300.0 QA 0.60 VS 4.20 3
 SPEC PTB HH N MO 14.8 ST336.3 OM  3.1 f0 7.60 R0.2045 AL 0.00 WI 18.2 MW  3.8 3
 SPEC PTB HH N T202224 K 0.000 GD  209 VS 4.20 DE 3.20 Q0300.0 QA 0.60 VS 4.20 3
 SPEC RUS HH N MO 15.2 ST 19.0 OM  3.6 f0 2.09 R0.7435 AL 0.00 WI 12.3 MW  4.1 3
 SPEC RUS HH N T202217 K 0.000 GD  179 VS 4.20 DE 3.20 Q0300.0 QA 0.60 VS 4.20 3
 SPEC PAM SH N MO 15.2 ST 18.8 OM  3.6 f0 2.13 R0.7296 AL 0.00 WI 19.4 MW  4.1 3
 SPEC PAM SH N T202215 K 0.000 GD  167 VS 4.20 DE 3.20 Q0300.0 QA 0.60 VS 4.20 3
 ACTION:UPD 14-01-13 10:22 OP:ep   STATUS:               ID:20131228202135 L   I
 OLDACT:UP  13-12-28 22:13 OP:cam  STATUS:               ID:20131228202000     3
 OLDACT:UP  13-12-28 22:11 OP:cam  STATUS:               ID:20131228202000     3
 OLDACT:UP  13-12-28 22:08 OP:cam  STATUS:               ID:20131228202000     3
 OLDACT:REG 13-12-28 21:42 OP:cam  STATUS:               ID:20131228202000     3
 2013-12-28-2020-00M.COL___285                                                 6
 STAT SP IPHASW D HRMM SECON CODA AMPLIT PERI AZIMU VELO AIN AR TRES W  DIS CAZ7
 BAR2 SZ IP     D 2021 55.95                             170    0.0510 23.9 187 
 BAR2 SZ ES       2022 11.88                             170    0.4010 23.9 187 
 BAR2 SZ I        2022 12.75      2775.5 0.26            169           23.9 187 
 BRR  HZ IP     C 2021 57.84                             153    0.5310 70.0 298 
 BRR  HZ I        2022 19.10      1314.2 0.18            146           70.0 298 
 PAM  SZ IP     C 2021 58.73                             151    0.2910 77.5  40 
 PAM  SN ES       2022 16.02                             151    0.0210 77.5  40 
 PAM  SZ I        2022 18.26      2412.1 0.60            150           77.5  40 
 RUS  HZ IP     C 2021 59.74                             144   -0.2610  101 176 
 RUS  HN ES       2022 18.21                             144   -0.5810  101 176 
 RUS  HZ I        2022 19.55      1178.0 0.36            144            101 176 
 PTB  HZ EP       2022  2.40                             133   -0.64 9  147 258 
 PTB  HN ES       2022 23.79                             133   -0.41 9  147 258 
 PTB  HZ I        2022 29.89      1165.6 0.30            127            147 258 
 TAM  HZ IP     C 2022  4.08                             131    0.16 9  156 105 
 TAM  HN ES       2022 25.93                             131    0.16 9  156 105 
 TAM  HZ I        2022 26.62       462.8 0.50            131            156 105 
 OCA  HZ EP       2022  4.24                             130   -0.13 9  159 353 
 OCA  HN ES       2022 26.21                             130   -0.35 9  159 353 
 OCA  HZ I        2022 31.92      1728.1 0.32            126            159 353 
 SPBC HZ EP       2022  4.64                             130    0.01 9  163 219 
 SPBC HN ES       2022 27.06                             130    0.04 9  163 219 
 SPBC HZ I        2022 29.84      2467.7 0.24            126            163 219 
 ZAR  HZ EP       2022  8.47                             123    0.04 9  203 292 
 ZAR  HE ES       2022 34.43                             123    0.64 9  203 292 
 ZAR  HZ I        2022 41.08      2120.3 0.32            118            203 292 
 NOR  HZ EP       2022 11.55                             119   -0.22 8  234 234 
 NOR  HN ES       2022 40.01                             119    0.27 8  234 234 
 NOR  HZ I        2022 47.84       856.5 0.44            116            234 234 
 SML  HZ EP       2022 12.28                             118   -0.31 8  243 335 
 SML  HE ES       2022 41.01                             118   -0.18 8  243 335 
 SML  HZ I        2022 48.32       946.3 0.28            114            243 335 
 CHI  HZ EP       2022 13.69                             118   -0.13 8  249 195 
 CHI  HN ES       2022 43.06                             118   -0.33 8  249 195 
 CHI  HZ I        2022 46.64       469.3 0.50            115            249 195 
 ROSC BZ EP       2022 15.56                             117    1.35 8  253 211 
 HEL  HZ EP   4   2022 18.18                             115    1.99 0  271 256 
 HEL  HZ I        2022 55.96       502.6 0.44            112            271 256 
 CVER SZ EP   4   2022 18.21                             115    1.75 0  272 202 
 URE  HZ EP       2022 16.43                             114   -0.57 7  283 292 
 GUY2CHZ EP       2022 20.50                             113    0.88 7  301 235 
 VIL  SZ EP       2022 18.82                             112   -0.70 7  304 191 
 PTGC HZ EP   4   2022 18.80                             112   -1.22 0  310 159 
 PTGC HN ES   4   2022 51.94                             112   -2.47 0  310 159 
 PTGC HZ I        2022 54.68       599.6 0.38            111            310 159 
 CBOC HZ EP   4   2022 24.17                             110    1.30 0  333 252 
 DBB  SZ EP   4   2022 23.50                             110    0.11 0  338 274 
 TOL  SZ EP   4   2022 25.50                             110    1.23 0  343 224 
 COD  HZ EP   4   2022 22.98                             109   -1.33 0  347 355 
 ARGC HZ EP   4   2022 25.88                             109    0.31 0  358 340 
 ORTC HZ EP   4   2022 29.99                             107    0.05 0  395 216 
 PAL  HZ EP   4   2022 31.69                             106    0.57 0  405 239 
 SJC  HZ EP   4   2022 29.51                             106   -1.93 0  408 327 
 SJC  HN ES   4   2023 11.35                             106   -3.40 0  408 327 
 SJC  HZ I        2023 16.75       181.0 0.38            104            408 327 
 LCBC HZ EP   4   2022 32.46                             106   -0.37 0  421 303 
 YOT  HZ EP   4   2022 38.33                             104   -0.68 0  472 229 
 PTA  HZ EP   4   2022 43.29                             102   -0.79 0  516 274 
 BET  SZ EP   4   2022 43.56                             102   -0.78 0  517 209 
 MACC HZ EP   4   2022 42.40                             102   -2.37 0  521 189 
 PCON HZ EP   4   2022 56.47                             100    0.12 0  612 216 
 POP2 HZ EP   4   2022 55.43                             100   -0.55 0  612 220 
 FLO2 HZ EP   4   2022 57.75                              99   -1.37 0  641 206 
 BBAC HZ EP   4   2023  6.40                              98    0.21 0  697 221 
                                                                                
