 2013  228 2255 59.7 L   6.830 -73.162138.9  RSN 12 0.5 2.8LRSN                1
 GAP= 69        1.05       2.9     3.5  5.8  0.3771E+00  0.4733E+01 -0.1642E+01E
 Epicentro: LOS SANTOS - SANTANDER                                             3
 ACTION:UPD 13-03-12 09:36 OP:ep   STATUS:               ID:20130228225559 L   I
 2013-02-28-2250-00M.COL___228                                                 6
 STAT SP IPHASW D HRMM SECON CODA AMPLIT PERI AZIMU VELO AIN AR TRES W  DIS CAZ7
 BAR2 SZ EP       2256 18.48                             169   -0.0610 26.4 185 
 BAR2 SZ ES       2256 33.05                             169   -0.2110 26.4 185 
 BAR2 SZ I        2256 34.37       201.4 0.30            167           26.4 185 
 BRR  HZ IP     D 2256 20.26                             152    0.3710 68.1 297 
 BRR  HN ES   4   2256 37.30                             152    1.63 0 68.1 297 
 PAM  SZ EP       2256 21.34                             150    0.2810 76.0  42 
 PAM  SN ES       2256 38.25                             150    0.4910 76.0  42 
 PAM  SN I        2256 39.46       123.5 0.70            147           76.0  42 
 RUS  HZ EP       2256 23.02                             141    0.0210  104 175 
 RUS  HN ES       2256 40.97                             141   -0.2410  104 175 
 RUS  HN I        2256 42.52        80.5 0.22            137            104 175 
 PTB  HZ EP   4   2256 24.98                             131   -1.00 0  147 257 
 PTB  HN ES       2256 46.30                             131   -0.21 9  147 257 
 PTB  HN I        2256 47.35       136.2 0.28            124            147 257 
 OCA  HZ EP       2256 26.64                             129   -0.47 9  157 354 
 OCA  HN ES       2256 48.39                             129   -0.13 9  157 354 
 TAM  HZ EP       2256 26.91                             128   -0.14 9  158 106 
 TAM  HE ES       2256 48.40                             128   -0.01 9  158 106 
 TAM  HE I        2256 49.23        33.9 0.26            125            158 106 
 ZAR  HZ EP       2256 32.33                             121    0.97 9  201 291 
 ZAR  HN ES       2256 56.06                             121   -0.03 9  201 291 
 CHI  HZ EP       2256 37.14                             115   -0.15 8  251 195 
 CHI  HN ES       2257  6.37                             115   -0.28 8  251 195 
 CHI  HN I        2257  8.91        64.4 0.28            111            251 195 
 HEL  HZ EP   4   2256 40.97                             113    1.54 0  271 255 
 HEL  HN ES   4   2257 12.86                             113    2.40 0  271 255 
 URE  HZ EP       2256 39.36                             112   -0.72 7  281 291 
 URE  HN I        2257 20.07        53.2 0.26            107            281 291 
 RREF HZ EP       2256 46.84                             109    1.23 7  323 229 
 RREF HN ES   4   2257 23.91                             109    2.46 0  323 229 
 COD  HZ EP       2256 46.40                             108   -0.96 7  345 355 
 COD  HN ES       2257 24.52                             108   -0.06 7  345 355 
 COD  HN I        2257 28.29         7.2 0.36            104            345 355 
 SJC  HN EP   4   2256 52.80                             105   -1.75 0  405 327 
                                                                                
