 2017  328 2128 39.9 L   7.374 -73.183131.3  RSN  5 0.1 1.5LRSN                1
 GAP=180        0.36       2.4     1.6  3.1  0.2604E+00  0.1065E+01  0.1673E+01E
 Epicentro: EL PLAYON - SANTANDER                                              3
 ACTION:UPD 17-05-25 18:46 OP:jn   STATUS:               ID:20170328212839 L   I
 OLDACT:UP  17-03-29 04:45 OP:dani STATUS:               ID:20170328212037     3
 OLDACT:REG 17-03-29 03:21 OP:dani STATUS:               ID:20170328212037     3
 2017-03-28-2128-00M.COL___368                                                 6
 STAT SP IPHASW D HRMM SECON CODA AMPLIT PERI AZIMU VELO AIN AR TRES W  DIS CAZ7
 PAM  EZ EP       2128 59.42                             157    0.1610 53.5  94 
 PAM  EE ES       2129 14.25                             157   -0.1010 53.5  94 
 PAM  EZ I        2129 16.25        10.5 0.26            158           53.5  94 
 BRR  HZ EP       2128 59.09                             152   -0.0910 65.5 243 
 BRR  HE ES       2129 14.30                             152    0.0910 65.5 243 
 BRR  HZ I        2129 15.02         8.2 0.08            151           65.5 243 
 RUS  HZ EP       2129  8.09                             126    0.11 9  164 176 
 RUS  HN ES       2129 29.78                             126   -0.09 9  164 176 
 RUS  HZ I        2129 33.71         1.8 0.18            126            164 176 
 PTB  HZ EP       2129  7.62                             125   -0.14 9  168 237 
 PTB  HN ES       2129 29.58                             125    0.10 9  168 237 
 PTB  HZ I        2129 32.13         6.2 0.18            125            168 237 
 ZAR  HZ EP   4   2129  7.43                             122   -2.07 0  185 274 
 ZAR  HN ES       2129 32.53                             122   -0.05 9  185 274 
 ZAR  HZ I        2129 35.42         4.1 0.11            123            185 274 
                                                                                
