 2014  428 2026 11.5 L   6.544 -74.103 22.1  RSN 11 0.6 2.5LRSN                1
 GAP= 62        1.35       2.4     2.6  3.5 -0.9140E+00  0.2880E+00 -0.6395E-01E
 Epicentro: PUERTO PARRA - SANTANDER                                           3
 ACTION:UPD 14-05-13 23:12 OP:nd   STATUS:               ID:20140428202611 L   I
 OLDACT:REG 14-04-29 02:17 OP:nd   STATUS:               ID:20140428202000     3
 2014-04-28-2020-00M.COL___270                                                 6
 STAT SP IPHASW D HRMM SECON CODA AMPLIT PERI AZIMU VELO AIN AR TRES W  DIS CAZ7
 PTB  HZ IP     D 2026 18.77                             117    0.0810 39.0 269 
 PTB  HN ES       2026 24.36                             117    0.0610 39.0 269 
 BRR  HZ EP       2026 23.86                             104   -0.0510 75.8  35 
 BRR  HN ES       2026 33.36                             104   -0.2410 75.8  35 
 BRR  HZ I        2026 34.69       104.3 0.22             47           75.8  35 
 SPBC HZ EP       2026 27.51                             101    0.1110 98.7 178 
 SPBC HN ES       2026 39.21                             101   -0.5910 98.7 178 
 SPBC HZ I        2026 40.90        59.9 0.32             47           98.7 178 
 ZAR  HN ES   1   2026 47.83                              56   -0.08 7  134 322 
 ZAR  HZ I        2026 48.82        82.9 0.16             47            134 322 
 RUS  HZ I        2026 50.78        82.1 0.26             47            134 122 
 ZAR  HZ EP       2026 31.72                              56   -0.2310  134 322 
 RUS  HZ IP     D 2026 32.88                              56    0.3510  134 122 
 RUS  HN ES       2026 48.94                              56   -0.0010  134 122 
 NOR  HZ EP       2026 32.22                              56   -0.25 9  138 218 
 NOR  HN ES       2026 48.08                              56   -0.75 9  138 218 
 HEL  HZ EP       2026 36.29                              56    0.34 9  162 256 
 HEL  HN ES       2026 54.64                              56   -0.39 9  162 256 
 HEL  HZ I        2026 56.09       127.1 0.30             47            162 256 
 PAM  SZ EP   1   2026 39.69                              56    1.61 7  178  60 
 PAM  SN ES   1   2026 58.60                              56   -0.21 7  178  60 
 GUY2CHZ EP   2   2026 42.42                              56    1.39 4  202 224 
 GUY2CHN ES       2027  4.80                              56    0.73 9  202 224 
 URE  HZ EP   1   2026 42.51                              56    1.45 6  207 310 
 URE  HN ES       2027  4.36                              56    0.23 8  207 310 
 URE  HZ I        2027 11.48        27.4 0.36             37            207 310 
 SML  HZ EP       2026 46.66                              56    0.27 8  250   1 
 SML  HN ES       2027 12.28                              56   -1.34 8  250   1 
 SML  HZ I        2027 23.79        25.5 0.48             37            250   1 
                                                                                
