 2010  828 2309 41.9 L   6.780 -73.056150.0  RSN  8 0.3 1.9LRSN                1
 GAP=169        0.65       2.6     6.2  4.7 -0.4518E+01 -0.4355E+01  0.2059E+01E
 Epicentro: LOS SANTOS - SANTANDER                                             3
 ACTION:UP  10-09-07 10:59 OP:vdl  STATUS:               ID:20100828230941 L   I
 2010-08-28-2305-54S.COL___120                                                 6
 STAT SP IPHASW D HRMM SECON CODA AMPLIT PERI AZIMU VELO SNR AR TRES W  DIS CAZ7
 BAR2 SZ EP       2310  1.90                             170    -0.210   25 214 
 BAR2 SZ I        2310  2.47        16.5 0.40                            25 214 
 BAR2 SZ ES   1   2310 17.93                             170     0.1 7   25 214 
 GIR2 SZ EP   2   2310  3.02                             166     0.8 5   36 335 
 BRR  HZ IP     C 2310  3.78                             150    -0.310   81 297 
 BRR  HZ I        2310  4.06        27.3 0.22                            81 297 
 BRR  HN ES       2310 21.53                             150     0.110   81 297 
 RUS  HZ EP   2   2310  6.13                             146     0.2 5   98 182 
 RUS  HE ES   1   2310 24.69                             146     0.0 7   98 182 
 RUS  HZ I        2310 25.77         7.0 0.27                            98 182 
 GRA  SZ EP       2310  7.59                             138     0.110  125  13 
 GRA  SZ ES       2310 27.56                             138     0.110  125  13 
 GRA  SZ I        2310 28.39        10.3 0.34                           125  13 
 OCA  SZ EP       2310 10.61                             130    -0.3 9  164 350 
 OCA  SZ ES   1   2310 33.72                             130     0.2 7  164 350 
 OCA  SZ I        2310 36.91         9.2 0.24                           164 350 
 CHI  HZ EP       2310 19.74                             118    -0.2 8  249 198 
 CHI  HE ES   2   2310 49.75                             118     0.2 4  249 198 
 CHI  HZ I        2310 54.66         3.1 0.28                           249 198 
 PRA  HZ EP   1   2310 36.39                             107     0.4 4  395 211 
 PRA  HZ I        2310 37.49         3.5 0.16                           395 211 
 PRA  HE ES   2   2311 18.87                             107     0.8 3  395 211 
                                                                                
