 2014  528 2153  7.5 L   6.795 -73.199138.4  RSN  9 0.5 1.9LRSN                1
 GAP=196        1.08       4.5     5.6  7.3  0.6914E+01  0.9770E+01  0.3920E+01E
 Epicentro: ZAPATOCA - SANTANDER                                               3
 ACTION:UPD 15-03-16 17:01 OP:nd   STATUS:               ID:20140528215307 L   I
 OLDACT:REG 14-05-29 04:31 OP:spq  STATUS:               ID:20140528214820     3
 2014-05-28-2148-20M.COL___256                                                 6
 STAT SP IPHASW D HRMM SECON CODA AMPLIT PERI AZIMU VELO AIN AR TRES W  DIS CAZ7
 BAR2 SZ IP     C 2153 26.27                             170    0.0710 22.5 175 
 BAR2 SZ ES   1   2153 40.19                             170   -0.61 7 22.5 175 
 BAR2 SZ I        2153 43.05         8.4 0.26            166           22.5 175 
 BRR  HZ IP     C 2153 28.29                             153    0.7410 66.4 301 
 BRR  HE ES       2153 43.67                             153    0.4610 66.4 301 
 BRR  HZ I        2153 49.60        15.2 0.30            149           66.4 301 
 RUS  HZ EP       2153 30.30                             142   -0.2110  101 173 
 RUS  HN ES       2153 48.70                             142    0.2310  101 173 
 RUS  HZ I        2153 50.69         5.6 0.22            144            101 173 
 PTB  HZ EP   1   2153 32.76                             132   -0.55 7  142 259 
 PTB  HN ES       2153 52.72                             132   -0.73 9  142 259 
 PTB  HZ I        2154  0.19         7.5 0.26            130            142 259 
 ZAR  HE ES       2154  3.60                             121    0.19 9  199 293 
 ZAR  HZ I        2154 10.81         8.1 0.26            121            199 293 
 SML  HZ EP   1   2153 42.96                             116   -0.53 6  242 337 
 SML  HE ES   1   2154 10.87                             116   -0.70 6  242 337 
 SML  HZ I        2154 14.41        10.4 0.13            118            242 337 
 GUY2CHZ EP   1   2153 51.05                             111    0.88 5  296 234 
 GUY2CHE ES   1   2154 23.42                             111   -0.05 5  296 234 
 GUY2CHZ I        2154 34.35         4.0 0.40                           296 234 
 RREF HZ EP   1   2153 53.56                             110    0.81 5  317 229 
 RREF HE ES   1   2154 28.50                             110    0.43 5  317 229 
 RREF HZ I        2154 38.07         4.4 0.36            111            317 229 
 PRA  HZ EP   1   2153 59.66                             105   -0.70 4  389 209 
 PRA  HN ES   1   2154 40.78                             105   -0.82 4  389 209 
 PRA  HZ I        2154 48.17         3.8 0.34            107            389 209 
                                                                                
