 2015  428 2139 10.5 L   6.796 -73.116145.8  RSN 15 0.5 2.5LRSN                1
 GAP=141        1.02       3.3     4.3  6.1 -0.2560E+01  0.1053E+02 -0.6926E+00E
 Epicentro: LOS SANTOS - SANTANDER                                             3
 ACTION:UPD 15-06-03 16:58 OP:cam  STATUS:               ID:20150428213910 L   I
 OLDACT:REG 15-04-29 04:21 OP:spq  STATUS:               ID:20150428213747     3
 2015-04-28-2137-47M.COL___287                                                 6
 STAT SP IPHASW D HRMM SECON CODA AMPLIT PERI AZIMU VELO AIN AR TRES W  DIS CAZ7
 BAR2 EZ EP       2139 30.24                             170    0.0710 23.7 198 
 BAR2 EZ ES   1   2139 44.91                             170   -0.57 7 23.7 198 
 BAR2 EZ I        2139 45.98        63.9 0.38            169           23.7 198 
 BRR  HZ EP     D 2139 32.17                             151    0.3110 74.3 298 
 BRR  HN ES       2139 49.02                             151    0.5310 74.3 298 
 BRR  HZ I        2139 52.78        46.8 0.12            148           74.3 298 
 PAM  SZ EP       2139 33.03                             151    0.3910 75.6  37 
 PAM  SN ES       2139 50.23                             151    0.3410 75.6  37 
 PAM  SZ I        2139 52.42        60.7 0.58            154           75.6  37 
 RUS  HZ EP       2139 34.28                             144    0.0410  100 178 
 RUS  HE ES       2139 52.48                             144   -0.2510  100 178 
 RUS  HZ I        2139 53.44        26.2 0.28            147            100 178 
 PTB  HZ EP       2139 36.91                             131   -0.88 9  151 259 
 PTB  HN ES   4   2139 57.67                             131   -1.38 0  151 259 
 PTB  HZ I        2140  0.27        59.5 0.18            130            151 259 
 OCA  HZ EP       2139 38.71                             129   -0.21 9  161 352 
 OCA  HN ES       2140  0.25                             129   -0.81 9  161 352 
 OCA  HZ I        2140  5.39       102.0 0.26            130            161 352 
 ZAR  HZ EP       2139 43.49                             122    0.18 8  207 292 
 ZAR  HN ES       2140  9.24                             122    0.37 8  207 292 
 ZAR  HZ I        2140 17.13        45.3 0.36            122            207 292 
 NOR  HZ EP       2139 46.98                             118    0.46 8  237 235 
 NOR  HE ES       2140 14.05                             118   -0.55 8  237 235 
 NOR  HZ I        2140 20.05        18.2 0.24            119            237 235 
 SML  HZ EP       2139 46.93                             117   -0.42 8  245 335 
 SML  HN ES   1   2140 16.12                             117    0.06 6  245 335 
 SML  HZ I        2140 24.95        36.9 0.26            118            245 335 
 HEL  HZ EP   4   2139 52.74                             114    1.65 0  275 256 
 HEL  HE ES   1   2140 22.86                             114    0.14 6  275 256 
 HEL  HZ I        2140 29.63        17.3 0.41            115            275 256 
 GUY2CHZ EP   1   2139 55.01                             112    0.59 5  304 235 
 GUY2CHE ES   1   2140 28.98                             112    0.33 5  304 235 
 GUY2CHZ I        2140 37.90        12.3 0.66                           304 235 
 CBOC HZ EP   1   2139 58.56                             110    0.77 5  337 252 
 CBOC HE ES   1   2140 34.24                             110   -0.42 5  337 252 
 CBOC HZ I        2140 38.62         4.8 0.60            110            337 252 
 TOL  SZ EP   4   2140  1.26                             109    2.24 0  346 225 
 TOL  SN ES   4   2140 38.51                             109    1.67 0  346 225 
 TOL  SZ I        2140 45.23         7.4 0.36            110            346 225 
 MON  HZ EP   4   2139 58.20                             108   -1.66 0  357 308 
 MON  HN ES   4   2140 36.95                             108   -1.39 0  357 308 
 MON  HZ I        2140 37.54        10.1 0.20            109            357 308 
 SJC  HZ EP   4   2140  4.80                             106   -1.55 0  411 327 
 SJC  HN ES   4   2140 46.58                             106   -3.30 0  411 327 
 SJC  HZ I        2140 50.59        12.7 0.68            106            411 327 
                                                                                
