 2015  328 2211  3.2 L   6.814 -73.147146.9  RSN 12 0.4 2.4LRSN                1
 GAP= 71        0.98       3.2     2.8  5.1 -0.3048E+00  0.3305E+01 -0.3439E+00E
 Epicentro: LOS SANTOS - SANTANDER                                             3
 ACTION:UPD 15-04-30 16:30 OP:nd   STATUS:               ID:20150328221103 L   I
 OLDACT:UP  15-03-29 07:46 OP:cma  STATUS:               ID:20150328220750     3
 OLDACT:UP  15-03-29 07:45 OP:cma  STATUS:               ID:20150328220750     3
 OLDACT:REG 15-03-29 02:32 OP:cam  STATUS:               ID:20150328220750     3
 2015-03-28-2207-50M.COL___284                                                 6
 STAT SP IPHASW D HRMM SECON CODA AMPLIT PERI AZIMU VELO AIN AR TRES W  DIS CAZ7
 BAR2 EZ EP       2211 22.91                             170   -0.0410 24.8 189 
 BAR2 EZ ES       2211 37.63                             170   -0.7710 24.8 189 
 BAR2 EZ I        2211 39.56        32.7 0.28            169           24.8 189 
 BRR  HZ EP       2211 24.59                             153    0.2110 70.4 297 
 BRR  HN ES       2211 41.52                             153    0.5810 70.4 297 
 BRR  HZ I        2211 46.86        20.8 0.34            151           70.4 297 
 PAM  SZ IP     D 2211 25.68                             151    0.2510 76.3  40 
 PAM  SN ES       2211 43.11                             151    0.3110 76.3  40 
 PAM  SZ I        2211 44.94        23.8 0.50            155           76.3  40 
 RUS  HZ EP       2211 26.73                             144   -0.4010  102 176 
 RUS  HN ES       2211 45.47                             144   -0.3610  102 176 
 RUS  HZ I        2211 46.37        16.3 0.30            146            102 176 
 PTB  HZ EP       2211 29.89                             132   -0.34 9  148 258 
 PTB  HN ES       2211 51.27                             132   -0.08 9  148 258 
 PTB  HZ I        2211 56.63        28.7 0.56            132            148 258 
 TAM  HZ EP       2211 31.04                             131    0.07 9  156 106 
 TAM  HN ES       2211 53.08                             131    0.41 9  156 106 
 TAM  HN I        2211 53.38        55.0 0.46            136            156 106 
 SPBC HZ EP       2211 31.89                             129    0.04 9  164 219 
 SPBC HE ES       2211 54.45                             129    0.22 9  164 219 
 SPBC HZ I        2212  0.90        52.3 0.30            130            164 219 
 ZAR  HZ EP       2211 35.58                             123   -0.02 9  203 292 
 ZAR  HE ES       2212  1.23                             123    0.32 9  203 292 
 ZAR  HZ I        2212  7.06        36.7 0.48            124            203 292 
 NOR  HZ IP     D 2211 39.08                             119    0.04 8  235 234 
 NOR  HN ES       2212  7.13                             119    0.11 8  235 234 
 NOR  HZ I        2212 13.76        20.4 0.28            120            235 234 
 SML  HZ EP       2211 38.89                             118   -0.80 8  242 335 
 SML  HN ES       2212  7.79                             118   -0.39 8  242 335 
 SML  HZ I        2212 12.33        23.9 0.22            120            242 335 
 HEL  HZ EP   4   2211 44.89                             115    1.43 0  272 255 
 HEL  HN ES       2212 14.74                             115   -0.15 8  272 255 
 HEL  HZ I        2212 21.47        12.5 0.34            116            272 255 
 GUY2CHZ EP       2211 47.88                             112    0.97 7  302 235 
                                                                                
