 2017  828 2248 35.7 L   6.816 -73.118145.0  RSN 27 0.6 2.8LRSN                1
 GAP= 67        1.03       3.1     2.8  4.8  0.1215E+00  0.3722E+01  0.4907E+01E
 Epicentro: LOS SANTOS - SANTANDER                                             3
 ACTION:UPD 17-09-04 20:25 OP:rebc STATUS:               ID:20170828224835 L   I
 OLDACT:UP  17-08-29 07:15 OP:and  STATUS:               ID:20170828224737     3
 OLDACT:UP  17-08-29 07:14 OP:and  STATUS:               ID:20170828224737     3
 OLDACT:UP  17-08-29 07:13 OP:and  STATUS:               ID:20170828224737     3
 OLDACT:UP  17-08-29 07:12 OP:and  STATUS:               ID:20170828224737     3
 OLDACT:UP  17-08-29 07:12 OP:and  STATUS:               ID:20170828224737     3
 OLDACT:UP  17-08-29 07:11 OP:and  STATUS:               ID:20170828224737     3
 OLDACT:UP  17-08-29 07:06 OP:and  STATUS:               ID:20170828224737     3
 OLDACT:UP  17-08-29 07:03 OP:and  STATUS:               ID:20170828224737     3
 OLDACT:UP  17-08-29 07:02 OP:and  STATUS:               ID:20170828224737     3
 OLDACT:UP  17-08-29 06:56 OP:and  STATUS:               ID:20170828224737     3
 OLDACT:UP  17-08-29 06:55 OP:and  STATUS:               ID:20170828224737     3
 OLDACT:UP  17-08-29 06:53 OP:and  STATUS:               ID:20170828224737     3
 OLDACT:REG 17-08-29 05:51 OP:and  STATUS:               ID:20170828224737     3
 2017-08-28-2248-00M.COL___414                                                 6
 STAT SP IPHASW D HRMM SECON CODA AMPLIT PERI AZIMU VELO AIN AR TRES W  DIS CAZ7
 BAR2 EZ IP     C 2248 55.01                             170   -0.2410 25.7 196 
 BAR2 EZ ES       2249  9.73                             170   -0.8010 25.7 196 
 BAR2 EZ I        2249 12.40       236.7 0.28            167           25.7 196 
 BRR  HZ IP     D 2248 56.90                             151    0.0610 73.1 296 
 BRR  HN ES       2249 13.74                             151    0.3910 73.1 296 
 BRR  HZ I        2249 15.09        89.8 0.14            151           73.1 296 
 PAM  EZ IP     D 2248 57.85                             151    0.2510 74.1  39 
 PAM  EN ES       2249 14.70                             151   -0.0110 74.1  39 
 PAM  EZ I        2249 17.32        72.1 0.70            151           74.1  39 
 RUS  HZ IP     C 2248 58.89                             143   -0.5610  102 178 
 RUS  HN ES   2   2249 17.08                             143   -0.93 5  102 178 
 RUS  HZ I        2249 18.60        69.4 0.28            140            102 178 
 TAM  HZ IP     D 2249  3.33                             131    0.29 9  153 106 
 TAM  HZ I        2249 23.98        36.2 0.30            129            153 106 
 TAM  HN ES       2249 24.80                             131    0.39 9  153 106 
 SPBC HZ IP     D 2249  4.13                             128   -0.28 9  166 219 
 SPBC HN ES       2249 26.11                             128   -0.73 9  166 219 
 SPBC HZ I        2249 30.74        85.3 0.28            126            166 219 
 YPLC HZ IP     C 2249  5.36                             126   -0.05 9  177 152 
 YPLC HN ES       2249 28.98                             126    0.37 9  177 152 
 YPLC HZ I        2249 29.99        79.3 0.24            124            177 152 
 ZAR  HZ EP   2   2249  9.30                             122    1.02 4  206 291 
 ZAR  HN ES       2249 34.36                             122    0.63 8  206 291 
 ZAR  HZ I        2249 40.33        60.5 0.32            120            206 291 
 TABC EZ EP       2249 12.36                             118    0.67 8  233 211 
 TABC EZ ES       2249 39.79                             118   -0.00 8  233 211 
 TABC EZ I        2249 46.86        62.9 0.38            116            233 211 
 NOR  HZ IP     D 2249 10.93                             118   -0.79 8  238 235 
 NOR  HN ES   3   2249 38.63                             118   -1.22 2  238 235 
 NOR  HZ I        2249 42.64        40.7 0.18            116            238 235 
 CHI  HZ IP     D 2249 13.20                             116   -0.39 8  251 196 
 CHI  HN ES   2   2249 44.09                             116    0.92 4  251 196 
 CHI  HZ I        2249 48.15        27.3 0.24            114            251 196 
 ROSC BZ EP     C 2249 14.82                             116    0.75 8  256 211 
 ROSC BN ES   3   2249 45.57                             116    1.53 2  256 211 
 ROSC BZ I        2249 50.71        45.8 0.30            114            256 211 
 HEL  HZ EP       2249 16.59                             114    0.38 7  275 256 
 HEL  HN ES       2249 48.31                             114    0.47 7  275 256 
 HEL  HZ I        2249 53.57        26.5 0.50            112            275 256 
 GUY2CHZ EP       2249 20.20                             112    0.57 7  305 235 
 GUY2CHN ES       2249 53.63                             112   -0.29 7  305 235 
 GUY2CHZ I        2250  1.60        31.9 0.36                           305 235 
 VIL  EZ EP       2249 19.22                             111   -0.08 7  306 192 
 VIL  EN ES   2   2249 54.28                             111    0.93 4  306 192 
 VIL  EZ I        2250  4.35        36.8 0.34            110            306 192 
 PTGC HZ IP   3 C 2249 18.07                             111   -1.47 2  309 159 
 PTGC HN ES   4   2249 51.09                             111   -2.68 0  309 159 
 PTGC HZ I        2249 57.64        22.6 0.44            109            309 159 
 LL6C HZ EP   9   2249 19.82                             110   -1.32 0  323 357 
 LL6C HN ES       2249 55.55                             110    0.25 7  323 357 
 LL6C HZ I        2249 59.76        13.1 0.42            109            323 357 
 ELA  HZ EP   3   2249 24.26                             110    1.39 2  333 230 
 ELA  HN ES   4   2250  2.37                             110    2.67 0  333 230 
 ELA  HZ I        2250 11.84        17.2 0.46            108            333 230 
 DBB  EZ EP       2249 23.30                             109   -0.14 7  342 274 
 DBB  EN ES   2   2249 59.51                             109   -1.20 3  342 274 
 DBB  EZ I        2250  7.11        13.8 0.44            108            342 274 
 ARGC HZ EP   9   2249 26.23                             108    1.01 0  359 340 
 ARGC HN ES       2250  4.99                             108    0.11 6  359 340 
 ANIL HZ EP   9   2249 27.18                             108    1.35 0  361 225 
 ANIL HE ES       2250  6.43                                    0.12 6  361 225 
 ANIL HZ I        2250 11.65        60.4 0.28            106            361 225 
 PRA  HZ EP       2249 28.74                             106   -0.77 6  395 210 
 PRA  HN ES       2250 12.09                             106    0.58 6  395 210 
 PRA  HZ I        2250 17.67        29.9 0.32            105            395 210 
 ORTC HZ EP       2249 29.79                             106   -0.14 6  399 216 
 ORTC HN ES       2250 13.20                             106    0.94 6  399 216 
 ORTC HZ I        2250 19.02        18.6 0.64            104            399 216 
 PAL  HZ IP     D 2249 31.22                             105    0.01 6  409 239 
 PAL  HN ES   2   2250 14.01                             105   -0.52 3  409 239 
 PAL  HZ I        2250 17.95        16.8 0.22            104            409 239 
 SJC  HZ IP     D 2249 29.76                             105   -1.46 6  409 326 
 SJC  HN ES   4   2250 10.67                             105   -3.89 0  409 326 
 SJC  HZ I        2250 15.15        13.8 0.46            104            409 326 
 YOT  HZ EP   2   2249 38.03                             103   -1.06 2  475 229 
 YOT  HN ES   3   2250 31.75                             103    3.18 1  475 229 
 MACC HZ EP   9   2249 42.07                             101   -2.54 0  523 189 
 MACC HN ES       2250 35.47                             101   -0.38 4  523 189 
 GARC HZ EP   4   2249 49.69                             100   -1.56 0  576 207 
                                                                                
