 2010  828 2316 54.2 L   6.775 -73.087145.2  RSN  7 0.3 2.0LRSN                1
 GAP=165        0.60       3.4     7.3  6.0  0.2281E+01 -0.4367E+01 -0.5462E+00E
 Epicentro: LOS SANTOS - SANTANDER                                             3
 ACTION:UP  10-09-07 10:59 OP:vdl  STATUS:               ID:20100828231654 L   I
 2010-08-28-2315-03S.COL___120                                                 6
 STAT SP IPHASW D HRMM SECON CODA AMPLIT PERI AZIMU VELO SNR AR TRES W  DIS CAZ7
 BAR2 SZ EP       2317 13.76                             171     0.010   23 208 
 BAR2 SZ ES   2   2317 28.78                             171    -0.3 5   23 208 
 BAR2 SZ I        2317 31.27        28.5 0.29                            23 208 
 GIR2 SZ EP   2   2317 14.91                             166     0.9 5   36 341 
 BRR  HZ IP     C 2317 15.58                             150    -0.210   78 298 
 BRR  HZ I        2317 15.85        59.2 0.13                            78 298 
 BRR  HN ES   1   2317 32.66                             150     0.1 7   78 298 
 RUS  HZ EP       2317 17.79                             145     0.110   98 180 
 RUS  HN ES   1   2317 35.91                             145    -0.1 7   98 180 
 RUS  HZ I        2317 37.63         8.3 0.28                            98 180 
 GRA  SZ EP   2   2317 19.51                             137     0.0 5  127  14 
 GRA  SZ ES   2   2317 39.44                             137     0.2 5  127  14 
 GRA  SZ I        2317 41.39         5.5 0.42                           127  14 
 OCA  SZ EP   1   2317 22.51                             129    -0.3 7  164 351 
 OCA  SZ I        2317 52.53        10.7 0.24                           164 351 
 PRA  HZ EP   1   2317 48.00                             107     0.2 4  393 211 
 PRA  HE ES   2   2318 29.75                             107     0.1 3  393 211 
 PRA  HZ I        2318 34.64         5.1 0.48                           393 211 
                                                                                
