 2012  328 2212 39.6 L   6.755 -73.151143.3  RSN  5 0.5 1.6LRSN                1
 GAP=138        1.09       7.3     6.5 11.6  0.3796E+01  0.1789E+02  0.1849E+01E
 ACTION:UP  12-03-31 23:23 OP:EP   STATUS:               ID:20120328221239 L   I
 2012-03-28-2210-00M.COL___196                                                 6
 STAT SP IPHASW D HRMM SECON CODA AMPLIT PERI AZIMU VELO SNR AR TRES W  DIS CAZ7
 BRR  HZ EP   1   2213  0.93                             151     0.3 7   73 302 
 BRR  HN ES   1   2213 17.60                             151     0.6 7   73 302 
 PAM  SZ EP   1   2213  1.71                             149    -0.2 7   82  38 
 PAM  SN ES   1   2213 18.71                             149    -0.5 7   82  38 
 RUS  HZ EP   1   2213  3.34                             145     0.5 7   96 175 
 RUS  HN ES   1   2213 20.98                             145     0.1 7   96 175 
 RUS  HZ I        2213 23.16         3.8 0.27                            96 175 
 PTB  HZ EP   1   2213  5.74                             132    -0.5 7  146 261 
 PTB  HN ES   1   2213 26.10                             132    -0.9 7  146 261 
 PTB  HZ I        2213 29.83         6.4 0.20                           146 261 
 ZAR  HZ EP   1   2213 12.04                             122     0.0 6  205 293 
 ZAR  HN ES   1   2213 37.95                             122     0.6 6  205 293 
 ZAR  HZ I        2213 42.98         5.0 0.17                           205 293 
                                                                                
