 2010  628 2054 30.0 L   6.737 -73.138142.0  RSN  7 0.5 1.8LRSN                1
 GAP=157        0.95       5.7     9.8  9.6 -0.1070E+02 -0.2585E+02 -0.1150E+01E
 Epicentro: JORDAN - SANTANDER                                                 3
 ACTION:UP  10-08-24 10:13 OP:vdl  STATUS:               ID:20100628205430 L   I
 2010-06-28-2050-33S.COL___118                                                 6
 STAT SP IPHASW D HRMM SECON CODA AMPLIT PERI AZIMU VELO SNR AR TRES W  DIS CAZ7
 BAR2 SZ EP       2054 49.06                             173     0.010   17 198 
 BAR2 SZ ES   1   2055  3.69                             173    -0.2 7   17 198 
 BRR  HZ EP       2054 50.67                             151    -0.310   76 303 
 BRR  HN ES       2055  7.59                             151     0.210   76 303 
 RUS  HN ES   2   2055 11.00                             145     0.3 5   94 176 
 RUS  HZ I        2055 12.41         8.2 1.09                            94 176 
 BRI  SZ EP   1   2054 53.88                             139    -0.1 7  115  19 
 BRI  SZ ES   2   2055 12.55                             139    -0.2 5  115  19 
 GUE  SZ EP   1   2054 55.11                             137     0.2 7  123  11 
 GUE  SZ ES   2   2055 13.15                             137    -1.2 5  123  11 
 GRA  SZ ES   2   2055 16.87                             135     1.6 5  132  16 
 CHI  HZ I        2055  1.66         5.6 0.07                           242 196 
 CHI  HN ES   2   2055 35.69                             117     0.2 4  242 196 
                                                                                
