 2016 1128 2301 40.5 L   6.700 -73.186144.8  RSN  4 0.2 1.4LRSN                1
 GAP=230        0.55       6.0     3.9  4.4  0.8556E+01  0.4267E+01 -0.1047E+01E
 Epicentro: VILLANUEVA - SANTANDER                                             3
 ACTION:UPD 17-10-26 21:12 OP:lp   STATUS:               ID:20161128230140 L   I
 OLDACT:REG 16-11-29 03:28 OP:edw  STATUS:               ID:20161128225743     3
 2016-11-28-2258-00M.COL___346                                                 6
 STAT SP IPHASW D HRMM SECON CODA AMPLIT PERI AZIMU VELO AIN AR TRES W  DIS CAZ7
 BAR2 EZ EP       23 1 59.74                             175   -0.1410 11.9 178 
 BAR2 EZ ES       23 2 15.06                             175    0.1010 11.9 178 
 BAR2 EZ I        23 2 16.14         5.2 0.22            175           11.9 178 
 BRR  HZ EP       23 2  1.60                             152   -0.1210 73.5 308 
 BRR  HN ES       23 2 18.29                             152    0.0510 73.5 308 
 BRR  HZ I        23 2 19.02         7.4 0.36            150           73.5 308 
 PTB  HZ EP       23 2  6.75                             133   -0.12 9  142 263 
 PTB  HN ES       23 2 27.47                             133    0.06 9  142 263 
 PTB  HZ I        23 2 29.32         2.6 0.42            132            142 263 
 ZAR  HZ EP       23 2 13.45                             122    0.49 9  204 295 
 ZAR  HE ES       23 2 38.00                             122   -0.25 9  204 295 
 ZAR  HZ I        23 2 42.79         2.2 0.16            122            204 295 
                                                                                
