 2011 1128 2041 29.0 L   6.775 -73.088146.8  RSN  6 0.3 1.5LRSN                1
 GAP=145        0.53       3.6     4.3  5.3 -0.4330E+01  0.3390E+01  0.2489E+01E
 Epicentro: LOS SANTOS - SANTANDER                                             3
 ACTION:UPD 12-07-13 16:12 OP:ep   STATUS:               ID:20111128204129 L   I
 2011-11-28-2038-36S.COL___160                                                 6
 STAT SP IPHASW D HRMM SECON CODA AMPLIT PERI AZIMU VELO AIN AR TRES W  DIS CAZ7
 BAR2 SZ EP   1   2041 48.49                             171   -0.24 7 22.7 207 
 BAR2 SZ ES   1   2042  3.92                             171   -0.21 7 22.7 207 
 BAR2 SZ I        2042  6.53        12.5 0.35                          22.7 207 
 PAM  SZ EP   1   2041 51.42                             152    0.20 7 75.8  34 
 PAM  SN ES   1   2042  8.53                             152   -0.03 7 75.8  34 
 PAM  SZ I        2042 10.64         3.8 0.24                          75.8  34 
 BRR  HZ EP   1   2041 50.51                             151   -0.14 7 78.1 298 
 BRR  HN ES   1   2042  7.78                             151    0.23 7 78.1 298 
 BRR  HZ I        2042 11.26        15.8 0.15                          78.1 298 
 RUS  HZ EP   1   2041 52.36                             145   -0.26 7 97.6 180 
 RUS  HZ I        2041 53.02         3.7 0.23                          97.6 180 
 RUS  HN ES   1   2042 11.47                             145    0.41 7 97.6 180 
 NOR  SE ES   1   2042 33.21                             118   -0.18 6  238 236 
 NOR  SZ I        2042 36.35         0.5 0.20                           238 236 
 RREF HZ EP   2   2042 16.25                             111    0.73 3  325 230 
 RREF HZ I        2042 56.99         4.5 0.28                           325 230 
                                                                                
