 2017  528 2121 22.3 L   6.800 -73.127147.2  RSN  7 0.4 1.7LRSN                1
 GAP=239        0.89       3.9     5.4  6.3  0.6858E+01 -0.2610E+01  0.4191E+00E
 Epicentro: LOS SANTOS - SANTANDER                                             3
 ACTION:UPD 17-06-16 13:39 OP:jn   STATUS:               ID:20170528212122 L   I
 OLDACT:UP  17-05-29 03:30 OP:edw  STATUS:               ID:20170528211744d    3
 OLDACT:DUP 17-05-29 03:27 OP:edw  STATUS:               ID:20170528211744d    3
 OLDACT:REG 17-05-29 02:46 OP:edw  STATUS:               ID:20170528211743     3
 2017-05-28-2118-00M.COL___344                                                 6
 STAT SP IPHASW D HRMM SECON CODA AMPLIT PERI AZIMU VELO AIN AR TRES W  DIS CAZ7
 BRR  HZ IP     C 2121 43.58                             152   -0.1210 73.0 298 
 BRR  HN ES       2122  0.78                             152    0.3910 73.0 298 
 BRR  HZ I        2122  5.55         7.0 0.26            150           73.0 298 
 RUS  HZ EP       2121 45.81                             144   -0.3710  101 177 
 RUS  HN ES       2122  4.71                             144   -0.1010  101 177 
 RUS  HZ I        2122  5.58         8.2 0.24            146            101 177 
 PTB  HZ EP   9   2121 48.62                             132   -0.94 0  150 259 
 PTB  HN ES       2122  9.50                             132   -0.39 9  150 259 
 PTB  HZ I        2122 16.57         5.4 0.28            131            150 259 
 SPBC HN ES       2122 13.65                             129    0.21 9  164 220 
 ZAR  HZ EP       2121 55.67                             122    0.65 8  206 292 
 ZAR  HN ES       2122 19.77                             122   -0.78 8  206 292 
 ZAR  HZ I        2122 25.32         4.1 0.56            123            206 292 
 NOR  HZ EP       2121 58.54                             118    0.26 8  236 235 
 NOR  HN ES       2122 26.39                             118    0.03 8  236 235 
 NOR  HZ I        2122 30.51         2.6 0.36            119            236 235 
 CHI  HZ EP       2122  0.05                             117   -0.08 8  249 196 
 CHI  HN ES       2122 29.61                             117   -0.04 8  249 196 
 CHI  HZ I        2122 31.53         3.7 0.40            119            249 196 
                                                                                
