 2017  228 2240  3.3 L   6.677 -73.219149.2  RSN  4 0.5 1.0LRSN                1
 GAP=205        0.96       9.8     8.3  9.1  0.2113E+02  0.2346E+02  0.1136E+02E
 Epicentro: BARICHARA - SANTANDER                                              3
 ACTION:UPD 17-05-24 15:41 OP:jn   STATUS:               ID:20170228224003 L   I
 OLDACT:REG 17-03-01 04:05 OP:edw  STATUS:               ID:20170228223742     3
 2017-02-28-2238-00M.COL___390                                                 6
 STAT SP IPHASW D HRMM SECON CODA AMPLIT PERI AZIMU VELO AIN AR TRES W  DIS CAZ7
 BAR2 EZ ES       2240 38.16                             176   -0.5310 10.2 156 
 BRR  HZ EP       2240 24.73                             152   -0.2010 72.3 311 
 BRR  HN ES       2240 42.25                             152    0.4910 72.3 311 
 RUS  HZ EP   2   2240 26.73                             148    0.15 5 88.0 170 
 RUS  HN ES   2   2240 45.74                             148    1.03 5 88.0 170 
 RUS  HZ I        2240 46.82         1.7 0.36            146           88.0 170 
 PTB  HZ EP       2240 29.90                             135    0.20 9  138 264 
 PTB  HN ES       2240 49.99                             135   -0.27 9  138 264 
                                                                                
