 2012  528 2348 14.0 L   6.818 -73.158144.0  RSN  7 0.3 1.7LRSN                1
 GAP=134        0.65       3.4     3.8  7.2 -0.1990E+01  0.1025E+02 -0.8340E+00E
 Epicentro: LOS SANTOS - SANTANDER                                             3
 ACTION:UP  12-07-05 12:08 OP:pat  STATUS:               ID:20120528234814 L   I
 2012-05-28-2340-00M.COL___201                                                 6
 STAT SP IPHASW D HRMM SECON CODA AMPLIT PERI AZIMU VELO AIN AR TRES W  DIS CAZ7
 BAR2 SZ EP   1   2348 33.18                             170    -0.2 7   25 186 
 BAR2 SZ ES   1   2348 48.51                             170    -0.1 7   25 186 
 BAR2 SZ I        2348 50.86        13.8 0.28                            25 186 
 PAM  SZ EP   1   2348 36.49                             151     0.5 7   77  41 
 PAM  SN ES   1   2348 53.35                             151     0.3 7   77  41 
 RUS  HZ EP   1   2348 37.57                             143    -0.1 7  103 175 
 RUS  HN ES   1   2348 55.98                             143    -0.2 7  103 175 
 RUS  HZ I        2348 57.80         6.9 0.28                           103 175 
 PTB  HZ EP   1   2348 40.48                             132    -0.2 7  147 258 
 PTB  HN ES   1   2349  1.89                             132     0.3 7  147 258 
 PTB  HZ I        2349  4.06         5.0 0.25                           147 258 
 OCA  HE ES   1   2349  3.31                             130    -0.4 7  158 354 
 ZAR  HN ES   1   2349 11.04                             122    -0.1 6  202 292 
 NOR  SN ES   1   2349 17.63                             118     0.2 6  235 234 
                                                                                
