 2017  128 2126 11.3 L   7.431 -73.321116.5  RSN 10 0.3 2.5LRSN                1
 GAP=180        0.66       2.9     2.4  4.0  0.9825E+00  0.3181E+01  0.1174E+01E
 Epicentro: EL PLAYON - SANTANDER                                              3
 ACTION:UPD 17-05-22 16:04 OP:jn   STATUS:               ID:20170128212611 L   I
 OLDACT:REG 17-01-29 03:26 OP:edw  STATUS:               ID:20170128211742     3
 2017-01-28-2118-00M.COL___351                                                 6
 STAT SP IPHASW D HRMM SECON CODA AMPLIT PERI AZIMU VELO AIN AR TRES W  DIS CAZ7
 BRR  HZ EP     D 2126 28.45                             152   -0.0310 56.1 230 
 BRR  HN ES       2126 42.06                             152    0.2110 56.1 230 
 BRR  HZ I        2126 43.14       106.1 0.14            147           56.1 230 
 PAM  EZ EP       2126 30.14                             148    0.1410 69.3  98 
 PAM  EN ES       2126 44.66                             148    0.1210 69.3  98 
 PAM  EZ I        2126 46.03        49.7 0.90            152           69.3  98 
 BAR2 EZ IP     C 2126 31.35                             139   -0.1110 94.0 171 
 BAR2 EZ ES       2126 47.08                             139   -0.0710 94.0 171 
 BAR2 EZ I        2126 48.41       184.4 0.20            137           94.0 171 
 PTB  HZ EP       2126 37.11                             122   -0.20 9  160 232 
 PTB  HN ES       2126 57.55                             122   -0.01 9  160 232 
 PTB  HZ I        2127  0.98        37.4 0.13            120            160 232 
 ZAR  HZ EP       2126 38.65                             120    0.28 9  170 272 
 ZAR  HN ES       2126 59.11                             120   -0.34 9  170 272 
 ZAR  HZ I        2127  6.00        29.8 0.10            118            170 272 
 RUS  HZ EP       2126 38.61                             120   -0.63 9  172 171 
 RUS  HN ES       2127  0.69                             120   -0.31 9  172 171 
 URE  HZ EP       2126 46.94                             110    0.06 8  247 278 
 URE  HN ES   4   2127 12.63                             110   -1.96 0  247 278 
 URE  HZ I        2127 21.31        28.1 0.28            109            247 278 
 NOR  HZ EP       2126 49.55                             108    0.14 8  268 220 
 NOR  HN ES       2127 19.36                             108    0.26 8  268 220 
 NOR  HZ I        2127 25.07        32.1 0.18            107            268 220 
 CHI  HZ EP       2126 55.58                             105    0.48 7  313 188 
 CHI  HN ES       2127 29.68                             105    0.46 7  313 188 
 CHI  HZ I        2127 38.88         4.9 0.64            105            313 188 
 ELA  HZ EP   4   2127  3.92                             102    2.45 0  366 219 
 ELA  HN ES   4   2127 34.26                             102   -6.31 0  366 219 
 ELA  HZ I        2127 51.81        15.1 0.44            102            366 219 
                                                                                
