 2017  528 2118 23.3 L   6.813 -73.184148.7  RSN  8 0.4 1.8LRSN                1
 GAP=211        0.85       4.0     4.5  6.3  0.9683E+01  0.3242E+01  0.3118E+01E
 Epicentro: ZAPATOCA - SANTANDER                                               3
 ACTION:UPD 17-06-16 13:39 OP:jn   STATUS:               ID:20170528211823 L   I
 OLDACT:REG 17-05-29 02:46 OP:edw  STATUS:               ID:20170528211743     3
 2017-05-28-2118-00M.COL___344                                                 6
 STAT SP IPHASW D HRMM SECON CODA AMPLIT PERI AZIMU VELO AIN AR TRES W  DIS CAZ7
 BRR  HZ IP     C 2118 44.71                             155    0.1310 66.8 299 
 BRR  HN ES       2119  1.37                             155    0.2310 66.8 299 
 BRR  HZ I        2119  4.33        10.1 0.34            151           66.8 299 
 RUS  HZ EP       2118 47.21                             144   -0.3110  102 174 
 RUS  HN ES       2119  6.27                             144   -0.1010  102 174 
 RUS  HZ I        2119  6.70        11.7 0.26            144            102 174 
 PTB  HZ EP       2118 49.72                             134   -0.49 9  144 258 
 PTB  HN ES       2119 10.60                             134   -0.57 9  144 258 
 PTB  HZ I        2119 17.71         5.9 0.40            132            144 258 
 SPBC HN ES   2   2119 14.30                             130    0.07 5  162 218 
 YPLC HE ES       2119 17.70                             127    0.36 9  180 150 
 ZAR  HZ EP       2118 55.92                             124    0.39 9  200 292 
 ZAR  HN ES       2119 20.66                             124    0.02 9  200 292 
 ZAR  HZ I        2119 28.28         6.0 0.26            123            200 292 
 NOR  HZ EP       2118 59.09                             119    0.11 8  232 234 
 NOR  HE ES       2119 27.55                             119    0.79 8  232 234 
 NOR  HZ I        2119 31.63         5.3 0.34            119            232 234 
 CHI  HZ EP       2119  1.06                             118   -0.18 8  249 194 
 CHI  HE ES       2119 30.64                             118   -0.16 8  249 194 
 CHI  HZ I        2119 36.03         2.5 0.32            118            249 194 
                                                                                
