 2011  728 2227 19.0 L   6.778 -73.083145.3  RSN  7 0.3 2.0LRSN                1
 GAP=146        0.53       3.3     5.0  4.5 -0.3695E+01  0.1848E+01  0.1226E+01E
 Epicentro: LOS SANTOS - SANTANDER                                             3
 ACTION:UPD 12-07-25 14:04 OP:epov STATUS:               ID:20110728222719 L   I
 2011-07-28-2223-51S.COL___138                                                 6
 STAT SP IPHASW D HRMM SECON CODA AMPLIT PERI AZIMU VELO AIN AR TRES W  DIS CAZ7
 BAR2 SZ EP       2227 38.35                             170   -0.1810 23.3 208 
 BAR2 SZ ES   1   2227 53.34                             170   -0.45 7 23.3 208 
 BAR2 SZ I        2227 56.27        26.8 0.34                          23.3 208 
 PAM  SZ EP   1   2227 41.21                             151    0.22 7 75.1  34 
 PAM  SN ES   1   2227 58.23                             151    0.06 7 75.1  34 
 BRR  HZ EP   1   2227 40.36                             150   -0.12 7 78.5 298 
 BRR  HN ES   1   2227 57.48                             150    0.21 7 78.5 298 
 BRR  HZ I        2228  1.33        30.3 0.14                          78.5 298 
 RUS  HZ EP   1   2227 42.31                             144   -0.16 7 97.9 180 
 RUS  HE ES   1   2228  1.29                             144    0.48 7 97.9 180 
 RUS  HZ I        2228  3.78         9.6 0.31                          97.9 180 
 BRI  SZ EP   1   2227 42.84                             141    0.03 7  108  17 
 BRI  SZ I        2228  8.15         6.5 0.35                           108  17 
 HEL  HZ EP   2   2228  0.28                             114    0.45 4  278 257 
 HEL  HZ I        2228 37.29         9.5 0.35                           278 257 
 PRA  HZ EP   1   2228 12.38                             106   -0.25 4  393 211 
 PRA  HE ES   2   2228 54.58                             106    0.10 3  393 211 
                                                                                
