 2014 1128 2122  6.7 L   6.790 -73.149141.0  RSN 10 0.4 2.0LRSN                1
 GAP=100        0.98       3.9     3.7  5.4 -0.4587E+01  0.1569E+01  0.5952E+01E
 Epicentro: LOS SANTOS - SANTANDER                                             3
 ACTION:UPD 14-12-19 15:48 OP:nd   STATUS:               ID:20141128212206 L   I
 OLDACT:REG 14-11-29 03:04 OP:stll STATUS:               ID:20141128211744     3
 2014-11-28-2117-44M.COL___317                                                 6
 STAT SP IPHASW D HRMM SECON CODA AMPLIT PERI AZIMU VELO AIN AR TRES W  DIS CAZ7
 BAR2 SZ EP       2122 25.71                             171   -0.0310 22.2 189 
 BAR2 SZ ES       2122 40.48                             171   -0.1010 22.2 189 
 BAR2 SZ I        2122 43.24        22.6 0.42            167           22.2 189 
 BRR  HZ EP       2122 27.76                             152    0.4110 71.4 299 
 BRR  HN ES       2122 43.96                             152    0.5110 71.4 299 
 PAM  SZ EP       2122 28.49                             150    0.0110 78.5  39 
 PAM  SZ I        2122 28.80        24.1 0.26            155           78.5  39 
 PAM  SN ES       2122 45.52                             150    0.0510 78.5  39 
 RUS  HZ EP       2122 29.51                             143   -0.4010 99.5 176 
 RUS  HN ES       2122 47.82                             143   -0.1910 99.5 176 
 RUS  HZ I        2122 49.56         8.0 0.26            142           99.5 176 
 PTB  HZ EP       2122 32.72                             131   -0.51 9  147 259 
 PTB  HN ES       2122 53.38                             131   -0.54 9  147 259 
 PTB  HZ I        2122 58.00        12.1 0.14            131            147 259 
 TAM  HZ EP       2122 33.90                             129   -0.12 9  155 105 
 SPBC HZ EP       2122 34.68                             128   -0.05 9  162 219 
 SPBC HE ES       2122 56.36                             128   -0.24 9  162 219 
 SPBC HZ I        2123  3.27        19.3 0.34            128            162 219 
 NOR  HZ EP       2122 42.05                             118   -0.01 8  234 235 
 NOR  HN ES       2123  9.84                             118    0.21 8  234 235 
 NOR  HZ I        2123 15.92        12.0 0.20            118            234 235 
 CHI  HZ EP       2122 43.89                             116   -0.12 8  247 195 
 CHI  HN ES       2123 14.31                             116    1.19 8  247 195 
 CHI  HZ I        2123 18.97         4.2 0.26            117            247 195 
 GUY2CHZ EP       2122 50.71                             111    0.72 7  300 235 
 GUY2CHE ES       2123 23.41                             111   -0.34 7  300 235 
 GUY2CHZ I        2123 32.22         7.1 0.34                           300 235 
                                                                                
