 2011  128 2310 28.8 L   7.031 -73.455111.6  RSN  4 0.4 1.7LRSN                1
 GAP=205        0.77       3.7    16.3 13.4 -0.7019E+01  0.1019E+03 -0.2840E+01E
 Epicentro: SAN VICENTE DE CHUCURI - SANTANDER                                 3
 ACTION:UP  11-02-08 08:43 OP:pat  STATUS:               ID:20110128231028 L   I
 2011-01-28-2305-25S.COL___137                                                 6
 STAT SP IPHASW D HRMM SECON CODA AMPLIT PERI AZIMU VELO SNR AR TRES W  DIS CAZ7
 BAR2 SZ EP   1   2310 46.10                             151     0.3 7   57 148 
 BAR2 SZ I        2310 46.73        20.8 0.16                            57 148 
 BAR2 SZ ES   2   2310 59.50                             151     0.4 5   57 148 
 GRA  SZ EP   1   2310 51.04                             129     0.5 7  119  37 
 GRA  SZ ES   1   2311  7.24                             129    -0.3 7  119  37 
 GRA  SZ I        2311  8.32         8.2 0.28                           119  37 
 RUS  HZ EP   1   2310 52.05                             126    -0.2 7  132 162 
 RUS  HN ES   2   2311 10.03                             126    -0.6 5  132 162 
 RUS  HZ I        2311 12.67         2.4 0.30                           132 162 
 OCA  SZ EP   1   2310 51.98                             126    -0.1 7  134   6 
 OCA  SZ ES   1   2311  9.94                             126    -0.2 7  134   6 
 OCA  SZ I        2311 11.39        17.6 0.16                           134   6 
                                                                                
