 2017  728 2315 48.2 L   6.781 -73.137142.3  RSN  7 0.3 1.8LRSN                1
 GAP=212        0.75       4.0     3.6  4.8  0.8519E+01  0.2279E+01  0.1843E+01E
 Epicentro: LOS SANTOS - SANTANDER                                             3
 ACTION:UPD 17-08-30 15:37 OP:rebc STATUS:               ID:20170728231548 L   I
 OLDACT:REG 17-07-29 04:42 OP:dnl  STATUS:               ID:20170728230739     3
 2017-07-28-2308-00M.COL___395                                                 6
 STAT SP IPHASW D HRMM SECON CODA AMPLIT PERI AZIMU VELO AIN AR TRES W  DIS CAZ7
 BAR2 EZ EP       2316  7.32                             171   -0.1010 21.5 193 
 BAR2 EZ ES       2316 21.92                             171   -0.4610 21.5 193 
 BAR2 EZ I        2316 23.35        21.0 0.26            171           21.5 193 
 BRR  HZ EP       2316  9.13                             151    0.0010 73.0 300 
 BRR  HE ES       2316 26.06                             151    0.6510 73.0 300 
 BRR  HZ I        2316 30.44        13.9 0.36            151           73.0 300 
 RUS  HZ EP       2316 11.71                             144    0.2110 98.4 177 
 RUS  HN ES       2316 29.54                             144   -0.1010 98.4 177 
 RUS  HZ I        2316 30.52         6.8 0.24            145           98.4 177 
 PTB  HZ EP   2   2316 14.92                             131   -0.06 5  148 260 
 PTB  HN ES       2316 35.72                             131   -0.11 9  148 260 
 PTB  HZ I        2316 38.14         4.6 0.10            131            148 260 
 YPLC HZ EP       2316 17.71                             126    0.15 9  175 151 
 YPLC HN ES       2316 40.48                             126    0.05 9  175 151 
 YPLC HZ I        2316 44.06         7.9 0.28            128            175 151 
 ZAR  HZ EP       2316 20.05                             121   -0.59 8  206 293 
 ZAR  HN ES       2316 45.90                             121   -0.01 8  206 293 
 ZAR  HZ I        2316 51.65        10.1 0.50            122            206 293 
 NOR  HZ EP       2316 24.02                             118    0.29 8  234 235 
 NOR  HE ES       2316 51.38                             118   -0.02 8  234 235 
 NOR  HZ I        2316 54.62         2.9 0.48            119            234 235 
                                                                                
