 2017  828 2125 47.7 L   6.793 -73.155144.6  RSN  5 0.3 1.4LRSN                1
 GAP=136        0.63       4.1     7.9  7.8 -0.1618E+02  0.4256E+02 -0.9895E+01E
 Epicentro: LOS SANTOS - SANTANDER                                             3
 ACTION:UPD 17-09-04 20:25 OP:rebc STATUS:               ID:20170828212547 L   I
 OLDACT:UP  17-08-29 06:19 OP:and  STATUS:               ID:20170828211744d    3
 OLDACT:UP  17-08-29 06:19 OP:and  STATUS:               ID:20170828211744d    3
 OLDACT:UP  17-08-29 06:19 OP:and  STATUS:               ID:20170828211744d    3
 OLDACT:UP  17-08-29 06:19 OP:and  STATUS:               ID:20170828211744d    3
 OLDACT:UP  17-08-29 06:18 OP:and  STATUS:               ID:20170828211744d    3
 OLDACT:UP  17-08-29 06:18 OP:and  STATUS:               ID:20170828211744d    3
 OLDACT:UP  17-08-29 06:18 OP:and  STATUS:               ID:20170828211744d    3
 OLDACT:DUP 17-08-29 06:13 OP:and  STATUS:               ID:20170828211744d    3
 OLDACT:UP  17-08-29 06:10 OP:and  STATUS:               ID:20170828211743     3
 OLDACT:UP  17-08-29 06:07 OP:and  STATUS:               ID:20170828211743     3
 OLDACT:REG 17-08-29 05:43 OP:and  STATUS:               ID:20170828211743     3
 2017-08-28-2118-00M.COL___417                                                 6
 STAT SP IPHASW D HRMM SECON CODA AMPLIT PERI AZIMU VELO AIN AR TRES W  DIS CAZ7
 BAR2 EZ ES   2   2126 21.92                             171   -0.43 5 22.4 188 
 BAR2 EZ I        2126 24.74         6.7 0.16            166           22.4 188 
 BRR  HZ EP       2126  9.00                             152    0.3110 70.7 299 
 PAM  EZ IP     D 2126  9.90                             150    0.0410 78.6  40 
 PAM  EN ES       2126 27.02                             150   -0.1310 78.6  40 
 RUS  HZ EP   1   2126 11.42                             144    0.14 7 99.9 175 
 RUS  HN ES       2126 29.77                             144    0.1010 99.9 175 
 RUS  HZ I        2126 30.88         3.2 0.36            147           99.9 175 
 NOR  HZ EP       2126 22.73                             118   -0.50 8  233 234 
 NOR  HE ES   3   2126 52.15                             118    1.22 2  233 234 
 NOR  HZ I        2126 56.75         2.4 0.41            119            233 234 
                                                                                
