 2013  328 2236 14.7 L   6.523 -73.566105.3  RSN  9 0.5 2.1LRSN                1
 GAP= 91        1.15       3.5     3.2  6.8 -0.1422E+01  0.8391E+01 -0.2507E+01E
 Epicentro: EL CARMEN DE CHUCURI - SANTANDER                                   3
 ACTION:UPD 13-04-09 14:05 OP:ep   STATUS:               ID:20130328223614 L   I
 2013-03-28-2230-00M.COL___245                                                 6
 STAT SP IPHASW D HRMM SECON CODA AMPLIT PERI AZIMU VELO AIN AR TRES W  DIS CAZ7
 BAR2 SZ EP       2236 30.48                             156    0.2310 43.1  80 
 BAR2 SZ ES       2236 42.82                             156    0.4310 43.1  80 
 BAR2 SZ I        2236 44.18        49.7 0.34            163           43.1  80 
 BRR  HZ EP       2236 31.28                             145   -0.0410 66.6 346 
 BRR  HN ES       2236 44.46                             145    0.1710 66.6 346 
 BRR  HN I        2236 47.54        35.0 0.38            147           66.6 346 
 RUS  HZ EP       2236 33.43                             137   -0.2010 87.8 143 
 RUS  HN ES       2236 48.78                             137    0.3710 87.8 143 
 RUS  HN I        2236 52.24         9.9 0.74            144           87.8 143 
 PTB  HZ EP     C 2236 33.31                             133   -0.5810 98.5 271 
 PTB  HN ES       2236 48.32                             133   -0.5610 98.5 271 
 PTB  HN I        2236 55.94        24.2 0.26            135           98.5 271 
 PAM  SZ EP       2236 36.96                             125   -0.7110  132  47 
 PAM  SN ES       2236 55.13                             125   -0.4710  132  47 
 PAM  SN I        2236 57.81         9.5 0.74            131            132  47 
 ZAR  HZ EP       2236 42.51                             115    0.49 9  179 307 
 ZAR  HN ES       2237  3.83                             115    0.50 9  179 307 
 ZAR  HN I        2237  8.97        18.2 0.34            119            179 307 
 NOR  HZ EP       2236 42.16                             115    0.02 9  179 234 
 NOR  HN ES       2237  3.47                             115   -0.08 9  179 234 
 NOR  HN I        2237  7.69        39.4 0.16            119            179 234 
 HEL  HZ EP       2236 47.90                             110    0.73 8  220 261 
 HEL  HN ES       2237 12.07                             110   -0.44 8  220 261 
 HEL  HN I        2237 17.55         6.1 0.66            113            220 261 
 SML  HZ EP       2236 51.96                             106    0.88 8  258 348 
 SML  HN ES       2237 19.13                             106   -0.34 8  258 348 
 SML  HN I        2237 25.57        24.2 0.26            110            258 348 
                                                                                
