 2015  628 2001 17.0 L   6.854 -72.976129.4  RSN  4 0.2 1.7LRSN                1
 GAP=200        0.65       3.3    16.1  6.6  0.2797E+02 -0.3064E+02 -0.1028E+02E
 Epicentro: CEPITA - SANTANDER                                                 3
 ACTION:UPD 15-09-10 22:15 OP:cam  STATUS:               ID:20150628200117 L   I
 OLDACT:REG 15-06-29 03:55 OP:stll STATUS:               ID:20150628195749     3
 2015-06-28-1957-49M.COL___322                                                 6
 STAT SP IPHASW D HRMM SECON CODA AMPLIT PERI AZIMU VELO AIN AR TRES W  DIS CAZ7
 BAR2 EZ EP   1   20 1 35.46                             163    0.37 7 36.9 218 
 BAR2 EZ ES       20 1 49.41                             163    0.2410 36.9 218 
 BAR2 EZ I        20 1 51.36         9.9 0.30            171           36.9 218 
 BRR  HZ EP       20 1 37.40                             144   -0.0210 85.9 289 
 BRR  HZ I        20 1 37.50        15.3 0.32            151           85.9 289 
 RUS  HZ EP       20 1 39.91                             138    0.1910  107 186 
 RUS  HN ES       20 1 56.99                             138   -0.4310  107 186 
 RUS  HZ I        20 1 59.67         3.6 0.22            144            107 186 
 OCA  HZ EP       20 1 43.78                             126   -0.09 9  158 346 
 OCA  HN ES       20 2  4.67                             126   -0.13 9  158 346 
 OCA  HZ I        20 2  9.72        14.5 0.34            129            158 346 
                                                                                
