 2012  828 2351 17.0 L   6.780 -73.144148.4  RSN 11 0.4 2.5LRSN                1
 GAP=111        0.83       4.3     4.0  5.8  0.2901E+01 -0.2634E+00 -0.1819E+01E
 Epicentro: LOS SANTOS - SANTANDER                                             3
 ACTION:UPD 12-09-10 11:58 OP:ep   STATUS:               ID:20120828235117 L   I
 2012-08-28-2350-00M.COL___218                                                 6
 STAT SP IPHASW D HRMM SECON CODA AMPLIT PERI AZIMU VELO AIN AR TRES W  DIS CAZ7
 BAR2 SZ EP       2351 36.81                             172   -0.0810 21.1 192 
 BAR2 SZ ES   1   2351 52.03                             172   -0.39 7 21.1 192 
 BAR2 SZ I        2351 52.92       106.6 0.21                          21.1 192 
 GIR2 SZ EP   1   2351 36.95                             166   -0.08 7 33.5 351 
 BRR  HZ EP       2351 38.74                             153    0.2510 72.5 300 
 BRR  HZ I        2351 39.18       111.8 0.08                          72.5 300 
 BRR  HN ES       2351 55.91                             153    0.6410 72.5 300 
 RUS  HZ EP   1   2351 40.81                             145   -0.02 7 98.3 176 
 RUS  HN ES       2351 59.38                             145   -0.0610 98.3 176 
 RUS  HZ I        2352  0.47        27.0 0.27                          98.3 176 
 PTB  HZ EP   1   2351 44.02                             133   -0.13 7  148 260 
 PTB  HN ES       2352  4.59                             133   -0.75 9  148 260 
 PTB  HZ I        2352  6.63        20.4 0.12                           148 260 
 TAM  HZ EP   1   2351 45.07                             131    0.27 7  154 104 
 TAM  HZ I        2351 45.21        18.7 0.17                           154 104 
 TAM  HN ES   2   2352  6.75                             131    0.26 5  154 104 
 OCA  HZ EP   1   2351 45.05                             130   -0.66 7  163 353 
 OCA  HN ES   2   2352  7.83                             130   -0.29 5  163 353 
 OCA  HZ I        2352 14.02        52.1 0.17                           163 353 
 ZAR  HN ES   2   2352 16.08                             123    0.84 4  205 293 
 NOR  SZ EP   1   2351 52.97                             119    0.22 6  234 235 
 NOR  SN ES   2   2352 21.29                             119    0.65 4  234 235 
 DBB  SZ EP   1   2352  4.47                             110   -0.14 5  340 275 
 PRA  HZ EP   1   2352 10.98                             107    0.60 4  390 210 
                                                                                
