 2011  728 2011 41.1 L   6.806 -73.053145.0  RSN  5 0.3 1.5LRSN                1
 GAP=166        0.54       3.2     6.5  6.4 -0.3604E+01 -0.7399E+01 -0.2533E+01E
 Epicentro: LOS SANTOS - SANTANDER                                             3
 ACTION:UPD 12-07-25 14:04 OP:epov STATUS:               ID:20110728201141 L   I
 2011-07-28-2008-19S.COL___138                                                 6
 STAT SP IPHASW D HRMM SECON CODA AMPLIT PERI AZIMU VELO AIN AR TRES W  DIS CAZ7
 BAR2 SZ EP   1   2012  0.70                             169   -0.05 7 27.6 211 
 BAR2 SZ ES   1   2012 15.65                             169   -0.42 7 27.6 211 
 BAR2 SZ I        2012 19.56         6.9 0.26                          27.6 211 
 BRR  HZ EP   1   2012  2.65                             149   -0.06 7 80.0 295 
 BRR  HZ I        2012  6.02        13.4 0.38                          80.0 295 
 BRR  HN ES   1   2012 19.67                             149    0.12 7 80.0 295 
 RUS  HZ EP   2   2012  4.30                             143   -0.53 5  101 182 
 RUS  HZ I        2012  5.56         2.9 0.10                           101 182 
 RUS  HN ES   1   2012 23.76                             143    0.44 7  101 182 
 BRI  SZ ES   2   2012 22.98                             142   -0.02 5  105  16 
 GRA  SZ EP   1   2012  6.25                             137    0.23 7  122  13 
 GRA  SZ ES   1   2012 25.46                             137    0.02 7  122  13 
 GRA  SZ I        2012 27.09         4.0 0.40                           122  13 
                                                                                
