 2014  528 2307  5.2 L   6.811 -73.178143.2  RSN 14 0.4 2.0LRSN                1
 GAP=180        0.97       3.0     4.4  5.6  0.1076E+01  0.5864E+01  0.2524E+01E
 Epicentro: LOS SANTOS - SANTANDER                                             3
 ACTION:UPD 15-03-16 17:01 OP:nd   STATUS:               ID:20140528230705 L   I
 OLDACT:UP  14-05-29 08:13 OP:spq  STATUS:               ID:20140528225818     3
 OLDACT:REG 14-05-29 04:41 OP:spq  STATUS:               ID:20140528225818     3
 2014-05-28-2258-18M.COL___256                                                 6
 STAT SP IPHASW D HRMM SECON CODA AMPLIT PERI AZIMU VELO AIN AR TRES W  DIS CAZ7
 BAR2 SZ EP       23 7 24.46                             170   -0.0410 24.2 181 
 BAR2 SZ ES       23 7 39.23                             170   -0.3610 24.2 181 
 BAR2 SZ I        23 7 42.17        14.3 0.30            168           24.2 181 
 BRR  HZ EP       23 7 26.49                             153    0.6610 67.4 299 
 BRR  HN ES       23 7 42.63                             153    0.6910 67.4 299 
 BRR  HZ I        23 7 47.98        13.3 0.18            150           67.4 299 
 RUS  HZ EP       23 7 28.58                             143   -0.2010  102 174 
 RUS  HN ES       23 7 46.94                             143   -0.2510  102 174 
 RUS  HZ I        23 7 48.60         7.3 0.31            145            102 174 
 PTB  HZ EP       23 7 31.01                             132   -0.61 9  144 258 
 PTB  HN ES       23 7 51.46                             132   -0.80 9  144 258 
 PTB  HZ I        23 7 58.53         9.2 0.18            131            144 258 
 OCA  HN ES   1   23 7 55.33                             129    0.39 7  159 354 
 OCA  HZ I        23 7 59.57        14.9 0.30            132            159 354 
 SPBC HZ EP   1   23 7 33.19                             129   -0.15 7  162 218 
 SPBC HN ES       23 7 55.98                             129    0.66 9  162 218 
 SPBC HZ I        23 8  2.80        13.9 0.16            129            162 218 
 ZAR  HE ES       23 8  1.59                             122   -0.33 9  200 292 
 ZAR  HZ I        23 8  5.48         9.9 0.10            122            200 292 
 NOR  HZ EP       23 7 40.64                             118    0.13 8  232 234 
 NOR  HE ES   1   23 8  7.90                             118   -0.17 6  232 234 
 NOR  HZ I        23 8 13.88         7.7 0.20            119            232 234 
 SML  HZ EP   1   23 7 40.96                             117   -0.41 6  241 336 
 SML  HE ES   1   23 8  9.54                             117   -0.06 6  241 336 
 SML  HZ I        23 8 14.11        16.8 0.10            119            241 336 
 CHI  HZ EP   1   23 7 42.69                             117   -0.06 6  249 194 
 CHI  HN ES   1   23 8 12.29                             117    0.23 6  249 194 
 CHI  HZ I        23 8 17.60         3.3 0.16            118            249 194 
 HEL  HN ES   1   23 8 15.65                             114   -0.23 6  269 255 
 HEL  HZ I        23 8 25.23         5.6 0.38            115            269 255 
 GUY2CHZ EP   1   23 7 49.05                             112    0.65 5  299 234 
 GUY2CHN ES   1   23 8 22.44                             112    0.31 5  299 234 
 GUY2CHZ I        23 8 31.89         4.5 0.28                           299 234 
 RREF HN ES   1   23 8 27.41                             110    0.70 5  320 229 
 RREF HZ I        23 8 33.29         4.9 0.24            111            320 229 
 PRA  HZ EP       23 7 58.55                             106    0.04 6  391 209 
 PRA  HN ES   1   23 8 40.17                             106    0.05 4  391 209 
 PRA  HZ I        23 8 46.65         3.2 0.37            107            391 209 
                                                                                
