 2012  828 2338 49.0 L   6.792 -73.132142.8  RSN 17 0.5 3.6LRSN 3.8WRSN        1
 SPEC AVERAGE  MO 14.9 ST 32.8 OM  4.0 f0 2.94 R0.5211 AL 2.06 WI  9.2 MW  3.8 3
 SPEC SD       MO  0.1 ST 31.2 OM  0.9 f00.633 R0.0991 AL      WI      MW  0.1 3
 GAP= 55        0.92       2.9     2.9  4.8  0.9378E+00  0.1667E+01  0.3301E+01E
 Epicentro: LOS SANTOS - SANTANDER                                             3
 SPEC RUS HH N MO 15.0 ST 94.4 OM  3.4 f0 4.06 R0.3621 AL 2.33 WI  4.6 MW  4.0 3
 SPEC RUS HH N T233929 K 0.000 GD  174 VS 4.20 DE 3.00 Q0230.0 QA 0.60 VS 4.20 3
 SPEC TAM HH N MO 15.0 ST 16.2 OM  3.3 f0 2.29 R0.6419 AL 1.84 WI  8.2 MW  3.9 3
 SPEC TAM HH N T233937 K 0.000 GD  209 VS 4.20 DE 3.00 Q0230.0 QA 0.60 VS 4.20 3
 SPEC PTB HH N MO 14.8 ST 26.7 OM  3.1 f0 3.17 R0.4637 AL 1.74 WI  9.4 MW  3.8 3
 SPEC PTB HH N T233935 K 0.000 GD  206 VS 4.20 DE 3.00 Q0230.0 QA 0.60 VS 4.20 3
 SPEC HEL HH N MO 14.8 ST 15.7 OM  2.9 f0 2.71 R0.5424 AL 1.83 WI 14.3 MW  3.8 3
 SPEC HEL HH N T233959 K 0.000 GD  308 VS 4.20 DE 3.00 Q0230.0 QA 0.60 VS 4.20 3
 SPEC CHI HH N MO 14.7 ST 11.0 OM  2.9 f0 2.47 R0.5951 AL 2.54 WI  9.3 MW  3.8 3
 SPEC CHI HH N T233954 K 0.000 GD  286 VS 4.20 DE 3.00 Q0230.0 QA 0.60 VS 4.20 3
 ACTION:UPD 12-09-10 11:58 OP:ep   STATUS:               ID:20120828233849 L   I
 2012-08-28-2336-42M.COL___214                                                 6
 STAT SP IPHASW D HRMM SECON CODA AMPLIT PERI AZIMU VELO AIN AR TRES W  DIS CAZ7
 BAR2 SZ EP       2339  8.27                             171   -0.0110 22.8 194 
 BAR2 SZ I        2339  8.56       983.0 0.18                          22.8 194 
 BAR2 SZ ES   1   2339 23.01                             171   -0.30 7 22.8 194 
 GIR2 SZ EP       2339  8.40                             166    0.0310 32.4 348 
 GIR2 SZ ES   1   2339 23.19                             166   -0.28 7 32.4 348 
 BRR  HZ IP     D 2339 10.21                             151    0.2610 73.0 299 
 BRR  HN ES       2339 27.01                             151    0.7310 73.0 299 
 BRR  HZ I        2339 32.56       976.7 0.19                          73.0 299 
 PAM  SZ EP       2339 11.18                             150    0.2810 77.1  38 
 PAM  SZ I        2339 11.57      2001.2 0.34                          77.1  38 
 PAM  SN ES   1   2339 28.03                             150    0.06 7 77.1  38 
 RUS  HZ EP       2339 12.14                             143   -0.2710 99.6 177 
 RUS  HN ES       2339 30.11                             143   -0.5410 99.6 177 
 RUS  HZ I        2339 31.95       432.2 0.35                          99.6 177 
 PTB  HZ EP   1   2339 14.89                             131   -0.98 7  149 259 
 PTB  HN ES   2   2339 35.93                             131   -0.89 5  149 259 
 PTB  HZ I        2339 39.29       319.1 0.19                           149 259 
 TAM  HZ IP     D 2339 16.66                             130    0.36 9  153 105 
 TAM  HE ES       2339 37.66                             130    0.08 9  153 105 
 TAM  HZ I        2339 39.01       445.1 0.58                           153 105 
 OCA  HZ EP   1   2339 16.78                             129   -0.42 7  161 353 
 OCA  HN ES   1   2339 38.29                             129   -0.89 7  161 353 
 OCA  HZ I        2339 41.79      1947.0 0.30                           161 353 
 YOP  SZ EP       2339 18.97                             126    0.27 9  177 154 
 YOP  SN ES   2   2339 42.77                             126    0.91 4  177 154 
 YOP  SZ I        2339 44.69       335.5 0.33                           177 154 
 ZAR  HZ EP   1   2339 21.41                             121   -0.04 6  206 292 
 ZAR  HN ES       2339 47.22                             121    0.46 8  206 292 
 ZAR  HZ I        2339 52.46       500.4 0.50                           206 292 
 NOR  SZ EP   1   2339 24.36                             118   -0.30 6  235 235 
 NOR  SN ES   2   2339 52.75                             118    0.29 4  235 235 
 CHI  HZ EP   1   2339 26.53                             116    0.03 6  248 196 
 CHI  HE ES       2339 56.03                             116    0.28 8  248 196 
 CHI  HZ I        2340  3.40        62.8 0.39                           248 196 
 HEL  HZ EP   1   2339 29.68                             114    0.46 6  273 256 
 HEL  HE ES   2   2339 59.54                             114   -1.05 4  273 256 
 HEL  HZ I        2340  9.14       175.1 0.28                           273 256 
 VIL  SZ EP   1   2339 31.83                             111   -0.41 5  303 192 
 VIL  SN ES   2   2340  5.62                             111   -0.33 4  303 192 
 VIL  SZ I        2340 15.03       116.7 0.37                           303 192 
 TOL  SZ EP   1   2339 38.29                             109    1.08 5  344 225 
 SDV  BZ EP   1   2339 38.16                             108   -0.71 5  360  50 
 PRA  HZ EP   1   2339 42.10                             106   -0.34 4  392 210 
 PRA  HN ES   2   2340 24.04                             106   -0.07 3  392 210 
 PRA  HZ I        2340 30.23       112.6 0.25                           392 210 
                                                                                
