 2012  128 2157 14.3 L   6.857 -73.095153.1  RSN  7 0.4 1.7LRSN                1
 GAP=140        0.56       4.9     5.7  7.5  0.5802E+01  0.1416E+02  0.1342E+02E
 Epicentro: LOS SANTOS - SANTANDER                                             3
 ACTION:UP  12-02-03 08:21 OP:REBC STATUS:               ID:20120128215714 L   I
 2012-01-28-2150-00M.COL___188                                                 6
 STAT SP IPHASW D HRMM SECON CODA AMPLIT PERI AZIMU VELO SNR AR TRES W  DIS CAZ7
 GIR2 SZ EP   2   2157 34.96                             170     0.2 5   27 336 
 GIR2 SZ ES   2   2157 50.56                             170    -0.1 5   27 336 
 PAM  SE ES   2   2157 54.48                             155     0.1 5   69  39 
 BRR  HZ EP   2   2157 36.07                             153    -0.3 5   74 292 
 BRR  HZ I        2157 38.23        16.7 0.34                            74 292 
 BRR  HE ES   2   2157 54.30                             153     0.7 5   74 292 
 RUS  HZ EP   2   2157 39.42                             144     0.2 5  107 179 
 RUS  HN ES   2   2157 58.02                             144    -0.6 5  107 179 
 PTB  HZ EP   2   2157 42.11                             132    -0.4 5  155 257 
 PTB  HN ES   2   2158  4.23                             132    -0.2 5  155 257 
 ZAR  HZ EP   2   2157 47.29                             123    -0.3 4  207 290 
 ZAR  HN ES   2   2158 13.54                             123     0.1 4  207 290 
 ZAR  HZ I        2158 18.39         4.6 0.31                           207 290 
 CHI  HZ EP   2   2157 53.66                             118     0.4 4  256 196 
 CHI  HZ I        2157 57.90         1.5 0.40                           256 196 
 CHI  HN ES   2   2158 24.15                             118     0.5 4  256 196 
                                                                                
