 2011 1128 2344 32.5 L   6.791 -73.092146.3  RSN  4 0.2 1.5LRSN                1
 GAP=144        0.50       3.6     5.3  5.4 -0.5021E+00 -0.1933E+01  0.8000E+00E
 Epicentro: LOS SANTOS - SANTANDER                                             3
 ACTION:UPD 12-07-13 16:12 OP:ep   STATUS:               ID:20111128234432 L   I
 2011-11-28-2340-00M.COL___170                                                 6
 STAT SP IPHASW D HRMM SECON CODA AMPLIT PERI AZIMU VELO AIN AR TRES W  DIS CAZ7
 BAR2 SZ EP   1   2344 51.99                             170   -0.24 7 24.1 204 
 BAR2 SZ ES   1   2345  7.32                             170   -0.29 7 24.1 204 
 BAR2 SZ I        2345  9.97        10.9 0.44                          24.1 204 
 PAM  SZ EP   1   2344 54.89                             152    0.26 7 74.6  36 
 PAM  SZ I        2344 55.02         7.1 0.19                          74.6  36 
 PAM  SE ES   1   2345 11.84                             152   -0.04 7 74.6  36 
 BRR  HZ EP   1   2344 53.82                             151   -0.24 7 76.9 297 
 BRR  HZ I        2344 54.23         8.3 0.12                          76.9 297 
 BRR  HE ES   1   2345 11.13                             151    0.27 7 76.9 297 
 RUS  HZ EP   1   2344 56.29                             144    0.06 7 99.3 179 
 RUS  HN ES   1   2345 14.94                             144    0.21 7 99.3 179 
 RUS  HZ I        2345 15.45         2.3 0.29                          99.3 179 
                                                                                
