 2013  128 2354 58.6 L   6.737 -73.150140.6  RSN  9 0.4 1.6LRSN                1
 GAP= 93        0.78       4.1     3.6  6.5  0.1855E+01  0.5849E+01  0.6300E+01E
 Epicentro: JORDAN - SANTANDER                                                 3
 ACTION:UPD 13-02-15 09:17 OP:ep   STATUS:               ID:20130128235458 L   I
 2013-01-28-2350-00M.COL___241                                                 6
 STAT SP IPHASW D HRMM SECON CODA AMPLIT PERI AZIMU VELO AIN AR TRES W  DIS CAZ7
 BAR2 SZ EP   1   2355 17.34                             173   -0.19 7 16.4 193 
 BAR2 SZ ES   1   2355 31.92                             173   -0.34 7 16.4 193 
 BAR2 SZ I        2355 33.15        24.8 0.30            168           16.4 193 
 BRR  HZ EP   1   2355 19.54                             151    0.11 7 74.4 303 
 BRR  HN ES   1   2355 36.39                             151    0.75 7 74.4 303 
 BRR  HZ I        2355 39.67        10.8 0.28            135           74.4 303 
 PAM  SZ EP   1   2355 20.57                             148   -0.11 7 83.2  37 
 PAM  SN ES   1   2355 37.45                             148   -0.41 7 83.2  37 
 PAM  SZ I        2355 40.38         4.2 0.24            137           83.2  37 
 RUS  HZ EP   1   2355 21.30                             145   -0.09 7 93.6 175 
 RUS  HN ES   1   2355 39.53                             145    0.40 7 93.6 175 
 RUS  HZ I        2355 40.99         4.4 0.30            133           93.6 175 
 PTB  HZ EP   1   2355 24.31                             131   -0.73 7  146 261 
 PTB  HN ES   1   2355 45.30                             131   -0.34 7  146 261 
 PTB  HZ I        2355 47.88         7.7 0.30            117            146 261 
 TAM  HE ES   1   2355 47.35                             130    0.37 7  154 102 
 ZAR  HN ES   1   2355 56.43                             121    0.19 6  206 294 
 CHI  HZ EP   1   2355 35.54                             117    0.23 6  242 196 
 CHI  HE ES   1   2356  3.63                             117   -0.28 6  242 196 
 CHI  HZ I        2356 12.20         1.4 0.34            107            242 196 
 HEL  HZ EP   1   2355 39.06                             114    0.69 6  270 257 
 HEL  HZ I        2356 16.34         3.2 0.66            104            270 257 
                                                                                
