 2012  828 2204  3.7 L   6.808 -73.156144.0  RSN 26 0.5 4.4LRSN 4.6WRSN        1
 SPEC AVERAGE  MO 15.9 ST399.6 OM  4.6 f0 3.07 R0.5687 AL 2.53 WI 21.2 MW  4.6 3
 SPEC SD       MO  0.2 ST331.1 OM  0.5 f0 1.23 R0.2535 AL      WI      MW  0.1 3
 GAP= 55        1.01       2.6     3.0  4.9  0.3094E+00  0.4061E+01  0.2739E+01E
 Epicentro: LOS SANTOS - SANTANDER                                             3
 Evento Sentido                                                                2
 Reportado como Sentido en:                                                    3
 BUCARAMANGA, FLORIDABLANCA (SANTANDER), CUCUTA (NORTE DE SANTANDER),          3
 ARMENIA (QUINDIO)                                                             3
 SPEC PRA HH E MO 16.0 ST225.9 OM  4.0 f0 2.56 R0.5742 AL 2.39 WI 20.5 MW  4.6 3
 SPEC PRA HH E T22 536 K 0.000 GD  417 VS 4.20 DE 3.00 Q0230.0 QA 0.60 VS 4.20 3
 SPEC VIL SH N MO 16.1 ST 38.6 OM  4.2 f0 1.31 R1.1221 AL 1.76 WI 30.4 MW  4.7 3
 SPEC VIL SH N T22 516 K 0.000 GD  336 VS 4.20 DE 3.00 Q0230.0 QA 0.60 VS 4.20 3
 SPEC RUS HH N MO 15.8 ST783.9 OM  4.2 f0 4.43 R0.3318 AL 2.24 WI  6.0 MW  4.5 3
 SPEC RUS HH N T22 444 K 0.000 GD  176 VS 4.20 DE 3.00 Q0230.0 QA 0.60 VS 4.20 3
 SPEC GUY SH N MO 16.3 ST394.7 OM  4.4 f0 2.44 R0.6025 AL 2.42 WI 17.4 MW  4.8 3
 SPEC GUY SH N T22 520 K 0.000 GD  335 VS 4.20 DE 3.00 Q0230.0 QA 0.60 VS 4.20 3
 SPEC HEL HH N MO 15.8 ST181.9 OM  3.9 f0 2.85 R0.5158 AL 2.38 WI 20.7 MW  4.4 3
 SPEC HEL HH N T22 513 K 0.000 GD  306 VS 4.20 DE 3.00 Q0230.0 QA 0.60 VS 4.20 3
 SPEC CHI HH N MO 15.8 ST172.6 OM  4.0 f0 2.65 R0.5547 AL 2.74 WI 32.1 MW  4.5 3
 SPEC CHI HH N T22 5 7 K 0.000 GD  287 VS 4.20 DE 3.00 Q0230.0 QA 0.60 VS 4.20 3
 SPEC BRR HH N MO 15.9 ST999.9 OM  4.3 f0 5.25 R0.2800 AL 3.77 WI 21.5 MW  4.5 3
 SPEC BRR HH N T22 439 K 0.000 GD  160 VS 4.20 DE 3.00 Q0230.0 QA 0.60 VS 4.20 3
 ACTION:UPD 12-09-10 11:58 OP:ep   STATUS:               ID:20120828220403 L   I
 2012-08-28-2200-00M.COL___218                                                 6
 STAT SP IPHASW D HRMM SECON CODA AMPLIT PERI AZIMU VELO AIN AR TRES W  DIS CAZ7
 BAR2 SZ IP       22 4 23.21                             170    0.1210 24.0 187 
 BAR2 SZ ES   1   22 4 37.67                             170   -0.57 7 24.0 187 
 BAR2 SZ I        22 4 39.21     10564.0 0.32                          24.0 187 
 GIR2 SZ IP       22 4 23.29                             167    0.2010 30.2 352 
 GIR2 SZ ES   1   22 4 38.05                             167   -0.20 7 30.2 352 
 BRR  HZ IP     D 22 4 25.11                             153    0.5810 69.8 298 
 BRR  HZ I        22 4 25.66      2452.3 0.13                          69.8 298 
 BRR  HE ES   1   22 4 41.83                             153    1.02 7 69.8 298 
 PAM  SZ IP       22 4 26.09                             150    0.4010 77.5  41 
 PAM  SZ I        22 4 26.98      8663.9 0.48                          77.5  41 
 PAM  SN ES   1   22 4 42.83                             150   -0.04 7 77.5  41 
 RUS  HZ EP       22 4 27.08                             143   -0.2210  102 175 
 RUS  HN ES       22 4 45.61                             143   -0.1410  102 175 
 RUS  HZ I        22 4 47.25      3620.2 0.29                           102 175 
 GUE  SZ EP   1   22 4 28.45                             139    0.29 7  116  13 
 PTB  HZ EP       22 4 29.69                             132   -0.70 9  147 258 
 PTB  HN ES   2   22 4 52.11                             132    0.87 5  147 258 
 PTB  HZ I        22 4 56.63      1626.1 0.57                           147 258 
 TAM  HZ IP     C 22 4 31.56                             130    0.24 9  156 105 
 TAM  HZ I        22 4 31.82      5694.6 0.17                           156 105 
 TAM  HN ES   1   22 4 52.74                             130   -0.16 7  156 105 
 OCA  HZ IP     D 22 4 31.56                             129   -0.17 9  159 354 
 OCA  HN ES       22 4 53.16                             129   -0.47 9  159 354 
 OCA  HZ I        22 4 57.73      8780.5 0.37                           159 354 
 YOP  SZ EP       22 4 33.91                             126    0.21 9  180 153 
 YOP  SN ES       22 4 56.85                             126   -0.29 9  180 153 
 YOP  SZ I        22 4 58.44      3155.3 0.30                           180 153 
 ZAR  HZ EP   1   22 4 36.00                             122    0.16 6  203 292 
 ZAR  HN ES   2   22 5  1.23                             122    0.29 4  203 292 
 ZAR  HZ I        22 5 10.24      3711.6 0.34                           203 292 
 NOR  SZ EP   1   22 4 39.08                             118   -0.16 6  234 234 
 NOR  SN ES       22 5  6.79                             118   -0.20 8  234 234 
 NOR  SZ I        22 5  9.55      1030.7 0.27                           234 234 
 CHI  HZ EP       22 4 41.30                             117   -0.02 8  249 195 
 CHI  HN ES   1   22 5  9.91                             117   -0.78 6  249 195 
 CHI  HZ I        22 5 13.89      1057.0 0.27                           249 195 
 ROSC BZ EP       22 4 42.97                             116    1.27 8  253 211 
 ROSC BZ I        22 5 16.87      1210.7 0.30                           253 211 
 HEL  HZ EP   1   22 4 43.55                             114   -0.13 6  271 256 
 HEL  HE ES   1   22 5 14.31                             114   -0.58 6  271 256 
 HEL  HZ I        22 5 22.12      1401.6 0.35                           271 256 
 URE  HZ EP   1   22 4 43.45                             113   -1.03 6  282 292 
 URE  HE ES       22 5 15.42                             113   -0.91 7  282 292 
 URE  HZ I        22 5 28.37      1783.0 0.29                           282 292 
 GUY  SZ EP   1   22 4 48.47                             112    1.07 5  303 235 
 GUY  SN ES   1   22 5 22.50                             112    0.99 5  303 235 
 GUY  SZ I        22 5 27.54      2417.1 0.36                           303 235 
 VIL  SZ EP   1   22 4 46.66                             112   -0.40 5  304 191 
 VIL  SN ES   1   22 5 20.36                             112   -0.56 5  304 191 
 VIL  SZ I        22 5 30.16      1153.7 0.41                           304 191 
 DBB  SZ EP       22 4 51.33                             109    0.41 7  338 274 
 DBB  SZ I        22 5 35.04      1485.0 0.63                           338 274 
 TOL  SZ EP   1   22 4 51.98                             109    0.16 5  343 224 
 ANIL HZ EP   1   22 4 53.93                             108    0.56 5  357 224 
 SDV  BZ EP   1   22 4 52.78                             108   -0.89 5  361  50 
 PRA  HZ EP   1   22 4 57.10                             106   -0.04 4  392 209 
 PRA  HN ES       22 5 39.19                             106    0.34 6  392 209 
 PRA  HZ I        22 5 44.98      1064.4 0.31                           392 209 
 GUA  SZ EP   1   22 5  6.07                             103   -0.81 3  475 173 
 BET  SZ EP   1   22 5 11.70                             101   -0.83 3  522 209 
 HORQ SZ EP   1   22 5 13.58                             101   -0.44 3  532 226 
 HORQ SZ I        22 5 17.56       162.0 0.26                           532 226 
 HORQ SN ES   1   22 6  8.03                             101   -0.88 3  532 226 
                                                                                
