 2010  628 2115 50.5 L   6.950 -73.290124.0  RSN  6 0.3 1.7LRSN                1
 GAP=131        0.68       3.0     6.1  6.1 -0.2538E+01 -0.1587E+02 -0.8049E+00E
 Epicentro: BETULIA - SANTANDER                                                3
 ACTION:UP  10-08-24 10:13 OP:vdl  STATUS:               ID:20100628211550 L   I
 2010-06-28-2110-20S.COL___118                                                 6
 STAT SP IPHASW D HRMM SECON CODA AMPLIT PERI AZIMU VELO SNR AR TRES W  DIS CAZ7
 BAR2 SZ EP       2116  8.31                             161     0.210   41 164 
 BAR2 SZ ES   1   2116 21.97                             161     0.2 7   41 164 
 BRR  HZ IP       2116  7.89                             157    -0.210   50 290 
 BRR  HZ I        2116  8.15        53.2 0.13                            50 290 
 BRR  HN ES       2116 21.99                             157     0.110   50 290 
 BRI  SZ EP   1   2116 11.95                             138     0.2 7  101  33 
 GUE  SZ EP       2116 11.90                             137    -0.410  105  22 
 GUE  SZ ES   2   2116 28.95                             137    -0.4 5  105  22 
 GRA  SZ EP       2116 13.20                             134     0.210  116  27 
 GRA  SZ ES   1   2116 30.80                             134     0.2 7  116  27 
 RUS  HZ EP       2116 13.93                             134     0.210  119 169 
 RUS  HN ES   1   2116 31.38                             134    -0.5 7  119 169 
 RUS  HZ I        2116 32.85         2.5 0.61                           119 169 
                                                                                
