 2013 1028 2254 54.7 L   6.807 -73.140150.8  RSN 12 0.4 3.0LRSN 3.3WRSN        1
 SPEC AVERAGE  MO 14.0 ST 67.9 OM  2.4 f0 7.55 R0.3273 AL 0.00 WI 29.3 MW  3.3 3
 SPEC SD       MO  0.2 ST 53.4 OM  0.3 f0 3.52 R0.2733 AL      WI      MW  0.1 3
 GAP= 71        0.97       2.8     3.9  5.1 -0.1226E+01  0.4237E+01  0.1314E+01E
 Epicentro: LOS SANTOS - SANTANDER                                             3
 SPEC CHI HH N MO 14.3 ST  2.2 OM  2.4 f0 2.16 R0.7194 AL 0.00 WI 32.9 MW  3.5 3
 SPEC CHI HH N T2256 0 K 0.000 GD  291 VS 4.20 DE 3.20 Q0300.0 QA 0.60 VS 4.20 3
 SPEC SML HH E MO 13.8 ST 66.1 OM  1.9 f0 10.0 R0.1554 AL 0.00 WI 32.9 MW  3.1 3
 SPEC SML HH E T225557 K 0.000 GD  285 VS 4.20 DE 3.20 Q0300.0 QA 0.60 VS 4.20 3
 SPEC NOR HH N MO 13.9 ST102.6 OM  2.1 f0 10.0 R0.1554 AL 0.00 WI 30.0 MW  3.2 3
 SPEC NOR HH N T225558 K 0.000 GD  280 VS 4.20 DE 3.20 Q0300.0 QA 0.60 VS 4.20 3
 SPEC ZAR HH N MO 14.0 ST117.0 OM  2.2 f0 10.0 R0.1554 AL 0.00 WI 31.2 MW  3.3 3
 SPEC ZAR HH N T225552 K 0.000 GD  253 VS 4.20 DE 3.20 Q0300.0 QA 0.60 VS 4.20 3
 SPEC SPBCHH N MO 14.1 ST162.9 OM  2.4 f0 10.0 R0.1554 AL 0.00 WI 21.2 MW  3.4 3
 SPEC SPBCHH N T225546 K 0.000 GD  222 VS 4.20 DE 3.20 Q0300.0 QA 0.60 VS 4.20 3
 SPEC PTB HH N MO 13.8 ST 77.7 OM  2.1 f0 10.0 R0.1554 AL 0.00 WI 38.8 MW  3.2 3
 SPEC PTB HH N T225542 K 0.000 GD  211 VS 4.20 DE 3.20 Q0300.0 QA 0.60 VS 4.20 3
 SPEC RUS HH N MO 13.8 ST  4.4 OM  2.1 f0 4.04 R0.3847 AL 0.00 WI 33.3 MW  3.1 3
 SPEC RUS HH N T225536 K 0.000 GD  181 VS 4.20 DE 3.20 Q0300.0 QA 0.60 VS 4.20 3
 SPEC PAM SH N MO 14.3 ST  1.2 OM  2.7 f0 1.71 R0.9088 AL 0.00 WI 15.9 MW  3.5 3
 SPEC PAM SH N T225533 K 0.000 GD  169 VS 4.20 DE 3.20 Q0300.0 QA 0.60 VS 4.20 3
 SPEC BRR HH N MO 13.8 ST 77.0 OM  2.2 f0 10.0 R0.1554 AL 0.00 WI 27.1 MW  3.2 3
 SPEC BRR HH N T225533 K 0.000 GD  166 VS 4.20 DE 3.20 Q0300.0 QA 0.60 VS 4.20 3
 ACTION:UPD 13-11-25 09:24 OP:ep   STATUS:               ID:20131028225454 L   I
 OLDACT:UP  13-10-28 22:43 OP:cam  STATUS:               ID:20131028224847     3
 OLDACT:UP  13-10-28 22:42 OP:cam  STATUS:               ID:20131028224847     3
 OLDACT:UP  13-10-28 22:42 OP:cam  STATUS:               ID:20131028224847     3
 OLDACT:REG 13-10-28 21:53 OP:cam  STATUS:               ID:20131028224847     3
 2013-10-28-2248-47M.COL___230                                                 6
 STAT SP IPHASW D HRMM SECON CODA AMPLIT PERI AZIMU VELO AIN AR TRES W  DIS CAZ7
 BAR2 SZ IP     C 2255 15.02                             170    0.0410 24.2 191 
 BAR2 SZ ES       2255 30.34                             170   -0.4310 24.2 191 
 BAR2 SZ I        2255 31.55       302.6 0.18            169           24.2 191 
 BRR  HZ EP       2255 16.91                             153    0.4810 71.4 298 
 BRR  HN ES       2255 34.26                             153    0.9010 71.4 298 
 BRR  HZ I        2255 37.36       158.9 0.34            152           71.4 298 
 PAM  SZ IP     D 2255 17.87                             152    0.4510 76.4  40 
 PAM  SN ES       2255 35.13                             152    0.0110 76.4  40 
 PAM  SZ I        2255 37.13       199.6 0.54            155           76.4  40 
 RUS  HZ IP       2255 18.84                             145   -0.1910  101 176 
 RUS  HN ES       2255 37.59                             145   -0.3910  101 176 
 RUS  HZ I        2255 40.50        80.7 0.28            146            101 176 
 PTB  HZ EP       2255 21.61                             133   -0.57 9  149 259 
 PTB  HN ES       2255 43.21                             133   -0.38 9  149 259 
 PTB  HZ I        2255 45.60        79.5 0.18            133            149 259 
 TAM  HZ EP   2   2255 23.20                             132    0.43 5  155 105 
 SPBC HZ EP       2255 23.91                             130    0.20 9  164 219 
 SPBC HN ES       2255 46.39                             130    0.08 9  164 219 
 SPBC HZ I        2255 48.67       225.4 0.26            130            164 219 
 ZAR  HZ EP   1   2255 27.70                             123    0.16 6  204 292 
 ZAR  HN ES   1   2255 53.06                             123   -0.06 6  204 292 
 ZAR  HZ I        2255 59.85        82.8 0.30            124            204 292 
 NOR  HZ EP       2255 30.88                             119    0.02 8  236 234 
 NOR  HN ES       2255 59.50                             119    0.47 8  236 234 
 NOR  HZ I        2256  4.22        70.8 0.18            120            236 234 
 SML  HZ EP       2255 31.39                             118   -0.20 8  243 335 
 SML  HE ES       2255 59.43                             118   -0.92 8  243 335 
 SML  HZ I        2256  2.95       136.4 0.10            120            243 335 
 CHI  HZ EP       2255 32.90                             118    0.09 8  250 195 
 CHI  HN ES       2256  2.31                             118   -0.20 8  250 195 
 CHI  HZ I        2256  5.60        40.6 0.52            119            250 195 
 ROSC BZ EP   4   2255 35.28                             118    2.05 0  254 211 
 GUY2CHZ EP   4   2255 39.52                             113    0.84 0  302 235 
 RREF HZ EP   4   2255 42.04                             112    0.83 0  323 229 
 COD  HZ EP   4   2255 42.34                             110   -0.89 0  348 354 
 PRA  HZ EP   1   2255 48.52                             107   -0.02 4  393 210 
 PRA  HE ES       2256 30.66                             107    0.15 6  393 210 
 PRA  HZ I        2256 36.56        29.1 0.28            108            393 210 
 SJC  HZ EP   4   2255 49.24                             106   -1.19 0  409 327 
                                                                                
