 2012  328 2312 28.1 L   6.861 -73.160144.8  RSN  5 0.3 1.4LRSN                1
 GAP=132        0.77       5.4     4.6 10.8 -0.1954E+01  0.1289E+02 -0.1244E+01E
 ACTION:UP  12-03-31 23:23 OP:EP   STATUS:               ID:20120328231228 L   I
 2012-03-28-2310-00M.COL___196                                                 6
 STAT SP IPHASW D HRMM SECON CODA AMPLIT PERI AZIMU VELO SNR AR TRES W  DIS CAZ7
 BAR2 SZ EP   1   2312 47.53                             168    -0.2 7   30 185 
 BAR2 SZ I        2313  5.67         4.4 0.11                            30 185 
 PAM  SZ EP       2312 50.24                             152     0.210   73  44 
 PAM  SN ES   1   2313  6.79                             152    -0.3 7   73  44 
 RUS  HZ EP   1   2312 52.37                             142     0.1 7  107 175 
 RUS  HN ES   1   2313 11.39                             142     0.3 7  107 175 
 RUS  HZ I        2313 13.74         1.1 0.26                           107 175 
 PTB  HZ EP   1   2312 54.50                             132    -0.5 7  148 256 
 PTB  HN ES   1   2313 15.72                             132    -0.2 7  148 256 
 PTB  HZ I        2313 17.96         4.0 0.18                           148 256 
 ZAR  HN ES   1   2313 25.53                             123     0.5 6  200 291 
 ZAR  HZ I        2313 31.16         7.5 0.71                           200 291 
                                                                                
