 2012  628 2250 45.8 L   6.789 -73.161145.3  RSN 11 0.4 2.2LRSN                1
 GAP=135        0.72       2.9     3.8  5.4 -0.1218E+01  0.6652E+01  0.1641E+01E
 Epicentro: LOS SANTOS - SANTANDER                                             3
 ACTION:UPD 12-08-06 17:53 OP:ep   STATUS:               ID:20120628225045 L   I
 2012-06-28-2250-00M.COL___201                                                 6
 STAT SP IPHASW D HRMM SECON CODA AMPLIT PERI AZIMU VELO AIN AR TRES W  DIS CAZ7
 BAR2 SZ EP       2251  5.28                             171   -0.0610 21.9 186 
 BAR2 SZ ES   1   2251 20.42                             171   -0.17 7 21.9 186 
 BAR2 SZ I        2251 23.32        23.2 0.17                          21.9 186 
 BRR  HZ IP     C 2251  7.28                             153    0.4310 70.3 300 
 BRR  HZ I        2251  7.58        68.7 0.19                          70.3 300 
 BRR  HE ES   2   2251 23.79                             153    0.52 5 70.3 300 
 PAM  SZ EP   1   2251  8.44                             150    0.35 7 79.4  40 
 PAM  SE ES   1   2251 25.84                             150    0.37 7 79.4  40 
 RUS  HZ EP   1   2251  9.15                             144   -0.27 7 99.5 175 
 RUS  HN ES   1   2251 27.65                             144   -0.20 7 99.5 175 
 RUS  HZ I        2251 29.27        10.1 0.32                          99.5 175 
 PTB  HZ EP   1   2251 12.07                             132   -0.49 7  146 259 
 PTB  HN ES   1   2251 33.07                             132   -0.36 7  146 259 
 PTB  HZ I        2251 40.71        18.7 0.35                           146 259 
 OCA  HZ EP   1   2251 13.88                             129   -0.29 7  161 354 
 OCA  HE ES   1   2251 35.58                             129   -0.72 7  161 354 
 ZAR  HZ EP   1   2251 17.87                             122   -0.23 6  203 293 
 ZAR  HE ES   1   2251 43.83                             122    0.53 6  203 293 
 ZAR  HZ I        2251 49.82        20.2 0.30                           203 293 
 NOR  SZ EP   1   2251 21.42                             119    0.14 6  233 234 
 NOR  SE ES   1   2251 48.35                             119   -0.60 6  233 234 
 CHI  HZ EP   1   2251 23.43                             117    0.13 6  247 195 
 CHI  HN ES   1   2251 52.89                             117    0.35 6  247 195 
 CHI  HZ I        2252  0.46         6.4 0.60                           247 195 
 HEL  HZ EP   1   2251 25.91                             115    0.13 6  270 256 
 HEL  HE ES   2   2251 57.90                             115    0.94 4  270 256 
 HEL  HZ I        2252  5.01        11.1 0.40                           270 256 
 PRA  HZ EP   1   2251 38.91                             106   -0.17 4  390 209 
 PRA  HE ES   2   2252 21.53                             106    0.89 3  390 209 
                                                                                
