 2011  828 2003 48.4 L   6.743 -73.164146.0  RSN  4 0.2 1.6LRSN                1
 GAP=179        0.44       5.2     9.9  6.0  0.3655E+02 -0.1504E+02 -0.5404E+01E
 Epicentro: VILLANUEVA - SANTANDER                                             3
 ACTION:UPD 12-07-13 15:54 OP:ep   STATUS:               ID:20110828200348 L   I
 2011-08-28-1959-36S.COL___161                                                 6
 STAT SP IPHASW D HRMM SECON CODA AMPLIT PERI AZIMU VELO AIN AR TRES W  DIS CAZ7
 BAR2 SZ EP   2   20 4  7.57                             173   -0.35 5 16.8 187 
 BAR2 SZ I        20 4 24.25        11.7 0.07                          16.8 187 
 GIR2 SZ EP   1   20 4  8.03                             165   -0.22 7 37.3 355 
 GIR2 SZ ES   2   20 4 24.09                             165    0.34 5 37.3 355 
 BRR  HZ EP       20 4  9.75                             152    0.1210 72.7 304 
 BRR  HZ I        20 4 10.05        17.6 0.19                          72.7 304 
 BRR  HN ES   1   20 4 26.10                             152   -0.11 7 72.7 304 
 RUS  HZ EP   1   20 4 11.92                             145    0.21 7 94.5 175 
 RUS  HE ES   1   20 4 29.84                             145   -0.08 7 94.5 175 
 RUS  HZ I        20 4 32.96         2.4 0.30                          94.5 175 
                                                                                
