 2017  728 2139 58.8 L   6.781 -73.177148.0  RSN 10 0.5 1.9LRSN                1
 GAP=109        1.06       3.8     3.6  6.7  0.1605E+01  0.4891E+01  0.6875E+01E
 Epicentro: LOS SANTOS - SANTANDER                                             3
 ACTION:UPD 17-08-30 15:37 OP:rebc STATUS:               ID:20170728213958 L   I
 OLDACT:UP  17-07-29 05:35 OP:dnl  STATUS:               ID:20170728213746     3
 OLDACT:UP  17-07-29 05:29 OP:dnl  STATUS:               ID:20170728213746     3
 OLDACT:UP  17-07-29 05:28 OP:dnl  STATUS:               ID:20170728213746     3
 OLDACT:UP  17-07-29 05:20 OP:dnl  STATUS:               ID:20170728213746     3
 OLDACT:UP  17-07-29 05:20 OP:dnl  STATUS:               ID:20170728213746     3
 OLDACT:REG 17-07-29 04:40 OP:dnl  STATUS:               ID:20170728213746     3
 2017-07-28-2138-00M.COL___401                                                 6
 STAT SP IPHASW D HRMM SECON CODA AMPLIT PERI AZIMU VELO AIN AR TRES W  DIS CAZ7
 BAR2 EZ EP       2140 18.63                             172   -0.0210 20.9 182 
 BAR2 EZ ES       2140 33.87                             172   -0.2610 20.9 182 
 BAR2 EZ I        2140 36.35        24.2 0.34            170           20.9 182 
 BRR  HZ EP       2140 20.31                             154    0.2410 69.2 301 
 BRR  HN ES       2140 37.55                             154    0.8810 69.2 301 
 BRR  HZ I        2140 38.58        22.1 0.34            153           69.2 301 
 PAM  EZ EP       2140 21.41                             150   -0.0710 81.2  41 
 PAM  EN ES       2140 38.69                             150   -0.4810 81.2  41 
 PAM  EZ I        2140 41.63         8.1 0.38            153           81.2  41 
 RUS  HZ EP       2140 22.72                             145    0.0810 98.8 174 
 RUS  HN ES       2140 41.29                             145    0.0510 98.8 174 
 RUS  HZ I        2140 42.57        11.7 0.34            145           98.8 174 
 PTB  HZ EP       2140 25.73                             133    0.13 9  144 259 
 PTB  HN ES       2140 46.11                             133   -0.40 9  144 259 
 PTB  HZ I        2140 51.33         4.7 0.24            133            144 259 
 YPLC HZ EP       2140 28.96                             127    0.22 9  177 150 
 YPLC HN ES       2140 52.34                             127    0.24 9  177 150 
 YPLC HZ I        2140 53.84         8.7 0.32            129            177 150 
 ZAR  HZ EP   2   2140 31.57                             123    0.44 4  202 293 
 ZAR  HN ES       2140 55.71                             123   -0.65 9  202 293 
 ZAR  HZ I        2141  1.94         8.7 0.54            124            202 293 
 NOR  HZ EP   2   2140 33.36                             119   -0.86 4  231 234 
 NOR  HN ES       2141  2.71                             119    0.86 8  231 234 
 NOR  HZ I        2141  5.40         5.4 0.24            120            231 234 
 CHI  HZ EP   2   2140 36.77                             118    0.47 4  246 195 
 CHI  HE ES       2141  4.70                             118   -0.86 8  246 195 
 CHI  HZ I        2141 12.21         4.2 0.38            119            246 195 
 GUY2CHZ EP   4   2140 43.32                             113    1.27 0  297 235 
 GUY2CHN ES       2141 15.56                             113   -0.23 7  297 235 
 GUY2CHZ I        2141 24.74         3.5 0.28                           297 235 
                                                                                
