 2010  828 2344 43.0 L   6.790 -73.063137.4  RSN  5 0.2 1.7LRSN                1
 GAP=168        0.49       3.4     6.7  7.6  0.6885E+01 -0.1783E+02 -0.4796E+01E
 Epicentro: LOS SANTOS - SANTANDER                                             3
 ACTION:UP  10-09-07 10:59 OP:vdl  STATUS:               ID:20100828234443 L   I
 2010-08-28-2343-12S.COL___120                                                 6
 STAT SP IPHASW D HRMM SECON CODA AMPLIT PERI AZIMU VELO SNR AR TRES W  DIS CAZ7
 BAR2 SZ EP       2345  1.85                             168     0.110   26 211 
 BAR2 SZ I        2345  2.02        15.6 0.13                            26 211 
 BTL  SZ EP       2345  1.95                             168     0.210   27 302 
 BRR  HZ IP     C 2345  3.68                             147    -0.110   80 296 
 BRR  HZ I        2345  4.05        25.5 0.10                            80 296 
 BRR  HE ES   1   2345 19.99                             147     0.0 7   80 296 
 RUS  HZ EP   1   2345  5.61                             142    -0.3 7   99 181 
 RUS  HN ES   1   2345 23.62                             142    -0.1 7   99 181 
 RUS  HZ I        2345 26.19         4.3 0.31                            99 181 
 GRA  SZ EP   2   2345  7.52                             135     0.1 5  124  13 
 GRA  SZ ES   2   2345 26.22                             135    -0.2 5  124  13 
 GRA  SZ I        2345 29.28         7.3 0.40                           124  13 
                                                                                
