 2013 1228 2101 57.0 L   6.800 -73.100144.4  RSN 10 0.4 2.1LRSN                1
 GAP=142        0.95       3.1     4.0  5.9 -0.1009E+01  0.6669E+01 -0.1295E+01E
 Epicentro: LOS SANTOS - SANTANDER                                             3
 ACTION:UPD 14-01-13 10:22 OP:ep   STATUS:               ID:20131228210157 L   I
 OLDACT:UP  13-12-28 22:21 OP:cam  STATUS:               ID:20131228210000     3
 OLDACT:REG 13-12-28 21:43 OP:cam  STATUS:               ID:20131228210000     3
 2013-12-28-2100-00M.COL___285                                                 6
 STAT SP IPHASW D HRMM SECON CODA AMPLIT PERI AZIMU VELO AIN AR TRES W  DIS CAZ7
 BAR2 SZ EP       21 2 16.53                             170    0.0710 24.8 202 
 BAR2 SZ ES       21 2 31.00                             170   -0.6610 24.8 202 
 BAR2 SZ I        21 2 32.97        26.3 0.20            171           24.8 202 
 PAM  SZ EP       21 2 19.15                             152    0.3110 74.2  37 
 PAM  SN ES       21 2 36.30                             152    0.3910 74.2  37 
 PAM  SZ I        21 2 38.59         9.2 0.50            153           74.2  37 
 BRR  HZ EP       21 2 18.54                             151    0.3210 75.7 297 
 BRR  HN ES       21 2 35.07                             151    0.2610 75.7 297 
 RUS  HZ EP       21 2 20.85                             143    0.2910  100 179 
 RUS  HN ES       21 2 38.79                             143   -0.1810  100 179 
 RUS  HZ I        21 2 39.80         5.6 0.26            146            100 179 
 PTB  HZ EP   1   21 2 23.59                             131   -0.69 7  153 259 
 PTB  HN ES       21 2 45.74                             131    0.16 9  153 259 
 PTB  HZ I        21 2 47.21        20.1 0.34            131            153 259 
 OCA  HZ EP   1   21 2 25.18                             129   -0.04 7  161 351 
 OCA  HN ES       21 2 46.67                             129   -0.60 9  161 351 
 OCA  HZ I        21 2 50.57        24.1 0.52            130            161 351 
 ZAR  HZ EP   1   21 2 29.59                             121   -0.22 6  209 292 
 ZAR  HE ES       21 2 56.15                             121    0.73 8  209 292 
 ZAR  HZ I        21 3  1.30        13.2 0.34            122            209 292 
 NOR  HZ EP       21 2 32.97                             118   -0.09 8  239 235 
 NOR  HE ES       21 3  1.12                             118   -0.10 8  239 235 
 NOR  HZ I        21 3  2.92         7.7 0.74            119            239 235 
 SML  HZ EP   2   21 2 32.87                             117   -0.87 4  246 334 
 SML  HN ES       21 3  2.03                             117   -0.40 8  246 334 
 SML  HZ I        21 3  4.23        18.2 0.24            118            246 334 
 SJC  HZ EP   4   21 2 51.39                             105   -1.41 0  412 326 
 SJC  HN ES   4   21 3 34.18                             105   -2.18 0  412 326 
 SJC  HZ I        21 3 36.22         3.7 0.48            106            412 326 
                                                                                
