 2010  728 2010 25.5 L   6.808 -73.355125.4  RSN  5 0.1 1.8LRSN                1
 GAP=146        0.32       2.3     4.6  3.2  0.4608E+01 -0.4913E+01 -0.2130E+01E
 Epicentro: ZAPATOCA - SANTANDER                                               3
 ACTION:UPD 10-12-01 15:20 OP:pat  STATUS:               ID:20100728201025 L   I
 2010-07-28-2006-17S.COL___122                                                 6
 STAT SP IPHASW D HRMM SECON CODA AMPLIT PERI AZIMU VELO AIN AR TRES W  DIS CAZ7
 BAR2 SZ IP       2010 42.82                             166     0.010   30 142 
 BAR2 SZ I        2010 43.04        42.1 0.15                            30 142 
 BAR2 SZ ES   1   2010 56.47                             166     0.1 7   30 142 
 GIR2 SZ EP   2   2010 43.19                             164     0.3 5   35  31 
 GIR2 SZ ES   2   2010 56.26                             164    -0.2 5   35  31 
 BRR  HZ EP   1   2010 43.30                             156    -0.1 7   52 310 
 BRR  HN ES   1   2010 57.31                             156     0.0 7   52 310 
 BRR  HZ I        2010 59.30        23.9 0.34                            52 310 
 RUS  HZ EP   1   2010 47.70                             138     0.0 7  106 163 
 RUS  HN ES   1   2011  5.00                             138     0.0 7  106 163 
 RUS  HZ I        2011  6.52         3.9 0.25                           106 163 
 GUE  SZ IP       2010 48.90                             133     0.010  123  23 
 GUE  SZ I        2010 49.25         8.6 0.12                           123  23 
                                                                                
