 2012  728 2352 55.7 L   6.798 -73.128152.1  RSN  6 0.4 2.1LRSN                1
 GAP=239        0.91       6.8     6.8  8.1  0.1549E+02  0.1264E+02 -0.2127E+00E
 Epicentro: LOS SANTOS - SANTANDER                                             3
 ACTION:UPD 12-08-14 11:46 OP:ep   STATUS:               ID:20120728235255 L   I
 2012-07-28-2350-00M.COL___215                                                 6
 STAT SP IPHASW D HRMM SECON CODA AMPLIT PERI AZIMU VELO AIN AR TRES W  DIS CAZ7
 BAR2 SZ EP   1   2353 16.05                             171    -0.1 7   24 195 
 BAR2 SZ ES   1   2353 31.90                             171    -0.1 7   24 195 
 BAR2 SZ I        2353 32.77        43.9 0.27            167             24 195 
 BRR  HZ EP       2353 17.87                             153     0.210   73 298 
 BRR  HZ I        2353 18.13        32.2 0.19            149             73 298 
 BRR  HE ES   1   2353 35.31                             153     0.5 7   73 298 
 RUS  HZ EP   1   2353 19.94                             145    -0.1 7  100 177 
 RUS  HZ I        2353 21.10         9.1 0.17            146            100 177 
 RUS  HN ES   1   2353 39.03                             145     0.0 7  100 177 
 PTB  HZ EP   1   2353 22.64                             133    -0.7 7  150 259 
 PTB  HN ES   1   2353 44.33                             133    -0.6 7  150 259 
 PTB  HZ I        2353 51.51        13.0 0.36            131            150 259 
 ZAR  HZ EP   1   2353 28.95                             124     0.2 6  206 292 
 ZAR  HN ES   1   2353 54.24                             124    -0.3 6  206 292 
 ZAR  HZ I        2354  0.30        10.4 0.31            122            206 292 
 NOR  SZ EP   1   2353 32.38                             120     0.4 6  236 235 
 NOR  SN ES   1   2354  0.90                             120     0.6 6  236 235 
