 2011  328 2146  9.4 L   6.773 -73.099141.3  RSN  7 0.4 1.9LRSN                1
 GAP=170        0.87       8.3     8.8  7.3 -0.4411E+02 -0.4271E+01 -0.1061E+01E
 Epicentro: LOS SANTOS - SANTANDER                                             3
 ACTION:UP  11-06-16 14:36 OP:jfem STATUS:               ID:20110328214609 L   I
 2011-03-28-2140-00M.COL___140                                                 6
 STAT SP IPHASW D HRMM SECON CODA AMPLIT PERI AZIMU VELO SNR AR TRES W  DIS CAZ7
 BAR2 SZ EP   2   2146 28.11                             171    -0.4 5   22 205 
 BAR2 SZ ES   1   2146 42.96                             171    -0.4 7   22 205 
 BAR2 SZ I        2146 43.96        21.1 0.26                            22 205 
 BTL  SZ EP       2146 29.15                             170     0.610   25 311 
 BTL  SZ ES   1   2146 44.23                             170     0.7 7   25 311 
 GIR2 SZ EP       2146 28.39                             165    -0.310   35 343 
 GIR2 SZ ES   3   2146 43.45                             165    -0.3 2   35 343 
 PAM  SZ EP   1   2146 31.28                             150     0.1 7   77  35 
 PAM  SN ES   1   2146 47.89                             150    -0.2 7   77  35 
 PAM  SZ I        2146 50.53         7.6 0.30                            77  35 
 BRR  HZ EP   1   2146 30.26                             150    -0.2 7   77 299 
 BRR  HZ I        2146 30.61        21.1 0.14                            77 299 
 BRR  HN ES   1   2146 46.62                             150    -0.3 7   77 299 
 GRA  SZ EP       2146 34.37                             136     0.010  127  15 
 GRA  SZ ES   1   2146 53.81                             136    -0.1 7  127  15 
 GRA  SZ I        2146 56.06        12.6 0.29                           127  15 
 NOR  SN ES   2   2147 13.06                             117     0.0 4  237 236 
                                                                                
