 2016  328 2141 43.3 L   6.828 -73.224136.9  RSN  5 0.3 1.4LRSN                1
 GAP=124        0.72       4.1     3.4  7.7 -0.1541E+01  0.9377E+01 -0.8293E+01E
 Epicentro: ZAPATOCA - SANTANDER                                               3
 ACTION:UPD 16-05-13 21:28 OP:cam  STATUS:               ID:20160328214143 L   I
 OLDACT:REG 16-03-29 02:18 OP:dnl  STATUS:               ID:20160328213743     3
 2016-03-28-2137-43M.COL___316                                                 6
 STAT SP IPHASW D HRMM SECON CODA AMPLIT PERI AZIMU VELO AIN AR TRES W  DIS CAZ7
 BAR2 EZ EP   2   2142  2.30                             169    0.33 5 26.5 170 
 BAR2 EZ ES       2142 16.26                             169   -0.2510 26.5 170 
 BAR2 EZ I        2142 18.01        12.9 0.34            172           26.5 170 
 PAM  EZ EP       2142  4.65                             148   -0.1910 80.9  46 
 PAM  EE ES       2142 21.95                             148    0.3310 80.9  46 
 PAM  EZ I        2142 24.26         2.6 0.32            150           80.9  46 
 RUS  HZ EP   2   2142  6.29                             141   -0.24 5  105 171 
 RUS  HE ES       2142 24.53                             141   -0.0910  105 171 
 RUS  HZ I        2142 25.88         3.0 0.18            145            105 171 
 PTB  HZ EP   2   2142  9.48                             132    0.60 5  140 257 
 PTB  HN ES       2142 29.20                             132    0.40 9  140 257 
 PTB  HZ I        2142 33.39         3.8 0.10            131            140 257 
 ZAR  HZ EP   4   2142 16.45                             122    2.19 0  195 292 
 ZAR  HE ES       2142 37.96                             122   -0.43 9  195 292 
 ZAR  HZ I        2142 46.57         3.8 0.22            121            195 292 
                                                                                
