 2017 1128 2314 50.5 L   6.823 -73.161135.3  RSN 21 0.7 2.2LRSN                1
 GAP= 64        1.60       3.4     3.7  7.6 -0.3026E+00  0.9372E+01  0.9069E+00E
 Epicentro: LOS SANTOS - SANTANDER                                             3
 ACTION:UPD 17-12-12 20:01 OP:rebc STATUS:               ID:20171128231450 L   I
 OLDACT:UP  17-11-29 04:08 OP:edw  STATUS:               ID:20171128230737     3
 OLDACT:REG 17-11-29 03:35 OP:edw  STATUS:               ID:20171128230737     3
 2017-11-28-2308-00M.COL___501                                                 6
 STAT SP IPHASW D HRMM SECON CODA AMPLIT PERI AZIMU VELO AIN AR TRES W  DIS CAZ7
 BAR2 EZ EP       2315  8.86                             169   -0.0710 25.6 185 
 BAR2 EZ ES       2315 23.76                             169    0.4610 25.6 185 
 BAR2 EZ I        2315 25.82        50.6 0.30            169           25.6 185 
 PAM  EZ EP       2315 11.78                             149    0.2210 76.6  42 
 PAM  EN ES       2315 28.71                             149    0.7210 76.6  42 
 PAM  EZ I        2315 31.11        34.2 0.60            153           76.6  42 
 RUS  HZ EP       2315 12.87                             141   -0.5810  103 175 
 RUS  HN ES       2315 31.18                             141   -0.1610  103 175 
 RUS  HZ I        2315 32.19        12.8 0.24            143            103 175 
 PTB  HZ EP       2315 15.71                             130   -0.82 9  147 258 
 PTB  HN ES       2315 36.55                             130   -0.27 9  147 258 
 PTB  HZ I        2315 38.73        19.2 0.28            131            147 258 
 TAM  HZ IP     D 2315 17.29                             128   -0.31 9  157 106 
 TAM  HN ES       2315 38.24                             128   -0.50 9  157 106 
 OCA  HZ EP       2315 17.55                             128   -0.21 9  158 354 
 OCA  HN ES       2315 38.28                             128   -0.73 9  158 354 
 SPBC HZ EP       2315 17.96                             126   -0.35 9  164 218 
 SPBC HN ES       2315 40.02                             126    0.02 9  164 218 
 SPBC HZ I        2315 43.58        27.9 0.20            128            164 218 
 YPLC HZ EP       2315 20.39                             124    0.52 9  180 151 
 YPLC HN ES       2315 42.73                             124   -0.05 9  180 151 
 ZAR  HZ EP       2315 21.88                             120   -0.14 9  201 292 
 ZAR  HN ES       2315 47.14                             120    0.54 9  201 292 
 ZAR  HZ I        2315 53.83        22.3 0.26            122            201 292 
 NOR  HZ EP       2315 25.04                             116   -0.62 8  235 234 
 NOR  HN ES       2315 52.29                             116   -0.79 8  235 234 
 NOR  HZ I        2315 55.66        13.3 0.26            118            235 234 
 CHI  HZ EP       2315 28.70                             115    0.83 8  251 195 
 CHI  HN ES       2315 56.99                             115   -0.02 8  251 195 
 HEL  HZ EP       2315 31.16                             113    1.07 8  271 255 
 HEL  HE ES       2316  1.11                             113    0.15 8  271 255 
 HEL  HZ I        2316  8.59         8.4 0.34            114            271 255 
 URE  HZ EP       2315 31.09                             112    0.30 7  281 292 
 URE  HN ES       2316  0.53                             112   -1.69 7  281 292 
 URE  HZ I        2316  2.74        19.1 0.14            113            281 292 
 DRL03HZ EP       2315 30.60                             111   -0.72 7  286 353 
 DRL03HN ES       2316  5.02                             111    1.87 7  286 353 
 GUY2CHZ EP       2315 35.56                             110    1.90 7  301 234 
 GUY2CHN ES       2316  8.34                             110    1.02 7  301 234 
 GUY2CHZ I        2316 14.31        12.7 0.24                           301 234 
 PTGC HZ EP   2   2315 33.93                             109   -0.33 3  312 159 
 PTGC HN ES   4   2316  4.95                             109   -3.44 0  312 159 
 ELA  HN ES       2316 13.74                             108    0.52 7  329 229 
 ELA  HZ I        2316 20.01         6.6 0.44            110            329 229 
 DBB  EN ES       2316 13.97                             108    0.07 7  338 274 
 PRA  HZ EP       2315 43.54                             105   -0.31 6  393 209 
 PRA  HN ES   4   2316 24.25                             105   -1.20 0  393 209 
 PRA  HZ I        2316 29.48         3.8 0.56            106            393 209 
 ORTC HZ EP       2315 43.14                             104   -1.07 6  396 216 
 ORTC HN ES       2316 26.30                             104    0.20 6  396 216 
 SJC  HZ EP   9   2315 43.91                             104   -1.46 0  406 327 
 SJC  HN ES       2316 25.04                             104   -1.67 6  406 327 
 SJC  HZ I        2316 28.14         3.0 0.52            106            406 327 
                                                                                
