 2012 1128 2241 47.5 L   6.799 -73.164141.6  RSN 10 0.4 2.2LRSN                1
 GAP=134        0.76       3.0     4.1  5.4  0.1440E-01  0.9308E+01  0.1701E+01E
 Epicentro: LOS SANTOS - SANTANDER                                             3
 ACTION:UPD 12-12-05 15:36 OP:}ep  STATUS:               ID:20121128224147 L   I
 2012-11-28-2240-00M.COL___236                                                 6
 STAT SP IPHASW D HRMM SECON CODA AMPLIT PERI AZIMU VELO AIN AR TRES W  DIS CAZ7
 BAR2 SZ EP   1   2242  6.64                             170    0.04 7 23.0 185 
 BAR2 SZ ES   1   2242 21.69                             170    0.17 7 23.0 185 
 BAR2 SZ I        2242 22.51       123.5 0.20                          23.0 185 
 GIR2 SZ EP   1   2242  6.66                             167    0.00 7 31.1 354 
 GIR2 SZ ES   1   2242 22.03                             167    0.42 7 31.1 354 
 GIR2 SZ I        2242 23.85        38.6 0.34                          31.1 354 
 PAM  SZ EP   1   2242  9.52                             150    0.18 7 78.8  41 
 PAM  SN ES   1   2242 26.06                             150   -0.33 7 78.8  41 
 PAM  SZ I        2242 28.85        16.2 0.70                          78.8  41 
 RUS  HZ EP   1   2242 10.67                             143   -0.16 7  101 175 
 RUS  HN ES   1   2242 29.10                             143    0.06 7  101 175 
 RUS  HZ I        2242 30.03        21.8 0.30                           101 175 
 PTB  HZ EP   1   2242 13.10                             131   -0.83 7  146 259 
 PTB  HE ES   1   2242 33.88                             131   -0.67 7  146 259 
 PTB  HZ I        2242 36.51        23.2 0.16                           146 259 
 ZAR  HZ EP   1   2242 19.30                             122   -0.17 6  202 292 
 ZAR  HN ES   1   2242 44.85                             122    0.44 6  202 292 
 ZAR  HZ I        2242 51.60        18.0 0.16                           202 292 
 SML  HZ EP   1   2242 24.18                             117    0.38 6  243 336 
 SML  HE ES   1   2242 51.63                             117   -0.49 6  243 336 
 CHI  HZ EP   1   2242 24.87                             116   -0.02 6  248 195 
 CHI  HN ES   1   2242 54.04                             116   -0.02 6  248 195 
 CHI  HZ I        2242 57.86         6.2 0.32                           248 195 
 HEL  HZ EP   1   2242 27.89                             114    0.63 6  270 256 
 HEL  HN ES   1   2242 58.98                             114    0.69 6  270 256 
 HEL  HZ I        2243  5.54        12.5 0.28                           270 256 
 PRA  HZ EP   1   2242 41.57                             106    0.83 4  391 209 
 PRA  HN ES   1   2243 21.64                             106   -0.63 4  391 209 
 PRA  HZ I        2243 30.40         3.8 0.64                           391 209 
                                                                                
