 2012 1028 2255  7.6 L   6.801 -73.125144.6  RSN  5 0.2 1.8LRSN                1
 GAP=139        0.42       3.0     4.4  4.6 -0.2364E+00 -0.1455E+01  0.3250E+01E
 Epicentro: LOS SANTOS - SANTANDER                                             3
 ACTION:UPD 12-11-22 17:06 OP:ep   STATUS:               ID:20121028225507 L   I
 2012-10-28-2250-00M.COL___231                                                 6
 STAT SP IPHASW D HRMM SECON CODA AMPLIT PERI AZIMU VELO AIN AR TRES W  DIS CAZ7
 BAR2 SZ EP   1   2255 26.99                             170   -0.10 7 23.9 195 
 BAR2 SZ I        2255 27.26        12.8 0.09                          23.9 195 
 GIR2 SZ EP   1   2255 26.86                             167   -0.27 7 31.6 346 
 GIR2 SZ ES   1   2255 42.09                             167   -0.28 7 31.6 346 
 BRR  HZ EP   1   2255 28.71                             152   -0.01 7 73.2 298 
 BRR  HZ I        2255 28.89        13.0 0.18                          73.2 298 
 BRR  HN ES   1   2255 45.44                             152    0.24 7 73.2 298 
 PAM  SZ EP   1   2255 29.81                             151    0.22 7 75.9  38 
 PAM  SZ I        2255 30.08         9.8 0.22                          75.9  38 
 PAM  SN ES   1   2255 46.85                             151    0.10 7 75.9  38 
 RUS  HZ EP   1   2255 31.24                             144    0.02 7  101 177 
 RUS  HN ES   1   2255 49.73                             144    0.08 7  101 177 
                                                                                
