 2010  828 2248 27.5 L   6.771 -73.095148.2  RSN 10 0.4 2.5LRSN                1
 GAP=165        0.76       3.4     6.3  5.2 -0.5033E+01  0.1491E+01 -0.6599E+00E
 Epicentro: LOS SANTOS - SANTANDER                                             3
 ACTION:UP  10-09-07 10:59 OP:vdl  STATUS:               ID:20100828224827 L   I
 2010-08-28-2247-04S.COL___120                                                 6
 STAT SP IPHASW D HRMM SECON CODA AMPLIT PERI AZIMU VELO SNR AR TRES W  DIS CAZ7
 BAR2 SZ IP       2248 47.32                             171    -0.110   22 206 
 BAR2 SZ ES   1   2249  2.84                             171    -0.1 7   22 206 
 BAR2 SZ I        2249  4.19        53.5 0.22                            22 206 
 BTL  SZ EP       2248 47.54                             170     0.110   25 311 
 BTL  SZ ES   1   2249  3.61                             170     0.6 7   25 311 
 BRR  HZ IP     C 2248 49.23                             151    -0.110   78 299 
 BRR  HZ I        2248 49.55        77.2 0.17                            78 299 
 BRR  HE ES   1   2249  6.43                             151     0.2 7   78 299 
 RUS  HZ EP       2248 51.17                             146    -0.110   97 179 
 RUS  HN ES   1   2249  9.54                             146    -0.2 7   97 179 
 RUS  HZ I        2249 11.63        18.5 0.21                            97 179 
 GUE  SZ EP   2   2248 52.78                             140     0.2 5  119   9 
 GRA  SZ IP       2248 53.15                             137     0.110  127  15 
 GRA  SZ ES   1   2249 13.53                             137     0.5 7  127  15 
 GRA  SZ I        2249 14.45        54.8 0.29                           127  15 
 OCA  SZ EP       2248 55.87                             130    -0.5 9  164 351 
 OCA  SZ ES   2   2249 17.97                             130    -0.9 5  164 351 
 OCA  SZ I        2249 21.17        38.2 0.23                           164 351 
 HEL  HZ EP   2   2249  9.09                             115     0.7 4  277 257 
 HEL  HN ES   2   2249 39.68                             115    -0.5 4  277 257 
 HEL  HZ I        2249 46.05        15.4 0.33                           277 257 
 RREF HZ EP   2   2249 14.80                             111     0.8 3  324 230 
 RREF HE ES   3   2249 50.82                                     0.5 2  324 230 
 RREF HZ I        2249 59.93        16.8 0.32                           324 230 
 PRA  HZ EP   1   2249 21.47                             107     0.4 4  392 211 
 PRA  HE ES   2   2250  2.55                             107    -0.4 3  392 211 
 PRA  HZ I        2250  7.35        15.5 0.76                           392 211 
                                                                                
