 2013 1228 2243 56.7 L   5.850 -73.901103.7  RSN  4 0.6 1.0LRSN                1
 GAP=134        1.27      10.6     7.0 14.2  0.3779E+02 -0.3551E+02 -0.8280E+02E
 Epicentro: LA BELLEZA - SANTANDER                                             3
 ACTION:UPD 14-01-13 10:22 OP:ep   STATUS:               ID:20131228224356 L   I
 OLDACT:UP  13-12-28 22:31 OP:cam  STATUS:               ID:20131228224000     3
 OLDACT:REG 13-12-28 21:46 OP:cam  STATUS:               ID:20131228224000     3
 2013-12-28-2240-00M.COL___285                                                 6
 STAT SP IPHASW D HRMM SECON CODA AMPLIT PERI AZIMU VELO AIN AR TRES W  DIS CAZ7
 SPBC HN ES       2244 23.34                             161    0.6910 29.0 221 
 RUS  HZ EP       2244 15.68                             136   -0.0910 90.7  87 
 RUS  HN ES       2244 30.20                             136   -0.4210 90.7  87 
 RUS  HZ I        2244 31.43         2.1 0.20            138           90.7  87 
 PTB  HZ EP       2244 15.80                             133    0.0510 97.9 321 
 PTB  HN ES       2244 29.88                             133   -0.7110 97.9 321 
 PTB  HZ I        2244 33.41         2.3 0.10            134           97.9 321 
 BRR  HZ EP   2   2244 20.79                             122    0.91 5  141   9 
 BRR  HE ES   2   2244 39.14                             122    1.21 5  141   9 
                                                                                
