 2016  128 2112 47.2 L   6.812 -73.163142.1  RSN 12 0.4 2.3LRSN                1
 GAP=134        0.89       2.6     3.7  5.1 -0.1013E+01  0.7237E+01  0.6048E+00E
 Epicentro: LOS SANTOS - SANTANDER                                             3
 ACTION:UPD 16-03-09 23:29 OP:cam  STATUS:               ID:20160128211247 L   I
 OLDACT:UP  16-01-29 07:42 OP:mh   STATUS:               ID:20160128205843     3
 OLDACT:REG 16-01-29 04:31 OP:mh   STATUS:               ID:20160128205843     3
 2016-01-28-210800.mseed                                                       6
 STAT SP IPHASW D HRMM SECON CODA AMPLIT PERI AZIMU VELO AIN AR TRES W  DIS CAZ7
 BAR2 EZ EP   1   2113  6.27                             170   -0.12 7 24.4 185 
 BAR2 EZ ES       2113 21.57                             170    0.1910 24.4 185 
 BAR2 EZ I        2113 22.51        40.2 0.22            169           24.4 185 
 PAM  EZ EP       2113  9.12                             150    0.1010 77.6  41 
 PAM  EN ES       2113 26.24                             150    0.1910 77.6  41 
 PAM  EZ I        2113 28.03        56.3 0.56            154           77.6  41 
 RUS  HZ EP   1   2113 10.30                             143   -0.38 7  102 175 
 RUS  HN ES       2113 29.16                             143    0.1510  102 175 
 RUS  HZ I        2113 31.12        12.6 0.43            144            102 175 
 PTB  HZ EP   1   2113 13.64                             131   -0.06 7  146 258 
 PTB  HN ES       2113 34.13                             131   -0.27 9  146 258 
 PTB  HZ I        2113 37.21        23.0 0.30            131            146 258 
 SPBC HZ EP       2113 15.18                             128   -0.21 9  163 218 
 SPBC HN ES       2113 37.24                             128   -0.15 9  163 218 
 SPBC HZ I        2113 40.19        26.4 0.18            129            163 218 
 ZAR  HZ EP       2113 19.76                             122    0.61 9  202 292 
 ZAR  HN ES       2113 44.36                             122    0.26 9  202 292 
 ZAR  HZ I        2113 50.98        23.0 0.20            122            202 292 
 NOR  HZ EP       2113 22.41                             118   -0.21 8  234 234 
 NOR  HN ES       2113 50.06                             118   -0.20 8  234 234 
 NOR  HZ I        2113 56.22        13.3 0.18            118            234 234 
 SML  HZ EP   1   2113 22.47                             117   -0.91 6  242 336 
 SML  HN ES       2113 51.14                             117   -0.48 8  242 336 
 SML  HZ I        2113 54.22        41.4 0.26            118            242 336 
 CHI  HZ EP       2113 24.51                             116   -0.25 8  249 195 
 CHI  BN ES       2113 53.67                             116   -0.41 8  249 195 
 CHI  HZ I        2114  1.49         6.0 0.44            117            249 195 
 URE  HZ EP   4   2113 30.04                             113    2.22 0  282 292 
 URE  HN ES   4   2113 57.39                             113   -2.13 0  282 292 
 GUY2CHZ EP       2113 31.74                             112    1.21 7  300 234 
 GUY2CHN ES   4   2114  6.71                             112    2.36 0  300 234 
 GUY2CHZ I        2114 16.30         5.1 0.52                           300 234 
 PRA  HZ EP       2113 41.28                             106    0.68 6  392 209 
 PRA  HN ES       2114 22.41                             106    0.14 6  392 209 
 PRA  HZ I        2114 25.67         6.6 0.52            107            392 209 
 SJC  HZ EP   4   2113 40.42                             105   -1.95 0  407 327 
 SJC  HE ES   4   2114 21.39                             105   -4.03 0  407 327 
 SJC  HZ I        2114 25.53         7.5 0.38            106            407 327 
                                                                                
