 2010  228 2133  5.6 L   6.625 -73.382157.8  RSN  4 0.4 1.2LRSN                1
 GAP=134        0.75      10.2    14.7 13.6  0.7180E+02  0.9582E+02  0.6057E+02E
 Epicentro: GALAN - SANTANDER                                                  3
 ACTION:UP  10-08-24 09:51 OP:vdl  STATUS:               ID:20100228213305 L   I
 2010-02-28-2131-09S.COL___093                                                 6
 STAT SP IPHASW D HRMM SECON CODA AMPLIT PERI AZIMU VELO SNR AR TRES W  DIS CAZ7
 BAR2 SZ EP   1   2133 26.01                             172    -0.6 7   22  99 
 BRR  HZ EP   1   2133 28.03                             157     0.3 7   65 326 
 BRR  HN ES   2   2133 44.96                             157     0.0 5   65 326 
 RUS  BZ EP   1   2133 30.10                             150     0.4 7   87 158 
 RUS  BZ I        2133 30.76         2.8 0.28                            87 158 
 RUS  BE ES   2   2133 48.48                             150     0.0 5   87 158 
 RREF BZ EP   1   2133 48.46                             116    -0.2 5  289 229 
                                                                                
