 2010  228 2135 10.9 L   6.848 -72.953151.5  RSN  5 0.4 1.7LRSN                1
 GAP=259        0.60       6.0    11.8  7.5  0.1824E+02  0.3305E+01  0.1446E+02E
 Epicentro: CEPITA - SANTANDER                                                 3
 ACTION:UP  10-08-24 09:51 OP:vdl  STATUS:               ID:20100228213510 L   I
 2010-02-28-2131-09S.COL___093                                                 6
 STAT SP IPHASW D HRMM SECON CODA AMPLIT PERI AZIMU VELO SNR AR TRES W  DIS CAZ7
 BAR2 SZ EP   1   2135 31.96                             166     0.3 7   38 222 
 BAR2 SZ ES   2   2135 47.84                             166     0.1 5   38 222 
 BRR  HZ EP   1   2135 33.73                             149     0.0 7   89 289 
 BRR  HE ES   2   2135 51.29                             149    -0.3 5   89 289 
 BRR  HZ I        2135 59.74         8.4 0.63                            89 289 
 RUS  BZ EP   1   2135 35.84                             144     0.2 7  107 188 
 RUS  BN ES   2   2135 54.53                             144    -0.5 5  107 188 
 RUS  BZ I        2135 55.80         4.3 0.37                           107 188 
 CHI  HZ EP   1   2135 50.00                             117    -0.2 6  260 199 
 CHI  HE ES   2   2136 21.20                             117     0.4 4  260 199 
 PRA  HZ EP   1   2136  5.59                             107    -0.9 4  407 212 
 PRA  HN ES   2   2136 50.42                             107     0.7 3  407 212 
 PRA  HZ I        2136 53.08         2.3 0.76                           407 212 
                                                                                
