 2011 1228 2256  4.7 L   6.778 -73.145151.5  RSN  6 0.4 1.8LRSN                1
 GAP=138        0.87       6.2     5.7  9.1 -0.3867E+00  0.8317E+01  0.1472E+01E
 Epicentro: LOS SANTOS - SANTANDER                                             3
 ACTION:UPD 12-07-13 16:19 OP:ep   STATUS:               ID:20111228225604 L   I
 2011-12-28-2250-00M.COL___187                                                 6
 STAT SP IPHASW D HRMM SECON CODA AMPLIT PERI AZIMU VELO AIN AR TRES W  DIS CAZ7
 BAR2 SZ ES   2   2256 40.37                             172   -0.46 5 20.9 191 
 BAR2 SZ I        2256 41.86         8.9 0.28                          20.9 191 
 BRR  HZ EP       2256 26.95                             153    0.3810 72.5 300 
 BRR  HE ES   1   2256 44.28                             153    0.67 7 72.5 300 
 BRR  HZ I        2256 46.24        14.0 0.19                          72.5 300 
 PAM  SZ EP   1   2256 27.52                             151   -0.15 7 79.3  38 
 PAM  SN ES   1   2256 45.11                             151   -0.46 7 79.3  38 
 RUS  HZ EP   1   2256 28.88                             146    0.00 7 98.1 176 
 RUS  HN ES   1   2256 48.07                             146    0.35 7 98.1 176 
 PTB  HZ EP   1   2256 31.88                             133   -0.26 7  147 260 
 PTB  HE ES   1   2256 52.69                             133   -0.83 7  147 260 
 PTB  HZ I        2257  0.56         7.9 0.28                           147 260 
 ZAR  HE ES   2   2257  3.58                             123    0.24 4  205 293 
 ZAR  HZ I        2257  8.85         4.4 0.55                           205 293 
                                                                                
