 2011 1128 2327 52.0 L   6.808 -73.109146.8  RSN  4 0.1 1.4LRSN                1
 GAP=141        0.35       2.6     3.8  4.0 -0.2469E+00 -0.9876E+00  0.2916E+00E
 Epicentro: LOS SANTOS - SANTANDER                                             3
 ACTION:UPD 12-07-13 16:12 OP:ep   STATUS:               ID:20111128232752 L   I
 2011-11-28-2320-00M.COL___170                                                 6
 STAT SP IPHASW D HRMM SECON CODA AMPLIT PERI AZIMU VELO AIN AR TRES W  DIS CAZ7
 BAR2 SZ ES   1   2328 27.37                             170    0.18 7 25.2 199 
 BAR2 SZ I        2328 27.78         6.9 0.45                          25.2 199 
 PAM  SZ EP   1   2328 14.24                             152    0.14 7 74.1  38 
 PAM  SZ I        2328 14.47         4.7 0.20                          74.1  38 
 PAM  SN ES   1   2328 31.23                             152   -0.13 7 74.1  38 
 BRR  HZ EP   1   2328 13.29                             152   -0.11 7 74.4 296 
 BRR  HN ES   1   2328 30.12                             152    0.00 7 74.4 296 
 BRR  HZ I        2328 33.43         3.9 0.18                          74.4 296 
 RUS  HZ EP   1   2328 15.90                             144    0.04 7  101 178 
 RUS  HE ES   1   2328 34.38                             144   -0.13 7  101 178 
 RUS  HZ I        2328 35.90         4.0 0.46                           101 178 
                                                                                
