 2016 1228 2329 16.3 L   6.778 -73.405109.4  RSN  5 0.3 1.4LRSN                1
 GAP=109        0.83       3.5     2.9  6.7  0.1089E+01  0.3318E+01  0.1611E+01E
 Epicentro: SAN VICENTE DE CHUCURI - SANTANDER                                 3
 ACTION:UPD 17-01-11 20:20 OP:rebc STATUS:               ID:20161228232916 L   I
 OLDACT:REG 16-12-29 04:01 OP:cara STATUS:               ID:20161228232747     3
 2016-12-28-2328-00M.COL___375                                                 6
 STAT SP IPHASW D HRMM SECON CODA AMPLIT PERI AZIMU VELO AIN AR TRES W  DIS CAZ7
 BRR  HZ EP       2329 32.96                             154    0.6110 49.7 317 
 BRR  HN ES       2329 45.04                             154    0.2010 49.7 317 
 BRR  HZ I        2329 46.39         9.9 0.12            156           49.7 317 
 PAM  EZ EP     C 2329 36.68                             135    0.0310 99.7  51 
 PAM  EE ES       2329 52.07                             135   -0.4110 99.7  51 
 PAM  EZ I        2329 54.63         3.4 0.30            139           99.7  51 
 RUS  HZ EP       2329 37.31                             133    0.2610  104 160 
 RUS  HN ES       2329 53.18                             133   -0.0310  104 160 
 RUS  HZ I        2329 56.54         2.1 0.18            136            104 160 
 PTB  HZ IP       2329 37.62                             129   -0.1610  119 257 
 PTB  HN ES       2329 54.11                             129   -0.4010  119 257 
 PTB  HZ I        2329 58.78         5.7 0.22            131            119 257 
 ZAR  HZ EP       2329 43.59                             117   -0.33 9  179 296 
 ZAR  HN ES       2330  5.62                             117    0.18 9  179 296 
 ZAR  HZ I        2330  8.80         7.9 0.44            119            179 296 
                                                                                
