 2012  328 2132 15.9 L   6.695 -73.243153.3  RSN  4 0.2 1.4LRSN                1
 GAP=217        0.56       6.2     6.1  7.5  0.2524E+02  0.8794E-01 -0.2261E+01E
 ACTION:UP  12-03-31 23:23 OP:EP   STATUS:               ID:20120328213215 L   I
 2012-03-28-2130-00M.COL___196                                                 6
 STAT SP IPHASW D HRMM SECON CODA AMPLIT PERI AZIMU VELO SNR AR TRES W  DIS CAZ7
 BRR  HZ EP   1   2132 37.80                             154     0.1 7   69 311 
 BRR  HN ES   1   2132 54.61                             154    -0.2 7   69 311 
 RUS  HZ EP   1   2132 39.40                             148    -0.3 7   90 169 
 RUS  HN ES   1   2132 58.56                             148     0.3 7   90 169 
 RUS  HZ I        2133  1.18         2.8 0.59                            90 169 
 PTB  HZ EP   1   2132 42.50                             136     0.1 7  135 263 
 PTB  HN ES   1   2133  2.82                             136    -0.2 7  135 263 
 PTB  HZ I        2133  6.76         2.7 0.31                           135 263 
 ZAR  HN ES   1   2133 13.91                             125     0.3 6  199 296 
 ZAR  HZ I        2133 19.11         2.8 0.21                           199 296 
                                                                                
