 2017 1028 2309 18.7 L   6.793 -73.153138.9  RSN 12 0.5 1.9LRSN                1
 GAP=111        1.10       3.5     3.6  5.9  0.3312E+00  0.5729E+01  0.5379E+01E
 Epicentro: LOS SANTOS - SANTANDER                                             3
 ACTION:UPD 17-11-07 19:38 OP:rebc STATUS:               ID:20171028230918 L   I
 OLDACT:REG 17-10-29 02:43 OP:l    STATUS:               ID:20171028230746     3
 2017-10-28-2308-00M.COL___411                                                 6
 STAT SP IPHASW D HRMM SECON CODA AMPLIT PERI AZIMU VELO AIN AR TRES W  DIS CAZ7
 BAR2 EZ EP       23 9 37.32                             170   -0.1510 22.5 188 
 BAR2 EZ ES       23 9 51.90                             170   -0.2210 22.5 188 
 BAR2 EZ I        23 9 53.35        22.9 0.20            169           22.5 188 
 BRR  HZ IP     C 23 9 39.10                             151    0.0310 70.9 299 
 BRR  HN ES       23 9 55.59                             151    0.6210 70.9 299 
 BRR  HZ I        23 9 56.32        16.0 0.30            152           70.9 299 
 PAM  EZ EP       23 9 40.25                             149    0.0210 78.4  40 
 PAM  EN ES       23 9 57.10                             149    0.0610 78.4  40 
 PAM  EZ I        23 9 59.38         9.1 0.46            153           78.4  40 
 RUS  HZ EP       23 9 41.42                             142   -0.2910 99.9 176 
 RUS  HN ES       23 9 59.64                             142   -0.0310 99.9 176 
 RUS  HZ I        2310  1.57         7.8 0.36            143           99.9 176 
 PTB  HZ EP       23 9 44.37                             131   -0.64 9  147 259 
 PTB  HN ES       2310  4.62                             131   -0.93 9  147 259 
 PTB  HZ I        2310  7.88         6.0 0.20            131            147 259 
 SPBC HZ EP       23 9 46.35                             128   -0.21 9  162 219 
 SPBC HN ES       2310  8.65                             128    0.35 9  162 219 
 SPBC HZ I        2310 14.76        12.0 0.20            128            162 219 
 YPLC HZ EP       23 9 47.92                             125   -0.03 9  177 151 
 YPLC HN ES       2310 10.82                             125    0.03 9  177 151 
 YPLC HZ I        2310 14.32         7.6 0.28            127            177 151 
 ZAR  HZ EP       23 9 51.56                             121    0.92 9  204 292 
 ZAR  HN ES       2310 15.69                             121    0.12 9  204 292 
 ZAR  HZ I        2310 21.13         7.8 0.26            122            204 292 
 NOR  HZ EP       23 9 53.99                             117    0.08 8  234 235 
 NOR  HN ES       2310 21.06                             117   -0.32 8  234 235 
 NOR  HZ I        2310 27.02         7.2 0.20            118            234 235 
 ROSC BN ES       2310 26.89                             115    1.21 8  252 211 
 GUY2CHZ EP       2310  1.17                             111   -0.69 7  300 235 
 GUY2CHN ES       2310 35.50                             111   -0.04 7  300 235 
 GUY2CHZ I        2310 43.78         4.1 0.52                           300 235 
 PRA  HZ EP       2310 12.24                             105    0.39 6  391 210 
 PRA  HN ES       2310 53.65                             105    0.33 6  391 210 
 PRA  HZ I        2310 59.00         3.0 0.32            106            391 210 
                                                                                
