 2010  728 2220  0.1 L   6.766 -73.116140.4  RSN 10 0.4 2.3LRSN                1
 GAP=168        0.92       4.1     8.0  7.1  0.1972E+00 -0.4203E+01 -0.5041E+00E
 Epicentro: LOS SANTOS - SANTANDER                                             3
 ACTION:UPD 10-12-01 15:20 OP:pat  STATUS:               ID:20100728222000 L   I
 2010-07-28-2216-08S.COL___123                                                 6
 STAT SP IPHASW D HRMM SECON CODA AMPLIT PERI AZIMU VELO AIN AR TRES W  DIS CAZ7
 BAR2 SZ IP       2220 18.91                             171    -0.110   21 201 
 BAR2 SZ I        2220 19.28        48.4 0.10                            21 201 
 BAR2 SZ ES   1   2220 33.51                             171    -0.3 7   21 201 
 GIR2 SZ EP   1   2220 19.97                             165     0.7 7   36 346 
 BRR  HZ IP     D 2220 20.84                             150    -0.110   76 300 
 BRR  HZ I        2220 22.90        54.6 0.09                            76 300 
 BRR  HE ES       2220 37.60                             150     0.410   76 300 
 RUS  HZ IP     D 2220 22.91                             144    -0.210   97 178 
 RUS  HN ES   1   2220 40.95                             144     0.0 7   97 178 
 RUS  HZ I        2220 42.32        22.6 0.22                            97 178 
 GUE  SZ EP       2220 25.05                             137     0.510  120  10 
 GUE  SZ I        2220 25.90        12.3 0.12                           120  10 
 OCA  SZ EP   1   2220 27.79                             128    -0.6 7  164 352 
 OCA  SZ ES   1   2220 49.85                             128    -0.6 7  164 352 
 OCA  SZ I        2220 51.27        22.5 0.62                           164 352 
 HEL  HZ EP   2   2220 40.16                             113    -0.2 4  274 257 
 HEL  HZ I        2221 18.48        14.8 0.38                           274 257 
 GUY  SZ EP   2   2220 43.63                             111     0.1 4  302 236 
 GUY  SZ I        2220 48.07        19.1 0.41                           302 236 
 RREF HZ EP   2   2220 46.49                             110     0.4 3  322 230 
 RREF HE ES   2   2221 21.94                             110     0.1 3  322 230 
 RREF HZ I        2221 27.38        10.6 0.77                           322 230 
 PRA  HZ EP   2   2220 53.51                             106     0.2 3  390 210 
 PRA  HE ES   2   2221 33.94                             106    -0.8 3  390 210 
 PRA  HZ I        2221 40.61         8.0 0.25                           390 210 
                                                                                
