 2013 1029 0757  6.0 L   6.863 -73.317126.3  RSN  8 0.4 1.6LRSN                1
 GAP=154        1.03       3.2     5.2  6.9  0.1470E+01  0.4591E+01 -0.1963E+01E
 Epicentro: BETULIA - SANTANDER                                                3
 ACTION:UPD 13-11-25 09:24 OP:ep   STATUS:               ID:20131029075706 L   I
 OLDACT:REG 13-10-29 07:11 OP:jn   STATUS:               ID:20131029075000     3
 2013-10-29-0750-00M.COL___273                                                 6
 STAT SP IPHASW D HRMM SECON CODA AMPLIT PERI AZIMU VELO AIN AR TRES W  DIS CAZ7
 BAR2 SZ EP        757 23.87                             164    0.3110 33.4 154 
 BAR2 SZ ES        757 37.19                             164   -0.0810 33.4 154 
 BRR  HZ EP        757 24.24                             157    0.2910 51.3 302 
 BRR  HN ES        757 38.18                             157    0.2310 51.3 302 
 BRR  HZ I         757 39.25        20.5 0.12            155           51.3 302 
 RUS  HZ EP        757 29.11                             136    0.4410  110 166 
 RUS  HN ES        757 46.23                             136   -0.1410  110 166 
 RUS  HZ I         757 47.95         3.9 0.30            137            110 166 
 PTB  HZ EP        757 29.10                             131   -0.7510  131 254 
 PTB  HE ES   1    757 47.70                             131   -0.76 7  131 254 
 PTB  HZ I         757 52.88         6.3 0.30            130            131 254 
 OCA  HZ EP        757 32.13                             126    0.07 9  152 360 
 OCA  HN ES        757 51.79                             126   -0.60 9  152 360 
 OCA  HZ I         757 53.23         7.8 0.24            128            152 360 
 SPBC HZ EP        757 32.27                             125   -0.26 9  158 212 
 SPBC HN ES        757 53.53                             125    0.30 9  158 212 
 SPBC HZ I         757 58.40         4.4 0.24            125            158 212 
 ZAR  HN ES   1    757 58.56                             121    0.76 7  184 292 
 SML  HE ES   1    758  7.00                             115    0.36 6  230 339 
                                                                                
