 2012  529 0505 59.8 L   7.215 -73.918 22.9  RSN  5 0.5 1.2LRSN                1
 GAP=104        1.09       9.6     6.2 13.7 -0.2915E+02  0.2567E+02 -0.1109E+03E
 Epicentro: PUERTO WILCHES - SANTANDER                                         3
 ACTION:UP  12-07-05 12:08 OP:pat  STATUS:               ID:20120529050600 L   I
 2012-05-29-0500-00M.COL___201                                                 6
 STAT SP IPHASW D HRMM SECON CODA AMPLIT PERI AZIMU VELO AIN AR TRES W  DIS CAZ7
 PTB  HZ EP   1    5 6 14.32                             102    -0.9 7   95 219 
 PTB  HN ES   1    5 6 27.82                             102     0.6 7   95 219 
 PTB  HZ I         5 6 28.50         2.8 0.15                            95 219 
 BAR2 SZ EP   2    5 6 17.58                              56     0.5 5  107 130 
 ZAR  HZ EP   1    5 6 16.93                              56    -0.1 7  108 287 
 ZAR  HN ES   1    5 6 30.72                              56     0.3 7  108 287 
 ZAR  HZ I         5 6 34.44         4.9 0.13                           108 287 
 OCA  HN ES   1    5 6 35.80                              56     0.0 7  131  30 
 OCA  HZ I         5 6 41.15         8.6 0.16                           131  30 
 HEL  HN ES   2    5 6 53.48                              56    -0.6 4  211 238 
                                                                                
