 2010  929 0319 16.9 L   6.791 -73.092144.7  RSN 16 0.4 2.8LRSN                1
 GAP=140        0.79       3.1     5.6  5.1 -0.2679E+01  0.2317E+01  0.1354E+01E
 Epicentro: LOS SANTOS - SANTANDER                                             3
 ACTION:UP  11-02-18 11:06 OP:tino STATUS:               ID:20100929031916 L   I
 2010-09-29-0317-29S.COL___125                                                 6
 STAT SP IPHASW D HRMM SECON CODA AMPLIT PERI AZIMU VELO SNR AR TRES W  DIS CAZ7
 BTL  SZ EP        319 36.60                             170     0.210   24 306 
 BAR2 SZ EP   1    319 36.39                             170     0.0 7   24 205 
 BAR2 SZ ES   1    319 51.28                             170    -0.4 7   24 205 
 BAR2 SZ I         319 52.86       235.1 0.15                            24 205 
 BTL  SZ ES   2    319 51.63                             170     0.0 5   24 306 
 BRR  HZ EP        319 38.25                                     0.010   77 297 
 BRR  HN ES   1    319 55.58                             150     0.6 7   77 297 
 BRR  HZ I         319 57.40       111.1 0.14                            77 297 
 RUS  HZ EP        319 40.25                             144    -0.210   99 179 
 RUS  HN ES   1    319 58.34                             144    -0.5 7   99 179 
 RUS  HZ I         320  0.34        77.3 0.23                            99 179 
 GUE  SZ EP        319 41.36                             139    -0.110  116   9 
 GRA  SZ IP        319 42.19                             137     0.210  125  15 
 GRA  SZ ES   2    320  1.78                             137     0.2 5  125  15 
 GRA  SZ I         320  3.37        57.4 0.16                           125  15 
 OCA  SZ EP   1    319 44.91                             129    -0.4 7  162 351 
 OCA  SZ I         320 11.62        54.0 0.27                           162 351 
 YOP  SZ EP   1    319 46.91                             127     0.4 7  175 155 
 YOP  SN ES   2    320 10.08                             127     0.5 4  175 155 
 NOR  SZ EP   1    319 52.40                             118    -0.6 6  239 236 
 CHI  HZ EP   1    319 54.22                             117    -0.4 6  249 197 
 CHI  HZ I         319 54.86        32.2 0.14                           249 197 
 CHI  HE ES   2    320 23.83                             117    -0.2 4  249 197 
 ROSC BZ EP   1    319 56.09                             116     0.9 6  255 212 
 ROSC BN ES   2    320 26.05                             116     1.0 4  255 212 
 ROSC BZ I         320 31.28        47.2 0.52                           255 212 
 CVER SZ EP   2    319 57.65                             114     0.3 4  274 203 
 CVER SZ I         319 59.43        65.6 0.46                           274 203 
 HEL  HZ EP   2    319 57.53                             114    -0.1 4  278 256 
 HEL  HZ I         320 34.08        20.3 0.22                           278 256 
 DBB  SZ EP   2    320  4.42                             109    -0.6 3  346 274 
 TOL  SZ EP   1    320  5.35                             109    -0.2 5  347 225 
 ANIL HZ EP   2    320  6.86                             108    -0.2 3  361 225 
 ANIL HE ES   2    320 46.25                             108     0.1 3  361 225 
 ANIL HZ I         320 52.96        66.3 0.22                           361 225 
                                                                                
