 2012  829 0425 59.7 L   6.806 -73.183142.8  RSN  7 0.4 1.6LRSN                1
 GAP=138        0.51       5.5     5.1 11.2 -0.1348E+02 -0.8797E+01  0.2395E+02E
 Epicentro: LOS SANTOS - SANTANDER                                             3
 ACTION:UPD 12-09-10 11:59 OP:ep   STATUS:               ID:20120829042559 L   I
 2012-08-29-0420-00M.COL___218                                                 6
 STAT SP IPHASW D HRMM SECON CODA AMPLIT PERI AZIMU VELO AIN AR TRES W  DIS CAZ7
 BAR2 SZ EP   3    426 18.98                             169    0.03 2 23.6 180 
 BAR2 SZ ES   3    426 33.39                             169   -0.59 2 23.6 180 
 BAR2 SZ I         426 34.43         7.8 0.36                          23.6 180 
 GIR2 SZ EP   3    426 19.20                             168    0.24 2 30.2 358 
 BRR  HZ EP   3    426 19.94                             154   -0.34 2 67.3 300 
 BRR  HE ES   3    426 37.87                             154    1.51 2 67.3 300 
 BRR  HZ I         426 41.97         9.3 0.14                          67.3 300 
 PAM  SZ EP        426 21.88                             150    0.1710 79.6  42 
 PAM  SZ I         426 22.20        11.3 0.26                          79.6  42 
 PTB  HZ EP        426 26.05                             132    0.01 9  144 258 
 PTB  HN ES   2    426 46.31                             132   -0.30 5  144 258 
 PTB  HZ I         426 49.74         2.5 0.12                           144 258 
 OCA  HN ES   1    426 49.09                             129   -0.39 7  159 355 
 OCA  HZ I         426 54.05         9.2 0.18                           159 355 
 ZAR  HN ES   3    426 56.78                             122    0.44 2  200 292 
                                                                                
