 2015  829 0111  7.1 L   6.797 -73.124149.9  RSN 19 0.5 2.2LRSN                1
 GAP=121        1.07       2.6     3.8  5.0 -0.1632E+01  0.5593E+01  0.2140E+01E
 Epicentro: LOS SANTOS - SANTANDER                                             3
 ACTION:UPD 15-09-15 23:06 OP:cam  STATUS:               ID:20150829011107 L   I
 OLDACT:REG 15-08-29 13:00 OP:ak   STATUS:               ID:20150829010750     3
 2015-08-29-0107-50M.COL___358                                                 6
 STAT SP IPHASW D HRMM SECON CODA AMPLIT PERI AZIMU VELO AIN AR TRES W  DIS CAZ7
 BAR2 EZ EP        111 27.15                             171   -0.0510 23.6 196 
 BAR2 EZ ES        111 42.72                             171   -0.1810 23.6 196 
 BAR2 EZ I         111 44.71        26.8 0.38            168           23.6 196 
 BRR  HZ EP        111 29.03                             152    0.2410 73.5 298 
 BRR  HN ES        111 46.36                             152    0.6210 73.5 298 
 PAM  EZ EP        111 30.02                             152    0.3710 76.1  38 
 PAM  EN ES        111 47.81                             152    0.5510 76.1  38 
 PAM  EZ I         111 49.66        19.7 0.40            155           76.1  38 
 RUS  HZ EP        111 31.11                             145   -0.0810  100 177 
 RUS  HN ES        111 49.24                             145   -0.7810  100 177 
 RUS  HZ I         111 51.39        10.8 0.18            146            100 177 
 OCA  HZ EP        111 35.44                             130   -0.31 9  161 352 
 OCA  HE ES        111 58.19                             130    0.06 9  161 352 
 OCA  HZ I         112  3.25        39.5 0.35            131            161 352 
 SPBC HZ EP        111 36.17                             130    0.17 9  164 220 
 SPBC HN ES        111 58.29                             130   -0.29 9  164 220 
 SPBC HZ I         112  1.60        33.0 0.12            129            164 220 
 ZAR  HZ EP        111 39.86                             123   -0.16 8  206 292 
 ZAR  HN ES        112  5.53                             123   -0.20 8  206 292 
 ZAR  HZ I         112 11.09        12.9 0.24            122            206 292 
 NOR  HZ EP        111 43.48                             119    0.25 8  237 235 
 NOR  HN ES        112 10.59                             119   -0.85 8  237 235 
 NOR  HZ I         112 14.45        10.6 0.18            119            237 235 
 SML  HZ EP        111 43.75                             118   -0.31 8  245 335 
 SML  HN ES        112 12.13                             118   -0.79 8  245 335 
 SML  HZ I         112 16.97        25.0 0.10            118            245 335 
 CHI  HZ EP        111 44.68                             118   -0.35 8  249 196 
 CHI  HN ES        112 15.39                             118    0.74 8  249 196 
 CHI  HZ I         112 22.61         3.7 0.37            119            249 196 
 HEL  HZ EP   1    111 48.12                             115    0.38 6  274 256 
 HEL  HN ES        112 19.33                             115   -0.14 8  274 256 
 HEL  HZ I         112 25.78         8.3 0.38            115            274 256 
 URE  HZ EP   4    111 47.20                             114   -1.40 0  286 292 
 URE  HN ES   4    112 18.70                             114   -2.30 0  286 292 
 URE  HZ I         112 30.90         7.6 0.34            114            286 292 
 GUY2CHZ EP   1    111 51.34                             113    0.27 5  303 235 
 GUY2CHN ES        112 26.12                             113    0.73 7  303 235 
 GUY2CHZ I         112 32.13         7.3 0.30                           303 235 
 PTGC HZ EP        111 50.05                             112   -0.93 7  308 159 
 PTGC HN ES   4    112 23.22                             112   -2.01 0  308 159 
 CBOC HZ EP        111 54.89                             110    0.49 7  336 252 
 CBOC HN ES        112 30.62                             110   -0.71 7  336 252 
 CBOC HZ I         112 42.64         2.5 0.67            110            336 252 
 TOL  SZ EP        111 56.29                             110    0.63 7  345 225 
 TOL  SN ES        112 33.94                             110    0.38 7  345 225 
 TOL  SZ I         112 43.55         4.3 0.26            110            345 225 
 PRA  HZ EP        112  0.61                             107   -0.23 6  393 210 
 PRA  HN ES        112 42.46                             107   -0.32 6  393 210 
 PRA  HZ I         112 50.46         3.7 0.32            108            393 210 
 ORTC HZ EP        112  2.08                             107    0.82 6  397 216 
 ORTC HN ES        112 44.39                             107    0.85 6  397 216 
 ORTC HZ I         112 50.76         3.3 0.33            107            397 216 
 CRJC HZ EP   4    112  7.37                             104   -2.33 0  468   3 
 CRJC HN ES   4    112 53.14                             104   -5.41 0  468   3 
 CRJC HZ I         113  0.92         3.3 0.47            105            468   3 
                                                                                
