 2010  729 0712  4.6 L   6.801 -73.077147.6  RSN  5 0.4 1.4LRSN                1
 GAP=166        1.00       8.9    19.6 21.1  0.9080E+02 -0.3006E+03 -0.1113E+03E
 Epicentro: LOS SANTOS - SANTANDER                                             3
 ACTION:UPD 10-12-01 15:20 OP:pat  STATUS:               ID:20100729071204 L   I
 2010-07-29-0709-23S.COL___123                                                 6
 STAT SP IPHASW D HRMM SECON CODA AMPLIT PERI AZIMU VELO AIN AR TRES W  DIS CAZ7
 BAR2 SZ EP   1    712 24.44                             169     0.0 7   26 207 
 BAR2 SZ I         712 40.26         7.3 0.21                            26 207 
 BRR  HZ EP   1    712 26.40                             151     0.1 7   78 296 
 BRR  HN ES   1    712 43.28                             151     0.0 7   78 296 
 BRR  HZ I         712 47.75         6.6 0.02                            78 296 
 RUS  HZ EP   1    712 28.49                             144     0.0 7  100 180 
 RUS  HN ES   1    712 47.17                             144     0.0 7  100 180 
 RUS  HZ I         712 49.15         2.6 0.39                           100 180 
 GUE  SZ EP   1    712 28.54                             140    -0.8 7  115   8 
 GRA  SZ EP   1    712 30.55                             138     0.8 7  124  14 
 GRA  SZ I         712 52.13         2.6 0.26                           124  14 
                                                                                
