 2017  929 0737 14.7 L   6.869 -73.103147.1  RSN 31 0.7 2.7LRSN                1
 GAP= 58        1.41       3.2     3.6  5.7 -0.2193E+01  0.4793E+01  0.6041E+00E
 Epicentro: LOS SANTOS - SANTANDER                                             3
 ACTION:UPD 17-10-05 19:17 OP:rebc STATUS:               ID:20170929073714 L   I
 OLDACT:UP  17-09-29 18:38 OP:edw  STATUS:               ID:20170929072736     3
 OLDACT:UP  17-09-29 18:37 OP:edw  STATUS:               ID:20170929072736     3
 OLDACT:REG 17-09-29 13:12 OP:edw  STATUS:               ID:20170929072736     3
 2017-09-29-0728-00M.COL___432                                                 6
 STAT SP IPHASW D HRMM SECON CODA AMPLIT PERI AZIMU VELO AIN AR TRES W  DIS CAZ7
 BAR2 EZ IP     C  737 34.44                             167   -0.2310 31.8 196 
 BAR2 EZ ES        737 49.14                             167   -1.1210 31.8 196 
 BAR2 EZ I         737 50.90        82.6 0.58            167           31.8 196 
 PAM  EZ EP        737 37.24                             154    0.7110 68.5  41 
 PAM  EN ES        737 54.11                             154    0.5210 68.5  41 
 PAM  EZ I         737 54.89        87.1 0.18            154           68.5  41 
 BRR  HZ IP     C  737 36.27                             152    0.2410 72.3 291 
 BRR  HN ES        737 53.26                             152    0.5710 72.3 291 
 BRR  HZ I         737 56.29        84.5 0.22            150           72.3 291 
 RUS  HZ EP     C  737 38.52                             142   -0.5810  108 179 
 RUS  HN ES        737 57.11                             142   -1.0510  108 179 
 RUS  HZ I         737 58.80       147.1 0.30            142            108 179 
 TAM  HZ IP     C  737 42.85                             131    0.61 9  153 108 
 TAM  HN ES        738  4.03                             131    0.29 9  153 108 
 TAM  HZ I         738  4.85        53.6 0.30            132            153 108 
 YPLC HZ IP     C  737 45.04                             126    0.03 9  181 154 
 YPLC HN ES        738  8.96                             126    0.28 9  181 154 
 YPLC HZ I         738 11.33        40.8 0.50            126            181 154 
 ZAR  HZ EP        737 47.65                             122    0.27 8  206 290 
 ZAR  HN ES        738 13.65                             122    0.75 8  206 290 
 ZAR  HZ I         738 18.73        90.9 0.42            121            206 290 
 TABC EZ EP        737 52.87                             118    1.41 8  239 211 
 TABC EZ ES        738 21.68                             118    1.53 8  239 211 
 TABC EZ I         738 23.88        67.1 0.42            118            239 211 
 NOR  HZ EP        737 51.11                             118   -0.26 8  243 234 
 NOR  HN ES        738 19.19                             118   -0.81 8  243 234 
 NOR  HZ I         738 22.37        50.7 0.26            117            243 234 
 CHI  HZ EP        737 53.14                             116   -0.24 8  257 196 
 CHI  HN ES        738 23.32                             116   -0.25 8  257 196 
 CHI  HZ I         738 25.60        16.2 0.44            116            257 196 
 ROSC BZ EP        737 54.95                             116    1.10 8  262 211 
 ROSC BN ES        738 24.23                             116   -0.17 8  262 211 
 ROSC BZ I         738 28.36        40.3 0.30            115            262 211 
 HEL  HZ EP        737 55.88                             114    0.20 7  279 255 
 HEL  HN ES        738 28.44                             114    0.78 7  279 255 
 HEL  HZ I         738 32.71        33.0 0.58            113            279 255 
 URE  HZ EP   4    737 54.77                             114   -1.23 0  286 290 
 URE  HN ES   4    738 25.22                             114   -3.01 0  286 290 
 URE  HZ I         738 28.02        50.5 0.12            113            286 290 
 GUY2CHZ EP        737 59.11                             112   -0.17 7  309 234 
 GUY2CHN ES        738 33.62                             112   -0.45 7  309 234 
 GUY2CHZ I         738 47.43        20.0 0.50                           309 234 
 VIL  EZ EP        737 58.75                             112   -0.36 7  312 192 
 VIL  EN ES        738 32.85                             112   -0.91 7  312 192 
 VIL  EZ I         738 42.15        30.4 0.30            111            312 192 
 PTGC HZ EP   4    737 57.91                             111   -1.30 0  314 160 
 PTGC HN ES   4    738 31.42                             111   -2.52 0  314 160 
 PTGC HZ I         738 33.74        31.4 0.48            111            314 160 
 LL6C HZ EP        737 59.22                             111   -0.37 7  318 357 
 LL6C HN ES        738 33.66                             111   -0.97 7  318 357 
 LL6C HZ I         738 45.37        11.1 0.74            110            318 357 
 ELA  HZ EP   4    738  3.80                             110    1.24 0  338 229 
 ELA  HN ES   4    738 43.27                             110    3.36 0  338 229 
 ELA  HZ I         738 50.54        33.9 0.38            109            338 229 
 SDV  BZ EP        738  4.20                             109    0.42 6  352  51 
 SDV  B1 ES        738 41.78                             109   -0.31 6  352  51 
 SDV  BZ I         738 45.21        13.1 0.45            109            352  51 
 ARGC HZ EP   4    738  5.30                             109    1.56 0  354 339 
 ARGC HN ES   4    738 43.68                             109    1.66 0  354 339 
 ARGC HZ I         738 53.91         8.3 0.40            108            354 339 
 ANIL HZ EP        738  4.77                             108   -0.77 6  366 224 
 ANIL HN ES        738 44.89                             108   -0.33 6  366 224 
 ANIL HZ I         738 51.91        55.4 0.28            108            366 224 
 APAC HZ EP        738  8.83                             106   -0.34 6  400 287 
 APAC HN ES   4    738 50.34                             106   -1.34 0  400 287 
 APAC HZ I         738 56.06         8.0 0.38            106            400 287 
 PRA  HZ EP        738  8.92                             106   -0.37 6  401 210 
 PRA  HN ES   4    738 50.07                             106   -1.82 0  401 210 
 PRA  HZ I         738 56.06        22.3 0.22            106            401 210 
 ORTC HZ EP        738  9.61                             106   -0.08 6  404 216 
 ORTC HN ES        738 53.28                             106    0.68 6  404 216 
 ORTC HZ I         738 57.33         8.6 0.42            106            404 216 
 SJC  HZ EP        738  9.06                             106   -0.78 6  406 326 
 SJC  HN ES   4    738 50.15                             106   -2.73 0  406 326 
 SJC  HZ I         738 54.46         7.9 0.32            105            406 326 
 PAL  HZ EP        738 10.60                             106   -0.22 6  414 239 
 PAL  HE ES   4    738 52.58                             106   -2.03 0  414 239 
 PAL  HZ I         739  0.82         8.5 0.24            105            414 239 
 CRJC HZ EP        738 15.14                             104   -1.14 5  460   3 
 CRJC HN ES   4    739  1.63                             104   -2.70 0  460   3 
 CRJC HZ I         739  6.85         9.7 0.34            103            460   3 
 YOT  HZ EP        738 17.78                             103   -0.99 5  480 229 
 YOT  HN ES   4    739 13.71                             103    4.94 0  480 229 
 YOT  HZ I         739 14.45         1.9 0.32            103            480 229 
 GUA  EZ EP   4    738 17.04                             103   -1.65 0  481 174 
 GUA  EE ES   4    739  5.92                             103   -2.71 0  481 174 
 GUA  EZ I         739 15.08        31.8 0.42            103            481 174 
 JAMC HZ EP        738 28.12                             101   -0.95 3  566 225 
 JAMC HN ES        739 27.28                             101    0.19 3  566 225 
 CONO HZ EP        738 36.44                              99    0.29 3  621 216 
 CONO HN ES   4    739 40.98                              99    1.28 0  621 216 
 CONO HZ I         739 43.17         3.1 0.30             99            621 216 
                                                                                
