 2014 1029 0542 16.8 L   6.820 -73.113140.4  RSN  5 0.7 1.1LRSN                1
 GAP=140        1.89       9.9     9.7 13.8 -0.9321E+01  0.1822E+02  0.7883E+01E
 Epicentro: LOS SANTOS - SANTANDER                                             3
 ACTION:UPD 14-11-29 23:58 OP:nd   STATUS:               ID:20141029054216 L   I
 OLDACT:DUP 14-10-31 00:30 OP:stll STATUS:               ID:20141029053746d    3
 2014-10-29-0537-45M.COL___274                                                 6
 STAT SP IPHASW D HRMM SECON CODA AMPLIT PERI AZIMU VELO AIN AR TRES W  DIS CAZ7
 BAR2 SZ EP        542 36.46                             169    0.6610 26.3 197 
 BAR2 SZ ES        542 51.81                             169    1.1510 26.3 197 
 BAR2 SZ I         542 53.77         3.5 0.18            168           26.3 197 
 BRR  HZ EP        542 37.55                             151    0.1010 73.4 296 
 BRR  HN ES        542 54.14                             151    0.5410 73.4 296 
 BRR  HZ I         542 58.54         2.7 0.46            151           73.4 296 
 PAM  SZ EP        542 38.36                             151    0.2010 73.4  38 
 PAM  SE ES        542 53.67                             151   -1.1910 73.4  38 
 RUS  HZ EP        542 40.45                             142    0.3210  103 178 
 RUS  HE ES        542 57.51                             142   -0.8510  103 178 
 RUS  HZ I         543  0.09         1.0 0.28            145            103 178 
 PTB  HZ EP        542 43.52                             130   -0.13 9  152 258 
 PTB  HE ES        543  3.68                             130   -0.96 9  152 258 
 PTB  HZ I         543  7.68         2.0 0.32            131            152 258 
                                                                                
