 2013  829 0010 56.0 L   6.763 -73.185146.3  RSN  5 0.4 1.5LRSN                1
 GAP=230        0.96       6.7     7.7  9.7  0.2687E+02  0.1546E+01 -0.4688E+01E
 Epicentro: VILLANUEVA - SANTANDER                                             3
 ACTION:UPD 14-01-14 09:08 OP:ep   STATUS:               ID:20130829001056 L   I
 OLDACT:REG 13-08-29 08:13 OP:jn   STATUS:               ID:20130829000846     3
 2013-08-29-0008-46M.COL___218                                                 6
 STAT SP IPHASW D HRMM SECON CODA AMPLIT PERI AZIMU VELO AIN AR TRES W  DIS CAZ7
 BRR  HZ EP     C  011 17.29                             153    0.1710 69.6 303 
 BRR  HE ES   1    011 34.04                             153    0.44 7 69.6 303 
 RUS  HZ EP        011 19.63                             145    0.0910 96.9 173 
 RUS  HN ES        011 37.50                             145   -0.4110 96.9 173 
 RUS  HZ I         011 39.02         3.1 0.24            143           96.9 173 
 PTB  HZ EP        011 21.95                             133   -0.62 9  143 260 
 PTB  HN ES   1    011 42.87                             133   -0.42 7  143 260 
 PTB  HZ I         011 45.38         4.8 0.16            132            143 260 
 SPBC HZ EP        011 24.47                             130    0.48 9  157 219 
 SPBC HN ES   1    011 46.49                             130    0.67 7  157 219 
 SPBC HZ I         011 49.20         4.1 0.28            129            157 219 
 ZAR  HN ES   1    011 53.22                             123   -0.16 6  202 294 
 SML  HZ EP   4    011 30.71                             117   -2.16 0  246 337 
                                                                                
