 2013  129 0756 47.8 L   6.699 -73.556110.5  RSN  5 0.3 1.5LRSN                1
 GAP=110        0.83       4.7     3.8  6.6  0.5370E+01  0.2072E+01  0.4301E+01E
 Epicentro: EL CARMEN DE CHUCURI - SANTANDER                                   3
 ACTION:UPD 13-02-15 09:17 OP:ep   STATUS:               ID:20130129075647 L   I
 2013-01-29-0750-00M.COL___241                                                 6
 STAT SP IPHASW D HRMM SECON CODA AMPLIT PERI AZIMU VELO AIN AR TRES W  DIS CAZ7
 BAR2 SZ EP        757  4.11                             157    0.1410 43.0 106 
 BAR2 SZ ES        757 16.13                             157   -0.4310 43.0 106 
 BAR2 SZ I         757 17.75        27.8 0.17             47           43.0 106 
 BRR  HZ IP     C  757  4.06                             154    0.1710 48.3 339 
 BRR  HE ES        757 16.84                             154    0.4310 48.3 339 
 BRR  HZ I         757 17.63        14.5 0.12             47           48.3 339 
 PTB  HZ IP     C  757  7.84                             134    0.1310  101 260 
 PTB  HN ES        757 22.79                             134   -0.4210  101 260 
 PTB  HZ I         757 28.07         4.0 0.12             47            101 260 
 RUS  HZ EP        757  8.56                             134    0.0010  103 150 
 RUS  HE ES        757 24.98                             134    0.2610  103 150 
 RUS  HE I         757 26.31         9.4 0.32             47            103 150 
 PAM  SZ EP   1    757  9.34                             130   -0.56 7  118  53 
 PAM  SZ I         757 29.01         2.9 0.22             47            118  53 
                                                                                
