 2014 1029 0940 48.3 L   6.803 -73.157133.7  RSN  5 0.3 1.0LRSN                1
 GAP=135        0.85       6.2     5.5  9.1  0.2241E+01 -0.1533E+01 -0.2347E+02E
 Epicentro: LOS SANTOS - SANTANDER                                             3
 ACTION:UPD 14-11-29 23:58 OP:nd   STATUS:               ID:20141029094048 L   I
 OLDACT:ARG 14-10-30 20:25 OP:stll STATUS:               ID:20141029093745     3
 2014-10-29-0937-45M.COL___268                                                 6
 STAT SP IPHASW D HRMM SECON CODA AMPLIT PERI AZIMU VELO AIN AR TRES W  DIS CAZ7
 BAR2 SZ ES        941 20.85                             170    0.1710 23.5 187 
 BRR  HZ EP        941  8.61                             151    0.5110 69.9 299 
 PAM  SZ EP        941  8.86                             148   -0.4410 77.9  40 
 PAM  SZ I         941 10.21         3.7 0.16            148           77.9  40 
 RUS  HZ EP        941 11.12                             141    0.1810  101 175 
 RUS  HN ES        941 28.45                             141   -0.1310  101 175 
 RUS  HZ I         941 29.73         1.1 0.24            141            101 175 
 PTB  HN ES        941 34.10                             129   -0.32 9  147 259 
                                                                                
