 2015  429 0808 42.3 L   6.789 -73.141145.0  RSN 10 0.5 1.5LRSN                1
 GAP= 72        1.27       4.0     4.0  7.4  0.1559E+01  0.3004E+01 -0.4550E+01E
 Epicentro: LOS SANTOS - SANTANDER                                             3
 ACTION:UPD 15-06-03 16:58 OP:cam  STATUS:               ID:20150429080842 L   I
 OLDACT:DUP 15-04-29 13:40 OP:stll STATUS:               ID:20150429075750d    3
 2015-04-29-0757-49M.COL___277                                                 6
 STAT SP IPHASW D HRMM SECON CODA AMPLIT PERI AZIMU VELO AIN AR TRES W  DIS CAZ7
 BAR2 EZ EP        8 9  2.25                             171    0.3910 22.2 192 
 BAR2 EZ ES        8 9 16.69                             171   -0.3910 22.2 192 
 BAR2 EZ I         8 9 20.10         4.6 0.30            172           22.2 192 
 BRR  HZ EP        8 9  4.15                             152    0.6810 72.3 299 
 BRR  HN ES        8 9 20.61                             152    0.6610 72.3 299 
 BRR  HZ I         8 9 25.43         4.3 0.70            152           72.3 299 
 PAM  SZ EP        8 9  5.00                             150    0.4910 78.0  39 
 PAM  SN ES        8 9 21.98                             150    0.1810 78.0  39 
 PAM  SZ I         8 9 24.24         5.0 0.52            154           78.0  39 
 RUS  HZ EP        8 9  6.20                             144    0.2810 99.3 176 
 RUS  HN ES        8 9 24.52                             144    0.2010 99.3 176 
 RUS  HZ I         8 9 25.71         2.7 0.28            148           99.3 176 
 PTB  HZ EP        8 9  9.19                             132   -0.08 9  148 259 
 PTB  HN ES        8 9 30.16                             132   -0.12 9  148 259 
 PTB  HZ I         8 9 32.96         3.9 0.18            133            148 259 
 TAM  HZ EP        8 9 10.11                             130    0.24 9  154 105 
 TAM  HN ES        8 9 30.37                             130   -0.98 9  154 105 
 OCA  HE ES        8 9 32.62                             129   -0.22 9  162 353 
 OCA  HZ I         8 9 37.82         8.6 0.32            131            162 353 
 SPBC HN ES        8 9 32.12                             129   -0.74 9  163 219 
 SPBC HZ I         8 9 38.74         7.0 0.38            131            163 219 
 ZAR  HZ EP        8 9 14.51                             122   -0.32 9  205 292 
 ZAR  HN ES        8 9 40.16                             122   -0.02 9  205 292 
 ZAR  HZ I         8 9 45.71         3.1 0.32            124            205 292 
 SML  HZ EP        8 9 19.22                             117    0.15 8  245 335 
 SML  HN ES        8 9 46.55                             117   -1.16 8  245 335 
 SML  HZ I         8 9 50.57         5.4 0.10            119            245 335 
                                                                                
