 2012 1029 0029 32.3 L   6.191 -73.457130.9  RSN 10 0.4 2.2LRSN                1
 GAP= 94        0.69       2.6     3.7  5.8 -0.2577E+01  0.9579E+01  0.2209E+01E
 Epicentro: GUADALUPE - SANTANDER                                              3
 ACTION:UPD 12-11-22 17:06 OP:ep   STATUS:               ID:20121029002932 L   I
 2012-10-29-0026-49M.COL___199                                                 6
 STAT SP IPHASW D HRMM SECON CODA AMPLIT PERI AZIMU VELO AIN AR TRES W  DIS CAZ7
 RUS  HZ EP   1    029 51.41                             157   -0.20 7 52.9 129 
 RUS  HN ES   1    030  6.55                             157   -0.09 7 52.9 129 
 RUS  HN I         030  8.11        17.9 0.20                          52.9 129 
 BAR2 SZ EP        029 50.93                             157   -0.3510 53.7  34 
 BAR2 SZ ES   1    030  5.72                             157   -0.33 7 53.7  34 
 BAR2 SZ I         030  7.16        35.5 0.16                          53.7  34 
 GIR2 SZ EP        029 54.11                             140   -0.2010  102  17 
 GIR2 SZ ES   1    030 11.70                             140    0.26 7  102  17 
 BRR  HZ EP        029 54.20                             139   -0.1310  105 344 
 BRR  HN ES   1    030 12.06                             139    0.58 7  105 344 
 BRR  HN I         030 13.50        72.3 0.14                           105 344 
 PAM  SZ EP   1    029 59.56                             128    0.38 7  152  33 
 PAM  SN ES   1    030 20.54                             128    0.42 7  152  33 
 PAM  SN I         030 22.42        10.5 0.46                           152  33 
 CHI  HZ EP   1    030  1.09                             123   -0.30 7  175 190 
 CHI  HE ES   1    030 24.59                             123    0.54 7  175 190 
 CHI  HE I         030 28.71        14.0 0.34                           175 190 
 ZAR  HZ EP   2    030  4.35                             118   -0.30 4  211 313 
 ZAR  HN ES   2    030 29.33                             118   -0.51 4  211 313 
 ZAR  HN I         030 37.38        27.6 0.32                           211 313 
 HEL  HZ EP   1    030  6.96                             116   -0.10 6  229 270 
 HEL  HN ES   1    030 33.79                             116   -0.35 6  229 270 
 HEL  HN I         030 41.25         8.5 0.20                           229 270 
 RREF HZ EP   1    030 10.83                             113    0.76 6  253 236 
 RREF HN ES   1    030 39.85                             113    0.34 6  253 236 
 RREF HZ I         030 47.17        10.0 0.26                           253 236 
 PRA  HZ EP   1    030 16.86                             108    0.34 5  316 210 
 PRA  HN ES   1    030 50.61                             108   -0.38 5  316 210 
 PRA  HN I         030 55.74        15.3 0.56                           316 210 
                                                                                
