 2011  129 0206 39.0 L   6.834 -73.200143.9  RSN  5 0.3 1.3LRSN                1
 GAP=152        0.61       3.1     9.4  7.8 -0.1210E+02  0.2678E+02 -0.4351E+01E
 Epicentro: ZAPATOCA - SANTANDER                                               3
 ACTION:UP  11-02-08 08:43 OP:pat  STATUS:               ID:20110129020639 L   I
 2011-01-29-0202-56S.COL___137                                                 6
 STAT SP IPHASW D HRMM SECON CODA AMPLIT PERI AZIMU VELO SNR AR TRES W  DIS CAZ7
 BAR2 SZ ES   2    2 7 13.45                             169    -0.2 5   27 176 
 RUS  HZ EP        2 7  2.57                             142    -0.310  105 173 
 RUS  HZ I         2 7  4.59         1.5 0.81                           105 173 
 RUS  HE ES   1    2 7 21.59                             142     0.1 7  105 173 
 GRA  SZ EP        2 7  4.16                             137     0.310  124  21 
 GRA  SZ ES   1    2 7 23.21                             137    -0.1 7  124  21 
 GRA  SZ I         2 7 25.44         4.4 0.40                           124  21 
 CHI  HZ EP   2    2 7 16.22                             116    -0.6 4  251 194 
 CHI  HN ES   1    2 7 46.69                             116     0.4 6  251 194 
 CHI  HZ I         2 7 49.30         1.9 0.67                           251 194 
 MON  HE ES   2    2 8  4.53                             109     0.0 3  346 309 
                                                                                
