 2012  629 0937  3.4 L   7.401 -73.207132.6  RSN  6 0.3 1.5LRSN                1
 GAP=104        0.56       3.2     3.2  5.4 -0.1387E+01  0.5865E+01 -0.1122E+01E
 Epicentro: EL PLAYON - SANTANDER                                              3
 ACTION:UPD 12-08-06 17:53 OP:ep   STATUS:               ID:20120629093703 L   I
 2012-06-29-0930-00M.COL___201                                                 6
 STAT SP IPHASW D HRMM SECON CODA AMPLIT PERI AZIMU VELO AIN AR TRES W  DIS CAZ7
 PAM  SZ EP   1    937 23.15                             156    0.11 7 56.4  97 
 PAM  SN ES   1    937 38.35                             156   -0.01 7 56.4  97 
 BRR  HZ EP   1    937 22.87                             152    0.10 7 64.5 240 
 BRR  HN ES   1    937 38.20                             152    0.34 7 64.5 240 
 BRR  HZ I         937 38.99         9.4 0.16                          64.5 240 
 BAR2 SZ EP   1    937 24.80                             144    0.09 7 89.4 178 
 BAR2 SZ ES   1    937 41.29                             144   -0.03 7 89.4 178 
 BAR2 SZ I         937 42.67         5.9 0.15                          89.4 178 
 OCA  HZ EP   1    937 24.87                             143   -0.02 7 93.5 352 
 OCA  HN ES   1    937 41.32                             143   -0.32 7 93.5 352 
 PTB  HZ EP   1    937 31.31                             125    0.02 7  168 235 
 PTB  HN ES   1    937 52.34                             125   -0.70 7  168 235 
 PTB  HZ I         937 54.71         2.4 0.20                           168 235 
 ZAR  HZ EP   1    937 32.73                             122   -0.06 7  183 273 
 ZAR  HE ES   1    937 56.14                             122    0.44 7  183 273 
 ZAR  HZ I         937 58.96         2.9 0.27                           183 273 
                                                                                
