 2013 1029 0710 50.7 L   7.554 -73.041153.2  RSN  8 0.4 1.7LRSN                1
 GAP=144        0.77       3.2     4.7  5.6  0.2633E+01  0.4704E+01  0.3252E+01E
 Epicentro: EL PLAYON - SANTANDER                                              3
 ACTION:UPD 13-11-25 09:24 OP:ep   STATUS:               ID:20131029071050 L   I
 OLDACT:REG 13-10-29 07:07 OP:jn   STATUS:               ID:20131029071000     3
 2013-10-29-0710-00M.COL___273                                                 6
 STAT SP IPHASW D HRMM SECON CODA AMPLIT PERI AZIMU VELO AIN AR TRES W  DIS CAZ7
 PAM  SZ EP        711 12.46                             163    0.2710 44.5 122 
 PAM  SN ES        711 29.22                             163    0.2810 44.5 122 
 PAM  SZ I         711 30.13         8.2 0.18            164           44.5 122 
 OCA  HN ES        711 31.15                             150   -0.1210 81.7 338 
 OCA  HZ I         711 33.14         9.4 0.38            153           81.7 338 
 BRR  HZ EP        711 13.85                             148    0.1210 89.1 236 
 BRR  HN ES        711 31.78                             148    0.1010 89.1 236 
 BRR  HZ I         711 34.41         7.2 0.14            147           89.1 236 
 BAR2 SZ EP        711 15.29                             143   -0.0510  108 188 
 BAR2 SZ ES        711 34.41                             143   -0.1310  108 188 
 BAR2 SZ I         711 38.25        12.1 0.44            143            108 188 
 SML  HZ EP   1    711 21.12                             128   -0.01 7  179 321 
 SML  HE ES   2    711 44.32                             128   -0.53 4  179 321 
 RUS  HZ EP   1    711 22.30                             127    0.01 7  184 181 
 RUS  HN ES        711 46.15                             127   -0.76 9  184 181 
 RUS  HZ I         711 48.25         1.6 0.32            128            184 181 
 ZAR  HN ES   1    711 48.52                             125   -0.22 6  201 268 
 ZAR  HZ I         711 48.86         6.4 0.24            125            201 268 
 SPBC HZ EP   1    711 27.29                             120   -0.13 6  239 209 
 SPBC HN ES   1    711 57.05                             120    1.01 6  239 209 
 SPBC HZ I         712  3.90         3.6 0.24            120            239 209 
 SJC  HZ EP   4    711 38.56                             110   -1.12 0  350 318 
 SJC  HE ES   4    712 15.18                             110   -2.69 0  350 318 
                                                                                
