 2017 1129 0411 28.5 L   6.790 -73.205137.4  RSN  7 0.4 1.5LRSN                1
 GAP=177        0.96       3.4     4.6  7.1 -0.1275E+01  0.9345E+01 -0.3478E+01E
 Epicentro: ZAPATOCA - SANTANDER                                               3
 ACTION:UPD 17-12-12 20:01 OP:rebc STATUS:               ID:20171129041128 L   I
 OLDACT:REG 17-11-29 12:19 OP:dhb  STATUS:               ID:20171129040741     3
 2017-11-29-0408-00M.COL___492                                                 6
 STAT SP IPHASW D HRMM SECON CODA AMPLIT PERI AZIMU VELO AIN AR TRES W  DIS CAZ7
 BAR2 EZ EP        411 46.50                             170   -0.5610 22.0 174 
 BAR2 EZ ES        412  1.49                             170   -0.0710 22.0 174 
 BAR2 EZ I         412  4.30         7.7 0.44            171           22.0 174 
 RUS  HZ EP        411 50.93                             142   -0.4410  100 172 
 RUS  HE ES        412  9.43                             142    0.2010  100 172 
 RUS  HZ I         412 10.35         5.2 0.32            146            100 172 
 PTB  HZ EP        411 53.94                             131   -0.21 9  141 259 
 PTB  HE ES        412 14.17                             131   -0.01 9  141 259 
 PTB  HZ I         412 17.82         2.2 0.18            132            141 259 
 SPBC HZ EP        411 56.75                             128    0.89 9  158 217 
 SPBC HN ES        412 17.57                             128    0.34 9  158 217 
 SPBC HZ I         412 24.17         4.6 0.48            130            158 217 
 OCA  HZ EP        411 56.50                             127    0.32 9  161 355 
 OCA  HN ES        412 17.92                             127    0.13 9  161 355 
 OCA  HZ I         412 20.38         6.3 0.28            130            161 355 
 ZAR  HE ES        412 24.21                             121   -0.01 9  198 293 
 ZAR  HZ I         412 31.03         3.4 0.38            123            198 293 
 GUY2CHZ EP   1    412 10.75                             111   -0.27 5  295 234 
 GUY2CHE ES        412 43.70                             111   -0.51 7  295 234 
 GUY2CHZ I         412 52.40         1.2 0.38                           295 234 
                                                                                
