 2010  929 0348 19.6 L   6.732 -73.499113.2  RSN  5 0.1 1.2LRSN                1
 GAP=177        0.33       3.6     6.8  4.2  0.1370E+02 -0.4341E+01 -0.4932E+01E
 Epicentro: EL CARMEN DE CHUCURI - SANTANDER                                   3
 ACTION:UP  11-02-18 11:06 OP:tino STATUS:               ID:20100929034819 L   I
 2010-09-29-0346-39S.COL___125                                                 6
 STAT SP IPHASW D HRMM SECON CODA AMPLIT PERI AZIMU VELO SNR AR TRES W  DIS CAZ7
 BTL  SZ EP        348 35.71                             163     0.110   33  51 
 BAR2 SZ EP   1    348 36.04                             160     0.2 7   38 114 
 BAR2 SZ ES   1    348 48.50                             160     0.0 7   38 114 
 BAR2 SZ I         348 49.07         5.4 0.09                            38 114 
 BRR  HZ EP   2    348 35.95                             155     0.0 5   48 330 
 BRR  HN ES   2    348 48.58                             155    -0.1 5   48 330 
 BRR  HZ I         348 50.49         4.5 0.27                            48 330 
 RUS  HZ EP   2    348 40.48                             135    -0.1 5  104 154 
 RUS  HN ES   2    348 56.83                             135    -0.1 5  104 154 
 RUS  HZ I         348 58.27         2.3 0.42                           104 154 
 GUE  SZ EP   1    348 43.36                             126    -0.1 7  137  28 
                                                                                
