 2010  729 0807 16.5 L   6.861 -73.154164.4  RSN  4 0.4 1.5LRSN                1
 GAP=157        0.83      10.0    15.5 16.4 -0.7555E+02 -0.1699E+03  0.7810E+02E
 Epicentro: LOS SANTOS - SANTANDER                                             3
 ACTION:UPD 10-12-01 15:20 OP:pat  STATUS:               ID:20100729080716 L   I
 2010-07-29-0806-16S.COL___123                                                 6
 STAT SP IPHASW D HRMM SECON CODA AMPLIT PERI AZIMU VELO AIN AR TRES W  DIS CAZ7
 BRR  HZ EP        8 7 39.61                             156     0.110   67 294 
 BRR  HZ I         8 7 39.78         5.4 0.17                            67 294 
 BRR  HN ES   1    8 7 57.36                             156    -0.1 7   67 294 
 RUS  HZ EP   1    8 7 42.50                             145     0.0 7  107 176 
 GUE  SZ EP   1    8 7 41.74                             145    -0.8 7  110  13 
 GRA  SZ EP   1    8 7 43.50                             142     0.5 7  120  19 
 GRA  SZ ES   2    8 8  3.76                             142     0.1 5  120  19 
                                                                                
