 2014 1229 0814  3.8 L   6.806 -73.124145.2  RSN 26 0.6 2.8LRSN                1
 GAP= 54        2.19       4.7     5.3  9.4 -0.8426E-01  0.1143E+02  0.1140E+02E
 Epicentro: LOS SANTOS - SANTANDER                                             3
     -88.0      90.0      90.0 15.0 15.0 28.0  0.0  0.1           RSN FPFIT    F
 ACTION:UPD 15-02-10 17:08 OP:nd   STATUS:               ID:20141229081403 L   I
 OLDACT:ARG 14-12-29 12:30 OP:stll STATUS:               ID:20141229080750     3
 2014-12-29-0807-50M.COL___259                                                 6
 STAT SP IPHASW D HRMM SECON CODA AMPLIT PERI AZIMU VELO AIN AR TRES W  DIS CAZ7
 BAR2 EZ IP     D  814 23.86                             169    0.4510 24.5 195 
 BAR2 EZ ES        814 38.54                             169   -0.1510 24.5 195 
 BAR2 EZ I         814 39.93       138.3 0.30            170           24.5 195 
 BRR  HZ IP     C  814 25.70                             151    0.6910 73.0 297 
 BRR  HN ES        814 42.27                             151    0.7310 73.0 297 
 BRR  HZ I         814 45.78        91.7 0.32            147           73.0 297 
 PAM  SZ EP     C  814 26.60                             151    0.7410 75.4  38 
 PAM  SZ I         814 26.99       257.9 0.20            151           75.4  38 
 PAM  SN ES        814 43.72                             151    0.6710 75.4  38 
 RUS  HZ EP     D  814 27.73                             143    0.1710  101 177 
 RUS  HN ES        814 46.16                             143    0.0910  101 177 
 RUS  HZ I         814 47.99        49.7 0.46            145            101 177 
 PTB  HZ EP        814 30.37                             131   -0.60 9  150 259 
 PTB  HN ES        814 51.36                             131   -0.78 9  150 259 
 PTB  HZ I         814 53.56        60.2 0.16            129            150 259 
 TAM  HZ IP     D  814 32.29                             130    1.03 9  153 105 
 TAM  HZ I         814 32.42        50.0 0.36            133            153 105 
 TAM  HE ES        814 51.71                             130   -0.95 9  153 105 
 OCA  HZ EP     C  814 31.82                             129   -0.24 9  160 352 
 OCA  HN ES        814 53.46                             129   -0.62 9  160 352 
 OCA  HZ I         815  2.25        75.0 0.20            128            160 352 
 SPBC HZ EP        814 32.72                             128    0.25 9  165 219 
 SPBC HN ES        814 54.58                             128   -0.23 9  165 219 
 SPBC HZ I         814 59.16       110.4 0.64            128            165 219 
 ZAR  HZ EP        814 36.29                             122   -0.14 8  206 292 
 ZAR  HN ES        815  0.65                             122   -1.22 8  206 292 
 ZAR  HZ I         815  6.93        72.3 0.34            120            206 292 
 NOR  HZ IP     D  814 40.00                             118    0.23 8  237 235 
 NOR  HN ES        815  7.27                             118   -0.53 8  237 235 
 NOR  HZ I         815 15.72        41.9 0.14            117            237 235 
 SML  HZ EP        814 40.01                             117   -0.45 8  244 335 
 SML  HE ES        815  8.42                             117   -0.62 8  244 335 
 SML  HZ I         815 18.39        79.2 0.10            116            244 335 
 CHI  HZ EP        814 41.84                             116    0.21 8  250 196 
 CHI  HN ES        815 10.67                             116   -0.45 8  250 196 
 CHI  HZ I         815 14.66        48.4 0.58            117            250 196 
 HEL  HZ EP        814 44.48                             114    0.20 8  275 256 
 HEL  HN ES        815 15.77                             114   -0.06 8  275 256 
 HEL  HZ I         815 22.15        31.4 0.36            113            275 256 
 SOCV BZ EP   9    814 46.61                             112    0.03 0  299  57 
 SOCV BN ES        815 17.16                                   -2.80 7  299  57 
 VIL  SZ EP        814 46.92                             111   -0.42 7  304 192 
 VIL  SN ES        815 21.08                             111   -0.21 7  304 192 
 VIL  SZ I         815 24.48        67.1 0.40            112            304 192 
 PTGC HZ EP     D  814 47.00                             111   -0.63 7  308 159 
 PTGC HZ I         814 47.54        86.2 0.22            112            308 159 
 PTGC HN ES        815 20.34                             111   -1.46 7  308 159 
 CBOC HZ EP        814 51.48                             109    0.48 7  336 252 
 CBOC HZ I         814 54.59        10.7 0.18            109            336 252 
 CBOC HE ES        815 27.49                             109   -0.30 7  336 252 
 TOL  SZ EP        814 52.65                             109    0.35 6  346 225 
 TOL  SE ES        815 31.56                             109    1.44 6  346 225 
 MON  HZ EP   9    814 50.98                             108   -1.99 0  355 308 
 MON  HN ES        815 29.10                                   -0.21 6  355 308 
 MON  HZ I         815 44.62        15.1 0.52            107            355 308 
 SDV  BZ EP   9    814 53.10                             108   -0.48 0  358  50 
 SDV  BZ I         814 54.17        25.9 0.15            108            358  50 
 SDV  BN ES        815 30.87                                   -1.04 6  358  50 
 ANIL HZ EP        814 54.53                             108    0.68 6  359 225 
 ANIL HN ES        815 34.33                             108    1.45 6  359 225 
 ANIL HZ I         815 43.89        12.1 0.32            108            359 225 
 ARGC HZ EP   9    814 53.87                             108    0.39 0  359 340 
 ARGC HN ES        815 32.46                                   -0.14 6  359 340 
 ORTC HZ EP        814 58.05                             106    0.10 6  397 216 
 ORTC HN ES        815 40.18                             106    0.01 6  397 216 
 ORTC HZ I         815 45.08        22.8 0.30            106            397 216 
 ELOV BZ EP   9    814 58.22                             106   -0.33 0  403  87 
 ELOV BN ES        815 35.82                                   -5.08 6  403  87 
 SJC  HZ EP   9    814 57.47                             105   -1.98 0  410 327 
 SJC  HN ES        815 38.30                                   -2.56 6  410 327 
 SJC  HZ I         815 53.55        11.2 0.70            105            410 327 
 CRJC HZ EP   9    815  4.10                             103   -2.11 0  467   3 
 CRJC HN ES        815 49.16                                   -3.60 5  467   3 
 CRJC HZ I         815 58.94        18.2 0.34            103            467   3 
                                                                                
