 2016  129 0842 11.3 L   6.816 -73.146147.6  RSN 13 0.5 1.9LRSN                1
 GAP=118        1.05       2.7     4.0  5.7 -0.9635E+00  0.5973E+01  0.1117E+01E
 Epicentro: LOS SANTOS - SANTANDER                                             3
 ACTION:UPD 16-03-09 23:29 OP:cam  STATUS:               ID:20160129084212dL   I
 OLDACT:UP  16-01-29 17:15 OP:cara STATUS:               ID:20160129083760d    3
 OLDACT:UP  16-01-29 17:14 OP:cara STATUS:               ID:20160129083760d    3
 OLDACT:REG 16-01-29 14:44 OP:cara STATUS:               ID:20160129083760d    3
 2016-01-29-0837-59S.COL___223                                                 6
 STAT SP IPHASW D HRMM SECON CODA AMPLIT PERI AZIMU VELO AIN AR TRES W  DIS CAZ7
 BAR2 EZ EP        842 31.33                             170    0.1210 25.1 189 
 BAR2 EZ ES        842 46.72                             170    0.0010 25.1 189 
 BAR2 EZ I         842 47.50        15.6 0.26            169           25.1 189 
 PAM  EZ EP        842 34.28                             151    0.6310 76.0  40 
 PAM  EN ES        842 51.33                             151    0.2610 76.0  40 
 PAM  EZ I         842 53.46        14.1 0.52            154           76.0  40 
 RUS  HZ EP        842 35.32                             143   -0.0610  102 176 
 RUS  HE ES        842 54.26                             143    0.1110  102 176 
 RUS  HZ I         842 55.52         5.0 0.44            147            102 176 
 PTB  HZ EP        842 38.07                             132   -0.40 9  148 258 
 PTB  HN ES        842 58.98                             132   -0.66 9  148 258 
 PTB  HZ I         843  5.65         6.6 0.36            131            148 258 
 OCA  HZ EP        842 39.37                             130   -0.24 9  158 353 
 OCA  HE ES        843  1.32                             130   -0.35 9  158 353 
 OCA  HZ I         843  9.77        16.3 0.24            130            158 353 
 SPBC HZ EP        842 40.23                             129    0.14 9  165 219 
 SPBC HN ES        843  2.44                             129   -0.09 9  165 219 
 SPBC HZ I         843  6.93        13.4 0.30            130            165 219 
 ZAR  HZ EP   4    842 42.75                             123   -1.06 0  203 292 
 ZAR  HN ES        843  8.59                             123   -0.57 9  203 292 
 ZAR  HZ I         843 14.59         7.3 0.36            122            203 292 
 SML  HZ EP        842 47.43                             118   -0.44 8  242 335 
 SML  HE ES        843 16.87                             118    0.49 8  242 335 
 SML  HZ I         843 25.86        11.7 0.10            118            242 335 
 CHI  HZ EP        842 49.47                             117    0.16 8  250 195 
 CHI  HN ES        843 18.82                             117   -0.12 8  250 195 
 CHI  HZ I         843 22.29         5.6 0.58            119            250 195 
 GUY2CHZ EP   4    842 56.54                             112    1.41 0  302 234 
 GUY2CHE ES   4    843 33.01                             112    3.71 0  302 234 
 GUY2CHZ I         843 37.45         3.3 0.32                           302 234 
 PTGC HZ EP        842 54.61                             112   -0.84 7  310 159 
 PTGC HE ES   4    843 27.93                             112   -1.95 0  310 159 
 CBOC HZ EP        842 59.13                             110    0.76 7  334 252 
 CBOC HN ES        843 36.43                             110    1.36 7  334 252 
 CBOC HZ I         843 45.71         0.9 0.36            110            334 252 
 PRA  HZ EP        843  5.58                             107    0.49 6  394 209 
 PRA  HE ES        843 46.96                             107   -0.06 6  394 209 
 PRA  HZ I         843 52.49         4.5 0.32            108            394 209 
                                                                                
