 2017 1129 0324 35.7 L   7.107 -73.272114.0  RSN  9 0.6 1.3LRSN                1
 GAP=173        0.98       2.9     4.3  7.3 -0.2605E+00  0.1025E+02 -0.4797E+00E
 Epicentro: LEBRIJA - SANTANDER                                                3
 ACTION:UPD 17-12-12 20:01 OP:rebc STATUS:               ID:20171129032435 L   I
 OLDACT:UP  17-11-29 14:15 OP:dhb  STATUS:               ID:20171129031740d    3
 OLDACT:DUP 17-11-29 14:09 OP:dhb  STATUS:               ID:20171129031740d    3
 2017-11-29-0318-00M.COL___483                                                 6
 STAT SP IPHASW D HRMM SECON CODA AMPLIT PERI AZIMU VELO AIN AR TRES W  DIS CAZ7
 BAR2 EZ IP     C  324 53.24                             152    0.2210 57.8 170 
 BAR2 EZ ES        325  6.77                             152    0.2510 57.8 170 
 OCA  HZ EP        324 57.74                             129   -0.5210  125 358 
 OCA  HE ES        325 16.08                             129    0.2310  125 358 
 RUS  HZ EP        324 59.68                             127   -0.06 9  136 171 
 RUS  HE ES        325 18.43                             127   -0.06 9  136 171 
 RUS  HZ I         325 18.81         1.8 0.32            127            136 171 
 PTB  HZ EP   2    324 58.56                             124   -1.48 5  145 244 
 PTB  HN ES        325 18.88                             124   -0.13 9  145 244 
 PTB  HZ I         325 22.25         2.5 0.28            123            145 244 
 ZAR  HZ EP        325  3.65                             118   -0.04 9  180 284 
 ZAR  HE ES        325 25.78                             118    0.26 9  180 284 
 ZAR  HZ I         325 30.54         3.3 0.32            117            180 284 
 SPBC HZ EP        325  3.71                             118   -0.46 9  184 209 
 SPBC HE ES        325 26.35                             118   -0.02 9  184 209 
 SPBC HZ I         325 31.02         3.8 0.16            117            184 209 
 NOR  HZ EP        325 11.36                             110    0.29 8  246 226 
 NOR  HE ES        325 38.25                             110   -0.41 8  246 226 
 NOR  HZ I         325 42.24         2.1 0.16            110            246 226 
 GUY2CHZ EP        325 20.36                             105    1.09 7  311 228 
 GUY2CHE ES   3    325 56.31                             105    3.07 2  311 228 
 GUY2CHZ I         326  4.98         1.1 0.64                           311 228 
 PRA  HZ EP   9    325 32.67                             100    1.50 0  416 206 
 PRA  HE ES        326 16.05                              99    0.12 5  416 206 
 PRA  HZ I         326 20.83         0.7 0.54            100            416 206 
                                                                                
