 2014 1229 0232  1.3 L   6.774 -73.191143.5  RSN  5 0.4 1.2LRSN                1
 GAP=178        0.92       4.2     6.2  7.6  0.5300E+01  0.6443E+01 -0.1061E+01E
 Epicentro: ZAPATOCA - SANTANDER                                               3
 ACTION:UPD 15-02-10 17:07 OP:nd   STATUS:               ID:20141229023201 L   I
 OLDACT:ARG 14-12-29 12:30 OP:stll STATUS:               ID:20141229022750     3
 2014-12-29-0227-50M.COL___259                                                 6
 STAT SP IPHASW D HRMM SECON CODA AMPLIT PERI AZIMU VELO AIN AR TRES W  DIS CAZ7
 BAR2 EZ ES        232 35.17                             172   -0.4810 20.1 177 
 BAR2 EZ I         232 36.95         4.0 0.18            171           20.1 177 
 BRR  HZ EP        232 22.10                             153    0.0610 68.3 303 
 BRR  HN ES        232 38.92                             153    0.7010 68.3 303 
 BRR  HZ I         232 41.14         3.8 0.38            149           68.3 303 
 RUS  HZ EP        232 24.75                             144    0.1010 98.2 173 
 RUS  HZ I         232 25.23         1.7 0.28            146           98.2 173 
 RUS  HN ES        232 43.03                             144    0.1610 98.2 173 
 PTB  HZ EP        232 27.59                             133    0.01 9  142 260 
 PTB  HN ES        232 47.69                             133   -0.39 9  142 260 
 PTB  HZ I         232 55.77         1.9 0.14            130            142 260 
 OCA  HN ES        232 51.53                             129   -0.24 9  163 355 
 OCA  HZ I         232 55.60         3.2 0.38            129            163 355 
                                                                                
