 2017  629 0157 21.0 L   6.125 -73.715107.2  RSN  5 0.3 1.1LRSN                1
 GAP=168        0.46       3.1     2.7  6.2 -0.3581E+01  0.3005E+01 -0.1886E+01E
 Epicentro: CHIPATA - SANTANDER                                                3
 ACTION:UPD 17-09-14 16:56 OP:jn   STATUS:               ID:20170629015721 L   I
 OLDACT:UP  17-06-29 13:56 OP:and  STATUS:               ID:20170629014746     3
 OLDACT:REG 17-06-29 12:36 OP:and  STATUS:               ID:20170629014746     3
 2017-06-29-0148-00M.COL___367                                                 6
 STAT SP IPHASW D HRMM SECON CODA AMPLIT PERI AZIMU VELO AIN AR TRES W  DIS CAZ7
 SPBC HZ EP   2    157 37.52                             146   -0.38 5 65.6 217 
 SPBC HN ES        157 51.10                             146    0.0310 65.6 217 
 SPBC HZ I         157 54.02         5.4 0.10            147           65.6 217 
 BAR2 EZ IP   2 C  157 39.47                             141    0.44 5 78.3  49 
 BAR2 EZ ES        157 53.02                             141   -0.0610 78.3  49 
 BAR2 EZ I         157 57.76         4.7 0.29            143           78.3  49 
 PTB  HZ EP   2    157 39.83                             135   -0.16 5 94.0 299 
 PTB  HN ES        157 54.77                             135   -0.0210 94.0 299 
 PTB  HZ I         157 55.73         0.9 0.10            140           94.0 299 
 BRR  HZ EP   3    157 42.07                             131    0.80 2  109   0 
 NOR  HZ EP   2    157 44.30                             123   -0.33 5  142 244 
 NOR  HE ES   2    158  3.49                             123    0.44 5  142 244 
 NOR  HZ I         158  6.25         2.0 0.18            125            142 244 
                                                                                
