 2015  929 0850 37.4 L   6.862 -73.127149.4  RSN  4 0.5 1.1LRSN                1
 GAP=217        1.18       7.5     9.6  9.8  0.5585E+01  0.3887E+01 -0.2815E+02E
 Epicentro: LOS SANTOS - SANTANDER                                             3
 ACTION:UPD 15-10-28 16:29 OP:cam  STATUS:               ID:20150929085037 L   I
 OLDACT:REG 15-09-29 12:55 OP:spq  STATUS:               ID:20150929084742     3
 2015-09-29-0847-42M.COL___352                                                 6
 STAT SP IPHASW D HRMM SECON CODA AMPLIT PERI AZIMU VELO AIN AR TRES W  DIS CAZ7
 BAR2 EZ EP        850 57.70                             168    0.0910 30.5 191 
 BAR2 EZ ES        851 12.83                             168   -0.5510 30.5 191 
 BAR2 EZ I         851 13.80         2.1 0.38            167           30.5 191 
 BRR  HZ EP        850 59.69                             153    0.8310 70.0 293 
 BRR  HZ I         850 59.97         3.5 0.30            153           70.0 293 
 BRR  HN ES        851 16.08                             153    0.4710 70.0 293 
 PTB  HZ EP        851  4.99                             132    0.03 9  151 256 
 PTB  HE ES        851 26.09                             132   -0.37 9  151 256 
 PTB  HZ I         851 27.16         1.2 0.34            132            151 256 
 SML  HZ EP        851 13.03                             119   -0.61 8  238 334 
 SML  HN ES        851 41.69                             119   -0.23 8  238 334 
                                                                                
