 2017  829 0939 58.6 L   6.817 -73.194141.3  RSN  4 0.1 1.0LRSN                1
 GAP=241        0.42       3.0     3.1  4.6  0.3848E+01  0.3430E+01 -0.1052E+01E
 Epicentro: ZAPATOCA - SANTANDER                                               3
 ACTION:UPD 17-09-04 20:26 OP:rebc STATUS:               ID:20170829093958 L   I
 OLDACT:DUP 17-08-29 18:34 OP:dani STATUS:               ID:20170829093736d    3
 OLDACT:UP  17-08-29 18:33 OP:dani STATUS:               ID:20170829093735     3
 OLDACT:REG 17-08-29 13:19 OP:dani STATUS:               ID:20170829093735     3
 2017-08-29-0938-00M.COL___411                                                 6
 STAT SP IPHASW D HRMM SECON CODA AMPLIT PERI AZIMU VELO AIN AR TRES W  DIS CAZ7
 BAR2 EZ EP        940 17.58                             170   -0.1110 24.9 177 
 BAR2 EZ ES        940 32.74                             170    0.1310 24.9 177 
 BAR2 EZ I         940 34.18         3.4 0.20            170           24.9 177 
 RUS  HZ EP        940 22.21                             142    0.1510  103 173 
 RUS  HN ES        940 40.20                             142   -0.1810  103 173 
 RUS  HZ I         940 41.39         1.0 0.24            144            103 173 
 SPBC HN ES        940 48.44                             128    0.06 9  161 217 
 ZAR  HN ES        940 54.70                             122   -0.05 9  198 292 
                                                                                
