 2011 1029 0316 36.2 L   7.001 -73.079150.0  RSN  4 0.3 1.6LRSN                1
 GAP=146        0.43      28.7     8.3  9.2 -0.1451E+03 -0.2581E+02  0.1727E+03E
 Epicentro: PIEDECUESTA - SANTANDER                                            3
 ACTION:UPD 12-07-13 16:06 OP:ep   STATUS:               ID:20111029031636 L   I
 2011-10-29-0300-00M.COL___177                                                 6
 STAT SP IPHASW D HRMM SECON CODA AMPLIT PERI AZIMU VELO AIN AR TRES W  DIS CAZ7
 GIR2 SZ EP   3    316 55.53                             174   -0.50 2 15.3 304 
 GIR2 SZ ES   3    317 10.69                             174   -0.84 2 15.3 304 
 BAR2 SZ EP   3    316 57.61                             162    0.63 2 46.6 194 
 PAM  SE ES   2    317 14.72                             159    0.14 5 56.2  48 
 BRR  HZ EP        316 57.71                             153   -0.0510 70.9 280 
 BRR  HZ I         316 58.58         7.3 0.12                          70.9 280 
 BRR  HN ES   1    317 14.71                             153    0.11 7 70.9 280 
                                                                                
