 2012  529 0105 25.5 L   6.765 -73.190145.8  RSN  4 0.3 1.4LRSN                1
 GAP=239        0.66       9.0     6.6  8.4  0.3923E+02  0.6802E+01 -0.1099E+02E
 Epicentro: VILLANUEVA - SANTANDER                                             3
 ACTION:UP  12-07-05 12:08 OP:pat  STATUS:               ID:20120529010525 L   I
 2012-05-29-0100-00M.COL___201                                                 6
 STAT SP IPHASW D HRMM SECON CODA AMPLIT PERI AZIMU VELO AIN AR TRES W  DIS CAZ7
 BAR2 SZ EP   1    1 5 45.03                             172     0.0 7   19 178 
 BAR2 SZ ES   1    1 6  0.19                             172    -0.1 7   19 178 
 BAR2 SZ I         1 6  1.75        10.3 0.21                            19 178 
 RUS  HZ EP   1    1 5 49.38                             145     0.4 7   97 173 
 RUS  HN ES   1    1 6  7.14                             145    -0.2 7   97 173 
 RUS  HZ I         1 6  9.51         5.0 0.34                            97 173 
 PTB  HZ EP   1    1 5 51.41                             133    -0.5 7  142 260 
 PTB  HN ES   1    1 6 12.79                             133     0.2 7  142 260 
 PTB  HZ I         1 6 19.15         2.0 0.20                           142 260 
 ZAR  HN ES   1    1 6 22.74                             123     0.1 6  201 294 
                                                                                
