 2017  329 0734  6.4 L   6.704 -73.187146.0  RSN  5 0.3 1.3LRSN                1
 GAP=225        0.66       5.4     4.9  6.4  0.1596E+02  0.7743E+01 -0.9778E+00E
 Epicentro: VILLANUEVA - SANTANDER                                             3
 ACTION:UPD 17-05-25 18:46 OP:jn   STATUS:               ID:20170329073406 L   I
 OLDACT:REG 17-03-29 12:42 OP:dnl  STATUS:               ID:20170329072741     3
 2017-03-29-0728-00M.COL___355                                                 6
 STAT SP IPHASW D HRMM SECON CODA AMPLIT PERI AZIMU VELO AIN AR TRES W  DIS CAZ7
 BAR2 EZ EP        734 25.81                             175   -0.0410 12.4 177 
 BAR2 EZ ES        734 40.71                             175   -0.3410 12.4 177 
 BAR2 EZ I         734 41.23         6.4 0.60            172           12.4 177 
 BRR  HZ EP   2    734 27.80                             152    0.15 5 73.1 308 
 BRR  HN ES        734 44.68                             152    0.4310 73.1 308 
 BRR  HZ I         734 52.37        10.1 0.36            149           73.1 308 
 RUS  HZ EP   2    734 29.40                             147   -0.04 5 90.5 173 
 RUS  HN ES        734 47.51                             147    0.0810 90.5 173 
 RUS  HZ I         734 49.02         1.2 0.50            151           90.5 173 
 PTB  HZ EP   2    734 32.98                             133    0.19 5  142 263 
 PTB  HN ES        734 53.49                             133    0.09 9  142 263 
 PTB  HZ I         734 59.85         1.2 0.34            132            142 263 
 ZAR  HZ EP   2    734 39.28                             122    0.45 4  204 295 
 ZAR  HN ES        735  3.65                             122   -0.50 9  204 295 
 ZAR  HZ I         735 10.17         1.9 0.42            123            204 295 
                                                                                
