 2017  929 0356  6.9 L   6.826 -73.093143.1  RSN  5 0.3 1.3LRSN                1
 GAP=142        0.71       4.0     4.5  6.2  0.6177E+01  0.8423E+01  0.4047E+01E
 Epicentro: LOS SANTOS - SANTANDER                                             3
 ACTION:UPD 17-10-05 19:17 OP:rebc STATUS:               ID:20170929035606 L   I
 OLDACT:DUP 17-09-29 16:33 OP:edw  STATUS:               ID:20170929034741d    3
 2017-09-29-0348-00M.COL___438                                                 6
 STAT SP IPHASW D HRMM SECON CODA AMPLIT PERI AZIMU VELO AIN AR TRES W  DIS CAZ7
 BAR2 EZ EP        356 26.18                             168   -0.1010 27.7 201 
 BAR2 EZ ES        356 41.53                             168    0.1210 27.7 201 
 BAR2 EZ I         356 43.43         5.1 0.60            168           27.7 201 
 PAM  EN ES        356 45.06                             152   -0.2310 71.5  37 
 BRR  HZ EP        356 28.35                             151    0.3910 75.1 294 
 BRR  HN ES        356 44.69                             151    0.2810 75.1 294 
 BRR  HZ I         356 45.95         6.2 0.34            152           75.1 294 
 RUS  HZ EP        356 30.66                             142    0.1110  103 179 
 RUS  HN ES        356 48.79                             142   -0.2410  103 179 
 RUS  HZ I         356 50.44         1.3 0.30            143            103 179 
 ZAR  HN ES        357  4.65                             121   -0.47 8  208 291 
                                                                                
