 2017  129 0827 43.5 L   6.706 -73.211143.3  RSN  5 0.4 1.3LRSN                1
 GAP=217        0.99       7.4     6.8  7.9  0.3091E+02  0.1013E+02  0.2239E+01E
 Epicentro: VILLANUEVA - SANTANDER                                             3
 ACTION:UPD 17-05-22 16:04 OP:jn   STATUS:               ID:20170129082743 L   I
 OLDACT:DUP 17-01-29 17:55 OP:lv   STATUS:               ID:20170129081743d    3
 2017-01-29-0818-00M.COL___330                                                 6
 STAT SP IPHASW D HRMM SECON CODA AMPLIT PERI AZIMU VELO AIN AR TRES W  DIS CAZ7
 BAR2 EZ EP        828  2.29                             175   -0.3610 13.0 166 
 BAR2 EZ ES        828 17.11                             175   -0.4910 13.0 166 
 BAR2 EZ I         828 20.04         6.8 0.32            176           13.0 166 
 BRR  HZ EP        828  4.22                             152   -0.1410 71.0 309 
 BRR  HN ES        828 21.15                             152    0.5210 71.0 309 
 BRR  HZ I         828 25.03         5.0 0.30            152           71.0 309 
 RUS  HZ EP        828  6.87                             146    0.5510 91.1 171 
 RUS  HN ES        828 24.38                             146    0.2510 91.1 171 
 RUS  HZ I         828 26.14         2.7 0.38            150           91.1 171 
 PTB  HZ EP        828  9.13                             133   -0.34 9  139 262 
 PTB  HN ES        828 29.47                             133   -0.25 9  139 262 
 PTB  HZ I         828 32.59         1.9 0.12            135            139 262 
 ZAR  HN ES        828 40.80                             122    0.28 9  202 296 
 ZAR  HZ I         828 45.44         2.5 0.26            124            202 296 
                                                                                
