 2012 1129 0528 12.7 L   6.789 -73.163139.3  RSN  9 0.4 1.9LRSN                1
 GAP=135        1.08       3.2     4.9  7.7  0.5305E+00  0.1171E+02  0.1467E+01E
 Epicentro: LOS SANTOS - SANTANDER                                             3
 ACTION:UPD 12-12-05 15:36 OP:}ep  STATUS:               ID:20121129052812 L   I
 2012-11-29-0526-45M.COL___202                                                 6
 STAT SP IPHASW D HRMM SECON CODA AMPLIT PERI AZIMU VELO AIN AR TRES W  DIS CAZ7
 BAR2 SZ EP        528 31.19                             171   -0.3710 21.8 186 
 BAR2 SZ ES        528 46.34                             171    0.1010 21.8 186 
 BAR2 SZ I         528 47.96        27.2 0.18                          21.8 186 
 GIR2 SZ EP        528 31.83                             166    0.1610 32.3 354 
 PAM  SZ EP        528 34.60                             149    0.2010 79.6  40 
 PAM  SN ES        528 51.04                             149   -0.2610 79.6  40 
 RUS  HZ EP        528 35.75                             143   -0.0210 99.5 175 
 RUS  HN ES        528 53.49                             143   -0.2510 99.5 175 
 RUS  HN I         528 55.83        13.6 0.26                          99.5 175 
 PTB  HZ EP        528 38.51                             131   -0.48 9  146 259 
 PTB  HN ES        528 59.46                             131    0.00 9  146 259 
 PTB  HN I         529  1.95        10.2 0.20                           146 259 
 OCA  HN ES        529  3.38                             128    0.96 9  161 354 
 ZAR  HN ES        529  9.83                             121    0.32 9  203 293 
 ZAR  HN I         529 16.14         6.8 0.28                           203 293 
 SML  HN ES        529 16.37                             116   -1.00 8  244 336 
 CHI  HZ EP        528 50.12                             116    0.23 8  247 195 
 CHI  HN ES        529 19.40                             116    0.52 8  247 195 
 CHI  HN I         529 25.76         4.0 0.44                           247 195 
                                                                                
