 2012  729 0327 30.1 L   7.422 -73.347133.6  RSN  7 0.2 2.3LRSN                1
 GAP= 95        0.61       3.1     4.2  5.6 -0.1595E+01  0.1064E+01  0.1221E+01E
 Epicentro: EL PLAYON - SANTANDER                                              3
 ACTION:UPD 12-08-14 11:46 OP:ep   STATUS:               ID:20120729032730 L   I
 2012-07-29-0320-00M.COL___215                                                 6
 STAT SP IPHASW D HRMM SECON CODA AMPLIT PERI AZIMU VELO AIN AR TRES W  DIS CAZ7
 BRR  HZ EP        327 49.18                             157     0.210   53 229 
 BRR  HN ES   1    328  3.92                             157     0.3 7   53 229 
 BRR  HZ I         328  5.28        79.1 0.15            156             53 229 
 PAM  SN ES   3    328  6.57                             150    -0.2 2   72  97 
 OCA  HZ EP        327 51.45                             144     0.010   90   2 
 OCA  HN ES   1    328  7.80                             144    -0.3 7   90   2 
 OCA  HZ I         328 10.02        56.5 0.38            145             90   2 
 BAR2 SZ EP        327 52.07                             143     0.310   94 169 
 BAR2 SZ ES   1    328  8.49                             143    -0.2 7   94 169 
 BAR2 SZ I         328  9.65        35.0 0.20            146             94 169 
 PTB  HZ EP        327 56.67                             127    -0.3 9  157 232 
 PTB  HZ I         327 57.11        13.9 0.20            128            157 232 
 PTB  HN ES   1    328 17.48                             127    -0.4 7  157 232 
 ZAR  HZ EP   2    327 57.92                             125     0.0 5  167 273 
 ZAR  HE ES   2    328 19.95                             125     0.3 5  167 273 
 ZAR  HZ I         328 25.00        34.6 0.26            126            167 273 
 RUS  HZ EP   1    327 58.94                             125    -0.1 7  172 170 
 RUS  HN ES   3    328 21.54                             125    -0.1 2  172 170 
 RUS  HZ I         328 22.57         8.3 0.22            128            172 170 
