 2015  529 0137 39.1 L   6.809 -73.142151.8  RSN 10 0.4 2.4LRSN                1
 GAP=137        1.07       3.2     4.6  6.1 -0.1992E+00  0.1152E+02 -0.1008E+01E
 Epicentro: LOS SANTOS - SANTANDER                                             3
 ACTION:UPD 15-09-10 22:07 OP:cam  STATUS:               ID:20150529013739 L   I
 OLDACT:REG 15-05-29 13:27 OP:ar   STATUS:               ID:20150529012750     3
 2015-05-29-0127-50M.COL___315                                                 6
 STAT SP IPHASW D HRMM SECON CODA AMPLIT PERI AZIMU VELO AIN AR TRES W  DIS CAZ7
 BAR2 EZ EP        137 59.44                             170   -0.0310 24.4 191 
 BAR2 EZ ES        138 15.26                             170   -0.1110 24.4 191 
 BAR2 EZ I         138 17.14        39.9 0.28            172           24.4 191 
 BRR  HZ IP     C  138  1.35                             154    0.4510 71.1 298 
 BRR  HE ES        138 18.84                             154    0.9410 71.1 298 
 BRR  HZ I         138 21.00        26.5 0.46            151           71.1 298 
 PAM  SZ EP        138  2.23                             152    0.3310 76.3  40 
 PAM  SE ES        138 19.56                             152   -0.1210 76.3  40 
 PAM  SZ I         138 20.71        15.7 0.18            154           76.3  40 
 RUS  HZ EP        138  3.26                             145   -0.2510  102 176 
 RUS  HN ES        138 22.06                             145   -0.5010  102 176 
 RUS  HZ I         138 23.23        20.2 0.22            149            102 176 
 OCA  HE ES        138 29.99                             131   -0.19 9  159 353 
 OCA  HZ I         138 33.67        45.0 0.22            132            159 353 
 SPBC HZ EP        138  8.54                             130    0.38 9  164 219 
 SPBC HN ES        138 30.53                             130   -0.30 9  164 219 
 SPBC HZ I         138 33.15        46.3 0.26            132            164 219 
 ZAR  HZ EP        138 12.32                             124    0.38 9  204 292 
 ZAR  HE ES        138 37.36                             124   -0.20 9  204 292 
 ZAR  HZ I         138 46.34        18.5 1.29            124            204 292 
 SML  HZ EP        138 15.63                             119   -0.36 8  243 335 
 SML  HE ES        138 44.37                             119   -0.40 8  243 335 
 SML  HZ I         138 51.99        24.6 0.10            120            243 335 
 URE  HZ EP        138 19.84                             115   -0.63 7  284 292 
 URE  HN ES        138 52.16                             115   -0.58 7  284 292 
 URE  HZ I         138 53.18        27.5 0.20            116            284 292 
 GUY2CHZ EP        138 23.98                             113    0.89 7  302 235 
 GUY2CHN ES        138 57.31                             113   -0.10 7  302 235 
 GUY2CHZ I         139  7.21         8.5 0.52                           302 235 
                                                                                
