 2013  129 0820  6.4 L   6.816 -73.118151.3  RSN  6 0.4 1.3LRSN                1
 GAP=157        0.83       9.7     4.9 10.4 -0.9465E+01 -0.1267E+01  0.6629E+02E
 Epicentro: LOS SANTOS - SANTANDER                                             3
 ACTION:UPD 13-02-15 09:17 OP:ep   STATUS:               ID:20130129082006 L   I
 2013-01-29-0820-00M.COL___241                                                 6
 STAT SP IPHASW D HRMM SECON CODA AMPLIT PERI AZIMU VELO AIN AR TRES W  DIS CAZ7
 BAR2 SZ EP        820 26.68                             170   -0.0910 25.8 196 
 BRR  HZ EP        820 28.63                             153    0.3510 73.1 296 
 BRR  HE ES        820 45.84                             153    0.5110 73.1 296 
 BRR  HZ I         820 47.53         3.3 0.14            156           73.1 296 
 PAM  SZ EP   1    820 29.29                             153    0.25 7 74.0  39 
 PAM  SN ES        820 46.29                             153   -0.3910 74.0  39 
 PAM  SZ I         820 48.90         4.1 0.52            160           74.0  39 
 PTB  HZ EP   1    820 33.85                             133   -0.30 7  151 258 
 PTB  HN ES   1    820 55.31                             133   -0.47 7  151 258 
 PTB  HZ I         820 59.98         1.7 0.18            135            151 258 
 ZAR  HE ES   1    821  4.72                             123   -0.51 6  206 291 
 CHI  HZ EP   1    820 44.84                             118    0.14 6  251 196 
                                                                                
