 2015  129 0653 33.3 L   6.765 -73.151150.3  RSN  8 0.4 1.4LRSN                1
 GAP=137        1.02       4.2     5.3  7.3  0.5635E+01  0.2190E+01 -0.4003E+01E
 Epicentro: LOS SANTOS - SANTANDER                                             3
 ACTION:UPD 15-03-02 15:43 OP:nd   STATUS:               ID:20150129065333 L   I
 OLDACT:UP  15-01-29 16:11 OP:cam  STATUS:               ID:20150129064813     3
 OLDACT:REG 15-01-29 13:20 OP:cvam STATUS:               ID:20150129064813     3
 2015-01-29-0648-13M.COL___268                                                 6
 STAT SP IPHASW D HRMM SECON CODA AMPLIT PERI AZIMU VELO AIN AR TRES W  DIS CAZ7
 BAR2 EZ EP        653 53.24                             172   -0.1910 19.4 190 
 BAR2 EZ ES        654  8.93                             172   -0.1810 19.4 190 
 BAR2 EZ I         654 11.27         3.8 0.28            174           19.4 190 
 BRR  HZ EP        653 55.03                             153   -0.0210 72.6 301 
 BRR  HN I         654 12.85         8.1 0.28            151           72.6 301 
 BRR  HN ES        654 12.86                             153    0.8710 72.6 301 
 PAM  SZ EP   1    653 56.10                             150   -0.13 7 80.7  38 
 RUS  HZ EP        653 57.31                             146    0.0510 96.8 176 
 RUS  HN ES        654 15.76                             146   -0.1710 96.8 176 
 RUS  HZ I         654 17.51         2.0 0.38            145           96.8 176 
 PTB  HZ EP        654  1.02                             133    0.46 9  146 260 
 PTB  HN ES        654 20.96                             133   -0.84 9  146 260 
 SPBC HZ EP        654  2.14                             131    0.27 9  160 220 
 SPBC HN ES        654 24.23                             131    0.10 9  160 220 
 SPBC HZ I         654 28.90         3.6 0.20            129            160 220 
 ZAR  HN ES        654 31.79                             123    0.00 9  205 293 
 SML  HN ES        654 39.18                             118   -0.43 8  247 336 
                                                                                
