 2010  129 0041 20.4 L   7.144 -73.792 99.5  RSN  7 0.6 1.6LRSN                1
 GAP=145        1.26       8.5    11.8 29.3 -0.7089E+01  0.2490E+03  0.3682E+02E
 Epicentro: BARRANCABERMEJA - SANTANDER                                        3
 ACTION:UP  10-08-24 09:46 OP:vdl  STATUS:               ID:20100129004120 L   I
 2010-01-29-0038-41S.COL___094                                                 6
 STAT SP IPHASW D HRMM SECON CODA AMPLIT PERI AZIMU VELO SNR AR TRES W  DIS CAZ7
 GIR2 SZ EP        041 37.03                             144     0.410   66  96 
 BAR2 SZ EP        041 38.53                             135    -0.210   91 132 
 RUS  BZ EP        041 45.49                             118    -0.4 9  159 150 
 RUS  BN ES   2    042  4.83                             118    -0.9 5  159 150 
 RUS  BZ I         042  6.34         5.6 0.37                           159 150 
 MON  HZ EP   1    041 58.37                             106    -0.1 6  274 311 
 MON  HZ I         042 37.33         1.6 0.42                           274 311 
 CHI  HZ EP        042  0.57                             106     1.1 7  278 179 
 CHI  HE ES   2    042 30.98                             106     1.0 4  278 179 
 CHI  HZ I         042 38.31         2.2 0.37                           278 179 
 RREF BZ EP        042  2.29                             104    -0.3 7  302 215 
 RREF BN ES        042 35.52                             104     0.0 7  302 215 
 RREF BZ I         042 37.90         4.5 0.28                           302 215 
 PRA  HZ EP        042 12.64                             100    -0.8 6  398 198 
                                                                                
