 2010  829 0701 24.9 L   6.890 -72.952141.9  RSN  4 0.2 1.1LRSN                1
 GAP=261        0.57       9.0    16.0 11.3  0.1191E+03 -0.1279E+03 -0.6708E+02E
 Epicentro: GUACA - SANTANDER                                                  3
 ACTION:UP  10-09-07 10:59 OP:vdl  STATUS:               ID:20100829070124 L   I
 2010-08-29-0657-49S.COL___120                                                 6
 STAT SP IPHASW D HRMM SECON CODA AMPLIT PERI AZIMU VELO SNR AR TRES W  DIS CAZ7
 BTL  SZ IP        7 1 44.05                             164    -0.310   35 275 
 BAR2 SZ EP   1    7 1 44.86                             161     0.3 7   42 218 
 BAR2 SZ I         7 1 45.16         3.4 0.06                            42 218 
 BAR2 SZ ES   2    7 2  0.18                             161     0.2 5   42 218 
 BRR  HZ IP     C  7 1 46.76                             145     0.110   87 286 
 BRR  HZ I         7 1 48.58         2.9 0.34                            87 286 
 BRR  HE ES   1    7 2  3.55                             145     0.0 7   87 286 
 RUS  HZ EP   1    7 1 49.20                             139     0.1 7  111 187 
 RUS  HN ES   1    7 2  7.80                             139    -0.1 7  111 187 
 RUS  HZ I         7 2  9.77         1.6 0.67                           111 187 
                                                                                
