 2011  629 0307 11.5 L   6.782 -73.123139.7  RSN  8 0.2 1.6LRSN                1
 GAP=140        0.48       2.3     3.8  4.1 -0.2952E+01  0.3537E+00 -0.5907E+00E
 Epicentro: LOS SANTOS - SANTANDER                                             3
 ACTION:UP  11-07-14 19:09 OP:ep   STATUS:               ID:20110629030711 L   I
 2011-06-29-0300-00M.COL___124                                                 6
 STAT SP IPHASW D HRMM SECON CODA AMPLIT PERI AZIMU VELO SNR AR TRES W  DIS CAZ7
 BAR2 SZ EP        3 7 30.39                             171     0.010   22 197 
 BAR2 SZ ES   2    3 7 44.62                             171    -0.5 5   22 197 
 BAR2 SZ I         3 7 46.77        12.7 0.21                            22 197 
 BRR  HZ EP        3 7 32.31                             150     0.110   74 299 
 BRR  HZ I         3 7 32.63        24.4 0.13                            74 299 
 BRR  HN ES   1    3 7 48.42                             150     0.1 7   74 299 
 PAM  SZ EP        3 7 33.31                             150     0.210   77  37 
 PAM  SN ES   1    3 7 50.08                             150     0.2 7   77  37 
 PAM  SZ I         3 7 53.26         2.8 0.44                            77  37 
 RUS  HZ EP   1    3 7 34.33                             143    -0.2 7   98 177 
 RUS  HE ES   1    3 7 52.45                             143     0.0 7   98 177 
 RUS  HZ I         3 7 53.72         4.6 0.29                            98 177 
 BRI  SZ EP        3 7 34.93                             140     0.010  109  19 
 GRA  SZ EP        3 7 36.18                             135    -0.110  127  16 
 GRA  SZ ES   1    3 7 55.55                             135    -0.1 7  127  16 
 GRA  SZ I         3 7 56.95         6.4 0.45                           127  16 
 OCA  SZ EP   2    3 7 39.00                             128    -0.6 5  163 352 
 OCA  SZ ES   2    3 8  1.27                             128    -0.2 5  163 352 
 OCA  SZ I         3 8  5.74         6.2 0.37                           163 352 
 RREF HZ EP   2    3 7 57.71                             110     0.2 3  322 230 
 RREF HN ES   2    3 8 33.30                             110     0.0 3  322 230 
 RREF HZ I         3 8 42.50         2.4 0.43                           322 230 
                                                                                
