 2011  829 0417 56.5 L   6.757 -73.116142.0  RSN  7 0.3 1.7LRSN                1
 GAP=142        0.57       3.6     5.0  4.9 -0.3698E+01 -0.1195E+01  0.3162E+01E
 Epicentro: LOS SANTOS - SANTANDER                                             3
 ACTION:UPD 12-07-13 15:54 OP:ep   STATUS:               ID:20110829041756 L   I
 2011-08-29-0400-00M.COL___162                                                 6
 STAT SP IPHASW D HRMM SECON CODA AMPLIT PERI AZIMU VELO AIN AR TRES W  DIS CAZ7
 BAR2 SZ IP        418 15.59                             172   -0.0110 19.6 202 
 BAR2 SZ ES   1    418 30.08                             172   -0.42 7 19.6 202 
 BAR2 SZ I         418 32.08        11.6 0.17                          19.6 202 
 GIR2 SZ EP   1    418 15.62                             165   -0.26 7 36.6 346 
 GIR2 SZ ES   1    418 31.57                             165    0.57 7 36.6 346 
 BRR  HZ EP   1    418 17.30                             150   -0.25 7 76.4 300 
 BRR  HE ES   1    418 34.12                             150    0.15 7 76.4 300 
 BRR  HZ I         418 34.99        14.3 0.12                          76.4 300 
 PAM  SZ EP        418 18.52                             150    0.1010 79.2  36 
 PAM  SE ES   1    418 35.29                             150   -0.23 7 79.2  36 
 RUS  HZ EP   1    418 19.67                             144    0.15 7 95.6 178 
 RUS  HZ I         418 20.84         5.9 0.14                          95.6 178 
 RUS  HN ES   1    418 37.56                             144    0.08 7 95.6 178 
 NOR  SN ES   2    418 59.41                             118   -0.29 4  235 236 
 CHI  HZ EP   2    418 34.06                             117    0.48 4  245 196 
 CHI  HZ I         419 11.15         2.4 0.43                           245 196 
                                                                                
