 2017 1029 0752 55.5 L   6.773 -73.147138.4  RSN  7 0.4 1.1LRSN                1
 GAP=138        1.06       4.3     4.5  6.8 -0.7516E+00  0.8895E+01  0.2327E+00E
 Epicentro: LOS SANTOS - SANTANDER                                             3
 ACTION:UPD 17-11-07 19:38 OP:rebc STATUS:               ID:20171029075255 L   I
 OLDACT:REG 17-10-29 13:37 OP:dhb  STATUS:               ID:20171029074736     3
 2017-10-29-0748-00M.COL___399                                                 6
 STAT SP IPHASW D HRMM SECON CODA AMPLIT PERI AZIMU VELO AIN AR TRES W  DIS CAZ7
 BAR2 EZ ES        753 28.40                             171   -0.4010 20.4 191 
 BRR  HZ EP        753 15.80                             151   -0.1710 72.5 301 
 BRR  HN ES        753 32.39                             151    0.4810 72.5 301 
 BRR  HZ I         753 33.63         2.8 0.20            152           72.5 301 
 PAM  EZ EP        753 16.90                             149   -0.2310 79.8  38 
 PAM  EN ES        753 34.12                             149    0.1510 79.8  38 
 PAM  EZ I         753 35.23         2.3 0.42            152           79.8  38 
 RUS  HZ EP        753 18.57                             143    0.2210 97.6 176 
 RUS  HN ES        753 36.24                             143    0.0910 97.6 176 
 RUS  HZ I         753 38.77         1.7 0.40            143           97.6 176 
 PTB  HZ EP        753 21.10                             130   -0.75 9  147 260 
 PTB  HN ES        753 42.00                             130   -0.37 9  147 260 
 PTB  HZ I         753 43.79         1.4 0.34            132            147 260 
 SPBC HZ EP        753 23.11                             128   -0.14 9  161 220 
 SPBC HN ES        753 45.36                             128    0.50 9  161 220 
 SPBC HZ I         753 49.97         2.6 0.10            129            161 220 
 ZAR  HZ EP        753 28.52                             121    0.91 9  205 293 
 ZAR  HE ES        753 52.49                             121   -0.15 9  205 293 
                                                                                
