 2011  629 0230 53.1 L   6.770 -73.099145.4  RSN 12 0.3 2.1LRSN                1
 GAP=144        0.66       2.6     4.3  4.2 -0.4561E+01  0.1346E+01  0.1383E+01E
 Epicentro: LOS SANTOS - SANTANDER                                             3
 ACTION:UP  11-07-14 19:09 OP:ep   STATUS:               ID:20110629023053 L   I
 2011-06-29-0226-03S.COL___140                                                 6
 STAT SP IPHASW D HRMM SECON CODA AMPLIT PERI AZIMU VELO SNR AR TRES W  DIS CAZ7
 BAR2 SZ EP        231 12.54                             171    -0.110   22 205 
 BAR2 SZ ES   1    231 27.68                             171    -0.2 7   22 205 
 BAR2 SZ I         231 30.66        37.1 0.47                            22 205 
 GIR2 SZ EP        231 12.77                             166     0.010   36 343 
 BRR  HZ EP        231 14.44                             151    -0.110   77 299 
 BRR  HZ I         231 14.88        27.2 0.10                            77 299 
 BRR  HE ES        231 31.62                             151     0.410   77 299 
 PAM  SZ EP        231 15.36                             151     0.210   77  35 
 PAM  SN ES   1    231 32.52                             151     0.0 7   77  35 
 RUS  HZ EP   1    231 16.55                             145     0.0 7   97 179 
 RUS  HN ES   1    231 34.80                             145     0.0 7   97 179 
 RUS  HZ I         231 36.50        15.2 0.17                            97 179 
 BRI  SZ EP        231 17.12                             141     0.110  110  18 
 GRA  SZ EP        231 18.38                             137     0.010  128  15 
 GRA  SZ ES        231 38.38                             137     0.210  128  15 
 GRA  SZ I         231 43.27        17.4 0.59                           128  15 
 OCA  SZ EP        231 21.23                             129    -0.5 9  164 352 
 OCA  SZ ES   1    231 43.56                             129    -0.5 7  164 352 
 OCA  SZ I         231 49.27        15.9 0.39                           164 352 
 NOR  SZ EP   1    231 29.00                             118     0.0 6  237 236 
 NOR  SE ES   2    231 56.13                             118    -0.9 4  237 236 
 CHI  HZ EP   1    231 30.50                             117     0.0 6  247 197 
 CHI  HZ I         231 31.50         6.9 0.05                           247 197 
 HEL  HZ EP   1    231 34.40                             114     0.7 6  276 257 
 HEL  HZ I         232 10.66         4.2 0.18                           276 257 
 PRA  HZ EP   1    231 46.66                             107     0.1 4  392 210 
 PRA  HN ES   1    232 28.30                             107     0.1 4  392 210 
                                                                                
