 2014 1229 0048 33.7 L   6.757 -73.165144.8  RSN  4 0.3 1.2LRSN                1
 GAP=232        0.78       6.2     6.1  7.9  0.1952E+02 -0.5721E+01 -0.3585E+01E
 Epicentro: LOS SANTOS - SANTANDER                                             3
 ACTION:UPD 15-02-10 17:07 OP:nd   STATUS:               ID:20141229004833 L   I
 OLDACT:DUP 14-12-29 13:12 OP:stll STATUS:               ID:20141229003751d    3
 OLDACT:ARG 14-12-29 12:29 OP:stll STATUS:               ID:20141229003750     3
 2014-12-29-0037-50M.COL___259                                                 6
 STAT SP IPHASW D HRMM SECON CODA AMPLIT PERI AZIMU VELO AIN AR TRES W  DIS CAZ7
 BAR2 EZ EP        048 52.77                             172   -0.3710 18.3 186 
 BRR  HZ EP        048 54.52                             152   -0.2710 71.8 303 
 BRR  HN ES        049 11.55                             152    0.3210 71.8 303 
 BRR  HZ I         049 17.07         3.4 0.14            152           71.8 303 
 RUS  HZ EP        048 57.46                             145    0.4110 96.0 175 
 RUS  HN ES        049 15.15                             145   -0.0910 96.0 175 
 RUS  HZ I         049 17.08         2.0 0.50            149           96.0 175 
 PTB  HZ EP        049  0.56                             132    0.22 9  145 261 
 PTB  HN ES        049 20.89                             132   -0.21 9  145 261 
 PTB  HZ I         049 26.67         2.8 0.36            134            145 261 
                                                                                
