 2017  629 0913 28.2 L   6.805 -73.123144.7  RSN  5 0.4 1.5LRSN                1
 GAP=258        0.81       6.2     5.2  6.0  0.3516E+01  0.3953E+01 -0.3139E+01E
 Epicentro: LOS SANTOS - SANTANDER                                             3
 ACTION:UPD 17-09-14 16:56 OP:jn   STATUS:               ID:20170629091328 L   I
 OLDACT:UP  17-06-29 17:34 OP:and  STATUS:               ID:20170629090743d    3
 OLDACT:UP  17-06-29 17:34 OP:and  STATUS:               ID:20170629090743d    3
 OLDACT:DUP 17-06-29 17:31 OP:and  STATUS:               ID:20170629090743d    3
 2017-06-29-0908-00M.COL___358                                                 6
 STAT SP IPHASW D HRMM SECON CODA AMPLIT PERI AZIMU VELO AIN AR TRES W  DIS CAZ7
 BAR2 EZ EP        913 47.49                             170   -0.2510 24.4 196 
 BAR2 EZ ES        914  2.86                             170   -0.1010 24.4 196 
 BAR2 EZ I         914  4.11         6.2 0.16            174           24.4 196 
 BRR  HZ EP        913 49.29                             152   -0.0710 73.1 297 
 BRR  HE ES        914  6.43                             152    0.5810 73.1 297 
 BRR  HZ I         914 10.09         9.1 0.28            149           73.1 297 
 PTB  HZ EP   9    913 54.25                             131   -1.07 0  150 259 
 PTB  HN ES        914 15.24                             133   -0.16 9  150 259 
 PTB  HZ I         914 16.34         2.2 0.14            133            150 259 
 ZAR  HZ EP        914  1.02                             122    0.22 8  206 292 
 ZAR  HE ES        914 25.62                             122   -0.61 8  206 292 
 ZAR  HZ I         914 31.08         3.0 0.28            122            206 292 
 NOR  HZ EP   3    914  5.31                             118    1.18 2  237 235 
 NOR  HN ES        914 32.25                             118    0.11 8  237 235 
                                                                                
