 2013  629 0020  8.7 L   6.827 -73.136146.0  RSN 12 0.4 2.1LRSN                1
 GAP=136        0.97       3.1     4.6  6.5 -0.4991E+00  0.7658E+01  0.2782E+01E
 Epicentro: LOS SANTOS - SANTANDER                                             3
 ACTION:UPD 14-01-08 09:57 OP:ep   STATUS:               ID:20130629002008 L   I
 OLDACT:REG 13-06-29 07:47 OP:carl STATUS:               ID:20130629001959     3
 2013-06-29-0019-59M.COL___267                                                 6
 STAT SP IPHASW D HRMM SECON CODA AMPLIT PERI AZIMU VELO AIN AR TRES W  DIS CAZ7
 BAR2 SZ EP        020 28.53                             169    0.1410 26.5 191 
 BAR2 SZ ES        020 42.95                             169   -0.8310 26.5 191 
 BAR2 SZ I         020 45.06        20.8 0.16            169           26.5 191 
 GIR2 SZ EP        020 28.61                             168    0.3110 28.6 347 
 BRR  HZ EP        020 30.39                             153    0.5710 70.8 296 
 BRR  HN ES   1    020 47.21                             153    0.90 7 70.8 296 
 BRR  HN I         020 50.50        40.9 0.20            151           70.8 296 
 PAM  SZ EP   1    020 30.84                             152    0.11 7 74.4  40 
 PAM  SN ES   1    020 48.48                             152    0.54 7 74.4  40 
 PAM  SZ I         020 50.62        23.9 0.50            155           74.4  40 
 RUS  HZ EP        020 32.44                             143   -0.2110  104 177 
 RUS  HN ES   1    020 51.61                             143    0.25 7  104 177 
 RUS  HZ I         020 52.22         8.3 0.28            145            104 177 
 PTB  HZ EP   1    020 35.22                             132   -0.58 7  149 258 
 PTB  HE ES   1    020 56.65                             132   -0.32 7  149 258 
 OCA  HN ES        020 57.98                             130   -0.64 9  157 353 
 ZAR  HZ EP   2    020 41.66                             122    0.54 4  204 291 
 ZAR  HE ES        021  6.32                             122   -0.11 9  204 291 
 ZAR  HZ I         021 12.72         6.5 0.52            123            204 291 
 NOR  HE ES        021 13.17                             118    0.38 8  237 234 
 NOR  HE I         021 14.01        13.5 0.22            119            237 234 
 SML  HZ EP   1    020 44.72                             118   -0.34 6  241 335 
 SML  HN ES   1    021 13.38                             118   -0.07 6  241 335 
 SML  HZ I         021 16.77        16.3 0.10            119            241 335 
 CHI  HZ EP   1    020 46.77                             117    0.05 6  252 195 
 CHI  HN ES   1    021 16.28                             117   -0.12 6  252 195 
 CHI  HZ I         021 19.51         5.3 0.42            118            252 195 
 PRA  HZ EP   1    021  2.49                             106   -0.07 4  395 209 
 PRA  HN ES        021 44.29                             106   -0.31 6  395 209 
 PRA  HZ I         021 50.28         3.5 0.26            107            395 209 
                                                                                
