 2013 1229 0527 28.6 L   6.782 -73.106149.7  RSN  6 0.4 1.3LRSN                1
 GAP=204        0.77       3.9     5.8  5.7  0.4708E+01 -0.1192E+01 -0.5290E+01E
 Epicentro: LOS SANTOS - SANTANDER                                             3
 ACTION:UPD 14-01-13 10:22 OP:ep   STATUS:               ID:20131229052728 L   I
 OLDACT:UP  13-12-29 09:49 OP:PTA  STATUS:               ID:20131229052001d    3
 OLDACT:DUP 13-12-29 09:44 OP:PTA  STATUS:               ID:20131229052001d    3
 OLDACT:UP  13-12-29 09:44 OP:PTA  STATUS:               ID:20131229052000     3
 OLDACT:REG 13-12-29 08:30 OP:mh   STATUS:               ID:20131229052000     3
 2013-12-29-0520-00M.COL___285                                                 6
 STAT SP IPHASW D HRMM SECON CODA AMPLIT PERI AZIMU VELO AIN AR TRES W  DIS CAZ7
 BAR2 SZ EP        527 48.90                             171    0.1710 22.6 202 
 BAR2 SZ ES        528  4.14                             171   -0.2610 22.6 202 
 BRR  HZ EP        527 50.79                             152    0.3010 76.0 298 
 BRR  HN ES        528  7.72                             152    0.1910 76.0 298 
 BRR  HZ I         528 12.77         3.2 0.08            152           76.0 298 
 RUS  HZ EP   1    527 52.96                             145    0.33 7 98.4 179 
 RUS  HN ES   2    528 10.75                             145   -0.59 5 98.4 179 
 RUS  HZ I         528 14.64         1.3 0.27            147           98.4 179 
 PTB  HZ EP   1    527 55.68                             132   -0.61 7  152 260 
 PTB  HN ES        528 17.61                             132   -0.24 9  152 260 
 PTB  HZ I         528 21.66         5.1 0.18            134            152 260 
 SPBC HZ EP   1    527 57.65                             130    0.09 7  164 221 
 SPBC HN ES   2    528 20.92                             130    0.80 5  164 221 
 SML  HZ EP        528  5.38                             118   -0.50 8  247 335 
 SML  HN ES        528 35.20                             118    0.27 8  247 335 
 SJC  HZ EP   4    528 22.91                             106   -1.90 0  413 327 
                                                                                
