 2012  629 0607  6.3 L   6.783 -73.187149.2  RSN  5 0.3 1.2LRSN                1
 GAP=132        0.56       4.9     4.5  5.9  0.4845E+01 -0.2314E+01 -0.4552E+01E
 Epicentro: LOS SANTOS - SANTANDER                                             3
 ACTION:UPD 12-08-06 17:53 OP:ep   STATUS:               ID:20120629060706 L   I
 2012-06-29-0600-00M.COL___201                                                 6
 STAT SP IPHASW D HRMM SECON CODA AMPLIT PERI AZIMU VELO AIN AR TRES W  DIS CAZ7
 BAR2 SZ EP   1    6 7 26.33                             172   -0.01 7 21.1 179 
 BAR2 SZ ES   1    6 7 41.75                             172   -0.19 7 21.1 179 
 BAR2 SZ I         6 7 43.78         3.7 0.25                          21.1 179 
 BRR  HZ EP   1    6 7 27.86                             154    0.17 7 68.2 302 
 BRR  HZ I         6 7 29.81         3.3 0.14                          68.2 302 
 BRR  HN ES   1    6 7 44.62                             154    0.26 7 68.2 302 
 PAM  SZ EP   1    6 7 28.96                             150   -0.22 7 81.8  41 
 PAM  SZ I         6 7 48.36         2.6 0.61                          81.8  41 
 RUS  HZ EP   1    6 7 30.83                             145    0.51 7 99.1 173 
 RUS  HN ES   1    6 7 48.92                             145   -0.12 7 99.1 173 
 RUS  HZ I         6 7 50.97         2.5 0.35                          99.1 173 
 PTB  HZ EP   1    6 7 32.73                             134   -0.42 7  143 259 
 PTB  HN ES   1    6 7 54.05                             134   -0.02 7  143 259 
 PTB  HZ I         6 7 55.79         2.2 0.29                           143 259 
                                                                                
