 2017  129 0737  8.4 L   6.797 -73.166139.9  RSN  7 0.3 1.3LRSN                1
 GAP=235        0.77       4.3     4.6  5.7  0.7505E+01  0.6093E+01  0.1221E+02E
 Epicentro: LOS SANTOS - SANTANDER                                             3
 ACTION:UPD 17-05-22 16:04 OP:jn   STATUS:               ID:20170129073708 L   I
 OLDACT:DUP 17-01-29 17:45 OP:lv   STATUS:               ID:20170129072745d    3
 2017-01-29-0728-00M.COL___330                                                 6
 STAT SP IPHASW D HRMM SECON CODA AMPLIT PERI AZIMU VELO AIN AR TRES W  DIS CAZ7
 BAR2 EZ EP        737 27.30                             170   -0.0210 22.7 184 
 BAR2 EZ ES        737 42.08                             170    0.0110 22.7 184 
 BAR2 EZ I         737 43.57         5.1 0.20            162           22.7 184 
 BRR  HZ EP        737 29.28                             152    0.4610 69.4 300 
 BRR  HE ES        737 44.68                             152   -0.0610 69.4 300 
 RUS  HZ EP        737 31.50                             143   -0.0810  100 175 
 RUS  HZ I         737 51.55         2.7 0.11            135            100 175 
 PTB  HZ EP        737 34.77                             131    0.08 9  145 259 
 PTB  HN ES        737 55.49                             131    0.30 9  145 259 
 ZAR  HN ES        738  4.58                             121   -0.54 9  202 292 
 CHI  HZ EP        737 45.72                             116    0.03 8  248 195 
 CHI  HN ES        738 14.24                             116   -0.52 8  248 195 
 CHI  HZ I         738 20.37         1.3 0.30            112            248 195 
 PTGC HN ES   4    738 23.38                             110   -2.74 0  309 158 
 ORTC HZ EP        738  1.47                             105   -0.47 6  394 216 
 ORTC HE ES        738 44.39                             105    0.69 6  394 216 
 SJC  HZ EP   4    738  1.69                             105   -1.99 0  408 327 
 SJC  HN ES   4    738 42.27                             105   -4.51 0  408 327 
                                                                                
