 2013  829 0223 29.6 L   6.799 -73.148141.7  RSN 20 0.6 3.0LRSN 3.4WRSN        1
 SPEC AVERAGE  MO 14.2 ST 29.8 OM  2.6 f0 4.46 R0.5465 AL 0.00 WI 26.3 MW  3.4 3
 SPEC SD       MO  0.2 ST 53.1 OM  0.5 f0 3.10 R0.8085 AL      WI      MW  0.1 3
 GAP= 65        1.23       2.9     3.9  5.7 -0.1512E+01  0.6312E+01  0.2069E+01E
 Epicentro: LOS SANTOS - SANTANDER                                             3
 SPEC YOP SH N MO 14.6 ST  2.3 OM  2.8 f0 1.77 R0.8780 AL 0.00 WI 32.5 MW  3.6 3
 SPEC YOP SH N T 22420 K 0.000 GD  228 VS 4.20 DE 3.20 Q0300.0 QA 0.60 VS 4.20 3
 SPEC RUS HH Z MO 13.8 ST  2.0 OM  1.4 f0 5.40 R0.5207 AL 0.00 WI 18.3 MW  3.1 3
 SPEC RUS HH Z T 22351 K 0.000 GD  173 VP 7.60 DE 3.20 Q0300.0 QA 0.60 VS 4.20 3
 SPEC NOR HH N MO 14.1 ST158.9 OM  2.3 f0 10.0 R0.1554 AL 0.00 WI 31.4 MW  3.4 3
 SPEC NOR HH N T 22431 K 0.000 GD  273 VS 4.20 DE 3.20 Q0300.0 QA 0.60 VS 4.20 3
 SPEC PAM SH N MO 14.3 ST  3.0 OM  2.7 f0 2.34 R0.6641 AL 0.00 WI 16.5 MW  3.5 3
 SPEC PAM SH N T 224 7 K 0.000 GD  161 VS 4.20 DE 3.20 Q0300.0 QA 0.60 VS 4.20 3
 SPEC RUS HH N MO 14.4 ST  2.4 OM  2.8 f0 1.97 R0.7888 AL 0.00 WI 23.2 MW  3.6 3
 SPEC RUS HH N T 224 9 K 0.000 GD  173 VS 4.20 DE 3.20 Q0300.0 QA 0.60 VS 4.20 3
 SPECGUY2CHH E MO 14.7 ST  1.3 OM 2.81 f0 1.29 R1.2070 AL 0.00 WI 35.0 MW  3.8 3
 SPECGUY2CHH E T 22445 K 0.000 GD  332 VS 4.20 DE 3.20 Q0300.0 QA 0.60 VS 4.20 3
 SPEC HEL HH N MO 14.2 ST  5.2 OM  2.3 f0 3.08 R0.5045 AL 0.00 WI 40.6 MW  3.4 3
 SPEC HEL HH N T 22438 K 0.000 GD  306 VS 4.20 DE 3.20 Q0300.0 QA 0.60 VS 4.20 3
 SPEC CHI HH E MO 14.2 ST  2.9 OM  2.3 f0 2.59 R0.6000 AL 0.00 WI 31.8 MW  3.4 3
 SPEC CHI HH E T 22436 K 0.000 GD  285 VS 4.20 DE 3.20 Q0300.0 QA 0.60 VS 4.20 3
 SPEC BRR HH N MO 14.1 ST 88.7 OM  2.5 f0 8.47 R0.1835 AL 0.00 WI 29.2 MW  3.3 3
 SPEC BRR HH N T 224 6 K 0.000 GD  158 VS 4.20 DE 3.20 Q0300.0 QA 0.60 VS 4.20 3
 SPEC BAR2SH Z MO 14.2 ST  3.0 OM  1.9 f0 4.51 R0.6235 AL 0.00 WI 13.5 MW  3.4 3
 SPEC BAR2SH Z T 22348 K 0.000 GD  143 VP 7.60 DE 3.20 Q0300.0 QA 0.60 VS 4.20 3
 ACTION:UPD 14-01-14 09:08 OP:ep   STATUS:               ID:20130829022329 L   I
 OLDACT:UP  13-08-29 09:55 OP:jn   STATUS:               ID:20130829021847     3
 OLDACT:REG 13-08-29 08:19 OP:jn   STATUS:               ID:20130829021847     3
 2013-08-29-0218-47M.COL___212                                                 6
 STAT SP IPHASW D HRMM SECON CODA AMPLIT PERI AZIMU VELO AIN AR TRES W  DIS CAZ7
 BAR2 SZ IP     D  223 48.90                             170    0.1610 23.2 190 
 BAR2 SZ ES        224  3.51                             170   -0.1610 23.2 190 
 BAR2 SZ I         224  5.88       344.6 0.32            169           23.2 190 
 BRR  HZ EP     C  223 50.80                             152    0.4910 71.1 299 
 BRR  HN ES        224  7.50                             152    1.0410 71.1 299 
 BRR  HZ I         224  8.72       122.1 0.28            153           71.1 299 
 PAM  SZ EP     C  223 51.73                             150    0.3310 77.6  40 
 PAM  SN ES        224  8.43                             150    0.0310 77.6  40 
 PAM  SZ I         224 11.34       242.9 0.58            147           77.6  40 
 RUS  HZ EP     C  223 52.78                             143   -0.1710  100 176 
 RUS  HN ES        224 10.61                             143   -0.5510  100 176 
 RUS  HZ I         224 13.50       132.8 0.34            140            100 176 
 PTB  HZ EP        223 55.43                             131   -0.79 9  148 259 
 PTB  HN ES        224 16.04                             131   -0.94 9  148 259 
 PTB  HZ I         224 18.91       169.0 0.18            130            148 259 
 TAM  HZ EP   1    223 57.36                             130    0.38 7  155 105 
 TAM  HZ I         224 19.25       103.0 0.32            126            155 105 
 OCA  HZ EP        223 57.27                             129   -0.34 9  160 353 
 OCA  HN ES        224 18.74                             129   -0.72 9  160 353 
 OCA  HZ I         224 24.05       113.5 0.24            127            160 353 
 SPBC HZ EP        223 57.86                             128    0.09 9  163 219 
 SPBC HE ES        224 19.97                             128    0.23 9  163 219 
 SPBC HZ I         224 23.69       103.8 0.22            127            163 219 
 YOP  SN ES   1    224 22.72                             125    0.16 7  179 153 
 YOP  SZ I         224 26.51       156.8 0.44            122            179 153 
 ZAR  HZ EP        224  1.89                             121    0.11 9  204 292 
 ZAR  HE ES        224 27.63                             121    0.77 9  204 292 
 ZAR  HZ I         224 36.43       109.1 0.60            120            204 292 
 NOR  HZ EP        224  4.94                             118   -0.14 8  234 234 
 NOR  HN ES        224 32.31                             118   -0.43 8  234 234 
 NOR  HZ I         224 34.85        92.7 0.20            116            234 234 
 SML  HZ EP        224  5.39                             117   -0.62 8  244 335 
 SML  HN ES   1    224 34.54                             117    0.13 6  244 335 
 CHI  HZ EP   2    224  6.74                             116   -0.32 4  248 195 
 CHI  HE ES   1    224 37.34                             116    1.06 6  248 195 
 CHI  HZ I         224 40.60        37.0 0.28            114            248 195 
 ROSC BZ EP   4    224  9.00                             116    1.52 0  253 211 
 ROSC BN ES   4    224 37.64                             116    0.62 0  253 211 
 HEL  HZ EP        224  9.56                             114   -0.03 8  272 256 
 HEL  HN ES        224 39.93                             114   -0.84 8  272 256 
 HEL  HZ I         224 47.93        85.6 0.28            113            272 256 
 GUY2CHZ EP        224 13.84                             112    0.84 7  301 235 
 GUY2CHE ES        224 48.03                             112    1.18 7  301 235 
 GUY2CHZ I         224 54.33        69.4 0.28                           301 235 
 VIL  SN ES   1    224 45.95                             111   -0.58 5  303 192 
 VIL  SZ I         224 52.60        52.8 0.32            109            303 192 
 RREF HZ EP        224 16.32                             110    0.77 7  322 229 
 RREF HE ES   1    224 51.07                             110   -0.31 5  322 229 
 RREF HZ I         224 58.03        57.0 0.24            109            322 229 
 DBB  SZ EP   1    224 17.24                             109    0.34 5  339 274 
 PRA  HZ EP        224 22.57                             106   -0.39 6  392 210 
 PRA  HN ES        225  3.93                             106   -0.65 6  392 210 
 PRA  HZ I         225 11.49        30.3 0.28            104            392 210 
 ORTC HZ EP        224 23.81                             106    0.45 6  395 216 
 ORTC HN ES        225  5.13                             106   -0.16 6  395 216 
 ORTC HZ I         225 10.56        32.3 0.58            104            395 216 
                                                                                
