 2015  329 0005 55.2 L   6.784 -73.227138.0  RSN  6 0.5 1.4LRSN                1
 GAP=100        1.25       6.4     5.4  8.4 -0.2173E+01 -0.3175E+01  0.4475E+01E
 Epicentro: ZAPATOCA - SANTANDER                                               3
 ACTION:UPD 15-04-30 16:30 OP:nd   STATUS:               ID:20150329000555 L   I
 OLDACT:DUP 15-03-29 13:39 OP:stll STATUS:               ID:20150329000005d    3
 OLDACT:REG 15-03-29 12:37 OP:stll STATUS:               ID:20150329000003     3
 2015-03-29-0000-03M.COL___287                                                 6
 STAT SP IPHASW D HRMM SECON CODA AMPLIT PERI AZIMU VELO AIN AR TRES W  DIS CAZ7
 BAR2 EZ EP        0 6 14.02                             171    0.1810 21.8 167 
 BAR2 EZ ES        0 6 28.40                             171    0.0010 21.8 167 
 BAR2 EZ I         0 6 30.13         6.5 0.44            170           21.8 167 
 BRR  HZ EP        0 6 15.75                             153    0.6510 64.4 304 
 BRR  HZ I         0 6 15.81         9.0 0.36            154           64.4 304 
 BRR  HN ES        0 6 31.30                             153    0.6610 64.4 304 
 PAM  SZ IP     C  0 6 17.10                             147    0.0610 84.7  43 
 PAM  SN ES        0 6 33.45                             147   -0.6410 84.7  43 
 PAM  SZ I         0 6 36.31         4.5 0.72            150           84.7  43 
 RUS  HZ EP        0 6 18.55                             142    0.4310 99.9 171 
 RUS  HE ES        0 6 36.04                             142    0.0310 99.9 171 
 RUS  HZ I         0 6 38.66         2.6 0.18            144           99.9 171 
 PTB  HZ EP        0 6 20.35                             132   -0.32 9  139 259 
 PTB  HE ES        0 6 39.67                             132   -0.90 9  139 259 
 PTB  HZ I         0 6 46.55         2.7 0.14            133            139 259 
 TAM  HZ EP        0 6 22.70                             127   -0.35 9  163 104 
                                                                                
