 2015  629 0047  5.4 L   6.781 -73.091143.6  RSN  6 0.3 1.9LRSN                1
 GAP=242        0.73       4.7     4.4  5.4 -0.1655E-01  0.1157E+02  0.2062E+01E
 Epicentro: LOS SANTOS - SANTANDER                                             3
 ACTION:UPD 15-09-10 22:15 OP:cam  STATUS:               ID:20150629004705 L   I
 OLDACT:UP  15-06-29 17:35 OP:mh   STATUS:               ID:20150629003750     3
 OLDACT:REG 15-06-29 12:42 OP:mh   STATUS:               ID:20150629003750     3
 2015-06-29-0037-50M.COL___319                                                 6
 STAT SP IPHASW D HRMM SECON CODA AMPLIT PERI AZIMU VELO AIN AR TRES W  DIS CAZ7
 BAR2 EZ EP        047 24.83                             170    0.1110 23.2 206 
 BAR2 EZ ES        047 39.48                             170   -0.3510 23.2 206 
 BAR2 EZ I         047 40.87        22.5 0.12            166           23.2 206 
 BRR  HZ EP        047 26.44                             150   -0.2010 77.5 298 
 BRR  HN ES   1    047 43.49                             150    0.24 7 77.5 298 
 BRR  HZ I         047 44.02        15.9 0.30            148           77.5 298 
 RUS  HZ EP        047 28.78                             144    0.0610 98.2 179 
 RUS  HN ES        047 47.29                             144    0.3410 98.2 179 
 RUS  HZ I         047 48.03         8.2 0.28            144           98.2 179 
 NOR  HZ EP        047 41.22                             118   -0.14 8  238 236 
 NOR  HN ES        048  8.93                             118   -0.52 8  238 236 
 NOR  HZ I         048 13.75         6.1 0.36            117            238 236 
 HEL  HZ EP        047 46.24                             114    0.19 7  277 257 
 HEL  HN ES        048 18.49                             114    0.69 7  277 257 
 HEL  HZ I         048 23.59         4.9 0.26            114            277 257 
 GUY2CHZ EP   1    047 49.12                             112   -0.17 5  305 236 
 GUY2CHN ES        048 23.35                             112   -0.21 7  305 236 
 GUY2CHZ I         048 32.00         3.1 0.26                           305 236 
                                                                                
