 2016  529 0929 53.5 L   6.876 -73.151151.0  RSN  5 0.4 1.8LRSN                1
 GAP=142        1.01       7.2     6.0  8.2 -0.1718E+02  0.6402E+01  0.1937E+01E
 Epicentro: LOS SANTOS - SANTANDER                                             3
 ACTION:UPD 16-08-18 17:50 OP:cam  STATUS:               ID:20160529092953 L   I
 OLDACT:UP  16-07-21 13:48 OP:cm   STATUS:               ID:20160529092953 L   3
 OLDACT:UP  16-06-01 05:07 OP:dnl  STATUS:               ID:20160529092953 L   3
 OLDACT:UP  16-05-29 15:26 OP:mh   STATUS:               ID:20160529092746     3
 OLDACT:UP  16-05-29 15:25 OP:mh   STATUS:               ID:20160529092746     3
 OLDACT:UP  16-05-29 15:24 OP:mh   STATUS:               ID:20160529092746     3
 OLDACT:UP  16-05-29 15:23 OP:mh   STATUS:               ID:20160529092746     3
 OLDACT:UP  16-05-29 15:21 OP:mh   STATUS:               ID:20160529092746     3
 OLDACT:UP  16-05-29 15:20 OP:mh   STATUS:               ID:20160529092746     3
 OLDACT:REG 16-05-29 12:35 OP:mh   STATUS:               ID:20160529092746     3
 2016-05-29-0927-46M.COL___307                                                 6
 STAT SP IPHASW D HRMM SECON CODA AMPLIT PERI AZIMU VELO AIN AR TRES W  DIS CAZ7
 BAR2 EZ EP        930 13.99                             168   -0.0010 31.6 186 
 BAR2 EZ ES        930 29.80                             168   -0.1410 31.6 186 
 BRR  HZ EP   1    930 15.41                             155    0.37 7 67.0 292 
 BRR  HN ES        930 32.44                             155    0.6410 67.0 292 
 BRR  HZ I         930 33.33        18.0 0.04            155           67.0 292 
 PAM  EZ EP        930 16.52                             153    0.5310 71.5  44 
 PAM  EN ES        930 33.07                             153   -0.4310 71.5  44 
 PAM  EZ I         930 35.81        12.7 0.50            153           71.5  44 
 PTB  HZ EP        930 20.67                             133   -0.39 9  149 256 
 PTB  HN ES        930 42.23                             133   -0.29 9  149 256 
 PTB  HZ I         930 42.96         5.7 0.54            134            149 256 
 OCA  HN ES   1    930 42.83                             132   -0.47 7  152 353 
 OCA  HZ I         930 44.77         6.9 0.11            132            152 353 
                                                                                
