 2012  529 0346 27.9 L   6.814 -73.159141.4  RSN  5 0.4 1.6LRSN                1
 GAP=182        0.83       5.0     6.2 10.7  0.6174E+01  0.1355E+01 -0.1964E+02E
 Epicentro: LOS SANTOS - SANTANDER                                             3
 ACTION:UP  12-07-05 12:08 OP:pat  STATUS:               ID:20120529034627 L   I
 2012-05-29-0340-00M.COL___201                                                 6
 STAT SP IPHASW D HRMM SECON CODA AMPLIT PERI AZIMU VELO AIN AR TRES W  DIS CAZ7
 BAR2 SZ EP   1    346 47.27                             170     0.2 7   25 186 
 BAR2 SZ ES   1    347  2.31                             170     0.4 7   25 186 
 BAR2 SZ I         347  4.37        18.6 0.25                            25 186 
 RUS  HZ EP   1    346 51.00                             142    -0.3 7  102 175 
 RUS  HN ES   1    347  9.52                             142    -0.1 7  102 175 
 RUS  HZ I         347 11.49         4.7 0.37                           102 175 
 PTB  HN ES   1    347 14.75                             131    -0.3 7  147 258 
 PTB  HZ I         347 18.19         2.6 0.17                           147 258 
 OCA  HZ EP   1    346 56.17                             129     0.5 7  159 354 
 OCA  HN ES   1    347 16.80                             129    -0.6 7  159 354 
 ZAR  HE ES   1    347 25.11                             122     0.3 6  202 292 
                                                                                
