 2011  429 0749 42.0 L   6.806 -73.157141.8  RSN 12 0.4 2.5LRSN                1
 GAP=112        0.95       3.0     4.6  6.5 -0.2312E+01  0.6235E+01  0.5097E+01E
 Epicentro: LOS SANTOS - SANTANDER                                             3
 ACTION:UP  11-06-22 15:33 OP:REBC STATUS:               ID:20110429074942 L   I
 2011-04-29-0747-37S.COL___138                                                 6
 STAT SP IPHASW D HRMM SECON CODA AMPLIT PERI AZIMU VELO SNR AR TRES W  DIS CAZ7
 BAR2 SZ IP        750  1.18                             170     0.010   24 187 
 BAR2 SZ ES   1    750 15.88                             170    -0.2 7   24 187 
 BAR2 SZ I         750 17.47       102.7 0.20                            24 187 
 BRR  HZ IP     D  750  3.02                             152     0.410   70 299 
 BRR  HN ES   1    750 19.65                             152     0.9 7   70 299 
 BRR  HZ I         750 24.80        92.3 0.12                            70 299 
 PAM  SZ EP   1    750  4.03                             150     0.2 7   78  41 
 PAM  SN ES   1    750 20.52                             150    -0.3 7   78  41 
 PAM  SZ I         750 22.93        35.8 0.43                            78  41 
 RUS  HZ EP        750  5.21                             143    -0.210  101 175 
 RUS  HN ES   1    750 23.10                             143    -0.6 7  101 175 
 RUS  HZ I         750 25.17        31.2 0.34                           101 175 
 BRI  SZ EP   1    750  5.68                             141     0.2 7  108  22 
 BRI  SZ ES   1    750 23.43                             141    -0.4 7  108  22 
 GRA  SZ EP   1    750  6.99                             136     0.1 7  125  18 
 GRA  SZ ES   1    750 26.39                             136     0.1 7  125  18 
 GRA  SZ I         750 27.81        63.3 0.27                           125  18 
 OCA  SZ EP   1    750  9.25                             129    -0.7 7  159 354 
 OCA  SZ ES   1    750 31.62                             129    -0.1 7  159 354 
 OCA  SZ I         750 36.80        32.2 0.16                           159 354 
 YOP  SZ EP        750 12.05                             125     0.2 9  180 153 
 YOP  SN ES   1    750 36.17                             125     1.0 7  180 153 
 YOP  SZ I         750 40.76        18.1 0.24                           180 153 
 NOR  SZ EP   1    750 17.39                             118    -0.1 6  234 234 
 NOR  SN ES   1    750 45.21                             118     0.1 6  234 234 
 HEL  HZ EP   1    750 22.04                             114     0.1 6  271 256 
 HEL  HE ES   1    750 52.53                             114    -0.5 6  271 256 
 HEL  HZ I         750 59.87        18.1 0.42                           271 256 
 VIL  SN ES   1    750 58.61                             111    -0.5 5  304 191 
 VIL  SZ I         751  7.57        10.6 0.37                           304 191 
 PRA  HZ EP   1    750 35.50                             106     0.1 4  392 209 
 PRA  HN ES   1    751 16.82                             106    -0.2 4  392 209 
 PRA  HZ I         751 24.17        58.8 0.31                           392 209 
                                                                                
