 2012  229 0107 21.9 L   6.825 -73.307118.7  RSN 15 0.4 3.3LRSN                1
 GAP= 99        0.80       2.1     2.8  4.3  0.3318E-01  0.4910E+01  0.2375E+01E
 ACTION:UP  12-03-07 16:35 OP:epov STATUS:               ID:20120229010721 L   I
 2012-02-29-0100-00M.COL___191                                                 6
 STAT SP IPHASW D HRMM SECON CODA AMPLIT PERI AZIMU VELO AIN AR TRES W  DIS CAZ7
 BAR2 SZ EP        1 7 38.51                             165    0.0610 29.2 152 
 BAR2 SZ ES        1 7 51.40                             165    0.0510 29.2 152 
 BAR2 SZ I         1 7 52.71      1836.7 0.36                          29.2 152 
 BRR  HZ EP        1 7 38.91                             154   -0.2710 54.5 305 
 BRR  HN ES   1    1 7 52.88                             154    0.22 7 54.5 305 
 BRR  HZ I         1 7 53.73       942.4 0.12                          54.5 305 
 PAM  SZ EP        1 7 41.65                             141   -0.4410 88.0  50 
 PAM  SE ES        1 7 57.51                             141   -0.3310 88.0  50 
 RUS  HZ EP        1 7 43.23                             136   -0.3310  106 166 
 RUS  HE ES        1 8  0.59                             136    0.1410  106 166 
 RUS  HZ I         1 8  2.25       325.3 0.36                           106 166 
 OCA  SZ EP        1 7 48.69                             123    0.83 9  156 360 
 OCA  SZ ES        1 8  8.46                             123    0.35 9  156 360 
 ZAR  HZ EP        1 7 50.27                             118   -0.56 9  187 293 
 ZAR  HE ES   1    1 8 13.52                             118    0.12 7  187 293 
 ZAR  HZ I         1 8 18.07       316.1 0.27                           187 293 
 YOP  SZ EP        1 7 51.74                             118    0.41 9  190 149 
 YOP  SE ES   1    1 8 14.45                             118    0.16 7  190 149 
 YOP  SZ I         1 8 16.85       225.0 0.19                           190 149 
 NOR  SZ EP   1    1 7 53.91                             113   -0.89 6  222 231 
 NOR  SN ES   1    1 8 20.44                             113   -0.02 6  222 231 
 CHI  HZ EP        1 7 58.22                             111    0.12 8  247 191 
 CHI  HZ I         1 7 59.02       103.6 0.30                           247 191 
 CHI  HN ES   1    1 8 26.90                             111    0.57 6  247 191 
 HEL  HZ EP   1    1 7 58.80                             110   -0.19 6  256 254 
 HEL  HN ES   1    1 8 28.19                             110    0.28 6  256 254 
 HEL  HZ I         1 8 31.72        66.2 0.20                           256 254 
 GUY  SZ EP   1    1 8  3.17                             107   -0.02 5  291 233 
 GUY  SN ES   1    1 8 35.04                             107   -0.35 5  291 233 
 GUY  SZ I         1 8 40.36       133.4 0.53                           291 233 
 VIL  SZ EP        1 8  4.10                             106   -0.09 7  303 188 
 VIL  SN ES   1    1 8 36.72                             106   -0.46 5  303 188 
 VIL  SZ I         1 8 48.01        74.8 0.19                           303 188 
 RREF HZ EP   1    1 8  5.90                             106    0.23 5  310 227 
 RREF HE ES   1    1 8 39.91                             106    0.10 5  310 227 
 RREF HZ I         1 8 48.23        66.4 0.39                           310 227 
 TOL  SZ EP        1 8  8.46                             104    0.46 7  333 222 
 PRA  HZ EP        1 8 13.60                             102   -0.30 6  386 207 
 PRA  HE ES   1    1 8 55.11                             102    0.65 4  386 207 
                                                                                
