 2016  729 0356 31.1 L   6.827 -73.311120.3  RSN  6 0.2 1.2LRSN                1
 GAP=206        0.60       3.1     3.1  4.8  0.4232E+01  0.4013E+01  0.1986E+01E
 Epicentro: ZAPATOCA - SANTANDER                                               3
 ACTION:UPD 17-03-29 16:56 OP:lp   STATUS:               ID:20160729035631 L   I
 OLDACT:REG 16-07-29 12:56 OP:edw  STATUS:               ID:20160729034759     3
 2016-07-29-0347-59S.COL___337                                                 6
 STAT SP IPHASW D HRMM SECON CODA AMPLIT PERI AZIMU VELO AIN AR TRES W  DIS CAZ7
 BAR2 EZ EP        356 47.77                             165   -0.0610 29.6 151 
 BAR2 EZ ES        357  0.48                             165   -0.4110 29.6 151 
 BRR  HZ EP        356 48.69                             154    0.1710 54.1 305 
 BRR  HE ES        357  2.38                             154    0.2610 54.1 305 
 BRR  HZ I         357  3.48         7.1 0.42            155           54.1 305 
 RUS  HZ EP        356 52.97                             136    0.0710  106 166 
 RUS  HE ES        357 10.19                             136    0.2710  106 166 
 RUS  HZ I         357 11.17         1.4 0.18            137            106 166 
 PTB  HZ EP        356 54.12                             129   -0.3210  131 256 
 PTB  HE ES        357 12.59                             129   -0.0710  131 256 
 PTB  HZ I         357 14.55         2.9 0.18            130            131 256 
 SPBC HN ES        357 17.12                             124    0.06 9  155 213 
 ZAR  HN ES        357 22.69                             119    0.02 9  186 293 
                                                                                
