 2010  329 0431  6.4 L   6.882 -73.254122.5  RSN  4 0.3 1.9LRSN                1
 GAP=169        0.52       4.6     7.4  6.7  0.4098E+01  0.6865E+00 -0.1605E+02E
 Epicentro: BETULIA - SANTANDER                                                3
 *DBB                                                                          3
 ACTION:UP  10-08-24 09:56 OP:vdl  STATUS:               ID:20100329043106 L   I
 2010-03-29-0427-09S.COL___098                                                 6
 STAT SP IPHASW D HRMM SECON CODA AMPLIT PERI AZIMU VELO SNR AR TRES W  DIS CAZ7
 BAR2 SZ IP        431 23.68                             164     0.210   33 166 
 BAR2 SZ ES   1    431 36.59                             164    -0.3 7   33 166 
 BRR  HZ IP        431 24.31                             153     0.110   56 296 
 BRR  HZ I         431 24.83        13.1 0.16                            56 296 
 BRR  HN ES   2    431 38.22                             153     0.1 5   56 296 
 OCA  SZ EP        431 31.83                             126    -0.2 9  150 357 
 OCA  SZ ES   2    431 52.02                             126     0.1 5  150 357 
 OCA  SZ I         431 56.59        24.6 0.06                           150 357 
 HEL  HZ EP   3    431 44.78                             110     0.3 2  263 253 
 HEL  HN ES   3    432 12.90                             110    -1.3 2  263 253 
 HEL  HZ I         432 17.99         3.7 0.39                           263 253 
                                                                                
