 2015  329 0503 59.0 L   6.766 -73.158144.4  RSN  7 0.2 1.3LRSN                1
 GAP= 97        0.59       2.8     2.5  3.9 -0.1521E+01 -0.8065E+00  0.9024E+00E
 Epicentro: LOS SANTOS - SANTANDER                                             3
 ACTION:UPD 15-04-30 16:30 OP:nd   STATUS:               ID:20150329050359 L   I
 OLDACT:DUP 15-03-29 15:18 OP:stll STATUS:               ID:20150329045748d    3
 2015-03-29-0457-47M.COL___290                                                 6
 STAT SP IPHASW D HRMM SECON CODA AMPLIT PERI AZIMU VELO AIN AR TRES W  DIS CAZ7
 BAR2 EZ EP        5 4 18.43                             172    0.0610 19.4 188 
 BAR2 EZ I         5 4 18.53         4.0 0.40            171           19.4 188 
 BAR2 EZ ES        5 4 33.48                             172   -0.0110 19.4 188 
 BRR  HZ EP        5 4 20.09                             152    0.0810 71.9 302 
 BRR  HN ES        5 4 36.69                             152    0.2610 71.9 302 
 BRR  HZ I         5 4 40.58         3.6 0.34            150           71.9 302 
 PAM  SZ EP        5 4 21.33                             149    0.0510 81.1  39 
 PAM  SZ I         5 4 21.51         5.0 0.24            152           81.1  39 
 PAM  SN ES        5 4 38.58                             149   -0.0910 81.1  39 
 RUS  HZ EP        5 4 22.61                             145    0.2810 97.0 175 
 RUS  HN ES        5 4 40.32                             145   -0.2310 97.0 175 
 RUS  HZ I         5 4 42.21         3.0 0.32            146           97.0 175 
 PTB  HZ EP        5 4 25.45                             132   -0.20 9  146 260 
 PTB  HN ES        5 4 46.04                             132   -0.41 9  146 260 
 PTB  HZ I         5 4 51.49         1.6 0.64            132            146 260 
 TAM  HZ EP        5 4 26.42                             130   -0.16 9  156 104 
 SPBC HN ES        5 4 49.20                             129    0.32 9  159 219 
 SPBC HZ I         5 4 52.04         4.7 0.26            130            159 219 
                                                                                
