 2015  829 0421 16.4 L   6.816 -73.141145.2  RSN 22 0.5 2.7LRSN                1
 GAP=113        1.04       2.3     3.0  4.7 -0.6141E+00  0.3992E+01  0.5697E+00E
 Epicentro: LOS SANTOS - SANTANDER                                             3
 ACTION:UPD 15-09-15 23:06 OP:cam  STATUS:               ID:20150829042116 L   I
 OLDACT:REG 15-08-29 13:21 OP:ak   STATUS:               ID:20150829041737     3
 2015-08-29-0417-37M.COL___352                                                 6
 STAT SP IPHASW D HRMM SECON CODA AMPLIT PERI AZIMU VELO AIN AR TRES W  DIS CAZ7
 BAR2 EZ IP     C  421 35.91                             170   -0.0410 25.2 191 
 BAR2 EZ ES        421 50.73                             170   -0.5110 25.2 191 
 BAR2 EZ I         421 52.17       177.3 0.12            169           25.2 191 
 BRR  HZ EP     D  421 37.77                             152    0.3510 70.8 297 
 BRR  HN ES        421 54.80                             152    0.9510 70.8 297 
 BRR  HZ I         421 55.84        70.2 0.17            151           70.8 297 
 RUS  HZ EP        421 39.85                             143   -0.3310  102 176 
 RUS  HN ES        421 58.68                             143   -0.0810  102 176 
 RUS  HZ I         421 59.54        53.7 0.28            141            102 176 
 RUS  HZ E         422  0.54                                            102 176 
 TAM  HZ IP     D  421 44.17                             130    0.19 9  155 106 
 TAM  HZ I         422  4.95        23.5 0.36            128            155 106 
 TAM  HN ES        422  5.64                             130    0.11 9  155 106 
 OCA  HZ EP        421 44.42                             130   -0.04 9  159 353 
 OCA  HN ES        422  6.11                             130   -0.27 9  159 353 
 OCA  HZ I         422 10.93       101.9 0.37            128            159 353 
 SPBC HZ EP        421 44.78                             129   -0.19 9  165 219 
 SPBC HN ES        422  6.69                             129   -0.61 9  165 219 
 SPBC HZ I         422  9.53       102.3 0.26            126            165 219 
 NOR  HZ EP        421 51.88                             118   -0.33 8  236 234 
 NOR  HN ES        422 20.21                             118    0.03 8  236 234 
 NOR  HZ I         422 26.02        40.1 0.19            116            236 234 
 SML  HZ EP        421 52.60                             117   -0.20 8  242 335 
 SML  HN ES        422 21.12                             117   -0.10 8  242 335 
 SML  HZ I         422 24.98        62.5 0.10            116            242 335 
 CHI  HZ EP        421 54.07                             117   -0.15 8  251 195 
 CHI  HN ES        422 23.83                             117    0.07 8  251 195 
 CHI  HZ I         422 28.80        18.0 0.22            115            251 195 
 ROSC BZ EP        421 55.42                             116    0.78 8  255 211 
 ROSC BN ES        422 25.32                             116    0.82 8  255 211 
 ROSC BZ I         422 33.40        45.5 0.35            114            255 211 
 HEL  HZ EP        421 57.51                             115    0.87 8  273 255 
 HEL  HN ES        422 28.82                             115    0.75 8  273 255 
 HEL  HZ I         422 34.93        23.1 0.24            113            273 255 
 URE  HZ EP   4    421 55.84                             113   -1.54 0  284 292 
 URE  HN ES   4    422 27.01                             113   -2.37 0  284 292 
 URE  HZ I         422 38.89        21.7 0.12            112            284 292 
 GUY2CHZ EP        422  1.04                             112    0.94 7  303 235 
 GUY2CHN ES        422 34.06                             112   -0.17 7  303 235 
 GUY2CHZ I         422 42.26        34.6 0.28                           303 235 
 PTGC HZ EP   4    421 58.80                             111   -1.55 0  310 159 
 PTGC HN ES   4    422 31.77                             111   -2.90 0  310 159 
 CBOC HZ EP        422  3.56                             110    0.19 7  335 252 
 CBOC HN ES        422 39.26                             110   -0.78 7  335 252 
 CBOC HZ I         422 48.36         7.6 0.47            108            335 252 
 DBB  SZ EP        422  3.61                             109   -0.24 7  340 274 
 DBB  SZ ES        422 40.08                             109   -0.82 7  340 274 
 DBB  SZ I         422 44.29        46.5 0.30            108            340 274 
 TOL  SZ EP        422  5.30                             109    0.52 7  345 224 
 TOL  SN ES        422 42.06                             109   -0.49 7  345 224 
 TOL  SZ I         422 52.37        19.1 0.60            107            345 224 
 ARGC HZ EP        422  6.14                             108    0.33 6  358 340 
 ARGC HN ES        422 43.61                             108   -0.78 6  358 340 
 PRA  HZ EP        422  9.33                             106   -0.74 6  394 210 
 PRA  HN ES        422 51.58                             106   -0.38 6  394 210 
 PRA  HZ I         422 58.33        23.4 0.17            105            394 210 
 ORTC HZ EP        422 10.16                             106   -0.30 6  397 216 
 ORTC HN ES        422 52.57                             106   -0.09 6  397 216 
 ORTC HZ I         422 58.94        13.8 0.38            105            397 216 
 SJC  HZ EP   4    422 10.01                             106   -1.74 0  408 327 
 SJC  HN ES   4    422 51.34                             106   -3.63 0  408 327 
 SJC  HZ I         422 57.20         5.6 0.35            104            408 327 
 CRJC HZ EP   4    422 16.42                             103   -2.20 0  466   3 
 CRJC HN ES   4    423  1.73                             103   -5.46 0  466   3 
 CRJC HZ I         423  7.97         6.6 0.17            102            466   3 
 GUA  SZ EP   1    422 19.23                             103   -0.46 3  476 173 
 GUA  SE ES        423  8.83                             103   -0.27 5  476 173 
 MACC HZ EP   4    422 22.80                             101   -2.47 0  522 189 
 MACC HN ES   4    423 13.20                             101   -5.82 0  522 189 
                                                                                
