 2017 1029 0719 44.9 L   6.721 -73.148143.3  RSN  8 0.4 1.3LRSN                1
 GAP=140        1.11       4.4     4.6  7.0 -0.2500E+01  0.9808E+01  0.8454E+00E
 Epicentro: JORDAN - SANTANDER                                                 3
 ACTION:UPD 17-11-07 19:38 OP:rebc STATUS:               ID:20171029071944 L   I
 OLDACT:UP  17-10-29 16:25 OP:edw  STATUS:               ID:20171029071734     3
 OLDACT:UP  17-10-29 16:24 OP:edw  STATUS:               ID:20171029071734     3
 OLDACT:UP  17-10-29 16:22 OP:edw  STATUS:               ID:20171029071734     3
 OLDACT:REG 17-10-29 13:36 OP:dhb  STATUS:               ID:20171029071734     3
 2017-10-29-0718-00M.COL___402                                                 6
 STAT SP IPHASW D HRMM SECON CODA AMPLIT PERI AZIMU VELO AIN AR TRES W  DIS CAZ7
 BAR2 EZ EP        720  4.40                             174    0.2710 14.7 195 
 BAR2 EZ ES        720 18.98                             174   -0.1210 14.7 195 
 BAR2 HN ES        720 19.30                             174           14.7 195 
 BAR2 EZ I         720 20.26         7.1 0.24            173           14.7 195 
 BRR  HZ EP        720  6.12                             151    0.0410 75.6 304 
 BRR  HN ES        720 23.40                             151    0.8310 75.6 304 
 BRR  HZ I         720 27.80         3.0 0.22            149           75.6 304 
 PAM  EZ EP        720  7.07                             148   -0.2610 84.5  36 
 PAM  EN ES        720 24.49                             148   -0.3210 84.5  36 
 PAM  EZ I         720 26.68         2.7 0.60            151           84.5  36 
 RUS  HZ EP        720  8.50                             146    0.6710 91.8 176 
 RUS  HN ES        720 25.00                             146   -0.6910 91.8 176 
 RUS  HZ I         720 27.67         2.0 0.20            150           91.8 176 
 PTB  HZ EP        720 11.25                             132   -0.30 9  146 262 
 PTB  HE ES        720 32.26                             132   -0.06 9  146 262 
 PTB  HZ I         720 34.41         1.7 0.20            132            146 262 
 SPBC HZ EP        720 13.09                             130    0.49 9  156 221 
 SPBC HE ES        720 34.43                             130    0.26 9  156 221 
 SPBC HZ I         720 37.50         4.1 0.26            132            156 221 
 ZAR  HZ EP        720 17.28                             121   -0.28 8  207 294 
 ZAR  HN ES        720 42.66                             121   -0.35 8  207 294 
 ZAR  HZ I         720 51.69         2.1 0.24            122            207 294 
 GUY2CHN ES        721  0.76                             112   -0.56 7  296 236 
                                                                                
