 2011 1129 0536 42.7 L   6.770 -73.109142.6  RSN  5 0.4 1.4LRSN                1
 GAP=143        0.88       6.1     8.5  8.5 -0.2164E+01  0.4911E+00 -0.1987E+02E
 Epicentro: LOS SANTOS - SANTANDER                                             3
 ACTION:UPD 12-07-13 16:13 OP:ep   STATUS:               ID:20111129053642 L   I
 2011-11-29-0532-29S.COL___159                                                 6
 STAT SP IPHASW D HRMM SECON CODA AMPLIT PERI AZIMU VELO AIN AR TRES W  DIS CAZ7
 BAR2 SZ EP        537  1.94                             171    0.0010 21.3 202 
 BAR2 SZ ES   1    537 16.06                             171   -0.87 7 21.3 202 
 BRR  HZ EP        537  3.92                             150    0.0810 76.4 299 
 BRR  HN ES   1    537 20.83                             150    0.52 7 76.4 299 
 PAM  SZ EP        537  4.91                             150    0.2910 77.5  36 
 PAM  SN ES   1    537 21.93                             150    0.24 7 77.5  36 
 RUS  HZ EP   3    537  6.37                             144    0.45 2 97.1 178 
 RUS  HN ES   1    537 24.19                             144    0.18 7 97.1 178 
 RUS  HZ I         537 25.41         3.2 0.18                          97.1 178 
 OCA  SZ EP        537 10.64                             128   -0.52 9  164 352 
 OCA  SZ I         537 36.26         3.4 0.23                           164 352 
                                                                                
