 2017 1029 0253  2.7 L   6.821 -73.137143.3  RSN  8 0.4 1.4LRSN                1
 GAP=112        1.07       4.0     4.0  6.3  0.3507E+01  0.3879E+01  0.3218E+01E
 Epicentro: LOS SANTOS - SANTANDER                                             3
 ACTION:UPD 17-11-07 19:38 OP:rebc STATUS:               ID:20171029025302 L   I
 OLDACT:REG 17-10-29 12:26 OP:dhb  STATUS:               ID:20171029024739     3
 2017-10-29-0248-00M.COL___408                                                 6
 STAT SP IPHASW D HRMM SECON CODA AMPLIT PERI AZIMU VELO AIN AR TRES W  DIS CAZ7
 BAR2 EZ EP        253 21.53                             169   -0.5610 25.8 191 
 BAR2 EZ ES        253 37.11                             169   -0.1010 25.8 191 
 BAR2 EZ I         253 39.21         6.1 0.26            169           25.8 191 
 BRR  HZ EP        253 23.64                             152    0.0710 70.9 297 
 BRR  HE ES        253 40.66                             152    0.8110 70.9 297 
 BRR  HZ I         253 43.08         4.9 0.32            152           70.9 297 
 PAM  EZ IP     C  253 24.67                             151    0.1510 75.0  40 
 PAM  EN ES        253 41.33                             151   -0.2010 75.0  40 
 PAM  EZ I         253 43.67         4.0 0.46            154           75.0  40 
 RUS  HZ EP        253 26.34                             143   -0.0410  103 177 
 RUS  HE ES        253 44.39                             143   -0.4610  103 177 
 RUS  HZ I         253 45.71         4.4 0.28            144            103 177 
 PTB  HZ EP        253 29.28                             131   -0.32 9  149 258 
 PTB  HN ES        253 50.10                             131   -0.47 9  149 258 
 PTB  HZ I         253 52.85         1.7 0.16            132            149 258 
 SPBC HZ EP        253 31.62                             128    0.38 9  166 219 
 SPBC HN ES        253 53.87                             128    0.37 9  166 219 
 SPBC HZ I         253 58.16         2.6 0.22            129            166 219 
 YPLC HZ EP        253 32.16                             126   -0.32 9  178 152 
 YPLC HE ES        253 56.39                             126    0.69 9  178 152 
 YPLC HZ I         254  0.30         2.5 0.48            128            178 152 
 ZAR  HZ EP        253 35.44                             122    0.45 9  204 291 
 ZAR  HE ES        253 59.84                             122   -0.33 9  204 291 
 ZAR  HZ I         254  6.28         3.3 0.30            123            204 291 
                                                                                
