 2017  129 0218 26.5 L   6.780 -73.157143.8  RSN  6 0.5 1.2LRSN                1
 GAP=136        1.35       6.7     6.0  9.8  0.3533E+01  0.1156E+02  0.9681E+00E
 Epicentro: LOS SANTOS - SANTANDER                                             3
 ACTION:UPD 17-05-22 16:04 OP:jn   STATUS:               ID:20170129021826 L   I
 OLDACT:REG 17-01-29 13:05 OP:lv   STATUS:               ID:20170129020750     3
 2017-01-29-0208-00M.COL___342                                                 6
 STAT SP IPHASW D HRMM SECON CODA AMPLIT PERI AZIMU VELO AIN AR TRES W  DIS CAZ7
 BAR2 EZ EP        218 45.64                             171   -0.2210 21.0 188 
 BAR2 EZ ES        219  0.03                             171   -0.9210 21.0 188 
 BAR2 EZ I         219  2.36         4.7 0.14            171           21.0 188 
 BRR  HZ EP        218 47.54                             152    0.0910 71.2 301 
 BRR  HN ES        219  4.74                             152    0.9710 71.2 301 
 PAM  EZ EP        218 48.70                             150    0.0310 79.9  39 
 PAM  EN ES        219  5.78                             150   -0.1710 79.9  39 
 PAM  EZ I         219  7.93         2.9 0.46            151           79.9  39 
 RUS  HZ EP        218 49.95                             144    0.0310 98.5 175 
 RUS  HN ES        219  8.94                             144    0.7610 98.5 175 
 RUS  HZ I         219  9.63         2.4 0.34            145           98.5 175 
 PTB  HZ EP        218 53.07                             132   -0.10 9  146 260 
 PTB  HN ES        219 13.33                             132   -0.63 9  146 260 
 PTB  HZ I         219 15.17         1.2 0.08            133            146 260 
 ZAR  HN ES        219 24.08                             122    0.11 9  204 293 
                                                                                
