 2017 1129 0832 11.8 L   6.772 -73.175131.2  RSN  5 0.4 1.2LRSN                1
 GAP=241        0.87       5.4     5.1  7.2  0.1077E+02  0.8591E+01 -0.6222E+01E
 Epicentro: LOS SANTOS - SANTANDER                                             3
 ACTION:UPD 17-12-12 20:01 OP:rebc STATUS:               ID:20171129083211 L   I
 OLDACT:REG 17-11-29 12:37 OP:dhb  STATUS:               ID:20171129082742     3
 2017-11-29-0828-00M.COL___480                                                 6
 STAT SP IPHASW D HRMM SECON CODA AMPLIT PERI AZIMU VELO AIN AR TRES W  DIS CAZ7
 BAR2 EZ EP        832 29.11                             171   -0.4610 19.9 182 
 BAR2 EZ ES        832 43.37                             171   -0.0910 19.9 182 
 BAR2 EZ I         832 46.05         5.4 0.24            170           19.9 182 
 RUS  HZ EP        832 34.03                             141    0.1410 97.7 174 
 RUS  HN ES        832 51.58                             141    0.4310 97.7 174 
 RUS  HZ I         832 53.20         2.5 0.44            146           97.7 174 
 PTB  HZ EP   3    832 36.12                             129   -1.11 2  144 260 
 PTB  HN ES        832 56.63                             129   -0.46 9  144 260 
 PTB  HZ I         833  4.09         1.0 0.20            130            144 260 
 SPBC HZ EP        832 38.43                             126   -0.32 9  159 219 
 SPBC HN ES        832 59.95                             126    0.16 9  159 219 
 SPBC HZ I         833  1.72         3.3 0.10            129            159 219 
 ZAR  HZ EP        832 43.58                             119    0.46 9  202 293 
 ZAR  HE ES        833  7.91                             119    0.34 9  202 293 
 ZAR  HZ I         833 15.33         2.0 0.32            121            202 293 
                                                                                
