 2011  529 0329  3.1 L   6.694 -73.638 31.2  RSN  8 0.4 1.8LRSN                1
 GAP= 95        0.86       2.6     2.6  3.7 -0.4976E+00  0.7587E+00  0.3286E+01E
 Epicentro: EL CARMEN DE CHUCURI - SANTANDER                                   3
 ACTION:UP  11-06-29 08:57 OP:tino STATUS:               ID:20110529032903 L   I
 2011-05-29-0326-55S.COL___113                                                 6
 STAT SP IPHASW D HRMM SECON CODA AMPLIT PERI AZIMU VELO SNR AR TRES W  DIS CAZ7
 BRR  HZ IP     C  329 11.61                             118    -0.210   46 350 
 BRR  HZ I         329 18.64       123.8 0.16                            46 350 
 BRR  HN ES   1    329 19.05                             118     0.4 7   46 350 
 BAR2 SZ EP   1    329 12.53                             115    -0.2 7   52 103 
 BAR2 SZ ES   1    329 20.07                             115    -0.3 7   52 103 
 BAR2 SZ I         329 20.85        39.4 0.21                            52 103 
 RUS  HZ EP        329 20.35                              61     0.110  108 145 
 RUS  HN ES   1    329 33.95                              61     0.4 7  108 145 
 RUS  HZ I         329 34.66       105.7 0.20                           108 145 
 PAM  SZ EP   1    329 22.22                              61    -0.2 7  126  55 
 PAM  SN ES   1    329 37.07                              61    -0.5 7  126  55 
 PAM  SZ I         329 38.70        12.8 0.22                           126  55 
 BRI  SZ EP   1    329 25.13                              61     0.5 7  146  39 
 BRI  SZ I         329 43.35         5.6 0.12                           146  39 
 GRA  SZ EP   1    329 26.42                              61     0.0 7  161  35 
 GRA  SZ ES   1    329 44.81                              61     0.2 7  161  35 
 GRA  SZ I         329 46.90        11.4 0.32                           161  35 
 NOR  SZ EP   1    329 29.93                              61     0.6 7  185 228 
 NOR  SN ES   1    329 49.49                              61    -0.3 7  185 228 
 HEL  HZ EP   1    329 33.82                              61     0.2 6  216 255 
 HEL  HN ES   1    329 56.76                              61    -0.7 6  216 255 
 HEL  HZ I         329 59.13         3.4 0.32                           216 255 
                                                                                
