 2017  829 0908 14.8 L   6.757 -73.126148.0  RSN  5 0.4 1.3LRSN                1
 GAP=236        0.94       5.6     7.0  8.3  0.1826E+02  0.5503E+01 -0.1911E+01E
 Epicentro: LOS SANTOS - SANTANDER                                             3
 ACTION:UPD 17-09-04 20:26 OP:rebc STATUS:               ID:20170829090814 L   I
 OLDACT:UP  17-08-29 18:19 OP:dani STATUS:               ID:20170829085743     3
 OLDACT:UP  17-08-29 18:19 OP:dani STATUS:               ID:20170829085743     3
 OLDACT:REG 17-08-29 13:16 OP:dani STATUS:               ID:20170829085743     3
 2017-08-29-0858-00M.COL___411                                                 6
 STAT SP IPHASW D HRMM SECON CODA AMPLIT PERI AZIMU VELO AIN AR TRES W  DIS CAZ7
 BAR2 EZ EP        9 8 34.40                             172   -0.2110 19.3 199 
 BAR2 EZ ES        9 8 49.79                             172   -0.2810 19.3 199 
 BAR2 EZ I         9 8 51.52         4.4 0.56            175           19.3 199 
 BRR  HZ EP        9 8 36.67                             152    0.2610 75.4 301 
 BRR  HE ES        9 8 53.91                             152    0.6310 75.4 301 
 BRR  HZ I         9 9  2.55         5.2 0.34            152           75.4 301 
 RUS  HZ EP        9 8 38.28                             146   -0.1410 95.7 177 
 RUS  HN ES        9 8 56.89                             146    0.0410 95.7 177 
 RUS  HZ I         9 8 58.52         2.3 0.38            153           95.7 177 
 SPBC HN ES        9 9  5.64                             130    0.20 9  161 221 
 ZAR  HZ EP   3    9 8 49.10                             123    1.33 2  208 293 
 ZAR  HE ES        9 9 12.76                             123   -0.73 8  208 293 
 ZAR  HZ I         9 9 15.84         2.1 0.17            126            208 293 
                                                                                
