 2017  929 0844 18.6 L   6.806 -73.054150.9  RSN  6 0.5 1.4LRSN                1
 GAP=226        1.26       7.0     8.9  8.4  0.1246E+02  0.4142E+01  0.1948E+02E
 Epicentro: LOS SANTOS - SANTANDER                                             3
 ACTION:UPD 17-10-05 19:17 OP:rebc STATUS:               ID:20170929084418 L   I
 OLDACT:UP  17-09-29 17:42 OP:dani STATUS:               ID:20170929083740     3
 OLDACT:REG 17-09-29 13:20 OP:edw  STATUS:               ID:20170929083740     3
 2017-09-29-0838-00M.COL___431                                                 6
 STAT SP IPHASW D HRMM SECON CODA AMPLIT PERI AZIMU VELO AIN AR TRES W  DIS CAZ7
 BAR2 EZ EP        844 39.14                             169    0.2010 27.6 211 
 BAR2 EZ ES        844 54.17                             169   -0.6310 27.6 211 
 BAR2 EZ I         844 55.25         9.1 0.26            164           27.6 211 
 BRR  HZ EP        844 40.96                             150    0.1510 79.9 295 
 BRR  HN ES        844 58.35                             150    0.2210 79.9 295 
 BRR  HZ I         845  4.13         3.9 0.48            147           79.9 295 
 RUS  HZ EP        844 43.50                             145    0.6010  101 182 
 RUS  HN ES        845  1.82                             145   -0.0310  101 182 
 RUS  HZ I         845  2.95         3.7 0.40            144            101 182 
 NOR  HZ EP        844 55.74                             118    0.18 8  243 236 
 NOR  HN ES        845 23.88                             118   -0.51 8  243 236 
 NOR  HZ I         845 28.68         2.1 0.32            118            243 236 
 CHI  HZ EP        844 55.80                             118   -1.17 8  252 197 
 CHI  HN ES        845 27.79                             118    0.90 8  252 197 
 CHI  HZ I         845 32.88         1.2 0.28            118            252 197 
 PTGC HZ EP        845  2.08                             113   -0.29 7  306 160 
                                                                                
