 2012 1029 0535 50.5 L   6.799 -73.129144.1  RSN 10 0.4 2.3LRSN                1
 GAP=139        0.82       3.5     5.2  6.4  0.1220E+01  0.1064E+02  0.5605E+01E
 Epicentro: LOS SANTOS - SANTANDER                                             3
 ACTION:UPD 12-11-22 17:06 OP:ep   STATUS:               ID:20121029053550 L   I
 2012-10-29-0530-00M.COL___231                                                 6
 STAT SP IPHASW D HRMM SECON CODA AMPLIT PERI AZIMU VELO AIN AR TRES W  DIS CAZ7
 BAR2 SZ EP        536  9.85                             170   -0.1310 23.7 194 
 BAR2 SZ ES   1    536 24.63                             170   -0.51 7 23.7 194 
 BAR2 SZ I         536 25.91        45.4 0.26                          23.7 194 
 GIR2 SZ EP   1    536  9.95                             167   -0.07 7 31.7 347 
 GIR2 SZ ES   1    536 25.41                             167    0.19 7 31.7 347 
 BRR  HZ EP        536 11.67                             152    0.0710 72.8 298 
 BRR  HN ES   1    536 28.37                             152    0.34 7 72.8 298 
 BRR  HN I         536 29.51        82.5 0.22                          72.8 298 
 PAM  SZ EP   1    536 12.74                             151    0.23 7 76.3  38 
 PAM  SN ES   1    536 29.97                             151    0.32 7 76.3  38 
 PAM  SN I         536 31.10        31.0 0.44                          76.3  38 
 RUS  HZ EP   1    536 13.83                             143   -0.28 7  100 177 
 RUS  HN ES   1    536 32.95                             143    0.45 7  100 177 
 RUS  HN I         536 34.42        11.5 0.50                           100 177 
 OCA  HE ES   1    536 39.87                             129   -0.88 7  161 353 
 OCA  HE I         536 43.79        49.9 0.16                           161 353 
 ZAR  HZ EP   1    536 24.10                             122    1.05 6  206 292 
 ZAR  HE ES   1    536 47.90                             122   -0.51 6  206 292 
 ZAR  HE I         536 53.43        41.7 0.18                           206 292 
 CHI  HZ EP   1    536 28.19                             117    0.00 6  249 196 
 CHI  HN ES   1    536 57.27                             117   -0.29 6  249 196 
 CHI  HN I         537  0.50        12.6 0.26                           249 196 
 HEL  HN ES   2    537  2.81                             114    0.50 4  274 256 
 HEL  HN I         537  7.47         2.9 0.40                           274 256 
 PRA  HE ES   1    537 25.40                             106   -0.48 4  393 210 
 PRA  HE I         537 29.22         5.2 0.24                           393 210 
                                                                                
