 2013 1029 0650 20.2 L   6.833 -73.200132.3  RSN  7 0.3 1.4LRSN                1
 GAP=128        0.64       2.5     3.8  5.1 -0.2823E+01  0.7960E+01 -0.8489E+00E
 Epicentro: ZAPATOCA - SANTANDER                                               3
 ACTION:UPD 13-11-25 09:24 OP:ep   STATUS:               ID:20131029065020 L   I
 OLDACT:REG 13-10-29 07:05 OP:jn   STATUS:               ID:20131029065000     3
 2013-10-29-0650-00M.COL___273                                                 6
 STAT SP IPHASW D HRMM SECON CODA AMPLIT PERI AZIMU VELO AIN AR TRES W  DIS CAZ7
 BAR2 SZ EP        650 38.36                             168    0.0310 26.7 176 
 BAR2 SZ ES        650 52.49                             168    0.0510 26.7 176 
 BAR2 SZ I         650 54.53        10.7 0.20            169           26.7 176 
 BRR  HZ EP   1    650 40.29                             152    0.75 7 64.2 298 
 BRR  HZ I         651  2.04         6.3 0.18            144           64.2 298 
 PAM  SZ EP        650 41.36                             148    0.2310 78.7  45 
 PAM  SN ES        650 57.42                             148    0.0010 78.7  45 
 PAM  SZ I         651  0.15         7.2 0.40            148           78.7  45 
 RUS  HZ EP        650 42.87                             140   -0.1510  105 173 
 RUS  HN ES        651  0.72                             140   -0.0610  105 173 
 RUS  HZ I         651  2.64         2.2 0.38            141            105 173 
 PTB  HZ EP        650 45.77                             130    0.11 9  143 257 
 PTB  HN ES   1    651  5.50                             130    0.01 7  143 257 
 PTB  HZ I         651  8.74         3.8 0.14            125            143 257 
 OCA  HN ES        651  7.69                             127   -0.41 9  156 355 
 SPBC HZ EP        650 47.37                             126   -0.29 9  162 217 
 SPBC HN ES   1    651  9.00                             126   -0.05 7  162 217 
 SPBC HZ I         651 17.09         3.3 0.20            123            162 217 
                                                                                
