 2011  329 0737 29.2 L   6.840 -73.188141.8  RSN  5 0.4 1.5LRSN                1
 GAP=159        0.90      10.5    14.3 13.5 -0.6003E+02 -0.6513E+02  0.9080E+01E
 Epicentro: ZAPATOCA - SANTANDER                                               3
 ACTION:UP  11-06-16 14:36 OP:jfem STATUS:               ID:20110329073729 L   I
 2011-03-29-0733-51S.COL___138                                                 6
 STAT SP IPHASW D HRMM SECON CODA AMPLIT PERI AZIMU VELO SNR AR TRES W  DIS CAZ7
 BTL  SZ EP        737 47.56                             174    -0.610   12 314 
 BTL  SZ ES   2    738  3.24                             174     0.3 5   12 314 
 GIR2 SZ EP   3    737 48.20                             168    -0.1 2   26 359 
 BAR2 SZ EP        737 48.64                             169     0.210   28 179 
 BRR  HZ EP        737 50.01                             153     0.410   65 297 
 BRR  HZ I         737 50.27         7.8 0.12                            65 297 
 BRR  HN ES   2    738  4.89                             153    -0.6 5   65 297 
 GRA  SZ EP        737 53.86                             136     0.010  123  20 
 GRA  SZ I         737 55.03         4.0 0.28                           123  20 
 GRA  SZ ES   2    738 13.25                             136     0.2 5  123  20 
                                                                                
