 2014 1129 0732 46.4 L   6.768 -73.220146.0  RSN  6 0.5 1.3LRSN                1
 GAP=223        1.27       6.0     8.0  8.9  0.1238E+02  0.1277E+02  0.1058E+02E
 Epicentro: ZAPATOCA - SANTANDER                                               3
 ACTION:UPD 14-12-19 15:48 OP:nd   STATUS:               ID:20141129073246 L   I
 OLDACT:REG 14-11-29 13:12 OP:fm   STATUS:               ID:20141129072746     3
 2014-11-29-0727-46M.COL___303                                                 6
 STAT SP IPHASW D HRMM SECON CODA AMPLIT PERI AZIMU VELO AIN AR TRES W  DIS CAZ7
 BAR2 SZ EP        733  6.03                             172    0.0710 19.9 168 
 BAR2 SZ ES        733 20.32                             172   -0.9310 19.9 168 
 BAR2 SZ I         733 23.41         4.9 0.22            170           19.9 168 
 BRR  HZ EP     C  733  7.78                             154    0.5210 66.0 305 
 BRR  HE ES        733 24.51                             154    0.9510 66.0 305 
 BRR  HZ I         733 28.78         3.9 0.30            153           66.0 305 
 PTB  HZ EP        733 12.54                             134   -0.04 9  139 260 
 PTB  HN ES        733 32.76                             134   -0.26 9  139 260 
 PTB  HZ I         733 35.57         2.1 0.12            134            139 260 
 SPBC HZ EP        733 14.40                             131    0.25 9  155 217 
 SPBC HN ES        733 36.06                             131    0.24 9  155 217 
 SPBC HZ I         733 41.81         2.7 0.28            131            155 217 
 ZAR  HZ EP        733 17.69                             123   -0.51 9  198 294 
 ZAR  HN ES        733 42.51                             123   -0.51 9  198 294 
 ZAR  HZ I         733 49.54         2.4 0.50            125            198 294 
 CHI  HZ EP   1    733 23.06                             118   -0.43 6  243 194 
 CHI  HN ES        733 52.71                             118    0.26 8  243 194 
 CHI  HZ I         733 56.13         1.2 0.34            120            243 194 
                                                                                
