 2011  629 0848 56.4 L   6.773 -73.061144.6  RSN 12 0.3 2.1LRSN                1
 GAP=149        0.70       2.3     3.8  3.9 -0.3415E+01  0.2299E+01  0.5690E+00E
 Epicentro: LOS SANTOS - SANTANDER                                             3
 ACTION:UP  11-07-14 19:09 OP:ep   STATUS:               ID:20110629084856 L   I
 2011-06-29-0846-56S.COL___140                                                 6
 STAT SP IPHASW D HRMM SECON CODA AMPLIT PERI AZIMU VELO SNR AR TRES W  DIS CAZ7
 BAR2 SZ EP        849 15.91                             170     0.010   24 214 
 BAR2 SZ I         849 16.12        28.6 0.16                            24 214 
 BAR2 SZ ES        849 31.18                             170     0.110   24 214 
 PAM  SZ EP        849 18.76                             152     0.510   74  32 
 PAM  SZ I         849 19.01        10.7 0.22                            74  32 
 PAM  SE ES   1    849 35.65                             152     0.3 7   74  32 
 BRR  HZ IP     C  849 17.70                             149    -0.310   81 297 
 BRR  HZ I         849 17.99        58.1 0.13                            81 297 
 BRR  HE ES        849 34.71                             149    -0.110   81 297 
 RUS  HZ EP        849 19.69                             144    -0.110   97 181 
 RUS  HE ES        849 38.14                             144     0.110   97 181 
 RUS  HZ I         849 40.19        21.6 0.33                            97 181 
 BRI  SZ EP        849 20.32                             141     0.210  108  16 
 GRA  SZ EP        849 21.58                             137     0.010  126  13 
 GRA  SZ ES        849 40.88                             137    -0.310  126  13 
 GRA  SZ I         849 44.27        22.1 0.25                           126  13 
 OCA  SZ EP        849 24.90                             129    -0.1 9  165 350 
 OCA  SZ ES   1    849 47.09                             129    -0.2 7  165 350 
 OCA  SZ I         849 52.99        12.4 0.15                           165 350 
 NOR  SZ EP   1    849 32.13                             118    -0.6 6  241 236 
 NOR  SN ES   2    850  1.26                             118     0.2 4  241 236 
 CHI  HZ EP   1    849 33.86                             117    -0.1 6  248 197 
 CHI  HN ES   2    850  2.64                             117    -0.7 4  248 197 
 CHI  HZ I         850  5.79         5.3 0.20                           248 197 
 HEL  HZ EP   2    849 37.46                             114     0.0 4  280 257 
 HEL  HN ES   1    850  9.98                             114     0.5 6  280 257 
 HEL  HZ I         850 15.14         9.5 0.27                           280 257 
 RREF HZ EP   1    849 43.77                             110     0.7 5  327 231 
 RREF HE ES   2    850 20.28                             110     0.8 3  327 231 
 RREF HZ I         850 25.30         7.8 0.30                           327 231 
 PRA  HZ EP        849 49.85                             106    -0.3 6  394 211 
 PRA  HN ES   1    850 31.93                             106    -0.1 4  394 211 
                                                                                
