 2014  929 0958 50.1 L   6.812 -72.734 10.1  RSN  4 0.2 1.4LRSN                1
 GAP=263        0.42       2.8     8.2 11.0 -0.1393E+02  0.7039E+02 -0.1461E+02E
 Epicentro: CERRITO - SANTANDER                                                3
 ACTION:UPD 14-10-03 23:09 OP:nd   STATUS:               ID:20140929095850 L   I
 OLDACT:REG 14-09-29 14:23 OP:stll STATUS:               ID:20140929094816     3
 2014-09-29-0948-16M.COL___295                                                 6
 STAT SP IPHASW D HRMM SECON CODA AMPLIT PERI AZIMU VELO AIN AR TRES W  DIS CAZ7
 PTB  HZ EP        959 19.18                              56    0.2610  193 261 
 PTB  HE ES        959 41.35                              56   -0.0810  193 261 
 PTB  HZ I         959 46.05         2.9 0.40            112            193 261 
 SPBC HN ES   1    959 42.26                              56   -0.01 7  196 229 
 ZAR  HZ EP   1    959 25.35                              56   -0.25 7  246 288 
 ZAR  HN ES   1    959 53.27                              56   -0.06 7  246 288 
 ZAR  HZ I         959 57.55         2.1 0.28            106            246 288 
 SML  HZ EP   1    959 27.63                              56   -0.26 7  265 326 
 SML  HN ES        959 57.51                              56    0.10 9  265 326 
 SML  HZ I        10 0  0.20         2.0 0.10            105            265 326 
                                                                                
