 2010  329 0344 26.4 L   5.913 -73.657118.5  RSN  4 0.1 1.2LRSN                1
 GAP=148        0.33       2.2     6.9  8.5 -0.1859E+01  0.2819E+02  0.6400E+01E
 Epicentro: PUENTE NACIONAL - SANTANDER                                        3
 ACTION:UP  10-08-24 09:56 OP:vdl  STATUS:               ID:20100329034427 L   I
 2010-03-29-0341-28S.COL___098                                                 6
 STAT SP IPHASW D HRMM SECON CODA AMPLIT PERI AZIMU VELO SNR AR TRES W  DIS CAZ7
 BAR2 SZ EP   2    344 46.38                             140    -0.1 5   91  35 
 BAR2 SZ ES   2    345  2.28                             140     0.1 5   91  35 
 BRR  HZ EP        344 49.84                             128     0.110  132 357 
 BRR  HZ I         344 50.12         6.0 0.15                           132 357 
 BRR  HE ES   2    345  7.73                             128    -0.2 5  132 357 
 CHI  HZ EP        344 51.25                             126     0.010  142 183 
 CHI  HZ I         344 51.81         1.3 0.16                           142 183 
 CHI  HE ES   3    345 10.86                             126     0.2 2  142 183 
 RREF BN ES   3    345 25.53                             114     0.0 2  218 239 
                                                                                
