 2016  929 0731 58.1 L   6.016 -74.006  0.0  RSN 21 0.6 2.3LRSN                1
 GAP= 71        1.49       3.0     3.7  6.2 -0.3894E+01  0.1044E+02 -0.1555E+01E
 Epicentro: LA BELLEZA - SANTANDER                                             3
 ACTION:UPD 17-08-17 21:17 OP:lp   STATUS:               ID:20160929073158 L   I
 OLDACT:UP  16-09-29 17:40 OP:dani STATUS:               ID:20160929072745d    3
 OLDACT:UP  16-09-29 17:40 OP:dani STATUS:               ID:20160929072745d    3
 OLDACT:UP  16-09-29 17:39 OP:dani STATUS:               ID:20160929072745d    3
 OLDACT:UP  16-09-29 17:31 OP:dani STATUS:               ID:20160929072745d    3
 OLDACT:DUP 16-09-29 17:31 OP:dani STATUS:               ID:20160929072745d    3
 OLDACT:UP  16-09-29 17:31 OP:dani STATUS:               ID:20160929072744     3
 OLDACT:UP  16-09-29 17:30 OP:dani STATUS:               ID:20160929072744     3
 OLDACT:UP  16-09-29 17:24 OP:dani STATUS:               ID:20160929072744     3
 OLDACT:UP  16-09-29 17:24 OP:dani STATUS:               ID:20160929072744     3
 OLDACT:UP  16-09-29 17:23 OP:dani STATUS:               ID:20160929072744     3
 OLDACT:UP  16-09-29 17:23 OP:dani STATUS:               ID:20160929072744     3
 OLDACT:UP  16-09-29 17:22 OP:dani STATUS:               ID:20160929072744     3
 OLDACT:UP  16-09-29 17:17 OP:dani STATUS:               ID:20160929072744     3
 OLDACT:REG 16-09-29 13:29 OP:dani STATUS:               ID:20160929072744     3
 2016-09-29-0728-00M.COL___357                                                 6
 STAT SP IPHASW D HRMM SECON CODA AMPLIT PERI AZIMU VELO AIN AR TRES W  DIS CAZ7
 SPBC HZ IP     C  732  4.94                              47   -0.6210 40.9 190 
 PTB  HZ EP        732 10.57                              47   -0.2910 76.4 319 
 PTB  HN ES        732 19.77                              47   -1.0410 76.4 319 
 PTB  HZ I         732 20.32       246.6 0.17            149           76.4 319 
 RUS  HZ EP     D  732 14.63                              47   -0.7810  103  98 
 RUS  HN ES   4    732 26.59                              47   -2.31 0  103  98 
 RUS  HZ I         732 31.17        51.3 0.24            126            103  98 
 NOR  HZ EP        732 15.78                              47    0.1110  108 242 
 NOR  HN ES        732 28.96                              47   -0.4110  108 242 
 NOR  HZ I         732 29.52        91.2 0.21            130            108 242 
 BAR2 EZ EP        732 15.85                              47   -0.5310  111  55 
 BAR2 EZ I         732 39.32        50.3 0.52            127            111  55 
 BRR  HZ EP        732 18.39                              47    0.1810  125  15 
 BRR  HN ES        732 34.26                              47    0.3710  125  15 
 BRR  HZ I         732 40.03        38.5 0.14            127            125  15 
 ROSC BZ EP   4    732 22.02                              47    1.95 0  135 195 
 ROSC BN ES   4    732 41.80                              47    4.60 0  135 195 
 ROSC BZ I         732 45.35        39.0 0.30            119            135 195 
 CHI  HZ EP   9    732 24.99                              47    1.61 0  156 169 
 CHI  HN ES        732 44.78                              47    0.08 9  156 169 
 CHI  HZ I         732 48.72        18.5 0.38            114            156 169 
 HEL  HZ EP     D  732 24.67                              47   -0.69 9  170 277 
 HEL  HN ES   4    732 44.72                              47   -1.89 0  170 277 
 HEL  HZ I         732 48.85        48.8 0.40            118            170 277 
 GUY2CHZ EP        732 26.78                              47    0.63 9  174 240 
 GUY2CHN ES   4    732 46.96                              47   -1.06 0  174 240 
 GUY2CHZ I         732 49.17        43.5 0.30                           174 240 
 ZAR  HZ EP        732 27.63                              37    0.03 9  188 330 
 ZAR  HN ES   4    732 47.94                              37   -2.67 0  188 330 
 ZAR  HZ I         732 51.78        24.1 0.25            115            188 330 
 ELA  HZ EP        732 30.89                              37    1.16 9  200 230 
 ELA  HE ES        732 54.15                              37   -0.24 9  200 230 
 ELA  HZ I         732 57.70        41.6 0.25            111            200 230 
 PAM  EZ EP        732 31.27                              37    0.94 8  206  45 
 PAM  EE ES   4    732 57.06                              37    1.60 0  206  45 
 PAM  EZ I         732 58.92        68.5 0.20            110            206  45 
 VIL  EZ EP   4    732 33.82                              37    2.96 0  213 171 
 VIL  EZ I         733 11.47        27.0 0.32            107            213 171 
 CBOC HZ EP   4    732 33.91                              37    1.83 0  223 266 
 CBOC HN ES        732 59.44                              37    0.86 8  223 266 
 CBOC HZ I         733  4.25        16.4 0.29            109            223 266 
 ANIL HZ EP   4    732 34.37                              37    1.37 0  229 223 
 ANIL HN ES        733  0.56                              37    0.35 8  229 223 
 TAM  HZ EP   4    732 38.54                              37    3.27 0  249  79 
 URE  HZ EP        732 36.46                              37    0.47 8  256 319 
 URE  HE ES        733  5.79                              37    0.25 8  256 319 
 URE  HZ I         733  7.62        13.3 0.40            107            256 319 
 OCA  HZ EP        732 37.14                              37    0.76 8  257  17 
 OCA  HN ES   4    733  7.63                              37    1.40 0  257  17 
 OCA  HZ I         733 23.94        36.9 0.46            106            257  17 
 PAL  HZ EP   4    732 42.50                              37    3.31 0  281 244 
 PAL  HZ I         733 18.54        10.2 0.37            103            281 244 
 PTGC HZ EP   4    732 41.56                              37    1.41 0  289 134 
 PTGC HN ES   4    733 16.52                              37    3.58 0  289 134 
 PTGC HZ I         733 25.79        18.3 0.34            101            289 134 
 YOT  HZ EP   4    732 52.12                              36    5.12 0  343 229 
 MACC HZ EP   4    733  6.63                              36    9.24 0  428 178 
 MACC HZ I         734 13.06         4.9 0.70                           428 178 
                                                                                
