 2016  729 0401 30.1 L   6.848 -73.233120.5  RSN  8 0.4 1.6LRSN                1
 GAP=230        0.99       4.9     4.5  6.0  0.6331E+00  0.9058E+01  0.6090E+01E
 Epicentro: ZAPATOCA - SANTANDER                                               3
 ACTION:UPD 17-03-29 16:56 OP:lp   STATUS:               ID:20160729040130 L   I
 OLDACT:UP  16-07-29 15:53 OP:edw  STATUS:               ID:20160729035759     3
 OLDACT:UP  16-07-29 15:50 OP:edw  STATUS:               ID:20160729035759     3
 OLDACT:REG 16-07-29 12:57 OP:edw  STATUS:               ID:20160729035759     3
 2016-07-29-0357-59S.COL___337                                                 6
 STAT SP IPHASW D HRMM SECON CODA AMPLIT PERI AZIMU VELO AIN AR TRES W  DIS CAZ7
 BAR2 EZ IP     D  4 1 47.04                             166    0.1910 28.8 169 
 BAR2 EZ ES        4 2  0.25                             166    0.3310 28.8 169 
 BRR  HZ EP        4 1 47.40                             152   -0.5010 60.2 299 
 BRR  HN ES        4 2  1.70                             152   -0.0810 60.2 299 
 BRR  HZ I         4 2  4.26         9.2 0.30            151           60.2 299 
 RUS  HZ EP        4 1 51.85                             136   -0.1410  107 171 
 RUS  HN ES        4 2  9.19                             136    0.1310  107 171 
 RUS  HZ I         4 2 10.52         3.6 0.26            136            107 171 
 PTB  HZ EP   9    4 1 52.36                             127   -1.96 0  139 256 
 PTB  HE ES        4 2 10.80                             137   -0.45 9  139 256 
 PTB  HZ I         4 2 14.24        10.5 0.36            127            139 256 
 SPBC HZ EP        4 1 56.83                             123    0.20 9  162 215 
 SPBC HN ES        4 2 16.34                             123   -0.98 9  162 215 
 SPBC HZ I         4 2 24.11         6.5 0.28            123            162 215 
 ZAR  HZ EP   4    4 1 46.55                             117   -13.3 0  193 292 
 ZAR  HN ES   4    4 2 22.18                             117   -0.87 0  193 292 
 NOR  HZ EP   4    4 1 46.33                             113   -17.7 0  230 232 
 NOR  HN ES        4 2 30.83                             113    0.42 8  230 232 
 NOR  HZ I         4 2 34.10         2.3 0.17            114            230 232 
 HEL  HZ EP        4 2  8.29                             110    0.05 8  264 254 
 HEL  HN ES        4 2 38.70                             110    0.71 8  264 254 
 HEL  HZ I         4 2 41.02         3.1 0.56            111            264 254 
 GUY2CHZ EP        4 2 12.09                             107   -0.03 7  296 233 
 GUY2CHZ E         4 2 12.09                                            296 233 
 GUY2CHN ES        4 2 44.90                             107    0.00 7  296 233 
 GUY2CHZ I         4 2 50.80         2.0 0.42                           296 233 
 SJC  HZ EP   4    4 2 21.56                             101   -2.23 0  400 328 
 SJC  HN ES   4    4 3  1.30                             101   -4.37 0  400 328 
                                                                                
