 2017  929 0450 41.1 L   6.841 -73.134145.4  RSN  7 0.4 1.4LRSN                1
 GAP=242        0.93       4.3     5.4  6.0  0.8074E+01  0.1213E+02  0.7044E+01E
 Epicentro: LOS SANTOS - SANTANDER                                             3
 ACTION:UPD 17-10-05 19:17 OP:rebc STATUS:               ID:20170929045041 L   I
 OLDACT:UP  17-09-29 17:01 OP:edw  STATUS:               ID:20170929044743     3
 OLDACT:REG 17-09-29 12:46 OP:edw  STATUS:               ID:20170929044743     3
 2017-09-29-0448-00M.COL___432                                                 6
 STAT SP IPHASW D HRMM SECON CODA AMPLIT PERI AZIMU VELO AIN AR TRES W  DIS CAZ7
 BAR2 EZ EP        451  0.68                             169   -0.1010 28.1 191 
 BAR2 EZ ES        451 16.05                             169   -0.0910 28.1 191 
 BAR2 EZ I         451 19.15         8.1 0.30            166           28.1 191 
 BRR  HZ EP        451  2.78                             153    0.6310 70.3 295 
 BRR  HN ES        451 18.63                             153    0.0510 70.3 295 
 RUS  HZ EP        451  5.19                             142    0.0510  105 177 
 RUS  HN ES        451 23.72                             142   -0.1710  105 177 
 RUS  HZ I         451 26.13         2.2 0.46            143            105 177 
 ZAR  HZ EP        451 12.81                             122   -0.65 9  204 291 
 ZAR  HN ES        451 38.70                             122   -0.01 9  204 291 
 NOR  HZ EP        451 16.95                             118   -0.25 8  238 234 
 NOR  HN ES        451 45.43                             118    0.07 8  238 234 
 NOR  HZ I         451 50.23         2.2 0.32            119            238 234 
 CHI  HZ EP        451 18.78                             116   -0.51 8  253 195 
 CHI  HN ES        451 49.52                             116    0.44 8  253 195 
 GUY2CHZ EP        451 26.06                             112    0.96 7  305 234 
 GUY2CHN ES        451 59.03                             112   -0.40 7  305 234 
 GUY2CHZ I         452  7.27         1.5 0.66                           305 234 
                                                                                
