 2013  329 0551 28.7 L   6.799 -73.161140.9  RSN 15 0.5 2.7LRSN                1
 GAP= 70        0.98       2.9     3.4  6.0 -0.9456E+00  0.4701E+01 -0.4005E+00E
 Epicentro: LOS SANTOS - SANTANDER                                             3
 ACTION:UPD 13-04-09 14:05 OP:ep   STATUS:               ID:20130329055128 L   I
 2013-03-29-0550-00M.COL___245                                                 6
 STAT SP IPHASW D HRMM SECON CODA AMPLIT PERI AZIMU VELO AIN AR TRES W  DIS CAZ7
 BAR2 SZ IP        551 47.92                             170    0.1910 23.0 186 
 BAR2 SZ ES   1    552  2.20                             170   -0.38 7 23.0 186 
 BAR2 SZ I         552  3.56       166.8 0.24            169           23.0 186 
 BRR  HZ IP     D  551 49.87                             152    0.6310 69.8 299 
 BRR  HN ES   2    552  6.14                             152    0.88 5 69.8 299 
 BRR  HZ I         552 10.80       104.3 0.12            148           69.8 299 
 PAM  SZ IP     D  551 50.87                             149    0.4010 78.5  40 
 PAM  SN ES   1    552  7.57                             149    0.13 7 78.5  40 
 PAM  SZ I         552  9.93       104.2 0.44            153           78.5  40 
 RUS  HZ IP     D  551 51.86                             143   -0.1110  101 175 
 RUS  HN ES   1    552  9.71                             143   -0.41 7  101 175 
 RUS  HZ I         552 10.89        80.1 0.46            145            101 175 
 PTB  HZ IP     D  551 54.43                             131   -0.69 9  146 259 
 PTB  HN ES   1    552 14.97                             131   -0.75 7  146 259 
 PTB  HZ I         552 22.20        56.6 0.38            130            146 259 
 TAM  HZ IP     D  551 56.31                             129    0.17 9  157 105 
 TAM  HN ES   1    552 17.72                             129    0.17 7  157 105 
 TAM  HZ I         552 18.25        37.2 0.24            134            157 105 
 OCA  HZ EP   1    551 56.34                             128   -0.28 7  160 354 
 OCA  HN ES   1    552 17.98                             128   -0.43 7  160 354 
 OCA  HZ I         552 23.26        74.0 0.24            129            160 354 
 ZAR  HZ EP        552  1.08                             121    0.41 9  203 292 
 ZAR  HN ES   1    552 25.80                             121    0.19 6  203 292 
 ZAR  HZ I         552 33.14        65.2 0.36            121            203 292 
 NOR  HZ EP   1    552  3.83                             118   -0.16 6  233 234 
 NOR  HN ES   1    552 31.16                             118   -0.36 6  233 234 
 NOR  HZ I         552 39.26        37.0 0.20            118            233 234 
 SML  HZ EP   1    552  4.31                             116   -0.68 6  243 336 
 SML  HE ES   2    552 33.27                             116   -0.02 4  243 336 
 SML  HZ I         552 37.23        65.0 0.22            117            243 336 
 ROSC BZ EP   4    552  7.32                             116    0.87 0  252 211 
 ROSC BN ES   1    552 36.54                             116    0.65 6  252 211 
 ROSC BZ I         552 44.17        58.2 0.50            116            252 211 
 HEL  HZ EP   1    552  9.95                             114    1.47 6  270 256 
 HEL  HN ES   1    552 39.98                             114    0.47 6  270 256 
 HEL  HZ I         552 48.57        24.8 0.28            114            270 256 
 VIL  SZ EP   1    552 11.54                             111   -0.31 5  303 191 
 VIL  SN ES   1    552 45.27                             111   -0.23 5  303 191 
 VIL  SZ I         552 50.27        22.4 0.34            112            303 191 
 COD  HZ EP        552 15.94                             108   -0.94 6  348 355 
 COD  HN ES   1    552 54.67                             108    0.21 5  348 355 
 COD  HZ I         553  4.59         6.0 0.42            109            348 355 
 PRA  HZ EP   1    552 21.40                             106   -0.54 4  391 209 
 PRA  HN ES   1    553  3.11                             106   -0.37 4  391 209 
 PRA  HZ I         553 12.37        14.2 0.52            107            391 209 
 SJC  HZ EP   4    552 22.97                             105   -1.04 0  408 327 
 SJC  HN ES   4    553  4.15                             105   -3.00 0  408 327 
                                                                                
