 2017 1129 0440  6.3 L   6.760 -73.332111.5  RSN  4 0.2 1.0LRSN                1
 GAP=239        0.65       6.7     3.8  5.2  0.1367E+02  0.2370E+01  0.1817E+01E
 Epicentro: ZAPATOCA - SANTANDER                                               3
 ACTION:UPD 17-12-12 20:01 OP:rebc STATUS:               ID:20171129044006 L   I
 OLDACT:DUP 17-11-29 14:54 OP:dhb  STATUS:               ID:20171129043741d    3
 OLDACT:REG 17-11-29 12:21 OP:dhb  STATUS:               ID:20171129043740     3
 2017-11-29-0438-00M.COL___492                                                 6
 STAT SP IPHASW D HRMM SECON CODA AMPLIT PERI AZIMU VELO AIN AR TRES W  DIS CAZ7
 BAR2 EZ EP        440 21.61                             167   -0.2110 24.8 138 
 BAR2 EZ ES        440 34.15                             167    0.1910 24.8 138 
 BAR2 EZ I         440 35.76         5.2 0.82             47           24.8 138 
 RUS  HZ EP        440 26.47                             135   -0.2810 99.7 164 
 RUS  HN ES        440 42.62                             135   -0.1110 99.7 164 
 RUS  HZ I         440 43.64         1.4 0.34             47           99.7 164 
 PTB  HZ EP        440 28.49                             128   -0.0910  127 259 
 PTB  HN ES        440 46.11                             128    0.1310  127 259 
 PTB  HZ I         440 55.65         0.6 0.18             47            127 259 
 YPLC HZ EP        440 35.08                             117    0.49 9  184 145 
 YPLC HZ I         440 56.58         3.1 0.28             47            184 145 
                                                                                
