 2012  129 0652 43.9 L   6.757 -73.130142.0  RSN  7 0.4 1.3LRSN                1
 GAP=141        0.77       7.0     5.9  8.2  0.1441E+01  0.8947E+01 -0.2630E+01E
 Epicentro: LOS SANTOS - SANTANDER                                             3
 ACTION:UP  12-02-03 08:21 OP:REBC STATUS:               ID:20120129065243 L   I
 2012-01-29-0650-00M.COL___188                                                 6
 STAT SP IPHASW D HRMM SECON CODA AMPLIT PERI AZIMU VELO SNR AR TRES W  DIS CAZ7
 BAR2 SZ ES   2    653 17.67                             172    -0.2 5   19 198 
 BAR2 SZ I         653 26.92         8.1 0.60                            19 198 
 GIR2 SZ EP   2    653  3.12                             165    -0.1 5   36 349 
 BRR  HZ EP   1    653  5.02                             150     0.2 7   75 301 
 BRR  HE ES   1    653 21.67                             150     0.5 7   75 301 
 BRR  HZ I         653 26.07         3.1 0.22                            75 301 
 PAM  SZ EP   1    653  5.51                             149    -0.3 7   80  36 
 PAM  SN ES   2    653 22.68                             149    -0.3 5   80  36 
 RUS  HZ EP   2    653  7.11                             145     0.2 5   96 177 
 RUS  HN ES   2    653 25.17                             145     0.3 5   96 177 
 RUS  HZ I         653 27.36         2.2 0.40                            96 177 
 PTB  HZ EP   1    653 10.14                             131    -0.5 7  149 261 
 PTB  HN ES   2    653 30.83                             131    -0.6 5  149 261 
 ZAR  HZ EP   1    653 17.14                             121     0.7 6  208 293 
 ZAR  HN ES   2    653 41.53                             121    -0.3 4  208 293 
 ZAR  HZ I         653 44.06         2.1 0.29                           208 293 
                                                                                
