 2010  129 0916  2.9 L   6.789 -73.114144.2  RSN  7 0.2 2.3LRSN                1
 GAP=162        0.42       2.1     4.5  3.2 -0.3683E+01  0.3952E+01  0.6224E+00E
 Epicentro: LOS SANTOS - SANTANDER                                             3
 ACTION:UP  10-08-24 09:46 OP:vdl  STATUS:               ID:20100129091602 L   I
 2010-01-29-0859-52S.COL___088                                                 6
 STAT SP IPHASW D HRMM SECON CODA AMPLIT PERI AZIMU VELO SNR AR TRES W  DIS CAZ7
 BAR2 SZ EP        916 22.34                             170     0.010   23 200 
 BAR2 SZ ES   1    916 37.53                             170     0.1 7   23 200 
 GIR2 SZ EP        916 22.36                             166    -0.110   33 345 
 GIR2 SZ ES   1    916 37.77                             166     0.1 7   33 345 
 RUS  HZ EP        916 26.32                             144    -0.110   99 178 
 RUS  HN ES   1    916 44.48                             144    -0.2 7   99 178 
 RUS  HZ I         916 46.16        15.4 0.29                            99 178 
 GRA  SZ EP        916 28.16                             137     0.210  126  16 
 GRA  SZ ES   2    916 47.23                             137    -0.4 5  126  16 
 CHI  HZ EP        916 40.58                             117     0.1 8  248 196 
 CHI  HN ES   1    917 10.23                             117     0.4 6  248 196 
 CHI  HZ I         917 12.44        17.4 0.38                           248 196 
 HEL  HZ EP   1    916 43.37                             114     0.0 6  275 256 
 HEL  HN ES   2    917 14.92                             114     0.0 4  275 256 
 HEL  HZ I         917 20.81        14.4 0.33                           275 256 
 PRA  HZ EP        916 56.20                             106    -0.2 6  393 210 
 PRA  HE ES   2    917 37.59                             106    -0.6 3  393 210 
                                                                                
