 2010  529 0603 27.0 L   6.843 -73.110140.4  RSN 11 0.5 2.4LRSN                1
 GAP=145        1.21       4.7     7.6  9.1 -0.2094E+02  0.1261E+02  0.3351E+01E
 Epicentro: LOS SANTOS - SANTANDER                                             3
 ACTION:UP  10-08-24 10:07 OP:vdl  STATUS:               ID:20100529060326 L   I
 2010-05-29-0600-59S.COL___109                                                 6
 STAT SP IPHASW D HRMM SECON CODA AMPLIT PERI AZIMU VELO SNR AR TRES W  DIS CAZ7
 BAR2 SZ EP        6 3 45.85                             168    -0.310   29 196 
 BAR2 SZ ES   1    6 4  0.77                             168    -0.3 7   29 196 
 GUE  SZ EP        6 3 50.82                             139     0.010  111  11 
 GRA  SZ EP        6 3 51.65                             137     0.310  120  16 
 GRA  SZ ES   1    6 4 11.24                             137     1.0 7  120  16 
 OCA  SZ EP        6 3 54.74                             129     0.2 9  156 352 
 OCA  SZ ES   1    6 4 15.32                             129    -0.7 7  156 352 
 CHI  HZ EP   1    6 4  4.41                             115    -0.7 6  254 196 
 CHI  HN ES        6 4 34.06                             115    -0.7 8  254 196 
 CHI  HZ I         6 4 37.18        22.8 0.15                           254 196 
 ROSC BZ EP        6 4  6.16                             115     0.6 8  259 211 
 ROSC BN ES        6 4 36.51                             115     0.9 8  259 211 
 ROSC BZ I         6 4 40.42        15.7 0.30                           259 211 
 HEL  HZ EP   1    6 4  7.56                             113     0.0 6  277 255 
 HEL  HN ES        6 4 38.52                             113    -0.6 7  277 255 
 HEL  HZ I         6 4 44.12        11.3 0.78                           277 255 
 RREF BZ EP        6 4 14.15                             109     0.5 7  328 229 
 RREF BN ES   1    6 4 50.41                             109     0.4 5  328 229 
 RREF BZ I         6 4 54.45        14.1 0.05                           328 229 
 DBB  SZ EP   1    6 4 14.52                             108    -0.2 5  343 273 
 TOL  SZ EP        6 4 15.61                             108    -0.2 6  350 225 
 SDV  BZ EP        6 4 15.42                             107    -0.8 6  354  50 
 SDV  BZ I         6 4 55.99         4.7 0.49                           354  50 
                                                                                
