 2013  129 0338 55.3 L   6.755 -73.162147.5  RSN  5 0.4 2.1LRSN                1
 GAP=232        0.92       5.2     6.6  6.7  0.1326E+02  0.6738E+01  0.9591E+01E
 Epicentro: LOS SANTOS - SANTANDER                                             3
 ACTION:UPD 13-02-15 09:17 OP:ep   STATUS:               ID:20130129033855 L   I
 2013-01-29-0334-48M.COL___186                                                 6
 STAT SP IPHASW D HRMM SECON CODA AMPLIT PERI AZIMU VELO AIN AR TRES W  DIS CAZ7
 BAR2 SZ EP        339 14.92                             173   -0.1710 18.1 187 
 BAR2 SZ ES        339 29.94                             173   -0.5610 18.1 187 
 BAR2 SZ I         339 31.48        28.1 0.25            166           18.1 187 
 BRR  HZ EP        339 16.82                             152    0.0810 72.2 303 
 BRR  HE ES        339 34.09                             152    0.6610 72.2 303 
 BRR  HE I         339 34.98        51.1 0.36            152           72.2 303 
 RUS  HZ EP        339 18.84                             146   -0.0810 95.7 175 
 RUS  HN ES        339 37.63                             146    0.3110 95.7 175 
 RUS  HN I         339 39.31        25.4 0.24            142           95.7 175 
 PTB  HZ EP        339 21.87                             133   -0.34 9  145 261 
 PTB  HN ES        339 42.90                             133   -0.28 9  145 261 
 PTB  HZ I         339 45.04        12.3 0.22            131            145 261 
 CHI  HZ EP        339 32.97                             118    0.41 8  243 195 
 CHI  HN ES        340  1.67                             118    0.07 8  243 195 
 CHI  HZ I         340 10.30         4.6 0.58            117            243 195 
                                                                                
