 2012  229 0331 46.3 L   7.387 -73.193130.9  RSN  6 0.1 1.8LRSN                1
 GAP=182        0.32       2.2     1.6  2.8 -0.9804E-01  0.1328E+01  0.6042E-01E
 ACTION:UP  12-03-07 16:35 OP:epov STATUS:               ID:20120229033146 L   I
 2012-02-29-0330-00M.COL___191                                                 6
 STAT SP IPHASW D HRMM SECON CODA AMPLIT PERI AZIMU VELO AIN AR TRES W  DIS CAZ7
 PAM  SZ EP        332  5.81                             156    0.1110 54.7  95 
 PAM  SE ES        332 20.73                             156   -0.0710 54.7  95 
 BRR  HZ EP        332  5.53                             152   -0.0110 65.1 242 
 BRR  HE ES   1    332 20.44                             152   -0.08 7 65.1 242 
 BRR  HZ I         332 22.30        16.3 0.14                          65.1 242 
 BAR2 SZ EP        332  7.50                             144    0.1410 87.9 179 
 BAR2 SZ ES        332 23.76                             144    0.0110 87.9 179 
 BAR2 SZ I         332 25.07         9.8 0.13                          87.9 179 
 RUS  HZ EP   1    332 14.31                             125   -0.22 7  166 176 
 RUS  HN ES   1    332 36.50                             125   -0.01 7  166 176 
 PTB  HZ EP   1    332 13.98                             124   -0.16 7  168 236 
 PTB  HE ES   1    332 35.96                             124    0.13 7  168 236 
 ZAR  HE ES   1    332 38.70                             122   -0.02 7  184 274 
 ZAR  HZ I         332 42.79         5.4 0.23                           184 274 
                                                                                
