 2015  329 0646 56.0 L   6.813 -73.188140.1  RSN  9 0.5 1.5LRSN                1
 GAP= 68        1.25       3.7     5.1  7.0 -0.1716E+01  0.1584E+01 -0.3095E+01E
 Epicentro: ZAPATOCA - SANTANDER                                               3
 ACTION:UPD 15-04-30 16:30 OP:nd   STATUS:               ID:20150329064656 L   I
 OLDACT:REG 15-03-29 12:55 OP:stll STATUS:               ID:20150329063748     3
 2015-03-29-0637-48M.COL___290                                                 6
 STAT SP IPHASW D HRMM SECON CODA AMPLIT PERI AZIMU VELO AIN AR TRES W  DIS CAZ7
 BAR2 EZ EP        647 15.10                             170    0.1210 24.5 179 
 BAR2 EZ I         647 15.46         8.8 0.10            171           24.5 179 
 BAR2 EZ ES        647 29.96                             170    0.1810 24.5 179 
 BRR  HZ EP        647 16.91                             153    0.6410 66.4 299 
 BRR  HN ES        647 33.02                             153    0.9410 66.4 299 
 BRR  HZ I         647 37.66         5.1 0.28            151           66.4 299 
 PAM  SZ EP        647 18.35                             149    0.6110 79.3  43 
 PAM  SN ES        647 34.44                             149   -0.2610 79.3  43 
 PAM  SZ I         647 36.98         8.8 0.44            153           79.3  43 
 RUS  HZ EP        647 19.28                             142   -0.0710  102 174 
 RUS  HN ES        647 37.20                             142   -0.3510  102 174 
 RUS  HZ I         647 38.57         3.8 0.34            146            102 174 
 PTB  HZ EP        647 22.09                             132   -0.04 9  143 258 
 PTB  HN ES        647 41.99                             132   -0.51 9  143 258 
 PTB  HZ I         647 50.00         2.3 0.20            132            143 258 
 OCA  HZ EP        647 23.72                             129    0.03 9  158 355 
 OCA  HE ES        647 44.14                             129   -1.15 9  158 355 
 OCA  HZ I         647 49.50         8.4 0.34            131            158 355 
 TAM  HZ EP        647 23.53                             128   -0.18 9  160 105 
 SPBC HZ EP        647 24.22                             128    0.31 9  161 217 
 SPBC HN ES        647 45.14                             128   -0.54 9  161 217 
 SPBC HZ I         647 49.18         6.0 0.16            130            161 217 
 SML  HZ EP        647 31.96                             117   -0.00 8  240 336 
 SML  HE ES        647 59.95                             117   -0.06 8  240 336 
                                                                                
