 2014  829 0312 26.4 L   6.819 -73.154148.3  RSN  7 0.5 1.6LRSN                1
 GAP=212        1.20       5.7    10.9  9.6 -0.1541E+02  0.1526E+02  0.4980E+01E
 Epicentro: LOS SANTOS - SANTANDER                                             3
 ACTION:UPD 14-09-15 21:54 OP:nd   STATUS:               ID:20140829031226 L   I
 OLDACT:DUP 14-08-29 17:39 OP:fm   STATUS:               ID:20140829030821d    3
 OLDACT:UP  14-08-29 17:38 OP:fm   STATUS:               ID:20140829030820d    3
 OLDACT:UP  14-08-29 17:38 OP:fm   STATUS:               ID:20140829030820d    3
 OLDACT:DUP 14-08-29 17:37 OP:fm   STATUS:               ID:20140829030820d    3
 2014-08-29-0308-19M.COL___269                                                 6
 STAT SP IPHASW D HRMM SECON CODA AMPLIT PERI AZIMU VELO AIN AR TRES W  DIS CAZ7
 BAR2 SZ ES   1    313  1.35                             170   -0.62 7 25.3 187 
 BAR2 SZ I         313  2.86         4.1 0.18            170           25.3 187 
 BRR  HZ EP        312 48.35                             154    0.6010 69.4 297 
 BRR  HN ES        313  5.22                             154    0.8410 69.4 297 
 BRR  HZ I         313  8.87         5.6 0.16            159           69.4 297 
 PTB  HZ EP        312 53.20                             133   -0.36 9  147 258 
 PTB  HN ES        313 14.20                             133   -0.52 9  147 258 
 PTB  HZ I         313 16.92         4.4 0.16            137            147 258 
 SPBC HZ EP        312 55.28                             130    0.06 9  164 218 
 SPBC HN ES        313 17.47                             130   -0.21 9  164 218 
 SPBC HZ I         313 20.32         7.1 0.24            133            164 218 
 SML  HZ EP   4    312 58.81                             118   -4.14 0  241 335 
 SML  HN ES        313 30.77                             118   -0.67 8  241 335 
 SML  HZ I         313 34.51         3.6 0.26            122            241 335 
 GUY2CHZ EP   1    313 10.36                             113    0.15 5  302 234 
 GUY2CHN ES        313 44.70                             113    0.34 7  302 234 
 GUY2CHZ I         313 53.01         2.0 0.36                           302 234 
 MON  HZ I         313 43.88         2.0 0.32            112            352 308 
                                                                                
