 2017  629 0644 56.6 L   6.781 -73.127141.7  RSN 17 0.6 1.9LRSN                1
 GAP=138        0.89       3.9     3.2  5.2  0.8349E+00  0.2293E+01  0.4072E+01E
 Epicentro: LOS SANTOS - SANTANDER                                             3
 ACTION:UPD 17-09-14 16:56 OP:jn   STATUS:               ID:20170629064456 L   I
 OLDACT:UP  17-06-29 15:56 OP:and  STATUS:               ID:20170629063739     3
 OLDACT:UP  17-06-29 15:56 OP:and  STATUS:               ID:20170629063739     3
 OLDACT:UP  17-06-29 15:55 OP:and  STATUS:               ID:20170629063739     3
 OLDACT:UP  17-06-29 15:53 OP:and  STATUS:               ID:20170629063739     3
 OLDACT:UP  17-06-29 15:49 OP:and  STATUS:               ID:20170629063739     3
 OLDACT:UP  17-06-29 15:49 OP:and  STATUS:               ID:20170629063739     3
 OLDACT:REG 17-06-29 13:07 OP:and  STATUS:               ID:20170629063739     3
 2017-06-29-0638-00M.COL___370                                                 6
 STAT SP IPHASW D HRMM SECON CODA AMPLIT PERI AZIMU VELO AIN AR TRES W  DIS CAZ7
 BAR2 EZ EP     C  645 15.59                             171   -0.1210 21.8 196 
 BAR2 EZ ES        645 30.26                             171   -0.3610 21.8 196 
 BAR2 EZ I         645 31.89        17.2 0.18            167           21.8 196 
 BRR  HZ IP     C  645 17.52                             151    0.0410 74.0 299 
 BRR  HN ES        645 34.58                             151    0.8210 74.0 299 
 BRR  HZ I         645 35.62        16.0 0.22            149           74.0 299 
 PTB  HZ EP   2    645 22.61                             131   -0.78 5  149 260 
 PTB  HN ES        645 43.42                             131   -0.87 9  149 260 
 PTB  HZ I         645 43.97         6.6 0.18            129            149 260 
 TAM  HZ IP     C  645 23.83                             130    0.11 9  153 104 
 TAM  HN ES   2    645 44.61                             130   -0.27 5  153 104 
 SPBC HZ EP        645 24.81                             128    0.05 9  163 220 
 SPBC HN ES        645 46.97                             128    0.24 9  163 220 
 SPBC HZ I         645 49.27        15.0 0.18            127            163 220 
 YPLC HN ES   2    645 48.87                             126    0.25 4  174 152 
 ZAR  HZ EP        645 28.99                             121   -0.08 8  207 292 
 ZAR  HN ES        645 54.59                             121    0.20 8  207 292 
 ZAR  HZ I         646  0.81        12.3 0.32            121            207 292 
 NOR  HZ EP        645 31.66                             118   -0.49 8  235 235 
 NOR  HN ES        646  0.01                             118    0.13 8  235 235 
 CHI  HZ EP   2    645 34.21                             116    0.29 4  247 196 
 CHI  HN ES   3    646  4.84                             116    1.82 2  247 196 
 CHI  HZ I         646  6.80         3.0 0.20            116            247 196 
 ROSC BZ EP   3    645 36.52                             116    2.10 2  252 212 
 ROSC BN ES   4    646  8.31                             116    4.38 0  252 212 
 ROSC BZ I         646 11.29         9.0 0.40            115            252 212 
 HEL  HZ EP   2    645 35.96                             114   -0.82 4  274 256 
 HEL  HN ES   4    646 10.77                             114    2.66 0  274 256 
 HEL  HZ I         646 15.57         3.9 0.24            113            274 256 
 GUY2CHZ EP   3    645 41.11                             111    1.03 2  302 235 
 GUY2CHN ES   3    646 12.80                             111   -1.19 2  302 235 
 GUY2CHZ I         646 20.80         3.6 0.38                           302 235 
 PTGC HZ EP   9    645 38.60                             111   -1.37 0  306 159 
 PTGC HN ES        646 12.19                                   -0.24 7  306 159 
 CBOC HZ EP   1    645 44.49                             109    0.99 5  335 253 
 CBOC HN ES        646 19.94                             109   -0.15 7  335 253 
 ORTC HN ES        646 32.84                             106    0.60 6  395 217 
 PAL  HZ EP        645 51.47                             105   -0.24 6  406 239 
 PAL  HN ES   3    646 33.34                             105   -1.36 1  406 239 
 PAL  HZ I         646 37.08         1.9 0.22            105            406 239 
 SJC  HZ EP   9    645 50.19                             105   -2.18 0  412 327 
 SJC  HN ES        646 33.27                             105   -0.42 6  412 327 
                                                                                
