 2016  129 0643 24.8 L   6.786 -73.118136.3  RSN  6 0.3 1.0LRSN                1
 GAP=141        0.68       2.2     5.1  4.8 -0.3635E+01  0.1091E+02 -0.1592E+01E
 Epicentro: LOS SANTOS - SANTANDER                                             3
 ACTION:UPD 16-03-09 23:29 OP:cam  STATUS:               ID:20160129064324 L   I
 OLDACT:REG 16-01-29 14:35 OP:cara STATUS:               ID:20160129063759     3
 2016-01-29-0637-59S.COL___223                                                 6
 STAT SP IPHASW D HRMM SECON CODA AMPLIT PERI AZIMU VELO AIN AR TRES W  DIS CAZ7
 BAR2 EZ ES        643 57.39                             170   -0.3310 22.6 198 
 BAR2 EZ I         644  1.80         2.5 0.34            168           22.6 198 
 PAM  EZ EP        643 46.22                             149    0.2210 76.6  37 
 PAM  EN ES        644  2.52                             149    0.0110 76.6  37 
 PAM  EZ I         644  6.00         1.5 0.50            155           76.6  37 
 RUS  HZ EP        643 47.89                             142    0.3510 98.9 178 
 RUS  HN ES        644  5.23                             142   -0.0210 98.9 178 
 RUS  HZ I         644  7.34         1.0 0.28            144           98.9 178 
 SPBC HZ EP        643 52.50                             127   -0.20 9  164 220 
 SPBC HN ES        644 14.85                             127    0.41 9  164 220 
 SPBC HZ I         644 20.13         2.1 0.40            128            164 220 
 SML  HZ EP        644  0.83                             115   -0.41 8  246 335 
 SML  HN ES        644 29.81                             115    0.18 8  246 335 
 SML  HZ I         644 32.56         1.3 0.10            117            246 335 
 CHI  HZ EP        644  1.81                             115   -0.14 8  248 196 
 CHI  HE ES        644 30.61                             115   -0.30 8  248 196 
 CHI  HZ I         644 39.20         0.7 0.52            117            248 196 
                                                                                
