 2014  529 0652 17.3 L   6.790 -73.168136.0  RSN 12 0.5 1.7LRSN                1
 GAP=134        1.22       3.5     4.5  6.7 -0.2445E+01  0.9395E+01  0.4828E+01E
 Epicentro: LOS SANTOS - SANTANDER                                             3
 ACTION:UPD 15-03-16 17:01 OP:nd   STATUS:               ID:20140529065217 L   I
 OLDACT:REG 14-05-29 13:45 OP:stll STATUS:               ID:20140529064817     3
 2014-05-29-0648-17M.COL___256                                                 6
 STAT SP IPHASW D HRMM SECON CODA AMPLIT PERI AZIMU VELO AIN AR TRES W  DIS CAZ7
 BAR2 SZ EP        652 35.84                             170    0.0810 21.9 184 
 BAR2 SZ ES        652 50.31                             170    0.1810 21.9 184 
 BAR2 SZ I         652 52.49        11.7 0.10            169           21.9 184 
 BRR  HZ EP        652 37.79                             151    0.4510 69.6 300 
 BRR  HN ES        652 53.74                             151    0.8010 69.6 300 
 BRR  HZ I         652 57.55         7.6 0.26            150           69.6 300 
 PAM  SZ EP        652 38.72                             148    0.0510 79.8  40 
 PAM  SZ I         652 38.92        12.6 0.22            153           79.8  40 
 PAM  SN ES        652 54.91                             148   -0.4010 79.8  40 
 RUS  HZ EP        652 40.01                             142   -0.0610 99.7 175 
 RUS  HE ES        652 58.23                             142    0.4310 99.7 175 
 RUS  HZ I         652 59.66         6.3 0.34            144           99.7 175 
 PTB  HZ EP        652 42.71                             130   -0.57 9  145 259 
 PTB  HN ES        653  3.04                             130   -0.47 9  145 259 
 PTB  HZ I         653  6.74         6.3 0.10            130            145 259 
 OCA  HN ES        653  5.94                             127   -0.61 9  161 354 
 OCA  HZ I         653  9.72         5.2 0.24            129            161 354 
 SPBC HZ EP        652 44.79                             127   -0.08 9  161 219 
 SPBC HN ES        653  6.23                             127   -0.11 9  161 219 
 SPBC HZ I         653  9.53        14.4 0.26            128            161 219 
 ZAR  HZ EP        652 48.91                             120   -0.06 9  202 293 
 ZAR  HN ES        653 13.78                             120    0.14 9  202 293 
 ZAR  HZ I         653 17.99         3.7 0.12            121            202 293 
 NOR  HN ES        653 18.57                             117   -0.88 8  232 234 
 NOR  HZ I         653 26.26         4.1 0.14            118            232 234 
 CHI  HZ EP        652 54.00                             115   -0.32 8  247 195 
 CHI  HZ I         652 54.96         3.0 0.12            117            247 195 
 CHI  HN ES        653 22.45                             115   -0.72 8  247 195 
 GUY2CHZ EP        653  1.74                             111    1.53 7  299 235 
 GUY2CHN ES        653 33.90                             111    0.25 7  299 235 
 GUY2CHZ I         653 40.60         2.7 0.30                           299 235 
 RREF HZ EP        653  3.35                             109    0.58 7  319 229 
 RREF HN ES        653 38.29                             109    0.07 7  319 229 
 RREF HZ I         653 47.80         2.1 0.38            110            319 229 
                                                                                
