 2012  829 0525 42.2 L   6.652 -73.190138.0  RSN  4 0.4 1.4LRSN                1
 GAP=173        0.50       9.0     6.5  6.2  0.2361E+02  0.2120E+01  0.1871E+01E
 Epicentro: BARICHARA - SANTANDER                                              3
 ACTION:UPD 12-09-10 11:59 OP:ep   STATUS:               ID:20120829052542 L   I
 2012-08-29-0520-00M.COL___218                                                 6
 STAT SP IPHASW D HRMM SECON CODA AMPLIT PERI AZIMU VELO AIN AR TRES W  DIS CAZ7
 BAR2 SZ EP        526  0.66                             177    0.0110 6.65 173 
 BAR2 SZ ES   1    526 15.18                             177    0.12 7 6.65 173 
 BAR2 SZ I         526 16.42        10.0 0.14                          6.65 173 
 GIR2 SZ ES   3    526 15.09                             160   -1.47 2 47.2 360 
 BRR  HZ EP        526  2.78                             149   -0.0510 76.6 311 
 BRR  HN ES   1    526 19.14                             149    0.21 7 76.6 311 
 BRR  HZ I         526 21.02         3.6 0.14                          76.6 311 
 PTB  HZ EP   3    526  7.36                             132   -0.51 2  141 265 
 PTB  HN ES   2    526 27.76                             132   -0.14 5  141 265 
                                                                                
