 2010  729 0753 32.5 L   6.772 -73.072152.0  RSN  9 0.5 2.2LRSN                1
 GAP=165        1.10       6.0    13.6 12.2 -0.3969E+01 -0.7001E+02 -0.8755E+01E
 Epicentro: LOS SANTOS - SANTANDER                                             3
 ACTION:UPD 10-12-01 15:20 OP:pat  STATUS:               ID:20100729075332 L   I
 2010-07-29-0750-17S.COL___123                                                 6
 STAT SP IPHASW D HRMM SECON CODA AMPLIT PERI AZIMU VELO AIN AR TRES W  DIS CAZ7
 BAR2 SZ EP   1    753 52.80                             171    -0.1 7   23 212 
 BAR2 SZ ES   2    754  7.99                             171    -0.8 5   23 212 
 BAR2 SZ I         754  9.90        46.3 0.55                            23 212 
 GIR2 SZ EP   1    753 52.89                             166    -0.2 7   36 338 
 BRR  HZ IP     C  753 54.69                             151    -0.110   80 298 
 BRR  HE ES   1    754 12.44                             151     0.2 7   80 298 
 RUS  HZ EP        753 56.78                             146     0.110   97 181 
 RUS  HZ I         753 57.92        12.3 0.52                            97 181 
 RUS  HN ES   2    754 15.97                             146     0.5 5   97 181 
 BRI  SZ EP        753 57.55                             143     0.510  109  16 
 GUE  SZ EP        753 56.93                             140    -1.010  118   8 
 GRA  SZ EP   1    753 58.58                             138     0.2 7  127  14 
 GRA  SZ ES   2    754 19.00                             138     0.4 5  127  14 
 GRA  SZ I         754 20.15        19.0 0.54                           127  14 
 OCA  SZ EP        754  1.87                             130     0.2 9  164 350 
 OCA  SZ ES   2    754 25.13                             130     0.7 5  164 350 
 OCA  SZ I         754 31.75        27.9 0.49                           164 350 
 CHI  HZ EP   2    754 10.74                             119     0.3 4  248 197 
 CHI  HZ I         754 11.91        11.4 0.75                           248 197 
                                                                                
