 2013  629 0555 12.5 L   6.814 -73.140147.4  RSN 16 0.4 2.1LRSN                1
 GAP= 71        0.93       2.5     2.8  5.1 -0.2663E+00  0.3856E+01  0.2100E+01E
 Epicentro: LOS SANTOS - SANTANDER                                             3
 ACTION:UPD 14-01-08 09:58 OP:ep   STATUS:               ID:20130629055512 L   I
 OLDACT:REG 13-06-29 07:53 OP:carl STATUS:               ID:20130629054959     3
 2013-06-29-0549-59M.COL___266                                                 6
 STAT SP IPHASW D HRMM SECON CODA AMPLIT PERI AZIMU VELO AIN AR TRES W  DIS CAZ7
 BAR2 SZ EP   1    555 32.11                             170   -0.22 7 25.0 191 
 BAR2 SZ ES   1    555 47.82                             170    0.00 7 25.0 191 
 BAR2 SZ I         555 49.76        35.1 0.26            171           25.0 191 
 GIR2 SZ EP   1    555 32.35                             168    0.05 7 29.8 349 
 GIR2 SZ ES   1    555 48.09                             168    0.33 7 29.8 349 
 GIR2 SZ I         555 48.55        14.5 0.10            166           29.8 349 
 BRR  HZ EP        555 34.12                             153    0.3410 71.0 297 
 BRR  HN ES   1    555 51.11                             153    0.70 7 71.0 297 
 BRR  HN I         555 54.97        76.0 0.18            151           71.0 297 
 PAM  SZ IP     C  555 35.14                             152    0.3710 75.8  40 
 PAM  SN ES   1    555 52.38                             152    0.22 7 75.8  40 
 PAM  SZ I         555 54.22        22.7 0.50            148           75.8  40 
 RUS  HZ EP        555 36.20                             144   -0.2910  102 176 
 RUS  HN ES        555 54.35                             144   -0.8810  102 176 
 RUS  HZ I         555 56.16        13.1 0.34            143            102 176 
 PTB  HZ EP        555 39.09                             132   -0.56 9  149 258 
 PTB  HN ES   1    555 59.84                             132   -1.01 7  149 258 
 PTB  HZ I         556  2.95        14.7 0.50            131            149 258 
 TAM  HZ IP     D  555 40.54                             131    0.28 9  155 106 
 TAM  HZ I         556  0.73         8.4 0.46            128            155 106 
 TAM  HN ES        556  2.17                             131    0.23 9  155 106 
 OCA  HZ EP   1    555 40.28                             130   -0.49 7  159 353 
 OCA  HN ES        556  2.68                             130   -0.16 9  159 353 
 OCA  HZ I         556  5.38        14.9 0.26            127            159 353 
 ZAR  HZ EP   1    555 45.56                             123    0.54 6  204 292 
 ZAR  HE ES        556 10.92                             123    0.51 9  204 292 
 ZAR  HZ I         556 19.23        15.9 0.52            121            204 292 
 NOR  HZ EP   1    555 48.39                             119   -0.06 6  236 234 
 NOR  HN ES   1    556 16.78                             119    0.28 6  236 234 
 NOR  HZ I         556 22.05         9.7 0.50            117            236 234 
 SML  HZ EP   1    555 48.71                             118   -0.35 6  243 335 
 SML  HN ES        556 16.95                             118   -0.65 8  243 335 
 SML  HZ I         556 27.39        16.0 0.22            116            243 335 
 CHI  HZ EP   1    555 50.59                             117    0.15 6  250 195 
 CHI  HN ES   1    556 20.20                             117    0.14 6  250 195 
 CHI  HZ I         556 26.57         6.7 0.36            116            250 195 
 ROSC BZ EP   2    555 51.65                             117    0.79 4  254 211 
 ROSC BN ES        556 21.27                             117    0.47 8  254 211 
 HEL  HZ EP   1    555 52.23                             115   -0.64 6  273 256 
 HEL  HE ES        556 24.65                             115    0.26 8  273 256 
 HEL  HZ I         556 31.70         4.9 0.50            113            273 256 
 GUY2CHZ EP   1    555 56.58                             112    0.27 5  303 235 
 GUY2CHN ES        556 30.78                             112    0.27 7  303 235 
 GUY2CHZ I         556 38.62         8.1 0.32                           303 235 
 PRA  HZ EP        556  6.14                             107   -0.10 6  394 210 
 PRA  HE ES        556 48.18                             107   -0.00 6  394 210 
                                                                                
