 2017  729 0544  3.0 L   6.848 -73.115146.4  RSN 22 0.6 2.1LRSN                1
 GAP= 74        1.16       3.8     3.5  5.7  0.9092E+00  0.4075E+01  0.5598E+01E
 Epicentro: LOS SANTOS - SANTANDER                                             3
 ACTION:UPD 17-08-30 15:37 OP:rebc STATUS:               ID:20170729054403 L   I
 OLDACT:UP  17-07-29 16:21 OP:and  STATUS:               ID:20170729053740     3
 OLDACT:UP  17-07-29 16:20 OP:and  STATUS:               ID:20170729053740     3
 OLDACT:UP  17-07-29 16:19 OP:and  STATUS:               ID:20170729053740     3
 OLDACT:UP  17-07-29 16:17 OP:and  STATUS:               ID:20170729053740     3
 OLDACT:UP  17-07-29 16:17 OP:and  STATUS:               ID:20170729053740     3
 OLDACT:UP  17-07-29 16:15 OP:and  STATUS:               ID:20170729053740     3
 OLDACT:UP  17-07-29 16:14 OP:and  STATUS:               ID:20170729053740     3
 OLDACT:UP  17-07-29 16:14 OP:and  STATUS:               ID:20170729053740     3
 OLDACT:UP  17-07-29 16:13 OP:and  STATUS:               ID:20170729053740     3
 OLDACT:UP  17-07-29 16:13 OP:and  STATUS:               ID:20170729053740     3
 OLDACT:REG 17-07-29 12:55 OP:and  STATUS:               ID:20170729053740     3
 2017-07-29-0538-00M.COL___386                                                 6
 STAT SP IPHASW D HRMM SECON CODA AMPLIT PERI AZIMU VELO AIN AR TRES W  DIS CAZ7
 BAR2 EZ IP     C  544 22.56                             168   -0.2710 29.3 195 
 BAR2 EZ ES        544 37.75                             168   -0.5610 29.3 195 
 BAR2 EZ I         544 39.12        25.4 0.26            164           29.3 195 
 PAM  EZ IP     C  544 25.26                             153    0.3510 71.1  40 
 PAM  EN ES        544 42.24                             153    0.2310 71.1  40 
 PAM  EZ I         544 43.99        14.5 0.20            158           71.1  40 
 BRR  HZ EP        544 24.28                             152    0.0310 71.9 293 
 BRR  HN ES        544 41.53                             152    0.7010 71.9 293 
 BRR  HZ I         544 45.29        18.7 0.12            150           71.9 293 
 RUS  HZ IP     C  544 26.59                             142   -0.5910  106 178 
 RUS  HN ES        544 45.50                             142   -0.5510  106 178 
 RUS  HZ I         544 47.81         7.4 0.30            142            106 178 
 PTB  HZ EP        544 29.06                             131   -1.36 9  152 257 
 PTB  HN ES        544 51.61                             131   -0.20 9  152 257 
 PTB  HZ I         544 52.73        16.6 0.14            130            152 257 
 TAM  HZ IP     D  544 30.70                             131    0.15 9  153 107 
 SPBC HZ EP        544 31.65                             128   -0.49 9  169 219 
 SPBC HN ES        544 55.55                             128    0.67 9  169 219 
 SPBC HZ I         545  2.21        18.6 0.28            127            169 219 
 YPLC HZ IP     C  544 32.97                             126   -0.17 9  180 153 
 YPLC HN ES        544 57.12                             126    0.46 9  180 153 
 YPLC HZ I         544 59.76        10.7 0.26            127            180 153 
 ZAR  HZ EP        544 36.40                             122    0.80 8  205 290 
 ZAR  HN ES        545  1.15                             122    0.11 8  205 290 
 ZAR  HZ I         545  6.51        15.9 0.34            122            205 290 
 TABC EZ EP   1    544 39.88                             119    0.43 6  236 211 
 TABC EZ ES   4    545 11.81                             119    3.91 0  236 211 
 TABC EZ I         545 14.75        17.1 0.46            118            236 211 
 NOR  HZ IP     C  544 39.38                             118   -0.01 8  241 234 
 NOR  HN ES   1    545  7.09                             118   -0.69 6  241 234 
 NOR  HZ I         545 10.17        12.5 0.20            118            241 234 
 CHI  HZ EP   2    544 41.21                             117   -0.17 4  255 196 
 CHI  HN ES        545 12.17                             117    0.84 8  255 196 
 CHI  HZ I         545 18.56         4.4 0.44            117            255 196 
 ROSC BZ EP        544 42.60                             116    0.76 8  259 211 
 ROSC BN ES   4    545 15.25                             116    3.11 0  259 211 
 ROSC BZ I         545 18.08        11.9 0.40            116            259 211 
 HEL  HZ EP   3 C  544 45.10                             114    1.35 2  277 255 
 HEL  HN ES        545 14.93                             114   -0.62 7  277 255 
 HEL  HZ I         545 23.55         8.2 0.26            114            277 255 
 GUY2CHZ EP   1    544 48.31                             112    1.02 5  307 234 
 GUY2CHN ES   3    545 23.86                             112    2.01 2  307 234 
 GUY2CHZ I         545 29.32         6.8 0.38                           307 234 
 PTGC HZ IP   3 C  544 45.68                             111   -1.62 2  312 160 
 PTGC HN ES   4    545 19.26                             111   -2.61 0  312 160 
 PTGC HZ I         545 22.33         3.5 0.58            112            312 160 
 CBOC HZ EP   1    544 50.40                             110   -0.09 5  339 251 
 CBOC HN ES   2    545 28.36                             110    0.81 3  339 251 
 CBOC HZ I         545 37.27         2.3 0.34            110            339 251 
 DBB  EZ EP   4    544 52.41                             109    1.57 0  343 273 
 DBB  EN ES   3    545 26.62                             109   -1.55 2  343 273 
 DBB  EZ I         545 29.26         5.9 0.14            110            343 273 
 PRA  HZ EP   1    544 56.68                             106   -0.59 4  398 210 
 PRA  HN ES   1    545 40.13                             106    0.51 4  398 210 
 PRA  HZ I         545 45.49         7.5 0.26            107            398 210 
 ORTC HZ EP   3    544 59.31                             106    1.64 1  402 216 
 ORTC HN ES   1    545 40.55                             106    0.22 4  402 216 
 ORTC HZ I         545 47.01         4.8 0.62            106            402 216 
 SJC  HZ EP   3    544 56.69                             106   -1.58 1  407 326 
 SJC  HN ES   4    545 38.33                             106   -3.05 0  407 326 
 SJC  HZ I         545 47.47         1.7 0.37            107            407 326 
 PAL  HZ EP   2    544 58.25                             106   -0.59 3  411 239 
 PAL  HE ES   2    545 42.02                             106   -0.38 3  411 239 
 PAL  HZ I         545 46.70         2.8 0.18            106            411 239 
                                                                                
