 2017 1129 0309 49.3 L   6.846 -73.202136.2  RSN  4 0.1 1.0LRSN                1
 GAP=149        0.40       3.2     2.4  3.9 -0.2031E+00  0.9793E+00 -0.4674E+01E
 Epicentro: ZAPATOCA - SANTANDER                                               3
 ACTION:UPD 17-12-12 20:01 OP:rebc STATUS:               ID:20171129030949 L   I
 OLDACT:REG 17-11-29 12:14 OP:dhb  STATUS:               ID:20171129030738     3
 2017-11-29-0308-00M.COL___492                                                 6
 STAT SP IPHASW D HRMM SECON CODA AMPLIT PERI AZIMU VELO AIN AR TRES W  DIS CAZ7
 BAR2 EZ EP        310  7.98                             168    0.1010 28.1 176 
 BAR2 EZ ES        310 22.42                             168    0.0410 28.1 176 
 BAR2 EZ I         310 25.35         4.0 0.48            170           28.1 176 
 PAM  EZ EP        310 10.44                             149   -0.0810 77.9  45 
 RUS  HZ EP        310 12.39                             140   -0.1510  106 173 
 RUS  HN ES        310 30.71                             140    0.0310  106 173 
 RUS  HZ I         310 31.49         1.5 0.38            144            106 173 
 PTB  HZ EP        310 15.22                             131    0.20 9  143 256 
 PTB  HN ES        310 34.96                             131   -0.14 9  143 256 
 PTB  HZ I         310 37.72         1.0 0.16            133            143 256 
                                                                                
