 2011  629 0708  7.8 L   6.819 -73.110141.7  RSN  4 0.4 1.2LRSN                1
 GAP=196        0.74      14.3    33.1 10.6  0.3486E+03 -0.1497E+02 -0.3287E+02E
 Epicentro: LOS SANTOS - SANTANDER                                             3
 ACTION:UP  11-07-14 19:09 OP:ep   STATUS:               ID:20110629070807 L   I
 2011-06-29-0700-00M.COL___124                                                 6
 STAT SP IPHASW D HRMM SECON CODA AMPLIT PERI AZIMU VELO SNR AR TRES W  DIS CAZ7
 BAR2 SZ EP   1    7 8 26.96                             169    -0.1 7   26 198 
 BAR2 SZ I         7 8 27.29         3.6 0.24                            26 198 
 BAR2 SZ ES   1    7 8 41.75                             169    -0.3 7   26 198 
 GIR2 SZ EP   2    7 8 27.59                             167     0.6 5   30 342 
 BRR  HZ EP   1    7 8 28.73                             151     0.1 7   74 296 
 BRR  HZ I         7 8 33.34         4.3 0.51                            74 296 
 RUS  HZ EP   1    7 8 31.02                             142    -0.3 7  102 178 
 RUS  HZ I         7 8 31.80         1.4 0.16                           102 178 
 RUS  HE ES   2    7 8 50.31                             142     0.7 5  102 178 
                                                                                
