 2016 1229 0409 10.7 L   6.767 -73.155143.8  RSN  7 0.4 1.4LRSN                1
 GAP=137        1.13       5.4     5.2  7.2 -0.5857E+01  0.1162E+02  0.1213E+01E
 Epicentro: LOS SANTOS - SANTANDER                                             3
 ACTION:UPD 17-01-11 20:20 OP:rebc STATUS:               ID:20161229040910 L   I
 OLDACT:DUP 16-12-29 15:48 OP:dnl  STATUS:               ID:20161229040749d    3
 2016-12-29-0408-00M.COL___375                                                 6
 STAT SP IPHASW D HRMM SECON CODA AMPLIT PERI AZIMU VELO AIN AR TRES W  DIS CAZ7
 BAR2 EZ EP        4 9 30.06                             172    0.0710 19.6 189 
 BAR2 EZ ES        4 9 44.76                             172   -0.2910 19.6 189 
 BAR2 EZ I         4 9 47.67         6.3 0.28            171           19.6 189 
 BRR  HZ EP        4 9 31.89                             152    0.2410 72.1 301 
 BRR  HN ES        4 9 48.82                             152    0.8010 72.1 301 
 BRR  HZ I         4 9 51.14         5.5 0.36            149           72.1 301 
 PAM  EZ EP        4 9 32.75                             149   -0.1310 80.8  38 
 PAM  EE ES        4 9 49.84                             149   -0.3710 80.8  38 
 PAM  EZ I         4 9 52.00         6.7 0.50            153           80.8  38 
 RUS  HZ EP        4 9 33.66                             144   -0.3110 97.1 175 
 RUS  HE ES        4 9 52.63                             144    0.4910 97.1 175 
 RUS  HZ I         4 9 53.71         4.3 0.34            147           97.1 175 
 PTB  HZ EP        4 9 37.03                             132   -0.29 9  146 260 
 PTB  HN ES        4 9 57.40                             132   -0.71 9  146 260 
 PTB  HZ I         4 9 59.27         2.5 0.34            131            146 260 
 ZAR  HZ EP        4 9 43.15                             122    0.12 9  204 293 
 ZAR  HE ES   4    410  6.46                             122   -1.81 0  204 293 
 ZAR  HZ I         410 16.68         2.2 0.26            122            204 293 
 NOR  HZ EP        4 9 46.74                             118    0.78 8  232 235 
 NOR  HE ES        410 13.14                             118   -0.36 8  232 235 
 NOR  HZ I         410 21.21         2.2 0.16            119            232 235 
                                                                                
