 2013  129 0856 15.6 L   6.780 -73.114151.0  RSN  6 0.3 1.6LRSN                1
 GAP=142        0.78       5.2     5.2  7.2 -0.2263E+00  0.9397E+00  0.1478E+02E
 Epicentro: LOS SANTOS - SANTANDER                                             3
 ACTION:UPD 13-02-15 09:17 OP:ep   STATUS:               ID:20130129085615 L   I
 2013-01-29-0850-00M.COL___241                                                 6
 STAT SP IPHASW D HRMM SECON CODA AMPLIT PERI AZIMU VELO AIN AR TRES W  DIS CAZ7
 BAR2 SZ EP        856 35.52                             171   -0.3010 22.1 200 
 BAR2 SZ I         856 36.05         8.5 0.19            170           22.1 200 
 BRR  HZ EP        856 37.88                             152    0.3510 75.3 299 
 BRR  HN ES        856 54.99                             152    0.3310 75.3 299 
 BRR  HN I         857  0.27         9.8 0.16            151           75.3 299 
 PAM  SZ EP   1    856 38.47                             152    0.14 7 77.0  36 
 PAM  SE ES   1    856 55.77                             152   -0.31 7 77.0  36 
 PAM  SZ I         856 58.31         7.4 0.63            156           77.0  36 
 RUS  HZ EP   1    856 39.75                             146    0.07 7 98.2 178 
 RUS  HE ES   1    856 58.46                             146   -0.03 7 98.2 178 
 RUS  HE I         856 59.73         4.5 0.21            148           98.2 178 
 PTB  HZ EP        856 42.72                             133   -0.53 9  151 260 
 PTB  HE ES   1    857  4.56                             133   -0.28 7  151 260 
 PTB  HE I         857  9.64         7.4 0.28            133            151 260 
 CHI  HZ EP        856 53.91                             118    0.46 8  247 196 
 CHI  HZ I         856 56.67         1.2 0.27            120            247 196 
                                                                                
