 2017 1129 0112 14.3 L   6.818 -73.163141.4  RSN 14 0.5 1.8LRSN                1
 GAP=109        1.19       3.0     4.0  6.2 -0.6047E+00  0.7078E+01  0.2124E+01E
 Epicentro: LOS SANTOS - SANTANDER                                             3
 ACTION:UPD 17-12-12 20:01 OP:rebc STATUS:               ID:20171129011214 L   I
 OLDACT:REG 17-11-29 12:02 OP:dhb  STATUS:               ID:20171129010739     3
 2017-11-29-0108-00M.COL___499                                                 6
 STAT SP IPHASW D HRMM SECON CODA AMPLIT PERI AZIMU VELO AIN AR TRES W  DIS CAZ7
 BAR2 EZ EP        112 33.44                             169   -0.0310 25.1 185 
 BAR2 EZ ES        112 47.56                             169   -0.8410 25.1 185 
 BAR2 EZ I         112 51.07        10.7 0.32            168           25.1 185 
 PAM  EZ IP     C  112 36.50                             150    0.4410 77.1  42 
 PAM  EN ES        112 53.43                             150    0.4110 77.1  42 
 PAM  EZ I         112 56.42         9.3 0.52            155           77.1  42 
 RUS  HZ EP        112 37.45                             142   -0.3610  103 175 
 RUS  HE ES        112 56.79                             142    0.6610  103 175 
 RUS  HZ I         112 58.73         6.9 0.22            144            103 175 
 PTB  HZ EP        112 40.51                             131   -0.29 9  146 258 
 PTB  HN ES        113  1.20                             131   -0.25 9  146 258 
 PTB  HZ I         113  6.20         7.1 0.40            132            146 258 
 OCA  HZ EP        112 42.80                             129    0.72 9  158 354 
 OCA  HN ES        113  3.48                             129   -0.26 9  158 354 
 OCA  HZ I         113  6.84        21.0 0.38            132            158 354 
 SPBC HZ EP        112 42.47                             128   -0.05 9  164 218 
 SPBC HN ES        113  4.58                             128    0.06 9  164 218 
 SPBC HZ I         113 10.55        10.6 0.10            129            164 218 
 YPLC HZ EP        112 43.93                             125   -0.14 9  180 151 
 YPLC HN ES        113  6.66                             125   -0.62 9  180 151 
 YPLC HZ I         113 11.40         5.3 0.24            129            180 151 
 ZAR  HZ EP        112 45.51                             122   -0.71 9  201 292 
 ZAR  HN ES        113 12.04                             122    0.94 9  201 292 
 ZAR  HZ I         113 17.76        10.5 0.34            123            201 292 
 NOR  HZ EP        112 49.87                             118    0.11 8  234 234 
 NOR  HE ES        113 17.14                             118   -0.26 8  234 234 
 NOR  HZ I         113 22.82         4.7 0.14            119            234 234 
 CHI  HZ EP        112 52.07                             116    0.13 8  250 195 
 CHI  HE ES        113 21.98                             116    0.70 8  250 195 
 CHI  HZ I         113 26.18         2.1 0.26            118            250 195 
 URE  HZ EP        112 53.96                             113   -0.93 7  281 292 
 URE  HE ES   4    113 24.21                             113   -2.33 0  281 292 
 URE  HZ I         113 34.75         5.2 0.38            114            281 292 
 GUY2CHZ EP   9    112 59.95                             111    2.27 0  301 234 
 GUY2CHE ES        113 34.29                                    0.52 7  301 234 
 GUY2CHZ I         113 39.85         3.8 0.68                           301 234 
 PRA  HZ EP        113  7.88                             106    0.09 6  393 209 
 PRA  HE ES        113 50.45                             106    0.96 6  393 209 
 PRA  HZ I         113 58.18         2.0 0.40            107            393 209 
 ORTC HZ EP        113  8.04                             106   -0.11 6  396 216 
 ORTC HE ES        113 50.13                             106   -0.01 6  396 216 
 ORTC HZ I         113 56.98         2.1 0.44            107            396 216 
                                                                                
