 2010 1129 0448 18.3 L   6.783 -73.097140.2  RSN 10 0.4 2.2LRSN                1
 GAP=164        0.97       3.6     7.7  6.7 -0.1026E+02  0.5720E+01  0.1805E+01E
 Epicentro: LOS SANTOS - SANTANDER                                             3
 ACTION:UP  10-12-17 16:55 OP:REBC STATUS:               ID:20101129044818 L   I
 2010-11-29-0443-53S.COL___129                                                 6
 STAT SP IPHASW D HRMM SECON CODA AMPLIT PERI AZIMU VELO SNR AR TRES W  DIS CAZ7
 BAR2 SZ IP        448 37.26                             170     0.010   23 204 
 BAR2 SZ ES   1    448 52.00                             170     0.0 7   23 204 
 BAR2 SZ I         448 53.55        52.1 0.22                            23 204 
 BRR  HZ IP     D  448 39.09                             150    -0.110   77 298 
 BRR  HN ES   1    448 55.66                             150     0.2 7   77 298 
 BRR  HZ I         449  1.13        29.2 0.11                            77 298 
 RUS  HZ EP        448 41.25                             143    -0.110   98 179 
 RUS  HN ES   1    448 59.06                             143    -0.3 7   98 179 
 RUS  HZ I         449  0.75        12.9 0.49                            98 179 
 GUE  SZ EP        448 42.50                             138    -0.110  117   9 
 GRA  SZ IP        448 44.09                             135     1.010  126  15 
 GRA  SZ I         448 45.39        23.0 0.38                           126  15 
 GRA  SZ ES   1    449  2.57                             135     0.2 7  126  15 
 OCA  SZ EP        448 45.71                             128    -0.7 9  163 351 
 OCA  SZ ES   1    449  8.35                             128     0.0 7  163 351 
 OCA  SZ I         449 12.00        25.4 0.19                           163 351 
 NOR  SZ EP        448 53.97                             117    -0.1 8  238 236 
 NOR  SN ES   2    449 21.67                             117    -0.3 4  238 236 
 CHI  HZ EP   1    448 55.41                             116    -0.2 6  248 196 
 CHI  HN ES   2    449 25.12                             116     0.3 4  248 196 
 CHI  HZ I         449 31.48         5.8 0.30                           248 196 
 RREF HZ EP   2    449  5.10                             110     0.6 3  325 230 
 RREF HZ I         449 47.16         7.7 0.44                           325 230 
 PRA  HZ EP        449 11.71                             105     0.0 6  393 210 
 PRA  HN ES   1    449 53.97                             105     0.5 4  393 210 
                                                                                
