 2014 1129 0004 54.4 L   5.869 -73.741114.3  RSN  7 0.3 1.3LRSN                1
 GAP= 92        0.76       2.5     2.6  5.5 -0.7521E-01  0.2068E+01 -0.5199E+00E
 Epicentro: JESUS MARIA - SANTANDER                                            3
 ACTION:UPD 14-12-19 15:48 OP:nd   STATUS:               ID:20141129000454 L   I
 OLDACT:REG 14-11-29 12:49 OP:fm   STATUS:               ID:20141128235959     3
 2014-11-28-2359-59M.COL___303                                                 6
 STAT SP IPHASW D HRMM SECON CODA AMPLIT PERI AZIMU VELO AIN AR TRES W  DIS CAZ7
 SPBC HN ES        0 5 23.66                             158    0.0710 43.9 237 
 SPBC HZ I         0 5 25.89         5.6 0.30            157           43.9 237 
 RUS  HZ EP        0 5 13.40                             146    0.3210 72.8  88 
 RUS  HE ES        0 5 27.38                             146   -0.2510 72.8  88 
 RUS  HZ I         0 5 29.33         2.2 0.68            149           72.8  88 
 BAR2 SZ EP        0 5 15.25                             136    0.3410  101  38 
 BAR2 SZ ES        0 5 30.85                             136   -0.0510  101  38 
 BAR2 SZ I         0 5 32.94         8.7 0.30            138            101  38 
 PTB  HZ EP        0 5 15.14                             133   -0.1210  109 313 
 PTB  HN ES        0 5 31.76                             133    0.2410  109 313 
 PTB  HZ I         0 5 33.52         3.1 0.28            134            109 313 
 NOR  HZ EP        0 5 17.15                             128   -0.1110  130 255 
 NOR  HN ES        0 5 35.38                             128    0.3010  130 255 
 NOR  HZ I         0 5 39.78         3.6 0.12            129            130 255 
 CHI  HZ EP        0 5 18.60                             126    0.12 9  137 180 
 CHI  HE ES        0 5 36.84                             126   -0.41 9  137 180 
 CHI  HZ I         0 5 40.32         1.0 0.26            128            137 180 
 ZAR  HN ES        0 5 51.00                             113   -0.66 8  218 326 
 ZAR  HZ I         0 5 56.78         3.8 0.28            114            218 326 
                                                                                
