 2013  129 0231 46.3 L   6.814 -73.130153.0  RSN  8 0.3 2.0LRSN                1
 GAP=102        0.73       3.3     3.3  4.8  0.5935E+00  0.1272E+01  0.4717E+01E
 Epicentro: LOS SANTOS - SANTANDER                                             3
 ACTION:UPD 13-02-15 09:17 OP:ep   STATUS:               ID:20130129023146 L   I
 2013-01-29-0230-00M.COL___241                                                 6
 STAT SP IPHASW D HRMM SECON CODA AMPLIT PERI AZIMU VELO AIN AR TRES W  DIS CAZ7
 BAR2 SZ EP        232  6.99                             170    0.1110 25.2 193 
 BAR2 SZ ES        232 22.91                             170    0.0110 25.2 193 
 BAR2 SZ I         232 23.91        22.7 0.28            170           25.2 193 
 BRR  HZ EP        232  8.48                             153    0.1510 72.1 297 
 BRR  HN ES        232 26.09                             153    0.6210 72.1 297 
 BRR  HZ I         232 28.83        12.1 0.21            155           72.1 297 
 PAM  SZ EP        232  9.10                             153   -0.1010 75.1  39 
 PAM  SN ES        232 26.72                             153   -0.3110 75.1  39 
 PAM  SZ I         232 29.21        15.2 0.56            155           75.1  39 
 RUS  HZ EP        232 10.89                             145   -0.0210  102 177 
 RUS  HE ES   1    232 29.64                             145   -0.43 7  102 177 
 RUS  HE I         232 31.48        14.9 0.30            145            102 177 
 PTB  HZ EP        232 13.72                             133   -0.37 9  150 258 
 PTB  HE ES   1    232 35.59                             133   -0.15 7  150 258 
 PTB  HZ I         232 37.14        14.5 0.14            134            150 258 
 TAM  HZ EP   1    232 14.88                             132    0.39 7  154 106 
 TAM  HZ I         232 15.47        20.3 0.35            134            154 106 
 ZAR  HE ES        232 44.85                             124   -0.30 9  205 292 
 CHI  HZ EP        232 24.98                             118    0.32 8  251 195 
 CHI  HN ES        232 54.58                             118    0.03 8  251 195 
 CHI  HZ I         232 58.65         3.6 0.46            119            251 195 
                                                                                
