 2014 1029 0712 53.1 L   6.796 -73.112149.5  RSN  5 0.5 0.8LRSN                1
 GAP=141        1.38       7.7     7.4 12.0 -0.6040E+01  0.6597E+01  0.1379E+02E
 Epicentro: LOS SANTOS - SANTANDER                                             3
 ACTION:UPD 14-11-29 23:58 OP:nd   STATUS:               ID:20141029071253 L   I
 OLDACT:DUP 14-10-31 00:54 OP:stll STATUS:               ID:20141029070745d    3
 2014-10-29-0707-43M.COL___271                                                 6
 STAT SP IPHASW D HRMM SECON CODA AMPLIT PERI AZIMU VELO AIN AR TRES W  DIS CAZ7
 BAR2 SZ EP        713 13.70                             171    0.4810 23.9 199 
 BRR  HZ EP        713 15.38                             152    0.5010 74.7 297 
 BRR  HN ES        713 32.55                             152    0.7110 74.7 297 
 PAM  SZ EP        713 15.21                             152   -0.4110 75.3  37 
 PAM  SZ I         713 16.55         1.1 0.22            152           75.3  37 
 PAM  SN ES        713 32.72                             152   -0.4510 75.3  37 
 RUS  HZ EP        713 16.97                             145   -0.2310  100 178 
 RUS  HZ I         713 18.40         0.8 0.46            144            100 178 
 RUS  HN ES        713 36.16                             145    0.1710  100 178 
 PTB  HZ EP        713 20.91                             132    0.18 9  151 259 
 PTB  HN ES        713 41.18                             132   -1.08 9  151 259 
 PTB  HZ I         713 43.43         1.0 0.14            131            151 259 
                                                                                
