 2016  829 0541 17.6 L   6.816 -73.154144.4  RSN  7 0.3 1.3LRSN                1
 GAP=182        0.85       3.4     4.7  7.1  0.1819E+01  0.7939E+01 -0.1855E+01E
 Epicentro: LOS SANTOS - SANTANDER                                             3
 ACTION:UPD 16-10-29 15:40 OP:rebc STATUS:               ID:20160829054117 L   I
 OLDACT:DUP 16-08-29 16:37 OP:drio STATUS:               ID:20160829053740d    3
 2016-08-29-0538-00M.COL___359                                                 6
 STAT SP IPHASW D HRMM SECON CODA AMPLIT PERI AZIMU VELO AIN AR TRES W  DIS CAZ7
 BAR2 EZ EP        541 36.89                             170   -0.2510 25.0 187 
 BAR2 EZ ES        541 52.13                             170   -0.2210 25.0 187 
 BAR2 EZ I         541 55.07         4.8 0.30                          25.0 187 
 BRR  HZ EP        541 39.20                             153    0.6510 69.5 298 
 BRR  HN ES   4    541 56.64                             153    1.78 0 69.5 298 
 BRR  HZ I         542  1.00         2.3 0.12                          69.5 298 
 RUS  HZ EP        541 41.42                             143    0.0310  102 176 
 RUS  HN ES        541 59.94                             143    0.0210  102 176 
 RUS  HZ I         542  0.59         2.0 0.30                           102 176 
 PTB  HZ EP        541 43.79                             132   -0.66 9  147 258 
 PTB  HN ES        542  5.35                             132   -0.01 9  147 258 
 PTB  HZ I         542 12.17         2.0 0.42                           147 258 
 OCA  HE ES        542  7.63                             130    0.11 9  158 353 
 SPBC HZ EP        541 46.16                             129    0.05 9  164 218 
 SPBC HE ES        542  8.71                             129    0.39 9  164 218 
 SPBC HZ I         542 14.02         5.8 0.34                           164 218 
 ZAR  HZ EP   4    541 51.99                             122    2.15 0  203 292 
 ZAR  HN ES        542 14.82                             122   -0.13 9  203 292 
                                                                                
