 2015  129 0201 49.9 L   6.653 -73.625 12.0  RSN  9 0.4 1.9LRSN                1
 GAP= 84        1.12       2.3     2.1  4.8  0.8352E-01  0.4211E+01 -0.6305E+00E
 Epicentro: EL CARMEN - SANTANDER                                              3
 ACTION:UPD 15-03-02 15:43 OP:nd   STATUS:               ID:20150129020149 L   I
 OLDACT:UP  15-01-29 14:01 OP:cam  STATUS:               ID:20150129015813     3
 OLDACT:UP  15-01-29 14:00 OP:cam  STATUS:               ID:20150129015813     3
 OLDACT:REG 15-01-29 13:06 OP:cvam STATUS:               ID:20150129015813     3
 2015-01-29-0158-13M.COL___271                                                 6
 STAT SP IPHASW D HRMM SECON CODA AMPLIT PERI AZIMU VELO AIN AR TRES W  DIS CAZ7
 BAR2 EZ EP     C  2 1 58.57                             101    0.2310 49.4  98 
 BAR2 EZ ES        2 2  4.95                             101    0.0310 49.4  98 
 BAR2 EZ I         2 2  5.40        44.0 0.10             47           49.4  98 
 BRR  HZ IP     D  2 1 58.29                             100   -0.0610 51.1 349 
 BRR  HN ES        2 2  5.31                             100    0.3710 51.1 349 
 BRR  HZ I         2 2  5.77        65.8 0.28             47           51.1 349 
 PTB  HZ EP     C  2 2  4.69                              95    0.0510 92.8 262 
 PTB  HN ES        2 2 15.99                              95   -0.1410 92.8 262 
 PTB  HZ I         2 2 18.74        29.8 0.10             47           92.8 262 
 RUS  HZ EP     D  2 2  6.99                              95    0.2810  103 145 
 RUS  HE ES        2 2 19.29                              95   -0.5310  103 145 
 RUS  HZ I         2 2 20.98        12.9 0.42             47            103 145 
 PAM  SZ EP        2 2 10.82                              94    0.4810  127  53 
 PAM  SN ES        2 2 25.71                              94   -0.5710  127  53 
 PAM  SZ I         2 2 26.75        18.0 0.16             47            127  53 
 ZAR  HN ES        2 2 33.95                              56   -0.80 9  165 304 
 ZAR  HN I         2 2 37.03        19.8 0.14             47            165 304 
 OCA  HN ES        2 2 38.37                              56    0.26 9  179  11 
 OCA  HN I         2 2 43.25        34.9 0.22             37            179  11 
 NOR  HN ES        2 2 39.73                              56    0.84 9  183 229 
 HEL  HZ EP        2 2 21.54                              56   -0.49 8  217 256 
 HEL  HN ES   4    2 2 45.94                              56   -1.13 0  217 256 
 HEL  HZ I         2 2 48.20         9.8 0.20             37            217 256 
 GUY2CHZ EP   4    2 2 27.71                              56    1.50 0  249 231 
                                                                                
