 2011 1229 0812 39.5 L   6.731 -73.172151.1  RSN  6 0.3 1.7LRSN                1
 GAP=178        0.59       4.4     4.5  5.2  0.8593E+01  0.8501E+01 -0.1963E+01E
 Epicentro: VILLANUEVA - SANTANDER                                             3
 ACTION:UPD 12-07-13 16:19 OP:ep   STATUS:               ID:20111229081239 L   I
 2011-12-29-0810-00M.COL___187                                                 6
 STAT SP IPHASW D HRMM SECON CODA AMPLIT PERI AZIMU VELO AIN AR TRES W  DIS CAZ7
 BAR2 SZ EP   1    812 59.70                             174    0.08 7 15.4 184 
 BAR2 SZ ES        813 15.15                             174   -0.1810 15.4 184 
 BAR2 SZ I         813 16.40         8.9 0.30                          15.4 184 
 GIR2 SZ EP   1    812 59.50                             165   -0.50 7 38.5 356 
 GIR2 SZ ES   1    813 15.99                             165    0.00 7 38.5 356 
 BRR  HZ EP   1    813  1.52                             153    0.23 7 72.7 305 
 BRR  HZ I         813  1.80        13.0 0.17                          72.7 305 
 BRR  HE ES   1    813 18.73                             153    0.43 7 72.7 305 
 RUS  HN ES        813 21.95                             147    0.1510 93.2 174 
 RUS  HZ I         813 23.51         4.9 0.41                          93.2 174 
 PTB  HZ EP   1    813  6.36                             134   -0.16 7  144 262 
 PTB  HN ES   1    813 27.39                             134   -0.22 7  144 262 
 ZAR  HZ EP   1    813 12.78                             123    0.47 6  204 294 
 ZAR  HE ES        813 37.78                             123   -0.14 9  204 294 
 ZAR  HZ I         813 44.73         6.8 0.27                           204 294 
                                                                                
