 2012  229 0622 23.1 L   6.776 -73.130142.4  RSN  5 0.3 1.3LRSN                1
 GAP=140        0.69       4.8     5.0  7.5 -0.2958E+01  0.6645E+01  0.2818E+01E
 ACTION:UP  12-03-07 16:35 OP:epov STATUS:               ID:20120229062223 L   I
 2012-02-29-0620-00M.COL___191                                                 6
 STAT SP IPHASW D HRMM SECON CODA AMPLIT PERI AZIMU VELO AIN AR TRES W  DIS CAZ7
 BAR2 SZ EP   2    622 42.18                             171   -0.11 5 21.1 196 
 BAR2 SZ I         622 58.57         5.3 0.24                          21.1 196 
 BRR  HZ EP        622 44.41                             151    0.3510 74.0 300 
 BRR  HN ES   1    623  0.67                             151    0.28 7 74.0 300 
 BRR  HZ I         623  2.25         5.5 0.19                          74.0 300 
 PAM  SZ EP        622 45.24                             150    0.2110 78.4  37 
 PAM  SN ES   1    623  1.57                             150   -0.56 7 78.4  37 
 RUS  HZ EP   1    622 46.23                             144   -0.10 7 97.8 177 
 RUS  HN ES   1    623  4.61                             144    0.16 7 97.8 177 
 RUS  HZ I         623  7.01         1.8 0.28                          97.8 177 
 PTB  HZ EP        622 49.53                             131   -0.38 9  149 260 
 PTB  HN ES   2    623 10.47                             131   -0.35 5  149 260 
                                                                                
