 2013  929 0737 41.3 L   6.792 -73.161146.7  RSN  6 0.5 1.3LRSN                1
 GAP=235        1.28       6.5     8.1  9.3  0.1070E+02  0.1018E+02  0.1139E+02E
 Epicentro: LOS SANTOS - SANTANDER                                             3
 ACTION:UPD 13-10-22 09:25 OP:ep   STATUS:               ID:20130929073741 L   I
 OLDACT:REG 13-09-29 09:14 OP:stll STATUS:               ID:20130929072837     3
 2013-09-29-0728-37M.COL___237                                                 6
 STAT SP IPHASW D HRMM SECON CODA AMPLIT PERI AZIMU VELO AIN AR TRES W  DIS CAZ7
 BAR2 SZ EP        738  1.11                             171    0.1210 22.3 186 
 BAR2 SZ ES        738 15.70                             171   -0.6710 22.3 186 
 BAR2 SZ I         738 16.97         5.6 0.32            167           22.3 186 
 BRR  HZ EP        738  2.79                             153    0.3310 70.1 300 
 BRR  HN ES        738 19.76                             153    0.7710 70.1 300 
 BRR  HZ I         738 24.30         3.6 0.44            151           70.1 300 
 RUS  HZ EP        738  4.80                             144   -0.2610 99.9 175 
 RUS  HN ES        738 23.70                             144    0.0810 99.9 175 
 RUS  HZ I         738 25.53         2.4 0.16            145           99.9 175 
 PTB  HZ EP        738  7.40                             133   -0.75 9  146 259 
 PTB  HN ES        738 28.43                             133   -0.68 9  146 259 
 SPBC HZ EP        738 10.12                             130    0.45 9  161 219 
 SPBC HN ES        738 32.33                             130    0.50 9  161 219 
 SPBC HZ I         738 40.78         2.2 0.40            129            161 219 
 CHI  HN ES        738 48.36                             117    0.14 8  247 195 
                                                                                
