 2015  829 0755  2.6 L   6.303 -73.572114.7  RSN  6 0.3 1.5LRSN                1
 GAP=164        0.79       3.5     4.3  5.9 -0.9824E+01  0.1028E+02 -0.5233E+01E
 Epicentro: SANTA HELENA DEL OPON - SANTANDER                                  3
 ACTION:UPD 15-09-15 23:06 OP:cam  STATUS:               ID:20150829075502 L   I
 OLDACT:UP  15-09-01 11:28 OP:ar   STATUS:               ID:20150829075502 L   3
 OLDACT:UP  15-08-29 15:26 OP:ak   STATUS:               ID:20150829074747     3
 OLDACT:REG 15-08-29 13:53 OP:ak   STATUS:               ID:20150829074747     3
 2015-08-29-0747-47M.COL___352                                                 6
 STAT SP IPHASW D HRMM SECON CODA AMPLIT PERI AZIMU VELO AIN AR TRES W  DIS CAZ7
 BAR2 EZ EP        755 19.97                             153    0.2310 53.7  53 
 BAR2 EZ ES        755 33.01                             153   -0.1110 53.7  53 
 BAR2 EZ I         755 34.61        10.9 0.36            157           53.7  53 
 BRR  HZ EP        755 21.62                             139   -0.2810 90.3 350 
 BRR  HN ES        755 37.09                             139    0.1310 90.3 350 
 SPBC HZ EP        755 21.98                             139   -0.0910 90.8 218 
 SPBC HN ES        755 37.15                             139   -0.1210 90.8 218 
 SPBC HZ I         755 44.41         4.3 0.09            141           90.8 218 
 NOR  HZ EP        755 28.94                             120   -0.14 9  165 240 
 NOR  HN ES        755 50.23                             120    0.48 9  165 240 
 NOR  HZ I         755 52.10         3.6 0.30            123            165 240 
 OCA  HZ EP        755 34.35                             113   -0.37 8  216   7 
 OCA  HN ES        756  0.10                             113    0.31 8  216   7 
 OCA  HZ I         756  4.42         3.8 0.21            117            216   7 
 HEL  HZ EP        755 35.66                             113    0.55 8  217 267 
 HEL  HN ES        755 59.92                             113   -0.56 8  217 267 
                                                                                
