 2010  529 0926 58.7 L   6.802 -73.176132.0  RSN  8 0.4 1.9LRSN                1
 GAP=163        0.92       4.0     6.7  7.5 -0.1671E+02  0.2013E+02 -0.4976E+01E
 Epicentro: LOS SANTOS - SANTANDER                                             3
 ACTION:UP  10-08-24 10:07 OP:vdl  STATUS:               ID:20100529092658 L   I
 2010-05-29-0922-32S.COL___109                                                 6
 STAT SP IPHASW D HRMM SECON CODA AMPLIT PERI AZIMU VELO SNR AR TRES W  DIS CAZ7
 BAR2 SZ IP        927 16.73                             169     0.010   23 182 
 BAR2 SZ ES        927 30.68                             169    -0.110   23 182 
 GUE  SZ EP        927 22.12                             136    -0.110  117  14 
 GUE  SZ ES   1    927 41.30                             136     0.7 7  117  14 
 GRA  SZ EP        927 22.77                             133    -0.110  127  19 
 GRA  SZ ES        927 41.84                             133     0.210  127  19 
 OCA  SZ EP        927 25.52                             126    -0.4 9  160 354 
 OCA  SZ ES        927 46.97                             126    -0.2 9  160 354 
 OCA  SZ I         927 49.83        12.5 0.63                           160 354 
 CHI  HN ES   1    928  4.24                             114    -0.2 6  248 194 
 CHI  HZ I         928  8.42         4.5 0.09                           248 194 
 HEL  HN ES        928  8.72                             112     0.2 8  269 256 
 HEL  HZ I         928 15.53         5.0 0.20                           269 256 
 RREF BN ES        928 19.02                             108    -0.4 7  319 229 
 RREF BZ I         928 25.09         4.1 1.02                           319 229 
 TOL  SZ EP   1    927 47.52                             107     1.3 5  341 224 
                                                                                
