 2015  929 0901  6.1 L   6.757 -73.185144.9  RSN  7 0.5 1.3LRSN                1
 GAP=197        1.18       5.9     6.9  8.6  0.8816E+01  0.1034E+02 -0.1197E+02E
 Epicentro: LOS SANTOS - SANTANDER                                             3
 ACTION:UPD 15-10-28 16:29 OP:cam  STATUS:               ID:20150929090106 L   I
 OLDACT:REG 15-09-29 12:55 OP:spq  STATUS:               ID:20150929085748     3
 2015-09-29-0857-48M.COL___352                                                 6
 STAT SP IPHASW D HRMM SECON CODA AMPLIT PERI AZIMU VELO AIN AR TRES W  DIS CAZ7
 BAR2 EZ EP        9 1 25.52                             172   -0.0310 18.2 179 
 BAR2 EZ ES        9 1 40.52                             172   -0.1910 18.2 179 
 BAR2 EZ I         9 1 41.32         4.5 0.12            171           18.2 179 
 BRR  HZ EP        9 1 27.63                             153    0.5210 69.9 304 
 BRR  HE ES        9 1 44.09                             153    0.6210 69.9 304 
 BRR  HZ I         9 1 47.60         3.2 0.38            141           69.9 304 
 RUS  HN ES        9 1 47.41                             145   -0.2810 96.2 173 
 RUS  HZ I         9 1 49.51         3.2 0.36            138           96.2 173 
 PTB  HZ EP        9 1 32.63                             133    0.08 9  143 260 
 PTB  HN ES        9 1 52.32                             133   -0.85 9  143 260 
 PTB  HZ I         9 1 56.94         1.6 0.50            124            143 260 
 SPBC HZ EP   1    9 1 34.66                             130    0.72 7  157 219 
 SPBC HN ES        9 1 55.83                             130    0.18 9  157 219 
 SPBC HZ I         9 1 58.77         3.0 0.34            123            157 219 
 ZAR  HE ES        9 2  3.48                             122    0.10 9  202 294 
 ZAR  HZ I         9 2 10.49         1.6 0.20            112            202 294 
 SML  HZ EP        9 1 42.16                             117   -0.82 8  246 337 
 SML  HZ I         9 2 16.02         2.3 0.10            107            246 337 
                                                                                
