 2011  529 0417  2.2 L   6.734 -73.142148.3  RSN  7 0.3 1.6LRSN                1
 GAP=140        0.73       5.7     7.0  7.6 -0.2314E+02  0.1558E+02 -0.1872E+02E
 Epicentro: JORDAN - SANTANDER                                                 3
 ACTION:UP  11-06-29 08:57 OP:tino STATUS:               ID:20110529041702 L   I
 2011-05-29-0414-50S.COL___113                                                 6
 STAT SP IPHASW D HRMM SECON CODA AMPLIT PERI AZIMU VELO SNR AR TRES W  DIS CAZ7
 BAR2 SZ EP   1    417 22.17                             173     0.2 8   16 196 
 BAR2 SZ ES   1    417 37.22                             173    -0.2 8   16 196 
 BAR2 SZ I         417 39.52         8.6 0.26                            16 196 
 BRR  HZ EP   1    417 24.16                             152     0.3 8   75 303 
 BRR  HZ I         417 24.54        12.0 0.10                            75 303 
 BRR  HN ES   2    417 41.16                             152     0.5 5   75 303 
 PAM  SZ EP   1    417 25.18                             149     0.2 8   83  36 
 PAM  SZ I         417 25.41         3.6 0.17                            83  36 
 PAM  SN ES   1    417 42.48                             149    -0.3 8   83  36 
 RUS  HN ES   1    417 44.19                             146     0.2 8   93 176 
 BRI  SZ EP        417 26.92                             140     0.110  115  19 
 GRA  SZ EP   1    417 27.71                             136    -0.5 7  133  16 
 GRA  SZ I         417 29.60         6.5 0.21                           133  16 
 NOR  SN ES   1    418  4.78                             119    -0.5 6  231 236 
                                                                                
