 2011  829 0314 55.3 L   6.704 -73.127148.3  RSN  4 0.3 1.4LRSN                1
 GAP=187        0.66       6.8    13.4  7.0  0.5680E+02 -0.7854E+01  0.4581E+00E
 Epicentro: JORDAN - SANTANDER                                                 3
 ACTION:UPD 12-07-13 15:54 OP:ep   STATUS:               ID:20110829031455 L   I
 2011-08-29-0313-36S.COL___161                                                 6
 STAT SP IPHASW D HRMM SECON CODA AMPLIT PERI AZIMU VELO AIN AR TRES W  DIS CAZ7
 BAR2 SZ EP   1    315 14.79                             174   -0.25 7 13.8 206 
 BAR2 SZ I         315 26.35         8.6 0.57                          13.8 206 
 BAR2 SZ ES   1    315 30.21                             174   -0.27 7 13.8 206 
 GIR2 SZ EP   1    315 15.48                             163   -0.08 7 42.1 350 
 GIR2 SZ ES   1    315 31.67                             163    0.27 7 42.1 350 
 BRR  HZ EP   1    315 16.73                             151   -0.37 7 78.5 305 
 BRR  HZ I         315 16.98         7.1 0.14                          78.5 305 
 BRR  HE ES   1    315 34.38                             151    0.24 7 78.5 305 
 RUS  HZ EP   1    315 19.13                             147    0.61 7 89.9 177 
 RUS  HE ES   1    315 36.53                             147   -0.14 7 89.9 177 
 RUS  HZ I         315 38.67         1.3 0.30                          89.9 177 
                                                                                
