 2017 1029 0754 20.6 L   6.777 -73.150146.2  RSN  5 0.4 0.9LRSN                1
 GAP=137        0.95       4.6     4.8  8.3 -0.5700E+01  0.2778E+01  0.3834E+01E
 Epicentro: LOS SANTOS - SANTANDER                                             3
 ACTION:UPD 17-11-07 19:38 OP:rebc STATUS:               ID:20171029075420 L   I
 OLDACT:UP  17-10-29 16:37 OP:edw  STATUS:               ID:20171029074737d    3
 OLDACT:DUP 17-10-29 16:34 OP:edw  STATUS:               ID:20171029074737d    3
 OLDACT:REG 17-10-29 13:37 OP:dhb  STATUS:               ID:20171029074736     3
 2017-10-29-0748-00M.COL___399                                                 6
 STAT SP IPHASW D HRMM SECON CODA AMPLIT PERI AZIMU VELO AIN AR TRES W  DIS CAZ7
 BRR  HZ EP        754 41.59                             152   -0.2310 72.1 300 
 BRR  HN ES        754 58.68                             152    0.2810 72.1 300 
 BRR  HZ I         755  3.13         2.4 0.38            153           72.1 300 
 PAM  EZ EP        754 43.06                             150    0.0810 79.7  39 
 PAM  EN ES        755  0.53                             150    0.0810 79.7  39 
 PAM  EZ I         755  2.16         1.6 0.56            153           79.7  39 
 RUS  HZ EP        754 44.19                             145   -0.0010 98.1 176 
 RUS  HN ES        755  2.21                             145   -0.4010 98.1 176 
 RUS  HZ I         755  4.27         1.3 0.32            149           98.1 176 
 PTB  HZ EP        754 47.61                             132    0.11 9  147 260 
 PTB  HN ES        755  7.88                             132   -0.61 9  147 260 
 PTB  HZ I         755 10.34         0.6 0.32            135            147 260 
 SPBC HE ES        755 11.73                             130    0.75 9  161 219 
                                                                                
