 2012  129 0622 42.0 L   6.782 -73.152147.3  RSN  6 0.4 1.3LRSN                1
 GAP=137        0.65       6.3     5.3  9.2 -0.8201E+01 -0.1482E+01  0.1004E+02E
 Epicentro: LOS SANTOS - SANTANDER                                             3
 ACTION:UP  12-02-03 08:21 OP:REBC STATUS:               ID:20120129062242 L   I
 2012-01-29-0620-00M.COL___188                                                 6
 STAT SP IPHASW D HRMM SECON CODA AMPLIT PERI AZIMU VELO SNR AR TRES W  DIS CAZ7
 GIR2 SZ EP   2    623  2.20                             167     0.3 5   33 352 
 BRR  HZ EP   1    623  3.60                             153     0.3 7   72 300 
 BRR  HZ I         623 20.10         4.8 0.41                            72 300 
 BRR  HE ES   2    623 20.74                             153     0.8 5   72 300 
 PAM  SZ EP   1    623  4.23                             150    -0.3 7   79  39 
 PAM  SE ES   2    623 21.69                             150    -0.3 5   79  39 
 RUS  HZ EP   2    623  5.98                             145     0.2 5   99 176 
 RUS  HE ES   2    623 24.26                             145     0.0 5   99 176 
 RUS  HZ I         623 25.67         2.0 0.25                            99 176 
 PTB  HZ EP   1    623  8.88                             133    -0.1 7  147 260 
 PTB  HN ES   1    623 29.60                             133    -0.5 7  147 260 
 CHI  HZ EP   2    623 19.89                             118     0.3 4  247 195 
 CHI  HZ I         623 54.51         1.2 0.38                           247 195 
                                                                                
