 2013  829 0404 28.2 L   6.769 -73.168147.2  RSN  6 0.5 1.4LRSN                1
 GAP=180        1.09       5.8     8.1 10.0  0.5050E+01  0.1676E+02 -0.1089E+02E
 Epicentro: LOS SANTOS - SANTANDER                                             3
 ACTION:UPD 14-01-14 09:08 OP:ep   STATUS:               ID:20130829040428 L   I
 OLDACT:DUP 13-08-29 10:05 OP:jn   STATUS:               ID:20130829035852d    3
 2013-08-29-0358-51M.COL___212                                                 6
 STAT SP IPHASW D HRMM SECON CODA AMPLIT PERI AZIMU VELO AIN AR TRES W  DIS CAZ7
 BAR2 SZ EP        4 4 48.14                             172    0.1610 19.6 185 
 BAR2 SZ ES        4 5  3.29                             172   -0.0810 19.6 185 
 BAR2 SZ I         4 5  5.92         5.6 0.28            178           19.6 185 
 BRR  HZ EP   1    4 4 49.53                             153    0.01 7 70.8 302 
 BRR  HN ES        4 5  6.89                             153    0.7610 70.8 302 
 BRR  HZ I         4 5 11.09         5.4 0.14            153           70.8 302 
 RUS  HN ES   1    4 5  9.90                             145   -0.47 7 97.3 174 
 RUS  HZ I         4 5 12.22         3.3 0.28            153           97.3 174 
 PTB  HZ EP        4 4 55.50                             133    0.45 9  145 260 
 PTB  HN ES        4 5 15.29                             133   -0.67 9  145 260 
 PTB  HZ I         4 5 17.63         2.3 0.10            138            145 260 
 OCA  HN ES   1    4 5 18.99                             129   -0.37 7  163 354 
 OCA  HZ I         4 5 30.16         3.3 0.12            129            163 354 
 SML  HE ES   1    4 5 33.37                             118   -0.62 6  246 336 
                                                                                
