 2014 1129 0747 30.7 L   6.810 -73.186137.0  RSN  8 0.4 1.4LRSN                1
 GAP=234        0.92       4.1     4.7  6.1  0.6553E+01  0.8022E+01  0.7140E+01E
 Epicentro: ZAPATOCA - SANTANDER                                               3
 ACTION:UPD 14-12-19 15:48 OP:nd   STATUS:               ID:20141129074730 L   I
 OLDACT:DUP 14-11-29 18:39 OP:fm   STATUS:               ID:20141129073745d    3
 2014-11-29-0737-43M.COL___303                                                 6
 STAT SP IPHASW D HRMM SECON CODA AMPLIT PERI AZIMU VELO AIN AR TRES W  DIS CAZ7
 BAR2 SZ EP        747 49.20                             170   -0.0610 24.1 179 
 BAR2 SZ ES        748  3.67                             170   -0.0910 24.1 179 
 BAR2 SZ I         748  7.02         5.4 0.32            168           24.1 179 
 BRR  HZ EP        747 51.12                             152    0.5110 66.7 300 
 BRR  HN ES        748  6.71                             152    0.5410 66.7 300 
 BRR  HZ I         748 12.00         7.2 0.16            152           66.7 300 
 RUS  HZ EP        747 53.85                             142    0.1710  102 174 
 RUS  HN ES        748 11.11                             142   -0.5210  102 174 
 RUS  HZ I         748 13.51         2.9 0.30            144            102 174 
 PTB  HZ EP        747 56.04                             131   -0.50 9  144 258 
 PTB  HN ES        748 16.50                             131   -0.22 9  144 258 
 PTB  HZ I         748 19.53         4.0 0.14            132            144 258 
 SPBC HN ES        748 20.22                             127    0.33 9  161 217 
 SPBC HZ I         748 25.42         4.8 0.78            129            161 217 
 ZAR  HE ES        748 25.94                             121   -0.63 9  199 292 
 ZAR  HZ I         748 33.79         4.4 0.26            123            199 292 
 CHI  HZ EP        748  7.77                             115   -0.11 8  249 194 
 CHI  HN ES        748 37.04                             115    0.12 8  249 194 
 CHI  HZ I         748 42.66         1.1 0.54            118            249 194 
 GUY2CHZ EP        748 13.68                             111    0.15 7  298 234 
 GUY2CHN ES        748 47.33                             111    0.35 7  298 234 
 GUY2CHZ I         748 56.30         1.0 0.38                           298 234 
                                                                                
