 2010 1129 0524 11.3 L   6.777 -73.130147.9  RSN  7 0.4 1.6LRSN                1
 GAP=166        0.85       4.6    12.9 12.6  0.2838E+01 -0.8490E+02 -0.3043E+01E
 Epicentro: LOS SANTOS - SANTANDER                                             3
 ACTION:UP  10-12-17 16:55 OP:REBC STATUS:               ID:20101129052411 L   I
 2010-11-29-0523-00S.COL___129                                                 6
 STAT SP IPHASW D HRMM SECON CODA AMPLIT PERI AZIMU VELO SNR AR TRES W  DIS CAZ7
 BAR2 SZ EP        524 30.89                             171    -0.210   21 196 
 BAR2 SZ I         524 31.06         8.3 0.23                            21 196 
 GIR2 SZ EP   3    524 31.96                             166     0.7 2   34 348 
 BRR  HZ EP        524 32.71                             152    -0.110   74 300 
 BRR  HN ES   1    524 49.62                             152     0.0 7   74 300 
 BRR  HZ I         524 53.86         8.4 0.25                            74 300 
 RUS  HZ EP        524 34.75                             145    -0.310   98 177 
 RUS  HZ I         524 35.61         4.1 0.30                            98 177 
 RUS  HE ES   2    524 53.72                             145     0.1 5   98 177 
 GUE  SZ EP        524 36.90                             139     0.510  119  11 
 OCA  SZ EP   1    524 39.65                             129    -0.4 7  163 353 
 OCA  SZ I         525  4.39         6.0 0.00                           163 353 
 CHI  HZ EP   2    524 49.20                             118     0.3 4  247 196 
 CHI  HE ES   1    525 18.77                             118     0.5 6  247 196 
 CHI  HZ I         525 24.61         1.9 0.50                           247 196 
                                                                                
