 2010  329 0238 15.6 L   6.731 -72.953134.5  RSN  4 0.4 1.7LRSN                1
 GAP=252        0.89      10.1    17.8 11.2  0.8908E+02 -0.2776E+02 -0.1853E+01E
 Epicentro: CEPITA - SANTANDER                                                 3
 ACTION:UP  10-08-24 09:56 OP:vdl  STATUS:               ID:20100329023815 L   I
 2010-03-29-0236-45S.COL___098                                                 6
 STAT SP IPHASW D HRMM SECON CODA AMPLIT PERI AZIMU VELO SNR AR TRES W  DIS CAZ7
 BAR2 SZ IP        238 34.55                             168     0.510   30 239 
 BAR2 SZ ES   1    238 48.12                             168    -0.3 7   30 239 
 BRR  HZ IP        238 36.55                             144    -0.510   94 296 
 BRR  HZ I         238 36.81         9.5 0.12                            94 296 
 BRR  HN ES   1    238 54.15                             144     0.4 7   94 296 
 RUS  HN ES   3    238 54.46                             144    -0.6 2   94 189 
 CHI  HZ EP   3    238 51.95                             115    -0.7 2  248 200 
 CHI  HN ES   2    239 21.61                             115     0.1 4  248 200 
                                                                                
