 2014  829 0829 43.5 L   6.714 -73.156137.6  RSN  6 0.5 1.5LRSN                1
 GAP= 91        1.33       8.1     6.2  9.5 -0.2294E+02 -0.1014E+02  0.2538E+02E
 Epicentro: VILLANUEVA - SANTANDER                                             3
 ACTION:UPD 14-09-15 21:54 OP:nd   STATUS:               ID:20140829082943 L   I
 OLDACT:REG 14-08-29 13:46 OP:fm   STATUS:               ID:20140829082820     3
 2014-08-29-0828-20M.COL___275                                                 6
 STAT SP IPHASW D HRMM SECON CODA AMPLIT PERI AZIMU VELO AIN AR TRES W  DIS CAZ7
 BAR2 SZ EP        830  2.14                             174    0.1910 13.7 192 
 BAR2 SZ ES        830 16.90                             174    0.5310 13.7 192 
 BAR2 SZ I         830 19.28         6.1 0.26            170           13.7 192 
 BRR  HZ EP        830  4.21                             150    0.2210 75.3 305 
 BRR  HN ES        830 20.62                             150    0.6310 75.3 305 
 BRR  HZ I         830 25.11         4.6 0.16            152           75.3 305 
 PAM  SZ EP        830  5.27                             147   -0.0810 85.6  36 
 PAM  SZ I         830  5.39         7.8 0.18            153           85.6  36 
 PAM  SE ES        830 21.49                             147   -0.9310 85.6  36 
 PTB  HZ EP        830  9.14                             131   -0.40 9  145 262 
 PTB  HN ES        830 29.63                             131   -0.24 9  145 262 
 PTB  HZ I         830 32.08         3.4 0.58            133            145 262 
 TAM  HZ EP        830 10.70                             129    0.29 9  154 101 
 SPBC HZ EP        830 11.13                             129    0.55 9  155 221 
 SPBC HE ES        830 30.89                             129   -0.84 9  155 221 
 SPBC HZ I         830 39.36         5.2 0.24            130            155 221 
                                                                                
