 2011  929 0941 14.6 L   6.757 -73.094146.5  RSN 12 0.3 1.9LRSN                1
 GAP=145        0.43       2.4     3.0  4.2 -0.8935E+00  0.2061E+01  0.7449E+00E
 Epicentro: LOS SANTOS - SANTANDER                                             3
 ACTION:UPD 12-07-13 16:00 OP:ep   STATUS:               ID:20110929094114 L   I
 2011-09-29-0939-12S.COL___168                                                 6
 STAT SP IPHASW D HRMM SECON CODA AMPLIT PERI AZIMU VELO AIN AR TRES W  DIS CAZ7
 BAR2 SZ IP        941 34.31                             172    0.0610 20.7 208 
 BAR2 SZ I         941 34.68        17.9 0.13                          20.7 208 
 BAR2 SZ ES   2    941 49.58                             172   -0.01 5 20.7 208 
 BTL  SZ EP   2    941 34.56                             169    0.19 5 26.2 313 
 PAM  SZ EP   1    941 37.11                             151    0.21 7 77.8  34 
 PAM  SN ES   2    941 53.82                             151   -0.49 5 77.8  34 
 BRR  HZ EP        941 36.12                             150   -0.1210 78.5 300 
 BRR  HN ES   1    941 53.17                             150    0.04 7 78.5 300 
 BRR  HZ I         941 56.21        28.0 0.49                          78.5 300 
 RUS  HZ EP   1    941 38.33                             145    0.27 7 95.6 179 
 RUS  HN ES   2    941 56.47                             145    0.11 5 95.6 179 
 RUS  HZ I         941 58.38         7.3 0.50                          95.6 179 
 OCA  SZ EP   1    941 43.06                             129   -0.41 7  166 351 
 OCA  SZ ES   2    942  6.63                             129    0.63 5  166 351 
 OCA  SZ I         942  9.13         9.8 0.35                           166 351 
 ZAR  HZ EP   2    941 47.63                             122   -0.18 4  211 293 
 ZAR  HN ES   2    942 13.79                             122    0.06 4  211 293 
 ZAR  HZ I         942 18.24        12.7 0.39                           211 293 
 NOR  SN ES   2    942 18.35                             118   -0.29 4  237 236 
 CHI  HN ES   2    942 20.59                             118   -0.59 4  246 197 
 CHI  HZ I         942 24.97         2.6 0.31                           246 197 
 HEL  HZ EP   2    941 55.40                             115    0.07 4  277 257 
 HEL  HN ES   2    942 27.17                             115    0.07 4  277 257 
 HEL  HZ I         942 32.85         4.9 0.43                           277 257 
 RREF HN ES   2    942 37.19                             111    0.15 3  323 231 
 RREF HZ I         942 44.66         2.5 0.38                           323 231 
 PRA  HZ EP   2    942  8.08                             107    0.10 3  391 211 
                                                                                
