 2014 1029 0350 38.4 L   6.789 -73.173133.9  RSN 14 0.6 1.8LRSN                1
 GAP=134        1.35       3.8     4.9  6.7 -0.5592E+01  0.9945E+01  0.4198E+01E
 Epicentro: LOS SANTOS - SANTANDER                                             3
 ACTION:UPD 14-11-29 23:58 OP:nd   STATUS:               ID:20141029035038 L   I
 OLDACT:ARG 14-10-30 20:24 OP:stll STATUS:               ID:20141029034735     3
 2014-10-29-0347-35M.COL___271                                                 6
 STAT SP IPHASW D HRMM SECON CODA AMPLIT PERI AZIMU VELO AIN AR TRES W  DIS CAZ7
 BAR2 SZ IP     D  350 56.58                             170    0.0610 21.8 183 
 BAR2 SZ I         350 56.68        20.2 0.40            169           21.8 183 
 BAR2 SZ ES        351 11.43                             170    0.7410 21.8 183 
 BRR  HZ IP     C  350 58.47                             151    0.3710 69.1 301 
 BRR  HZ I         350 58.67        15.6 0.24            150           69.1 301 
 BRR  HN ES        351 14.62                             151    1.1210 69.1 301 
 PAM  SZ EP        350 59.54                             147    0.0410 80.3  41 
 PAM  SN ES        351 15.63                             147   -0.3610 80.3  41 
 PAM  SZ I         351 16.92        10.4 0.32            150           80.3  41 
 RUS  HZ EP        351  0.58                             141   -0.3010 99.7 174 
 RUS  HZ I         351  1.28         5.8 0.10            142           99.7 174 
 RUS  HN ES        351 17.90                             141   -0.5510 99.7 174 
 PTB  HZ EP        351  3.27                             130   -0.80 9  145 259 
 PTB  HN ES        351 23.73                             130   -0.40 9  145 259 
 PTB  HZ I         351 26.71         8.7 0.12            129            145 259 
 SPBC HZ EP        351  5.56                             127   -0.13 9  160 218 
 SPBC HN ES        351 26.85                             127   -0.16 9  160 218 
 SPBC HZ I         351 30.18        12.2 0.14            126            160 218 
 OCA  HZ EP        351  5.80                             127   -0.04 9  161 354 
 OCA  HN ES        351 26.42                             127   -0.87 9  161 354 
 CHI  HZ EP        351 15.92                             115    0.72 8  247 195 
 CHI  HN ES        351 43.56                             115   -0.39 8  247 195 
 HEL  HZ EP        351 17.96                             113    0.34 8  269 256 
 HEL  HN ES        351 47.81                             113   -0.43 8  269 256 
 HEL  HZ I         351 54.88         4.0 0.36            112            269 256 
 GUY2CHZ EP        351 20.97                             110   -0.10 7  298 235 
 GUY2CHN ES        351 54.36                             110   -0.03 7  298 235 
 GUY2CHZ I         352  1.84         4.3 0.32                           298 235 
 RREF HZ EP   9    351 22.08                             109   -1.57 0  319 229 
 RREF HN ES        351 56.20                                   -1.21 7  319 229 
 RREF HZ I         352  1.19         3.1 0.64            109            319 229 
 CBOC HZ EP        351 24.65                             108    0.23 7  330 252 
 CBOC HZ I         351 25.83         1.8 0.18            108            330 252 
 CBOC HE ES        352  0.10                             108   -0.25 7  330 252 
 TOL  SZ EP        351 27.53                             107    1.72 7  341 224 
 TOL  SE ES        352  2.98                             107    0.16 7  341 224 
 PRA  HZ EP        351 31.63                             105    0.44 6  389 209 
 PRA  HN ES        352 12.07                             105   -0.33 6  389 209 
 PRA  HZ I         352 20.14         2.1 0.54            105            389 209 
                                                                                
