 2012  929 0641 58.9 L   6.774 -73.123141.5  RSN  9 0.4 2.2LRSN                1
 GAP=141        0.71       4.1     3.9  6.0 -0.5412E+00  0.3576E+01  0.6729E+01E
 Epicentro: LOS SANTOS - SANTANDER                                             3
 ACTION:UPD 12-10-22 14:21 OP:ep   STATUS:               ID:20120929064158 L   I
 2012-09-29-0640-00M.COL___220                                                 6
 STAT SP IPHASW D HRMM SECON CODA AMPLIT PERI AZIMU VELO AIN AR TRES W  DIS CAZ7
 BAR2 SZ EP        642 17.92                             171   -0.0610 21.2 198 
 BAR2 SZ ES   1    642 32.83                             171   -0.03 7 21.2 198 
 BAR2 SZ I         642 36.11        37.6 0.46                          21.2 198 
 GIR2 SZ EP   1    642 17.95                             166   -0.22 7 34.5 347 
 BRR  HZ EP        642 19.73                             151   -0.0810 74.7 300 
 BRR  HN ES   1    642 36.90                             151    0.79 7 74.7 300 
 BRR  HN I         642 39.84        52.2 0.18                          74.7 300 
 BRR  HZ I         642 40.80        27.6 0.12                          74.7 300 
 PAM  SZ EP        642 20.71                             150   -0.0110 78.1  37 
 PAM  SN ES   1    642 37.69                             150   -0.04 7 78.1  37 
 PAM  SN I         642 38.91        43.5 0.46                          78.1  37 
 PAM  SZ I         642 39.96        16.6 0.50                          78.1  37 
 RUS  HZ EP   1    642 21.80                             144   -0.22 7 97.6 177 
 PTB  HN ES   1    642 46.01                             131   -0.60 7  150 260 
 ZAR  HZ EP   1    642 31.74                             121    0.31 6  207 293 
 ZAR  HN ES   1    642 56.31                             121   -0.48 6  207 293 
 ZAR  HZ I         643  1.98        10.7 0.34                           207 293 
 ZAR  HN I         643  3.70        24.4 0.22                           207 293 
 CHI  HZ EP   1    642 36.19                             116    0.05 6  247 196 
 CHI  HN ES   1    643  5.47                             116    0.28 6  247 196 
 CHI  HZ I         643  8.03         3.3 0.36                           247 196 
 HEL  HZ EP   1    642 39.82                             114    0.72 6  274 257 
                                                                                
