 2017 1029 0429 59.4 L   6.778 -73.092144.5  RSN  9 0.4 1.4LRSN                1
 GAP=215        1.01       4.6     4.4  5.8  0.8986E+01  0.4104E+01  0.2472E+01E
 Epicentro: LOS SANTOS - SANTANDER                                             3
 ACTION:UPD 17-11-07 19:38 OP:rebc STATUS:               ID:20171029042959 L   I
 OLDACT:REG 17-10-29 13:22 OP:dhb  STATUS:               ID:20171029042739     3
 2017-10-29-0428-00M.COL___408                                                 6
 STAT SP IPHASW D HRMM SECON CODA AMPLIT PERI AZIMU VELO AIN AR TRES W  DIS CAZ7
 BAR2 EZ EP        430 18.80                             171   -0.0210 22.9 206 
 BAR2 EZ ES        430 33.86                             171   -0.1510 22.9 206 
 BAR2 EZ I         430 35.06        17.0 0.90            168           22.9 206 
 BRR  HZ EP        430 20.00                             150   -0.7310 77.5 298 
 BRR  HE ES        430 37.68                             150    0.2710 77.5 298 
 BRR  HZ I         430 42.16         3.1 0.24            151           77.5 298 
 RUS  HZ EP        430 22.68                             144   -0.1110 98.0 179 
 RUS  HN ES        430 41.05                             144   -0.0210 98.0 179 
 RUS  HZ I         430 42.17         3.4 0.30            145           98.0 179 
 PTB  HZ EP        430 26.26                             131   -0.45 9  153 260 
 PTB  HN ES        430 48.81                             131    0.76 9  153 260 
 PTB  HZ I         430 51.94         2.1 0.14            132            153 260 
 SPBC HZ EP        430 27.73                             128   -0.21 9  165 221 
 SPBC HN ES        430 49.56                             128   -0.68 9  165 221 
 SPBC HZ I         430 57.10         3.4 0.10            129            165 221 
 YPLC HZ EP        430 28.93                             127    0.35 9  172 153 
 YPLC HE ES        430 51.93                             127    0.56 9  172 153 
 YPLC HZ I         430 56.23         2.6 0.28            130            172 153 
 ZAR  HZ EP        430 32.60                             121    0.23 8  210 292 
 ZAR  HN ES        430 58.41                             121    0.28 8  210 292 
 ZAR  HZ I         431  3.84         2.6 0.32            123            210 292 
 NOR  HZ EP        430 35.72                             118    0.34 8  238 236 
 NOR  HE ES        431  3.12                             118   -0.36 8  238 236 
 NOR  HZ I         431  4.69         2.6 0.14            119            238 236 
 GUY2CHZ EP        430 43.36                             112    0.06 7  305 236 
 GUY2CHE ES   2    431 18.56                             112    0.99 4  305 236 
 GUY2CHZ I         431 23.32         1.1 0.28                           305 236 
                                                                                
