 2017  929 0615 27.0 L   6.639 -73.641 99.0  RSN  8 0.4 1.4LRSN                1
 GAP=104        0.98       3.4     3.8  8.3  0.4346E+01  0.1979E+02  0.1309E+02E
 Epicentro: EL CARMEN - SANTANDER                                              3
 ACTION:UPD 17-10-05 19:17 OP:rebc STATUS:               ID:20170929061527 L   I
 OLDACT:UP  17-09-29 17:43 OP:edw  STATUS:               ID:20170929060741d    3
 OLDACT:UP  17-09-29 17:43 OP:edw  STATUS:               ID:20170929060741d    3
 OLDACT:UP  17-09-29 17:41 OP:edw  STATUS:               ID:20170929060741d    3
 OLDACT:DUP 17-09-29 17:39 OP:edw  STATUS:               ID:20170929060741d    3
 2017-09-29-0608-00M.COL___435                                                 6
 STAT SP IPHASW D HRMM SECON CODA AMPLIT PERI AZIMU VELO AIN AR TRES W  DIS CAZ7
 BAR2 EZ EP        615 42.64                             151    0.3110 51.0  96 
 BAR2 EZ ES        615 54.55                             151    0.2910 51.0  96 
 BAR2 EZ I         615 56.11        14.2 0.44            156           51.0  96 
 BRR  HZ EP        615 41.71                             150   -0.3610 52.4 351 
 BRR  HN ES        615 54.04                             150    0.2410 52.4 351 
 BRR  HZ I         615 55.59         6.3 0.44            153           52.4 351 
 RUS  HZ EP        615 46.88                             131    0.1110  103 143 
 RUS  HN ES        616  1.39                             131   -0.7910  103 143 
 RUS  HZ I         616  3.38         2.1 0.44            135            103 143 
 ZAR  HZ EP        615 52.56                             117    0.11 9  164 305 
 ZAR  HN ES        616 12.09                             117   -0.19 9  164 305 
 ZAR  HZ I         616 15.20         6.5 0.46            119            164 305 
 NOR  HZ EP        615 53.84                             115   -0.48 9  181 229 
 NOR  HN ES        616 15.28                             115   -0.33 9  181 229 
 NOR  HZ I         616 18.86         3.5 0.14            116            181 229 
 HEL  HE ES        616 23.56                             111    0.33 8  215 257 
 CHI  HN ES        616 25.73                             110    0.80 8  222 183 
 GUY2CHZ EP        616  2.62                             108    0.14 8  247 231 
 GUY2CHN ES        616 30.19                             108    0.05 8  247 231 
 GUY2CHZ I         616 35.28         2.5 0.34                           247 231 
                                                                                
