 2011  929 0756 32.8 L   7.235 -74.040 26.4  RSN  6 0.3 1.4LRSN                1
 GAP=158        0.56       4.7     2.4  3.3  0.6298E+01  0.2597E+01 -0.8196E+00E
 Epicentro: PUERTO WILCHES - SANTANDER                                         3
 ACTION:UPD 12-07-13 16:00 OP:ep   STATUS:               ID:20110929075632 L   I
 2011-09-29-0755-01S.COL___168                                                 6
 STAT SP IPHASW D HRMM SECON CODA AMPLIT PERI AZIMU VELO AIN AR TRES W  DIS CAZ7
 BRR  HZ IP     C  756 40.03                             116   -0.1810 38.9 111 
 BRR  HZ I         756 40.25        61.5 0.15                          38.9 111 
 BRR  HN ES   1    756 46.16                             116    0.14 7 38.9 111 
 BTL  SZ EP   1    756 47.81                              93   -0.08 7 92.2 112 
 ZAR  HZ EP   1    756 47.79                              61   -0.17 7 94.7 288 
 ZAR  HN ES   1    756 59.91                              61    0.09 7 94.7 288 
 ZAR  HZ I         757  1.40         7.1 0.15                          94.7 288 
 BAR2 SZ EP   1    756 51.86                              61    0.65 7  118 127 
 PAM  SZ EP   1    756 55.29                              61    0.03 7  148  85 
 PAM  SN ES   1    757 12.71                              61   -0.11 7  148  85 
 PAM  SZ I         757 14.00         4.8 0.21                           148  85 
 RUS  HN ES   1    757 20.05                              61   -0.29 7  182 144 
 RUS  HZ I         757 24.44         2.2 0.18                           182 144 
                                                                                
