 2016  329 0336 34.9 L   6.284 -73.141182.2  RSN  4 0.2 1.4LRSN                1
 GAP=179        0.66       6.0     4.6  5.3 -0.7672E+00  0.3546E+01 -0.1422E+01E
 Epicentro: CHARALA - SANTANDER                                                3
 ACTION:UPD 16-05-13 21:28 OP:cam  STATUS:               ID:20160329033634 L   I
 OLDACT:REG 16-03-29 13:01 OP:drio STATUS:               ID:20160329032748     3
 2016-03-29-0327-48M.COL___310                                                 6
 STAT SP IPHASW D HRMM SECON CODA AMPLIT PERI AZIMU VELO AIN AR TRES W  DIS CAZ7
 BAR2 EZ EP        336 58.98                             169   -0.2110 34.4 352 
 BAR2 EZ ES        337 18.26                             169    0.1710 34.4 352 
 BAR2 EZ I         337 18.76         6.2 0.30            171           34.4 352 
 RUS  HZ EP        337  0.06                             166    0.2510 43.7 172 
 RUS  HE ES        337 19.01                             166   -0.2010 43.7 172 
 RUS  HZ I         337 21.05         1.7 0.36            164           43.7 172 
 SPBC HZ EP        337  3.77                             144    0.3310  125 236 
 SPBC HE ES        337 25.53                             144   -0.1310  125 236 
 SPBC HZ I         337 30.17         3.4 0.28            143            125 236 
 PTB  HZ EP        337  4.74                             139   -0.39 9  148 281 
 PTB  HE ES        337 28.83                             139    0.16 9  148 281 
 PTB  HZ I         337 31.93         3.0 0.16            139            148 281 
                                                                                
