 2014  929 0213  3.3 L   6.795 -73.155146.5  RSN 13 0.6 1.8LRSN                1
 GAP= 71        1.47       4.3     5.3  7.0 -0.6416E+01  0.3133E+01  0.3610E+01E
 Epicentro: LOS SANTOS - SANTANDER                                             3
 ACTION:UPD 14-10-03 23:09 OP:nd   STATUS:               ID:20140929021303 L   I
 OLDACT:REG 14-09-29 13:59 OP:stll STATUS:               ID:20140929020821     3
 2014-09-29-0208-21M.COL___298                                                 6
 STAT SP IPHASW D HRMM SECON CODA AMPLIT PERI AZIMU VELO AIN AR TRES W  DIS CAZ7
 BAR2 SZ EP        213 23.40                             171    0.3810 22.6 188 
 BAR2 SZ ES        213 38.15                             171   -0.2410 22.6 188 
 BAR2 SZ I         213 40.05        11.0 0.24            170           22.6 188 
 BRR  HZ EP        213 25.37                             153    0.8610 70.6 299 
 BRR  HN ES        213 41.93                             153    0.8910 70.6 299 
 BRR  HZ I         213 47.56         8.6 0.14            151           70.6 299 
 PAM  SZ EP        213 25.87                             151    0.2010 78.5  40 
 PAM  SN ES        213 42.29                             151   -0.8310 78.5  40 
 PAM  SZ I         213 45.53        10.7 0.48            154           78.5  40 
 RUS  HZ EP        213 27.50                             144    0.4010  100 175 
 RUS  HZ I         213 28.35         3.8 0.14            146            100 175 
 RUS  HN ES        213 45.24                             144   -0.4210  100 175 
 PTB  HZ EP        213 30.39                             132    0.15 9  147 259 
 PTB  HN ES        213 50.59                             132   -0.66 9  147 259 
 PTB  HZ I         213 57.30         8.8 0.56            132            147 259 
 TAM  HZ EP        213 31.59                             131    0.46 9  156 105 
 SPBC HZ EP        213 32.32                             129    0.55 9  162 219 
 SPBC HN ES        213 53.99                             129    0.03 9  162 219 
 SPBC HZ I         213 59.41        11.5 0.40            130            162 219 
 SML  HZ EP        213 39.56                             118   -0.43 8  244 336 
 SML  HN ES        214  8.22                             118   -0.38 8  244 336 
 SML  HZ I         214 11.92        10.4 0.10            119            244 336 
 CHI  HZ EP        213 41.56                             117    0.60 8  248 195 
 CHI  HZ I         213 42.20         2.4 0.46            119            248 195 
 CHI  HN ES        214 10.03                             117   -0.30 8  248 195 
 GUY2CHZ EP        213 46.13                             112   -0.70 7  300 235 
 GUY2CHN ES        214 21.90                             112    1.14 7  300 235 
 GUY2CHZ I         214 30.22         5.6 0.74                           300 235 
 SOCV BZ EP        213 46.00                             112   -0.53 7  302  57 
 RREF HZ EP        213 47.60                             111   -1.76 7  321 229 
 RREF HN ES        214 24.45                             111   -0.82 7  321 229 
 RREF HZ I         214 30.99         3.4 0.48            112            321 229 
 PRA  HZ EP        213 56.80                             107    0.06 6  391 209 
 PRA  HN ES        214 38.10                             107   -0.32 6  391 209 
 PRA  HZ I         214 44.83         3.5 0.62            108            391 209 
                                                                                
