 2017  829 0519  7.4 L   6.634 -73.543 18.8  RSN  5 0.3 1.3LRSN                1
 GAP=116        0.79       1.8     2.6  5.4  0.1407E+01  0.8824E+01  0.1002E+01E
 Epicentro: EL CARMEN - SANTANDER                                              3
 ACTION:UPD 17-09-04 20:26 OP:rebc STATUS:               ID:20170829051907 L   I
 OLDACT:REG 17-08-29 13:03 OP:dani STATUS:               ID:20170829051737     3
 2017-08-29-0518-00M.COL___417                                                 6
 STAT SP IPHASW D HRMM SECON CODA AMPLIT PERI AZIMU VELO AIN AR TRES W  DIS CAZ7
 BAR2 EZ EP     D  519 15.09                             113    0.2910 40.2  97 
 BAR2 EZ ES        519 20.80                             113    0.2410 40.2  97 
 BAR2 EZ I         519 23.52        40.4 0.52            137           40.2  97 
 BRR  HZ EP        519 16.40                             106   -0.3310 55.5 340 
 BRR  HE ES        519 23.94                             106   -0.0610 55.5 340 
 BRR  HZ I         519 25.33        12.7 0.12            120           55.5 340 
 RUS  HZ EP        519 23.44                              99    0.1210 96.5 148 
 RUS  HN ES        519 35.09                              99   -0.6410 96.5 148 
 RUS  HZ I         519 38.27         2.5 0.10             99           96.5 148 
 SPBC HZ EP        519 27.12                              97    0.1910  123 208 
 SPBC HN ES        519 42.34                              97    0.1810  123 208 
 SPBC HZ I         519 45.14        11.7 0.15             94            123 208 
 ZAR  HN ES        519 53.19                              56    0.05 9  174 303 
                                                                                
