 2016  429 0549 41.7 L   6.239 -73.391132.4  RSN  8 0.3 1.4LRSN                1
 GAP=106        0.80       3.1     3.8  6.7 -0.3773E+01  0.5850E+01 -0.5750E+01E
 Epicentro: GUADALUPE - SANTANDER                                              3
 ACTION:UPD 16-05-05 14:25 OP:rebc STATUS:               ID:20160429054941 L   I
 OLDACT:UP  16-04-29 16:10 OP:mh   STATUS:               ID:20160429054748     3
 OLDACT:UP  16-04-29 16:08 OP:mh   STATUS:               ID:20160429054748     3
 OLDACT:REG 16-04-29 12:54 OP:dnl  STATUS:               ID:20160429054748     3
 2016-04-29-0547-48M.COL___310                                                 6
 STAT SP IPHASW D HRMM SECON CODA AMPLIT PERI AZIMU VELO AIN AR TRES W  DIS CAZ7
 BAR2 EZ EP        550  0.65                             160    0.2610 45.4  31 
 BAR2 EZ I         550 16.92         3.0 0.17            158           45.4  31 
 RUS  HZ EP        550  1.03                             158    0.0110 51.2 138 
 RUS  HN ES        550 16.32                             158    0.2010 51.2 138 
 RUS  HZ I         550 17.62         3.0 0.20            157           51.2 138 
 SPBC HN ES        550 20.79                             141    0.3010 99.5 229 
 SPBC HZ I         550 23.83         9.7 0.16            142           99.5 229 
 PTB  HZ EP        550  4.79                             135   -0.4710  122 286 
 PTB  HN ES        550 23.55                             135   -0.1210  122 286 
 PTB  HZ I         550 25.72         3.4 0.12            135            122 286 
 PAM  EN ES        550 27.77                             130   -0.46 9  144  32 
 PAM  EZ I         550 30.83         4.5 0.30            128            144  32 
 CHI  HN ES        550 34.38                             123   -0.36 9  182 192 
 OCA  HZ EP   1    550 16.01                             117    0.70 6  221   2 
 OCA  HN ES   1    550 41.65                             117    0.08 6  221   2 
 GUY2CHZ EP        550 18.66                             115    0.25 8  246 243 
 GUY2CHE ES   4    550 51.26                             115    4.19 0  246 243 
 GUY2CHZ I         550 53.26         1.9 0.30                           246 243 
                                                                                
