 2012  329 0842 23.0 L   6.765 -73.164148.0  RSN  6 0.4 1.9LRSN                1
 GAP=136        1.08       6.8     6.3  9.1  0.2858E+00  0.9025E+01  0.2674E+00E
 ACTION:UP  12-03-31 23:24 OP:EP   STATUS:               ID:20120329084223 L   I
 2012-03-29-0840-00M.COL___196                                                 6
 STAT SP IPHASW D HRMM SECON CODA AMPLIT PERI AZIMU VELO SNR AR TRES W  DIS CAZ7
 BAR2 SZ IP        842 42.82                             172     0.010   19 186 
 BAR2 SZ ES   1    842 57.62                             172    -0.7 7   19 186 
 BAR2 SZ I         842 59.59        13.9 0.26                            19 186 
 BRR  HZ IP     C  842 44.71                             153     0.310   71 302 
 BRR  HZ I         842 44.91        32.5 0.14                            71 302 
 BRR  HE ES   1    843  2.04                             153     0.9 7   71 302 
 PAM  SZ EP        842 45.75                             150     0.010   82  39 
 PAM  SN ES   1    843  3.10                             150    -0.4 7   82  39 
 RUS  HZ EP        842 47.15                             145     0.410   97 175 
 RUS  HN ES   1    843  5.26                             145     0.0 7   97 175 
 RUS  HZ I         843  6.51         7.2 0.36                            97 175 
 PTB  HZ EP        842 49.67                             133    -0.3 9  145 260 
 PTB  HN ES   1    843 10.58                             133    -0.3 7  145 260 
 PTB  HZ I         843 12.70         5.4 0.42                           145 260 
 ZAR  HZ EP   2    842 54.64                             123    -0.9 4  204 293 
 ZAR  HE ES   2    843 20.91                             123    -0.1 4  204 293 
 ZAR  HZ I         843 27.70         9.2 0.30                           204 293 
                                                                                
