 2016 1129 0848 52.8 L   6.750 -73.137149.8  RSN  5 0.4 1.2LRSN                1
 GAP=160        1.10       9.3     5.4  8.0 -0.1018E+02  0.1168E+02 -0.2707E+01E
 Epicentro: LOS SANTOS - SANTANDER                                             3
 ACTION:UPD 17-10-26 21:13 OP:lp   STATUS:               ID:20161129084852 L   I
 OLDACT:REG 16-11-29 13:01 OP:dani STATUS:               ID:20161129084740     3
 2016-11-29-0848-00M.COL___346                                                 6
 STAT SP IPHASW D HRMM SECON CODA AMPLIT PERI AZIMU VELO AIN AR TRES W  DIS CAZ7
 BAR2 EZ EP        849 12.85                             173    0.0710 18.2 196 
 BAR2 EZ ES        849 28.57                             173    0.1710 18.2 196 
 BAR2 EZ I         849 28.83         8.6 0.74            176           18.2 196 
 BRR  HZ EP        849 14.83                             152    0.2810 74.9 302 
 BRR  HN ES        849 31.92                             152    0.3810 74.9 302 
 BRR  HZ I         849 32.93         2.9 0.64            149           74.9 302 
 PAM  EZ EP        849 15.87                             150    0.2410 81.1  37 
 PAM  EN ES        849 32.88                             150   -0.5810 81.1  37 
 PAM  EZ I         849 36.53         1.1 0.62            148           81.1  37 
 PTB  HZ EP        849 20.41                             133    0.35 9  148 261 
 PTB  HN ES        849 40.63                             133   -0.72 9  148 261 
 PTB  HZ I         849 42.12         1.5 0.10            133            148 261 
 ZAR  HZ EP        849 25.07                             123   -0.72 8  207 293 
 ZAR  HN ES        849 51.94                             123    0.40 8  207 293 
 ZAR  HZ I         849 56.87         1.9 0.50            122            207 293 
                                                                                
