 2013  929 0034 59.7 L   6.752 -73.173145.0  RSN  5 0.4 1.1LRSN                1
 GAP=231        1.00       6.1     6.8  8.3  0.1149E+02  0.1065E+02  0.3404E+01E
 Epicentro: VILLANUEVA - SANTANDER                                             3
 ACTION:UPD 13-10-22 09:25 OP:ep   STATUS:               ID:20130929003459 L   I
 OLDACT:DUP 13-09-29 09:44 OP:stll STATUS:               ID:20130929002839d    3
 2013-09-29-0028-37M.COL___244                                                 6
 STAT SP IPHASW D HRMM SECON CODA AMPLIT PERI AZIMU VELO AIN AR TRES W  DIS CAZ7
 BAR2 SZ ES        035 33.65                             173   -0.6610 17.7 183 
 BAR2 SZ I         035 35.22         4.3 0.28            166           17.7 183 
 BRR  HZ EP        035 20.86                             152    0.0710 71.4 303 
 BRR  HN ES        035 37.83                             152    0.6010 71.4 303 
 RUS  HZ EP        035 23.17                             145    0.1410 95.6 174 
 RUS  HN ES        035 41.45                             145    0.2310 95.6 174 
 RUS  HZ I         035 42.64         1.4 0.32            142           95.6 174 
 PTB  HZ EP        035 25.90                             133   -0.36 9  144 261 
 PTB  HN ES        035 46.67                             133   -0.31 9  144 261 
 PTB  HZ I         035 51.96         1.5 0.14            130            144 261 
 SPBC HN ES        035 49.57                             130    0.24 9  157 219 
 SPBC HZ I         035 55.50         2.2 0.12            127            157 219 
                                                                                
