 2013  329 0803  9.1 L   6.802 -73.153146.0  RSN  6 0.5 1.4LRSN                1
 GAP=136        0.93       6.1     5.2  8.1  0.1362E+01  0.8183E+01 -0.4457E+01E
 Epicentro: LOS SANTOS - SANTANDER                                             3
 ACTION:UPD 13-04-09 14:05 OP:ep   STATUS:               ID:20130329080309 L   I
 2013-03-29-0800-00M.COL___245                                                 6
 STAT SP IPHASW D HRMM SECON CODA AMPLIT PERI AZIMU VELO AIN AR TRES W  DIS CAZ7
 BAR2 SZ EP   1    8 3 28.61                             170   -0.12 7 23.4 188 
 BAR2 SZ ES   1    8 3 43.97                             170   -0.10 7 23.4 188 
 BAR2 SZ I         8 3 45.79         7.6 0.22            171           23.4 188 
 BRR  HZ EP   1    8 3 30.06                             153   -0.14 7 70.4 299 
 BRR  HN ES   1    8 3 47.55                             153    0.87 7 70.4 299 
 BRR  HZ I         8 3 47.87         4.3 0.12            152           70.4 299 
 PAM  SZ EP        8 3 31.45                             151    0.1210 77.7  40 
 PAM  SE ES   1    8 3 48.09                             151   -0.60 7 77.7  40 
 PAM  SZ I         8 3 50.45         3.4 0.54            153           77.7  40 
 RUS  HZ EP   1    8 3 33.01                             144    0.14 7  101 176 
 RUS  HN ES   1    8 3 51.81                             144    0.38 7  101 176 
 RUS  HZ I         8 3 53.18         3.6 0.36            146            101 176 
 PTB  HZ EP   1    8 3 35.49                             132   -0.50 7  147 259 
 PTB  HN ES   1    8 3 56.14                             132   -0.85 7  147 259 
 PTB  HZ I         8 3 58.71         3.4 0.40            133            147 259 
 ZAR  HZ EP   1    8 3 42.04                             123    0.59 6  203 292 
 ZAR  HN ES   1    8 4  6.84                             123    0.14 6  203 292 
 ZAR  HZ I         8 4 12.07         2.5 0.18            123            203 292 
                                                                                
