 2013  829 0453 49.4 L   6.997 -73.333126.7  RSN  6 0.5 1.7LRSN                1
 GAP=159        1.18       5.2     6.8 10.4 -0.5377E+01  0.1626E+02 -0.1899E+02E
 Epicentro: BETULIA - SANTANDER                                                3
 ACTION:UPD 14-01-14 09:08 OP:ep   STATUS:               ID:20130829045349 L   I
 OLDACT:REG 13-08-29 08:33 OP:jn   STATUS:               ID:20130829044849     3
 2013-08-29-0448-49M.COL___209                                                 6
 STAT SP IPHASW D HRMM SECON CODA AMPLIT PERI AZIMU VELO AIN AR TRES W  DIS CAZ7
 BRR  HN ES   1    454 21.03                             160    0.23 7 43.6 286 
 BAR2 SZ IP     D  454  8.21                             158    0.6410 47.8 160 
 BAR2 SZ ES        454 21.87                             158    0.1210 47.8 160 
 BAR2 SZ I         454 23.09         8.0 0.20            161           47.8 160 
 PTB  HZ EP        454 13.39                             130   -0.1710  134 248 
 PTB  HN ES        454 31.61                             130   -0.8110  134 248 
 PTB  HZ I         454 32.86         7.2 0.26            131            134 248 
 OCA  HZ EP   1    454 13.69                             130   -0.36 7  137   1 
 OCA  HN ES        454 32.88                             130   -0.42 9  137   1 
 OCA  HZ I         454 34.88         8.3 0.20            131            137   1 
 ZAR  HN ES   1    454 41.16                             122    1.19 7  177 288 
 ZAR  HZ I         454 44.94         7.6 0.26            122            177 288 
 SML  HZ EP   1    454 21.73                             116   -0.15 6  215 338 
 SML  HN ES   1    454 47.45                             116    0.22 6  215 338 
                                                                                
