 2014 1029 0046 19.4 L   6.802 -73.152131.2  RSN  5 0.5 1.3LRSN                1
 GAP=136        1.24       6.2     6.0  9.1 -0.3297E+01  0.8040E+01  0.3204E+01E
 Epicentro: LOS SANTOS - SANTANDER                                             3
 ACTION:UPD 14-11-29 23:58 OP:nd   STATUS:               ID:20141029004619 L   I
 OLDACT:ARG 14-10-30 20:24 OP:stll STATUS:               ID:20141029003742     3
 2014-10-29-0037-42M.COL___271                                                 6
 STAT SP IPHASW D HRMM SECON CODA AMPLIT PERI AZIMU VELO AIN AR TRES W  DIS CAZ7
 BAR2 SZ EP        046 37.58                             169    0.2710 23.4 188 
 BAR2 SZ ES        046 51.61                             169    0.3510 23.4 188 
 BAR2 SZ I         046 53.90         6.0 0.18            169           23.4 188 
 BRR  HZ EP        046 39.38                             150    0.4010 70.5 299 
 BRR  HN ES        046 54.79                             150    0.5610 70.5 299 
 BRR  HZ I         046 57.36         6.3 0.66            151           70.5 299 
 PAM  SZ EP        046 40.40                             148    0.2610 77.7  40 
 PAM  SZ I         046 40.64         5.2 0.22            151           77.7  40 
 PAM  SN ES        046 55.42                             148   -0.8710 77.7  40 
 RUS  HZ EP        046 42.04                             140    0.2510  101 176 
 RUS  HE ES        046 58.98                             140   -0.2610  101 176 
 RUS  HZ I         047  1.32         2.7 0.28            142            101 176 
 PTB  HZ EP        046 44.69                             129   -0.49 9  147 259 
 PTB  HE ES        047  4.65                             129   -0.62 9  147 259 
 PTB  HZ I         047  7.85         2.2 0.14            130            147 259 
                                                                                
