 2016  629 0028  6.3 L   6.767 -73.144146.5  RSN  5 0.2 1.2LRSN                1
 GAP=138        0.49       2.6     2.6  3.6 -0.6331E+00  0.1120E+01  0.3708E+00E
 Epicentro: LOS SANTOS - SANTANDER                                             3
 ACTION:UPD 16-07-21 22:23 OP:rebc STATUS:               ID:20160629002806 L   I
 OLDACT:REG 16-06-29 12:31 OP:edw  STATUS:               ID:20160629002745     3
 2016-06-29-0027-45M.COL___343                                                 6
 STAT SP IPHASW D HRMM SECON CODA AMPLIT PERI AZIMU VELO AIN AR TRES W  DIS CAZ7
 BAR2 EZ EP        028 25.81                             172   -0.1310 19.8 192 
 BAR2 EZ ES        028 41.39                             172    0.1210 19.8 192 
 BAR2 EZ I         028 42.47         2.7 0.04                          19.8 192 
 BRR  HZ EP        028 27.74                             152    0.1110 73.1 301 
 BRR  HE ES        028 44.53                             152    0.2610 73.1 301 
 PAM  EZ EP        028 28.80                             150    0.0510 80.1  38 
 PAM  EN ES        028 46.03                             150   -0.2410 80.1  38 
 PAM  EZ I         028 47.87         4.6 0.50                          80.1  38 
 RUS  HZ EP        028 29.93                             145    0.0810 96.9 176 
 RUS  HN ES        028 48.23                             145   -0.0010 96.9 176 
 RUS  HZ I         028 49.41         2.3 0.38                          96.9 176 
 PTB  HZ EP        028 33.32                             132    0.05 9  147 260 
 PTB  HN ES        028 53.98                             132   -0.33 9  147 260 
 PTB  HZ I         028 55.85         2.7 0.14                           147 260 
 NOR  HZ EP   4    028 16.43                             119   -25.4 0  233 235 
 NOR  HE ES   4    028 30.20                             119   -39.4 0  233 235 
                                                                                
