 2014  729 0604 15.2 L   6.831 -73.164148.3  RSN  4 0.5 1.6LRSN                1
 GAP=253        1.07       8.7     8.4  9.9  0.9569E+01  0.2376E+02 -0.1031E+02E
 Epicentro: LOS SANTOS - SANTANDER                                             3
 ACTION:UPD 15-03-16 20:47 OP:nd   STATUS:               ID:20140729060415 L   I
 OLDACT:REG 14-07-29 13:20 OP:mh   STATUS:               ID:20140729060000     3
 2014-07-29-0600-00M.COL___282                                                 6
 STAT SP IPHASW D HRMM SECON CODA AMPLIT PERI AZIMU VELO AIN AR TRES W  DIS CAZ7
 BAR2 SZ EP   1    6 4 35.63                             169    0.39 7 26.5 184 
 BAR2 SZ ES        6 4 50.72                             169   -0.1110 26.5 184 
 BAR2 SZ I         6 4 53.12         7.1 0.28            166           26.5 184 
 PTB  HZ EP        6 4 41.40                             133   -0.90 9  147 257 
 PTB  HN ES        6 5  3.09                             133   -0.32 9  147 257 
 PTB  HZ I         6 5  9.37         4.7 0.20            131            147 257 
 SPBC HZ EP        6 4 44.35                             129    0.28 9  165 218 
 SPBC HN ES        6 5  6.91                             129    0.36 9  165 218 
 SPBC HZ I         6 5 11.93         6.2 0.28            130            165 218 
 ZAR  HZ EP   1    6 4 47.93                             123    0.40 6  201 291 
 ZAR  HN ES   1    6 5 13.36                             123    0.64 6  201 291 
 ZAR  HZ I         6 5 22.48         3.0 0.11            123            201 291 
                                                                                
