 2015 1029 0833 57.6 L   6.742 -73.432112.1  RSN  5 0.3 1.3LRSN                1
 GAP=140        0.77       4.9     5.2  6.2  0.1711E+02  0.1201E+02  0.5438E+01E
 Epicentro: EL CARMEN - SANTANDER                                              3
 ACTION:UPD 15-12-22 20:43 OP:cam  STATUS:               ID:20151029083357 L   I
 OLDACT:UP  15-10-29 19:03 OP:mh   STATUS:               ID:20151029082748     3
 OLDACT:UP  15-10-29 18:08 OP:mh   STATUS:               ID:20151029082748     3
 OLDACT:UP  15-10-29 17:10 OP:mh   STATUS:               ID:20151029082748     3
 OLDACT:REG 15-10-29 12:58 OP:cara STATUS:               ID:20151029082748     3
 2015-10-29-0827-48M.COL___313                                                 6
 STAT SP IPHASW D HRMM SECON CODA AMPLIT PERI AZIMU VELO AIN AR TRES W  DIS CAZ7
 BAR2 EZ EP   1    834 13.86                             163    0.40 7 32.2 121 
 BAR2 EZ ES        834 25.65                             163   -0.2010 32.2 121 
 BAR2 EZ I         834 26.30        13.4 0.56            161           32.2 121 
 BRR  HZ EP   1    834 13.87                             154   -0.08 7 50.9 322 
 BRR  HN ES        834 26.55                             154   -0.1710 50.9 322 
 BRR  HZ I         834 26.86        13.5 0.12            152           50.9 322 
 RUS  HZ EP        834 18.36                             135    0.0710  102 158 
 RUS  HN ES        834 34.52                             135    0.0810  102 158 
 RUS  HZ I         834 35.81         2.0 0.30            135            102 158 
 PAM  EZ EP   2    834 18.18                             134   -0.35 5  104  51 
 PAM  EN ES   2    834 35.48                             134    0.61 5  104  51 
 PAM  EZ I         834 38.45         2.1 0.24            130            104  51 
 ZAR  HZ EP        834 24.66                             118   -0.57 9  178 298 
 ZAR  HN ES        834 47.35                             118    0.55 9  178 298 
 ZAR  HZ I         834 49.98         3.1 0.46            116            178 298 
                                                                                
