 2015 1129 0855 42.4 L   6.792 -73.140146.5  RSN  8 0.3 1.3LRSN                1
 GAP=138        0.72       2.3     3.6  4.3  0.7234E-02  0.4320E+01  0.1341E+00E
 Epicentro: LOS SANTOS - SANTANDER                                             3
 ACTION:UPD 15-12-28 16:14 OP:cam  STATUS:               ID:20151129085542 L   I
 OLDACT:REG 15-11-29 12:51 OP:ak   STATUS:               ID:20151129084749     3
 2015-11-29-0847-49M.COL___307                                                 6
 STAT SP IPHASW D HRMM SECON CODA AMPLIT PERI AZIMU VELO AIN AR TRES W  DIS CAZ7
 BAR2 EZ EP        856  1.97                             171   -0.1310 22.6 192 
 BAR2 EZ ES        856 17.24                             171   -0.2310 22.6 192 
 BAR2 EZ I         856 19.80         4.8 0.20            171           22.6 192 
 BRR  HZ EP        856  3.94                             152    0.2610 72.2 299 
 BRR  HE ES        856 20.50                             152    0.2210 72.2 299 
 BRR  HZ I         856 21.44         3.0 0.23            152           72.2 299 
 PAM  EZ EP        856  4.96                             151    0.2510 77.7  39 
 PAM  EN ES        856 21.99                             151   -0.1210 77.7  39 
 PAM  EZ I         856 25.25         2.8 0.46            153           77.7  39 
 RUS  HZ EP        856  6.46                             144    0.3010 99.6 176 
 RUS  HE ES        856 24.72                             144    0.0410 99.6 176 
 RUS  HZ I         856 25.67         1.1 0.40            146           99.6 176 
 SPBC HZ EP        856 10.39                             129   -0.53 9  163 219 
 SPBC HN ES        856 33.07                             129   -0.10 9  163 219 
 SPBC HZ I         856 37.23         2.6 0.12            131            163 219 
 ZAR  HZ EP   2    856 15.57                             122    0.58 4  205 292 
 ZAR  HN ES        856 40.27                             122   -0.13 9  205 292 
 ZAR  HZ I         856 45.21         2.2 0.26            123            205 292 
 SML  HZ EP        856 18.51                             117   -0.67 8  245 335 
 SML  HE ES        856 48.15                             117    0.28 8  245 335 
 SML  HZ I         856 50.18         2.8 0.17            119            245 335 
 PRA  HZ EP        856 35.98                             107    0.09 6  392 210 
 PRA  HN ES        857 18.06                             107    0.45 6  392 210 
                                                                                
