 2015  529 0334 11.1 L   6.797 -73.093152.4  RSN  4 0.1 1.5LRSN                1
 GAP=243        0.31       2.0     2.9  2.5  0.1147E+01  0.1764E+00  0.5017E+00E
 Epicentro: LOS SANTOS - SANTANDER                                             3
 ACTION:UPD 15-09-10 22:07 OP:cam  STATUS:               ID:20150529033411 L   I
 OLDACT:REG 15-05-29 13:40 OP:ar   STATUS:               ID:20150529032736     3
 2015-05-29-0327-36M.COL___315                                                 6
 STAT SP IPHASW D HRMM SECON CODA AMPLIT PERI AZIMU VELO AIN AR TRES W  DIS CAZ7
 BAR2 EZ EP        334 31.56                             170   -0.0110 24.7 204 
 BAR2 EZ ES        334 47.44                             170   -0.0810 24.7 204 
 BAR2 EZ I         334 48.91         5.5 0.24            169           24.7 204 
 BRR  HZ EP        334 33.40                             152    0.1210 76.5 297 
 BRR  HN ES        334 50.55                             152   -0.0210 76.5 297 
 RUS  HZ EP        334 35.45                             145   -0.0310100.0 179 
 RUS  HN ES        334 54.57                             145    0.0910100.0 179 
 RUS  HZ I         334 55.94         2.8 0.24            145          100.0 179 
 SPBC HZ EP        334 40.35                             130   -0.10 9  167 221 
 SPBC HE ES        335  3.36                             130    0.03 9  167 221 
 SPBC HZ I         335  5.11         8.6 0.16            130            167 221 
                                                                                
