 2012  129 0014 44.5 L   6.780 -73.157148.2  RSN  5 0.3 1.5LRSN                1
 GAP=136        0.65       3.8     5.8  7.2  0.9677E-01  0.1582E+02  0.2727E+01E
 Epicentro: LOS SANTOS - SANTANDER                                             3
 ACTION:UP  12-02-03 08:21 OP:REBC STATUS:               ID:20120129001444 L   I
 2012-01-29-0010-00M.COL___188                                                 6
 STAT SP IPHASW D HRMM SECON CODA AMPLIT PERI AZIMU VELO SNR AR TRES W  DIS CAZ7
 BRR  HZ EP        015  6.29                             153     0.410   71 301 
 BRR  HZ I         015 15.56        10.4 0.28                            71 301 
 BRR  HN ES   2    015 22.89                             153     0.3 5   71 301 
 PAM  SZ EP   2    015  7.13                             151     0.0 5   80  39 
 PAM  SE ES   1    015 24.52                             151    -0.3 7   80  39 
 RUS  HZ EP   1    015  7.95                             145    -0.4 7   98 175 
 RUS  HN ES        015 27.06                             145     0.110   98 175 
 RUS  HZ I         015 28.65         3.1 0.39                            98 175 
 PTB  HZ EP   1    015 11.20                             133    -0.3 7  146 260 
 PTB  HE ES   2    015 32.14                             133    -0.5 5  146 260 
 CHI  HZ EP   1    015 22.24                             118     0.2 6  246 195 
 CHI  HN ES   2    015 51.50                             118     0.1 4  246 195 
 CHI  HZ I         015 57.59         1.7 0.71                           246 195 
                                                                                
