 2010  929 0729 53.9 L   6.811 -73.105145.6  RSN 11 0.4 2.2LRSN                1
 GAP=139        0.91       3.7     6.3  7.1 -0.2647E+01 -0.9149E-01 -0.2805E+00E
 Epicentro: LOS SANTOS - SANTANDER                                             3
 ACTION:UP  11-02-18 11:06 OP:tino STATUS:               ID:20100929072953 L   I
 2010-09-29-0728-01S.COL___125                                                 6
 STAT SP IPHASW D HRMM SECON CODA AMPLIT PERI AZIMU VELO SNR AR TRES W  DIS CAZ7
 BTL  SZ EP        730 13.88                             171     0.410   22 303 
 BAR2 SZ EP   1    730 13.58                             169     0.1 7   26 200 
 BAR2 SZ ES   1    730 28.99                             169     0.1 7   26 200 
 BAR2 SZ I         730 30.01        73.2 0.34                            26 200 
 BRR  HZ IP     C  730 15.51                             151     0.310   75 296 
 BRR  HE ES   1    730 32.11                             151     0.3 7   75 296 
 BRR  HZ I         730 35.02        31.9 0.21                            75 296 
 RUS  HZ EP        730 17.61                             144    -0.110  102 179 
 RUS  HN ES   1    730 35.53                             144    -0.7 7  102 179 
 RUS  HZ I         730 37.63        15.9 0.32                           102 179 
 GUE  SZ EP        730 18.54                             140     0.110  114  10 
 GRA  SZ EP        730 18.34                             138    -0.510  123  16 
 GRA  SZ ES   2    730 37.82                             138    -0.6 5  123  16 
 GRA  SZ I         730 39.09        16.9 0.36                           123  16 
 OCA  SZ EP   2    730 22.78                             130     0.7 5  160 351 
 OCA  SZ ES   2    730 43.58                             130    -0.5 5  160 351 
 OCA  SZ I         730 47.19        22.4 0.21                           160 351 
 YOP  SZ EP   2    730 24.21                             127     0.4 4  178 155 
 YOP  SN ES   2    730 47.99                             127     0.8 4  178 155 
 NOR  SZ EP   1    730 29.53                             118    -0.5 6  239 235 
 NOR  SE ES   2    730 57.70                             118    -0.6 4  239 235 
 CHI  HZ EP   1    730 31.71                             117    -0.1 6  251 196 
 CHI  HE ES   2    731  1.01                             117    -0.4 4  251 196 
 CHI  HZ I         731  8.29        11.0 0.51                           251 196 
 HEL  HZ EP   2    730 34.59                             114     0.0 4  277 256 
 HEL  HE ES   2    731  7.08                             114     0.7 4  277 256 
 HEL  HZ I         731 12.20         8.0 0.23                           277 256 
                                                                                
