 2011  329 0557 43.6 L   6.793 -73.133143.2  RSN  8 0.5 2.1LRSN                1
 GAP=156        1.12       7.5     9.6 10.1 -0.4169E+02 -0.1520E+02  0.1924E+02E
 Epicentro: LOS SANTOS - SANTANDER                                             3
 ACTION:UP  11-06-16 14:36 OP:jfem STATUS:               ID:20110329055743 L   I
 2011-03-29-0556-47S.COL___138                                                 6
 STAT SP IPHASW D HRMM SECON CODA AMPLIT PERI AZIMU VELO SNR AR TRES W  DIS CAZ7
 BTL  SZ EP        558  2.14                             172    -0.710   20 313 
 BAR2 SZ EP        558  2.87                             170     0.010   23 194 
 BAR2 SZ I         558 18.99        31.8 0.23                            23 194 
 GIR2 SZ EP        558  3.08                             167     0.110   32 348 
 GIR2 SZ ES   1    558 17.82                             167    -0.3 7   32 348 
 BRR  HZ IP     C  558  4.71                             151     0.210   73 299 
 BRR  HZ I         558  6.69        34.0 0.19                            73 299 
 BRR  HN ES   1    558 21.89                             151     1.0 7   73 299 
 PAM  SZ EP        558  5.88                             150     0.410   77  38 
 PAM  SN ES   3    558 21.81                             150    -0.8 2   77  38 
 GRA  SZ EP        558  8.83                             136     0.210  126  17 
 GRA  SZ ES   1    558 28.05                             136    -0.1 7  126  17 
 GRA  SZ I         558 29.42        12.8 0.48                           126  17 
 OCA  SZ EP        558 11.79                             129     0.0 9  161 353 
 OCA  SZ ES   1    558 32.91                             129    -0.8 7  161 353 
 OCA  SZ I         558 36.65        10.6 0.55                           161 353 
 NOR  SZ EP   1    558 19.38                             118     0.2 6  235 235 
 NOR  SN ES   1    558 46.46                             118    -0.6 6  235 235 
                                                                                
