 2016 1229 0800 43.7 L   6.728 -73.262136.0  RSN  8 0.4 1.7LRSN                1
 GAP=200        0.91       4.0     4.3  6.2  0.4340E+01  0.1044E+02  0.2970E+01E
 Epicentro: ZAPATOCA - SANTANDER                                               3
 ACTION:UPD 17-01-11 20:20 OP:rebc STATUS:               ID:20161229080043 L   I
 OLDACT:REG 16-12-29 13:16 OP:edw  STATUS:               ID:20161229075738     3
 2016-12-29-0758-00M.COL___369                                                 6
 STAT SP IPHASW D HRMM SECON CODA AMPLIT PERI AZIMU VELO AIN AR TRES W  DIS CAZ7
 BAR2 EZ IP     C  8 1  2.04                             172   -0.0310 17.4 150 
 BAR2 EZ ES        8 1 16.52                             172    0.1410 17.4 150 
 BAR2 EZ I         8 1 17.96        21.5 0.16            172           17.4 150 
 BRR  HZ IP     C  8 1  3.90                             153    0.4310 65.1 310 
 BRR  HN ES   4    8 1 20.91                             153    2.04 0 65.1 310 
 BRR  HZ I         8 1 21.70        16.6 0.14            152           65.1 310 
 RUS  HZ EP        8 1  5.70                             143   -0.3810 94.5 168 
 RUS  HN ES        8 1 23.52                             143    0.0110 94.5 168 
 RUS  HZ I         8 1 25.42         5.8 0.60            146           94.5 168 
 PTB  HZ IP     C  8 1  7.72                             133   -0.9010  134 261 
 PTB  HN ES        8 1 28.09                             133    0.0410  134 261 
 PTB  HZ I         8 1 29.81         7.5 0.14            133            134 261 
 ZAR  HZ EP        8 1 14.49                             121   -0.17 9  196 296 
 ZAR  HE ES        8 1 38.93                             121    0.14 9  196 296 
 ZAR  HZ I         8 1 46.11         5.1 0.26            123            196 296 
 NOR  HZ EP        8 1 17.14                             118   -0.13 8  220 234 
 NOR  HN ES        8 1 43.28                             118   -0.16 8  220 234 
 NOR  HZ I         8 1 49.91         4.8 0.14            119            220 234 
 CHI  HZ EP        8 1 20.25                             116    0.54 8  238 193 
 CHI  HE ES        8 1 47.70                             116   -0.08 8  238 193 
 CHI  HZ I         8 1 52.77         2.1 0.64            118            238 193 
 GUY2CHZ EP        8 1 25.91                             112    0.73 7  286 235 
 GUY2CHN ES        8 1 57.75                             112    0.23 7  286 235 
 GUY2CHZ I         8 2  5.58         2.9 0.26                           286 235 
                                                                                
