 2011  329 0616 46.2 L   6.774 -73.112147.0  RSN  9 0.4 2.0LRSN                1
 GAP=165        0.81       5.4     6.7  5.3 -0.2237E+02  0.2986E+01  0.1509E+01E
 Epicentro: LOS SANTOS - SANTANDER                                             3
 ACTION:UP  11-06-16 14:36 OP:jfem STATUS:               ID:20110329061646 L   I
 2011-03-29-0600-00M.COL___140                                                 6
 STAT SP IPHASW D HRMM SECON CODA AMPLIT PERI AZIMU VELO SNR AR TRES W  DIS CAZ7
 BAR2 SZ IP        617  5.98                             171     0.010   22 201 
 BAR2 SZ I         617  6.30        37.4 0.10                            22 201 
 BAR2 SZ ES   1    617 21.12                             171    -0.2 7   22 201 
 BTL  SZ IP        617  5.43                             170    -0.610   23 313 
 BTL  SZ ES   1    617 21.27                             170    -0.1 7   23 313 
 GIR2 SZ EP        617  6.08                             166     0.010   35 345 
 GIR2 SZ ES   2    617 21.85                             166     0.2 5   35 345 
 BRR  HZ IP     C  617  7.90                             151     0.110   76 299 
 BRR  HN ES   1    617 25.28                             151     0.7 7   76 299 
 BRR  HZ I         617 28.56        26.4 0.40                            76 299 
 PAM  SZ IP        617  8.91                             151     0.410   77  36 
 PAM  SN ES   1    617 26.24                             151     0.3 7   77  36 
 GRA  SZ EP        617 11.80                             137     0.110  127  15 
 GRA  SZ ES   1    617 31.23                             137    -0.4 7  127  15 
 GRA  SZ I         617 32.90        11.4 0.24                           127  15 
 OCA  SZ EP        617 14.78                             129    -0.1 9  164 352 
 OCA  SZ ES   2    617 36.75                             129    -0.6 5  164 352 
 OCA  SZ I         617 41.20         8.8 0.34                           164 352 
 NOR  SZ EP        617 22.36                             119     0.2 8  236 236 
 NOR  SN ES   1    617 49.74                             119    -0.5 6  236 236 
 PRA  HZ EP   2    617 40.63                             107     0.9 3  391 210 
                                                                                
