 2015  129 0235 26.4 L   6.808 -73.187145.5  RSN  7 0.4 1.4LRSN                1
 GAP=131        1.13       4.7     5.5  7.5 -0.5638E+01  0.2819E+01  0.8306E+01E
 Epicentro: ZAPATOCA - SANTANDER                                               3
 ACTION:UPD 15-03-02 15:43 OP:nd   STATUS:               ID:20150129023526 L   I
 OLDACT:UP  15-01-29 14:21 OP:cam  STATUS:               ID:20150129022819     3
 OLDACT:REG 15-01-29 13:08 OP:cvam STATUS:               ID:20150129022819     3
 2015-01-29-0228-19M.COL___271                                                 6
 STAT SP IPHASW D HRMM SECON CODA AMPLIT PERI AZIMU VELO AIN AR TRES W  DIS CAZ7
 BAR2 EZ EP        235 46.08                             170    0.0810 23.9 179 
 BAR2 EZ ES        236  1.28                             170   -0.0210 23.9 179 
 BAR2 EZ I         236  3.76         4.6 0.28            169           23.9 179 
 BRR  HZ EP        235 47.19                             154   -0.0810 66.8 300 
 BRR  HN ES        236  4.52                             154    0.9710 66.8 300 
 BRR  HN I         236  5.27        12.5 0.34            155           66.8 300 
 PAM  SZ EP     D  235 49.00                             150    0.2810 79.7  42 
 PAM  SN ES        236  5.55                             150   -0.5910 79.7  42 
 PAM  SZ I         236  8.07         4.1 0.50            152           79.7  42 
 RUS  HZ EP        235 50.00                             143   -0.2110  102 174 
 RUS  HN ES        236  8.83                             143    0.0410  102 174 
 RUS  HZ I         236  9.75         1.7 0.26            144            102 174 
 PTB  HZ EP        235 52.73                             133   -0.22 9  143 258 
 PTB  HN ES        236 12.85                             133   -0.81 9  143 258 
 PTB  HZ I         236 15.73         2.5 0.16            134            143 258 
 SPBC HE ES        236 16.86                             129    0.14 9  161 218 
 CHI  HZ EP        236  4.64                             117    0.60 8  248 194 
 CHI  HN ES        236 33.31                             117   -0.10 8  248 194 
 CHI  HZ I         236 38.51         1.6 0.58            118            248 194 
                                                                                
