 2012  329 0804  8.9 L   6.773 -73.145146.0  RSN 11 0.4 1.8LRSN                1
 GAP=115        0.88       3.9     5.6  6.1 -0.8883E+00  0.6692E+01  0.1423E+01E
 ACTION:UP  12-03-31 23:23 OP:EP   STATUS:               ID:20120329080408 L   I
 2012-03-29-0800-00M.COL___196                                                 6
 STAT SP IPHASW D HRMM SECON CODA AMPLIT PERI AZIMU VELO SNR AR TRES W  DIS CAZ7
 BAR2 SZ EP        8 4 28.57                             172     0.110   20 192 
 BAR2 SZ ES   1    8 4 43.14                             172    -0.6 7   20 192 
 BAR2 SZ I         8 4 47.13        18.1 0.62                            20 192 
 BRR  HZ EP        8 4 30.38                             152     0.310   73 301 
 BRR  HN ES   1    8 4 47.68                             152     1.0 7   73 301 
 BRR  HZ I         8 4 52.19        16.2 0.14                            73 301 
 PAM  SZ EP        8 4 31.30                             150     0.110   80  38 
 PAM  SN ES   2    8 4 48.64                             150     0.0 5   80  38 
 RUS  HZ EP        8 4 32.41                             145     0.010   98 176 
 RUS  HN ES   1    8 4 50.75                             145     0.0 7   98 176 
 RUS  HZ I         8 4 52.27         6.9 0.22                            98 176 
 PTB  HZ EP        8 4 35.20                             132    -0.6 9  147 260 
 PTB  HN ES   2    8 4 56.25                             132    -0.6 5  147 260 
 PTB  HZ I         8 4 59.78         6.3 0.16                           147 260 
 OCA  SZ EP        8 4 37.23                             129    -0.2 9  163 353 
 OCA  SZ ES   2    8 4 59.84                             129     0.1 5  163 353 
 YOP  SZ EP   3    8 4 37.90                             127    -0.7 2  176 153 
 ZAR  HZ EP        8 4 41.27                             122    -0.2 8  205 293 
 ZAR  HE ES   3    8 5  6.12                             122    -0.7 2  205 293 
 ZAR  HZ I         8 5 11.78         6.7 0.36                           205 293 
 NOR  SN ES   2    8 5 12.46                             119     0.3 4  233 235 
 CHI  HZ EP        8 4 46.47                             118     0.2 8  246 195 
 CHI  HZ I         8 4 48.82         3.9 0.52                           246 195 
 PRA  HZ EP        8 5  2.59                             107     0.5 6  389 210 
 PRA  HE ES   2    8 5 43.93                             107     0.3 3  389 210 
                                                                                
