 2016  929 0300 56.8 L   6.772 -73.107142.0  RSN 12 0.4 1.8LRSN                1
 GAP=124        0.92       3.2     3.5  5.4  0.8378E+00  0.1250E+01  0.6434E+01E
 Epicentro: LOS SANTOS - SANTANDER                                             3
 ACTION:UPD 17-08-17 21:17 OP:lp   STATUS:               ID:20160929030056 L   I
 OLDACT:UP  16-09-29 14:45 OP:dani STATUS:               ID:20160929025741     3
 OLDACT:UP  16-09-29 14:45 OP:dani STATUS:               ID:20160929025741     3
 OLDACT:UP  16-09-29 14:45 OP:dani STATUS:               ID:20160929025741     3
 OLDACT:UP  16-09-29 14:43 OP:dani STATUS:               ID:20160929025741     3
 OLDACT:REG 16-09-29 13:01 OP:dani STATUS:               ID:20160929025741     3
 2016-09-29-0258-00M.COL___378                                                 6
 STAT SP IPHASW D HRMM SECON CODA AMPLIT PERI AZIMU VELO AIN AR TRES W  DIS CAZ7
 BAR2 EZ EP     C  3 1 16.03                             171    0.1210 21.6 203 
 BAR2 EZ ES        3 1 30.80                             171   -0.0410 21.6 203 
 BAR2 EZ I         3 1 32.23        19.0 0.26            168           21.6 203 
 BRR  HZ EP     C  3 1 17.82                             150    0.0010 76.4 299 
 BRR  HE ES        3 1 34.44                             150    0.2010 76.4 299 
 BRR  HZ I         3 1 38.61        11.9 0.34            151           76.4 299 
 PAM  EZ EP     D  3 1 19.03                             150    0.4610 77.2  36 
 PAM  EE ES        3 1 35.48                             150   -0.1010 77.2  36 
 PAM  EZ I         3 1 38.26        14.4 0.46            155           77.2  36 
 RUS  HZ EP        3 1 20.07                             144    0.1610 97.3 178 
 RUS  HE ES        3 1 37.42                             144   -0.5410 97.3 178 
 RUS  HZ I         3 1 40.90         3.9 0.14            144           97.3 178 
 PTB  HZ EP   4    3 1 22.51                             130   -1.25 0  151 260 
 PTB  HE ES        3 1 44.42                             130   -0.40 9  151 260 
 PTB  HZ I         3 1 46.58        10.5 0.16            131            151 260 
 SPBC HZ EP        3 1 25.04                             128    0.03 9  164 221 
 SPBC HN ES        3 1 47.61                             128    0.57 9  164 221 
 SPBC HZ I         3 1 53.14        14.6 0.14            128            164 221 
 ZAR  HN ES        3 1 54.57                             121   -0.47 8  209 292 
 NOR  HZ EP        3 1 32.34                             117   -0.12 8  236 236 
 NOR  HE ES   2    3 1 59.84                             117   -0.47 4  236 236 
 NOR  HZ I         3 2  2.15         8.7 0.16            118            236 236 
 CHI  HZ EP        3 1 34.41                             116    0.35 8  247 196 
 CHI  HE ES        3 2  3.90                             116    0.75 8  247 196 
 CHI  HZ I         3 2  8.98         2.9 0.20            118            247 196 
 GUY2CHZ EP   4    3 1 41.84                             111    1.44 0  303 236 
 GUY2CHN ES   4    3 2 18.10                             111    3.67 0  303 236 
 GUY2CHZ I         3 2 23.19         2.5 0.39                           303 236 
 PTGC HZ EP        3 1 39.36                             111   -0.59 7  304 159 
 PTGC HE ES        3 2 12.99                             111   -0.65 7  304 159 
 ELA  HE ES   4    3 2 25.31                             109    5.17 0  330 230 
 ELA  HZ I         3 2 29.87         3.0 0.39            111            330 230 
                                                                                
