 2015  429 0612 24.0 L   6.807 -73.134139.9  RSN  6 0.5 1.5LRSN                1
 GAP=153        1.36       8.8     6.5 12.2 -0.1558E+02  0.1286E+02  0.2545E+02E
 Epicentro: LOS SANTOS - SANTANDER                                             3
 ACTION:UPD 15-06-03 16:58 OP:cam  STATUS:               ID:20150429061224 L   I
 OLDACT:REG 15-04-29 12:30 OP:stll STATUS:               ID:20150429060749     3
 2015-04-29-0607-49M.COL___280                                                 6
 STAT SP IPHASW D HRMM SECON CODA AMPLIT PERI AZIMU VELO AIN AR TRES W  DIS CAZ7
 BAR2 EZ EP        612 43.09                             170    0.1010 24.3 193 
 BAR2 EZ I         612 59.03         4.3 0.20            164           24.3 193 
 BRR  HZ EP        612 45.06                             151    0.4610 72.0 298 
 BRR  HN ES        613  1.15                             151    0.5110 72.0 298 
 BRR  HZ I         613  3.40         5.8 0.14            155           72.0 298 
 PAM  SZ EP        612 45.78                             150    0.2310 76.0  39 
 PAM  SZ I         612 46.26        11.6 0.20            152           76.0  39 
 PAM  SE ES        613  2.26                             150   -0.0710 76.0  39 
 PTB  HZ EP        612 50.23                             130   -0.43 9  149 259 
 PTB  HN ES        613 10.49                             130   -0.94 9  149 259 
 PTB  HZ I         613 13.08         3.5 0.40            131            149 259 
 OCA  HN ES        613 12.68                             128   -0.85 9  160 353 
 OCA  HZ I         613 16.47         9.6 0.42            131            160 353 
 ZAR  HZ EP        612 56.26                             121    0.06 9  205 292 
 ZAR  HN ES        613 22.15                             121    0.86 9  205 292 
 ZAR  HZ I         613 26.02         2.4 0.32            123            205 292 
                                                                                
