 2010  729 0727 43.4 L   6.786 -73.069152.0  RSN  5 0.2 1.3LRSN                1
 GAP=167        0.63       6.3    11.5 13.6  0.2182E+02 -0.1093E+03 -0.3918E+02E
 Epicentro: LOS SANTOS - SANTANDER                                             3
 ACTION:UPD 10-12-01 15:20 OP:pat  STATUS:               ID:20100729072743 L   I
 2010-07-29-0725-32S.COL___123                                                 6
 STAT SP IPHASW D HRMM SECON CODA AMPLIT PERI AZIMU VELO AIN AR TRES W  DIS CAZ7
 BAR2 SZ EP   1    728  3.76                             170    -0.1 7   25 211 
 BAR2 SZ I         728 20.00         6.3 0.29                            25 211 
 BRR  HZ EP        728  5.64                             151    -0.110   80 297 
 BRR  HZ I         728  6.08         4.6 0.05                            80 297 
 BRR  HN ES   1    728 23.21                             151     0.1 7   80 297 
 RUS  HZ EP   2    728  8.03                             146     0.4 5   99 181 
 RUS  HN ES   2    728 26.40                             146    -0.2 5   99 181 
 RUS  HZ I         728 27.66         1.7 0.42                            99 181 
 GUE  SZ EP        728  8.45                             141    -0.310  117   8 
 GRA  SZ EP   1    728  9.60                             139     0.4 7  125  14 
 GRA  SZ I         728 32.02         1.8 0.26                           125  14 
                                                                                
