 2010  429 0423 10.5 L   6.753 -73.036138.8  RSN  5 0.2 1.7LRSN                1
 GAP=198        0.32       4.0     5.7  4.5 -0.7350E+01 -0.5933E+01 -0.3869E+01E
 Epicentro: ARATOCA - SANTANDER                                                3
 ACTION:UPD 10-08-24 10:01 OP:vdl  STATUS:               ID:20100429042310 L   I
 2010-04-29-0419-56S.COL___104                                                 6
 STAT SP IPHASW D HRMM SECON CODA AMPLIT PERI AZIMU VELO SNR AR TRES W  DIS CAZ7
 BAR2 SZ EP   1    423 29.38                             170     0.0 7   24 223 
 BAR2 SZ ES   1    423 43.92                             170    -0.1 7   24 223 
 BRR  HZ EP   2    423 31.68                             146    -0.1 5   84 298 
 BRR  HZ I         423 41.94        10.6 0.36                            84 298 
 BRR  HN ES   2    423 48.34                             146     0.0 5   84 298 
 BRI  SZ EP   1    423 34.00                             139     0.1 7  110  14 
 BRI  SZ ES   2    423 52.05                             139     0.0 5  110  14 
 GUE  SZ EP   3    423 34.33                             136    -0.5 2  120   6 
 PRA  HZ EP   3    424  3.87                             105    -0.1 1  394 211 
 PRA  HZ I         424 50.31         1.3 0.52                           394 211 
                                                                                
