 2012  429 0446 39.5 L   6.734 -73.187146.9  RSN  5 0.3 1.2LRSN                1
 GAP=228        0.71       7.3     6.7  7.6  0.3010E+02  0.7747E+01  0.7228E+00E
 Epicentro: VILLANUEVA - SANTANDER                                             3
 ACTION:UPD 12-07-05 11:56 OP:tino STATUS:               ID:20120429044639 L   I
 2012-04-29-0440-00M.COL___189                                                 6
 STAT SP IPHASW D HRMM SECON CODA AMPLIT PERI AZIMU VELO AIN AR TRES W  DIS CAZ7
 BAR2 SZ EP   1    446 59.13                             174     0.0 7   16 178 
 BAR2 SZ ES   1    447 13.87                             174    -0.6 7   16 178 
 BAR2 SZ I         447 16.99         9.0 0.45                            16 178 
 BRR  HZ EP   1    447  0.64                             153    -0.1 7   71 305 
 BRR  HN ES   1    447 17.94                             153     0.6 7   71 305 
 RUS  HZ EP   1    447  3.02                             146     0.1 7   94 173 
 RUS  HN ES   1    447 21.37                             146     0.2 7   94 173 
 RUS  HZ I         447 23.06         1.7 0.12                            94 173 
 PTB  HZ EP   1    447  5.97                             133    -0.1 7  142 261 
 PTB  HN ES   1    447 26.64                             133    -0.1 7  142 261 
 PTB  HZ I         447 29.81         1.3 0.23                           142 261 
 ZAR  HE ES   1    447 37.02                             123    -0.1 6  203 295 
                                                                                
