 2016  829 0329 21.8 L   6.764 -73.158149.1  RSN  4 0.1 1.1LRSN                1
 GAP=233        0.37       3.0     2.8  3.0  0.4174E+01  0.6624E+00  0.6478E-01E
 Epicentro: LOS SANTOS - SANTANDER                                             3
 ACTION:UPD 16-10-29 15:40 OP:rebc STATUS:               ID:20160829032921 L   I
 OLDACT:REG 16-08-29 12:45 OP:drio STATUS:               ID:20160829032739     3
 2016-08-29-0328-00M.COL___362                                                 6
 STAT SP IPHASW D HRMM SECON CODA AMPLIT PERI AZIMU VELO AIN AR TRES W  DIS CAZ7
 BAR2 EZ EP        329 41.62                             172   -0.1510 19.2 188 
 BAR2 EZ ES        329 57.23                             172   -0.1110 19.2 188 
 BRR  HZ EP        329 43.46                             153    0.0910 72.0 302 
 BRR  HN ES        330  0.29                             153    0.1010 72.0 302 
 BRR  HZ I         330  4.44         3.1 0.46                          72.0 302 
 RUS  HZ EP        329 45.76                             146    0.1310 96.7 175 
 RUS  HN ES        330  4.25                             146    0.0510 96.7 175 
 RUS  HZ I         330  6.22         1.3 0.32                          96.7 175 
 PTB  HZ EP        329 48.76                             133   -0.11 9  146 260 
 PTB  HE ES        330  9.96                             133   -0.02 9  146 260 
 PTB  HZ I         330 13.60         2.0 0.16                           146 260 
                                                                                
