 2014 1129 0607  1.0 L   6.809 -73.134146.8  RSN 21 0.5 2.2LRSN                1
 GAP= 66        1.11       2.9     2.8  4.9 -0.1439E+01  0.3633E+01  0.3572E+01E
 Epicentro: LOS SANTOS - SANTANDER                                             3
 ACTION:UPD 14-12-19 15:48 OP:nd   STATUS:               ID:20141129060701 L   I
 OLDACT:REG 14-11-29 13:08 OP:fm   STATUS:               ID:20141129055747     3
 2014-11-29-0557-47M.COL___303                                                 6
 STAT SP IPHASW D HRMM SECON CODA AMPLIT PERI AZIMU VELO AIN AR TRES W  DIS CAZ7
 BAR2 SZ EP        6 7 21.00                             170    0.2410 24.5 193 
 BAR2 SZ ES        6 7 35.30                             170   -0.8910 24.5 193 
 BAR2 SZ I         6 7 37.88        36.7 0.42            170           24.5 193 
 BRR  HZ IP     C  6 7 22.87                             152    0.5910 71.9 297 
 BRR  HE ES        6 7 39.65                             152    0.7510 71.9 297 
 BRR  HZ I         6 7 44.29        22.0 0.16            151           71.9 297 
 PAM  SZ EP        6 7 23.87                             151    0.6510 75.8  39 
 PAM  SN ES        6 7 40.88                             151    0.3210 75.8  39 
 PAM  SZ I         6 7 45.95        11.3 0.60            154           75.8  39 
 RUS  HZ EP        6 7 25.20                             144    0.3010  101 177 
 RUS  HE ES        6 7 43.39                             144   -0.1610  101 177 
 RUS  HZ I         6 7 44.61        21.7 0.26            146            101 177 
 PTB  HZ EP        6 7 27.66                             132   -0.51 9  149 259 
 PTB  HN ES        6 7 48.88                             132   -0.49 9  149 259 
 PTB  HZ I         6 7 53.59        27.5 0.28            132            149 259 
 TAM  HZ EP        6 7 29.13                             131    0.48 9  154 105 
 TAM  HE ES        6 7 50.13                             131   -0.10 9  154 105 
 TAM  HZ I         6 7 54.18         8.8 0.24            135            154 105 
 OCA  HZ EP        6 7 28.63                             130   -0.67 9  159 353 
 OCA  HN ES        6 7 50.80                             130   -0.59 9  159 353 
 OCA  HZ I         6 7 56.92        23.0 0.26            131            159 353 
 SPBC HZ EP        6 7 29.93                             129    0.22 9  165 219 
 SPBC HN ES        6 7 52.04                             129   -0.08 9  165 219 
 SPBC HZ I         6 7 56.67        26.5 0.22            130            165 219 
 ZAR  HZ EP        6 7 33.80                             122    0.22 9  205 292 
 ZAR  HN ES        6 7 58.87                             122   -0.14 9  205 292 
 ZAR  HZ I         6 8  5.94        36.1 0.32            123            205 292 
 NOR  HZ EP        6 7 35.90                             118   -1.04 8  236 234 
 NOR  HE ES        6 8  5.17                             118    0.17 8  236 234 
 NOR  HZ I         6 8 12.32        16.1 0.20            119            236 234 
 CHI  HZ EP        6 7 39.09                             117    0.22 8  250 195 
 CHI  HN ES        6 8  8.15                             117   -0.28 8  250 195 
 CHI  HZ I         6 8 14.25        11.0 0.30            119            250 195 
 HEL  HZ EP        6 7 41.42                             115    0.01 8  274 256 
 HEL  HN ES        6 8 12.91                             115   -0.04 8  274 256 
 HEL  HZ I         6 8 20.10         8.4 0.54            116            274 256 
 GUY2CHZ EP        6 7 44.97                             112    0.15 7  303 235 
 GUY2CHN ES        6 8 19.03                             112    0.01 7  303 235 
 GUY2CHZ I         6 8 26.55         8.7 0.58                           303 235 
 PTGC HZ EP        6 7 43.80                             112   -1.13 7  309 159 
 PTGC HE ES   4    6 8 17.07                             112   -2.14 0  309 159 
 PTGC HZ I         6 8 20.58         8.9 0.54            114            309 159 
 RREF HZ EP        6 7 47.12                             111   -0.23 7  323 229 
 RREF HN ES        6 8 23.97                             111    0.45 7  323 229 
 RREF HZ I         6 8 32.45        15.1 0.32            112            323 229 
 CBOC HZ EP        6 7 48.89                             110    0.78 7  335 252 
 CBOC HN ES        6 8 24.77                             110   -0.11 7  335 252 
 CBOC HZ I         6 8 30.22         3.2 0.44            111            335 252 
 TOL  SZ EP        6 7 49.70                             109    0.24 7  345 225 
 TOL  SE ES        6 8 27.55                             109    0.27 7  345 225 
 TOL  SZ I         6 8 34.49        17.4 0.36            111            345 225 
 MON  HZ EP   4    6 7 47.88                             109   -2.19 0  354 308 
 MON  HE ES   4    6 8 26.00                             109   -2.37 0  354 308 
 MON  HZ I         6 8 42.39         8.8 0.46            110            354 308 
 ANIL HE ES        6 8 30.36                             108    0.33 6  359 225 
 ANIL HZ I         6 8 37.80         3.2 0.30            110            359 225 
 ORTC HZ EP        6 7 54.69                             106   -0.43 6  397 216 
 ORTC HE ES        6 8 38.14                             106    0.80 6  397 216 
 ORTC HZ I         6 8 45.06         4.6 0.44            108            397 216 
 PAL  HZ EP        6 7 55.73                             106   -0.63 6  407 239 
 PAL  HN ES        6 8 39.79                             106    0.23 6  407 239 
 PAL  HZ I         6 8 46.21         3.5 0.20            107            407 239 
                                                                                
