 2011  929 0833 43.3 L   6.873 -73.282119.1  RSN  5 0.1 1.4LRSN                1
 GAP=143        0.35       6.0     6.1  6.6  0.2761E+02 -0.2905E+01 -0.9775E+01E
 Epicentro: BETULIA - SANTANDER                                                3
 ACTION:UPD 12-07-13 16:00 OP:ep   STATUS:               ID:20110929083343 L   I
 2011-09-29-0831-52S.COL___168                                                 6
 STAT SP IPHASW D HRMM SECON CODA AMPLIT PERI AZIMU VELO AIN AR TRES W  DIS CAZ7
 BTL  SZ EP   1    833 59.59                             177    0.15 7 5.31  17 
 BAR2 SZ EP   1    834  0.04                             164    0.04 7 32.9 160 
 BAR2 SZ ES   2    834 12.83                             164   -0.21 5 32.9 160 
 BAR2 SZ I         834 14.53        16.5 0.39                          32.9 160 
 BRR  HZ EP   1    834  0.39                             154   -0.20 7 54.1 299 
 BRR  HN ES   2    834 14.26                             154    0.17 5 54.1 299 
 BRR  HZ I         834 15.47         4.7 0.39                          54.1 299 
 RUS  HE ES   2    834 22.64                             135    0.05 5  111 169 
 RUS  HZ I         834 23.48         1.9 0.22                           111 169 
 ZAR  HN ES   2    834 34.96                             118    0.03 4  187 292 
 ZAR  HZ I         834 47.17         3.5 0.15                           187 292 
                                                                                
