 2014 1129 0433 57.4 L   6.804 -73.155143.8  RSN 13 0.4 1.7LRSN                1
 GAP=135        1.12       3.6     4.4  6.8 -0.1501E+01  0.1058E+02  0.3661E+01E
 Epicentro: LOS SANTOS - SANTANDER                                             3
 ACTION:UPD 14-12-19 15:48 OP:nd   STATUS:               ID:20141129043357 L   I
 OLDACT:DUP 14-11-29 16:15 OP:fm   STATUS:               ID:20141129042744d    3
 2014-11-29-0427-43M.COL___303                                                 6
 STAT SP IPHASW D HRMM SECON CODA AMPLIT PERI AZIMU VELO AIN AR TRES W  DIS CAZ7
 BAR2 SZ EP        434 16.88                             170    0.0810 23.6 187 
 BAR2 SZ ES        434 31.59                             170   -0.3510 23.6 187 
 BAR2 SZ I         434 32.73        11.1 0.32            168           23.6 187 
 BRR  HZ EP     D  434 18.68                             153    0.4010 70.1 299 
 BRR  HE ES        434 35.29                             153    0.7310 70.1 299 
 BRR  HZ I         434 38.61        12.0 0.34            149           70.1 299 
 PAM  SZ EP     D  434 19.81                             150    0.3810 77.7  40 
 PAM  SN ES        434 36.32                             150   -0.2910 77.7  40 
 PAM  SZ I         434 38.73        16.0 0.48            153           77.7  40 
 RUS  HN ES        434 39.69                             143    0.2810  101 175 
 RUS  HZ I         434 40.87         4.1 0.38            143            101 175 
 PTB  HZ EP        434 23.31                             132   -0.82 9  147 259 
 PTB  HN ES        434 44.15                             132   -0.82 9  147 259 
 PTB  HZ I         434 46.01         5.7 0.18            129            147 259 
 OCA  HE ES        434 47.09                             129   -0.34 9  160 353 
 OCA  HZ I         434 49.87         7.7 0.16            129            160 353 
 ZAR  HZ EP        434 29.98                             122    0.38 9  203 292 
 ZAR  HE ES        434 54.71                             122   -0.01 9  203 292 
 ZAR  HZ I         435  1.20         8.9 0.46            121            203 292 
 NOR  HZ EP        434 33.16                             118    0.20 8  234 234 
 NOR  HE ES        435  0.88                             118    0.19 8  234 234 
 NOR  HZ I         435  6.83         2.7 0.14            117            234 234 
 CHI  HZ EP        434 34.40                             117   -0.61 8  249 195 
 CHI  HN ES        435  4.53                             117    0.18 8  249 195 
 CHI  HZ I         435 11.69         1.4 0.48            116            249 195 
 HEL  HE ES        435  8.99                             114    0.36 8  271 256 
 HEL  HZ I         435 14.95         3.7 0.42            113            271 256 
 URE  HZ EP   4    434 35.73                             113   -2.52 0  283 292 
 URE  HE ES   4    435  7.13                             113   -2.98 0  283 292 
 URE  HZ I         435 19.18         4.4 0.26            112            283 292 
 GUY2CHZ EP   4    434 42.18                             112    1.33 0  301 235 
 GUY2CHN ES   4    435 16.43                             112    1.68 0  301 235 
 GUY2CHZ I         435 25.41         1.6 0.62                           301 235 
 TOL  SE ES   4    435 26.61                             109    3.53 0  343 224 
 TOL  SZ I         435 31.41         3.7 0.48            109            343 224 
 MON  HZ EP   4    434 41.75                             108   -4.45 0  353 308 
 MON  HN ES   4    435 20.46                             108   -3.80 0  353 308 
                                                                                
