 2016 1229 0221 50.0 L   5.771 -73.880114.7  RSN 20 0.5 2.0LRSN                1
 GAP= 51        1.18       2.5     2.7  6.9 -0.2002E+01  0.2649E+01  0.8600E+00E
 Epicentro: ALBANIA - SANTANDER                                                3
 ACTION:UPD 17-01-11 20:20 OP:rebc STATUS:               ID:20161229022150 L   I
 OLDACT:UP  16-12-29 15:20 OP:edw  STATUS:               ID:20161229021743     3
 OLDACT:UP  16-12-29 15:18 OP:edw  STATUS:               ID:20161229021743     3
 OLDACT:REG 16-12-29 12:49 OP:edw  STATUS:               ID:20161229021743     3
 2016-12-29-0218-00M.COL___375                                                 6
 STAT SP IPHASW D HRMM SECON CODA AMPLIT PERI AZIMU VELO AIN AR TRES W  DIS CAZ7
 RUS  HZ IP     D  222  9.98                             140    0.0710 89.2  81 
 RUS  HN ES        222 25.05                             140   -0.4010 89.2  81 
 RUS  HZ I         222 26.99        17.9 0.40            143           89.2  81 
 PTB  HZ EP   9 C  222  9.73                             134   -0.95 0  106 323 
 PTB  HN ES        222 25.09                             135   -0.7810  106 323 
 PTB  HZ I         222 28.78        16.2 0.08            136            106 323 
 NOR  HZ EP     C  222 10.48                             132   -0.7610  112 258 
 NOR  HE ES        222 27.29                             132   -0.5310  112 258 
 NOR  HZ I         222 28.48        48.4 0.70            134            112 258 
 ROSC BZ EP        222 12.43                             132    0.5510  114 205 
 ROSC BN ES   4    222 30.45                             132    1.50 0  114 205 
 ROSC BZ I         222 32.37        25.4 0.35            134            114 205 
 BAR2 EZ EP        222 12.73                             131    0.5810  119  40 
 BAR2 EZ ES        222 29.86                             131    0.4410  119  40 
 CHI  HZ EP        222 12.94                             129   -0.2110  127 173 
 CHI  HE ES        222 30.64                             129   -0.5610  127 173 
 CHI  HZ I         222 34.15        14.8 0.32            131            127 173 
 BRR  HZ EP        222 14.99                             124    0.26 9  149   7 
 BRR  HN ES        222 34.57                             124    0.55 9  149   7 
 BRR  HZ I         222 37.93        17.6 0.14            126            149   7 
 GUY2CHZ EP        222 18.01                             119   -0.10 9  175 250 
 GUY2CHN ES        222 40.22                             119    0.19 9  175 250 
 GUY2CHZ I         222 44.50        11.5 0.26                           175 250 
 VIL  EZ EP        222 18.62                             117   -0.04 9  185 174 
 VIL  EN ES        222 41.16                             117    0.15 9  185 174 
 VIL  EZ I         222 44.98        27.4 0.28            120            185 174 
 ELA  HZ EP        222 20.65                             116    0.20 9  196 239 
 ELA  HE ES   4    222 45.81                             116    1.61 0  196 239 
 ELA  HZ I         222 49.41         6.6 0.28            118            196 239 
 PAM  EZ EP        222 23.14                             113    0.45 8  217  37 
 PAM  EN ES        222 48.43                             113    0.24 8  217  37 
 PAM  EZ I         222 51.57        10.4 0.18            116            217  37 
 ZAR  HZ EP        222 21.86                             113   -0.43 8  219 330 
 ZAR  HN ES        222 47.29                             113   -0.20 8  219 330 
 ZAR  HZ I         222 49.29         5.7 0.10            115            219 330 
 ANIL HZ IP     C  222 23.08                             113    0.26 8  220 230 
 ANIL HE ES        222 49.25                             113    0.83 8  220 230 
 ANIL HZ I         222 50.98        31.1 0.30            115            220 230 
 CBOC HZ EP   4    222 25.14                             111    0.66 0  236 273 
 CBOC HN ES        222 51.51                             111    0.13 8  236 273 
 CBOC HZ I         222 53.43         4.6 0.18            113            236 273 
 TAM  HZ IP   4 C  222 25.66                             110    0.64 0  243  72 
 TAM  HN ES        222 51.85                             110   -0.48 8  243  72 
 TAM  HZ I         222 53.98         7.6 0.20            113            243  72 
 ORTC HZ EP        222 26.25                             109   -0.27 8  256 216 
 ORTC HN ES        222 55.44                             109    0.43 8  256 216 
 ORTC HZ I         222 58.40        10.0 0.16            111            256 216 
 PTGC HZ IP     D  222 26.74                             109   -0.25 8  260 132 
 PTGC HE ES   4    222 54.89                             109   -0.96 0  260 132 
 PTGC HZ I         222 55.08         7.8 0.24            111            260 132 
 PAL  HZ EP   2    222 30.24                             107    0.50 4  283 250 
 PAL  HN ES   4    223  2.67                             107    1.93 0  283 250 
 PAL  HZ I         223  5.87         2.7 0.36            109            283 250 
 URE  HZ EP        222 28.45                             107   -1.47 7  285 320 
 URE  HN ES   4    222 58.72                             107   -2.35 0  285 320 
 URE  HZ I         223  0.59        10.5 0.20            109            285 320 
 MACC HZ EP   4    222 42.04                             100   -1.62 0  401 179 
 MACC HN ES   4    223 21.98                             100   -3.54 0  401 179 
 MACC HZ I         223 27.54         2.8 0.29            102            401 179 
 SJC  HZ EP   4    222 51.26                              97   -1.78 0  478 343 
 SJC  HN ES   4    223 37.83                              97   -4.38 0  478 343 
                                                                                
