 2010  929 0039 53.4 L   6.792 -73.096142.2  RSN  8 0.2 1.8LRSN                1
 GAP=164        0.41       2.3     4.2  4.6 -0.2617E+01 -0.4334E+01 -0.2236E+00E
 Epicentro: LOS SANTOS - SANTANDER                                             3
 ACTION:UP  11-02-18 11:06 OP:tino STATUS:               ID:20100929003953 L   I
 2010-09-29-0038-19S.COL___125                                                 6
 STAT SP IPHASW D HRMM SECON CODA AMPLIT PERI AZIMU VELO SNR AR TRES W  DIS CAZ7
 BTL  SZ EP        040 12.84                             170     0.210   24 306 
 BAR2 SZ EP   1    040 12.62                             170     0.0 7   24 204 
 BAR2 SZ ES   2    040 27.29                             170    -0.3 5   24 204 
 BAR2 SZ I         040 28.48        16.7 0.19                            24 204 
 BRR  HZ EP   1    040 14.45                             150    -0.1 7   77 297 
 BRR  HZ I         040 14.93        24.5 0.12                            77 297 
 BRR  HN ES   1    040 30.93                             150     0.0 7   77 297 
 RUS  HZ EP   1    040 16.64                             143    -0.1 7   99 179 
 RUS  HN ES   2    040 35.07                             143     0.1 5   99 179 
 RUS  HZ I         040 36.46         4.3 0.22                            99 179 
 GUE  SZ EP   1    040 17.68                             139    -0.1 7  116   9 
 GRA  SZ EP   1    040 18.49                             136     0.2 7  125  15 
 GRA  SZ ES   1    040 37.73                             136     0.0 7  125  15 
 GRA  SZ I         040 39.09        11.9 0.41                           125  15 
 OCA  SZ EP   1    040 21.30                             129    -0.3 7  162 351 
 OCA  SZ ES   2    040 43.75                             129     0.1 5  162 351 
 OCA  SZ I         040 49.97        10.1 0.48                           162 351 
 NOR  SN ES   2    040 57.54                             117     0.1 4  239 236 
                                                                                
