 2017  429 0931 45.7 L   6.805 -73.152152.1  RSN 17 0.5 1.9LRSN                1
 GAP=111        0.90       3.3     3.1  5.8  0.2332E+01  0.1868E+01  0.3140E+01E
 Epicentro: LOS SANTOS - SANTANDER                                             3
 ACTION:UPD 17-05-30 21:17 OP:jn   STATUS:               ID:20170429093145 L   I
 OLDACT:UP  17-04-29 17:51 OP:and  STATUS:               ID:20170429092739     3
 OLDACT:UP  17-04-29 17:50 OP:and  STATUS:               ID:20170429092739     3
 OLDACT:UP  17-04-29 17:50 OP:and  STATUS:               ID:20170429092739     3
 OLDACT:UP  17-04-29 17:50 OP:and  STATUS:               ID:20170429092739     3
 OLDACT:UP  17-04-29 17:49 OP:and  STATUS:               ID:20170429092739     3
 OLDACT:UP  17-04-29 17:49 OP:and  STATUS:               ID:20170429092739     3
 OLDACT:UP  17-04-29 17:44 OP:and  STATUS:               ID:20170429092739     3
 OLDACT:UP  17-04-29 17:44 OP:and  STATUS:               ID:20170429092739     3
 OLDACT:UP  17-04-29 17:43 OP:and  STATUS:               ID:20170429092739     3
 OLDACT:UP  17-04-29 17:43 OP:and  STATUS:               ID:20170429092739     3
 OLDACT:UP  17-04-29 17:42 OP:and  STATUS:               ID:20170429092739     3
 OLDACT:UP  17-04-29 17:42 OP:and  STATUS:               ID:20170429092739     3
 OLDACT:REG 17-04-29 12:57 OP:and  STATUS:               ID:20170429092739     3
 2017-04-29-0928-00M.COL___356                                                 6
 STAT SP IPHASW D HRMM SECON CODA AMPLIT PERI AZIMU VELO AIN AR TRES W  DIS CAZ7
 BRR  HZ IP     D  932  7.78                             154    0.2910 70.3 298 
 BRR  HN ES        932 24.71                             154    0.2310 70.3 298 
 BRR  HZ I         932 28.74        19.7 0.26            148           70.3 298 
 PAM  EZ IP     C  932  8.89                             152    0.3010 77.3  40 
 PAM  EN ES   2    932 25.37                             152   -1.07 5 77.3  40 
 PAM  EZ I         932 28.46        10.5 0.46            146           77.3  40 
 RUS  HZ EP        932  9.92                             145   -0.2010  101 176 
 RUS  HN ES        932 28.79                             145   -0.3810  101 176 
 RUS  HZ I         932 30.03        10.6 0.22            139            101 176 
 PTB  HZ EP        932 12.71                             134   -0.43 9  147 259 
 PTB  HN ES   3    932 33.39                             134   -1.16 2  147 259 
 PTB  HZ I         932 40.95         9.1 0.40            127            147 259 
 SPBC HZ EP        932 14.70                             130    0.01 9  163 219 
 SPBC HN ES        932 37.23                             130   -0.08 9  163 219 
 SPBC HZ I         932 41.21        15.6 0.12            124            163 219 
 YPLC HZ EP        932 16.19                             128    0.15 9  178 151 
 YPLC HN ES        932 40.40                             128    0.70 9  178 151 
 YPLC HZ I         932 41.30        10.6 0.28            121            178 151 
 ZAR  HZ EP   4    932 21.35                             124    2.87 0  203 292 
 ZAR  HN ES        932 44.30                             124    0.25 9  203 292 
 ZAR  HZ I         932 49.14        11.7 0.24            117            203 292 
 NOR  HN ES        932 49.60                             120   -0.33 8  235 234 
 NOR  HZ I         932 52.80         6.3 0.24            114            235 234 
 CHI  HZ EP        932 24.29                             118    0.49 8  249 195 
 CHI  HN ES        932 53.46                             118   -0.06 8  249 195 
 CHI  HZ I         932 57.05         5.1 0.44            112            249 195 
 ROSC BZ EP   4    932 26.73                             118    2.54 0  253 211 
 ROSC BN ES   4    932 56.40                             118    2.19 0  253 211 
 ROSC BZ I         933  0.04         9.5 0.25            112            253 211 
 HEL  HE ES   4    933  0.06                             116    2.29 0  272 256 
 HEL  HZ I         933  6.22         5.2 0.34            110            272 256 
 PTGC HZ EP        932 29.09                             113   -0.84 7  309 159 
 PTGC HZ I         933  1.52         6.2 0.46            107            309 159 
 PTGC HN ES   4    933  2.68                             113   -1.76 0  309 159 
 CBOC HZ EP   3    932 34.16                             111    1.33 2  333 252 
 CBOC HN ES        933 10.30                             111    0.71 7  333 252 
 CBOC HZ I         933 23.54         1.5 0.22            106            333 252 
 DBB  EN ES        933  9.82                             111   -0.71 7  339 274 
 DBB  EZ I         933 14.17         2.3 0.22            105            339 274 
 ORTC HZ EP   9    932 40.99                             107    1.14 0  396 216 
 ORTC HN ES        933 23.63                             107    0.40 6  396 216 
 ORTC HZ I         933 27.39         3.1 0.20            102            396 216 
 PAL  HZ EP        932 41.05                             107    0.01 6  405 239 
 PAL  HN ES   2    933 24.12                             107   -0.09 3  405 239 
 PAL  HZ I         933 27.91         1.5 0.20            102            405 239 
 SJC  HZ EP   3    932 40.10                             107   -1.27 1  408 327 
 SJC  HN ES   4    933 21.31                             107   -3.49 0  408 327 
 SJC  HZ I         933 33.35         2.1 0.30            102            408 327 
                                                                                
