 2015  329 0004 24.0 L   6.834 -73.171142.8  RSN  7 0.5 1.6LRSN                1
 GAP= 74        1.17       4.7     5.1  7.2  0.2595E+01 -0.5881E-02 -0.5566E+01E
 Epicentro: ZAPATOCA - SANTANDER                                               3
 ACTION:UPD 15-04-30 16:30 OP:nd   STATUS:               ID:20150329000424 L   I
 OLDACT:REG 15-03-29 12:37 OP:stll STATUS:               ID:20150329000003     3
 2015-03-29-0000-03M.COL___287                                                 6
 STAT SP IPHASW D HRMM SECON CODA AMPLIT PERI AZIMU VELO AIN AR TRES W  DIS CAZ7
 BAR2 EZ EP        0 4 43.56                             169    0.2110 26.8 183 
 BAR2 EZ ES        0 4 57.80                             169   -0.6510 26.8 183 
 BAR2 EZ I         0 5  3.27         4.6 0.26            169           26.8 183 
 BRR  HZ EP     C  0 4 45.12                             153    0.5310 66.9 297 
 BRR  HN ES        0 5  1.58                             153    0.9310 66.9 297 
 BRR  HZ I         0 5  4.91         8.0 0.24            152           66.9 297 
 PAM  SZ EP        0 4 46.20                             151    0.3610 76.4  43 
 PAM  SZ I         0 4 46.37        11.2 0.14            154           76.4  43 
 PAM  SN ES        0 5  2.70                             151   -0.1810 76.4  43 
 RUS  HZ EP        0 4 47.56                             142   -0.2010  105 175 
 RUS  HE ES        0 5  6.23                             142   -0.0610  105 175 
 RUS  HZ I         0 5  7.84         2.5 0.26            145            105 175 
 PTB  HZ EP        0 4 50.48                             132   -0.07 9  146 257 
 PTB  HN ES        0 5 10.92                             132   -0.34 9  146 257 
 PTB  HZ I         0 5 18.42         4.2 0.34            132            146 257 
 TAM  HZ EP        0 4 51.84                             129    0.05 9  159 106 
 TAM  HZ I         0 4 52.06         7.5 0.36            134            159 106 
 SML  HZ EP        0 4 59.88                             117   -0.08 8  239 336 
 SML  HN ES        0 5 27.10                             117   -0.91 8  239 336 
 SML  HZ I         0 5 33.47         5.0 0.10            119            239 336 
                                                                                
