 2016  129 0331 32.5 L   6.809 -73.197146.6  RSN  4 0.3 1.2LRSN                1
 GAP=145        0.70       4.0     4.0  6.8 -0.6912E+01  0.7217E+01 -0.8242E+00E
 Epicentro: ZAPATOCA - SANTANDER                                               3
 ACTION:UPD 16-03-09 23:29 OP:cam  STATUS:               ID:20160129033132 L   I
 OLDACT:REG 16-01-29 14:17 OP:cara STATUS:               ID:20160129032759     3
 2016-01-29-0327-59S.COL___223                                                 6
 STAT SP IPHASW D HRMM SECON CODA AMPLIT PERI AZIMU VELO AIN AR TRES W  DIS CAZ7
 PAM  EZ IP     C  331 55.26                             150    0.2410 80.4  43 
 PAM  EN ES        332 12.31                             150   -0.2510 80.4  43 
 PAM  EZ I         332 14.30         5.8 0.54            157           80.4  43 
 RUS  HZ EP        331 56.66                             143    0.1810  102 173 
 RUS  HN ES        332 15.29                             143    0.1410  102 173 
 RUS  HZ I         332 15.88         1.2 0.38            148            102 173 
 PTB  HZ EP        331 58.78                             133   -0.31 9  142 258 
 PTB  HN ES        332 20.18                             133    0.38 9  142 258 
 PTB  HZ I         332 26.91         2.4 0.42            134            142 258 
 SPBC HZ EP        332  0.78                             130   -0.06 9  160 217 
 SPBC HN ES        332 22.53                             130   -0.38 9  160 217 
 SPBC HZ I         332 31.07         1.6 0.14            132            160 217 
                                                                                
