 2011  329 0735 25.1 L   6.809 -73.206125.1  RSN  4 0.3 1.5LRSN                1
 GAP=171        0.73      20.5    19.7 12.4  0.3061E+03 -0.5471E+02 -0.6621E+02E
 Epicentro: ZAPATOCA - SANTANDER                                               3
 ACTION:UP  11-06-16 14:36 OP:jfem STATUS:               ID:20110329073525 L   I
 2011-03-29-0733-51S.COL___138                                                 6
 STAT SP IPHASW D HRMM SECON CODA AMPLIT PERI AZIMU VELO SNR AR TRES W  DIS CAZ7
 BTL  SZ EP        735 41.68                             174    -0.410   14 331 
 BAR2 SZ EP        735 42.58                             168     0.310   24 174 
 BAR2 SZ ES   2    735 55.40                             168    -0.3 5   24 174 
 BAR2 SZ I         735 56.88         6.6 0.55                            24 174 
 GIR2 SZ EP   2    735 42.92                             166     0.6 5   30   3 
 GIR2 SZ ES   3    735 55.90                             166     0.2 2   30   3 
 BRR  HZ EP        735 43.67                             150     0.010   65 301 
 BRR  HZ I         735 43.83         9.1 0.13                            65 301 
 BRR  HN ES   2    735 58.42                             150     0.2 5   65 301 
                                                                                
