 2016 1229 0059 25.0 L   6.055 -73.695116.0  RSN  8 0.4 1.7LRSN                1
 GAP= 77        0.96       2.9     3.5  6.8 -0.5012E+00  0.9812E+01  0.2849E+01E
 Epicentro: VELEZ - SANTANDER                                                  3
 ACTION:UPD 17-01-11 20:20 OP:rebc STATUS:               ID:20161229005925 L   I
 OLDACT:UP  16-12-29 14:20 OP:edw  STATUS:               ID:20161229005747d    3
 OLDACT:UP  16-12-29 14:18 OP:edw  STATUS:               ID:20161229005747d    3
 OLDACT:UP  16-12-29 14:16 OP:edw  STATUS:               ID:20161229005747d    3
 OLDACT:DUP 16-12-29 14:06 OP:edw  STATUS:               ID:20161229005747d    3
 2016-12-29-0058-00M.COL___375                                                 6
 STAT SP IPHASW D HRMM SECON CODA AMPLIT PERI AZIMU VELO AIN AR TRES W  DIS CAZ7
 RUS  HZ EP        059 43.59                             147   -0.0710 70.1 105 
 RUS  HE ES        059 57.96                             147   -0.2510 70.1 105 
 RUS  HZ I         059 59.69         4.0 0.26            149           70.1 105 
 BAR2 EZ ES        059 59.50                             142    0.4210 82.1  44 
 BAR2 EZ  AMP      059 59.97      1125.0 0.58                          82.1  44 
 PTB  HZ EP   9    059 44.42                             136   -0.83 0 99.8 303 
 PTB  HN ES        1 0  0.61                             136    0.4110 99.8 303 
 PTB  HZ I         1 0  1.92         3.4 0.30            137           99.8 303 
 BRR  HZ EP        059 46.74                             131    0.0610  116 359 
 BRR  HN ES        1 0  3.66                             131    0.0710  116 359 
 NOR  HZ EP        059 49.58                             126    0.48 9  141 247 
 NOR  HN ES        1 0  7.83                             126   -0.06 9  141 247 
 NOR  HZ I         1 0  9.83         3.5 0.20            127            141 247 
 CHI  HZ EP        059 51.45                             123    0.18 9  158 181 
 CHI  HN ES        1 0 11.44                             123   -0.31 9  158 181 
 ZAR  HZ EP        059 54.91                             115   -0.84 9  204 321 
 ZAR  HN ES        1 0 19.41                             115   -0.32 9  204 321 
 ZAR  HN I         1 0 21.39         4.9 0.12            116            204 321 
 GUY2CHZ EP        059 57.31                             115    0.73 8  207 244 
 GUY2CHN ES        1 0 20.99                             115   -0.22 8  207 244 
 GUY2CHZ I         1 0 28.46         1.2 0.58                           207 244 
                                                                                
