 2013 1129 0458 31.5 L   6.775 -73.116147.0  RSN  8 0.4 1.9LRSN                1
 GAP=142        1.11       4.5     4.6  6.7 -0.2640E+01  0.9031E+01  0.1748E+01E
 Epicentro: LOS SANTOS - SANTANDER                                             3
 ACTION:UPD 14-01-09 16:31 OP:ep   STATUS:               ID:20131129045831 L   I
 OLDACT:REG 13-11-29 13:45 OP:mh   STATUS:               ID:20131129045736     3
 2013-11-29-0457-36M.COL___238                                                 6
 STAT SP IPHASW D HRMM SECON CODA AMPLIT PERI AZIMU VELO AIN AR TRES W  DIS CAZ7
 BAR2 SZ EP        458 51.24                             171    0.0010 21.5 200 
 BAR2 SZ ES        459  6.56                             171   -0.0810 21.5 200 
 BAR2 SZ I         459  8.04        25.0 0.26            168           21.5 200 
 BRR  HZ EP        458 53.18                             151    0.1610 75.4 299 
 BRR  HN ES        459 10.68                             151    0.8710 75.4 299 
 BRR  HZ I         459 12.85         9.7 0.14            152           75.4 299 
 PAM  SZ EP        458 54.40                             151    0.5510 77.5  36 
 PAM  SN ES        459 10.72                             151   -0.5610 77.5  36 
 PAM  SZ I         459 13.51         8.5 0.18            157           77.5  36 
 RUS  HZ EP        458 55.15                             145   -0.0110 97.7 178 
 RUS  HN ES        459 13.47                             145   -0.1510 97.7 178 
 RUS  HZ I         459 17.30         5.0 0.06            145           97.7 178 
 PTB  HZ EP        458 58.03                             132   -0.78 9  151 260 
 PTB  HN ES        459 19.38                             132   -0.74 9  151 260 
 PTB  HZ I         459 25.20        12.0 0.17            133            151 260 
 SPBC HZ EP        459  0.28                             129    0.20 9  163 220 
 SPBC HN ES        459 22.61                             129    0.22 9  163 220 
 SPBC HZ I         459 29.38        17.5 0.13            130            163 220 
 ZAR  HZ EP        459  4.42                             122   -0.02 8  208 293 
 ZAR  HN ES        459 29.99                             122   -0.15 8  208 293 
 NOR  HZ EP        459  7.41                             119   -0.00 8  236 235 
 NOR  HN ES        459 35.86                             119    0.43 8  236 235 
 NOR  HZ I         459 42.60                             120            236 235 
                                                                                
