 2013  329 0121 37.2 L   6.763 -73.143147.2  RSN  6 0.3 1.4LRSN                1
 GAP=139        0.69       4.6     4.2  6.2  0.1571E+01  0.7066E+01 -0.2244E+01E
 Epicentro: LOS SANTOS - SANTANDER                                             3
 ACTION:UPD 13-04-09 14:05 OP:ep   STATUS:               ID:20130329012137 L   I
 2013-03-29-0120-00M.COL___245                                                 6
 STAT SP IPHASW D HRMM SECON CODA AMPLIT PERI AZIMU VELO AIN AR TRES W  DIS CAZ7
 BAR2 SZ ES   1    122 12.00                             172   -0.36 7 19.3 193 
 BAR2 SZ I         122 14.73         9.3 0.30            173           19.3 193 
 BRR  HZ EP        121 58.87                             152    0.1910 73.5 301 
 BRR  HN ES   1    122 15.99                             152    0.60 7 73.5 301 
 BRR  HZ I         122 16.83         6.6 0.18            151           73.5 301 
 PAM  SZ EP   1    121 59.73                             150   -0.06 7 80.4  38 
 PAM  SN ES   1    122 17.07                             150   -0.31 7 80.4  38 
 PAM  SZ I         122 18.60         3.2 0.68            152           80.4  38 
 RUS  HZ EP   1    122  0.87                             145    0.03 7 96.5 176 
 RUS  HN ES   1    122 19.62                             145    0.37 7 96.5 176 
 RUS  HZ I         122 20.98         2.0 0.38            148           96.5 176 
 PTB  HZ EP   1    122  3.86                             132   -0.43 7  147 260 
 PTB  HN ES   1    122 24.89                             132   -0.48 7  147 260 
 PTB  HZ I         122 26.01         2.9 0.32            133            147 260 
 ZAR  HZ EP   1    122 10.23                             122    0.26 6  206 293 
 ZAR  HN ES   1    122 35.49                             122   -0.01 6  206 293 
 ZAR  HZ I         122 41.53         2.4 0.22            123            206 293 
                                                                                
