 2016  929 0529 33.5 L   6.802 -73.154145.2  RSN 19 0.4 2.0LRSN                1
 GAP= 71        0.94       2.8     3.0  4.6 -0.1630E+01  0.2868E+01  0.1950E+01E
 Epicentro: LOS SANTOS - SANTANDER                                             3
 ACTION:UPD 17-08-17 21:17 OP:lp   STATUS:               ID:20160929052933 L   I
 OLDACT:UP  16-09-29 16:14 OP:dani STATUS:               ID:20160929052739     3
 OLDACT:UP  16-09-29 16:14 OP:dani STATUS:               ID:20160929052739     3
 OLDACT:REG 16-09-29 13:17 OP:dani STATUS:               ID:20160929052739     3
 2016-09-29-0528-00M.COL___372                                                 6
 STAT SP IPHASW D HRMM SECON CODA AMPLIT PERI AZIMU VELO AIN AR TRES W  DIS CAZ7
 BAR2 EZ EP     D  529 52.80                             170   -0.2310 23.4 188 
 BAR2 EZ ES        530  8.13                             170   -0.1610 23.4 188 
 BAR2 EZ I         530 10.57        19.0 0.50            166           23.4 188 
 BRR  HZ EP     D  529 54.60                             153    0.1010 70.3 299 
 BRR  HN ES        530 11.31                             153    0.4010 70.3 299 
 BRR  HZ I         530 14.82        15.7 0.26            132           70.3 299 
 PAM  EZ EP     D  529 55.83                             151    0.1910 77.8  40 
 PAM  EE ES        530 13.08                             151    0.1410 77.8  40 
 PAM  EZ I         530 15.72        11.1 0.56            135           77.8  40 
 RUS  HZ EP        529 56.79                             144   -0.3910  101 176 
 RUS  HE ES        530 15.55                             144   -0.1310  101 176 
 RUS  HZ I         530 17.02         6.8 0.31            131            101 176 
 PTB  HZ EP        529 59.47                             132   -0.84 9  147 259 
 PTB  HE ES        530 21.40                             132    0.15 9  147 259 
 PTB  HZ I         530 27.77        10.2 0.34            114            147 259 
 TAM  HZ EP        530  1.24                             130    0.06 9  156 105 
 TAM  HE ES        530 23.39                             130    0.58 9  156 105 
 TAM  HZ I         530 24.62        10.0 0.44            117            156 105 
 OCA  HZ EP        530  1.49                             130   -0.21 9  160 353 
 OCA  HE ES        530 23.35                             130   -0.37 9  160 353 
 OCA  HZ I         530 28.32        16.2 0.37            112            160 353 
 SPBC HZ EP        530  1.62                             129   -0.26 9  163 219 
 SPBC HN ES        530 23.67                             129   -0.38 9  163 219 
 SPBC HZ I         530 30.02        16.5 0.22            114            163 219 
 ZAR  HE ES   4    530 29.75                             122   -1.23 0  203 292 
 ZAR  HZ I         530 35.78         7.6 0.21            107            203 292 
 NOR  HZ EP        530  9.35                             118    0.25 8  234 234 
 NOR  HE ES        530 37.66                             118    0.77 8  234 234 
 NOR  HZ I         530 43.70         8.4 0.16            105            234 234 
 CHI  HZ EP        530 10.80                             117   -0.33 8  249 195 
 CHI  HN ES        530 40.40                             117   -0.11 8  249 195 
 CHI  HZ I         530 46.59         4.4 0.36            105            249 195 
 ROSC BZ EP   4    530 13.37                             117    1.85 0  252 211 
 ROSC BZ I         530 47.30         8.8 0.40            105            252 211 
 HEL  HZ EP        530 13.88                             115    0.32 8  271 256 
 HEL  HZ I         530 51.54         6.4 0.28            103            271 256 
 URE  HZ EP   4    530 13.16                             114   -1.24 0  283 292 
 URE  HZ I         530 55.40         7.0 0.22            102            283 292 
 GUY2CHZ EP        530 17.86                             112    0.88 7  301 235 
 GUY2CHN ES   4    530 55.29                             112    4.37 0  301 235 
 GUY2CHZ I         530 58.59         4.7 0.60                           301 235 
 PTGC HZ EP   4    530 15.90                             111   -1.46 0  309 159 
 PTGC HN ES   4    530 49.34                             111   -2.25 0  309 159 
 PTGC HZ I         530 56.65         6.6 0.29            102            309 159 
 CBOC HZ EP        530 20.14                             110   -0.12 7  333 252 
 PAL  HZ EP        530 29.13                             106    0.60 6  405 239 
 SJC  HZ EP   4    530 27.05                             106   -1.88 0  409 327 
 SJC  HZ I         531 16.96         1.3 0.54             98            409 327 
                                                                                
