 2016  929 0837 27.7 L   6.774 -73.101148.3  RSN  9 0.5 1.6LRSN                1
 GAP=124        1.14       3.7     4.5  8.6 -0.2911E+01  0.4995E+01  0.5228E+01E
 Epicentro: LOS SANTOS - SANTANDER                                             3
 ACTION:UPD 17-08-17 21:17 OP:lp   STATUS:               ID:20160929083727 L   I
 OLDACT:UP  16-09-29 18:37 OP:dani STATUS:               ID:20160929082744     3
 OLDACT:UP  16-09-29 18:06 OP:dani STATUS:               ID:20160929082744     3
 OLDACT:REG 16-09-29 13:35 OP:dani STATUS:               ID:20160929082744     3
 2016-09-29-0828-00M.COL___366                                                 6
 STAT SP IPHASW D HRMM SECON CODA AMPLIT PERI AZIMU VELO AIN AR TRES W  DIS CAZ7
 BAR2 EZ EP        837 47.88                             171    0.2410 22.0 204 
 BAR2 EZ I         838  4.11        13.4 0.16            171           22.0 204 
 PAM  EZ EP        837 50.97                             151    0.8010 76.7  35 
 PAM  EE ES        838  7.60                             151   -0.0810 76.7  35 
 PAM  EZ I         838 10.31         3.5 0.20            151           76.7  35 
 RUS  HZ EP        837 51.86                             145    0.3510 97.5 179 
 RUS  HE ES        838 10.29                             145    0.2310 97.5 179 
 RUS  HZ I         838 11.59         2.0 0.17            145           97.5 179 
 PTB  HZ EP        837 54.96                             132   -0.33 9  152 260 
 PTB  HE ES        838 16.34                             132   -0.45 9  152 260 
 PTB  HZ I         838 17.99         6.0 0.15            132            152 260 
 OCA  HZ EP        837 56.15                             129   -0.41 9  164 352 
 OCA  HN ES        838 18.86                             129   -0.20 9  164 352 
 OCA  HZ I         838 22.34         8.2 0.18            130            164 352 
 SPBC HZ EP        837 56.40                             129   -0.11 9  164 221 
 SPBC HN ES        838 18.44                             129   -0.52 9  164 221 
 SPBC HZ I         838 23.57         6.5 0.11            129            164 221 
 HEL  HZ EP   4    838 10.21                             115    1.69 0  276 257 
 HEL  HN ES        838 40.30                             115   -0.04 7  276 257 
 HEL  HZ I         838 48.20         2.7 0.28            115            276 257 
 GUY2CHZ EP   4    838 14.44                             113    2.72 0  304 236 
 GUY2CHE ES        838 47.27                             113    1.23 7  304 236 
 GUY2CHZ I         838 56.60         1.7 0.25                           304 236 
 PTGC HZ EP        838 11.12                             112   -0.08 7  304 159 
 PTGC HN ES        838 44.31                             112   -0.79 7  304 159 
 PTGC HZ I         838 51.88         2.3 0.26            112            304 159 
                                                                                
