 2012  129 0906 16.3 L   6.715 -73.109146.0  RSN  7 0.4 1.6LRSN                1
 GAP=145        0.78       5.8     6.0  7.4  0.1283E+02  0.3080E+01 -0.2059E+00E
 Epicentro: JORDAN - SANTANDER                                                 3
 ACTION:UP  12-02-03 08:21 OP:REBC STATUS:               ID:20120129090616 L   I
 2012-01-29-0900-00M.COL___188                                                 6
 STAT SP IPHASW D HRMM SECON CODA AMPLIT PERI AZIMU VELO SNR AR TRES W  DIS CAZ7
 BAR2 SZ EP        9 6 35.83                             174     0.010   16 211 
 BAR2 SZ ES   2    9 6 50.63                             174    -0.4 5   16 211 
 BAR2 SZ I         9 6 54.29        11.3 0.51                            16 211 
 GIR2 SZ EP   2    9 6 36.37                             163     0.1 5   41 347 
 BRR  HZ EP        9 6 38.17                             150     0.210   80 303 
 BRR  HN ES        9 6 55.21                             150     0.410   80 303 
 BRR  HZ I         9 6 56.39         9.0 0.12                            80 303 
 PAM  SZ EP   1    9 6 38.91                             149     0.1 7   83  33 
 PAM  SN ES   2    9 6 55.65                             149    -0.8 5   83  33 
 RUS  HZ EP   1    9 6 39.70                             147     0.3 7   91 178 
 RUS  HE ES   1    9 6 57.39                             147     0.0 7   91 178 
 RUS  HZ I         9 6 59.80         3.7 0.48                            91 178 
 PTB  HZ EP   1    9 6 42.80                             132    -0.7 7  150 263 
 ZAR  HZ EP   2    9 6 49.64                             121     0.1 4  211 294 
 ZAR  HE ES   1    9 7 15.10                             121    -0.3 6  211 294 
 ZAR  HZ I         9 7 17.22         3.6 0.15                           211 294 
                                                                                
