 2017  429 0414 18.2 L   6.824 -73.171143.2  RSN 21 0.5 2.5LRSN                1
 GAP=109        0.93       2.7     2.8  6.0 -0.2256E+00  0.4801E+01  0.1791E+01E
 Epicentro: LOS SANTOS - SANTANDER                                             3
 ACTION:UPD 17-05-30 21:17 OP:jn   STATUS:               ID:20170429041418 L   I
 OLDACT:UP  17-04-29 16:18 OP:and  STATUS:               ID:20170429040732d    3
 OLDACT:UP  17-04-29 16:18 OP:and  STATUS:               ID:20170429040732d    3
 OLDACT:UP  17-04-29 16:17 OP:and  STATUS:               ID:20170429040732d    3
 OLDACT:UP  17-04-29 16:17 OP:and  STATUS:               ID:20170429040732d    3
 OLDACT:UP  17-04-29 16:17 OP:and  STATUS:               ID:20170429040732d    3
 OLDACT:UP  17-04-29 16:16 OP:and  STATUS:               ID:20170429040732d    3
 OLDACT:UP  17-04-29 16:12 OP:and  STATUS:               ID:20170429040732d    3
 OLDACT:UP  17-04-29 16:12 OP:and  STATUS:               ID:20170429040732d    3
 OLDACT:UP  17-04-29 16:11 OP:and  STATUS:               ID:20170429040732d    3
 OLDACT:UP  17-04-29 16:11 OP:and  STATUS:               ID:20170429040732d    3
 OLDACT:UP  17-04-29 16:10 OP:and  STATUS:               ID:20170429040732d    3
 OLDACT:UP  17-04-29 16:10 OP:and  STATUS:               ID:20170429040732d    3
 OLDACT:UP  17-04-29 16:10 OP:and  STATUS:               ID:20170429040732d    3
 OLDACT:UP  17-04-29 16:07 OP:and  STATUS:               ID:20170429040732d    3
 OLDACT:UP  17-04-29 16:05 OP:and  STATUS:               ID:20170429040732d    3
 OLDACT:DUP 17-04-29 16:04 OP:and  STATUS:               ID:20170429040732d    3
 OLDACT:UP  17-04-29 16:02 OP:and  STATUS:               ID:20170429040731     3
 OLDACT:UP  17-04-29 16:02 OP:and  STATUS:               ID:20170429040731     3
 OLDACT:UP  17-04-29 15:59 OP:and  STATUS:               ID:20170429040731     3
 OLDACT:UP  17-04-29 15:59 OP:and  STATUS:               ID:20170429040731     3
 OLDACT:UP  17-04-29 15:58 OP:and  STATUS:               ID:20170429040731     3
 OLDACT:UP  17-04-29 15:58 OP:and  STATUS:               ID:20170429040731     3
 OLDACT:UP  17-04-29 15:58 OP:and  STATUS:               ID:20170429040731     3
 OLDACT:UP  17-04-29 15:57 OP:and  STATUS:               ID:20170429040731     3
 OLDACT:REG 17-04-29 12:42 OP:and  STATUS:               ID:20170429040731     3
 2017-04-29-0408-00M.COL___368                                                 6
 STAT SP IPHASW D HRMM SECON CODA AMPLIT PERI AZIMU VELO AIN AR TRES W  DIS CAZ7
 BRR  HZ IP     C  414 39.27                             153    0.4110 67.5 298 
 BRR  HN ES   3    414 56.68                             153    1.70 2 67.5 298 
 BRR  HZ I         414 59.79        53.9 0.30            152           67.5 298 
 PAM  EZ EP        414 40.21                             150    0.0810 77.2  42 
 PAM  EN ES        414 57.39                             150    0.1610 77.2  42 
 PAM  EZ I         414 59.67        68.7 0.50            156           77.2  42 
 RUS  HZ EP        414 41.99                             142    0.0810  103 175 
 RUS  HN ES        415  0.12                             142   -0.2810  103 175 
 RUS  HZ I         415  1.33       121.0 0.30            144            103 175 
 PTB  HN ES        415  5.23                             132   -0.24 9  146 258 
 PTB  HZ I         415 10.87        25.3 0.30            132            146 258 
 SPBC HZ EP        414 46.44                             128   -0.09 9  164 218 
 SPBC HN ES        415  8.28                             128   -0.36 9  164 218 
 SPBC HZ I         415 11.12        86.6 0.28            129            164 218 
 YPLC HZ EP        414 47.84                             125   -0.33 9  180 151 
 YPLC HE ES        415 12.25                             125    0.70 9  180 151 
 YPLC HZ I         415 15.35        27.5 0.42            128            180 151 
 ZAR  HE ES        415 14.82                             122   -0.17 9  200 292 
 ZAR  HZ I         415 21.92        23.7 0.12            123            200 292 
 NOR  HZ EP   2    414 54.42                             118    0.72 4  234 234 
 NOR  HN ES        415 21.30                             118   -0.10 8  234 234 
 NOR  HZ I         415 26.33        19.8 0.16            119            234 234 
 CHI  HZ EP        414 55.49                             116   -0.46 8  251 194 
 CHI  HN ES        415 24.81                             116   -0.60 8  251 194 
 CHI  HZ I         415 30.49        14.9 0.26            118            251 194 
 ROSC BZ EP   9    414 57.75                             116    1.48 0  254 210 
 ROSC BN ES        415 26.86                             115   -0.59 8  254 210 
 ROSC BZ I         415 33.04        29.4 0.35            117            254 210 
 HEL  HN ES        415 28.63                             114   -0.51 8  270 255 
 HEL  HZ I         415 36.49        16.2 0.24            115            270 255 
 PTGC HZ EP   3    415  0.67                             110   -1.66 2  312 158 
 PTGC HN ES   4    415 34.01                             110   -2.75 0  312 158 
 PTGC HZ I         415 37.24        12.9 0.26            113            312 158 
 ELA  HN ES        415 41.87                             110    0.55 7  329 229 
 ELA  HZ I         415 50.92         9.6 0.36            111            329 229 
 CBOC HZ EP        415  5.82                             109    1.03 7  332 252 
 CBOC HN ES        415 41.83                             109    0.69 7  332 252 
 CBOC HZ I         415 47.63         4.6 0.18            111            332 252 
 DBB  EN ES   4    415 38.91                             109   -3.00 0  337 274 
 DBB  EZ I         415 43.32         7.1 0.06            110            337 274 
 ARGC HN ES        415 45.09                             108   -0.60 6  356 341 
 ANIL HN ES   3    415 48.78                             108    2.11 2  357 224 
 ANIL HZ I         415 54.89        38.8 0.38            109            357 224 
 ORTC HZ EP        415 12.32                             106    0.23 6  396 216 
 ORTC HN ES   3    415 55.53                             106    1.40 1  396 216 
 ORTC HZ I         416  1.09        10.9 0.62            107            396 216 
 SJC  HN ES   4    415 54.28                             105   -1.88 0  405 327 
 SJC  HZ I         415 57.00         6.5 0.48            107            405 327 
 PAL  HN ES        415 55.81                             105   -0.21 6  405 239 
 PAL  HZ I         415 59.79         4.8 0.24            107            405 239 
 VALLCHN ES   4    415 54.41                             105   -2.10 0  408 359 
 YOT  HZ EP        415 20.87                             103   -0.26 5  472 228 
 GUA  EN ES   4    416  9.41                             102   -1.70 0  477 173 
                                                                                
