 2015  629 0902 22.8 L   6.831 -73.062144.0  RSN  8 0.4 1.9LRSN                1
 GAP=208        0.95       3.6     5.6  6.0  0.2708E+01  0.1154E+02 -0.1444E+01E
 Epicentro: LOS SANTOS - SANTANDER                                             3
 ACTION:UPD 15-09-10 22:15 OP:cam  STATUS:               ID:20150629090222 L   I
 OLDACT:UP  15-06-29 21:18 OP:mh   STATUS:               ID:20150629085750     3
 OLDACT:REG 15-06-29 12:59 OP:mh   STATUS:               ID:20150629085750     3
 2015-06-29-0857-50M.COL___307                                                 6
 STAT SP IPHASW D HRMM SECON CODA AMPLIT PERI AZIMU VELO AIN AR TRES W  DIS CAZ7
 BAR2 EZ EP        9 2 42.75                             168    0.4310 29.5 207 
 BAR2 EZ ES        9 2 57.51                             168   -0.0710 29.5 207 
 BAR2 EZ I         9 2 58.44        26.2 0.34            164           29.5 207 
 BRR  HZ EP        9 2 44.66                             150    0.5410 78.0 293 
 BRR  HN ES        9 3  0.79                             150    0.0110 78.0 293 
 BRR  HZ I         9 3  7.69        10.9 0.12            144           78.0 293 
 RUS  HZ EP   1    9 2 47.02                             142    0.45 7  104 181 
 RUS  HN ES        9 3  4.65                             142   -0.4910  104 181 
 RUS  HZ I         9 3  5.89         9.2 0.24            145            104 181 
 ZAR  HZ EP        9 2 55.81                             121   -0.04 8  211 290 
 ZAR  HN ES   1    9 3 20.96                             121   -0.71 6  211 290 
 ZAR  HZ I         9 3 27.18         9.1 0.34            120            211 290 
 NOR  HN ES        9 3 28.03                             117    0.03 8  244 235 
 NOR  HZ I         9 3 33.25         4.7 0.18            117            244 235 
 SML  HZ EP        9 2 58.92                             117   -0.47 8  245 333 
 SML  HN ES        9 3 27.65                             117   -0.31 8  245 333 
 SML  HZ I         9 3 39.61         9.7 0.24            117            245 333 
 HEL  HZ EP        9 3  4.50                             113    0.53 7  282 256 
 HEL  HN ES        9 3 36.54                             113    0.43 7  282 256 
 HEL  HZ I         9 3 43.31         2.6 0.26            113            282 256 
 PRA  HZ EP        9 3 16.15                             106   -0.95 6  400 210 
 PRA  HN ES        9 3 59.17                             106   -0.32 6  400 210 
 PRA  HZ I         9 4  5.34         2.0 0.22            107            400 210 
                                                                                
