 2013  829 0703 32.6 L   5.749 -73.921103.9  RSN 10 0.5 1.7LRSN                1
 GAP=125        1.26       4.3     3.6  7.7 -0.6278E+01  0.4743E+01 -0.5390E+01E
 Epicentro: ALBANIA - SANTANDER                                                3
 ACTION:UPD 14-01-14 09:08 OP:ep   STATUS:               ID:20130829070332 L   I
 OLDACT:DUP 13-08-29 10:48 OP:jn   STATUS:               ID:20130829065854d    3
 OLDACT:REG 13-08-29 09:03 OP:jn   STATUS:               ID:20130829065853d    3
 2013-08-29-0658-52M.COL___211                                                 6
 STAT SP IPHASW D HRMM SECON CODA AMPLIT PERI AZIMU VELO AIN AR TRES W  DIS CAZ7
 SPBC HZ EP        7 3 47.06                             168    0.1910 19.9 237 
 SPBC HN ES        7 3 58.28                             168    0.2510 19.9 237 
 SPBC HZ I         7 4  0.64        36.8 0.36            168           19.9 237 
 RUS  HZ EP        7 3 51.76                             135   -0.1610 94.2  80 
 RUS  HN ES        7 4  7.14                             135    0.1310 94.2  80 
 RUS  HZ I         7 4 10.59         2.9 0.28            137           94.2  80 
 PTB  HZ EP        7 3 51.55                             131   -0.7410  106 326 
 PTB  HN ES        7 4  6.94                             131   -0.7410  106 326 
 PTB  HZ I         7 4 11.03        12.7 0.16            133            106 326 
 NOR  HZ EP        7 3 52.36                             130   -0.1210  107 259 
 NOR  HN ES        7 4  7.74                             130   -0.2710  107 259 
 NOR  HZ I         7 4 10.64        20.7 0.18            132            107 259 
 BAR2 SZ EP        7 3 54.58                             126    0.2210  124  41 
 BAR2 SZ ES        7 4 10.94                             126   -0.4210  124  41 
 BAR2 SZ I         7 4 12.72        11.0 0.34            128            124  41 
 BRR  HZ EP        7 3 56.92                             119    0.00 9  152   9 
 BRR  HN ES        7 4 17.07                             119    1.16 9  152   9 
 BRR  HZ I         7 4 19.83        15.1 0.16            122            152   9 
 GUY2CHZ EP        7 4  0.06                             116    0.56 9  170 250 
 GUY2CHN ES        7 4 21.07                             116    0.57 9  170 250 
 GUY2CHZ I         7 4 25.56         5.1 0.22                           170 250 
 HEL  HZ EP   1    7 4  1.59                             114    0.64 7  185 285 
 HEL  HN ES        7 4 23.14                             114    0.06 9  185 285 
 HEL  HZ I         7 4 26.07         3.8 0.26            116            185 285 
 PRA  HN ES   1    7 4 34.53                             106   -0.99 6  249 205 
 PRA  HZ I         7 4 43.36         3.5 0.30            108            249 205 
 SML  HE ES        7 4 53.54                             100   -0.62 7  338 357 
                                                                                
