 2013  329 0441 39.2 L   6.770 -73.131151.3  RSN  9 0.4 1.4LRSN                1
 GAP=140        0.68       3.2     4.3  5.7  0.2770E+00  0.8862E+01 -0.2049E+01E
 Epicentro: LOS SANTOS - SANTANDER                                             3
 ACTION:UPD 13-04-09 14:05 OP:ep   STATUS:               ID:20130329044139 L   I
 2013-03-29-0440-00M.COL___245                                                 6
 STAT SP IPHASW D HRMM SECON CODA AMPLIT PERI AZIMU VELO AIN AR TRES W  DIS CAZ7
 BAR2 SZ EP   1    441 59.57                             172    0.14 8 20.5 196 
 BAR2 SZ ES   1    442 15.30                             172    0.08 8 20.5 196 
 BAR2 SZ I         442 17.26         7.9 0.28            170           20.5 196 
 BRR  HZ EP   1    442  1.54                             152    0.44 8 74.3 300 
 BRR  HE ES   1    442 18.79                             152    0.58 8 74.3 300 
 BRR  HZ I         442 22.89         3.5 0.14            151           74.3 300 
 PAM  SN ES   1    442 19.66                             151   -0.28 8 78.9  37 
 PAM  SZ I         442 21.74         3.6 0.20            156           78.9  37 
 RUS  HZ EP   1    442  3.43                             146    0.18 8 97.2 177 
 RUS  HN ES   1    442 21.86                             146   -0.16 8 97.2 177 
 RUS  HZ I         442 23.58         1.6 0.66            150           97.2 177 
 PTB  HZ EP        442  6.46                             133   -0.2410  149 260 
 PTB  HN ES   1    442 27.79                             133   -0.38 7  149 260 
 PTB  HZ I         442 33.39         4.2 0.26            134            149 260 
 OCA  HN ES   1    442 30.63                             130   -0.30 7  164 353 
 ZAR  HZ EP   1    442 12.27                             123   -0.01 7  207 293 
 ZAR  HN ES   1    442 38.51                             123    0.41 7  207 293 
 ZAR  HZ I         442 43.94         3.6 0.30            125            207 293 
 NOR  HN ES   2    442 42.63                             120   -0.64 4  234 235 
 SML  HZ EP   1    442 16.94                             118    0.42 6  247 335 
 SML  HN ES   1    442 45.01                             118   -0.64 6  247 335 
                                                                                
