 2017  829 0205 49.2 L   6.823 -73.132147.3  RSN 15 0.5 2.2LRSN                1
 GAP= 66        1.01       3.1     3.8  5.0  0.8849E+00  0.4065E+01  0.3600E+01E
 Epicentro: LOS SANTOS - SANTANDER                                             3
 ACTION:UPD 17-09-04 20:26 OP:rebc STATUS:               ID:20170829020549 L   I
 OLDACT:UP  17-08-29 13:53 OP:dani STATUS:               ID:20170829015744     3
 OLDACT:UP  17-08-29 13:53 OP:dani STATUS:               ID:20170829015744     3
 OLDACT:REG 17-08-29 12:48 OP:dani STATUS:               ID:20170829015744     3
 2017-08-29-0158-00M.COL___417                                                 6
 STAT SP IPHASW D HRMM SECON CODA AMPLIT PERI AZIMU VELO AIN AR TRES W  DIS CAZ7
 BAR2 EZ EP        2 6  8.81                             169   -0.2410 26.1 192 
 BAR2 EZ ES        2 6 24.05                             169   -0.5010 26.1 192 
 BAR2 EZ I         2 6 26.61        35.6 0.34            166           26.1 192 
 BRR  HZ EP     D  2 6 10.62                             153    0.1210 71.4 296 
 BRR  HN ES        2 6 27.71                             153    0.5810 71.4 296 
 BRR  HZ I         2 6 31.80        25.5 0.14            152           71.4 296 
 PAM  EZ EP        2 6 11.62                             152    0.2310 74.5  40 
 PAM  EE ES        2 6 28.94                             152    0.2310 74.5  40 
 PAM  EZ I         2 6 30.94        28.6 0.56            158           74.5  40 
 RUS  HZ EP        2 6 12.83                             143   -0.4310  103 177 
 RUS  HN ES        2 6 31.47                             143   -0.5610  103 177 
 RUS  HZ I         2 6 32.68        20.1 0.32            144            103 177 
 TAM  HZ EP     D  2 6 17.17                             131    0.26 9  154 106 
 SPBC HZ EP        2 6 17.72                             129   -0.35 9  166 219 
 SPBC HN ES   3    2 6 39.62                             129   -0.99 2  166 219 
 SPBC HZ I         2 6 46.78        19.8 0.10            129            166 219 
 YPLC HZ EP        2 6 19.18                             127   -0.06 9  178 152 
 YPLC HN ES        2 6 43.13                             127    0.46 9  178 152 
 YPLC HZ I         2 6 44.10        21.3 0.32            129            178 152 
 ZAR  HZ EP        2 6 22.09                             123    0.32 9  205 291 
 ZAR  HE ES        2 6 46.74                             123   -0.45 9  205 291 
 ZAR  HZ I         2 6 52.06         9.6 0.26            124            205 291 
 NOR  HZ EP        2 6 25.06                             118   -0.23 8  237 234 
 NOR  HE ES   3    2 6 51.96                             118   -1.49 2  237 234 
 NOR  HZ I         2 6 57.97         8.0 0.50            119            237 234 
 CHI  HZ EP        2 6 27.07                             117   -0.20 8  251 195 
 CHI  HN ES        2 6 57.41                             117    0.43 8  251 195 
 CHI  HZ I         2 7  6.18         7.8 0.44            118            251 195 
 ROSC BZ EP        2 6 28.49                             117    0.78 8  256 211 
 ROSC BN ES        2 6 58.57                             117    0.82 8  256 211 
 ROSC BZ I         2 7  0.89        11.0 0.30            118            256 211 
 GUY2CHZ EP        2 6 33.58                             112    0.42 7  304 235 
 GUY2CHE ES   4    2 7 11.05                             112    3.58 0  304 235 
 GUY2CHZ I         2 7 14.95         7.2 0.30                           304 235 
 PTGC HZ EP   3    2 6 31.94                             112   -1.37 2  311 159 
 PTGC HE ES   3    2 7  5.33                             112   -2.40 2  311 159 
 LL6C HZ EP        2 6 34.12                             111   -0.55 7  322 357 
 PRA  HZ EP        2 6 42.17                             107   -0.93 6  395 210 
 PRA  HN ES        2 7 25.29                             107    0.14 6  395 210 
 PRA  HZ I         2 7 30.99         6.9 0.40            108            395 210 
                                                                                
