 2011 1029 0600 46.1 L   6.772 -73.097149.8  RSN  7 0.3 1.9LRSN                1
 GAP=144        0.55       4.0     5.2  5.5 -0.4206E+00 -0.1464E+01  0.1275E+01E
 Epicentro: LOS SANTOS - SANTANDER                                             3
 ACTION:UPD 12-07-13 16:06 OP:ep   STATUS:               ID:20111029060046 L   I
 2011-10-29-0558-51S.COL___176                                                 6
 STAT SP IPHASW D HRMM SECON CODA AMPLIT PERI AZIMU VELO AIN AR TRES W  DIS CAZ7
 BAR2 SZ EP        6 1  6.17                             171   -0.0710 22.0 205 
 BAR2 SZ ES   2    6 1 21.16                             171   -0.75 5 22.0 205 
 BAR2 SZ I         6 1 22.85        11.0 0.28                          22.0 205 
 BTL  SZ EP        6 1  6.57                             170    0.2710 24.9 311 
 PAM  SZ EP        6 1  8.80                             152    0.0510 76.6  35 
 PAM  SE ES   1    6 1 26.34                             152   -0.04 7 76.6  35 
 BRR  HZ EP        6 1  8.04                             151   -0.0510 77.4 299 
 BRR  HN ES   1    6 1 25.45                             151    0.24 7 77.4 299 
 BRR  HZ I         6 1 27.63        18.2 0.16                          77.4 299 
 RUS  HZ EP        6 1 10.02                             146   -0.0510 97.2 179 
 RUS  HN ES   3    6 1 29.75                             146    1.02 2 97.2 179 
 OCA  SZ EP        6 1 15.03                             130   -0.10 9  164 351 
 OCA  SZ I         6 1 41.76         6.9 0.17                           164 351 
 ZAR  HN ES   3    6 1 44.27                             122   -1.23 2  210 292 
 ZAR  HZ I         6 1 52.19         7.0 0.30                           210 292 
                                                                                
