 2012 1129 0837 44.0 L   6.637 -73.114137.3  RSN  4 0.1 1.7LRSN                1
 GAP=206        0.42       8.4     4.2  7.1 -0.2908E+02 -0.9960E+01  0.3444E+02E
 Epicentro: CURITI - SANTANDER                                                 3
 ACTION:UPD 12-12-05 15:37 OP:}ep  STATUS:               ID:20121129083655 L   I
 2012-11-29-0830-00M.COL___236                                                 6
 STAT SP IPHASW D HRMM SECON CODA AMPLIT PERI AZIMU VELO AIN AR TRES W  DIS CAZ7
 BAR2 SZ EP        838  2.44                             176    0.0210 9.01 237 
 BAR2 SZ I         838 21.79         7.3 0.58                          9.01 237 
 GIR2 SZ EP        838  3.16                             159   -0.2010 49.6 350 
 PAM  SZ EP        838  6.39                             145    0.1910 90.2  31 
 PAM  SN ES        838 23.46                             145   -0.0310 90.2  31 
 PAM  SN I         838 24.65        10.0 0.46                          90.2  31 
 PTB  HZ EP        838 10.35                             130   -0.07 9  149 266 
 PTB  HN ES        838 31.08                             130    0.08 9  149 266 
 PTB  HN I         838 33.31         7.4 0.20                           149 266 
                                                                                
