 2015 1229 0422 27.2 L   6.794 -73.166145.8  RSN  9 0.5 1.4LRSN                1
 GAP=134        1.18       3.9     4.7  6.8 -0.2010E+01  0.9266E+01 -0.2100E+01E
 Epicentro: LOS SANTOS - SANTANDER                                             3
 ACTION:UPD 16-02-04 15:08 OP:cam  STATUS:               ID:20151229042227 L   I
 OLDACT:UP  15-12-29 18:48 OP:ak   STATUS:               ID:20151229041747     3
 OLDACT:UP  15-12-29 18:47 OP:ak   STATUS:               ID:20151229041747     3
 OLDACT:REG 15-12-29 13:00 OP:ak   STATUS:               ID:20151229041747     3
 2015-12-29-0417-47M.COL___337                                                 6
 STAT SP IPHASW D HRMM SECON CODA AMPLIT PERI AZIMU VELO AIN AR TRES W  DIS CAZ7
 BAR2 EZ EP        422 46.86                             171    0.0510 22.4 185 
 BAR2 EZ ES        423  1.51                             171   -0.6010 22.4 185 
 BRR  HZ EP        422 48.61                             153    0.3510 69.6 300 
 BRR  HN ES        423  5.62                             153    0.9310 69.6 300 
 BRR  HZ I         423  9.57         5.4 0.15            152           69.6 300 
 PAM  EZ EP        422 50.03                             150    0.5010 79.3  40 
 PAM  EE ES        423  6.98                             150    0.0310 79.3  40 
 PAM  EZ I         423  8.23         1.8 0.19            154           79.3  40 
 RUS  HZ EP        422 50.84                             144   -0.0710  100 175 
 RUS  HN ES        423  9.12                             144   -0.2910  100 175 
 RUS  HZ I         423 11.12         3.6 0.40            147            100 175 
 PTB  HZ EP        422 53.17                             132   -0.78 9  145 259 
 PTB  HN ES        423 14.06                             132   -0.77 9  145 259 
 PTB  HZ I         423 16.52         3.8 0.14            134            145 259 
 SPBC HZ EP        422 55.72                             129    0.21 9  161 219 
 SPBC HN ES        423 18.03                             129    0.43 9  161 219 
 SPBC HZ I         423 22.04         5.1 0.18            131            161 219 
 ZAR  HZ EP   1    422 59.81                             123    0.35 6  202 293 
 ZAR  HE ES        423 24.75                             123    0.13 9  202 293 
 ZAR  HZ I         423 30.10         3.0 0.10            124            202 293 
 NOR  HZ EP        423  2.81                             119    0.12 8  232 234 
 NOR  HE ES        423 30.69                             119    0.32 8  232 234 
 SML  HZ EP        423  3.41                             117   -0.38 8  243 336 
 SML  HN ES        423 31.76                             117   -0.57 8  243 336 
                                                                                
