 2016 1129 0029 25.6 L   6.670 -73.132148.0  RSN  5 0.4 1.5LRSN                1
 GAP=180        1.02       8.7     5.0  8.2 -0.1006E+02  0.8065E+01  0.3510E+01E
 Epicentro: VILLANUEVA - SANTANDER                                             3
 ACTION:UPD 17-10-26 21:12 OP:lp   STATUS:               ID:20161129002925 L   I
 OLDACT:UP  16-11-29 13:49 OP:dani STATUS:               ID:20161129002743     3
 OLDACT:UP  16-11-29 13:49 OP:dani STATUS:               ID:20161129002743     3
 OLDACT:UP  16-11-29 13:49 OP:dani STATUS:               ID:20161129002743     3
 OLDACT:UP  16-11-29 13:48 OP:dani STATUS:               ID:20161129002743     3
 OLDACT:REG 16-11-29 12:21 OP:dani STATUS:               ID:20161129002743     3
 2016-11-29-0028-00M.COL___346                                                 6
 STAT SP IPHASW D HRMM SECON CODA AMPLIT PERI AZIMU VELO AIN AR TRES W  DIS CAZ7
 BAR2 EZ EP        029 45.51                             176    0.1910 10.2 213 
 BAR2 EZ ES        030  0.42                             176   -0.2710 10.2 213 
 BAR2 EZ I         030  4.89         6.5 0.48            171           10.2 213 
 BRR  HZ EP        029 48.01                             150    0.4810 80.3 307 
 BRR  HN ES        030  5.34                             150    0.7110 80.3 307 
 BRR  HZ I         030 12.31         8.1 0.29            148           80.3 307 
 PAM  EZ EP        029 48.77                             148    0.0510 88.1  33 
 PAM  EN ES        030  6.28                             148   -0.4810 88.1  33 
 PAM  EZ I         030  8.24         2.4 0.28            153           88.1  33 
 PTB  HZ EP        029 52.76                             132    0.06 9  147 264 
 PTB  HE ES        030 13.42                             132   -0.42 9  147 264 
 PTB  HZ I         030 21.37         4.3 0.43            134            147 264 
 ZAR  HZ EP   3    029 57.67                             122   -1.27 2  211 296 
 ZAR  HN ES        030 24.49                             122   -0.45 8  211 296 
 ZAR  HZ I         030 31.17         4.3 0.28            124            211 296 
                                                                                
