 2017  129 0857  9.5 L   6.776 -73.178150.6  RSN  5 0.2 1.5LRSN                1
 GAP=141        0.56       5.6     3.0  4.4  0.2143E+01  0.6604E+00 -0.5725E+01E
 Epicentro: LOS SANTOS - SANTANDER                                             3
 ACTION:UPD 17-05-22 16:04 OP:jn   STATUS:               ID:20170129085709 L   I
 OLDACT:REG 17-01-29 13:29 OP:lv   STATUS:               ID:20170129084744     3
 2017-01-29-0848-00M.COL___330                                                 6
 STAT SP IPHASW D HRMM SECON CODA AMPLIT PERI AZIMU VELO AIN AR TRES W  DIS CAZ7
 BAR2 EZ EP        857 29.67                             172   -0.0110 20.3 181 
 BAR2 EZ ES        857 45.31                             172   -0.0910 20.3 181 
 BAR2 EZ I         857 45.49         6.7 0.33            173           20.3 181 
 BRR  HZ EP        857 31.28                             154    0.1710 69.4 302 
 BRR  HN ES        857 48.17                             154    0.2310 69.4 302 
 PAM  EZ EP        857 32.35                             150   -0.1710 81.8  40 
 PTB  HZ EP        857 36.45                             134   -0.09 9  144 260 
 PTB  HN ES        857 57.62                             134    0.02 9  144 260 
 PTB  HZ I         858  0.64         3.2 0.07            132            144 260 
 ZAR  HZ EP        857 42.38                             124    0.32 9  202 293 
 ZAR  HN ES        858  7.01                             124   -0.42 9  202 293 
 ZAR  HZ I         858 13.74         4.2 0.38            122            202 293 
                                                                                
