 2011 1029 0238 18.3 L   6.777 -73.101150.8  RSN  5 0.2 1.7LRSN                1
 GAP=143        0.61       4.6     6.1  5.9 -0.1695E+01 -0.3168E+01  0.3252E+01E
 Epicentro: LOS SANTOS - SANTANDER                                             3
 ACTION:UPD 12-07-13 16:06 OP:ep   STATUS:               ID:20111029023818 L   I
 2011-10-29-0220-00M.COL___177                                                 6
 STAT SP IPHASW D HRMM SECON CODA AMPLIT PERI AZIMU VELO AIN AR TRES W  DIS CAZ7
 BAR2 SZ EP        238 38.33                             171   -0.1610 22.4 204 
 BAR2 SZ ES   1    238 54.46                             171    0.20 7 22.4 204 
 BAR2 SZ I         238 55.06        19.4 0.18                          22.4 204 
 GIR2 SZ EP        238 38.24                             166   -0.4110 34.8 343 
 PAM  SZ EP        238 41.37                             152    0.4010 76.4  36 
 PAM  SN ES   1    238 58.46                             152   -0.21 7 76.4  36 
 BRR  HZ EP        238 40.40                             152    0.1210 76.7 298 
 BRR  HE ES   1    238 57.50                             152    0.06 7 76.7 298 
 BRR  HZ I         238 59.36         9.0 0.16                          76.7 298 
 RUS  HZ EP        238 42.36                             146    0.0210 97.9 179 
 RUS  HN ES   2    239  1.12                             146    0.02 5 97.9 179 
 RUS  HZ I         239  2.74         3.4 0.38                          97.9 179 
                                                                                
