 2017  629 0317 22.8 L   6.734 -73.118142.0  RSN  4 0.3 1.4LRSN                1
 GAP=262        0.59       6.7     5.7  5.4 -0.4583E+01  0.1039E+02  0.4442E+01E
 Epicentro: JORDAN - SANTANDER                                                 3
 ACTION:UPD 17-09-14 16:56 OP:jn   STATUS:               ID:20170629031722 L   I
 OLDACT:UP  17-06-29 14:18 OP:and  STATUS:               ID:20170629030740d    3
 OLDACT:DUP 17-06-29 14:16 OP:and  STATUS:               ID:20170629030740d    3
 OLDACT:UP  17-06-29 14:15 OP:and  STATUS:               ID:20170629030739     3
 OLDACT:REG 17-06-29 12:45 OP:and  STATUS:               ID:20170629030739     3
 2017-06-29-0308-00M.COL___367                                                 6
 STAT SP IPHASW D HRMM SECON CODA AMPLIT PERI AZIMU VELO AIN AR TRES W  DIS CAZ7
 BAR2 EZ ES        317 56.77                             173    0.0010 17.3 205 
 BAR2 EZ I         317 57.78         7.4 0.39            166           17.3 205 
 BRR  HZ EP        317 43.67                             150   -0.2810 77.6 302 
 BRR  HN ES        318  0.69                             150    0.2710 77.6 302 
 BRR  HZ I         318  5.86         6.2 0.14            147           77.6 302 
 PTB  HZ EP        317 49.69                             131    0.03 9  150 262 
 PTB  HN ES        318 10.39                             131   -0.20 9  150 262 
 PTB  HZ I         318 12.88         2.3 0.16            129            150 262 
 NOR  HZ EP   2    317 58.97                             118    0.80 4  233 236 
 NOR  HN ES   2    318 25.87                             118    0.13 4  233 236 
 NOR  HZ I         318 33.13         2.0 0.24            118            233 236 
                                                                                
