 2016  829 0610 58.0 L   6.764 -73.173147.0  RSN  6 0.4 1.2LRSN                1
 GAP=232        0.91       5.1     6.6  7.6  0.1674E+02  0.4705E+01 -0.2249E+01E
 Epicentro: LOS SANTOS - SANTANDER                                             3
 ACTION:UPD 16-10-29 15:40 OP:rebc STATUS:               ID:20160829061058 L   I
 OLDACT:REG 16-08-29 12:55 OP:drio STATUS:               ID:20160829060742     3
 2016-08-29-0608-00M.COL___353                                                 6
 STAT SP IPHASW D HRMM SECON CODA AMPLIT PERI AZIMU VELO AIN AR TRES W  DIS CAZ7
 BAR2 EZ EP        611 17.33                             172   -0.3410 19.0 183 
 BRR  HZ EP        611 19.25                             153    0.0310 70.6 303 
 BRR  HN ES        611 36.08                             153    0.2810 70.6 303 
 BRR  HZ I         611 36.69         3.3 0.10                          70.6 303 
 RUS  HZ EP        611 21.35                             145   -0.2310 96.8 174 
 RUS  HE ES        611 40.11                             145    0.1210 96.8 174 
 RUS  HZ I         611 40.97         1.8 0.26                          96.8 174 
 PTB  HZ EP        611 24.29                             133   -0.42 9  144 260 
 PTB  HE ES   4    611 44.02                             133   -1.54 0  144 260 
 PTB  HZ I         611 47.99         1.0 0.40                           144 260 
 SPBC HZ EP        611 26.63                             130    0.53 9  158 219 
 SPBC HN ES        611 47.95                             130   -0.08 9  158 219 
 SPBC HZ I         611 54.60         2.7 0.22                           158 219 
 ZAR  HZ EP        611 31.02                             123    0.65 9  203 294 
 ZAR  HE ES        611 55.19                             123   -0.46 9  203 294 
 ZAR  HZ I         612  1.97         2.2 0.38                           203 294 
                                                                                
