 2013 1229 0955 54.9 L   6.823 -73.085138.4  RSN  5 0.4 1.7LRSN                1
 GAP=189        0.82       4.3     8.4  8.7  0.1352E+02  0.2418E+01 -0.1388E+02E
 Epicentro: LOS SANTOS - SANTANDER                                             3
 ACTION:UPD 14-01-13 10:22 OP:ep   STATUS:               ID:20131229095554 L   I
 OLDACT:REG 13-12-29 08:38 OP:mh   STATUS:               ID:20131229095000     3
 2013-12-29-0950-00M.COL___285                                                 6
 STAT SP IPHASW D HRMM SECON CODA AMPLIT PERI AZIMU VELO AIN AR TRES W  DIS CAZ7
 BAR2 SZ EP   1    956 13.67                             168   -0.05 8 27.6 203 
 BAR2 SZ ES   1    956 28.59                             168    0.17 8 27.6 203 
 BAR2 SZ I         956 29.68        23.9 0.24            170           27.6 203 
 RUS  HZ EP   1    956 17.82                             141   -0.26 8  103 180 
 RUS  HN ES   2    956 35.97                             141   -0.21 5  103 180 
 RUS  HZ I         956 37.76         3.7 0.26            145            103 180 
 OCA  HZ EP        956 23.27                             128    0.7910  159 351 
 OCA  HN ES        956 43.82                             128   -0.1910  159 351 
 OCA  HZ I         956 47.44         4.3 0.24            130            159 351 
 ZAR  HN ES   1    956 53.02                             120    0.23 7  209 291 
 ZAR  HZ I         956 54.71         3.6 0.07            122            209 291 
 SML  HZ EP        956 30.78                             116   -0.39 9  244 334 
 SML  HN ES        956 59.13                             116   -0.35 9  244 334 
 SML  HZ I         957  2.56         4.9 0.08            117            244 334 
                                                                                
