 2014  429 0120 15.7 L   6.808 -73.112149.7  RSN 11 0.4 2.1LRSN                1
 GAP=140        0.88       3.8     5.4  6.0 -0.9726E+01  0.5790E+01  0.6024E+01E
 Epicentro: LOS SANTOS - SANTANDER                                             3
 ACTION:UPD 14-05-13 23:12 OP:nd   STATUS:               ID:20140429012015 L   I
 OLDACT:UP  14-04-29 14:30 OP:mh   STATUS:               ID:20140429012000     3
 OLDACT:REG 14-04-29 12:46 OP:mh   STATUS:               ID:20140429012000     3
 2014-04-29-0120-00M.COL___270                                                 6
 STAT SP IPHASW D HRMM SECON CODA AMPLIT PERI AZIMU VELO AIN AR TRES W  DIS CAZ7
 BRR  HZ EP        120 37.43                             152    0.0010 74.1 297 
 BRR  HN ES        120 54.67                             152    0.2910 74.1 297 
 BRR  HZ I         121  0.12        11.8 0.11            152           74.1 297 
 PAM  SZ EP        120 38.27                             152    0.1210 74.3  38 
 PAM  SN ES        120 55.69                             152    0.0210 74.3  38 
 PAM  SZ I         120 57.78        12.9 0.19            158           74.3  38 
 RUS  HZ EP   1    120 39.72                             144   -0.16 7  101 178 
 PTB  HZ EP        120 42.69                             132   -0.63 9  152 259 
 SPBC HZ EP   1    120 44.38                             129   -0.40 7  166 220 
 SPBC HN ES        121  7.26                             129   -0.21 9  166 220 
 SPBC HZ I         121 13.66        21.6 0.22            131            166 220 
 NOR  HZ EP   1    120 51.01                             119   -1.02 6  238 235 
 NOR  HN ES        121 20.12                             119   -0.26 8  238 235 
 NOR  HZ I         121 23.78        12.1 0.16            121            238 235 
 SML  HZ EP        120 52.37                             118   -0.25 8  244 334 
 SML  HE ES   1    121 21.60                             118    0.17 6  244 334 
 SML  HZ I         121 25.27        15.3 0.08            121            244 334 
 HEL  HZ EP        120 57.04                             115    0.51 7  276 256 
 HEL  HN ES   4    121 28.62                             115    0.24 0  276 256 
 GUY2CHZ EP        121  0.79                             113    0.91 7  305 235 
 GUY2CHN ES   4    121 34.74                             113    0.39 0  305 235 
 GUY2CHZ I         121 42.26         7.2 0.19                           305 235 
 PRA  HZ EP        121  9.82                             107    0.17 6  395 210 
 PRA  HN ES        121 52.48                             107    0.73 6  395 210 
 PRA  HZ I         121 57.44         4.2 0.28            109            395 210 
 ORTC HZ EP   1    121 10.37                             107    0.28 4  398 217 
 ORTC HN ES        121 52.81                             107    0.29 6  398 217 
 ORTC HZ I         121 58.66         3.7 0.43            109            398 217 
 SJC  HZ EP   4    121  9.82                             106   -1.71 0  411 326 
 SJC  HN ES   4    121 50.14                             106   -4.95 0  411 326 
                                                                                
