 2017 1129 0716 41.3 L   6.594 -73.446113.4  RSN 25 0.7 2.2LRSN                1
 GAP= 45        1.27       2.6     2.6  5.8 -0.9472E+00  0.4105E+01 -0.6969E+00E
 Epicentro: EL CARMEN - SANTANDER                                              3
 ACTION:UPD 17-12-12 20:01 OP:rebc STATUS:               ID:20171129071641 L   I
 OLDACT:UP  17-11-29 17:01 OP:dhb  STATUS:               ID:20171129070640     3
 OLDACT:REG 17-11-29 12:32 OP:dhb  STATUS:               ID:20171129070640     3
 2017-11-29-0707-00M.COL___486                                                 6
 STAT SP IPHASW D HRMM SECON CODA AMPLIT PERI AZIMU VELO AIN AR TRES W  DIS CAZ7
 BAR2 EZ IP     D  716 57.39                             164    0.1410 29.2  90 
 BAR2 EZ ES        717 10.29                             164    0.6210 29.2  90 
 BAR2 EZ I         717 12.18        92.0 0.62            162           29.2  90 
 RUS  HZ EP        717  0.76                             140   -0.2110 87.4 153 
 RUS  HE ES        717 16.77                             140    0.4710 87.4 153 
 RUS  HZ I         717 17.80        47.9 0.26            137           87.4 153 
 PTB  HZ IP     D  717  1.24                             132   -1.1610  112 267 
 PTB  HE ES        717 17.38                             132   -1.4510  112 267 
 PTB  HZ I         717 21.82        32.9 0.18            128            112 267 
 PAM  EZ EP        717  3.37                             131   -0.1110  117  45 
 PAM  EE ES        717 20.96                             131    0.2110  117  45 
 PAM  EZ I         717 25.48        20.2 0.22            127            117  45 
 SPBC HZ EP        717  3.44                             128   -0.2910  125 214 
 SPBC HN ES        717 21.07                             128   -0.1310  125 214 
 SPBC HZ I         717 27.21        47.7 0.22            125            125 214 
 YPLC HZ IP     C  717  8.92                             118   -0.14 9  177 138 
 YPLC HE ES        717 29.95                             118   -0.74 9  177 138 
 YPLC HZ I         717 33.55        25.6 0.22            115            177 138 
 OCA  HZ EP        717  9.52                             117   -0.19 9  182   4 
 OCA  HN ES        717 32.49                             117    0.65 9  182   4 
 OCA  HZ I         717 36.80        59.1 0.32            113            182   4 
 TAM  HZ EP        717  9.25                             117   -0.47 9  184  95 
 TAM  HZ I         717 30.66        16.8 0.70            113            184  95 
 TAM  HE ES        717 31.72                             117   -0.15 9  184  95 
 ZAR  HZ EP        717  9.86                             117    0.07 9  185 303 
 ZAR  HN ES        717 32.29                             117    0.31 9  185 303 
 ZAR  HZ I         717 38.00        25.6 0.28            113            185 303 
 NOR  HZ EP        717 10.17                             115   -0.71 9  194 234 
 NOR  HE ES        717 33.69                             115   -0.24 9  194 234 
 NOR  HZ I         717 38.31        14.2 0.18            112            194 234 
 ROSC BZ EP   9    717 14.90                             113    1.10 0  217 207 
 ROSC BN ES        717 40.48                             113    0.25 8  217 207 
 ROSC BZ I         717 45.75         7.2 0.35            110            217 207 
 CHI  HZ EP        717 14.64                             112    0.50 8  220 188 
 CHI  HE ES        717 40.19                             112    0.46 8  220 188 
 CHI  HZ I         717 45.10         6.5 0.24            109            220 188 
 HEL  HZ EP        717 16.22                             111    0.42 8  235 259 
 HEL  HE ES        717 43.40                             111    0.71 8  235 259 
 HEL  HZ I         717 48.41        12.7 0.24            108            235 259 
 GUY2CHZ EP   2    717 19.99                             108    1.04 4  261 235 
 GUY2CHN ES   3    717 50.32                             108    2.03 2  261 235 
 GUY2CHZ I         717 58.22        10.0 0.38                           261 235 
 URE  HZ EP   9    717 17.47                             108   -1.22 0  264 299 
 URE  HE ES        717 45.93                             108   -0.68 8  264 299 
 URE  HZ I         717 48.30        20.7 0.16            105            264 299 
 ELA  HE ES        717 55.53                             106    1.27 7  289 229 
 ELA  HZ I         718  2.98         6.0 0.40            103            289 229 
 CBOC HZ EP        717 22.87                             106    0.30 7  295 254 
 CBOC HE ES        717 54.78                             106    0.04 7  295 254 
 CBOC HZ I         717 57.22         3.6 0.44            102            295 254 
 PTGC HZ EP   9    717 21.48                             105   -1.70 0  302 151 
 PTGC HN ES        717 54.27                             105    0.15 7  302 151 
 PTGC HZ I         717 54.92         5.3 0.34            102            302 151 
 DRL03HZ EP        717 24.61                             104    0.59 7  309 359 
 DRL03HE ES   2    717 58.54                             104    1.22 4  309 359 
 LL6C HZ EP   9    717 29.72                             102    1.12 0  348   3 
 LL6C HE ES        718  7.16                             102    0.57 6  348   3 
 LL6C HZ I         718 19.12         9.9 0.54             99            348   3 
 PRA  HZ EP        717 29.34                             102   -0.30 6  356 207 
 PRA  HE ES        718  7.59                             102    0.26 6  356 207 
 PRA  HZ I         718 16.06         5.6 0.26             99            356 207 
 ORTC HZ EP        717 30.07                             102    0.26 6  358 214 
 ORTC HE ES        718  8.27                             102    0.64 6  358 214 
 ORTC HZ I         718 17.41         3.3 0.36             99            358 214 
 ARGC HZ EP        717 31.81                             101    0.38 6  372 346 
 ARGC HE ES   4    718 12.09                             101    1.59 0  372 346 
 ARGC HZ I         718 20.98         3.2 0.44             98            372 346 
 APAC HZ EP        717 31.51                             101   -0.32 6  375 293 
 APAC HN ES   3    718  8.97                             101   -2.25 2  375 293 
 APAC HZ I         718 16.86         4.1 0.36             98            375 293 
 SJC  HZ EP   3    717 34.22                              99   -2.15 1  412 333 
 SJC  HE ES   2    718 17.25                              99   -2.05 3  412 333 
 SJC  HZ I         718 29.70         3.4 0.36             96            412 333 
                                                                                
