 2015  129 0607 50.7 L   6.777 -73.124154.7  RSN  8 0.5 1.9LRSN                1
 GAP=140        1.14       4.1     5.0  6.8 -0.1677E+00  0.7829E+01 -0.4218E+01E
 Epicentro: LOS SANTOS - SANTANDER                                             3
 ACTION:UPD 15-03-02 15:43 OP:nd   STATUS:               ID:20150129060750 L   I
 OLDACT:REG 15-01-29 17:22 OP:cam  STATUS:               ID:20150129060648     3
 2015-01-29-0606-48M.COL___271                                                 6
 STAT SP IPHASW D HRMM SECON CODA AMPLIT PERI AZIMU VELO AIN AR TRES W  DIS CAZ7
 BAR2 EZ IP     D  6 8 11.46                             172    0.1310 21.4 197 
 BAR2 EZ ES        6 8 27.04                             172   -0.4110 21.4 197 
 BAR2 EZ I         6 8 28.14         7.1 0.36            164           21.4 197 
 BRR  HZ EP     D  6 8 13.35                             153    0.3910 74.5 299 
 BRR  HN ES        6 8 30.95                             153    0.6010 74.5 299 
 BRR  HZ I         6 8 32.99         9.7 0.14            148           74.5 299 
 PAM  SZ EP     D  6 8 14.18                             152    0.3210 77.9  37 
 PAM  SN ES        6 8 31.73                             152   -0.2210 77.9  37 
 PAM  SZ I         6 8 33.61        11.9 0.54            152           77.9  37 
 RUS  HZ EP        6 8 14.91                             146   -0.2010 97.9 177 
 RUS  HN ES        6 8 34.46                             146    0.2710 97.9 177 
 RUS  HZ I         6 8 36.92         3.2 0.44            137           97.9 177 
 PTB  HZ EP        6 8 18.14                             134   -0.39 9  150 260 
 PTB  HN ES        6 8 39.82                             134   -0.45 9  150 260 
 PTB  HZ I         6 8 45.42        10.7 0.34            126            150 260 
 OCA  HZ EP   4    6 8 19.78                             131   -0.15 0  163 352 
 SPBC HZ EP        6 8 20.38                             131    0.57 9  163 220 
 SPBC HN ES        6 8 42.00                             131   -0.56 9  163 220 
 SPBC HZ I         6 8 49.57        14.8 0.32            123            163 220 
 ZAR  HZ EP        6 8 23.80                             124   -0.22 8  207 293 
 ZAR  HE ES        6 8 50.90                             124    0.86 8  207 293 
 ZAR  HZ I         6 8 55.98         9.7 0.52            118            207 293 
 SML  HZ EP        6 8 27.96                             119   -0.19 8  247 335 
 SML  HN ES        6 8 56.59                             119   -0.81 8  247 335 
 SML  HZ I         6 8 59.45        11.1 0.10            115            247 335 
 HEL  HZ EP   4    6 8 33.20                             116    1.67 0  274 256 
 PTGC HZ EP   4    6 8 33.73                             113   -0.84 0  305 159 
 MON  HZ EP   4    6 8 38.62                             110   -1.79 0  357 308 
                                                                                
