 2015  129 0034 30.0 L   6.096 -73.999 87.9  RSN 11 0.4 1.7LRSN                1
 GAP= 76        1.09       2.6     3.1  6.9 -0.5130E+00  0.5120E+01  0.2173E+01E
 Epicentro: EL PENON - SANTANDER                                               3
 ACTION:UPD 15-03-02 15:43 OP:nd   STATUS:               ID:20150129003430 L   I
 OLDACT:UP  15-01-29 13:52 OP:cam  STATUS:               ID:20150129002813     3
 OLDACT:UP  15-01-29 13:52 OP:cam  STATUS:               ID:20150129002813     3
 OLDACT:REG 15-01-29 12:57 OP:cvam STATUS:               ID:20150129002813     3
 2015-01-29-0028-13M.COL___268                                                 6
 STAT SP IPHASW D HRMM SECON CODA AMPLIT PERI AZIMU VELO AIN AR TRES W  DIS CAZ7
 SPBC HZ EP        034 44.13                             148    0.3110 49.7 189 
 SPBC HN ES        034 55.22                             148    0.6110 49.7 189 
 SPBC HZ I         034 56.72        50.3 0.22            147           49.7 189 
 PTB  HZ IP     D  034 44.53                             138   -0.7310 70.5 314 
 PTB  HN ES        034 56.61                             138   -0.5610 70.5 314 
 PTB  HZ I         034 56.97        17.9 0.16            141           70.5 314 
 RUS  HZ EP   1    034 49.06                             127    0.10 7  104 102 
 RUS  HN ES        035  3.31                             127   -0.4410  104 102 
 RUS  HZ I         035  8.88         3.5 0.28            126            104 102 
 BAR2 EZ EP   1    034 49.15                             126    0.34 7  106  59 
 BAR2 EZ ES        035  3.48                             126   -0.0110  106  59 
 BAR2 EZ I         035  5.61        24.8 0.54            126            106  59 
 NOR  HZ EP        034 48.77                             124   -0.5310  113 239 
 NOR  HN ES   4    035  3.01                             124   -1.35 0  113 239 
 NOR  HZ I         035  4.40        16.1 0.14            124            113 239 
 BRR  HZ EP        034 49.45                             123   -0.1210  116  16 
 BRR  HN ES        035  5.48                             123    0.6410  116  16 
 BRR  HZ I         035  6.57        18.2 0.34            124            116  16 
 CHI  HZ EP        034 55.76                             113    0.36 9  165 170 
 CHI  HN ES        035 14.65                             113   -0.58 9  165 170 
 CHI  HZ I         035 20.57         2.8 0.66            113            165 170 
 GUY2CHZ EP        034 57.03                             111   -0.12 9  179 238 
 GUY2CHE ES        035 18.79                             111    0.46 9  179 238 
 GUY2CHZ I         035 22.24         4.6 0.36                           179 238 
 ZAR  HZ EP   1    034 57.02                             111    0.24 7  181 328 
 ZAR  HE ES        035 17.82                             111    0.14 9  181 328 
 ZAR  HZ I         035 20.75         5.6 0.26            112            181 328 
 PAM  SZ EP   4    035  1.52                             109    2.10 0  199  46 
 RREF HZ EP   1    034 59.53                             109   -0.14 6  199 229 
 RREF HE ES   4    035 24.18                             109    1.36 0  199 229 
 RREF HZ I         035 29.19         4.6 0.28            110            199 229 
 TOL  SZ EP        035  2.44                             107    0.48 8  222 221 
                                                                                
