 2015  629 0942 49.1 L   6.751 -73.122143.2  RSN  7 0.3 1.9LRSN                1
 GAP=208        0.70       3.5     4.9  5.1 -0.5085E+00  0.4444E+01  0.3967E+01E
 Epicentro: LOS SANTOS - SANTANDER                                             3
 ACTION:UPD 15-09-10 22:15 OP:cam  STATUS:               ID:20150629094249 L   I
 OLDACT:UP  15-06-29 21:21 OP:mh   STATUS:               ID:20150629093748     3
 OLDACT:REG 15-06-29 13:01 OP:mh   STATUS:               ID:20150629093748     3
 2015-06-29-0937-48M.COL___307                                                 6
 STAT SP IPHASW D HRMM SECON CODA AMPLIT PERI AZIMU VELO AIN AR TRES W  DIS CAZ7
 BAR2 EZ EP        943  8.66                             172    0.3210 18.8 201 
 BAR2 EZ ES   1    943 23.04                             172   -0.30 7 18.8 201 
 BAR2 EZ I         943 25.71        13.9 0.46            167           18.8 201 
 BRR  HZ EP        943 10.52                             151    0.2510 76.2 301 
 BRR  HN ES        943 26.97                             151    0.2010 76.2 301 
 BRR  HZ I         943 32.04        10.7 0.42            148           76.2 301 
 OCA  HZ EP        943 17.93                             128    0.17 9  166 352 
 OCA  HE ES   1    943 39.34                             128   -0.77 7  166 352 
 OCA  HZ I         943 41.79        25.9 0.28            131            166 352 
 ZAR  HZ EP        943 21.68                             121   -0.17 8  209 293 
 ZAR  HN ES        943 47.19                             121   -0.21 8  209 293 
 ZAR  HZ I         943 52.28         8.6 0.34            122            209 293 
 HEL  HZ EP        943 29.37                             114    0.04 8  273 257 
 HEL  HN ES   2    944  1.39                             114    0.68 4  273 257 
 HEL  HZ I         944  7.98         3.0 0.28            115            273 257 
 GUY2CHE ES   4    944  6.57                             112    0.24 0  300 236 
 GUY2CHZ I         944 13.38         2.0 0.32                           300 236 
 PRA  HZ EP        943 41.92                             106   -0.22 6  389 210 
 PRA  HN ES        944 23.05                             106   -0.46 6  389 210 
 PRA  HZ I         944 30.08         1.9 0.26            108            389 210 
                                                                                
