 2012  229 0134 50.6 L   6.781 -73.148138.9  RSN  4 0.4 1.3LRSN                1
 GAP=137        0.70       4.9     5.0  9.5 -0.4943E+01  0.2258E+01 -0.2091E+01E
 ACTION:UP  12-03-07 16:35 OP:epov STATUS:               ID:20120229013450 L   I
 2012-02-29-0130-00M.COL___191                                                 6
 STAT SP IPHASW D HRMM SECON CODA AMPLIT PERI AZIMU VELO AIN AR TRES W  DIS CAZ7
 BRR  HZ EP        135 11.27                             151    0.2110 72.0 300 
 BRR  HE ES   2    135 27.84                             151    0.82 5 72.0 300 
 BRR  HZ I         135 42.08         7.7 0.46                          72.0 300 
 PAM  SZ EP        135 12.14                             149   -0.0610 79.2  39 
 PAM  SE ES   1    135 28.77                             149   -0.28 7 79.2  39 
 RUS  HZ EP   1    135 13.66                             143    0.13 7 98.5 176 
 RUS  HN ES   1    135 31.47                             143    0.05 7 98.5 176 
 RUS  HZ I         135 32.64         2.1 0.26                          98.5 176 
 PTB  HN ES   1    135 36.91                             130   -0.60 7  147 260 
                                                                                
