 2012  329 0346 56.7 L   6.767 -73.138140.0  RSN  9 0.5 1.8LRSN                1
 GAP=139        1.08       5.1     5.9  8.6 -0.5848E-01  0.1680E+02  0.3493E+01E
 ACTION:UP  12-03-31 23:23 OP:EP   STATUS:               ID:20120329034656 L   I
 2012-03-29-0340-00M.COL___196                                                 6
 STAT SP IPHASW D HRMM SECON CODA AMPLIT PERI AZIMU VELO SNR AR TRES W  DIS CAZ7
 BAR2 SZ EP        347 15.66                             172     0.110   20 194 
 BAR2 SZ ES   1    347 29.81                             172    -0.5 7   20 194 
 BAR2 SZ I         347 32.50        16.2 0.28                            20 194 
 BRR  HZ IP     C  347 17.60                             151     0.210   74 301 
 BRR  HZ I         347 17.94        29.0 0.10                            74 301 
 BRR  HE ES   1    347 34.33                             151     0.8 7   74 301 
 PAM  SZ EP        347 18.73                             149     0.310   80  37 
 PAM  SN ES   1    347 35.41                             149     0.0 7   80  37 
 RUS  HZ EP        347 19.54                             144    -0.110   97 176 
 RUS  HN ES   1    347 37.82                             144     0.3 7   97 176 
 RUS  HZ I         347 40.09         5.7 0.34                            97 176 
 PTB  HZ EP        347 22.44                             131    -0.8 9  148 260 
 PTB  HN ES   2    347 43.16                             131    -0.8 5  148 260 
 PTB  HZ I         347 45.67         7.5 0.14                           148 260 
 OCA  SZ ES   1    347 46.21                             128    -0.8 7  164 353 
 ZAR  HZ EP   1    347 29.04                             121     0.0 6  206 293 
 ZAR  HN ES   1    347 54.82                             121     0.6 6  206 293 
 ZAR  HZ I         347 57.91         5.5 0.34                           206 293 
 NOR  SZ EP   1    347 32.28                             117     0.3 6  233 235 
 NOR  SN ES   2    347 59.43                             117     0.0 4  233 235 
 HEL  HZ EP   2    347 37.58                             114     0.9 4  272 257 
 HEL  HN ES   3    348  6.62                             114    -1.2 2  272 257 
 HEL  HZ I         348 14.48         3.6 0.38                           272 257 
                                                                                
