 2017  729 0345 24.5 L   6.761 -73.130144.4  RSN  6 0.3 1.4LRSN                1
 GAP=236        0.66       3.8     4.3  5.4 -0.1336E+01  0.8358E+00  0.1063E+01E
 Epicentro: LOS SANTOS - SANTANDER                                             3
 ACTION:UPD 17-08-30 15:37 OP:rebc STATUS:               ID:20170729034524 L   I
 OLDACT:UP  17-07-29 15:10 OP:and  STATUS:               ID:20170729033737d    3
 OLDACT:UP  17-07-29 15:10 OP:and  STATUS:               ID:20170729033737d    3
 OLDACT:DUP 17-07-29 15:08 OP:and  STATUS:               ID:20170729033737d    3
 OLDACT:UP  17-07-29 15:05 OP:and  STATUS:               ID:20170729033736     3
 OLDACT:REG 17-07-29 12:46 OP:and  STATUS:               ID:20170729033736     3
 2017-07-29-0338-00M.COL___386                                                 6
 STAT SP IPHASW D HRMM SECON CODA AMPLIT PERI AZIMU VELO AIN AR TRES W  DIS CAZ7
 BAR2 EZ EP        345 43.81                             172   -0.1110 19.5 197 
 BAR2 EZ ES        345 58.66                             172   -0.3910 19.5 197 
 BAR2 EZ I         346  0.21         6.7 0.36            172           19.5 197 
 BRR  HZ EP        345 45.63                             151   -0.1110 74.9 301 
 BRR  HE ES        346  2.63                             151    0.3410 74.9 301 
 BRR  HZ I         346  9.79         6.7 0.46            149           74.9 301 
 RUS  HZ EP   2    345 48.34                             145    0.52 5 96.1 177 
 RUS  HN ES        346  6.20                             145    0.2010 96.1 177 
 RUS  HZ I         346  7.20         3.9 0.20            148           96.1 177 
 PTB  HZ EP   9    345 50.58                             132   -0.89 0  149 261 
 PTB  HN ES        346 11.59                             132   -0.01 9  149 261 
 PTB  HZ I         346 13.83         2.4 0.18            132            149 261 
 SPBC HN ES        346 14.87                             129    0.18 9  161 220 
 SPBC HZ I         346 19.74         4.3 0.12            131            161 220 
 NOR  HN ES        346 27.43                             118   -0.35 8  234 236 
 NOR  HZ I         346 28.80         1.5 0.16            120            234 236 
                                                                                
