 2017  929 0524 20.4 L   6.966 -73.063155.8  RSN  4 0.3 1.3LRSN                1
 GAP=255        0.79       6.4     8.3  7.7  0.3384E+02  0.2071E+02  0.1239E+02E
 Epicentro: PIEDECUESTA - SANTANDER                                            3
 ACTION:UPD 17-10-05 19:17 OP:rebc STATUS:               ID:20170929052420 L   I
 OLDACT:UP  17-09-29 17:31 OP:edw  STATUS:               ID:20170929051742     3
 OLDACT:REG 17-09-29 12:48 OP:edw  STATUS:               ID:20170929051742     3
 2017-09-29-0518-00M.COL___432                                                 6
 STAT SP IPHASW D HRMM SECON CODA AMPLIT PERI AZIMU VELO AIN AR TRES W  DIS CAZ7
 BAR2 EZ EP        524 42.23                             164    0.4410 43.4 198 
 BAR2 EZ ES        524 58.37                             164   -0.0910 43.4 198 
 BAR2 EZ I         525  0.79         2.6 0.20            157           43.4 198 
 RUS  HZ EP   2    524 46.50                             141    0.01 5  119 181 
 RUS  HN ES        525  6.59                             141   -0.2410  119 181 
 RUS  HZ I         525  7.02         3.7 0.30            138            119 181 
 ZAR  HE ES        525 19.74                             124   -0.08 8  207 286 
 CHI  HZ EP        525  0.28                             117   -0.58 8  269 196 
 CHI  HN ES        525 32.89                             117    0.48 8  269 196 
 CHI  HZ I         525 39.73         0.9 0.56            116            269 196 
                                                                                
