 2017  829 0038 51.0 L   6.637 -73.607 19.4  RSN  4 0.2 1.0LRSN                1
 GAP=203        0.60       1.9     2.9  3.0  0.3551E+01 -0.3147E+01 -0.2169E+01E
 Epicentro: EL CARMEN - SANTANDER                                              3
 ACTION:UPD 17-09-04 20:26 OP:rebc STATUS:               ID:20170829003851 L   I
 OLDACT:REG 17-08-29 12:39 OP:dani STATUS:               ID:20170829003740     3
 2017-08-29-0038-00M.COL___417                                                 6
 STAT SP IPHASW D HRMM SECON CODA AMPLIT PERI AZIMU VELO AIN AR TRES W  DIS CAZ7
 BAR2 EZ EP        038 59.51                             110    0.1110 47.2  96 
 BAR2 EZ ES        039  6.02                             110    0.0610 47.2  96 
 BAR2 EZ I         039  6.50        19.4 0.22             47           47.2  96 
 BRR  HZ EP        038 59.90                             107   -0.1110 53.2 347 
 BRR  HN ES        039  6.98                             107   -0.0610 53.2 347 
 BRR  HZ I         039  8.30         5.6 0.11             47           53.2 347 
 RUS  HZ EP        039  7.81                              99    0.2710  101 145 
 RUS  HE ES        039 20.11                              99   -0.3410  101 145 
 RUS  HZ I         039 21.13         3.2 0.17             47            101 145 
 PAM  EZ EP        039 11.67                              56    0.3110  127  52 
 PAM  EE ES        039 27.03                              56   -0.2210  127  52 
 PAM  EZ I         039 32.77         2.4 0.26             47            127  52 
                                                                                
