 2010  729 0436 31.2 L   6.813 -73.326127.6  RSN  5 0.2 1.2LRSN                1
 GAP=142        0.53       5.3     9.6  8.4  0.2629E+02 -0.4982E+02 -0.2115E+02E
 Epicentro: ZAPATOCA - SANTANDER                                               3
 ACTION:UPD 10-12-01 15:20 OP:pat  STATUS:               ID:20100729043631 L   I
 2010-07-29-0433-37S.COL___123                                                 6
 STAT SP IPHASW D HRMM SECON CODA AMPLIT PERI AZIMU VELO AIN AR TRES W  DIS CAZ7
 BAR2 SZ EP   1    436 49.12                             166     0.3 7   29 147 
 BAR2 SZ ES   2    437  2.48                             166     0.0 5   29 147 
 BAR2 SZ I         437  3.54         9.6 0.18                            29 147 
 BRR  HZ EP   1    436 49.48                             155     0.1 7   54 307 
 BRR  HN ES   1    437  3.54                             155    -0.1 7   54 307 
 BRR  HZ I         437  4.51         5.1 0.09                            54 307 
 RUS  HZ EP   2    436 53.32                             138    -0.2 5  105 165 
 RUS  HZ I         437  9.06         1.1 0.60                           105 165 
 RUS  HE ES   2    437 10.86                             138    -0.2 5  105 165 
 GUE  SZ EP   1    436 54.35                             134    -0.3 7  121  21 
 GRA  SZ EP   2    436 55.79                             131     0.4 5  132  26 
 GRA  SZ I         436 57.07         1.4 0.29                           132  26 
                                                                                
