 2017 1129 0117 26.0 L   6.785 -73.130139.8  RSN 12 0.5 1.8LRSN                1
 GAP=114        1.07       2.9     3.6  5.8 -0.6818E+00  0.7278E+01  0.9016E+00E
 Epicentro: LOS SANTOS - SANTANDER                                             3
 ACTION:UPD 17-12-12 20:01 OP:rebc STATUS:               ID:20171129011726 L   I
 OLDACT:DUP 17-11-29 12:59 OP:dhb  STATUS:               ID:20171129010740d    3
 OLDACT:REG 17-11-29 12:02 OP:dhb  STATUS:               ID:20171129010739     3
 2017-11-29-0108-00M.COL___499                                                 6
 STAT SP IPHASW D HRMM SECON CODA AMPLIT PERI AZIMU VELO AIN AR TRES W  DIS CAZ7
 BAR2 HZ EP        117 44.69                             171   -0.2010 22.1 195 
 BAR2 HZ ES        117 59.64                             171    0.0110 22.1 195 
 BAR2 HZ I         118  0.72        13.1 0.28            171           22.1 195 
 PAM  EZ EP        117 47.71                             149    0.1110 77.5  38 
 PAM  EN ES        118  4.65                             149    0.2110 77.5  38 
 PAM  EZ I         118  7.29        10.2 0.46            152           77.5  38 
 RUS  HZ EP        117 49.07                             143    0.0310 98.8 177 
 RUS  HN ES        118  7.04                             143    0.0210 98.8 177 
 RUS  HZ I         118  7.92         7.4 0.22            145           98.8 177 
 PTB  HZ EP        117 51.68                             130   -0.94 9  149 260 
 PTB  HN ES        118 12.82                             130   -0.57 9  149 260 
 PTB  HZ I         118 14.63         6.6 0.24            130            149 260 
 OCA  HZ EP        117 54.63                             128    0.60 9  162 353 
 OCA  HN ES        118 16.03                             128    0.13 9  162 353 
 OCA  HZ I         118 20.83        20.3 0.36            129            162 353 
 SPBC HZ EP        117 53.92                             128   -0.12 9  163 220 
 SPBC HN ES        118 15.57                             128   -0.34 9  163 220 
 SPBC HZ I         118 20.05         6.6 0.20            129            163 220 
 YPLC HZ EP        117 54.94                             125   -0.20 9  175 152 
 YPLC HN ES        118 17.93                             125    0.06 9  175 152 
 YPLC HZ I         118 19.27         3.8 0.26            128            175 152 
 ZAR  HZ EP        117 58.45                             121    0.15 8  206 292 
 ZAR  HN ES        118 23.83                             121    0.33 8  206 292 
 ZAR  HZ I         118 29.54        10.9 0.72            121            206 292 
 NOR  HZ IP     C  118  1.25                             117   -0.20 8  235 235 
 NOR  HE ES        118 29.53                             117    0.43 8  235 235 
 NOR  HZ I         118 35.00         4.3 0.36            118            235 235 
 URE  HZ EP        118  5.85                             112   -1.19 7  286 292 
 URE  HN ES   4    118 37.24                             112   -1.82 0  286 292 
 URE  HZ I         118 44.26         4.8 0.16            113            286 292 
 GUY2CHZ EP        118 10.32                             111    0.92 7  302 235 
 GUY2CHE ES        118 44.02                             111    0.77 7  302 235 
 GUY2CHZ I         118 51.83         2.7 0.36                           302 235 
 PRA  HZ EP        118 19.50                             105    0.24 6  391 210 
 PRA  HE ES        119  1.42                             105    0.62 6  391 210 
 PRA  HZ I         119  6.03         1.6 0.32            107            391 210 
                                                                                
