 2017 1229 0843 52.4 L   7.320 -73.333128.1  RSN  6 0.4 1.3LRSN                1
 GAP= 87        1.06       3.8     4.6  9.5 -0.3210E+01  0.1992E+02 -0.6854E+01E
 Epicentro: SABANA DE TORRES - SANTANDER                                       3
 ACTION:UPD 18-01-04 13:25 OP:rebc STATUS:               ID:20171229084352 L   I
 OLDACT:DUP 17-12-29 17:31 OP:osc  STATUS:               ID:20171229083742d    3
 2017-12-29-0838-00M.COL___439                                                 6
 STAT SP IPHASW D HRMM SECON CODA AMPLIT PERI AZIMU VELO AIN AR TRES W  DIS CAZ7
 PAM  EZ EP        844 12.73                             150    0.4610 70.0  88 
 PAM  EN ES        844 27.90                             150    0.1110 70.0  88 
 BAR2 EZ EP        844 12.76                             145    0.0510 82.2 168 
 BAR2 EZ ES        844 28.54                             145   -0.0310 82.2 168 
 BAR2 EZ I         844 29.08         6.9 0.42            148           82.2 168 
 OCA  HZ EP        844 14.13                             139    0.0910  102   1 
 OCA  HN ES        844 30.48                             139   -0.4610  102   1 
 OCA  HZ I         844 32.09        10.8 0.20            140            102   1 
 PTB  HZ EP        844 18.10                             127   -0.19 9  151 235 
 PTB  HE ES        844 37.98                             127   -0.52 9  151 235 
 PTB  HZ I         844 38.87         1.1 0.42            128            151 235 
 ZAR  HZ EP        844 19.64                             123   -0.45 9  169 277 
 ZAR  HN ES        844 42.72                             123    1.00 9  169 277 
 ZAR  HZ I         844 46.16         1.7 0.16            124            169 277 
 DRL03HE ES        844 53.01                             115   -0.10 8  230 356 
                                                                                
