 2016  429 0652 36.3 L   7.016 -73.258156.5  RSN  4 0.6 1.2LRSN                1
 GAP=110        1.44       9.6     9.5 15.5 -0.4119E+02  0.2511E+02  0.1810E+02E
 Epicentro: GIRON - SANTANDER                                                  3
 ACTION:UPD 16-05-05 14:25 OP:rebc STATUS:               ID:20160429065236 L   I
 OLDACT:UP  16-04-29 17:06 OP:mh   STATUS:               ID:20160429064745d    3
 OLDACT:UP  16-04-29 17:06 OP:mh   STATUS:               ID:20160429064745d    3
 OLDACT:UP  16-04-29 17:06 OP:mh   STATUS:               ID:20160429064745d    3
 OLDACT:DUP 16-04-29 17:03 OP:mh   STATUS:               ID:20160429064745d    3
 OLDACT:UP  16-04-29 17:01 OP:mh   STATUS:               ID:20160429064744     3
 OLDACT:REG 16-04-29 12:59 OP:dnl  STATUS:               ID:20160429064744     3
 2016-04-29-0647-44M.COL___292                                                 6
 STAT SP IPHASW D HRMM SECON CODA AMPLIT PERI AZIMU VELO AIN AR TRES W  DIS CAZ7
 BAR2 EZ EP        652 57.34                             162   -0.5910 47.6 170 
 BAR2 EZ I         653  7.42         1.6 0.08            166           47.6 170 
 PAM  EZ EP        653  0.33                             154    0.9710 71.3  60 
 PAM  EE ES        653 17.14                             154   -0.1910 71.3  60 
 PAM  EZ I         653 19.89         3.2 0.52            161           71.3  60 
 OCA  HZ EP        653  2.48                             137   -0.85 9  135 357 
 OCA  HE ES        653 24.67                             137    0.28 9  135 357 
 OCA  HZ I         653 36.15         3.0 0.16            139            135 357 
 PTB  HZ EP        653  4.14                             135    0.40 9  143 248 
 PTB  HN ES        653 25.10                             135   -0.03 9  143 248 
 PTB  HZ I         653 35.85         1.3 0.26            136            143 248 
                                                                                
