 2017 1229 0751 58.2 L   6.832 -73.135144.7  RSN  7 0.4 1.4LRSN                1
 GAP=150        1.09       4.6     5.4  7.9 -0.8840E+01  0.1721E+02  0.1167E+01E
 Epicentro: LOS SANTOS - SANTANDER                                             3
 ACTION:UPD 18-01-04 13:25 OP:rebc STATUS:               ID:20171229075158 L   I
 OLDACT:REG 17-12-29 13:16 OP:osc  STATUS:               ID:20171229074322     3
 2017-12-29-0748-00M.COL___439                                                 6
 STAT SP IPHASW D HRMM SECON CODA AMPLIT PERI AZIMU VELO AIN AR TRES W  DIS CAZ7
 BAR2 EZ EP        752 17.55                             169   -0.2510 27.0 191 
 BAR2 EZ ES        752 33.37                             169    0.3010 27.0 191 
 BAR2 EZ I         752 36.02         5.0 0.52            168           27.0 191 
 PAM  EZ EP        752 20.60                             152    0.4910 73.9  41 
 PAM  EN ES        752 37.21                             152    0.0210 73.9  41 
 PAM  EZ I         752 38.88         3.4 0.42            157           73.9  41 
 PTB  HZ EP        752 24.39                             131   -0.87 9  150 258 
 PTB  HE ES        752 45.98                             131   -0.38 9  150 258 
 PTB  HZ I         752 47.92         1.9 0.24            133            150 258 
 OCA  HN ES        752 47.47                             130   -0.42 9  157 353 
 SPBC HZ EP        752 26.53                             128   -0.43 9  167 219 
 SPBC HE ES        752 49.47                             128    0.08 9  167 219 
 SPBC HZ I         752 56.01         4.5 0.20            130            167 219 
 ZAR  HZ EP        752 31.31                             122    0.75 9  204 291 
 ZAR  HE ES        752 56.13                             122    0.34 9  204 291 
 ZAR  HZ I         753  2.25         3.2 0.30            124            204 291 
 GUY2CHZ EP        752 42.54                             112    0.43 7  304 234 
 GUY2CHN ES        753 16.63                             112    0.28 7  304 234 
 GUY2CHZ I         753 23.98         1.3 0.44                           304 234 
                                                                                
