 2015  129 0454 19.2 L   6.823 -73.152145.1  RSN 10 0.5 1.8LRSN                1
 GAP=135        1.20       3.5     4.9  6.6  0.1709E+01  0.8434E+01 -0.5451E+00E
 Epicentro: LOS SANTOS - SANTANDER                                             3
 ACTION:UPD 15-03-02 15:43 OP:nd   STATUS:               ID:20150129045419 L   I
 OLDACT:UP  15-01-29 15:33 OP:cam  STATUS:               ID:20150129044806d    3
 OLDACT:DUP 15-01-29 15:31 OP:cam  STATUS:               ID:20150129044806d    3
 OLDACT:REG 15-01-29 13:16 OP:cvam STATUS:               ID:20150129044805     3
 2015-01-29-0448-05M.COL___268                                                 6
 STAT SP IPHASW D HRMM SECON CODA AMPLIT PERI AZIMU VELO AIN AR TRES W  DIS CAZ7
 BAR2 EZ EP     C  454 38.82                             170    0.0610 25.7 187 
 BAR2 EZ ES        454 53.63                             170   -0.4210 25.7 187 
 BAR2 EZ I         454 57.01        11.0 0.20            168           25.7 187 
 BRR  HZ IP     C  454 40.59                             153    0.4610 69.3 297 
 BRR  HN ES        454 57.61                             153    1.1210 69.3 297 
 BRR  HZ I         454 58.35        14.4 0.32            149           69.3 297 
 PAM  SZ EP        454 41.59                             151    0.3810 75.9  41 
 PAM  SN ES        454 57.73                             151   -0.6910 75.9  41 
 RUS  HZ EP        454 42.83                             143   -0.2010  103 176 
 RUS  HN ES        455  1.68                             143    0.0210  103 176 
 RUS  HZ I         455  3.25         6.3 0.32            144            103 176 
 PTB  HZ EP        454 45.59                             132   -0.46 9  148 258 
 PTB  HN ES        455  6.61                             132   -0.42 9  148 258 
 PTB  HZ I         455  9.98         8.0 0.14            130            148 258 
 SPBC HZ EP        454 47.59                             129   -0.16 9  165 218 
 SPBC HN ES        455 10.08                             129    0.03 9  165 218 
 SPBC HN I         455 14.65        20.9 0.16            128            165 218 
 ZAR  HZ EP        454 51.28                             122   -0.11 9  202 292 
 ZAR  HN ES        455 16.79                             122    0.26 9  202 292 
 ZAR  HZ I         455 22.58        10.4 0.64            121            202 292 
 SML  HZ EP        454 55.92                             118    0.46 8  241 335 
 SML  HN ES        455 23.89                             118    0.12 8  241 335 
 SML  HZ I         455 29.47         8.1 0.22            118            241 335 
 CHI  HZ EP        454 57.28                             117    0.22 8  251 195 
 CHI  HN ES        455 26.78                             117    0.15 8  251 195 
 CHI  HZ I         455 30.85         2.6 0.62            117            251 195 
 MON  HN ES        455 44.53                             109   -1.35 6  352 308 
 MON  HN I         455 58.58         1.6 0.22            108            352 308 
                                                                                
