 2014 1129 0322 32.6 L   6.793 -73.163141.4  RSN 10 0.4 1.5LRSN                1
 GAP=135        0.92       3.0     3.7  5.2 -0.3509E+00  0.7034E+01  0.8312E-01E
 Epicentro: LOS SANTOS - SANTANDER                                             3
 ACTION:UPD 14-12-19 15:48 OP:nd   STATUS:               ID:20141129032232 L   I
 OLDACT:REG 14-11-29 12:59 OP:fm   STATUS:               ID:20141129031746     3
 2014-11-29-0317-46M.COL___303                                                 6
 STAT SP IPHASW D HRMM SECON CODA AMPLIT PERI AZIMU VELO AIN AR TRES W  DIS CAZ7
 BAR2 SZ EP        322 52.12                             171    0.4310 22.3 186 
 BAR2 SZ ES        323  6.08                             171   -0.5010 22.3 186 
 BAR2 SZ I         323  8.49         5.6 0.48            169           22.3 186 
 BRR  HZ EP        322 53.77                             152    0.5610 69.9 300 
 BRR  HE ES        323  9.75                             152    0.4710 69.9 300 
 BRR  HZ I         323 12.76         4.3 0.16            151           69.9 300 
 PAM  SZ EP        322 54.67                             149    0.2010 79.2  40 
 PAM  SN ES        323 10.99                             149   -0.5310 79.2  40 
 PAM  SZ I         323 14.40         5.4 0.68            154           79.2  40 
 RUS  HE ES        323 13.90                             143   -0.1510100.0 175 
 RUS  HZ I         323 15.25         3.0 0.40            144          100.0 175 
 PTB  HZ EP        322 59.05                             131    0.01 9  146 259 
 PTB  HN ES        323 19.57                             131   -0.08 9  146 259 
 PTB  HZ I         323 22.50         3.1 0.18            131            146 259 
 SPBC HN ES        323 22.60                             128    0.16 9  161 219 
 SPBC HZ I         323 26.28         5.4 0.10            129            161 219 
 ZAR  HZ EP        323  4.62                             121    0.00 9  203 293 
 ZAR  HN ES        323 29.93                             121    0.35 9  203 293 
 ZAR  HZ I         323 36.91         4.6 0.54            122            203 293 
 NOR  HZ EP        323  7.37                             118   -0.50 8  233 234 
 NOR  HE ES        323 35.01                             118   -0.37 8  233 234 
 NOR  HZ I         323 42.85         2.6 0.42            119            233 234 
 CHI  HZ EP        323 10.19                             116    0.26 8  247 195 
 CHI  HN ES        323 39.16                             116    0.11 8  247 195 
 CHI  HZ I         323 45.35         1.9 0.30            118            247 195 
 MON  HZ EP        323 20.71                             108   -0.61 6  353 309 
 MON  HN ES        323 58.77                             108   -0.55 6  353 309 
 MON  HZ I         324  0.76         1.1 0.64            109            353 309 
                                                                                
