 2014  529 0912 56.9 L   6.733 -73.115141.5  RSN  5 0.4 1.4LRSN                1
 GAP=171        0.95       9.4     5.6  7.5 -0.2248E+02  0.8871E+01 -0.9007E+01E
 Epicentro: JORDAN - SANTANDER                                                 3
 ACTION:UPD 15-03-16 17:01 OP:nd   STATUS:               ID:20140529091256 L   I
 OLDACT:DUP 14-05-29 18:36 OP:stll STATUS:               ID:20140529090817d    3
 2014-05-29-0908-16M.COL___247                                                 6
 STAT SP IPHASW D HRMM SECON CODA AMPLIT PERI AZIMU VELO AIN AR TRES W  DIS CAZ7
 BAR2 SZ EP        913 15.91                             173    0.0310 17.3 206 
 BAR2 SZ ES        913 31.04                             173    0.3310 17.3 206 
 BAR2 SZ I         913 32.75         3.3 0.30            160           17.3 206 
 BRR  HZ EP        913 17.70                             150   -0.2610 77.9 302 
 BRR  HZ I         913 18.25         4.3 0.32            129           77.9 302 
 BRR  HN ES        913 34.81                             150    0.4010 77.9 302 
 PAM  SZ EP        913 18.97                             149    0.1010 81.2  34 
 PAM  SZ I         913 19.10         7.4 0.22            137           81.2  34 
 PAM  SN ES        913 35.61                             149   -0.4310 81.2  34 
 PTB  HN ES        913 44.00                             131   -0.61 9  150 262 
 ZAR  HZ EP        913 30.16                             121    0.49 8  210 294 
 ZAR  HZ I         914  0.66         2.6 0.40            107            210 294 
                                                                                
