 2011  829 0752 33.5 L   6.832 -73.058143.7  RSN  4 0.2 1.4LRSN                1
 GAP=210        0.44       6.8     8.9  5.0  0.3480E+02 -0.5399E+01  0.6381E+01E
 Epicentro: LOS SANTOS - SANTANDER                                             3
 ACTION:UPD 12-07-13 15:54 OP:ep   STATUS:               ID:20110829075233 L   I
 2011-08-29-0740-00M.COL___162                                                 6
 STAT SP IPHASW D HRMM SECON CODA AMPLIT PERI AZIMU VELO AIN AR TRES W  DIS CAZ7
 BAR2 SZ EP   1    752 53.19                             168    0.17 7 29.9 207 
 BAR2 SZ ES   1    753  8.01                             168   -0.25 7 29.9 207 
 BAR2 SZ I         753  9.53         5.7 0.32                          29.9 207 
 GIR2 SZ EP   1    752 52.67                             167   -0.24 7 31.2 331 
 GIR2 SZ ES   1    753  8.28                             167    0.22 7 31.2 331 
 BRR  HZ EP   1    752 54.74                             150   -0.10 7 78.4 293 
 BRR  HZ I         752 57.02         5.7 0.11                          78.4 293 
 BRR  HN ES   1    753 11.57                             150    0.07 7 78.4 293 
 RUS  HZ EP   1    752 57.42                             142    0.14 7  104 182 
                                                                                
