 2017 1229 0703 33.9 L   6.860 -73.278122.1  RSN  5 0.5 1.5LRSN                1
 GAP=162        1.01       4.0     5.4  8.7 -0.4952E+01  0.1454E+02 -0.1006E+02E
 Epicentro: BETULIA - SANTANDER                                                3
 ACTION:UPD 18-01-04 13:25 OP:rebc STATUS:               ID:20171229070333 L   I
 OLDACT:REG 17-12-29 13:12 OP:osc  STATUS:               ID:20171229065412     3
 2017-12-29-0658-00M.COL___445                                                 6
 STAT SP IPHASW D HRMM SECON CODA AMPLIT PERI AZIMU VELO AIN AR TRES W  DIS CAZ7
 BAR2 EZ EP        7 3 51.40                             165    0.5110 31.5 160 
 BAR2 EZ ES        7 4  4.25                             165    0.0910 31.5 160 
 BAR2 EZ I         7 4  5.74        23.3 0.28            165           31.5 160 
 PTB  HZ EP   3    7 3 56.62                             129   -1.16 2  135 255 
 PTB  HN ES        7 4 16.08                             129   -0.3510  135 255 
 PTB  HZ I         7 4 18.83         3.0 0.16            129            135 255 
 OCA  HZ EP        7 3 59.60                             125   -0.08 9  153 358 
 OCA  HE ES        7 4 19.35                             125   -0.46 9  153 358 
 OCA  HZ I         7 4 21.19        11.6 0.24            127            153 358 
 SPBC HZ EP        7 3 59.71                             124   -0.63 9  160 213 
 SPBC HN ES        7 4 21.00                             124    0.03 9  160 213 
 SPBC HZ I         7 4 26.15         1.6 0.11            124            160 213 
 ZAR  HZ EP        7 4  3.87                             119    0.71 9  188 292 
 ZAR  HN ES        7 4 26.28                             119    0.28 9  188 292 
 ZAR  HZ I         7 4 28.82         2.2 0.28            120            188 292 
                                                                                
