 2011 1029 0612 31.0 L   6.790 -73.102141.6  RSN  5 0.2 1.2LRSN                1
 GAP=143        0.57       4.6     6.1  8.3  0.8145E+00 -0.1384E+02  0.8200E+01E
 Epicentro: LOS SANTOS - SANTANDER                                             3
 ACTION:UPD 12-07-13 16:06 OP:ep   STATUS:               ID:20111029061231 L   I
 2011-10-29-0610-08S.COL___176                                                 6
 STAT SP IPHASW D HRMM SECON CODA AMPLIT PERI AZIMU VELO AIN AR TRES W  DIS CAZ7
 BTL  SZ EP        612 50.50                             171    0.3310 23.2 308 
 BAR2 SZ EP   2    612 49.76                             170   -0.41 5 23.6 202 
 BAR2 SZ I         613 10.22         5.9 0.42                          23.6 202 
 PAM  SZ EP        612 52.70                             151    0.0110 75.3  36 
 PAM  SN ES   2    613  9.38                             151   -0.19 5 75.3  36 
 BRR  HZ EP        612 51.69                             150   -0.3310 76.0 298 
 BRR  HE ES   1    613  8.50                             150    0.11 7 76.0 298 
 BRR  HZ I         613 11.53         4.4 0.14                          76.0 298 
 RUS  HZ EP        612 54.42                             143    0.1310 99.2 179 
 RUS  HN ES   2    613 12.19                             143   -0.22 5 99.2 179 
 RUS  HZ I         613 13.92         1.5 0.42                          99.2 179 
                                                                                
