 2014  129 0336 24.6 L   6.783 -73.200136.6  RSN 11 0.4 1.5LRSN                1
 GAP=108        0.89       3.6     3.9  5.9  0.7753E+00  0.3012E+01  0.2936E+00E
 Epicentro: ZAPATOCA - SANTANDER                                               3
 ACTION:UPD 14-03-13 09:59 OP:ep   STATUS:               ID:20140129033624 L   I
 OLDACT:UP  14-01-30 09:22 OP:ep   STATUS:               ID:20140129033624 L   3
 OLDACT:UP  14-01-30 09:20 OP:ep   STATUS:               ID:20140129033624 L   3
 OLDACT:UP  14-01-30 03:36 OP:CAM  STATUS:               ID:20140129033624 L   3
 OLDACT:DUP 14-01-29 11:57 OP:stll STATUS:               ID:20140129032809d    3
 2014-01-29-0328-08M.COL___245                                                 6
 STAT SP IPHASW D HRMM SECON CODA AMPLIT PERI AZIMU VELO AIN AR TRES W  DIS CAZ7
 BAR2 SZ ES        336 57.35                             171   -0.1310 21.2 175 
 BRR  HZ EP   1    336 45.17                             152    0.67 7 67.0 302 
 BRR  HN ES   4    337  2.11                             152    2.08 0 67.0 302 
 RUS  HZ EP   1    336 47.67                             142    0.33 7 99.3 173 
 RUS  HN ES   1    337  5.57                             142    0.47 7 99.3 173 
 RUS  HZ I         337  7.66         3.3 0.28            146           99.3 173 
 PTB  HZ EP        336 50.00                             131   -0.24 9  142 259 
 PTB  HN ES        337  9.85                             131   -0.40 9  142 259 
 PTB  HZ I         337 14.71         3.6 0.16            133            142 259 
 TAM  HZ EP        336 51.63                             127   -0.43 9  160 104 
 TAM  HZ I         336 52.35         4.2 0.46            130            160 104 
 OCA  HN ES   1    337 13.73                             127   -0.22 7  162 355 
 OCA  HZ I         337 16.45         5.0 0.32            128            162 355 
 ZAR  HN ES   1    337 21.16                             121    0.76 6  199 293 
 NOR  HZ EP   1    336 59.76                             117    0.61 6  229 234 
 NOR  HN ES   4    337 27.32                             117    1.21 0  229 234 
 SML  HZ EP   1    337  0.16                             115   -0.47 6  243 337 
 SML  HN ES   1    337 28.95                             115    0.20 6  243 337 
 SML  HZ I         337 35.08         3.0 0.24            117            243 337 
 CHI  HZ EP        337  1.54                             115    0.12 8  245 194 
 CHI  HE ES   4    337 27.95                             115   -2.20 0  245 194 
 GUY2CHZ EP        337  7.38                             111    0.28 7  295 234 
 GUY2CHN ES        337 39.59                             111   -0.68 7  295 234 
                                                                                
