 2010  929 0407 48.8 L   6.797 -73.067138.2  RSN  4 0.2 1.4LRSN                1
 GAP=167        0.45       4.8     9.5  9.2  0.1261E+02 -0.5332E+02 -0.2448E+02E
 Epicentro: LOS SANTOS - SANTANDER                                             3
 ACTION:UP  11-02-18 11:06 OP:tino STATUS:               ID:20100929040748 L   I
 2010-09-29-0403-36S.COL___125                                                 6
 STAT SP IPHASW D HRMM SECON CODA AMPLIT PERI AZIMU VELO SNR AR TRES W  DIS CAZ7
 BAR2 SZ EP   2    4 8  7.79                             169     0.2 5   26 210 
 BAR2 SZ ES   2    4 8 21.90                             169    -0.3 5   26 210 
 BAR2 SZ I         4 8 23.55         5.1 0.41                            26 210 
 BRR  HZ EP   2    4 8  9.45                             148    -0.2 5   79 296 
 BRR  HZ I         4 8 21.45        15.5 0.31                            79 296 
 BRR  HN ES   2    4 8 25.98                             148     0.1 5   79 296 
 RUS  HZ EP   2    4 8 11.48                             142    -0.3 5  100 181 
 RUS  HE ES   2    4 8 29.96                             142     0.3 5  100 181 
 RUS  HZ I         4 8 31.47         1.6 0.37                           100 181 
 GRA  SZ EP        4 8 13.22                             136     0.010  124  14 
 GRA  SZ I         4 8 14.55         6.1 0.23                           124  14 
                                                                                
