 2011 1129 0735 10.7 L   6.780 -73.097146.5  RSN  9 0.4 2.3LRSN                1
 GAP=144        0.91       4.8     7.5  6.5 -0.9148E+01  0.1558E+02  0.2797E+01E
 Epicentro: LOS SANTOS - SANTANDER                                             3
 ACTION:UPD 12-07-13 16:13 OP:ep   STATUS:               ID:20111129073510 L   I
 2011-11-29-0733-16S.COL___160                                                 6
 STAT SP IPHASW D HRMM SECON CODA AMPLIT PERI AZIMU VELO AIN AR TRES W  DIS CAZ7
 BAR2 SZ IP        735 30.23                             171   -0.1910 22.8 205 
 BAR2 SZ ES   1    735 45.86                             171    0.07 7 22.8 205 
 BAR2 SZ I         735 48.13        37.8 0.22                          22.8 205 
 PAM  SZ EP        735 32.97                             152    0.0510 75.9  35 
 PAM  SN ES   1    735 50.24                             152    0.01 7 75.9  35 
 BRR  HZ IP     C  735 32.11                             151   -0.1710 77.0 298 
 BRR  HZ I         735 32.47        61.6 0.10                          77.0 298 
 BRR  HE ES   1    735 49.48                             151    0.38 7 77.0 298 
 RUS  HZ EP        735 34.06                             145   -0.3010 98.1 179 
 RUS  HN ES   1    735 52.84                             145    0.04 7 98.1 179 
 RUS  HZ I         735 53.94        16.9 0.42                          98.1 179 
 OCA  SZ EP        735 39.39                             129    0.03 9  163 351 
 OCA  SZ I         736  5.63        12.0 0.20                           163 351 
 CTAB SZ EP        735 47.55                             119    0.95 8  231 212 
 NOR  SZ EP        735 45.94                             118   -0.88 8  238 236 
 NOR  SN ES   3    736 13.88                             118   -1.11 2  238 236 
 RREF HZ EP        735 57.80                             111    0.60 7  324 230 
 RREF HZ I         736 42.62        14.9 0.32                           324 230 
 PRA  HZ EP   2    736  4.42                             107    0.07 3  393 210 
                                                                                
