 2010  729 0256  5.4 L   6.787 -73.150147.0  RSN  6 0.4 1.7LRSN                1
 GAP=158        0.90       4.6     9.8  9.5 -0.1094E+02 -0.1408E+02  0.2255E+01E
 Epicentro: LOS SANTOS - SANTANDER                                             3
 ACTION:UPD 10-12-01 15:20 OP:pat  STATUS:               ID:20100729025605 L   I
 2010-07-29-0254-17S.COL___123                                                 6
 STAT SP IPHASW D HRMM SECON CODA AMPLIT PERI AZIMU VELO AIN AR TRES W  DIS CAZ7
 BRR  HZ EP        256 26.60                             153    -0.110   72 300 
 BRR  HZ I         256 27.07        11.8 0.13                            72 300 
 BRR  HE ES   1    256 43.57                             153     0.2 7   72 300 
 RUS  HZ EP   1    256 28.98                             144    -0.2 7   99 176 
 RUS  HN ES   1    256 47.68                             144    -0.1 7   99 176 
 RUS  HZ I         256 49.00         3.2 0.18                            99 176 
 GUE  SZ EP   1    256 29.77                             139    -0.6 7  118  12 
 GRA  SZ EP        256 31.55                             137     0.610  127  17 
 GRA  SZ ES   1    256 50.89                             137     0.1 7  127  17 
 GRA  SZ I         256 51.89         6.6 0.36                           127  17 
 OCA  SZ EP   2    256 33.40                             130    -0.6 5  162 353 
 OCA  SZ ES   2    256 55.75                             130    -0.5 5  162 353 
 OCA  SZ I         256 59.56         8.7 0.23                           162 353 
 PRA  HZ EP   1    256 59.03                             107     0.2 4  391 210 
 PRA  HN ES   2    257 41.30                             107     0.8 3  391 210 
 PRA  HZ I         257 47.01         2.9 0.49                           391 210 
                                                                                
