 2014  529 0729 57.0 L   6.796 -73.145143.1  RSN 19 0.6 2.5LRSN                1
 GAP= 71        1.31       3.3     3.5  5.8 -0.2312E+01  0.5105E+01  0.4950E+01E
 Epicentro: LOS SANTOS - SANTANDER                                             3
 ACTION:UPD 15-03-16 17:01 OP:nd   STATUS:               ID:20140529072957 L   I
 OLDACT:REG 14-05-29 13:46 OP:stll STATUS:               ID:20140529072816     3
 2014-05-29-0728-16M.COL___256                                                 6
 STAT SP IPHASW D HRMM SECON CODA AMPLIT PERI AZIMU VELO AIN AR TRES W  DIS CAZ7
 BAR2 SZ IP     D  730 16.46                             170    0.1610 22.9 190 
 BAR2 SZ ES        730 31.01                             170   -0.3510 22.9 190 
 BAR2 SZ I         730 34.17        72.8 0.18            168           22.9 190 
 BRR  HZ EP        730 18.29                             152    0.4110 71.5 299 
 BRR  HN ES        730 35.12                             152    0.9510 71.5 299 
 BRR  HZ I         730 37.42        25.9 0.12            151           71.5 299 
 PAM  SZ EP        730 19.13                             150    0.1710 77.7  39 
 PAM  SZ I         730 19.52        45.6 0.22            155           77.7  39 
 PAM  SN ES        730 36.38                             150    0.3010 77.7  39 
 RUS  HZ EP        730 20.35                             143   -0.1110  100 176 
 RUS  HN ES        730 39.11                             143    0.3610  100 176 
 RUS  HZ I         730 40.63        33.3 0.26            144            100 176 
 PTB  HZ EP        730 23.29                             131   -0.46 9  148 259 
 PTB  HN ES        730 43.85                             131   -0.77 9  148 259 
 PTB  HZ I         730 47.32        35.3 0.10            131            148 259 
 TAM  HZ EP        730 24.48                             130    0.03 9  155 105 
 TAM  HZ I         730 24.79        24.2 0.36            134            155 105 
 TAM  HN ES        730 45.06                             130   -0.80 9  155 105 
 OCA  HZ EP        730 25.03                             129   -0.12 9  161 353 
 OCA  HN ES        730 47.04                             129   -0.07 9  161 353 
 OCA  HZ I         730 51.21        30.5 0.40            131            161 353 
 SPBC HZ EP        730 25.36                             128    0.09 9  163 219 
 SPBC HN ES        730 47.14                             128   -0.18 9  163 219 
 SPBC HZ I         730 54.59        52.0 0.44            129            163 219 
 ZAR  HZ EP        730 28.75                             122   -0.55 9  204 292 
 ZAR  HE ES        730 53.46                             122   -1.04 9  204 292 
 ZAR  HZ I         731  0.65        28.7 0.28            122            204 292 
 NOR  HZ EP        730 32.51                             118   -0.05 8  234 235 
 NOR  HE ES        730 59.84                             118   -0.45 8  234 235 
 NOR  HZ I         731  4.00        29.1 0.18            119            234 235 
 CHI  HZ EP        730 34.39                             117   -0.12 8  248 195 
 CHI  HZ I         730 37.03        11.7 0.38            118            248 195 
 CHI  HE ES        731  3.14                             117   -0.62 8  248 195 
 ROSC BZ EP        730 36.18                             116    1.24 8  252 211 
 ROSC BE ES        731  5.67                             116    1.14 8  252 211 
 ROSC BZ I         731 11.33        30.1 0.50            117            252 211 
 HEL  HZ EP        730 37.69                             114    0.61 8  272 256 
 HEL  HE ES        731  8.35                             114    0.02 8  272 256 
 HEL  HZ I         731 15.49        16.7 0.24            115            272 256 
 GUY2CHZ EP        730 40.72                             112    0.25 7  301 235 
 GUY2CHN ES        731 15.06                             112    0.69 7  301 235 
 GUY2CHZ I         731 23.13        19.6 0.76                           301 235 
 RREF HZ EP        730 43.35                             110    0.35 7  322 229 
 RREF HE ES        731 19.25                             110    0.37 7  322 229 
 RREF HZ I         731 24.95        14.3 0.24            111            322 229 
 TOL  SZ EP        730 45.54                             109    0.42 7  343 225 
 TOL  SE ES        731 22.04                             109   -0.61 7  343 225 
 ANIL HZ EP        730 47.57                             108    0.90 6  357 225 
 ANIL HE ES        731 26.23                             108    0.81 6  357 225 
 ANIL HZ I         731 38.32        26.4 0.32            109            357 225 
 PRA  HZ EP        730 49.41                             106   -0.98 6  392 210 
 PRA  HN ES        731 30.92                             106   -1.11 6  392 210 
 PRA  HZ I         731 37.02        10.5 0.52            107            392 210 
 ORTC HZ EP        730 50.20                             106   -0.59 6  395 216 
 ORTC HN ES        731 31.79                             106   -0.96 6  395 216 
 ORTC HZ I         731 39.80        11.7 0.72            107            395 216 
                                                                                
