 2011 1029 0924 18.6 L   6.768 -73.086145.4  RSN 10 0.4 2.2LRSN                1
 GAP=146        0.84       4.4     5.9  5.8 -0.8223E+01  0.1219E+02  0.9453E+00E
 Epicentro: LOS SANTOS - SANTANDER                                             3
 ACTION:UPD 12-07-13 16:06 OP:ep   STATUS:               ID:20111029092418 L   I
 2011-10-29-0922-45S.COL___176                                                 6
 STAT SP IPHASW D HRMM SECON CODA AMPLIT PERI AZIMU VELO AIN AR TRES W  DIS CAZ7
 BAR2 SZ IP        924 38.05                             171   -0.1010 22.2 209 
 BAR2 SZ ES   1    924 53.33                             171   -0.08 7 22.2 209 
 BAR2 SZ I         924 55.92        33.2 0.22                          22.2 209 
 PAM  SZ IP        924 40.91                             151    0.2110 76.2  34 
 PAM  SN ES   1    924 57.94                             151    0.00 7 76.2  34 
 BRR  HZ EP        924 39.95                             150   -0.1910 78.7 298 
 BRR  HN ES   1    924 57.24                             150    0.29 7 78.7 298 
 BRR  HZ I         924 59.61        48.9 0.14                          78.7 298 
 RUS  HZ EP        924 41.91                             145   -0.1310 96.8 180 
 RUS  HE ES   1    925  0.50                             145    0.17 7 96.8 180 
 RUS  HZ I         925  2.28        11.4 0.22                          96.8 180 
 OCA  SZ EP        924 47.10                             129   -0.19 9  165 351 
 OCA  SZ I         925 11.76         9.9 0.47                           165 351 
 NOR  SN ES   1    925 22.22                             118   -0.59 6  238 236 
 HEL  HZ EP        924 59.12                             114   -0.28 7  278 257 
 HEL  HZ I         925 35.28         8.6 0.26                           278 257 
 GUY  SZ EP        925  3.59                             112    0.75 7  307 236 
 GUY  SZ I         925 44.35        17.9 0.36                           307 236 
 RREF HZ EP        925  5.97                             111    0.93 7  325 231 
 RREF HZ I         925 50.21        11.3 0.46                           325 231 
 PRA  HZ EP        925 11.29                             106   -0.84 6  392 211 
                                                                                
