 2013 1129 0043 33.4 L   7.051 -73.389102.3  RSN  5 0.3 1.3LRSN                1
 GAP=177        0.73       3.9     5.9  6.6  0.1670E+02 -0.1420E+02 -0.1026E+02E
 Epicentro: SAN VICENTE DE CHUCURI - SANTANDER                                 3
 ACTION:UPD 14-01-09 16:31 OP:ep   STATUS:               ID:20131129004333 L   I
 OLDACT:REG 13-11-29 07:37 OP:mh   STATUS:               ID:20131129004000     3
 2013-11-29-0040-00M.COL___282                                                 6
 STAT SP IPHASW D HRMM SECON CODA AMPLIT PERI AZIMU VELO AIN AR TRES W  DIS CAZ7
 BRR  HZ EP        043 47.90                             159   -0.0310 36.2 280 
 BRR  HN ES        043 59.49                             159    0.2110 36.2 280 
 BRR  HZ I         044  7.02         5.1 0.19            170           36.2 280 
 BAR2 SZ EP   1    043 49.56                             149    0.24 7 55.6 156 
 BAR2 SZ I         044  4.68        10.3 0.19            150           55.6 156 
 RUS  HZ EP        043 56.58                             123    0.3310  132 165 
 RUS  HN ES        044 13.61                             123   -0.4810  132 165 
 RUS  HZ I         044 16.88         1.0 0.19            130            132 165 
 ZAR  HN ES        044 19.90                             116   -0.06 9  169 287 
 SML  HZ EP        044  4.07                             110    0.24 8  208 339 
 SML  HN ES        044 27.15                             110   -0.42 8  208 339 
 SML  HZ I         044 32.68         5.5 0.07            115            208 339 
                                                                                
