 2012 1129 0030 45.9 L   6.805 -73.178140.8  RSN 14 0.5 3.0LRSN 3.1WRSN        1
 SPEC AVERAGE  MO 13.8 ST  6.8 OM  2.5 f0 4.08 R0.3640 AL 2.82 WI 21.0 MW  3.1 3
 SPEC SD       MO  0.2 ST  6.0 OM  0.6 f00.369 R0.0326 AL      WI      MW  0.1 3
 GAP= 69        1.21       3.1     3.5  5.7  0.7704E+00  0.7064E+01  0.1707E+01E
 Epicentro: LOS SANTOS - SANTANDER                                             3
 SPEC TAM HH N MO 13.7 ST  3.5 OM  2.0 f0 3.62 R0.4061 AL 2.70 WI 17.7 MW  3.1 3
 SPEC TAM HH N T 03133 K 0.000 GD  212 VS 4.20 DE 3.20 Q0300.0 QA 0.60 VS 4.20 3
 SPEC PTB HH E MO 13.8 ST  7.8 OM  2.1 f0 4.48 R0.3281 AL 2.13 WI 19.3 MW  3.1 3
 SPEC PTB HH E T 03131 K 0.000 GD  201 VS 4.20 DE 3.20 Q0300.0 QA 0.60 VS 4.20 3
 SPEC RUS HH N MO 13.6 ST  3.8 OM  2.0 f0 3.98 R0.3693 AL 2.55 WI 15.0 MW  3.0 3
 SPEC RUS HH N T 03125 K 0.000 GD  173 VS 4.20 DE 3.20 Q0300.0 QA 0.60 VS 4.20 3
 SPEC PRA HH N MO 13.6 ST  5.2 OM  1.6 f0 4.49 R0.3274 AL 2.53 WI 20.5 MW  3.0 3
 SPEC PRA HH N T 03220 K 0.000 GD  415 VS 4.20 DE 3.20 Q0300.0 QA 0.60 VS 4.20 3
 SPEC HEL HH N MO 13.7 ST  3.6 OM  1.8 f0 3.80 R0.3868 AL 3.07 WI 23.1 MW  3.1 3
 SPEC HEL HH N T 03155 K 0.000 GD  303 VS 4.20 DE 3.20 Q0300.0 QA 0.60 VS 4.20 3
 SPEC OCA HH E MO 14.2 ST 22.5 OM  2.5 f0 4.60 R0.3196 AL 3.23 WI 26.9 MW  3.4 3
 SPEC OCA HH E T 03133 K 0.000 GD  212 VS 4.20 DE 3.20 Q0300.0 QA 0.60 VS 4.20 3
 SPEC PAM SH N MO 13.6 ST  4.4 OM  2.0 f0 4.28 R0.3435 AL 3.44 WI 18.0 MW  3.0 3
 SPEC PAM SH N T 03123 K 0.000 GD  161 VS 4.20 DE 3.20 Q0300.0 QA 0.60 VS 4.20 3
 SPEC ANILHH N MO  0.0 ST0.000 OM  2.2 f0 3.41 R0.4557 AL 2.37 WI 24.5 MW  0.0 3
 SPEC ANILHH N T 03212 K 0.000 GD  287 VS 4.20 DE 3.20 Q0300.0 QA 0.60 VS 4.20 3
 SPEC CHI HH N MO 13.9 ST  3.9 OM  2.0 f0 3.41 R0.4311 AL 2.90 WI 27.2 MW  3.2 3
 SPEC CHI HH N T 03150 K 0.000 GD  285 VS 4.20 DE 3.20 Q0300.0 QA 0.60 VS 4.20 3
 ACTION:UPD 12-12-05 15:36 OP:}ep  STATUS:               ID:20121129003045 L   I
 2012-11-29-0030-00M.COL___236                                                 6
 STAT SP IPHASW D HRMM SECON CODA AMPLIT PERI AZIMU VELO AIN AR TRES W  DIS CAZ7
 BAR2 SZ IP        031  5.14                             170    0.1710 23.5 181 
 BAR2 SZ I         031  5.47       179.4 0.16                          23.5 181 
 BAR2 SZ ES        031 20.40                             170    0.5810 23.5 181 
 GIR2 SZ EP        031  5.24                             167    0.2510 30.3 357 
 GIR2 SZ ES        031 20.02                             167    0.1710 30.3 357 
 GIR2 SZ I         031 21.60        91.0 0.60                          30.3 357 
 PAM  SZ IP     D  031  8.00                             149    0.2610 79.3  42 
 PAM  SN ES        031 24.67                             149   -0.0810 79.3  42 
 PAM  SZ I         031 25.67        59.0 0.28                          79.3  42 
 RUS  HZ EP        031  9.08                             143   -0.1810  101 174 
 RUS  HN ES        031 26.90                             143   -0.5510  101 174 
 RUS  HN I         031 28.99       107.0 0.32                           101 174 
 PTB  HZ EP        031 11.67                             132   -0.52 9  144 258 
 PTB  HN ES        031 32.66                             132   -0.01 9  144 258 
 PTB  HN I         031 37.96       156.1 0.38                           144 258 
 OCA  HZ EP        031 13.38                             129   -0.39 9  159 354 
 OCA  HN ES        031 34.48                             129   -1.01 9  159 354 
 OCA  HN I         031 38.97       285.4 0.22                           159 354 
 TAM  HZ IP     C  031 13.46                             129   -0.10 9  159 105 
 TAM  HN ES        031 34.97                             129   -0.14 9  159 105 
 TAM  HN I         031 39.02        89.6 0.38                           159 105 
 ZAR  HZ EP        031 17.66                             122   -0.03 9  201 292 
 ZAR  HN ES        031 42.51                             122    0.04 9  201 292 
 ZAR  HN I         031 49.83       156.2 0.30                           201 292 
 SML  HZ EP        031 23.01                             117    0.94 8  242 336 
 SML  HN ES        031 51.56                             117    1.30 8  242 336 
 SML  HN I         031 58.30       166.8 0.10                           242 336 
 CHI  HZ EP        031 23.43                             116    0.12 8  248 194 
 CHI  HN ES        031 52.51                             116    0.04 8  248 194 
 CHI  HN I         031 57.02        37.9 0.54                           248 194 
 HEL  HZ EP        031 25.99                             114    0.47 8  269 256 
 HEL  HN ES        031 56.58                             114    0.17 8  269 256 
 HEL  HN I         032  4.50        41.8 0.26                           269 256 
 URE  HZ EP        031 25.18                             113   -1.19 7  280 292 
 URE  HN ES        031 57.07                             113   -0.84 7  280 292 
 URE  HN I         032  9.33        96.4 0.24                           280 292 
 RREF HZ EP        031 32.00                             110    0.41 7  319 229 
 PRA  HZ EP        031 39.48                             106    0.35 6  391 209 
 PRA  HN ES        032 20.93                             106    0.30 6  391 209 
                                                                                
