 2012 1129 0536 38.7 L   6.783 -73.180147.0  RSN  4 0.2 1.5LRSN                1
 GAP=275        0.57       4.9     4.6  4.7  0.1008E+02  0.6864E+01  0.6636E+01E
 Epicentro: LOS SANTOS - SANTANDER                                             3
 ACTION:UPD 12-12-05 15:36 OP:}ep  STATUS:               ID:20121129053638 L   I
 2012-11-29-0530-00M.COL___236                                                 6
 STAT SP IPHASW D HRMM SECON CODA AMPLIT PERI AZIMU VELO AIN AR TRES W  DIS CAZ7
 BAR2 SZ ES        537 13.80                             171   -0.0410 21.1 181 
 BAR2 SZ I         537 15.06         8.7 0.18                          21.1 181 
 RUS  HZ EP        537  2.34                             144   -0.1410 99.0 174 
 RUS  HN ES        537 21.14                             144    0.1310 99.0 174 
 RUS  HN I         537 23.16         5.1 0.32                          99.0 174 
 PTB  HZ EP        537  5.81                             133    0.39 9  144 259 
 PTB  HN ES        537 26.04                             133   -0.21 9  144 259 
 PTB  HN I         537 31.97         3.8 0.24                           144 259 
 CHI  HZ EP        537 15.89                             118   -0.29 8  246 194 
 CHI  HN ES        537 45.51                             118    0.11 8  246 194 
 CHI  HN I         537 53.23         1.3 0.46                           246 194 
                                                                                
