 2011 1029 0537 29.7 L   6.813 -73.143146.3  RSN  7 0.4 1.7LRSN                1
 GAP=136        0.76       5.0     7.9  8.1 -0.2540E+01  0.9815E+01 -0.3933E+01E
 Epicentro: LOS SANTOS - SANTANDER                                             3
 ACTION:UPD 12-07-13 16:06 OP:ep   STATUS:               ID:20111029053729 L   I
 2011-10-29-0534-32S.COL___176                                                 6
 STAT SP IPHASW D HRMM SECON CODA AMPLIT PERI AZIMU VELO AIN AR TRES W  DIS CAZ7
 BTL  SZ EP        537 49.94                             172    0.6510 18.0 310 
 BAR2 SZ EP        537 49.18                             170   -0.2410 24.7 190 
 BAR2 SZ ES   2    538  4.45                             170   -0.35 5 24.7 190 
 BAR2 SZ I         538  9.82        10.6 0.58                          24.7 190 
 BRR  HZ EP        537 50.99                             152    0.1210 70.8 297 
 BRR  HN ES   2    538  7.90                             152    0.50 5 70.8 297 
 BRR  HZ I         538 11.68        12.7 0.16                          70.8 297 
 PAM  SZ EP        537 52.03                             152    0.1410 76.1  40 
 PAM  SN ES   1    538  8.91                             152   -0.30 7 76.1  40 
 RUS  HZ EP        537 53.50                             144   -0.0910  102 176 
 RUS  HN ES   2    538 11.96                             144   -0.28 5  102 176 
 RUS  HZ I         538 13.31         4.4 0.24                           102 176 
 OCA  SZ EP        537 57.52                             130   -0.40 9  159 353 
 OCA  SZ I         538 23.92        10.1 0.17                           159 353 
 ZAR  HN ES   3    538 26.55                             122   -0.90 2  204 292 
                                                                                
