 2015 1129 0506  7.6 L   6.819 -73.152138.9  RSN 22 0.5 2.4LRSN                1
 GAP=135        1.12       2.6     3.6  5.1 -0.1572E+01  0.7106E+01  0.1126E+01E
 Epicentro: LOS SANTOS - SANTANDER                                             3
 ACTION:UPD 15-12-28 16:14 OP:cam  STATUS:               ID:20151129050607 L   I
 OLDACT:DUP 15-11-29 16:24 OP:ak   STATUS:               ID:20151129045743d    3
 OLDACT:UP  15-11-29 16:24 OP:ak   STATUS:               ID:20151129045742     3
 OLDACT:REG 15-11-29 12:37 OP:ak   STATUS:               ID:20151129045742     3
 2015-11-29-0457-42M.COL___307                                                 6
 STAT SP IPHASW D HRMM SECON CODA AMPLIT PERI AZIMU VELO AIN AR TRES W  DIS CAZ7
 BAR2 EZ IP     C  5 6 26.48                             169    0.0110 25.3 188 
 BAR2 EZ ES        5 6 41.20                             169    0.0310 25.3 188 
 BAR2 EZ I         5 6 42.56        56.7 0.16            167           25.3 188 
 BRR  HZ IP     C  5 6 28.39                             152    0.4510 69.6 297 
 BRR  HN ES        5 6 44.54                             152    0.7610 69.6 297 
 BRR  HZ I         5 6 46.37        30.3 0.16            149           69.6 297 
 PAM  EZ EP     C  5 6 29.36                             150    0.3210 76.2  41 
 PAM  EN ES        5 6 46.09                             150    0.3410 76.2  41 
 PAM  EZ I         5 6 48.41        64.6 0.52            155           76.2  41 
 RUS  HZ EP        5 6 30.47                             142   -0.4010  103 176 
 RUS  HN ES        5 6 48.75                             142   -0.2510  103 176 
 RUS  HZ I         5 6 50.61        38.5 0.34            143            103 176 
 PTB  HZ EP        5 6 33.35                             130   -0.66 9  147 258 
 PTB  HE ES        5 6 54.20                             130   -0.39 9  147 258 
 PTB  HZ I         5 6 56.78        23.0 0.20            129            147 258 
 OCA  HZ EP        5 6 34.75                             128   -0.45 9  158 353 
 OCA  HN ES        5 6 56.31                             128   -0.40 9  158 353 
 OCA  HZ I         5 6 58.56        49.9 0.56            130            158 353 
 SPBC HZ EP        5 6 35.44                             127   -0.28 9  164 218 
 SPBC HN ES        5 6 57.10                             127   -0.53 9  164 218 
 SPBC HZ I         5 7  0.77        39.4 0.14            127            164 218 
 ZAR  HZ EP        5 6 39.85                             121    0.38 9  203 292 
 ZAR  HN ES        5 7  4.91                             121    0.59 9  203 292 
 ZAR  HZ I         5 7 12.71        20.6 0.40            121            203 292 
 NOR  HZ EP        5 6 42.62                             117   -0.41 8  235 234 
 NOR  HN ES        5 7  9.99                             117   -0.66 8  235 234 
 NOR  HZ I         5 7 17.71        19.6 0.22            117            235 234 
 SML  HZ EP        5 6 43.01                             116   -0.62 8  241 335 
 SML  HN ES        5 7 11.29                             116   -0.42 8  241 335 
 SML  HZ I         5 7 15.49        18.0 0.17            117            241 335 
 ROSC BZ EP        5 6 46.34                             115    0.81 8  254 211 
 ROSC BE ES        5 7 14.47                             115   -0.63 8  254 211 
 ROSC BZ I         5 7 25.68        12.7 0.65            116            254 211 
 HEL  HZ EP        5 6 48.53                             113    1.06 8  272 255 
 HEL  HE ES        5 7 18.32                             113   -0.24 8  272 255 
 HEL  HZ I         5 7 23.61        11.0 0.30            114            272 255 
 URE  HZ EP   2    5 6 47.23                             112   -0.97 4  282 292 
 URE  HE ES        5 7 19.98                             112    0.13 7  282 292 
 URE  HZ I         5 7 31.18        13.4 0.20            113            282 292 
 GUY2CHZ EP        5 6 51.01                             111    0.02 7  302 234 
 GUY2CHN ES        5 7 25.40                             111    0.58 7  302 234 
 GUY2CHZ I         5 7 31.50        14.2 0.26                           302 234 
 ELA  HZ EP   4    5 6 55.88                             109    1.60 0  330 229 
 ELA  HE ES   4    5 7 32.90                             109    2.22 0  330 229 
 ELA  HZ I         5 7 37.81         8.5 0.62            110            330 229 
 CBOC HZ EP        5 6 54.70                             109    0.45 7  334 252 
 CBOC HE ES        5 7 30.36                             109   -0.27 7  334 252 
 CBOC HZ I         5 7 34.55         4.0 0.58            109            334 252 
 DBB  SZ EP        5 6 54.76                             108    0.04 7  339 274 
 DBB  SZ ES        5 7 30.67                             108   -0.79 7  339 274 
 DBB  SZ I         5 7 35.05        30.5 0.40            109            339 274 
 ANIL HZ EP        5 6 58.01                             107    0.73 6  358 224 
 ANIL HE ES   4    5 7 37.51                             107    1.49 0  358 224 
 ANIL HZ I         5 7 45.76        19.5 0.30            108            358 224 
 PRA  HZ EP   2    5 7  0.95                             105   -0.13 3  393 209 
 PRA  HE ES        5 7 43.00                             105    0.21 6  393 209 
 PRA  HZ I         5 7 48.65         9.2 0.34            106            393 209 
 ORTC HZ EP        5 7  1.71                             105    0.25 6  397 216 
 ORTC HN ES        5 7 44.65                             105    1.19 6  397 216 
 ORTC HZ I         5 7 49.52         5.0 0.32            106            397 216 
 PAL  HZ EP        5 7  2.52                             105   -0.09 6  406 239 
 PAL  HE ES        5 7 46.46                             105    0.95 6  406 239 
 PAL  HZ I         5 7 51.59         7.7 0.14            105            406 239 
 SJC  HZ EP   4    5 7  1.40                             105   -1.31 0  407 327 
 SJC  HN ES   4    5 7 42.26                             105   -3.41 0  407 327 
 SJC  HZ I         5 7 46.07         5.4 0.38            106            407 327 
                                                                                
