 2013  729 0836 54.1 L   6.814 -73.130153.3  RSN 14 0.4 2.0LRSN                1
 GAP=138        0.96       2.8     3.9  5.5 -0.2141E+01  0.7188E+01  0.1928E+00E
 Epicentro: LOS SANTOS - SANTANDER                                             3
 ACTION:UPD 13-08-12 10:40 OP:ep   STATUS:               ID:20130729083654 L   I
 OLDACT:REG 13-07-29 07:50 OP:carl STATUS:               ID:20130729082959     3
 2013-07-29-0829-59M.COL___267                                                 6
 STAT SP IPHASW D HRMM SECON CODA AMPLIT PERI AZIMU VELO AIN AR TRES W  DIS CAZ7
 BAR2 SZ EP        837 14.68                             170    0.0510 25.2 193 
 BAR2 SZ ES   1    837 30.43                             170   -0.25 7 25.2 193 
 BAR2 SZ I         837 33.24        12.1 0.14            169           25.2 193 
 GIR2 SZ EP        837 14.84                             168    0.2410 30.1 346 
 GIR2 SZ ES   1    837 31.47                             168    0.86 7 30.1 346 
 GIR2 SZ I         837 32.28        16.1 0.28            169           30.1 346 
 BRR  HZ EP        837 16.63                             153    0.5610 72.0 297 
 BRR  HN ES   1    837 34.10                             153    0.86 7 72.0 297 
 BRR  HN I         837 35.10        48.7 0.22            153           72.0 297 
 PAM  SZ EP   1    837 17.60                             153    0.65 7 75.0  39 
 PAM  SN ES        837 34.39                             153   -0.4110 75.0  39 
 PAM  SZ I         837 36.93         9.3 0.54            157           75.0  39 
 RUS  HZ EP   1    837 18.28                             145   -0.38 7  102 177 
 RUS  HN ES        837 37.61                             145   -0.2410  102 177 
 RUS  HZ I         837 40.18         8.0 0.40            146            102 177 
 PTB  HZ EP        837 21.29                             133   -0.54 9  150 258 
 PTB  HN ES        837 42.80                             133   -0.69 9  150 258 
 PTB  HZ I         837 49.98        19.6 0.28            134            150 258 
 OCA  HZ EP   1    837 22.39                             131   -0.45 7  159 352 
 OCA  HN ES   1    837 45.08                             131   -0.21 7  159 352 
 OCA  HZ I         837 49.61        12.5 0.32            134            159 352 
 SPBC HZ EP        837 23.63                             130    0.26 9  166 219 
 SPBC HE ES        837 46.13                             130   -0.09 9  166 219 
 SPBC HZ I         837 50.71        16.5 0.24            131            166 219 
 ZAR  HZ EP        837 27.32                             124    0.21 9  205 292 
 ZAR  HE ES        837 52.44                             124   -0.45 9  205 292 
 ZAR  HZ I         837 58.82        11.5 0.32            125            205 292 
 NOR  HZ EP   1    837 30.48                             120   -0.01 6  237 234 
 NOR  HE ES        837 59.13                             120    0.23 8  237 234 
 NOR  HZ I         838  3.00        10.0 0.20            121            237 234 
 SML  HZ EP   1    837 31.02                             119   -0.02 6  243 335 
 SML  HN ES        837 59.54                             119   -0.35 8  243 335 
 SML  HZ I         838  2.49        12.3 0.10            121            243 335 
 CHI  HZ EP   1    837 32.27                             118   -0.13 6  251 195 
 CHI  HN ES   1    838  1.81                             118   -0.50 6  251 195 
 CHI  HZ I         838 11.69         4.1 0.40            120            251 195 
 HEL  HN ES   1    838  7.15                             116    0.40 6  274 256 
 GUY2CHZ EP   1    837 39.03                             113    0.74 5  304 235 
 GUY2CHN ES        838 13.17                             113    0.38 7  304 235 
 GUY2CHZ I         838 20.78         5.9 0.28                           304 235 
                                                                                
