 2015 1029 0629 14.7 L   6.346 -73.587109.1  RSN  5 0.4 1.4LRSN                1
 GAP=153        0.85       5.8     4.4  8.4 -0.9283E+01  0.2574E+02 -0.7490E+01E
 Epicentro: SANTA HELENA DEL OPON - SANTANDER                                  3
 ACTION:UPD 15-12-22 20:43 OP:cam  STATUS:               ID:20151029062914 L   I
 OLDACT:UP  15-10-29 18:08 OP:mh   STATUS:               ID:20151029062749     3
 OLDACT:UP  15-10-29 16:47 OP:mh   STATUS:               ID:20151029062749     3
 OLDACT:UP  15-10-29 16:46 OP:mh   STATUS:               ID:20151029062749     3
 OLDACT:REG 15-10-29 12:55 OP:cara STATUS:               ID:20151029062749     3
 2015-10-29-0627-49M.COL___313                                                 6
 STAT SP IPHASW D HRMM SECON CODA AMPLIT PERI AZIMU VELO AIN AR TRES W  DIS CAZ7
 BAR2 EZ EP   1    629 31.04                             152   -0.16 7 52.4  59 
 BAR2 EZ ES        629 44.09                             152    0.0410 52.4  59 
 BAR2 EZ I         629 45.58        16.7 0.16            158           52.4  59 
 RUS  HZ EP   1    629 33.33                             143    0.30 7 75.0 132 
 RUS  HN ES        629 47.61                             143    0.3010 75.0 132 
 RUS  HZ I         629 48.33         2.4 0.24            149           75.0 132 
 SPBC HZ EP        629 33.46                             136   -0.4910 93.7 215 
 SPBC HN ES        629 48.54                             136   -0.4010 93.7 215 
 SPBC HZ I         629 51.83         6.2 0.22            139           93.7 215 
 HEL  HZ EP   1    629 46.23                             112   -0.62 6  216 266 
 HEL  HN ES        630 12.21                             112    0.32 8  216 266 
 HEL  HZ I         630 14.35         2.2 0.24            115            216 266 
 GUY2CHZ EP        629 49.19                             110    0.25 8  233 238 
 GUY2CHN ES        630 16.11                             110    0.49 8  233 238 
                                                                                
