 2013  429 0957 12.5 L   6.727 -73.159144.5  RSN  4 0.2 1.8LRSN                1
 GAP=230        0.48       4.7     4.8  4.9  0.1229E+02  0.2527E+01  0.3176E+01E
 Epicentro: VILLANUEVA - SANTANDER                                             3
 ACTION:UPD 13-05-22 14:41 OP:EP   STATUS:               ID:20130429095712 L   I
 2013-04-29-0950-00M.COL___248                                                 6
 STAT SP IPHASW D HRMM SECON CODA AMPLIT PERI AZIMU VELO AIN AR TRES W  DIS CAZ7
 BAR2 SZ EP   1    957 31.47                             174   -0.36 7 15.1 190 
 BAR2 SZ ES   1    957 47.08                             174    0.17 7 15.1 190 
 BAR2 SZ I         957 47.33         7.6 0.16            174           15.1 190 
 BRR  HZ EP   1    957 33.54                             151   -0.14 7 74.2 305 
 BRR  HE ES        957 50.26                             151    0.0610 74.2 305 
 BRR  HE I         957 54.24        19.7 0.16            152           74.2 305 
 RUS  HZ EP   1    957 35.86                             146    0.30 7 92.7 175 
 RUS  HN ES   1    957 53.41                             146   -0.14 7 92.7 175 
 RUS  HN I         957 55.39         5.8 0.44            148           92.7 175 
 PTB  HZ EP   1    957 39.33                             132    0.22 7  145 262 
 PTB  HN ES   1    957 59.72                             132   -0.14 7  145 262 
 PTB  HN I         958  1.20        13.3 0.26            134            145 262 
                                                                                
