 2014  729 0138 56.0 L   6.812 -73.149146.2  RSN 16 0.4 2.6LRSN                1
 GAP=136        1.03       2.9     4.0  5.8 -0.2562E+01  0.7160E+01  0.1044E+01E
 Epicentro: LOS SANTOS - SANTANDER                                             3
 ACTION:UPD 15-03-16 20:47 OP:nd   STATUS:               ID:20140729013856 L   I
 OLDACT:UP  14-07-29 18:23 OP:mh   STATUS:               ID:20140729013642     3
 OLDACT:REG 14-07-29 18:11 OP:mh   STATUS:               ID:20140729013642     3
 2014-07-29-0136-42M.COL___263                                                 6
 STAT SP IPHASW D HRMM SECON CODA AMPLIT PERI AZIMU VELO AIN AR TRES W  DIS CAZ7
 BAR2 SZ EP        139 15.96                             170    0.2410 24.6 189 
 BAR2 SZ ES        139 31.06                             170   -0.0310 24.6 189 
 BAR2 SZ I         139 32.90        49.6 0.29            168           24.6 189 
 PAM  SZ EP        139 17.49                             151   -0.7410 76.6  40 
 PAM  SN ES        139 35.93                             151    0.3810 76.6  40 
 RUS  HZ EP        139 20.16                             143    0.2610  102 176 
 RUS  HN ES        139 38.15                             143   -0.3910  102 176 
 RUS  HZ I         139 39.82        41.6 0.19            145            102 176 
 PTB  HZ EP        139 22.58                             132   -0.43 9  148 258 
 PTB  HN ES        139 43.29                             132   -0.77 9  148 258 
 OCA  HZ EP        139 24.07                             130   -0.16 9  159 353 
 OCA  HN ES        139 46.88                             130    0.64 9  159 353 
 OCA  HZ I         139 52.92        33.8 0.11            131            159 353 
 SPBC HZ EP        139 24.85                             129    0.23 9  164 219 
 SPBC HN ES        139 47.02                             129    0.09 9  164 219 
 SPBC HZ I         139 54.44        55.0 0.10            129            164 219 
 ZAR  HZ EP   1    139 28.21                             122   -0.19 6  203 292 
 ZAR  HN ES        139 54.01                             122    0.34 9  203 292 
 NOR  HZ EP   1    139 32.00                             118    0.18 6  235 234 
 NOR  HN ES        140  0.61                             118    0.86 8  235 234 
 NOR  HZ I         140  7.39        27.2 0.13            119            235 234 
 SML  HZ EP   1    139 32.20                             118   -0.32 6  242 335 
 SML  HN ES   4    140  0.11                             118   -0.88 0  242 335 
 SML  HZ I         140  4.63        38.4 0.26            118            242 335 
 CHI  HZ EP   1    139 33.33                             117   -0.53 6  250 195 
 CHI  HN ES        140  3.27                             117   -0.12 8  250 195 
 ROSC BZ EP        139 34.73                             117    0.47 8  254 211 
 ROSC BN ES   4    140  6.29                             117    2.20 0  254 211 
 ROSC BZ I         140  9.44        30.9 0.39            117            254 211 
 HEL  HZ EP   4    139 38.22                             115    1.97 0  272 256 
 HEL  HN ES        140  6.97                             115   -0.66 8  272 256 
 HEL  HZ I         140 15.58        23.5 0.20            115            272 256 
 URE  HZ EP   4    139 36.05                             114   -0.96 0  283 292 
 URE  HN ES   4    140  6.37                             114   -2.62 0  283 292 
 URE  HZ I         140 14.32        24.5 0.09            114            283 292 
 GUY2CHZ EP   4    139 41.24                             112    1.54 0  302 235 
 GUY2CHN ES   4    140 16.57                             112    2.80 0  302 235 
 GUY2CHZ I         140 24.86        20.7 0.66                           302 235 
 PTGC HZ EP   4    139 38.73                             111   -1.31 0  310 159 
 PTGC HN ES   4    140 11.87                             111   -2.51 0  310 159 
 RREF HZ EP   1    139 42.56                             111    0.32 5  322 229 
 RREF HN ES   4    140 20.78                             111    2.48 0  322 229 
 PRA  HZ EP        139 49.72                             106    0.06 6  393 209 
 PRA  HN ES        140 32.18                             106    0.67 6  393 209 
 PRA  HZ I         140 39.63        14.8 0.19            107            393 209 
                                                                                
