 2014  629 0029 41.4 L   6.807 -73.158146.3  RSN  9 0.5 1.6LRSN                1
 GAP=182        1.28       3.9     6.3  7.6  0.1252E+01  0.1146E+02 -0.2403E+01E
 Epicentro: LOS SANTOS - SANTANDER                                             3
 ACTION:UPD 14-07-01 22:57 OP:nd   STATUS:               ID:20140629002941 L   I
 OLDACT:REG 14-06-29 13:02 OP:carl STATUS:               ID:20140629002818     3
 2014-06-29-0028-18M.COL___236                                                 6
 STAT SP IPHASW D HRMM SECON CODA AMPLIT PERI AZIMU VELO AIN AR TRES W  DIS CAZ7
 BAR2 SZ EP        030  1.23                             171    0.1410 23.8 186 
 BAR2 SZ ES        030 15.79                             171   -0.6710 23.8 186 
 BAR2 SZ I         030 17.83        13.1 0.16            171           23.8 186 
 BRR  HZ EP        030  2.98                             153    0.4810 69.6 299 
 BRR  HN ES        030 20.05                             153    1.0810 69.6 299 
 BRR  HZ I         030 22.52         8.6 0.28            152           69.6 299 
 RUS  HZ EP        030  5.31                             144    0.0710  101 175 
 RUS  HN ES        030 23.61                             144   -0.2510  101 175 
 RUS  HZ I         030 24.70         4.6 0.24            147            101 175 
 PTB  HZ EP        030  7.65                             133   -0.63 9  147 258 
 PTB  HN ES        030 28.94                             133   -0.32 9  147 258 
 PTB  HZ I         030 35.78         4.8 0.38            133            147 258 
 OCA  HN ES        030 32.34                             130    0.64 9  159 354 
 OCA  HZ I         030 35.52         4.4 0.26            132            159 354 
 SPBC HZ EP        030 10.17                             129    0.28 9  163 218 
 SPBC HN ES        030 31.90                             129   -0.23 9  163 218 
 SPBC HZ I         030 34.92         6.2 0.20            131            163 218 
 ZAR  HZ EP        030 13.22                             123   -0.48 9  202 292 
 ZAR  HN ES        030 38.41                             123   -0.50 9  202 292 
 ZAR  HZ I         030 41.60         4.8 0.40            124            202 292 
 SML  HZ EP        030 17.43                             118   -0.47 8  242 336 
 SML  HN ES        030 46.02                             118   -0.37 8  242 336 
 GUY2CHZ EP        030 25.59                             113    0.66 7  300 235 
 GUY2CHN ES        030 59.52                             113    0.62 7  300 235 
 GUY2CHZ I         031  5.38         2.2 0.24                           300 235 
                                                                                
