 2011 1229 0901 47.3 L   7.028 -73.136145.7  RSN  6 0.4 1.5LRSN                1
 GAP=123        0.84       6.5     6.0  7.5 -0.8305E+01  0.9785E+01 -0.2473E+01E
 Epicentro: FLORIDABLANCA - SANTANDER                                          3
 ACTION:UPD 12-07-13 16:19 OP:ep   STATUS:               ID:20111229090147 L   I
 2011-12-29-0900-00M.COL___187                                                 6
 STAT SP IPHASW D HRMM SECON CODA AMPLIT PERI AZIMU VELO AIN AR TRES W  DIS CAZ7
 GIR2 SZ EP        9 2  6.66                             176    0.0810 8.49 311 
 GIR2 SZ ES   1    9 2 21.44                             176   -0.17 7 8.49 311 
 BAR2 SZ EP   1    9 2  7.94                             161    0.24 7 48.5 186 
 BAR2 SZ ES   1    9 2 23.25                             161   -0.35 7 48.5 186 
 BAR2 SZ I         9 2 24.70        16.4 0.18                          48.5 186 
 PAM  SZ EP   1    9 2  8.46                             157   -0.08 7 59.2  54 
 PAM  SZ I         9 2  9.13         3.6 0.16                          59.2  54 
 PAM  SE ES   1    9 2 24.65                             157   -0.45 7 59.2  54 
 BRR  HZ EP        9 2  8.31                             155    0.2310 64.3 278 
 BRR  HE ES   1    9 2 25.12                             155    0.84 7 64.3 278 
 RUS  HN ES   1    9 2 33.37                             137    0.31 7  126 177 
 RUS  HZ I         9 2 35.84         3.1 0.46                           126 177 
 PTB  HZ EP   1    9 2 14.66                             130   -0.34 7  156 250 
 PTB  HN ES   1    9 2 35.90                             130   -0.70 7  156 250 
                                                                                
