 2011  429 0530 41.9 L   6.812 -73.087140.1  RSN  4 0.3 1.2LRSN                1
 GAP=144        0.66       6.2    10.2  8.9  0.3100E+02 -0.4325E+02 -0.1989E+02E
 Epicentro: LOS SANTOS - SANTANDER                                             3
 ACTION:UP  11-06-22 15:33 OP:REBC STATUS:               ID:20110429053041 L   I
 2011-04-29-0526-45S.COL___138                                                 6
 STAT SP IPHASW D HRMM SECON CODA AMPLIT PERI AZIMU VELO SNR AR TRES W  DIS CAZ7
 BAR2 SZ EP   1    531  0.68                             169    -0.2 7   27 204 
 BAR2 SZ ES   1    531 15.37                             169    -0.4 7   27 204 
 BAR2 SZ I         531 18.24         4.3 0.09                            27 204 
 PAM  SZ EP   1    531  3.46                             151     0.2 7   72  36 
 BRR  HZ EP   1    531  2.54                             150    -0.2 7   76 295 
 BRR  HN ES   1    531 19.31                             150     0.3 7   76 295 
 BRR  HZ I         531 22.29         4.6 0.19                            76 295 
 RUS  HZ EP   1    531  5.18                             142     0.0 7  102 180 
 RUS  HN ES   1    531 23.64                             142     0.3 7  102 180 
 RUS  HZ I         531 24.47         1.7 0.27                           102 180 
                                                                                
