 2011 1029 0035 34.6 L   6.732 -73.095139.2  RSN  6 0.3 1.5LRSN                1
 GAP=146        0.65       8.2     6.4  9.7 -0.1219E+02 -0.8609E+01  0.2924E+02E
 Epicentro: JORDAN - SANTANDER                                                 3
 ACTION:UPD 12-07-13 16:06 OP:ep   STATUS:               ID:20111029003534 L   I
 2011-10-29-0020-00M.COL___177                                                 6
 STAT SP IPHASW D HRMM SECON CODA AMPLIT PERI AZIMU VELO AIN AR TRES W  DIS CAZ7
 BAR2 SZ EP        035 53.48                             172    0.1710 18.2 212 
 BAR2 SZ I         036  9.67         4.4 0.38                          18.2 212 
 GIR2 SZ EP        035 53.25                             163   -0.4810 39.9 344 
 BRR  HZ EP        035 55.58                             148    0.0510 79.8 301 
 BRR  HE ES   1    036 12.08                             148    0.19 7 79.8 301 
 BRR  HZ I         036 14.46         8.4 0.24                          79.8 301 
 PAM  SZ EP        035 56.51                             149    0.2610 80.1  33 
 PAM  SN ES   1    036 13.17                             149   -0.01 7 80.1  33 
 RUS  HE ES   3    036 14.01                             145   -0.69 2 92.8 179 
 OCA  SZ ES   3    036 24.46                             127   -1.02 2  168 352 
                                                                                
