 2010  729 0236 11.5 L   6.758 -73.075144.5  RSN 10 0.5 2.3LRSN                1
 GAP=167        1.17       5.1     8.9  9.0 -0.1075E+02  0.1394E+02 -0.1579E+00E
 Epicentro: LOS SANTOS - SANTANDER                                             3
 ACTION:UPD 10-12-01 15:20 OP:pat  STATUS:               ID:20100729023611 L   I
 2010-07-29-0234-44S.COL___123                                                 6
 STAT SP IPHASW D HRMM SECON CODA AMPLIT PERI AZIMU VELO AIN AR TRES W  DIS CAZ7
 BAR2 SZ EP        236 30.78                             171    -0.110   22 213 
 BAR2 SZ ES   1    236 45.62                             171    -0.5 7   22 213 
 BAR2 SZ I         236 47.43        31.6 0.29                            22 213 
 GIR2 SZ EP   1    236 32.00                             165     0.8 7   38 340 
 BRR  HZ IP     D  236 32.64                             149    -0.410   80 299 
 BRR  HZ I         236 32.89        74.0 0.12                            80 299 
 BRR  HE ES   1    236 49.98                             149     0.1 7   80 299 
 RUS  HZ EP        236 34.65                             145    -0.110   96 181 
 RUS  HE ES   1    236 53.29                             145     0.4 7   96 181 
 RUS  HZ I         236 54.53        16.9 0.15                            96 181 
 GUE  SZ EP   1    236 35.56                             138    -0.8 7  120   8 
 GRA  SZ EP   1    236 37.48                             136     0.7 7  128  14 
 GRA  SZ I         236 59.96        19.3 0.31                           128  14 
 OCA  SZ EP   1    236 39.72                             128    -0.5 7  166 351 
 OCA  SZ ES   1    237  3.32                             128     0.7 7  166 351 
 OCA  SZ I         237  5.93        36.3 0.18                           166 351 
 HEL  HZ EP   1    236 52.42                             114     0.1 6  279 257 
 HEL  HE ES   2    237 23.23                             114    -1.0 4  279 257 
 HEL  HZ I         237 29.55        11.6 0.15                           279 257 
 RREF HZ EP   1    236 58.69                             110     0.8 5  325 231 
 RREF HN ES   1    237 34.70                             110     0.6 5  325 231 
 RREF HZ I         237 42.84        12.4 0.27                           325 231 
 PRA  HZ EP   1    237  4.22                             106    -0.7 4  392 211 
 PRA  HN ES   1    237 46.88                             106     0.2 4  392 211 
 PRA  HZ I         237 51.44        10.1 0.36                           392 211 
                                                                                
