 2016  929 0457 41.3 L   6.804 -73.124151.0  RSN  5 0.3 1.2LRSN                1
 GAP=240        0.90       5.5     5.9  6.6  0.7229E+01  0.3607E+01  0.2474E+01E
 Epicentro: LOS SANTOS - SANTANDER                                             3
 ACTION:UPD 17-08-17 21:17 OP:lp   STATUS:               ID:20160929045741 L   I
 OLDACT:UP  16-09-29 16:07 OP:dani STATUS:               ID:20160929045647d    3
 OLDACT:DUP 16-09-29 16:04 OP:dani STATUS:               ID:20160929045647d    3
 OLDACT:UP  16-09-29 16:02 OP:dani STATUS:               ID:20160929045646d    3
 OLDACT:DUP 16-09-29 15:59 OP:dani STATUS:               ID:20160929045646d    3
 OLDACT:UP  16-09-29 15:58 OP:dani STATUS:               ID:20160929045645     3
 OLDACT:REG 16-09-29 13:13 OP:dani STATUS:               ID:20160929045645     3
 2016-09-29-0457-00M.COL___372                                                 6
 STAT SP IPHASW D HRMM SECON CODA AMPLIT PERI AZIMU VELO AIN AR TRES W  DIS CAZ7
 BAR2 EZ EP        458  1.54                             170   -0.0310 24.3 195 
 BAR2 EZ ES        458 16.91                             170   -0.4810 24.3 195 
 BAR2 EZ I         458 18.40         4.4 0.25            166           24.3 195 
 BRR  HZ EP        458  3.03                             153   -0.0810 73.1 297 
 BRR  HN ES        458 20.78                             153    0.6510 73.1 297 
 BRR  HZ I         458 24.89         3.5 0.46            150           73.1 297 
 RUS  HZ EP        458  5.65                             145    0.0710  101 177 
 RUS  HN ES        458 24.59                             145    0.0610  101 177 
 RUS  HZ I         458 25.33         2.2 0.19            145            101 177 
 PTB  HZ EP        458  8.54                             133   -0.37 9  150 259 
 PTB  HN ES        458 30.01                             133   -0.44 9  150 259 
 PTB  HZ I         458 33.25         1.6 0.16            131            150 259 
 SPBC HZ EP        458 10.71                             130    0.34 9  165 220 
 SPBC HE ES        458 33.31                             130    0.26 9  165 220 
 SPBC HZ I         458 40.08         2.1 0.20            129            165 220 
 ZAR  HZ EP   4    458 16.74                             123    2.45 0  206 292 
                                                                                
