 2011 1229 0541 30.1 L   5.941 -73.796101.7  RSN  8 0.4 1.8LRSN                1
 GAP= 83        0.78       2.9     3.2  7.8 -0.5312E+00  0.3046E+01  0.4024E+01E
 Epicentro: GUAVATA - SANTANDER                                                3
 ACTION:UPD 12-07-13 16:19 OP:ep   STATUS:               ID:20111229054130 L   I
 2011-12-29-0540-00M.COL___187                                                 6
 STAT SP IPHASW D HRMM SECON CODA AMPLIT PERI AZIMU VELO AIN AR TRES W  DIS CAZ7
 RUS  HZ EP        541 47.78                             139   -0.2110 79.1  94 
 RUS  HZ I         541 48.12        10.6 0.27                          79.1  94 
 RUS  HN ES   1    542  1.57                             139   -0.39 7 79.1  94 
 PTB  HN ES        542  3.40                             132   -0.3610 98.6 312 
 BAR2 SZ IP        541 49.33                             132   -0.0110 98.9  43 
 BAR2 SZ ES   1    542  4.57                             132    0.22 7 98.9  43 
 NOR  SZ EP   1    541 51.66                             124   -0.03 7  126 251 
 NOR  SN ES   2    542  9.33                             124    0.79 5  126 251 
 BRR  HZ EP        541 51.50                             123   -0.4410  129   4 
 BRR  HE ES   1    542  9.37                             123    0.38 7  129   4 
 BRR  HZ I         542 12.69        16.9 0.12                           129   4 
 GIR2 SZ EP   1    541 53.43                             121   -0.05 7  142  28 
 GIR2 SZ ES   1    542 12.57                             121    0.84 7  142  28 
 CHI  HZ EP   1    541 54.30                             120    0.16 7  145 177 
 CHI  HN ES   1    542 13.14                             120    0.24 7  145 177 
 HEL  HZ EP   1    541 59.71                             112    0.30 6  194 278 
 HEL  HZ I         542  0.39         5.8 0.33                           194 278 
                                                                                
