 2017  629 0630 55.9 L   6.648 -73.211148.0  RSN  5 0.3 1.2LRSN                1
 GAP=201        0.52       6.6     3.7  5.1  0.7956E+01  0.4675E+01 -0.3094E+01E
 Epicentro: BARICHARA - SANTANDER                                              3
 ACTION:UPD 17-09-14 16:56 OP:jn   STATUS:               ID:20170629063055 L   I
 OLDACT:UP  17-06-29 15:41 OP:and  STATUS:               ID:20170629062745d    3
 OLDACT:DUP 17-06-29 15:37 OP:and  STATUS:               ID:20170629062745d    3
 OLDACT:REG 17-06-29 13:06 OP:and  STATUS:               ID:20170629062744     3
 2017-06-29-0628-00M.COL___370                                                 6
 STAT SP IPHASW D HRMM SECON CODA AMPLIT PERI AZIMU VELO AIN AR TRES W  DIS CAZ7
 BAR2 EZ EP        631 15.58                             177   -0.0110 6.95 153 
 BAR2 EZ ES        631 30.95                             177    0.0010 6.95 153 
 BAR2 EZ I         631 32.09         5.1 0.12            174           6.95 153 
 BRR  HZ EP        631 17.35                             152   -0.1710 75.1 313 
 BRR  HE ES   2    631 35.02                             152    0.64 5 75.1 313 
 PTB  HZ EP        631 22.26                             135    0.04 9  138 265 
 PTB  HN ES        631 42.66                             135   -0.08 9  138 265 
 PTB  HZ I         631 48.02         0.8 0.08            133            138 265 
 ZAR  HN ES        631 53.98                             123   -0.03 9  205 297 
 ZAR  HZ I         631 59.94         2.2 0.26            123            205 297 
 NOR  HZ EP   3    631 31.67                             121    1.53 2  219 237 
                                                                                
