 2011  429 0817 32.7 L   6.791 -73.107147.9  RSN  5 0.1 1.2LRSN                1
 GAP=142        0.35       2.6     3.8  4.6 -0.1951E+00 -0.9172E+00  0.1443E+01E
 Epicentro: LOS SANTOS - SANTANDER                                             3
 ACTION:UP  11-06-22 15:33 OP:REBC STATUS:               ID:20110429081732 L   I
 2011-04-29-0816-20S.COL___138                                                 6
 STAT SP IPHASW D HRMM SECON CODA AMPLIT PERI AZIMU VELO SNR AR TRES W  DIS CAZ7
 BAR2 SZ EP   3    817 52.62                             171     0.0 2   24 201 
 BAR2 SZ I         817 58.56         7.8 0.66                            24 201 
 GIR2 SZ EP   2    817 52.50                                    -0.2 5   33 343 
 BRR  HZ EP   1    817 54.23                             151    -0.1 7   75 298 
 BRR  HN ES   1    818 11.27                             151     0.1 7   75 298 
 BRR  HZ I         818 15.35         5.1 0.05                            75 298 
 PAM  SZ EP   1    817 55.24                             152     0.2 7   76  37 
 PAM  SZ I         817 55.70         1.2 0.19                            76  37 
 PAM  SN ES   1    818 12.36                             152    -0.1 7   76  37 
 RUS  HZ EP   1    817 56.55                             145     0.0 7   99 179 
 RUS  HN ES   1    818 15.22                             145     0.0 7   99 179 
 RUS  HZ I         818 16.97         1.7 0.35                            99 179 
                                                                                
