 2015  129 0151 53.8 L   6.703 -73.434116.0  RSN  4 0.3 1.3LRSN                1
 GAP=148        0.65       5.8     3.8  5.6  0.5496E+01  0.8440E+01  0.2124E+01E
 Epicentro: EL CARMEN - SANTANDER                                              3
 ACTION:UPD 15-03-02 15:43 OP:nd   STATUS:               ID:20150129015153 L   I
 OLDACT:REG 15-01-29 13:05 OP:cvam STATUS:               ID:20150129014814     3
 2015-01-29-0148-14M.COL___271                                                 6
 STAT SP IPHASW D HRMM SECON CODA AMPLIT PERI AZIMU VELO AIN AR TRES W  DIS CAZ7
 BAR2 EZ EP        152 10.13                             164    0.0710 30.4 114 
 BAR2 EZ ES        152 23.01                             164    0.2610 30.4 114 
 BAR2 EZ I         152 24.41         8.0 0.28            170           30.4 114 
 BRR  HZ EP     D  152 10.42                             153   -0.3410 54.2 325 
 BRR  HN ES        152 23.83                             153   -0.1710 54.2 325 
 PTB  HZ EP        152 15.27                             132   -0.0410  115 261 
 PTB  HN ES        152 31.94                             132   -0.1610  115 261 
 PTB  HZ I         152 35.97         3.1 0.28            132            115 261 
 ZAR  HZ EP   1    152 22.15                             118    0.29 7  180 299 
 ZAR  HN ES   1    152 44.32                             118    0.57 7  180 299 
 ZAR  HZ I         152 48.18         2.4 0.40            120            180 299 
                                                                                
