 2014  329 0948  7.8 L   6.816 -73.164138.8  RSN  8 0.4 1.5LRSN                1
 GAP=133        0.99       2.9     4.4  6.4  0.5705E+00  0.1037E+02 -0.6133E+00E
 Epicentro: LOS SANTOS - SANTANDER                                             3
 ACTION:UPD 14-04-09 23:21 OP:nd   STATUS:               ID:20140329094807 L   I
 OLDACT:REG 14-03-29 08:57 OP:carl STATUS:               ID:20140329094036     3
 2014-03-29-0940-36M.COL___250                                                 6
 STAT SP IPHASW D HRMM SECON CODA AMPLIT PERI AZIMU VELO AIN AR TRES W  DIS CAZ7
 BAR2 SZ EP        948 26.87                             169    0.2410 24.8 185 
 BAR2 SZ ES        948 41.23                             169   -0.0810 24.8 185 
 BAR2 SZ I         948 43.46        13.4 0.26            169           24.8 185 
 PAM  SZ EP        948 30.02                             149    0.7310 77.4  42 
 PAM  SN ES        948 45.54                             149   -0.5010 77.4  42 
 PAM  SZ I         948 49.98         4.7 0.34            154           77.4  42 
 RUS  HZ EP        948 31.35                             142    0.3210  103 175 
 RUS  HN ES        948 49.18                             142    0.0510  103 175 
 RUS  HZ I         948 50.98         2.9 0.28            144            103 175 
 PTB  HZ EP        948 33.76                             131   -0.30 9  146 258 
 PTB  HN ES        948 54.90                             131    0.36 9  146 258 
 PTB  HZ I         948 59.69         4.8 0.30            132            146 258 
 OCA  HN ES        948 56.98                             128    0.07 9  158 354 
 ZAR  HZ EP        948 39.95                             121    0.41 9  201 292 
 ZAR  HN ES        949  4.37                             121    0.08 9  201 292 
 ZAR  HZ I         949 11.19         3.8 0.28            123            201 292 
 SML  HZ EP        948 43.51                             116   -0.28 8  241 336 
 SML  HN ES        949 11.18                             116   -0.66 8  241 336 
 CHI  HZ EP        948 44.94                             115   -0.32 8  250 195 
 CHI  HE ES        949 13.78                             115   -0.69 8  250 195 
 CHI  HZ I         949 19.55         2.5 0.44            118            250 195 
                                                                                
