 2011  929 0649 53.3 L   6.788 -73.190141.2  RSN 10 0.5 3.0LRSN                1
 GAP=132        1.05       4.0     6.1  7.3 -0.6510E+01  0.1349E+02  0.4422E+01E
 Epicentro: LOS SANTOS - SANTANDER                                             3
 ACTION:UP  12-07-13 16:00 OP:ep   STATUS:               ID:20110929064953 L   I
 2011-09-29-0647-49S.COL___167                                                 6
 STAT SP IPHASW D HRMM SECON CODA AMPLIT PERI AZIMU VELO AIN AR TRES W  DIS CAZ7
 BAR2 SZ EP        650 12.36                             171    0.0210 21.7 178 
 BAR2 SZ ES   1    650 26.44                             171   -0.75 7 21.7 178 
 BAR2 SZ I         650 29.19       256.5 0.20                          21.7 178 
 BRR  HZ EP        650 14.19                             153    0.4410 67.6 301 
 BRR  HN ES   1    650 30.65                             153    0.95 7 67.6 301 
 BRR  HZ I         650 35.55       137.8 0.25                          67.6 301 
 PAM  SZ EP        650 15.22                             149   -0.0610 81.5  42 
 PAM  SN ES   1    650 32.24                             149   -0.19 7 81.5  42 
 RUS  HZ EP        650 16.22                             143   -0.3210 99.7 173 
 RUS  HE ES   1    650 35.36                             143    0.70 7 99.7 173 
 RUS  HZ I         650 37.95        95.3 0.27                          99.7 173 
 OCA  SZ EP        650 20.97                             129   -0.36 9  161 355 
 OCA  SZ ES   1    650 42.98                             129   -0.21 7  161 355 
 OCA  SZ I         650 47.72       155.4 0.20                           161 355 
 NOR  SZ EP        650 28.22                             118   -0.03 8  230 234 
 NOR  SE ES   1    650 54.65                             118   -0.87 6  230 234 
 CHI  HZ EP   1    650 30.28                             116   -0.19 6  246 194 
 CHI  HN ES   1    650 59.31                             116   -0.16 6  246 194 
 CHI  HZ I         651  3.33        62.7 0.62                           246 194 
 ROSC BZ EP   1    650 31.75                             116    0.98 6  249 210 
 ROSC BZ I         651  6.24       121.0 0.49                           249 210 
 HEL  HZ EP   1    650 33.64                             114    0.92 6  267 256 
 HEL  HE ES   1    651  2.59                             114   -0.87 6  267 256 
 HEL  HZ I         651 10.37        50.7 0.37                           267 256 
 PRA  HZ EP   1    650 45.84                             106   -0.41 4  388 209 
 PRA  HE ES   1    651 28.07                             106    0.52 4  388 209 
                                                                                
