 2010  129 0048 12.4 L   6.808 -73.141139.9  RSN 19 0.8 4.3LRSN                1
 GAP=159        1.69       4.5     7.8  9.8 -0.1021E+02  0.3770E+02  0.1154E+01E
 Epicentro: LOS SANTOS - SANTANDER                                             3
 Evento Sentido                                                                2
 Reportado como Sentido:                                                       3
 BUCARAMANGA (SANTANDER), CUCUTA (N. SANTANDER)                                3
 ACTION:UP  10-08-24 09:46 OP:vdl  STATUS:               ID:20100129004812 L   I
 2010-01-29-0039-50S.COL___094                                                 6
 STAT SP IPHASW D HRMM SECON CODA AMPLIT PERI AZIMU VELO SNR AR TRES W  DIS CAZ7
 BAR2 SZ IP        048 31.19                             170    -0.110   24 191 
 BAR2 SZ ES   1    048 45.85                             170    -0.3 7   24 191 
 GIR2 SZ IP        048 31.23                             167    -0.110   31 349 
 GIR2 SZ ES   1    048 45.77                             167    -0.3 7   31 349 
 RUS  HZ EP        048 35.13                             142    -0.510  101 176 
 RUS  HN ES        048 53.10                             142    -0.610  101 176 
 RUS  HZ I         048 56.74      2138.8 0.32                           101 176 
 GUE  SZ EP        048 36.23                             138    -0.210  116  12 
 GUE  SZ ES   1    048 55.63                             138     0.4 7  116  12 
 GRA  SZ IP        048 37.20                             136     0.210  125  17 
 OCA  SZ IP        048 41.33                             128     1.2 9  159 353 
 OCA  SZ ES   1    049  3.26                             128     1.4 7  159 353 
 CHI  HZ EP        048 49.11                             116    -0.8 8  250 195 
 CHI  HN ES        049 18.83                             116    -0.3 8  250 195 
 CHI  HZ I         049 25.57       944.5 0.39                           250 195 
 ROSC BZ IP        048 50.94                             115     0.6 8  254 211 
 ROSC BN ES        049 21.79                             115     1.9 8  254 211 
 ROSC BZ I         049 26.14      2022.3 0.28                           254 211 
 HEL  HZ EP        048 51.66                             113    -0.7 8  273 256 
 HEL  HN ES        049 23.21                             113    -0.4 8  273 256 
 HEL  HZ I         049 30.60      2596.9 1.58                           273 256 
 GUY  HZ EP        048 56.42                             111     0.6 7  302 235 
 GUY  HN ES   1    049 30.76                             111     1.0 5  302 235 
 RREF HZ EP        048 57.94                             109    -0.4 7  323 229 
 RREF HN ES        049 34.99                             109     0.7 7  323 229 
 RREF HZ I         049 44.02      1302.0 0.88                           323 229 
 DBB  SZ EP        048 58.65                             108    -1.0 7  340 274 
 DBB  SZ ES   1    049 35.46                             108    -1.1 5  340 274 
 TOL  SZ EP   1    049  1.97                             108     1.4 5  345 225 
 TOL  SZ ES   2    049 38.65                             108     0.6 3  345 225 
 MON  HE ES        049 37.68                             107    -1.4 6  353 308 
 MON  HZ I         049 55.00       762.2 0.53                           353 308 
 ANIL HZ EP        049  2.25                             107     0.2 6  358 224 
 ANIL HE ES   1    049 41.38                             107     0.5 5  358 224 
 PRA  HZ EP        049  4.73                             105    -1.1 6  393 210 
 PRA  HN ES        049 47.58                             105     0.1 6  393 210 
 SOL  SZ EP        049 16.03                             102     0.4 5  476 262 
 SOL  SZ I         050  1.69       195.4 0.36                           476 262 
 MARA HZ EP        049 22.21                             100    -1.2 4  538 216 
 MAL  SZ IP        049 26.40                             100     1.0 3  558 237 
 MAL  SZ I         049 29.54       296.2 0.52                           558 237 
                                                                                
