 2010  329 0234 58.9 L   6.794 -73.038148.3  RSN 11 0.5 2.6LRSN                1
 GAP=194        0.83       4.6     7.7  6.2 -0.4545E+01  0.9676E+01  0.4541E+01E
 Epicentro: CEPITA - SANTANDER                                                 3
 ACTION:UP  10-08-24 09:56 OP:vdl  STATUS:               ID:20100329023458 L   I
 2010-03-29-0233-26S.COL___098                                                 6
 STAT SP IPHASW D HRMM SECON CODA AMPLIT PERI AZIMU VELO SNR AR TRES W  DIS CAZ7
 BAR2 SZ IP        235 19.17                             169     0.310   28 216 
 BAR2 SZ ES   1    235 33.84                             169    -0.7 7   28 216 
 BRR  HZ IP        235 21.10                             149     0.210   82 295 
 BRR  HZ I         235 21.43       126.5 0.16                            82 295 
 BRR  HN ES   1    235 38.72                             149     0.6 7   82 295 
 RUS  HZ EP   3    235 22.87                             144     0.1 2  100 183 
 RUS  HE ES   2    235 41.35                             144    -0.1 5  100 183 
 OCA  SZ EP        235 27.12                             130    -0.5 9  163 349 
 OCA  SZ I         235 55.37        71.3 0.24                           163 349 
 CHI  HZ EP        235 37.13                             117     0.1 8  251 198 
 CHI  HN ES   2    236  7.13                             117     0.4 4  251 198 
 HEL  HZ EP        235 40.81                             114     0.3 7  284 257 
 HEL  HN ES   2    236 11.71                             114    -1.2 4  284 257 
 HEL  HZ I         236 17.84        15.8 0.30                           284 257 
 RREF BZ EP   2    235 46.26                             111     0.2 3  331 231 
 RREF BE ES   2    236 22.88                             111    -0.1 3  331 231 
 RREF BZ I         236 31.35         9.3 0.32                           331 231 
 DBB  SZ EP   2    235 47.31                             109    -0.5 3  351 274 
 TOL  SZ EP   1    235 48.57                             109     0.4 5  352 226 
 TOL  SZ ES   3    236 26.19                             109    -0.4 2  352 226 
 ANIL BE ES   2    236 30.05                             108     0.7 3  365 226 
 ANIL BZ I         236 36.86        15.1 0.26                           365 226 
 PRA  HZ EP        235 52.45                             107    -0.7 6  397 211 
 PRA  HE ES   2    236 35.23                             107    -0.2 3  397 211 
 PRA  HZ I         236 40.18         7.2 0.34                           397 211 
                                                                                
