 2017 1029 0714  5.8 L   7.461 -73.067152.6  RSN  5 0.2 1.1LRSN                1
 GAP=227        0.61       4.4     3.6  4.6 -0.2711E+01  0.2796E+01 -0.3788E-01E
 Epicentro: SURATA - SANTANDER                                                 3
 ACTION:UPD 17-11-07 19:38 OP:rebc STATUS:               ID:20171029071405 L   I
 OLDACT:UP  17-10-29 16:19 OP:edw  STATUS:               ID:20171029070642d    3
 OLDACT:DUP 17-10-29 16:15 OP:edw  STATUS:               ID:20171029070642d    3
 2017-10-29-0707-00M.COL___402                                                 6
 STAT SP IPHASW D HRMM SECON CODA AMPLIT PERI AZIMU VELO AIN AR TRES W  DIS CAZ7
 PAM  EZ EP        714 27.11                             164   -0.0710 42.8 108 
 PAM  EE ES        714 43.72                             164   -0.1110 42.8 108 
 PAM  EZ I         714 44.47         2.5 0.20            168           42.8 108 
 BRR  HZ EP        714 28.20                             150   -0.0910 81.2 241 
 BRR  HN ES        714 46.12                             150    0.3110 81.2 241 
 BRR  HZ I         714 48.01         4.0 0.46            148           81.2 241 
 BAR2 EZ EP        714 29.82                             146    0.1810 96.9 188 
 BAR2 EZ ES        714 48.13                             146   -0.0910 96.9 188 
 RUS  HZ EP        714 36.82                             129    0.46 9  173 181 
 RUS  HN ES        714 59.99                             129   -0.19 9  173 181 
 PTB  HZ EP        714 36.40                             127   -0.37 9  184 237 
 PTB  HN ES        715  0.81                             127   -0.08 9  184 237 
 PTB  HZ I         715  6.60         0.9 0.34            127            184 237 
                                                                                
