 2012  929 0512  6.4 L   6.788 -73.133147.0  RSN 11 0.4 2.3LRSN                1
 GAP= 72        0.72       3.8     3.0  5.4 -0.1006E+01  0.1581E+01  0.1033E+02E
 Epicentro: LOS SANTOS - SANTANDER                                             3
 ACTION:UPD 12-10-22 14:21 OP:ep   STATUS:               ID:20120929051206 L   I
 2012-09-29-0510-00M.COL___220                                                 6
 STAT SP IPHASW D HRMM SECON CODA AMPLIT PERI AZIMU VELO AIN AR TRES W  DIS CAZ7
 BAR2 SZ EP        512 26.05                             171   -0.1110 22.3 194 
 BAR2 SZ ES   1    512 41.21                             171   -0.37 7 22.3 194 
 BAR2 SZ I         512 42.93        85.0 0.40                          22.3 194 
 GIR2 SZ EP        512 26.12                             167   -0.1510 32.9 348 
 GIR2 SZ ES   1    512 42.00                             167    0.24 7 32.9 348 
 BRR  HZ IP     C  512 27.92                             152    0.1310 73.1 299 
 BRR  HN ES   1    512 45.37                             152    0.89 7 73.1 299 
 BRR  HZ I         512 47.59        47.2 0.16                          73.1 299 
 PAM  SZ EP        512 28.78                             151    0.0210 77.6  38 
 PAM  SN ES        512 46.15                             151   -0.0510 77.6  38 
 PAM  SZ I         512 51.07        20.2 0.74                          77.6  38 
 RUS  HZ EP   1    512 30.23                             144    0.06 7 99.1 177 
 PTB  HN ES   1    512 54.11                             132   -0.66 7  149 259 
 PTB  HN I         512 59.17        56.8 0.22                           149 259 
 TAM  HZ EP   1    512 33.93                             131   -0.09 7  153 105 
 TAM  HZ I         512 34.34        23.9 0.36                           153 105 
 TAM  HN ES   1    512 55.57                             131    0.01 7  153 105 
 ZAR  HN ES   1    513  4.06                             122   -0.57 6  206 292 
 ZAR  HZ I         513 11.11        37.3 0.34                           206 292 
 CHI  HZ EP   1    512 44.12                             117    0.05 6  248 196 
 CHI  HN ES   1    513 13.35                             117   -0.10 6  248 196 
 CHI  HZ I         513 17.62         5.5 0.68                           248 196 
 CHI  HN I         513 17.75        12.2 0.24                           248 196 
 HEL  HZ EP   1    512 47.39                             115    0.60 6  273 256 
 PRA  HZ EP   1    512 59.49                             107   -0.42 4  392 210 
 PRA  HE ES        513 42.22                             107    0.58 6  392 210 
 PRA  HN I         513 47.03         4.4 0.42                           392 210 
                                                                                
