 2017  329 0538 54.9 L   6.772 -73.078146.0  RSN  4 0.3 1.4LRSN                1
 GAP=242        0.86       5.3     8.5  7.3  0.8068E+01  0.9114E+01  0.3455E+01E
 Epicentro: LOS SANTOS - SANTANDER                                             3
 ACTION:UPD 17-05-25 18:46 OP:jn   STATUS:               ID:20170329053854 L   I
 OLDACT:REG 17-03-29 12:34 OP:dnl  STATUS:               ID:20170329053200     3
 2017-03-29-0538-00M.COL___365                                                 6
 STAT SP IPHASW D HRMM SECON CODA AMPLIT PERI AZIMU VELO AIN AR TRES W  DIS CAZ7
 BAR2 EZ EP        539 14.45                             171   -0.1310 22.9 210 
 BAR2 EZ ES        539 29.38                             171   -0.5310 22.9 210 
 BAR2 EZ I         539 34.98         7.0 0.54            165           22.9 210 
 BRR  HZ EP        539 16.46                             150   -0.1210 79.2 298 
 BRR  HN ES        539 33.89                             150    0.4310 79.2 298 
 BRR  HZ I         539 35.82         7.0 0.44            149           79.2 298 
 RUS  HZ EP   2    539 18.69                             145    0.22 5 97.2 180 
 RUS  HN ES        539 37.31                             145    0.4910 97.2 180 
 RUS  HZ I         539 38.11         2.4 0.22            145           97.2 180 
 SPBC HZ EP        539 23.74                             129    0.06 9  166 222 
 SPBC HN ES        539 45.80                             129   -0.30 9  166 222 
 SPBC HZ I         539 52.98         3.6 0.14            129            166 222 
                                                                                
