 2013  629 0703 45.8 L   6.757 -73.116148.8  RSN  9 0.3 1.9LRSN                1
 GAP=142        0.58       2.6     3.7  4.9  0.2633E+01  0.3950E+01 -0.1493E+01E
 Epicentro: LOS SANTOS - SANTANDER                                             3
 ACTION:UPD 14-01-08 09:58 OP:ep   STATUS:               ID:20130629070345 L   I
 OLDACT:REG 13-06-29 07:57 OP:carl STATUS:               ID:20130629065959     3
 2013-06-29-0659-59M.COL___267                                                 6
 STAT SP IPHASW D HRMM SECON CODA AMPLIT PERI AZIMU VELO AIN AR TRES W  DIS CAZ7
 BAR2 SZ EP   1    7 4  5.73                             172   -0.03 7 19.6 202 
 BAR2 SZ ES   1    7 4 20.81                             172   -0.48 7 19.6 202 
 BAR2 SZ I         7 4 21.91        12.5 0.18            173           19.6 202 
 GIR2 SZ EP   1    7 4  6.10                             165    0.08 7 36.6 347 
 BRR  HZ EP   1    7 4  8.02                             151    0.42 7 76.4 301 
 BRR  HN ES   1    7 4 25.06                             151    0.48 7 76.4 301 
 BRR  HZ I         7 4 25.71        11.1 0.42            150           76.4 301 
 PAM  SZ EP   1    7 4  8.92                             151    0.44 7 79.2  36 
 PAM  SE ES   1    7 4 26.10                             151   -0.04 7 79.2  36 
 RUS  HZ EP        7 4  9.44                             146   -0.0910 95.6 178 
 RUS  HN ES   1    7 4 28.02                             146    0.00 7 95.6 178 
 RUS  HZ I         7 4 29.45         4.1 0.36            148           95.6 178 
 PTB  HZ EP   4    7 4 12.63                             132   -0.63 0  150 261 
 PTB  HN ES   4    7 4 32.83                             132   -1.82 0  150 261 
 PTB  HZ I         7 4 34.49         7.2 0.10            132            150 261 
 OCA  HE ES        7 4 37.41                             129   -0.10 9  165 352 
 OCA  HE I         7 4 41.63        25.0 0.18            129            165 352 
 ZAR  HZ EP   1    7 4 18.89                             122   -0.08 6  209 293 
 ZAR  HE ES        7 4 44.74                             122   -0.08 8  209 293 
 ZAR  HZ I         7 4 49.97         7.6 0.32            122            209 293 
 SML  HZ EP   1    7 4 22.76                             117   -0.49 6  249 335 
 SML  HN ES        7 4 52.33                             117   -0.10 8  249 335 
 SML  HZ I         7 4 53.90         6.8 0.24            118            249 335 
 GUY2CHN ES   4    7 5  6.77                             113    3.08 0  301 236 
                                                                                
