 2011 1129 0003 52.5 L   6.771 -73.123146.8  RSN  4 0.4 1.7LRSN                1
 GAP=141        0.49       4.0     5.5  7.6 -0.1957E+01 -0.5293E+00  0.4831E+01E
 Epicentro: LOS SANTOS - SANTANDER                                             3
 ACTION:UPD 12-07-13 16:12 OP:ep   STATUS:               ID:20111129000352 L   I
 2011-11-29-0000-00M.COL___181                                                 6
 STAT SP IPHASW D HRMM SECON CODA AMPLIT PERI AZIMU VELO AIN AR TRES W  DIS CAZ7
 BRR  HZ EP        0 4 13.92                             151   -0.0110 74.9 300 
 BRR  HN ES   2    0 4 30.83                             151    0.15 5 74.9 300 
 BRR  HZ I         0 4 34.82         9.7 0.14                          74.9 300 
 PAM  SZ EP        0 4 14.86                             151    0.0310 78.3  37 
 PAM  SN ES   2    0 4 31.75                             151   -0.54 5 78.3  37 
 RUS  HZ EP        0 4 16.22                             144    0.1510 97.3 177 
 RUS  HE ES   2    0 4 34.59                             144    0.09 5 97.3 177 
 NOR  SZ EP   3    0 4 27.29                             118   -0.98 2  235 235 
 NOR  SN ES   3    0 4 54.96                             118   -1.24 2  235 235 
                                                                                
