 2015  929 0202 36.5 L   6.806 -73.123152.0  RSN 13 0.4 1.8LRSN                1
 GAP=139        0.83       2.5     3.8  5.5 -0.1226E+01  0.5291E+01  0.2818E+01E
 Epicentro: LOS SANTOS - SANTANDER                                             3
 ACTION:UPD 15-10-28 16:28 OP:cam  STATUS:               ID:20150929020236 L   I
 OLDACT:REG 15-09-29 12:22 OP:spq  STATUS:               ID:20150929015748     3
 2015-09-29-0157-48M.COL___352                                                 6
 STAT SP IPHASW D HRMM SECON CODA AMPLIT PERI AZIMU VELO AIN AR TRES W  DIS CAZ7
 BAR2 EZ ES   1    2 3 12.33                             170   -0.49 7 24.6 196 
 BAR2 EZ I         2 3 14.41        11.6 0.38            169           24.6 196 
 BRR  HZ EP        2 2 58.47                             153    0.0410 73.1 297 
 BRR  HN ES        2 3 15.82                             153    0.2910 73.1 297 
 BRR  HZ I         2 3 20.11         7.2 0.30            152           73.1 297 
 PAM  EZ EP     D  2 2 59.42                             153    0.1610 75.2  38 
 PAM  EN ES        2 3 16.90                             153   -0.1110 75.2  38 
 PAM  EZ I         2 3 19.24         6.1 0.44            157           75.2  38 
 RUS  HZ EP        2 3  0.80                             145   -0.1110  101 178 
 RUS  HE ES   1    2 3 19.47                             145   -0.47 7  101 178 
 RUS  HZ I         2 3 22.02         5.0 0.38            147            101 178 
 PTB  HZ EP        2 3  3.68                             133   -0.53 9  150 259 
 PTB  HN ES   4    2 3 24.68                             133   -1.15 0  150 259 
 PTB  HZ I         2 3 26.89         5.5 0.14            133            150 259 
 OCA  HN ES        2 3 28.04                             131    0.34 9  160 352 
 OCA  HZ I         2 3 32.01        21.3 0.44            133            160 352 
 SPBC HZ EP        2 3  5.59                             130   -0.09 9  165 220 
 SPBC HE ES        2 3 28.91                             130    0.47 9  165 220 
 SPBC HZ I         2 3 33.24        11.8 0.36            131            165 220 
 ZAR  HZ EP   1    2 3  9.06                             123   -0.51 6  206 292 
 ZAR  HN ES        2 3 35.53                             123    0.17 8  206 292 
 ZAR  HZ I         2 3 43.16         5.3 0.30            124            206 292 
 NOR  HE ES        2 3 40.75                             119   -0.47 8  237 235 
 NOR  HZ I         2 3 46.08         5.0 0.30            121            237 235 
 SML  HZ EP   2    2 3 13.76                             119    0.24 4  244 335 
 SML  HE ES   1    2 3 42.24                             119   -0.17 6  244 335 
 SML  HZ I         2 3 43.54         8.8 0.10            121            244 335 
 CHI  HZ EP        2 3 14.77                             118    0.08 8  250 196 
 CHI  HN ES        2 3 45.39                             118    0.90 8  250 196 
 CHI  HZ I         2 3 53.66         1.7 0.28            120            250 196 
 GUY2CHE ES   1    2 3 54.88                             113   -0.26 5  304 235 
 GUY2CHZ I         2 4  3.21         3.3 0.50                           304 235 
 SJC  HZ EP   4    2 3 30.73                             107   -1.63 0  410 327 
 SJC  HE ES   4    2 4 13.37                             107   -2.57 0  410 327 
 SJC  HZ I         2 4 17.31         3.4 0.90            108            410 327 
                                                                                
