 2010  729 0719 46.2 L   6.789 -73.061144.9  RSN  6 0.4 1.6LRSN                1
 GAP=168        0.96       5.5    11.3 12.0 -0.2689E+01 -0.3711E+02 -0.1316E+02E
 Epicentro: LOS SANTOS - SANTANDER                                             3
 ACTION:UPD 10-12-01 15:20 OP:pat  STATUS:               ID:20100729071946 L   I
 2010-07-29-0718-13S.COL___123                                                 6
 STAT SP IPHASW D HRMM SECON CODA AMPLIT PERI AZIMU VELO AIN AR TRES W  DIS CAZ7
 BAR2 SZ EP   1    720  6.05                             169     0.3 7   26 212 
 BAR2 SZ I         720 23.81         6.3 0.22                            26 212 
 BRR  HZ IP     C  720  7.79                             149     0.010   80 296 
 BRR  HN ES   1    720 24.69                             149     0.1 7   80 296 
 BRR  HZ I         720 26.63         8.7 0.28                            80 296 
 RUS  HZ EP   1    720 10.00                             144     0.2 7   99 181 
 RUS  HN ES   1    720 27.83                             144    -0.3 7   99 181 
 RUS  HZ I         720 30.01         3.8 0.40                            99 181 
 GUE  SZ EP   1    720  9.98                             139    -0.8 7  116   7 
 GRA  SZ EP   1    720 11.89                             137     0.6 7  124  13 
 GRA  SZ ES   1    720 30.91                             137     0.1 7  124  13 
 GRA  SZ I         720 32.32         5.9 0.42                           124  13 
 OCA  SZ EP   1    720 14.44                             129    -0.2 7  163 350 
 OCA  SZ I         720 39.37         5.7 0.28                           163 350 
                                                                                
