 2017  429 0333 47.1 L   6.793 -73.135149.3  RSN 13 0.4 1.8LRSN                1
 GAP=113        0.69       2.4     2.3  3.9  0.1623E+00  0.3708E+00  0.2751E+01E
 Epicentro: LOS SANTOS - SANTANDER                                             3
 ACTION:UPD 17-05-30 21:17 OP:jn   STATUS:               ID:20170429033347 L   I
 OLDACT:UP  17-04-29 15:34 OP:and  STATUS:               ID:20170429032739     3
 OLDACT:UP  17-04-29 15:34 OP:and  STATUS:               ID:20170429032739     3
 OLDACT:UP  17-04-29 15:33 OP:and  STATUS:               ID:20170429032739     3
 OLDACT:UP  17-04-29 15:32 OP:and  STATUS:               ID:20170429032739     3
 OLDACT:UP  17-04-29 15:32 OP:and  STATUS:               ID:20170429032739     3
 OLDACT:UP  17-04-29 15:31 OP:and  STATUS:               ID:20170429032739     3
 OLDACT:UP  17-04-29 15:31 OP:and  STATUS:               ID:20170429032739     3
 OLDACT:REG 17-04-29 12:40 OP:and  STATUS:               ID:20170429032739     3
 2017-04-29-0328-00M.COL___368                                                 6
 STAT SP IPHASW D HRMM SECON CODA AMPLIT PERI AZIMU VELO AIN AR TRES W  DIS CAZ7
 BRR  HZ EP        334  8.61                             153   -0.0710 72.6 299 
 BRR  HN ES        334 25.61                             153    0.0710 72.6 299 
 BRR  HZ I         334 26.74        10.2 0.14            149           72.6 299 
 PAM  EZ EP        334  9.77                             151    0.1110 77.3  39 
 PAM  EN ES        334 27.27                             151   -0.0110 77.3  39 
 PAM  EZ I         334 28.52        11.1 0.16            155           77.3  39 
 RUS  HZ EP        334 10.91                             145   -0.2010 99.7 177 
 RUS  HN ES        334 29.57                             145   -0.3010 99.7 177 
 RUS  HZ I         334 30.66        18.1 0.34            144           99.7 177 
 PTB  HZ EP   9    334 13.25                             133   -1.17 0  149 259 
 PTB  HN ES        334 34.52                             133   -0.06 9  149 259 
 PTB  HZ I         334 41.97         7.3 0.40            130            149 259 
 SPBC HZ EP        334 15.80                             130   -0.06 9  163 219 
 SPBC HN ES        334 38.06                             130   -0.25 9  163 219 
 SPBC HZ I         334 40.44        11.2 0.29            128            163 219 
 YPLC HZ EP        334 17.15                             127    0.14 9  176 152 
 YPLC HN ES        334 41.00                             127    0.64 9  176 152 
 YPLC HZ I         334 43.97         8.6 0.28            129            176 152 
 ZAR  HZ EP   2    334 20.31                             123    0.42 4  205 292 
 ZAR  HE ES        334 45.41                             123   -0.07 8  205 292 
 ZAR  HZ I         334 53.24         5.7 0.25            122            205 292 
 NOR  HZ EP        334 22.64                             119   -0.42 8  235 235 
 NOR  HN ES        334 51.47                             119    0.34 8  235 235 
 NOR  HZ I         334 55.81         6.1 0.32            118            235 235 
 CHI  HZ EP        334 24.87                             118   -0.05 8  248 195 
 CHI  HN ES        334 54.67                             118    0.23 8  248 195 
 CHI  HZ I         334 59.74         2.1 0.22            117            248 195 
 HEL  HZ EP   9    334 29.29                             115    1.72 0  273 256 
 HEL  HN ES        335  0.56                             115   -0.32 8  273 256 
 HEL  HZ I         335  5.51         4.3 0.46            114            273 256 
 PTGC HZ EP        334 30.34                             112   -0.62 7  308 159 
 PTGC HN ES   3    335  3.61                             112   -1.58 2  308 159 
 CBOC HZ EP   3    334 35.63                             110    1.40 2  334 252 
 CBOC HN ES        335 10.87                             110   -0.15 7  334 252 
 CBOC HZ I         335 20.60         1.3 0.68            110            334 252 
 ORTC HZ EP        334 41.91                             107    0.79 6  395 216 
 ORTC HN ES   2    335 24.04                             107    0.76 3  395 216 
 ORTC HZ I         335 28.88         2.7 0.44            107            395 216 
 SJC  HZ EP   4    334 41.43                             106   -1.47 0  410 327 
 SJC  HN ES   4    335 22.43                             106   -4.01 0  410 327 
                                                                                
