 2017  829 0043 58.6 L   6.772 -73.154147.8  RSN  5 0.1 1.4LRSN                1
 GAP=137        0.31       2.2     2.4  2.7  0.3122E+01 -0.1418E+01 -0.1846E+01E
 Epicentro: LOS SANTOS - SANTANDER                                             3
 ACTION:UPD 17-09-04 20:26 OP:rebc STATUS:               ID:20170829004358 L   I
 OLDACT:UP  17-08-29 13:30 OP:dani STATUS:               ID:20170829003741d    3
 OLDACT:DUP 17-08-29 13:28 OP:dani STATUS:               ID:20170829003741d    3
 OLDACT:REG 17-08-29 12:39 OP:dani STATUS:               ID:20170829003740     3
 2017-08-29-0038-00M.COL___417                                                 6
 STAT SP IPHASW D HRMM SECON CODA AMPLIT PERI AZIMU VELO AIN AR TRES W  DIS CAZ7
 BAR2 EZ EP        044 18.51                             172    0.0610 20.1 189 
 BAR2 EZ ES        044 33.99                             172    0.0810 20.1 189 
 BAR2 EZ I         044 35.59         7.9 0.26            174           20.1 189 
 BRR  HZ EP        044 20.05                             153    0.0010 71.9 301 
 BRR  HE ES        044 36.73                             153   -0.0110 71.9 301 
 BRR  HZ I         044 39.96         6.7 0.15            154           71.9 301 
 PAM  EZ EP        044 21.18                             150   -0.0710 80.4  39 
 RUS  HZ EP        044 22.45                             145    0.0710 97.6 175 
 RUS  HN ES        044 40.78                             145   -0.1110 97.6 175 
 RUS  HZ I         044 41.58         2.4 0.28            148           97.6 175 
 ZAR  HE ES        044 56.66                             123   -0.02 9  204 293 
                                                                                
