 2014  629 0533 15.7 L   6.815 -73.161143.8  RSN 10 0.5 2.0LRSN                1
 GAP=134        1.09       3.0     4.5  6.4 -0.2803E+01  0.1136E+02 -0.1740E+01E
 Epicentro: LOS SANTOS - SANTANDER                                             3
 ACTION:UPD 14-07-01 22:57 OP:nd   STATUS:               ID:20140629053315 L   I
 OLDACT:REG 14-06-29 13:09 OP:carl STATUS:               ID:20140629052815     3
 2014-06-29-0528-15M.COL___237                                                 6
 STAT SP IPHASW D HRMM SECON CODA AMPLIT PERI AZIMU VELO AIN AR TRES W  DIS CAZ7
 BAR2 SZ EP     C  533 35.32                             170    0.2110 24.7 185 
 BAR2 SZ ES        533 50.26                             170    0.0010 24.7 185 
 BAR2 SZ I         533 52.95        19.6 0.28            173           24.7 185 
 PAM  SZ EP     D  533 38.18                             150    0.5010 77.2  41 
 PAM  SN ES        533 55.35                             150    0.5110 77.2  41 
 PAM  SZ I         533 58.42         8.3 0.44            152           77.2  41 
 RUS  HZ EP        533 39.29                             143   -0.0810  102 175 
 RUS  HN ES        533 57.43                             143   -0.4210  102 175 
 RUS  HZ I         533 59.25         9.5 0.26            147            102 175 
 PTB  HZ EP        533 42.13                             132   -0.24 9  146 258 
 PTB  HN ES        534  2.52                             132   -0.66 9  146 258 
 PTB  HZ I         534  5.53         7.0 0.12            133            146 258 
 OCA  HZ EP        533 42.79                             129   -0.88 9  158 354 
 OCA  HN ES        534  5.84                             129    0.34 9  158 354 
 OCA  HZ I         534 13.62        10.8 0.24            130            158 354 
 SPBC HZ EP        533 44.03                             129   -0.02 9  163 218 
 SPBC HN ES        534  5.86                             129   -0.32 9  163 218 
 SPBC HZ I         534  7.93        11.2 0.12            131            163 218 
 ZAR  HZ EP        533 47.47                             122   -0.30 9  202 292 
 ZAR  HN ES        534 13.19                             122    0.38 9  202 292 
 ZAR  HZ I         534 18.55        13.1 0.82            123            202 292 
 SML  HZ EP        533 51.91                             117   -0.05 8  242 335 
 SML  HN ES        534 19.92                             117   -0.34 8  242 335 
 SML  HZ I         534 27.22        16.3 0.10            118            242 335 
 GUY2CHZ EP        533 59.56                             112    0.41 7  301 234 
 GUY2CHN ES        534 34.30                             112    1.24 7  301 234 
 GUY2CHZ I         534 42.58         2.9 0.48                           301 234 
 TOL  SE ES   4    534 42.68                             109    1.25 0  343 224 
 PRA  HZ EP        534  9.22                             106    0.02 6  393 209 
 PRA  HN ES        534 51.35                             106    0.40 6  393 209 
 PRA  HZ I         534 57.71         4.5 0.26            108            393 209 
                                                                                
