 2016  829 0413 42.6 L   6.732 -73.123142.0  RSN  6 0.5 1.2LRSN                1
 GAP=235        1.35       7.4     8.0  9.9  0.2333E+02  0.1522E+02  0.4889E+01E
 Epicentro: JORDAN - SANTANDER                                                 3
 ACTION:UPD 16-10-29 15:40 OP:rebc STATUS:               ID:20160829041342 L   I
 OLDACT:UP  16-08-29 15:07 OP:drio STATUS:               ID:20160829040728     3
 OLDACT:UP  16-08-29 14:59 OP:drio STATUS:               ID:20160829040728     3
 OLDACT:REG 16-08-29 12:48 OP:drio STATUS:               ID:20160829040728     3
 2016-08-29-0408-00M.COL___362                                                 6
 STAT SP IPHASW D HRMM SECON CODA AMPLIT PERI AZIMU VELO AIN AR TRES W  DIS CAZ7
 BAR2 EZ EP        414  1.57                             173   -0.0910 16.7 203 
 BAR2 EZ ES        414 15.60                             173   -0.9310 16.7 203 
 BAR2 EZ I         414 18.63         4.5 0.28                          16.7 203 
 BRR  HZ EP        414  4.03                             150    0.3310 77.1 303 
 BRR  HE ES        414 21.08                             150    0.9310 77.1 303 
 BRR  HZ I         414 24.29         2.9 0.38                          77.1 303 
 RUS  HZ EP        414  5.53                             145    0.1010 92.9 177 
 RUS  HN ES        414 23.51                             145    0.2610 92.9 177 
 RUS  HZ I         414 25.71         1.4 0.60                          92.9 177 
 PTB  HZ EP        414  8.65                             131   -0.72 9  149 262 
 PTB  HE ES        414 29.74                             131   -0.51 9  149 262 
 PTB  HZ I         414 30.53         2.1 0.14                           149 262 
 SPBC HZ EP        414 10.61                             129    0.20 9  159 221 
 SPBC HE ES        414 32.56                             129    0.45 9  159 221 
 SPBC HZ I         414 34.76         2.6 0.38                           159 221 
 ZAR  HZ EP   4    414 16.50                             121    1.16 0  209 294 
 ZAR  HE ES        414 40.77                             121   -0.12 8  209 294 
                                                                                
