 2011  929 0238 27.0 L   6.779 -73.154139.6  RSN 13 0.4 2.6LRSN                1
 GAP=114        0.74       2.8     4.1  5.3 -0.6781E+00  0.5545E+01  0.4001E+01E
 Epicentro: LOS SANTOS - SANTANDER                                             3
 ACTION:UPD 12-07-13 16:00 OP:ep   STATUS:               ID:20110929023827 L   I
 2011-09-29-0235-42S.COL___166                                                 6
 STAT SP IPHASW D HRMM SECON CODA AMPLIT PERI AZIMU VELO AIN AR TRES W  DIS CAZ7
 BAR2 SZ IP        238 45.97                             171    0.1610 20.9 189 
 BAR2 SZ ES   1    238 59.97                             171   -0.53 7 20.9 189 
 BAR2 SZ I         239  2.10        72.3 0.45                          20.9 189 
 GIR2 SZ EP   1    238 45.92                             166   -0.05 7 33.4 352 
 BRR  HZ EP   1    238 47.67                             151    0.20 7 71.5 300 
 BRR  HN ES   1    239  4.43                             151    0.97 7 71.5 300 
 BRR  HZ I         239  7.99       100.2 0.23                          71.5 300 
 PAM  SZ EP   1    238 48.63                             149   -0.04 7 79.7  39 
 PAM  SZ I         238 48.99        81.3 0.15                          79.7  39 
 PAM  SN ES   1    239  5.47                             149   -0.13 7 79.7  39 
 RUS  HZ EP   1    238 50.04                             143    0.09 7 98.4 175 
 RUS  HN ES   1    239  7.90                             143    0.02 7 98.4 175 
 RUS  HZ I         239 10.62        49.3 0.29                          98.4 175 
 OCA  SZ EP   1    238 54.35                             128   -0.66 7  162 354 
 OCA  SZ ES   1    239 16.76                             128   -0.12 7  162 354 
 OCA  SZ I         239 19.64        45.6 0.19                           162 354 
 YOP  SZ EP   1    238 56.71                             125    0.30 7  177 153 
 ZAR  HN ES   1    239 23.57                             121   -0.45 6  204 293 
 ZAR  HZ I         239 29.82        41.3 0.19                           204 293 
 NOR  SZ EP   1    239  2.08                             117   -0.04 6  233 235 
 NOR  SN ES   1    239 29.27                             117   -0.27 6  233 235 
 CHI  HZ EP   1    239  4.42                             116    0.36 6  246 195 
 CHI  HN ES   1    239 32.66                             116   -0.34 6  246 195 
 CHI  HZ I         239 41.63        19.7 0.38                           246 195 
 HEL  HZ EP   1    239  6.80                             114    0.09 6  271 256 
 HEL  HZ I         239 45.59        20.3 0.38                           271 256 
 RREF HZ EP   1    239 13.25                             110    0.65 5  320 230 
 RREF HZ I         239 56.01        18.4 0.46                           320 230 
 PRA  HZ EP   1    239 20.18                             106    0.19 4  390 210 
 PRA  HN ES   1    240  0.44                             106   -0.91 4  390 210 
 PRA  HZ I         240  8.99        64.9 0.22                           390 210 
                                                                                
