 2016  429 0903 49.7 L   6.840 -73.232140.8  RSN  9 0.5 2.1LRSN                1
 GAP=122        1.13       3.8     4.8  7.3 -0.2999E+01  0.1456E+02 -0.2082E+01E
 Epicentro: ZAPATOCA - SANTANDER                                               3
 ACTION:UPD 16-05-05 14:25 OP:rebc STATUS:               ID:20160429090349 L   I
 OLDACT:UP  16-04-29 17:52 OP:mh   STATUS:               ID:20160429085750d    3
 OLDACT:UP  16-04-29 17:51 OP:mh   STATUS:               ID:20160429085750d    3
 OLDACT:DUP 16-04-29 17:29 OP:mh   STATUS:               ID:20160429085750d    3
 OLDACT:REG 16-04-29 13:03 OP:dnl  STATUS:               ID:20160429085749     3
 2016-04-29-0857-49M.COL___300                                                 6
 STAT SP IPHASW D HRMM SECON CODA AMPLIT PERI AZIMU VELO AIN AR TRES W  DIS CAZ7
 BAR2 EZ EP        9 4  8.68                             168   -0.1510 28.0 169 
 BAR2 EZ ES        9 4 23.86                             168    0.1110 28.0 169 
 BAR2 EZ I         9 4 24.71        23.4 0.24            171           28.0 169 
 PAM  EZ EP        9 4 11.70                             149    0.1210 80.7  47 
 PAM  EN ES        9 4 28.65                             149   -0.0110 80.7  47 
 PAM  EZ I         9 4 31.50        14.2 0.60            151           80.7  47 
 RUS  HZ EP        9 4 12.52                             141   -0.8510  106 171 
 RUS  HN ES        9 4 31.94                             141    0.1010  106 171 
 RUS  HZ I         9 4 33.50         8.5 0.19            145            106 171 
 PTB  HZ EP        9 4 15.16                             133   -0.33 9  139 256 
 PTB  HN ES        9 4 35.60                             133   -0.02 9  139 256 
 PTB  HZ I         9 4 37.48        18.1 0.49            134            139 256 
 OCA  HZ EP   1    9 4 16.64                             129   -0.47 7  155 356 
 OCA  HN ES        9 4 39.06                             129    0.56 9  155 356 
 OCA  HZ I         9 4 44.22        33.0 0.43            131            155 356 
 SPBC HZ EP        9 4 17.65                             128    0.05 9  161 215 
 SPBC HN ES        9 4 39.82                             128    0.45 9  161 215 
 SPBC HZ I         9 4 44.39        20.6 0.11            131            161 215 
 ZAR  HZ EP        9 4 21.11                             123    0.38 9  194 292 
 ZAR  HN ES        9 4 44.01                             123   -0.92 9  194 292 
 ZAR  HZ I         9 4 49.27        38.3 0.25            124            194 292 
 HEL  HZ EP        9 4 29.73                             114    0.97 8  264 254 
 GUY2CHZ EP        9 4 32.78                             112    0.28 7  296 233 
 GUY2CHN ES   4    9 5 11.27                             112    5.39 0  296 233 
                                                                                
