 2017  629 0447  7.6 L   6.690 -73.123146.2  RSN  4 0.2 1.2LRSN                1
 GAP=266        0.46       5.2     3.4  3.7  0.6528E+01  0.2826E+01 -0.9351E+00E
 Epicentro: JORDAN - SANTANDER                                                 3
 ACTION:UPD 17-09-14 16:56 OP:jn   STATUS:               ID:20170629044707 L   I
 OLDACT:REG 17-06-29 12:53 OP:and  STATUS:               ID:20170629043739     3
 2017-06-29-0438-00M.COL___370                                                 6
 STAT SP IPHASW D HRMM SECON CODA AMPLIT PERI AZIMU VELO AIN AR TRES W  DIS CAZ7
 BAR2 EZ IP     C  447 27.32                             175    0.2110 12.6 211 
 BAR2 EZ ES        447 42.15                             175   -0.1810 12.6 211 
 BAR2 EZ I         447 43.01         5.0 0.28            174           12.6 211 
 BRR  HZ IP     C  447 29.21                             150   -0.0910 79.8 305 
 BRR  HE ES        447 46.35                             150    0.1310 79.8 305 
 PTB  HZ EP        447 34.46                             132   -0.19 9  148 264 
 PTB  HN ES        447 55.90                             132    0.14 9  148 264 
 PTB  HZ I         447 57.07         1.6 0.13            132            148 264 
 ZAR  HZ EP        447 40.91                             121    0.10 8  211 295 
 ZAR  HN ES        448  6.57                             121   -0.15 8  211 295 
 ZAR  HZ I         448  9.75         1.6 0.12            121            211 295 
                                                                                
