 2017 1029 0849  8.9 L   6.824 -73.140151.1  RSN 16 0.6 2.0LRSN                1
 GAP=111        1.08       3.4     3.7  5.2  0.1399E+01  0.5105E+01  0.2792E+01E
 Epicentro: LOS SANTOS - SANTANDER                                             3
 ACTION:UPD 17-11-07 19:38 OP:rebc STATUS:               ID:20171029084908 L   I
 OLDACT:UP  17-10-29 16:43 OP:dhb  STATUS:               ID:20171029084741     3
 OLDACT:UP  17-10-29 16:41 OP:dhb  STATUS:               ID:20171029084741     3
 OLDACT:REG 17-10-29 13:41 OP:dhb  STATUS:               ID:20171029084741     3
 2017-10-29-0848-00M.COL___399                                                 6
 STAT SP IPHASW D HRMM SECON CODA AMPLIT PERI AZIMU VELO AIN AR TRES W  DIS CAZ7
 BAR2 EZ EP        849 29.26                             170    0.0610 26.1 190 
 BAR2 EZ ES        849 44.53                             170   -0.5210 26.1 190 
 BAR2 EZ I         849 45.84        43.2 0.18            168           26.1 190 
 BRR  HZ EP        849 31.14                             154    0.5810 70.6 296 
 BRR  HE ES        849 48.41                             154    0.9310 70.6 296 
 BRR  HZ I         849 51.38        12.6 0.28            152           70.6 296 
 PAM  EZ EP        849 31.94                             152    0.4210 74.9  40 
 PAM  EN ES        849 49.27                             152    0.0910 74.9  40 
 PAM  EZ I         849 52.12         5.6 0.50            156           74.9  40 
 RUS  HZ IP     C  849 33.14                             144   -0.1910  103 177 
 RUS  HE ES        849 51.97                             144   -0.4510  103 177 
 RUS  HZ I         849 53.54        16.4 0.22            145            103 177 
 PTB  HZ EP        849 35.87                             133   -0.51 9  149 258 
 PTB  HE ES        849 57.54                             133   -0.30 9  149 258 
 PTB  HZ I         849 59.53         7.1 0.16            132            149 258 
 SPBC HZ EP        849 38.13                             130    0.11 9  166 219 
 SPBC HN ES        850  0.29                             130   -0.46 9  166 219 
 SPBC HZ I         850  6.25        19.7 0.22            130            166 219 
 YPLC HZ EP        849 39.39                             127    0.14 9  179 152 
 YPLC HN ES        850  3.07                             127    0.12 9  179 152 
 YPLC HZ I         850  7.08         6.9 0.30            129            179 152 
 ZAR  HZ EP        849 41.71                             124    0.08 9  204 291 
 ZAR  HE ES        850  7.52                             124    0.34 9  204 291 
 ZAR  HZ I         850 15.34         7.7 0.30            124            204 291 
 NOR  HZ EP        849 45.36                             119    0.22 8  237 234 
 NOR  HE ES        850 13.29                             119   -0.13 8  237 234 
 NOR  HZ I         850 17.29        10.3 0.16            119            237 234 
 ROSC BZ EP   2    849 49.28                             118    1.71 4  255 211 
 ROSC BN ES   4    850 20.94                             118    3.19 0  255 211 
 ROSC BZ I         850 24.24         7.9 0.55            118            255 211 
 URE  HZ EP        849 49.14                             115   -1.02 7  283 291 
 URE  HE ES   2    850 20.90                             115   -1.47 4  283 291 
 URE  HZ I         850 31.72         3.9 0.18            115            283 291 
 GUY2CHZ EP   2    849 53.92                             113    0.96 4  303 234 
 GUY2CHE ES   3    850 29.55                             113    2.20 2  303 234 
 GUY2CHZ I         850 39.40         4.3 0.60                           303 234 
 PTGC HZ EP   2    849 52.15                             112   -1.07 3  311 159 
 PTGC HE ES   3    850 25.55                             112   -2.27 2  311 159 
 PTGC HZ I         850 28.91         4.1 0.20            114            311 159 
 PRA  HZ EP        850  2.94                             107    0.05 6  395 209 
 PRA  HE ES        850 45.71                             107    0.69 6  395 209 
 PRA  HZ I         850 51.24         3.7 0.28            108            395 209 
 ORTC HZ EP        850  3.50                             107    0.23 6  398 216 
 ORTC HE ES        850 45.51                             107   -0.19 6  398 216 
 ORTC HZ I         850 51.98         2.7 0.56            108            398 216 
 SJC  HZ EP        850  3.93                             107   -0.47 6  407 327 
 SJC  HN ES   2    850 46.46                             107   -1.24 3  407 327 
 SJC  HZ I         850 49.76         1.3 0.38            107            407 327 
                                                                                
