 2015  129 0814 16.0 L   6.060 -73.683117.9  RSN  5 0.5 1.3LRSN                1
 GAP=180        1.29       7.3     6.6 14.1 -0.8687E+01  0.1550E+02 -0.3738E+02E
 Epicentro: CHIPATA - SANTANDER                                                3
 ACTION:UPD 15-03-02 15:43 OP:nd   STATUS:               ID:20150129081416 L   I
 OLDACT:REG 15-01-29 13:34 OP:cvam STATUS:               ID:20150129080812     3
 2015-01-29-0808-12M.COL___268                                                 6
 STAT SP IPHASW D HRMM SECON CODA AMPLIT PERI AZIMU VELO AIN AR TRES W  DIS CAZ7
 SPBC HN ES        814 48.05                             150    0.4110 62.5 224 
 SPBC HN I         814 53.11         5.6 0.12            153           62.5 224 
 BAR2 EZ EP        814 35.59                             143    0.3910 80.7  43 
 BAR2 EZ ES        814 49.52                             143   -0.6710 80.7  43 
 BAR2 EZ I         814 52.77         2.5 0.80            149           80.7  43 
 PTB  HZ EP        814 35.92                             137   -0.5410  101 302 
 PTB  HN ES        814 52.03                             137   -0.4010  101 302 
 PTB  HN I         814 54.17         4.1 0.30            142            101 302 
 BRR  HN ES        814 55.45                             132    0.7210  116 358 
 BRR  HN I         814 57.73         4.0 0.18            138            116 358 
 ZAR  HN ES        815 11.11                             115    0.16 9  205 321 
                                                                                
