 2010  129 0455 15.8 L   6.833 -73.037149.8  RSN 10 0.9 2.0LRSN                1
 GAP=170        1.99       6.8    18.2 14.1 -0.5899E+02  0.1112E+03 -0.1204E+02E
 Epicentro: CEPITA - SANTANDER                                                 3
 ACTION:UP  10-08-24 09:46 OP:vdl  STATUS:               ID:20100129045515 L   I
 2010-01-29-0439-50S.COL___091                                                 6
 STAT SP IPHASW D HRMM SECON CODA AMPLIT PERI AZIMU VELO SNR AR TRES W  DIS CAZ7
 BAR2 SZ EP        455 36.10                             168     0.010   31 211 
 BAR2 SZ ES   1    455 51.17                             168    -0.8 7   31 211 
 GIR2 SZ EP        455 36.18                             167     0.210   32 328 
 GIR2 SZ ES   2    455 51.27                             167    -0.5 5   32 328 
 RUS  HZ EP        455 40.03                             143    -0.210  104 183 
 RUS  HN ES        455 58.97                             143    -0.310  104 183 
 RUS  HZ I         455 59.80         5.2 0.38                           104 183 
 GUE  SZ EP        455 41.05                             141     0.610  111   6 
 GUE  SZ ES   1    455 59.35                             141    -0.4 7  111   6 
 GRA  SZ EP        455 41.84                             139     0.910  119  12 
 GRA  SZ ES   1    456  1.45                             139     1.0 7  119  12 
 OCA  SZ EP        455 43.38                             131    -0.9 9  159 349 
 OCA  SZ ES   1    456  6.56                             131     0.1 7  159 349 
 CHI  HZ EP        455 54.14                             117    -0.4 8  256 198 
 CHI  HN ES   1    456 24.60                             117    -0.1 6  256 198 
 CHI  HZ I         456 33.38         3.8 0.52                           256 198 
 RREF HZ EP        456  4.19                             111     0.7 7  333 230 
 RREF HN ES        456 42.80                             111     2.2 7  333 230 
 RREF HZ I         456 46.12         7.6 0.53                           333 230 
 MON  HZ EP        456  3.48                             109    -2.3 6  360 307 
 PRA  HN ES   1    456 51.83                             107    -1.4 4  401 211 
 PRA  HZ I         456 55.80         5.0 0.41                           401 211 
                                                                                
