 2016 1129 0212 30.0 L   6.336 -73.516132.6  RSN  4 0.2 1.3LRSN                1
 GAP=230        0.57       5.7     3.8  6.3  0.2055E+01 -0.1349E+01  0.9470E+01E
 Epicentro: CONTRATACION - SANTANDER                                           3
 ACTION:UPD 17-10-26 21:12 OP:lp   STATUS:               ID:20161129021230 L   I
 OLDACT:REG 16-11-29 12:30 OP:dani STATUS:               ID:20161129020748     3
 2016-11-29-0208-00M.COL___346                                                 6
 STAT SP IPHASW D HRMM SECON CODA AMPLIT PERI AZIMU VELO AIN AR TRES W  DIS CAZ7
 BAR2 EZ EP        212 48.89                             160    0.0410 46.5  53 
 BAR2 EZ I         213  4.20         6.9 0.16            151           46.5  53 
 BRR  HZ EP        212 50.64                             144   -0.2610 88.0 346 
 BRR  HE ES        213  7.28                             144    0.1210 88.0 346 
 BRR  HZ I         213 10.55         2.9 0.29            146           88.0 346 
 PTB  HZ EP        212 52.21                             139   -0.1110  106 282 
 PTB  HE ES        213  9.75                             139    0.0510  106 282 
 PTB  HZ I         213 10.76         2.3 0.06            145            106 282 
 ZAR  HZ EP        213  1.23                             120    0.43 9  196 311 
 ZAR  HE ES        213 24.57                             120   -0.21 9  196 311 
 ZAR  HZ I         213 30.21         2.3 0.37            123            196 311 
                                                                                
