 2011  529 0245 48.8 L   6.725 -73.086148.6  RSN  5 0.1 1.4LRSN                1
 GAP=164        0.35       2.0     3.1  4.5 -0.2128E+01  0.1206E+01 -0.3192E+01E
 Epicentro: JORDAN - SANTANDER                                                 3
 ACTION:UP  11-06-29 08:57 OP:tino STATUS:               ID:20110529024548 L   I
 2011-05-29-0245-10S.COL___113                                                 6
 STAT SP IPHASW D HRMM SECON CODA AMPLIT PERI AZIMU VELO SNR AR TRES W  DIS CAZ7
 BRR  HZ EP   1    246 10.86                             150     0.0 7   81 301 
 BRR  HZ I         246 11.30        10.3 0.10                            81 301 
 BRR  HN ES   1    246 28.16                             150     0.1 7   81 301 
 RUS  HN ES        246 30.56                             147     0.010   92 180 
 RUS  HZ I         246 32.02         1.9 0.16                            92 180 
 BRI  SZ EP   1    246 13.53                             140     0.1 7  114  16 
 BRI  SZ I         246 14.60         4.4 0.19                           114  16 
 GRA  SZ EP   1    246 14.91                             136     0.1 7  132  14 
 GRA  SZ ES   1    246 34.98                             136    -0.2 7  132  14 
 GRA  SZ I         246 36.38         3.4 0.48                           132  14 
 NOR  SN ES   1    246 52.76                             119    -0.1 6  235 237 
                                                                                
