 2014  629 0422 38.7 L   6.478 -73.587105.1  RSN  5 0.5 1.0LRSN                1
 GAP=126        1.18       5.6     4.8 11.0  0.7411E+01  0.1777E+02 -0.4297E-01E
 Epicentro: SANTA HELENA DEL OPON - SANTANDER                                  3
 ACTION:UPD 14-07-01 22:57 OP:nd   STATUS:               ID:20140629042238 L   I
 OLDACT:REG 14-06-29 13:07 OP:carl STATUS:               ID:20140629041815     3
 2014-06-29-0418-15M.COL___231                                                 6
 STAT SP IPHASW D HRMM SECON CODA AMPLIT PERI AZIMU VELO AIN AR TRES W  DIS CAZ7
 BAR2 SZ EP        422 54.02                             154   -0.3710 46.5  74 
 BAR2 SZ ES        423  6.98                             154    0.3410 46.5  74 
 BAR2 SZ I         423  7.83         8.5 0.38            161           46.5  74 
 RUS  HZ EP        422 57.71                             138    0.3010 85.5 139 
 RUS  HE ES        423 11.72                             138   -0.3010 85.5 139 
 RUS  HZ I         423 14.31         1.4 0.36            140           85.5 139 
 PTB  HZ EP        422 56.92                             134   -0.7610 96.4 274 
 PTB  HN ES        423 12.08                             134   -0.4210 96.4 274 
 PTB  HZ I         423 13.37         2.6 0.20            136           96.4 274 
 SPBC HZ EP        422 59.10                             131    0.4510  106 210 
 SPBC HN ES        423 14.51                             131    0.2910  106 210 
 SPBC HZ I         423 21.32         2.0 0.22            131            106 210 
 ZAR  HN ES        423 28.17                             115    0.63 9  180 309 
                                                                                
