 2014  729 0714 53.5 L   6.818 -73.127138.1  RSN 15 0.5 2.1LRSN                1
 GAP=138        0.91       2.9     3.5  5.0 -0.1930E+01  0.6339E+01  0.3717E+00E
 Epicentro: LOS SANTOS - SANTANDER                                             3
 ACTION:UPD 15-03-16 20:47 OP:nd   STATUS:               ID:20140729071453 L   I
 OLDACT:UP  14-07-29 16:29 OP:mh   STATUS:               ID:20140729071000     3
 OLDACT:REG 14-07-29 13:28 OP:mh   STATUS:               ID:20140729071000     3
 2014-07-29-0710-00M.COL___282                                                 6
 STAT SP IPHASW D HRMM SECON CODA AMPLIT PERI AZIMU VELO AIN AR TRES W  DIS CAZ7
 BAR2 SZ EP        715 12.62                             169    0.3910 25.7 194 
 BAR2 SZ ES        715 27.14                             169    0.2810 25.7 194 
 BAR2 SZ I         715 28.95        42.7 0.13            167           25.7 194 
 PAM  SZ EP        715 15.02                             150    0.3210 74.6  39 
 PAM  SN ES   1    715 31.19                             150   -0.07 7 74.6  39 
 PAM  SZ I         715 35.72        13.0 0.36            155           74.6  39 
 RUS  HZ EP   1    715 16.63                             142    0.02 7  102 177 
 RUS  HN ES   1    715 34.27                             142   -0.39 7  102 177 
 RUS  HZ I         715 36.17         8.0 0.32            143            102 177 
 PTB  HZ EP   1    715 19.42                             130   -0.62 7  150 258 
 PTB  HN ES        715 40.64                             130   -0.13 9  150 258 
 PTB  HZ I         715 44.27        15.7 0.18            129            150 258 
 SPBC HZ EP        715 21.42                             127   -0.24 9  166 219 
 SPBC HN ES        715 43.51                             127   -0.14 9  166 219 
 SPBC HZ I         715 45.18        17.5 0.07            127            166 219 
 ZAR  HZ EP        715 25.28                             120   -0.26 9  205 291 
 ZAR  HN ES        715 50.83                             120    0.27 9  205 291 
 ZAR  HZ I         715 56.84        12.2 0.48            121            205 291 
 NOR  HZ EP        715 29.01                             116   -0.05 8  237 234 
 NOR  HN ES        715 56.24                             116   -0.59 8  237 234 
 NOR  HZ I         716  2.10                             117            237 234 
 SML  HZ EP        715 28.63                             116   -0.94 8  243 335 
 SML  HN ES   1    715 57.97                             116    0.24 6  243 335 
 SML  HZ I         716  1.59        17.3 0.20            117            243 335 
 CHI  HZ EP   1    715 31.06                             115    0.04 6  251 195 
 CHI  HN ES   1    715 59.52                             115   -0.79 6  251 195 
 CHI  HZ I         716  7.25         5.6 0.25            117            251 195 
 HEL  HZ EP   1    715 34.36                             113    0.79 6  275 256 
 HEL  HN ES        716  4.36                             113   -0.49 8  275 256 
 HEL  HZ I         716 11.67         6.1 0.37            114            275 256 
 GUY2CHZ EP   1    715 36.75                             111   -0.29 5  304 235 
 GUY2CHN ES        716 11.70                             111    0.66 7  304 235 
 GUY2CHZ I         716 19.19         9.6 0.45                           304 235 
 RREF HZ EP        715 40.51                             109    0.90 7  325 229 
 RREF HN ES   4    716 14.55                             109   -1.05 0  325 229 
 RREF HZ I         716 24.94         8.1 0.22            110            325 229 
 CBOC HZ EP        715 40.61                             108    0.25 7  336 252 
 CBOC HN ES   1    716 17.64                             108    0.69 5  336 252 
 CBOC HZ I         716 29.65         1.9 0.57            109            336 252 
 PRA  HZ EP        715 46.67                             105   -0.38 6  395 210 
 PRA  HN ES   1    716 29.08                             105    0.24 4  395 210 
 PRA  HZ I         716 34.78         8.0 0.18            106            395 210 
 ORTC HZ EP        715 48.03                             105    0.57 6  398 216 
 ORTC HN ES        716 29.97                             105    0.40 6  398 216 
 ORTC HZ I         716 35.62         4.0 0.09            106            398 216 
                                                                                
