 2010  329 0646 12.6 L   6.778 -73.026144.0  RSN  6 0.4 2.0LRSN                1
 GAP=150        0.78       4.6     9.3  8.3 -0.1662E+02 -0.4080E+02  0.1391E+02E
 Epicentro: CEPITA - SANTANDER                                                 3
 ACTION:UP  10-08-24 09:56 OP:vdl  STATUS:               ID:20100329064612 L   I
 2010-03-29-0642-39S.COL___098                                                 6
 STAT SP IPHASW D HRMM SECON CODA AMPLIT PERI AZIMU VELO SNR AR TRES W  DIS CAZ7
 BAR2 SZ EP        646 32.46                             169     0.410   27 220 
 BAR2 SZ ES   2    646 47.00                             169    -0.3 5   27 220 
 BRR  HZ EP        646 34.32                             149     0.010   84 296 
 BRR  HN ES   1    646 51.68                             149     0.4 7   84 296 
 BRR  HZ I         646 54.42        12.1 0.11                            84 296 
 OCA  SZ EP        646 40.72                             129    -0.5 9  165 349 
 OCA  SZ ES   2    647  3.27                             129    -0.2 5  165 349 
 OCA  SZ I         647  7.58        13.6 0.36                           165 349 
 CHI  HZ EP        646 50.40                             117     0.0 8  250 198 
 CHI  HE ES   2    647 19.03                             117    -0.8 4  250 198 
 CHI  HZ I         647 23.42         2.9 0.45                           250 198 
 SDV  BZ EP        647  1.80                             109     0.2 6  352  49 
 SDV  BZ I         647  2.85         6.0 0.08                           352  49 
 PRA  HZ EP        647  6.82                             106     0.2 6  397 211 
 PRA  HN ES   2    647 47.97                             106    -0.8 3  397 211 
 PRA  HZ I         647 54.18         4.5 0.27                           397 211 
                                                                                
