 2016  929 0741 27.9 L   5.987 -73.980 13.8  RSN  9 0.6 1.4LRSN                1
 GAP= 99        1.53       3.2     3.3  8.5 -0.1792E+01  0.1007E+02 -0.6065E+01E
 Epicentro: LA BELLEZA - SANTANDER                                             3
 ACTION:UPD 17-08-17 21:17 OP:lp   STATUS:               ID:20160929074127 L   I
 OLDACT:UP  16-09-29 17:47 OP:dani STATUS:               ID:20160929073745     3
 OLDACT:UP  16-09-29 17:47 OP:dani STATUS:               ID:20160929073745     3
 OLDACT:UP  16-09-29 17:47 OP:dani STATUS:               ID:20160929073745     3
 OLDACT:UP  16-09-29 17:44 OP:dani STATUS:               ID:20160929073745     3
 OLDACT:REG 16-09-29 13:30 OP:dani STATUS:               ID:20160929073745     3
 2016-09-29-0738-00M.COL___360                                                 6
 STAT SP IPHASW D HRMM SECON CODA AMPLIT PERI AZIMU VELO AIN AR TRES W  DIS CAZ7
 SPBC HZ EP        741 34.80                             106    0.1910 38.4 195 
 SPBC HN ES        741 39.64                             106   -0.2110 38.4 195 
 SPBC HZ I         741 41.22        34.9 0.10             47           38.4 195 
 PTB  HE EP        741 40.41                              97   -0.4010 80.6 319 
 PTB  HE ES        741 49.77                              97   -1.1210 80.6 319 
 PTB  HE I         741 53.06        16.5 0.10             47           80.6 319 
 RUS  HZ EP        741 44.53                              96    0.3310 99.9  96 
 RUS  HE ES        741 55.96                              96   -0.9710 99.9  96 
 RUS  HZ I         742  1.03         5.2 0.22             47           99.9  96 
 NOR  HZ EP        741 45.73                              95    0.6110  109 245 
 NOR  HE ES        741 58.85                              95    0.2810  109 245 
 NOR  HZ I         741 59.15        12.1 0.21             47            109 245 
 BRR  HZ EP        741 48.58                              95    0.7510  127  13 
 BRR  HN ES        742  4.18                              95    0.7910  127  13 
 BRR  HZ I         742  6.42         5.8 0.13             47            127  13 
 CHI  HZ EP   4 C  741 56.28                              56    4.40 0  153 170 
 CHI  HZ I         742 21.84         1.9 0.10             47            153 170 
 HEL  HZ EP        741 54.54                              56    0.18 9  173 278 
 HEL  HN ES        742 14.67                              56   -0.34 9  173 278 
 HEL  HZ I         742 16.57         5.9 0.28             47            173 278 
 GUY2CHZ EP   9    741 56.78                              56    2.02 0  175 241 
 GUY2CHE ES        742 17.47                              56   -0.27 9  175 241 
 GUY2CHZ I         742 19.22         4.6 0.35                           175 241 
 PAM  EZ EP   4    742  1.35                              56    2.71 0  206  43 
 PAM  EE ES   4    742 26.95                              56    4.33 0  206  43 
 PAM  EZ I         742 28.92         6.4 0.21             37            206  43 
 ANIL HZ EP   4    742  0.07                              56   -1.16 0  229 224 
 ANIL HE ES   4    742 23.35                              56   -3.89 0  229 224 
                                                                                
