 2017  529 0544  0.8 L   6.734 -73.186146.4  RSN  4 0.2 1.2LRSN                1
 GAP=228        0.66       4.0     4.8  6.0  0.5792E+01 -0.1160E+01  0.8856E+00E
 Epicentro: VILLANUEVA - SANTANDER                                             3
 ACTION:UPD 17-06-16 13:39 OP:jn   STATUS:               ID:20170529054400 L   I
 OLDACT:REG 17-05-29 12:52 OP:osc  STATUS:               ID:20170529053739     3
 2017-05-29-0538-00M.COL___338                                                 6
 STAT SP IPHASW D HRMM SECON CODA AMPLIT PERI AZIMU VELO AIN AR TRES W  DIS CAZ7
 BRR  HZ EP     D  544 21.63                             153   -0.3510 71.3 305 
 BRR  HE ES        544 38.85                             153    0.3210 71.3 305 
 BRR  HZ I         544 41.97         3.4 0.22            151           71.3 305 
 RUS  HZ EP        544 24.09                             146    0.0010 93.7 173 
 RUS  HE ES        544 42.16                             146   -0.1210 93.7 173 
 RUS  HZ I         544 44.73         1.0 0.17            146           93.7 173 
 PTB  HZ EP        544 27.49                             133    0.22 9  142 261 
 PTB  HN ES        544 47.58                             133   -0.37 9  142 261 
 PTB  HZ I         544 53.90         2.3 0.31            133            142 261 
 SPBC HZ EP        544 28.68                             131    0.17 9  155 219 
 SPBC HN ES        544 50.31                             131    0.16 9  155 219 
 SPBC HZ I         544 56.85         2.8 0.09            131            155 219 
 YPLC HZ EP   4    544 29.98                             127   -0.21 0  173 149 
 YPLC HE ES   4    544 59.59                             127    6.44 0  173 149 
                                                                                
