 2015  429 0952 22.0 L   6.538 -73.455117.8  RSN  7 0.5 1.0LRSN                1
 GAP= 94        1.13       4.4     5.4  9.2  0.2330E+01  0.2005E+02 -0.1193E+02E
 Epicentro: HATO - SANTANDER                                                   3
 ACTION:UPD 15-06-03 16:58 OP:cam  STATUS:               ID:20150429095222 L   I
 OLDACT:DUP 15-04-29 15:13 OP:stll STATUS:               ID:20150429094750d    3
 2015-04-29-0947-49M.COL___277                                                 6
 STAT SP IPHASW D HRMM SECON CODA AMPLIT PERI AZIMU VELO AIN AR TRES W  DIS CAZ7
 BAR2 EZ EP        952 38.70         4.8 0.30            164    0.2110 30.7  79 
 BAR2 EZ ES        952 51.64                             164    0.2910 30.7  79 
 BAR2 EZ I         952 53.59         4.8 0.30            169           30.7  79 
 BRR  HZ EP        952 40.28                             147    0.2310 69.0 336 
 BRR  HN ES        952 54.38                             147    0.2410 69.0 336 
 RUS  HN ES        952 56.55                             143   -0.5010 82.4 150 
 RUS  HZ I         952 59.17         1.7 0.24            147           82.4 150 
 PTB  HZ EP        952 42.95                             134   -0.3810  111 270 
 PTB  HE ES        952 59.91                             134   -0.0610  111 270 
 PTB  HZ I         953  3.22         1.7 0.10            135            111 270 
 SPBC HN ES        953  1.46                             132   -0.0910  119 215 
 ZAR  HZ EP        952 51.93                             118    0.95 9  188 304 
 ZAR  HN ES        953 13.51                             118   -0.08 9  188 304 
 ZAR  HZ I         953 19.03         1.5 0.40            120            188 304 
 SML  HN ES        953 26.84                             110   -1.03 8  259 345 
                                                                                
