 2015  329 0205 59.7 L   6.315 -73.638100.3  RSN  6 0.4 1.4LRSN                1
 GAP=105        0.93       3.7     3.6  7.3  0.1524E+01  0.1315E+02 -0.3545E+00E
 Epicentro: SANTA HELENA DEL OPON - SANTANDER                                  3
 ACTION:UPD 15-04-30 16:30 OP:nd   STATUS:               ID:20150329020559 L   I
 OLDACT:REG 15-03-29 12:42 OP:stll STATUS:               ID:20150329015747     3
 2015-03-29-0157-47M.COL___287                                                 6
 STAT SP IPHASW D HRMM SECON CODA AMPLIT PERI AZIMU VELO AIN AR TRES W  DIS CAZ7
 BAR2 EZ ES        2 6 28.58                             147    0.5310 59.0  59 
 BAR2 EZ I         2 6 31.07         6.8 0.16            150           59.0  59 
 RUS  HZ EP        2 6 17.02                             140   -0.2710 77.2 127 
 RUS  HE ES        2 6 30.91                             140   -0.1310 77.2 127 
 RUS  HZ I         2 6 33.98         4.0 0.36            142           77.2 127 
 SPBC HZ EP        2 6 17.68                             135    0.0910 87.6 213 
 SPBC HN ES        2 6 31.19                             135   -0.3910 87.6 213 
 SPBC HZ I         2 6 35.78         7.6 0.10            138           87.6 213 
 PTB  HZ EP        2 6 17.57                             133   -0.4610 93.8 285 
 PTB  HN ES        2 6 32.57                             133    0.2110 93.8 285 
 PTB  HZ I         2 6 33.00         5.5 0.12            137           93.8 285 
 ZAR  HZ EP        2 6 27.72                             112   -0.01 9  187 314 
 ZAR  HZ I         2 6 28.73         5.7 0.10            116            187 314 
 ZAR  HN ES        2 6 49.26                             112   -0.36 9  187 314 
 GUY2CHZ EP        2 6 33.45                             108    0.70 8  226 238 
 GUY2CHE ES        2 6 58.92                             108    0.36 8  226 238 
 GUY2CHZ I         2 7  4.67         2.1 0.50                           226 238 
                                                                                
