 2012  629 0526 36.3 L   6.774 -73.192153.5  RSN  5 0.4 1.6LRSN                1
 GAP=178        0.80       5.0     7.2  9.4  0.7057E+01 -0.9465E+00 -0.3104E+00E
 Epicentro: VILLANUEVA - SANTANDER                                             3
 ACTION:UPD 12-08-06 17:53 OP:ep   STATUS:               ID:20120629052636 L   I
 2012-06-29-0525-59S.COL___209                                                 6
 STAT SP IPHASW D HRMM SECON CODA AMPLIT PERI AZIMU VELO AIN AR TRES W  DIS CAZ7
 BAR2 SZ EP   1    526 56.87                             172    0.10 7 20.1 177 
 BAR2 SZ ES   2    527 12.13                             172   -0.63 5 20.1 177 
 BAR2 SZ I         527 14.79         8.0 0.32                          20.1 177 
 BRR  HZ EP   1    526 58.67                             155    0.57 7 68.3 303 
 BRR  HN ES   1    527 15.67                             155    0.54 7 68.3 303 
 BRR  HZ I         527 19.46         9.8 0.22                          68.3 303 
 RUS  HZ EP   1    527  0.83                             146    0.21 7 98.2 173 
 RUS  HN ES   1    527 19.52                             146   -0.10 7 98.2 173 
 RUS  HZ I         527 21.63         4.5 0.31                          98.2 173 
 PTB  HZ EP   1    527  2.80                             135   -0.58 7  142 260 
 PTB  HN ES   1    527 24.36                             135   -0.18 7  142 260 
 PTB  HZ I         527 26.82         4.0 0.12                           142 260 
 OCA  HN ES   1    527 27.68                             131   -0.45 7  163 355 
                                                                                
