 2014  929 0539 58.5 L   6.324 -73.618 98.9  RSN 23 0.7 2.5LRSN                1
 GAP= 53        1.80       3.2     4.0  7.9 -0.4319E+01  0.6938E+01  0.9953E+00E
 Epicentro: SANTA HELENA DEL OPON - SANTANDER                                  3
 ACTION:UPD 14-10-03 23:09 OP:nd   STATUS:               ID:20140929053958 L   I
 OLDACT:REG 14-09-29 14:06 OP:stll STATUS:               ID:20140929053818     3
 2014-09-29-0538-18M.COL___298                                                 6
 STAT SP IPHASW D HRMM SECON CODA AMPLIT PERI AZIMU VELO AIN AR TRES W  DIS CAZ7
 BAR2 SZ IP     C  540 14.93                             148    0.7910 56.6  58 
 BAR2 SZ I         540 15.05       170.7 0.22            150           56.6  58 
 BAR2 SZ ES        540 26.89                             148    0.5510 56.6  58 
 RUS  HZ EP        540 16.13                             140    0.2310 76.0 129 
 RUS  HE ES        540 29.16                             140   -0.3110 76.0 129 
 RUS  HZ I         540 32.20        60.8 0.24            143           76.0 129 
 BRR  HZ IP     D  540 16.47                             136    0.3210 87.2 353 
 BRR  HN ES        540 30.17                             136    0.2610 87.2 353 
 BRR  HZ I         540 32.55        46.5 0.10            133           87.2 353 
 SPBC HZ IP     C  540 17.03                             135    0.5410 89.7 214 
 SPBC HN ES        540 30.05                             135   -0.4710 89.7 214 
 SPBC HZ I         540 34.28       107.9 0.36            133           89.7 214 
 PTB  HZ IP     D  540 16.67                             133   -0.2510 95.7 284 
 PTB  HE ES        540 31.24                             133   -0.0610 95.7 284 
 PTB  HZ I         540 34.44        56.6 0.12            129           95.7 284 
 PAM  SZ IP     C  540 23.11                             119   -0.02 9  151  42 
 PAM  SN ES        540 42.17                             119   -0.17 9  151  42 
 PAM  SZ I         540 46.58        34.9 0.22            119            151  42 
 ROSC BZ EP        540 26.72                             115    0.39 9  182 205 
 ROSC BN ES        540 48.30                             115    0.26 9  182 205 
 ROSC BZ I         540 53.03        24.7 0.40            114            182 205 
 CHI  HZ EP        540 27.02                             114   -0.03 9  188 184 
 CHI  HZ I         540 28.20        17.8 0.10            114            188 184 
 CHI  HN ES        540 48.77                             114   -0.56 9  188 184 
 ZAR  HZ EP        540 26.47                             113   -0.13 9  188 313 
 ZAR  HZ I         540 53.43        64.0 0.30            112            188 313 
 TAM  HZ IP     D  540 27.73                             112   -0.53 9  202  86 
 TAM  HZ I         540 27.98        67.7 0.34            112            202  86 
 TAM  HN ES        540 50.67                             112   -0.80 9  202  86 
 OCA  HZ EP        540 29.24                             111   -0.52 8  214   9 
 OCA  HN ES        540 53.91                             111   -0.24 8  214   9 
 OCA  HZ I         541  0.19        36.6 0.18            110            214   9 
 GUY2CHZ EP        540 32.04                             109    0.23 8  228 238 
 GUY2CHN ES        540 57.41                             109   -0.39 8  228 238 
 GUY2CHZ I         541  7.40        25.0 0.30                           228 238 
 VIL  SZ EP        540 33.04                             108   -0.24 8  245 182 
 VIL  SZ I         540 33.98        23.1 0.44            108            245 182 
 RREF HZ EP   9    540 30.83                             108   -3.45 0  248 231 
 RREF HN ES        540 58.97                                    0.23 8  248 231 
 TOL  SZ EP        540 36.62                             106    0.18 8  269 225 
 TOL  SN ES        541  6.70                             106    0.66 8  269 225 
 TOL  SZ I         541 11.55        40.8 0.46            105            269 225 
 CBOC HZ EP        540 36.64                             106    0.34 8  270 259 
 CBOC HZ I         540 38.13         6.3 0.26            105            270 259 
 CBOC HN ES        541  4.39                             106   -1.39 8  270 259 
 SML  HZ EP        540 35.82                             105   -1.28 7  278 350 
 SML  HN ES        541  5.96                             105   -1.26 7  278 350 
 SML  HZ I         541 16.23        30.4 0.28            105            278 350 
 ANIL HZ EP        540 38.29                             105    0.25 7  283 224 
 ANIL HN ES        541  9.19                             105    0.31 7  283 224 
 ANIL HZ I         541 18.04         5.6 0.30            105            283 224 
 PRA  HZ EP        540 41.82                             103   -0.44 7  321 206 
 PRA  HE ES        541 16.56                             103    0.17 7  321 206 
 PRA  HZ I         541 22.65        31.1 0.20            103            321 206 
 ORTC HZ EP        540 42.72                             103    0.31 7  322 214 
 ORTC HN ES        541 16.39                             103   -0.26 7  322 214 
 ORTC HZ I         541 24.97        16.5 0.26            103            322 214 
 MON  HZ EP   9    540 44.01                             102   -2.06 0  353 320 
 MON  HZ I         540 44.92        11.2 0.44            101            353 320 
 MON  HN ES        541 20.91                                   -0.20 6  353 320 
 ARGC HZ EP        540 52.87                             100    1.49 6  397 350 
 ARGC HZ I         540 53.13         7.6 0.28            100            397 350 
 ARGC HN ES        541 36.24                             100    3.61 6  397 350 
 SJC  HZ EP   9    540 53.06                              99   -2.53 0  431 337 
 SJC  HE ES        541 33.17                                   -4.42 5  431 337 
 SJC  HZ I         541 43.21         4.2 0.30             99            431 337 
                                                                                
