 2015 1229 0512 36.2 L   6.807 -73.176147.7  RSN  9 0.6 1.3LRSN                1
 GAP=132        1.41       4.6     7.0  8.7  0.4746E+01  0.2296E+01 -0.4299E+01E
 Epicentro: LOS SANTOS - SANTANDER                                             3
 ACTION:UPD 16-02-04 15:08 OP:cam  STATUS:               ID:20151229051236 L   I
 OLDACT:UP  15-12-29 19:17 OP:ak   STATUS:               ID:20151229050747     3
 OLDACT:REG 15-12-29 13:04 OP:ak   STATUS:               ID:20151229050747     3
 2015-12-29-0507-47M.COL___337                                                 6
 STAT SP IPHASW D HRMM SECON CODA AMPLIT PERI AZIMU VELO AIN AR TRES W  DIS CAZ7
 BAR2 EZ EP        512 54.99                             171   -1.0710 23.8 182 
 BAR2 EZ ES        513 11.92                             171    0.3610 23.8 182 
 BAR2 EZ I         513 14.56         3.3 0.26            168           23.8 182 
 BRR  HZ EP        512 58.09                             154    0.7210 67.9 299 
 BRR  HE ES        513 14.53                             154    0.6510 67.9 299 
 BRR  HZ I         513 18.70         4.3 0.54            154           67.9 299 
 PAM  EZ EP        512 58.93                             151    0.2210 79.0  42 
 PAM  EN ES   4    513 13.67                             151   -2.60 0 79.0  42 
 PAM  EZ I         513 18.19         5.4 0.54            157           79.0  42 
 RUS  HN ES        513 18.53                             144   -0.4110  102 174 
 PTB  HZ EP        513  2.96                             133   -0.07 9  145 258 
 PTB  HN ES        513 23.11                             133   -0.86 9  145 258 
 PTB  HZ I         513 31.44         1.9 0.46            134            145 258 
 SPBC HZ EP        513  5.23                             130    0.53 9  162 218 
 SPBC HN ES        513 26.76                             130   -0.17 9  162 218 
 SPBC HZ I         513 32.96         5.5 0.44            131            162 218 
 ZAR  HZ EP   4    513  9.97                             123    1.56 0  201 292 
 ZAR  HE ES        513 34.00                             123    0.46 9  201 292 
 SML  HZ EP        513 12.58                             118   -0.12 8  242 336 
 SML  HN ES        513 40.31                             118   -0.86 8  242 336 
 CHI  HZ EP        513 14.41                             118    0.43 8  249 194 
 CHI  HN ES        513 43.56                             118    0.10 8  249 194 
 CHI  HZ I         513 51.57         0.9 0.37            119            249 194 
                                                                                
