 2017 1029 0034 47.4 L   6.844 -73.154148.7  RSN 23 0.7 2.3LRSN                1
 GAP= 64        1.44       3.1     3.4  5.9  0.2921E+00  0.6155E+01  0.4452E+00E
 Epicentro: LOS SANTOS - SANTANDER                                             3
 ACTION:UPD 17-11-07 19:38 OP:rebc STATUS:               ID:20171029003447 L   I
 OLDACT:REG 17-10-29 12:11 OP:dhb  STATUS:               ID:20171029002740     3
 2017-10-29-0028-00M.COL___411                                                 6
 STAT SP IPHASW D HRMM SECON CODA AMPLIT PERI AZIMU VELO AIN AR TRES W  DIS CAZ7
 BAR2 EZ IP     D  035  7.48                             169   -0.0410 28.0 186 
 BAR2 EZ ES        035 22.46                             169   -0.7310 28.0 186 
 BAR2 EZ I         035 24.19        57.6 0.52            168           28.0 186 
 BRR  HZ IP     C  035  9.39                             154    0.6510 68.2 295 
 BRR  HE ES        035 26.72                             154    1.3710 68.2 295 
 BRR  HZ I         035 29.87        36.7 0.44            154           68.2 295 
 PAM  EZ EP        035 10.36                             152    0.5710 74.3  42 
 PAM  EN ES        035 27.62                             152    0.4010 74.3  42 
 PAM  EZ I         035 29.76        49.0 0.58            156           74.3  42 
 RUS  HZ IP     D  035 11.35                             143   -0.4910  106 176 
 RUS  HN ES        035 30.10                             143   -0.7610  106 176 
 RUS  HZ I         035 31.72        24.9 0.18            144            106 176 
 PTB  HZ EP        035 14.23                             133   -0.43 9  148 257 
 PTB  HE ES        035 35.83                             133   -0.06 9  148 257 
 PTB  HZ I         035 42.98        34.0 0.42            133            148 257 
 TAM  HZ IP     D  035 15.64                             131    0.09 9  157 107 
 TAM  HE ES        035 37.09                             131   -0.39 9  157 107 
 TAM  HZ I         035 48.04         9.8 0.54            133            157 107 
 SPBC HZ EP        035 16.31                             129   -0.16 9  166 218 
 SPBC HN ES        035 38.68                             129   -0.44 9  166 218 
 SPBC HZ I         035 45.60        47.7 0.22            130            166 218 
 YPLC HZ IP     D  035 17.64                             127   -0.27 9  182 152 
 YPLC HN ES        035 41.29                             127   -0.38 9  182 152 
 YPLC HZ I         035 49.08        11.8 0.30            128            182 152 
 ZAR  HZ EP        035 20.13                             123    0.32 9  201 291 
 ZAR  HE ES        035 45.62                             123    0.56 9  201 291 
 ZAR  HZ I         035 51.23        20.6 0.38            125            201 291 
 TABC EZ EP        035 23.46                             119   -0.30 8  234 210 
 TABC EZ ES        035 51.16                             119   -0.93 8  234 210 
 TABC EZ I         036  0.39        18.7 0.26            121            234 210 
 NOR  HZ EP        035 23.63                             119    0.06 8  237 233 
 NOR  HE ES        035 51.13                             119   -0.62 8  237 233 
 NOR  HZ I         035 56.11        16.4 0.24            120            237 233 
 CHI  HZ EP        035 25.89                             117    0.10 8  253 195 
 CHI  HE ES        035 56.96                             117    1.26 8  253 195 
 CHI  HZ I         036  7.89         8.6 0.20            119            253 195 
 ROSC BZ EP        035 27.22                             117    1.09 8  256 210 
 ROSC BE ES        035 57.73                             117    1.43 8  256 210 
 ROSC BZ I         036  5.36        19.5 0.40            118            256 210 
 URE  HZ EP        035 27.47                             114   -0.89 7  281 291 
 URE  HE ES        035 59.21                             114   -1.07 7  281 291 
 URE  HZ I         036 11.14        15.6 0.18            116            281 291 
 GUY2CHZ EP        035 32.22                             113    0.80 7  303 234 
 GUY2CHE ES        036  5.78                             113    0.05 7  303 234 
 GUY2CHZ I         036 14.68        11.9 0.56                           303 234 
 LL6C HZ EP        035 32.75                             111    0.04 7  320 358 
 LL6C HN ES        036  8.54                             111    0.52 7  320 358 
 LL6C HZ I         036 12.93         8.0 0.54            113            320 358 
 DBB  EZ EP        035 35.14                             110    0.24 7  338 273 
 DBB  EN ES        036 11.84                             110   -0.07 7  338 273 
 DBB  EZ I         036 19.27         5.1 0.24            111            338 273 
 APAC HZ EP        035 41.33                             107   -0.13 6  396 287 
 APAC HN ES        036 23.66                             107    0.07 6  396 287 
 APAC HZ I         036 33.23         5.6 0.38            108            396 287 
 PRA  HZ EP        035 41.81                             107    0.30 6  396 209 
 PRA  HE ES        036 23.29                             107   -0.39 6  396 209 
 PRA  HZ I         036 29.17         7.4 0.32            108            396 209 
 ORTC HZ EP        035 42.52                             107    0.66 6  399 216 
 ORTC HE ES        036 24.70                             107    0.39 6  399 216 
 ORTC HZ I         036 31.14         6.6 0.34            108            399 216 
 SJC  HZ EP        035 41.82                             106   -0.75 6  405 327 
 SJC  HN ES        036 24.35                             106   -1.21 6  405 327 
 SJC  HZ I         036 27.44         5.6 0.62            108            405 327 
 PAL  HZ EP        035 43.04                             106    0.13 6  407 238 
 PAL  HN ES        036 24.61                             106   -1.56 6  407 238 
 PAL  HZ I         036 28.49         3.1 0.40            107            407 238 
 CRJC HE ES   3    036 35.19                             104   -2.63 1  463   4 
 CRJC HZ I         036 40.97         5.6 0.28            105            463   4 
                                                                                
