 2013  129 0450  5.0 L   6.744 -73.139142.9  RSN  6 0.3 1.4LRSN                1
 GAP=140        0.67       4.0     4.1  5.0  0.3582E+01 -0.1922E+01 -0.9091E+00E
 Epicentro: JORDAN - SANTANDER                                                 3
 ACTION:UPD 13-02-15 09:17 OP:ep   STATUS:               ID:20130129045005 L   I
 2013-01-29-0450-00M.COL___241                                                 6
 STAT SP IPHASW D HRMM SECON CODA AMPLIT PERI AZIMU VELO AIN AR TRES W  DIS CAZ7
 BAR2 SZ EP   1    450 24.16                             173   -0.04 7 17.5 196 
 BAR2 SZ ES        450 38.86                             173   -0.3010 17.5 196 
 BAR2 SZ I         450 40.64        10.1 0.22            154           17.5 196 
 BRR  HZ EP        450 26.21                             151    0.1310 75.0 302 
 BRR  HE ES        450 42.93                             151    0.4210 75.0 302 
 BRR  HZ I         450 46.15         4.3 0.33            139           75.0 302 
 PAM  SZ EP        450 27.04                             149   -0.1610 81.8  36 
 PAM  SZ I         450 27.25         3.8 0.16            147           81.8  36 
 RUS  HZ EP        450 28.14                             145    0.1010 94.4 176 
 RUS  HN ES        450 46.10                             145    0.0910 94.4 176 
 RUS  HN I         450 48.29         3.6 0.24            125           94.4 176 
 PTB  HZ EP   1    450 31.21                             131   -0.51 7  147 261 
 PTB  HN ES        450 52.34                             131   -0.21 9  147 261 
 PTB  HZ I         450 54.57         3.4 0.13            116            147 261 
 CHI  HZ EP   1    450 42.40                             117    0.47 6  243 196 
 CHI  HZ I         451 18.91         1.2 0.53            105            243 196 
                                                                                
