 2017  829 0944  6.0 L   6.794 -73.139143.9  RSN  9 0.4 1.7LRSN                1
 GAP=184        0.88       4.0     5.4  5.6  0.1018E+02  0.2295E+01  0.2754E+01E
 Epicentro: LOS SANTOS - SANTANDER                                             3
 ACTION:UPD 17-09-04 20:26 OP:rebc STATUS:               ID:20170829094406 L   I
 OLDACT:UP  17-08-29 18:33 OP:dani STATUS:               ID:20170829093735     3
 OLDACT:REG 17-08-29 13:19 OP:dani STATUS:               ID:20170829093735     3
 2017-08-29-0938-00M.COL___411                                                 6
 STAT SP IPHASW D HRMM SECON CODA AMPLIT PERI AZIMU VELO AIN AR TRES W  DIS CAZ7
 BAR2 EZ EP        944 25.07                             171   -0.3610 22.8 192 
 BAR2 EZ ES        944 40.35                             171   -0.2110 22.8 192 
 BAR2 EZ I         944 41.14        17.7 0.34            165           22.8 192 
 BRR  HZ EP        944 26.91                             152   -0.1310 72.1 299 
 BRR  HN ES        944 44.11                             152    0.6910 72.1 299 
 RUS  HZ EP        944 29.83                             144    0.2810 99.8 176 
 RUS  HN ES        944 48.03                             144    0.1410 99.8 176 
 RUS  HZ I         944 48.99         6.2 0.27            141           99.8 176 
 SPBC HZ EP   4    944 31.76                             129   -2.62 0  163 219 
 SPBC HN ES        944 56.27                             129   -0.22 9  163 219 
 SPBC HZ I         945  1.17         6.8 0.11            126            163 219 
 YPLC HZ EP        944 35.44                             126   -0.16 9  176 151 
 YPLC HN ES   4    945  0.87                             126    2.21 0  176 151 
 YPLC HZ I         945  1.47         3.2 0.46            126            176 151 
 ZAR  HZ EP        944 38.88                             122    0.42 9  205 292 
 ZAR  HN ES        945  3.05                             122   -0.69 9  205 292 
 ZAR  HZ I         945  8.54         4.1 0.09            120            205 292 
 CHI  HN ES        945 12.77                             117   -0.09 8  248 195 
 PRA  HZ EP        944 59.79                             106    0.33 6  392 210 
 PRA  HE ES   3    945 42.48                             106    1.35 1  392 210 
 PRA  HZ I         945 47.75         2.0 0.17            105            392 210 
 SJC  HZ EP   9    944 59.25                             105   -2.40 0  410 327 
 SJC  HN ES        945 42.22                             107   -0.41 6  410 327 
                                                                                
