 2014 1229 0445  0.6 L   6.806 -73.155145.8  RSN  9 0.4 1.5LRSN                1
 GAP=182        0.96       2.7     5.1  7.3  0.1731E+01 -0.5004E+01  0.3925E+00E
 Epicentro: LOS SANTOS - SANTANDER                                             3
 ACTION:UPD 15-02-10 17:07 OP:nd   STATUS:               ID:20141229044500 L   I
 OLDACT:ARG 14-12-29 12:30 OP:stll STATUS:               ID:20141229043748     3
 2014-12-29-0437-48M.COL___259                                                 6
 STAT SP IPHASW D HRMM SECON CODA AMPLIT PERI AZIMU VELO AIN AR TRES W  DIS CAZ7
 BAR2 EZ EP        445 20.24                             170    0.0410 23.8 187 
 BAR2 EZ I         445 36.45        10.8 0.20            170           23.8 187 
 BRR  HZ IP     D  445 22.03                             153    0.3810 70.0 298 
 BRR  HE ES        445 38.88                             153    0.7810 70.0 298 
 BRR  HZ I         445 42.90         4.6 0.14            160           70.0 298 
 RUS  HZ EP        445 24.20                             144   -0.1610  101 176 
 RUS  HZ I         445 25.20         2.7 0.18            146            101 176 
 RUS  HN ES        445 42.36                             144   -0.5710  101 176 
 PTB  HZ EP        445 27.36                             132   -0.09 9  147 259 
 PTB  HN ES        445 47.78                             132   -0.65 9  147 259 
 PTB  HZ I         445 50.80         3.9 0.18            138            147 259 
 OCA  HZ EP        445 28.76                             130   -0.04 9  160 353 
 OCA  HN ES        445 50.74                             130   -0.09 9  160 353 
 OCA  HZ I         445 54.65         4.1 0.30            133            160 353 
 SPBC HZ EP        445 29.32                             129    0.27 9  163 219 
 SPBC HN ES        445 51.36                             129    0.09 9  163 219 
 SPBC HZ I         445 53.16         4.6 0.12            134            163 219 
 ZAR  HN ES        445 58.13                             122    0.03 9  203 292 
 SML  HN ES        446  5.03                             118   -0.54 8  243 335 
 CHI  HZ EP        445 38.49                             117    0.19 8  249 195 
 CHI  HN ES        446  8.04                             117    0.31 8  249 195 
 CHI  HZ I         446 13.68         1.5 0.34            120            249 195 
                                                                                
