 2016  929 0344 35.9 L   6.846 -73.152151.3  RSN  7 0.5 1.4LRSN                1
 GAP=241        1.21       6.4     7.3  8.8  0.1337E+02  0.1499E+01  0.1761E+02E
 Epicentro: LOS SANTOS - SANTANDER                                             3
 ACTION:UPD 17-08-17 21:17 OP:lp   STATUS:               ID:20160929034435 L   I
 OLDACT:UP  16-09-29 15:24 OP:dani STATUS:               ID:20160929033744     3
 OLDACT:UP  16-09-29 15:24 OP:dani STATUS:               ID:20160929033744     3
 OLDACT:UP  16-09-29 15:23 OP:dani STATUS:               ID:20160929033744     3
 OLDACT:UP  16-09-29 15:23 OP:dani STATUS:               ID:20160929033744     3
 OLDACT:UP  16-09-29 15:22 OP:dani STATUS:               ID:20160929033744     3
 OLDACT:UP  16-09-29 15:21 OP:dani STATUS:               ID:20160929033744     3
 OLDACT:UP  16-09-29 15:21 OP:dani STATUS:               ID:20160929033744     3
 OLDACT:REG 16-09-29 13:04 OP:dani STATUS:               ID:20160929033744     3
 2016-09-29-0338-00M.COL___378                                                 6
 STAT SP IPHASW D HRMM SECON CODA AMPLIT PERI AZIMU VELO AIN AR TRES W  DIS CAZ7
 BAR2 EZ EP        344 56.23                             169   -0.0610 28.3 187 
 BAR2 EZ ES        345 11.52                             169   -0.6810 28.3 187 
 BAR2 EZ I         345 13.24         3.8 0.26            168           28.3 187 
 BRR  HZ EP        344 58.05                             154    0.5710 68.3 295 
 BRR  HN ES        345 15.18                             154    0.8610 68.3 295 
 BRR  HZ I         345 18.27         3.7 0.26            154           68.3 295 
 RUS  HZ EP        345  0.21                             144   -0.3410  106 176 
 RUS  HZ I         345 20.03         3.4 0.25            141            106 176 
 PTB  HZ EP        345  3.03                             133   -0.31 9  148 257 
 PTB  HE ES        345 24.77                             133    0.01 9  148 257 
 PTB  HZ I         345 31.21         2.5 0.32            132            148 257 
 SPBC HZ EP        345  5.22                             130    0.07 9  167 218 
 SPBC HE ES        345 28.29                             130    0.32 9  167 218 
 SPBC HZ I         345 33.02         3.5 0.21            127            167 218 
 ZAR  HZ EP   4    345  1.81                             124   -6.63 0  202 291 
 ZAR  HN ES        345 33.01                             124   -0.83 9  202 291 
 ZAR  HZ I         345 39.82         3.3 0.10            122            202 291 
 CHI  HZ EP        345 14.82                             118    0.42 8  253 195 
 CHI  HN ES        345 44.34                             118   -0.11 8  253 195 
 CHI  HZ I         345 47.24         1.8 0.27            115            253 195 
                                                                                
