 2016  929 0715 40.0 L   6.756 -73.181153.2  RSN  5 0.2 1.3LRSN                1
 GAP=230        0.58       3.6     4.8  5.3  0.9089E+01  0.2325E+01  0.8508E+00E
 Epicentro: LOS SANTOS - SANTANDER                                             3
 ACTION:UPD 17-08-17 21:17 OP:lp   STATUS:               ID:20160929071540 L   I
 OLDACT:UP  16-09-29 17:02 OP:dani STATUS:               ID:20160929070640     3
 OLDACT:REG 16-09-29 13:27 OP:dani STATUS:               ID:20160929070640     3
 2016-09-29-0707-00M.COL___366                                                 6
 STAT SP IPHASW D HRMM SECON CODA AMPLIT PERI AZIMU VELO AIN AR TRES W  DIS CAZ7
 BRR  HZ EP        716  1.90                             154    0.0010 70.4 304 
 BRR  HN ES        716 19.18                             154    0.1910 70.4 304 
 BRR  HZ I         716 22.41         4.4 0.25            141           70.4 304 
 RUS  HZ EP        716  4.31                             147    0.1510 96.0 174 
 RUS  HN ES        716 22.74                             147   -0.2710 96.0 174 
 RUS  HZ I         716 23.89         1.7 0.18            138           96.0 174 
 PTB  HZ EP        716  6.81                             135   -0.34 9  143 260 
 PTB  HZ I         716 29.93         2.3 0.19            122            143 260 
 SPBC HZ EP        716  8.74                             132    0.25 9  157 219 
 SPBC HN ES        716 30.85                             132    0.13 9  157 219 
 SPBC HZ I         716 35.47         2.4 0.14            120            157 219 
 ZAR  HN ES        716 38.18                             124   -0.14 9  202 294 
                                                                                
