 2010  529 0217 52.3 L   6.681 -72.783143.7  RSN  4 0.7 1.9LRSN                1
 GAP=232        0.86      17.9    27.2 10.0 -0.4616E+03  0.1696E+02  0.1026E+01E
 Epicentro: SAN JOSE DE MIRANDA - SANTANDER                                    3
 ACTION:UP  10-08-24 10:07 OP:vdl  STATUS:               ID:20100529021752 L   I
 2010-05-29-0216-16S.COL___109                                                 6
 STAT SP IPHASW D HRMM SECON CODA AMPLIT PERI AZIMU VELO SNR AR TRES W  DIS CAZ7
 BAR2 SZ ES   1    218 27.94                             162     0.0 8   45 257 
 GRA  SZ EP        218 18.03                             135     0.110  133 359 
 GRA  SZ ES   1    218 37.88                             135    -0.1 7  133 359 
 RREF BZ EP   2    218 41.73                             109     0.7 3  346 235 
 RREF BN ES        219 19.52                             109     0.4 7  346 235 
 RREF BZ I         219 20.84         2.7 0.58                           346 235 
 TOL  SZ ES   2    219 20.25                             107    -2.1 3  364 231 
                                                                                
