 2012  229 0234 30.7 L   6.796 -73.149144.5  RSN  5 0.4 1.6LRSN                1
 GAP=136        0.79       5.2     4.3  7.4  0.7351E+00  0.3406E+01  0.4052E+01E
 ACTION:UP  12-03-07 16:35 OP:epov STATUS:               ID:20120229023430 L   I
 2012-02-29-0230-00M.COL___191                                                 6
 STAT SP IPHASW D HRMM SECON CODA AMPLIT PERI AZIMU VELO AIN AR TRES W  DIS CAZ7
 BRR  HZ EP        234 51.98                             152    0.3010 71.1 299 
 BRR  HN ES        235  8.44                             152    0.3810 71.1 299 
 BRR  HZ I         235  9.95        13.8 0.17                          71.1 299 
 PAM  SZ EP        234 52.99                             150    0.1910 78.0  40 
 PAM  SE ES   1    235  9.44                             150   -0.61 7 78.0  40 
 RUS  HZ EP   1    234 54.67                             144    0.40 7  100 176 
 RUS  HN ES   1    235 12.35                             144   -0.32 7  100 176 
 RUS  HZ I         235 14.40         3.8 0.19                           100 176 
 PTB  HZ EP        234 57.18                             132   -0.32 9  147 259 
 PTB  HN ES   1    235 18.38                             132   -0.03 7  147 259 
 ZAR  HZ EP   2    235  2.46                             122   -0.56 4  204 292 
 ZAR  HN ES   1    235 27.83                             122   -0.42 6  204 292 
 ZAR  HZ I         235 36.11         4.8 0.13                           204 292 
                                                                                
