 2011  629 0129 16.4 L   6.760 -73.070140.6  RSN  6 0.2 1.5LRSN                1
 GAP=165        0.55       3.7     6.8  6.4  0.1006E+02 -0.2632E+02 -0.1029E+02E
 Epicentro: LOS SANTOS - SANTANDER                                             3
 ACTION:UP  11-07-14 19:08 OP:ep   STATUS:               ID:20110629012916 L   I
 2011-06-29-0120-00M.COL___124                                                 6
 STAT SP IPHASW D HRMM SECON CODA AMPLIT PERI AZIMU VELO SNR AR TRES W  DIS CAZ7
 BAR2 SZ EP   1    129 35.27                             171    -0.1 7   22 214 
 BAR2 SZ ES   1    129 49.87                             171    -0.3 7   22 214 
 BAR2 SZ I         129 51.74         9.4 0.10                            22 214 
 BTL  SZ EP        129 35.42                             168    -0.110   28 309 
 BRR  HZ EP        129 37.27                             149    -0.310   81 299 
 BRR  HZ I         129 37.67        14.4 0.10                            81 299 
 BRR  HE ES        129 54.22                             149     0.210   81 299 
 RUS  HZ EP        129 39.37                             144     0.110   96 181 
 RUS  HE ES   1    129 57.22                             144     0.1 7   96 181 
 RUS  HZ I         129 59.12         3.5 0.27                            96 181 
 BRI  SZ EP        129 40.10                             140     0.210  110  16 
 GRA  SZ EP   1    129 41.19                             135    -0.1 7  128  13 
 GRA  SZ I         130  2.06         3.6 0.28                           128  13 
                                                                                
