 2016  529 0058  6.1 L   5.938 -73.366164.1  RSN 11 0.5 2.0LRSN                1
 GAP=115        1.16       4.7     5.5  6.6 -0.1435E+02  0.2768E+01  0.4718E+00E
 Epicentro: GAMBITA - SANTANDER                                                3
 ACTION:UPD 16-08-18 17:50 OP:cam  STATUS:               ID:20160529005806 L   I
 OLDACT:UP  16-05-29 13:49 OP:mh   STATUS:               ID:20160529005741     3
 OLDACT:UP  16-05-29 13:48 OP:mh   STATUS:               ID:20160529005741     3
 OLDACT:REG 16-05-29 12:19 OP:mh   STATUS:               ID:20160529005741     3
 2016-05-29-0057-41M.COL___316                                                 6
 STAT SP IPHASW D HRMM SECON CODA AMPLIT PERI AZIMU VELO AIN AR TRES W  DIS CAZ7
 RUS  HZ EP        058 28.99                             169    0.4510 31.7  99 
 RUS  HN ES        058 45.95                             169   -0.0610 31.7  99 
 BAR2 EZ EP        058 30.11                             154    0.2510 75.1  16 
 BAR2 EZ ES        058 47.42                             154   -0.9310 75.1  16 
 BAR2 EZ I         058 49.40        20.3 0.42            147           75.1  16 
 SPBC HZ EP        058 30.65                             151    0.4910 84.4 248 
 SPBC HN ES        058 49.81                             151    0.9210 84.4 248 
 SPBC HZ I         058 53.39        16.9 0.18            141           84.4 248 
 BRR  HZ EP        058 33.86                             139    0.2910  135 344 
 BRR  HZ I         058 58.04        15.4 0.40            128            135 344 
 PTB  HZ EP        058 33.82                             138   -0.02 9  138 299 
 PTB  HN ES        058 55.32                             138   -0.12 9  138 299 
 PTB  HZ I         058 56.49        12.8 0.44            127            138 299 
 PAM  EZ EP   1    058 37.14                             132   -0.27 7  172  25 
 PAM  EN ES        059  1.85                             132    0.06 9  172  25 
 PAM  EZ I         059  4.46         5.6 0.40            123            172  25 
 NOR  HZ EP        058 36.29                             131   -0.54 9  172 256 
 NOR  HE ES        059  0.59                             131   -0.17 9  172 256 
 NOR  HZ I         059  6.64        13.3 0.54            121            172 256 
 HEL  HZ EP   9    058 40.91                             122   -3.17 0  241 277 
 HEL  HN ES   1    059 11.17                                    0.67 6  241 277 
 HEL  HZ I         059 19.52                             113            241 277 
 OCA  HZ EP        058 45.63                             120    0.43 8  254   1 
 OCA  HN ES        059 15.27                             120   -0.39 8  254   1 
 PRA  HZ EP   1    058 49.97                             116    0.19 5  298 215 
 PRA  HN ES        059 22.85                             116   -0.97 7  298 215 
 ORTC HZ EP   1    058 50.69                             115    0.02 5  306 223 
 ORTC HN ES   1    059 24.67                             115   -0.73 5  306 223 
 ORTC HZ I         059 29.24         2.8 0.22            108            306 223 
                                                                                
