 2010  829 0359 30.5 L   6.793 -73.099150.0  RSN  7 0.4 1.6LRSN                1
 GAP=164        0.72       4.1    10.3  9.3 -0.1086E+02 -0.3342E+02  0.8309E+01E
 Epicentro: LOS SANTOS - SANTANDER                                             3
 ACTION:UP  10-09-07 10:59 OP:vdl  STATUS:               ID:20100829035930 L   I
 2010-08-29-0355-03S.COL___120                                                 6
 STAT SP IPHASW D HRMM SECON CODA AMPLIT PERI AZIMU VELO SNR AR TRES W  DIS CAZ7
 BAR2 SZ EP   2    359 50.26                             171    -0.4 5   24 203 
 BAR2 SZ I         359 50.99         5.3 0.09                            24 203 
 BRR  HZ EP        359 52.30                                    -0.110   76 297 
 BRR  HZ I         359 52.81         7.9 0.11                            76 297 
 BRR  HE ES   1    4 0  9.68                             152     0.2 7   76 297 
 RUS  HZ EP   2    359 54.32                             145    -0.3 5  100 179 
 RUS  HE ES   2    4 0 13.46                             145     0.0 5  100 179 
 RUS  HZ I         4 0 15.95         3.5 0.38                           100 179 
 GRA  SZ EP   1    359 56.82                             138     0.7 7  125  15 
 GRA  SZ I         4 0 17.04         6.0 0.31                           125  15 
 OCA  SZ EP   1    359 58.99                             130    -0.3 7  162 351 
 OCA  SZ ES   2    4 0 21.41                             130    -0.4 5  162 351 
 OCA  SZ I         4 0 25.59         6.2 0.35                           162 351 
 CHI  HZ EP   2    4 0  8.13                             118    -0.4 4  249 196 
 CHI  HZ I         4 0 10.09         1.7 0.43                           249 196 
 CHI  HN ES   2    4 0 38.48                             118     0.3 4  249 196 
 PRA  HZ EP   2    4 0 24.59                             107     0.2 3  394 210 
 PRA  HZ I         4 0 25.88         1.5 0.28                           394 210 
 PRA  HE ES   1    4 1  6.77                             107     0.3 4  394 210 
                                                                                
