 2014  829 0808 21.3 L   6.795 -73.157138.4  RSN  7 0.5 1.7LRSN                1
 GAP=135        1.27       4.5     6.7  8.5 -0.3831E+01 -0.1139E+01 -0.4591E+01E
 Epicentro: LOS SANTOS - SANTANDER                                             3
 ACTION:UPD 14-09-15 21:54 OP:nd   STATUS:               ID:20140829080821 L   I
 OLDACT:REG 14-08-29 13:44 OP:fm   STATUS:               ID:20140829075816     3
 2014-08-29-0758-16M.COL___278                                                 6
 STAT SP IPHASW D HRMM SECON CODA AMPLIT PERI AZIMU VELO AIN AR TRES W  DIS CAZ7
 BAR2 SZ EP     C  8 8 40.25                             170    0.2110 22.5 187 
 BAR2 SZ ES        8 8 54.89                             170    0.2410 22.5 187 
 BAR2 SZ I         8 8 56.78        10.4 0.20            171           22.5 187 
 BRR  HZ IP     C  8 8 42.12                             151    0.5010 70.4 299 
 BRR  HE ES        8 8 58.09                             151    0.6310 70.4 299 
 BRR  HZ I         8 9  2.33        15.4 0.30            150           70.4 299 
 PAM  SZ EP        8 8 43.25                             149    0.4210 78.6  40 
 RUS  HZ EP        8 8 44.42                             142    0.1110  100 175 
 RUS  HZ I         8 8 45.40         5.9 0.20            146            100 175 
 RUS  HN ES        8 9  1.39                             142   -0.8610  100 175 
 PTB  HZ EP        8 8 47.09                             131   -0.47 9  146 259 
 PTB  HN ES        8 9  7.74                             131   -0.30 9  146 259 
 PTB  HZ I         8 9 10.63         7.1 0.10            131            146 259 
 OCA  HZ EP        8 8 49.12                             128    0.02 9  161 354 
 OCA  HN ES        8 9  9.75                             128   -1.03 9  161 354 
 OCA  HZ I         8 9 18.41         5.7 0.18            129            161 354 
 SPBC HZ EP        8 8 49.34                             127    0.21 9  162 219 
 SPBC HN ES        8 9 10.96                             127    0.12 9  162 219 
 SPBC HZ I         8 9 18.26        10.5 0.28            129            162 219 
                                                                                
