 2016  529 0938 30.8 L   6.800 -73.131148.5  RSN 10 0.4 1.9LRSN                1
 GAP=138        1.06       3.7     5.0  6.5 -0.6361E+01  0.5669E+01  0.2781E+01E
 Epicentro: LOS SANTOS - SANTANDER                                             3
 ACTION:UPD 16-08-18 17:50 OP:cam  STATUS:               ID:20160529093830 L   I
 OLDACT:UP  16-05-29 15:48 OP:mh   STATUS:               ID:20160529093747     3
 OLDACT:UP  16-05-29 15:46 OP:mh   STATUS:               ID:20160529093747     3
 OLDACT:UP  16-05-29 15:46 OP:mh   STATUS:               ID:20160529093747     3
 OLDACT:UP  16-05-29 15:46 OP:mh   STATUS:               ID:20160529093747     3
 OLDACT:UP  16-05-29 15:45 OP:mh   STATUS:               ID:20160529093747     3
 OLDACT:UP  16-05-29 15:45 OP:mh   STATUS:               ID:20160529093747     3
 OLDACT:REG 16-05-29 12:35 OP:mh   STATUS:               ID:20160529093747     3
 2016-05-29-0937-47M.COL___307                                                 6
 STAT SP IPHASW D HRMM SECON CODA AMPLIT PERI AZIMU VELO AIN AR TRES W  DIS CAZ7
 BAR2 EZ EP        938 50.76                             171    0.0510 23.7 194 
 BAR2 EZ ES        939  6.39                             171    0.1110 23.7 194 
 BAR2 EZ I         939  7.34        17.4 0.26            170           23.7 194 
 BRR  HZ EP        938 51.67                             152   -0.6010 72.6 298 
 BRR  HN ES        939  9.66                             152    0.6110 72.6 298 
 BRR  HZ I         939 13.62        11.9 0.24            152           72.6 298 
 PAM  EZ EP        938 53.78                             152    0.5910 76.4  39 
 PAM  EN ES        939 10.42                             152   -0.2810 76.4  39 
 PAM  EZ I         939 13.82         7.2 0.36            154           76.4  39 
 RUS  HZ EP        938 54.92                             144    0.1610  101 177 
 RUS  HN ES        939 13.16                             144   -0.3310  101 177 
 RUS  HZ I         939 14.94         7.1 0.22            145            101 177 
 PTB  HZ EP        938 57.76                             132   -0.32 9  149 259 
 PTB  HN ES        939 18.77                             132   -0.63 9  149 259 
 OCA  HZ EP   1    938 58.98                             130   -0.31 7  160 353 
 OCA  HN ES        939 21.62                             130    0.07 9  160 353 
 OCA  HZ I         939 24.75        13.6 0.08            131            160 353 
 SPBC HZ EP        938 59.93                             129    0.38 9  164 219 
 SPBC HN ES        939 21.75                             129   -0.27 9  164 219 
 SPBC HZ I         939 24.73         9.7 0.22            130            164 219 
 NOR  HE ES        939 35.75                             119    0.87 8  236 235 
 ROSC BZ EP   4    939 11.29                             117    2.18 0  254 211 
 ROSC BN ES   4    939 42.23                             117    3.20 0  254 211 
 ROSC BZ I         939 45.50         8.6 0.07            118            254 211 
 PRA  HZ EP   1    939 23.72                             107   -0.74 4  393 210 
 PRA  HN ES        940  6.65                             107    0.30 6  393 210 
 PRA  HZ I         940 12.91         3.6 0.40            108            393 210 
                                                                                
