 2011  329 0854 48.1 L   6.745 -73.073146.0  RSN  9 0.4 2.0LRSN                1
 GAP=198        0.85       6.6     9.2  7.0 -0.4070E+02  0.1304E+01  0.9370E+01E
 Epicentro: JORDAN - SANTANDER                                                 3
 ACTION:UP  11-06-16 14:36 OP:jfem STATUS:               ID:20110329085448 L   I
 2011-03-29-0850-42S.COL___138                                                 6
 STAT SP IPHASW D HRMM SECON CODA AMPLIT PERI AZIMU VELO SNR AR TRES W  DIS CAZ7
 BAR2 SZ IP        855  8.06                             171     0.310   21 216 
 BAR2 SZ I         855  8.31        15.7 0.19                            21 216 
 BAR2 SZ ES   2    855 23.21                             171     0.2 5   21 216 
 BTL  SZ EP        855  7.25                             168    -0.710   29 312 
 BTL  SZ ES   1    855 22.97                             168    -0.4 7   29 312 
 GIR2 SZ EP   3    855  8.23                             164     0.2 2   39 340 
 GIR2 SZ ES   3    855 23.27                             164    -0.4 2   39 340 
 BRR  HZ EP        855  9.99                             149     0.110   81 300 
 BRR  HN ES   1    855 27.31                             149     0.4 7   81 300 
 BRR  HZ I         855 29.06        22.3 0.16                            81 300 
 GRA  SZ EP   3    855 14.86                             136     1.1 2  130  13 
 GRA  SZ ES   1    855 34.29                             136     0.6 7  130  13 
 GRA  SZ I         855 36.15        14.3 0.25                           130  13 
 OCA  SZ EP        855 16.74                             128    -0.4 9  167 351 
 OCA  SZ I         855 43.39        11.6 0.46                           167 351 
 NOR  SZ EP        855 24.46                             118     0.2 8  238 237 
 NOR  SN ES   1    855 52.34                             118    -0.1 6  238 237 
 RREF HZ EP   3    855 34.35                             111    -0.2 2  324 231 
 RREF HE ES   2    856 10.41                             111    -0.3 3  324 231 
 RREF HZ I         856 20.60         6.4 0.32                           324 231 
 PRA  HZ EP   3    855 42.21                             107     0.7 1  391 211 
 PRA  HN ES   2    856 23.60                             107     0.4 3  391 211 
                                                                                
