 2010 1029 0039 52.6 L   6.785 -73.096139.1  RSN  5 0.1 2.0LRSN                1
 GAP=164        0.40       2.3     4.1  5.4 -0.2066E+01 -0.5161E+01 -0.2762E+00E
 Epicentro: LOS SANTOS - SANTANDER                                             3
 ACTION:UP  11-02-18 11:12 OP:tino STATUS:               ID:20101029003952 L   I
 2010-10-29-0035-26S.COL___128                                                 6
 STAT SP IPHASW D HRMM SECON CODA AMPLIT PERI AZIMU VELO SNR AR TRES W  DIS CAZ7
 BAR2 SZ EP   1    040 11.29                             170    -0.1 8   23 204 
 BAR2 SZ I         040 17.86        42.9 0.33                            23 204 
 BRR  HZ EP   1    040 13.39                             149     0.0 8   77 298 
 BRR  HZ I         040 27.66        22.0 0.36                            77 298 
 BRR  HN ES   1    040 29.73                             149     0.2 8   77 298 
 RUS  HZ EP   1    040 15.61                             143     0.1 8   99 179 
 RUS  HN ES   1    040 33.50                             143     0.0 8   99 179 
 RUS  HZ I         040 35.96         7.5 0.31                            99 179 
 GRA  SZ IP        040 17.37                             135     0.110  126  15 
 GRA  SZ ES   1    040 36.28                             135    -0.2 7  126  15 
 GRA  SZ I         040 37.97        12.0 0.29                           126  15 
 NOR  SN ES   2    040 55.92                             117    -0.3 4  238 236 
                                                                                
