 2011 1029 0233 35.2 L   6.864 -73.111142.9  RSN  5 0.4 1.2LRSN                1
 GAP=138        0.97       7.3     9.2 10.9 -0.4893E+01 -0.2798E+01  0.2014E+01E
 Epicentro: LOS SANTOS - SANTANDER                                             3
 ACTION:UPD 12-07-13 16:06 OP:ep   STATUS:               ID:20111029023335 L   I
 2011-10-29-0220-00M.COL___177                                                 6
 STAT SP IPHASW D HRMM SECON CODA AMPLIT PERI AZIMU VELO AIN AR TRES W  DIS CAZ7
 GIR2 SZ EP        233 53.86                             170   -0.5410 25.5 339 
 GIR2 SZ ES   2    234  9.21                             170   -0.16 5 25.5 339 
 BAR2 SZ EP        233 55.46                             167    0.7710 31.1 195 
 PAM  SZ EP        233 56.82                             153    0.1510 69.5  41 
 PAM  SN ES   1    234 13.47                             153    0.07 7 69.5  41 
 BRR  HZ EP        233 55.72                             152   -0.3610 71.7 292 
 BRR  HZ I         234 12.10         5.5 0.34                          71.7 292 
 BRR  HE ES   1    234 12.66                             152    0.30 7 71.7 292 
 RUS  HZ EP   3    233 59.18                             141   -0.02 2  107 178 
 RUS  HN ES   1    234 17.58                             141   -0.33 7  107 178 
 RUS  HZ I         234 18.91         1.7 0.38                           107 178 
                                                                                
