 2013  829 0210 46.8 L   7.562 -73.097152.5  RSN  6 0.5 1.3LRSN                1
 GAP=157        1.05       5.4     5.5  9.2  0.5382E+01  0.8360E+01  0.6211E+01E
 Epicentro: EL PLAYON - SANTANDER                                              3
 ACTION:UPD 14-01-14 09:08 OP:ep   STATUS:               ID:20130829021046 L   I
 OLDACT:REG 13-08-29 08:19 OP:jn   STATUS:               ID:20130829020839     3
 2013-08-29-0208-39M.COL___212                                                 6
 STAT SP IPHASW D HRMM SECON CODA AMPLIT PERI AZIMU VELO AIN AR TRES W  DIS CAZ7
 PAM  SZ EP        211  8.73                             161    0.3510 50.3 119 
 PAM  SN ES        211 25.09                             161   -0.1410 50.3 119 
 BRR  HZ EP        211  9.79                             150    0.3710 84.5 234 
 BRR  HN ES        211 27.67                             150    0.5910 84.5 234 
 BRR  HZ I         211 29.93         4.2 0.46            149           84.5 234 
 SML  HN ES        211 39.45                             129   -0.58 9  174 322 
 RUS  HZ EP        211 18.36                             127   -0.00 9  185 180 
 RUS  HE ES   1    211 41.88                             127   -1.13 7  185 180 
 RUS  HZ I         211 44.81         1.3 0.34            128            185 180 
 PTB  HZ EP   1    211 18.00                             126   -0.06 7  188 233 
 PTB  HN ES        211 42.15                             126   -0.32 9  188 233 
 ZAR  HE ES   1    211 43.71                             125    0.11 6  194 268 
                                                                                
