 2010  529 0331 14.5 L   6.914 -73.181140.0  RSN  9 0.5 2.1LRSN                1
 GAP=159        0.94       5.3     8.7  9.9 -0.2656E+02  0.2944E+02 -0.9689E+01E
 Epicentro: BETULIA - SANTANDER                                                3
 ACTION:UP  10-08-24 10:07 OP:vdl  STATUS:               ID:20100529033115 L   I
 2010-05-29-0328-14S.COL___109                                                 6
 STAT SP IPHASW D HRMM SECON CODA AMPLIT PERI AZIMU VELO SNR AR TRES W  DIS CAZ7
 GIR2 SZ EP        331 33.14                             172    -0.110   18 356 
 BAR2 SZ EP        331 33.51                             165    -0.310   36 180 
 BAR2 SZ ES   1    331 49.22                             165     0.4 7   36 180 
 GUE  SZ EP        331 37.76                             141     0.010  105  16 
 GUE  SZ ES   2    331 54.29                             141    -1.7 5  105  16 
 GRA  SZ EP        331 38.53                             139     0.210  115  21 
 GRA  SZ ES   1    331 57.56                             139     0.6 7  115  21 
 OCA  SZ EP        331 41.18                             131     0.0 9  147 354 
 OCA  SZ ES   1    332  2.09                             131     0.1 7  147 354 
 CHI  HN ES   2    332 22.98                             115    -0.3 4  260 194 
 CHI  HZ I         332 25.94         6.7 0.04                           260 194 
 HEL  HN ES   1    332 25.56                             114     0.1 6  272 253 
 HEL  HZ I         332 33.05         8.4 0.78                           272 253 
 RREF BE ES   2    332 36.67                             110    -0.7 3  327 227 
 RREF BZ I         332 44.65         6.2 0.07                           327 227 
 TOL  SZ ES   2    332 42.32                             108     1.0 3  350 223 
                                                                                
