 2014  129 0604  1.3 L   6.755 -73.159137.9  RSN  6 0.4 1.3LRSN                1
 GAP=137        0.93       4.5     4.6  6.2 -0.1434E+01  0.3292E+01  0.5505E+01E
 Epicentro: LOS SANTOS - SANTANDER                                             3
 ACTION:UPD 14-03-13 09:59 OP:ep   STATUS:               ID:20140129060401 L   I
 OLDACT:REG 14-01-29 08:36 OP:stll STATUS:               ID:20140129055818     3
 2014-01-29-0558-18M.COL___249                                                 6
 STAT SP IPHASW D HRMM SECON CODA AMPLIT PERI AZIMU VELO AIN AR TRES W  DIS CAZ7
 BAR2 SZ EP        6 4 19.87                             172   -0.0410 18.2 188 
 BAR2 SZ I         6 4 20.27         8.4 0.32            158           18.2 188 
 BAR2 SZ ES        6 4 34.62                             172    0.2110 18.2 188 
 BRR  HZ EP        6 4 22.01                             151    0.3110 72.5 303 
 BRR  HZ I         6 4 22.08         5.4 0.26            143           72.5 303 
 BRR  HN ES        6 4 38.15                             151    0.5510 72.5 303 
 PAM  SZ EP        6 4 22.88                             148   -0.1310 82.2  38 
 PAM  SN ES        6 4 39.61                             148   -0.3210 82.2  38 
 PAM  SZ I         6 4 41.60         6.6 0.52            135           82.2  38 
 RUS  HZ EP        6 4 24.03                             144    0.0810 95.7 175 
 RUS  HN ES        6 4 41.36                             144   -0.2410 95.7 175 
 RUS  HZ I         6 4 43.91         3.0 0.30            124           95.7 175 
 PTB  HZ EP        6 4 26.98                             131   -0.46 9  145 261 
 PTB  HN ES        6 4 47.31                             131   -0.50 9  145 261 
 PTB  HZ I         6 4 50.90         2.7 0.24            116            145 261 
 CHI  HZ EP        6 4 38.66                             116    0.64 8  243 195 
 CHI  HZ I         6 5 14.91         0.8 0.44            104            243 195 
                                                                                
