 2012  129 0029 20.8 L   6.726 -73.163147.8  RSN  4 0.2 1.5LRSN                1
 GAP=179        0.42       5.5     5.7  6.9  0.9952E+01  0.3451E+01 -0.2522E+01E
 Epicentro: VILLANUEVA - SANTANDER                                             3
 ACTION:UP  12-02-03 08:21 OP:REBC STATUS:               ID:20120129002920 L   I
 2012-01-29-0024-46S.COL___164                                                 6
 STAT SP IPHASW D HRMM SECON CODA AMPLIT PERI AZIMU VELO SNR AR TRES W  DIS CAZ7
 GIR2 SZ EP   2    029 40.73                             164    -0.2 5   39 355 
 BRR  HZ EP   1    029 42.57                             152     0.3 8   74 305 
 BRR  HN ES   2    029 58.86                             152    -0.2 5   74 305 
 BRR  HZ I         030 22.45        11.9 0.20                            74 305 
 RUS  HZ EP   2    029 43.94                             147    -0.2 5   93 174 
 RUS  HE ES   2    030  2.51                             147     0.1 5   93 174 
 RUS  HZ I         030  4.57         2.2 0.37                            93 174 
 PTB  HZ EP        029 47.52                             133    -0.110  144 262 
 PTB  HE ES   2    030  8.53                             133     0.0 5  144 262 
                                                                                
