 2013  429 0907 32.1 L   6.760 -73.152156.0  RSN  6 0.3 1.8LRSN                1
 GAP=200        0.71       4.7     5.7  6.4  0.1338E+02 -0.1937E+01 -0.7721E+01E
 Epicentro: LOS SANTOS - SANTANDER                                             3
 ACTION:UPD 13-05-22 14:41 OP:EP   STATUS:               ID:20130429090732 L   I
 2013-04-29-0900-00M.COL___248                                                 6
 STAT SP IPHASW D HRMM SECON CODA AMPLIT PERI AZIMU VELO AIN AR TRES W  DIS CAZ7
 BAR2 SZ EP        9 7 52.72                             173   -0.1810 18.8 190 
 BAR2 SZ ES   1    9 8  8.75                             173   -0.36 7 18.8 190 
 BAR2 SZ I         9 8  8.82         6.4 0.26            169           18.8 190 
 BRR  HZ EP        9 7 54.77                             154    0.3010 72.9 302 
 BRR  HE ES   1    9 8 12.06                             154    0.16 7 72.9 302 
 BRR  HE I         9 8 12.62        16.7 0.60            151           72.9 302 
 RUS  HZ EP        9 7 56.69                             147    0.1010 96.2 175 
 RUS  HE ES   1    9 8 15.98                             147    0.30 7 96.2 175 
 RUS  HE I         9 8 18.41         6.0 0.74            146           96.2 175 
 PTB  HZ EP        9 7 59.79                             134   -0.02 9  146 260 
 PTB  HN ES   1    9 8 20.78                             134   -0.63 7  146 260 
 PTB  HN I         9 8 26.05        10.5 0.56            132            146 260 
 ZAR  HN ES   1    9 8 31.85                             124    0.56 6  205 293 
 SML  HZ EP   1    9 8  9.16                             119   -0.58 6  247 336 
 SML  HE ES   1    9 8 39.15                             119    0.07 6  247 336 
 SML  HE I         9 8 41.04        10.3 0.10            119            247 336 
                                                                                
