 2017 1229 0025  6.4 L   6.857 -73.174146.1  RSN 19 0.7 2.3LRSN                1
 GAP= 62        1.44       3.2     3.6  7.0 -0.5072E+00  0.7525E+01  0.3855E-01E
 Epicentro: ZAPATOCA - SANTANDER                                               3
 ACTION:UPD 18-01-04 13:25 OP:rebc STATUS:               ID:20171229002506 L   I
 OLDACT:DUP 17-12-29 13:28 OP:osc  STATUS:               ID:20171229001025d    3
 2017-12-29-0018-00M.COL___448                                                 6
 STAT SP IPHASW D HRMM SECON CODA AMPLIT PERI AZIMU VELO AIN AR TRES W  DIS CAZ7
 BAR2 EZ EP        025 26.15                             168   -0.0510 29.2 182 
 BAR2 EZ ES        025 41.47                             168   -0.1810 29.2 182 
 BAR2 EZ I         025 43.36        27.4 0.18            167           29.2 182 
 PAM  EZ EP        025 29.01                             152    0.5110 74.9  44 
 PAM  EE ES        025 45.81                             152    0.0710 74.9  44 
 PAM  EZ I         025 47.97        48.3 0.52            155           74.9  44 
 PTB  HZ EP        025 32.78                             132   -0.45 9  146 256 
 PTB  HN ES        025 53.61                             132   -0.55 9  146 256 
 PTB  HZ I         025 56.38        20.0 0.12            134            146 256 
 OCA  HZ EP        025 34.32                             131    0.20 9  154 354 
 OCA  HN ES        025 55.78                             131    0.04 9  154 354 
 OCA  HZ I         026  0.39        55.1 0.24            134            154 354 
 TAM  HZ IP     D  025 34.60                             130    0.06 9  160 107 
 TAM  HE ES        025 56.10                             130   -0.40 9  160 107 
 TAM  HZ I         026  5.78         7.2 0.30            132            160 107 
 SPBC HZ EP        025 35.15                             129   -0.05 9  166 217 
 SPBC HE ES        025 57.70                             129    0.03 9  166 217 
 SPBC HZ I         026  4.30        38.2 0.30            129            166 217 
 YPLC HZ EP     D  025 36.79                             126   -0.11 9  184 151 
 YPLC HE ES        026  0.99                             126    0.29 9  184 151 
 YPLC HZ I         026  4.37        16.4 0.40            127            184 151 
 ZAR  HZ EP        025 38.32                             123    0.00 9  199 291 
 ZAR  HN ES        026  4.14                             123    0.91 9  199 291 
 ZAR  HZ I         026 10.43        20.0 0.14            125            199 291 
 URE  HN ES        026 17.22                             114   -1.26 7  279 291 
 DRL03HZ EP        025 48.06                             114    0.78 7  282 353 
 DRL03HE ES        026 20.65                             114    1.48 7  282 353 
 GUY2CHZ EP        025 50.77                             112    0.63 7  302 233 
 GUY2CHE ES        026 24.72                             112    0.46 7  302 233 
 GUY2CHZ I         026 32.35         8.1 0.50                           302 233 
 VIL  EZ EP        025 48.96                             112   -1.49 7  309 191 
 VIL  EE ES        026 24.24                             112   -0.58 7  309 191 
 VIL  EZ I         026 35.13        12.1 0.36            113            309 191 
 LL6C HZ EP        025 50.68                             111   -0.70 7  319 358 
 CBOC HZ EP        025 54.77                             110    1.57 7  333 251 
 CBOC HE ES        026 29.40                             110   -0.31 7  333 251 
 CBOC HZ I         026 41.33         3.0 0.38            111            333 251 
 DBB  EN ES        026 29.84                             110   -0.35 7  336 273 
 ORTC HZ EP        026  0.92                             106    0.22 6  399 215 
 ORTC HE ES        026 44.32                             106    1.26 6  399 215 
 ORTC HZ I         026 50.53         5.5 0.54            107            399 215 
 SJC  HZ EP        026  0.42                             106   -0.72 6  402 327 
 SJC  HE ES        026 41.87                             106   -1.98 6  402 327 
 SJC  HZ I         026 44.81         4.4 0.36            108            402 327 
 PAL  HZ EP        026  2.17                             106    0.54 6  406 238 
 PAL  HN ES        026 44.92                             106    0.21 6  406 238 
 PAL  HZ I         026 50.67         4.2 0.40            107            406 238 
 CRJC HN ES        026 55.59                             104   -0.79 5  462   4 
                                                                                
