 2011  129 0906 56.2 L   6.783 -73.203148.8  RSN  4 0.1 1.0LRSN                1
 GAP=186        0.32       3.0    14.3  3.6 -0.3603E+02  0.1773E+02 -0.3756E+01E
 Epicentro: ZAPATOCA - SANTANDER                                               3
 ACTION:UP  11-02-08 08:43 OP:pat  STATUS:               ID:20110129090656 L   I
 2011-01-29-0905-19S.COL___137                                                 6
 STAT SP IPHASW D HRMM SECON CODA AMPLIT PERI AZIMU VELO SNR AR TRES W  DIS CAZ7
 BAR2 SZ EP   1    9 7 16.14                             171     0.0 8   21 174 
 BAR2 SZ ES   1    9 7 31.67                             171     0.0 8   21 174 
 RUS  HZ EP   1    9 7 20.05                             145    -0.1 8   99 172 
 RUS  HN ES   1    9 7 38.92                             145     0.1 8   99 172 
 RUS  HZ I         9 7 40.52         1.8 0.40                            99 172 
 GRA  SZ EP        9 7 21.97                             137     0.010  130  20 
 GRA  SZ ES        9 7 42.22                             137     0.110  130  20 
 CHI  HZ EP   2    9 7 33.94                             118     0.2 4  245 194 
                                                                                
