 2013  529 0253 52.1 L   6.801 -73.134141.6  RSN 11 0.5 1.9LRSN                1
 GAP=189        1.10       4.3     5.6  8.0  0.5190E+01  0.3220E+01 -0.1148E+01E
 Epicentro: LOS SANTOS - SANTANDER                                             3
 ACTION:UPD 13-06-20 09:54 OP:ep   STATUS:               ID:20130529025352 L   I
 2013-05-29-0250-00M.COL___261                                                 6
 STAT SP IPHASW D HRMM SECON CODA AMPLIT PERI AZIMU VELO AIN AR TRES W  DIS CAZ7
 BAR2 SZ IP     C  254 11.52                             170    0.3310 23.7 193 
 BAR2 SZ I         254 28.22        14.5 0.24            169           23.7 193 
 GIR2 SZ EP        254 11.60                             167    0.3710 31.4 348 
 GIR2 SZ I         254 28.60         7.2 0.12            168           31.4 348 
 BRR  HZ IP     C  254 13.46                             151    0.6510 72.3 298 
 BRR  HN ES        254 28.90                             151   -0.1010 72.3 298 
 BRR  HZ I         254 33.10        12.9 0.20            154           72.3 298 
 RUS  HZ EP        254 15.42                             143    0.0210  101 177 
 RUS  HN ES        254 33.14                             143   -0.4710  101 177 
 RUS  HZ I         254 35.32         5.9 0.40            142            101 177 
 PTB  HZ EP        254 18.32                             131   -0.48 9  149 259 
 PTB  HN ES        254 39.62                             131   -0.04 9  149 259 
 PTB  HZ I         254 45.49        11.1 0.60            132            149 259 
 ZAR  HN ES        254 50.22                             121    0.68 9  205 292 
 NOR  HZ EP   4    254 27.49                             117   -0.18 0  236 235 
 NOR  HN ES   4    254 56.08                             117    0.64 0  236 235 
 NOR  HZ I         255  2.68         7.3 0.24            118            236 235 
 SML  HZ EP        254 27.70                             116   -0.80 8  244 335 
 SML  HN ES        254 56.29                             116   -0.63 8  244 335 
 SML  HZ I         255  0.62        15.6 0.22            117            244 335 
 HEL  HZ EP   4    254 33.66                             114    1.46 0  273 256 
 HEL  HN ES   4    255  4.63                             114    1.12 0  273 256 
 HEL  HZ I         255 12.15         3.9 0.30            114            273 256 
 GUY2CHZ EP        254 35.98                             111    0.38 7  302 235 
 GUY2CHN ES        255  9.07                             111   -0.49 7  302 235 
 GUY2CHZ I         255 18.60         4.2 0.36                           302 235 
 PRA  HZ EP        254 45.88                             106    0.36 6  393 210 
 PRA  HN ES   4    255 25.69                             106   -1.53 0  393 210 
 PRA  HZ I         255 35.78         3.4 0.36            106            393 210 
                                                                                
