 2011  129 0201 41.3 L   6.811 -73.207137.3  RSN  4 0.4 1.5LRSN                1
 GAP=152        0.98       5.1    12.4  9.4 -0.7710E+01  0.3746E+02 -0.1936E+02E
 Epicentro: ZAPATOCA - SANTANDER                                               3
 ACTION:UP  11-02-08 08:43 OP:pat  STATUS:               ID:20110129020141 L   I
 2011-01-29-0158-56S.COL___137                                                 6
 STAT SP IPHASW D HRMM SECON CODA AMPLIT PERI AZIMU VELO SNR AR TRES W  DIS CAZ7
 BAR2 SZ ES        2 2 14.71                             169     0.210   24 174 
 RUS  HZ EP        2 2  4.45                             141     0.010  102 172 
 RUS  HE ES        2 2 22.15                             141    -0.310  102 172 
 RUS  HZ I         2 2 24.97         3.4 0.25                           102 172 
 GRA  SZ IP     C  2 2  6.45                             134     0.510  127  21 
 GRA  SZ I         2 2  7.56         9.3 0.41                           127  21 
 GRA  SZ ES   1    2 2 24.56                             134    -0.6 7  127  21 
 MON  HZ EP   1    2 2 28.39                             107    -0.9 5  347 309 
 MON  HN ES   2    2 3  7.29                             107     0.6 3  347 309 
                                                                                
