 2011  629 0709 58.3 L   6.772 -73.092146.8  RSN  7 0.2 1.7LRSN                1
 GAP=165        0.52       2.6     4.6  4.4 -0.3698E+01  0.1660E+01 -0.1854E+01E
 Epicentro: LOS SANTOS - SANTANDER                                             3
 ACTION:UP  11-07-14 19:09 OP:ep   STATUS:               ID:20110629070958 L   I
 2011-06-29-0700-00M.COL___124                                                 6
 STAT SP IPHASW D HRMM SECON CODA AMPLIT PERI AZIMU VELO SNR AR TRES W  DIS CAZ7
 BAR2 SZ EP        710 17.99                             171     0.010   22 207 
 BAR2 SZ ES   1    710 33.03                             171    -0.4 7   22 207 
 BAR2 SZ I         710 34.88         8.7 0.37                            22 207 
 BRR  HZ EP        710 20.00                             150     0.010   78 298 
 BRR  HE ES   1    710 37.18                             150     0.3 7   78 298 
 BRR  HZ I         710 39.73        10.5 0.14                            78 298 
 RUS  HZ EP   1    710 22.13                             145     0.2 7   97 179 
 RUS  HN ES   1    710 40.55                             145     0.2 7   97 179 
 RUS  HZ I         710 42.45         6.1 0.48                            97 179 
 GRA  SZ EP        710 23.85                             137     0.110  127  14 
 GRA  SZ ES   1    710 43.31                             137    -0.3 7  127  14 
 GRA  SZ I         710 44.72         8.5 0.38                           127  14 
 OCA  SZ EP        710 26.92                             129    -0.1 9  164 351 
 OCA  SZ ES   2    710 49.82                             129     0.3 5  164 351 
 OCA  SZ I         710 54.10         6.9 0.52                           164 351 
 NOR  SZ EP   2    710 34.28                             118    -0.1 4  238 236 
 NOR  SE ES   2    711  2.28                             118    -0.3 4  238 236 
 RREF HZ EP   2    710 44.76                             111     0.0 3  324 230 
 RREF HN ES   2    711 20.90                             111    -0.1 3  324 230 
 RREF HZ I         711 27.74         4.1 0.22                           324 230 
                                                                                
