 2017  829 0943 40.4 L   6.779 -73.171150.5  RSN  6 0.2 1.5LRSN                1
 GAP=134        0.66       3.2     3.8  4.7  0.3094E+01  0.1371E+01 -0.1967E+01E
 Epicentro: LOS SANTOS - SANTANDER                                             3
 ACTION:UPD 17-09-04 20:26 OP:rebc STATUS:               ID:20170829094340 L   I
 OLDACT:UP  17-08-29 18:39 OP:dani STATUS:               ID:20170829093737d    3
 OLDACT:UP  17-08-29 18:38 OP:dani STATUS:               ID:20170829093737d    3
 OLDACT:DUP 17-08-29 18:36 OP:dani STATUS:               ID:20170829093737d    3
 OLDACT:DUP 17-08-29 18:34 OP:dani STATUS:               ID:20170829093736d    3
 OLDACT:UP  17-08-29 18:33 OP:dani STATUS:               ID:20170829093735     3
 OLDACT:REG 17-08-29 13:19 OP:dani STATUS:               ID:20170829093735     3
 2017-08-29-0938-00M.COL___411                                                 6
 STAT SP IPHASW D HRMM SECON CODA AMPLIT PERI AZIMU VELO AIN AR TRES W  DIS CAZ7
 BAR2 EZ EP        944  0.41                             172   -0.1210 20.7 183 
 BAR2 EZ ES        944 16.11                             172   -0.1410 20.7 183 
 BAR2 EZ I         944 17.01         6.6 0.18            173           20.7 183 
 BRR  HZ EP        944  2.04                             154    0.0710 69.9 301 
 BRR  HN ES        944 19.24                             154    0.4210 69.9 301 
 BRR  HZ I         944 22.26         7.0 0.34            154           69.9 301 
 PAM  EZ EP        944  3.31                             150   -0.0110 81.0  40 
 RUS  HZ EP        944  4.52                             145    0.0710 98.5 174 
 RUS  HN ES        944 23.01                             145   -0.2210 98.5 174 
 RUS  HZ I         944 24.24         5.6 0.30            148           98.5 174 
 SPBC HZ EP        944  9.41                             131    0.50 9  160 219 
 SPBC HN ES        944 31.11                             131   -0.06 9  160 219 
 ZAR  HZ EP        944 12.67                             124   -0.29 9  202 293 
 ZAR  HE ES        944 38.07                             124   -0.31 9  202 293 
                                                                                
