 2012 1229 0139 51.3 L   6.791 -73.164141.4  RSN  7 0.5 1.7LRSN                1
 GAP=181        1.03       4.6     7.2  8.5  0.7946E+01  0.6022E+01  0.2652E-01E
 Epicentro: LOS SANTOS - SANTANDER                                             3
 ACTION:UPD 13-01-04 14:31 OP:ep   STATUS:               ID:20121229013951 L   I
 2012-12-29-0140-00M.COL___242                                                 6
 STAT SP IPHASW D HRMM SECON CODA AMPLIT PERI AZIMU VELO AIN AR TRES W  DIS CAZ7
 BAR2 SZ EP   1    140  9.86                             171   -0.51 7 22.1 185 
 BAR2 SZ ES   1    140 24.69                             171   -0.56 7 22.1 185 
 BAR2 SZ I         140 26.67        16.2 0.16                          22.1 185 
 BRR  HZ EP   1    140 12.12                             152    0.23 7 69.9 300 
 BRR  HN ES   1    140 28.78                             152    0.81 7 69.9 300 
 BRR  HZ I         140 33.47        12.8 0.16                          69.9 300 
 RUS  HZ EP   1    140 14.39                             143   -0.16 7 99.8 175 
 RUS  HE ES   1    140 32.96                             143    0.26 7 99.8 175 
 RUS  HZ I         140 33.55         2.6 0.16                          99.8 175 
 PTB  HZ EP   1    140 17.11                             131   -0.59 7  146 259 
 PTB  HN ES   1    140 37.86                             131   -0.45 7  146 259 
 PTB  HZ I         140 46.32         5.2 0.32                           146 259 
 OCA  HZ EP   1    140 18.88                             128   -0.45 7  161 354 
 OCA  HN ES   1    140 41.62                             128    0.41 7  161 354 
 OCA  HZ I         140 43.11         8.7 0.24                           161 354 
 ZAR  HZ EP   1    140 24.28                             122    0.99 6  203 293 
 ZAR  HN ES   1    140 47.72                             122   -0.54 6  203 293 
 ZAR  HZ I         140 54.31         5.8 0.34                           203 293 
 CHI  HZ EP   1    140 28.59                             116    0.01 6  247 195 
 CHI  HN ES   1    140 58.53                             116    0.85 6  247 195 
 CHI  HZ I         141  5.78         3.1 0.42                           247 195 
 URE  HE ES   4    141  1.03                             113   -2.69 0  282 292 
                                                                                
