 2010  429 0547 16.8 L   6.781 -72.958143.8  RSN  5 0.4 1.7LRSN                1
 GAP=220        0.76       8.2    12.5 11.7  0.2290E+02 -0.8178E+02 -0.4332E+02E
 Epicentro: CEPITA - SANTANDER                                                 3
 ACTION:UPD 10-08-24 10:01 OP:vdl  STATUS:               ID:20100429054716 L   I
 2010-04-29-0545-43S.COL___104                                                 6
 STAT SP IPHASW D HRMM SECON CODA AMPLIT PERI AZIMU VELO SNR AR TRES W  DIS CAZ7
 BAR2 SZ EP        547 36.30                             167    -0.110   33 230 
 BAR2 SZ ES   1    547 51.52                             167    -0.2 7   33 230 
 BRR  HZ EP   1    547 38.75                             146    -0.2 7   91 293 
 BRR  HN ES   1    547 56.57                             146     0.3 7   91 293 
 BRR  HZ I         547 58.65         4.8 0.21                            91 293 
 BRI  SZ EP   1    547 40.88                             142     0.7 7  105  10 
 GUE  SZ EP   2    547 41.05                             139    -0.2 5  116   2 
 OCA  SZ EP   2    547 45.12                             128    -0.4 5  166 346 
 OCA  SZ ES   2    548  7.17                             128    -0.7 5  166 346 
 OCA  SZ I         548 11.38        10.4 0.17                           166 346 
                                                                                
