 2013  729 0547 36.0 L   6.837 -73.100142.0  RSN 11 0.5 1.8LRSN                1
 GAP=188        0.95       3.3     6.1  7.6  0.3475E+01  0.6964E+01  0.1905E+01E
 Epicentro: LOS SANTOS - SANTANDER                                             3
 ACTION:UPD 13-08-12 10:40 OP:ep   STATUS:               ID:20130729054736 L   I
 OLDACT:REG 13-07-29 07:44 OP:carl STATUS:               ID:20130729053959     3
 2013-07-29-0539-59M.COL___268                                                 6
 STAT SP IPHASW D HRMM SECON CODA AMPLIT PERI AZIMU VELO AIN AR TRES W  DIS CAZ7
 BAR2 SZ EP   1    547 55.68                             168    0.35 9 28.6 199 
 BAR2 SZ ES   1    548  9.81                             168   -0.57 9 28.6 199 
 BAR2 SZ I         548 11.79         9.9 0.26            169           28.6 199 
 BRR  HZ EP   1    547 57.43                             151    0.50 9 73.9 294 
 BRR  HN ES   1    548 14.36                             151    1.13 9 73.9 294 
 BRR  HN I         548 17.66        18.5 0.16            151           73.9 294 
 RUS  HZ EP   1    548  0.00                             142    0.29 9  104 179 
 RUS  HN ES   1    548 18.33                             142    0.16 9  104 179 
 RUS  HZ I         548 20.02         6.0 0.36            145            104 179 
 PTB  HZ EP   1    548  2.89                             130   -0.34 8  154 258 
 PTB  HN ES   1    548 23.88                             130   -0.56 8  154 258 
 PTB  HZ I         548 28.14         6.5 0.18            131            154 258 
 OCA  HE ES   1    548 24.68                             129   -0.66 8  157 351 
 OCA  HZ I         548 30.12         7.4 0.16            131            157 351 
 SPBC HZ EP   1    548  4.70                             127   -0.16 8  170 219 
 SPBC HN ES   1    548 26.44                             127   -0.90 8  170 219 
 SPBC HZ I         548 29.02         6.1 0.32            129            170 219 
 ZAR  HE ES        548 34.22                             121    0.2810  207 291 
 NOR  HN ES   2    548 40.77                             117    0.27 5  241 234 
 SML  HZ EP   1    548 12.04                             117   -0.24 7  242 334 
 SML  HN ES   1    548 40.29                             117   -0.27 7  242 334 
 SML  HZ I         548 43.89         8.0 0.28            118            242 334 
 CHI  HN ES        548 43.81                             116    0.01 9  254 196 
 PRA  HZ EP   1    548 30.26                             106    0.12 5  398 210 
 PRA  HE ES   1    549 12.88                             106    0.54 5  398 210 
 PRA  HZ I         549 16.27         2.0 0.36            107            398 210 
                                                                                
