 2017  129 0558  4.9 L   6.778 -73.149143.8  RSN  5 0.2 1.1LRSN                1
 GAP=137        0.58       3.1     3.0  4.3 -0.8601E+00  0.1605E+01  0.5659E+00E
 Epicentro: LOS SANTOS - SANTANDER                                             3
 ACTION:UPD 17-05-22 16:04 OP:jn   STATUS:               ID:20170129055804 L   I
 OLDACT:DUP 17-01-29 16:50 OP:lv   STATUS:               ID:20170129054744d    3
 2017-01-29-0548-00M.COL___336                                                 6
 STAT SP IPHASW D HRMM SECON CODA AMPLIT PERI AZIMU VELO AIN AR TRES W  DIS CAZ7
 BAR2 EZ EP        558 23.95                             171   -0.2610 20.8 190 
 BAR2 EZ ES        558 39.16                             171   -0.1410 20.8 190 
 BAR2 EZ I         558 42.42         2.6 0.20            170           20.8 190 
 BRR  HZ EP        558 25.83                             152   -0.0310 72.1 300 
 BRR  HN ES        558 42.61                             152    0.3810 72.1 300 
 PAM  EZ EP        558 26.92                             150   -0.0810 79.5  39 
 PAM  EN ES        558 44.24                             150   -0.0310 79.5  39 
 RUS  HZ EP        558 28.56                             144    0.3110 98.1 176 
 RUS  HN ES        558 46.53                             144    0.0410 98.1 176 
 RUS  HZ I         558 48.96         1.4 0.29            144           98.1 176 
 PTB  HZ EP        558 31.68                             132    0.08 9  147 260 
 PTB  HN ES        558 52.17                             132   -0.29 9  147 260 
 PTB  HZ I         558 54.23         3.0 0.22            133            147 260 
 ZAR  HN ES   4    559  5.54                             122    3.03 0  205 293 
                                                                                
