 2017  429 0242 40.4 L   6.829 -73.264120.7  RSN  7 0.5 1.8LRSN                1
 GAP=227        0.71       3.7     5.8  6.5  0.1242E+02  0.1109E+02  0.3752E+01E
 Epicentro: ZAPATOCA - SANTANDER                                               3
 ACTION:UPD 17-05-30 21:16 OP:jn   STATUS:               ID:20170429024240 L   I
 OLDACT:UP  17-04-29 14:30 OP:and  STATUS:               ID:20170429023739     3
 OLDACT:UP  17-04-29 14:29 OP:and  STATUS:               ID:20170429023739     3
 OLDACT:UP  17-04-29 14:27 OP:and  STATUS:               ID:20170429023739     3
 OLDACT:REG 17-04-29 12:37 OP:and  STATUS:               ID:20170429023739     3
 2017-04-29-0238-00M.COL___362                                                 6
 STAT SP IPHASW D HRMM SECON CODA AMPLIT PERI AZIMU VELO AIN AR TRES W  DIS CAZ7
 BRR  HZ IP     C  242 58.24                             153    0.1210 58.3 302 
 BRR  HN ES        243 11.94                             153    0.0010 58.3 302 
 BRR  HZ I         243 14.57        26.3 0.44            150           58.3 302 
 RUS  HZ EP   2    243  2.74                             136    0.54 5  105 169 
 RUS  HN ES        243 19.41                             136    0.2110  105 169 
 RUS  HZ I         243 20.08         6.3 0.22            137            105 169 
 PTB  HZ IP   4 C  243  2.42                             129   -1.86 0  136 256 
 PTB  HN ES   4    243 19.40                             129   -3.50 0  136 256 
 PTB  HZ I         243 24.56         8.1 0.44            127            136 256 
 SPBC HZ EP   2    243  7.02                             124    0.44 5  158 215 
 SPBC HN ES        243 26.49                             124   -0.51 9  158 215 
 SPBC HZ I         243 32.37         8.4 0.16            123            158 215 
 ZAR  HZ EP        243  9.60                             118   -0.31 9  191 293 
 ZAR  HE ES        243 32.82                             118   -0.10 9  191 293 
 ZAR  HZ I         243 36.40         8.2 0.26            119            191 293 
 CHI  HZ EP   2    243 16.53                             111   -0.33 4  249 192 
 CHI  HN ES   2    243 45.51                             111    0.22 4  249 192 
 HEL  HZ EP   2    243 18.98                             110    0.86 4  260 254 
 HEL  HN ES   3    243 49.74                             110    2.21 2  260 254 
 HEL  HZ I         243 51.28         3.5 0.32            111            260 254 
                                                                                
