 2012  829 0421 17.8 L   6.785 -73.168142.3  RSN  7 0.4 2.0LRSN                1
 GAP=144        0.80       5.7     5.2  6.7 -0.9312E+01  0.5299E+01 -0.6189E+01E
 Epicentro: LOS SANTOS - SANTANDER                                             3
 ACTION:UPD 12-09-10 11:59 OP:ep   STATUS:               ID:20120829042117 L   I
 2012-08-29-0420-00M.COL___218                                                 6
 STAT SP IPHASW D HRMM SECON CODA AMPLIT PERI AZIMU VELO AIN AR TRES W  DIS CAZ7
 BAR2 SZ EP        421 37.12                             171    0.1610 21.3 184 
 BAR2 SZ ES   1    421 51.51                             171   -0.40 7 21.3 184 
 BAR2 SZ I         421 52.87        30.9 0.24                          21.3 184 
 GIR2 SZ EP        421 37.20                             167    0.1110 32.6 355 
 GIR2 SZ ES   1    421 52.04                             167   -0.10 7 32.6 355 
 BRR  HN ES   2    421 55.85                             152    1.22 5 69.9 301 
 PAM  SZ EP        421 40.18                             149    0.3710 80.3  40 
 PAM  SN ES   1    421 56.89                             149   -0.10 7 80.3  40 
 PAM  SZ I         421 59.31        18.8 0.66                          80.3  40 
 PTB  HZ EP   1    421 43.91                             132   -0.32 7  145 259 
 PTB  HN ES   1    422  4.49                             132   -0.36 7  145 259 
 PTB  HZ I         422  7.45         7.9 0.12                           145 259 
 OCA  HZ EP        421 45.83                             128   -0.14 9  162 354 
 OCA  HN ES   1    422  7.35                             128   -0.59 7  162 354 
 OCA  HZ I         422 12.01        20.3 0.52                           162 354 
 ZAR  HN ES   2    422 15.54                             122    0.70 4  202 293 
 ZAR  HZ I         422 19.13         5.9 0.34                           202 293 
                                                                                
