 2017  929 0617 38.3 L   6.642 -74.118  0.0  RSN  7 0.6 1.1LRSN                1
 GAP= 89        1.42       3.2     2.6  7.9 -0.6741E+00  0.3324E+01  0.4690E+01E
 Epicentro: PUERTO PARRA - SANTANDER                                           3
 ACTION:UPD 17-10-05 19:17 OP:rebc STATUS:               ID:20170929061738 L   I
 OLDACT:DUP 17-09-29 17:44 OP:edw  STATUS:               ID:20170929060742d    3
 OLDACT:UP  17-09-29 17:43 OP:edw  STATUS:               ID:20170929060741d    3
 OLDACT:UP  17-09-29 17:43 OP:edw  STATUS:               ID:20170929060741d    3
 OLDACT:UP  17-09-29 17:41 OP:edw  STATUS:               ID:20170929060741d    3
 OLDACT:DUP 17-09-29 17:39 OP:edw  STATUS:               ID:20170929060741d    3
 2017-09-29-0608-00M.COL___435                                                 6
 STAT SP IPHASW D HRMM SECON CODA AMPLIT PERI AZIMU VELO AIN AR TRES W  DIS CAZ7
 BRR  HZ EP        617 49.70                              47   -0.1410 68.3  41 
 BRR  HN ES        617 58.16                              47   -0.6510 68.3  41 
 BRR  HZ I         617 58.74         8.6 0.10             47           68.3  41 
 BAR2 EZ EP        617 55.09                              47   -0.3410  104  93 
 BAR2 EZ ES        618  9.16                              47    0.3810  104  93 
 BAR2 EZ I         618 11.69         4.8 0.64             47            104  93 
 ZAR  HZ EP        617 58.26                              47   -0.1310  125 319 
 ZAR  HN ES        618 14.71                              47    0.6710  125 319 
 ZAR  HZ I         618 16.34         3.6 0.30             47            125 319 
 RUS  HZ EP        618  1.10                              47   -0.31 9  141 126 
 RUS  HN ES        618 20.07                              47    0.65 9  141 126 
 RUS  HZ I         618 21.56         3.9 0.22             47            141 126 
 NOR  HE ES        618 18.79                              47   -0.91 9  145 215 
 HEL  HE ES        618 25.11                              47   -0.17 9  164 252 
 GUY2CHZ EP        618 12.13                              37    1.19 8  209 221 
 GUY2CHN ES        618 36.40                              37    0.03 8  209 221 
 GUY2CHZ I         618 41.70         1.0 0.60                           209 221 
                                                                                
