 2012  129 0656 47.6 L   6.759 -73.127145.8  RSN  7 0.3 1.6LRSN                1
 GAP=141        0.66       4.4     4.7  6.7  0.2566E+01  0.5681E+01  0.3740E+01E
 Epicentro: LOS SANTOS - SANTANDER                                             3
 ACTION:UP  12-02-03 08:21 OP:REBC STATUS:               ID:20120129065647 L   I
 2012-01-29-0650-00M.COL___188                                                 6
 STAT SP IPHASW D HRMM SECON CODA AMPLIT PERI AZIMU VELO SNR AR TRES W  DIS CAZ7
 BAR2 SZ EP        657  7.31                             172     0.110   19 198 
 BAR2 SZ I         657  7.67         8.5 0.07                            19 198 
 BAR2 SZ ES   2    657 22.56                             172     0.1 5   19 198 
 GIR2 SZ EP        657  7.54                             165     0.110   36 348 
 BRR  HZ EP        657  9.25                             151     0.210   75 301 
 BRR  HZ I         657 10.73        10.6 0.09                            75 301 
 BRR  HN ES   1    657 25.98                             151     0.3 7   75 301 
 PAM  SZ EP   2    657 10.14                             150     0.1 5   80  36 
 PAM  SE ES   1    657 26.94                             150    -0.5 7   80  36 
 RUS  HZ EP        657 11.07                             145     0.010   96 177 
 RUS  HZ I         657 12.11         2.8 0.12                            96 177 
 RUS  HE ES   1    657 29.39                             145     0.1 7   96 177 
 PTB  HZ EP   1    657 14.18                             132    -0.5 7  149 261 
 PTB  HE ES   2    657 35.21                             132    -0.6 5  149 261 
 ZAR  HE ES   2    657 46.26                             122     0.2 4  208 293 
 ZAR  HZ I         657 51.43         4.9 0.42                           208 293 
                                                                                
