 2017  829 0923 53.2 L   6.809 -73.154146.4  RSN 18 0.5 2.6LRSN                1
 GAP=111        1.00       3.3     3.8  5.1 -0.7722E+00  0.5495E+01  0.5579E+01E
 Epicentro: LOS SANTOS - SANTANDER                                             3
 ACTION:UPD 17-09-04 20:26 OP:rebc STATUS:               ID:20170829092353 L   I
 OLDACT:UP  17-08-29 18:27 OP:dani STATUS:               ID:20170829091737     3
 OLDACT:UP  17-08-29 18:27 OP:dani STATUS:               ID:20170829091737     3
 OLDACT:UP  17-08-29 18:26 OP:dani STATUS:               ID:20170829091737     3
 OLDACT:REG 17-08-29 13:18 OP:dani STATUS:               ID:20170829091737     3
 2017-08-29-0918-00M.COL___411                                                 6
 STAT SP IPHASW D HRMM SECON CODA AMPLIT PERI AZIMU VELO AIN AR TRES W  DIS CAZ7
 BAR2 EZ EP        924 12.78                             171   -0.1610 24.2 187 
 BAR2 EZ ES        924 28.13                             171   -0.1910 24.2 187 
 BAR2 EZ I         924 30.58       122.2 0.28            168           24.2 187 
 BRR  HZ EP     C  924 14.53                             153    0.1710 69.9 298 
 BRR  HN ES        924 31.61                             153    0.7610 69.9 298 
 BRR  HZ I         924 32.43        63.6 0.28            150           69.9 298 
 PAM  EZ EP     C  924 15.56                             151    0.0810 77.2  41 
 PAM  EN ES        924 33.00                             151    0.1410 77.2  41 
 PAM  EZ I         924 36.04        35.6 0.46            155           77.2  41 
 RUS  HZ EP     D  924 16.68                             144   -0.4210  102 176 
 RUS  HN ES        924 35.25                             144   -0.4910  102 176 
 RUS  HZ I         924 36.78        39.3 0.30            144            102 176 
 SPBC HZ EP        924 21.75                             129   -0.03 9  163 219 
 SPBC HN ES        924 43.59                             129   -0.47 9  163 219 
 SPBC HZ I         924 48.56        60.5 0.22            128            163 219 
 YPLC HZ EP     D  924 23.17                             126   -0.01 9  178 151 
 YPLC HE ES        924 46.69                             126    0.13 9  178 151 
 YPLC HZ I         924 49.96        33.7 0.22            128            178 151 
 NOR  HZ EP        924 28.91                             118   -0.05 8  235 234 
 NOR  HE ES        924 56.59                             118   -0.25 8  235 234 
 NOR  HZ I         925  6.25        18.4 0.52            118            235 234 
 CHI  HZ EP        924 31.00                             117   -0.02 8  249 195 
 CHI  HN ES        925  0.10                             117   -0.42 8  249 195 
 CHI  HZ I         925  6.40        19.9 0.28            117            249 195 
 ROSC BZ EP        924 32.96                             117    1.55 8  253 211 
 ROSC BE ES        925  1.56                             117    0.36 8  253 211 
 ROSC BZ I         925  7.41        63.4 0.40            117            253 211 
 URE  HZ EP   3    924 32.53                             114   -1.64 2  283 292 
 URE  HE ES   4    925  3.92                             114   -2.20 0  283 292 
 URE  HZ I         925 14.09        26.8 0.26            114            283 292 
 GUY2CHZ EP        924 37.28                             112    0.45 7  301 235 
 GUY2CHN ES   4    925 15.34                             112    4.49 0  301 235 
 GUY2CHZ I         925 18.94        18.3 0.32                           301 235 
 VIL  EZ EP        924 36.62                             112   -0.13 7  304 191 
 VIL  EN ES        925 10.79                             112    0.08 7  304 191 
 VIL  EZ I         925 16.24        35.8 0.34            112            304 191 
 ELA  HZ EP   4    924 43.00                             110    2.92 0  329 229 
 ELA  HN ES   3    925 18.24                             110    1.60 2  329 229 
 ELA  HZ I         925 25.72        16.8 0.62            110            329 229 
 DBB  EZ EP   4    924 43.30                             109    2.70 0  338 274 
 DBB  EN ES        925 16.70                             109   -0.86 7  338 274 
 DBB  EZ I         925 17.45        10.3 0.20            109            338 274 
 PRA  HZ EP        924 46.26                             106   -0.54 6  392 209 
 PRA  HN ES   3    925 27.76                             106   -0.84 1  392 209 
 PRA  HZ I         925 34.97        25.8 0.36            107            392 209 
 ORTC HZ EP        924 47.17                             106   -0.01 6  396 216 
 ORTC HN ES        925 29.83                             106    0.55 6  396 216 
 ORTC HZ I         925 34.10        11.0 0.24            107            396 216 
 PAL  HZ EP        924 48.31                             106   -0.05 6  405 239 
 SJC  HZ EP   3    924 46.40                             106   -2.24 1  408 327 
 SJC  HN ES   4    925 28.25                             106   -3.62 0  408 327 
 SJC  HZ I         925 42.74         6.9 0.28            106            408 327 
                                                                                
