 2015  929 0228 47.2 L   6.810 -73.120149.2  RSN 26 0.4 2.6LRSN                1
 GAP= 72        0.94       2.1     2.5  4.2 -0.1138E+01  0.2052E+01  0.2263E+00E
 Epicentro: LOS SANTOS - SANTANDER                                             3
 ACTION:UPD 15-10-28 16:28 OP:cam  STATUS:               ID:20150929022847 L   I
 OLDACT:REG 15-09-29 12:24 OP:spq  STATUS:               ID:20150929022749     3
 2015-09-29-0227-49M.COL___352                                                 6
 STAT SP IPHASW D HRMM SECON CODA AMPLIT PERI AZIMU VELO AIN AR TRES W  DIS CAZ7
 BAR2 EZ EP     C  229  7.12                             170   -0.1710 25.1 196 
 BAR2 EZ ES   1    229 22.48                             170   -0.47 7 25.1 196 
 BAR2 EZ I         229 24.81        64.7 0.24            169           25.1 196 
 BRR  HZ IP     D  229  8.99                             152    0.1510 73.2 297 
 BRR  HE ES        229 26.20                             152    0.4810 73.2 297 
 BRR  HZ I         229 30.68        37.7 0.14            151           73.2 297 
 PAM  EZ EP     D  229  9.89                             152    0.2610 74.7  38 
 PAM  EN ES        229 27.23                             152    0.1010 74.7  38 
 PAM  EZ I         229 28.93        62.6 0.62            153           74.7  38 
 RUS  HZ EP        229 11.03                             144   -0.3410  102 178 
 RUS  HN ES   1    229 30.23                             144    0.01 7  102 178 
 PTB  HZ EP   9    229 13.61                             132   -1.12 0  151 259 
 PTB  HN ES        229 34.83                                   -0.25 9  151 259 
 PTB  HZ I         229 42.32        64.7 0.38            131            151 259 
 TAM  HZ IP     C  229 15.29                             132    0.36 9  153 106 
 TAM  HZ I         229 35.98        14.2 0.28            131            153 106 
 TAM  HN ES        229 37.07                             132    0.51 9  153 106 
 OCA  HZ EP        229 15.10                             131   -0.61 9  159 352 
 OCA  HE ES        229 37.85                             131   -0.10 9  159 352 
 OCA  HZ I         229 41.24        75.4 0.27            130            159 352 
 SPBC HZ EP        229 15.95                             129   -0.28 9  166 220 
 SPBC HN ES        229 38.60                             129   -0.26 9  166 220 
 SPBC HZ I         229 42.70        50.6 0.16            128            166 220 
 ZAR  HZ EP   1    229 19.79                             123   -0.32 6  206 292 
 ZAR  HN ES        229 45.60                             123   -0.17 8  206 292 
 ZAR  HZ I         229 51.21        46.0 0.36            122            206 292 
 NOR  HZ EP        229 23.66                             119    0.20 8  238 235 
 NOR  HE ES        229 51.29                             119   -0.45 8  238 235 
 NOR  HZ I         229 57.17        24.7 0.18            118            238 235 
 SML  HZ EP        229 23.39                             118   -0.66 8  244 335 
 SML  HE ES   1    229 53.41                             118    0.63 6  244 335 
 SML  HZ I         229 55.33        45.2 0.10            117            244 335 
 CHI  HZ EP        229 25.20                             118   -0.10 8  251 196 
 CHI  HN ES        229 54.41                             118   -0.60 8  251 196 
 CHI  HZ I         230  4.27        14.4 0.34            117            251 196 
 ROSC BZ EP   4    229 27.14                             117    1.36 0  255 211 
 ROSC BE ES        229 55.53                             117   -0.35 8  255 211 
 ROSC BZ I         230  4.69        41.7 0.40            116            255 211 
 HEL  HZ EP        229 28.86                             115    0.93 8  275 256 
 HEL  HE ES        230  0.02                             115    0.32 8  275 256 
 HEL  HZ I         230  7.07        15.5 0.32            114            275 256 
 URE  HZ EP        229 27.76                             114   -0.93 7  286 291 
 URE  HE ES   4    229 59.03                             114   -2.03 0  286 291 
 URE  HZ I         230 11.15        24.7 0.18            113            286 291 
 GUY2CHZ EP        229 31.84                             113    0.53 7  304 235 
 GUY2CHE ES   1    230  5.98                             113    0.26 5  304 235 
 GUY2CHZ I         230 15.90        20.6 0.52                           304 235 
 LL2C HE ES   1    230  5.02                             112    0.13 5  306 353 
 LL2C HZ I         230 14.26        28.6 0.44            112            306 353 
 PTGC HZ EP   4    229 30.11                             112   -1.11 0  309 159 
 PTGC HN ES   4    230  3.48                             112   -2.07 0  309 159 
 PTGC HZ I         230  6.23        17.4 0.39            111            309 159 
 LL4C HZ EP        229 32.98                             111    0.20 7  323 352 
 LL4C HE ES   1    230  8.35                             111    0.02 5  323 352 
 LL4C HZ I         230 12.22        43.7 0.20            111            323 352 
 CBOC HZ EP        229 35.24                             110    0.62 7  337 252 
 CBOC HN ES        230 11.86                             110    0.26 7  337 252 
 CBOC HZ I         230 16.31         6.2 0.50            109            337 252 
 DBB  SZ ES   4    230 11.29                             110   -1.25 0  342 274 
 DBB  SZ I         230 18.64        34.3 0.38            109            342 274 
 SDV  BZ EP        229 36.52                             109   -0.52 6  357  50 
 SDV  BE ES   4    230 13.94                             109   -1.97 0  357  50 
 SDV  BZ I         230 17.97         4.8 0.40            109            357  50 
 ANIL HZ EP        229 38.38                             109    0.91 6  360 225 
 ANIL HN ES   4    230 17.75                             109    1.07 0  360 225 
 ANIL HZ I         230 28.32        27.0 0.46            108            360 225 
 ORTC HN ES        230 24.30                             107    0.36 6  398 216 
 ORTC HZ I         230 30.14         9.6 0.50            106            398 216 
 SJC  HZ EP   4    229 40.88                             106   -2.07 0  410 327 
 SJC  HN ES   4    230 23.06                             106   -3.38 0  410 327 
 SJC  HZ I         230 26.87         7.3 0.42            106            410 327 
 CRJC HZ EP   4 C  229 47.40                             104   -2.25 0  466   3 
 CRJC HE ES   4    230 36.12                             104   -2.23 0  466   3 
 CRJC HZ I         230 39.58         7.9 0.46            103            466   3 
                                                                                
