 2014  629 0410 56.1 L   6.846 -73.170144.0  RSN  7 0.4 1.7LRSN                1
 GAP=181        0.98       3.3     5.3  7.4  0.1421E+01  0.8060E+01 -0.5182E+01E
 Epicentro: LOS SANTOS - SANTANDER                                             3
 ACTION:UPD 14-07-01 22:57 OP:nd   STATUS:               ID:20140629041056 L   I
 OLDACT:REG 14-06-29 13:06 OP:carl STATUS:               ID:20140629040819     3
 2014-06-29-0408-19M.COL___234                                                 6
 STAT SP IPHASW D HRMM SECON CODA AMPLIT PERI AZIMU VELO AIN AR TRES W  DIS CAZ7
 BAR2 SZ EP        411 15.75                             168    0.1510 28.1 183 
 BAR2 SZ ES        411 31.13                             168    0.3010 28.1 183 
 BAR2 SZ I         411 32.19         8.7 0.50            169           28.1 183 
 RUS  HZ EP        411 19.86                             142   -0.1810  106 175 
 RUS  HN ES   1    411 38.26                             142   -0.48 7  106 175 
 RUS  HZ I         411 40.71         2.8 0.34            145            106 175 
 PTB  HZ EP        411 22.37                             132   -0.39 9  146 257 
 PTB  HN ES        411 42.81                             132   -0.77 9  146 257 
 PTB  HZ I         411 45.81         8.9 0.16            133            146 257 
 OCA  HN ES        411 45.41                             130    0.08 9  155 354 
 OCA  HZ I         411 49.99         7.8 0.20            133            155 354 
 SPBC HZ EP        411 24.83                             128    0.17 9  166 217 
 SPBC HN ES        411 47.41                             128    0.45 9  166 217 
 SPBC HZ I         411 53.79         6.4 0.32            130            166 217 
 ZAR  HZ EP        411 28.32                             123    0.37 9  200 291 
 ZAR  HN ES        411 53.41                             123    0.59 9  200 291 
 ZAR  HZ I         411 58.96         5.1 0.28            124            200 291 
 SML  HZ EP        411 32.12                             118    0.14 8  238 335 
 SML  HN ES        411 59.41                             118   -0.57 8  238 335 
                                                                                
