 2013  629 0211 15.2 L   6.777 -73.149149.1  RSN  8 0.4 1.8LRSN                1
 GAP=137        0.83       3.8     3.9  6.9  0.6528E-01  0.5473E+01 -0.6912E+01E
 Epicentro: LOS SANTOS - SANTANDER                                             3
 ACTION:UPD 14-01-08 09:57 OP:ep   STATUS:               ID:20130629021115 L   I
 OLDACT:REG 13-06-29 07:49 OP:carl STATUS:               ID:20130629020959     3
 2013-06-29-0209-59M.COL___267                                                 6
 STAT SP IPHASW D HRMM SECON CODA AMPLIT PERI AZIMU VELO AIN AR TRES W  DIS CAZ7
 BAR2 SZ EP   1    211 34.81                             172   -0.41 7 20.8 190 
 BAR2 SZ ES   1    211 50.93                             172    0.12 7 20.8 190 
 BAR2 SZ I         211 52.69         8.6 0.20            173           20.8 190 
 BRR  HZ EP   1    211 37.25                             153    0.46 7 72.1 300 
 BRR  HN ES   1    211 54.29                             153    0.68 7 72.1 300 
 BRR  HN I         211 58.59        16.9 0.18            149           72.1 300 
 PAM  SZ EP        211 38.22                             150    0.2810 79.6  39 
 PAM  SN ES   1    211 55.46                             150   -0.19 7 79.6  39 
 PAM  SZ I         211 57.60         6.8 0.68            152           79.6  39 
 RUS  HZ EP   1    211 39.60                             145    0.46 7 98.1 176 
 RUS  HN ES        211 57.20                             145   -0.5910 98.1 176 
 RUS  HZ I         211 58.20         4.0 0.32            150           98.1 176 
 PTB  HZ EP   1    211 42.50                             133    0.10 7  147 260 
 PTB  HN ES        212  3.48                             133   -0.10 9  147 260 
 PTB  HZ I         212  5.92         5.6 0.12            133            147 260 
 ZAR  HZ EP   2    211 47.64                             123   -0.32 4  205 293 
 ZAR  HE ES        212 13.09                             123   -0.39 9  205 293 
 ZAR  HZ I         212 20.11         8.9 0.42            123            205 293 
 NOR  HN ES   1    212 19.41                             119    0.57 6  233 235 
 NOR  HN I         212 24.05        13.5 0.16            121            233 235 
 SML  HZ EP   1    211 51.91                             118   -0.37 6  246 336 
 SML  HN ES   1    212 21.10                             118   -0.07 6  246 336 
 SML  HZ I         212 29.10         7.6 0.28            118            246 336 
                                                                                
