 2014 1029 0942 60.0 L   6.780 -73.172140.1  RSN  6 0.5 1.5LRSN                1
 GAP=134        1.20       5.5     5.8  8.2 -0.7745E+01  0.6806E+01  0.5004E+01E
 Epicentro: LOS SANTOS - SANTANDER                                             3
 ACTION:UPD 14-11-29 23:58 OP:nd   STATUS:               ID:20141029094260 L   I
 OLDACT:DUP 14-10-31 01:44 OP:stll STATUS:               ID:20141029093746d    3
 OLDACT:ARG 14-10-30 20:25 OP:stll STATUS:               ID:20141029093745     3
 2014-10-29-0937-45M.COL___268                                                 6
 STAT SP IPHASW D HRMM SECON CODA AMPLIT PERI AZIMU VELO AIN AR TRES W  DIS CAZ7
 BAR2 SZ EP        943 19.05                             171    0.1810 20.8 183 
 BAR2 SZ ES        943 33.92                             171    0.3110 20.8 183 
 BAR2 SZ I         943 36.73         9.0 0.18            171           20.8 183 
 BRR  HZ EP        943 20.96                             152    0.5310 69.8 301 
 BRR  HN ES        943 37.06                             152    0.6710 69.8 301 
 PAM  SZ EP        943 21.90                             149    0.0910 80.9  40 
 PAM  SN ES        943 38.11                             149   -0.7310 80.9  40 
 PAM  SZ I         943 41.45         5.0 0.62            150           80.9  40 
 RUS  HZ EP        943 22.95                             143   -0.0810 98.6 174 
 RUS  HN ES        943 40.87                             143   -0.1410 98.6 174 
 RUS  HZ I         943 43.26         3.5 0.20            144           98.6 174 
 PTB  HZ EP        943 25.92                             131   -0.27 9  145 259 
 PTB  HN ES        943 45.65                             131   -0.99 9  145 259 
 SPBC HZ EP        943 27.87                             128    0.16 9  160 219 
 SPBC HZ I         943 28.35         6.2 0.10            131            160 219 
 SPBC HN ES        943 49.52                             128    0.18 9  160 219 
                                                                                
