 2017  629 0414 58.6 L   6.760 -73.165151.5  RSN  5 0.3 1.3LRSN                1
 GAP=244        0.56       5.5     3.8  5.0  0.5381E+01  0.5005E+01  0.2494E+01E
 Epicentro: LOS SANTOS - SANTANDER                                             3
 ACTION:UPD 17-09-14 16:56 OP:jn   STATUS:               ID:20170629041458 L   I
 OLDACT:UP  17-06-29 14:53 OP:and  STATUS:               ID:20170629040744d    3
 OLDACT:UP  17-06-29 14:52 OP:and  STATUS:               ID:20170629040744d    3
 OLDACT:UP  17-06-29 14:51 OP:and  STATUS:               ID:20170629040744d    3
 OLDACT:DUP 17-06-29 14:48 OP:and  STATUS:               ID:20170629040744d    3
 2017-06-29-0408-00M.COL___370                                                 6
 STAT SP IPHASW D HRMM SECON CODA AMPLIT PERI AZIMU VELO AIN AR TRES W  DIS CAZ7
 BAR2 EZ EP        415 18.77                             173   -0.0210 18.6 186 
 BAR2 EZ ES        415 34.43                             173   -0.1410 18.6 186 
 BAR2 EZ I         415 34.78         6.7 0.38            165           18.6 186 
 BRR  HZ EP        415 20.49                             153    0.1410 71.6 302 
 BRR  HN ES        415 37.66                             153    0.3110 71.6 302 
 PTB  HZ EP        415 25.67                             134   -0.07 9  145 260 
 PTB  HN ES        415 46.67                             134   -0.27 9  145 260 
 PTB  HZ I         415 53.90         1.7 0.30            131            145 260 
 ZAR  HN ES        415 56.78                             124   -0.16 9  204 294 
 NOR  HZ EP   3    415 35.56                             120    1.39 2  230 235 
 NOR  HN ES   2    416  2.36                             120    0.41 4  230 235 
 NOR  HZ I         416  5.43         1.4 0.16            118            230 235 
                                                                                
