 2012  429 0251 44.7 L   6.736 -73.166156.9  RSN  4 0.3 1.2LRSN                1
 GAP=230        0.88       8.9     8.0 11.6  0.2947E+02 -0.2099E+02 -0.1932E+02E
 Epicentro: VILLANUEVA - SANTANDER                                             3
 ACTION:UPD 12-07-05 11:56 OP:tino STATUS:               ID:20120429025144 L   I
 2012-04-29-0250-00M.COL___189                                                 6
 STAT SP IPHASW D HRMM SECON CODA AMPLIT PERI AZIMU VELO AIN AR TRES W  DIS CAZ7
 BAR2 SZ EP   1    252  4.71                             174    -0.8 7   16 187 
 BRR  HZ EP        252  7.43                             154     0.310   73 304 
 BRR  HN ES   1    252 24.68                             154     0.1 7   73 304 
 BRR  HZ I         252 27.06         7.6 0.18                            73 304 
 RUS  HZ EP   1    252  9.35                             148     0.3 7   94 174 
 RUS  HN ES   1    252 28.20                             148     0.1 7   94 174 
 RUS  HZ I         252 29.24         1.0 0.16                            94 174 
 PTB  HZ EP   1    252 12.20                             135    -0.1 7  144 261 
 PTB  HN ES        252 33.66                             135    -0.1 9  144 261 
 PTB  HZ I         252 36.35         1.5 0.06                           144 261 
                                                                                
