 2015  929 0604 37.3 L   6.807 -73.154140.0  RSN 19 0.5 2.1LRSN                1
 GAP=135        1.22       2.9     4.1  5.6 -0.2582E+01  0.7568E+01  0.2647E+00E
 Epicentro: LOS SANTOS - SANTANDER                                             3
 ACTION:UPD 15-10-28 16:29 OP:cam  STATUS:               ID:20150929060437 L   I
 OLDACT:REG 15-09-29 12:41 OP:spq  STATUS:               ID:20150929055748     3
 2015-09-29-0557-48M.COL___352                                                 6
 STAT SP IPHASW D HRMM SECON CODA AMPLIT PERI AZIMU VELO AIN AR TRES W  DIS CAZ7
 BAR2 EZ EP        6 4 56.47                             170    0.2010 24.0 187 
 BAR2 EZ ES        6 5 11.02                             170   -0.0310 24.0 187 
 BAR2 EZ I         6 5 12.59        40.0 0.26            168           24.0 187 
 BRR  HZ IP     C  6 4 58.39                             152    0.6210 70.0 298 
 BRR  HN ES        6 5 14.56                             152    0.8310 70.0 298 
 BRR  HZ I         6 5 18.40        21.0 0.21            147           70.0 298 
 PAM  EZ EP        6 4 59.31                             150    0.3910 77.4  40 
 PAM  EN ES        6 5 16.25                             150    0.4810 77.4  40 
 PAM  EZ I         6 5 18.64        25.6 0.50            151           77.4  40 
 RUS  HZ EP        6 5  0.40                             142   -0.1710  101 176 
 RUS  HN ES        6 5 18.30                             142   -0.4010  101 176 
 RUS  HZ I         6 5 19.69         8.6 0.20            142            101 176 
 PTB  HZ EP        6 5  3.25                             131   -0.50 9  147 258 
 PTB  HN ES        6 5 23.81                             131   -0.56 9  147 258 
 PTB  HZ I         6 5 27.30        25.6 0.19            128            147 258 
 OCA  HZ EP        6 5  4.81                             128   -0.29 9  159 353 
 OCA  HN ES        6 5 25.82                             128   -0.95 9  159 353 
 OCA  HZ I         6 5 31.60        41.7 0.16            127            159 353 
 SPBC HZ EP        6 5  5.45                             128    0.07 9  163 219 
 SPBC HN ES        6 5 27.21                             128   -0.06 9  163 219 
 SPBC HZ I         6 5 29.39        14.3 0.19            125            163 219 
 ZAR  HZ EP        6 5  9.54                             121    0.27 9  203 292 
 ZAR  HN ES        6 5 34.55                             121    0.36 9  203 292 
 ZAR  HZ I         6 5 40.71        17.8 0.27            119            203 292 
 NOR  HZ EP        6 5 12.01                             117   -0.67 8  234 234 
 NOR  HN ES        6 5 39.80                             117   -0.47 8  234 234 
 NOR  HZ I         6 5 47.81         9.4 0.22            115            234 234 
 SML  HZ EP        6 5 13.05                             116   -0.45 8  243 335 
 SML  HN ES        6 5 40.97                             116   -0.76 8  243 335 
 CHI  HZ EP        6 5 14.30                             116   -0.46 8  249 195 
 CHI  HN ES        6 5 43.56                             116   -0.40 8  249 195 
 CHI  HZ I         6 5 53.59         4.6 0.40            115            249 195 
 ROSC BZ EP   4    6 5 16.89                             115    1.74 0  253 211 
 ROSC BN ES   4    6 5 47.60                             115    2.94 0  253 211 
 ROSC BZ I         6 5 52.70         8.0 0.45            114            253 211 
 HEL  HZ EP        6 5 17.88                             114    0.72 8  271 256 
 HEL  HE ES        6 5 48.96                             114    0.72 8  271 256 
 HEL  HZ I         6 5 55.77         8.2 0.40            112            271 256 
 URE  HZ EP   1    6 5 17.32                             112   -0.66 6  283 292 
 URE  HZ I         6 5 50.70         7.9 0.15            111            283 292 
 GUY2CHZ EP        6 5 21.42                             111    0.79 7  301 235 
 GUY2CHN ES        6 5 54.61                             111    0.20 7  301 235 
 GUY2CHZ I         6 6  6.58         3.7 0.44                           301 235 
 CBOC HZ EP        6 5 24.67                             109    0.75 7  333 252 
 CBOC HN ES        6 5 59.66                             109   -0.62 7  333 252 
 CBOC HZ I         6 6  4.15         2.2 0.15            107            333 252 
 ORTC HZ EP   1    6 5 30.82                             105   -0.23 4  396 216 
 ORTC HN ES        6 6 13.89                             105    0.92 6  396 216 
 ORTC HZ I         6 6 19.70         4.2 0.54            104            396 216 
 SJC  HZ EP   4    6 5 30.70                             105   -1.85 0  408 327 
 SJC  HN ES   4    6 6 11.57                             105   -4.07 0  408 327 
 SJC  HZ I         6 6 16.77         3.9 0.58            104            408 327 
 CRJC HZ EP        6 5 40.36                             102    0.79 5  467   4 
 CRJC HN ES   4    6 6 22.22                             102   -5.91 0  467   4 
                                                                                
