 2010  829 0553 33.4 L   6.809 -73.159147.8  RSN 10 0.3 1.9LRSN                1
 GAP=157        0.66       2.8     5.9  5.9 -0.5879E+01 -0.7302E+01  0.3974E+01E
 Epicentro: LOS SANTOS - SANTANDER                                             3
 ACTION:UP  10-09-07 10:59 OP:vdl  STATUS:               ID:20100829055333 L   I
 2010-08-29-0549-37S.COL___120                                                 6
 STAT SP IPHASW D HRMM SECON CODA AMPLIT PERI AZIMU VELO SNR AR TRES W  DIS CAZ7
 GIR2 SZ EP   2    553 53.18                             168    -0.1 5   30 353 
 BRR  HZ EP        553 55.06                                     0.410   69 298 
 BRR  HN ES        554 11.40                             154     0.110   69 298 
 BRR  HZ I         554 12.98        13.2 0.18                            69 298 
 RUS  HZ EP   1    553 57.41                             144    -0.1 7  102 175 
 RUS  HE ES   1    554 15.98                             144    -0.2 7  102 175 
 RUS  HZ I         554 17.45        12.8 0.20                           102 175 
 GUE  SZ EP   1    553 58.13                             140    -0.2 7  116  13 
 GRA  SZ IP        553 59.07                             138     0.310  125  18 
 GRA  SZ ES   1    554 18.63                             138     0.0 7  125  18 
 GRA  SZ I         554 19.79        15.0 0.29                           125  18 
 OCA  SZ EP   1    554  1.86                             130     0.1 7  159 354 
 OCA  SZ ES   1    554 23.22                             130    -0.7 7  159 354 
 OCA  SZ I         554 32.88         8.5 0.38                           159 354 
 CHI  HZ EP   2    554 10.96                             117    -0.3 4  249 195 
 CHI  HE ES   2    554 41.31                             117     0.5 4  249 195 
 CHI  HZ I         554 44.36         3.1 0.27                           249 195 
 HEL  HZ EP   3    554 13.62                             115     0.0 2  271 256 
 HEL  HZ I         554 51.60         3.9 0.51                           271 256 
 RREF HE ES   2    554 54.91                             111    -0.7 3  321 229 
 RREF HZ I         555  5.69         3.5 0.36                           321 229 
 PRA  HZ EP   1    554 26.82                             107    -0.2 4  392 209 
 PRA  HE ES   1    555  8.74                             107    -0.1 4  392 209 
 PRA  HZ I         555 14.28         2.5 0.17                           392 209 
                                                                                
