 2010  929 0042 55.2 L   6.618 -72.998173.8  RSN  7 0.2 1.8LRSN                1
 GAP=178        0.45       3.6     9.6  6.4  0.1047E+01 -0.2323E+02 -0.4311E+01E
 Epicentro: CURITI - SANTANDER                                                 3
 ACTION:UP  11-02-18 11:06 OP:tino STATUS:               ID:20100929004255 L   I
 2010-09-29-0040-25S.COL___125                                                 6
 STAT SP IPHASW D HRMM SECON CODA AMPLIT PERI AZIMU VELO SNR AR TRES W  DIS CAZ7
 BAR2 SZ EP   2    043 17.70                             173    -0.5 5   21 262 
 BAR2 SZ ES   2    043 35.88                             173    -0.2 5   21 262 
 BAR2 SZ I         043 37.25         8.2 0.83                            21 262 
 BTL  SZ EP        043 18.91                             165     0.210   45 318 
 RUS  HZ EP   1    043 20.84                             154     0.2 7   81 187 
 RUS  HE ES   2    043 40.36                             154    -0.2 5   81 187 
 RUS  HZ I         043 41.63         8.2 0.22                            81 187 
 BRR  HZ EP   2    043 20.78                             150     0.0 5   96 305 
 BRR  HE ES   2    043 40.97                             150     0.2 5   96 305 
 BRR  HZ I         043 45.05        15.8 0.34                            96 305 
 GUE  SZ EP   2    043 23.94                             141     0.0 5  134   3 
 GUE  SZ I         043 25.10         3.3 0.09                           134   3 
 GRA  SZ EP   1    043 24.33                             139     0.0 7  142   9 
 GRA  SZ ES   2    043 47.24                             139     0.2 5  142   9 
 GRA  SZ I         043 47.96         7.2 0.23                           142   9 
 OCA  SZ EP   2    043 27.44                             131    -0.4 4  183 349 
 OCA  SZ ES   2    043 53.08                             131    -0.2 4  183 349 
 OCA  SZ I         044  1.55         5.6 0.40                           183 349 
                                                                                
