 2016  829 0109  3.3 L   6.781 -73.109145.1  RSN  9 0.4 1.8LRSN                1
 GAP=186        0.96       3.4     5.3  5.8 -0.4123E+00  0.5127E+01  0.4283E+01E
 Epicentro: LOS SANTOS - SANTANDER                                             3
 ACTION:UPD 16-10-29 15:40 OP:rebc STATUS:               ID:20160829010903 L   I
 OLDACT:UP  16-08-29 13:27 OP:drio STATUS:               ID:20160829010729     3
 OLDACT:REG 16-08-29 12:41 OP:drio STATUS:               ID:20160829010729     3
 2016-08-29-0108-00M.COL___362                                                 6
 STAT SP IPHASW D HRMM SECON CODA AMPLIT PERI AZIMU VELO AIN AR TRES W  DIS CAZ7
 BAR2 EZ EP        1 9 22.84                             171   -0.0010 22.3 201 
 BAR2 EZ ES        1 9 38.29                             171    0.2110 22.3 201 
 BAR2 EZ I         1 9 40.54        15.2 0.30                          22.3 201 
 BRR  HZ EP        1 9 24.73                             151    0.0810 75.7 299 
 BRR  HN ES        1 9 41.81                             151    0.5110 75.7 299 
 BRR  HZ I         1 9 44.92         9.8 0.18                          75.7 299 
 RUS  HZ EP        1 9 26.86                             144    0.0310 98.2 178 
 RUS  HN ES        1 9 44.70                             144   -0.4710 98.2 178 
 RUS  HZ I         1 9 46.95         4.5 0.40                          98.2 178 
 PTB  HZ EP        1 9 29.83                             131   -0.72 9  151 260 
 PTB  HE ES        1 9 51.40                             131   -0.39 9  151 260 
 PTB  HZ I         1 9 53.13         5.4 0.16                           151 260 
 OCA  HN ES        1 9 53.95                             129   -0.11 9  163 352 
 SPBC HZ EP        1 9 31.68                             129   -0.17 9  164 221 
 SPBC HN ES        1 9 54.06                             129   -0.04 9  164 221 
 SPBC HZ I         1 9 57.11        10.7 0.10                           164 221 
 ZAR  HE ES   4    110  0.26                             122   -1.56 0  209 292 
 NOR  HZ EP        1 9 38.87                             118   -0.35 8  237 235 
 NOR  HE ES        110  7.43                             118    0.20 8  237 235 
 CHI  HZ EP        1 9 41.26                             117    0.40 8  248 196 
 CHI  HN ES        110 10.43                             117    0.27 8  248 196 
 CHI  HZ I         110 13.80         3.9 0.62                           248 196 
 GUY2CHZ EP        1 9 48.20                             112    1.08 7  303 236 
 GUY2CHE ES   4    110 24.72                             112    3.43 0  303 236 
 GUY2CHZ I         110 29.19         4.2 0.60                           303 236 
                                                                                
