 2015 1229 0207 48.2 L   6.731 -73.140136.0  RSN  4 0.4 1.5LRSN                1
 GAP=161        1.08       9.4     5.7  9.4 -0.1974E+02  0.2504E+02 -0.2191E+02E
 Epicentro: JORDAN - SANTANDER                                                 3
 ACTION:UPD 16-02-04 15:08 OP:cam  STATUS:               ID:20151229020748 L   I
 OLDACT:UP  15-12-29 15:59 OP:ak   STATUS:               ID:20151229015746     3
 OLDACT:REG 15-12-29 12:50 OP:ak   STATUS:               ID:20151229015746     3
 2015-12-29-0157-46M.COL___338                                                 6
 STAT SP IPHASW D HRMM SECON CODA AMPLIT PERI AZIMU VELO AIN AR TRES W  DIS CAZ7
 BAR2 EZ EP        2 8  6.90                             173    0.3910 16.0 197 
 BAR2 EZ ES        2 8 20.99                             173    0.2010 16.0 197 
 BAR2 EZ I         2 8 22.41         8.1 0.28            175           16.0 197 
 PAM  EZ EP        2 8  9.54                             147   -0.1910 83.0  36 
 PAM  EN ES        2 8 26.36                             147   -0.1810 83.0  36 
 PAM  EZ I         2 8 28.48         6.1 0.54            148           83.0  36 
 PTB  HZ EP        2 8 13.52                             130   -0.79 9  147 262 
 PTB  HN ES        2 8 34.56                             130   -0.13 9  147 262 
 PTB  HZ I         2 8 36.91         4.9 0.24            131            147 262 
 ZAR  HZ EP        2 8 21.24                             120    0.85 8  208 294 
 ZAR  HN ES        2 8 45.47                             120   -0.04 8  208 294 
 ZAR  HZ I         2 8 48.61         3.5 0.25            121            208 294 
                                                                                
