 2014 1029 0634 36.9 L   6.776 -73.153140.4  RSN  6 0.6 1.6LRSN                1
 GAP=137        1.50       6.9     7.3 10.3 -0.1227E+02  0.1089E+02  0.7832E+01E
 Epicentro: LOS SANTOS - SANTANDER                                             3
 ACTION:UPD 14-11-29 23:58 OP:nd   STATUS:               ID:20141029063436 L   I
 OLDACT:ARG 14-10-30 20:25 OP:stll STATUS:               ID:20141029062750     3
 2014-10-29-0627-50M.COL___271                                                 6
 STAT SP IPHASW D HRMM SECON CODA AMPLIT PERI AZIMU VELO AIN AR TRES W  DIS CAZ7
 BAR2 SZ EP        634 56.31                             171    0.5210 20.6 189 
 BAR2 SZ ES        635 10.98                             171    0.4310 20.6 189 
 BAR2 SZ I         635 12.39         8.1 0.16            170           20.6 189 
 BRR  HZ EP        634 57.74                             151    0.2810 71.8 301 
 BRR  HN ES        635 14.10                             151    0.5710 71.8 301 
 BRR  HZ I         635 19.37         5.8 0.16            150           71.8 301 
 PAM  SZ EP        634 59.03                             149    0.3710 80.0  39 
 PAM  SZ I         634 59.18        17.9 0.20            153           80.0  39 
 PAM  SN ES        635 14.80                             149   -0.8710 80.0  39 
 RUS  HZ EP        635  0.13                             143    0.2310 98.0 175 
 RUS  HN ES        635 17.27                             143   -0.6010 98.0 175 
 PTB  HZ EP        635  3.06                             131   -0.21 9  146 260 
 PTB  HN ES        635 22.91                             131   -0.96 9  146 260 
 PTB  HZ I         635 25.86         4.7 0.26            131            146 260 
 SPBC HZ EP        635  4.08                             128   -0.62 9  161 219 
 SPBC HN ES        635 27.16                             128    0.74 9  161 219 
 SPBC HZ I         635 33.86         4.7 0.38            129            161 219 
                                                                                
