 2013 1129 0633 11.0 L   6.771 -73.161145.2  RSN  5 0.4 1.4LRSN                1
 GAP=136        1.12       6.1     5.8  9.9 -0.4005E+01  0.4977E+01  0.7931E+01E
 Epicentro: LOS SANTOS - SANTANDER                                             3
 ACTION:UPD 14-01-09 16:31 OP:ep   STATUS:               ID:20131129063311 L   I
 OLDACT:REG 13-11-29 08:13 OP:mh   STATUS:               ID:20131129063000     3
 2013-11-29-0630-00M.COL___282                                                 6
 STAT SP IPHASW D HRMM SECON CODA AMPLIT PERI AZIMU VELO AIN AR TRES W  DIS CAZ7
 BAR2 SZ I         633 47.20         9.0 0.27            171           19.9 187 
 BRR  HZ EP        633 32.45                             152    0.4010 71.3 301 
 BRR  HN ES        633 49.11                             152    0.6010 71.3 301 
 BRR  HZ I         633 50.01         3.8 0.12            154           71.3 301 
 PAM  SZ EP        633 33.29                             150   -0.0410 80.9  39 
 PAM  SN ES        633 50.30                             150   -0.4810 80.9  39 
 RUS  HZ EP        633 34.94                             145    0.5010 97.5 175 
 RUS  HN ES        633 52.63                             145   -0.1210 97.5 175 
 RUS  HZ I         633 54.96         3.4 0.07            145           97.5 175 
 PTB  HZ EP        633 37.12                             132   -0.56 9  146 260 
 PTB  HN ES        633 58.09                             132   -0.43 9  146 260 
 PTB  HZ I         634  0.45         3.5 0.09            134            146 260 
                                                                                
