 2012  929 0055 52.7 L   6.796 -73.144144.1  RSN 14 0.5 2.7LRSN                1
 GAP=137        0.94       3.7     4.0  5.7 -0.2386E+01  0.5955E+01  0.7516E+01E
 Epicentro: LOS SANTOS - SANTANDER                                             3
 ACTION:UPD 12-10-22 14:21 OP:ep   STATUS:               ID:20120929005552 L   I
 2012-09-29-0050-00M.COL___220                                                 6
 STAT SP IPHASW D HRMM SECON CODA AMPLIT PERI AZIMU VELO AIN AR TRES W  DIS CAZ7
 BAR2 SZ IP        056 12.00                             171   -0.1510 22.9 191 
 BAR2 SZ ES   1    056 27.55                             171    0.25 7 22.9 191 
 BAR2 SZ I         056 28.36       182.1 0.11                          22.9 191 
 GIR2 SZ EP   1    056 12.09                             167   -0.13 7 31.8 350 
 GIR2 SZ ES   1    056 27.72                             167    0.30 7 31.8 350 
 BRR  HZ EP        056 13.97                             152    0.2510 71.6 299 
 BRR  HN ES   1    056 30.78                             152    0.69 7 71.6 299 
 BRR  HZ I         056 32.16        56.8 0.13                          71.6 299 
 PAM  SZ EP        056 14.94                             150    0.1510 77.7  39 
 PAM  SN ES        056 31.88                             150   -0.1110 77.7  39 
 RUS  HZ EP        056 16.00                             144   -0.2810  100 176 
 RUS  HN ES   1    056 34.10                             144   -0.55 7  100 176 
 PTB  HN ES        056 39.56                             131   -0.94 9  148 259 
 ZAR  HZ EP   1    056 24.63                             122   -0.47 6  204 292 
 ZAR  HN ES   1    056 50.36                             122    0.01 6  204 292 
 ZAR  HN I         056 56.53        68.0 0.23                           204 292 
 NOR  SZ EP   1    056 28.48                             118    0.14 6  235 235 
 NOR  SN ES        056 56.39                             118    0.26 8  235 235 
 NOR  SN I         057  1.44        72.6 0.18                           235 235 
 CHI  HZ EP        056 30.24                             117   -0.05 8  248 195 
 CHI  HN ES        056 59.65                             117    0.06 8  248 195 
 CHI  HZ I         057  6.64        14.9 0.46                           248 195 
 ROSC BZ EP   1    056 31.89                             116    1.17 6  252 211 
 ROSC BZ I         057  8.21        20.7 0.30                           252 211 
 HEL  HZ EP   1    056 33.31                             114    0.45 6  272 256 
 HEL  HZ I         057 11.08        15.9 0.32                           272 256 
 RREF HZ EP   1    056 39.26                             110    0.48 5  322 229 
 RREF HN ES   1    057 14.97                             110    0.28 5  322 229 
 RREF HZ I         057 24.39        18.6 0.24                           322 229 
 DBB  SZ EP   1    056 39.78                             109   -0.38 5  340 274 
 PRA  HZ EP   1    056 44.93                             106   -1.22 4  392 210 
 PRA  HN ES   1    057 28.80                             106    0.98 4  392 210 
 PRA  HN I         057 33.98        16.1 0.36                           392 210 
 PRA  HZ I         057 34.22        15.3 0.31                           392 210 
                                                                                
