 2013  729 0954 59.7 L   6.756 -73.160155.5  RSN  5 0.4 1.7LRSN                1
 GAP=232        0.91       8.5     7.9  8.9  0.3978E+02  0.8644E+01 -0.1908E+02E
 Epicentro: LOS SANTOS - SANTANDER                                             3
 ACTION:UPD 13-08-12 10:40 OP:ep   STATUS:               ID:20130729095459 L   I
 OLDACT:REG 13-07-29 07:52 OP:carl STATUS:               ID:20130729094959     3
 2013-07-29-0949-59M.COL___268                                                 6
 STAT SP IPHASW D HRMM SECON CODA AMPLIT PERI AZIMU VELO AIN AR TRES W  DIS CAZ7
 BAR2 SZ EP        955 20.34                             173   -0.0210 18.3 188 
 BAR2 SZ ES   1    955 36.01                             173   -0.51 7 18.3 188 
 BAR2 SZ I         955 36.69         8.4 0.24            170           18.3 188 
 BRR  HZ EP        955 22.20                             154    0.2910 72.3 302 
 BRR  HN ES   1    955 39.19                             154   -0.09 7 72.3 302 
 BRR  HN I         955 39.62        16.7 0.32            152           72.3 302 
 RUS  HN ES        955 43.37                             147    0.2910 95.9 175 
 RUS  HN I         955 44.62         6.1 0.42            146           95.9 175 
 PTB  HZ EP        955 27.23                             135    0.02 9  145 261 
 PTB  HN ES   1    955 48.22                             135   -0.49 7  145 261 
 PTB  HZ I         955 49.98         4.0 0.42            133            145 261 
 ZAR  HZ EP   1    955 31.83                             124   -0.96 6  204 294 
 ZAR  HE ES        955 59.19                             124    0.56 9  204 294 
 ZAR  HZ I         956  4.26         3.0 0.46            123            204 294 
                                                                                
