 2016 1129 0456 59.4 L   6.676 -73.118147.6  RSN  5 0.4 1.2LRSN                1
 GAP=185        0.66       8.1     4.8  8.7  0.3243E+01 -0.6969E+01  0.2090E+02E
 Epicentro: VILLANUEVA - SANTANDER                                             3
 ACTION:UPD 17-10-26 21:12 OP:lp   STATUS:               ID:20161129045659 L   I
 OLDACT:UP  16-11-29 15:38 OP:dani STATUS:               ID:20161129044750d    3
 OLDACT:UP  16-11-29 15:38 OP:dani STATUS:               ID:20161129044750d    3
 OLDACT:UP  16-11-29 15:37 OP:dani STATUS:               ID:20161129044750d    3
 OLDACT:DUP 16-11-29 15:24 OP:dani STATUS:               ID:20161129044750d    3
 OLDACT:UP  16-11-29 15:23 OP:dani STATUS:               ID:20161129044749d    3
 OLDACT:UP  16-11-29 15:23 OP:dani STATUS:               ID:20161129044749d    3
 OLDACT:UP  16-11-29 15:22 OP:dani STATUS:               ID:20161129044749d    3
 OLDACT:DUP 16-11-29 15:20 OP:dani STATUS:               ID:20161129044749d    3
 2016-11-29-0448-00M.COL___346                                                 6
 STAT SP IPHASW D HRMM SECON CODA AMPLIT PERI AZIMU VELO AIN AR TRES W  DIS CAZ7
 BAR2 EZ EP        457 19.42                             175    0.3610 11.7 217 
 BRR  HZ EP        457 21.36                             150    0.0510 81.1 306 
 BRR  HE ES        457 38.51                             150    0.0910 81.1 306 
 BRR  HZ I         457 42.82         2.7 0.15            149           81.1 306 
 PAM  EZ EP   2    457 21.51                             148   -0.86 5 86.7  32 
 PTB  HZ EP        457 26.59                             133   -0.00 9  149 264 
 PTB  HN ES        457 47.49                             133   -0.32 9  149 264 
 PTB  HZ I         457 53.71         1.2 0.24            133            149 264 
 ZAR  HZ EP   3    457 33.73                             122    0.93 2  212 295 
 ZAR  HE ES        457 58.82                             122   -0.05 8  212 295 
 ZAR  HZ I         458  3.95         2.0 0.31            123            212 295 
                                                                                
