 2012  529 0045  6.4 L   6.651 -73.209143.8  RSN  4 0.2 1.4LRSN                1
 GAP=218        0.50       9.0     6.0 10.9  0.4178E+02 -0.2380E+02 -0.5860E+02E
 Epicentro: BARICHARA - SANTANDER                                              3
 ACTION:UP  12-07-05 12:08 OP:pat  STATUS:               ID:20120529004506 L   I
 2012-05-29-0040-00M.COL___201                                                 6
 STAT SP IPHASW D HRMM SECON CODA AMPLIT PERI AZIMU VELO AIN AR TRES W  DIS CAZ7
 BAR2 SZ EP   1    045 25.40                             177    -0.2 7    7 155 
 BAR2 SZ I         045 41.70         5.6 0.28                             7 155 
 RUS  HZ EP   1    045 29.18                             148     0.3 7   85 171 
 RUS  HN ES   1    045 46.47                             148     0.0 7   85 171 
 PTB  HZ EP   1    045 32.20                             133    -0.2 7  138 265 
 PTB  HN ES   1    045 52.57                             133    -0.1 7  138 265 
 PTB  HZ I         045 57.51         2.1 0.13                           138 265 
 ZAR  HZ I         045 46.59         4.1 0.09                           205 297 
 ZAR  HN ES   1    046  4.26                             122     0.2 6  205 297 
                                                                                
