 2011 1029 0822 21.4 L   6.780 -73.088142.7  RSN  4 0.3 1.3LRSN                1
 GAP=145        0.74       4.9     7.1  8.8 -0.8374E+00 -0.3310E+01  0.6304E+01E
 Epicentro: LOS SANTOS - SANTANDER                                             3
 ACTION:UPD 12-07-13 16:06 OP:ep   STATUS:               ID:20111029082221 L   I
 2011-10-29-0820-50S.COL___176                                                 6
 STAT SP IPHASW D HRMM SECON CODA AMPLIT PERI AZIMU VELO AIN AR TRES W  DIS CAZ7
 BAR2 SZ EP        822 40.11                             170   -0.6010 23.3 207 
 PAM  SZ EP        822 43.44                             151    0.2310 75.3  35 
 PAM  SN ES   1    823  0.11                             151   -0.08 7 75.3  35 
 BRR  HZ EP        822 42.65                             150   -0.0110 77.9 298 
 BRR  HN ES   1    822 59.42                             150    0.21 7 77.9 298 
 BRR  HZ I         823  4.85         4.8 0.14                          77.9 298 
 RUS  HZ EP        822 45.00                             144    0.2810 98.1 180 
 RUS  HN ES   1    823  2.93                             144    0.06 7 98.1 180 
 RUS  HZ I         823  4.61         2.3 0.38                          98.1 180 
                                                                                
