 2014 1029 0616 31.6 L   6.788 -73.149144.4  RSN  5 0.3 1.1LRSN                1
 GAP=137        0.77       3.7     3.9  6.3 -0.3744E+01  0.1975E+01  0.4274E+01E
 Epicentro: LOS SANTOS - SANTANDER                                             3
 ACTION:UPD 14-11-29 23:58 OP:nd   STATUS:               ID:20141029061631 L   I
 OLDACT:ARG 14-10-30 20:24 OP:stll STATUS:               ID:20141029060738     3
 2014-10-29-0607-38M.COL___274                                                 6
 STAT SP IPHASW D HRMM SECON CODA AMPLIT PERI AZIMU VELO AIN AR TRES W  DIS CAZ7
 BRR  HZ EP        616 53.04                             152    0.4210 71.5 300 
 BRR  HN ES        617  9.35                             152    0.3410 71.5 300 
 PAM  SZ EP        616 53.95                             150    0.2010 78.7  39 
 PAM  SZ I         616 54.15         3.5 0.22            155           78.7  39 
 PAM  SN ES        617 10.61                             150   -0.4110 78.7  39 
 RUS  HZ EP        616 55.15                             144    0.0310 99.2 176 
 RUS  HN ES        617 13.47                             144    0.0110 99.2 176 
 RUS  HZ I         617 14.91         0.9 0.28            144           99.2 176 
 PTB  HZ EP        616 58.00                             132   -0.40 9  147 259 
 PTB  HN ES        617 18.93                             132   -0.37 9  147 259 
 PTB  HZ I         617 26.37         1.8 0.50            131            147 259 
 SPBC HZ EP        616 59.76                             129   -0.11 9  162 219 
 SPBC HN ES        617 22.10                             129    0.18 9  162 219 
 SPBC HZ I         617 27.90         1.5 0.12            128            162 219 
                                                                                
