 2010  729 0829  2.3 L   6.790 -73.086142.7  RSN 11 0.4 2.5LRSN                1
 GAP=163        1.06       4.1     9.8  7.3 -0.9874E+01 -0.9634E+01 -0.8637E+00E
 Epicentro: LOS SANTOS - SANTANDER                                             3
 ACTION:UPD 10-12-01 15:20 OP:pat  STATUS:               ID:20100729082902 L   I
 2010-07-29-0827-11S.COL___123                                                 6
 STAT SP IPHASW D HRMM SECON CODA AMPLIT PERI AZIMU VELO AIN AR TRES W  DIS CAZ7
 BAR2 SZ IP        829 21.71                             170     0.110   24 206 
 BAR2 SZ ES   1    829 36.58                             170    -0.1 7   24 206 
 BAR2 SZ I         829 37.36       121.3 0.28                            24 206 
 GIR2 SZ IP        829 21.83                             166     0.110   34 340 
 GIR2 SZ ES   1    829 37.02                             166     0.2 7   34 340 
 BRR  HZ IP     C  829 23.61                             150     0.110   78 297 
 BRR  HZ I         829 23.97       150.5 0.10                            78 297 
 BRR  HN ES   1    829 40.28                             150     0.2 7   78 297 
 RUS  HZ EP        829 25.70                             144     0.010   99 180 
 RUS  HE ES   1    829 43.68                             144    -0.2 7   99 180 
 RUS  HZ I         829 45.19        35.9 0.46                            99 180 
 BRI  SZ IP        829 26.51                             141     0.710  107  17 
 GUE  SZ EP        829 25.82                             139    -0.910  116   9 
 GUE  SZ I         829 26.71        22.2 0.08                           116   9 
 GRA  SZ IP        829 27.72                             136     0.510  125  14 
 GRA  SZ ES   1    829 46.61                             136    -0.1 7  125  14 
 GRA  SZ I         829 49.38        40.1 0.46                           125  14 
 OCA  SZ IP        829 30.46                             129    -0.1 9  162 351 
 OCA  SZ ES   1    829 51.95                             129    -0.7 7  162 351 
 OCA  SZ I         829 56.03        49.0 0.19                           162 351 
 CHI  HZ EP   2    829 39.76                             116    -0.2 4  249 197 
 CHI  HE ES   2    830  8.72                             116    -0.6 4  249 197 
 CHI  HZ I         830 14.65         7.7 0.35                           249 197 
 HEL  HZ EP   2    829 43.65                             114     0.6 4  278 256 
 HEL  HZ I         830 22.77        12.0 0.64                           278 256 
 PRA  HZ EP   2    829 55.47                             106    -0.6 3  394 210 
 PRA  HN ES   2    830 37.87                             106     0.0 3  394 210 
 PRA  HZ I         830 43.44        10.0 0.60                           394 210 
                                                                                
