 2016 1129 0812 36.4 L   6.739 -73.150142.0  RSN  5 0.4 1.3LRSN                1
 GAP=155        1.04       8.5     4.9  7.6 -0.8998E+01  0.1075E+02 -0.3109E+01E
 Epicentro: LOS SANTOS - SANTANDER                                             3
 ACTION:UPD 17-10-26 21:12 OP:lp   STATUS:               ID:20161129081236 L   I
 OLDACT:REG 16-11-29 12:58 OP:dani STATUS:               ID:20161129080745     3
 2016-11-29-0808-00M.COL___346                                                 6
 STAT SP IPHASW D HRMM SECON CODA AMPLIT PERI AZIMU VELO AIN AR TRES W  DIS CAZ7
 BAR2 EZ EP        812 55.70                             173    0.1910 16.6 192 
 BAR2 EZ ES        813 10.17                             173   -0.2010 16.6 192 
 BAR2 EZ I         813 13.86         5.6 0.40            173           16.6 192 
 BRR  HZ EP        812 57.47                             151    0.1010 74.2 303 
 BRR  HN ES        813 14.43                             151    0.7510 74.2 303 
 BRR  HZ I         813 18.23         3.1 0.14            150           74.2 303 
 PAM  EZ EP        812 58.57                             148   -0.0410 83.0  37 
 PAM  EN ES        813 15.60                             148   -0.3010 83.0  37 
 PAM  EZ I         813 16.14         2.4 0.18            151           83.0  37 
 PTB  HZ EP        813  2.64                             131   -0.32 9  146 261 
 PTB  HN ES        813 23.56                             131   -0.08 9  146 261 
 PTB  HZ I         813 25.63         2.0 0.12            133            146 261 
 ZAR  HZ EP        813  9.44                             121    0.56 8  206 294 
 ZAR  HE ES        813 33.39                             121   -0.78 8  206 294 
 ZAR  HZ I         813 39.41         2.6 0.40            123            206 294 
                                                                                
