 2012  929 0328  1.1 L   6.785 -73.174144.0  RSN  7 0.5 1.9LRSN                1
 GAP=134        1.10       5.5     5.5  9.1  0.9037E+00 -0.2417E+01  0.1229E+02E
 Epicentro: LOS SANTOS - SANTANDER                                             3
 ACTION:UPD 12-10-22 14:21 OP:ep   STATUS:               ID:20120929032801 L   I
 2012-09-29-0320-00M.COL___220                                                 6
 STAT SP IPHASW D HRMM SECON CODA AMPLIT PERI AZIMU VELO AIN AR TRES W  DIS CAZ7
 BAR2 SZ EP        328 20.30                             171   -0.1610 21.3 183 
 BAR2 SZ ES   1    328 35.02                             171   -0.56 7 21.3 183 
 BAR2 SZ I         328 36.34        28.1 0.26                          21.3 183 
 BRR  HZ EP        328 22.13                             153    0.1910 69.3 301 
 BRR  HN ES        328 39.15                             153    0.9510 69.3 301 
 BRR  HN I         328 39.71        45.8 0.20                          69.3 301 
 BRR  HZ I         328 40.02        15.0 0.12                          69.3 301 
 PAM  SZ EP        328 23.25                             150   -0.0610 80.7  40 
 PAM  SN ES   1    328 40.23                             150   -0.42 7 80.7  40 
 PAM  SN I         328 41.75        13.4 0.18                          80.7  40 
 PAM  SZ I         328 42.45        13.6 0.46                          80.7  40 
 RUS  HZ EP        328 24.40                             144   -0.1610 99.2 174 
 RUS  HN ES   1    328 43.32                             144    0.45 7 99.2 174 
 RUS  HZ I         328 44.51         4.7 0.30                          99.2 174 
 PTB  HE ES        328 47.54                             132   -0.74 9  144 259 
 PTB  HN I         328 53.30         7.7 0.46                           144 259 
 ZAR  HN ES   1    328 58.02                             122   -0.20 6  202 293 
 CHI  HZ EP   1    328 38.82                             117    0.40 6  246 195 
 CHI  HZ I         328 40.19         1.6 0.10                           246 195 
 CHI  HN ES   1    329  7.88                             117    0.34 6  246 195 
 CHI  HN I         329 10.72        10.2 0.31                           246 195 
                                                                                
