 2014  529 0955 38.3 L   6.731 -73.149126.8  RSN  4 0.2 1.4LRSN                1
 GAP=157        0.63       7.6     4.9  6.0 -0.2705E+02  0.1373E+02 -0.1493E+02E
 Epicentro: JORDAN - SANTANDER                                                 3
 ACTION:UPD 15-03-16 17:01 OP:nd   STATUS:               ID:20140529095538 L   I
 OLDACT:REG 14-05-29 13:49 OP:stll STATUS:               ID:20140529094816     3
 2014-05-29-0948-16M.COL___247                                                 6
 STAT SP IPHASW D HRMM SECON CODA AMPLIT PERI AZIMU VELO AIN AR TRES W  DIS CAZ7
 BAR2 SZ EP        955 55.51                             173   -0.0010 15.8 193 
 BAR2 SZ ES        956  9.03                             173    0.0910 15.8 193 
 BAR2 SZ I         956 11.43         6.2 0.12            161           15.8 193 
 BRR  HZ EP        955 58.13                             147    0.4610 74.8 304 
 BRR  HZ I         956 17.90         7.1 0.28            130           74.8 304 
 PAM  SZ EP        955 58.72                             145   -0.2510 83.6  36 
 PAM  SN ES        956 15.02                             145   -0.0610 83.6  36 
 PAM  SZ I         956 17.43        10.3 0.38            134           83.6  36 
 PTB  HZ EP        956  3.62                             128   -0.01 9  146 262 
 PTB  HN ES        956 23.13                             128   -0.26 9  146 262 
 PTB  HZ I         956 29.48         2.4 0.40            118            146 262 
                                                                                
