 2011  729 0653 21.0 L   6.833 -73.106145.4  RSN 17 0.4 3.3LRSN                1
 GAP=128        0.60       2.5     3.4  3.6 -0.3326E+01  0.4403E+00  0.3145E+01E
 Epicentro: LOS SANTOS - SANTANDER                                             3
 ACTION:UPD 12-07-25 14:04 OP:epov STATUS:               ID:20110729065321 L   I
 2011-07-29-0651-46S.COL___138                                                 6
 STAT SP IPHASW D HRMM SECON CODA AMPLIT PERI AZIMU VELO AIN AR TRES W  DIS CAZ7
 BAR2 SZ IP        653 40.59                             169   -0.0810 27.9 198 
 BAR2 SZ I         653 40.91       251.9 0.10                          27.9 198 
 BAR2 SZ ES   1    653 56.04                             169    0.02 7 27.9 198 
 PAM  SZ EP        653 43.13                             152    0.2910 71.8  39 
 PAM  SE ES   1    653 59.81                             152   -0.07 7 71.8  39 
 BRR  HZ EP        653 42.38                             152    0.1610 73.5 294 
 BRR  HE ES        653 58.70                             152   -0.0910 73.5 294 
 BRR  HZ I         654  0.11       640.9 0.15                          73.5 294 
 BRI  SZ IP        653 44.72                             143    0.2510  104  19 
 BRI  SZ ES   1    654  3.20                             143    0.41 7  104  19 
 RUS  HZ IP     C  653 44.67                             143   -0.2810  104 179 
 RUS  HN ES   2    654  3.05                             143   -0.59 5  104 179 
 RUS  HZ I         654  5.94        99.6 0.23                           104 179 
 OCA  SZ EP   1    653 48.55                             130   -0.43 7  157 351 
 OCA  SZ ES   2    654  9.95                             130   -0.87 5  157 351 
 OCA  SZ I         654 11.84       283.0 0.35                           157 351 
 CHI  HZ EP   1    653 59.19                             116    0.02 6  253 196 
 CHI  HN ES   2    654 29.37                             116    0.42 4  253 196 
 CHI  HZ I         654 36.43        81.0 0.60                           253 196 
 ROSC BZ EP   2    653 59.67                             116    0.00 4  258 211 
 ROSC BN ES   2    654 29.66                             116   -0.19 4  258 211 
 ROSC BZ I         654 36.77       191.0 0.33                           258 211 
 HEL  HZ EP   2    654  2.16                             114    0.41 4  277 255 
 HEL  HN ES   2    654 32.86                             114   -0.69 4  277 255 
 VIL  SZ EP   1    654  4.87                             112   -0.02 5  308 192 
 VIL  SN ES   2    654 39.31                             112    0.18 4  308 192 
 VIL  SZ I         654 45.29        68.9 0.46                           308 192 
 GUY  SZ EP   2    654  6.10                             112    0.62 4  309 235 
 GUY  SN ES   2    654 40.71                             112    0.52 4  309 235 
 GUY  SZ I         654 46.04       149.0 0.54                           309 235 
 RREF HZ EP   2    654  8.01                             110    0.25 3  327 229 
 RREF HN ES   2    654 44.43                             110    0.19 3  327 229 
 RREF HZ I         654 51.23       121.7 0.21                           327 229 
 DBB  SZ EP   1    654  8.58                             109   -0.34 5  344 274 
 TOL  SZ EP        654 10.60                             109    0.72 6  349 225 
 SDV  BZ EP   1    654  9.71                             108   -0.64 5  355  50 
 SDV  BZ I         654 10.54        48.9 0.53                           355  50 
 PRA  HZ EP   1    654 14.50                             106   -0.62 4  397 210 
 PRA  HN ES   2    654 57.32                             106   -0.02 3  397 210 
 SJA  SZ EP   1    654 15.63                             106   -0.43 4  405 193 
                                                                                
