 2017 1129 0453 26.6 L   6.814 -73.166142.2  RSN 10 0.5 1.4LRSN                1
 GAP=110        0.94       4.0     3.7  6.1  0.2628E+01  0.4887E+01  0.6207E+00E
 Epicentro: LOS SANTOS - SANTANDER                                             3
 ACTION:UPD 17-12-12 20:01 OP:rebc STATUS:               ID:20171129045326 L   I
 OLDACT:REG 17-11-29 12:22 OP:dhb  STATUS:               ID:20171129044746     3
 2017-11-29-0448-00M.COL___492                                                 6
 STAT SP IPHASW D HRMM SECON CODA AMPLIT PERI AZIMU VELO AIN AR TRES W  DIS CAZ7
 BAR2 EZ EP        453 45.69                             170   -0.1510 24.6 184 
 BAR2 EZ ES        454  0.71                             170   -0.1310 24.6 184 
 BAR2 EZ I         454  2.02         6.1 0.14            169           24.6 184 
 PAM  EZ EP        453 48.99                             150    0.5210 77.7  42 
 PAM  EZ I         454 22.90         5.0 0.40            130           77.7  42 
 RUS  HZ EP        453 49.92                             143   -0.2310  102 175 
 RUS  HN ES        454  8.88                             143    0.3810  102 175 
 RUS  HZ I         454  9.57         4.1 0.22            142            102 175 
 PTB  HZ EP        453 52.33                             132   -0.79 9  146 258 
 PTB  HE ES        454 14.19                             132    0.40 9  146 258 
 PTB  HZ I         454 15.11         2.0 0.50            128            146 258 
 SPBC HZ EP        453 54.76                             128   -0.07 9  163 218 
 SPBC HE ES        454 16.89                             128    0.06 9  163 218 
 SPBC HZ I         454 20.95         3.6 0.10            127            163 218 
 YPLC HN ES        454 19.45                             126   -0.18 9  179 151 
 YPLC HZ I         454 23.84         2.9 0.46            119            179 151 
 ZAR  HE ES        454 23.28                             122   -0.18 9  201 292 
 ZAR  HZ I         454 29.05         3.0 0.42            114            201 292 
 NOR  HZ EP        454  1.97                             118   -0.07 8  234 234 
 NOR  HN ES        454 29.70                             118    0.03 8  234 234 
 NOR  HZ I         454 37.64         2.0 0.18            114            234 234 
 CHI  HZ EP        454  4.69                             116    0.47 8  250 195 
 CHI  HE ES        454 32.90                             116   -0.65 8  250 195 
 CHI  HZ I         454 35.86         1.7 0.34            112            250 195 
 GUY2CHZ EP        454 10.50                             112    0.55 7  300 234 
 GUY2CHE ES   3    454 46.11                             112    2.35 2  300 234 
 GUY2CHZ I         454 51.02         1.3 0.50                           300 234 
                                                                                
