 2015 1129 0225  7.4 L   6.844 -73.133144.7  RSN 11 0.4 1.8LRSN                1
 GAP=136        0.98       3.2     3.9  5.4 -0.1069E+01  0.8815E+01  0.8129E-01E
 Epicentro: LOS SANTOS - SANTANDER                                             3
 ACTION:UPD 15-12-28 16:14 OP:cam  STATUS:               ID:20151129022507 L   I
 OLDACT:REG 15-11-29 12:30 OP:ak   STATUS:               ID:20151129021740     3
 2015-11-29-0217-40M.COL___307                                                 6
 STAT SP IPHASW D HRMM SECON CODA AMPLIT PERI AZIMU VELO AIN AR TRES W  DIS CAZ7
 BAR2 EZ EP        225 27.05                             168   -0.0010 28.4 191 
 BAR2 EZ ES        225 42.62                             168    0.2710 28.4 191 
 BAR2 EZ I         225 44.91        10.0 0.46            169           28.4 191 
 BRR  HZ EP        225 28.95                             153    0.5310 70.2 294 
 BRR  HN ES        225 44.93                             153    0.1510 70.2 294 
 BRR  HZ I         225 51.67         6.6 0.16            151           70.2 294 
 PAM  EZ EP   2    225 29.04                             152   -0.23 5 72.8  41 
 PAM  EN ES        225 46.60                             152    0.3010 72.8  41 
 PAM  EZ I         225 48.61         8.3 0.22            156           72.8  41 
 RUS  HZ EP        225 31.16                             142   -0.2710  105 177 
 RUS  HN ES        225 50.02                             142   -0.1410  105 177 
 RUS  HZ I         225 51.43         6.6 0.40            146            105 177 
 PTB  HZ EP        225 34.57                             131    0.04 9  150 257 
 PTB  HN ES        225 55.25                             131   -0.42 9  150 257 
 PTB  HZ I         225 57.10         8.2 0.26            132            150 257 
 SPBC HZ EP        225 36.18                             128   -0.12 9  168 218 
 SPBC HN ES        225 57.93                             128   -0.88 9  168 218 
 SPBC HZ I         226  4.19        14.3 0.28            130            168 218 
 ZAR  HZ EP   2    225 39.98                             122    0.22 4  204 291 
 ZAR  HN ES        226  4.70                             122   -0.27 9  204 291 
 ZAR  HZ I         226 10.77         6.1 0.29            124            204 291 
 SML  HZ EP        225 42.99                             118   -0.59 8  240 335 
 SML  HN ES        226 11.49                             118   -0.29 8  240 335 
 SML  HZ I         226 15.63        13.0 0.09            120            240 335 
 HEL  HZ EP        225 47.54                             114   -0.34 8  275 255 
 HEL  HN ES        226 19.78                             114    0.36 8  275 255 
 HEL  HZ I         226 26.35         3.6 0.26            116            275 255 
 GUY2CHZ EP        225 52.20                             112    0.76 7  305 234 
 GUY2CHN ES        226 26.73                             112    0.96 7  305 234 
 GUY2CHZ I         226 32.44         3.4 0.26                           305 234 
 CBOC HZ EP        225 55.25                             109    0.62 7  336 251 
 CBOC HN ES        226 31.30                             109   -0.14 7  336 251 
 CBOC HZ I         226 37.63         1.3 0.58            112            336 251 
                                                                                
