 2012  729 0825 26.8 L   6.694 -73.210150.0  RSN  4 0.3 1.7LRSN                1
 GAP=215        0.79      10.1    11.3  9.4  0.7310E+02  0.2587E+02  0.2703E+02E
 Epicentro: VILLANUEVA - SANTANDER                                             3
 ACTION:UPD 12-08-14 11:46 OP:ep   STATUS:               ID:20120729082526 L   I
 2012-07-29-0820-00M.COL___215                                                 6
 STAT SP IPHASW D HRMM SECON CODA AMPLIT PERI AZIMU VELO AIN AR TRES W  DIS CAZ7
 BAR2 SZ EP        825 46.46                             175    -0.310   12 165 
 BAR2 SZ ES   2    826  1.77                             175    -0.6 5   12 165 
 BAR2 SZ I         826  3.36        13.2 0.24            165             12 165 
 BRR  HZ EP        825 48.62                             153     0.110   72 309 
 BRR  HN ES   1    826  5.72                             153     0.4 7   72 309 
 BRR  HZ I         826  7.41        11.4 0.14            149             72 309 
 RUS  HZ EP        825 50.58                             148     0.310   90 171 
 RUS  HN ES   2    826  8.75                             148     0.2 5   90 171 
 RUS  HZ I         826 10.40         6.4 0.24            145             90 171 
 PTB  HZ EP        825 53.15                             135    -0.2 9  139 263 
 PTB  HE ES   3    826 13.85                             135    -0.2 2  139 263 
 PTB  HZ I         826 20.31         4.2 0.30            130            139 263 
