 2012  829 0913 48.2 L   6.682 -73.195142.0  RSN  4 0.4 1.2LRSN                1
 GAP=172        0.60      12.0     6.3 10.3 -0.1806E+02 -0.1668E+02  0.6984E+02E
 Epicentro: VILLANUEVA - SANTANDER                                             3
 ACTION:UPD 12-09-10 11:59 OP:ep   STATUS:               ID:20120829091348 L   I
 2012-08-29-0910-00M.COL___218                                                 6
 STAT SP IPHASW D HRMM SECON CODA AMPLIT PERI AZIMU VELO AIN AR TRES W  DIS CAZ7
 BAR2 SZ EP        914  7.33                             175    0.1610 10.0 172 
 BAR2 SZ I         914 23.61         6.5 0.20                          10.0 172 
 GIR2 SZ ES   3    914 21.61                             163   -1.54 2 43.9   0 
 BRR  HZ EP        914  9.01                             152   -0.0910 74.0 309 
 BRR  HZ I         914 10.55         3.9 0.10                          74.0 309 
 BRR  HN ES   1    914 25.68                             152    0.27 7 74.0 309 
 PTB  HZ EP        914 13.99                             134   -0.20 9  140 264 
 PTB  HN ES   1    914 34.55                             134    0.09 7  140 264 
 PTB  HZ I         914 39.96         1.3 0.34                           140 264 
                                                                                
