 2012 1129 0706 42.8 L   6.812 -73.199130.5  RSN  7 0.5 1.7LRSN                1
 GAP=129        1.13       3.8     5.0  9.3 -0.7511E+00  0.1611E+02  0.1393E+01E
 Epicentro: ZAPATOCA - SANTANDER                                               3
 ACTION:UPD 12-12-05 15:37 OP:}ep  STATUS:               ID:20121129070642 L   I
 2012-11-29-0700-00M.COL___236                                                 6
 STAT SP IPHASW D HRMM SECON CODA AMPLIT PERI AZIMU VELO AIN AR TRES W  DIS CAZ7
 BAR2 SZ EP        7 7  0.63                             169   -0.0410 24.4 176 
 BAR2 SZ ES        7 7 14.44                             169   -0.1310 24.4 176 
 BAR2 SZ I         7 7 16.51        17.3 0.34                          24.4 176 
 PAM  SZ EP        7 7  3.33                             147   -0.3310 80.3  43 
 PAM  SN ES        7 7 20.16                             147    0.2710 80.3  43 
 PAM  SN I         7 7 21.27        16.2 0.46                          80.3  43 
 RUS  HZ EP        7 7  5.32                             140    0.0410  102 173 
 RUS  HN ES        7 7 22.78                             140    0.0110  102 173 
 RUS  HN I         7 7 24.82         5.7 0.36                           102 173 
 PTB  HZ EP        7 7  7.41                             129   -0.68 9  142 258 
 PTB  HN ES        7 7 27.21                             129   -0.56 9  142 258 
 PTB  HN I         7 7 29.38         6.4 0.34                           142 258 
 OCA  HN ES        7 7 30.95                             126    0.08 9  158 355 
 ZAR  HN ES        7 7 38.70                             120    0.92 9  198 292 
 ZAR  HN I         7 7 44.69         6.3 0.16                           198 292 
 CHI  HN ES        7 7 49.32                             114    0.83 8  248 194 
 CHI  HN I         7 7 50.59         2.2 0.60                           248 194 
                                                                                
