 2016 1229 0236 18.7 L   6.812 -73.092143.9  RSN  5 0.3 1.0LRSN                1
 GAP=244        0.86       4.9     9.6  8.3  0.1460E+02 -0.3577E+02  0.2374E+01E
 Epicentro: LOS SANTOS - SANTANDER                                             3
 ACTION:UPD 17-01-11 20:20 OP:rebc STATUS:               ID:20161229023618 L   I
 OLDACT:UP  16-12-29 15:46 OP:edw  STATUS:               ID:20161229022744     3
 OLDACT:UP  16-12-29 15:44 OP:edw  STATUS:               ID:20161229022744     3
 OLDACT:UP  16-12-29 15:44 OP:edw  STATUS:               ID:20161229022744     3
 OLDACT:UP  16-12-29 15:42 OP:edw  STATUS:               ID:20161229022744     3
 OLDACT:REG 16-12-29 12:51 OP:edw  STATUS:               ID:20161229022744     3
 2016-12-29-0228-00M.COL___375                                                 6
 STAT SP IPHASW D HRMM SECON CODA AMPLIT PERI AZIMU VELO AIN AR TRES W  DIS CAZ7
 BAR2 EZ EP        236 38.28                             169    0.1310 26.2 202 
 BRR  HZ EP        236 40.33                             151    0.4310 75.9 296 
 BRR  HN ES        236 55.98                             151   -0.4810 75.9 296 
 RUS  HZ EP        236 42.55                             143    0.2210  102 179 
 RUS  HN ES        237  0.74                             143   -0.0310  102 179 
 RUS  HZ I         237  2.12         2.1 0.22            142            102 179 
 PTB  HZ EP   9    236 46.02                             130   -0.04 0  154 259 
 PTB  HN ES        237  7.92                             132    0.55 9  154 259 
 PTB  HZ I         237  8.40         1.0 0.07            129            154 259 
 CHI  HZ EP        236 56.24                             116   -0.35 8  251 196 
 CHI  HN ES        237 26.05                             116   -0.10 8  251 196 
 CHI  HZ I         237 28.66         0.6 0.62            116            251 196 
 GUY2CHN ES   4    237 39.48                             111    2.20 0  307 235 
                                                                                
