 2012 1229 0919 31.2 L   6.761 -73.163160.9  RSN  6 0.4 1.5LRSN                1
 GAP=181        0.74       4.8     5.9  7.8  0.8779E+01  0.4809E+01 -0.1354E+01E
 Epicentro: LOS SANTOS - SANTANDER                                             3
 ACTION:UPD 13-01-04 14:31 OP:ep   STATUS:               ID:20121229091931 L   I
 2012-12-29-0917-40M.COL___204                                                 6
 STAT SP IPHASW D HRMM SECON CODA AMPLIT PERI AZIMU VELO AIN AR TRES W  DIS CAZ7
 BAR2 SZ EP   1    919 52.37                             173   -0.16 8 18.7 186 
 BAR2 SZ I         920 10.44         6.1 0.36                          18.7 186 
 BRR  HZ EP   1    919 54.49                             155    0.51 8 71.7 302 
 BRR  HE ES   1    920 12.29                             155    0.50 8 71.7 302 
 RUS  HZ EP   1    919 56.63                             148    0.49 8 96.4 175 
 RUS  HN ES   1    920 15.28                             148   -0.35 8 96.4 175 
 RUS  HZ I         920 17.72         2.2 0.46                          96.4 175 
 PTB  HZ EP        919 58.99                             136   -0.1710  145 260 
 PTB  HN ES   1    920 20.69                             136   -0.32 7  145 260 
 PTB  HZ I         920 23.45         5.9 0.38                           145 260 
 OCA  HN ES   1    920 23.87                             132   -0.49 7  164 354 
 ZAR  HZ EP        920  4.47                             126   -0.15 9  204 293 
 ZAR  HN ES   1    920 30.91                             126    0.19 7  204 293 
 ZAR  HZ I         920 36.91         5.2 0.36                           204 293 
 MON  HZ EP   4    920 19.49                             111   -1.43 0  355 309 
 MON  HE ES   4    920 58.34                             111   -1.39 0  355 309 
                                                                                
