 2017  729 0802 11.1 L   6.806 -73.106142.6  RSN 23 0.5 2.0LRSN                1
 GAP= 68        0.91       2.9     2.8  4.1  0.7612E-01  0.1952E+01  0.1003E+01E
 Epicentro: LOS SANTOS - SANTANDER                                             3
 ACTION:UPD 17-08-30 15:38 OP:rebc STATUS:               ID:20170729080211 L   I
 OLDACT:UP  17-07-29 17:58 OP:and  STATUS:               ID:20170729075740     3
 OLDACT:UP  17-07-29 17:58 OP:and  STATUS:               ID:20170729075740     3
 OLDACT:UP  17-07-29 17:55 OP:and  STATUS:               ID:20170729075740     3
 OLDACT:UP  17-07-29 17:55 OP:and  STATUS:               ID:20170729075740     3
 OLDACT:UP  17-07-29 17:55 OP:and  STATUS:               ID:20170729075740     3
 OLDACT:UP  17-07-29 17:54 OP:and  STATUS:               ID:20170729075740     3
 OLDACT:UP  17-07-29 17:52 OP:and  STATUS:               ID:20170729075740     3
 OLDACT:UP  17-07-29 17:52 OP:and  STATUS:               ID:20170729075740     3
 OLDACT:REG 17-07-29 13:07 OP:and  STATUS:               ID:20170729075740     3
 2017-07-29-0758-00M.COL___380                                                 6
 STAT SP IPHASW D HRMM SECON CODA AMPLIT PERI AZIMU VELO AIN AR TRES W  DIS CAZ7
 BAR2 EZ IP     C  8 2 30.13                             170   -0.2610 25.1 200 
 BAR2 EZ ES        8 2 44.92                             170   -0.5210 25.1 200 
 BAR2 EZ I         8 2 47.47        25.8 0.22            165           25.1 200 
 PAM  EZ IP     C  8 2 33.03                             151    0.2310 74.2  37 
 PAM  EN ES        8 2 49.94                             151    0.2310 74.2  37 
 PAM  EZ I         8 2 50.68        12.6 0.18            154           74.2  37 
 BRR  HZ EP        8 2 31.87                             151   -0.2610 74.8 297 
 BRR  HE ES        8 2 49.22                             151    0.6910 74.8 297 
 BRR  HZ I         8 2 52.85        20.5 0.12            148           74.8 297 
 RUS  HZ EP        8 2 34.33                             143   -0.2510  101 179 
 RUS  HN ES        8 2 52.56                             143   -0.3310  101 179 
 RUS  HZ I         8 2 54.57        10.5 0.30            139            101 179 
 TAM  HZ IP     C  8 2 38.46                             131    0.31 9  151 106 
 PTB  HZ EP   9    8 2 37.03                             130   -1.20 0  152 259 
 PTB  HN ES        8 2 57.83                             131   -0.36 9  152 259 
 PTB  HZ I         8 2 59.62         9.3 0.03            127            152 259 
 SPBC HZ EP        8 2 39.98                             128    0.30 9  166 220 
 SPBC HE ES        8 3  2.59                             128    0.62 9  166 220 
 SPBC HZ I         8 3  6.58        19.3 0.22            124            166 220 
 YPLC HZ IP     C  8 2 40.57                             126    0.05 9  175 153 
 YPLC HN ES        8 3  3.51                             126    0.04 9  175 153 
 YPLC HZ I         8 3  6.75         4.6 0.42            124            175 153 
 ZAR  HZ EP        8 2 43.85                             121    0.10 8  208 292 
 ZAR  HE ES        8 3  8.91                             121   -0.30 8  208 292 
 ZAR  HZ I         8 3 14.25        11.9 0.40            119            208 292 
 TABC EZ EP   3    8 2 48.41                             118    1.44 2  233 212 
 NOR  HZ IP     C  8 2 46.47                             117   -0.61 8  239 235 
 NOR  HN ES        8 3 14.74                             117   -0.40 8  239 235 
 NOR  HZ I         8 3 19.10         9.0 0.28            114            239 235 
 CHI  HZ EP   2    8 2 48.40                             116   -0.42 4  250 196 
 CHI  HN ES   3    8 3 17.49                             116   -0.76 2  250 196 
 CHI  HZ I         8 3 24.52         5.9 0.60            114            250 196 
 ROSC BZ EP   9    8 2 51.02                             116    1.66 0  256 212 
 ROSC BN ES        8 3 21.51                             115    0.65 8  256 212 
 ROSC BZ I         8 3 24.86        11.7 0.35            113            256 212 
 HEL  HZ EP        8 2 52.44                             114    0.79 7  276 256 
 HEL  HN ES        8 3 23.04                             114   -0.24 7  276 256 
 HEL  HZ I         8 3 29.28         9.3 0.56            111            276 256 
 GUY2CHZ EP        8 2 55.49                             111    0.47 7  305 235 
 GUY2CHN ES   4    8 3 31.53                             111    2.26 0  305 235 
 GUY2CHZ I         8 3 34.65         6.1 0.32                           305 235 
 PTGC HZ EP   9    8 2 53.34                             111   -1.37 0  308 159 
 PTGC HN ES   1    8 3 26.94                             111   -0.41 5  308 159 
 LL6C HZ EP   1    8 2 55.59                             110   -1.04 5  325 357 
 CBOC HZ EP        8 2 58.67                             109    0.28 7  338 252 
 CBOC HN ES   3    8 3 33.72                             109   -1.56 2  338 252 
 CBOC HZ I         8 3 35.57         1.6 0.44            107            338 252 
 DBB  EN ES   4    8 3 33.96                             109   -2.32 0  344 274 
 DBB  EZ I         8 3 35.93         5.0 0.20            107            344 274 
 PRA  HZ EP   2    8 3  4.92                             106    0.08 3  395 210 
 PRA  HN ES   2    8 3 47.31                             106    0.56 3  395 210 
 PRA  HZ I         8 3 52.28         8.6 0.26            104            395 210 
 ORTC HZ EP   1    8 3  4.96                             106   -0.32 4  399 217 
 ORTC HN ES   3    8 3 48.98                             106    1.44 1  399 217 
 ORTC HZ I         8 3 54.49         4.1 0.64            104            399 217 
 PAL  HZ EP   1    8 3  5.88                             105   -0.76 4  410 239 
 PAL  HZ I         8 3 54.80         1.4 0.46            103            410 239 
 SJC  HZ IP   3 D  8 3  4.51                             105   -2.28 1  411 326 
 SJC  HN ES   4    8 3 47.02                             105   -3.20 0  411 326 
 SJC  HZ I         8 3 49.84         2.1 0.56            104            411 326 
                                                                                
