 2011 1129 0802 15.8 L   6.770 -73.096147.8  RSN  5 0.2 1.7LRSN                1
 GAP=144        0.47       2.8     4.6  4.1  0.1743E+00 -0.7841E+00 -0.2151E+01E
 Epicentro: LOS SANTOS - SANTANDER                                             3
 ACTION:UPD 12-07-13 16:13 OP:ep   STATUS:               ID:20111129080215 L   I
 2011-11-29-0759-23S.COL___160                                                 6
 STAT SP IPHASW D HRMM SECON CODA AMPLIT PERI AZIMU VELO AIN AR TRES W  DIS CAZ7
 BAR2 SZ EP        8 2 35.49                             171   -0.1910 21.9 206 
 BAR2 SZ ES   1    8 2 51.27                             171    0.10 7 21.9 206 
 BAR2 SZ I         8 2 55.82         8.9 0.80                          21.9 206 
 PAM  SZ EP        8 2 38.23                             151    0.0010 76.7  35 
 PAM  SN ES   1    8 2 55.61                             151   -0.09 7 76.7  35 
 BRR  HZ EP        8 2 37.32                             151   -0.2610 77.6 299 
 BRR  HZ I         8 2 37.53        13.9 0.14                          77.6 299 
 BRR  HE ES   1    8 2 54.70                             151    0.16 7 77.6 299 
 RUS  HZ EP        8 2 39.74                             145    0.2010 97.0 179 
 RUS  HN ES   1    8 2 57.98                             145   -0.05 7 97.0 179 
 OCA  SZ EP        8 2 44.90                             129    0.22 9  164 351 
                                                                                
