 2012 1029 0502 17.9 L   6.786 -73.136152.0  RSN  5 0.3 1.8LRSN                1
 GAP=237        0.55       5.3     7.6  5.0  0.2416E+02  0.8109E+01  0.4546E+01E
 Epicentro: LOS SANTOS - SANTANDER                                             3
 ACTION:UPD 12-11-22 17:06 OP:ep   STATUS:               ID:20121029050217 L   I
 2012-10-29-0500-00M.COL___231                                                 6
 STAT SP IPHASW D HRMM SECON CODA AMPLIT PERI AZIMU VELO AIN AR TRES W  DIS CAZ7
 BAR2 SZ EP        5 2 37.99                             171   -0.2810 22.0 194 
 BAR2 SZ ES        5 2 54.04                             171   -0.1110 22.0 194 
 BRR  HZ EP        5 2 39.84                             153    0.0010 72.9 299 
 BRR  HN ES   1    5 2 57.31                             153    0.37 7 72.9 299 
 BRR  HN I         5 2 58.52        18.1 0.18                          72.9 299 
 RUS  HZ EP   1    5 2 42.37                             145    0.20 7 98.9 177 
 RUS  HN ES   1    5 3  1.20                             145    0.11 7 98.9 177 
 RUS  HN I         5 3  2.34         3.5 0.30                          98.9 177 
 ZAR  HE ES   2    5 3 16.32                             123   -0.38 4  206 292 
 ZAR  HE I         5 3 22.12        12.2 0.42                           206 292 
 PRA  HZ EP   1    5 3 12.21                             107    0.65 4  391 210 
 PRA  HN ES   2    5 3 52.92                             107   -0.48 3  391 210 
 PRA  HN I         5 3 59.77         0.9 0.40                           391 210 
                                                                                
