 2011  729 0553  4.0 L   6.852 -72.986144.1  RSN  5 0.2 1.5LRSN                1
 GAP=173        0.43       2.3     5.1  5.7 -0.2080E+01 -0.7209E+01  0.6128E+00E
 Epicentro: CEPITA - SANTANDER                                                 3
 ACTION:UPD 12-07-25 14:04 OP:epov STATUS:               ID:20110729055304 L   I
 2011-07-29-0551-03S.COL___138                                                 6
 STAT SP IPHASW D HRMM SECON CODA AMPLIT PERI AZIMU VELO AIN AR TRES W  DIS CAZ7
 BRR  HZ EP   1    553 25.78                             148   -0.02 7 85.0 289 
 BRR  HZ I         553 26.15         9.2 0.15                          85.0 289 
 BRR  HN ES   1    553 42.79                             148   -0.02 7 85.0 289 
 BRI  SZ EP   2    553 27.08                             144    0.15 5 97.8  12 
 BRI  SZ ES   2    553 45.11                             144    0.28 5 97.8  12 
 RUS  HZ EP   1    553 28.33                             142    0.31 7  107 186 
 RUS  HE ES   1    553 46.59                             142   -0.18 7  107 186 
 RUS  HZ I         553 47.38         3.4 0.19                           107 186 
 GRA  SZ EP   1    553 28.17                             139   -0.10 7  116  10 
 GRA  SZ ES   1    553 47.04                             139   -0.18 7  116  10 
 GRA  SZ I         553 48.50         4.9 0.45                           116  10 
 OCA  SZ EP   2    553 31.49                             130   -0.43 5  158 347 
 OCA  SZ ES   2    553 54.13                             130    0.42 5  158 347 
 OCA  SZ I         553 57.84         4.3 0.62                           158 347 
                                                                                
