 2012 1029 0124 24.3 L   6.808 -73.125143.8  RSN 10 0.2 2.2LRSN                1
 GAP=139        0.46       2.0     2.8  4.3 -0.3011E+00  0.3163E+01  0.3368E+01E
 Epicentro: LOS SANTOS - SANTANDER                                             3
 ACTION:UPD 12-11-22 17:06 OP:ep   STATUS:               ID:20121029012424 L   I
 2012-10-29-0120-00M.COL___231                                                 6
 STAT SP IPHASW D HRMM SECON CODA AMPLIT PERI AZIMU VELO AIN AR TRES W  DIS CAZ7
 BAR2 SZ EP        124 43.61                             170   -0.0810 24.7 195 
 GIR2 SZ EP        124 43.49                             167   -0.2010 30.8 346 
 BRR  HZ EP        124 45.41                             152    0.1210 72.8 297 
 BRR  HN ES   1    125  1.97                             152    0.28 7 72.8 297 
 BRR  HN I         125  6.00        61.6 0.16                          72.8 297 
 PAM  SZ EP        124 46.34                             151    0.2010 75.3  39 
 PAM  SN ES   1    125  3.40                             151    0.19 7 75.3  39 
 PAM  SN I         125  4.37        31.8 0.48                          75.3  39 
 RUS  HZ EP        124 47.70                             143   -0.1810  101 177 
 RUS  HN ES   1    125  6.23                             143   -0.07 7  101 177 
 RUS  HN I         125  7.90        11.9 0.32                           101 177 
 OCA  HE ES   1    125 13.89                             129   -0.39 7  160 352 
 ZAR  HE ES   2    125 22.13                             122    0.02 4  206 292 
 ZAR  HE I         125 27.92        34.2 0.28                           206 292 
 CHI  HZ EP   1    125  2.08                             117    0.07 6  250 196 
 CHI  HN ES   1    125 31.32                             117   -0.14 6  250 196 
 CHI  HN I         125 34.23         9.7 0.76                           250 196 
 HEL  HZ EP   1    125  4.92                             114    0.28 6  274 256 
 HEL  HN ES   1    125 35.78                             114   -0.36 6  274 256 
 HEL  HN I         125 42.25         4.1 0.26                           274 256 
 PRA  HZ EP        125 18.11                             106    0.17 6  394 210 
 PRA  HE ES   1    126  0.25                             106    0.45 4  394 210 
 PRA  HE I         126  6.15         5.2 0.64                           394 210 
                                                                                
