 2014  529 0223 30.1 L   6.876 -73.348121.7  RSN  9 0.5 1.8LRSN                1
 GAP=105        1.27       3.8     4.9  7.8  0.3970E+01 -0.1963E+00 -0.6493E+01E
 Epicentro: BETULIA - SANTANDER                                                3
 ACTION:UPD 15-03-16 17:01 OP:nd   STATUS:               ID:20140529022330 L   I
 OLDACT:REG 14-05-29 13:35 OP:stll STATUS:               ID:20140529021812     3
 2014-05-29-0218-12M.COL___256                                                 6
 STAT SP IPHASW D HRMM SECON CODA AMPLIT PERI AZIMU VELO AIN AR TRES W  DIS CAZ7
 BAR2 SZ IP     D  223 47.65                             162    0.4410 36.3 150 
 BAR2 SZ I         223 47.79        38.4 0.12            167           36.3 150 
 BAR2 SZ ES        224  0.49                             162   -0.0910 36.3 150 
 BRR  HZ EP        223 47.77                             157    0.4410 47.6 302 
 BRR  HE ES        224  1.32                             157    0.5210 47.6 302 
 BRR  HZ I         224  7.43        10.8 0.30            156           47.6 302 
 RUS  HZ EP        223 52.58                             135    0.0310  113 165 
 RUS  HZ I         223 53.45         3.7 0.14            139            113 165 
 RUS  HN ES        224 10.00                             135   -0.0810  113 165 
 PTB  HZ EP        223 52.79                             130   -0.5010  128 253 
 PTB  HN ES        224 10.42                             130   -0.9910  128 253 
 PTB  HZ I         224 15.04         8.0 0.18            132            128 253 
 OCA  HE ES        224 14.79                             125   -0.85 9  151   1 
 OCA  HZ I         224 18.74         9.2 0.28            128            151   1 
 SPBC HN ES        224 16.54                             124   -0.11 9  157 211 
 SPBC HZ I         224 19.61         6.0 0.10            127            157 211 
 TAM  HZ EP        223 58.52                             120    0.11 9  179 106 
 ZAR  HZ EP        223 59.04                             120    0.54 9  180 292 
 ZAR  HN ES        224 21.54                             120    0.86 9  180 292 
 ZAR  HZ I         224 24.56         5.5 0.28            122            180 292 
 SML  HZ EP        224  3.39                             114   -0.23 8  227 340 
 SML  HN ES        224 29.66                             114   -0.14 8  227 340 
 SML  HZ I         224 33.93        13.1 0.26            116            227 340 
                                                                                
