 2013  929 0306 30.9 L   6.740 -73.154143.7  RSN  6 0.6 1.2LRSN                1
 GAP=138        1.49       6.9     7.3 10.1 -0.1265E+02  0.1021E+02  0.6742E+01E
 Epicentro: JORDAN - SANTANDER                                                 3
 ACTION:UPD 13-10-22 09:25 OP:ep   STATUS:               ID:20130929030630 L   I
 OLDACT:REG 13-09-29 09:05 OP:stll STATUS:               ID:20130929025837     3
 2013-09-29-0258-37M.COL___244                                                 6
 STAT SP IPHASW D HRMM SECON CODA AMPLIT PERI AZIMU VELO AIN AR TRES W  DIS CAZ7
 BAR2 SZ EP        3 6 50.18                             173   -0.0110 16.7 191 
 BAR2 SZ I         3 6 51.40         2.8 0.16            173           16.7 191 
 BAR2 SZ ES        3 7  5.51                             173    0.2910 16.7 191 
 BRR  HZ EP        3 6 52.27                             151    0.2710 73.8 303 
 BRR  HE ES        3 7  9.24                             151    0.8010 73.8 303 
 BRR  HZ I         3 7 14.02         4.0 0.14            152           73.8 303 
 PAM  SZ EP        3 6 53.01                             149   -0.2610 83.2  37 
 PAM  SZ I         3 6 53.47         3.1 0.18            151           83.2  37 
 PAM  SN ES        3 7 10.39                             149   -0.3210 83.2  37 
 RUS  HZ EP        3 6 53.70                             145   -0.3110 94.1 175 
 RUS  HN ES        3 7 11.78                             145   -0.2310 94.1 175 
 RUS  HZ I         3 7 13.86         2.0 0.34            148           94.1 175 
 PTB  HZ EP        3 6 57.14                             132   -0.39 9  146 261 
 PTB  HN ES        3 7 17.16                             132   -1.13 9  146 261 
 PTB  HZ I         3 7 18.86         2.6 0.10            133            146 261 
 SPBC HZ EP        3 6 59.98                             130    1.26 9  157 220 
 SPBC HN ES        3 7 20.45                             130    0.04 9  157 220 
 SPBC HZ I         3 7 22.97         3.1 0.46            132            157 220 
                                                                                
