 2010  129 0804 42.6 L   6.758 -73.019150.4  RSN  8 0.5 1.7LRSN                1
 GAP=174        1.07       6.1    13.0  9.9 -0.4345E+02  0.4182E+02 -0.8215E+01E
 Epicentro: LOS SANTOS - SANTANDER                                             3
 ACTION:UP  10-08-24 09:46 OP:vdl  STATUS:               ID:20100129080442 L   I
 2010-01-29-0759-50S.COL___079                                                 6
 STAT SP IPHASW D HRMM SECON CODA AMPLIT PERI AZIMU VELO SNR AR TRES W  DIS CAZ7
 BAR2 SZ EP        8 5  2.56                             170    -0.310   26 225 
 BAR2 SZ ES   1    8 5 18.56                             170    -0.1 7   26 225 
 RUS  HZ EP   1    8 5  6.49                             146     0.0 7   96 184 
 RUS  HE ES   2    8 5 25.36                             146     0.2 5   96 184 
 RUS  HZ I         8 5 26.43         3.2 0.21                            96 184 
 GUE  SZ EP   1    8 5  7.81                             140    -0.2 7  119   5 
 GRA  SZ EP        8 5  9.40                             137     1.010  127  11 
 GRA  SZ ES   1    8 5 28.22                             137    -0.2 7  127  11 
 OCA  SZ EP   1    8 5 11.01                             129    -0.9 7  167 349 
 OCA  SZ I         8 5 38.23        18.0 0.27                           167 349 
 CHI  HZ EP   1    8 5 20.51                             118     0.0 6  248 199 
 CHI  HE ES   2    8 5 50.80                             118     0.7 4  248 199 
 CHI  HZ I         8 5 55.89         3.1 0.38                           248 199 
 HEL  HZ EP   1    8 5 24.55                             114     0.1 6  285 257 
 HEL  HE ES   2    8 5 57.32                             114     0.2 4  285 257 
 HEL  HZ I         8 6  3.08         2.8 0.41                           285 257 
 PRA  HZ EP   1    8 5 35.96                             107    -0.7 4  395 212 
 PRA  HE ES   2    8 6 18.86                             107     0.0 3  395 212 
                                                                                
