 2010 1129 0002  8.2 L   6.808 -73.136146.9  RSN  7 0.4 1.7LRSN                1
 GAP=160        0.86       3.9     8.0  8.7 -0.8677E+01 -0.6571E+01  0.4289E+01E
 Epicentro: LOS SANTOS - SANTANDER                                             3
 ACTION:UP  10-12-17 16:55 OP:REBC STATUS:               ID:20101129000208 L   I
 2010-11-29-0000-00M.COL___132                                                 6
 STAT SP IPHASW D HRMM SECON CODA AMPLIT PERI AZIMU VELO SNR AR TRES W  DIS CAZ7
 BAR2 SZ EP        0 2 27.85                                    -0.110   24 192 
 BRR  HZ EP        0 2 29.68                             152     0.210   72 298 
 BRR  HN ES   1    0 2 46.47                             152     0.4 7   72 298 
 BRR  HZ I         0 2 48.66        10.6 0.08                            72 298 
 RUS  HZ EP        0 2 32.04                             144     0.010  101 177 
 RUS  HN ES   1    0 2 51.02                             144     0.3 7  101 177 
 RUS  HZ I         0 2 52.48         5.1 0.29                           101 177 
 GRA  SZ EP        0 2 33.45                             138     0.010  125  17 
 GRA  SZ ES   1    0 2 52.46                             138    -0.6 7  125  17 
 GRA  SZ I         0 2 54.31         9.7 0.16                           125  17 
 OCA  SZ EP   1    0 2 36.63                             130     0.1 7  160 353 
 OCA  SZ I         0 3  0.63         6.1 0.19                           160 353 
 NOR  SZ EP   2    0 2 44.07                             119     0.0 4  236 235 
 NOR  SN ES   2    0 3 10.93                             119    -1.2 4  236 235 
 CHI  HZ EP   1    0 2 46.54                             117     0.5 6  250 195 
 CHI  HE ES   1    0 3 15.08                             117    -0.5 6  250 195 
 CHI  HZ I         0 3 20.09         2.6 0.64                           250 195 
                                                                                
