 2010 1229 0648 25.4 L   6.783 -73.180145.5  RSN  6 0.5 1.6LRSN                1
 GAP=155        0.90       5.6    13.8 11.6 -0.3027E+02  0.3626E+02 -0.7524E+01E
 Epicentro: LOS SANTOS - SANTANDER                                             3
 ACTION:UP  11-01-14 15:27 OP:pat  STATUS:               ID:20101229064825 L   I
 2010-12-29-0646-50S.COL___136                                                 6
 STAT SP IPHASW D HRMM SECON CODA AMPLIT PERI AZIMU VELO SNR AR TRES W  DIS CAZ7
 BAR2 SZ EP   1    648 44.80                             171    -0.1 7   21 181 
 BAR2 SZ ES   2    648 59.88                             171    -0.3 5   21 181 
 BAR2 SZ I         649  1.58        11.7 0.29                            21 181 
 RUS  HZ EP   1    648 48.86                             144    -0.1 7   99 174 
 RUS  HE ES   2    649  7.48                             144     0.1 5   99 174 
 RUS  HZ I         649  8.71         4.8 0.32                            99 174 
 GRA  SZ EP   1    648 51.59                             136     0.7 7  129  19 
 GRA  SZ ES   2    649 11.42                             136     0.7 5  129  19 
 GRA  SZ I         649 12.28         4.4 0.42                           129  19 
 OCA  SZ EP   1    648 53.35                             129    -0.5 7  162 355 
 OCA  SZ ES   2    649 15.13                             129    -0.9 5  162 355 
 OCA  SZ I         649 24.10         4.9 0.54                           162 355 
 NOR  SN ES   2    649 28.94                             119     0.8 4  231 234 
 CHI  HZ EP   1    649  2.61                             117    -0.2 6  246 194 
                                                                                
