 2013  429 0510 51.6 L   6.741 -73.185145.4  RSN  4 0.3 1.6LRSN                1
 GAP=228        0.76       7.3     7.8  7.2  0.3083E+02  0.1302E+02  0.6808E+01E
 Epicentro: VILLANUEVA - SANTANDER                                             3
 ACTION:UPD 13-05-22 14:41 OP:EP   STATUS:               ID:20130429051051 L   I
 2013-04-29-0510-00M.COL___248                                                 6
 STAT SP IPHASW D HRMM SECON CODA AMPLIT PERI AZIMU VELO AIN AR TRES W  DIS CAZ7
 BAR2 SZ ES        511 25.81                             173   -0.4610 16.4 179 
 BRR  HZ EP     D  511 12.64                             152   -0.0710 70.9 305 
 BRR  HN ES        511 29.54                             152    0.3810 70.9 305 
 BRR  HN I         511 30.02        16.1 0.16            155           70.9 305 
 RUS  HZ EP   1    511 14.88                             145   -0.02 7 94.5 173 
 RUS  HN ES   1    511 33.57                             145    0.51 7 94.5 173 
 RUS  HN I         511 36.47         4.4 0.38            144           94.5 173 
 PTB  HZ EP   1    511 18.10                             133    0.04 7  142 261 
 PTB  HN ES   1    511 38.38                             133   -0.31 7  142 261 
 PTB  HN I         511 39.67         4.1 0.24            134            142 261 
                                                                                
