 2013  429 0327 31.0 L   6.816 -73.181152.0  RSN  4 0.2 1.7LRSN                1
 GAP=131        0.57       4.2     3.9  6.0 -0.1065E+01 -0.1579E+00  0.4753E+01E
 Epicentro: ZAPATOCA - SANTANDER                                               3
 ACTION:UPD 13-05-22 14:41 OP:EP   STATUS:               ID:20130429032731 L   I
 2013-04-29-0320-00M.COL___248                                                 6
 STAT SP IPHASW D HRMM SECON CODA AMPLIT PERI AZIMU VELO AIN AR TRES W  DIS CAZ7
 BRR  HZ IP     D  327 52.75                             155    0.2010 66.9 299 
 BRR  HN ES        328  9.65                             155    0.2610 66.9 299 
 BRR  HN I         328 10.08        14.7 0.30            155           66.9 299 
 PAM  SZ EP   1    327 53.93                             151    0.02 7 78.7  43 
 PAM  SN ES   1    328 11.43                             151   -0.38 7 78.7  43 
 PAM  SN I         328 12.86        10.1 0.54            156           78.7  43 
 RUS  HZ EP   1    327 55.59                             145    0.13 7  103 174 
 RUS  HE ES   1    328 14.60                             145    0.02 7  103 174 
 RUS  HE I         328 16.72         3.1 0.48            145            103 174 
 PTB  HZ EP   1    327 57.84                             134   -0.28 7  144 258 
 PTB  HN ES   1    328 18.92                             134   -0.40 7  144 258 
 PTB  HN I         328 23.84         6.9 0.38            134            144 258 
                                                                                
