 2011  629 0211  1.0 L   6.777 -73.055146.9  RSN 10 0.3 1.7LRSN                1
 GAP=150        0.61       2.3     4.4  4.3 -0.2294E+01 -0.1276E-01  0.1278E+01E
 Epicentro: LOS SANTOS - SANTANDER                                             3
 ACTION:UP  11-07-14 19:08 OP:ep   STATUS:               ID:20110629021101 L   I
 2011-06-29-0200-00M.COL___124                                                 6
 STAT SP IPHASW D HRMM SECON CODA AMPLIT PERI AZIMU VELO SNR AR TRES W  DIS CAZ7
 BAR2 SZ EP        211 20.59                             170    -0.210   25 215 
 BAR2 SZ ES   1    211 36.78                             170     0.5 7   25 215 
 BAR2 SZ I         211 37.47         7.6 0.31                            25 215 
 PAM  SZ EP   2    211 23.36                             152     0.2 5   74  32 
 PAM  SN ES   2    211 40.01                             152    -0.4 5   74  32 
 BRR  HZ EP        211 22.61                             150    -0.310   81 297 
 BRR  HZ I         211 24.18        16.0 0.13                            81 297 
 BRR  HN ES        211 39.74                             150    -0.210   81 297 
 RUS  HZ EP        211 24.62                             145    -0.110   98 182 
 RUS  HN ES   1    211 43.31                             145     0.2 7   98 182 
 BRI  SZ EP   2    211 25.12                             142     0.1 5  108  15 
 GRA  SZ EP        211 26.44                             137     0.110  126  13 
 GRA  SZ ES   1    211 45.98                             137    -0.1 7  126  13 
 GRA  SZ I         211 48.44         5.5 0.29                           126  13 
 OCA  SZ EP   1    211 29.99                             129     0.2 7  164 350 
 OCA  SZ ES   1    211 52.81                             129     0.6 7  164 350 
 OCA  SZ I         211 57.12         7.9 0.25                           164 350 
 CHI  HZ EP   2    211 38.33                             117    -0.5 4  249 198 
 CHI  HE ES   1    212  8.52                             117     0.2 6  249 198 
 CHI  HZ I         212 15.81         2.5 0.28                           249 198 
 HEL  HZ EP   1    211 42.47                             114     0.2 6  281 257 
 HEL  HN ES   2    212 14.54                             114     0.0 4  281 257 
 HEL  HZ I         212 20.41         2.5 0.25                           281 257 
 PRA  HZ EP   1    211 55.14                             107     0.2 4  395 211 
 PRA  HE ES   2    212 37.50                             107     0.5 3  395 211 
                                                                                
