 2012  329 0806 19.0 L   6.782 -73.157147.7  RSN 15 0.5 2.6LRSN                1
 GAP=113        1.00       3.6     4.5  6.2  0.8401E-01  0.6685E+01  0.3539E+01E
 ACTION:UP  12-03-31 23:23 OP:EP   STATUS:               ID:20120329080619 L   I
 2012-03-29-0800-00M.COL___196                                                 6
 STAT SP IPHASW D HRMM SECON CODA AMPLIT PERI AZIMU VELO SNR AR TRES W  DIS CAZ7
 BAR2 SZ IP        8 6 38.79                             171     0.010   21 187 
 BAR2 SZ ES   1    8 6 54.08                             171    -0.2 7   21 187 
 BAR2 SZ I         8 6 56.29        65.9 0.26                            21 187 
 BRR  HZ IP     C  8 6 40.68                             153     0.310   71 300 
 BRR  HZ I         8 6 40.91       167.2 0.14                            71 300 
 BRR  HN ES   1    8 6 57.96                             153     0.9 7   71 300 
 PAM  SZ EP        8 6 41.67                             150     0.110   80  39 
 PAM  SN ES   1    8 6 58.81                             150    -0.4 7   80  39 
 RUS  HZ EP        8 6 42.59                             145    -0.210   99 175 
 RUS  HN ES   1    8 7  1.21                             145    -0.2 7   99 175 
 RUS  HZ I         8 7  4.70        25.4 0.38                            99 175 
 PTB  HZ EP        8 6 45.35                             133    -0.6 9  146 259 
 PTB  HN ES   1    8 7  6.58                             133    -0.5 7  146 259 
 PTB  HZ I         8 7 14.15        60.8 0.42                           146 259 
 OCA  SZ EP        8 6 47.43                             130    -0.2 9  162 354 
 OCA  SZ ES   1    8 7 10.20                             130     0.2 7  162 354 
 YOP  SZ EP        8 6 49.21                             127     0.1 9  178 153 
 YOP  SZ I         8 6 49.62        17.2 0.60                           178 153 
 YOP  SN ES   2    8 7 13.20                             127     0.7 4  178 153 
 ZAR  HZ EP        8 6 51.14                             123    -0.4 9  204 293 
 ZAR  HE ES   2    8 7 16.95                             123     0.0 4  204 293 
 ZAR  HZ I         8 7 23.08        46.5 0.36                           204 293 
 NOR  SZ EP        8 6 54.97                             119     0.4 8  232 235 
 NOR  SN ES   1    8 7 21.82                             119    -0.6 6  232 235 
 CHI  HZ EP   2    8 6 56.72                             118     0.1 4  246 195 
 CHI  HZ I         8 6 59.24        14.8 0.38                           246 195 
 CHI  HE ES   1    8 7 26.44                             118     0.6 6  246 195 
 HEL  HZ EP        8 6 59.99                             115     0.9 8  270 256 
 HEL  HZ I         8 7 38.26        26.4 0.34                           270 256 
 RREF HZ EP   3    8 7  5.99                             111     1.0 2  319 229 
 RREF HZ I         8 7 47.78        20.8 0.30                           319 229 
 DBB  SZ EP   2    8 7  6.78                             110     0.3 3  338 275 
 PRA  HZ EP        8 7 12.21                             107    -0.1 6  390 210 
 SJA  SZ EP   2    8 7 12.30                             107    -1.1 3  398 193 
                                                                                
