 2014  929 0239 30.0 L   6.816 -73.145142.0  RSN 21 0.4 2.1LRSN                1
 GAP=102        1.21       2.7     4.3  5.5 -0.1935E+01  0.6749E+01  0.2000E+01E
 Epicentro: LOS SANTOS - SANTANDER                                             3
 ACTION:UPD 14-10-03 23:09 OP:nd   STATUS:               ID:20140929023930 L   I
 OLDACT:REG 14-09-29 14:00 OP:stll STATUS:               ID:20140929023817     3
 2014-09-29-0238-17M.COL___298                                                 6
 STAT SP IPHASW D HRMM SECON CODA AMPLIT PERI AZIMU VELO AIN AR TRES W  DIS CAZ7
 BAR2 SZ IP     C  239 49.42                             169    0.2310 25.1 190 
 BAR2 SZ ES        240  4.34                             169    0.1610 25.1 190 
 BAR2 SZ I         240  5.91        22.4 0.34            168           25.1 190 
 BRR  HZ EP        239 51.28                             152    0.6110 70.4 297 
 BRR  HN ES        240  6.70                             152   -0.1210 70.4 297 
 BRR  HZ I         240 12.52        14.7 0.44            150           70.4 297 
 PAM  SZ EP        239 52.27                             150    0.5710 75.9  40 
 PAM  SZ I         239 52.44        30.0 0.24            154           75.9  40 
 PAM  SN ES        240  8.33                             150   -0.3210 75.9  40 
 RUS  HZ EP        239 53.31                             142   -0.1810  102 176 
 RUS  HE ES        240 11.51                             142   -0.3210  102 176 
 RUS  HZ I         240 14.81        10.7 0.40            144            102 176 
 PTB  HZ EP        239 56.37                             131   -0.31 9  148 258 
 PTB  HN ES        240 17.09                             131   -0.42 9  148 258 
 PTB  HZ I         240 24.98        18.6 0.34            131            148 258 
 OCA  HZ EP        239 57.78                             128   -0.05 9  158 353 
 OCA  HN ES        240 19.58                             128    0.03 9  158 353 
 OCA  HZ I         240 25.30        15.7 0.20            130            158 353 
 SPBC HZ EP        239 58.34                             127    0.01 9  165 219 
 SPBC HN ES        240 20.55                             127    0.11 9  165 219 
 ZAR  HZ EP        240  2.23                             121    0.11 9  203 292 
 ZAR  HN ES        240 27.43                             121    0.24 9  203 292 
 SML  HZ EP        240  5.49                             116   -0.73 8  242 335 
 SML  HN ES        240 34.18                             116   -0.31 8  242 335 
 SML  HZ I         240 39.83        18.5 0.10            118            242 335 
 CHI  HZ EP        240  7.43                             116   -0.23 8  250 195 
 CHI  HZ I         240  9.10         5.2 0.18            117            250 195 
 CHI  HN ES        240 36.98                             116   -0.07 8  250 195 
 ROSC BN ES        240 37.90                             115    0.12 8  254 211 
 ROSC BZ I         240 45.39        13.8 0.50            117            254 211 
 SOCV BZ EP   9    240 11.76                             111   -0.97 0  300  57 
 SOCV BN ES        240 43.66                                   -1.45 7  300  57 
 GUY2CHZ EP        240 14.58                             111    1.04 7  302 235 
 GUY2CHE ES        240 47.80                             111    0.28 7  302 235 
 GUY2CHZ I         240 54.37         6.3 0.42                           302 235 
 PTGC HZ EP   9    240 12.28                             110   -1.57 0  310 159 
 PTGC HN ES        240 45.34                                   -1.16 7  310 159 
 RREF HZ EP   9    240 13.50                             110   -2.60 0  323 229 
 RREF HN ES        240 48.37                                   -1.11 7  323 229 
 RREF HZ I         240 57.12         6.4 0.30            111            323 229 
 CBOC HZ EP        240 17.10                             109    0.29 7  334 252 
 CBOC HZ I         240 20.67         2.1 0.14            110            334 252 
 TOL  SZ EP        240 18.63                             108    0.39 7  345 224 
 TOL  SN ES        240 56.30                             108    0.42 7  345 224 
 MON  HZ EP   9    240 16.45                             107   -2.26 0  353 308 
 MON  HN ES        240 53.91                                   -0.55 6  353 308 
 MON  HZ I         240 57.51         2.7 0.52            109            353 308 
 PRA  HZ EP        240 23.17                             105   -0.39 6  394 209 
 PRA  HN ES        241  4.62                             105   -0.73 6  394 209 
 PRA  HZ I         241 11.07         6.2 0.56            107            394 209 
 ORTC HZ EP        240 23.72                             105   -0.23 6  397 216 
 ORTC HN ES        241  5.23                             105   -0.81 6  397 216 
 ORTC HZ I         241 14.00         4.6 0.20            107            397 216 
 SJC  HZ EP   9    240 23.61                             105   -1.63 0  408 327 
 SJC  HN ES        241  4.65                                   -2.07 6  408 327 
 SJC  HZ I         241  9.39         2.4 0.38            106            408 327 
                                                                                
