 2017 1129 0726 35.0 L   6.198 -73.675100.9  RSN 10 0.5 1.5LRSN                1
 GAP= 66        1.28       3.2     3.4  7.5  0.8094E+00  0.6071E+01  0.2834E+01E
 Epicentro: LA PAZ - SANTANDER                                                 3
 ACTION:UPD 17-12-12 20:01 OP:rebc STATUS:               ID:20171129072635 L   I
 OLDACT:DUP 17-11-29 17:06 OP:dhb  STATUS:               ID:20171129071743d    3
 OLDACT:UP  17-11-29 17:03 OP:dhb  STATUS:               ID:20171129071742     3
 OLDACT:REG 17-11-29 12:33 OP:dhb  STATUS:               ID:20171129071742     3
 2017-11-29-0718-00M.COL___486                                                 6
 STAT SP IPHASW D HRMM SECON CODA AMPLIT PERI AZIMU VELO AIN AR TRES W  DIS CAZ7
 BAR2 EZ IP     D  726 51.83                             143    0.0510 69.8  51 
 BAR2 EZ ES        727  5.17                             143    0.3210 69.8  51 
 BAR2 EZ I         727  6.64        12.9 0.14            143           69.8  51 
 RUS  HZ EP        726 52.14                             141   -0.2910 73.7 117 
 RUS  HN ES        727  5.99                             141   -0.0310 73.7 117 
 RUS  HZ I         727  7.22         8.2 0.28            142           73.7 117 
 SPBC HZ EP        726 51.85                             140   -0.0910 74.7 216 
 SPBC HN ES        727  4.84                             140   -0.3110 74.7 216 
 SPBC HZ I         727  7.81        10.8 0.10            141           74.7 216 
 PTB  HZ EP        726 52.66                             133   -0.8210 94.3 294 
 PTB  HE ES        727  7.53                             133   -0.3510 94.3 294 
 PTB  HZ I         727 10.29         3.4 0.10            133           94.3 294 
 YPLC HZ EP        727  0.48                             115   -0.62 9  169 122 
 YPLC HE ES        727 21.98                             115    0.53 9  169 122 
 YPLC HZ I         727 24.38         6.4 0.26            117            169 122 
 CHI  HZ EP        727  1.33                             115   -0.76 9  174 182 
 CHI  HE ES        727 23.94                             115    0.74 9  174 182 
 CHI  HZ I         727 32.06         1.8 0.34            116            174 182 
 ZAR  HZ EP        727  3.85                             112    0.01 9  194 318 
 ZAR  HE ES        727 26.69                             112    0.37 9  194 318 
 ZAR  HZ I         727 31.16         3.7 0.28            113            194 318 
 GUY2CHZ EP        727  7.29                             109    0.33 8  216 240 
 GUY2CHE ES        727 32.93                             109    1.06 8  216 240 
 GUY2CHZ I         727 38.74         2.1 0.38                           216 240 
 OCA  HE ES        727 34.55                             108    0.70 8  229  10 
 OCA  HZ I         727 42.28         6.8 0.20            109            229  10 
 PRA  HZ EP        727 16.27                             101   -0.73 7  306 206 
 PRA  HE ES        727 50.28                             101    0.54 7  306 206 
 PRA  HZ I         727 54.91         2.9 0.26            104            306 206 
                                                                                
