 2015  529 0042 49.1 L   6.795 -73.125148.0  RSN 11 0.4 2.2LRSN                1
 GAP=139        1.00       2.9     4.6  5.6 -0.1614E+01  0.9287E+01 -0.1940E+01E
 Epicentro: LOS SANTOS - SANTANDER                                             3
 ACTION:UPD 15-09-10 22:07 OP:cam  STATUS:               ID:20150529004249 L   I
 OLDACT:REG 15-05-29 13:14 OP:ar   STATUS:               ID:20150529003749     3
 2015-05-29-0037-49M.COL___314                                                 6
 STAT SP IPHASW D HRMM SECON CODA AMPLIT PERI AZIMU VELO AIN AR TRES W  DIS CAZ7
 BAR2 EZ EP        043  8.82                             171   -0.1510 23.3 196 
 BAR2 EZ ES        043 23.91                             171   -0.5810 23.3 196 
 BAR2 EZ I         043 26.25        24.0 0.32            169           23.3 196 
 BRR  HZ EP        043 10.68                             152    0.0910 73.4 298 
 BRR  HN ES        043 28.24                             152    0.8710 73.4 298 
 BRR  HZ I         043 29.49        15.2 0.32            148           73.4 298 
 PAM  SZ EP        043 11.53                             152    0.0610 76.4  38 
 PAM  SN ES        043 29.07                             152    0.1410 76.4  38 
 PAM  SZ I         043 31.30        27.6 0.64            154           76.4  38 
 RUS  HZ EP        043 12.83                             144   -0.1610 99.9 177 
 RUS  HN ES        043 31.74                             144    0.0910 99.9 177 
 RUS  HZ I         043 32.96        14.9 0.40            148           99.9 177 
 OCA  HZ EP        043 18.05                             130    0.42 9  161 352 
 OCA  HE ES        043 39.86                             130   -0.05 9  161 352 
 OCA  HZ I         043 44.63        40.4 0.34            130            161 352 
 SPBC HZ EP        043 17.82                             129   -0.02 9  164 220 
 SPBC HN ES        043 39.97                             129   -0.30 9  164 220 
 SPBC HZ I         043 46.63        25.5 0.22            130            164 220 
 ZAR  HZ EP        043 21.65                             123   -0.25 8  206 292 
 ZAR  HE ES        043 47.01                             123   -0.49 8  206 292 
 ZAR  HZ I         043 52.38        11.2 0.18            122            206 292 
 SML  HZ EP        043 25.72                             118   -0.26 8  245 335 
 SML  HN ES        043 54.62                             118   -0.15 8  245 335 
 SML  HZ I         044  0.96        20.7 0.34            118            245 335 
 URE  HZ EP        043 29.83                             114   -0.68 7  286 292 
 URE  HE ES   4    044  0.86                             114   -1.96 0  286 292 
 URE  HZ I         044 10.70        12.5 0.20            114            286 292 
 GUY2CHZ EP        043 33.89                             113    0.93 7  303 235 
 GUY2CHE ES        044  7.73                             113    0.54 7  303 235 
 GUY2CHZ I         044 14.87         4.7 0.42                           303 235 
 MON  HZ EP   4    043 37.18                             109   -1.22 0  356 308 
 MON  HN ES   4    044 15.20                             109   -1.68 0  356 308 
 MON  HZ I         044 30.29         3.8 0.48            109            356 308 
                                                                                
