 2014  929 0934 56.4 L   6.835 -73.096146.1  RSN  6 0.5 1.6LRSN                1
 GAP=222        0.89       5.5    11.4  8.3  0.1267E+02 -0.1250E+02  0.6040E+01E
 Epicentro: LOS SANTOS - SANTANDER                                             3
 ACTION:UPD 14-10-03 23:09 OP:nd   STATUS:               ID:20140929093456 L   I
 OLDACT:DUP 14-09-29 20:03 OP:fm   STATUS:               ID:20140929092822d    3
 OLDACT:UP  14-09-29 19:48 OP:fm   STATUS:               ID:20140929092821d    3
 OLDACT:DUP 14-09-29 19:44 OP:fm   STATUS:               ID:20140929092821d    3
 2014-09-29-0928-19M.COL___289                                                 6
 STAT SP IPHASW D HRMM SECON CODA AMPLIT PERI AZIMU VELO AIN AR TRES W  DIS CAZ7
 BAR2 SZ EP        935 16.25                             168    0.0810 28.5 200 
 BAR2 SZ ES   1    935 31.15                             168   -0.45 7 28.5 200 
 BAR2 SZ I         935 32.06         7.5 0.34            161           28.5 200 
 BRR  HZ EP        935 18.01                             151    0.2610 74.4 294 
 BRR  HN ES        935 34.87                             151    0.4510 74.4 294 
 BRR  HZ I         935 36.23         6.8 0.38            145           74.4 294 
 SPBC HN ES   1    935 47.75                             128   -0.51 7  170 220 
 SML  HE ES   1    936  0.52                             118   -0.86 6  243 334 
 SML  HZ I         936  5.63         5.2 0.10            115            243 334 
 CHI  HZ EP   1    935 34.35                             117   -0.32 6  254 196 
 CHI  HN ES   4    936  2.25                             117   -2.28 0  254 196 
 CHI  HZ I         936 12.26         1.1 0.32            113            254 196 
 MON  HN ES   4    936 20.52                             109   -3.50 0  356 307 
 PRA  HZ EP   1    935 51.18                             106    0.55 4  398 210 
                                                                                
