 2012 1229 0558 30.0 L   6.708 -73.147146.2  RSN  4 0.5 1.3LRSN                1
 GAP=230        0.94       9.9     9.6 10.1  0.4675E+02  0.1048E+02  0.1840E+01E
 Epicentro: VILLANUEVA - SANTANDER                                             3
 ACTION:UPD 13-01-04 14:31 OP:ep   STATUS:               ID:20121229055830 L   I
 2012-12-29-0550-00M.COL___242                                                 6
 STAT SP IPHASW D HRMM SECON CODA AMPLIT PERI AZIMU VELO AIN AR TRES W  DIS CAZ7
 BAR2 SZ EP   1    558 49.72                             175    0.15 7 13.4 197 
 BAR2 SZ ES   1    559  3.86                             175   -0.93 7 13.4 197 
 BAR2 SZ I         559  7.45         6.0 0.40                          13.4 197 
 BRR  HZ EP   1    558 51.57                             151    0.03 7 76.4 305 
 BRR  HN ES   1    559  8.96                             151    0.66 7 76.4 305 
 BRR  HZ I         559 13.24         4.2 0.12                          76.4 305 
 RUS  HZ EP   1    558 53.09                             147   -0.04 7 90.5 175 
 RUS  HE ES   1    559 11.71                             147    0.56 7 90.5 175 
 RUS  HZ I         559 13.21         1.5 0.26                          90.5 175 
 PTB  HZ EP   1    558 56.54                             132   -0.34 7  146 263 
 PTB  HN ES   1    559 17.66                             132   -0.15 7  146 263 
 PTB  HZ I         559 20.16         3.2 0.12                           146 263 
                                                                                
