 2016  929 0717 14.5 L   6.008 -74.002  6.6  RSN  6 0.6 1.1LRSN                1
 GAP= 94        1.09       2.5     3.5  8.0  0.6656E+00  0.9395E+01  0.2702E+01E
 Epicentro: LA BELLEZA - SANTANDER                                             3
 ACTION:UPD 17-08-17 21:17 OP:lp   STATUS:               ID:20160929071714 L   I
 OLDACT:UP  16-09-29 17:09 OP:dani STATUS:               ID:20160929070641d    3
 OLDACT:UP  16-09-29 17:09 OP:dani STATUS:               ID:20160929070641d    3
 OLDACT:DUP 16-09-29 17:05 OP:dani STATUS:               ID:20160929070641d    3
 OLDACT:UP  16-09-29 17:02 OP:dani STATUS:               ID:20160929070640     3
 OLDACT:REG 16-09-29 13:27 OP:dani STATUS:               ID:20160929070640     3
 2016-09-29-0707-00M.COL___366                                                 6
 STAT SP IPHASW D HRMM SECON CODA AMPLIT PERI AZIMU VELO AIN AR TRES W  DIS CAZ7
 SPBC HZ EP        717 21.28                              93   -0.0310 40.1 191 
 SPBC HN ES        717 26.94                              93    0.3410 40.1 191 
 SPBC HZ I         717 28.22        16.6 0.09             47           40.1 191 
 PTB  HZ EP        717 26.79                              91   -0.0810 77.3 319 
 PTB  HN ES        717 36.04                              91   -0.4510 77.3 319 
 PTB  HZ I         717 36.60        12.8 0.19             47           77.3 319 
 RUS  HZ EP        717 31.04                              91   -0.1310  103  97 
 RUS  HE ES   2    717 42.67                              91   -1.48 5  103  97 
 RUS  HZ I         717 47.57         2.5 0.23             47            103  97 
 BRR  HZ EP        717 34.68                              91    0.5110  126  15 
 BRR  HE ES   2    717 50.77                              91    1.28 5  126  15 
 BRR  HZ I         717 51.91         2.3 0.14             47            126  15 
 GUY2CHZ EP   4    717 43.31                              56    1.41 0  174 240 
 GUY2CHN ES        718  3.20                              56   -0.06 9  174 240 
 GUY2CHZ I         718  8.04         2.0 0.29                           174 240 
 PAM  EZ EP   9    717 47.90                              56    2.01 0  206  44 
 PAM  EN ES        718 12.81                              37    0.45 8  206  44 
 PAM  EZ I         718 14.88         3.1 0.29             37            206  44 
                                                                                
