 2014  629 0243 12.9 L   6.782 -73.133146.8  RSN  6 0.3 1.4LRSN                1
 GAP=184        0.90       4.1     5.2  7.2  0.6906E+01  0.4915E+01 -0.1581E+01E
 Epicentro: LOS SANTOS - SANTANDER                                             3
 ACTION:UPD 14-07-01 22:57 OP:nd   STATUS:               ID:20140629024312 L   I
 OLDACT:REG 14-06-29 13:05 OP:carl STATUS:               ID:20140629023813     3
 2014-06-29-0238-13M.COL___234                                                 6
 STAT SP IPHASW D HRMM SECON CODA AMPLIT PERI AZIMU VELO AIN AR TRES W  DIS CAZ7
 BAR2 SZ EP        243 32.73                             171    0.0910 21.7 194 
 BAR2 SZ ES        243 47.68                             171   -0.3510 21.7 194 
 BAR2 SZ I         243 51.84         5.6 0.22            167           21.7 194 
 BRR  HZ EP        243 34.75                             152    0.4510 73.4 299 
 BRR  HN ES        243 51.61                             152    0.6310 73.4 299 
 BRR  HZ I         243 55.10         4.8 0.40            150           73.4 299 
 RUS  HZ EP        243 36.74                             145    0.1210 98.5 177 
 RUS  HN ES        243 55.10                             145   -0.0210 98.5 177 
 RUS  HZ I         243 57.00         1.5 0.42            146           98.5 177 
 PTB  HZ EP        243 39.74                             132   -0.32 9  149 260 
 PTB  HN ES        244  0.89                             132   -0.34 9  149 260 
 PTB  HZ I         244  8.10         5.4 0.42            131            149 260 
 OCA  HN ES        244  3.36                             129   -0.44 9  162 353 
 ZAR  HN ES        244 11.18                             122    0.02 8  206 292 
 ZAR  HZ I         244 17.58         3.8 0.36            123            206 292 
                                                                                
