 2012 1129 0630 23.2 L   6.805 -73.180145.6  RSN  9 0.3 1.7LRSN                1
 GAP=132        0.76       2.4     3.5  5.1  0.1840E-01  0.6208E+01  0.8258E+00E
 Epicentro: LOS SANTOS - SANTANDER                                             3
 ACTION:UPD 12-12-05 15:36 OP:}ep  STATUS:               ID:20121129063023 L   I
 2012-11-29-0626-40M.COL___202                                                 6
 STAT SP IPHASW D HRMM SECON CODA AMPLIT PERI AZIMU VELO AIN AR TRES W  DIS CAZ7
 BAR2 SZ EP        630 42.96                             170    0.1110 23.5 181 
 BAR2 SZ ES        630 57.89                             170   -0.2710 23.5 181 
 BAR2 SZ I         630 59.51        17.1 0.20                          23.5 181 
 GIR2 SZ EP        630 43.02                             168    0.1510 30.3 357 
 GIR2 SZ ES        630 58.35                             168    0.1710 30.3 357 
 GIR2 SZ I         630 59.48         4.3 0.28                          30.3 357 
 PAM  SZ EP        630 45.77                             150    0.2110 79.4  42 
 PAM  SN ES        631  3.13                             150    0.1610 79.4  42 
 PAM  SN I         631  4.29         5.8 0.68                          79.4  42 
 RUS  HE ES        631  5.42                             143   -0.1810  101 174 
 RUS  HE I         631  6.29        12.3 0.48                           101 174 
 PTB  HZ EP        630 49.82                             133   -0.05 9  144 258 
 PTB  HN ES        631 10.67                             133    0.03 9  144 258 
 PTB  HN I         631 16.61         5.6 0.24                           144 258 
 OCA  HN ES        631 13.34                             130   -0.11 9  159 354 
 OCA  HN I         631 17.73        17.4 0.26                           159 354 
 ZAR  HN ES        631 20.83                             123    0.54 9  200 292 
 ZAR  HN I         631 27.47         7.3 0.26                           200 292 
 SML  HE ES        631 27.13                             118   -0.89 8  242 336 
 CHI  HZ EP        631  1.10                             117    0.22 8  248 194 
 CHI  HN ES        631 29.90                             117   -0.34 8  248 194 
 CHI  HN I         631 36.78         2.6 0.46                           248 194 
                                                                                
