 2012  729 0924 21.4 L   6.731 -73.184145.7  RSN  4 0.2 1.5LRSN                1
 GAP=228        0.47       5.6     5.3  5.9  0.1479E+02  0.4445E+01  0.1861E+01E
 Epicentro: VILLANUEVA - SANTANDER                                             3
 ACTION:UPD 12-08-14 11:46 OP:ep   STATUS:               ID:20120729092421 L   I
 2012-07-29-0920-00M.COL___215                                                 6
 STAT SP IPHASW D HRMM SECON CODA AMPLIT PERI AZIMU VELO AIN AR TRES W  DIS CAZ7
 BAR2 SZ EP        924 40.79                             174    -0.110   15 179 
 BAR2 SZ I         924 40.91         4.3 0.36            174             15 179 
 BAR2 SZ ES   2    924 55.64                             174    -0.4 5   15 179 
 BRR  HZ EP        924 42.60                             152     0.110   72 305 
 BRR  HZ I         924 42.79         8.2 0.30            152             72 305 
 BRR  HN ES   2    924 59.35                             152     0.3 5   72 305 
 RUS  HZ EP        924 44.77                             146     0.210   93 173 
 RUS  HN ES   2    925  2.69                             146     0.0 5   93 173 
 PTB  HZ EP        924 47.62                             133    -0.2 9  142 261 
 PTB  HN ES   2    925  8.62                             133     0.1 5  142 261 
