 2012  929 0908 39.1 L   6.786 -73.112142.4  RSN  5 0.2 1.8LRSN                1
 GAP=142        0.56       3.8     5.6  5.4 -0.1080E+01  0.3110E+01  0.1664E+01E
 Epicentro: LOS SANTOS - SANTANDER                                             3
 ACTION:UPD 12-10-22 14:21 OP:ep   STATUS:               ID:20120929090839 L   I
 2012-09-29-0900-00M.COL___220                                                 6
 STAT SP IPHASW D HRMM SECON CODA AMPLIT PERI AZIMU VELO AIN AR TRES W  DIS CAZ7
 BAR2 SZ EP   1    9 8 58.41                             170    0.06 7 22.8 200 
 BAR2 SZ ES   1    9 9 12.86                             170   -0.48 7 22.8 200 
 BAR2 SZ I         9 9 15.48        22.2 0.26                          22.8 200 
 BRR  HZ EP        9 8 59.94                             151   -0.2110 75.2 298 
 BRR  HN ES   1    9 9 16.92                             151    0.37 7 75.2 298 
 BRR  HZ I         9 9 20.20        10.3 0.12                          75.2 298 
 PAM  SZ EP   1    9 9  0.98                             151    0.06 7 76.3  37 
 PAM  SN ES   1    9 9 18.01                             151    0.09 7 76.3  37 
 PAM  SZ I         9 9 20.15        10.2 0.44                          76.3  37 
 RUS  HN ES   1    9 9 20.85                             144    0.25 7 98.9 178 
 RUS  HZ I         9 9 21.97         8.2 0.22                          98.9 178 
 CHI  HZ EP   1    9 9 16.63                             116    0.04 6  248 196 
                                                                                
