 2011 1129 0515  2.5 L   6.828 -73.099143.8  RSN  5 0.3 1.4LRSN                1
 GAP=141        0.63       4.9     6.0  8.1 -0.2098E+01 -0.4330E+01  0.1442E+02E
 Epicentro: LOS SANTOS - SANTANDER                                             3
 ACTION:UPD 12-07-13 16:13 OP:ep   STATUS:               ID:20111129051502 L   I
 2011-11-29-0512-52S.COL___160                                                 6
 STAT SP IPHASW D HRMM SECON CODA AMPLIT PERI AZIMU VELO AIN AR TRES W  DIS CAZ7
 BAR2 SZ EP        515 21.63                             169   -0.3410 27.7 199 
 BAR2 SZ I         515 38.26         7.1 0.38                          27.7 199 
 PAM  SZ EP        515 24.53                             152    0.3810 71.7  38 
 PAM  SN ES   1    515 40.81                             152   -0.25 7 71.7  38 
 BRR  HZ EP        515 23.49                             151   -0.1110 74.4 295 
 BRR  HN ES   1    515 40.35                             151    0.27 7 74.4 295 
 BRR  HZ I         515 43.31         8.0 0.12                          74.4 295 
 RUS  HZ EP        515 26.33                             142    0.0810  103 179 
 RUS  HN ES   2    515 44.88                             142    0.09 5  103 179 
 RUS  HZ I         515 46.56         2.1 0.44                           103 179 
 OCA  SZ ES   3    515 51.34                             129   -0.86 2  158 351 
 OCA  SZ I         515 54.82         3.7 0.20                           158 351 
                                                                                
