 2011  729 0548 21.7 L   6.835 -72.985144.0  RSN  4 0.2 1.2LRSN                1
 GAP=176        0.43       3.8     6.7  8.2  0.4180E+00 -0.2419E+02  0.2191E+01E
 Epicentro: CEPITA - SANTANDER                                                 3
 ACTION:UPD 12-07-25 14:04 OP:epov STATUS:               ID:20110729054821 L   I
 2011-07-29-0540-00M.COL___140                                                 6
 STAT SP IPHASW D HRMM SECON CODA AMPLIT PERI AZIMU VELO AIN AR TRES W  DIS CAZ7
 BAR2 SZ EP   1    548 41.57                             166    0.20 7 34.5 219 
 BAR2 SZ I         548 42.18         3.3 0.14                          34.5 219 
 BRR  HZ EP   1    548 43.23                             148   -0.29 7 85.7 291 
 BRR  HN ES   1    549  0.69                             148    0.13 7 85.7 291 
 BRR  HZ I         549  3.94         4.0 0.19                          85.7 291 
 RUS  HZ EP   2    548 45.39                             143   -0.16 5  105 186 
 RUS  HN ES   2    549  4.14                             143   -0.04 5  105 186 
 RUS  HZ I         549  5.92         1.5 0.30                           105 186 
 GRA  SZ EP   2    548 46.41                             139    0.31 5  118  10 
 GRA  SZ ES   2    549  4.95                             139   -0.21 5  118  10 
 GRA  SZ I         549  9.05         4.5 0.50                           118  10 
                                                                                
