 2013 1029 0600  7.6 L   6.808 -73.165146.7  RSN  9 0.5 1.7LRSN                1
 GAP=181        1.25       4.9     7.1  8.4  0.7351E+01  0.6392E+01  0.8463E+01E
 Epicentro: LOS SANTOS - SANTANDER                                             3
 ACTION:UPD 13-11-25 09:24 OP:ep   STATUS:               ID:20131029060007 L   I
 OLDACT:REG 13-10-29 07:03 OP:jn   STATUS:               ID:20131029060000     3
 2013-10-29-0600-00M.COL___273                                                 6
 STAT SP IPHASW D HRMM SECON CODA AMPLIT PERI AZIMU VELO AIN AR TRES W  DIS CAZ7
 BAR2 SZ EP        6 0 27.56                             170    0.1910 23.9 185 
 BAR2 SZ ES        6 0 41.99                             170   -0.7910 23.9 185 
 BAR2 SZ I         6 0 43.63        21.3 0.22            169           23.9 185 
 BRR  HZ EP        6 0 29.20                             153    0.4610 68.9 299 
 BRR  HN ES        6 0 46.33                             153    1.1110 68.9 299 
 BRR  HZ I         6 0 48.04         7.4 0.12            153           68.9 299 
 RUS  HZ EP        6 0 31.50                             144   -0.0310  102 175 
 RUS  HN ES        6 0 50.34                             144    0.1610  102 175 
 RUS  HZ I         6 0 51.18         7.6 0.24            144            102 175 
 PTB  HZ EP        6 0 34.09                             133   -0.39 9  146 258 
 PTB  HN ES        6 0 54.96                             133   -0.49 9  146 258 
 PTB  HZ I         6 0 57.22         6.9 0.18            133            146 258 
 OCA  HE ES   1    6 0 57.17                             130   -0.79 7  159 354 
 SPBC HZ EP        6 0 36.39                             129    0.27 9  163 218 
 SPBC HE ES        6 0 58.56                             129    0.20 9  163 218 
 SPBC HZ I         6 1  0.99         7.5 0.36            130            163 218 
 ZAR  HN ES   1    6 1  4.62                             123   -0.44 6  202 292 
 CHI  HZ EP        6 0 45.41                             117    0.02 8  249 195 
 CHI  HN ES        6 1 14.54                             117   -0.32 8  249 195 
 CHI  HZ I         6 1 18.44         3.5 0.46            118            249 195 
 GUY2CHZ EP   4    6 0 52.45                             113    1.33 0  300 234 
 GUY2CHZ I         6 1 31.63         2.1 0.36                           300 234 
                                                                                
