 2014  729 0802 12.8 L   6.803 -73.169137.3  RSN 16 0.4 2.0LRSN                1
 GAP=133        0.84       2.3     2.9  4.6 -0.1021E+01  0.5413E+01  0.6985E+00E
 Epicentro: LOS SANTOS - SANTANDER                                             3
 ACTION:UPD 15-03-16 20:48 OP:nd   STATUS:               ID:20140729080212 L   I
 OLDACT:UP  14-07-29 18:18 OP:spq  STATUS:               ID:20140729080000     3
 OLDACT:REG 14-07-29 13:38 OP:mh   STATUS:               ID:20140729080000     3
 2014-07-29-0800-00M.COL___282                                                 6
 STAT SP IPHASW D HRMM SECON CODA AMPLIT PERI AZIMU VELO AIN AR TRES W  DIS CAZ7
 BAR2 SZ IP     D  8 2 31.60                             170    0.2210 23.4 184 
 BAR2 SZ ES   1    8 2 45.56                             170   -0.34 7 23.4 184 
 BAR2 SZ I         8 2 48.15        38.3 0.16            168           23.4 184 
 PAM  SZ EP        8 2 34.47                             149    0.2910 78.8  41 
 PAM  SN ES        8 2 51.25                             149    0.3710 78.8  41 
 PAM  SZ I         8 2 53.81        15.0 0.50            149           78.8  41 
 RUS  HZ EP        8 2 35.49                             142   -0.2510  101 175 
 RUS  HN ES        8 2 53.76                             142    0.1010  101 175 
 RUS  HZ I         8 2 55.46        19.4 0.32            139            101 175 
 PTB  HZ EP        8 2 37.98                             130   -0.85 9  145 258 
 PTB  HN ES        8 2 58.83                             130   -0.32 9  145 258 
 PTB  HZ I         8 3  1.54         9.3 0.19            127            145 258 
 SPBC HZ EP        8 2 40.25                             127   -0.25 9  162 218 
 SPBC HE ES        8 3  2.26                             127    0.13 9  162 218 
 SPBC HZ I         8 3  5.26        20.1 0.34            124            162 218 
 ZAR  HZ EP        8 2 44.06                             121   -0.35 9  201 292 
 ZAR  HN ES        8 3  9.27                             121    0.18 9  201 292 
 ZAR  HZ I         8 3 15.51         8.0 0.31            118            201 292 
 NOR  HZ EP        8 2 47.73                             117   -0.08 8  233 234 
 NOR  HE ES        8 3 15.34                             117    0.19 8  233 234 
 NOR  HZ I         8 3 20.47         8.4 0.16            114            233 234 
 SML  HZ EP        8 2 48.49                             116   -0.29 8  242 336 
 SML  HN ES        8 3 16.70                             116   -0.17 8  242 336 
 SML  HZ I         8 3 20.82        15.9 0.09            113            242 336 
 CHI  HZ EP     C  8 2 49.74                             115   -0.24 8  248 195 
 CHI  HE ES        8 3 18.65                             115   -0.35 8  248 195 
 CHI  HZ E      C  8 3 23.61                                            248 195 
 CHI  HZ I         8 3 24.64         5.3 0.34            113            248 195 
 HEL  HZ EP        8 2 53.02                             113    0.73 8  270 256 
 HEL  HN ES        8 3 22.94                             113   -0.18 8  270 256 
 HEL  HZ I         8 3 30.53         4.8 0.26            111            270 256 
 GUY2CHZ EP        8 2 56.55                             111    0.77 7  299 234 
 GUY2CHE ES        8 3 29.80                             111    0.47 7  299 234 
 GUY2CHZ I         8 3 39.14         3.5 0.64                           299 234 
 RREF HZ EP   1    8 2 58.28                             109   -0.08 5  320 229 
 RREF HN ES   1    8 3 33.37                             109   -0.55 5  320 229 
 RREF HZ I         8 3 38.70         5.2 0.26            107            320 229 
 CBOC HZ EP        8 2 59.54                             108    0.47 7  331 252 
 CBOC HN ES        8 3 35.55                             108    0.36 7  331 252 
 CBOC HZ I         8 3 44.47         1.3 0.24            106            331 252 
 TOL  SZ EP        8 3  0.96                             108    0.45 7  342 224 
 TOL  SZ I         8 3 44.20         8.6 0.20            106            342 224 
 PRA  HZ EP        8 3  5.20                             105   -0.70 6  391 209 
 PRA  HE ES        8 3 47.27                             105   -0.06 6  391 209 
 PRA  HZ I         8 3 53.63         5.9 0.44            103            391 209 
 ORTC HZ EP        8 3  6.46                             105    0.20 6  394 216 
 ORTC HN ES        8 3 48.42                             105    0.43 6  394 216 
 ORTC HZ I         8 3 54.62         3.7 0.55            103            394 216 
                                                                                
