 2014  629 0458  0.4 L   6.780 -73.162149.1  RSN  6 0.4 1.5LRSN                1
 GAP=181        0.94       3.9     5.9  8.3  0.5252E+01  0.1556E+02 -0.7235E+01E
 Epicentro: LOS SANTOS - SANTANDER                                             3
 ACTION:UPD 14-07-01 22:57 OP:nd   STATUS:               ID:20140629045800 L   I
 OLDACT:REG 14-06-29 13:08 OP:carl STATUS:               ID:20140629044818     3
 2014-06-29-0448-18M.COL___231                                                 6
 STAT SP IPHASW D HRMM SECON CODA AMPLIT PERI AZIMU VELO AIN AR TRES W  DIS CAZ7
 BAR2 SZ ES        458 35.96                             172    0.0010 20.9 186 
 BAR2 SZ I         458 38.23         7.2 0.38            173           20.9 186 
 RUS  HZ EP        458 24.49                             145    0.1710 98.5 175 
 RUS  HN ES        458 42.84                             145   -0.1510 98.5 175 
 RUS  HZ I         458 44.27         3.0 0.24            148           98.5 175 
 PTB  HZ EP        458 27.35                             133   -0.08 9  146 260 
 PTB  HN ES        458 48.27                             133   -0.26 9  146 260 
 PTB  HZ I         458 51.31         4.1 0.10            135            146 260 
 OCA  HN ES        458 51.98                             130    0.42 9  162 354 
 OCA  HZ I         458 54.33         3.7 0.18            132            162 354 
 ZAR  HZ EP        458 33.07                             123    0.11 9  203 293 
 ZAR  HN ES        458 58.99                             123    0.61 9  203 293 
 ZAR  HZ I         459  2.56         2.6 0.12            125            203 293 
 SML  HN ES        459  5.20                             118   -0.95 8  245 336 
                                                                                
