 2010  829 0824 31.0 L   6.789 -73.083140.4  RSN  5 0.3 1.6LRSN                1
 GAP=193        0.62       4.9     8.3  6.0 -0.1972E+02 -0.6463E+01  0.2546E+01E
 Epicentro: LOS SANTOS - SANTANDER                                             3
 ACTION:UP  10-09-07 10:59 OP:vdl  STATUS:               ID:20100829082431 L   I
 2010-08-29-0821-23S.COL___120                                                 6
 STAT SP IPHASW D HRMM SECON CODA AMPLIT PERI AZIMU VELO SNR AR TRES W  DIS CAZ7
 BAR2 SZ EP   1    824 49.92                             170     0.0 7   24 207 
 BAR2 SZ ES   1    825  4.66                             170    -0.1 7   24 207 
 BAR2 SZ I         825  6.34         8.1 0.40                            24 207 
 BRR  HZ EP   1    824 51.79                             149    -0.1 7   78 297 
 BRR  HE ES   1    825  8.53                             149     0.2 7   78 297 
 BRR  HZ I         825  9.81        10.6 0.12                            78 297 
 GRA  SZ EP   1    824 55.88                             136     0.2 7  125  14 
 GRA  SZ ES   1    825 15.21                             136     0.3 7  125  14 
 GRA  SZ I         825 16.57         3.3 0.22                           125  14 
 OCA  SZ EP   1    824 58.51                             128    -0.6 7  162 351 
 OCA  SZ I         825 25.18         4.3 0.47                           162 351 
 PRA  HZ EP   1    825 24.58                             106     0.0 4  394 211 
 PRA  HN ES   2    826  6.93                             106     0.5 3  394 211 
 PRA  HZ I         826 12.81         1.5 0.29                           394 211 
                                                                                
