 2017 1129 0920  2.4 L   6.824 -73.176138.8  RSN 16 0.4 1.9LRSN                1
 GAP= 63        0.92       2.4     2.5  5.0 -0.2615E+00  0.3151E+01 -0.8570E+00E
 Epicentro: ZAPATOCA - SANTANDER                                               3
 ACTION:UPD 17-12-12 20:01 OP:rebc STATUS:               ID:20171129092002 L   I
 OLDACT:UP  17-11-29 17:22 OP:dnl  STATUS:               ID:20171129091406     3
 OLDACT:REG 17-11-29 12:41 OP:dhb  STATUS:               ID:20171129091406     3
 2017-11-29-0918-00M.COL___480                                                 6
 STAT SP IPHASW D HRMM SECON CODA AMPLIT PERI AZIMU VELO AIN AR TRES W  DIS CAZ7
 BAR2 EZ IP     C  920 21.22                             169   -0.0210 25.6 182 
 BAR2 EZ ES        920 35.87                             169   -0.0610 25.6 182 
 BAR2 EZ I         920 37.05        26.7 0.18            167           25.6 182 
 PAM  EZ EP        920 24.22                             149    0.3310 77.6  43 
 PAM  EN ES        920 41.12                             149    0.4710 77.6  43 
 PAM  EZ I         920 43.19        19.3 0.44            147           77.6  43 
 RUS  HZ EP        920 25.27                             142   -0.4210  103 174 
 RUS  HE ES        920 43.99                             142    0.1410  103 174 
 RUS  HZ I         920 45.36         8.2 0.42            138            103 174 
 PTB  HZ EP        920 28.15                             131   -0.40 9  145 258 
 PTB  HE ES        920 48.82                             131   -0.13 9  145 258 
 PTB  HZ I         920 51.59         8.3 0.16            127            145 258 
 OCA  HZ EP        920 29.93                             129    0.04 9  157 354 
 OCA  HE ES        920 51.41                             129    0.08 9  157 354 
 TAM  HZ IP     C  920 29.62                             128   -0.29 9  159 106 
 TAM  HZ I         920 49.89         7.0 0.46            125            159 106 
 TAM  HN ES        920 50.99                             128   -0.37 9  159 106 
 SPBC HZ EP        920 30.54                             127    0.17 9  163 217 
 SPBC HE ES        920 52.73                             127    0.54 9  163 217 
 SPBC HZ I         920 56.64        12.7 0.22            124            163 217 
 YPLC HZ EP     C  920 31.73                             124   -0.36 9  181 151 
 YPLC HE ES        920 55.13                             124   -0.11 9  181 151 
 YPLC HZ I         920 57.84         6.6 0.34            121            181 151 
 ZAR  HZ EP        920 34.30                             121    0.33 9  200 292 
 ZAR  HN ES   4    921  0.31                             121    1.71 0  200 292 
 ZAR  HZ I         921  6.18         9.8 0.22            118            200 292 
 NOR  HZ EP   4    920 39.31                             117    1.70 0  234 233 
 NOR  HN ES        921  4.81                             117   -0.26 8  234 233 
 NOR  HZ I         921  9.58         5.5 0.24            114            234 233 
 HEL  HZ EP        920 43.09                             114    1.11 8  269 255 
 HEL  HN ES        921 12.40                             114   -0.45 8  269 255 
 HEL  HZ I         921 20.62         3.9 0.28            110            269 255 
 URE  HZ EP   4    920 43.95                             113    1.27 0  280 292 
 URE  HN ES        921 13.55                             113   -0.55 7  280 292 
 URE  HZ I         921 22.88         5.9 0.18            110            280 292 
 DRL03HZ EP   4    920 44.39                             112    1.04 0  286 353 
 DRL03HN ES        921 14.96                             112   -0.32 7  286 353 
 GUY2CHZ EP   9    920 47.39                             111    1.83 0  300 234 
 GUY2CHE ES        921 20.90                             111   -0.15 7  300 234 
 GUY2CHZ I         921 26.59         3.5 0.26                           300 234 
 PRA  HZ EP        920 56.59                             105    0.83 6  393 209 
 PRA  HN ES   4    921 36.03                             105   -1.36 0  393 209 
 PRA  HZ I         921 44.65         2.2 0.54            103            393 209 
 SJC  HZ EP   4    920 56.17                             105   -1.10 0  405 327 
 SJC  HN ES   4    921 35.64                             105   -4.42 0  405 327 
 SJC  HZ I         921 39.45         2.0 0.46            102            405 327 
                                                                                
