 2014  829 0502 50.8 L   6.774 -73.182149.4  RSN  9 0.4 1.7LRSN                1
 GAP=204        0.95       3.9     6.4  7.4  0.3397E+01  0.1382E+01  0.4020E+01E
 Epicentro: LOS SANTOS - SANTANDER                                             3
 ACTION:UPD 14-09-15 21:54 OP:nd   STATUS:               ID:20140829050250 L   I
 OLDACT:REG 14-08-29 13:24 OP:fm   STATUS:               ID:20140829045808     3
 2014-08-29-0458-08M.COL___278                                                 6
 STAT SP IPHASW D HRMM SECON CODA AMPLIT PERI AZIMU VELO AIN AR TRES W  DIS CAZ7
 BAR2 SZ EP        5 3 10.46                             172   -0.3910 20.0 180 
 BAR2 SZ ES   1    5 3 26.03                             172   -0.42 7 20.0 180 
 BAR2 SZ I         5 3 26.69         8.5 0.26            167           20.0 180 
 BRR  HZ EP        5 3 12.20                             154   -0.0810 69.3 302 
 BRR  HN ES        5 3 29.51                             154    0.5110 69.3 302 
 BRR  HZ I         5 3 33.29         6.2 0.60            149           69.3 302 
 PTB  HZ EP   1    5 3 17.14                             134   -0.57 7  143 260 
 PTB  HN ES        5 3 38.23                             134   -0.44 9  143 260 
 PTB  HZ I         5 3 43.38         5.1 0.50            130            143 260 
 SPBC HZ EP        5 3 19.39                             131    0.21 9  158 219 
 SPBC HN ES        5 3 41.87                             131    0.59 9  158 219 
 SPBC HZ I         5 3 46.49         6.0 0.22            128            158 219 
 ZAR  HN ES        5 3 48.11                             124   -0.45 9  202 293 
 ZAR  HZ I         5 3 54.70         3.5 0.32            122            202 293 
 CHI  HN ES   1    5 3 57.85                             118    0.28 6  245 194 
 CHI  HZ I         5 4  2.20         3.1 0.36            118            245 194 
 SML  HN ES        5 3 57.18                             118    0.58 8  245 336 
 SML  HZ I         5 3 59.43         4.7 0.10            118            245 336 
 GUY2CHZ EP   1    5 3 34.28                             113    0.21 5  296 235 
 GUY2CHN ES   4    5 4 11.03                             113    3.25 0  296 235 
 GUY2CHZ I         5 4 16.89         1.8 0.58                           296 235 
 PRA  HZ EP   1    5 3 43.88                             107   -0.09 4  388 209 
 PRA  HN ES   4    5 4 25.48                             107    0.08 0  388 209 
 PRA  HZ I         5 4 33.72         2.2 0.32            107            388 209 
                                                                                
