 2017 1029 0620 35.6 L   6.761 -73.153146.3  RSN  7 0.4 1.1LRSN                1
 GAP=137        1.04       4.3     4.5  6.7 -0.7943E+00  0.8220E+01 -0.1892E-01E
 Epicentro: LOS SANTOS - SANTANDER                                             3
 ACTION:UPD 17-11-07 19:38 OP:rebc STATUS:               ID:20171029062035 L   I
 OLDACT:REG 17-10-29 13:32 OP:dhb  STATUS:               ID:20171029061738     3
 2017-10-29-0618-00M.COL___408                                                 6
 STAT SP IPHASW D HRMM SECON CODA AMPLIT PERI AZIMU VELO AIN AR TRES W  DIS CAZ7
 BAR2 EZ ES        621  9.94                             172   -0.5910 18.9 190 
 BRR  HZ EP        620 56.99                             152    0.0910 72.7 302 
 BRR  HN ES        621 14.22                             152    0.7110 72.7 302 
 PAM  EZ EP        620 58.23                             150    0.1110 81.3  38 
 PAM  EE ES        621 15.51                             150   -0.1610 81.3  38 
 RUS  HZ EP        620 59.48                             145    0.3710 96.3 175 
 RUS  HN ES        621 17.52                             145    0.0710 96.3 175 
 RUS  HZ I         621 19.12         1.7 0.34            145           96.3 175 
 PTB  HZ EP        621  2.00                             132   -0.48 9  146 260 
 PTB  HN ES        621 22.78                             132   -0.65 9  146 260 
 PTB  HZ I         621 28.00         1.0 0.26            132            146 260 
 SPBC HZ EP        621  3.73                             130   -0.06 9  159 220 
 SPBC HN ES        621 26.20                             130    0.44 9  159 220 
 SPBC HZ I         621 28.80         2.4 0.28            130            159 220 
 ZAR  HZ EP        621  7.93                             122   -0.25 9  205 293 
 ZAR  HN ES        621 33.92                             122    0.33 9  205 293 
                                                                                
