 2017 1029 0425 26.7 L   6.791 -73.129145.4  RSN 11 0.6 1.8LRSN                1
 GAP=121        1.38       5.0     4.9  7.3  0.1232E+01  0.7141E+01  0.1160E+02E
 Epicentro: LOS SANTOS - SANTANDER                                             3
 ACTION:UPD 17-11-07 19:38 OP:rebc STATUS:               ID:20171029042526 L   I
 OLDACT:REG 17-10-29 13:22 OP:dhb  STATUS:               ID:20171029041738     3
 2017-10-29-0418-00M.COL___408                                                 6
 STAT SP IPHASW D HRMM SECON CODA AMPLIT PERI AZIMU VELO AIN AR TRES W  DIS CAZ7
 BAR2 EZ EP        425 46.27                             171   -0.0410 22.8 195 
 BAR2 EZ ES        426  1.29                             171   -0.2910 22.8 195 
 BAR2 EZ I         426  2.32        17.5 0.36            167           22.8 195 
 BRR  HN ES        426  5.14                             152    0.6210 73.3 299 
 BRR  HZ I         426  7.55         7.3 0.36            151           73.3 299 
 PAM  EZ EP        425 49.07                             151    0.1810 77.0  38 
 PAM  EN ES        426  6.28                             151    0.1110 77.0  38 
 PAM  EZ I         426  8.39         8.1 0.56            155           77.0  38 
 RUS  HZ EP        425 50.47                             144    0.1010 99.5 177 
 RUS  HN ES        426  9.05                             144    0.2410 99.5 177 
 RUS  HZ I         426  9.92         6.6 0.26            143           99.5 177 
 PTB  HZ EP        425 53.41                             132   -0.41 9  149 259 
 PTB  HN ES        426 14.19                             132   -0.75 9  149 259 
 PTB  HZ I         426 20.64         3.9 0.42            131            149 259 
 SPBC HZ EP        425 55.51                             129    0.27 9  164 220 
 SPBC HE ES        426 18.10                             129    0.62 9  164 220 
 SPBC HZ I         426 21.67         8.5 0.18            128            164 220 
 ZAR  HZ EP        425 59.40                             122    0.03 8  206 292 
 ZAR  HN ES        426 24.24                             122   -0.58 8  206 292 
 ZAR  HZ I         426 29.46         7.0 0.24            122            206 292 
 NOR  HZ EP        426  2.59                             118    0.05 8  236 235 
 NOR  HN ES        426 29.31                             118   -1.16 8  236 235 
 NOR  HZ I         426 39.62         3.2 0.44            118            236 235 
 GUY2CHZ EP        426 11.68                             112    1.25 7  302 235 
 GUY2CHN ES   2    426 45.62                             112    1.11 4  302 235 
 GUY2CHZ I         426 52.53         2.9 0.32                           302 235 
 PTGC HZ EP        426  9.44                             112   -0.96 7  307 159 
 PTGC HE ES        426 43.48                             112   -0.97 7  307 159 
 PTGC HZ I         426 51.81         3.4 0.64            112            307 159 
 PRA  HZ EP        426 20.74                             106    0.49 6  392 210 
 PRA  HE ES        427  3.43                             106    1.44 6  392 210 
 PRA  HZ I         427 11.03         3.1 0.30            107            392 210 
                                                                                
