 2017  929 0345 46.8 L   6.746 -73.094139.7  RSN  4 0.3 1.2LRSN                1
 GAP=146        0.80       4.1     4.4  6.9  0.3805E+01  0.8602E+01  0.8281E+00E
 Epicentro: LOS SANTOS - SANTANDER                                             3
 ACTION:UPD 17-10-05 19:17 OP:rebc STATUS:               ID:20170929034546 L   I
 OLDACT:REG 17-09-29 12:42 OP:edw  STATUS:               ID:20170929033740     3
 2017-09-29-0338-00M.COL___438                                                 6
 STAT SP IPHASW D HRMM SECON CODA AMPLIT PERI AZIMU VELO AIN AR TRES W  DIS CAZ7
 PAM  EZ EP     C  346  8.47                             149   -0.0410 78.8  34 
 PAM  EE ES        346 25.38                             149   -0.0310 78.8  34 
 BRR  HZ EP        346  7.47                             149   -0.3610 79.1 300 
 BRR  HN ES        346 24.46                             149    0.2710 79.1 300 
 BRR  HZ I         346 28.96         5.5 0.20            149           79.1 300 
 RUS  HZ EP        346  9.45                             144   -0.1110 94.4 179 
 RUS  HN ES        346 27.33                             144    0.0610 94.4 179 
 RUS  HZ I         346 28.28         1.9 0.44            147           94.4 179 
 ZAR  HZ EP        346 20.40                             120    0.70 8  212 293 
 ZAR  HN ES        346 44.90                             120   -0.42 8  212 293 
                                                                                
