 2014  629 0957  3.2 L   6.825 -73.197138.6  RSN  7 0.4 1.8LRSN                1
 GAP=129        1.09       3.8     4.8  8.0 -0.2436E+01  0.1464E+02 -0.2274E+01E
 Epicentro: ZAPATOCA - SANTANDER                                               3
 ACTION:UPD 14-07-01 22:57 OP:nd   STATUS:               ID:20140629095703 L   I
 OLDACT:REG 14-06-29 13:16 OP:carl STATUS:               ID:20140629094818     3
 2014-06-29-0948-18M.COL___240                                                 6
 STAT SP IPHASW D HRMM SECON CODA AMPLIT PERI AZIMU VELO AIN AR TRES W  DIS CAZ7
 BAR2 SZ EP        957 22.08                             169    0.0610 25.8 176 
 BAR2 SZ ES        957 36.69                             169   -0.0110 25.8 176 
 BAR2 SZ I         957 38.94         7.2 0.10            170           25.8 176 
 PAM  SZ EP        957 25.09                             149    0.3310 79.1  44 
 PAM  SN ES        957 42.04                             149    0.4610 79.1  44 
 PAM  SZ I         957 42.51        11.1 0.30            154           79.1  44 
 RUS  HZ EP        957 26.09                             141   -0.4010  104 173 
 RUS  HN ES        957 44.72                             141    0.0510  104 173 
 RUS  HZ I         957 45.72         5.7 0.32            145            104 173 
 PTB  HZ EP        957 28.72                             131   -0.40 9  143 257 
 PTB  HN ES        957 49.62                             131    0.27 9  143 257 
 PTB  HZ I         957 53.32         7.8 0.10            132            143 257 
 OCA  HN ES        957 51.04                             129   -1.00 9  157 355 
 SPBC HZ EP        957 31.24                             128    0.22 9  162 217 
 SPBC HE ES        957 52.28                             128   -0.45 9  162 217 
 SPBC HZ I         957 55.70        15.7 0.12            129            162 217 
 ZAR  HZ EP        957 35.19                             122    0.67 9  198 292 
 ZAR  HN ES        957 59.18                             122    0.22 9  198 292 
 ZAR  HZ I         958  7.07        11.8 0.26            123            198 292 
                                                                                
