 2011 1029 0658 24.0 L   6.769 -73.133145.3  RSN 11 0.4 2.0LRSN                1
 GAP=140        0.74       3.7     5.0  5.5 -0.3340E+01  0.8402E+01  0.2901E+01E
 Epicentro: LOS SANTOS - SANTANDER                                             3
 ACTION:UPD 12-07-13 16:06 OP:ep   STATUS:               ID:20111029065824 L   I
 2011-10-29-0656-51S.COL___176                                                 6
 STAT SP IPHASW D HRMM SECON CODA AMPLIT PERI AZIMU VELO AIN AR TRES W  DIS CAZ7
 BAR2 SZ EP        658 43.32                             171   -0.1810 20.3 196 
 BAR2 SZ ES   2    658 58.34                             171   -0.38 5 20.3 196 
 BAR2 SZ I         659  2.06        12.9 0.50                          20.3 196 
 BTL  SZ EP        658 43.94                             171    0.4110 22.3 318 
 BTL  SZ ES   3    658 59.56                             171    0.77 2 22.3 318 
 BRR  HZ EP        658 45.28                             151    0.0310 74.1 300 
 BRR  HE ES   1    659  2.28                             151    0.44 7 74.1 300 
 BRR  HZ I         659  5.00        17.7 0.16                          74.1 300 
 PAM  SZ EP        658 46.21                             151   -0.0410 79.2  37 
 PAM  SN ES   1    659  3.36                             151   -0.27 7 79.2  37 
 RUS  HZ EP        658 47.17                             145   -0.2610 97.0 177 
 RUS  HN ES   1    659  5.98                             145    0.25 7 97.0 177 
 RUS  HZ I         659  7.33         9.8 0.50                          97.0 177 
 OCA  SZ EP        658 52.33                             129   -0.26 9  164 353 
 OCA  SZ I         659 20.24        12.2 0.33                           164 353 
 ZAR  HN ES   2    659 21.62                             122   -0.54 4  207 293 
 NOR  SZ EP        658 59.53                             118   -0.06 8  234 235 
 NOR  SE ES   2    659 26.23                             118   -1.14 4  234 235 
 HEL  HZ EP   2    659  4.46                             115    0.23 4  273 257 
 HEL  HZ I         659 42.33         7.0 0.36                           273 257 
 RREF HZ EP        659 10.81                             111    0.84 7  321 230 
 RREF HZ I         659 53.72         7.0 0.24                           321 230 
 PRA  HZ EP        659 17.11                             107   -0.11 6  390 210 
                                                                                
