 2016  329 0508 39.4 L   6.877 -73.342124.1  RSN 10 0.5 1.5LRSN                1
 GAP=105        1.12       3.6     3.2  6.7  0.8475E+00  0.5497E+01 -0.1526E+01E
 Epicentro: BETULIA - SANTANDER                                                3
 ACTION:UPD 16-05-13 21:28 OP:cam  STATUS:               ID:20160329050839 L   I
 OLDACT:UP  16-03-29 16:03 OP:drio STATUS:               ID:20160329045749     3
 OLDACT:REG 16-03-29 13:04 OP:drio STATUS:               ID:20160329045749     3
 2016-03-29-0457-49M.COL___310                                                 6
 STAT SP IPHASW D HRMM SECON CODA AMPLIT PERI AZIMU VELO AIN AR TRES W  DIS CAZ7
 BAR2 EZ EP        5 8 56.91                             163    0.1110 36.1 151 
 BAR2 EZ ES        5 9 10.40                             163    0.0210 36.1 151 
 PAM  EZ EP        5 9  0.40                             143    0.3410 87.5  54 
 PAM  EE ES        5 9 16.29                             143    0.1110 87.5  54 
 PAM  EZ I         5 9 18.65         6.2 0.28            146           87.5  54 
 RUS  HZ EP        5 9  1.95                             135   -0.1210  113 165 
 RUS  HN ES        5 9 19.83                             135    0.0710  113 165 
 RUS  HZ I         5 9 20.43         2.5 0.22            136            113 165 
 PTB  HZ EP        5 9  2.12                             131   -0.7410  129 253 
 PTB  HN ES        5 9 20.25                             131   -0.9210  129 253 
 PTB  HZ I         5 9 23.94         6.4 0.40            131            129 253 
 SPBC HZ EP        5 9  6.02                             125    0.26 9  158 211 
 SPBC HE ES        5 9 26.38                             125    0.04 9  158 211 
 SPBC HZ I         5 9 33.68         5.3 0.16            125            158 211 
 TAM  HZ EP        5 9  7.43                             121   -0.38 9  178 106 
 TAM  HN ES        5 9 29.71                             121   -0.28 9  178 106 
 TAM  HZ I         5 9 34.89         4.8 0.48            123            178 106 
 ZAR  HZ EP        5 9  8.38                             120    0.36 9  181 292 
 ZAR  HN ES        5 9 31.26                             120    0.90 9  181 292 
 ZAR  HZ I         5 9 35.34         6.2 0.40            122            181 292 
 CHI  HZ EP        5 9 16.96                             112    0.58 8  252 190 
 CHI  HE ES        5 9 45.66                             112    0.42 8  252 190 
 CHI  HZ I         5 9 51.75         1.3 0.52            113            252 190 
 GUY2CHZ EP   4    5 9 23.56                             109    2.89 0  289 231 
 GUY2CHE ES   4    5 9 54.14                             109    1.26 0  289 231 
 GUY2CHZ I         510  0.58         1.8 0.38                           289 231 
 MON  HZ EP        5 9 24.22                             106   -0.79 7  331 310 
 MON  HE ES        510  0.68                             106    0.07 7  331 310 
                                                                                
