 2015  929 0105  8.7 L   6.786 -73.130145.5  RSN 26 0.5 2.6LRSN                1
 GAP= 72        1.06       2.4     2.7  4.7 -0.1390E+01  0.2757E+01 -0.3929E+00E
 Epicentro: LOS SANTOS - SANTANDER                                             3
 ACTION:UPD 15-10-28 16:28 OP:cam  STATUS:               ID:20150929010508 L   I
 OLDACT:REG 15-09-29 12:19 OP:spq  STATUS:               ID:20150929005748     3
 2015-09-29-0057-48M.COL___352                                                 6
 STAT SP IPHASW D HRMM SECON CODA AMPLIT PERI AZIMU VELO AIN AR TRES W  DIS CAZ7
 BAR2 EZ EP     D  1 5 28.20                             171   -0.0510 22.2 195 
 BAR2 EZ ES   1    1 5 42.94                             171   -0.57 7 22.2 195 
 BAR2 EZ I         1 5 45.37        59.0 0.16            170           22.2 195 
 BRR  HZ EP        1 5 30.20                             152    0.2810 73.5 299 
 BRR  HE ES        1 5 47.49                             152    1.0010 73.5 299 
 BRR  HZ I         1 5 51.90        41.6 0.12            150           73.5 299 
 PAM  EZ EP        1 5 31.10                             151    0.2410 77.5  38 
 PAM  EN ES        1 5 48.35                             151    0.1810 77.5  38 
 PAM  EZ I         1 5 50.68        88.1 0.52            153           77.5  38 
 RUS  HZ EP        1 5 32.11                             144   -0.1710 98.9 177 
 RUS  HN ES        1 5 50.64                             144   -0.0510 98.9 177 
 RUS  HZ I         1 5 52.09        45.5 0.26            146           98.9 177 
 PTB  HZ EP        1 5 35.32                             132   -0.43 9  149 260 
 PTB  HN ES        1 5 56.03                             132   -0.83 9  149 260 
 PTB  HZ I         1 6  0.29        34.3 0.10            132            149 260 
 TAM  HZ IP     D  1 5 36.44                             131    0.30 9  153 105 
 TAM  HN ES        1 5 57.93                             131    0.37 9  153 105 
 TAM  HZ I         1 5 58.57        15.3 0.26            134            153 105 
 OCA  HZ EP        1 5 36.58                             129   -0.55 9  162 353 
 OCA  HE ES        1 5 58.58                             129   -0.74 9  162 353 
 OCA  HZ I         1 6  5.76       104.9 0.28            130            162 353 
 SPBC HZ EP     D  1 5 37.24                             129    0.10 9  163 220 
 SPBC HN ES        1 5 59.01                             129   -0.34 9  163 220 
 SPBC HZ I         1 6  3.82        71.7 0.18            130            163 220 
 ZAR  HZ EP        1 5 41.58                             122    0.25 8  206 292 
 ZAR  HN ES        1 6  7.41                             122    0.62 8  206 292 
 ZAR  HZ I         1 6 13.18        54.6 0.44            122            206 292 
 NOR  HZ EP        1 5 44.18                             118   -0.26 8  235 235 
 NOR  HE ES        1 6 11.86                             118   -0.48 8  235 235 
 NOR  HZ I         1 6 17.44        30.5 0.28            119            235 235 
 SML  HZ EP        1 5 44.96                             117   -0.55 8  246 335 
 SML  HE ES   1    1 6 14.55                             117    0.30 6  246 335 
 SML  HZ I         1 6 17.11        38.5 0.11            118            246 335 
 CHI  HZ EP        1 5 46.20                             117   -0.05 8  248 196 
 CHI  HN ES        1 6 15.09                             117   -0.46 8  248 196 
 CHI  HZ I         1 6 21.27        10.4 0.28            119            248 196 
 ROSC BZ EP   4    1 5 48.20                             117    1.47 0  252 212 
 ROSC BE ES        1 6 16.56                             117    0.14 8  252 212 
 ROSC BZ I         1 6 23.51        32.9 0.40            118            252 212 
 HEL  HZ EP   4    1 5 50.11                             115    1.09 0  273 256 
 HEL  HE ES        1 6 20.47                             115   -0.02 8  273 256 
 HEL  HZ I         1 6 26.40        16.3 0.38            115            273 256 
 URE  HZ EP   1    1 5 49.35                             113   -0.62 6  286 292 
 URE  HE ES   4    1 6 20.03                             113   -2.16 0  286 292 
 URE  HZ I         1 6 28.78        24.8 0.30            114            286 292 
 GUY2CHZ EP        1 5 53.22                             112    0.89 7  302 235 
 GUY2CHN ES        1 6 26.91                             112    0.53 7  302 235 
 GUY2CHZ I         1 6 35.08        18.5 0.34                           302 235 
 PTGC HZ EP   4    1 5 51.08                             112   -1.20 0  307 159 
 PTGC HE ES   4    1 6 24.17                             112   -2.13 0  307 159 
 PTGC HZ I         1 6 29.07        22.2 0.23            113            307 159 
 LL2C HZ EP        1 5 52.29                             112   -0.15 7  308 354 
 LL2C HN ES   1    1 6 27.27                             112    0.70 5  308 354 
 LL2C HZ I         1 6 35.37        27.6 0.47            113            308 354 
 CBOC HZ EP   1    1 5 56.66                             110    0.95 5  335 252 
 CBOC HN ES        1 6 32.58                             110    0.18 7  335 252 
 CBOC HZ I         1 6 35.84         5.8 0.28            111            335 252 
 DBB  SZ EP        1 5 56.08                             109   -0.27 7  341 274 
 DBB  SZ ES   4    1 6 31.55                             109   -1.99 0  341 274 
 ANIL HZ EP   4    1 5 59.81                             108    1.33 0  357 225 
 ANIL HN ES   4    1 6 38.54                             108    1.21 0  357 225 
 ANIL HZ I         1 6 48.27        29.1 0.38            109            357 225 
 SDV  BZ EP        1 5 58.02                             108   -0.64 6  360  50 
 SDV  BE ES   4    1 6 35.15                             108   -2.50 0  360  50 
 SDV  BZ I         1 6 37.58         8.4 0.50            110            360  50 
 ARGC HZ EP        1 5 59.18                             108    0.63 6  361 340 
 ORTC HZ EP        1 6  2.33                             106   -0.23 6  395 217 
 ORTC HN ES        1 6 45.33                             106    0.74 6  395 217 
 ORTC HZ I         1 6 49.58         9.7 0.36            107            395 217 
 SJC  HZ EP   4    1 6  2.65                             106   -1.84 0  411 327 
 SJC  HN ES   4    1 6 44.46                             106   -3.56 0  411 327 
 SJC  HZ I         1 6 48.02         6.8 0.44            106            411 327 
 CRJC HZ EP   4    1 6  9.05                             103   -2.28 0  469   3 
 CRJC HE ES   4    1 6 55.98                             103   -4.23 0  469   3 
 CRJC HZ I         1 7  5.56         5.7 0.43            104            469   3 
                                                                                
