 2017  129 0019  5.0 L   6.786 -73.166148.8  RSN  8 0.4 1.6LRSN                1
 GAP=135        1.09       4.1     4.5  6.8  0.2971E+00  0.7545E+01  0.4807E+01E
 Epicentro: LOS SANTOS - SANTANDER                                             3
 ACTION:UPD 17-05-22 16:04 OP:jn   STATUS:               ID:20170129001905 L   I
 OLDACT:REG 17-01-29 12:57 OP:lv   STATUS:               ID:20170129001741     3
 2017-01-29-0018-00M.COL___342                                                 6
 STAT SP IPHASW D HRMM SECON CODA AMPLIT PERI AZIMU VELO AIN AR TRES W  DIS CAZ7
 BAR2 EZ EP        019 24.96                             171   -0.0210 21.6 185 
 BAR2 EZ ES        019 40.18                             171   -0.3710 21.6 185 
 BAR2 EZ I         019 41.03         7.8 0.13            169           21.6 185 
 BRR  HZ EP        019 26.85                             153    0.4110 70.0 300 
 BRR  HE ES        019 44.02                             153    0.8810 70.0 300 
 PAM  EZ EP        019 27.80                             151    0.0910 79.9  40 
 PAM  EN ES        019 45.01                             151   -0.4010 79.9  40 
 PAM  EZ I         019 47.00         8.6 0.54            153           79.9  40 
 RUS  HZ EP        019 29.30                             145    0.3210 99.3 175 
 RUS  HN ES        019 47.69                             145    0.0210 99.3 175 
 RUS  HZ I         019 48.71         4.3 0.22            144           99.3 175 
 PTB  HZ EP        019 31.52                             133   -0.50 9  145 259 
 PTB  HN ES        019 52.66                             133   -0.42 9  145 259 
 PTB  HZ I         019 54.54        11.7 0.04            133            145 259 
 ZAR  HZ EP        019 36.84                             123   -0.68 9  203 293 
 ZAR  HN ES        020  2.97                             123    0.11 9  203 293 
 NOR  HN ES        020  8.55                             119    0.12 8  232 234 
 NOR  HZ I         020 14.46         2.3 0.18            119            232 234 
 CHI  HZ EP        019 43.31                             118    0.64 8  247 195 
 CHI  HN ES        020 11.75                             118   -0.29 8  247 195 
 CHI  HZ I         020 16.07         1.7 0.29            118            247 195 
                                                                                
