 2010  929 0737 14.9 L   6.783 -73.132149.6  RSN  4 0.1 1.2LRSN                1
 GAP=222        0.32       7.3    12.9  5.9  0.7727E+02 -0.3068E+02 -0.1918E+02E
 Epicentro: LOS SANTOS - SANTANDER                                             3
 ACTION:UP  11-02-18 11:06 OP:tino STATUS:               ID:20100929073714 L   I
 2010-09-29-0735-36S.COL___125                                                 6
 STAT SP IPHASW D HRMM SECON CODA AMPLIT PERI AZIMU VELO SNR AR TRES W  DIS CAZ7
 BTL  SZ EP   1    737 35.03                             172     0.1 7   21 315 
 BAR2 SZ ES   2    737 50.49                             171    -0.1 5   22 195 
 BAR2 SZ I         737 51.32         4.1 0.22                            22 195 
 BRR  HZ EP   1    737 36.52                             152    -0.1 7   73 299 
 BRR  HN ES   2    737 53.57                             152     0.1 5   73 299 
 BRR  HZ I         737 58.67         4.4 0.45                            73 299 
 RUS  HZ EP   2    737 38.85                             145     0.0 5   99 177 
 RUS  HE ES   2    737 57.65                             145     0.1 5   99 177 
 RUS  HZ I         737 59.11         1.6 0.37                            99 177 
                                                                                
