 2016  729 0609 40.6 L   6.783 -73.161151.6  RSN  5 0.2 1.2LRSN                1
 GAP=235        0.49       3.0     3.3  4.4  0.2259E+01 -0.1559E+01  0.1349E+00E
 Epicentro: LOS SANTOS - SANTANDER                                             3
 ACTION:UPD 17-03-29 16:56 OP:lp   STATUS:               ID:20160729060940 L   I
 OLDACT:REG 16-07-29 13:14 OP:edw  STATUS:               ID:20160729060759     3
 2016-07-29-0607-59S.COL___325                                                 6
 STAT SP IPHASW D HRMM SECON CODA AMPLIT PERI AZIMU VELO AIN AR TRES W  DIS CAZ7
 BAR2 EZ EP        610  0.50                             172   -0.3710 21.3 187 
 BRR  HZ EP        610  2.46                             154    0.1310 70.7 300 
 BRR  HN ES        610 19.29                             154   -0.0110 70.7 300 
 RUS  HZ EP        610  4.94                             145    0.1510 98.9 175 
 RUS  HN ES        610 23.81                             145    0.1410 98.9 175 
 RUS  HZ I         610 24.93         1.6 0.32            144           98.9 175 
 PTB  HZ EP        610  7.97                             134    0.12 9  146 259 
 PTB  HE ES        610 29.17                             134    0.04 9  146 259 
 PTB  HZ I         610 34.22         2.2 0.30            132            146 259 
 SPBC HZ EP        610  9.24                             131   -0.06 9  161 219 
 SPBC HN ES        610 31.54                             131   -0.16 9  161 219 
 SPBC HZ I         610 34.91         1.9 0.10            129            161 219 
                                                                                
