 2012  229 0515 30.9 L   7.075 -73.107144.0  RSN  4 0.2 1.7LRSN                1
 GAP=266        0.43       5.8     7.1  4.4  0.3053E+02 -0.6079E+01 -0.2500E+01E
 ACTION:UP  12-03-07 16:35 OP:epov STATUS:               ID:20120229051530 L   I
 2012-02-29-0510-00M.COL___191                                                 6
 STAT SP IPHASW D HRMM SECON CODA AMPLIT PERI AZIMU VELO AIN AR TRES W  DIS CAZ7
 BAR2 SZ EP        515 51.21                             159   -0.0810 54.0 189 
 BAR2 SZ ES   2    516  6.93                             159   -0.29 5 54.0 189 
 BAR2 SZ I         516  8.59        12.0 0.18                          54.0 189 
 BRR  HZ EP        515 51.57                             154   -0.0110 66.9 273 
 BRR  HZ I         515 59.59         9.3 0.22                          66.9 273 
 BRR  HE ES        516  7.92                             154    0.1810 66.9 273 
 RUS  HZ EP   1    515 57.03                             136    0.20 7  131 179 
 RUS  HE ES   1    516 17.18                             136    0.09 7  131 179 
 PTB  HZ EP        515 58.66                             129   -0.20 9  160 248 
                                                                                
