 2013  329 0619 57.1 L   6.714 -73.191145.8  RSN  5 0.4 1.1LRSN                1
 GAP=225        0.74       7.5     6.6  7.6  0.2449E+02  0.7582E+01 -0.1264E+02E
 Epicentro: VILLANUEVA - SANTANDER                                             3
 ACTION:UPD 13-04-09 14:05 OP:ep   STATUS:               ID:20130329061957 L   I
 2013-03-29-0620-00M.COL___245                                                 6
 STAT SP IPHASW D HRMM SECON CODA AMPLIT PERI AZIMU VELO AIN AR TRES W  DIS CAZ7
 BAR2 SZ EP        620 16.52                             174   -0.0910 13.5 176 
 BAR2 SZ ES   1    620 31.27                             174   -0.53 7 13.5 176 
 BAR2 SZ I         620 33.34         4.5 0.30            171           13.5 176 
 BRR  HZ EP        620 18.24                             152   -0.1010 72.1 307 
 BRR  HN ES   1    620 35.58                             152    0.71 7 72.1 307 
 BRR  HZ I         620 39.42         1.5 0.16            150           72.1 307 
 RUS  HN ES   1    620 38.60                             146    0.30 7 91.6 172 
 PTB  HZ EP   1    620 23.49                             133   -0.03 7  141 262 
 PTB  HN ES   1    620 44.05                             133   -0.04 7  141 262 
 PTB  HZ I         620 50.09         1.2 0.52            133            141 262 
 ZAR  HZ EP   1    620 29.89                             122    0.39 6  203 295 
 ZAR  HE ES   1    620 54.27                             122   -0.47 6  203 295 
                                                                                
