 2013  929 0158 30.8 L   6.865 -73.359124.9  RSN  7 0.5 1.8LRSN                1
 GAP= 93        1.43       4.6     6.3  9.4 -0.6050E+01  0.1211E+02  0.2641E+00E
 Epicentro: SAN VICENTE DE CHUCURI - SANTANDER                                 3
 ACTION:UPD 13-10-22 09:25 OP:ep   STATUS:               ID:20130929015830 L   I
 OLDACT:DUP 13-09-29 10:49 OP:stll STATUS:               ID:20130929014838d    3
 2013-09-29-0148-37M.COL___244                                                 6
 STAT SP IPHASW D HRMM SECON CODA AMPLIT PERI AZIMU VELO AIN AR TRES W  DIS CAZ7
 BAR2 SZ EP        158 48.62                             163    0.3610 35.9 147 
 BAR2 SZ ES        159  1.89                             163   -0.0210 35.9 147 
 BAR2 SZ I         159  2.95        26.6 0.26            166           35.9 147 
 BRR  HZ EP        158 48.93                             158    0.5610 47.3 304 
 BRR  HN ES        159  3.10                             158    1.0010 47.3 304 
 BRR  HZ I         159  3.87        16.5 0.32            155           47.3 304 
 PAM  SE ES        159  7.50                             142   -0.5010 89.8  54 
 RUS  HZ EP        158 53.93                             136    0.4810  112 164 
 RUS  HN ES        159 10.52                             136   -0.6210  112 164 
 RUS  HZ I         159 12.23         3.4 0.28            137            112 164 
 PTB  HZ EP        158 53.60                             131   -0.5010  127 254 
 PTB  HN ES        159 11.32                             131   -0.9910  127 254 
 PTB  HZ I         159 16.66        14.0 0.54            131            127 254 
 OCA  HZ EP        158 56.71                             126   -0.00 9  152   2 
 OCA  HN ES        159 16.59                             126   -0.36 9  152   2 
 OCA  HZ I         159 20.81        13.3 0.22            126            152   2 
 SPBC HZ EP        158 57.10                             125    0.11 9  156 211 
 SPBC HZ I         158 59.87         4.7 0.16            126            156 211 
 SPBC HN ES        159 17.83                             125    0.39 9  156 211 
                                                                                
