 2010  629 0904 18.2 L   6.728 -73.046143.1  RSN  5 0.3 1.3LRSN                1
 GAP=168        0.50       4.4     6.6  7.5 -0.4687E+01 -0.1119E+02 -0.6071E+01E
 Epicentro: ARATOCA - SANTANDER                                                3
 ACTION:UP  10-08-24 10:13 OP:vdl  STATUS:               ID:20100629090418 L   I
 2010-06-29-0859-48S.COL___118                                                 6
 STAT SP IPHASW D HRMM SECON CODA AMPLIT PERI AZIMU VELO SNR AR TRES W  DIS CAZ7
 BAR2 SZ EP   2    9 4 37.35                             171    -0.1 5   21 225 
 BAR2 SZ ES   2    9 4 52.41                             171    -0.1 5   21 225 
 BRR  HZ EP   1    9 4 39.93                             148     0.0 7   85 300 
 BRR  HZ I         9 4 42.32         6.6 0.08                            85 300 
 BRR  HE ES   1    9 4 56.83                             148     0.0 7   85 300 
 RUS  HE ES   2    9 4 59.04                             146     0.1 5   92 183 
 RUS  HZ I         9 5  0.86         1.6 0.37                            92 183 
 BRI  SZ EP   2    9 4 42.82                             140     0.6 5  113  14 
 BRI  SZ ES   2    9 5  1.04                             140     0.2 5  113  14 
 GRA  SZ EP   2    9 4 43.00                             135    -0.6 5  131  12 
 GRA  SZ ES   2    9 5  3.30                             135    -0.2 5  131  12 
                                                                                
