 2017 1229 0550 17.0 L   6.821 -73.168139.5  RSN  7 0.4 1.6LRSN                1
 GAP=142        1.08       4.3     5.1  7.4 -0.9420E+01  0.1485E+02 -0.2599E+01E
 Epicentro: LOS SANTOS - SANTANDER                                             3
 ACTION:UPD 18-01-04 13:25 OP:rebc STATUS:               ID:20171229055017 L   I
 OLDACT:REG 17-12-29 12:57 OP:osc  STATUS:               ID:20171229054742     3
 2017-12-29-0548-00M.COL___439                                                 6
 STAT SP IPHASW D HRMM SECON CODA AMPLIT PERI AZIMU VELO AIN AR TRES W  DIS CAZ7
 BAR2 EZ EP        550 35.65                             169   -0.2310 25.4 184 
 BAR2 EZ ES        550 50.50                             169   -0.1410 25.4 184 
 BAR2 EZ I         550 51.92         7.9 0.14            170           25.4 184 
 PAM  EZ EP        550 38.66                             150    0.1610 77.2  42 
 PAM  EN ES        550 55.21                             150   -0.1010 77.2  42 
 PAM  EZ I         550 57.45         3.7 0.22            153           77.2  42 
 PTB  HZ EP        550 42.44                             131   -0.81 9  146 258 
 PTB  HN ES        551  3.51                             131   -0.24 9  146 258 
 PTB  HZ I         551  5.29         3.3 0.13            132            146 258 
 OCA  HZ EP        550 44.47                             129   -0.07 9  158 354 
 OCA  HE ES        551  6.72                             129    0.66 9  158 354 
 OCA  HZ I         551  9.17        11.9 0.60            131            158 354 
 SPBC HZ EP        550 44.96                             127   -0.06 9  163 218 
 SPBC HN ES        551  7.52                             127    0.62 9  163 218 
 SPBC HZ I         551 13.68         5.6 0.30            129            163 218 
 ZAR  HZ EP        550 48.08                             121   -0.59 9  201 292 
 ZAR  HN ES        551 13.55                             121    0.14 9  201 292 
 ZAR  HZ I         551 19.18         4.0 0.34            123            201 292 
 GUY2CHZ EP        551  1.19                             111    0.98 7  301 234 
 GUY2CHE ES        551 34.14                             111    0.19 7  301 234 
 GUY2CHZ I         551 41.23         1.7 0.62                           301 234 
                                                                                
