 2016 1229 0849  6.7 L   6.740 -73.129143.7  RSN 10 0.5 1.8LRSN                1
 GAP=141        1.11       4.7     4.5  7.6 -0.1085E+01  0.6411E+01  0.6886E+01E
 Epicentro: LOS SANTOS - SANTANDER                                             3
 ACTION:UPD 17-01-11 20:20 OP:rebc STATUS:               ID:20161229084906 L   I
 OLDACT:UP  16-12-29 15:17 OP:dnl  STATUS:               ID:20161229084746     3
 OLDACT:UP  16-12-29 15:17 OP:dnl  STATUS:               ID:20161229084746     3
 OLDACT:REG 16-12-29 13:23 OP:edw  STATUS:               ID:20161229084746     3
 2016-12-29-0848-00M.COL___366                                                 6
 STAT SP IPHASW D HRMM SECON CODA AMPLIT PERI AZIMU VELO AIN AR TRES W  DIS CAZ7
 BAR2 EZ EP        849 25.99                             173   -0.0210 17.3 200 
 BAR2 EZ I         849 42.25        23.1 0.46            171           17.3 200 
 BRR  HZ EP        849 28.02                             150    0.0610 76.2 302 
 BRR  HE ES        849 45.10                             150    0.5910 76.2 302 
 BRR  HZ I         849 49.47        16.7 0.38            151           76.2 302 
 PAM  EZ EP        849 28.98                             149   -0.0110 81.5  36 
 PAM  EN ES        849 46.05                             149   -0.3010 81.5  36 
 PAM  EZ I         849 46.60         4.5 0.18            151           81.5  36 
 RUS  HZ EP        849 30.02                             145    0.2210 93.8 177 
 RUS  HN ES        849 47.92                             145    0.1310 93.8 177 
 RUS  HZ I         849 48.88         9.5 0.40            145           93.8 177 
 PTB  HZ EP        849 32.85                             131   -0.75 9  148 262 
 PTB  HN ES        849 53.68                             131   -0.88 9  148 262 
 PTB  HZ I         849 57.34         7.7 0.18            132            148 262 
 ZAR  HZ EP        849 39.56                             121    0.06 8  208 294 
 ZAR  HE ES        850  5.27                             121    0.22 8  208 294 
 ZAR  HZ I         850 11.10        10.6 0.28            122            208 294 
 NOR  HZ EP        849 43.10                             118    1.00 8  232 236 
 NOR  HE ES        850  9.90                             118    0.21 8  232 236 
 NOR  HZ I         850 13.83         4.2 0.24            119            232 236 
 CHI  HZ EP        849 43.26                             117   -0.41 8  243 196 
 CHI  HN ES   4    850 14.55                             117    2.06 0  243 196 
 CHI  HZ I         850 17.60         1.2 0.46            118            243 196 
 GUY2CHZ EP   9    849 52.32                             112    2.32 0  299 236 
 GUY2CHN ES        850 25.84                             111   -0.22 7  299 236 
 GUY2CHZ I         850 31.08         4.2 0.32                           299 236 
 SJC  HZ EP   4    850  0.65                             105   -2.36 0  416 327 
 SJC  HE ES   4    850 39.80                             105   -7.11 0  416 327 
 SJC  HZ I         850 46.54         2.1 0.64            106            416 327 
                                                                                
