 2010  929 0317 43.1 L   6.865 -73.067133.0  RSN  4 0.2 1.4LRSN                1
 GAP=166        0.43       3.5     7.0  8.8 -0.7980E+00 -0.1741E+02  0.3960E+01E
 Epicentro: LOS SANTOS - SANTANDER                                             3
 ACTION:UP  11-02-18 11:06 OP:tino STATUS:               ID:20100929031743 L   I
 2010-09-29-0317-29S.COL___125                                                 6
 STAT SP IPHASW D HRMM SECON CODA AMPLIT PERI AZIMU VELO SNR AR TRES W  DIS CAZ7
 BTL  SZ EP   1    318  1.32                             170     0.1 7   23 285 
 BRR  HZ EP   1    318  2.97                             148    -0.2 7   76 291 
 BRR  HE ES   2    318 19.10                             148     0.2 5   76 291 
 BRR  HZ I         318 24.03        11.9 0.45                            76 291 
 RUS  HZ EP   1    318  6.22                             139     0.0 7  108 181 
 RUS  HE ES   2    318 24.08                             139    -0.1 5  108 181 
 RUS  HZ I         318 24.88         1.5 0.32                           108 181 
 GRA  SZ EP   2    318  6.76                             136     0.3 5  116  14 
 GRA  SZ ES   2    318 24.45                             136    -0.2 5  116  14 
 GRA  SZ I         318 28.39         4.1 0.42                           116  14 
                                                                                
