 2017  529 0719 21.4 L   6.400 -73.687103.6  RSN 12 0.4 2.2LRSN                1
 GAP=129        0.99       3.3     2.8  6.4  0.1971E+01  0.1461E+01  0.6281E+01E
 Epicentro: SANTA HELENA DEL OPON - SANTANDER                                  3
 ACTION:UPD 17-06-16 13:39 OP:jn   STATUS:               ID:20170529071921 L   I
 OLDACT:REG 17-05-29 13:02 OP:osc  STATUS:               ID:20170529071741     3
 2017-05-29-0718-00M.COL___338                                                 6
 STAT SP IPHASW D HRMM SECON CODA AMPLIT PERI AZIMU VELO AIN AR TRES W  DIS CAZ7
 BRR  HZ EP     C  719 38.85                             140    0.1210 78.3 358 
 BRR  HN ES        719 52.90                             140    0.6510 78.3 358 
 BRR  HZ I         719 53.91        33.5 0.12            141           78.3 358 
 PTB  HZ EP     C  719 38.84                             137   -0.5810 86.5 280 
 PTB  HN ES        719 52.86                             137   -0.6110 86.5 280 
 PTB  HZ I         719 54.44        39.8 0.42            135           86.5 280 
 RUS  HZ EP        719 39.65                             137   -0.4910 87.2 130 
 RUS  HN ES        719 54.61                             137   -0.1510 87.2 130 
 SPBC HZ EP        719 39.92                             135   -0.1610 93.0 207 
 SPBC HN ES        719 54.71                             135    0.0610 93.0 207 
 SPBC HZ I         719 57.03        68.8 0.32            133           93.0 207 
 NOR  HZ EP        719 46.48                             118   -0.21 9  160 235 
 NOR  HN ES        720  6.83                             118    0.40 9  160 235 
 NOR  HZ I         720  9.68        23.9 0.16            117            160 235 
 YPLC HZ EP     C  719 49.07                             114   -0.07 9  182 127 
 YPLC HE ES        720 11.18                             114    0.39 9  182 127 
 YPLC HZ I         720 12.57        32.6 0.24            115            182 127 
 CHI  HZ EP        719 50.79                             113   -0.29 9  196 181 
 CHI  HN ES        720 14.80                             113    0.57 9  196 181 
 CHI  HZ I         720 17.62        12.9 0.26            112            196 181 
 HEL  HZ EP   4    719 53.04                             111    0.96 0  205 264 
 HEL  HN ES        720 16.25                             111    0.24 9  205 264 
 HEL  HZ I         720 20.44        15.5 0.30            111            205 264 
 VIL  EZ EP        719 57.27                             106   -0.04 8  253 180 
 VIL  EN ES   4    720 25.84                             106    0.52 0  253 180 
 VIL  EZ I         720 27.85        15.1 0.56            106            253 180 
 CBOC HZ EP        719 59.08                             105    0.41 8  264 257 
 CBOC HE ES   4    720 26.21                             105   -1.53 0  264 257 
 CBOC HZ I         720 35.49         4.9 0.50            105            264 257 
 DBB  EN ES   2    720 33.45                             103    1.06 4  287 284 
 PTGC HZ EP   4    720  1.04                             103   -1.44 0  298 145 
 PTGC HN ES   4    720 32.07                             103   -2.46 0  298 145 
 PTGC HZ I         720 34.28         6.9 0.18            103            298 145 
                                                                                
