 2017 1129 0241 34.9 L   6.684 -73.206140.2  RSN  4 0.2 1.2LRSN                1
 GAP=262        0.67       5.4     4.1  5.6  0.1931E+01  0.6171E+01 -0.1751E+01E
 Epicentro: VILLANUEVA - SANTANDER                                             3
 ACTION:UPD 17-12-12 20:01 OP:rebc STATUS:               ID:20171129024134 L   I
 OLDACT:REG 17-11-29 12:12 OP:dhb  STATUS:               ID:20171129023732     3
 2017-11-29-0238-00M.COL___501                                                 6
 STAT SP IPHASW D HRMM SECON CODA AMPLIT PERI AZIMU VELO AIN AR TRES W  DIS CAZ7
 BAR2 EZ EP        241 53.31                             176   -0.3810 10.4 165 
 BAR2 EZ ES        242  8.33                             176    0.0110 10.4 165 
 BAR2 EZ I         242 10.74         3.2 0.46            174           10.4 165 
 RUS  HZ EP        241 57.73                             146    0.4610 88.5 171 
 RUS  HN ES        242 14.73                             146    0.0210 88.5 171 
 RUS  HZ I         242 16.84         2.5 0.22            147           88.5 171 
 PTB  HZ EP        242  0.66                             132    0.00 9  139 263 
 PTB  HN ES        242 20.96                             132    0.23 9  139 263 
 PTB  HZ I         242 27.10         1.0 0.22            131            139 263 
 SPBC HZ EP        242  1.51                             130   -0.15 9  149 220 
 SPBC HZ I         242  7.77         5.9 0.20            129            149 220 
 SPBC HE ES        242 22.29                             130   -0.22 9  149 220 
                                                                                
