 2016 1229 0628 17.4 L   6.782 -73.139143.2  RSN  8 0.4 1.8LRSN                1
 GAP=138        1.01       3.8     4.2  6.2  0.1493E+00  0.6709E+01  0.4977E+01E
 Epicentro: LOS SANTOS - SANTANDER                                             3
 ACTION:UPD 17-01-11 20:20 OP:rebc STATUS:               ID:20161229062817 L   I
 OLDACT:REG 16-12-29 13:12 OP:edw  STATUS:               ID:20161229062748     3
 2016-12-29-0628-00M.COL___369                                                 6
 STAT SP IPHASW D HRMM SECON CODA AMPLIT PERI AZIMU VELO AIN AR TRES W  DIS CAZ7
 BAR2 EZ EP        628 36.46                             171   -0.1910 21.6 193 
 BAR2 EZ ES        628 51.48                             171   -0.2110 21.6 193 
 BAR2 EZ I         628 54.10        12.8 0.32            170           21.6 193 
 BRR  HZ IP     D  628 38.36                             151    0.0310 72.8 300 
 BRR  HN ES        628 55.29                             151    0.6110 72.8 300 
 BRR  HZ I         628 58.55        13.1 0.44            152           72.8 300 
 PAM  EZ EP        628 39.32                             150   -0.0510 78.4  38 
 PAM  EN ES        628 56.43                             150   -0.1010 78.4  38 
 PAM  EZ I         628 59.28         6.9 0.30            153           78.4  38 
 RUS  HZ EP        628 40.82                             144    0.1010 98.6 176 
 RUS  HE ES        628 59.08                             144    0.1510 98.6 176 
 RUS  HZ I         629  0.53         5.6 0.20            145           98.6 176 
 PTB  HN ES        629  4.02                             131   -1.04 9  148 260 
 PTB  HZ I         629  6.55        10.0 0.18            132            148 260 
 ZAR  HZ EP        628 49.28                             122   -0.51 8  206 293 
 ZAR  HN ES        629 15.79                             122    0.70 8  206 293 
 ZAR  HZ I         629 20.52        13.1 0.28            123            206 293 
 NOR  HZ EP        628 52.95                             118    0.06 8  234 235 
 NOR  HN ES        629 20.78                             118    0.18 8  234 235 
 NOR  HZ I         629 22.54         5.7 0.18            119            234 235 
 CHI  HZ EP        628 55.03                             117    0.29 8  247 195 
 CHI  HE ES        629 24.05                             117    0.16 8  247 195 
 CHI  HZ I         629 31.57         2.0 0.40            118            247 195 
                                                                                
