 2013  429 0733  4.8 L   6.744 -73.080149.4  RSN  4 0.2 1.4LRSN                1
 GAP=240        0.43       4.6     4.6  4.6  0.1068E+02  0.1112E+01 -0.6817E+00E
 Epicentro: JORDAN - SANTANDER                                                 3
 ACTION:UPD 13-05-22 14:41 OP:EP   STATUS:               ID:20130429073304 L   I
 2013-04-29-0730-00M.COL___248                                                 6
 STAT SP IPHASW D HRMM SECON CODA AMPLIT PERI AZIMU VELO AIN AR TRES W  DIS CAZ7
 BAR2 SZ EP   1    733 24.76                             172   -0.05 7 20.2 214 
 BAR2 SZ ES   1    733 40.58                             172    0.17 7 20.2 214 
 BAR2 SZ I         733 42.73         3.0 0.38            172           20.2 214 
 BRR  HZ EP   1    733 27.06                             150    0.17 7 80.6 300 
 BRR  HN ES   1    733 43.90                             150   -0.21 7 80.6 300 
 BRR  HN I         733 48.00         7.3 0.12            151           80.6 300 
 RUS  HZ EP   1    733 28.61                             146    0.15 7 94.1 180 
 RUS  HN ES   1    733 46.74                             146   -0.18 7 94.1 180 
 RUS  HN I         733 48.18         4.6 0.26            151           94.1 180 
 PTB  HZ EP   1    733 32.35                             132   -0.27 7  154 262 
 PTB  HN ES   1    733 54.52                             132    0.21 7  154 262 
 PTB  HN I         733 56.47         2.9 0.22            134            154 262 
                                                                                
