 2011 1129 0738 27.8 L   6.815 -73.101151.3  RSN  5 0.3 1.6LRSN                1
 GAP=141        0.78       6.1     7.8  8.9 -0.3084E+01 -0.4779E+01  0.1209E+02E
 Epicentro: LOS SANTOS - SANTANDER                                             3
 ACTION:UPD 12-07-13 16:13 OP:ep   STATUS:               ID:20111129073827 L   I
 2011-11-29-0733-16S.COL___160                                                 6
 STAT SP IPHASW D HRMM SECON CODA AMPLIT PERI AZIMU VELO AIN AR TRES W  DIS CAZ7
 BAR2 SZ EP        738 48.40                             170    0.2110 26.3 200 
 PAM  SZ EP        738 50.85                             153    0.4610 73.0  37 
 PAM  SN ES   1    739  7.69                             153   -0.30 7 73.0  37 
 BRR  HZ IP     C  738 49.94                             152    0.1610 74.8 296 
 BRR  HZ I         738 50.15        11.7 0.34                          74.8 296 
 BRR  HN ES   1    739  6.90                             152   -0.01 7 74.8 296 
 RUS  HZ EP        738 51.90                             144   -0.3310  102 179 
 OCA  SZ EP        738 56.09                             131   -0.39 9  159 351 
 OCA  SZ I         739 23.32         2.8 0.20                           159 351 
                                                                                
