 2011  329 0851 49.3 L   6.917 -72.955146.2  RSN  4 0.3 1.4LRSN                1
 GAP=271        0.58      23.3    19.5 14.0  0.3641E+03 -0.1827E+03 -0.1426E+03E
 Epicentro: SANTA BARBARA - SANTANDER                                          3
 ACTION:UP  11-06-16 14:36 OP:jfem STATUS:               ID:20110329085149 L   I
 2011-03-29-0847-29S.COL___138                                                 6
 STAT SP IPHASW D HRMM SECON CODA AMPLIT PERI AZIMU VELO SNR AR TRES W  DIS CAZ7
 GIR2 SZ EP   3    852 10.22                             166     1.1 2   32 304 
 GIR2 SZ ES   3    852 24.36                             166    -0.1 2   32 304 
 BTL  SZ EP        852  8.96                             163    -0.310   35 270 
 BAR2 SZ EP        852  9.76                             159     0.110   44 215 
 BAR2 SZ ES   3    852 25.36                             159    -0.1 2   44 215 
 BRR  HZ EP        852 11.62                             145     0.210   86 284 
 BRR  HN ES   1    852 28.68                             145     0.0 7   86 284 
 BRR  HZ I         852 31.40         4.8 0.20                            86 284 
                                                                                
