 2015  129 0519 27.5 L   6.786 -73.159143.3  RSN  8 0.2 1.4LRSN                1
 GAP=136        0.59       2.1     2.6  3.8 -0.4647E+00  0.3104E+01 -0.1117E+00E
 Epicentro: LOS SANTOS - SANTANDER                                             3
 ACTION:UPD 15-03-02 15:43 OP:nd   STATUS:               ID:20150129051927 L   I
 OLDACT:REG 15-01-29 13:17 OP:cvam STATUS:               ID:20150129051816     3
 2015-01-29-0518-16M.COL___268                                                 6
 STAT SP IPHASW D HRMM SECON CODA AMPLIT PERI AZIMU VELO AIN AR TRES W  DIS CAZ7
 BAR2 EZ EP        519 46.91                             171    0.0810 21.6 187 
 BAR2 EZ ES        520  1.63                             171   -0.2510 21.6 187 
 BAR2 EZ I         520  4.81         6.3 0.28            169           21.6 187 
 PAM  SZ EP        519 49.71                             150    0.1010 79.5  40 
 PAM  SN ES        520  6.96                             150    0.1310 79.5  40 
 PAM  SZ I         520  9.02         4.6 0.46            157           79.5  40 
 RUS  HZ EP        519 50.98                             144    0.0510 99.1 175 
 RUS  HN ES        520  9.17                             144   -0.0110 99.1 175 
 RUS  HZ I         520 12.39         1.6 0.42            146           99.1 175 
 PTB  HZ EP        519 53.60                             132   -0.54 9  146 259 
 PTB  HN ES        520 14.68                             132   -0.22 9  146 259 
 PTB  HZ I         520 22.28         5.4 0.52            133            146 259 
 SPBC HZ EP        519 55.77                             129    0.13 9  161 219 
 SPBC HN ES        520 17.80                             129    0.24 9  161 219 
 SPBC HZ I         520 25.74         5.3 0.26            131            161 219 
 ZAR  HZ EP        519 59.89                             122    0.15 9  203 293 
 ZAR  HN ES        520 25.25                             122    0.39 9  203 293 
 SML  HZ EP   1    520  3.68                             117   -0.43 6  245 336 
 CHI  HZ EP        520  4.92                             117    0.04 8  247 195 
 CHI  HN ES        520 34.02                             117   -0.00 8  247 195 
 CHI  HZ I         520 37.46         0.8 0.54            120            247 195 
                                                                                
