 2017 1029 0136 52.0 L   6.752 -73.132141.8  RSN  8 0.5 1.3LRSN                1
 GAP=140        1.15       4.6     4.8  7.1 -0.1906E+01  0.1028E+02  0.1576E+01E
 Epicentro: LOS SANTOS - SANTANDER                                             3
 ACTION:UPD 17-11-07 19:38 OP:rebc STATUS:               ID:20171029013652 L   I
 OLDACT:REG 17-10-29 12:18 OP:dhb  STATUS:               ID:20171029012739     3
 2017-10-29-0128-00M.COL___411                                                 6
 STAT SP IPHASW D HRMM SECON CODA AMPLIT PERI AZIMU VELO AIN AR TRES W  DIS CAZ7
 BAR2 EZ EP        137 10.77                             172   -0.2910 18.5 197 
 BAR2 EZ ES        137 25.61                             172   -0.3110 18.5 197 
 BAR2 EZ I         137 27.28         4.0 0.20            173           18.5 197 
 BRR  HZ IP     C  137 12.84                             150   -0.1010 75.1 302 
 BRR  HN ES        137 29.75                             150    0.4710 75.1 302 
 BRR  HZ I         137 34.15         4.2 0.42            149           75.1 302 
 PAM  EZ EP        137 13.84                             149   -0.1510 80.6  36 
 PAM  EE ES        137 31.23                             149    0.0910 80.6  36 
 PAM  EZ I         137 33.25         3.2 0.44            151           80.6  36 
 RUS  HZ EP        137 14.86                             145   -0.1110 95.2 177 
 RUS  HE ES        137 33.44                             145    0.5510 95.2 177 
 RUS  HZ I         137 34.26         3.3 0.24            149           95.2 177 
 PTB  HZ EP        137 17.80                             131   -0.89 9  148 261 
 PTB  HE ES        137 38.84                             131   -0.67 9  148 261 
 PTB  HZ I         137 41.01         2.0 0.18            132            148 261 
 SPBC HZ EP        137 20.01                             129    0.12 9  160 221 
 SPBC HE ES        137 41.71                             129    0.06 9  160 221 
 SPBC HZ I         137 43.39         3.6 0.10            131            160 221 
 ZAR  HZ EP        137 25.60                             121    1.06 8  207 293 
 ZAR  HE ES        137 50.04                             121    0.12 8  207 293 
 ZAR  HZ I         137 55.93         3.3 0.58            122            207 293 
 GUY2CHZ EP   1    137 35.10                             112   -0.12 5  299 236 
 GUY2CHN ES   1    138  9.77                             112    0.84 5  299 236 
 GUY2CHZ I         138 17.74         1.0 0.34                           299 236 
                                                                                
