 2011 1129 0118 26.8 L   6.759 -73.108138.0  RSN  4 0.1 1.5LRSN                1
 GAP=143        0.33       2.5     3.1  4.2 -0.4986E+00 -0.1483E+00 -0.1650E+01E
 Epicentro: LOS SANTOS - SANTANDER                                             3
 ACTION:UPD 12-07-13 16:12 OP:ep   STATUS:               ID:20111129011826 L   I
 2011-11-29-0115-51S.COL___160                                                 6
 STAT SP IPHASW D HRMM SECON CODA AMPLIT PERI AZIMU VELO AIN AR TRES W  DIS CAZ7
 BAR2 SZ ES   3    118 59.87                             171   -0.10 2 20.2 204 
 BRR  HZ EP        118 47.36                             149   -0.1210 77.0 300 
 BRR  HZ I         118 47.63         6.9 0.32                          77.0 300 
 BRR  HE ES   1    119  3.73                             149    0.13 7 77.0 300 
 PAM  SZ EP        118 48.31                             149    0.0410 78.5  35 
 PAM  SN ES   1    119  4.99                             149   -0.02 7 78.5  35 
 RUS  HZ EP   3    118 49.84                             144    0.39 2 95.8 178 
 RUS  HE ES   1    119  7.11                             144    0.00 7 95.8 178 
                                                                                
