 2017  829 0020 28.6 L   6.817 -73.085149.4  RSN 12 0.6 2.1LRSN                1
 GAP=117        1.21       4.1     5.5  6.2  0.1396E+00  0.7482E+01  0.6298E+01E
 Epicentro: LOS SANTOS - SANTANDER                                             3
 ACTION:UPD 17-09-04 20:26 OP:rebc STATUS:               ID:20170829002028 L   I
 OLDACT:UP  17-08-29 13:25 OP:dani STATUS:               ID:20170829001737     3
 OLDACT:UP  17-08-29 13:24 OP:dani STATUS:               ID:20170829001737     3
 OLDACT:UP  17-08-29 13:24 OP:dani STATUS:               ID:20170829001737     3
 OLDACT:REG 17-08-29 12:38 OP:dani STATUS:               ID:20170829001737     3
 2017-08-29-0018-00M.COL___417                                                 6
 STAT SP IPHASW D HRMM SECON CODA AMPLIT PERI AZIMU VELO AIN AR TRES W  DIS CAZ7
 BAR2 EZ EP        020 48.72                             169   -0.0310 27.1 203 
 BAR2 EZ ES        021  4.03                             169   -0.4310 27.1 203 
 BAR2 EZ I         021  6.28        31.7 0.34            166           27.1 203 
 PAM  EZ EP     D  020 51.44                             153    0.5610 71.8  36 
 PAM  EE ES        021  8.69                             153    0.4210 71.8  36 
 PAM  EZ I         021 10.91        17.0 0.66            157           71.8  36 
 BRR  HZ IP        020 50.30                             151   -0.1310 76.3 295 
 BRR  HN ES        021  7.39                             151   -0.0710 76.3 295 
 BRR  HZ I         021 11.28        18.9 0.32            150           76.3 295 
 RUS  HZ EP        020 52.41                             144   -0.4210  102 180 
 RUS  HN ES        021 11.22                             144   -0.5110  102 180 
 RUS  HZ I         021 12.36        13.8 0.34            144            102 180 
 YPLC HZ EP     D  020 58.88                             128    0.36 9  175 154 
 YPLC HE ES        021 22.51                             128    0.64 9  175 154 
 YPLC HZ I         021 23.85        18.2 0.26            129            175 154 
 ZAR  HZ EP   1    021  1.55                             122   -0.30 6  210 291 
 ZAR  HE ES   3    021 26.70                             122   -1.08 2  210 291 
 ZAR  HZ I         021 32.39        10.0 0.18            123            210 291 
 NOR  HZ EP        021  4.99                             118   -0.25 8  241 235 
 NOR  HE ES   3    021 32.16                             118   -1.66 2  241 235 
 NOR  HZ I         021 37.97         7.7 0.18            119            241 235 
 CHI  HZ EP        021  6.79                             117   -0.11 8  252 197 
 CHI  HN ES        021 36.76                             117   -0.01 8  252 197 
 CHI  HZ I         021 45.89         4.6 0.34            118            252 197 
 GUY2CHZ EP        021 13.86                             112    0.74 7  308 235 
 GUY2CHN ES        021 49.63                             112    1.79 7  308 235 
 GUY2CHZ I         021 54.64         5.6 0.36                           308 235 
 PTGC HZ EP        021 11.69                             112   -0.86 7  308 160 
 PTGC HN ES   4    021 42.50                             112   -4.34 0  308 160 
 PTGC HZ I         021 49.88        12.6 0.40            114            308 160 
 LL6C HZ EP        021 13.86                             111   -0.42 7  323 356 
 PRA  HZ EP        021 22.44                             107   -0.39 6  397 210 
 PRA  HN ES        022  4.43                             107   -0.70 6  397 210 
 PRA  HZ I         022 10.69         5.8 0.50            108            397 210 
                                                                                
