 2012  829 0729  3.3 L   6.723 -73.170140.7  RSN  4 0.5 1.8LRSN                1
 GAP=189        1.04      13.8     8.8  9.8 -0.1847E+02  0.1356E+02  0.3061E+02E
 Epicentro: VILLANUEVA - SANTANDER                                             3
 ACTION:UPD 12-09-10 11:59 OP:ep   STATUS:               ID:20120829072903 L   I
 2012-08-29-0727-41M.COL___208                                                 6
 STAT SP IPHASW D HRMM SECON CODA AMPLIT PERI AZIMU VELO AIN AR TRES W  DIS CAZ7
 BAR2 SZ EP        729 22.47                             174    0.2610 14.5 185 
 BAR2 SZ ES   1    729 37.14                             174    0.21 7 14.5 185 
 BAR2 SZ I         729 38.36        25.5 0.20                          14.5 185 
 GIR2 SZ EP        729 22.62                             164   -0.0410 39.4 356 
 GIR2 SZ ES   1    729 36.73                             164   -1.01 7 39.4 356 
 BRR  HZ EP        729 24.36                             151    0.2910 73.4 305 
 BRR  HZ I         729 27.84        10.8 0.14                          73.4 305 
 BRR  HN ES   1    729 40.97                             151    0.73 7 73.4 305 
 PTB  HZ EP        729 29.09                             132   -0.43 9  144 262 
 PTB  HN ES   1    729 49.75                             132   -0.19 7  144 262 
 PTB  HZ I         729 52.74         6.4 0.12                           144 262 
                                                                                
