 2017  729 0843 51.2 L   6.800 -73.050141.4  RSN  4 0.3 1.1LRSN                1
 GAP=247        0.78       8.6     9.9  6.3  0.7151E+02 -0.3400E+01 -0.1060E+02E
 Epicentro: LOS SANTOS - SANTANDER                                             3
 ACTION:UPD 17-08-30 15:38 OP:rebc STATUS:               ID:20170729084351 L   I
 OLDACT:REG 17-07-29 13:10 OP:and  STATUS:               ID:20170729083742     3
 2017-07-29-0838-00M.COL___386                                                 6
 STAT SP IPHASW D HRMM SECON CODA AMPLIT PERI AZIMU VELO AIN AR TRES W  DIS CAZ7
 BAR2 EZ EP        844 10.18                             169   -0.1610 27.2 212 
 BAR2 EZ ES        844 25.51                             169    0.2010 27.2 212 
 BAR2 EZ I         844 27.68         3.0 0.30            166           27.2 212 
 BRR  HZ EP        844 11.91                             149   -0.4910 80.6 295 
 BRR  HN ES        844 29.12                             149    0.1510 80.6 295 
 RUS  HZ EP        844 14.73                             143    0.2710  100 182 
 RUS  HN ES        844 32.44                             143   -0.2010  100 182 
 RUS  HZ I         844 33.42         1.0 0.38            143            100 182 
 ZAR  HZ EP        844 24.86                             120    0.52 8  214 291 
 ZAR  HE ES        844 50.02                             120   -0.21 8  214 291 
 ZAR  HZ I         844 53.22         2.4 0.34            120            214 291 
                                                                                
