 2014  929 0628 48.9 L   6.863 -73.306124.8  RSN  8 0.4 1.6LRSN                1
 GAP=106        1.04       3.2     4.7  6.6  0.8354E+00 -0.2039E+00 -0.3600E+01E
 Epicentro: BETULIA - SANTANDER                                                3
 ACTION:UPD 14-10-03 23:09 OP:nd   STATUS:               ID:20140929062848 L   I
 OLDACT:DUP 14-09-29 19:09 OP:stll STATUS:               ID:20140929061819d    3
 2014-09-29-0618-18M.COL___298                                                 6
 STAT SP IPHASW D HRMM SECON CODA AMPLIT PERI AZIMU VELO AIN AR TRES W  DIS CAZ7
 BAR2 SZ EP        629  6.64                             164    0.3210 32.9 156 
 BAR2 SZ ES        629 19.49                             164   -0.3910 32.9 156 
 BAR2 SZ I         629 20.96        25.2 0.34            166           32.9 156 
 BRR  HZ EP        629  7.02                             156    0.2410 52.4 301 
 BRR  HZ I         629  7.30         6.9 0.60            154           52.4 301 
 BRR  HN ES        629 21.28                             156    0.5810 52.4 301 
 RUS  HN ES        629 28.77                             136   -0.2810  110 167 
 PTB  HZ EP        629 11.96                             130   -0.8310  132 254 
 PTB  HN ES        629 31.59                             130    0.1910  132 254 
 PTB  HZ I         629 33.75         8.3 0.46            130            132 254 
 OCA  HN ES        629 34.61                             126   -0.53 9  152 359 
 OCA  HZ I         629 42.33         5.5 0.30            126            152 359 
 SPBC HZ EP        629 15.72                             125    0.27 9  159 212 
 SPBC HN ES        629 36.06                             125   -0.06 9  159 212 
 SPBC HZ I         629 43.21         3.7 0.44            125            159 212 
 TAM  HZ EP        629 17.43                             122    0.47 9  174 106 
 SML  HZ EP        629 22.83                             114   -0.15 8  230 339 
 SML  HN ES        629 49.69                             114    0.15 8  230 339 
                                                                                
