 2012  929 0416 56.8 L   6.772 -73.173145.4  RSN  7 0.5 1.7LRSN                1
 GAP=134        1.01       6.7     6.0 10.2  0.3815E+01  0.5258E+01 -0.5640E+01E
 Epicentro: LOS SANTOS - SANTANDER                                             3
 ACTION:UPD 12-10-22 14:21 OP:ep   STATUS:               ID:20120929041656 L   I
 2012-09-29-0410-36M.COL___215                                                 6
 STAT SP IPHASW D HRMM SECON CODA AMPLIT PERI AZIMU VELO AIN AR TRES W  DIS CAZ7
 BAR2 SZ EP   1    417 16.36                             172    0.05 7 19.9 183 
 BAR2 SZ ES   1    417 31.35                             172   -0.19 7 19.9 183 
 BAR2 SZ I         417 32.78        12.7 0.14                          19.9 183 
 GIR2 SZ EP   1    417 16.37                             166   -0.13 7 34.0 356 
 BRR  HZ EP        417 18.14                             153    0.3010 70.2 302 
 BRR  HZ I         417 18.66         8.9 0.15                          70.2 302 
 BRR  HN ES   1    417 35.37                             153    1.11 7 70.2 302 
 BRR  HN I         417 38.37        15.1 0.17                          70.2 302 
 PAM  SZ EP   1    417 19.03                             149   -0.20 7 81.7  40 
 PAM  SN ES   1    417 36.35                             149   -0.39 7 81.7  40 
 PAM  SN I         417 37.73        10.3 0.65                          81.7  40 
 RUS  HZ EP   1    417 20.83                             144    0.53 7 97.7 174 
 RUS  HN ES   1    417 38.26                             144   -0.38 7 97.7 174 
 RUS  HZ I         417 39.65         3.0 0.27                          97.7 174 
 PTB  HN ES   1    417 43.85                             133   -0.31 7  144 260 
 PTB  HN I         417 49.81         4.9 0.17                           144 260 
 ZAR  HN ES   1    417 53.29                             122   -0.92 6  202 293 
                                                                                
