 2016 1229 0225  8.0 L   6.826 -73.136150.4  RSN 19 0.5 2.3LRSN                1
 GAP= 74        1.12       3.4     4.0  5.2 -0.8830E+00  0.3297E+01  0.3470E+01E
 Epicentro: LOS SANTOS - SANTANDER                                             3
 ACTION:UPD 17-01-11 20:20 OP:rebc STATUS:               ID:20161229022507 L   I
 OLDACT:UP  16-12-29 15:37 OP:edw  STATUS:               ID:20161229021744d    3
 OLDACT:UP  16-12-29 15:37 OP:edw  STATUS:               ID:20161229021744d    3
 OLDACT:DUP 16-12-29 15:21 OP:edw  STATUS:               ID:20161229021744d    3
 OLDACT:UP  16-12-29 15:20 OP:edw  STATUS:               ID:20161229021743     3
 OLDACT:UP  16-12-29 15:18 OP:edw  STATUS:               ID:20161229021743     3
 OLDACT:REG 16-12-29 12:49 OP:edw  STATUS:               ID:20161229021743     3
 2016-12-29-0218-00M.COL___375                                                 6
 STAT SP IPHASW D HRMM SECON CODA AMPLIT PERI AZIMU VELO AIN AR TRES W  DIS CAZ7
 BAR2 EZ EP     D  225 28.25                             170   -0.0410 26.3 191 
 BAR2 EZ ES        225 43.28                             170   -0.8110 26.3 191 
 BAR2 EZ I         225 44.49        57.2 0.22            150           26.3 191 
 BRR  HZ IP     D  225 30.11                             153    0.4410 70.8 296 
 BRR  HN ES        225 47.26                             153    0.7110 70.8 296 
 BRR  HZ I         225 50.26        19.4 0.14            140           70.8 296 
 PAM  EZ EP        225 30.83                             153    0.2410 74.5  40 
 PAM  EN ES        225 48.14                             153   -0.0410 74.5  40 
 PAM  EZ I         225 50.41        51.6 0.54            117           74.5  40 
 RUS  HZ EP     C  225 32.29                             144   -0.1610  103 177 
 RUS  HN ES        225 51.63                             144    0.1410  103 177 
 RUS  HZ I         225 52.03        49.3 0.26            123            103 177 
 PTB  HZ EP   9    225 34.94                             133   -0.59 0  149 258 
 PTB  HN ES        225 55.90                             135   -0.49 9  149 258 
 PTB  HZ I         226  2.96        24.4 0.78            120            149 258 
 TAM  HZ IP        225 36.64                             132    0.57 9  155 106 
 TAM  HZ I         227 18.25        10.4 0.30            105            155 106 
 ZAR  HZ EP        225 40.79                             123    0.01 9  204 291 
 ZAR  HN ES        226  6.08                             123   -0.24 9  204 291 
 ZAR  HZ I         226 11.80        10.2 0.14            107            204 291 
 NOR  HZ EP        225 44.46                             119    0.15 8  237 234 
 NOR  HN ES        226 12.34                             119   -0.26 8  237 234 
 NOR  HZ I         226 14.87        12.6 0.30            105            237 234 
 CHI  HZ EP        225 46.28                             118   -0.05 8  252 195 
 CHI  HN ES        226 15.67                             118   -0.52 8  252 195 
 CHI  HZ I         226 19.25        12.4 0.50            103            252 195 
 ROSC BZ EP   4    225 48.55                             117    1.81 0  256 211 
 ROSC BN ES        226 17.98                             117    1.05 8  256 211 
 ROSC BZ I         226 26.46        15.3 0.35            103            256 211 
 URE  HZ EP        225 48.59                             114   -0.74 7  284 291 
 URE  HN ES   4    226 20.25                             114   -1.28 0  284 291 
 URE  HZ I         226 30.97        11.5 0.24            101            284 291 
 GUY2CHZ EP        225 52.59                             113    0.44 7  304 234 
 GUY2CHN ES   4    226 28.14                             113    1.59 0  304 234 
 GUY2CHZ I         226 34.40        10.2 0.26                           304 234 
 VIL  EZ EP   4    225 50.93                             113   -1.08 0  306 192 
 VIL  EN ES        226 26.01                             113   -0.30 7  306 192 
 VIL  EZ I         226 28.72        17.7 0.46            100            306 192 
 PTGC HZ IP     C  225 51.47                             112   -0.90 7  311 159 
 PTGC HE ES   4    226 24.69                             112   -2.25 0  311 159 
 PTGC HZ I         226 27.28        11.1 0.40             99            311 159 
 ELA  HZ EP   2    225 56.17                             111    0.78 3  332 229 
 ELA  HN ES        226 32.29                             111   -0.04 7  332 229 
 ELA  HZ I         226 40.07         6.6 0.42            100            332 229 
 CBOC HZ EP   4    225 56.74                             111    1.38 0  335 252 
 CBOC HN ES   4    226 31.08                             111   -1.20 0  335 252 
 CBOC HZ I         226 36.22         2.9 0.50             99            335 252 
 ANIL HZ EP   4    226  0.04                             109    1.70 0  360 224 
 ANIL HE ES   4    226 40.25                             109    2.67 0  360 224 
 ORTC HZ EP        226  2.58                             107    0.12 6  398 216 
 ORTC HN ES   4    226 46.28                             107    1.37 0  398 216 
 ORTC HZ I         226 49.59         6.0 0.30             97            398 216 
 SJC  HZ IP     C  226  2.44                             106   -1.10 6  407 327 
 SJC  HN ES   4    226 43.72                             106   -3.12 0  407 327 
 PAL  HZ EP   4    226  2.08                             106   -1.55 0  408 239 
 MACC HZ EP   4 D  226 15.31                             102   -1.91 0  524 189 
 MACC HE ES   4    227  7.43                             102   -3.75 0  524 189 
 MACC HZ I         227 10.65         1.9 0.36             95            524 189 
                                                                                
