 2011  629 0914 22.5 L   6.758 -73.128139.3  RSN 11 0.3 2.1LRSN                1
 GAP=141        0.67       2.6     4.0  4.2 -0.4198E+01  0.3911E+01 -0.6204E+00E
 Epicentro: LOS SANTOS - SANTANDER                                             3
 ACTION:UP  11-07-14 19:09 OP:ep   STATUS:               ID:20110629091422 L   I
 2011-06-29-0900-00M.COL___124                                                 6
 STAT SP IPHASW D HRMM SECON CODA AMPLIT PERI AZIMU VELO SNR AR TRES W  DIS CAZ7
 BAR2 SZ EP        914 41.29                             172     0.010   19 198 
 BAR2 SZ ES        914 55.70                             172    -0.210   19 198 
 BAR2 SZ I         914 57.00        28.0 0.30                            19 198 
 GIR2 SZ EP        914 42.06                             165     0.510   36 349 
 BRR  HZ EP        914 43.19                             150     0.010   75 301 
 BRR  HE ES   1    914 59.87                             150     0.5 7   75 301 
 BRR  HZ I         915  1.42        39.8 0.13                            75 301 
 PAM  SZ EP        914 44.23                             149     0.010   80  36 
 PAM  SZ I         914 44.58        23.5 0.12                            80  36 
 PAM  SE ES   1    915  1.17                             149     0.1 7   80  36 
 RUS  HZ EP        914 45.25                             144     0.010   96 177 
 RUS  HE ES   1    915  2.95                             144    -0.1 7   96 177 
 RUS  HZ I         915  5.64        10.3 0.38                            96 177 
 BRI  SZ EP        914 46.00                             139    -0.110  112  19 
 GRA  SZ EP        914 47.32                             135    -0.210  130  16 
 GRA  SZ ES        915  6.98                             135     0.010  130  16 
 GRA  SZ I         915  9.09        23.3 0.29                           130  16 
 OCA  SZ EP        914 50.72                             127    -0.1 9  165 353 
 OCA  SZ ES   1    915 12.60                             127    -0.3 7  165 353 
 OCA  SZ I         915 15.68        30.2 0.39                           165 353 
 HEL  HZ EP   1    915  2.90                             113     0.4 6  273 257 
 HEL  HE ES   1    915 32.93                             113    -0.7 6  273 257 
 HEL  HZ I         915 40.99        10.5 0.54                           273 257 
 RREF HZ EP   2    915  8.71                             110     0.5 3  320 230 
 RREF HN ES   2    915 43.65                             110    -0.2 3  320 230 
 RREF HZ I         915 53.49         4.6 0.41                           320 230 
 PRA  HZ EP   1    915 15.37                             106    -0.1 4  389 210 
 PRA  HN ES   1    915 56.82                             106     0.1 4  389 210 
                                                                                
