 2012  129 0318 15.7 L   6.531 -73.952 85.2  RSN  6 0.4 1.1LRSN                1
 GAP=112        0.63       4.1     3.2  8.6  0.8089E+00 -0.6981E+01  0.9686E+01E
 Epicentro: PUERTO PARRA - SANTANDER                                           3
 ACTION:UP  12-02-03 08:21 OP:REBC STATUS:               ID:20120129031815 L   I
 2012-01-29-0310-00M.COL___188                                                 6
 STAT SP IPHASW D HRMM SECON CODA AMPLIT PERI AZIMU VELO SNR AR TRES W  DIS CAZ7
 PTB  HZ EP        318 29.43                             144    -0.110   56 271 
 PTB  HE ES   1    318 40.18                             144    -0.2 7   56 271 
 PTB  HZ I         318 40.97         3.3 0.18                            56 271 
 BRR  HZ EP        318 30.59                             137     0.010   69  23 
 BRR  HZ I         318 30.76        22.5 0.12                            69  23 
 BRR  HN ES   1    318 42.42                             137     0.3 7   69  23 
 BAR2 SZ EP   2    318 32.35                             131     0.0 5   85  85 
 BAR2 SZ ES   2    318 45.00                             131    -0.3 5   85  85 
 BAR2 SZ I         318 48.36         4.2 0.32                            85  85 
 GIR2 SZ EP   3    318 33.49                             125    -0.5 2  103  54 
 RUS  HZ EP   1    318 36.08                             121     0.0 7  119 126 
 RUS  HZ I         318 36.85         1.1 0.21                           119 126 
 RUS  HN ES   1    318 51.89                             121     0.0 7  119 126 
 NOR  SN ES   3    318 58.52                             115     2.1 2  148 224 
                                                                                
