 2011 1129 0153 39.7 L   6.720 -73.063137.5  RSN  4 0.3 1.5LRSN                1
 GAP=151        0.54       6.4     7.8 10.4  0.1917E+02 -0.4553E+02 -0.2732E+02E
 Epicentro: JORDAN - SANTANDER                                                 3
 ACTION:UPD 12-07-13 16:12 OP:ep   STATUS:               ID:20111129015339 L   I
 2011-11-29-0151-31S.COL___158                                                 6
 STAT SP IPHASW D HRMM SECON CODA AMPLIT PERI AZIMU VELO AIN AR TRES W  DIS CAZ7
 BAR2 SZ EP        153 58.30                             173    0.0510 19.3 223 
 BAR2 SZ ES   3    154 12.45                             173   -0.28 2 19.3 223 
 PAM  SZ EP        154  1.29                             148    0.1210 79.4  30 
 BRR  HZ EP        154  0.41                             148   -0.3210 83.5 301 
 BRR  HZ I         154  2.31         5.6 0.26                          83.5 301 
 BRR  HN ES   1    154 17.40                             148    0.26 7 83.5 301 
 RUS  HZ EP   3    154  3.01                             146    1.03 2 91.5 181 
 RUS  HN ES   2    154 19.21                             146   -0.15 5 91.5 181 
                                                                                
