 2012 1029 0432 17.8 L   6.834 -73.091146.0  RSN 10 0.4 2.3LRSN                1
 GAP=142        0.80       3.4     5.3  6.8 -0.8324E+00  0.6489E+01  0.6551E+01E
 Epicentro: LOS SANTOS - SANTANDER                                             3
 ACTION:UPD 12-11-22 17:06 OP:ep   STATUS:               ID:20121029043217 L   I
 2012-10-29-0430-00M.COL___231                                                 6
 STAT SP IPHASW D HRMM SECON CODA AMPLIT PERI AZIMU VELO AIN AR TRES W  DIS CAZ7
 BAR2 SZ ES   1    432 52.82                             168   -0.16 7 28.5 201 
 GIR2 SZ ES   2    432 51.84                             168   -0.91 5 29.3 337 
 PAM  SZ EP        432 39.86                             153    0.2210 70.7  38 
 PAM  SE ES   1    432 57.20                             153    0.52 7 70.7  38 
 PAM  SE I         433  0.46        20.2 0.48                          70.7  38 
 BRR  HZ EP   1    432 38.69                             151   -0.48 7 74.9 294 
 BRR  HN ES   1    432 56.46                             151    0.61 7 74.9 294 
 BRR  HN I         433  1.26        52.1 0.16                          74.9 294 
 RUS  HZ EP   1    432 41.35                             143   -0.46 7  104 180 
 RUS  HN ES   1    433  0.24                             143   -0.31 7  104 180 
 RUS  HN I         433  1.95        15.5 0.26                           104 180 
 OCA  HN ES   1    433  7.56                             130   -0.16 7  157 351 
 OCA  HN I         433 11.00        38.3 0.30                           157 351 
 ZAR  HE ES   1    433 16.14                             122   -0.19 6  208 291 
 ZAR  HE I         433 22.15        42.8 0.22                           208 291 
 CHI  HZ EP   1    432 55.93                             117   -0.13 6  254 196 
 CHI  HN ES   1    433 26.52                             117    0.60 6  254 196 
 CHI  HN I         433 28.90        10.4 0.24                           254 196 
 RREF HE ES   2    433 41.72                             110    0.37 3  329 230 
 PRA  HE ES   1    433 54.92                             106    0.56 4  398 210 
 PRA  HE I         433 57.29         6.7 0.32                           398 210 
                                                                                
