 2016  429 0648 35.9 L   7.286 -73.407117.2  RSN  4 0.2 1.5LRSN                1
 GAP=131        0.46       2.0     2.6  5.2 -0.1648E+01  0.6807E+01 -0.1054E+01E
 Epicentro: SABANA DE TORRES - SANTANDER                                       3
 ACTION:UPD 16-05-05 14:25 OP:rebc STATUS:               ID:20160429064835 L   I
 OLDACT:UP  16-04-29 17:01 OP:mh   STATUS:               ID:20160429064744     3
 OLDACT:REG 16-04-29 12:59 OP:dnl  STATUS:               ID:20160429064744     3
 2016-04-29-0647-44M.COL___292                                                 6
 STAT SP IPHASW D HRMM SECON CODA AMPLIT PERI AZIMU VELO AIN AR TRES W  DIS CAZ7
 PAM  EZ EP   1    648 55.41                             144    0.15 7 78.3  86 
 PAM  EE ES        649 10.35                             144    0.0110 78.3  86 
 PAM  EZ I         649 12.35         2.9 0.54            149           78.3  86 
 BAR2 EZ EP        648 55.18                             143    0.1210 80.6 162 
 BAR2 EZ ES        649  9.84                             143   -0.1610 80.6 162 
 BAR2 EZ I         649 11.31        11.8 0.45            147           80.6 162 
 OCA  HZ EP   1    648 56.54                             135   -0.43 7  106   5 
 OCA  HN ES        649 13.50                             135    0.1110  106   5 
 OCA  HZ I         649 15.11         9.8 0.22            138            106   5 
 PTB  HZ EP        649  0.28                             126    0.09 9  142 235 
 PTB  HN ES        649 19.11                             126   -0.01 9  142 235 
 PTB  HZ I         649 21.75         3.4 0.24            129            142 235 
                                                                                
