 2011 1129 0056  0.2 L   6.746 -73.064148.0  RSN  4 0.4 1.7LRSN                1
 GAP=150        0.70       8.5     9.6  9.7  0.2870E+02 -0.4199E+02 -0.3809E+02E
 Epicentro: JORDAN - SANTANDER                                                 3
 ACTION:UPD 12-07-13 16:12 OP:ep   STATUS:               ID:20111129005600 L   I
 2011-11-29-0055-07S.COL___160                                                 6
 STAT SP IPHASW D HRMM SECON CODA AMPLIT PERI AZIMU VELO AIN AR TRES W  DIS CAZ7
 BAR2 SZ EP        056 19.76                             172   -0.3510 21.5 218 
 BAR2 SZ ES   1    056 35.36                             172   -0.24 7 21.5 218 
 BAR2 SZ I         056 43.10         7.6 0.58                          21.5 218 
 PAM  SZ EP        056 22.96                             151    0.2910 77.0  31 
 BRR  HZ EP        056 22.08                             150   -0.1910 82.0 299 
 BRR  HZ I         056 22.25        11.5 0.18                          82.0 299 
 BRR  HN ES   1    056 39.78                             150    0.33 7 82.0 299 
 RUS  HZ EP   3    056 24.66                             146    0.88 2 94.4 181 
 RUS  HE ES   2    056 42.70                             146    0.56 5 94.4 181 
                                                                                
