 2013  929 0345 56.7 L   6.767 -73.465 27.9  RSN  4 0.2 0.5LRSN                1
 GAP=158        0.56       5.6     4.7  5.7  0.2448E+02  0.2383E+02  0.2919E+02E
 Epicentro: EL CARMEN DE CHUCURI - SANTANDER                                   3
 ACTION:UPD 13-10-22 09:25 OP:ep   STATUS:               ID:20130929034556 L   I
 OLDACT:DUP 13-09-29 11:44 OP:stll STATUS:               ID:20130929033839d    3
 2013-09-29-0338-37M.COL___241                                                 6
 STAT SP IPHASW D HRMM SECON CODA AMPLIT PERI AZIMU VELO AIN AR TRES W  DIS CAZ7
 BAR2 SZ ES        346 10.18                             122   -0.0010 36.8 122 
 BAR2 SZ I         346 10.69         3.7 0.16            124           36.8 122 
 BRR  HZ EP        346  4.96                             113   -0.2510 46.5 324 
 BRR  HZ I         346  5.12         2.2 0.18            116           46.5 324 
 BRR  HN ES        346 11.98                             113    0.1210 46.5 324 
 RUS  HZ EP        346 14.06                              61    0.3310  106 156 
 RUS  HN ES        346 26.82                              61   -0.2010  106 156 
 PTB  HN ES        346 27.54                              61    0.0010  112 257 
                                                                                
