 2012  429 0955 55.2 L   6.735 -73.183151.3  RSN  4 0.2 1.2LRSN                1
 GAP=228        0.62       6.4     6.6  8.2  0.2077E+02 -0.8604E+01 -0.8018E+01E
 Epicentro: VILLANUEVA - SANTANDER                                             3
 ACTION:UPD 12-07-05 11:56 OP:tino STATUS:               ID:20120429095555 L   I
 2012-04-29-0950-00M.COL___189                                                 6
 STAT SP IPHASW D HRMM SECON CODA AMPLIT PERI AZIMU VELO AIN AR TRES W  DIS CAZ7
 BAR2 SZ EP   1    956 15.04                             174    -0.4 7   16 180 
 BAR2 SZ I         956 39.71         4.3 0.76                            16 180 
 BRR  HZ EP        956 16.90                             153    -0.110   72 305 
 BRR  HE ES   1    956 34.20                             153     0.2 7   72 305 
 BRR  HZ I         956 36.49         3.8 0.30                            72 305 
 RUS  HZ EP   1    956 19.51                             147     0.5 7   94 173 
 RUS  HN ES   1    956 37.51                             147    -0.1 7   94 173 
 RUS  HZ I         956 38.86         1.3 0.37                            94 173 
 PTB  HZ EP   1    956 22.19                             134     0.0 7  142 261 
 PTB  HN ES   1    956 43.13                             134    -0.1 7  142 261 
                                                                                
