 2013  729 0916 48.9 L   6.805 -73.148152.4  RSN  7 0.5 1.9LRSN                1
 GAP=183        1.29       6.3     7.2  8.7  0.7474E+01  0.1634E+02  0.8610E+00E
 Epicentro: LOS SANTOS - SANTANDER                                             3
 ACTION:UPD 13-08-12 10:40 OP:ep   STATUS:               ID:20130729091648 L   I
 OLDACT:REG 13-07-29 07:52 OP:carl STATUS:               ID:20130729090959     3
 2013-07-29-0909-59M.COL___268                                                 6
 STAT SP IPHASW D HRMM SECON CODA AMPLIT PERI AZIMU VELO AIN AR TRES W  DIS CAZ7
 BAR2 SZ EP        917  9.64                             171    0.3110 23.8 189 
 BAR2 SZ ES        917 25.16                             171   -0.1110 23.8 189 
 BAR2 SZ I         917 27.93         5.6 0.26            171           23.8 189 
 GIR2 SZ EP        917  9.51                             168    0.1710 30.7 351 
 GIR2 SZ ES        917 25.38                             168    0.0910 30.7 351 
 BRR  HZ EP   1    917 11.15                             154    0.41 7 70.8 298 
 BRR  HN ES        917 28.54                             154    0.7610 70.8 298 
 BRR  HN I         917 29.10        19.3 0.36            151           70.8 298 
 RUS  HZ EP   1    917 13.83                             145    0.50 7  101 176 
 RUS  HN ES   1    917 31.83                             145   -0.57 7  101 176 
 PTB  HZ EP        917 15.45                             134   -0.94 9  148 259 
 PTB  HN ES        917 37.41                             134   -0.44 9  148 259 
 PTB  HN I         917 41.92         5.9 0.34            133            148 259 
 OCA  HN ES        917 39.24                             131   -0.89 9  160 353 
 OCA  HN I         917 43.71        21.4 0.26            131            160 353 
 ZAR  HZ EP        917 22.29                             124    0.56 9  204 292 
 ZAR  HE ES        917 47.53                             124    0.18 9  204 292 
 ZAR  HZ I         917 53.57         6.2 0.34            124            204 292 
                                                                                
