 2016  629 0004 27.0 L   6.805 -73.179144.4  RSN  4 0.2 1.5LRSN                1
 GAP=132        0.66       3.5     5.1  5.3 -0.1738E+00 -0.1658E+01  0.8556E+00E
 Epicentro: ZAPATOCA - SANTANDER                                               3
 ACTION:UPD 16-07-21 22:23 OP:rebc STATUS:               ID:20160629000427 L   I
 OLDACT:DUP 16-06-29 14:01 OP:edw  STATUS:               ID:20160629000001d    3
 OLDACT:UP  16-06-29 13:50 OP:edw  STATUS:               ID:20160629000000     3
 OLDACT:REG 16-06-29 12:24 OP:edw  STATUS:               ID:20160629000000     3
 2016-06-29-0000-00M.COL___346                                                 6
 STAT SP IPHASW D HRMM SECON CODA AMPLIT PERI AZIMU VELO AIN AR TRES W  DIS CAZ7
 BAR2 EZ EP        0 4 46.06                             170   -0.4110 23.5 181 
 BAR2 EZ ES        0 5  1.38                             170   -0.2710 23.5 181 
 BAR2 EZ I         0 5  3.88         5.9 0.16                          23.5 181 
 BRR  HZ EP        0 4 47.75                             153   -0.0510 67.7 300 
 BRR  HN ES        0 5  4.22                             153    0.1910 67.7 300 
 PAM  EZ EP        0 4 49.11                             150   -0.0810 79.4  42 
 PAM  EN ES        0 5  6.67                             150    0.1810 79.4  42 
 PAM  EZ I         0 5  8.32         6.0 0.46                          79.4  42 
 RUS  HZ EP        0 4 51.02                             143    0.3410  101 174 
 RUS  HN ES        0 5  9.24                             143    0.0910  101 174 
 RUS  HZ I         0 5 10.08         4.4 0.32                           101 174 
 CHI  HZ EP   4    0 4 47.81                             117   -16.8 0  248 194 
 CHI  HN ES   4    0 5  5.70                             117   -28.2 0  248 194 
                                                                                
