 2017 1029 0403 34.2 L   6.025 -73.729115.6  RSN  8 0.4 1.2LRSN                1
 GAP=121        1.07       3.9     3.6  7.6 -0.2699E+01  0.8726E+01 -0.4038E+01E
 Epicentro: BOLIVAR - SANTANDER                                                3
 ACTION:UPD 17-11-07 19:38 OP:rebc STATUS:               ID:20171029040334 L   I
 OLDACT:DUP 17-10-29 15:37 OP:dhb  STATUS:               ID:20171029035741d    3
 OLDACT:UP  17-10-29 15:36 OP:dhb  STATUS:               ID:20171029035740     3
 OLDACT:UP  17-10-29 15:35 OP:dhb  STATUS:               ID:20171029035740     3
 OLDACT:UP  17-10-29 15:33 OP:dhb  STATUS:               ID:20171029035740     3
 OLDACT:REG 17-10-29 12:34 OP:dhb  STATUS:               ID:20171029035740     3
 2017-10-29-0358-00M.COL___408                                                 6
 STAT SP IPHASW D HRMM SECON CODA AMPLIT PERI AZIMU VELO AIN AR TRES W  DIS CAZ7
 SPBC HZ EP        4 3 51.20                             152   -0.1210 56.1 223 
 SPBC HE ES        4 4  4.78                             152    0.0710 56.1 223 
 SPBC HZ I         4 4  7.13         6.3 0.40            157           56.1 223 
 RUS  HZ EP        4 3 52.92                             146   -0.0310 73.0 102 
 RUS  HN ES        4 4  7.18                             146   -0.4410 73.0 102 
 RUS  HZ I         4 4  8.40         3.3 0.32            148           73.0 102 
 BAR2 EZ IP     C  4 3 53.67                             141    0.0410 87.1  44 
 BAR2 EZ ES        4 4  9.29                             141    0.4710 87.1  44 
 BAR2 EZ I         4 4 10.18        10.4 0.46            132           87.1  44 
 PTB  HZ EP        4 3 53.33                             137   -0.9110 98.5 305 
 PTB  HE ES        4 4  9.50                             137   -0.4110 98.5 305 
 PTB  HZ I         4 4 12.21         1.6 0.42            129           98.5 305 
 BRR  HE ES        4 4 13.66                             131    0.4610  120   1 
 BRR  HZ I         4 5 23.06         3.5 0.34            123            120   1 
 NOR  HZ EP        4 3 57.91                             127    0.16 9  136 248 
 NOR  HN ES        4 4 16.78                             127    0.63 9  136 248 
 NOR  HZ I         4 4 19.16         3.3 0.18            134            136 248 
 GUY2CHZ EP   2    4 4  6.27                             115    1.10 4  202 244 
 GUY2CHE ES   1    4 4 29.21                             115   -0.15 6  202 244 
 GUY2CHZ I         4 4 35.43         1.3 0.36                           202 244 
 ZAR  HZ EP        4 4  5.15                             115    0.25 9  205 322 
 ZAR  HN ES        4 4 28.68                             115   -0.20 9  205 322 
 ZAR  HZ I         4 4 29.92         1.8 0.30            114            205 322 
                                                                                
