 2016  929 0904 55.0 L   6.007 -73.988  2.4  RSN 12 0.7 2.0LRSN                1
 GAP= 72        1.85       3.4     3.5  7.4 -0.3094E+01 -0.1686E+01  0.2574E+01E
 Epicentro: LA BELLEZA - SANTANDER                                             3
 ACTION:UPD 17-08-17 21:17 OP:lp   STATUS:               ID:20160929090455 L   I
 OLDACT:UP  16-09-29 18:50 OP:dani STATUS:               ID:20160929085744     3
 OLDACT:REG 16-09-29 13:37 OP:dani STATUS:               ID:20160929085744     3
 2016-09-29-0858-00M.COL___366                                                 6
 STAT SP IPHASW D HRMM SECON CODA AMPLIT PERI AZIMU VELO AIN AR TRES W  DIS CAZ7
 SPBC HZ EP        9 5  1.82                              47   -0.2010 40.3 193 
 SPBC HN ES        9 5  7.52                              47    0.0210 40.3 193 
 SPBC HZ I         9 5  8.19       124.6 0.07             90           40.3 193 
 PTB  HZ EP        9 5  7.32                              47   -0.3910 78.4 319 
 PTB  HN ES        9 5 16.76                              47   -0.8710 78.4 319 
 PTB  HZ I         9 5 17.19        92.6 0.13             90           78.4 319 
 RUS  HZ EP        9 5 11.47                              47   -0.1510  101  97 
 RUS  HE ES        9 5 23.46                              47   -1.1310  101  97 
 RUS  HZ I         9 5 28.12        18.1 0.26             90            101  97 
 NOR  HZ EP        9 5 12.77                              47    0.3510  109 243 
 NOR  HE ES        9 5 25.80                              47   -0.2110  109 243 
 NOR  HZ I         9 5 26.17        59.2 0.21             90            109 243 
 BRR  HZ EP        9 5 15.38                              47    0.5710  125  14 
 BRR  HN ES        9 5 31.23                              47    0.9610  125  14 
 BRR  HZ I         9 5 33.40        18.0 0.13             90            125  14 
 ROSC BZ EP   4    9 5 18.97                              47    2.42 0  134 196 
 ROSC BZ I         9 5 42.21        13.6 0.28             90            134 196 
 CHI  HZ EP   9    9 5 21.91                              47    2.19 0  155 169 
 CHI  HN ES        9 5 42.22                              47    1.03 9  155 169 
 CHI  HZ I         9 5 48.90         6.7 0.37             90            155 169 
 HEL  HZ EP        9 5 21.65                              47   -0.57 9  172 277 
 HEL  HN ES   4    9 5 41.62                              47   -1.84 0  172 277 
 HEL  HZ I         9 5 43.56        24.6 0.21             90            172 277 
 GUY2CHZ EP        9 5 23.66                              47    0.78 9  175 240 
 GUY2CHN ES        9 5 44.41                              47   -0.22 9  175 240 
 GUY2CHZ I         9 5 46.21        20.4 0.31                           175 240 
 ZAR  HZ EP        9 5 23.26                              37   -1.05 9  190 330 
 ZAR  HZ I         9 5 49.87        12.1 0.10             56            190 330 
 ELA  HZ EP        9 5 27.70                              37    1.37 9  201 231 
 ELA  HE ES        9 5 51.04                              37    0.27 9  201 231 
 ELA  HZ I         9 5 54.53        17.2 0.19             56            201 231 
 PAM  EZ EP   4    9 5 28.31                              37    1.59 0  205  44 
 PAM  EE ES        9 5 52.56                              37    1.10 9  205  44 
 PAM  EZ I         9 5 55.91        23.2 0.22             56            205  44 
                                                                                
