 2017  929 0036 19.8 L   6.322 -73.612 97.7  RSN  6 0.2 1.0LRSN                1
 GAP=109        0.61       2.2     2.7  6.2  0.5182E+00  0.1115E+02  0.3845E+01E
 Epicentro: SANTA HELENA DEL OPON - SANTANDER                                  3
 ACTION:UPD 17-10-05 19:17 OP:rebc STATUS:               ID:20170929003619 L   I
 OLDACT:UP  17-09-29 13:58 OP:edw  STATUS:               ID:20170929002746d    3
 OLDACT:UP  17-09-29 13:54 OP:edw  STATUS:               ID:20170929002746d    3
 OLDACT:DUP 17-09-29 13:49 OP:edw  STATUS:               ID:20170929002746d    3
 OLDACT:UP  17-09-29 13:45 OP:edw  STATUS:               ID:20170929002745     3
 OLDACT:UP  17-09-29 13:32 OP:edw  STATUS:               ID:20170929002745     3
 OLDACT:REG 17-09-29 12:08 OP:edw  STATUS:               ID:20170929002745     3
 2017-09-29-0028-00M.COL___444                                                 6
 STAT SP IPHASW D HRMM SECON CODA AMPLIT PERI AZIMU VELO AIN AR TRES W  DIS CAZ7
 BAR2 EZ EP        036 35.46                             148    0.1610 56.2  58 
 BAR2 EZ ES        036 47.68                             148    0.3010 56.2  58 
 BAR2 EZ I         036 49.80         4.2 0.16            154           56.2  58 
 RUS  HZ EP        036 36.70                             140   -0.3610 75.4 129 
 RUS  HN ES        036 50.36                             140   -0.1410 75.4 129 
 RUS  HZ I         036 53.48         1.6 0.34            144           75.4 129 
 BRR  HZ EP        036 37.51                             135    0.1310 87.5 353 
 BRR  HN ES        036 50.97                             135   -0.1110 87.5 353 
 BRR  HZ I         036 51.57         8.1 0.36            141           87.5 353 
 NOR  HZ EP        036 44.85                             117   -0.18 9  162 239 
 NOR  HN ES        037  4.64                             117   -0.05 9  162 239 
 NOR  HZ I         037  7.64         1.2 0.28            120            162 239 
 ZAR  HE ES        037  9.59                             113   -0.27 9  189 313 
 GUY2CHZ EP        036 53.54                             109    0.41 8  229 238 
 GUY2CHN ES        037 19.34                             109    0.22 8  229 238 
 GUY2CHZ I         037 27.83         0.8 0.60                           229 238 
                                                                                
