 2016  629 0604 36.6 L   6.830 -73.101142.5  RSN 15 0.4 2.1LRSN                1
 GAP=104        0.96       3.2     2.7  4.8 -0.7256E+00  0.4220E+01  0.3955E+01E
 Epicentro: LOS SANTOS - SANTANDER                                             3
 ACTION:UPD 16-07-21 22:23 OP:rebc STATUS:               ID:20160629060436 L   I
 OLDACT:UP  16-06-29 17:01 OP:edw  STATUS:               ID:20160629055740     3
 OLDACT:REG 16-06-29 13:10 OP:edw  STATUS:               ID:20160629055740     3
 2016-06-29-0557-40M.COL___343                                                 6
 STAT SP IPHASW D HRMM SECON CODA AMPLIT PERI AZIMU VELO AIN AR TRES W  DIS CAZ7
 BAR2 EZ EP        6 4 55.61                             168   -0.2910 27.8 199 
 BAR2 EZ ES        6 5 10.72                             168   -0.2610 27.8 199 
 BAR2 EZ I         6 5 11.61        28.9 0.18                          27.8 199 
 PAM  EZ EP        6 4 58.16                             152    0.0610 71.7  38 
 PAM  EN ES        6 5 15.28                             152    0.3910 71.7  38 
 PAM  EZ I         6 5 17.09        15.8 0.38                          71.7  38 
 BRR  HZ IP     C  6 4 57.19                             151   -0.3410 74.1 294 
 BRR  HN ES        6 5 14.27                             151    0.3910 74.1 294 
 BRR  HZ I         6 5 17.47        22.7 0.12                          74.1 294 
 RUS  HZ EP        6 5  0.14                             142   -0.0810  104 179 
 RUS  HN ES        6 5 18.66                             142   -0.0210  104 179 
 RUS  HZ I         6 5 20.13        12.3 0.46                           104 179 
 TAM  HZ EP        6 5  3.70                             130    0.07 9  151 107 
 TAM  HN ES        6 5 24.82                             130    0.08 9  151 107 
 PTB  HZ EP   4    6 5  2.27                             130   -1.50 0  153 258 
 PTB  HN ES   4    6 5 23.59                             130   -1.40 0  153 258 
 PTB  HZ I         6 5 28.60         9.1 0.18                           153 258 
 SPBC HZ EP        6 5  4.80                             127   -0.56 9  169 220 
 SPBC HN ES        6 5 27.32                             127   -0.50 9  169 220 
 SPBC HZ I         6 5 35.16        15.7 0.56                           169 220 
 ZAR  HZ EP        6 5  9.90                             121    0.75 8  207 291 
 ZAR  HN ES        6 5 33.66                             121   -0.90 8  207 291 
 ZAR  HZ I         6 5 39.95        24.2 0.48                           207 291 
 NOR  HZ EP        6 5 11.92                             117   -0.83 8  241 234 
 NOR  HN ES        6 5 40.87                             117   -0.10 8  241 234 
 NOR  HZ I         6 5 46.76         9.5 0.20                           241 234 
 CHI  HZ EP        6 5 14.75                             116    0.17 8  253 196 
 CHI  HE ES        6 5 44.78                             116    0.55 8  253 196 
 CHI  HZ I         6 5 49.53         6.1 0.30                           253 196 
 HEL  HZ EP        6 5 17.44                             114    0.21 7  278 255 
 HEL  HN ES        6 5 49.60                             114    0.65 7  278 255 
 HEL  HZ I         6 5 54.79         5.9 0.52                           278 255 
 SOCV BZ EP   4    6 5 17.98                             112   -0.81 0  295  57 
 SOCV BN ES   4    6 5 50.89                             112   -0.84 0  295  57 
 GUY2CHZ EP        6 5 20.89                             111    0.19 7  307 235 
 GUY2CHN ES        6 5 55.48                             111    0.37 7  307 235 
 GUY2CHZ I         6 6  4.51         5.9 0.72                           307 235 
 CBOC HZ EP        6 5 23.90                             109   -0.10 7  339 252 
 CBOC HE ES        6 6  1.71                             109    0.71 7  339 252 
 CBOC HZ I         6 6 11.10         2.7 0.48                           339 252 
 PRA  HZ EP        6 5 30.25                             106   -0.35 6  397 210 
 PRA  HN ES        6 6 12.94                             106    0.20 6  397 210 
 PRA  HZ I         6 6 19.24         7.9 0.32                           397 210 
 ORTC HZ EP        6 5 31.16                             105    0.13 6  401 216 
 ORTC HN ES        6 6 13.87                             105    0.36 6  401 216 
 ORTC HZ I         6 6 18.75         4.7 0.36                           401 216 
 SJC  HZ EP   4    6 5 29.03                             105   -2.98 0  409 326 
 SJC  HN ES   4    6 6 12.33                             105   -2.93 0  409 326 
                                                                                
