 2017  129 0345 49.7 L   6.830 -73.157151.3  RSN 20 0.5 2.3LRSN                1
 GAP= 69        1.05       3.2     3.0  5.5 -0.8582E+00  0.4138E+01  0.4096E+00E
 Epicentro: LOS SANTOS - SANTANDER                                             3
 ACTION:UPD 17-05-22 16:04 OP:jn   STATUS:               ID:20170129034549 L   I
 OLDACT:DUP 17-01-29 16:03 OP:lv   STATUS:               ID:20170129033746d    3
 2017-01-29-0338-00M.COL___342                                                 6
 STAT SP IPHASW D HRMM SECON CODA AMPLIT PERI AZIMU VELO AIN AR TRES W  DIS CAZ7
 BAR2 EZ EP        346  9.88                             170   -0.1410 26.4 186 
 BAR2 EZ I         346 27.72        64.3 0.20            170           26.4 186 
 BRR  HZ EP        346 11.63                             154    0.3610 68.6 297 
 BRR  HN ES        346 28.85                             154    0.7210 68.6 297 
 BRR  HZ I         346 32.84        33.5 0.15            154           68.6 297 
 PAM  EZ EP        346 12.79                             152    0.4110 75.7  42 
 PAM  EN ES        346 29.94                             152   -0.1510 75.7  42 
 PAM  EZ I         346 32.04        39.1 0.50            154           75.7  42 
 RUS  HZ EP        346 13.80                             144   -0.4010  104 175 
 RUS  HE ES        346 32.81                             144   -0.5310  104 175 
 RUS  HZ I         346 33.75        34.3 0.32            145            104 175 
 PTB  HZ EP        346 16.74                             133   -0.30 9  147 257 
 PTB  HN ES        346 37.62                             133   -0.77 9  147 257 
 PTB  HZ I         346 41.35        16.0 0.17            134            147 257 
 TAM  HZ IP     C  346 18.21                             131    0.23 9  157 106 
 TAM  HN ES        346 40.09                             131    0.03 9  157 106 
 TAM  HZ I         346 41.32         8.5 0.59            134            157 106 
 ZAR  HZ EP        346 22.70                             124    0.46 9  202 291 
 ZAR  HN ES        346 48.03                             124    0.39 9  202 291 
 ZAR  HZ I         346 53.69        19.9 0.32            124            202 291 
 NOR  HZ EP        346 26.27                             120    0.45 8  236 234 
 NOR  HN ES        346 54.16                             120    0.15 8  236 234 
 NOR  HZ I         346 56.71        13.5 0.20            120            236 234 
 CHI  HZ EP        346 28.13                             118    0.15 8  251 195 
 CHI  HN ES        346 57.55                             118   -0.32 8  251 195 
 ROSC BZ EP   9    346 30.05                             118    1.72 0  255 210 
 ROSC BE ES        347  1.06                                    0.85 8  255 210 
 ROSC BZ I         347  4.51        22.5 0.40            119            255 210 
 URE  HZ EP        346 30.35                             115   -0.40 7  281 291 
 URE  HN ES   4    347  1.20                             115   -1.59 0  281 291 
 URE  HZ I         347 11.22        13.3 0.36            116            281 291 
 PTGC HZ EP   4    346 32.99                             112   -1.18 0  312 159 
 PTGC HN ES   4    347  5.79                             112   -3.09 0  312 159 
 PTGC HZ I         347 11.26        15.5 0.34            114            312 159 
 CBOC HZ EP   4    346 37.85                             111    1.06 0  333 251 
 CBOC HN ES        347 12.97                             111   -0.58 7  333 251 
 CBOC HZ I         347 17.98         2.8 0.17            112            333 251 
 DBB  EZ EP        346 37.36                             111    0.16 7  338 274 
 DBB  EN ES   4    347 12.47                             111   -1.81 0  338 274 
 DBB  EZ I         347 15.07         4.9 0.20            111            338 274 
 ORTC HZ EP        346 44.92                             107    0.92 6  397 216 
 ORTC HN ES        347 26.92                             107    0.54 6  397 216 
 ORTC HZ I         347 33.68         7.2 0.44            108            397 216 
 SJC  HZ EP        346 44.28                             107   -0.73 6  406 327 
 SJC  HN ES   4    347 25.39                             107   -2.79 0  406 327 
 SJC  HZ I         347 28.54         2.9 0.50            108            406 327 
 PAL  HZ EP   4    346 46.16                             107    1.08 0  406 239 
 PAL  HN ES        347 27.98                             107   -0.33 6  406 239 
 PAL  HZ I         347 31.65         3.5 0.25            107            406 239 
 CRJC HZ EP   4    346 50.38                             104   -1.57 0  464   4 
 CRJC HN ES        347 39.50                             104   -1.03 5  464   4 
 CRJC HZ I         347 44.25         4.8 0.18            105            464   4 
 SMAR HZ EP        346 55.36                             103    0.09 4  494 346 
 SMAR HN ES   4    347 42.74                             103   -3.70 0  494 346 
 MACC HZ EP   4    346 56.83                             102   -2.05 0  524 188 
 MACC HE ES   4    347 48.94                             102   -3.92 0  524 188 
 MACC HZ I         347 52.23         1.7 0.26            103            524 188 
                                                                                
