 2016 1129 0317 21.6 L   6.785 -73.148138.9  RSN 18 0.5 2.4LRSN                1
 GAP= 65        0.95       3.4     3.2  5.0 -0.2480E+01  0.2304E+01  0.5941E+01E
 Epicentro: LOS SANTOS - SANTANDER                                             3
 ACTION:UPD 17-10-26 21:12 OP:lp   STATUS:               ID:20161129031721 L   I
 OLDACT:UP  16-11-29 14:29 OP:dani STATUS:               ID:20161129030746     3
 OLDACT:UP  16-11-29 14:27 OP:dani STATUS:               ID:20161129030746     3
 OLDACT:UP  16-11-29 14:27 OP:dani STATUS:               ID:20161129030746     3
 OLDACT:REG 16-11-29 12:35 OP:dani STATUS:               ID:20161129030746     3
 2016-11-29-0308-00M.COL___346                                                 6
 STAT SP IPHASW D HRMM SECON CODA AMPLIT PERI AZIMU VELO AIN AR TRES W  DIS CAZ7
 BAR2 EZ EP     C  317 40.20                             171   -0.1710 21.6 190 
 BAR2 EZ ES        317 54.89                             171   -0.1210 21.6 190 
 BAR2 EZ I         317 56.07        67.4 0.24            171           21.6 190 
 BRR  HZ EP     C  317 42.12                             151    0.0710 71.8 300 
 BRR  HN ES        317 58.56                             151    0.5610 71.8 300 
 BRR  HZ I         318  2.19        36.9 0.30            142           71.8 300 
 PAM  EZ EP     D  317 43.23                             149    0.0510 78.8  39 
 PAM  EN ES        317 59.90                             149   -0.1110 78.8  39 
 PAM  EZ I         318  2.09        85.3 0.48            136           78.8  39 
 PTB  HZ EP   2    317 46.78                             130   -1.19 5  147 259 
 PTB  HN ES        318  8.00                             130   -0.54 9  147 259 
 PTB  HZ I         318 11.15        20.1 0.32            121            147 259 
 TAM  HZ EP     C  317 48.58                             129   -0.15 9  155 104 
 ZAR  HZ EP        317 53.16                             121   -0.50 9  205 293 
 ZAR  HN ES        318 18.98                             121    0.32 9  205 293 
 ZAR  HZ I         318 26.53        23.8 0.22            112            205 293 
 NOR  HZ EP        317 56.90                             117    0.08 8  234 235 
 NOR  HE ES        318 24.24                             117   -0.04 8  234 235 
 NOR  HZ I         318 31.57        15.8 0.18            110            234 235 
 CHI  HZ EP        317 59.75                             116    1.00 8  247 195 
 CHI  HN ES        318 27.26                             116   -0.45 8  247 195 
 CHI  HZ I         318 30.97        12.1 0.21            108            247 195 
 ROSC BZ EP   4    318  1.43                             115    2.24 0  251 211 
 ROSC BN ES   2    318 29.92                             115    1.42 4  251 211 
 ROSC BZ I         318 39.60        18.8 0.50            108            251 211 
 PTGC HZ EP   3    318  3.51                             110   -1.48 2  307 158 
 PTGC HZ I         318 39.07        21.6 0.36            104            307 158 
 LL6C HZ EP   4    317 45.75                             109   -21.5 0  327 358 
 LL6C HZ I         318 23.61         7.9 0.62            103            327 358 
 ELA  HZ EP   4    318 10.54                             109    2.51 0  328 230 
 ELA  HN ES        318 43.68                             109   -0.56 7  328 230 
 ELA  HZ I         318 51.60        11.8 0.54            103            328 230 
 CBOC HZ EP        318  8.35                             109    0.19 7  333 252 
 CBOC HN ES        318 44.14                             109   -0.33 7  333 252 
 CBOC HZ I         318 48.01         3.9 0.42            103            333 252 
 ARGC HZ EP        318 11.67                             107    0.48 6  361 340 
 PRA  HZ EP        318 14.10                             105   -0.61 6  390 210 
 PRA  HN ES        318 56.71                             105    0.58 6  390 210 
 PRA  HZ I         319  3.73         8.5 0.35            101            390 210 
 ORTC HZ EP        318 15.32                             105    0.20 6  394 216 
 ORTC HE ES        318 57.56                             105    0.70 6  394 216 
 ORTC HZ I         319  3.48         7.9 0.36            101            394 216 
 PAL  HZ EP        318 16.48                             105    0.06 6  405 239 
 SJC  HZ EP   4    318 14.64                             104   -2.47 0  411 327 
 SJC  HZ I         318 59.96        10.8 0.54            100            411 327 
 CRJC HZ EP   4    318 21.04                             102   -3.09 0  469   4 
 URI  HZ EP   4    318 31.16                              99   -3.51 0  558  13 
                                                                                
