 2010 1129 0440 48.8 L   6.812 -73.154148.0  RSN  6 0.4 1.5LRSN                1
 GAP=158        1.18       6.9    15.7 16.7 -0.2440E+02 -0.5988E+02  0.1393E+02E
 Epicentro: LOS SANTOS - SANTANDER                                             3
 ACTION:UP  10-12-17 16:55 OP:REBC STATUS:               ID:20101129044048 L   I
 2010-11-29-0438-33S.COL___129                                                 6
 STAT SP IPHASW D HRMM SECON CODA AMPLIT PERI AZIMU VELO SNR AR TRES W  DIS CAZ7
 BAR2 SZ EP        441  8.60                             170    -0.110   25 188 
 BAR2 SZ I         441  9.12         7.8 0.15                            25 188 
 BRR  HZ EP        441 10.23                             154     0.110   70 298 
 BRR  HZ I         441 10.45        10.3 0.10                            70 298 
 BRR  HN ES   2    441 27.22                             154     0.5 5   70 298 
 RUS  HZ EP        441 12.85                             144     0.010  102 176 
 RUS  HN ES   3    441 31.04                             144    -0.6 2  102 176 
 RUS  HZ I         441 32.91         1.9 0.36                           102 176 
 GUE  SZ EP        441 13.31                             140    -0.310  115  13 
 GRA  SZ EP        441 15.08                             138     0.910  125  18 
 GRA  SZ ES   1    441 33.76                             138    -0.2 7  125  18 
 GRA  SZ I         441 35.40         7.1 0.39                           125  18 
 OCA  SZ EP        441 16.61                             131    -0.5 9  159 353 
 OCA  SZ ES   2    441 38.84                             131    -0.4 5  159 353 
 OCA  SZ I         441 42.72         5.3 0.27                           159 353 
                                                                                
