 2016  729 0753 46.2 L   6.356 -73.566111.8  RSN  8 0.2 1.3LRSN                1
 GAP= 82        0.65       2.1     2.4  4.9 -0.4202E-01  0.3373E+01 -0.4466E+00E
 Epicentro: SANTA HELENA DEL OPON - SANTANDER                                  3
 ACTION:UPD 17-03-29 16:56 OP:lp   STATUS:               ID:20160729075346 L   I
 OLDACT:UP  16-07-29 17:12 OP:edw  STATUS:               ID:20160729074759     3
 OLDACT:REG 16-07-29 13:23 OP:edw  STATUS:               ID:20160729074759     3
 2016-07-29-0747-59S.COL___325                                                 6
 STAT SP IPHASW D HRMM SECON CODA AMPLIT PERI AZIMU VELO AIN AR TRES W  DIS CAZ7
 BAR2 EZ IP        754  2.88                             154    0.1010 49.8  58 
 RUS  HZ EP        754  4.48                             144   -0.1710 74.1 134 
 RUS  HN ES        754 19.13                             144    0.0510 74.1 134 
 RUS  HZ I         754 22.26         3.4 0.32            148           74.1 134 
 BRR  HZ EP        754  4.73                             140   -0.0110 84.6 349 
 BRR  HE ES        754 19.39                             140    0.1510 84.6 349 
 SPBC HZ EP        754  5.91                             136    0.1110 95.9 216 
 SPBC HN ES        754 21.21                             136    0.0910 95.9 216 
 SPBC HZ I         754 27.47         7.7 0.10            139           95.9 216 
 PTB  HZ EP        754  5.46                             135   -0.6310  101 282 
 PTB  HE ES        754 21.30                             135   -0.3310  101 282 
 PTB  HZ I         754 21.85         4.2 0.12            138            101 282 
 NOR  HZ EP        754 12.95                             119    0.10 9  169 239 
 NOR  HE ES        754 33.92                             119    0.25 9  169 239 
 NOR  HZ I         754 35.71         2.7 0.22            122            169 239 
 ZAR  HZ EP        754 15.27                             116    0.17 9  190 311 
 ZAR  HN ES        754 37.98                             116    0.30 9  190 311 
 ZAR  HZ I         754 43.37         3.1 0.24            119            190 311 
 GUY2CHZ EP   4    754 12.94                             110   -7.83 0  235 238 
 GUY2CHN ES        754 47.77                             110    0.01 8  235 238 
                                                                                
