 2011  129 0403 19.8 L   6.815 -73.174138.5  RSN  8 0.5 2.0LRSN                1
 GAP=155        1.46       6.0    11.2  9.7 -0.1843E+02  0.4858E+02 -0.9311E+01E
 Epicentro: LOS SANTOS - SANTANDER                                             3
 ACTION:UP  11-02-08 08:43 OP:pat  STATUS:               ID:20110129040319 L   I
 2011-01-29-0358-35S.COL___137                                                 6
 STAT SP IPHASW D HRMM SECON CODA AMPLIT PERI AZIMU VELO SNR AR TRES W  DIS CAZ7
 BAR2 SZ EP        4 3 38.84                             169     0.210   25 182 
 BAR2 SZ ES        4 3 53.13                             169    -0.210   25 182 
 BAR2 SZ I         4 3 55.45        38.5 0.26                            25 182 
 GIR2 SZ EP        4 3 37.89                             167    -0.710   29 356 
 GIR2 SZ ES   1    4 3 53.58                             167     0.3 7   29 356 
 RUS  HZ EP        4 3 42.71                             142    -0.310  102 174 
 RUS  HE ES        4 4  1.59                             142     0.510  102 174 
 RUS  HZ I         4 4  3.09        14.6 0.55                           102 174 
 GRA  SZ EP        4 3 44.53                             135     0.110  125  19 
 GRA  SZ I         4 4  7.38         9.9 0.48                           125  19 
 OCA  SZ EP        4 3 47.54                             128     0.1 9  158 354 
 OCA  SZ I         4 4 12.59        11.3 0.43                           158 354 
 NOR  SZ EP        4 3 54.75                             117    -0.3 8  233 234 
 CHI  HZ EP        4 3 56.91                             115    -0.3 8  249 194 
 CHI  HE ES        4 4 26.33                             115    -0.1 8  249 194 
 CHI  HZ I         4 4 29.84         6.0 0.64                           249 194 
 HEL  HZ EP        4 4  0.86                             113     1.5 8  269 255 
 HEL  HE ES   1    4 4 29.29                             113    -1.0 6  269 255 
 HEL  HZ I         4 4 36.90         6.6 0.30                           269 255 
                                                                                
