 2014 1029 0409 36.0 L   6.794 -73.160142.2  RSN 18 0.5 2.0LRSN                1
 GAP= 71        3.15       8.7     8.9 14.7 -0.1678E+02  0.2586E+02  0.3102E+02E
 Epicentro: LOS SANTOS - SANTANDER                                             3
 ACTION:UPD 14-11-29 23:58 OP:nd   STATUS:               ID:20141029040936 L   I
 OLDACT:ARG 14-10-30 20:24 OP:stll STATUS:               ID:20141029040747     3
 2014-10-29-0407-47M.COL___271                                                 6
 STAT SP IPHASW D HRMM SECON CODA AMPLIT PERI AZIMU VELO AIN AR TRES W  DIS CAZ7
 BAR2 SZ EP        4 9 55.24                             170    0.0910 22.5 186 
 BAR2 SZ ES        410 10.45                             170    0.3510 22.5 186 
 BAR2 SZ I         410 12.95        18.6 0.24            168           22.5 186 
 BRR  HZ IP     D  4 9 57.15                             153    0.4810 70.2 300 
 BRR  HE ES        410 13.85                             153    1.0410 70.2 300 
 BRR  HZ I         410 16.85        13.0 0.32            151           70.2 300 
 PAM  SZ EP     D  4 9 58.02                             151    0.1310 78.9  40 
 PAM  SZ I         4 9 58.33        19.4 0.22            156           78.9  40 
 PAM  SN ES        410 15.07                             151    0.0810 78.9  40 
 RUS  HZ EP        4 9 59.14                             144   -0.1910  100 175 
 RUS  HN ES        410 17.52                             144   -0.0310  100 175 
 RUS  HZ I         410 18.80        10.0 0.38            144            100 175 
 PTB  HZ EP        410  2.12                             132   -0.37 9  146 259 
 PTB  HN ES        410 22.72                             132   -0.46 9  146 259 
 PTB  HZ I         410 30.75        14.5 0.50            131            146 259 
 TAM  HZ IP     C  410  3.41                             131   -0.08 9  156 105 
 TAM  HZ I         410  3.64        18.6 0.26            135            156 105 
 TAM  HN ES        410 24.44                             131   -0.51 9  156 105 
 OCA  HZ EP        410  4.13                             130    0.08 9  161 354 
 OCA  HN ES        410 25.55                             130   -0.39 9  161 354 
 OCA  HZ I         410 29.41        14.2 0.18            132            161 354 
 SPBC HZ EP        410  4.22                             129    0.17 9  162 219 
 SPBC HN ES        410 26.27                             129    0.32 9  162 219 
 SPBC HZ I         410 31.21        17.8 0.32            129            162 219 
 CHI  HZ EP        410 13.29                             117   -0.07 8  248 195 
 CHI  HN ES        410 42.01                             117   -0.51 8  248 195 
 CHI  HZ I         410 46.56         5.1 0.44            118            248 195 
 ROSC BZ EP        410 14.25                             117    0.51 8  251 211 
 ROSC BN ES        410 43.20                             117   -0.01 8  251 211 
 ROSC BZ I         410 52.91         9.8 0.35            117            251 211 
 HEL  HZ EP        410 16.57                             115    0.75 8  270 256 
 HEL  HE ES        410 45.34                             115   -1.56 8  270 256 
 HEL  HZ I         410 54.06         5.3 0.40            115            270 256 
 GUY2CHZ EP        410 20.02                             112    0.79 7  300 235 
 GUY2CHN ES        410 52.41                             112   -0.56 7  300 235 
 GUY2CHZ I         411  1.67         7.1 0.28                           300 235 
 RREF HZ EP   9    410 11.97                             111   -9.80 0  320 229 
 RREF HN ES        410 56.04                                    8.34 7  320 229 
 RREF HZ I         411  0.92         7.2 0.26            111            320 229 
 CBOC HZ EP        410 22.97                             110    0.43 7  332 252 
 CBOC HE ES        410 57.66                             110   -1.21 7  332 252 
 CBOC HZ I         411  7.40         1.9 0.52            110            332 252 
 MON  HZ EP   9    410 22.44                             109   -2.30 0  353 309 
 MON  HN ES        411  0.41                                   -0.07 6  353 309 
 MON  HZ I         411  6.15         1.8 0.22            110            353 309 
 PRA  HZ EP        410 28.81                             107   -0.40 6  391 209 
 PRA  HN ES        411 10.78                             107    0.04 6  391 209 
 PRA  HZ I         411 16.90         5.3 0.30            107            391 209 
 ORTC HZ EP        410 29.29                             106   -0.31 6  394 216 
 ORTC HN ES        411 11.71                             106    0.28 6  394 216 
 ORTC HZ I         411 19.83         3.5 0.30            107            394 216 
 SJC  HZ IP   9    410 29.53                             106   -1.85 0  409 327 
 SJC  HZ I         410 29.57         2.4 0.24            107            409 327 
 SJC  HN ES        411  8.71                                   -4.04 6  409 327 
                                                                                
