 2010  329 0618 24.3 L   6.810 -73.104145.6  RSN 12 0.5 3.2LRSN                1
 GAP=129        0.95       4.6     6.4  7.0 -0.9465E+01 -0.1275E+01  0.7252E+01E
 Epicentro: LOS SANTOS - SANTANDER                                             3
 ACTION:UP  10-08-24 09:56 OP:vdl  STATUS:               ID:20100329061824 L   I
 2010-03-29-0616-14S.COL___098                                                 6
 STAT SP IPHASW D HRMM SECON CODA AMPLIT PERI AZIMU VELO SNR AR TRES W  DIS CAZ7
 BAR2 SZ IP        618 44.14                             170     0.210   26 200 
 BAR2 SZ ES   2    618 58.80                             170    -0.5 5   26 200 
 BRR  HZ IP        618 46.08                             151     0.510   75 296 
 BRR  HZ I         618 46.38       295.2 0.20                            75 296 
 BRR  HN ES   1    619  2.82                             151     0.6 7   75 296 
 RUS  HZ EP   2    618 48.11                             144     0.0 5  101 179 
 RUS  HE ES   2    619  6.25                             144    -0.4 5  101 179 
 RUS  HZ I         619  7.89       132.4 0.22                           101 179 
 OCA  SZ IP        618 52.48                             130    -0.1 9  160 351 
 OCA  SZ ES   2    619 13.30                             130    -1.3 5  160 351 
 OCA  SZ I         619 21.98       151.5 0.24                           160 351 
 CHI  HZ EP        619  2.26                             117     0.0 8  251 196 
 CHI  HE ES   2    619 31.28                             117    -0.5 4  251 196 
 CHI  HZ I         619 39.60        59.4 0.17                           251 196 
 ROSC BZ EP   2    619  3.94                             116     1.2 4  256 212 
 ROSC BN ES   2    619 32.09                             116    -0.7 4  256 212 
 ROSC BZ I         619 37.91        99.3 0.56                           256 212 
 HEL  HZ EP        619  4.55                             114    -0.5 7  277 256 
 HEL  HN ES   1    619 36.56                             114    -0.2 6  277 256 
 HEL  HZ I         619 43.29        78.4 0.25                           277 256 
 RREF BZ EP        619 10.68                             111    -0.2 7  326 230 
 RREF BN ES   2    619 46.51                             111    -0.7 3  326 230 
 RREF BZ I         619 52.46        69.7 0.37                           326 230 
 TOL  SZ EP   2    619 14.02                             109     1.0 3  348 225 
 SDV  BZ IP        619 13.72                             109    -0.1 6  356  50 
 SDV  BZ I         619 14.63        90.4 0.18                           356  50 
 ANIL BZ EP        619 14.95                             108     0.4 6  361 225 
 ANIL BZ I         620  0.96       135.9 0.27                           361 225 
 PRA  HZ EP        619 17.57                             106    -0.6 6  395 210 
 PRA  HE ES   2    620  0.19                             106     0.0 3  395 210 
 PRA  HZ I         620  5.97        86.6 0.57                           395 210 
                                                                                
