 2017  829 0540 48.8 L   6.824 -73.109143.7  RSN  9 0.5 1.7LRSN                1
 GAP=140        1.10       4.1     5.1  6.9 -0.2638E+01  0.9579E+01  0.8196E+01E
 Epicentro: LOS SANTOS - SANTANDER                                             3
 ACTION:UPD 17-09-04 20:26 OP:rebc STATUS:               ID:20170829054048 L   I
 OLDACT:UP  17-08-29 17:02 OP:dani STATUS:               ID:20170829053741     3
 OLDACT:UP  17-08-29 17:02 OP:dani STATUS:               ID:20170829053741     3
 OLDACT:REG 17-08-29 13:04 OP:dani STATUS:               ID:20170829053741     3
 2017-08-29-0538-00M.COL___417                                                 6
 STAT SP IPHASW D HRMM SECON CODA AMPLIT PERI AZIMU VELO AIN AR TRES W  DIS CAZ7
 BAR2 EZ EP        541  7.82                             169   -0.3910 26.9 198 
 BAR2 EZ ES        541 22.73                             169   -0.6510 26.9 198 
 BAR2 EZ I         541 24.23        11.8 0.20            167           26.9 198 
 PAM  EZ EP        541 10.66                             152    0.1910 72.8  38 
 PAM  EN ES        541 27.93                             152    0.5210 72.8  38 
 PAM  EZ I         541 29.76        13.6 0.48            155           72.8  38 
 BRR  HZ EP     C  541  9.69                             151   -0.1310 73.7 295 
 BRR  HN ES        541 26.44                             151    0.1910 73.7 295 
 BRR  HZ I         541 30.54         9.9 0.12            152           73.7 295 
 RUS  HZ EP        541 12.12                             143   -0.3510  103 178 
 RUS  HN ES        541 30.92                             143   -0.0610  103 178 
 RUS  HZ I         541 31.48         2.5 0.14            143            103 178 
 SPBC HZ EP        541 17.29                             128   -0.24 9  168 220 
 SPBC HE ES        541 40.64                             128    0.66 9  168 220 
 SPBC HZ I         541 44.07        10.1 0.20            128            168 220 
 ZAR  HN ES        541 46.97                             122    0.18 8  207 291 
 NOR  HZ EP        541 24.48                             118   -0.40 8  240 235 
 NOR  HN ES        541 52.66                             118   -0.41 8  240 235 
 NOR  HZ I         541 53.82         5.1 0.26            118            240 235 
 CHI  HZ EP   3    541 29.27                             116    2.54 2  252 196 
 CHI  HN ES        541 57.49                             116    1.14 8  252 196 
 CHI  HZ I         542  3.12         2.4 0.30            117            252 196 
 PRA  HZ EP        541 42.76                             106    0.05 6  396 210 
 PRA  HN ES        542 24.54                             106   -0.25 6  396 210 
 PRA  HZ I         542 29.58         1.9 0.34            107            396 210 
                                                                                
