 2013  629 0230 42.9 L   6.831 -73.150147.8  RSN 22 0.4 2.8LRSN 3.1WRSN        1
 SPEC AVERAGE  MO 13.8 ST  8.1 OM  2.1 f0 4.14 R0.4217 AL 1.82 WI 10.2 MW  3.1 3
 SPEC SD       MO  0.2 ST 11.3 OM  0.3 f0 1.44 R0.1419 AL      WI      MW  0.2 3
 GAP= 65        0.90       2.0     2.5  4.0  0.1471E+00  0.2817E+01  0.1532E+01E
 Epicentro: LOS SANTOS - SANTANDER                                             3
 SPEC TAM HH N MO 13.9 ST  1.1 OM  2.2 f0 2.24 R0.6937 AL 1.60 WI 14.5 MW  3.2 3
 SPEC TAM HH N T 23131 K 0.000 GD  214 VS 4.20 DE 3.20 Q0300.0 QA 0.60 VS 4.20 3
 SPEC PRA HH N MO 13.8 ST  4.2 OM  1.8 f0 3.79 R0.4100 AL 1.47 WI  7.8 MW  3.2 3
 SPEC PRA HH N T 23218 K 0.000 GD  421 VS 4.20 DE 3.20 Q0300.0 QA 0.60 VS 4.20 3
 SPEC PTB HH N MO 13.8 ST  9.9 OM  2.1 f0 5.06 R0.3071 AL 1.69 WI  8.4 MW  3.2 3
 SPEC PTB HH N T 23130 K 0.000 GD  209 VS 4.20 DE 3.20 Q0300.0 QA 0.60 VS 4.20 3
 SPEC RUS HH N MO 13.2 ST  2.0 OM  1.5 f0 4.94 R0.3146 AL 1.11 WI  7.3 MW  2.7 3
 SPEC RUS HH N T 23124 K 0.000 GD  180 VS 4.20 DE 3.20 Q0300.0 QA 0.60 VS 4.20 3
 SPEC HEL HH N MO 13.8 ST  2.1 OM  1.9 f0 3.06 R0.5078 AL 1.84 WI 22.3 MW  3.1 3
 SPEC HEL HH N T 23151 K 0.000 GD  309 VS 4.20 DE 3.20 Q0300.0 QA 0.60 VS 4.20 3
 SPEC NOR HH N MO 14.0 ST 42.2 OM  2.2 f0 6.90 R0.2252 AL 3.43 WI 10.2 MW  3.3 3
 SPEC NOR HH N T 23145 K 0.000 GD  278 VS 4.20 DE 3.20 Q0300.0 QA 0.60 VS 4.20 3
 SPEC OCA HH N MO 14.0 ST  9.8 OM  2.3 f0 4.28 R0.3631 AL 1.43 WI  7.1 MW  3.3 3
 SPEC OCA HH N T 23131 K 0.000 GD  215 VS 4.20 DE 3.20 Q0300.0 QA 0.60 VS 4.20 3
 SPEC PAM SH N MO 13.6 ST  1.0 OM  2.0 f0 2.75 R0.5651 AL 1.49 WI  8.3 MW  3.0 3
 SPEC PAM SH N T 23122 K 0.000 GD  165 VS 4.20 DE 3.20 Q0300.0 QA 0.60 VS 4.20 3
 SPEC COD HH N MO 13.8 ST  2.8 OM  1.8 f0 3.45 R0.4504 AL 1.36 WI 18.8 MW  3.1 3
 SPEC COD HH N T 232 6 K 0.000 GD  375 VS 4.20 DE 3.20 Q0300.0 QA 0.60 VS 4.20 3
 SPEC DBB SH Z MO 13.7 ST0.843 OM  1.7 f0 2.50 R0.6216 AL 1.84 WI  7.8 MW  3.1 3
 SPEC DBB SH Z T 232 7 K 0.000 GD  369 VS 4.20 DE 3.20 Q0300.0 QA 0.60 VS 4.20 3
 SPEC CHI HH N MO 14.0 ST  3.5 OM  2.1 f0 3.21 R0.4841 AL 2.09 WI  7.7 MW  3.3 3
 SPEC CHI HH N T 23150 K 0.000 GD  292 VS 4.20 DE 3.20 Q0300.0 QA 0.60 VS 4.20 3
 SPEC BRR HH N MO 13.8 ST 21.4 OM  2.2 f0 6.58 R0.2362 AL 2.51 WI  5.2 MW  3.1 3
 SPEC BRR HH N T 23121 K 0.000 GD  163 VS 4.20 DE 3.20 Q0300.0 QA 0.60 VS 4.20 3
 SPEC BAR2SH Z MO 13.4 ST  3.7 OM  1.8 f0 5.12 R0.3035 AL 1.76 WI  6.9 MW  2.9 3
 SPEC BAR2SH Z T 23116 K 0.000 GD  150 VS 4.20 DE 3.20 Q0300.0 QA 0.60 VS 4.20 3
 ACTION:UPD 14-01-08 09:57 OP:ep   STATUS:               ID:20130629023042 L   I
 OLDACT:UP  13-06-29 08:44 OP:carl STATUS:               ID:20130629022959     3
 OLDACT:REG 13-06-29 07:50 OP:carl STATUS:               ID:20130629022959     3
 2013-06-29-0229-59M.COL___267                                                 6
 STAT SP IPHASW D HRMM SECON CODA AMPLIT PERI AZIMU VELO AIN AR TRES W  DIS CAZ7
 BAR2 SZ IP     C  231  2.81                             169   -0.0810 26.7 188 
 BAR2 SZ ES   1    231 18.17                             169   -0.28 7 26.7 188 
 BAR2 SZ I         231 19.38       140.5 0.20            171           26.7 188 
 GIR2 SZ EP        231  2.95                             169    0.1810 27.8 350 
 GIR2 SZ ES        231 18.48                             169    0.2410 27.8 350 
 GIR2 SZ I         231 19.22        41.2 0.10            165           27.8 350 
 BRR  HZ IP     D  231  4.61                             154    0.4110 69.2 296 
 BRR  HN ES   1    231 21.75                             154    0.97 7 69.2 296 
 BRR  HZ I         231 24.90       111.3 0.18            151           69.2 296 
 PAM  SZ IP     C  231  5.59                             152    0.3510 75.1  41 
 PAM  SN ES   1    231 22.91                             152    0.28 7 75.1  41 
 PAM  SZ I         231 23.57        77.0 0.22            148           75.1  41 
 RUS  HZ IP     D  231  6.72                             143   -0.4310  104 176 
 RUS  HN ES        231 25.38                             143   -0.6410  104 176 
 RUS  HZ I         231 26.59        39.1 0.70            142            104 176 
 PTB  HZ EP        231  9.51                             132   -0.59 9  148 257 
 PTB  HN ES   1    231 30.48                             132   -0.80 7  148 257 
 PTB  HZ I         231 33.17        71.6 0.16            130            148 257 
 TAM  HZ EP        231 11.22                             131    0.31 9  156 106 
 TAM  HZ I         231 32.13        42.9 0.32            128            156 106 
 TAM  HN ES   1    231 32.75                             131    0.03 7  156 106 
 OCA  HZ EP   1    231 10.95                             131   -0.14 7  157 353 
 OCA  HN ES   1    231 32.80                             131   -0.24 7  157 353 
 OCA  HZ I         231 41.27        56.7 0.26            127            157 353 
 YOP  SZ EP        231 13.54                             126    0.08 9  182 154 
 YOP  SN ES        231 37.12                             126   -0.14 9  182 154 
 YOP  SZ I         231 40.41        46.0 0.32            124            182 154 
 ZAR  HZ EP   1    231 14.73                             123   -0.62 6  202 291 
 ZAR  HE ES        231 40.84                             123    0.22 9  202 291 
 ZAR  HZ I         231 46.90        68.6 0.32            120            202 291 
 NOR  HZ EP        231 18.94                             119   -0.03 8  236 234 
 NOR  HN ES   1    231 46.86                             119   -0.20 6  236 234 
 NOR  HZ I         231 56.38        40.9 0.16            117            236 234 
 SML  HZ EP        231 18.92                             118   -0.41 8  240 335 
 SML  HN ES        231 47.24                             118   -0.46 8  240 335 
 SML  HZ I         232  1.01        45.1 0.10            115            240 335 
 CHI  HZ EP        231 20.97                             117   -0.13 8  252 195 
 CHI  HN ES        231 50.63                             117   -0.23 8  252 195 
 CHI  HZ I         231 55.61        30.5 0.30            115            252 195 
 ROSC BZ EP        231 22.59                             117    1.12 8  255 211 
 ROSC BE ES        231 51.92                             117    0.40 8  255 211 
 HEL  HZ EP   1    231 23.54                             115    0.24 6  272 255 
 HEL  HN ES        231 55.40                             115    0.61 8  272 255 
 HEL  HZ I         232  1.46        36.5 0.26            113            272 255 
 GUY2CHZ EP        231 26.85                             113    0.02 7  303 234 
 GUY2CHN ES   1    232  1.17                             113    0.11 5  303 234 
 GUY2CHZ I         232  9.22        43.8 0.62                           303 234 
 VIL  SZ EP        231 26.73                             112   -0.09 7  307 191 
 VIL  SN ES        232  0.69                             112   -0.36 7  307 191 
 VIL  SZ I         232 10.56        51.6 0.42            110            307 191 
 RREF HZ EP   1    231 29.65                             111    0.26 5  324 229 
 RREF HN ES        232  5.69                             111    0.07 7  324 229 
 RREF HZ I         232 14.63        42.2 0.42            109            324 229 
 DBB  SZ EP        231 30.04                             110   -0.38 7  339 274 
 DBB  SZ ES   1    232  6.69                             110   -0.76 5  339 274 
 DBB  SZ I         232  9.21        22.5 0.52            108            339 274 
 COD  HZ EP   1    231 31.43                             109    0.43 5  345 355 
 COD  HE ES   1    232  8.40                             109   -0.09 5  345 355 
 COD  HZ I         232 19.35        12.3 0.46            107            345 355 
 PRA  HZ EP   1    231 36.55                             107   -0.31 4  395 209 
 PRA  HN ES   1    232 18.75                             107   -0.16 4  395 209 
 PRA  HZ I         232 24.90        41.9 0.74            105            395 209 
 ORTC HZ EP   1    231 37.17                             107   -0.06 4  398 216 
 ORTC HN ES        232 20.58                             107    1.02 6  398 216 
                                                                                
