 2013  429 0250 24.8 L   6.731 -73.182152.0  RSN  4 0.4 1.7LRSN                1
 GAP=228        0.83       7.6     7.3  7.9  0.2371E+02  0.8004E+01  0.5260E+01E
 Epicentro: VILLANUEVA - SANTANDER                                             3
 ACTION:UPD 13-05-22 14:41 OP:EP   STATUS:               ID:20130429025024 L   I
 2013-04-29-0250-00M.COL___248                                                 6
 STAT SP IPHASW D HRMM SECON CODA AMPLIT PERI AZIMU VELO AIN AR TRES W  DIS CAZ7
 BAR2 SZ ES   1    251  0.11                             174   -0.76 7 15.3 180 
 BRR  HZ EP        250 46.60                             153   -0.0810 71.8 305 
 BRR  HN ES        251  4.15                             153    0.4210 71.8 305 
 BRR  HN I         251  8.14        12.2 0.20            152           71.8 305 
 RUS  HZ EP   1    250 48.94                             147    0.24 7 93.3 173 
 RUS  HN ES   1    251  7.71                             147    0.39 7 93.3 173 
 RUS  HN I         251  8.85         6.0 0.40            149           93.3 173 
 PTB  HZ EP        250 51.61                             135   -0.23 9  142 262 
 PTB  HN ES        251 12.86                             135   -0.06 9  142 262 
 PTB  HN I         251 18.00         8.0 0.44            134            142 262 
                                                                                
