 2017 1029 0856 36.3 L   6.851 -73.128151.4  RSN 34 0.8 2.8LRSN                1
 GAP= 66        1.28       3.3     3.0  5.1  0.4523E+00  0.3568E+01  0.3122E+01E
 Epicentro: LOS SANTOS - SANTANDER                                             3
 ACTION:UPD 17-11-07 19:38 OP:rebc STATUS:               ID:20171029085636 L   I
 OLDACT:UP  17-10-29 17:01 OP:dhb  STATUS:               ID:20171029084742d    3
 OLDACT:DUP 17-10-29 16:44 OP:dhb  STATUS:               ID:20171029084742d    3
 OLDACT:UP  17-10-29 16:43 OP:dhb  STATUS:               ID:20171029084741     3
 OLDACT:UP  17-10-29 16:41 OP:dhb  STATUS:               ID:20171029084741     3
 OLDACT:REG 17-10-29 13:41 OP:dhb  STATUS:               ID:20171029084741     3
 2017-10-29-0848-00M.COL___399                                                 6
 STAT SP IPHASW D HRMM SECON CODA AMPLIT PERI AZIMU VELO AIN AR TRES W  DIS CAZ7
 BAR2 EZ IP     C  856 56.72                             169   -0.0510 29.2 192 
 BAR2 EZ ES        857 11.55                             169   -1.1610 29.2 192 
 BAR2 EZ I         857 13.11       148.5 0.18            168           29.2 192 
 BRR  HZ IP     C  856 58.48                             153    0.4210 70.5 294 
 BRR  HN ES        857 15.32                             153    0.3210 70.5 294 
 BRR  HZ I         857 17.84       128.9 0.14            149           70.5 294 
 PAM  EZ IP     C  856 59.59                             152    0.7410 71.8  41 
 PAM  EE ES        857 16.55                             152    0.1510 71.8  41 
 PAM  EZ I         857 18.93        95.0 0.50            155           71.8  41 
 RUS  HZ IP     C  857  0.77                             143   -0.2710  106 177 
 RUS  HN ES        857 19.71                             143   -0.5910  106 177 
 RUS  HZ I         857 21.25        82.5 0.14            143            106 177 
 PTB  HZ EP        857  3.40                             132   -0.65 9  151 257 
 PTB  HE ES        857 24.97                             132   -0.69 9  151 257 
 PTB  HZ I         857 26.29        67.4 0.40            130            151 257 
 TAM  HZ IP     D  857  5.10                             131    0.66 9  155 107 
 TAM  HE ES        857 26.67                             131    0.32 9  155 107 
 TAM  HZ I         857 27.36        67.0 0.26            133            155 107 
 SPBC HZ EP        857  5.62                             129   -0.18 9  169 218 
 SPBC HN ES        857 27.28                             129   -1.50 9  169 218 
 SPBC HZ I         857 36.06       118.3 0.22            128            169 218 
 YPLC HZ IP     C  857  7.27                             126    0.33 9  181 153 
 YPLC HN ES        857 31.13                             126    0.33 9  181 153 
 YPLC HZ I         857 33.89       108.1 0.24            128            181 153 
 ZAR  HZ EP        857  9.17                             123    0.03 9  204 290 
 ZAR  HE ES        857 35.52                             123    0.80 9  204 290 
 ZAR  HZ I         857 42.33        82.4 0.34            121            204 290 
 TABC EZ EP   9    857 14.57                             119    1.52 0  236 210 
 TABC EZ ES        857 42.77                                   -0.43 8  236 210 
 TABC EZ I         857 48.46        72.7 0.66            119            236 210 
 NOR  HZ EP        857 12.81                             119   -0.11 8  240 234 
 NOR  HE ES        857 40.97                             119   -0.48 8  240 234 
 NOR  HZ I         857 46.79        61.4 0.18            117            240 234 
 CHI  HZ EP        857 15.05                             117    0.06 8  255 195 
 CHI  HE ES        857 45.87                             117    0.73 8  255 195 
 CHI  HZ I         857 52.31        30.6 0.44            117            255 195 
 ROSC BZ EP   3    857 16.63                             117    1.23 2  259 211 
 ROSC BN ES        857 47.03                             117    1.16 8  259 211 
 ROSC BZ I         857 54.41        40.8 0.30            116            259 211 
 URE  HZ EP   9    857 16.45                             114   -1.22 0  284 291 
 URE  HE ES        857 48.18                             114   -0.50 7  284 291 
 URE  HZ I         857 59.54        67.6 0.18            113            284 291 
 GUY2CHZ EP        857 21.29                             112    0.53 7  306 234 
 GUY2CHE ES        857 56.01                             112    0.61 7  306 234 
 GUY2CHZ I         858  3.22        40.6 0.58                           306 234 
 PTGC HZ IP     C  857 20.04                             112   -0.92 7  313 159 
 PTGC HE ES   3    857 53.20                             112   -2.57 2  313 159 
 PTGC HZ I         857 55.64        25.3 0.30            112            313 159 
 ELA  HZ EP   3    857 26.30                             110    2.28 2  334 229 
 ELA  HE ES        858  1.97                             110    0.76 7  334 229 
 ELA  HZ I         858 10.48        30.6 0.34            110            334 229 
 DBB  EZ EP        857 24.44                             110    0.20 7  341 273 
 DBB  EN ES        858  1.26                             110   -0.33 7  341 273 
 DBB  EZ I         858 17.87        18.4 0.14            109            341 273 
 ARGC HZ EP   9    857 26.81                             109    1.12 0  355 340 
 ARGC HE ES        858  5.22                             109   -0.08 6  355 340 
 ARGC HZ I         858 15.69         8.7 0.38            108            355 340 
 ANIL HZ EP        857 27.76                             109    0.77 6  363 224 
 ANIL HE ES   2    858  7.58                             109    1.09 3  363 224 
 PRA  HZ EP        857 30.54                             107   -0.20 6  398 209 
 PRA  HE ES        858 13.54                             107    0.37 6  398 209 
 PRA  HZ I         858 19.33        33.5 0.58            106            398 209 
 APAC HZ IP     D  857 30.72                             106   -0.03 6  398 287 
 APAC HE ES        858 13.11                             106   -0.08 6  398 287 
 APAC HZ I         858 19.08        10.5 0.38            106            398 287 
 ORTC HZ EP        857 31.70                             106    0.58 6  401 216 
 ORTC HE ES        858 14.55                             106    0.70 6  401 216 
 ORTC HZ I         858 19.40        20.3 0.18            106            401 216 
 SJC  HZ EP   2    857 30.68                             106   -1.00 3  406 326 
 SJC  HE ES   4    858 11.67                             106   -3.16 0  406 326 
 SJC  HZ I         858 15.44        11.6 0.30            106            406 326 
 PAL  HZ EP        857 32.63                             106    0.40 6  410 239 
 PAL  HE ES        858 13.99                             106   -1.83 6  410 239 
 PAL  HZ I         858 20.80        13.8 0.24            106            410 239 
 LCBC HZ EP   4    857 36.65                             105    3.31 0  421 302 
 LCBC HE ES   3    858 20.16                             105    2.37 1  421 302 
 LCBC HZ I         858 37.43        23.1 0.82            105            421 302 
 CRJC HZ EP   2    857 36.86                             104   -1.47 2  462   3 
 CRJC HE ES   4    858 24.07                             104   -2.61 0  462   3 
 CRJC HZ I         858 29.80        10.7 0.18            104            462   3 
 YOT  HZ EP        857 40.21                             103    0.05 5  477 229 
 YOT  HN ES   4    858 33.63                             103    3.70 0  477 229 
 GUA  EZ EP        857 39.21                             103   -1.07 5  479 173 
 GUA  EE ES        858 29.14                             103   -1.02 5  479 173 
 GUA  EZ I         858 32.74         9.8 0.36            103            479 173 
 SMAR HZ EP        857 42.45                             103    0.67 4  492 346 
 SMAR HE ES   3    858 30.84                             103   -1.97 1  492 346 
 CAP2 HZ EP   2    857 42.07                             102   -1.53 2  507 293 
 CAP2 HE ES   4    858 32.14                             102   -3.92 0  507 293 
 CAP2 HZ I         858 36.42         6.8 0.12            102            507 293 
 MACC HZ EP   2    857 43.95                             102   -1.94 2  526 189 
 MACC HE ES   4    858 36.00                             102   -4.13 0  526 189 
 MACC HZ I         858 44.03         5.3 0.48            102            526 189 
 URI  HZ EP   2    857 47.31                             101   -1.46 2  551  13 
 URI  HN ES   4    858 47.42                             101    2.15 0  551  13 
 URI  HZ I         858 49.11         2.4 0.74            101            551  13 
 JAMC HZ EP   3    857 48.41                             101   -2.02 1  562 225 
 JAMC HE ES   3    858 50.89                             101    2.67 1  562 225 
                                                                                
