 2012  329 0534 11.8 L   6.734 -73.180152.2  RSN  5 0.4 1.6LRSN                1
 GAP=228        0.79       8.2     7.5  8.5  0.3104E+02  0.1207E+01 -0.1473E+02E
 ACTION:UP  12-03-31 23:23 OP:EP   STATUS:               ID:20120329053411 L   I
 2012-03-29-0530-00M.COL___196                                                 6
 STAT SP IPHASW D HRMM SECON CODA AMPLIT PERI AZIMU VELO SNR AR TRES W  DIS CAZ7
 BAR2 SZ EP        534 31.99                             174    -0.110   16 181 
 BAR2 SZ ES   1    534 47.18                             174    -0.7 7   16 181 
 BAR2 SZ I         534 48.02         6.3 0.40                            16 181 
 BRR  HZ EP        534 33.83                             153     0.210   72 305 
 BRR  HZ I         534 34.02        17.2 0.26                            72 305 
 BRR  HE ES   1    534 51.24                             153     0.5 7   72 305 
 RUS  HZ EP   2    534 35.87                             147     0.2 5   94 173 
 RUS  HN ES   1    534 54.55                             147     0.2 7   94 173 
 RUS  HZ I         534 55.62         3.4 0.38                            94 173 
 PTB  HZ EP   2    534 38.84                             134     0.0 5  143 261 
 PTB  HN ES   1    534 59.98                             134     0.0 7  143 261 
 ZAR  HZ EP   2    534 44.48                             124    -0.1 4  203 294 
 ZAR  HN ES   2    535  9.41                             124    -0.8 4  203 294 
 ZAR  HZ I         535 16.82         4.5 0.40                           203 294 
                                                                                
