 2013  329 0507 58.4 L   6.859 -73.291122.9  RSN  6 0.2 1.2LRSN                1
 GAP=110        0.47       3.6     3.5  5.0  0.6182E+01  0.3877E+01  0.1113E+01E
 Epicentro: ZAPATOCA - SANTANDER                                               3
 ACTION:UPD 13-04-09 14:05 OP:ep   STATUS:               ID:20130329050758 L   I
 2013-03-29-0500-00M.COL___245                                                 6
 STAT SP IPHASW D HRMM SECON CODA AMPLIT PERI AZIMU VELO AIN AR TRES W  DIS CAZ7
 BAR2 SZ IP     D  5 8 15.81                             165    0.2610 31.9 158 
 BAR2 SZ ES   1    5 8 28.71                             165   -0.20 7 31.9 158 
 BAR2 SZ I         5 8 29.99        25.4 0.50            167           31.9 158 
 BRR  HZ EP        5 8 16.17                             155    0.0410 54.0 301 
 BRR  HN ES   1    5 8 30.26                             155    0.30 7 54.0 301 
 BRR  HZ I         5 8 35.91         3.6 0.14            154           54.0 301 
 PAM  SN ES   2    5 8 34.17                             144   -0.42 5 84.2  51 
 RUS  HZ EP   1    5 8 20.60                             136   -0.13 7  109 168 
 RUS  HN ES   1    5 8 38.12                             136   -0.01 7  109 168 
 RUS  HZ I         5 8 40.17         0.9 0.28            141            109 168 
 PTB  HN ES   2    5 8 40.48                             129   -0.37 5  134 255 
 PTB  HZ I         5 8 44.48         1.7 0.10            131            134 255 
 ZAR  HZ EP   2    5 8 27.42                             119   -0.19 4  187 292 
 ZAR  HN ES   1    5 8 50.26                             119   -0.13 7  187 292 
 ZAR  HZ I         5 8 53.27         1.7 0.26            122            187 292 
                                                                                
