 2010 1229 0225 58.9 L   6.799 -73.166139.6  RSN  6 0.3 1.8LRSN                1
 GAP=156        0.59       3.3     8.0  7.3 -0.1214E+02  0.2173E+02 -0.2872E+01E
 Epicentro: LOS SANTOS - SANTANDER                                             3
 ACTION:UP  11-01-14 15:27 OP:pat  STATUS:               ID:20101229022558 L   I
 2010-12-29-0221-49S.COL___135                                                 6
 STAT SP IPHASW D HRMM SECON CODA AMPLIT PERI AZIMU VELO SNR AR TRES W  DIS CAZ7
 BAR2 SZ EP   1    226 17.79                             170     0.0 7   23 185 
 BAR2 SZ ES   2    226 32.48                             170    -0.1 5   23 185 
 BAR2 SZ I         226 35.04        17.3 0.23                            23 185 
 RUS  HZ EP   1    226 21.72                             142    -0.4 7  101 175 
 RUS  HE ES   2    226 40.11                             142     0.0 5  101 175 
 RUS  HZ I         226 41.45         9.4 0.24                           101 175 
 GRA  SZ EP   1    226 24.16                             135     0.5 7  127  18 
 GRA  SZ ES   2    226 43.42                             135     0.4 5  127  18 
 GRA  SZ I         226 44.41         8.9 0.30                           127  18 
 OCA  SZ EP   1    226 26.47                             128    -0.3 7  160 354 
 OCA  SZ ES   2    226 48.00                             128    -0.5 5  160 354 
 OCA  SZ I         226 52.57         7.0 0.15                           160 354 
 NOR  SZ EP   1    226 34.21                             117     0.1 6  233 234 
 NOR  SE ES   2    227  1.82                             117     0.3 4  233 234 
 CHI  HZ EP   1    226 36.15                             116    -0.1 6  248 195 
 CHI  HN ES   2    227  5.80                             116     0.5 4  248 195 
 CHI  HZ I         227 10.72         3.2 0.30                           248 195 
                                                                                
