 2015  829 0811  2.3 L   6.811 -73.106151.3  RSN  4 0.3 1.4LRSN                1
 GAP=225        0.78       3.9    10.1  5.7  0.9269E+01  0.9980E+01  0.3638E+00E
 Epicentro: LOS SANTOS - SANTANDER                                             3
 ACTION:UPD 15-09-15 23:06 OP:cam  STATUS:               ID:20150829081102 L   I
 OLDACT:REG 15-08-29 13:55 OP:ak   STATUS:               ID:20150829080748     3
 2015-08-29-0807-48M.COL___358                                                 6
 STAT SP IPHASW D HRMM SECON CODA AMPLIT PERI AZIMU VELO AIN AR TRES W  DIS CAZ7
 BAR2 EZ EP        811 22.78                             170    0.1210 25.6 199 
 BAR2 EZ ES        811 38.14                             170   -0.3810 25.6 199 
 BAR2 EZ I         811 39.49         3.6 0.26            168           25.6 199 
 BRR  HZ EP        811 24.78                             152    0.5310 74.5 296 
 BRR  HN ES        811 41.56                             152    0.2010 74.5 296 
 BRR  HZ I         811 45.47         3.5 0.32            149           74.5 296 
 SML  HZ EP        811 39.04                             118   -0.30 8  244 334 
 SML  HN ES        812  7.94                             118   -0.28 8  244 334 
 SML  HZ I         812 10.83         3.1 0.10            119            244 334 
 PRA  HZ EP        811 56.55                             107    0.14 6  395 210 
 PRA  HN ES        812 38.18                             107   -0.42 6  395 210 
                                                                                
