 2012 1129 0038 24.5 L   6.812 -73.162141.3  RSN 17 0.4 3.1LRSN 3.2WRSN        1
 SPEC AVERAGE  MO 13.9 ST 14.7 OM  2.5 f0 3.83 R0.4226 AL 2.82 WI 14.9 MW  3.2 3
 SPEC SD       MO  0.2 ST 20.7 OM  0.4 f0 1.24 R0.1206 AL      WI      MW  0.2 3
 GAP= 70        1.03       2.7     2.8  4.6  0.4433E+00  0.4064E+01  0.6593E+00E
 Epicentro: LOS SANTOS - SANTANDER                                             3
 SPEC ZAR HH E MO 14.3 ST 59.4 OM  2.5 f0 6.05 R0.2430 AL 2.84 WI 19.8 MW  3.5 3
 SPEC ZAR HH E T 03922 K 0.000 GD  246 VS 4.20 DE 3.20 Q0300.0 QA 0.60 VS 4.20 3
 SPEC TAM HH E MO 13.9 ST  1.9 OM  2.2 f0 2.53 R0.5810 AL 2.63 WI  9.1 MW  3.2 3
 SPEC TAM HH E T 03912 K 0.000 GD  211 VS 4.20 DE 3.20 Q0300.0 QA 0.60 VS 4.20 3
 SPEC OCA HH E MO 14.2 ST 31.0 OM  2.5 f0 5.12 R0.2871 AL 3.52 WI 13.9 MW  3.4 3
 SPEC OCA HH E T 03912 K 0.000 GD  212 VS 4.20 DE 3.20 Q0300.0 QA 0.60 VS 4.20 3
 SPEC RUS HH N MO 13.5 ST  3.6 OM  1.9 f0 4.22 R0.3483 AL 2.89 WI 14.9 MW  3.0 3
 SPEC RUS HH N T 039 3 K 0.000 GD  174 VS 4.20 DE 3.20 Q0300.0 QA 0.60 VS 4.20 3
 SPEC PAM SH N MO 13.9 ST  3.2 OM  2.3 f0 3.06 R0.4804 AL 3.36 WI 12.5 MW  3.2 3
 SPEC PAM SH N T 039 2 K 0.000 GD  161 VS 4.20 DE 3.20 Q0300.0 QA 0.60 VS 4.20 3
 SPEC HEL HH N MO 13.7 ST  1.3 OM  1.8 f0 2.71 R0.5424 AL 1.93 WI 19.8 MW  3.1 3
 SPEC HEL HH N T 03934 K 0.000 GD  305 VS 4.20 DE 3.20 Q0300.0 QA 0.60 VS 4.20 3
 SPEC CHI HH N MO 13.9 ST  2.9 OM  2.0 f0 3.09 R0.4757 AL 2.60 WI 14.2 MW  3.2 3
 SPEC CHI HH N T 03930 K 0.000 GD  286 VS 4.20 DE 3.20 Q0300.0 QA 0.60 VS 4.20 3
 ACTION:UPD 12-12-05 15:36 OP:}ep  STATUS:               ID:20121129003824 L   I
 2012-11-29-0036-38M.COL___202                                                 6
 STAT SP IPHASW D HRMM SECON CODA AMPLIT PERI AZIMU VELO AIN AR TRES W  DIS CAZ7
 BAR2 SZ IP        038 43.76                             170    0.1810 24.4 185 
 BAR2 SZ ES        038 58.59                             170    0.1010 24.4 185 
 BAR2 SZ I         039  0.02       269.3 0.18                          24.4 185 
 GIR2 SZ IP        038 43.87                             167    0.3110 29.7 353 
 GIR2 SZ ES        038 58.88                             167    0.4310 29.7 353 
 PAM  SZ IP     D  038 46.61                             150    0.4010 77.5  41 
 PAM  SN ES        039  3.45                             150    0.2710 77.5  41 
 PAM  SN I         039  4.60       254.6 0.48                          77.5  41 
 RUS  HZ EP        038 47.69                             142   -0.1910  102 175 
 RUS  HN ES        039  5.18                             142   -0.9810  102 175 
 RUS  HN I         039  6.82        87.2 0.22                           102 175 
 PTB  HZ EP        038 50.39                             131   -0.53 9  146 258 
 PTB  HN ES        039 11.07                             131   -0.50 9  146 258 
 PTB  HN I         039 16.45       156.9 0.34                           146 258 
 TAM  HZ IP     D  038 52.10                             129    0.11 9  157 105 
 TAM  HE ES        039 13.53                             129    0.07 9  157 105 
 TAM  HN I         039 17.75        87.7 0.38                           157 105 
 OCA  HZ EP        038 52.01                             129   -0.27 9  159 354 
 OCA  HE ES        039 13.61                             129   -0.37 9  159 354 
 OCA  HE I         039 17.22       348.6 0.22                           159 354 
 ZAR  HZ EP        038 56.56                             122    0.17 9  202 292 
 ZAR  HN ES        039 21.65                             122    0.36 9  202 292 
 ZAR  HN I         039 28.70       139.2 0.22                           202 292 
 SML  HZ EP        039  1.20                             117    0.58 8  242 336 
 SML  HN ES        039 28.57                             117   -0.25 8  242 336 
 SML  HN I         039 32.32       219.1 0.30                           242 336 
 CHI  HZ EP        039  2.20                             116    0.20 8  249 195 
 CHI  HN ES        039 31.86                             116    0.57 8  249 195 
 ROSC BZ EP        039  2.00                             116   -0.36 8  253 211 
 ROSC BZ I         039 41.32        40.0 0.40                           253 211 
 HEL  HZ EP        039  4.56                             114    0.27 8  271 255 
 HEL  HN ES        039 36.07                             114    0.72 8  271 255 
 HEL  HN I         039 43.13        45.5 0.30                           271 255 
 URE  HZ EP        039  4.81                             113   -0.26 7  282 292 
 URE  HN ES        039 35.90                             113   -0.84 7  282 292 
 URE  HN I         039 48.02       102.6 0.24                           282 292 
 RREF HZ EP        039 10.72                             110    0.37 7  321 229 
 DBB  SZ EP        039 11.64                             109    0.11 7  338 274 
 MON  HZ EP   4    039 11.35                             108   -1.67 0  351 308 
 SDV  BZ EP        039 13.49                             107   -0.91 6  361  51 
 PRA  HZ EP   1    039 18.13                             106    0.27 4  392 209 
                                                                                
