 2013  829 0130 30.2 L   6.794 -73.158143.5  RSN  7 0.5 1.6LRSN                1
 GAP=135        1.30       6.0     7.1 10.0 -0.1040E+02  0.2049E+02 -0.1723E+02E
 Epicentro: LOS SANTOS - SANTANDER                                             3
 ACTION:UPD 14-01-14 09:08 OP:ep   STATUS:               ID:20130829013030 L   I
 OLDACT:REG 13-08-29 08:17 OP:jn   STATUS:               ID:20130829012850     3
 2013-08-29-0128-50M.COL___217                                                 6
 STAT SP IPHASW D HRMM SECON CODA AMPLIT PERI AZIMU VELO AIN AR TRES W  DIS CAZ7
 BAR2 SZ ES        131  4.33                             171   -0.2710 22.4 187 
 BAR2 SZ I         131  6.54         6.8 0.10            172           22.4 187 
 BRR  HZ EP        130 51.76                             152    0.7310 70.3 300 
 BRR  HN ES        131  8.27                             152    0.9710 70.3 300 
 PAM  SZ EP     C  130 52.68                             150    0.4410 78.8  40 
 PAM  SN ES        131  9.10                             150   -0.3510 78.8  40 
 PAM  SZ I         131 11.81         7.7 0.60            151           78.8  40 
 RUS  HN ES   1    131 11.68                             143   -0.30 7100.0 175 
 PTB  HZ EP        130 56.55                             132   -0.27 9  146 259 
 PTB  HN ES        131 17.03                             132   -0.57 9  146 259 
 PTB  HZ I         131 20.06         5.5 0.18            133            146 259 
 OCA  HN ES        131 19.84                             129   -0.51 9  161 354 
 OCA  HZ I         131 23.01         7.2 0.34            130            161 354 
 SML  HZ EP   1    131  6.65                             117   -0.03 6  244 336 
 SML  HN ES   1    131 34.61                             117   -0.54 6  244 336 
                                                                                
