 2010 1229 0236 35.3 L   6.783 -73.120139.0  RSN  5 0.2 1.7LRSN                1
 GAP=162        0.47       3.1     7.3  6.9 -0.8548E+01  0.9272E+01 -0.6435E+01E
 Epicentro: LOS SANTOS - SANTANDER                                             3
 ACTION:UP  11-01-14 15:27 OP:pat  STATUS:               ID:20101229023635 L   I
 2010-12-29-0233-02S.COL___134                                                 6
 STAT SP IPHASW D HRMM SECON CODA AMPLIT PERI AZIMU VELO SNR AR TRES W  DIS CAZ7
 BAR2 SZ EP   1    236 54.06                             171     0.0 7   22 199 
 BAR2 SZ ES   2    237  8.64                             171    -0.1 5   22 199 
 BAR2 SZ I         237  9.72        13.2 0.28                            22 199 
 RUS  HZ EP   1    236 58.10                             143    -0.1 7   99 178 
 RUS  HN ES   2    237 16.19                             143     0.1 5   99 178 
 RUS  HZ I         237 18.08         3.9 0.51                            99 178 
 GRA  SZ EP   1    237  0.10                             135     0.1 7  127  16 
 GRA  SZ ES   2    237 19.87                             135     0.5 5  127  16 
 GRA  SZ I         237 21.74        10.3 0.32                           127  16 
 OCA  SZ EP   1    237  3.28                             128     0.0 7  163 352 
 OCA  SZ ES   2    237 24.70                             128    -0.5 5  163 352 
 OCA  SZ I         237 27.80        13.1 0.42                           163 352 
 NOR  SE ES   2    237 38.82                             117     0.3 4  236 235 
                                                                                
