 2017  729 0009  3.1 L   6.808 -73.123141.9  RSN  7 0.4 1.5LRSN                1
 GAP=139        0.77       3.4     3.6  5.9 -0.3784E+00  0.3792E-01  0.3948E+00E
 Epicentro: LOS SANTOS - SANTANDER                                             3
 ACTION:UPD 17-08-30 15:37 OP:rebc STATUS:               ID:20170729000903 L   I
 OLDACT:UP  17-07-29 13:23 OP:and  STATUS:               ID:20170729000000     3
 OLDACT:UP  17-07-29 13:23 OP:and  STATUS:               ID:20170729000000     3
 OLDACT:UP  17-07-29 13:20 OP:and  STATUS:               ID:20170729000000     3
 OLDACT:REG 17-07-29 12:30 OP:and  STATUS:               ID:20170729000000     3
 2017-07-29-0000-15M.COL___386                                                 6
 STAT SP IPHASW D HRMM SECON CODA AMPLIT PERI AZIMU VELO AIN AR TRES W  DIS CAZ7
 BAR2 EZ EP        0 9 21.98                             170   -0.3310 24.8 195 
 BAR2 EZ ES   2    0 9 36.32                             170   -0.96 5 24.8 195 
 BAR2 EZ I         0 9 38.05        14.1 0.24            171           24.8 195 
 BRR  HZ EP        0 9 23.93                             151   -0.0210 72.9 297 
 BRR  HN ES        0 9 40.57                             151    0.3710 72.9 297 
 PAM  EZ EP        0 9 24.99                             151    0.2010 75.1  39 
 PAM  EN ES        0 9 41.76                             151    0.0810 75.1  39 
 PAM  EZ I         0 9 44.28         6.0 0.44            151           75.1  39 
 RUS  HZ EP        0 9 26.36                             143   -0.1910  101 177 
 RUS  HN ES        0 9 44.97                             143    0.1510  101 177 
 RUS  HZ I         0 9 45.63         5.0 0.24            144            101 177 
 PTB  HZ EP   9    0 9 28.75                             131   -1.26 0  150 259 
 PTB  HN ES        0 9 49.61                             132   -0.11 9  150 259 
 PTB  HZ I         0 9 52.10         2.6 0.14            132            150 259 
 SPBC HN ES        0 9 54.01                             128    0.30 9  165 219 
 ZAR  HZ EP   2    0 9 36.13                             121    0.61 4  206 292 
 ZAR  HN ES        010  0.27                             121   -0.51 8  206 292 
                                                                                
