 2016  829 0539 55.7 L   6.806 -73.162145.5  RSN 20 0.5 2.0LRSN                1
 GAP=118        1.10       2.8     3.5  5.1 -0.2608E+01  0.4080E+01 -0.9131E+00E
 Epicentro: LOS SANTOS - SANTANDER                                             3
 ACTION:UPD 16-10-29 15:40 OP:rebc STATUS:               ID:20160829053955 L   I
 OLDACT:UP  16-08-29 16:38 OP:drio STATUS:               ID:20160829053739     3
 OLDACT:UP  16-08-29 16:37 OP:drio STATUS:               ID:20160829053739     3
 OLDACT:REG 16-08-29 12:54 OP:drio STATUS:               ID:20160829053739     3
 2016-08-29-0538-00M.COL___359                                                 6
 STAT SP IPHASW D HRMM SECON CODA AMPLIT PERI AZIMU VELO AIN AR TRES W  DIS CAZ7
 BAR2 EZ EP        540 15.49                             170    0.1910 23.7 185 
 BAR2 EZ ES        540 30.21                             170   -0.3810 23.7 185 
 BAR2 EZ I         540 33.17        32.9 0.32                          23.7 185 
 BRR  HZ EP        540 17.04                             153    0.3310 69.3 299 
 BRR  HN ES        540 34.01                             153    0.9110 69.3 299 
 BRR  HZ I         540 38.23        18.4 0.14                          69.3 299 
 PAM  EZ EP        540 18.34                             150    0.4210 78.1  41 
 PAM  EE ES        540 35.02                             150   -0.2410 78.1  41 
 PAM  EZ I         540 37.80        21.3 0.70                          78.1  41 
 RUS  HZ EP        540 19.39                             143   -0.0910  101 175 
 RUS  HE ES        540 38.36                             143    0.3310  101 175 
 RUS  HZ I         540 39.28        16.1 0.28                           101 175 
 PTB  HZ EP        540 22.24                             132   -0.25 9  146 258 
 PTB  HE ES        540 43.04                             132   -0.35 9  146 258 
 PTB  HZ I         540 45.74        11.1 0.10                           146 258 
 OCA  HZ EP        540 24.20                             130    0.29 9  159 354 
 OCA  HE ES        540 45.32                             130   -0.59 9  159 354 
 OCA  HZ I         540 53.81        16.1 0.22                           159 354 
 SPBC HZ EP        540 24.20                             129    0.08 9  163 218 
 SPBC HN ES        540 45.68                             129   -0.60 9  163 218 
 SPBC HZ I         540 52.50        24.2 0.22                           163 218 
 ZAR  HZ EP        540 27.86                             123   -0.06 9  202 292 
 ZAR  HE ES        540 52.94                             123   -0.12 9  202 292 
 ZAR  HZ I         541  3.52         7.8 0.28                           202 292 
 NOR  HZ EP        540 31.86                             119    0.57 8  234 234 
 NOR  HE ES        540 59.28                             119    0.23 8  234 234 
 NOR  HZ I         541  7.25        10.8 0.18                           234 234 
 CHI  HZ EP        540 33.62                             117    0.22 8  249 195 
 CHI  HN ES        541  2.77                             117   -0.03 8  249 195 
 CHI  HZ I         541  9.01         5.3 0.28                           249 195 
 ROSC BZ EP   4    540 35.33                             117    1.57 0  252 211 
 ROSC BE ES   4    541  6.37                             117    2.92 0  252 211 
 ROSC BZ I         541 10.11         8.9 0.35                           252 211 
 HEL  HZ EP   4    540 33.10                             115   -2.62 0  270 256 
 HEL  HE ES        541  6.20                             115   -0.73 8  270 256 
 HEL  HZ I         541 14.17         6.4 0.42                           270 256 
 URE  HZ EP        540 35.98                             114   -0.56 7  282 292 
 URE  HE ES   4    541  6.49                             114   -1.90 0  282 292 
 URE  HZ I         541 17.46         5.5 0.18                           282 292 
 GUY2CHZ EP   4    540 41.18                             112    2.01 0  300 234 
 GUY2CHE ES        541 12.15                             112   -0.92 7  300 234 
 GUY2CHZ I         541 23.71         5.2 0.58                           300 234 
 SOCV BZ EP        540 38.10                             112   -0.77 7  302  57 
 SOCV BE ES   4    541 10.27                             112   -2.27 0  302  57 
 PTGC HZ EP   4    540 38.52                             111   -1.17 0  310 158 
 PTGC HN ES   4    541 11.77                             111   -2.23 0  310 158 
 PTGC HZ I         541 16.85         5.9 0.28                           310 158 
 LL6C HZ EP        540 41.08                             110   -0.22 7  324 358 
 LL6C HZ ES   4    541 24.89                             110    8.02 0  324 358 
 CBOC HZ EP        540 43.11                             110    0.69 7  332 252 
 CBOC HN ES        541 19.79                             110    0.92 7  332 252 
 CBOC HZ I         541 32.98         2.0 0.28                           332 252 
 ARGC HZ EP   4    540 46.15                             108    0.95 0  358 341 
 ARGC HN ES        541 24.28                             108    0.47 6  358 341 
 SJC  HZ EP   4    540 49.56                             106   -1.51 0  408 327 
 SJC  HN ES   4    541 30.64                             106   -3.62 0  408 327 
 SJC  HZ I         541 44.42         1.5 0.32                           408 327 
                                                                                
