 2012  329 0022 30.8 L   6.810 -73.171137.0  RSN  5 0.2 1.7LRSN                1
 GAP=133        0.51       5.0     6.3  6.5 -0.1280E+02  0.1425E+02 -0.1065E+02E
 ACTION:UP  12-03-31 23:23 OP:EP   STATUS:               ID:20120329002230 L   I
 2012-03-29-0020-00M.COL___196                                                 6
 STAT SP IPHASW D HRMM SECON CODA AMPLIT PERI AZIMU VELO SNR AR TRES W  DIS CAZ7
 BAR2 SZ ES   1    023  3.75                             170    -0.2 7   24 183 
 BAR2 SZ I         023  4.90         7.2 0.40                            24 183 
 BRR  HZ EP        022 51.10                             151     0.310   68 299 
 BRR  HZ I         022 53.15        16.3 0.40                            68 299 
 PAM  SZ EP        022 52.08                             149    -0.110   78  42 
 PAM  SN ES   1    023  8.79                             149     0.0 7   78  42 
 RUS  HZ EP   2    022 53.45                             142    -0.4 5  102 175 
 RUS  HN ES   2    023 11.91                             142     0.2 5  102 175 
 PTB  HN ES   3    023 16.41                             130    -0.7 2  145 258 
                                                                                
