 2016  429 0423  2.6 L   6.812 -73.142145.5  RSN 11 0.4 2.0LRSN                1
 GAP=136        0.73       3.7     3.6  5.0 -0.5310E+01  0.7090E+01 -0.7797E+00E
 Epicentro: LOS SANTOS - SANTANDER                                             3
 ACTION:UPD 16-05-05 14:25 OP:rebc STATUS:               ID:20160429042302 L   I
 OLDACT:UP  16-04-29 15:29 OP:dnl  STATUS:               ID:20160429041745     3
 OLDACT:REG 16-04-29 12:52 OP:dnl  STATUS:               ID:20160429041745     3
 2016-04-29-0417-45M.COL___312                                                 6
 STAT SP IPHASW D HRMM SECON CODA AMPLIT PERI AZIMU VELO AIN AR TRES W  DIS CAZ7
 BAR2 EZ EP     D  423 22.19                             170   -0.0310 24.7 191 
 BAR2 EZ ES        423 37.13                             170   -0.4010 24.7 191 
 BAR2 EZ I         423 38.86        20.3 0.24            167           24.7 191 
 PAM  EZ EP        423 24.97                             151    0.2610 76.1  40 
 PAM  EN ES        423 42.26                             151    0.3110 76.1  40 
 PAM  EZ I         423 44.43        15.4 0.21            157           76.1  40 
 RUS  HZ EP        423 26.09                             143   -0.3210  102 176 
 RUS  HN ES        423 44.96                             143   -0.0310  102 176 
 RUS  HZ I         423 45.80         8.2 0.34            145            102 176 
 PTB  HZ EP        423 29.12                             132   -0.49 9  148 258 
 PTB  HE ES        423 50.62                             132   -0.05 9  148 258 
 PTB  HZ I         423 56.14         9.4 0.18            131            148 258 
 SPBC HZ EP        423 31.17                             129   -0.03 9  164 219 
 SPBC HE ES        423 54.16                             129    0.65 9  164 219 
 SPBC HZ I         423 59.76        23.6 0.18            129            164 219 
 ZAR  HZ EP   2    423 34.29                             122   -0.73 4  204 292 
 ZAR  HE ES   2    424  0.68                             122    0.37 4  204 292 
 ZAR  HZ I         424  6.51        14.2 0.30            122            204 292 
 NOR  HZ EP        423 38.41                             118   -0.02 8  236 234 
 NOR  HN ES        424  6.44                             118    0.06 8  236 234 
 NOR  HZ I         424 13.40         7.0 0.20            119            236 234 
 ROSC BZ EP   2    423 41.65                             116    0.80 4  254 211 
 ROSC BN ES   4    424 14.42                             116    3.74 0  254 211 
 ROSC BZ I         424 16.65        12.1 0.35            118            254 211 
 URE  HZ EP   4    423 45.28                             114    1.63 0  284 292 
 URE  HN ES   4    424 13.27                             114   -2.39 0  284 292 
 URE  HZ I         424 15.93         6.8 0.16            114            284 292 
 GUY2CHZ EP   2    423 46.34                             112    0.02 4  302 235 
 GUY2CHN ES   4    424 23.91                             112    3.49 0  302 235 
 GUY2CHZ I         424 29.08         8.4 0.74                           302 235 
 CBOC HZ EP   2    423 50.12                             110    0.52 3  334 252 
 CBOC HE ES   2    424 26.52                             110    0.27 3  334 252 
 CBOC HZ I         424 35.31         2.0 0.46            111            334 252 
                                                                                
