 2013  429 0608 32.3 L   6.729 -73.181156.0  RSN  4 0.3 1.8LRSN                1
 GAP=228        0.74       7.2     7.3  6.8  0.2583E+02  0.5767E+01  0.4189E+01E
 Epicentro: VILLANUEVA - SANTANDER                                             3
 ACTION:UPD 13-05-22 14:41 OP:EP   STATUS:               ID:20130429060832 L   I
 2013-04-29-0600-00M.COL___248                                                 6
 STAT SP IPHASW D HRMM SECON CODA AMPLIT PERI AZIMU VELO AIN AR TRES W  DIS CAZ7
 BAR2 SZ EP   1    6 8 52.56                             174   -0.43 7 15.2 180 
 BAR2 SZ ES   1    6 9  8.67                             174   -0.49 7 15.2 180 
 BRR  HZ IP     D  6 8 54.49                             154   -0.0710 72.0 305 
 BRR  HE ES        6 9 12.37                             154    0.4110 72.0 305 
 BRR  HE I         6 9 12.65        11.5 0.30            151           72.0 305 
 RUS  HZ EP   1    6 8 56.80                             148    0.27 7 93.2 173 
 RUS  HN ES   1    6 9 15.83                             148    0.36 7 93.2 173 
 RUS  HN I         6 9 16.65         5.9 0.20            145           93.2 173 
 PTB  HZ EP        6 8 59.61                             135   -0.02 9  143 262 
 PTB  HN ES   1    6 9 20.66                             135   -0.31 7  143 262 
 PTB  HN I         6 9 25.87        16.0 0.56            132            143 262 
                                                                                
