 2011  829 0356 20.1 L   6.767 -73.139138.6  RSN 11 0.3 2.1LRSN                1
 GAP=139        0.57       2.6     3.7  4.0 -0.2924E+01  0.5755E+01  0.1613E+01E
 Epicentro: LOS SANTOS - SANTANDER                                             3
 ACTION:UPD 12-07-13 15:54 OP:ep   STATUS:               ID:20110829035620 L   I
 2011-08-29-0354-25S.COL___161                                                 6
 STAT SP IPHASW D HRMM SECON CODA AMPLIT PERI AZIMU VELO AIN AR TRES W  DIS CAZ7
 BAR2 SZ EP        356 38.77                             171    0.0110 19.9 194 
 BAR2 SZ ES   1    356 53.21                             171   -0.14 7 19.9 194 
 BAR2 SZ I         356 55.00        54.7 0.24                          19.9 194 
 GIR2 SZ EP   1    356 38.85                             165   -0.15 7 35.0 350 
 GIR2 SZ ES   1    356 53.96                             165    0.20 7 35.0 350 
 BRR  HE ES   2    356 57.22                             150    0.62 5 73.7 301 
 PAM  SZ EP   1    356 41.63                             149   -0.04 7 79.8  37 
 PAM  SN ES   1    356 58.51                             149   -0.01 7 79.8  37 
 RUS  HZ EP   1    356 42.75                             143   -0.09 7 96.9 176 
 RUS  HN ES   1    357  0.71                             143    0.11 7 96.9 176 
 RUS  HZ I         357  2.59        19.4 0.36                          96.9 176 
 OCA  SZ EP   1    356 48.69                             127    0.50 7  164 353 
 OCA  SZ ES   1    357  9.57                             127   -0.55 7  164 353 
 NOR  SZ EP   1    356 54.90                             117   -0.33 6  233 235 
 NOR  SN ES   1    357 22.26                             117   -0.39 6  233 235 
 CHI  HZ EP   1    356 56.84                             116   -0.17 6  245 196 
 CHI  HZ I         357 30.50         6.3 0.28                           245 196 
 HEL  HZ EP   1    357  0.67                             113    0.76 6  272 257 
 HEL  HE ES   1    357 30.85                             113   -0.14 6  272 257 
 HEL  HZ I         357 38.01         6.8 0.47                           272 257 
 RREF HZ EP   1    357  5.50                             110   -0.20 5  320 230 
 RREF HZ I         357 49.41         6.9 0.25                           320 230 
 PRA  HZ EP   1    357 13.24                             105    0.22 4  389 210 
 PRA  HN ES   1    357 54.66                             105    0.34 4  389 210 
                                                                                
