 2014  629 0509 10.7 L   6.812 -73.158141.8  RSN  9 0.4 2.2LRSN                1
 GAP=134        1.07       3.2     4.3  6.8 -0.2807E+01  0.1197E+02 -0.5043E+01E
 Epicentro: LOS SANTOS - SANTANDER                                             3
 ACTION:UPD 14-07-01 22:57 OP:nd   STATUS:               ID:20140629050910 L   I
 OLDACT:REG 14-06-29 13:09 OP:carl STATUS:               ID:20140629050820     3
 2014-06-29-0508-20M.COL___231                                                 6
 STAT SP IPHASW D HRMM SECON CODA AMPLIT PERI AZIMU VELO AIN AR TRES W  DIS CAZ7
 BAR2 SZ EP        5 9 29.90                             170    0.0110 24.4 186 
 BAR2 SZ ES        5 9 45.06                             170    0.2110 24.4 186 
 BAR2 SZ I         5 9 45.84        34.1 0.24            170           24.4 186 
 PAM  SZ EP        5 9 32.77                             150    0.2710 77.3  41 
 PAM  SN ES        5 9 49.75                             150    0.2510 77.3  41 
 PAM  SZ I         5 9 52.22        31.7 0.66            154           77.3  41 
 RUS  HZ EP        5 9 33.91                             143   -0.2710  102 175 
 RUS  HN ES        5 9 52.60                             143    0.1210  102 175 
 RUS  HZ I         5 9 54.03         9.6 0.44            146            102 175 
 PTB  HZ EP        5 9 36.60                             131   -0.67 9  147 258 
 PTB  HN ES        5 9 57.37                             131   -0.60 9  147 258 
 PTB  HZ I         510  0.93        23.3 0.10            132            147 258 
 OCA  HZ EP        5 9 38.20                             129   -0.39 9  159 354 
 OCA  HN ES        510  0.10                             129   -0.22 9  159 354 
 OCA  HZ I         510  3.40        20.9 0.28            131            159 354 
 SPBC HZ EP        5 9 38.98                             128    0.05 9  163 218 
 SPBC HN ES        510  0.65                             128   -0.28 9  163 218 
 SPBC HZ I         510  6.60        16.9 0.46            130            163 218 
 ZAR  HZ EP        5 9 43.35                             122    0.62 9  202 292 
 ZAR  HN ES        510  8.49                             122    0.80 9  202 292 
 ZAR  HZ I         510 14.65        19.6 0.34            123            202 292 
 SML  HZ EP        5 9 46.84                             117   -0.09 8  242 335 
 SML  HN ES        510 14.63                             117   -0.55 8  242 335 
 SML  HZ I         510 20.80        16.5 0.10            118            242 335 
 HEL  HZ EP        5 9 51.65                             114    1.03 8  271 255 
 HEL  HN ES        510 21.76                             114    0.02 8  271 255 
 HEL  HZ I         510 28.54        11.3 0.40            115            271 255 
                                                                                
