 2013  829 0016 45.8 L   6.783 -73.186146.0  RSN  8 0.5 1.6LRSN                1
 GAP=132        1.07       4.8     6.4 10.0  0.6125E+01 -0.5451E+01 -0.6661E+01E
 Epicentro: LOS SANTOS - SANTANDER                                             3
 ACTION:UPD 14-01-14 09:08 OP:ep   STATUS:               ID:20130829001645 L   I
 OLDACT:DUP 13-08-29 09:17 OP:jn   STATUS:               ID:20130829000847d    3
 OLDACT:REG 13-08-29 08:13 OP:jn   STATUS:               ID:20130829000846     3
 2013-08-29-0008-46M.COL___218                                                 6
 STAT SP IPHASW D HRMM SECON CODA AMPLIT PERI AZIMU VELO AIN AR TRES W  DIS CAZ7
 BRR  HZ EP     D  017  6.92                             154    0.1410 68.2 302 
 BRR  HN ES        017 23.50                             154    0.3310 68.2 302 
 BRR  HZ I         017 25.08         8.5 0.12            151           68.2 302 
 PAM  SZ IP     D  017  8.06                             150   -0.2210 81.7  41 
 PAM  SZ I         017 27.78         3.0 0.46                          81.7  41 
 RUS  HZ EP   1    017  9.70                             144    0.26 7 99.1 173 
 RUS  HN ES        017 27.62                             144   -0.2910 99.1 173 
 RUS  HZ I         017 28.90         3.5 0.22                          99.1 173 
 PTB  HZ EP        017 11.69                             133   -0.64 9  143 259 
 PTB  HN ES   1    017 32.01                             133   -1.03 7  143 259 
 PTB  HZ I         017 38.42         4.1 0.16            130            143 259 
 SPBC HZ EP   1    017 14.30                             130    0.41 7  159 218 
 SPBC HN ES   1    017 36.81                             130    0.99 7  159 218 
 SPBC HZ I         017 42.68         5.0 0.30            127            159 218 
 ZAR  HE ES   1    017 43.02                             123    0.10 6  201 293 
 ZAR  HN I         017 48.22        11.5 0.38            119            201 293 
 SML  HN ES   1    017 51.44                             118    0.48 6  244 336 
 CHI  HE ES   2    017 52.95                             118    0.62 4  246 194 
 CHI  HZ I         017 55.84         2.6 0.38            113            246 194 
                                                                                
