 2017 1029 0026  4.4 L   6.741 -73.188141.2  RSN  5 0.3 1.3LRSN                1
 GAP=228        0.91       5.2     5.6  6.7  0.6421E+01  0.5923E+01  0.4004E+01E
 Epicentro: VILLANUEVA - SANTANDER                                             3
 ACTION:UPD 17-11-07 19:38 OP:rebc STATUS:               ID:20171029002604 L   I
 OLDACT:DUP 17-10-29 13:45 OP:dhb  STATUS:               ID:20171029001738d    3
 2017-10-29-0018-00M.COL___417                                                 6
 STAT SP IPHASW D HRMM SECON CODA AMPLIT PERI AZIMU VELO AIN AR TRES W  DIS CAZ7
 BAR2 EZ EP        026 23.13                             173   -0.2110 16.4 178 
 BAR2 HE ES        026 37.86                             173   -0.2710 16.4 178 
 BAR2 EZ I         026 40.97         4.2 0.26            169           16.4 178 
 BRR  HZ EP        026 24.90                             152   -0.1110 70.7 305 
 BRR  HN ES        026 41.35                             152    0.2510 70.7 305 
 BRR  HZ I         026 45.86         5.7 0.26            151           70.7 305 
 RUS  HZ EP        026 27.17                             145   -0.0810 94.5 173 
 RUS  HN ES        026 45.50                             145    0.4210 94.5 173 
 RUS  HZ I         026 47.89         2.3 0.34            146           94.5 173 
 PTB  HZ EP        026 30.20                             132   -0.26 9  142 261 
 PTB  HN ES        026 51.03                             132    0.23 9  142 261 
 PTB  HZ I         026 55.88         1.9 0.40            132            142 261 
 SPBC HZ EP        026 32.40                             129    0.63 9  155 219 
 SPBC HN ES        026 52.53                             129   -0.61 9  155 219 
 SPBC HZ I         027  0.18         4.4 0.26            130            155 219 
                                                                                
