 2011  129 0027 25.0 L   6.803 -73.184148.0  RSN  4 0.1 1.4LRSN                1
 GAP=154        0.33       2.5     6.3  6.6 -0.4860E+00  0.1924E+02 -0.3439E+01E
 Epicentro: LOS SANTOS - SANTANDER                                             3
 ACTION:UP  11-02-08 08:43 OP:pat  STATUS:               ID:20110129002725 L   I
 2011-01-29-0024-18S.COL___137                                                 6
 STAT SP IPHASW D HRMM SECON CODA AMPLIT PERI AZIMU VELO SNR AR TRES W  DIS CAZ7
 RUS  HZ EP   1    027 48.85                             144    -0.1 7  101 174 
 RUS  HZ I         027 49.69         2.6 0.48                           101 174 
 RUS  HN ES   1    028  7.77                             144     0.0 7  101 174 
 GRA  SZ EP   2    027 50.52                             137     0.0 5  127  19 
 GRA  SZ ES   2    028 10.42                             137     0.0 5  127  19 
 GRA  SZ I         028 13.46         5.3 0.46                           127  19 
 CHI  HZ EP   2    028  2.90                             118     0.2 4  248 194 
 CHI  HZ I         028 41.06         2.1 0.47                           248 194 
 MON  HN ES   2    028 51.52                             109     0.0 3  349 309 
                                                                                
