 2011  629 0101 34.4 L   6.804 -73.068142.2  RSN  8 0.2 1.6LRSN                1
 GAP=146        0.54       2.6     4.5  4.4 -0.4432E+00 -0.4141E+01 -0.2543E+01E
 Epicentro: LOS SANTOS - SANTANDER                                             3
 ACTION:UP  11-07-14 19:08 OP:ep   STATUS:               ID:20110629010134 L   I
 2011-06-29-0057-29S.COL___140                                                 6
 STAT SP IPHASW D HRMM SECON CODA AMPLIT PERI AZIMU VELO SNR AR TRES W  DIS CAZ7
 BTL  SZ EP        1 1 53.66                             169     0.010   25 300 
 BAR2 SZ EP   1    1 1 53.64                             169     0.0 7   27 208 
 BAR2 SZ ES   1    1 2  9.09                             169     0.4 7   27 208 
 BAR2 SZ I         1 2  9.63        18.6 0.26                            27 208 
 PAM  SZ EP   1    1 1 56.21                             152     0.3 7   72  35 
 PAM  SZ I         1 1 56.69         4.6 0.15                            72  35 
 PAM  SN ES   1    1 2 12.40                             152    -0.3 7   72  35 
 BRR  HZ EP        1 1 55.36                             149    -0.210   79 295 
 BRR  HZ I         1 1 55.76        16.8 0.13                            79 295 
 BRR  HE ES        1 2 12.14                             149     0.010   79 295 
 RUS  HZ EP   1    1 1 57.49                             143    -0.3 7  101 181 
 RUS  HE ES   1    1 2 15.99                             143    -0.1 7  101 181 
 RUS  HZ I         1 2 17.71         3.6 0.36                           101 181 
 BRI  SZ EP   1    1 1 57.69                             141     0.0 7  105  17 
 GRA  SZ EP        1 1 59.16                             137     0.110  123  14 
 GRA  SZ ES   2    1 2 18.15                             137    -0.2 5  123  14 
 GRA  SZ I         1 2 20.11         4.9 0.32                           123  14 
 OCA  SZ EP        1 2  2.67                             129     0.2 9  161 350 
 OCA  SZ ES   1    1 2 24.27                             129    -0.1 7  161 350 
 OCA  SZ I         1 2 28.13         7.5 0.10                           161 350 
                                                                                
