 2010  129 0131 44.0 L   6.781 -73.238120.0  RSN  6 0.4 1.3LRSN                1
 GAP=176        0.95       4.9    25.0 10.1 -0.8270E+02  0.1224E+03 -0.1750E+02E
 Epicentro: ZAPATOCA - SANTANDER                                               3
 ACTION:UP  10-08-24 09:46 OP:vdl  STATUS:               ID:20100129013144 L   I
 2010-01-29-0119-50S.COL___094                                                 6
 STAT SP IPHASW D HRMM SECON CODA AMPLIT PERI AZIMU VELO SNR AR TRES W  DIS CAZ7
 BAR2 SZ EP        132  0.39                             169    -0.110   22 164 
 BAR2 SZ ES   1    132 13.43                             169     0.0 7   22 164 
 GIR2 SZ EP        132  0.62                             164    -0.110   33   9 
 RUS  HZ EP        132  4.80                             138    -0.510  100 170 
 RUS  HN ES        132 22.07                             138     0.210  100 170 
 RUS  HZ I         132 23.76         3.6 0.59                           100 170 
 GUE  SZ EP        132  6.48                             132    -0.410  121  17 
 GUE  SZ ES   1    132 24.80                             132     0.1 7  121  17 
 GRA  SZ ES   1    132 26.76                             129     0.8 7  131  21 
 CHI  HZ EP   1    132 20.73                             112     0.8 6  244 193 
 CHI  HN ES   2    132 48.45                             112     0.5 4  244 193 
 CHI  HZ I         132 50.13         2.0 0.83                           244 193 
                                                                                
