 2016  929 0610 49.1 L   6.764 -73.130145.1  RSN 15 0.4 2.1LRSN                1
 GAP= 67        1.06       3.5     3.8  5.3 -0.3950E+00  0.1878E+01  0.1579E+01E
 Epicentro: LOS SANTOS - SANTANDER                                             3
 ACTION:UPD 17-08-17 21:17 OP:lp   STATUS:               ID:20160929061049 L   I
 OLDACT:UP  16-09-29 16:42 OP:dani STATUS:               ID:20160929060742     3
 OLDACT:REG 16-09-29 13:22 OP:dani STATUS:               ID:20160929060742     3
 2016-09-29-0608-00M.COL___372                                                 6
 STAT SP IPHASW D HRMM SECON CODA AMPLIT PERI AZIMU VELO AIN AR TRES W  DIS CAZ7
 BAR2 EZ EP     C  611  8.50                             172   -0.1010 19.8 197 
 BAR2 EZ ES        611 24.26                             172    0.4610 19.8 197 
 BAR2 EZ I         611 28.77        19.3 0.26            169           19.8 197 
 BRR  HZ EP     C  611 10.39                             151   -0.0110 74.7 301 
 BRR  HN ES        611 27.33                             151    0.3410 74.7 301 
 BRR  HZ I         611 28.34        27.1 0.22            144           74.7 301 
 PAM  EZ EP        611 11.50                             150    0.1110 79.5  37 
 PAM  EE ES        611 28.39                             150   -0.3710 79.5  37 
 PAM  EZ I         611 29.12        13.7 0.18            136           79.5  37 
 RUS  HZ EP        611 12.44                             145   -0.0710 96.4 177 
 RUS  HN ES        611 30.83                             145    0.0810 96.4 177 
 RUS  HZ I         611 34.29         7.3 0.42            133           96.4 177 
 PTB  HZ EP        611 15.13                             132   -0.99 9  149 260 
 PTB  HE ES        611 36.50                             132   -0.68 9  149 260 
 PTB  HZ I         611 38.53        21.7 0.14            122            149 260 
 TAM  HZ EP        611 16.81                             131    0.31 9  152 104 
 TAM  HZ I         611 39.04        15.3 0.28            116            152 104 
 SPBC HZ EP        611 17.40                             129    0.02 9  161 220 
 SPBC HN ES        611 39.39                             129   -0.03 9  161 220 
 SPBC HZ I         611 41.87        21.2 0.36            118            161 220 
 OCA  HZ EP        611 17.73                             129   -0.05 9  164 353 
 OCA  HZ I         611 43.53        17.9 0.18            116            164 353 
 ZAR  HZ EP        611 22.55                             122    0.70 8  207 293 
 ZAR  HN ES        611 47.23                             122   -0.14 8  207 293 
 ZAR  HZ I         611 52.90        14.3 0.21            111            207 293 
 CHI  HZ EP   4    611 27.82                             117    1.41 0  245 196 
 CHI  HN ES        611 55.58                             117    0.09 8  245 196 
 CHI  HZ I         612  1.95         3.6 0.31            107            245 196 
 ROSC BZ EP   4    611 28.77                             117    1.84 0  250 212 
 ROSC BZ I         612  6.44        11.4 0.32            106            250 212 
 HEL  HZ EP        611 30.00                             115    0.62 8  273 257 
 HEL  HN ES   4    612  2.12                             115    1.34 0  273 257 
 HEL  HZ I         612  7.93         7.9 0.53            105            273 257 
 GUY2CHZ EP        611 33.33                             112    0.73 7  300 236 
 GUY2CHZ I         612 16.15         6.9 0.65                           300 236 
 PTGC HZ EP        611 31.69                             112   -0.76 7  304 159 
 PTGC HE ES   4    612  4.68                             112   -1.57 0  304 159 
 PTGC HZ I         612  7.47         5.3 0.32            101            304 159 
 SJC  HZ EP   4    611 42.77                             105   -2.40 0  414 327 
 SJC  HN ES   4    612 24.70                             105   -4.19 0  414 327 
 SJC  HZ I         612 29.09         1.8 0.59             96            414 327 
                                                                                
