 2011  429 0623 46.7 L   6.802 -73.146143.0  RSN  9 0.5 1.6LRSN                1
 GAP=114        1.11       4.6     8.7  8.8 -0.5971E+01 -0.9713E+01  0.1420E+01E
 Epicentro: LOS SANTOS - SANTANDER                                             3
 ACTION:UP  11-06-22 15:33 OP:REBC STATUS:               ID:20110429062346 L   I
 2011-04-29-0620-43S.COL___138                                                 6
 STAT SP IPHASW D HRMM SECON CODA AMPLIT PERI AZIMU VELO SNR AR TRES W  DIS CAZ7
 BAR2 SZ ES   1    624 20.45                             170    -0.6 7   24 190 
 BAR2 SZ I         624 22.49         7.4 0.23                            24 190 
 BRR  HZ EP   1    624  7.86                             152     0.3 7   71 298 
 BRR  HE ES   1    624 24.56                             152     0.8 7   71 298 
 BRR  HZ I         624 29.59         8.7 0.24                            71 298 
 PAM  SZ EP        624  9.05                             150     0.510   77  40 
 PAM  SN ES   1    624 25.73                             150     0.1 7   77  40 
 RUS  HZ EP        624 10.12                             143    -0.110  101 176 
 RUS  HN ES   1    624 28.25                             143    -0.2 7  101 176 
 RUS  HZ I         624 30.39         3.3 0.27                           101 176 
 BRI  SZ EP   1    624 10.42                             141     0.1 7  108  21 
 GRA  SZ EP   1    624 11.73                             136     0.1 7  126  18 
 GRA  SZ ES   1    624 31.35                             136     0.2 7  126  18 
 GRA  SZ I         624 35.43         4.9 0.56                           126  18 
 OCA  SZ EP   1    624 14.03                             129    -0.7 7  160 353 
 OCA  SZ ES   1    624 35.62                             129    -1.0 7  160 353 
 OCA  SZ I         624 38.97         7.1 0.36                           160 353 
 YOP  SZ EP   1    624 16.57                             126     0.0 7  179 153 
 YOP  SZ I         624 34.24         4.0 0.52                           179 153 
 NOR  SN ES   2    624 49.77                             118    -0.2 4  235 234 
                                                                                
