 2012  929 0713 27.3 L   6.795 -73.136147.4  RSN 15 0.4 3.0LRSN                1
 GAP= 66        0.80       3.1     3.0  4.6  0.1127E+00  0.1591E+01  0.3729E+01E
 Epicentro: LOS SANTOS - SANTANDER                                             3
 ACTION:UPD 12-10-22 14:21 OP:ep   STATUS:               ID:20120929071327 L   I
 2012-09-29-0710-00M.COL___220                                                 6
 STAT SP IPHASW D HRMM SECON CODA AMPLIT PERI AZIMU VELO AIN AR TRES W  DIS CAZ7
 BAR2 SZ IP        713 47.07                             171   -0.0910 23.0 193 
 BAR2 SZ ES   1    714  2.49                             171   -0.12 7 23.0 193 
 BAR2 SZ I         714  3.95       276.1 0.44                          23.0 193 
 GIR2 SZ EP        713 47.13                             167   -0.0910 32.1 349 
 GIR2 SZ ES   1    714  2.56                             167   -0.17 7 32.1 349 
 BRR  HZ IP     D  713 48.94                             152    0.2110 72.4 299 
 BRR  HN ES   1    714  6.33                             152    0.91 7 72.4 299 
 BRR  HN I         714  7.33       357.5 0.22                          72.4 299 
 BRR  HZ I         714  9.54       126.7 0.30                          72.4 299 
 PAM  SZ EP        713 49.82                             151    0.1110 77.1  39 
 PAM  SN ES   1    714  7.08                             151   -0.08 7 77.1  39 
 PAM  SZ I         714  9.30       147.1 0.56                          77.1  39 
 RUS  HZ EP        713 50.88                             144   -0.3210 99.9 177 
 RUS  HN ES   1    714  9.97                             144    0.16 7 99.9 177 
 RUS  HZ I         714 12.36       110.4 0.50                          99.9 177 
 PTB  HE ES   1    714 14.94                             132   -0.79 7  149 259 
 PTB  HN I         714 17.45       133.8 0.20                           149 259 
 TAM  HZ IP     D  713 55.21                             131    0.18 9  154 105 
 TAM  HZ I         713 55.38       193.4 0.34                           154 105 
 YOP  SZ EP   1    713 57.53                             127    0.13 7  178 154 
 YOP  SN ES   1    714 21.00                             127    0.16 7  178 154 
 YOP  SZ I         714 23.10        92.2 0.24                           178 154 
 ZAR  HZ EP   1    713 59.76                             123   -0.26 6  205 292 
 ZAR  HE ES   1    714 25.40                             123   -0.10 6  205 292 
 ZAR  HN I         714 31.36       195.0 0.30                           205 292 
 NOR  SN ES   1    714 30.57                             119   -0.64 6  235 235 
 CHI  HZ EP        714  5.05                             117   -0.05 8  248 195 
 CHI  HN ES   1    714 34.23                             117   -0.32 6  248 195 
 CHI  HZ I         714 40.40        45.8 0.28                           248 195 
 HEL  HZ EP   1    714  8.70                             115    0.96 6  273 256 
 HEL  HN ES   1    714 39.56                             115    0.32 6  273 256 
 HEL  HZ I         714 45.42        57.8 0.28                           273 256 
 HEL  HN I         714 45.72        43.5 0.34                           273 256 
 RREF HZ EP        714 14.19                             111    0.59 7  322 230 
 RREF HZ I         714 58.81        60.5 0.34                           322 230 
 COD  HZ EP   1    714 14.82                             109   -1.04 5  349 354 
 COD  HZ I         714 59.86        13.5 0.30                           349 354 
 PRA  HZ EP   1    714 20.46                             107   -0.46 4  392 210 
 PRA  HN ES   1    715  3.08                             107    0.37 4  392 210 
 PRA  HN I         715  8.03        26.7 0.40                           392 210 
                                                                                
