 2012  329 0326 38.2 L   5.989 -74.028 86.1  RSN  6 0.5 1.6LRSN                1
 GAP=147        1.24       7.0     5.6 18.3 -0.1093E+02 -0.2951E+02  0.4377E+02E
 ACTION:UP  12-03-31 23:23 OP:EP   STATUS:               ID:20120329032638 L   I
 2012-03-29-0320-00M.COL___196                                                 6
 STAT SP IPHASW D HRMM SECON CODA AMPLIT PERI AZIMU VELO SNR AR TRES W  DIS CAZ7
 PTB  HZ EP        326 53.13                             135    -0.810   77 322 
 PTB  HN ES   1    327  5.81                             135    -0.3 7   77 322 
 PTB  HZ I         327  6.15         6.6 0.30                            77 322 
 NOR  SZ EP        326 57.36                             125     0.810  104 243 
 NOR  SN ES   2    327 10.54                             125    -0.3 5  104 243 
 RUS  HZ EP        326 56.77                             125    -0.410  105  96 
 RUS  HN ES   3    327 11.20                             125    -0.8 2  105  96 
 BAR2 SZ EP        326 58.03                             122     0.210  115  54 
 BAR2 SZ ES   1    327 13.63                             122     0.5 7  115  54 
 BAR2 SZ I         327 15.83        14.0 0.58                           115  54 
 BRR  HZ EP        326 58.71                             119    -0.310  129  16 
 BRR  HZ I         327  0.22         9.8 0.14                           129  16 
 BRR  HN ES   1    327 15.87                             119     0.7 7  129  16 
 ZAR  HZ EP   3    327  5.27                             109    -0.6 2  190 331 
 ZAR  HN ES   2    327 27.74                             109     0.2 4  190 331 
                                                                                
