 2010  529 0618 24.9 L   6.805 -73.085142.0  RSN  6 0.7 2.0LRSN                1
 GAP=190        1.41       8.9    13.3 13.1 -0.8323E+02  0.6361E+02 -0.1341E+02E
 Epicentro: LOS SANTOS - SANTANDER                                             3
 ACTION:UP  10-08-24 10:07 OP:vdl  STATUS:               ID:20100529061824 L   I
 2010-05-29-0616-28S.COL___109                                                 6
 STAT SP IPHASW D HRMM SECON CODA AMPLIT PERI AZIMU VELO SNR AR TRES W  DIS CAZ7
 BAR2 SZ EP        618 43.81                             169    -0.310   26 205 
 BAR2 SZ ES   1    618 58.80                             169    -0.3 7   26 205 
 GUE  SZ EP        618 48.95                             140    -0.210  115   9 
 GUE  SZ ES   1    619  7.97                             140     0.0 7  115   9 
 GRA  SZ EP        618 49.77                             137     0.210  123  15 
 GRA  SZ ES   1    619  9.58                             137     0.7 7  123  15 
 OCA  SZ EP        618 52.72                             129    -0.2 9  161 351 
 OCA  SZ ES   1    619 15.26                             129     0.4 7  161 351 
 OCA  SZ I         619 20.20        13.4 0.12                           161 351 
 HEL  HZ EP   1    619  4.76                             113    -0.9 6  279 256 
 HEL  HN ES   1    619 36.20                             113    -1.2 6  279 256 
 HEL  HZ I         619 41.60         5.0 1.91                           279 256 
 RREF BZ EP   1    619 11.62                             110     0.1 5  327 230 
 RREF BN ES        619 49.54                             110     1.7 7  327 230 
 RREF BZ I         619 52.36         4.8 0.35                           327 230 
                                                                                
