 2017  829 0449  7.2 L   6.322 -73.571113.6  RSN 10 0.4 1.9LRSN                1
 GAP= 86        0.86       2.5     2.3  5.2 -0.2291E+00  0.3648E+01 -0.4021E-01E
 Epicentro: SANTA HELENA DEL OPON - SANTANDER                                  3
 ACTION:UPD 17-09-04 20:26 OP:rebc STATUS:               ID:20170829044907 L   I
 OLDACT:UP  17-08-29 16:27 OP:dani STATUS:               ID:20170829044735     3
 OLDACT:REG 17-08-29 13:02 OP:dani STATUS:               ID:20170829044735     3
 2017-08-29-0448-00M.COL___417                                                 6
 STAT SP IPHASW D HRMM SECON CODA AMPLIT PERI AZIMU VELO AIN AR TRES W  DIS CAZ7
 BAR2 EZ EP     C  449 24.24                             154    0.0610 52.4  55 
 BAR2 EZ ES        449 37.45                             154    0.0410 52.4  55 
 BAR2 EZ I         449 38.79        53.4 0.44            159           52.4  55 
 RUS  HZ EP        449 25.66                             146   -0.0910 71.9 131 
 RUS  HN ES        449 39.77                             146   -0.4410 71.9 131 
 RUS  HZ I         449 41.39        19.6 0.22            152           71.9 131 
 BRR  HZ EP     C  449 25.81                             139   -0.4610 88.2 350 
 BRR  HN ES        449 41.20                             139    0.0710 88.2 350 
 BRR  HZ I         449 47.17        12.6 0.17            143           88.2 350 
 SPBC HZ EP        449 26.48                             138   -0.2710 92.5 217 
 SPBC HE ES        449 42.07                             138    0.0910 92.5 217 
 SPBC HZ I         449 49.78        18.3 0.24            142           92.5 217 
 PAM  EZ EP        449 32.41                             124   -0.03 9  148  41 
 PAM  EN ES        449 52.61                             124    0.49 9  148  41 
 PAM  EZ I         449 56.18         7.7 0.34            129            148  41 
 NOR  HZ EP        449 33.56                             120   -0.21 9  166 240 
 NOR  HN ES        449 54.53                             120    0.06 9  166 240 
 NOR  HZ I         449 55.94         9.0 0.16            124            166 240 
 YPLC HZ EP     D  449 34.04                             120    0.19 9  167 128 
 YPLC HN ES        449 55.04                             120    0.42 9  167 128 
 YPLC HZ I         449 56.98        11.4 0.32            126            167 128 
 ZAR  HZ EP        449 35.93                             116   -0.57 9  192 312 
 ZAR  HN ES        449 59.40                             116    0.06 9  192 312 
 ZAR  HZ I         450  3.62        17.6 0.38            120            192 312 
 HEL  HZ EP        449 39.64                             113   -0.08 8  217 266 
 HEL  HN ES        450  5.93                             113    0.86 8  217 266 
 HEL  HZ I         450 11.70         5.0 0.26            117            217 266 
 GUY2CHZ EP   3    449 43.54                             111    1.91 2  233 239 
 GUY2CHE ES   4    450 11.72                             111    3.25 0  233 239 
 GUY2CHZ I         450 15.42         5.6 0.80                           233 239 
                                                                                
