 2014  829 0910 36.5 L   6.814 -73.165148.0  RSN 15 0.6 1.8LRSN                1
 GAP=143        1.22       3.9     5.1  6.7 -0.4939E+01  0.9199E+01 -0.1395E+01E
 Epicentro: LOS SANTOS - SANTANDER                                             3
 ACTION:UPD 14-09-15 21:54 OP:nd   STATUS:               ID:20140829091036 L   I
 OLDACT:REG 14-08-29 13:48 OP:fm   STATUS:               ID:20140829090819     3
 2014-08-29-0908-19M.COL___275                                                 6
 STAT SP IPHASW D HRMM SECON CODA AMPLIT PERI AZIMU VELO AIN AR TRES W  DIS CAZ7
 BAR2 SZ EP        910 56.45                             170    0.0110 24.6 184 
 BAR2 SZ ES   1    911 11.57                             170   -0.42 7 24.6 184 
 BAR2 SZ I         911 12.52        13.2 0.18            169           24.6 184 
 BRR  HZ EP        910 58.49                             154    0.7210 68.5 298 
 BRR  HN ES        911 15.24                             154    0.9010 68.5 298 
 BRR  HZ I         911 19.68        17.6 0.12            152           68.5 298 
 PAM  SZ EP        910 59.35                             151    0.3610 77.6  42 
 PAM  SN ES        911 16.32                             151   -0.1910 77.6  42 
 PAM  SZ I         911 18.63        15.7 0.56            155           77.6  42 
 PTB  HZ EP        911  3.41                             133   -0.09 9  146 258 
 PTB  HN ES        911 24.00                             133   -0.55 9  146 258 
 PTB  HZ I         911 26.21         7.7 0.54            132            146 258 
 OCA  HZ EP        911  5.13                             130    0.29 9  158 354 
 OCA  HN ES        911 26.42                             130   -0.51 9  158 354 
 OCA  HZ I         911 29.77        11.0 0.28            132            158 354 
 SPBC HZ EP   1    911  4.90                             130   -0.27 7  163 218 
 SPBC HN ES        911 26.74                             130   -0.79 9  163 218 
 SPBC HZ I         911 31.29         4.6 0.32            130            163 218 
 ZAR  HZ EP   1    911  9.77                             123    0.93 6  201 292 
 ZAR  HE ES        911 34.80                             123    0.74 9  201 292 
 ZAR  HZ I         911 41.02         7.9 0.56            123            201 292 
 SML  HZ EP        911 12.73                             118   -0.29 8  241 336 
 SML  HE ES        911 40.80                             118   -0.70 8  241 336 
 SML  HZ I         911 47.28         8.4 0.24            119            241 336 
 HEL  HN ES   1    911 48.30                             115    0.34 6  270 255 
 HEL  HZ I         911 54.95         2.4 0.72            116            270 255 
 GUY2CHZ EP   1    911 20.80                             113    0.67 5  300 234 
 GUY2CHN ES   4    911 55.38                             113    1.23 0  300 234 
 GUY2CHZ I         912  1.86         2.2 0.26                           300 234 
 CBOC HZ EP   1    911 23.78                             110    0.44 5  332 252 
 CBOC HN ES   4    911 57.97                             110   -1.90 0  332 252 
 CBOC HZ I         912  1.17         1.5 0.32            111            332 252 
 MON  HZ EP        911 24.32                             109   -0.98 6  351 308 
 MON  HN ES        912  2.86                             109   -0.49 6  351 308 
 MON  HZ I         912  3.59         1.9 0.18            110            351 308 
 PRA  HZ EP   1    911 30.90                             107    0.75 4  392 209 
 PRA  HN ES        912 11.64                             107   -0.34 6  392 209 
 PRA  HZ I         912 16.89         1.7 0.56            108            392 209 
 ORTC HN ES   4    912 14.31                             107    1.69 0  395 216 
 ORTC HZ I         912 21.32         1.6 0.56            108            395 216 
 SJC  HZ EP        911 31.33                             106   -0.53 6  407 327 
 SJC  HN ES   4    912 11.22                             106   -3.81 0  407 327 
 SJC  HZ I         912 17.00         1.3 0.60            107            407 327 
                                                                                
