 2012  529 0111 32.5 L   6.780 -73.161141.6  RSN  4 0.1 1.3LRSN                1
 GAP=242        0.37       5.6     4.1  6.9  0.1333E+02  0.2920E+01 -0.1497E+02E
 Epicentro: LOS SANTOS - SANTANDER                                             3
 ACTION:UP  12-07-05 12:08 OP:pat  STATUS:               ID:20120529011132 L   I
 2012-05-29-0110-00M.COL___201                                                 6
 STAT SP IPHASW D HRMM SECON CODA AMPLIT PERI AZIMU VELO AIN AR TRES W  DIS CAZ7
 BAR2 SZ EP   1    111 51.70                             171     0.1 7   21 186 
 BAR2 SZ ES   2    112  6.32                             171    -0.2 5   21 186 
 BAR2 SZ I         112  8.87         3.7 0.17                            21 186 
 RUS  HE ES   1    112 13.91                             144     0.1 7   99 175 
 PTB  HZ EP   1    111 58.80                             132    -0.2 7  146 260 
 PTB  HN ES   1    112 19.58                             132     0.0 7  146 260 
 PTB  HZ I         112 23.48         2.6 0.14                           146 260 
 ZAR  HN ES   1    112 29.82                             122     0.1 6  203 293 
                                                                                
