 2014 1229 0455 13.6 L   6.798 -73.106142.9  RSN  5 0.6 1.1LRSN                1
 GAP=241        1.42       8.6     9.7 14.7  0.2225E+02 -0.1742E+02 -0.8632E+01E
 Epicentro: LOS SANTOS - SANTANDER                                             3
 ACTION:UPD 15-02-10 17:08 OP:nd   STATUS:               ID:20141229045513 L   I
 OLDACT:ARG 14-12-29 12:30 OP:stll STATUS:               ID:20141229044750     3
 2014-12-29-0447-50M.COL___259                                                 6
 STAT SP IPHASW D HRMM SECON CODA AMPLIT PERI AZIMU VELO AIN AR TRES W  DIS CAZ7
 BAR2 EZ EP        455 33.01                             170    0.0710 24.3 200 
 BAR2 EZ I         455 33.22         3.4 0.20            168           24.3 200 
 BRR  HZ EP        455 35.00                             151    0.2910 75.2 297 
 BRR  HZ I         455 35.37         3.3 0.44            148           75.2 297 
 BRR  HN ES        455 51.48                             151    0.3310 75.2 297 
 RUS  HZ EP        455 37.39                             143    0.3210  100 179 
 RUS  HN ES        455 54.65                             143   -0.7010  100 179 
 PTB  HZ EP        455 40.06                             130   -0.70 9  152 259 
 PTB  HN ES        456  1.31                             130   -0.62 9  152 259 
 PTB  HZ I         456  5.55         1.2 0.12            129            152 259 
 SPBC HE ES        456  5.41                             128    0.99 9  166 220 
                                                                                
