 2012  829 0851 34.1 L   6.667 -73.171143.5  RSN  4 0.4 1.5LRSN                1
 GAP=192        0.63      15.7     9.0 13.3  0.4139E+02  0.2893E+02  0.1514E+03E
 Epicentro: VILLANUEVA - SANTANDER                                             3
 ACTION:UPD 12-09-10 11:59 OP:ep   STATUS:               ID:20120829085134 L   I
 2012-08-29-0850-00M.COL___218                                                 6
 STAT SP IPHASW D HRMM SECON CODA AMPLIT PERI AZIMU VELO AIN AR TRES W  DIS CAZ7
 BAR2 SZ EP        851 53.57                             176    0.3010 8.33 189 
 BAR2 SZ I         852  9.83        10.0 0.26                          8.33 189 
 GIR2 SZ ES   3    852  8.24                             161   -1.27 2 45.6 357 
 BRR  HZ EP        851 55.49                             151    0.1110 77.1 309 
 BRR  HN ES   1    852 11.83                             151   -0.12 7 77.1 309 
 BRR  HZ I         852 12.79         7.8 0.50                          77.1 309 
 PTB  HZ EP        852  0.15                             133   -0.31 9  143 264 
 PTB  HN ES   3    852 21.20                             133    0.20 2  143 264 
 PTB  HZ I         852 23.22         2.0 0.42                           143 264 
                                                                                
