 2010  329 0352 23.1 L   6.829 -73.028144.0  RSN  6 0.2 2.1LRSN                1
 GAP=209        0.50       3.3     7.1  5.3 -0.1002E+01 -0.6090E+01  0.8811E+00E
 Epicentro: CEPITA - SANTANDER                                                 3
 ACTION:UP  10-08-24 09:56 OP:vdl  STATUS:               ID:20100329035223 L   I
 2010-03-29-0350-08S.COL___098                                                 6
 STAT SP IPHASW D HRMM SECON CODA AMPLIT PERI AZIMU VELO SNR AR TRES W  DIS CAZ7
 BAR2 SZ EP        352 42.87                             167     0.210   31 213 
 BAR2 SZ ES   2    352 57.59                             167    -0.4 5   31 213 
 BRR  HZ EP        352 44.91                             149     0.210   82 292 
 BRR  HE ES   1    353  1.52                             149     0.0 7   82 292 
 BRR  HZ I         353  6.41        31.8 0.17                            82 292 
 OCA  SZ EP        352 50.92                             129    -0.2 9  159 348 
 OCA  SZ ES   2    353 12.90                             129    -0.1 5  159 348 
 OCA  SZ I         353 16.41        26.0 0.23                           159 348 
 CHI  HZ EP   2    353  1.42                             116     0.0 4  255 198 
 CHI  HN ES   2    353 30.81                             116    -0.5 4  255 198 
 CHI  HZ I         353 37.66         4.0 0.44                           255 198 
 DBB  SZ EP   1    353 11.83                             108    -0.1 5  352 274 
 PRA  HZ EP   2    353 17.54                             106    -0.1 3  401 211 
 PRA  HN ES   3    353 59.86                             106    -0.3 1  401 211 
 PRA  HZ I         354  4.07         3.4 0.25                           401 211 
                                                                                
