 2015  329 0922 42.2 L   6.832 -73.143138.7  RSN  9 0.4 1.6LRSN                1
 GAP= 70        0.97       3.0     4.1  5.7 -0.4153E+00  0.2253E+01 -0.5254E+00E
 Epicentro: LOS SANTOS - SANTANDER                                             3
 ACTION:UPD 15-04-30 16:30 OP:nd   STATUS:               ID:20150329092242 L   I
 OLDACT:DUP 15-03-29 17:51 OP:stll STATUS:               ID:20150329091737d    3
 2015-03-29-0917-36M.COL___290                                                 6
 STAT SP IPHASW D HRMM SECON CODA AMPLIT PERI AZIMU VELO AIN AR TRES W  DIS CAZ7
 BAR2 EZ EP        923  1.41                             168    0.3810 26.9 189 
 BAR2 EZ I         923  1.53         5.6 0.20            168           26.9 189 
 BAR2 EZ ES        923 16.23                             168    0.4910 26.9 189 
 BRR  HZ EP        923  2.90                             152    0.4310 69.8 296 
 BRR  HN ES        923 18.55                             152    0.2410 69.8 296 
 BRR  HZ I         923 25.66         4.0 0.16            150           69.8 296 
 PAM  SN ES        923 19.58                             150   -0.4810 74.5  41 
 RUS  HZ EP        923  5.25                             141   -0.2510  104 176 
 RUS  HN ES        923 23.80                             141    0.1110  104 176 
 RUS  HZ I         923 26.84         2.5 0.40            144            104 176 
 PTB  HZ EP        923  8.56                             130   -0.10 9  149 258 
 PTB  HE ES        923 29.28                             130   -0.04 9  149 258 
 PTB  HZ I         923 35.26         4.7 0.24            130            149 258 
 TAM  HZ EP        923  9.43                             129    0.07 9  156 106 
 TAM  HZ I         923  9.90        11.9 0.36            134            156 106 
 OCA  HN ES        923 30.45                             129   -0.55 9  157 353 
 SPBC HZ EP        923 10.14                             127   -0.28 9  166 218 
 SPBC HN ES        923 31.83                             127   -0.62 9  166 218 
 SPBC HZ I         923 36.47         5.5 0.20            128            166 218 
 SML  HZ EP        923 18.73                             116    0.67 8  241 335 
 SML  HN ES        923 45.94                             116   -0.12 8  241 335 
 SML  HZ I         923 51.69         4.7 0.22            118            241 335 
                                                                                
