 2010  529 0636 36.9 L   7.399 -73.219130.7  RSN  4 0.1 1.7LRSN                1
 GAP=176        0.39       2.1     6.1  4.3 -0.2264E+01  0.1153E+02  0.9613E+00E
 Epicentro: EL PLAYON - SANTANDER                                              3
 ACTION:UP  10-08-24 10:07 OP:vdl  STATUS:               ID:20100529063636 L   I
 2010-05-29-0634-55S.COL___109                                                 6
 STAT SP IPHASW D HRMM SECON CODA AMPLIT PERI AZIMU VELO SNR AR TRES W  DIS CAZ7
 GUE  SZ EP        636 56.06                             155     0.010   58  34 
 GUE  SZ ES   1    637 11.37                             155     0.3 7   58  34 
 GRA  SZ EP        636 56.69                             150     0.110   71  40 
 GRA  SZ ES        637 11.82                             150    -0.210   71  40 
 BAR2 SZ EP        636 57.92                             144    -0.110   89 177 
 BAR2 SZ ES   1    637 14.46                             144     0.0 7   89 177 
 OCA  SZ EP        636 58.23                             142     0.110   94 353 
 OCA  SZ ES   1    637 14.67                             142    -0.1 7   94 353 
 OCA  SZ I         637 16.86         8.8 0.41                            94 353 
                                                                                
