 2017 1129 0534 42.0 L   6.827 -73.154143.0  RSN  7 0.3 1.4LRSN                1
 GAP=220        0.71       3.7     3.5  4.7  0.6891E+01  0.9251E+00 -0.8515E+00E
 Epicentro: LOS SANTOS - SANTANDER                                             3
 ACTION:UPD 17-12-12 20:01 OP:rebc STATUS:               ID:20171129053442 L   I
 OLDACT:DUP 17-11-29 15:58 OP:dhb  STATUS:               ID:20171129052740d    3
 OLDACT:UP  17-11-29 15:55 OP:dhb  STATUS:               ID:20171129052739     3
 OLDACT:UP  17-11-29 15:41 OP:dhb  STATUS:               ID:20171129052739     3
 OLDACT:UP  17-11-29 15:34 OP:dhb  STATUS:               ID:20171129052739     3
 OLDACT:REG 17-11-29 12:24 OP:dhb  STATUS:               ID:20171129052739     3
 2017-11-29-0528-00M.COL___486                                                 6
 STAT SP IPHASW D HRMM SECON CODA AMPLIT PERI AZIMU VELO AIN AR TRES W  DIS CAZ7
 BAR2 EZ EP        535  1.31                             169   -0.0210 26.2 187 
 BAR2 EZ ES        535 16.32                             169   -0.1010 26.2 187 
 BAR2 EZ I         535 17.44         5.4 0.20            166           26.2 187 
 RUS  HZ EP        535  5.45                             142   -0.2210  104 176 
 RUS  HN ES        535 24.32                             142    0.1510  104 176 
 RUS  HZ I         535 25.03         2.6 0.20            141            104 176 
 PTB  HZ EP        535  8.12                             131   -0.56 9  147 258 
 PTB  HE ES        535 29.71                             131    0.19 9  147 258 
 PTB  HZ I         535 30.55         2.2 0.52            129            147 258 
 SPBC HZ EP        535 10.35                             128   -0.08 9  165 218 
 SPBC HE ES        535 32.66                             128    0.04 9  165 218 
 SPBC HZ I         535 38.44         4.9 0.24            126            165 218 
 YPLC HZ EP        535 12.57                             125    0.70 9  180 152 
 YPLC HN ES        535 34.97                             125   -0.22 9  180 152 
 YPLC HZ I         535 36.59         3.4 0.28            126            180 152 
 ZAR  HZ EP        535 13.94                             122   -0.09 9  202 291 
 ZAR  HE ES        535 39.32                             122    0.29 9  202 291 
 ZAR  HZ I         535 49.29         3.1 0.32            121            202 291 
 CHI  HZ EP        535 19.94                             116    0.13 8  251 195 
 CHI  HE ES        535 49.21                             116   -0.11 8  251 195 
 CHI  HZ I         535 54.87         1.3 0.40            116            251 195 
                                                                                
