 2016  929 0055 44.7 L   6.559 -73.589  4.0  RSN  6 0.5 1.2LRSN                1
 GAP= 79        1.33       3.0     3.4  9.1  0.2369E+01  0.1272E+02  0.8232E+01E
 Epicentro: EL CARMEN - SANTANDER                                              3
 ACTION:UPD 17-08-17 21:17 OP:lp   STATUS:               ID:20160929005544 L   I
 OLDACT:DUP 16-09-29 14:04 OP:dani STATUS:               ID:20160929004746d    3
 OLDACT:UP  16-09-29 14:04 OP:dani STATUS:               ID:20160929004745     3
 OLDACT:UP  16-09-29 14:04 OP:dani STATUS:               ID:20160929004745     3
 OLDACT:REG 16-09-29 12:44 OP:dani STATUS:               ID:20160929004745     3
 2016-09-29-0048-00M.COL___378                                                 6
 STAT SP IPHASW D HRMM SECON CODA AMPLIT PERI AZIMU VELO AIN AR TRES W  DIS CAZ7
 BAR2 EZ EP     D  055 52.29                              47   -0.0710 45.1  85 
 BAR2 EZ I         055 58.68        24.0 0.28             47           45.1  85 
 BRR  HZ EP        055 55.08                              47    0.3910 62.1 347 
 BRR  HE ES        056  2.65                              47    0.1510 62.1 347 
 BRR  HZ I         056  3.95         8.2 0.09             47           62.1 347 
 RUS  HZ EP        055 59.70                              47   -0.1110 92.5 143 
 RUS  HN ES        056 11.07                              47   -0.5410 92.5 143 
 RUS  HZ I         056 12.50         4.7 0.17             47           92.5 143 
 PTB  HZ EP        055 59.47                              47   -0.3610 95.9 269 
 PTB  HE ES        056 10.95                              47   -0.7010 95.9 269 
 PTB  HZ I         056 13.32        13.4 0.19             47           95.9 269 
 SPBC HE ES        056 17.65                              47    1.0910  114 208 
 SPBC HZ I         056 21.79         5.3 0.11             47            114 208 
 PAM  EZ EP        056  5.82                              47    0.2110  131  49 
 PAM  EZ I         056 26.23         4.0 0.43             47            131  49 
                                                                                
