 2010  329 0644 40.6 L   6.798 -73.056144.5  RSN  7 0.4 2.1LRSN                1
 GAP=148        0.54       3.4     6.5  6.0 -0.8632E+01 -0.1604E+02  0.5362E+01E
 Epicentro: LOS SANTOS - SANTANDER                                             3
 ACTION:UP  10-08-24 09:56 OP:vdl  STATUS:               ID:20100329064440 L   I
 2010-03-29-0642-39S.COL___098                                                 6
 STAT SP IPHASW D HRMM SECON CODA AMPLIT PERI AZIMU VELO SNR AR TRES W  DIS CAZ7
 BAR2 SZ EP        645  0.27                             169     0.110   27 212 
 BAR2 SZ ES   2    645 15.63                             169     0.2 5   27 212 
 BRR  HZ EP        645  2.35                             149     0.210   80 295 
 BRR  HE ES   2    645 18.93                             149    -0.1 5   80 295 
 BRR  HZ I         645 21.39        16.8 0.20                            80 295 
 OCA  SZ EP        645  8.87                             129    -0.1 9  162 350 
 OCA  SZ ES   2    645 30.82                             129    -0.3 5  162 350 
 OCA  SZ I         645 35.70        27.0 0.06                           162 350 
 CHI  HZ EP        645 18.35                             117    -0.2 8  251 197 
 CHI  HE ES   3    645 47.54                             117    -0.6 2  251 197 
 CHI  HZ I         645 56.30         4.2 0.87                           251 197 
 TOL  SZ EP   2    645 30.88                             109     1.2 3  350 226 
 TOL  SZ ES   3    646  7.93                             109     0.1 2  350 226 
 SDV  BZ EP        645 29.80                             109     0.0 6  353  49 
 PRA  HZ EP   2    645 34.71                             106     0.0 3  397 211 
 PRA  HZ I         645 36.02         3.9 0.18                           397 211 
 PRA  HN ES   2    646 15.89                             106    -0.9 3  397 211 
                                                                                
