 2011  829 0526 50.8 L   6.349 -74.064 69.1  RSN 14 0.3 2.6LRSN                1
 GAP=118        0.69       2.1     2.3  9.4 -0.2412E+01  0.6736E+01 -0.3147E+00E
 Epicentro: CIMITARRA - SANTANDER                                              3
 ACTION:UPD 12-07-13 15:54 OP:ep   STATUS:               ID:20110829052650 L   I
 2011-08-29-0525-20S.COL___161                                                 6
 STAT SP IPHASW D HRMM SECON CODA AMPLIT PERI AZIMU VELO AIN AR TRES W  DIS CAZ7
 BRR  HZ EP        527  6.92                             121    0.2910 92.4  25 
 BRR  HZ I         527 22.26       201.1 0.11                          92.4  25 
 BAR2 SZ IP        527  8.04                             118    0.1710  101  75 
 BAR2 SZ ES   1    527 21.24                             118    0.03 7  101  75 
 BAR2 SZ I         527 22.84       200.0 0.38                           101  75 
 RUS  HZ EP        527  9.64                             114   -0.6110  120 115 
 RUS  HN ES   1    527 25.47                             114    0.02 7  120 115 
 RUS  HZ I         527 26.40        41.9 0.26                           120 115 
 NOR  SE ES   1    527 25.06                             112   -0.36 7  124 226 
 GIR2 SZ EP        527 10.60                             112    0.1210  126  50 
 GIR2 SZ ES   1    527 25.59                             112   -0.26 7  126  50 
 HEL  HZ EP   1    527 14.75                             107   -0.37 7  163 264 
 HEL  HE ES   1    527 34.29                             107    0.17 7  163 264 
 HEL  HZ I         527 36.16        75.7 0.57                           163 264 
 ROSC BZ EP   1    527 16.41                             106    0.52 7  169 190 
 ROSC BE ES   1    527 35.73                             106    0.25 7  169 190 
 ROSC BZ I         527 39.59        51.5 0.55                           169 190 
 PAM  SZ EP   1    527 17.71                             104   -0.35 7  186  54 
 PAM  SN ES   1    527 39.55                             104    0.21 7  186  54 
 PAM  SZ I         527 43.00        23.7 0.21                           186  54 
 CHI  HZ EP   1    527 18.48                             103   -0.35 6  194 169 
 CHI  HE ES   1    527 41.03                             103    0.31 6  194 169 
 CHI  HZ I         527 47.80        30.7 0.36                           194 169 
 RREF HZ EP   1    527 21.17                             102   -0.40 6  214 222 
 RREF HN ES   1    527 45.34                             102   -0.26 6  214 222 
 OCA  SZ EP   1    527 22.17                             101   -0.08 6  225  21 
 OCA  SZ ES   1    527 46.91                             101    0.10 6  225  21 
 OCA  SZ I         527 52.17       116.0 0.26                           225  21 
 VIL  SZ EP   1    527 26.09                             100    0.69 6  251 171 
 VIL  SZ I         527 58.85        37.8 0.48                           251 171 
 ANIL HZ EP   1    527 26.23                              99    0.31 6  253 216 
 ANIL HN ES   1    527 53.88                              99    0.54 6  253 216 
 ANIL HZ I         527 57.08        82.9 0.31                           253 216 
 PRA  HZ EP   1    527 31.39                              97   -0.56 5  305 197 
                                                                                
