 2015 1129 0109 55.7 L   6.823 -73.106147.7  RSN 21 0.5 2.5LRSN                1
 GAP=122        1.06       2.5     3.4  4.8 -0.2112E+01  0.5246E+01  0.6814E+00E
 Epicentro: LOS SANTOS - SANTANDER                                             3
 ACTION:UPD 15-12-28 16:14 OP:cam  STATUS:               ID:20151129010955 L   I
 OLDACT:REG 15-11-29 12:27 OP:ak   STATUS:               ID:20151129010749     3
 2015-11-29-0107-49M.COL___307                                                 6
 STAT SP IPHASW D HRMM SECON CODA AMPLIT PERI AZIMU VELO AIN AR TRES W  DIS CAZ7
 BAR2 EZ IP     C  110 15.81                             169    0.1910 26.8 198 
 BAR2 EZ ES        110 30.87                             169   -0.2910 26.8 198 
 BAR2 EZ I         110 31.64        30.6 0.22            166           26.8 198 
 PAM  EZ EP        110 18.66                             153    0.8310 72.7  38 
 PAM  EN ES        110 35.45                             153    0.3410 72.7  38 
 PAM  EZ I         110 37.71        57.5 0.46            157           72.7  38 
 BRR  HZ IP     C  110 17.69                             152    0.4910 74.0 295 
 BRR  HE ES        110 34.55                             152    0.5810 74.0 295 
 BRR  HZ I         110 39.06        33.1 0.12            148           74.0 295 
 RUS  HZ EP        110 19.78                             144   -0.0110  103 179 
 RUS  HN ES        110 38.16                             144   -0.4310  103 179 
 RUS  HZ I         110 39.34        31.9 0.34            145            103 179 
 PTB  HZ EP        110 22.30                             132   -0.94 9  153 258 
 PTB  HN ES   4    110 42.70                             132   -2.03 0  153 258 
 PTB  HZ I         110 47.45        20.9 0.16            130            153 258 
 OCA  HZ EP        110 24.06                             130    0.09 9  158 351 
 OCA  HN ES        110 45.61                             130   -0.42 9  158 351 
 OCA  HZ I         110 47.27        54.7 0.16            131            158 351 
 SPBC HZ EP        110 24.74                             129   -0.03 9  168 220 
 SPBC HE ES        110 46.77                             129   -0.69 9  168 220 
 SPBC HZ I         110 50.05        42.0 0.16            128            168 220 
 ZAR  HZ EP   2    110 29.59                             122    1.01 4  207 291 
 ZAR  HN ES        110 54.35                             122    0.12 8  207 291 
 ZAR  HZ I         111  2.12        26.2 0.24            122            207 291 
 NOR  HZ EP        110 31.77                             118   -0.29 8  240 235 
 NOR  HE ES        110 59.61                             118   -0.82 8  240 235 
 NOR  HZ I         111  7.16        16.6 0.18            118            240 235 
 SML  HZ EP        110 32.08                             118   -0.30 8  243 334 
 SML  HE ES        111  0.38                             118   -0.61 8  243 334 
 SML  HZ I         111  3.72        25.0 0.08            119            243 334 
 ROSC BZ EP   4    110 36.20                             117    1.81 0  257 212 
 ROSC BN ES        111  5.11                             117    0.54 8  257 212 
 ROSC BZ I         111 12.22        21.5 0.60            117            257 212 
 HEL  HZ EP   1    110 37.21                             115    0.68 6  277 256 
 HEL  HE ES        111  8.44                             115    0.05 7  277 256 
 HEL  HZ I         111 14.93         9.6 0.36            115            277 256 
 URE  HZ EP   4    110 39.73                             114    2.53 0  287 291 
 URE  HE ES        111  9.67                             114    0.09 7  287 291 
 URE  HZ I         111 20.34        14.2 0.16            114            287 291 
 SOCV BZ EP        110 37.85                             113   -0.41 7  296  57 
 SOCV BN ES   4    111  9.60                             113   -1.86 0  296  57 
 GUY2CHZ EP        110 40.55                             112    0.60 7  306 235 
 GUY2CHN ES        111 15.14                             112    0.67 7  306 235 
 GUY2CHZ I         111 21.18        11.3 0.24                           306 235 
 ELA  HZ EP        110 43.01                             110   -0.17 7  334 230 
 ELA  HE ES        111 20.56                             110    0.33 7  334 230 
 ELA  HZ I         111 27.15        11.5 0.60            111            334 230 
 DBB  SZ EP        110 43.53                             110   -0.19 7  344 274 
 DBB  SZ ES        111 21.00                             110   -0.19 7  344 274 
 DBB  SZ I         111 32.09        18.3 0.28            110            344 274 
 ANIL HZ EP   4    110 50.02                             108    3.90 0  362 225 
 ANIL HE ES        111 26.10                             108    0.64 6  362 225 
 ANIL HZ I         111 31.48        23.1 0.70            109            362 225 
 PRA  HZ EP        110 49.53                             107   -0.25 6  396 210 
 PRA  HN ES        111 32.23                             107    0.26 6  396 210 
 PRA  HZ I         111 34.30         7.6 0.28            108            396 210 
 ORTC HZ EP        110 50.47                             106    0.26 6  400 216 
 ORTC HN ES        111 32.26                             106   -0.47 6  400 216 
 ORTC HZ I         111 39.04         7.4 0.32            107            400 216 
 SJC  HZ EP   1    110 50.54                             106   -0.81 4  410 326 
 SJC  HN ES   4    111 31.50                             106   -3.26 0  410 326 
 SJC  HZ I         111 35.52         7.0 0.52            107            410 326 
                                                                                
