 2014 1229 0054 28.4 L   6.808 -73.143149.7  RSN  7 0.5 1.6LRSN                1
 GAP=183        1.24       4.3     7.7  8.9  0.3080E+01  0.7660E+01 -0.1703E+01E
 Epicentro: LOS SANTOS - SANTANDER                                             3
 ACTION:UPD 15-02-10 17:07 OP:nd   STATUS:               ID:20141229005428 L   I
 OLDACT:ARG 14-12-29 12:29 OP:stll STATUS:               ID:20141229004750     3
 2014-12-29-0047-50M.COL___259                                                 6
 STAT SP IPHASW D HRMM SECON CODA AMPLIT PERI AZIMU VELO AIN AR TRES W  DIS CAZ7
 BAR2 EZ EP        054 48.44                             170   -0.1110 24.3 190 
 BAR2 EZ ES        055  4.14                             170   -0.1010 24.3 190 
 BAR2 EZ I         055  5.01        15.3 0.18            166           24.3 190 
 BRR  HZ EP        054 50.62                             153    0.6310 71.1 298 
 BRR  HN ES        055  7.45                             153    0.6310 71.1 298 
 BRR  HZ I         055  8.59         6.1 0.14            149           71.1 298 
 RUS  HZ EP        054 52.62                             144   -0.0110  101 176 
 RUS  HN ES        055 10.90                             144   -0.6110  101 176 
 RUS  HZ I         055 12.42         3.1 0.36            144            101 176 
 PTB  HZ EP        054 55.45                             133   -0.31 9  148 259 
 PTB  HN ES        055 16.28                             133   -0.80 9  148 259 
 PTB  HZ I         055 23.73         4.0 0.32            130            148 259 
 OCA  HN ES        055 19.38                             131    0.15 9  159 353 
 SPBC HZ EP        054 57.66                             130    0.34 9  164 219 
 SPBC HE ES        055 20.49                             130    0.64 9  164 219 
 SPBC HZ I         055 25.35         5.5 0.10            128            164 219 
 SML  HN ES        055 33.24                             118   -0.65 8  243 335 
                                                                                
