 2016 1029 0217 25.0 L   6.834 -73.178141.6  RSN  6 0.5 1.1LRSN                1
 GAP=237        1.15       6.7     8.0  8.4  0.2124E+02  0.1302E+02  0.1558E+02E
 Epicentro: ZAPATOCA - SANTANDER                                               3
 ACTION:UPD 16-11-09 19:24 OP:rebc STATUS:               ID:20161029021725 L   I
 OLDACT:REG 16-10-29 13:30 OP:cog  STATUS:               ID:20161029020743     3
 2016-10-29-0208-00M.COL___337                                                 6
 STAT SP IPHASW D HRMM SECON CODA AMPLIT PERI AZIMU VELO AIN AR TRES W  DIS CAZ7
 BAR2 EZ EP        217 44.10                             169   -0.1510 26.8 181 
 BAR2 EZ ES        217 58.51                             169   -0.7210 26.8 181 
 BRR  HZ EP        217 46.06                             153    0.6010 66.2 297 
 BRR  HN ES        218  2.00                             153    0.6110 66.2 297 
 RUS  HZ EP        217 48.77                             142    0.0810  105 174 
 RUS  HE ES        218  7.34                             142    0.2010  105 174 
 RUS  HZ I         218  8.93         1.3 0.30            141            105 174 
 PTB  HZ EP        217 50.80                             132   -0.62 9  145 257 
 PTB  HN ES        218 11.79                             132   -0.21 9  145 257 
 PTB  HZ I         218 15.88         2.9 0.14            131            145 257 
 SPBC HZ EP        217 52.92                             128   -0.38 9  164 217 
 CHI  HZ EP   2    218  3.24                             116    0.43 4  251 194 
 CHI  HN ES        218 32.85                             116    0.57 8  251 194 
                                                                                
