 2015  129 0916 39.2 L   6.647 -73.150149.1  RSN  4 0.2 1.2LRSN                1
 GAP=177        0.62       7.6     4.1  5.2 -0.7199E+01 -0.1416E+01 -0.7056E+00E
 Epicentro: VILLANUEVA - SANTANDER                                             3
 ACTION:UPD 15-03-02 15:43 OP:nd   STATUS:               ID:20150129091639 L   I
 OLDACT:DUP 15-01-29 16:45 OP:cam  STATUS:               ID:20150129090818d    3
 OLDACT:UP  15-01-29 16:45 OP:cam  STATUS:               ID:20150129090817     3
 OLDACT:REG 15-01-29 13:37 OP:cvam STATUS:               ID:20150129090817     3
 2015-01-29-0908-17M.COL___268                                                 6
 STAT SP IPHASW D HRMM SECON CODA AMPLIT PERI AZIMU VELO AIN AR TRES W  DIS CAZ7
 BAR2 EZ EP        916 59.34                             177    0.3310 7.06 210 
 BAR2 EZ ES        917 14.35                             177   -0.1110 7.06 210 
 BAR2 EZ I         917 15.51         3.0 0.28            169           7.06 210 
 BRR  HZ EP        917  1.17                             150   -0.0510 80.3 309 
 BRR  HN ES        917 18.64                             150    0.2310 80.3 309 
 PAM  SZ EP        917  2.35                             147   -0.2810 91.3  33 
 PTB  HZ EP        917  6.31                             133    0.13 9  145 265 
 PTB  HN ES        917 26.96                             133   -0.27 9  145 265 
 PTB  HZ I         917 34.61         2.0 0.38            130            145 265 
                                                                                
