 2015 1229 0548 55.5 L   6.798 -73.161146.6  RSN 11 0.5 1.7LRSN                1
 GAP=135        1.24       3.1     5.1  6.4 -0.1027E+01  0.6880E+01  0.8584E+00E
 Epicentro: LOS SANTOS - SANTANDER                                             3
 ACTION:UPD 16-02-04 15:08 OP:cam  STATUS:               ID:20151229054855 L   I
 OLDACT:REG 15-12-29 13:07 OP:ak   STATUS:               ID:20151229053748     3
 2015-12-29-0537-48M.COL___337                                                 6
 STAT SP IPHASW D HRMM SECON CODA AMPLIT PERI AZIMU VELO AIN AR TRES W  DIS CAZ7
 BAR2 EZ EP        549 15.14                             171   -0.1110 22.9 186 
 BAR2 EZ ES        549 30.09                             171   -0.5410 22.9 186 
 BAR2 EZ I         549 32.09        16.6 0.34            171           22.9 186 
 BRR  HZ IP     C  549 17.21                             153    0.5210 69.8 299 
 BRR  HN ES        549 33.97                             153    0.7810 69.8 299 
 BRR  HZ I         549 39.06         8.8 0.14            151           69.8 299 
 PAM  EZ EP        549 18.32                             151    0.4110 78.6  40 
 PAM  EN ES        549 35.99                             151    0.6310 78.6  40 
 PAM  EZ I         549 38.14         5.9 0.46            153           78.6  40 
 RUS  HZ EP        549 19.15                             144   -0.2110  101 175 
 RUS  HN ES        549 37.57                             144   -0.3810  101 175 
 RUS  HZ I         549 39.01         5.5 0.50            148            101 175 
 PTB  HZ EP        549 21.64                             133   -0.77 9  146 259 
 PTB  HN ES        549 43.23                             133   -0.14 9  146 259 
 PTB  HZ I         549 48.75         5.9 0.16            133            146 259 
 OCA  HZ EP        549 23.45                             130   -0.45 9  160 354 
 OCA  HN ES        549 45.51                             130   -0.52 9  160 354 
 OCA  HZ I         549 56.45         8.9 0.16            131            160 354 
 SPBC HZ EP        549 24.53                             129    0.55 9  162 219 
 SPBC HN ES        549 45.71                             129   -0.46 9  162 219 
 SPBC HZ I         549 49.00         7.4 0.28            131            162 219 
 ZAR  HZ EP        549 28.62                             123    0.75 9  203 292 
 ZAR  HN ES        549 53.40                             123    0.30 9  203 292 
 ZAR  HZ I         550  0.05         6.3 0.36            123            203 292 
 SML  HZ EP        549 31.41                             118   -0.73 8  243 336 
 SML  HN ES        550  0.19                             118   -0.51 8  243 336 
 SML  HZ I         550  5.61         5.8 0.07            119            243 336 
 CHI  HZ EP        549 33.80                             117    0.59 8  248 195 
 CHI  HN ES        550  2.60                             117    0.00 8  248 195 
 CHI  HZ I         550  9.11         2.2 0.34            120            248 195 
 PRA  HZ EP        549 48.88                             107   -0.08 6  391 209 
 PRA  HE ES        550 30.97                             107    0.33 6  391 209 
 PRA  HZ I         550 35.61         2.4 0.58            108            391 209 
                                                                                
