 2011  629 0408  7.9 L   6.752 -73.087146.0  RSN  9 0.2 1.6LRSN                1
 GAP=146        0.49       2.8     3.9  4.0 -0.4023E+01  0.2769E+01 -0.1130E+01E
 Epicentro: LOS SANTOS - SANTANDER                                             3
 ACTION:UP  11-07-14 19:09 OP:ep   STATUS:               ID:20110629040807 L   I
 2011-06-29-0405-44S.COL___140                                                 6
 STAT SP IPHASW D HRMM SECON CODA AMPLIT PERI AZIMU VELO SNR AR TRES W  DIS CAZ7
 BAR2 SZ EP   1    4 8 27.49                             172     0.0 7   21 211 
 BAR2 SZ ES   1    4 8 42.53                             172    -0.3 7   21 211 
 BAR2 SZ I         4 8 44.72        11.3 0.38                            21 211 
 PAM  SZ EP   2    4 8 30.19                             151     0.0 5   78  33 
 PAM  SZ I         4 8 30.75         2.4 0.20                            78  33 
 PAM  SN ES   2    4 8 47.86                             151     0.3 5   78  33 
 BRR  HZ EP        4 8 29.47                             150    -0.110   79 300 
 BRR  HE ES   1    4 8 46.80                             150     0.3 7   79 300 
 BRR  HZ I         4 8 50.06        10.0 0.21                            79 300 
 RUS  HZ EP   1    4 8 31.53                             146     0.2 7   95 180 
 RUS  HE ES   1    4 8 49.65                             146     0.1 7   95 180 
 RUS  HZ I         4 8 51.99         5.1 0.11                            95 180 
 GRA  SZ EP        4 8 33.38                             136    -0.110  129  14 
 GRA  SZ ES   2    4 8 53.33                             136    -0.1 5  129  14 
 GRA  SZ I         4 8 54.31         4.1 0.43                           129  14 
 OCA  SZ EP   2    4 8 36.89                             129     0.1 5  166 351 
 OCA  SZ I         4 8 54.33         4.6 0.21                           166 351 
 NOR  SZ EP   1    4 8 43.60                             118    -0.3 6  237 236 
 NOR  SE ES   1    4 9 11.89                             118    -0.1 6  237 236 
 HEL  HZ EP   2    4 8 49.31                             114     0.6 4  277 257 
 HEL  HZ I         4 9 25.14         4.3 0.42                           277 257 
 PRA  HZ EP   2    4 9  1.58                             107     0.3 3  391 211 
                                                                                
