 2013  129 0546 35.0 L   6.765 -73.143143.7  RSN  5 0.3 1.2LRSN                1
 GAP=139        0.69       4.3     4.3  6.7 -0.1377E+01 -0.2575E+01  0.9295E+01E
 Epicentro: LOS SANTOS - SANTANDER                                             3
 ACTION:UPD 13-02-15 09:17 OP:ep   STATUS:               ID:20130129054635 L   I
 2013-01-29-0540-00M.COL___241                                                 6
 STAT SP IPHASW D HRMM SECON CODA AMPLIT PERI AZIMU VELO AIN AR TRES W  DIS CAZ7
 BRR  HZ EP        546 56.21                             151    0.1610 73.4 301 
 BRR  HE ES        547 12.85                             151    0.3810 73.4 301 
 BRR  HZ I         547 16.77         2.3 0.12            139           73.4 301 
 PAM  SZ EP        546 57.06                             150   -0.1010 80.2  38 
 PAM  SZ I         546 57.39         4.1 0.22            144           80.2  38 
 PAM  SN ES   1    547 14.12                             150   -0.33 7 80.2  38 
 RUS  HZ EP        546 58.47                             144    0.2110 96.7 176 
 RUS  HN ES   1    547 16.26                             144   -0.15 7 96.7 176 
 RUS  HN I         547 19.41         2.0 0.27            124           96.7 176 
 PTB  HZ EP   1    547  1.32                             132   -0.44 7  147 260 
 PTB  HN ES   1    547 22.11                             132   -0.53 7  147 260 
 PTB  HZ I         547 23.55         1.7 0.40            115            147 260 
 CHI  HZ EP   1    547 12.45                             117    0.27 6  245 195 
 CHI  HZ I         547 48.04         1.0 0.52            104            245 195 
                                                                                
