 2014 1029 0115 24.2 L   6.799 -73.184140.8  RSN  5 0.3 1.5LRSN                1
 GAP=132        0.83       4.4     4.2  6.1 -0.1657E+01  0.3189E+01  0.1337E+01E
 Epicentro: ZAPATOCA - SANTANDER                                               3
 ACTION:UPD 14-11-29 23:58 OP:nd   STATUS:               ID:20141029011524 L   I
 OLDACT:UP  14-10-30 21:56 OP:stll STATUS:               ID:20141029010748d    3
 OLDACT:DUP 14-10-30 21:54 OP:stll STATUS:               ID:20141029010748d    3
 2014-10-29-0107-47M.COL___271                                                 6
 STAT SP IPHASW D HRMM SECON CODA AMPLIT PERI AZIMU VELO AIN AR TRES W  DIS CAZ7
 BAR2 SZ EP        115 43.24                             170   -0.0110 22.9 180 
 BAR2 SZ ES        115 57.94                             170   -0.1510 22.9 180 
 BAR2 SZ I         115 59.48         9.1 0.28            170           22.9 180 
 BRR  HZ EP        115 45.11                             153    0.4710 67.6 300 
 BRR  HZ I         115 45.28        11.8 0.12            154           67.6 300 
 BRR  HN ES        116  1.03                             153    0.4810 67.6 300 
 PAM  SZ EP        115 45.95                             149   -0.1510 80.2  42 
 PAM  SN ES        116  2.84                             149   -0.3110 80.2  42 
 PAM  SN I         116  4.44         8.7 0.40            151           80.2  42 
 RUS  HZ EP        115 47.80                             143    0.2810  101 174 
 RUS  HN ES        116  5.73                             143    0.0510  101 174 
 RUS  HZ I         116  7.54         2.7 0.56            143            101 174 
 PTB  HZ EP        115 50.06                             132   -0.35 9  144 259 
 PTB  HN ES        116 10.42                             132   -0.42 9  144 259 
 PTB  HZ I         116 12.91         2.8 0.10            133            144 259 
                                                                                
