 2015 1129 0625 55.6 L   6.769 -73.128147.9  RSN  7 0.4 1.4LRSN                1
 GAP=140        0.95       4.1     4.1  6.3 -0.8632E+00  0.5514E+01  0.1498E+01E
 Epicentro: LOS SANTOS - SANTANDER                                             3
 ACTION:UPD 15-12-28 16:14 OP:cam  STATUS:               ID:20151129062555 L   I
 OLDACT:REG 15-11-29 12:43 OP:ak   STATUS:               ID:20151129061739     3
 2015-11-29-0617-39M.COL___307                                                 6
 STAT SP IPHASW D HRMM SECON CODA AMPLIT PERI AZIMU VELO AIN AR TRES W  DIS CAZ7
 BAR2 EZ EP        626 15.37                             172   -0.0810 20.5 197 
 BAR2 EZ ES        626 30.46                             172   -0.4710 20.5 197 
 BAR2 EZ I         626 32.08         4.7 0.23            171           20.5 197 
 BRR  HZ EP        626 17.28                             152    0.0910 74.5 300 
 BRR  HN ES        626 34.17                             152    0.1610 74.5 300 
 PAM  EZ EP        626 18.20                             151    0.0510 78.9  37 
 PAM  EN ES        626 35.64                             151   -0.0910 78.9  37 
 PAM  EZ I         626 37.60         4.1 0.52            153           78.9  37 
 RUS  HZ EP        626 19.60                             145    0.2710 97.1 177 
 RUS  HN ES        626 38.33                             145    0.5010 97.1 177 
 RUS  HZ I         626 39.13         2.6 0.30            147           97.1 177 
 PTB  HZ EP        626 22.36                             132   -0.52 9  149 260 
 PTB  HN ES        626 43.56                             132   -0.58 9  149 260 
 PTB  HZ I         626 46.75         2.3 0.26            132            149 260 
 SPBC HZ EP        626 23.89                             130   -0.26 9  162 220 
 SPBC HN ES        626 46.59                             130    0.18 9  162 220 
 SPBC HZ I         626 50.43         6.2 0.36            130            162 220 
 ZAR  HZ EP   2    626 28.52                             122   -0.00 4  207 293 
 ZAR  HN ES        626 55.01                             122    0.83 8  207 293 
 ZAR  HZ I         627  0.92         2.8 0.22            123            207 293 
 SJC  HZ EP   4    626 49.76                             106   -1.95 0  413 327 
 SJC  HE ES   4    627 31.27                             106   -4.19 0  413 327 
                                                                                
