 2012  129 0957 16.0 L   6.759 -73.136145.2  RSN  8 0.3 1.6LRSN                1
 GAP=140        0.63       3.6     3.9  5.3 -0.3227E+00  0.3678E+01  0.2764E+01E
 Epicentro: LOS SANTOS - SANTANDER                                             3
 ACTION:UP  12-02-03 08:21 OP:REBC STATUS:               ID:20120129095716 L   I
 2012-01-29-0950-00M.COL___188                                                 6
 STAT SP IPHASW D HRMM SECON CODA AMPLIT PERI AZIMU VELO SNR AR TRES W  DIS CAZ7
 BAR2 SZ EP   1    957 35.59                             172     0.1 7   19 195 
 BAR2 SZ ES   1    957 50.36                             172    -0.3 7   19 195 
 BAR2 SZ I         957 53.33        13.0 0.28                            19 195 
 GIR2 SZ EP        957 35.72                             165     0.010   36 350 
 BRR  HZ EP        957 37.41                             151     0.210   74 301 
 BRR  HE ES   1    957 54.42                             151     0.6 7   74 301 
 BRR  HZ I         957 57.12         9.1 0.07                            74 301 
 PAM  SZ EP   1    957 38.25                             150     0.0 7   80  37 
 PAM  SE ES   1    957 55.52                             150    -0.2 7   80  37 
 RUS  HZ EP   1    957 39.09                             145    -0.2 7   96 176 
 RUS  HE ES   1    957 57.62                             145     0.1 7   96 176 
 RUS  HZ I         957 59.47         3.4 0.28                            96 176 
 PTB  HZ EP        957 42.69                             132    -0.2 9  148 261 
 PTB  HE ES   1    958  3.70                             132    -0.2 7  148 261 
 ZAR  HE ES   2    958 13.67                             122    -0.5 4  207 293 
 ZAR  HZ I         958 21.51         3.1 0.06                           207 293 
 CHI  HZ EP   1    957 53.61                             117     0.4 6  245 196 
 CHI  HE ES   2    958 22.41                             117     0.2 4  245 196 
 CHI  HZ I         958 27.25         1.9 0.29                           245 196 
                                                                                
