 2015 1029 0511  3.5 L   6.811 -73.152141.0  RSN 10 0.4 1.8LRSN                1
 GAP=135        0.92       2.7     3.9  5.3 -0.1937E+01  0.8308E+01 -0.1214E+01E
 Epicentro: LOS SANTOS - SANTANDER                                             3
 ACTION:UPD 15-12-22 20:43 OP:cam  STATUS:               ID:20151029051103 L   I
 OLDACT:UP  15-10-29 18:08 OP:mh   STATUS:               ID:20151029050740     3
 OLDACT:UP  15-10-29 16:38 OP:mh   STATUS:               ID:20151029050740     3
 OLDACT:REG 15-10-29 12:54 OP:cara STATUS:               ID:20151029050740     3
 2015-10-29-0507-40M.COL___316                                                 6
 STAT SP IPHASW D HRMM SECON CODA AMPLIT PERI AZIMU VELO AIN AR TRES W  DIS CAZ7
 BAR2 EZ EP   1    511 22.44                             170   -0.18 7 24.4 188 
 BAR2 EZ ES        511 37.24                             170   -0.2610 24.4 188 
 BAR2 EZ I         511 37.57        14.4 0.22            170           24.4 188 
 BRR  HZ EP        511 24.12                             152    0.0110 70.0 298 
 BRR  HN ES        511 40.33                             152    0.1810 70.0 298 
 BRR  HZ I         511 40.90        15.1 0.14            151           70.0 298 
 PAM  EZ EP        511 25.41                             150    0.1910 76.9  40 
 PAM  EN ES        511 42.62                             150    0.4910 76.9  40 
 PAM  EZ I         511 44.51        12.6 0.48            152           76.9  40 
 RUS  HZ EP   1    511 26.74                             142   -0.18 7  102 176 
 RUS  HN ES        511 45.17                             142    0.0210  102 176 
 RUS  HZ I         511 45.80         5.8 0.26            144            102 176 
 OCA  HZ EP        511 31.08                             129   -0.28 9  159 353 
 OCA  HE ES        511 52.85                             129   -0.21 9  159 353 
 OCA  HZ I         511 56.20        11.5 0.52            129            159 353 
 SPBC HZ EP        511 31.13                             128   -0.60 9  164 219 
 SPBC HN ES   1    511 53.28                             128   -0.43 7  164 219 
 SPBC HZ I         511 58.75         6.1 0.10            128            164 219 
 ZAR  HN ES        512  0.91                             121    0.36 9  203 292 
 SML  HZ EP        511 39.91                             117    0.16 8  242 335 
 SML  HE ES        512  7.40                             117   -0.60 8  242 335 
 SML  HZ I         512 11.35         8.1 0.10            117            242 335 
 HEL  HZ EP        511 44.40                             114    0.93 8  272 256 
 HEL  HE ES        512 14.10                             114   -0.52 8  272 256 
 HEL  HZ I         512 20.79         3.2 0.36            114            272 256 
 GUY2CHZ EP        511 47.18                             111    0.23 7  301 235 
 GUY2CHN ES        512 21.46                             111    0.66 7  301 235 
 GUY2CHZ I         512 29.29         2.6 0.66                           301 235 
                                                                                
