 2015  629 0247 52.3 L   6.890 -73.210125.8  RSN  7 0.4 2.0LRSN                1
 GAP=177        0.95       3.2     4.8  6.3  0.2300E+01  0.9123E+01 -0.4391E+01E
 Epicentro: BETULIA - SANTANDER                                                3
 ACTION:UPD 15-09-10 22:15 OP:cam  STATUS:               ID:20150629024752 L   I
 OLDACT:UP  15-07-01 05:42 OP:DRIO STATUS:               ID:20150629024752 L   3
 OLDACT:UP  15-06-29 19:22 OP:mh   STATUS:               ID:20150629023748     3
 OLDACT:UP  15-06-29 19:22 OP:mh   STATUS:               ID:20150629023748     3
 OLDACT:UP  15-06-29 19:22 OP:mh   STATUS:               ID:20150629023748     3
 OLDACT:REG 15-06-29 12:44 OP:mh   STATUS:               ID:20150629023748     3
 2015-06-29-0237-48M.COL___313                                                 6
 STAT SP IPHASW D HRMM SECON CODA AMPLIT PERI AZIMU VELO AIN AR TRES W  DIS CAZ7
 BAR2 EZ EP        248 10.31                             164    0.4510 33.1 175 
 BAR2 EZ ES        248 23.92                             164    0.4010 33.1 175 
 BAR2 EZ I         248 24.90        22.8 0.24            168           33.1 175 
 BRR  HZ EP        248 10.63                             153   -0.1010 60.5 293 
 BRR  HN ES        248 24.96                             153   -0.1210 60.5 293 
 BRR  HZ I         248 26.18        14.4 0.14            152           60.5 293 
 RUS  HZ EP   1    248 14.70                             136   -0.37 7  111 173 
 RUS  HZ I         248 15.76         4.5 0.12            139            111 173 
 RUS  HN ES        248 32.36                             136   -0.4310  111 173 
 OCA  HZ EP        248 18.44                             127    0.31 9  150 355 
 OCA  HN ES        248 38.07                             127   -0.17 9  150 355 
 OCA  HZ I         248 45.70        29.1 0.22            126            150 355 
 ZAR  HZ EP        248 21.79                             119   -0.69 9  194 290 
 ZAR  HN ES        248 45.52                             119   -0.47 9  194 290 
 ZAR  HZ I         248 48.31        12.1 0.32            119            194 290 
 SML  HZ EP   1    248 26.32                             114   -0.27 6  232 336 
 SML  HN ES        248 53.67                             114    0.37 8  232 336 
 SML  HZ I         248 57.47        12.2 0.30            114            232 336 
 HEL  HZ EP        248 31.61                             111    0.46 8  268 253 
 HEL  HE ES        249  1.98                             111    0.56 8  268 253 
 HEL  HZ I         249  4.26         5.8 0.52            112            268 253 
                                                                                
