 2014  829 0339 40.8 L   6.831 -73.303139.1  RSN  4 0.4 1.3LRSN                1
 GAP=174        0.82       6.8     8.0  9.1 -0.1006E+02  0.2020E+02 -0.1610E+02E
 Epicentro: ZAPATOCA - SANTANDER                                               3
 ACTION:UPD 14-09-15 21:54 OP:nd   STATUS:               ID:20140829033940 L   I
 OLDACT:REG 14-08-29 13:16 OP:fm   STATUS:               ID:20140829033810     3
 2014-08-29-0338-10M.COL___272                                                 6
 STAT SP IPHASW D HRMM SECON CODA AMPLIT PERI AZIMU VELO AIN AR TRES W  DIS CAZ7
 BAR2 SZ ES   1    340 14.09                             168   -0.50 7 29.5 153 
 BAR2 SZ I         340 15.34         4.4 0.24            172           29.5 153 
 BRR  HZ EP        340  0.80                             157    0.4310 54.5 304 
 BRR  HN ES        340 15.93                             157    0.3210 54.5 304 
 BRR  HZ I         340 18.81         3.9 0.18            150           54.5 304 
 PTB  HZ EP   1    340  5.65                             134   -0.13 7  132 256 
 PTB  HN ES        340 25.00                             134   -0.2510  132 256 
 PTB  HZ I         340 32.45         1.9 0.34            131            132 256 
 SML  HN ES   1    340 42.98                             117   -0.46 6  234 339 
 SML  HZ I         340 49.05         2.3 0.28            117            234 339 
                                                                                
