 2016  329 0419 41.6 L   6.124 -73.889 99.8  RSN  4 0.1 0.9LRSN                1
 GAP=110        0.41       2.2     1.6  4.2  0.3063E+00 -0.4393E+00 -0.7006E+00E
 Epicentro: EL PENON - SANTANDER                                               3
 ACTION:UPD 16-05-13 21:28 OP:cam  STATUS:               ID:20160329041941 L   I
 OLDACT:REG 16-03-29 13:03 OP:drio STATUS:               ID:20160329041744     3
 2016-03-29-0417-44M.COL___310                                                 6
 STAT SP IPHASW D HRMM SECON CODA AMPLIT PERI AZIMU VELO AIN AR TRES W  DIS CAZ7
 SPBC HZ EP        419 57.11                             149   -0.0110 56.0 201 
 SPBC HE ES        420  9.31                             149    0.1110 56.0 201 
 SPBC HZ I         420 10.74         3.4 0.24            153           56.0 201 
 PTB  HZ EP        419 58.74                             139    0.1410 77.8 306 
 PTB  HN ES        420 11.66                             139   -0.1710 77.8 306 
 PTB  HZ I         420 15.13         1.4 0.18            141           77.8 306 
 RUS  HZ EP        420  0.42                             135   -0.1010 92.8 106 
 RUS  HN ES        420 15.15                             135   -0.1010 92.8 106 
 RUS  HZ I         420 15.84         1.9 0.28            139           92.8 106 
 BAR2 EZ ES        420 14.92                             134    0.1310 93.7  56 
 BAR2 EZ I         420 16.38         2.9 0.28            137           93.7  56 
                                                                                
