 2017 1129 0443 45.1 L   6.788 -73.155137.6  RSN 12 0.5 1.6LRSN                1
 GAP=157        1.20       3.4     4.2  6.7  0.2121E+01  0.6477E+01  0.9545E+00E
 Epicentro: LOS SANTOS - SANTANDER                                             3
 ACTION:UPD 17-12-12 20:01 OP:rebc STATUS:               ID:20171129044345 L   I
 OLDACT:DUP 17-11-29 15:15 OP:dhb  STATUS:               ID:20171129043742d    3
 OLDACT:DUP 17-11-29 14:54 OP:dhb  STATUS:               ID:20171129043741d    3
 OLDACT:REG 17-11-29 12:21 OP:dhb  STATUS:               ID:20171129043740     3
 2017-11-29-0438-00M.COL___492                                                 6
 STAT SP IPHASW D HRMM SECON CODA AMPLIT PERI AZIMU VELO AIN AR TRES W  DIS CAZ7
 BAR2 EZ EP        444  3.58                             171   -0.1010 21.9 188 
 BAR2 EZ ES        444 18.31                             171    0.1110 21.9 188 
 BAR2 EZ I         444 19.86        11.8 0.26            167           21.9 188 
 RUS  HZ EP        444  7.87                             143   -0.0610 99.4 175 
 RUS  HN ES        444 26.33                             143    0.5710 99.4 175 
 RUS  HZ I         444 27.41         5.1 0.28            142           99.4 175 
 PTB  HZ EP        444 10.28                             131   -0.98 9  146 259 
 PTB  HN ES        444 31.49                             131   -0.20 9  146 259 
 PTB  HZ I         444 35.86         2.9 0.26            130            146 259 
 OCA  HZ EP        444 13.42                             128    0.56 9  161 354 
 OCA  HE ES        444 34.88                             128    0.33 9  161 354 
 OCA  HZ I         444 37.98        14.4 0.52            131            161 354 
 SPBC HZ EP        444 12.79                             128    0.01 9  162 219 
 SPBC HN ES        444 34.41                             128   -0.00 9  162 219 
 SPBC HZ I         444 41.22         6.7 0.22            127            162 219 
 YPLC HZ EP        444 14.14                             125   -0.07 9  176 151 
 YPLC HN ES        444 36.49                             125   -0.46 9  176 151 
 YPLC HZ I         444 43.61         2.9 0.36            126            176 151 
 ZAR  HZ EP        444 16.89                             121   -0.05 9  204 293 
 ZAR  HE ES        444 41.58                             121   -0.22 9  204 293 
 ZAR  HZ I         444 46.37         5.3 0.34            122            204 293 
 NOR  HZ EP        444 19.71                             117   -0.45 8  233 235 
 NOR  HN ES        444 47.18                             117   -0.35 8  233 235 
 NOR  HZ I         444 53.87         2.7 0.12            117            233 235 
 CHI  HZ EP        444 21.01                             116   -1.14 8  247 195 
 CHI  HE ES        444 51.35                             116    0.27 8  247 195 
 CHI  HZ I         445  3.37         1.9 0.56            116            247 195 
 HEL  HZ EP        444 25.05                             113    0.33 8  271 256 
 HEL  HN ES        444 55.98                             113    0.32 8  271 256 
 HEL  HZ I         445  3.93         2.0 0.30            114            271 256 
 GUY2CHZ EP        444 29.08                             111    0.96 7  300 235 
 GUY2CHE ES   4    445  6.13                             111    4.42 0  300 235 
 GUY2CHZ I         445 12.00         1.6 0.48                           300 235 
 PRA  HZ EP        444 38.17                             105    0.05 6  390 210 
 PRA  HE ES        445 21.17                             105    1.67 6  390 210 
 PRA  HZ I         445 26.93         1.7 0.30            106            390 210 
                                                                                
