 2015 1229 0048 20.3 L   6.755 -73.147143.4  RSN  6 0.4 1.3LRSN                1
 GAP=138        0.96       4.1     4.9  6.8 -0.2203E+01  0.4048E+01  0.5315E+01E
 Epicentro: LOS SANTOS - SANTANDER                                             3
 ACTION:UPD 16-02-04 15:08 OP:cam  STATUS:               ID:20151229004820 L   I
 OLDACT:UP  15-12-29 15:24 OP:ak   STATUS:               ID:20151229003747     3
 OLDACT:REG 15-12-29 12:41 OP:ak   STATUS:               ID:20151229003747     3
 2015-12-29-0037-47M.COL___338                                                 6
 STAT SP IPHASW D HRMM SECON CODA AMPLIT PERI AZIMU VELO AIN AR TRES W  DIS CAZ7
 BAR2 EZ EP        048 39.46                             172   -0.1510 18.5 192 
 BAR2 EZ ES        048 54.40                             172   -0.2310 18.5 192 
 BAR2 EZ I         048 55.81         7.4 0.22            172           18.5 192 
 BRR  HZ EP        048 41.88                             151    0.5010 73.5 302 
 BRR  HN ES        048 58.33                             151    0.5510 73.5 302 
 PAM  EZ EP        048 42.81                             149    0.2510 81.4  37 
 PAM  EN ES        048 59.56                             149   -0.3210 81.4  37 
 PAM  EZ I         049  2.26         3.0 0.52            151           81.4  37 
 RUS  HZ EP        048 43.55                             145    0.0310 95.7 176 
 RUS  HE ES        049  1.59                             145    0.0010 95.7 176 
 RUS  HZ I         049  3.65         1.9 0.44            146           95.7 176 
 PTB  HZ EP        048 46.25                             132   -0.78 9  147 261 
 PTB  HN ES        049  7.57                             132   -0.27 9  147 261 
 PTB  HZ I         049 10.22         3.6 0.11            133            147 261 
 CHI  HZ EP   2    048 57.50                             117    0.11 4  244 195 
 CHI  HE ES        049 26.69                             117    0.40 8  244 195 
                                                                                
