 2012 1129 0446 49.8 L   6.187 -73.712107.9  RSN 10 0.4 2.1LRSN                1
 GAP=115        0.98       2.8     3.1  6.7  0.1061E+01  0.6171E+01 -0.2604E+01E
 Epicentro: LANDAZURI - SANTANDER                                              3
 ACTION:UPD 12-12-05 15:36 OP:}ep  STATUS:               ID:20121129044649 L   I
 2012-11-29-0440-00M.COL___236                                                 6
 STAT SP IPHASW D HRMM SECON CODA AMPLIT PERI AZIMU VELO AIN AR TRES W  DIS CAZ7
 BAR2 SZ EP        447  7.75                             143    0.2010 73.7  53 
 BAR2 SZ ES        447 21.36                             143   -0.0210 73.7  53 
 BAR2 SZ I         447 22.50        88.4 0.40                          73.7  53 
 RUS  HZ IP     D  447  7.90                             142   -0.2410 76.9 115 
 RUS  HN ES        447 22.14                             142   -0.2910 76.9 115 
 RUS  HN I         447 25.97         5.4 0.44                          76.9 115 
 PTB  HZ IP     C  447  8.29                             137   -0.3210 91.1 295 
 PTB  HN ES        447 23.37                             137    0.1010 91.1 295 
 PTB  HN I         447 26.05        37.9 0.20                          91.1 295 
 GIR2 SZ EP        447 10.95                             130    0.1310  114  30 
 GIR2 SZ I         447 28.89         6.4 0.14                           114  30 
 PAM  SZ EP        447 17.05                             118    0.12 9  170  41 
 PAM  SN ES        447 37.84                             118   -0.23 9  170  41 
 PAM  SN I         447 40.67         8.2 0.20                           170  41 
 CHI  HZ EP        447 17.37                             117    0.25 9  172 181 
 CHI  HN ES        447 38.67                             117    0.25 9  172 181 
 CHI  HN I         447 40.54        11.5 0.24                           172 181 
 ZAR  HZ EP        447 18.97                             114    0.20 9  192 319 
 ZAR  HN ES        447 42.37                             114    1.01 9  192 319 
 ZAR  HN I         447 43.90        34.3 0.18                           192 319 
 OCA  HN ES        447 49.79                             110    0.26 8  231  11 
 OCA  HN I         447 57.69        30.1 0.22                           231  11 
 URE  HZ EP        447 26.61                             106   -0.57 8  265 311 
 URE  HN ES        447 55.25                             106   -1.07 8  265 311 
 URE  HN I         447 57.00        32.1 0.26                           265 311 
 SML  HE ES   1    448  1.86                             104    0.05 5  292 352 
 SML  HE I         448  4.30        16.5 0.10                           292 352 
                                                                                
