 2016  129 0535  4.3 L   6.867 -73.170145.6  RSN 11 0.3 1.8LRSN                1
 GAP=130        0.73       2.0     3.0  4.7 -0.6696E+00  0.4407E+01  0.1192E+00E
 Epicentro: ZAPATOCA - SANTANDER                                               3
 ACTION:UPD 16-03-09 23:29 OP:cam  STATUS:               ID:20160129053504 L   I
 OLDACT:REG 16-01-29 14:28 OP:cara STATUS:               ID:20160129052759     3
 2016-01-29-0527-59S.COL___223                                                 6
 STAT SP IPHASW D HRMM SECON CODA AMPLIT PERI AZIMU VELO AIN AR TRES W  DIS CAZ7
 BAR2 EZ IP     C  535 24.04                             168   -0.0110 30.5 183 
 BAR2 EZ ES        535 39.65                             168    0.1710 30.5 183 
 BAR2 EZ I         535 40.68         7.4 0.56            168           30.5 183 
 PAM  EZ EP        535 26.29                             152    0.0410 73.6  45 
 PAM  EN ES        535 43.46                             152    0.0610 73.6  45 
 PAM  EZ I         535 44.69        10.1 0.26            155           73.6  45 
 RUS  HZ EP        535 28.29                             142   -0.2910  108 175 
 RUS  HN ES        535 47.49                             142   -0.0410  108 175 
 RUS  HZ I         535 49.20         3.2 0.32            143            108 175 
 PTB  HZ EP        535 30.44                             132   -0.71 9  147 256 
 PTB  HN ES        535 52.09                             132   -0.01 9  147 256 
 PTB  HZ I         535 54.51         9.7 0.62            131            147 256 
 OCA  HZ EP   4    535 32.87                             131    1.01 0  153 354 
 OCA  HE ES        535 53.11                             131   -0.26 9  153 354 
 OCA  HZ I         535 56.73        11.0 0.26            132            153 354 
 SPBC HZ EP        535 33.50                             128    0.33 9  167 217 
 SPBC HN ES        535 55.61                             128   -0.10 9  167 217 
 SPBC HZ I         536  2.67         9.8 0.26            128            167 217 
 ZAR  HE ES        536  1.46                             123    0.39 9  199 290 
 ZAR  HZ I         536  7.30        10.4 0.30            122            199 290 
 SML  HZ EP        535 40.67                             118    0.63 8  236 335 
 SML  HN ES        536  7.75                             118   -0.19 8  236 335 
 SML  HZ I         536 15.97         6.8 0.10            119            236 335 
 NOR  HN ES        536  8.15                             118   -0.15 8  237 233 
 NOR  HZ I         536 13.24         4.5 0.54            118            237 233 
 CHI  HZ EP        535 42.72                             116    0.04 8  255 194 
 CHI  HN ES        536 12.98                             116    0.35 8  255 194 
 CHI  HZ I         536 17.53         1.9 0.64            117            255 194 
 GUY2CHZ EP   4    535 49.48                             112    1.35 0  303 233 
 GUY2CHN ES   4    536 26.51                             112    4.17 0  303 233 
 GUY2CHZ I         536 32.43         5.4 0.48                           303 233 
                                                                                
