 2010  729 0016 57.4 L   6.750 -73.152154.8  RSN  4 0.3 1.2LRSN                1
 GAP=158        0.63       8.0    18.0 18.7  0.6665E+02 -0.2460E+03 -0.9633E+02E
 Epicentro: LOS SANTOS - SANTANDER                                             3
 ACTION:UPD 10-12-01 15:20 OP:pat  STATUS:               ID:20100729001657 L   I
 2010-07-29-0013-22S.COL___123                                                 6
 STAT SP IPHASW D HRMM SECON CODA AMPLIT PERI AZIMU VELO AIN AR TRES W  DIS CAZ7
 BRR  HZ EP   2    017 19.74                             153     0.1 5   73 303 
 BRR  HZ I         017 29.50         9.3 0.41                            73 303 
 BRR  HN ES   2    017 37.04                             153     0.0 5   73 303 
 RUS  HZ EP   2    017 21.71                             147     0.0 5   95 175 
 RUS  HN ES   2    017 40.54                             147    -0.1 5   95 175 
 GUE  SZ EP        017 23.14                             140    -0.210  122  12 
 GUE  SZ I         017 40.19         0.8 0.10                           122  12 
 GRA  SZ EP   2    017 24.69                             138     0.8 5  131  17 
 GRA  SZ I         017 46.98         1.5 0.31                           131  17 
                                                                                
