 2013  429 0230 55.6 L   6.805 -73.134143.9  RSN 12 0.5 2.3LRSN                1
 GAP=138        1.15       4.0     5.0  6.8  0.4870E+00  0.8243E+01 -0.3375E+01E
 Epicentro: LOS SANTOS - SANTANDER                                             3
 ACTION:UPD 13-05-22 14:41 OP:EP   STATUS:               ID:20130429023055 L   I
 2013-04-29-0230-00M.COL___248                                                 6
 STAT SP IPHASW D HRMM SECON CODA AMPLIT PERI AZIMU VELO AIN AR TRES W  DIS CAZ7
 BAR2 SZ EP        231 14.94                             170   -0.1310 24.1 193 
 BAR2 SZ ES        231 29.90                             170   -0.3110 24.1 193 
 BAR2 SZ I         231 30.70        17.6 0.34            167           24.1 193 
 GIR2 SZ EP        231 14.91                             167   -0.1810 31.0 348 
 GIR2 SZ ES   1    231 31.35                             167    1.10 7 31.0 348 
 BRR  HZ IP     C  231 16.70                             152    0.0510 72.1 298 
 BRR  HN ES        231 33.61                             152    0.5810 72.1 298 
 BRR  HN I         231 37.14        56.7 0.18            149           72.1 298 
 PAM  SZ EP        231 17.86                             151    0.2710 76.1  39 
 RUS  HZ EP        231 19.40                             143    0.1610  101 177 
 RUS  HN ES        231 37.25                             143   -0.4010  101 177 
 RUS  HN I         231 40.51        13.2 0.36            144            101 177 
 PTB  HZ EP   1    231 21.45                             131   -1.14 7  149 259 
 PTB  HN ES   1    231 42.85                             131   -0.76 7  149 259 
 PTB  HN I         231 47.88        33.5 0.16            130            149 259 
 OCA  HN ES   1    231 44.56                             129   -1.16 7  160 353 
 ZAR  HZ EP   1    231 28.58                             122    0.50 6  205 292 
 ZAR  HN ES        231 53.18                             122   -0.20 9  205 292 
 ZAR  HN I         231 58.88        28.7 0.42            122            205 292 
 NOR  HZ EP   1    231 31.59                             118    0.17 6  236 235 
 NOR  HN ES        231 59.83                             118    0.51 8  236 235 
 NOR  HN I         232  5.94        19.6 0.18            118            236 235 
 SML  HZ EP        231 32.71                             117    0.53 8  244 335 
 SML  HN ES        232  0.43                             117   -0.24 8  244 335 
 SML  HN I         232  4.11        28.3 0.28            118            244 335 
 HEL  HZ EP   1    231 36.33                             114    0.41 6  273 256 
 HEL  HN ES   1    232  7.45                             114    0.11 6  273 256 
 SJG  BN E         232 25.54                                           1463  31 
                                                                                
