 2015  129 0912  6.2 L   6.787 -73.167151.1  RSN  8 0.4 1.3LRSN                1
 GAP=134        1.04       4.8     5.6  7.4  0.6698E+01  0.1282E+01 -0.1075E+02E
 Epicentro: LOS SANTOS - SANTANDER                                             3
 ACTION:UPD 15-03-02 15:43 OP:nd   STATUS:               ID:20150129091206 L   I
 OLDACT:UP  15-01-29 16:45 OP:cam  STATUS:               ID:20150129090817     3
 OLDACT:REG 15-01-29 13:37 OP:cvam STATUS:               ID:20150129090817     3
 2015-01-29-0908-17M.COL___268                                                 6
 STAT SP IPHASW D HRMM SECON CODA AMPLIT PERI AZIMU VELO AIN AR TRES W  DIS CAZ7
 BAR2 EZ EP        912 26.48                             171   -0.0010 21.6 184 
 BAR2 EZ ES        912 41.39                             171   -0.8810 21.6 184 
 BAR2 EZ I         912 43.82         2.9 0.34            171           21.6 184 
 BRR  HN ES        912 45.41                             154    0.6210 69.8 300 
 PAM  SZ EP        912 29.39                             151    0.2110 80.0  40 
 PAM  SZ I         912 48.82         3.4 0.58            141           80.0  40 
 RUS  HN ES        912 49.79                             145    0.4810 99.4 175 
 PTB  HZ EP        912 33.04                             134   -0.38 9  145 259 
 PTB  HN ES        912 54.44                             134   -0.18 9  145 259 
 PTB  HZ I         913  0.27         1.6 0.18            135            145 259 
 SPBC HZ EP        912 35.03                             131    0.12 9  161 219 
 ZAR  HN ES        913  4.48                             124    0.16 9  202 293 
 SML  HZ EP        912 43.05                             118   -0.15 8  244 336 
 SML  HN ES        913 11.96                             118   -0.08 8  244 336 
 SML  HZ I         913 18.75         3.1 0.26            115            244 336 
                                                                                
