 2015 1029 0749 23.8 L   6.866 -73.298124.8  RSN  6 0.5 1.5LRSN                1
 GAP=158        1.08       4.1     6.1  7.7  0.7705E+01  0.9367E+01 -0.1939E+01E
 Epicentro: BETULIA - SANTANDER                                                3
 ACTION:UPD 15-12-22 20:43 OP:cam  STATUS:               ID:20151029074923 L   I
 OLDACT:UP  15-10-29 18:08 OP:mh   STATUS:               ID:20151029074735     3
 OLDACT:UP  15-10-29 16:59 OP:mh   STATUS:               ID:20151029074735     3
 OLDACT:UP  15-10-29 16:59 OP:mh   STATUS:               ID:20151029074735     3
 OLDACT:REG 15-10-29 12:57 OP:cara STATUS:               ID:20151029074735     3
 2015-10-29-0747-35M.COL___313                                                 6
 STAT SP IPHASW D HRMM SECON CODA AMPLIT PERI AZIMU VELO AIN AR TRES W  DIS CAZ7
 BAR2 EZ EP        749 41.62                             165    0.4410 32.8 157 
 BAR2 EZ ES        749 54.37                             165   -0.3610 32.8 157 
 BRR  HZ I         749 42.05         7.1 0.20            148           52.9 300 
 BRR  HZ EP        749 42.07                             155    0.4110 52.9 300 
 BRR  HN ES        749 56.20                             155    0.5910 52.9 300 
 RUS  HZ EP        749 46.48                             136    0.1410  110 168 
 RUS  HN ES        750  3.85                             136   -0.0710  110 168 
 RUS  HZ I         750  5.45         2.2 0.40            121            110 168 
 OCA  HZ EP   1    749 48.97                             126   -0.75 7  152 359 
 OCA  HN ES   1    750  9.34                             126   -0.61 7  152 359 
 OCA  HZ I         750 10.90        11.3 0.20            114            152 359 
 SPBC HZ EP   1    749 50.56                             125    0.19 7  159 213 
 SPBC HN ES        750 10.37                             125   -0.73 9  159 213 
 SPBC HZ I         750 14.29         3.5 0.26            112            159 213 
 ZAR  HZ EP        749 53.32                             120    0.32 9  186 292 
 ZAR  HN ES        750 15.50                             120   -0.28 9  186 292 
 ZAR  HZ I         750 21.30         3.3 0.36            109            186 292 
                                                                                
