 2010  129 0408 43.2 L   6.283 -73.917 98.0  RSN  4 0.5 1.5LRSN                1
 GAP=159        0.95      13.8     9.2 18.7 -0.1031E+03  0.1169E+03 -0.1349E+03E
 Epicentro: CIMITARRA - SANTANDER                                              3
 ACTION:UP  10-08-24 09:46 OP:vdl  STATUS:               ID:20100129040843 L   I
 2010-01-29-0359-50S.COL___094                                                 6
 STAT SP IPHASW D HRMM SECON CODA AMPLIT PERI AZIMU VELO SNR AR TRES W  DIS CAZ7
 BAR2 SZ EP   1    4 9  1.04                             134    -0.1 8   88  67 
 BAR2 SZ ES   1    4 9 15.02                             134    -0.2 8   88  67 
 HEL  HZ EP        4 9 10.03                             114    -0.610  179 267 
 HEL  HN ES   2    4 9 32.79                             114     0.7 5  179 267 
 HEL  HZ I         4 9 39.29         3.7 0.77                           179 267 
 GUE  SZ EP        4 9 13.83                             111     0.510  203  33 
 GUE  SZ ES   2    4 9 36.87                             111     0.0 5  203  33 
 RREF HN ES   2    4 9 42.12                             109     1.0 5  220 226 
                                                                                
