 2016 1029 0225 49.2 L   6.791 -73.117149.0  RSN  9 0.7 1.9LRSN                1
 GAP=122        1.38       5.4     6.3  8.0  0.4698E+00  0.4843E+01  0.1866E+02E
 Epicentro: LOS SANTOS - SANTANDER                                             3
 ACTION:UPD 16-11-09 19:24 OP:rebc STATUS:               ID:20161029022549 L   I
 OLDACT:DUP 16-10-29 16:27 OP:cog  STATUS:               ID:20161029021744d    3
 2016-10-29-0218-00M.COL___337                                                 6
 STAT SP IPHASW D HRMM SECON CODA AMPLIT PERI AZIMU VELO AIN AR TRES W  DIS CAZ7
 BAR2 EZ EP        226  8.86                             171   -0.3410 23.1 198 
 BAR2 EZ ES        226 24.18                             171   -0.6310 23.1 198 
 BAR2 EZ I         226 26.97        22.1 0.30            169           23.1 198 
 BRR  HZ EP        226 10.82                             152   -0.0610 74.5 298 
 BRR  HE ES        226 27.78                             152   -0.0110 74.5 298 
 BRR  HZ I         226 31.06        11.5 0.28            152           74.5 298 
 PAM  EZ EP        226 12.08                             152    0.4010 76.2  37 
 PAM  EE ES        226 29.69                             152    0.4710 76.2  37 
 PAM  EZ I         226 32.25        10.7 0.32            156           76.2  37 
 RUS  HZ EP        226 13.35                             145    0.1710 99.4 178 
 RUS  HN ES        226 32.32                             145    0.4410 99.4 178 
 RUS  HZ I         226 33.23         6.6 0.30            146           99.4 178 
 PTB  HZ EP        226 16.15                             132   -0.54 9  151 259 
 PTB  HE ES        226 37.69                             132   -0.45 9  151 259 
 PTB  HZ I         226 43.72        13.2 0.82            132            151 259 
 CHI  HZ EP        226 27.62                             118    0.56 8  248 196 
 CHI  HE ES        226 57.59                             118    1.00 8  248 196 
 CHI  HZ I         227  1.67         4.5 0.56            119            248 196 
 GUY2CHZ EP        226 34.21                             113    1.03 7  303 235 
 GUY2CHN ES   3    227 10.00                             113    2.51 2  303 235 
 GUY2CHZ I         227 15.52         5.0 0.62                           303 235 
 PTGC HZ EP        226 32.29                             112   -0.67 7  307 159 
 PTGC HN ES        227  5.86                             112   -1.23 7  307 159 
 PRA  HZ EP        226 41.74                             107   -1.17 6  393 210 
 PRA  HE ES        227 25.34                             107    0.54 6  393 210 
 PRA  HZ I         227 31.43         5.0 0.38            108            393 210 
                                                                                
