 2017  529 0150  9.2 L   6.756 -73.175148.7  RSN  9 0.5 1.5LRSN                1
 GAP=182        0.75       5.8     6.3  5.8  0.2898E+02 -0.5773E+01 -0.3495E+01E
 Epicentro: LOS SANTOS - SANTANDER                                             3
 ACTION:UPD 17-06-16 13:39 OP:jn   STATUS:               ID:20170529015009 L   I
 OLDACT:UP  17-05-29 14:59 OP:and  STATUS:               ID:20170529014743     3
 OLDACT:UP  17-05-29 14:58 OP:and  STATUS:               ID:20170529014743     3
 OLDACT:UP  17-05-29 14:57 OP:and  STATUS:               ID:20170529014743     3
 OLDACT:UP  17-05-29 14:56 OP:and  STATUS:               ID:20170529014743     3
 OLDACT:UP  17-05-29 14:56 OP:and  STATUS:               ID:20170529014743     3
 OLDACT:UP  17-05-29 14:55 OP:and  STATUS:               ID:20170529014743     3
 OLDACT:UP  17-05-29 14:55 OP:and  STATUS:               ID:20170529014743     3
 OLDACT:UP  17-05-29 14:54 OP:and  STATUS:               ID:20170529014743     3
 OLDACT:UP  17-05-29 14:54 OP:and  STATUS:               ID:20170529014743     3
 OLDACT:UP  17-05-29 14:54 OP:and  STATUS:               ID:20170529014743     3
 OLDACT:REG 17-05-29 12:26 OP:and  STATUS:               ID:20170529014743     3
 2017-05-29-0148-00M.COL___341                                                 6
 STAT SP IPHASW D HRMM SECON CODA AMPLIT PERI AZIMU VELO AIN AR TRES W  DIS CAZ7
 BRR  HZ EP     C  150 30.58                             153   -0.0710 70.9 303 
 BRR  HN ES        150 47.21                             153   -0.1610 70.9 303 
 BRR  HZ I         150 51.30         7.2 0.21            151           70.9 303 
 RUS  HZ EP        150 33.38                             146    0.4610 96.1 174 
 RUS  HN ES        150 51.67                             146    0.2410 96.1 174 
 RUS  HZ I         150 55.44         2.0 0.32            145           96.1 174 
 PTB  HZ EP        150 36.11                             133    0.07 9  144 260 
 PTB  HN ES   2    150 56.20                             133   -0.78 5  144 260 
 PTB  HZ I         150 57.49         1.9 0.25            132            144 260 
 SPBC HN ES   2    150 59.03                             131   -0.33 5  157 219 
 SPBC HZ I         151  7.27         3.4 0.14            130            157 219 
 YPLC HZ EP        150 39.22                             128    0.26 9  174 150 
 YPLC HE ES        151  1.82                             128   -0.35 9  174 150 
 YPLC HZ I         151  3.21         3.1 0.32            130            174 150 
 ZAR  HZ EP        150 41.75                             123    0.03 9  203 294 
 ZAR  HN ES   2    151  7.56                             123    0.48 4  203 294 
 ZAR  HZ I         151 15.40         5.3 0.40            123            203 294 
 CHI  HN ES   3    151 17.06                             118    1.52 2  243 195 
 PTGC HZ EP        150 52.13                             112   -0.69 7  305 158 
 PTGC HN ES   3    151 25.28                             112   -1.56 2  305 158 
 SJC  HZ EP   9    151  3.36                             106   -1.77 0  412 328 
 SJC  HN ES   1    151 46.46                             106   -0.52 4  412 328 
 SJC  HZ I         151 50.33         2.5 0.80            108            412 328 
                                                                                
