 2017  429 0450 57.0 L   6.267 -73.665106.2  RSN  5 0.2 1.2LRSN                1
 GAP=217        0.67       3.1     5.3  5.7 -0.2112E+01 -0.1354E+01 -0.4039E+01E
 Epicentro: SANTA HELENA DEL OPON - SANTANDER                                  3
 ACTION:UPD 17-05-30 21:17 OP:jn   STATUS:               ID:20170429045057 L   I
 OLDACT:UP  17-04-29 16:34 OP:and  STATUS:               ID:20170429044437     3
 OLDACT:UP  17-04-29 16:34 OP:and  STATUS:               ID:20170429044437     3
 OLDACT:UP  17-04-29 16:34 OP:and  STATUS:               ID:20170429044437     3
 OLDACT:UP  17-04-29 16:33 OP:and  STATUS:               ID:20170429044437     3
 OLDACT:UP  17-04-29 16:32 OP:and  STATUS:               ID:20170429044437     3
 OLDACT:UP  17-04-29 16:32 OP:and  STATUS:               ID:20170429044437     3
 OLDACT:REG 17-04-29 12:44 OP:and  STATUS:               ID:20170429044437     3
 2017-04-29-0448-00M.COL___368                                                 6
 STAT SP IPHASW D HRMM SECON CODA AMPLIT PERI AZIMU VELO AIN AR TRES W  DIS CAZ7
 SPBC HN ES        451 29.00                             139   -0.0110 81.5 214 
 PTB  HZ EP   9    451 14.36                             136   -1.44 0 92.5 289 
 PTB  HN ES        451 28.50                             137   -0.5010 92.5 289 
 PTB  HZ I         451 35.77         2.0 0.34            130           92.5 289 
 BRR  HZ EP        451 15.64                             135   -0.1810 93.1 357 
 BRR  HE ES        451 30.69                             135    0.2110 93.1 357 
 ZAR  HZ EP        451 25.26                             114   -0.31 9  189 316 
 ZAR  HE ES        451 48.04                             114    0.20 9  189 316 
 ZAR  HZ I         451 51.83         4.1 0.34            113            189 316 
 CBOC HZ EP   2    451 34.71                             106    0.38 4  264 260 
 CBOC HN ES   3    452  3.39                             106   -0.03 2  264 260 
                                                                                
