 2011  729 0649 55.1 L   6.784 -73.117138.4  RSN  7 0.3 2.0LRSN                1
 GAP=141        0.52       2.8     5.2  5.4 -0.2967E+01 -0.4185E+01  0.5474E+00E
 Epicentro: LOS SANTOS - SANTANDER                                             3
 ACTION:UPD 12-07-25 14:04 OP:epov STATUS:               ID:20110729064955 L   I
 2011-07-29-0648-21S.COL___138                                                 6
 STAT SP IPHASW D HRMM SECON CODA AMPLIT PERI AZIMU VELO AIN AR TRES W  DIS CAZ7
 BAR2 SZ IP        650 13.73                             170   -0.0510 22.4 199 
 BAR2 SZ I         650 14.05        27.4 0.09                          22.4 199 
 BAR2 SZ ES   2    650 28.22                             170   -0.17 5 22.4 199 
 BRR  HZ EP   1    650 15.71                             150    0.08 7 74.8 299 
 BRR  HZ I         650 16.03        37.8 0.10                          74.8 299 
 BRR  HN ES   1    650 31.81                             150    0.13 7 74.8 299 
 PAM  SZ EP   1    650 16.76                             150    0.30 7 76.8  37 
 PAM  SE ES   2    650 33.33                             150    0.18 5 76.8  37 
 RUS  HZ EP   1    650 17.76                             143   -0.19 7 98.6 178 
 RUS  HZ I         650 18.39         7.2 0.24                          98.6 178 
 RUS  HN ES   2    650 35.78                             143   -0.02 5 98.6 178 
 BRI  SZ ES   2    650 37.05                             140    0.62 5  109  19 
 GRA  SZ EP   1    650 19.94                             135    0.22 7  127  16 
 GRA  SZ ES   1    650 38.39                             135   -0.56 7  127  16 
 GRA  SZ I         650 41.45        12.5 0.43                           127  16 
 OCA  SZ EP   1    650 22.91                             127   -0.10 7  162 352 
 OCA  SZ ES   2    650 44.52                             127   -0.30 5  162 352 
 OCA  SZ I         650 56.34        12.0 0.46                           162 352 
                                                                                
