 2011  829 0702 14.6 L   6.771 -73.146141.8  RSN  4 0.3 1.3LRSN                1
 GAP=185        0.56       5.6    10.8  5.9  0.3769E+02 -0.4954E+01  0.1265E+01E
 Epicentro: LOS SANTOS - SANTANDER                                             3
 ACTION:UPD 12-07-13 15:54 OP:ep   STATUS:               ID:20110829070214 L   I
 2011-08-29-0658-32S.COL___161                                                 6
 STAT SP IPHASW D HRMM SECON CODA AMPLIT PERI AZIMU VELO AIN AR TRES W  DIS CAZ7
 BAR2 SZ EP   1    7 2 33.43                             171   -0.26 7 20.2 191 
 BAR2 SZ I         7 2 39.54         7.3 0.70                          20.2 191 
 BAR2 SZ ES   1    7 2 48.25                             171   -0.34 7 20.2 191 
 GIR2 SZ EP   1    7 2 33.92                             166    0.03 7 34.4 351 
 GIR2 SZ ES   1    7 2 49.19                             166    0.25 7 34.4 351 
 BRR  HZ EP   1    7 2 35.12                             151   -0.29 7 72.7 301 
 BRR  HN ES   1    7 2 51.84                             151    0.20 7 72.7 301 
 BRR  HZ I         7 2 54.50         3.2 0.30                          72.7 301 
 RUS  HZ EP   1    7 2 38.14                             144    0.40 7 97.4 176 
 RUS  HZ I         7 2 55.08         2.4 0.61                          97.4 176 
 RUS  HE ES   1    7 2 55.80                             144    0.02 7 97.4 176 
                                                                                
