 2012  429 0234  0.4 L   6.773 -73.151146.0  RSN 11 0.5 2.3LRSN                1
 GAP=137        1.05       4.1     5.3  7.3 -0.3534E+00  0.1069E+02  0.5942E+01E
 Epicentro: LOS SANTOS - SANTANDER                                             3
 ACTION:UPD 12-07-05 11:56 OP:tino STATUS:               ID:20120429023400 L   I
 2012-04-29-0230-00M.COL___189                                                 6
 STAT SP IPHASW D HRMM SECON CODA AMPLIT PERI AZIMU VELO AIN AR TRES W  DIS CAZ7
 BAR2 SZ EP        234 19.83                             172    -0.110   20 190 
 BAR2 SZ ES   1    234 35.17                             172    -0.1 7   20 190 
 BAR2 SZ I         234 36.60        90.6 0.18                            20 190 
 BRR  HZ EP        234 21.69                             152     0.110   72 301 
 BRR  HE ES   1    234 38.85                             152     0.7 7   72 301 
 BRR  HZ I         234 40.01        42.1 0.12                            72 301 
 PAM  SZ EP   1    234 22.65                             150    -0.1 7   80  39 
 PAM  SN ES   1    234 39.92                             150    -0.3 7   80  39 
 RUS  HZ EP        234 23.73                             145    -0.210   98 176 
 RUS  HN ES   1    234 42.31                             145     0.0 7   98 176 
 RUS  HZ I         234 44.43        24.0 0.47                            98 176 
 PTB  HZ EP   1    234 26.15                             132    -1.1 7  147 260 
 PTB  HN ES   1    234 47.82                             132    -0.4 7  147 260 
 PTB  HZ I         234 56.97        15.9 0.37                           147 260 
 OCA  SZ EP   1    234 28.88                             129    -0.1 7  163 353 
 OCA  SZ ES   1    234 52.31                             129     1.0 7  163 353 
 ZAR  HZ EP   1    234 32.53                             122    -0.4 6  205 293 
 ZAR  HN ES   1    234 57.79                             122    -0.5 6  205 293 
 ZAR  HZ I         235  4.50        20.2 0.15                           205 293 
 CHI  HZ EP   1    234 37.92                             117     0.2 6  246 195 
 CHI  HZ I         234 38.49        11.5 0.18                           246 195 
 CHI  HN ES   1    235  7.43                             117     0.5 6  246 195 
 HEL  HZ EP   1    234 40.85                             115     0.4 6  271 256 
 HEL  HN ES   1    235 11.68                             115     0.0 6  271 256 
 HEL  HZ I         235 19.38        12.7 0.25                           271 256 
 TOL  SZ EP   1    234 49.39                             109     1.0 5  341 225 
 PRA  HZ EP   1    234 53.64                             107     0.1 4  389 210 
 PRA  HE ES   1    235 35.91                             107     0.9 4  389 210 
                                                                                
