 2014  829 0810  3.0 L   6.819 -73.154144.6  RSN 11 0.5 1.8LRSN                1
 GAP= 70        1.37       4.4     5.2  7.3 -0.6814E+01 -0.1074E+01  0.2220E+01E
 Epicentro: LOS SANTOS - SANTANDER                                             3
 ACTION:UPD 14-09-15 21:54 OP:nd   STATUS:               ID:20140829081003 L   I
 OLDACT:REG 14-08-29 13:44 OP:fm   STATUS:               ID:20140829080810     3
 2014-08-29-0808-10M.COL___278                                                 6
 STAT SP IPHASW D HRMM SECON CODA AMPLIT PERI AZIMU VELO AIN AR TRES W  DIS CAZ7
 BAR2 SZ EP        810 22.90                             170    0.3510 25.2 187 
 BAR2 SZ ES        810 37.52                             170   -0.2610 25.2 187 
 BAR2 SZ I         810 40.68        14.0 0.40            171           25.2 187 
 BRR  HZ IP     D  810 24.70                             153    0.7610 69.4 297 
 BRR  HZ I         810 24.98        11.6 0.28            152           69.4 297 
 BRR  HN ES        810 40.69                             153    0.4310 69.4 297 
 PAM  SZ IP     C  810 25.81                             151    0.7610 76.4  41 
 PAM  SZ I         810 26.00        22.8 0.22            152           76.4  41 
 PAM  SE ES        810 41.52                             151   -0.7110 76.4  41 
 RUS  HZ EP        810 26.65                             143   -0.1610  103 176 
 RUS  HZ I         810 27.66         4.8 0.46            146            103 176 
 PTB  HZ EP        810 29.55                             132   -0.30 9  147 258 
 PTB  HE ES        810 50.21                             132   -0.56 9  147 258 
 PTB  HZ I         810 56.35        10.4 0.44            133            147 258 
 TAM  HZ EP        810 31.08                             130    0.35 9  156 106 
 OCA  HZ EP        810 29.63                             130   -1.40 9  158 353 
 OCA  HN ES        810 53.62                             130    0.74 9  158 353 
 OCA  HZ I         810 59.92         8.4 0.24            131            158 353 
 SPBC HZ EP        810 31.57                             128    0.04 9  164 218 
 SPBC HZ I         810 32.27        12.9 0.10            130            164 218 
 SPBC HN ES        810 53.57                             128   -0.19 9  164 218 
 SML  HZ EP        810 39.18                             117   -0.15 8  241 335 
 SML  HN ES        811  7.59                             117   -0.07 8  241 335 
 SOCV BZ EP        810 45.61                             112   -0.36 7  301  57 
 GUY2CHZ EP        810 46.82                             112    0.20 7  302 234 
 GUY2CHE ES        811 20.97                             112    0.33 7  302 234 
 GUY2CHZ I         811 31.51         3.0 0.50                           302 234 
                                                                                
