 2011 1229 0643 16.5 L   6.806 -73.156139.7  RSN 13 0.4 2.5LRSN                1
 GAP=113        0.83       2.9     3.7  5.2  0.7249E+00  0.4302E+01  0.3374E+01E
 Epicentro: LOS SANTOS - SANTANDER                                             3
 ACTION:UPD 12-07-13 16:19 OP:ep   STATUS:               ID:20111229064316 L   I
 2011-12-29-0640-00M.COL___187                                                 6
 STAT SP IPHASW D HRMM SECON CODA AMPLIT PERI AZIMU VELO AIN AR TRES W  DIS CAZ7
 BAR2 SZ IP        643 35.37                             170   -0.0410 23.8 187 
 BAR2 SZ ES   1    643 49.91                             170   -0.24 7 23.8 187 
 BAR2 SZ I         643 51.23        67.6 0.31                          23.8 187 
 GIR2 SZ EP   1    643 35.41                             167   -0.02 7 30.5 352 
 GIR2 SZ ES   1    643 50.19                             167    0.00 7 30.5 352 
 BRR  HZ EP        643 37.17                             152    0.2510 69.9 299 
 BRR  HE ES   1    643 53.71                             152    0.87 7 69.9 299 
 BRR  HZ I         643 58.33        75.9 0.14                          69.9 299 
 PAM  SZ EP        643 38.28                             149    0.1910 77.7  40 
 PAM  SE ES   1    643 54.78                             149   -0.15 7 77.7  40 
 PAM  SZ I         643 57.22        64.9 0.38                          77.7  40 
 RUS  HZ EP   1    643 39.42                             142   -0.29 7  101 175 
 RUS  HN ES   1    643 57.54                             142   -0.27 7  101 175 
 RUS  HZ I         643 59.76        59.1 0.29                           101 175 
 PTB  HZ EP   1    643 42.47                             131   -0.41 7  147 259 
 PTB  HN ES   1    644  2.59                             131   -0.87 7  147 259 
 OCA  SZ EP   1    643 44.08                             128   -0.19 7  160 354 
 OCA  SZ ES   1    644  5.29                             128   -0.64 7  160 354 
 OCA  SZ I         644  9.08        40.9 0.39                           160 354 
 YOP  SZ EP   1    643 46.27                             125    0.05 7  180 153 
 YOP  SE ES   1    644 10.06                             125    0.66 7  180 153 
 YOP  SZ I         644 13.10        36.3 0.36                           180 153 
 ZAR  HZ EP   1    643 48.24                             121   -0.18 6  203 292 
 ZAR  HN ES   1    644 14.00                             121    0.69 6  203 292 
 ZAR  HZ I         644 19.90        39.8 0.32                           203 292 
 NOR  SZ EP   1    643 51.97                             117    0.15 6  234 234 
 NOR  SN ES   1    644 19.18                             117   -0.19 6  234 234 
 CHI  HZ EP   1    643 53.92                             116    0.02 6  249 195 
 CHI  HN ES   1    644 23.16                             116    0.09 6  249 195 
 CHI  HZ I         644 26.44        13.1 0.30                           249 195 
 HEL  HZ EP   1    643 57.21                             114    0.91 6  271 256 
 HEL  HZ I         644 34.70        18.2 0.30                           271 256 
 PRA  HZ EP   1    644  9.00                             105   -0.81 4  392 209 
                                                                                
