 2012 1229 0700 44.8 L   6.894 -72.954186.5  RSN 15 0.5 3.0LRSN 3.3WRSN        1
 SPEC AVERAGE  MO 14.0 ST 11.3 OM  2.3 f0 4.07 R0.3889 AL 1.97 WI 31.9 MW  3.3 3
 SPEC SD       MO  0.2 ST  9.8 OM  0.3 f0 1.12 R0.1090 AL      WI      MW  0.1 3
 GAP=138        0.94       3.5     5.3  6.3 -0.1464E+01  0.6916E-01  0.2256E+00E
 Epicentro: GUACA - SANTANDER                                                  3
 SPEC VIL SH Z MO 14.3 ST 10.4 OM  2.3 f0 3.45 R0.4261 AL 3.93 WI 24.8 MW  3.5 3
 SPEC VIL SH Z T 7 2 6 K 0.000 GD  368 VS 4.20 DE 3.20 Q0300.0 QA 0.60 VS 4.20 3
 SPEC ZAR HH Z MO 14.0 ST 38.2 OM  2.1 f0 6.74 R0.2181 AL 1.56 WI 16.5 MW  3.2 3
 SPEC ZAR HH Z T 7 146 K 0.000 GD  288 VS 4.20 DE 3.20 Q0300.0 QA 0.60 VS 4.20 3
 SPEC RREFHH Z MO 14.1 ST 15.4 OM  2.1 f0 4.49 R0.3274 AL 2.75 WI 40.8 MW  3.3 3
 SPEC RREFHH Z T 7 210 K 0.000 GD  392 VS 4.20 DE 3.20 Q0300.0 QA 0.60 VS 4.20 3
 SPEC ROSCBH Z MO 14.0 ST  1.7 OM  2.1 f0 2.26 R0.6504 AL 1.84 WI 32.1 MW  3.3 3
 SPEC ROSCBH Z T 7 155 K 0.000 GD  330 VS 4.20 DE 3.20 Q0300.0 QA 0.60 VS 4.20 3
 SPEC PTB HH Z MO 14.0 ST 21.5 OM  2.2 f0 5.38 R0.2732 AL 1.33 WI 29.6 MW  3.3 3
 SPEC PTB HH Z T 7 135 K 0.000 GD  253 VS 4.20 DE 3.20 Q0300.0 QA 0.60 VS 4.20 3
 SPEC RUS HH Z MO 14.0 ST  7.3 OM  2.3 f0 3.66 R0.4016 AL 2.23 WI 20.4 MW  3.3 3
 SPEC RUS HH Z T 7 130 K 0.000 GD  217 VS 4.20 DE 3.20 Q0300.0 QA 0.60 VS 4.20 3
 SPEC HEL HH Z MO 14.0 ST 12.8 OM  2.1 f0 4.39 R0.3349 AL 1.93 WI 40.0 MW  3.3 3
 SPEC HEL HH Z T 7 156 K 0.000 GD  349 VS 4.20 DE 3.20 Q0300.0 QA 0.60 VS 4.20 3
 SPEC OCA HH Z MO 13.9 ST  6.9 OM  2.1 f0 4.03 R0.3648 AL 1.37 WI 33.2 MW  3.2 3
 SPEC OCA HH Z T 7 134 K 0.000 GD  241 VS 4.20 DE 3.20 Q0300.0 QA 0.60 VS 4.20 3
 SPEC ANILHH Z MO 13.9 ST  8.4 OM  1.9 f0 4.17 R0.3525 AL 1.93 WI 43.1 MW  3.2 3
 SPEC ANILHH Z T 7 216 K 0.000 GD  423 VS 4.20 DE 3.20 Q0300.0 QA 0.60 VS 4.20 3
 SPEC COD HH Z MO 13.6 ST  4.0 OM  1.6 f0 4.22 R0.3483 AL 1.76 WI 41.1 MW  3.0 3
 SPEC COD HH Z T 7 2 3 K 0.000 GD  388 VS 4.20 DE 3.20 Q0300.0 QA 0.60 VS 4.20 3
 SPEC CHI HH Z MO 13.7 ST  2.3 OM  1.8 f0 3.20 R0.4594 AL 1.85 WI 41.2 MW  3.1 3
 SPEC CHI HH Z T 7 151 K 0.000 GD  324 VS 4.20 DE 3.20 Q0300.0 QA 0.60 VS 4.20 3
 SPEC BAR2SH Z MO 14.3 ST  6.3 OM  2.6 f0 2.88 R0.5104 AL 1.21 WI 19.7 MW  3.5 3
 SPEC BAR2SH Z T 7 128 K 0.000 GD  191 VS 4.20 DE 3.20 Q0300.0 QA 0.60 VS 4.20 3
 ACTION:UPD 13-01-04 14:31 OP:ep   STATUS:               ID:20121229070044 L   I
 2012-12-29-0700-00M.COL___242                                                 6
 STAT SP IPHASW D HRMM SECON CODA AMPLIT PERI AZIMU VELO AIN AR TRES W  DIS CAZ7
 BAR2 SZ IP     D  7 1  9.80                             167    0.0910 41.9 217 
 BAR2 SZ ES   1    7 1 28.83                             167   -0.33 7 41.9 217 
 BAR2 SZ I         7 1 30.94       333.4 0.52                          41.9 217 
 BRR  HZ IP     C  7 1 11.71                             154    0.5010 87.0 286 
 BRR  HN ES   1    7 1 32.80                             154    0.96 7 87.0 286 
 BRR  HZ I         7 1 39.29       106.6 0.12                          87.0 286 
 RUS  HZ IP     C  7 1 13.65                             148    0.2610  112 187 
 RUS  HN ES   1    7 1 34.91                             148   -0.80 7  112 187 
 RUS  HZ I         7 1 36.66       224.1 0.28                           112 187 
 OCA  HZ EP   1    7 1 16.01                             139    0.01 7  154 345 
 OCA  HN ES   1    7 1 40.72                             139    0.36 7  154 345 
 OCA  HZ I         7 1 43.39        86.9 0.20                           154 345 
 PTB  HZ EP        7 1 16.86                             136   -0.33 9  171 257 
 PTB  HN ES   1    7 1 41.66                             136   -0.82 7  171 257 
 PTB  HZ I         7 1 45.43       112.0 0.50                           171 257 
 ZAR  HZ EP        7 1 21.53                             128   -0.18 8  220 288 
 ZAR  HN ES   1    7 1 50.68                             128    0.15 6  220 288 
 ZAR  HZ I         7 1 52.49       131.8 0.34                           220 288 
 CHI  HZ EP   1    7 1 26.77                             123    0.11 6  265 199 
 CHI  HN ES   1    7 1 58.79                             123   -0.55 6  265 199 
 CHI  HZ I         7 2  2.85        22.1 0.50                           265 199 
 ROSC BZ EP   1    7 1 27.68                             122    0.22 6  273 214 
 ROSC BN ES   1    7 2  1.52                             122    0.75 6  273 214 
 ROSC BZ I         7 2  7.79        44.5 0.40                           273 214 
 HEL  HZ EP   1    7 1 29.74                             120   -0.03 5  295 255 
 HEL  HN ES   1    7 2  3.88                             120   -0.99 5  295 255 
 HEL  HZ I         7 2  9.83        36.2 0.24                           295 255 
 URE  HZ EP   4    7 1 28.80                             119   -1.03 0  300 289 
 URE  HN ES   4    7 2  3.43                             119   -1.54 0  300 289 
 VIL  SN ES   1    7 2  8.56                             118   -0.17 5  318 195 
 SDV  BZ EP   1    7 1 33.65                             116   -0.45 5  337  49 
 SDV  BN ES   4    7 2 10.37                             116   -2.21 0  337  49 
 COD  HZ EP   1    7 1 33.30                             116   -0.87 5  341 351 
 COD  HN ES   4    7 2 10.02                             116   -2.69 0  341 351 
 COD  HZ I         7 2 16.98        10.1 0.20                           341 351 
 RREF HZ EP   1    7 1 35.43                             116   -0.02 5  345 230 
 RREF HN ES   1    7 2 15.46                             116    0.48 5  345 230 
 RREF HZ I         7 2 26.77        30.1 0.72                           345 230 
 MON  HZ EP   4    7 1 35.43                             114   -1.38 0  364 305 
 MON  HN ES   4    7 2 15.96                             114   -1.44 0  364 305 
 ANIL HZ EP   1    7 1 39.69                             113    0.79 5  380 226 
 ANIL HN ES   1    7 2 21.87                             113    0.75 5  380 226 
 ANIL HZ I         7 2 37.22        13.2 0.38                           380 226 
 SJC  HN ES   1    7 2 26.30                             112   -0.90 4  413 324 
                                                                                
