 2013  829 0913 12.7 L   6.813 -73.160147.3  RSN 10 0.4 2.3LRSN 2.9WRSN        1
 SPEC AVERAGE  MO 13.4 ST 25.4 OM  2.2 f0 7.68 R0.2451 AL 0.00 WI 24.6 MW  2.9 3
 SPEC SD       MO  0.4 ST 23.9 OM  0.4 f0 3.91 R1.0808 AL      WI      MW  0.3 3
 GAP= 70        0.99       3.4     3.2  5.7 -0.2148E+00  0.3109E+01  0.4762E+00E
 Epicentro: LOS SANTOS - SANTANDER                                             3
 SPEC ZAR HH N MO 13.5 ST 36.5 OM  1.7 f0 10.0 R0.1554 AL 0.00 WI 28.2 MW  2.9 3
 SPEC ZAR HH N T 914 9 K 0.000 GD  250 VS 4.20 DE 3.20 Q0300.0 QA 0.60 VS 4.20 3
 SPEC SPBCHH N MO 13.7 ST 64.0 OM  2.0 f0 10.0 R0.1554 AL 0.00 WI 25.2 MW  3.1 3
 SPEC SPBCHH N T 914 3 K 0.000 GD  219 VS 4.20 DE 3.20 Q0300.0 QA 0.60 VS 4.20 3
 SPEC NOR HH N MO 13.5 ST 40.3 OM  1.7 f0 10.0 R0.1554 AL 0.00 WI 35.3 MW  3.0 3
 SPEC NOR HH N T 91411 K 0.000 GD  276 VS 4.20 DE 3.20 Q0300.0 QA 0.60 VS 4.20 3
 SPEC PTB HH N MO 13.4 ST  7.2 OM  1.7 f0 6.19 R0.2511 AL 0.00 WI 28.8 MW  2.9 3
 SPEC PTB HH N T 91358 K 0.000 GD  208 VS 4.20 DE 3.20 Q0300.0 QA 0.60 VS 4.20 3
 SPEC PAM SH N MO 13.4 ST0.768 OM  1.8 f0 2.93 R0.5304 AL 0.00 WI 18.4 MW  2.9 3
 SPEC PAM SH N T 91351 K 0.000 GD  166 VS 4.20 DE 3.20 Q0300.0 QA 0.60 VS 4.20 3
 SPEC HEL HH N MO 13.4 ST  1.3 OM  1.5 f0 3.58 R0.4341 AL 0.00 WI 40.7 MW  2.9 3
 SPEC HEL HH N T 91422 K 0.000 GD  309 VS 4.20 DE 3.20 Q0300.0 QA 0.60 VS 4.20 3
 SPEC CHI HH N MO 13.6 ST  1.7 OM  1.7 f0 3.41 R0.4557 AL 0.00 WI 34.6 MW  3.0 3
 SPEC CHI HH N T 91417 K 0.000 GD  289 VS 4.20 DE 3.20 Q0300.0 QA 0.60 VS 4.20 3
 SPEC BAR2SH Z MO 13.0 ST  3.7 OM  1.4 f0 6.97 R0.2230 AL 0.00 WI 11.7 MW  2.6 3
 SPEC BAR2SH Z T 91347 K 0.000 GD  149 VS 4.20 DE 3.20 Q0300.0 QA 0.60 VS 4.20 3
 ACTION:UPD 14-01-14 09:08 OP:ep   STATUS:               ID:20130829091312 L   I
 OLDACT:UP  13-08-29 12:36 OP:jn   STATUS:               ID:20130829090840d    3
 OLDACT:DUP 13-08-29 12:12 OP:jn   STATUS:               ID:20130829090840d    3
 2013-08-29-0908-38M.COL___202                                                 6
 STAT SP IPHASW D HRMM SECON CODA AMPLIT PERI AZIMU VELO AIN AR TRES W  DIS CAZ7
 BAR2 SZ IP     C  913 32.60                             170    0.0510 24.6 186 
 BAR2 SZ ES        913 48.03                             170    0.0110 24.6 186 
 BAR2 SZ I         913 49.34        35.4 0.28            172           24.6 186 
 BRR  HN ES   1    913 51.70                             153    1.26 7 69.1 298 
 PAM  SZ EP        913 35.51                             151    0.4310 77.2  41 
 PAM  SN ES        913 52.56                             151    0.0410 77.2  41 
 PAM  SZ I         913 54.79        34.8 0.18            152           77.2  41 
 RUS  HZ EP     D  913 36.46                             144   -0.2710  102 175 
 RUS  HN ES        913 55.12                             144   -0.3410  102 175 
 RUS  HZ I         913 56.26        14.7 0.40            147            102 175 
 PTB  HZ EP        913 39.22                             133   -0.47 9  147 258 
 PTB  HN ES        914  0.12                             133   -0.62 9  147 258 
 PTB  HZ I         914  6.61        39.2 0.42            134            147 258 
 TAM  HZ EP        913 40.76                             130    0.08 9  157 105 
 TAM  HN ES        914  2.38                             130   -0.12 9  157 105 
 TAM  HZ I         914  8.54        16.2 0.52            134            157 105 
 OCA  HZ EP   1    913 41.12                             130    0.14 7  159 354 
 OCA  HN ES        914  2.48                             130   -0.56 9  159 354 
 OCA  HZ I         914 11.12        22.4 0.20            131            159 354 
 SPBC HZ EP        913 41.46                             129    0.11 9  163 218 
 SPBC HN ES        914  4.07                             129    0.39 9  163 218 
 SPBC HZ I         914 10.77        49.0 0.36            131            163 218 
 ZAR  HZ EP        913 45.31                             123    0.26 9  202 292 
 ZAR  HN ES        914 10.15                             123   -0.13 9  202 292 
 ZAR  HZ I         914 17.14        34.7 0.62            124            202 292 
 NOR  HZ EP        913 48.86                             119    0.37 8  234 234 
                                                                                
