 2016  229 0205  2.3 L   6.455 -73.317177.9  RSN  5 0.5 1.4LRSN                1
 GAP=213        1.07      10.7     9.5 13.3  0.6429E+02 -0.1513E+02 -0.5107E+02E
 Epicentro: SIMACOTA - SANTANDER                                               3
 ACTION:UPD 16-03-04 21:30 OP:rebc STATUS:               ID:20160229020502 L   I
 OLDACT:UP  16-02-29 12:36 OP:mh   STATUS:               ID:20160229015748     3
 OLDACT:REG 16-02-29 12:21 OP:mh   STATUS:               ID:20160229015748     3
 2016-02-29-0157-48M.COL___321                                                 6
 STAT SP IPHASW D HRMM SECON CODA AMPLIT PERI AZIMU VELO AIN AR TRES W  DIS CAZ7
 RUS  HZ EP   1    2 5 28.16                             158    0.61 7 67.4 157 
 RUS  HN ES        2 5 47.03                             158   -0.2110 67.4 157 
 RUS  HZ I         2 5 47.68         2.6 0.46            162           67.4 157 
 SPBC HZ EP   1    2 5 29.42                             144   -0.77 7  122 223 
 SPBC HN ES        2 5 51.87                             144   -0.0710  122 223 
 PTB  HZ EP   1    2 5 30.86                             143    0.46 7  126 274 
 PTB  HN ES        2 5 52.85                             143    0.5310  126 274 
 PTB  HZ I         2 5 54.35         2.2 0.40            144            126 274 
 ZAR  HN ES        2 6  3.79                             129   -0.54 8  205 304 
 ZAR  HZ I         2 6  9.03         3.1 0.26            130            205 304 
 MON  HN ES   4    2 6 30.14                             113   -4.13 0  365 315 
 MON  HZ I         2 6 31.50         1.0 0.22            114            365 315 
                                                                                
