 2016  929 0838 56.3 L   6.830 -73.141146.0  RSN  6 0.4 1.4LRSN                1
 GAP=143        1.00       5.7     5.9  8.8 -0.1484E+02  0.1685E+02 -0.6089E+00E
 Epicentro: LOS SANTOS - SANTANDER                                             3
 ACTION:UPD 17-08-17 21:17 OP:lp   STATUS:               ID:20160929083856 L   I
 OLDACT:UP  16-09-29 18:40 OP:dani STATUS:               ID:20160929082745d    3
 OLDACT:DUP 16-09-29 18:37 OP:dani STATUS:               ID:20160929082745d    3
 OLDACT:UP  16-09-29 18:37 OP:dani STATUS:               ID:20160929082744     3
 OLDACT:UP  16-09-29 18:06 OP:dani STATUS:               ID:20160929082744     3
 OLDACT:REG 16-09-29 13:35 OP:dani STATUS:               ID:20160929082744     3
 2016-09-29-0828-00M.COL___366                                                 6
 STAT SP IPHASW D HRMM SECON CODA AMPLIT PERI AZIMU VELO AIN AR TRES W  DIS CAZ7
 BAR2 EZ EP        839 15.85                             169   -0.1510 26.7 190 
 BAR2 EZ I         839 33.56         5.5 0.21            169           26.7 190 
 PAM  EZ EP        839 18.70                             152    0.3510 74.5  41 
 PAM  EE ES        839 35.65                             152    0.0910 74.5  41 
 PAM  EZ I         839 37.19         6.0 0.19            151           74.5  41 
 RUS  HZ EP        839 19.96                             143   -0.3310  104 176 
 RUS  HE ES        839 38.99                             143   -0.0210  104 176 
 RUS  HZ I         839 40.37         1.4 0.22            142            104 176 
 PTB  HZ EP        839 22.62                             132   -0.74 9  149 258 
 PTB  HN ES        839 44.53                             132    0.04 9  149 258 
 PTB  HZ I         839 46.70         3.8 0.13            132            149 258 
 SPBC HZ EP        839 24.90                             129   -0.16 9  166 218 
 SPBC HN ES        839 47.89                             129    0.37 9  166 218 
 SPBC HZ I         839 53.34         5.4 0.28            128            166 218 
 GUY2CHZ EP        839 41.15                             112    1.00 7  303 234 
 GUY2CHZ I         840 24.07         2.2 0.64                           303 234 
                                                                                
