 2015  129 0202 47.4 L   6.817 -73.162140.3  RSN 22 0.5 2.5LRSN                1
 GAP= 70        1.11       2.5     2.8  5.0 -0.8239E+00  0.3396E+01  0.2394E+00E
 Epicentro: LOS SANTOS - SANTANDER                                             3
 ACTION:UPD 15-03-02 15:43 OP:nd   STATUS:               ID:20150129020247 L   I
 OLDACT:UP  15-01-29 14:15 OP:cam  STATUS:               ID:20150129015814d    3
 OLDACT:UP  15-01-29 14:14 OP:cam  STATUS:               ID:20150129015814d    3
 OLDACT:UP  15-01-29 14:14 OP:cam  STATUS:               ID:20150129015814d    3
 OLDACT:DUP 15-01-29 14:01 OP:cam  STATUS:               ID:20150129015814d    3
 OLDACT:UP  15-01-29 14:01 OP:cam  STATUS:               ID:20150129015813     3
 OLDACT:UP  15-01-29 14:00 OP:cam  STATUS:               ID:20150129015813     3
 OLDACT:REG 15-01-29 13:06 OP:cvam STATUS:               ID:20150129015813     3
 2015-01-29-0158-13M.COL___271                                                 6
 STAT SP IPHASW D HRMM SECON CODA AMPLIT PERI AZIMU VELO AIN AR TRES W  DIS CAZ7
 BAR2 EZ IP     D  2 3  6.48                             169    0.1110 25.0 185 
 BAR2 EZ ES        2 3 20.79                             169   -0.4110 25.0 185 
 BAR2 EZ I         2 3 22.39        95.1 0.30            167           25.0 185 
 BRR  HZ IP     C  2 3  8.37                             152    0.5910 68.7 298 
 BRR  HN ES        2 3 24.06                             152    0.3610 68.7 298 
 BRR  HZ I         2 3 28.22        85.6 0.40            151           68.7 298 
 PAM  SZ IP     D  2 3  9.33                             150    0.3410 77.1  42 
 PAM  SN ES        2 3 26.30                             150    0.4510 77.1  42 
 PAM  SZ I         2 3 28.70        86.7 0.58            154           77.1  42 
 RUS  HZ EP        2 3 10.30                             142   -0.4410  103 175 
 RUS  HE ES        2 3 29.13                             142    0.1710  103 175 
 RUS  HZ I         2 3 29.81        28.1 0.20            142            103 175 
 PTB  HZ EP        2 3 13.08                             131   -0.68 9  146 258 
 PTB  HN ES        2 3 33.13                             131   -1.22 9  146 258 
 PTB  HZ I         2 3 38.12        46.1 0.10            130            146 258 
 TAM  HZ IP     D  2 3 14.79                             129   -0.04 9  157 105 
 TAM  HN ES        2 3 36.29                             129    0.03 9  157 105 
 OCA  HZ EP        2 3 14.89                             129   -0.17 9  158 354 
 OCA  HN ES        2 3 36.58                             129   -0.07 9  158 354 
 SPBC HZ EP        2 3 15.42                             128   -0.06 9  164 218 
 SPBC HN ES        2 3 37.67                             128    0.26 9  164 218 
 SPBC HZ I         2 3 44.33        40.6 0.26            127            164 218 
 ZAR  HZ EP        2 3 19.71                             121    0.50 9  202 292 
 ZAR  HN ES        2 3 44.47                             121    0.43 9  202 292 
 ZAR  HN I         2 3 51.95        96.3 0.18            122            202 292 
 NOR  HZ EP        2 3 22.94                             117    0.20 8  234 234 
 NOR  HN ES        2 3 49.95                             117   -0.39 8  234 234 
 NOR  HZ I         2 3 55.65        26.9 0.20            118            234 234 
 SML  HZ EP        2 3 23.00                             116   -0.42 8  241 336 
 SML  HN ES        2 3 51.49                             116   -0.04 8  241 336 
 SML  HZ I         2 3 56.00        45.9 0.24            118            241 336 
 CHI  HZ EP        2 3 24.79                             116   -0.13 8  250 195 
 CHI  HN ES        2 3 53.44                             116   -0.77 8  250 195 
 CHI  HZ I         2 3 59.97         8.4 0.26            116            250 195 
 ROSC BZ EP   4    2 3 26.81                             115    1.54 0  253 210 
 ROSC BN ES        2 3 55.61                             115    0.78 8  253 210 
 ROSC BN I         2 4  6.36        29.0 0.40            116            253 210 
 HEL  HZ EP   4    2 3 28.27                             114    1.11 0  271 255 
 HEL  HN ES   4    2 3 55.21                             114   -2.99 0  271 255 
 HEL  HZ I         2 4  7.30        15.7 0.24            114            271 255 
 GUY2CHZ EP   4    2 3 32.58                             111    1.90 0  301 234 
 GUY2CHE ES        2 4  4.83                             111    0.36 7  301 234 
 GUY2CHZ I         2 4 11.39        15.2 0.38                           301 234 
 PTGC HZ EP   4    2 3 29.74                             110   -1.53 0  311 158 
 PTGC HE ES   4    2 4  2.87                             110   -2.64 0  311 158 
 PTGC HE I         2 4  5.75        29.3 0.42            112            311 158 
 RREF HZ EP   4    2 3 34.35                             110    1.09 0  322 229 
 RREF HN ES   1    2 4  9.13                             110    0.07 5  322 229 
 RREF HZ I         2 4 18.15         9.0 0.34            110            322 229 
 CBOC HZ EP        2 3 34.64                             109    0.71 7  332 252 
 CBOC HN ES        2 4 10.22                             109   -0.02 7  332 252 
 CBOC HZ I         2 4 12.14         4.1 0.46            109            332 252 
 DBB  SZ EP        2 3 35.14                             109    0.74 7  337 274 
 DBB  SZ ES   4    2 4  9.40                             109   -1.68 0  337 274 
 MON  HZ EP   4    2 3 34.14                             108   -1.71 0  351 308 
 MON  HN ES        2 4 12.81                             108   -0.86 6  351 308 
 MON  HZ I         2 4 13.48        11.2 0.16            109            351 308 
 SDV  BZ EP        2 3 36.56                             107   -0.67 6  361  51 
 SDV  BN ES   4    2 4 12.97                             107   -3.15 0  361  51 
 SDV  BZ I         2 4 17.90         6.3 0.45            109            361  51 
 ORTC HZ EP        2 3 41.56                             105    0.40 6  396 216 
 ORTC HN ES   4    2 4 24.35                             105    1.23 0  396 216 
 ORTC HZ I         2 4 28.30         5.4 0.50            106            396 216 
                                                                                
