 2012 1029 0544 12.2 L   6.766 -73.047154.9  RSN  7 0.4 2.2LRSN                1
 GAP=151        0.73       4.5     5.5  6.0  0.4337E+01  0.7648E+01  0.1973E+01E
 Epicentro: LOS SANTOS - SANTANDER                                             3
 ACTION:UPD 12-11-22 17:06 OP:ep   STATUS:               ID:20121029054412 L   I
 2012-10-29-0540-00M.COL___231                                                 6
 STAT SP IPHASW D HRMM SECON CODA AMPLIT PERI AZIMU VELO AIN AR TRES W  DIS CAZ7
 BAR2 SZ EP        544 32.81                             171   -0.1410 24.4 218 
 BAR2 SZ ES   1    544 49.35                             171    0.21 7 24.4 218 
 GIR2 SZ EP   1    544 33.33                             166    0.18 7 38.2 335 
 GIR2 SZ ES   1    544 49.46                             166   -0.04 7 38.2 335 
 PAM  SZ EP   1    544 35.92                             153    0.71 7 74.1  31 
 PAM  SE ES   1    544 52.81                             153   -0.35 7 74.1  31 
 BRR  HZ EP        544 34.77                             150   -0.2210 82.6 297 
 BRR  HN ES   1    544 52.45                             150   -0.32 7 82.6 297 
 BRR  HN I         544 53.48        27.6 0.18                          82.6 297 
 RUS  HZ EP   1    544 36.67                             147    0.08 7 96.7 182 
 RUS  HN ES   1    544 55.81                             147    0.18 7 96.7 182 
 ZAR  HZ EP   1    544 45.91                             123   -0.52 6  216 292 
 ZAR  HE ES   1    545 13.87                             123    0.74 6  216 292 
 ZAR  HE I         545 17.91        14.5 0.22                           216 292 
 CHI  HN ES   2    545 19.63                             119   -0.51 4  248 198 
                                                                                
