 2017  329 0702 44.3 L   6.760 -73.172146.9  RSN  6 0.3 1.3LRSN                1
 GAP=135        0.79       3.9     4.2  6.6 -0.5168E+01  0.3935E+01 -0.8028E+00E
 Epicentro: LOS SANTOS - SANTANDER                                             3
 ACTION:UPD 17-05-25 18:46 OP:jn   STATUS:               ID:20170329070244 L   I
 OLDACT:REG 17-03-29 12:41 OP:dnl  STATUS:               ID:20170329065741     3
 2017-03-29-0658-00M.COL___355                                                 6
 STAT SP IPHASW D HRMM SECON CODA AMPLIT PERI AZIMU VELO AIN AR TRES W  DIS CAZ7
 BAR2 EZ EP   2    7 3  3.80                             173   -0.14 5 18.6 183 
 BAR2 EZ ES        7 3 19.11                             173   -0.1710 18.6 183 
 BAR2 EZ I         7 3 21.76         4.4 0.38            174           18.6 183 
 BRR  HZ EP        7 3  5.71                             153    0.2010 70.9 303 
 BRR  HN ES        7 3 22.73                             153    0.6410 70.9 303 
 BRR  HZ I         7 3 29.92         4.6 0.84            152           70.9 303 
 PAM  EZ EP        7 3  6.78                             149   -0.1310 82.7  39 
 PAM  EN ES        7 3 24.26                             149   -0.3210 82.7  39 
 PAM  EZ I         7 3 25.95         3.8 0.48            153           82.7  39 
 RUS  HZ EP   2    7 3  8.25                             145    0.42 5 96.5 174 
 RUS  HN ES        7 3 26.45                             145    0.2410 96.5 174 
 RUS  HZ I         7 3 27.63         2.2 0.38            150           96.5 174 
 PTB  HZ EP   2    7 3 10.54                             133   -0.44 5  144 260 
 PTB  HN ES        7 3 31.49                             133   -0.34 9  144 260 
 PTB  HZ I         7 3 33.18         1.7 0.40            135            144 260 
 SPBC HZ EP   2    7 3 12.91                             130    0.56 5  158 219 
 SPBC HN ES        7 3 33.96                             130   -0.30 9  158 219 
 SPBC HZ I         7 3 36.49         2.6 0.16            134            158 219 
                                                                                
