 2012  229 0711 30.9 L   6.800 -73.195133.7  RSN  7 0.4 1.6LRSN                1
 GAP=130        0.79       4.2     4.6  7.7  0.5294E+00  0.1131E+02  0.4592E+01E
 ACTION:UP  12-03-07 16:35 OP:epov STATUS:               ID:20120229071130 L   I
 2012-02-29-0710-00M.COL___191                                                 6
 STAT SP IPHASW D HRMM SECON CODA AMPLIT PERI AZIMU VELO AIN AR TRES W  DIS CAZ7
 BAR2 SZ EP   1    711 48.96                             170   -0.15 7 23.0 177 
 BAR2 SZ ES   1    712  3.43                             170    0.14 7 23.0 177 
 BAR2 SZ I         712  6.02         7.6 0.12                          23.0 177 
 BRR  HZ EP   1    711 50.83                             152    0.32 7 66.4 301 
 BRR  HZ I         712  9.55        11.7 0.15                          66.4 301 
 PAM  SZ EP   1    711 52.07                             147   -0.04 7 80.9  43 
 PAM  SN ES   1    712  8.72                             147    0.09 7 80.9  43 
 PAM  SZ I         712 11.10         4.6 0.33                          80.9  43 
 RUS  HZ EP   1    711 53.91                             141    0.35 7  101 173 
 RUS  HN ES   1    712 10.65                             141   -0.56 7  101 173 
 RUS  HZ I         712 14.25         5.2 0.37                           101 173 
 PTB  HZ EP   1    711 55.69                             130   -0.75 7  142 258 
 PTB  HN ES   1    712 16.18                             130   -0.16 7  142 258 
 PTB  HZ I         712 20.50                                            142 258 
 ZAR  HN ES   1    712 26.70                             120    0.31 6  199 293 
 ZAR  HZ I         712 29.67         4.0 0.10                           199 293 
 CHI  HZ EP   1    712  7.57                             115   -0.27 6  247 194 
 CHI  HN ES   1    712 37.54                             115    0.91 6  247 194 
 CHI  HZ I         712 40.51         4.2 0.52                           247 194 
                                                                                
