 2015  829 0947 44.9 L   6.823 -73.094144.0  RSN 15 0.4 2.1LRSN                1
 GAP=169        0.88       2.4     3.9  4.8 -0.1399E+01  0.2055E+01  0.3339E+01E
 Epicentro: LOS SANTOS - SANTANDER                                             3
 ACTION:UPD 15-09-15 23:06 OP:cam  STATUS:               ID:20150829094744 L   I
 OLDACT:UP  15-09-01 11:28 OP:ar   STATUS:               ID:20150829094744 L   3
 OLDACT:REG 15-08-29 14:02 OP:ak   STATUS:               ID:20150829093748     3
 2015-08-29-0937-48M.COL___355                                                 6
 STAT SP IPHASW D HRMM SECON CODA AMPLIT PERI AZIMU VELO AIN AR TRES W  DIS CAZ7
 BAR2 EZ EP        948  4.88                             169    0.4510 27.4 201 
 BAR2 EZ ES        948 19.13                             169   -0.5210 27.4 201 
 BAR2 EZ I         948 20.78        18.7 0.10            167           27.4 201 
 BRR  HZ EP        948  6.68                             151    0.5710 75.2 295 
 BRR  HN ES        948 23.35                             151    0.7110 75.2 295 
 BRR  HZ I         948 28.13        23.2 0.12            149           75.2 295 
 OCA  HZ EP        948 13.19                             130    0.26 9  159 351 
 OCA  HN ES        948 34.04                             130   -0.74 9  159 351 
 OCA  HZ I         948 38.88        31.6 0.22            132            159 351 
 ZAR  HZ EP        948 17.78                             121    0.07 8  208 291 
 ZAR  HN ES        948 43.19                             121   -0.09 8  208 291 
 ZAR  HZ I         948 49.62        13.7 0.27            122            208 291 
 NOR  HZ EP        948 21.39                             117    0.18 8  241 235 
 NOR  HN ES        948 49.05                             117   -0.47 8  241 235 
 NOR  HZ I         948 52.75        11.3 0.36            118            241 235 
 SML  HZ EP        948 21.38                             117   -0.09 8  244 334 
 SML  HE ES        948 49.80                             117   -0.17 8  244 334 
 SML  HZ I         948 54.23        15.7 0.06            119            244 334 
 CHI  HZ EP        948 22.50                             116   -0.46 8  253 196 
 CHI  HN ES        948 52.58                             116   -0.06 8  253 196 
 CHI  HZ I         948 58.33         3.3 0.38            118            253 196 
 HEL  HZ EP   4    948 23.69                             114   -2.04 0  278 256 
 HEL  HN ES        948 57.51                             114   -0.06 7  278 256 
 HEL  HZ I         949  3.30         7.0 0.56            115            278 256 
 URE  HZ EP   4    948 29.00                             113    2.60 0  288 291 
 URE  HN ES   4    948 56.35                             113   -2.40 0  288 291 
 URE  HZ I         948 57.35         7.2 0.10            114            288 291 
 GUY2CHZ EP        948 29.47                             111    0.32 7  307 235 
 GUY2CHN ES        949  3.86                             111    0.22 7  307 235 
 GUY2CHZ I         949 11.26         6.4 0.44                           307 235 
 PTGC HZ EP        948 28.42                             111   -0.32 7  309 160 
 PTGC HN ES   4    949  1.33                             111   -1.59 0  309 160 
 CBOC HZ EP        948 31.87                             109   -0.61 7  340 252 
 CBOC HE ES        949  9.09                             109   -0.49 7  340 252 
 CBOC HZ I         949 13.81         1.8 0.15            110            340 252 
 TOL  SZ EP        948 33.87                             109    0.09 6  349 225 
 TOL  SN ES        949 12.16                             109    0.26 6  349 225 
 TOL  SZ I         949 20.52         5.1 0.30            110            349 225 
 PRA  HZ EP        948 39.40                             106    0.42 6  397 210 
 PRA  HN ES        949 21.20                             106    0.06 6  397 210 
 PRA  HZ I         949 27.65         7.1 0.26            107            397 210 
 ORTC HZ EP        948 39.62                             106    0.20 6  401 217 
 ORTC HN ES        949 21.67                             106   -0.26 6  401 217 
 ORTC HZ I         949 30.02         3.5 0.39            107            401 217 
                                                                                
