 2012 1129 0604 25.1 L   6.844 -73.169123.0  RSN  5 0.4 1.7LRSN                1
 GAP=181        0.92       4.0     5.2  8.8  0.4910E+01  0.1386E+02 -0.4895E+01E
 Epicentro: LOS SANTOS - SANTANDER                                             3
 ACTION:UPD 12-12-05 15:36 OP:}ep  STATUS:               ID:20121129060425 L   I
 2012-11-29-0600-00M.COL___236                                                 6
 STAT SP IPHASW D HRMM SECON CODA AMPLIT PERI AZIMU VELO AIN AR TRES W  DIS CAZ7
 BAR2 SZ EP        6 4 42.63                             166    0.4810 27.9 183 
 BAR2 SZ ES        6 4 54.97                             166   -0.4610 27.9 183 
 BAR2 SZ I         6 4 58.50         8.7 0.18                          27.9 183 
 RUS  HZ EP        6 4 47.01                             137   -0.1210  106 175 
 RUS  HN ES        6 5  4.52                             137    0.2210  106 175 
 RUS  HN I         6 5  6.53         3.7 0.38                           106 175 
 PTB  HZ EP        6 4 49.61                             126   -0.59 9  146 257 
 PTB  HN ES        6 5 10.14                             126    0.39 9  146 257 
 PTB  HN I         6 5 12.69         8.3 0.28                           146 257 
 OCA  HN ES        6 5 11.75                             125    0.12 9  155 354 
 OCA  HN I         6 5 13.04        19.9 0.16                           155 354 
 ZAR  HE ES        6 5 19.56                             117   -0.07 9  200 291 
 ZAR  HE I         6 5 23.22         6.0 0.14                           200 291 
                                                                                
