 2013  429 0402 57.0 L   7.116 -73.340122.6  RSN  5 0.3 1.7LRSN                1
 GAP=196        0.66       6.3     4.6  6.6 -0.5691E+01  0.9698E+01 -0.4954E+01E
 Epicentro: LEBRIJA - SANTANDER                                                3
 ACTION:UPD 13-05-22 14:41 OP:EP   STATUS:               ID:20130429040257 L   I
 2013-04-29-0400-00M.COL___248                                                 6
 STAT SP IPHASW D HRMM SECON CODA AMPLIT PERI AZIMU VELO AIN AR TRES W  DIS CAZ7
 GIR2 SZ EP        4 3 13.52                             172   -0.0710 16.7 104 
 BRR  HZ IP     C  4 3 14.35                             160    0.2510 41.1 269 
 BRR  HN ES   1    4 3 27.63                             160    0.21 7 41.1 269 
 BRR  HN I         4 3 28.39        12.4 0.40            157           41.1 269 
 BAR2 SZ EP        4 3 15.61                             152    0.2010 60.5 163 
 BAR2 SZ ES        4 3 29.56                             152   -0.1910 60.5 163 
 PTB  HZ EP        4 3 20.92                             128   -0.43 9  139 243 
 PTB  HN ES   1    4 3 40.12                             128   -0.20 7  139 243 
 PTB  HN I         4 3 42.14         3.0 0.26            126            139 243 
 NOR  HN ES   1    4 4  0.23                             113    0.52 6  241 225 
 NOR  HN I         4 4  3.07        13.2 0.24            112            241 225 
                                                                                
