 2011 1129 0437  6.7 L   6.786 -73.077147.8  RSN  5 0.3 1.7LRSN                1
 GAP=146        0.65       3.8     6.4  5.7  0.1477E+00 -0.1641E+01 -0.4105E+01E
 Epicentro: LOS SANTOS - SANTANDER                                             3
 ACTION:UPD 12-07-13 16:13 OP:ep   STATUS:               ID:20111129043706 L   I
 2011-11-29-0434-39S.COL___160                                                 6
 STAT SP IPHASW D HRMM SECON CODA AMPLIT PERI AZIMU VELO AIN AR TRES W  DIS CAZ7
 BAR2 SZ IP        437 26.60                             170   -0.0210 24.4 209 
 BAR2 SZ ES   1    437 41.72                             170   -0.43 7 24.4 209 
 BAR2 SZ I         437 43.26        10.8 0.26                          24.4 209 
 PAM  SZ EP        437 29.09                             152    0.1210 74.1  34 
 PAM  SN ES   1    437 46.53                             152    0.21 7 74.1  34 
 BRR  HZ IP     C  437 28.52                             150   -0.0110 78.6 297 
 BRR  HZ I         437 28.71        22.1 0.16                          78.6 297 
 BRR  HE ES   1    437 45.92                             150    0.39 7 78.6 297 
 RUS  HZ EP        437 30.84                             145    0.2910 98.8 180 
 RUS  HN ES   1    437 48.89                             145   -0.25 7 98.8 180 
 RUS  HZ I         437 50.30         4.7 0.38                          98.8 180 
 OCA  SZ EP        437 35.03                             130   -0.41 9  163 351 
 OCA  SZ I         438  3.11         4.0 0.27                           163 351 
                                                                                
