 2012  629 0316 59.7 L   6.810 -73.146145.0  RSN 18 0.4 3.1LRSN                1
 GAP=113        0.81       2.7     3.4  5.0  0.3230E+00  0.5021E+01  0.3122E+01E
 Epicentro: LOS SANTOS - SANTANDER                                             3
 ACTION:UPD 12-08-06 17:53 OP:ep   STATUS:               ID:20120629031659 L   I
 2012-06-29-0310-00M.COL___201                                                 6
 STAT SP IPHASW D HRMM SECON CODA AMPLIT PERI AZIMU VELO AIN AR TRES W  DIS CAZ7
 BAR2 SZ IP        317 19.45                             170    0.1610 24.4 189 
 BAR2 SZ I         317 19.64       276.1 0.19                          24.4 189 
 BAR2 SZ ES   1    317 34.45                             170   -0.09 7 24.4 189 
 BRR  HZ EP        317 21.31                             153    0.5510 70.6 298 
 BRR  HZ I         317 21.60       321.6 0.29                          70.6 298 
 BRR  HN ES   1    317 37.75                             153    0.58 7 70.6 298 
 PAM  SZ EP        317 22.19                             151    0.3810 76.5  40 
 PAM  SZ I         317 22.67       216.7 0.23                          76.5  40 
 PAM  SN ES   1    317 38.87                             151   -0.16 7 76.5  40 
 RUS  HZ EP        317 23.32                             143   -0.1610  102 176 
 RUS  HN ES   1    317 41.57                             143   -0.44 7  102 176 
 RUS  HZ I         317 43.36       144.4 0.46                           102 176 
 PTB  HZ EP        317 25.92                             132   -0.73 9  148 258 
 PTB  HZ I         317 28.89        83.5 0.23                           148 258 
 PTB  HN ES   1    317 47.07                             132   -0.58 7  148 258 
 OCA  HZ EP   1    317 27.59                             130   -0.28 7  159 353 
 OCA  HN ES   1    317 49.35                             130   -0.47 7  159 353 
 YOP  SZ EP   1    317 29.96                             126    0.14 7  180 153 
 YOP  SN ES   1    317 53.48                             126    0.20 7  180 153 
 YOP  SZ I         317 55.07        75.1 0.21                           180 153 
 ZAR  HZ EP   1    317 32.22                             122    0.14 6  204 292 
 ZAR  HN ES   1    317 57.37                             122    0.06 6  204 292 
 ZAR  HZ I         318  3.53       205.8 0.35                           204 292 
 NOR  SZ EP   1    317 35.33                             118   -0.15 6  235 234 
 NOR  SN ES   1    318  3.45                             118    0.08 6  235 234 
 CHI  HZ EP   1    317 37.55                             117    0.05 6  250 195 
 CHI  HZ I         317 40.38        42.1 0.29                           250 195 
 ROSC BN ES   1    318  8.26                             116    0.57 6  254 211 
 ROSC BZ I         318 13.35       130.7 0.37                           254 211 
 HEL  HZ EP   1    317 39.96                             115    0.03 6  272 256 
 HEL  HZ I         318 18.98        49.4 0.20                           272 256 
 URE  HZ EP   1    317 40.16                             113   -0.55 6  283 292 
 URE  HZ I         318 22.98       191.5 0.27                           283 292 
 VIL  SZ EP   1    317 42.66                             112   -0.58 5  304 192 
 VIL  SN ES   1    318 16.54                             112   -0.63 5  304 192 
 DBB  SZ EP   1    317 47.93                             109    0.77 5  339 274 
 TOL  SZ EP   1    317 48.86                             109    0.82 5  344 225 
 TOL  SZ ES   1    318 26.22                             109    0.49 5  344 225 
 PRA  HZ EP   1    317 52.75                             106   -0.59 4  393 209 
 PRA  HN ES   1    318 35.77                             106    0.62 4  393 209 
 YOT  HZ EP   1    318  2.69                             103   -0.15 4  473 229 
                                                                                
