 2016  929 0043 33.3 L   6.918 -73.146151.0  RSN 11 0.4 1.9LRSN                1
 GAP=130        0.97       3.9     4.0  5.9  0.5420E+00  0.6692E+01  0.6645E+01E
 Epicentro: PIEDECUESTA - SANTANDER                                            3
 ACTION:UPD 17-08-17 21:17 OP:lp   STATUS:               ID:20160929004333 L   I
 OLDACT:UP  16-09-29 13:55 OP:dani STATUS:               ID:20160929003750     3
 OLDACT:REG 16-09-29 12:43 OP:dani STATUS:               ID:20160929003750     3
 2016-09-29-0038-00M.COL___378                                                 6
 STAT SP IPHASW D HRMM SECON CODA AMPLIT PERI AZIMU VELO AIN AR TRES W  DIS CAZ7
 BAR2 EZ EP     C  043 53.73                             166   -0.1810 36.3 186 
 BAR2 EZ ES   2    044 10.63                             166    0.67 5 36.3 186 
 BAR2 EZ I         044 16.51         9.3 0.14            164           36.3 186 
 BRR  HZ EP     C  043 54.93                             155    0.1610 65.9 288 
 BRR  HE ES        044 11.94                             155    0.4510 65.9 288 
 BRR  HZ I         044 13.53        12.2 0.26            149           65.9 288 
 PAM  EZ EP        043 55.85                             155    0.2710 67.8  47 
 PAM  EE ES        044 12.66                             155   -0.2710 67.8  47 
 PAM  EZ I         044 13.85        25.3 0.20            156           67.8  47 
 RUS  HZ EP        043 58.31                             141   -0.2510  114 177 
 RUS  HN ES        044 18.41                             141    0.1810  114 177 
 PTB  HZ EP        044  0.31                             133   -0.69 9  151 254 
 PTB  HE ES        044 22.01                             133   -0.58 9  151 254 
 PTB  HZ I         044 25.78        11.9 0.40            128            151 254 
 SPBC HZ EP        044  3.02                             128   -0.19 9  174 216 
 ZAR  HZ EP        044  5.28                             124   -0.38 9  199 289 
 ZAR  HN ES        044 30.82                             124   -0.05 9  199 289 
 ZAR  HZ I         044 36.89         9.3 0.14            120            199 289 
 NOR  HZ EP        044 10.37                             119    0.17 8  243 232 
 NOR  HE ES        044 39.29                             119    0.33 8  243 232 
 NOR  HZ I         044 44.77         8.8 0.24            115            243 232 
 CHI  HZ EP        044 12.96                             117    0.27 8  261 194 
 CHI  HE ES        044 42.99                             117   -0.41 8  261 194 
 CHI  HZ I         044 46.92         2.4 0.29            114            261 194 
 HEL  HZ EP        044 15.21                             115    1.01 7  276 253 
 HEL  HZ I         044 52.90         5.9 0.38            112            276 253 
 GUY2CHZ EP        044 18.52                             113    0.47 7  309 233 
 GUY2CHN ES   4    044 57.08                             113    4.14 0  309 233 
 GUY2CHZ I         045  3.95         5.6 0.52                           309 233 
                                                                                
