 2016  229 0716 53.6 L   6.805 -73.175145.3  RSN 11 0.2 1.6LRSN                1
 GAP=133        0.57       1.7     2.4  3.5 -0.8048E+00  0.2879E+01  0.1900E+00E
 Epicentro: LOS SANTOS - SANTANDER                                             3
 ACTION:UPD 16-03-04 21:30 OP:rebc STATUS:               ID:20160229071653 L   I
 OLDACT:UP  16-02-29 14:24 OP:mh   STATUS:               ID:20160229070750     3
 OLDACT:UP  16-02-29 14:23 OP:mh   STATUS:               ID:20160229070750     3
 OLDACT:UP  16-02-29 14:23 OP:mh   STATUS:               ID:20160229070750     3
 OLDACT:REG 16-02-29 12:26 OP:mh   STATUS:               ID:20160229070750     3
 2016-02-29-0707-50M.COL___309                                                 6
 STAT SP IPHASW D HRMM SECON CODA AMPLIT PERI AZIMU VELO AIN AR TRES W  DIS CAZ7
 BAR2 EZ EP        717 13.12                             170   -0.0910 23.5 182 
 BAR2 EZ ES        717 28.37                             170   -0.1110 23.5 182 
 BAR2 EZ I         717 29.88        11.0 0.08            169           23.5 182 
 PAM  EZ EP     C  717 16.02                             150    0.1310 79.1  42 
 PAM  EN ES        717 33.20                             150   -0.0710 79.1  42 
 PAM  EZ I         717 35.24         4.3 0.52            155           79.1  42 
 RUS  HZ IP   1    717 17.46                             143    0.07 7  101 174 
 RUS  HN ES        717 35.98                             143    0.0510  101 174 
 RUS  HZ I         717 36.39         4.6 0.32            146            101 174 
 PTB  HZ EP        717 20.17                             132   -0.11 9  145 258 
 PTB  HN ES        717 40.79                             132   -0.28 9  145 258 
 PTB  HZ I         717 48.18         4.5 0.18            131            145 258 
 OCA  HZ EP   1    717 22.05                             130    0.23 7  159 354 
 OCA  HN ES        717 43.67                             130   -0.14 9  159 354 
 OCA  HZ I         717 46.37        10.5 0.18            131            159 354 
 SPBC HZ EP        717 21.84                             129   -0.10 9  162 218 
 SPBC HN ES        717 44.23                             129    0.21 9  162 218 
 SPBC HZ I         717 47.49         9.4 0.32            130            162 218 
 ZAR  HZ EP        717 25.87                             123    0.16 9  201 292 
 ZAR  HN ES        717 51.28                             123    0.54 9  201 292 
 ZAR  HZ I         717 57.95         4.7 0.28            122            201 292 
 NOR  HZ EP   1    717 28.84                             119   -0.24 6  232 234 
 NOR  HE ES        717 56.47                             119   -0.27 8  232 234 
 NOR  HZ I         718  2.23         3.5 0.22            119            232 234 
 CHI  HZ EP        717 31.08                             117   -0.18 8  248 194 
 CHI  HN ES        718  1.15                             117    0.53 8  248 194 
 CHI  HZ I         718  7.23         1.7 0.26            119            248 194 
 URE  HZ EP   4    717 32.71                             114   -1.61 0  281 292 
 URE  HN ES   4    718  4.80                             114   -1.25 0  281 292 
 URE  HZ I         718 15.79         2.8 0.34            114            281 292 
 GUY2CHZ EP        717 36.63                             112   -0.32 7  299 234 
 GUY2CHN ES   4    718 12.69                             112    1.95 0  299 234 
 GUY2CHZ I         718 19.29         2.0 0.34                           299 234 
                                                                                
