 2012  329 0947  1.6 L   6.530 -73.793 89.0  RSN  4 0.2 1.1LRSN                1
 GAP=139        0.49       4.5     2.4  6.9  0.8388E+00  0.1531E+01  0.5757E+00E
 ACTION:UP  12-03-31 23:24 OP:EP   STATUS:               ID:20120329094701 L   I
 2012-03-29-0940-00M.COL___196                                                 6
 STAT SP IPHASW D HRMM SECON CODA AMPLIT PERI AZIMU VELO SNR AR TRES W  DIS CAZ7
 BRR  HZ EP        947 16.20                             141    -0.210   64   8 
 BRR  HZ I         947 24.06         4.5 0.68                            64   8 
 BRR  HE ES   2    947 28.40                             141     0.4 5   64   8 
 BAR2 SZ EP        947 17.10                             140     0.110   68  84 
 BAR2 SZ ES   1    947 28.98                             140    -0.1 7   68  84 
 BAR2 SZ I         947 29.68         7.4 0.38                            68  84 
 PTB  HZ EP        947 17.32                             137     0.110   73 271 
 PTB  HN ES   1    947 29.28                             137    -0.1 7   73 271 
 PTB  HZ I         947 31.21         2.5 0.10                            73 271 
 RUS  HN ES   2    947 35.84                             127     0.1 5  106 132 
                                                                                
