 2013 1129 0952  9.0 L   6.833 -73.161143.4  RSN 15 0.6 2.6LRSN                1
 GAP=143        1.33       4.6     5.9  7.4 -0.8867E+01  0.1212E+02  0.2036E+01E
 Epicentro: LOS SANTOS - SANTANDER                                             3
 ACTION:UPD 14-01-09 16:31 OP:ep   STATUS:               ID:20131129095208 L   I
 OLDACT:UP  13-12-04 16:58 OP:ep   STATUS:               ID:20131129095208 L   3
 OLDACT:UP  13-11-29 10:25 OP:mh   STATUS:               ID:20131129095000     3
 OLDACT:REG 13-11-29 08:19 OP:mh   STATUS:               ID:20131129095000     3
 2013-11-29-0950-00M.COL___282                                                 6
 STAT SP IPHASW D HRMM SECON CODA AMPLIT PERI AZIMU VELO AIN AR TRES W  DIS CAZ7
 BAR2 SZ EP        952 28.22                             169   -0.1710 26.8 185 
 BAR2 SZ ES        952 43.00                             169   -0.5310 26.8 185 
 BAR2 SZ I         952 44.91        93.7 0.21            169           26.8 185 
 BRR  HZ EP        952 30.07                             153    0.3910 68.0 296 
 BRR  HZ  AMP      952 49.16       643.3 0.10                          68.0 296 
 PAM  SZ EP        952 31.11                             151    0.2810 75.7  42 
 PAM  SN ES        952 48.46                             151    0.5810 75.7  42 
 PAM  SZ I         952 51.22        14.8 0.18            135           75.7  42 
 PTB  HZ EP        952 34.90                             132   -0.76 9  147 257 
 PTB  HN ES        952 56.07                             132   -0.41 9  147 257 
 OCA  HZ EP        952 36.53                             130   -0.20 9  156 354 
 OCA  HZ  AMP      953  2.11       355.2 0.15                           156 354 
 SPBC HZ EP        952 37.27                             128   -0.19 9  165 218 
 SPBC HN ES        952 59.36                             128   -0.32 9  165 218 
 SPBC HZ I         953  4.19        20.5 0.11            116            165 218 
 ZAR  HZ EP   1    952 40.65                             122   -0.31 6  201 291 
 ZAR  HN ES        953  6.33                             122    0.43 9  201 291 
 ZAR  HZ I         953 11.46        20.7 0.34            110            201 291 
 NOR  HZ EP   1    952 44.23                             118   -0.42 6  235 233 
 NOR  HN ES   1    953 12.56                             118    0.09 6  235 233 
 NOR  HZ I         953 17.65        12.2 0.17            107            235 233 
 SML  HZ EP        952 44.70                             117   -0.32 8  240 335 
 SML  HZ I         953 16.61        26.0 0.09            106            240 335 
 CHI  HZ EP        952 46.27                             116   -0.61 8  252 195 
 CHI  HZ  AMP      953 14.64        28.7 0.12                           252 195 
 CHI  HN ES   1    953 15.57                             116   -0.88 6  252 195 
 ROSC BZ EP        952 48.23                             116    1.02 8  255 210 
 ROSC BN ES        953 18.73                             116    1.69 8  255 210 
 ROSC BZ I         953 22.55       572.9 0.39            106            255 210 
 HEL  HZ EP        952 49.20                             114    0.22 8  271 255 
 HEL  HZ I         953 27.12        10.7 0.39            105            271 255 
 GUY2CHZ EP        952 53.38                             112    0.83 7  302 234 
 GUY2CHN ES   4    953 30.63                             112    4.08 0  302 234 
 GUY2CHZ I         953 34.47         9.1 0.23                           302 234 
 PRA  HZ EP        953  1.95                             106   -0.74 6  394 209 
 PRA  HN ES   4    953 42.48                             106   -2.11 0  394 209 
 PRA  HZ I         953 50.61         9.5 0.45            100            394 209 
 ORTC HZ EP   1    953  2.74                             106   -0.30 4  397 216 
 ORTC HZ I         953 51.52         4.8 0.39            100            397 216 
                                                                                
