 2017  829 0705 24.6 L   6.822 -73.134125.7  RSN  5 0.4 1.1LRSN                1
 GAP=241        0.88       5.5     7.4 10.2  0.8692E+01  0.3689E+02 -0.1872E+02E
 Epicentro: LOS SANTOS - SANTANDER                                             3
 ACTION:UPD 17-09-04 20:26 OP:rebc STATUS:               ID:20170829070524 L   I
 OLDACT:UP  17-08-29 17:29 OP:dani STATUS:               ID:20170829065743d    3
 OLDACT:UP  17-08-29 17:29 OP:dani STATUS:               ID:20170829065743d    3
 OLDACT:UP  17-08-29 17:28 OP:dani STATUS:               ID:20170829065743d    3
 OLDACT:DUP 17-08-29 17:26 OP:dani STATUS:               ID:20170829065743d    3
 2017-08-29-0658-00M.COL___417                                                 6
 STAT SP IPHASW D HRMM SECON CODA AMPLIT PERI AZIMU VELO AIN AR TRES W  DIS CAZ7
 BAR2 EZ EP        7 5 41.45                             168   -0.4810 26.0 192 
 BAR2 EZ ES        7 5 55.56                             168    0.1510 26.0 192 
 BAR2 EZ I         7 5 57.83         2.4 0.66            164           26.0 192 
 BRR  HZ EP        7 5 43.45                             148   -0.2110 71.2 296 
 BRR  HE ES   4    7 6  0.94                             148    2.45 0 71.2 296 
 BRR  HZ I         7 6  2.41         2.2 0.14            142           71.2 296 
 RUS  HN ES        7 6  4.16                             138    0.3110  103 177 
 SPBC HE ES        7 6 13.02                             124   -0.25 9  166 219 
 ZAR  HZ EP        7 5 56.55                             118    0.66 9  204 291 
 ZAR  HE ES        7 6 20.22                             118   -0.05 9  204 291 
 ZAR  HZ I         7 6 33.33         2.2 0.38            119            204 291 
                                                                                
