 2013  929 0019 55.0 L   6.862 -73.161147.5  RSN 11 0.6 1.7LRSN                1
 GAP= 68        1.54       4.3     6.1  8.1 -0.3899E+01  0.6376E+01  0.4007E+01E
 Epicentro: LOS SANTOS - SANTANDER                                             3
 ACTION:UPD 13-10-22 09:25 OP:ep   STATUS:               ID:20130929001955 L   I
 OLDACT:REG 13-09-29 08:57 OP:stll STATUS:               ID:20130929001837     3
 2013-09-29-0018-37M.COL___244                                                 6
 STAT SP IPHASW D HRMM SECON CODA AMPLIT PERI AZIMU VELO AIN AR TRES W  DIS CAZ7
 BAR2 SZ ES        020 29.44                             168   -1.1310 29.9 184 
 BAR2 SZ I         020 31.79         6.2 0.26            167           29.9 184 
 BRR  HZ EP        020 16.62                             154    0.5510 66.6 294 
 BRR  HN ES        020 33.90                             154    1.3810 66.6 294 
 BRR  HZ I         020 38.41         7.7 0.56            154           66.6 294 
 PAM  SZ EP        020 17.75                             152    0.5910 73.4  44 
 PAM  SZ I         020 17.81        12.4 0.16            156           73.4  44 
 PAM  SN ES        020 34.85                             152    0.4010 73.4  44 
 RUS  HZ EP        020 19.55                             142    0.1310  108 175 
 RUS  HN ES        020 37.90                             142   -0.5810  108 175 
 RUS  HZ I         020 39.80         5.3 0.30            143            108 175 
 PTB  HZ EP        020 22.00                             132   -0.08 9  148 256 
 PTB  HN ES        020 42.86                             132   -0.35 9  148 256 
 PTB  HZ I         020 45.47         8.0 0.28            133            148 256 
 OCA  HN ES        020 44.12                             131   -0.34 9  153 353 
 TAM  HZ EP        020 23.29                             130    0.16 9  159 107 
 TAM  HZ I         020 23.58        12.1 0.22            133            159 107 
 SPBC HZ EP        020 24.15                             129    0.12 9  168 217 
 SPBC HN ES        020 46.72                             129    0.03 9  168 217 
 SPBC HZ I         020 52.97         5.0 0.32            129            168 217 
 SML  HZ EP        020 29.67                             119   -1.29 8  237 335 
 SML  HN ES        020 58.35                             119   -0.67 8  237 335 
 CHI  HZ EP        020 33.51                             117    0.06 8  255 194 
 CHI  HZ I         020 35.89         2.4 0.16            118            255 194 
 CHI  HN ES        021  3.35                             117   -0.11 8  255 194 
 GUY2CHZ EP        020 39.55                             112    0.58 7  304 234 
 GUY2CHN ES        021 13.38                             112    0.10 7  304 234 
 GUY2CHZ I         021 23.57         2.0 0.36                           304 234 
                                                                                
