 2011  829 0818 18.3 L   6.798 -73.111144.0  RSN  6 0.1 1.7LRSN                1
 GAP=186        0.32       1.8     5.0  3.1  0.2864E+01 -0.2320E+01  0.1195E+00E
 Epicentro: LOS SANTOS - SANTANDER                                             3
 ACTION:UPD 12-07-13 15:54 OP:ep   STATUS:               ID:20110829081818 L   I
 2011-08-29-0815-33S.COL___161                                                 6
 STAT SP IPHASW D HRMM SECON CODA AMPLIT PERI AZIMU VELO AIN AR TRES W  DIS CAZ7
 BAR2 SZ EP        818 37.61                             170   -0.1610 24.1 199 
 BAR2 SZ I         818 53.53        13.5 0.32                          24.1 199 
 GIR2 SZ EP   1    818 37.71                             167   -0.12 7 32.4 344 
 GIR2 SZ ES   1    818 53.08                             167    0.05 7 32.4 344 
 BRR  HZ EP   1    818 39.40                             151   -0.09 7 74.7 297 
 BRR  HN ES   1    818 56.02                             151    0.02 7 74.7 297 
 BRR  HZ I         818 59.64         9.2 0.19                          74.7 297 
 RUS  HZ EP   1    818 41.95                             144    0.07 7  100 178 
 RUS  HE ES   1    819  0.36                             144    0.11 7  100 178 
 RUS  HZ I         819  1.99         7.0 0.31                           100 178 
 OCA  SZ EP   1    818 46.76                             129    0.18 7  161 352 
 OCA  SZ ES   1    819  8.65                             129    0.05 7  161 352 
 OCA  SZ I         819 12.54         5.9 0.32                           161 352 
 PRA  HZ EP   1    819 12.13                             106    0.14 4  394 210 
                                                                                
