 2012 1129 0054 43.9 L   6.792 -73.134142.1  RSN 12 0.5 2.1LRSN                1
 GAP= 72        1.15       3.1     3.6  6.8  0.1091E+00  0.5907E+01  0.2283E+01E
 Epicentro: LOS SANTOS - SANTANDER                                             3
 ACTION:UPD 12-12-05 15:36 OP:}ep  STATUS:               ID:20121129005443 L   I
 2012-11-29-0050-00M.COL___236                                                 6
 STAT SP IPHASW D HRMM SECON CODA AMPLIT PERI AZIMU VELO AIN AR TRES W  DIS CAZ7
 BAR2 SZ ES        055 18.71                             170    0.6510 22.8 194 
 BAR2 SZ I         055 19.16        20.6 0.16                          22.8 194 
 GIR2 SZ EP        055  3.35                             167    0.1610 32.4 348 
 PAM  SZ EP        055  6.33                             150    0.5910 77.2  38 
 PAM  SN ES        055 22.85                             150    0.1010 77.2  38 
 PAM  SN I         055 24.06        42.9 0.48                          77.2  38 
 RUS  HZ EP        055  7.30                             143    0.0510 99.6 177 
 RUS  HN ES        055 24.88                             143   -0.5610 99.6 177 
 RUS  HN I         055 27.36        15.6 0.38                          99.6 177 
 PTB  HZ EP        055 10.51                             131   -0.19 9  149 259 
 PTB  HN ES        055 31.78                             131    0.20 9  149 259 
 PTB  HN I         055 33.26        24.7 0.26                           149 259 
 TAM  HZ IP     C  055 11.69                             130    0.52 9  154 105 
 TAM  HE ES        055 31.97                             130   -0.45 9  154 105 
 TAM  HE I         055 33.68         8.5 0.20                           154 105 
 OCA  HZ EP        055 11.96                             129   -0.09 9  161 353 
 OCA  HN ES        055 33.14                             129   -0.84 9  161 353 
 OCA  HN I         055 37.88        43.0 0.16                           161 353 
 ZAR  HN ES        055 42.17                             121    0.63 8  206 292 
 ZAR  HN I         055 43.09        14.2 0.30                           206 292 
 SML  HE ES        055 48.50                             117   -0.51 8  245 335 
 CHI  HZ EP        055 21.54                             116    0.17 8  248 196 
 CHI  HN ES        055 49.72                             116   -0.85 8  248 196 
 CHI  HN I         055 56.68         5.7 0.24                           248 196 
 HEL  HN ES        055 54.92                             114   -0.47 8  273 256 
 HEL  HN I         056  0.68         3.3 0.24                           273 256 
 PRA  HZ EP        055 37.51                             106    0.20 6  392 210 
 PRA  HN ES        056 19.50                             106    0.55 6  392 210 
 PRA  HN I         056 24.80         2.2 0.34                           392 210 
                                                                                
