 2016  729 0108 43.5 L   6.742 -73.122154.4  RSN  4 0.4 1.1LRSN                1
 GAP=236        0.97       8.3     9.0  8.8  0.4432E+02 -0.6965E+01 -0.1596E+02E
 Epicentro: LOS SANTOS - SANTANDER                                             3
 ACTION:UPD 17-03-29 16:56 OP:lp   STATUS:               ID:20160729010843 L   I
 OLDACT:DUP 16-07-29 14:14 OP:edw  STATUS:               ID:20160729010760d    3
 2016-07-29-0107-59S.COL___340                                                 6
 STAT SP IPHASW D HRMM SECON CODA AMPLIT PERI AZIMU VELO AIN AR TRES W  DIS CAZ7
 BRR  HZ EP        1 9  5.42                             152   -0.5010 76.7 302 
 BRR  HN ES        1 9 23.62                             152    0.2410 76.7 302 
 RUS  HZ EP        1 9  8.33                             147    0.6410 94.1 177 
 RUS  HN ES        1 9 26.22                             147   -0.3210 94.1 177 
 RUS  HZ I         1 9 27.72         2.0 0.40            147           94.1 177 
 PTB  HZ EP        1 9 11.00                             134   -0.34 9  149 261 
 PTB  HE ES        1 9 33.17                             134    0.13 9  149 261 
 ZAR  HZ EP        1 9 17.21                             124    0.17 8  209 293 
 ZAR  HN ES   4    1 9 40.17                             124   -3.02 0  209 293 
                                                                                
