 2017  529 0318 51.9 L   6.668 -73.191152.0  RSN  4 0.3 1.1LRSN                1
 GAP=222        0.48       5.9     7.4  5.0  0.3625E+02  0.7435E+01  0.4304E+01E
 Epicentro: VILLANUEVA - SANTANDER                                             3
 ACTION:UPD 17-06-16 13:39 OP:jn   STATUS:               ID:20170529031851 L   I
 OLDACT:UP  17-06-06 16:58 OP:nlst STATUS:               ID:20170529031851 L   3
 OLDACT:UP  17-05-29 15:58 OP:and  STATUS:               ID:20170529030740     3
 OLDACT:UP  17-05-29 15:56 OP:and  STATUS:               ID:20170529030740     3
 OLDACT:UP  17-05-29 15:56 OP:and  STATUS:               ID:20170529030740     3
 OLDACT:UP  17-05-29 15:56 OP:and  STATUS:               ID:20170529030740     3
 OLDACT:UP  17-05-29 15:56 OP:and  STATUS:               ID:20170529030740     3
 OLDACT:REG 17-05-29 12:35 OP:and  STATUS:               ID:20170529030740     3
 2017-05-29-0308-00M.COL___341                                                 6
 STAT SP IPHASW D HRMM SECON CODA AMPLIT PERI AZIMU VELO AIN AR TRES W  DIS CAZ7
 BRR  HZ EP   1    319 13.70                             152   -0.28 7 75.3 310 
 BRR  HN ES        319 31.13                             152   -0.0610 75.3 310 
 BRR  HZ I         319 37.70         6.5 0.34            151           75.3 310 
 RUS  HZ EP        319 15.28                             148   -0.0910 86.5 172 
 RUS  HN ES        319 33.75                             148    0.1010 86.5 172 
 RUS  HZ I         319 34.78         1.5 0.16            156           86.5 172 
 PTB  HZ EP        319 18.97                             134    0.19 9  141 264 
 PTB  HN ES   3    319 38.76                             134   -0.97 2  141 264 
 PTB  HZ I         319 41.89         1.0 0.27            137            141 264 
 ZAR  HN ES   1    319 50.89                             123    0.22 6  205 296 
 ZAR  HZ I         319 56.23         1.1 0.32            126            205 296 
                                                                                
