 2010  329 0724  1.9 L   6.795 -73.082141.9  RSN 13 0.6 4.0LRSN                1
 GAP=131        1.14       4.5     7.7  6.9 -0.5586E+01  0.7126E+01  0.4610E+01E
 Epicentro: LOS SANTOS - SANTANDER                                             3
 ACTION:UP  10-08-24 09:56 OP:vdl  STATUS:               ID:20100329072401 L   I
 2010-03-29-0722-28S.COL___098                                                 6
 STAT SP IPHASW D HRMM SECON CODA AMPLIT PERI AZIMU VELO SNR AR TRES W  DIS CAZ7
 BAR2 SZ IP        724 21.33                             169     0.210   25 207 
 BAR2 SZ ES   1    724 35.52                             169    -0.6 7   25 207 
 BRR  HZ IP        724 23.34                             150     0.310   78 296 
 BRR  HN ES   1    724 40.20                             150     0.7 7   78 296 
 BRR  HZ I         724 41.33      1527.1 0.20                            78 296 
 RUS  HZ EP        724 25.41                             143     0.210  100 180 
 RUS  HN ES   1    724 43.45                             143     0.0 7  100 180 
 RUS  HZ I         724 45.97      1286.7 0.35                           100 180 
 OCA  SZ IP        724 29.96                             129    -0.1 9  162 351 
 OCA  SZ ES   1    724 51.28                             129    -0.8 7  162 351 
 OCA  SZ I         724 55.02      2098.7 0.31                           162 351 
 CHI  HZ EP        724 39.36                             116    -0.2 8  250 197 
 CHI  HN ES   2    725  8.59                             116    -0.3 4  250 197 
 CHI  HZ I         725 14.81       290.6 0.38                           250 197 
 ROSC BZ IP        724 41.18                             115     1.0 8  256 212 
 ROSC BZ I         725 17.80       565.5 0.57                           256 212 
 HEL  HN ES   2    725 13.07                             113    -1.4 4  279 256 
 HEL  HZ I         725 20.33       432.6 0.27                           279 256 
 RREF BZ EP        724 48.72                             110     0.2 7  327 230 
 RREF BE ES   3    725 25.12                             110     0.3 2  327 230 
 RREF BZ I         725 33.51       343.9 0.40                           327 230 
 DBB  SZ EP        724 49.63                             108    -0.4 6  347 274 
 TOL  SZ EP        724 51.13                             108     0.6 6  348 226 
 SDV  BZ IP        724 50.98                             108    -0.3 6  355  49 
 ANIL BZ EP        724 51.91                             107    -0.2 6  362 225 
 ANIL BN ES   2    725 30.56                             107    -0.7 3  362 225 
 ANIL BZ I         725 38.59       538.2 0.36                           362 225 
 PRA  HE EP        724 54.71                             106    -1.0 6  395 211 
 PRA  HN ES   2    725 36.60                             106    -1.0 3  395 211 
 PRA  HZ I         725 41.97       267.0 0.19                           395 211 
                                                                                
