 2017 1129 0626  8.4 L   6.829 -73.130142.2  RSN 29 0.9 2.5LRSN                1
 GAP= 56        1.80       3.0     3.7  7.3 -0.8448E+00  0.6794E+01 -0.1522E+01E
 Epicentro: LOS SANTOS - SANTANDER                                             3
 ACTION:UPD 17-12-12 20:01 OP:rebc STATUS:               ID:20171129062608 L   I
 OLDACT:DUP 17-11-29 16:16 OP:dhb  STATUS:               ID:20171129061738d    3
 OLDACT:REG 17-11-29 12:28 OP:dhb  STATUS:               ID:20171129061737     3
 2017-11-29-0618-00M.COL___477                                                 6
 STAT SP IPHASW D HRMM SECON CODA AMPLIT PERI AZIMU VELO AIN AR TRES W  DIS CAZ7
 BAR2 EZ IP     C  626 27.79                             169    0.1210 26.9 193 
 BAR2 EZ ES        626 42.17                             169   -0.5510 26.9 193 
 BAR2 EZ I         626 43.47       135.7 0.24            167           26.9 193 
 PAM  EZ IP     C  626 30.70                             151    0.6910 73.8  40 
 PAM  EE ES        626 47.24                             151    0.3610 73.8  40 
 PAM  EZ I         626 49.98        66.4 0.38            149           73.8  40 
 RUS  HZ EP        626 32.11                             142    0.0810  104 177 
 RUS  HN ES        626 49.95                             142   -0.5110  104 177 
 RUS  HZ I         626 51.02        52.6 0.26            139            104 177 
 PTB  HZ EP        626 34.66                             131   -0.63 9  150 258 
 PTB  HE ES        626 56.25                             131   -0.02 9  150 258 
 PTB  HZ I         626 58.62        27.9 0.18            126            150 258 
 TAM  HZ IP     D  626 36.12                             130    0.41 9  154 106 
 TAM  HN ES        626 57.53                             130    0.51 9  154 106 
 TAM  HZ I         626 58.20        34.2 0.22            128            154 106 
 OCA  HZ IP     C  626 36.19                             129    0.05 9  157 352 
 OCA  HE ES        626 58.04                             129    0.25 9  157 352 
 SPBC HZ EP        626 36.89                             128   -0.08 9  167 219 
 SPBC HE ES        626 59.49                             128    0.23 9  167 219 
 SPBC HZ I         627  4.77        38.5 0.28            123            167 219 
 YPLC HZ IP     D  626 38.25                             125    0.12 9  179 152 
 YPLC HE ES        627  1.23                             125   -0.10 9  179 152 
 YPLC HZ I         627  4.57        55.6 0.28            123            179 152 
 ZAR  HZ EP        626 40.84                             121    0.19 9  205 291 
 ZAR  HE ES        627  6.46                             121    0.64 9  205 291 
 ZAR  HZ I         627 12.40        59.4 0.38            117            205 291 
 TABC EZ EP        626 44.79                             118    0.46 8  234 211 
 TABC EZ ES        627 13.86                             118    1.50 8  234 211 
 TABC EZ I         627 17.05        35.3 0.46            114            234 211 
 NOR  HZ EP        626 45.07                             117    0.79 8  238 234 
 NOR  HE ES        627 12.09                             117   -0.18 8  238 234 
 NOR  HZ I         627 18.50        17.1 0.30            113            238 234 
 CHI  HZ EP        626 46.11                             116   -0.18 8  252 195 
 CHI  HE ES        627 15.17                             116   -0.68 8  252 195 
 CHI  HZ I         627 18.42        14.0 0.30            113            252 195 
 ROSC BZ EP        626 48.03                             116    1.31 8  256 211 
 ROSC BE ES        627 17.92                             116    1.30 8  256 211 
 ROSC BZ I         627 22.45        27.4 0.35            112            256 211 
 HEL  HZ EP        626 49.53                             114    0.83 8  275 255 
 HEL  HE ES        627 18.74                             114   -1.41 8  275 255 
 HEL  HZ I         627 30.10        14.1 0.40            110            275 255 
 URE  HZ EP        626 48.21                             113   -1.13 7  284 291 
 URE  HE ES        627 20.50                             113   -0.78 7  284 291 
 URE  HZ I         627 34.16        23.2 0.28            109            284 291 
 DRL03HZ EP        626 49.73                             113    0.24 7  286 352 
 DRL03HE ES        627 21.41                             113   -0.15 7  286 352 
 GUY2CHZ EP        626 53.70                             111    1.49 7  305 234 
 GUY2CHE ES        627 25.31                             111   -1.08 7  305 234 
 GUY2CHZ I         627 33.15        12.1 0.28                           305 234 
 VIL  EZ EP        626 51.99                             111   -0.06 7  307 192 
 VIL  EE ES        627 26.73                             111    0.63 7  307 192 
 VIL  EZ I         627 34.31        23.7 0.32            108            307 192 
 PTGC HZ EP        626 50.97                             111   -1.39 7  311 159 
 PTGC HE ES        627 23.80                             111   -2.86 7  311 159 
 PTGC HZ I         627 25.88        20.8 0.40            108            311 159 
 LL6C HZ EP        626 53.11                             110   -0.47 7  322 357 
 LL6C HN ES        627 29.34                             110    0.51 7  322 357 
 LL6C HZ I         627 29.56         9.6 0.42            107            322 357 
 CBOC HZ EP        626 56.81                             109    1.34 7  336 252 
 CBOC HE ES        627 32.19                             109   -0.00 7  336 252 
 CBOC HZ I         627 35.58         7.4 0.58            106            336 252 
 DBB  HN ES        627 31.55                             109   -1.41 7  341 274 
 DBB  EZ I         627 34.34        12.3 0.26            105            341 274 
 SDV  BZ IP     C  626 57.62                             108   -0.28 6  357  50 
 SDV  B2 ES        627 34.98                             108   -1.53 6  357  50 
 SDV  BZ I         627 37.78        11.9 0.40            105            357  50 
 ARGC HZ EP        626 59.27                             108    1.64 6  357 340 
 ARGC HE ES        627 37.26                             108    1.23 6  357 340 
 ARGC HZ I         627 51.24         8.8 0.26            105            357 340 
 PRA  HZ EP        627  1.77                             106   -0.45 6  396 210 
 PRA  HE ES        627 43.30                             106   -0.91 6  396 210 
 PRA  HZ I         627 49.64        20.1 0.40            103            396 210 
 APAC HZ EP        627  2.37                             106   -0.17 6  399 287 
 APAC HE ES        627 44.71                             106   -0.07 6  399 287 
 APAC HZ I         628  2.51         7.4 0.60            102            399 287 
 ORTC HZ EP        627  3.15                             106    0.53 6  399 216 
 ORTC HE ES   2    627 46.31                             106    1.39 3  399 216 
 ORTC HZ I         627 49.83        12.4 0.40            103            399 216 
 SJC  HZ IP     C  627  2.78                             105   -0.85 6  407 326 
 SJC  HE ES        627 43.95                             105   -2.77 6  407 326 
 SJC  HZ I         627 48.14        21.3 0.58            102            407 326 
 PAL  HZ EP        627  3.95                             105    0.14 6  409 239 
 PAL  HE ES        627 46.06                             105   -0.97 6  409 239 
 PAL  HZ I         627 56.44         5.9 0.42            102            409 239 
                                                                                
