 2017  329 0219 41.6 L   6.765 -73.167146.0  RSN  4 0.3 1.3LRSN                1
 GAP=232        0.71       5.8     5.7  5.9  0.1750E+02  0.5169E+01  0.2178E+01E
 Epicentro: LOS SANTOS - SANTANDER                                             3
 ACTION:UPD 17-05-25 18:46 OP:jn   STATUS:               ID:20170329021941 L   I
 OLDACT:REG 17-03-29 12:27 OP:dnl  STATUS:               ID:20170329021740     3
 2017-03-29-0218-00M.COL___365                                                 6
 STAT SP IPHASW D HRMM SECON CODA AMPLIT PERI AZIMU VELO AIN AR TRES W  DIS CAZ7
 BAR2 EZ EP   2    220  1.02                             172   -0.11 5 19.2 185 
 BAR2 EZ ES        220 16.03                             172   -0.3710 19.2 185 
 BAR2 EZ I         220 20.56         7.0 0.68            173           19.2 185 
 BRR  HZ EP        220  2.67                             153   -0.0510 71.1 302 
 BRR  HE ES        220 19.56                             153    0.3310 71.1 302 
 BRR  HZ I         220 22.32         7.0 0.32            155           71.1 302 
 RUS  HZ EP        220  5.44                             145    0.3810 96.9 175 
 RUS  HN ES        220 23.44                             145    0.0410 96.9 175 
 RUS  HZ I         220 25.59         1.4 0.36            148           96.9 175 
 PTB  HZ EP        220  7.87                             133   -0.39 9  145 260 
 PTB  HN ES        220 29.16                             133    0.06 9  145 260 
 PTB  HZ I         220 30.64         2.1 0.24            136            145 260 
                                                                                
