 2011 1129 0959  4.7 L   6.783 -73.086150.2  RSN  6 0.2 1.7LRSN                1
 GAP=145        0.53       3.1     5.3  4.6  0.1741E+00 -0.1047E+01 -0.2888E+01E
 Epicentro: LOS SANTOS - SANTANDER                                             3
 ACTION:UPD 12-07-13 16:13 OP:ep   STATUS:               ID:20111129095904 L   I
 2011-11-29-0957-29S.COL___179                                                 6
 STAT SP IPHASW D HRMM SECON CODA AMPLIT PERI AZIMU VELO AIN AR TRES W  DIS CAZ7
 BAR2 SZ EP        959 24.86                             171    0.0010 23.6 207 
 BAR2 SZ ES   1    959 40.49                             171   -0.10 7 23.6 207 
 BAR2 SZ I         959 42.68        14.9 0.48                          23.6 207 
 GIR2 SZ EP        959 24.93                             166   -0.0610 34.8 340 
 PAM  SZ EP        959 27.63                             152    0.3910 74.9  35 
 PAM  SN ES   1    959 44.69                             152   -0.13 7 74.9  35 
 BRR  HZ EP        959 26.73                             151    0.0310 77.9 297 
 BRR  HE ES   1    959 44.10                             151    0.23 7 77.9 297 
 BRR  HZ I         959 45.90        16.6 0.16                          77.9 297 
 RUS  HZ EP        959 28.76                             145    0.0310 98.4 180 
 RUS  HN ES   1    959 47.30                             145   -0.18 7 98.4 180 
 RUS  HZ I         959 48.75         3.0 0.38                          98.4 180 
 OCA  SZ EP        959 33.25                             130   -0.36 9  163 351 
                                                                                
