 2013 1029 0643 26.8 L   7.031 -73.362108.6  RSN  5 0.5 1.1LRSN                1
 GAP=179        1.20       5.8     8.7 13.4 -0.1037E+02  0.5574E+02 -0.3127E+02E
 Epicentro: BETULIA - SANTANDER                                                3
 ACTION:UPD 13-11-25 09:24 OP:ep   STATUS:               ID:20131029064326 L   I
 OLDACT:REG 13-10-29 07:04 OP:jn   STATUS:               ID:20131029064000     3
 2013-10-29-0640-00M.COL___273                                                 6
 STAT SP IPHASW D HRMM SECON CODA AMPLIT PERI AZIMU VELO AIN AR TRES W  DIS CAZ7
 BRR  HZ EP        643 42.82                             158    0.6010 39.5 282 
 BRR  HN ES   4    643 56.28                             158    2.05 0 39.5 282 
 BRR  HZ I         643 56.92         4.8 0.12            154           39.5 282 
 BAR2 SZ EP   1    643 43.25                             152    0.03 7 52.4 158 
 BAR2 SZ ES        643 55.69                             152   -0.3310 52.4 158 
 BAR2 SZ I         643 57.58         5.6 0.16            154           52.4 158 
 PTB  HZ EP        643 48.66                             125   -0.8310  133 246 
 PTB  HE ES        644  6.98                             125   -0.2010  133 246 
 PTB  HZ I         644 12.60         1.9 0.36            125            133 246 
 SPBC HZ EP   1    643 54.04                             117    0.39 7  172 207 
 SPBC HE ES        644 15.19                             117    0.60 9  172 207 
 SPBC HZ I         644 20.46         1.4 0.28            119            172 207 
 SML  HZ EP   1    643 57.20                             112   -0.68 6  211 338 
 SML  HN ES   1    644 22.75                             112    0.63 6  211 338 
                                                                                
