 2014  129 0030 37.4 L   6.786 -73.170139.1  RSN  8 0.3 1.4LRSN                1
 GAP=134        0.64       2.8     3.2  4.3 -0.2687E+01  0.5126E+01  0.1326E+01E
 Epicentro: LOS SANTOS - SANTANDER                                             3
 ACTION:UPD 14-03-13 09:59 OP:ep   STATUS:               ID:20140129003037 L   I
 OLDACT:REG 14-01-29 08:15 OP:stll STATUS:               ID:20140129002806     3
 2014-01-29-0028-06M.COL___255                                                 6
 STAT SP IPHASW D HRMM SECON CODA AMPLIT PERI AZIMU VELO AIN AR TRES W  DIS CAZ7
 BAR2 SZ ES        031 11.05                             171    0.2410 21.5 184 
 BAR2 SZ I         031 12.72        13.6 0.22            168           21.5 184 
 BRR  HZ EP        030 57.89                             152    0.1910 69.6 301 
 PAM  SZ EP        030 59.25                             149    0.2010 80.3  40 
 PAM  SZ I         030 59.35         4.4 0.20            154           80.3  40 
 PAM  SN ES        031 15.92                             149   -0.0510 80.3  40 
 RUS  HZ EP        031  0.16                             143   -0.2010 99.3 174 
 RUS  HN ES        031 18.00                             143   -0.3110 99.3 174 
 RUS  HZ I         031 20.25         2.4 0.28            142           99.3 174 
 PTB  HZ EP        031  3.00                             131   -0.52 9  145 259 
 PTB  HN ES        031 23.75                             131   -0.17 9  145 259 
 PTB  HZ I         031 28.30         3.3 0.42            131            145 259 
 NOR  HZ EP        031 12.42                             117    0.05 8  232 234 
 NOR  HE ES        031 40.00                             117    0.32 8  232 234 
 NOR  HZ I         031 45.86         1.8 0.20            118            232 234 
 CHI  HZ EP        031 14.45                             116   -0.01 8  246 195 
 CHI  HN ES        031 43.71                             116    0.32 8  246 195 
 CHI  HZ I         031 49.98         1.4 0.32            116            246 195 
 GUY2CHZ EP        031 20.50                             111    0.19 7  298 235 
 GUY2CHZ I         032  2.39         1.6 0.28                           298 235 
                                                                                
