 2016  929 0543  4.4 L   7.388 -73.182134.8  RSN  6 0.3 1.4LRSN                1
 GAP=105        0.81       3.3     3.4  5.8 -0.1189E+00  0.4943E+01  0.3254E+01E
 Epicentro: EL PLAYON - SANTANDER                                              3
 ACTION:UPD 17-08-17 21:17 OP:lp   STATUS:               ID:20160929054304 L   I
 OLDACT:UP  16-09-29 16:19 OP:dani STATUS:               ID:20160929053748     3
 OLDACT:UP  16-09-29 16:19 OP:dani STATUS:               ID:20160929053748     3
 OLDACT:UP  16-09-29 16:18 OP:dani STATUS:               ID:20160929053748     3
 OLDACT:REG 16-09-29 13:18 OP:dani STATUS:               ID:20160929053748     3
 2016-09-29-0538-00M.COL___372                                                 6
 STAT SP IPHASW D HRMM SECON CODA AMPLIT PERI AZIMU VELO AIN AR TRES W  DIS CAZ7
 PAM  EZ EP        543 24.29                             157    0.1110 53.6  96 
 PAM  EE ES        543 39.77                             157    0.1910 53.6  96 
 PAM  EZ I         543 42.07         9.7 0.33            161           53.6  96 
 BRR  HZ EP     D  543 23.98                             152   -0.1510 66.2 242 
 BRR  HN ES        543 39.02                             152   -0.4610 66.2 242 
 BRR  HZ I         543 41.14         8.6 0.18            152           66.2 242 
 OCA  HZ EP        543 25.95                             143   -0.3110 95.2 351 
 OCA  HE ES        543 43.42                             143    0.1410 95.2 351 
 RUS  HZ EP        543 32.75                             126   -0.16 9  166 176 
 RUS  HN ES        543 55.34                             126    0.22 9  166 176 
 RUS  HZ I         543 55.84         1.0 0.16            128            166 176 
 PTB  HZ EP        543 32.15                             125   -0.47 9  169 236 
 PTB  HE ES        543 54.93                             125    0.33 9  169 236 
 PTB  HZ I         543 59.38         2.4 0.32            126            169 236 
 ZAR  HZ EP        543 34.88                             123    0.63 9  185 274 
 ZAR  HN ES        543 57.58                             123    0.09 9  185 274 
 ZAR  HZ I         544  1.30         4.4 0.10            124            185 274 
 SPBC HE ES   4    544  5.99                             118    2.61 0  216 207 
                                                                                
