 2012  629 0026  0.7 L   6.788 -73.162149.2  RSN  7 0.4 1.7LRSN                1
 GAP=135        0.74       4.1     4.5  7.3  0.2537E+00  0.6789E+01 -0.8699E+00E
 Epicentro: LOS SANTOS - SANTANDER                                             3
 ACTION:UPD 12-08-06 17:53 OP:ep   STATUS:               ID:20120629002600 L   I
 2012-06-29-0020-00M.COL___201                                                 6
 STAT SP IPHASW D HRMM SECON CODA AMPLIT PERI AZIMU VELO AIN AR TRES W  DIS CAZ7
 BAR2 SZ ES   1    026 36.34                             171   -0.02 7 21.8 186 
 BAR2 SZ I         026 38.23        18.6 0.21                          21.8 186 
 BRR  HZ EP   1    026 22.50                             153    0.30 7 70.2 300 
 BRR  HN ES   1    026 39.77                             153    0.82 7 70.2 300 
 BRR  HZ I         026 42.36         8.5 0.16                          70.2 300 
 PAM  SZ EP   1    026 23.56                             151    0.11 7 79.5  40 
 PAM  SZ I         026 23.82         8.0 0.22                          79.5  40 
 PAM  SN ES   1    026 40.68                             151   -0.48 7 79.5  40 
 RUS  HZ EP   1    026 24.80                             145    0.05 7 99.4 175 
 RUS  HN ES   1    026 43.41                             145   -0.06 7 99.4 175 
 RUS  HZ I         026 45.06         7.7 0.26                          99.4 175 
 PTB  HZ EP   1    026 27.93                             133    0.13 7  146 259 
 PTB  HN ES   1    026 48.33                             133   -0.58 7  146 259 
 PTB  HZ I         026 50.75         3.5 0.16                           146 259 
 OCA  HN ES   1    026 51.64                             130   -0.14 7  161 354 
 ZAR  HN ES   1    026 58.39                             123   -0.28 6  203 293 
                                                                                
