 2011  829 0203 38.9 L   6.729 -73.119148.7  RSN  4 0.1 1.0LRSN                1
 GAP=189        0.33       4.7     8.7  4.6  0.2422E+02 -0.4562E+01 -0.2048E+01E
 Epicentro: JORDAN - SANTANDER                                                 3
 ACTION:UPD 12-07-13 15:54 OP:ep   STATUS:               ID:20110829020338 L   I
 2011-08-29-0200-00M.COL___162                                                 6
 STAT SP IPHASW D HRMM SECON CODA AMPLIT PERI AZIMU VELO AIN AR TRES W  DIS CAZ7
 BAR2 SZ EP   1    2 3 58.68                             173   -0.07 7 16.7 205 
 BAR2 SZ I         2 3 59.03         1.9 0.10                          16.7 205 
 BAR2 SZ ES   2    2 4 14.20                             173   -0.05 5 16.7 205 
 GIR2 SZ EP   1    2 3 59.16                             164    0.01 7 39.5 348 
 GIR2 SZ ES   2    2 4 15.03                             164    0.08 5 39.5 348 
 BRR  HZ EP   1    2 4  0.61                             151   -0.11 7 77.7 303 
 BRR  HZ I         2 4  1.13         3.0 0.37                          77.7 303 
 BRR  HE ES   2    2 4 17.89                             151    0.14 5 77.7 303 
 RUS  HZ EP   2    2 4  2.71                             147    0.34 5 92.6 178 
 RUS  HZ I         2 4 16.58         1.3 0.73                          92.6 178 
 RUS  HN ES   2    2 4 20.57                             147   -0.13 5 92.6 178 
                                                                                
