 2010  929 0713 35.9 L   6.821 -73.153144.3  RSN  4 0.2 1.2LRSN                1
 GAP=238        0.41       4.9     6.2  6.4  0.9343E+01  0.2190E+01  0.2984E+01E
 Epicentro: LOS SANTOS - SANTANDER                                             3
 ACTION:UP  11-02-18 11:06 OP:tino STATUS:               ID:20100929071335 L   I
 2010-09-29-0710-00S.COL___119                                                 6
 STAT SP IPHASW D HRMM SECON CODA AMPLIT PERI AZIMU VELO SNR AR TRES W  DIS CAZ7
 BAR2 SZ EP   2    713 55.47                             170     0.1 5   26 188 
 BAR2 SZ ES   2    714 10.70                             170     0.1 5   26 188 
 BAR2 SZ I         714 11.39         4.8 0.21                            26 188 
 BRR  HZ EP   1    713 56.96                             153     0.2 7   69 297 
 BRR  HZ I         713 58.72         6.3 0.11                            69 297 
 BRR  HE ES   2    714 12.78                             153    -0.3 5   69 297 
 RUS  HZ EP   1    713 59.46                             143    -0.2 7  103 176 
 RUS  HN ES   2    714 18.37                             143     0.2 5  103 176 
 RUS  HZ I         714 20.13         1.1 0.27                           103 176 
 NOR  SE ES   2    714 39.50                             118     0.0 4  235 234 
                                                                                
