 2014 1129 0142 57.7 L   6.790 -73.118151.1  RSN  9 0.5 1.5LRSN                1
 GAP=230        1.24       5.5     6.9  7.9  0.1671E+02  0.1501E+02  0.4284E+01E
 Epicentro: LOS SANTOS - SANTANDER                                             3
 ACTION:UPD 14-12-19 15:48 OP:nd   STATUS:               ID:20141129014257 L   I
 OLDACT:REG 14-11-29 12:55 OP:fm   STATUS:               ID:20141129013749     3
 2014-11-29-0137-49M.COL___300                                                 6
 STAT SP IPHASW D HRMM SECON CODA AMPLIT PERI AZIMU VELO AIN AR TRES W  DIS CAZ7
 BAR2 SZ EP        143 18.47                             171    0.5510 23.0 198 
 BAR2 SZ ES        143 33.77                             171    0.0410 23.0 198 
 BAR2 SZ I         143 34.56         5.2 0.36            166           23.0 198 
 BRR  HZ EP     C  143 20.13                             152    0.5710 74.4 298 
 BRR  HN ES        143 37.26                             152    0.6210 74.4 298 
 BRR  HZ I         143 39.37         5.6 0.44            150           74.4 298 
 RUS  HZ EP        143 21.39                             145   -0.4610 99.3 178 
 RUS  HN ES        143 39.86                             145   -0.8610 99.3 178 
 RUS  HZ I         143 42.10         2.8 0.30            144           99.3 178 
 PTB  HZ EP        143 25.17                             133   -0.14 9  151 259 
 PTB  HN ES        143 46.52                             133   -0.36 9  151 259 
 PTB  HZ I         143 48.40         3.4 0.52            131            151 259 
 ZAR  HN I         141 28.98                                            207 292 
 ZAR  HZ EP        143 30.43                             123   -0.35 8  207 292 
 ZAR  HN ES        143 56.15                             123   -0.47 8  207 292 
 ZAR  HZ I         144  3.55         2.9 0.22            123            207 292 
 NOR  HZ EP        143 34.62                             119    0.72 8  237 235 
 NOR  HE ES        144  2.63                             119    0.46 8  237 235 
 NOR  HZ I         144  7.61         2.9 0.26            119            237 235 
 CHI  HZ EP   1    143 35.66                             118    0.02 6  248 196 
 CHI  HN ES        144  5.48                             118    0.23 8  248 196 
 CHI  HZ I         144 11.60         1.5 0.50            118            248 196 
 MON  HN ES        144 25.03                             109   -0.85 6  357 308 
 MON  HZ I         144 26.80         1.1 0.40            110            357 308 
 SJC  HN ES   4    144 33.77                             106   -3.64 0  412 327 
 SJC  HZ I         144 36.38         1.0 0.48            107            412 327 
                                                                                
