 2015 1129 0928 53.0 L   6.834 -73.118146.0  RSN 10 0.4 1.6LRSN                1
 GAP=138        0.94       3.2     4.5  5.9  0.5047E+00  0.1023E+02 -0.2808E+00E
 Epicentro: LOS SANTOS - SANTANDER                                             3
 ACTION:UPD 15-12-28 16:14 OP:cam  STATUS:               ID:20151129092853 L   I
 OLDACT:UP  15-11-29 18:15 OP:ak   STATUS:               ID:20151129092750     3
 OLDACT:REG 15-11-29 12:52 OP:ak   STATUS:               ID:20151129092750     3
 2015-11-29-0927-50M.COL___307                                                 6
 STAT SP IPHASW D HRMM SECON CODA AMPLIT PERI AZIMU VELO AIN AR TRES W  DIS CAZ7
 BAR2 EZ EP        929 12.84                             169    0.0910 27.6 195 
 BAR2 EZ ES        929 27.69                             169   -0.4710 27.6 195 
 BAR2 EZ I         929 29.27        10.2 0.34            168           27.6 195 
 BRR  HZ EP        929 14.60                             152    0.3710 72.3 295 
 BRR  HN ES        929 31.32                             152    0.5310 72.3 295 
 BRR  HZ I         929 34.07         5.5 0.53            149           72.3 295 
 PAM  EZ EP        929 15.66                             152    0.7010 72.6  40 
 PAM  EN ES        929 32.03                             152   -0.0610 72.6  40 
 PAM  EZ I         929 34.90         7.5 0.56            156           72.6  40 
 RUS  HZ EP        929 17.04                             143    0.0010  104 178 
 RUS  HN ES        929 35.45                             143   -0.3310  104 178 
 RUS  HZ I         929 36.35         2.1 0.30            145            104 178 
 PTB  HZ EP        929 19.86                             131   -0.47 9  152 258 
 PTB  HN ES   4    929 40.22                             131   -1.42 0  152 258 
 PTB  HZ I         929 47.71         3.6 0.22            131            152 258 
 ZAR  HZ EP   2    929 26.23                             122    0.62 4  206 291 
 ZAR  HN ES        929 50.85                             122   -0.20 8  206 291 
 ZAR  HZ I         929 57.39         4.1 0.37            122            206 291 
 SML  HZ EP        929 28.71                             118   -0.71 8  242 334 
 SML  HN ES        929 57.62                             118   -0.20 8  242 334 
 SML  HZ I         930  0.80         6.8 0.08            119            242 334 
 GUY2CHZ EP   4    929 39.15                             112    2.00 0  306 235 
 GUY2CHE ES        930 11.82                             112    0.24 7  306 235 
 GUY2CHZ I         930 20.31         1.0 0.38                           306 235 
 PRA  HZ EP   2    929 46.72                             106   -0.37 3  397 210 
 PRA  HN ES        930 29.72                             106    0.45 6  397 210 
 PRA  HZ I         930 34.05         1.6 0.14            108            397 210 
 SJC  HZ EP   4    929 47.12                             106   -1.28 0  408 326 
 SJC  HE ES   2    930 30.93                             106   -0.68 3  408 326 
                                                                                
