 2011  629 0248 44.0 L   6.790 -73.072143.7  RSN  9 0.3 1.6LRSN                1
 GAP=147        0.65       3.2     4.8  5.3 -0.3346E+01 -0.2219E+01  0.8082E+00E
 Epicentro: LOS SANTOS - SANTANDER                                             3
 ACTION:UP  11-07-14 19:09 OP:ep   STATUS:               ID:20110629024844 L   I
 2011-06-29-0247-15S.COL___140                                                 6
 STAT SP IPHASW D HRMM SECON CODA AMPLIT PERI AZIMU VELO SNR AR TRES W  DIS CAZ7
 BAR2 SZ EP   1    249  3.17                             170    -0.3 7   25 209 
 BAR2 SZ ES   1    249 18.17                             170    -0.4 7   25 209 
 BAR2 SZ I         249 21.32        14.5 0.32                            25 209 
 BTL  SZ EP        249  3.43                             169     0.010   26 303 
 GIR2 SZ EP   2    249  3.56                             166     0.0 5   35 337 
 PAM  SZ EP   1    249  6.20                             152     0.4 7   73  34 
 PAM  SN ES   2    249 22.91                             152     0.2 5   73  34 
 BRR  HZ EP        249  5.25                             150    -0.210   79 296 
 BRR  HE ES        249 22.24                             150     0.210   79 296 
 BRR  HZ I         249 24.33         7.5 0.19                            79 296 
 RUS  HZ EP   1    249  7.27                             144    -0.2 7   99 181 
 RUS  HE ES   1    249 26.17                             144     0.4 7   99 181 
 RUS  HZ I         249 27.33         3.6 0.30                            99 181 
 GRA  SZ EP        249  9.16                             137     0.210  125  14 
 GRA  SZ ES   1    249 28.16                             137    -0.3 7  125  14 
 GRA  SZ I         249 31.45         3.4 0.36                           125  14 
 CHI  HZ EP   2    249 21.84                             116     0.1 4  250 197 
 CHI  HZ I         249 22.25         2.6 0.18                           250 197 
 CHI  HN ES   2    249 51.00                             116    -0.2 4  250 197 
 HEL  HZ EP   2    249 24.23                             114    -0.7 4  280 256 
 HEL  HN ES   2    249 57.61                             114     0.7 4  280 256 
 HEL  HZ I         250  2.36         2.7 0.45                           280 256 
                                                                                
