 2011  429 0009 32.1 L   6.776 -73.121148.7  RSN  7 0.2 1.8LRSN                1
 GAP=141        0.48       2.7     3.8  4.1 -0.4551E+01  0.2516E+01  0.3669E+00E
 Epicentro: LOS SANTOS - SANTANDER                                             3
 ACTION:UP  11-06-22 15:33 OP:REBC STATUS:               ID:20110429000932 L   I
 2011-04-29-0007-19S.COL___138                                                 6
 STAT SP IPHASW D HRMM SECON CODA AMPLIT PERI AZIMU VELO SNR AR TRES W  DIS CAZ7
 BAR2 SZ EP        0 9 52.05                             171     0.010   21 198 
 BAR2 SZ ES   1    010  7.38                             171    -0.3 7   21 198 
 BAR2 SZ I         010  8.79        51.6 0.23                            21 198 
 GIR2 SZ EP   1    0 9 52.19                             166     0.0 7   34 347 
 BRR  HZ EP   1    0 9 53.89                             152     0.1 7   75 299 
 BRR  HN ES   1    010 11.06                             152     0.4 7   75 299 
 BRR  HZ I         010 13.04        23.3 0.12                            75 299 
 PAM  SZ EP   1    0 9 54.77                             151     0.1 7   78  37 
 PAM  SN ES   1    010 12.10                             151    -0.2 7   78  37 
 PAM  SZ I         010 14.29         4.0 0.16                            78  37 
 RUS  HZ EP   1    0 9 56.02                             145     0.1 7   98 178 
 RUS  HN ES   1    010 14.82                             145     0.3 7   98 178 
 RUS  HZ I         010 15.96        11.9 0.24                            98 178 
 GRA  SZ EP   1    0 9 57.86                             137     0.1 7  128  16 
 GRA  SZ ES   1    010 17.64                             137    -0.2 7  128  16 
 GRA  SZ I         010 20.79        14.2 0.25                           128  16 
 NOR  SZ EP   1    010  8.04                             119    -0.1 6  235 235 
 NOR  SN ES   1    010 35.81                             119    -0.3 6  235 235 
 NOR  SZ I         010 40.13         1.5 0.13                           235 235 
                                                                                
