 2016  729 0516 46.2 L   6.755 -73.156146.4  RSN  5 0.2 1.5LRSN                1
 GAP=233        0.51       3.0     3.3  4.1  0.1907E+01  0.6887E+00  0.1674E+01E
 Epicentro: LOS SANTOS - SANTANDER                                             3
 ACTION:UPD 17-03-29 16:56 OP:lp   STATUS:               ID:20160729051646 L   I
 OLDACT:DUP 16-07-29 16:27 OP:edw  STATUS:               ID:20160729050760d    3
 OLDACT:REG 16-07-29 13:06 OP:edw  STATUS:               ID:20160729050759     3
 2016-07-29-0507-59S.COL___331                                                 6
 STAT SP IPHASW D HRMM SECON CODA AMPLIT PERI AZIMU VELO AIN AR TRES W  DIS CAZ7
 BAR2 EZ EP        517  5.46                             173   -0.3410 18.2 189 
 BAR2 EZ ES        517 20.95                             173   -0.1410 18.2 189 
 BRR  HZ EP        517  7.50                             152    0.0110 72.7 302 
 BRR  HN ES        517 24.33                             152    0.2310 72.7 302 
 RUS  HZ EP        517  9.90                             145    0.2510 95.7 175 
 RUS  HN ES        517 28.06                             145    0.1110 95.7 175 
 RUS  HZ I         517 29.42         4.0 0.30            144           95.7 175 
 PTB  HZ EP   4    517  9.62                             133   -3.40 0  146 261 
 PTB  HE ES        517 33.88                             133   -0.07 9  146 261 
 PTB  HZ I         517 35.84         3.2 0.10            132            146 261 
 SPBC HZ EP        517 14.32                             130    0.02 9  159 220 
 SPBC HN ES        517 36.16                             130   -0.07 9  159 220 
 SPBC HZ I         517 38.21         4.5 0.17            129            159 220 
                                                                                
