 2015  829 0722 54.4 L   6.372 -73.607108.4  RSN 20 0.4 2.3LRSN                1
 GAP= 70        0.97       1.8     2.8  4.7 -0.9816E+00  0.5172E+01  0.8902E-01E
 Epicentro: SANTA HELENA DEL OPON - SANTANDER                                  3
 ACTION:UPD 15-09-15 23:06 OP:cam  STATUS:               ID:20150829072254 L   I
 OLDACT:REG 15-08-29 13:48 OP:ak   STATUS:               ID:20150829071749     3
 2015-08-29-0717-49M.COL___355                                                 6
 STAT SP IPHASW D HRMM SECON CODA AMPLIT PERI AZIMU VELO AIN AR TRES W  DIS CAZ7
 BAR2 EZ IP     D  723 11.26                             152    0.4010 52.9  63 
 BAR2 EZ ES        723 23.63                             152   -0.0410 52.9  63 
 BAR2 EZ I         723 25.15       167.7 0.14            156           52.9  63 
 RUS  HZ EP        723 13.13                             142    0.1910 78.5 132 
 RUS  HN ES        723 26.94                             142   -0.4210 78.5 132 
 RUS  HZ I         723 28.96        24.5 0.35            146           78.5 132 
 BRR  HZ IP     D  723 12.26                             140   -0.2710 82.1 352 
 BRR  HN ES        723 27.48                             140    0.8510 82.1 352 
 BRR  HZ I         723 32.38        26.6 0.14            140           82.1 352 
 SPBC HZ EP        723 13.34                             136   -0.3610 94.8 213 
 SPBC HN ES        723 28.35                             136   -0.3610 94.8 213 
 SPBC HZ I         723 30.33        62.4 0.32            136           94.8 213 
 NOR  HZ EP        723 19.67                             118   -0.96 9  166 237 
 NOR  HE ES        723 41.16                             118    0.11 9  166 237 
 NOR  HZ I         723 43.02        24.0 0.17            119            166 237 
 ZAR  HZ EP        723 22.39                             115   -0.33 9  186 312 
 ZAR  HN ES        723 44.70                             115   -0.07 9  186 312 
 ZAR  HZ I         723 49.98        22.5 0.10            115            186 312 
 ROSC BZ EP        723 23.18                             115   -0.17 9  187 205 
 ROSC BN ES        723 46.21                             115    0.31 9  187 205 
 ROSC BZ I         723 53.59        15.8 0.30            116            187 205 
 CHI  HZ EP        723 24.12                             114    0.05 9  193 184 
 CHI  HN ES        723 47.01                             114   -0.17 9  193 184 
 CHI  HZ I         723 51.03        12.1 0.26            116            193 184 
 OCA  HZ EP        723 25.41                             112   -0.09 8  209   9 
 OCA  HN ES        723 49.89                             112    0.17 8  209   9 
 HEL  HZ EP        723 26.21                             112   -0.10 8  214 265 
 HEL  HN ES        723 50.58                             112   -0.58 8  214 265 
 HEL  HZ I         723 53.72        11.7 0.30            112            214 265 
 GUY2CHZ EP        723 29.32                             110    0.73 8  232 237 
 GUY2CHN ES        723 55.56                             110    0.34 8  232 237 
 GUY2CHZ I         723 59.97         9.8 0.35                           232 237 
 VIL  SZ EP        723 30.71                             108    0.51 8  250 182 
 VIL  SN ES        723 57.80                             108   -0.28 8  250 182 
 VIL  SZ I         724  1.24        16.8 0.42            109            250 182 
 URE  HZ EP   4    723 29.83                             107   -1.58 0  262 306 
 URE  HN ES   4    723 57.69                             107   -2.56 0  262 306 
 URE  HZ I         724 10.66        12.1 0.44            107            262 306 
 CBOC HZ EP        723 33.55                             106    0.73 8  272 258 
 CBOC HN ES        724  2.16                             106   -0.58 8  272 258 
 SML  HZ EP        723 32.46                             106   -0.29 8  273 349 
 SML  HN ES        724  2.73                             106    0.10 8  273 349 
 SML  HZ I         724 11.53        20.9 0.10            107            273 349 
 TOL  SZ EP   1    723 33.24                             106   -0.00 6  274 224 
 TOL  SN ES        724  3.81                             106    0.31 8  274 224 
 TOL  SZ I         724 10.46         8.2 0.26            107            274 224 
 PRA  HZ EP        723 38.95                             102   -0.12 7  326 206 
 PRA  HN ES        724 14.43                             102    0.55 7  326 206 
 PRA  HZ I         724 22.29         9.9 0.24            103            326 206 
 ORTC HZ EP        723 39.17                             102   -0.03 7  327 214 
 ORTC HN ES        724 14.88                             102    0.78 7  327 214 
 ORTC HZ I         724 21.12         7.4 0.57            103            327 214 
 MACC HZ EP   4    723 54.47                              96   -1.65 0  468 183 
 MACC HN ES   4    724 40.41                              96   -3.81 0  468 183 
 MACC HZ I         724 44.65         2.8 0.11             97            468 183 
 CRJC HZ EP        724  2.07                              94   -0.46 4  520   9 
 CRJC HN ES        724 55.34                              94   -0.30 4  520   9 
 CRJC HZ I         725  5.25         6.4 0.41             96            520   9 
                                                                                
