 2017  529 0902 43.3 L   6.726 -73.177144.7  RSN  6 0.4 1.2LRSN                1
 GAP=228        0.82       4.7     5.7  6.3  0.1282E+02 -0.1356E+01 -0.2815E+01E
 Epicentro: VILLANUEVA - SANTANDER                                             3
 ACTION:UPD 17-06-16 13:39 OP:jn   STATUS:               ID:20170529090243 L   I
 OLDACT:UP  17-05-29 17:39 OP:and  STATUS:               ID:20170529085740d    3
 OLDACT:UP  17-05-29 17:39 OP:and  STATUS:               ID:20170529085740d    3
 OLDACT:UP  17-05-29 17:38 OP:and  STATUS:               ID:20170529085740d    3
 OLDACT:UP  17-05-29 17:37 OP:and  STATUS:               ID:20170529085740d    3
 OLDACT:UP  17-05-29 17:37 OP:and  STATUS:               ID:20170529085740d    3
 OLDACT:DUP 17-05-29 17:33 OP:and  STATUS:               ID:20170529085740d    3
 OLDACT:UP  17-05-29 17:31 OP:and  STATUS:               ID:20170529085739     3
 OLDACT:UP  17-05-29 17:31 OP:and  STATUS:               ID:20170529085739     3
 OLDACT:UP  17-05-29 17:31 OP:and  STATUS:               ID:20170529085739     3
 OLDACT:UP  17-05-29 17:31 OP:and  STATUS:               ID:20170529085739     3
 OLDACT:UP  17-05-29 17:30 OP:and  STATUS:               ID:20170529085739     3
 OLDACT:UP  17-05-29 17:29 OP:and  STATUS:               ID:20170529085739     3
 OLDACT:UP  17-05-29 17:28 OP:and  STATUS:               ID:20170529085739     3
 OLDACT:UP  17-05-29 17:26 OP:and  STATUS:               ID:20170529085739     3
 OLDACT:UP  17-05-29 17:25 OP:and  STATUS:               ID:20170529085739     3
 OLDACT:UP  17-05-29 17:25 OP:and  STATUS:               ID:20170529085739     3
 OLDACT:REG 17-05-29 13:11 OP:and  STATUS:               ID:20170529085739     3
 2017-05-29-0858-00M.COL___332                                                 6
 STAT SP IPHASW D HRMM SECON CODA AMPLIT PERI AZIMU VELO AIN AR TRES W  DIS CAZ7
 BRR  HZ EP   4    9 3  1.11                             152   -3.29 0 72.6 306 
 BRR  HN ES        9 3 21.24                             152    0.3710 72.6 306 
 BRR  HZ I         9 3 24.85         2.1 0.18            149           72.6 306 
 RUS  HZ EP        9 3  6.18                             146   -0.1910 92.7 174 
 RUS  HN ES        9 3 24.38                             146   -0.0110 92.7 174 
 RUS  HZ I         9 3 25.30         2.1 0.30            147           92.7 174 
 PTB  HZ EP   9    9 3  9.09                             133   -0.64 0  143 262 
 PTB  HN ES        9 3 29.93                             133    0.21 9  143 262 
 PTB  HZ I         9 3 37.19         2.0 0.42            131            143 262 
 SPBC HN ES        9 3 32.33                             131   -0.11 9  155 220 
 SPBC HZ I         9 3 36.56         3.1 0.10            130            155 220 
 ZAR  HZ EP        9 3 16.09                             122    0.42 9  204 295 
 ZAR  HN ES        9 3 40.20                             122   -0.73 9  204 295 
 ZAR  HZ I         9 3 45.54         2.3 0.10            122            204 295 
 NOR  HZ EP        9 3 18.19                             119    0.05 8  227 236 
 NOR  HN ES   2    9 3 46.07                             119    0.73 4  227 236 
 NOR  HZ I         9 3 49.15         1.3 0.16            119            227 236 
                                                                                
