 2011 1029 0701 17.2 L   6.766 -73.129145.0  RSN 11 0.3 2.2LRSN                1
 GAP=140        0.65       3.2     3.9  4.8 -0.2608E+01  0.7045E+01  0.1807E+01E
 Epicentro: LOS SANTOS - SANTANDER                                             3
 ACTION:UPD 12-07-13 16:06 OP:ep   STATUS:               ID:20111029070117 L   I
 2011-10-29-0656-51S.COL___176                                                 6
 STAT SP IPHASW D HRMM SECON CODA AMPLIT PERI AZIMU VELO AIN AR TRES W  DIS CAZ7
 BAR2 SZ IP        7 1 36.56                             172   -0.1210 20.1 197 
 BAR2 SZ ES   2    7 1 51.13                             172   -0.74 5 20.1 197 
 BAR2 SZ I         7 1 54.09        35.2 0.22                          20.1 197 
 BTL  SZ EP        7 1 37.11                             171    0.3710 22.8 318 
 BRR  HZ IP     D  7 1 38.50                             151    0.0310 74.6 300 
 BRR  HN ES   1    7 1 55.74                             151    0.69 7 74.6 300 
 BRR  HZ I         7 1 58.41        41.9 0.16                          74.6 300 
 PAM  SZ EP        7 1 39.41                             150   -0.0410 79.2  37 
 PAM  SN ES   1    7 1 56.41                             150   -0.39 7 79.2  37 
 RUS  HZ EP        7 1 40.42                             145   -0.1910 96.7 177 
 RUS  HN ES   1    7 1 59.13                             145    0.28 7 96.7 177 
 RUS  HZ I         7 2  0.10        15.2 0.26                          96.7 177 
 OCA  SZ EP        7 1 45.68                             129   -0.15 9  164 353 
 OCA  SZ I         7 2 12.09        23.5 0.30                           164 353 
 ZAR  HZ EP   2    7 1 49.29                             122   -0.64 4  207 293 
 ZAR  HE ES   2    7 2 14.96                             122   -0.49 4  207 293 
 ZAR  HZ I         7 2 20.68        17.3 0.26                           207 293 
 NOR  SZ EP        7 1 52.76                             118   -0.06 8  234 235 
 NOR  SE ES   2    7 2 20.29                             118   -0.31 4  234 235 
 HEL  HZ EP        7 1 57.75                             115    0.27 8  273 257 
 HEL  HN ES   2    7 2 28.28                             115   -0.61 4  273 257 
 HEL  HZ I         7 2 35.31         8.2 0.34                           273 257 
 RREF HZ EP        7 2  3.50                             111    0.30 7  321 230 
 RREF HN ES   2    7 2 39.19                             111    0.12 3  321 230 
 RREF HZ I         7 2 45.55         6.3 0.22                           321 230 
 PRA  HZ EP        7 2 10.45                             107    0.02 6  390 210 
                                                                                
