 2015 1229 0029  9.9 L   6.843 -73.356124.3  RSN  6 0.4 1.7LRSN                1
 GAP=144        0.99       3.8     4.5  6.7  0.3856E+01  0.3726E+01 -0.4673E+01E
 Epicentro: SAN VICENTE DE CHUCURI - SANTANDER                                 3
 ACTION:UPD 16-02-04 15:08 OP:cam  STATUS:               ID:20151229002909 L   I
 OLDACT:UP  15-12-29 15:16 OP:ak   STATUS:               ID:20151229002750     3
 OLDACT:REG 15-12-29 12:40 OP:ak   STATUS:               ID:20151229002750     3
 2015-12-29-0027-50M.COL___338                                                 6
 STAT SP IPHASW D HRMM SECON CODA AMPLIT PERI AZIMU VELO AIN AR TRES W  DIS CAZ7
 BAR2 EZ EP        029 27.59                             164    0.3510 33.7 145 
 BAR2 EZ ES        029 40.64                             164   -0.1310 33.7 145 
 BAR2 EZ I         029 42.07        16.4 0.16            164           33.7 145 
 BRR  HZ EP        029 28.08                             157    0.5710 49.0 307 
 BRR  HN ES        029 41.73                             157    0.4810 49.0 307 
 BRR  HZ I         029 42.42        11.6 0.24            158           49.0 307 
 RUS  HZ EP        029 32.39                             136    0.0810  109 164 
 RUS  HN ES        029 49.57                             136   -0.2310  109 164 
 RUS  HZ I         029 51.07         3.3 0.22            137            109 164 
 PTB  HZ EP        029 32.91                             131   -0.2410  126 255 
 PTB  HE ES        029 50.70                             131   -0.5910  126 255 
 OCA  HZ EP        029 35.98                             125   -0.06 9  154   1 
 OCA  HN ES        029 55.75                             125   -0.68 9  154   1 
 OCA  HZ I         029 57.08        12.8 0.25            127            154   1 
 ZAR  HZ EP        029 38.64                             121    0.10 9  181 293 
 ZAR  HN ES        030  1.16                             121    0.26 9  181 293 
                                                                                
