 2012  429 0908  1.2 L   6.379 -73.770 95.0  RSN  5 0.4 1.3LRSN                1
 GAP=158        0.99       6.7     5.6 12.2  0.1921E+02  0.5097E+01 -0.1831E+01E
 Epicentro: SANTA HELENA DEL OPON - SANTANDER                                  3
 ACTION:UPD 12-07-05 11:56 OP:tino STATUS:               ID:20120429090801 L   I
 2012-04-29-0900-00M.COL___189                                                 6
 STAT SP IPHASW D HRMM SECON CODA AMPLIT PERI AZIMU VELO AIN AR TRES W  DIS CAZ7
 BAR2 SZ EP   1    9 8 17.34                             141     0.0 7   69  70 
 BAR2 SZ I         9 8 31.05         7.7 0.26                            69  70 
 PTB  HZ EP        9 8 17.49                             138    -0.310   78 283 
 PTB  HN ES   1    9 8 30.51                             138    -0.2 7   78 283 
 PTB  HZ I         9 8 31.12         5.4 0.17                            78 283 
 BRR  HZ EP        9 8 17.74                             137    -0.310   81   5 
 BRR  HZ I         9 8 25.60         7.5 0.11                            81   5 
 BRR  HN ES   1    9 8 30.91                             137    -0.2 7   81   5 
 RUS  HZ EP   1    9 8 19.93                             133     0.2 7   93 125 
 RUS  HN ES   1    9 8 34.54                             133     0.4 7   93 125 
 RUS  HZ I         9 8 36.43         3.1 0.17                            93 125 
 ZAR  HZ EP   1    9 8 27.23                             114    -0.1 7  172 316 
 ZAR  HN ES   1    9 8 48.74                             114     1.1 7  172 316 
 ZAR  HZ I         9 8 49.91         4.0 0.41                           172 316 
                                                                                
