 2010  329 0810 38.2 L   6.708 -73.200135.1  RSN  5 0.3 1.8LRSN                1
 GAP=224        0.60       4.9     8.1  6.3  0.6208E+01  0.1289E+02  0.1883E+02E
 Epicentro: VILLANUEVA - SANTANDER                                             3
 ACTION:UP  10-08-24 09:56 OP:vdl  STATUS:               ID:20100329081038 L   I
 2010-03-29-0808-23S.COL___098                                                 6
 STAT SP IPHASW D HRMM SECON CODA AMPLIT PERI AZIMU VELO SNR AR TRES W  DIS CAZ7
 BAR2 SZ IP        810 56.03                             174    -0.310   13 172 
 BAR2 SZ ES   1    811 10.71                             174     0.2 7   13 172 
 BRR  HZ IP        810 58.06                             151    -0.210   72 308 
 BRR  HE ES   1    811 14.08                             151     0.2 7   72 308 
 BRR  HZ I         811 17.40        12.0 0.20                            72 308 
 CHI  HZ EP        811 14.39                             116     0.3 8  237 194 
 CHI  HE ES   2    811 42.02                             116     0.0 4  237 194 
 CHI  HZ I         811 47.11         2.6 0.69                           237 194 
 HEL  HZ EP   3    811 16.52                             113    -0.4 2  264 258 
 HEL  HN ES   3    811 46.45                             113    -0.7 2  264 258 
 HEL  HZ I         811 54.57         3.7 0.35                           264 258 
 PRA  HZ EP        811 30.25                             105     0.3 6  380 210 
 PRA  HE ES   1    812 10.14                             105    -0.2 5  380 210 
 PRA  HZ I         812 18.09         3.2 0.27                           380 210 
                                                                                
