 2013  929 0414 15.5 L   6.789 -73.131146.3  RSN  7 0.5 1.5LRSN                1
 GAP=139        1.16       4.8     5.8  7.4 -0.6067E+01  0.3855E+01  0.9060E+01E
 Epicentro: LOS SANTOS - SANTANDER                                             3
 ACTION:UPD 13-10-22 09:25 OP:ep   STATUS:               ID:20130929041415 L   I
 OLDACT:REG 13-09-29 09:08 OP:stll STATUS:               ID:20130929040837     3
 2013-09-29-0408-37M.COL___241                                                 6
 STAT SP IPHASW D HRMM SECON CODA AMPLIT PERI AZIMU VELO AIN AR TRES W  DIS CAZ7
 BAR2 SZ EP        414 35.23                             171    0.0410 22.5 195 
 BAR2 SZ I         414 35.70         8.4 0.16            168           22.5 195 
 BAR2 SZ ES        414 50.98                             171    0.4410 22.5 195 
 BRR  HZ EP        414 37.19                             152    0.3610 73.2 299 
 BRR  HN ES        414 54.20                             152    0.7410 73.2 299 
 BRR  HZ I         414 57.32         8.1 0.14            151           73.2 299 
 PAM  SZ EP        414 38.03                             151    0.2510 77.3  38 
 PAM  SN ES        414 54.35                             151   -0.7910 77.3  38 
 PAM  SZ I         414 57.33         7.0 0.20            155           77.3  38 
 RUS  HZ EP        414 39.20                             144   -0.0210 99.3 177 
 RUS  HN ES        414 57.50                             144   -0.2210 99.3 177 
 RUS  HZ I         414 58.61         2.4 0.52            145           99.3 177 
 PTB  HZ EP        414 41.92                             132   -0.73 9  149 259 
 PTB  HN ES        415  3.30                             132   -0.51 9  149 259 
 PTB  HZ I         415 10.38         7.2 0.44            131            149 259 
 SPBC HZ EP        414 44.17                             129    0.11 9  163 220 
 SPBC HN ES        415  6.03                             129   -0.30 9  163 220 
 CHI  HZ EP        414 53.69                             117    0.53 8  248 196 
 CHI  HN ES        415 22.70                             117    0.17 8  248 196 
 CHI  HZ I         415 32.19         2.2 0.32            118            248 196 
                                                                                
