 2012  329 0114 44.8 L   7.367 -73.189129.9  RSN  6 0.1 1.6LRSN                1
 GAP=179        0.42       4.4     2.5  4.1  0.8027E-01  0.4197E+01 -0.4098E+01E
 ACTION:UP  12-03-31 23:23 OP:EP   STATUS:               ID:20120329011444 L   I
 2012-03-29-0110-00M.COL___196                                                 6
 STAT SP IPHASW D HRMM SECON CODA AMPLIT PERI AZIMU VELO SNR AR TRES W  DIS CAZ7
 PAM  SZ EP        115  4.19                             156     0.210   54  93 
 PAM  SN ES   1    115 18.93                             156    -0.1 7   54  93 
 BRR  HZ EP        115  3.81                             152    -0.110   64 244 
 BRR  HZ I         115  4.23        10.4 0.12                            64 244 
 BRR  HN ES   1    115 18.75                             152     0.0 7   64 244 
 BAR2 SZ ES   1    115 21.69                             145    -0.1 7   86 179 
 BAR2 SZ I         115 23.24        12.8 0.10                            86 179 
 RUS  HZ EP   2    115 12.82                             125     0.1 5  164 176 
 PTB  HZ EP        115 12.54                             124     0.1 9  167 237 
 ZAR  HZ EP        115 13.98                             121    -0.3 9  185 274 
 ZAR  HE ES   1    115 37.42                             121     0.2 7  185 274 
 ZAR  HZ I         115 38.20         2.0 0.44                           185 274 
                                                                                
