 2016  529 0803 56.1 L   6.825 -73.149143.9  RSN  6 0.4 1.3LRSN                1
 GAP=183        1.13       4.5     6.9  8.3  0.1145E+01  0.5824E+01  0.2440E+01E
 Epicentro: LOS SANTOS - SANTANDER                                             3
 ACTION:UPD 16-08-18 17:50 OP:cam  STATUS:               ID:20160529080356 L   I
 OLDACT:UP  16-05-29 15:00 OP:mh   STATUS:               ID:20160529075745     3
 OLDACT:UP  16-05-29 15:00 OP:mh   STATUS:               ID:20160529075745     3
 OLDACT:UP  16-05-29 15:00 OP:mh   STATUS:               ID:20160529075745     3
 OLDACT:UP  16-05-29 14:58 OP:mh   STATUS:               ID:20160529075745     3
 OLDACT:REG 16-05-29 12:33 OP:mh   STATUS:               ID:20160529075745     3
 2016-05-29-0757-45M.COL___307                                                 6
 STAT SP IPHASW D HRMM SECON CODA AMPLIT PERI AZIMU VELO AIN AR TRES W  DIS CAZ7
 BAR2 EZ EP        8 4 15.69                             169    0.0910 26.0 188 
 BAR2 EZ ES        8 4 30.49                             169   -0.2910 26.0 188 
 BAR2 EZ I         8 4 32.32         5.0 0.33            167           26.0 188 
 BRR  HZ EP        8 4 17.73                             153    0.7410 69.6 297 
 BRR  HN ES        8 4 33.74                             153    0.4810 69.6 297 
 BRR  HZ I         8 4 34.80         3.3 0.32            153           69.6 297 
 RUS  HZ EP        8 4 20.14                             143    0.2410  103 176 
 RUS  HN ES        8 4 38.10                             143   -0.3410  103 176 
 RUS  HZ I         8 4 40.38         1.6 0.18            143            103 176 
 PTB  HZ EP        8 4 22.45                             131   -0.52 9  148 258 
 PTB  HN ES        8 4 43.36                             131   -0.54 9  148 258 
 PTB  HZ I         8 4 45.46         2.0 0.24            132            148 258 
 OCA  HN ES        8 4 45.49                             130   -0.32 9  158 353 
 SPBC HZ EP        8 4 24.39                             128   -0.28 9  165 218 
 SPBC HN ES        8 4 47.52                             128    0.59 9  165 218 
 SPBC HZ I         8 4 52.27         4.4 0.28            128            165 218 
                                                                                
