 2016  929 0736 55.3 L   6.002 -73.996  3.6  RSN 10 0.8 1.4LRSN                1
 GAP= 96        2.04       4.4     3.8  9.7 -0.3792E+01  0.4650E+00  0.4524E+01E
 Epicentro: LA BELLEZA - SANTANDER                                             3
 ACTION:UPD 17-08-17 21:17 OP:lp   STATUS:               ID:20160929073655 L   I
 OLDACT:UP  17-02-07 00:34 OP:nlst STATUS:               ID:20160929073655 L   3
 OLDACT:UP  16-09-29 17:31 OP:dani STATUS:               ID:20160929072744     3
 OLDACT:UP  16-09-29 17:30 OP:dani STATUS:               ID:20160929072744     3
 OLDACT:UP  16-09-29 17:24 OP:dani STATUS:               ID:20160929072744     3
 OLDACT:UP  16-09-29 17:24 OP:dani STATUS:               ID:20160929072744     3
 OLDACT:UP  16-09-29 17:23 OP:dani STATUS:               ID:20160929072744     3
 OLDACT:UP  16-09-29 17:23 OP:dani STATUS:               ID:20160929072744     3
 OLDACT:UP  16-09-29 17:22 OP:dani STATUS:               ID:20160929072744     3
 OLDACT:UP  16-09-29 17:17 OP:dani STATUS:               ID:20160929072744     3
 OLDACT:REG 16-09-29 13:29 OP:dani STATUS:               ID:20160929072744     3
 2016-09-29-0728-00M.COL___357                                                 6
 STAT SP IPHASW D HRMM SECON CODA AMPLIT PERI AZIMU VELO AIN AR TRES W  DIS CAZ7
 SPBC HZ EP        737  2.04                              47   -0.0510 39.6 192 
 SPBC HE ES        737  6.96                              47   -0.3910 39.6 192 
 SPBC HZ I         737  8.40        30.3 0.09             47           39.6 192 
 PTB  HZ EP        737  7.40                              47   -0.4810 78.3 319 
 PTB  HN ES        737 16.37                              47   -1.2810 78.3 319 
 PTB  HZ I         737 17.29        19.3 0.20             47           78.3 319 
 RUS  HZ EP        737 11.72                              47   -0.2110  102  97 
 RUS  HE ES        737 23.73                              47   -1.1410  102  97 
 RUS  HZ I         737 28.26         4.2 0.28             47            102  97 
 NOR  HZ EP        737 12.90                              47    0.4510  108 243 
 NOR  HE ES        737 26.04                              47    0.2510  108 243 
 NOR  HZ I         737 26.29        13.1 0.20             47            108 243 
 BAR2 EZ EP        737 12.83                              47   -0.2710  111  54 
 BAR2 EZ I         737 28.22        18.9 0.51             47            111  54 
 BRR  HZ EP        737 15.51                              47    0.3910  126  14 
 BRR  HN ES   4    737 31.45                              47    0.91 0  126  14 
 BRR  HZ I         737 33.66         4.6 0.10             47            126  14 
 CHI  HZ EP   4    737 23.37                              47    3.52 0  155 169 
 CHI  HN ES   4    737 41.10                              47    2.14 0  155 169 
 CHI  HZ I         737 45.93         1.7 0.26             47            155 169 
 HEL  HZ EP        737 21.83                              47   -0.45 9  171 277 
 HEL  HE ES   4    737 41.70                              47   -1.60 0  171 277 
 HEL  HZ I         737 43.69         5.4 0.22             47            171 277 
 GUY2CHZ EP        737 24.02                              47    1.11 9  174 241 
 GUY2CHE ES        737 44.69                              47    0.28 9  174 241 
 GUY2CHZ I         737 46.33         4.0 0.32                           174 241 
 PAM  EZ EP   1    737 28.59                              37    1.58 6  206  44 
 PAM  HN ES        737 53.60                              37    1.89 8  206  44 
 PAM  EZ I         737 56.06         5.8 0.22             37            206  44 
                                                                                
