 2016 1129 0337 37.0 L   7.191 -74.116  3.9  RSN  4 0.4 0.9LRSN                1
 GAP=152        1.08       3.8     2.2  7.5  0.2258E+00 -0.2116E+01  0.8837E+00E
 Epicentro: PUERTO WILCHES - SANTANDER                                         3
 ACTION:UPD 17-10-26 21:12 OP:lp   STATUS:               ID:20161129033737 L   I
 OLDACT:DUP 16-11-29 14:39 OP:dani STATUS:               ID:20161129032747d    3
 2016-11-29-0328-00M.COL___346                                                 6
 STAT SP IPHASW D HRMM SECON CODA AMPLIT PERI AZIMU VELO AIN AR TRES W  DIS CAZ7
 BRR  HZ EP        337 44.15                              47   -0.3510 45.6 102 
 BRR  HE ES        337 49.76                              47   -0.6010 45.6 102 
 BRR  HZ I         337 52.04         5.2 0.16             47           45.6 102 
 PTB  HZ EP        337 50.10                              47    0.1910 81.2 208 
 PTB  HE ES        338  0.13                              47    0.1310 81.2 208 
 PTB  HZ I         338  0.61         4.4 0.18             47           81.2 208 
 ZAR  HZ EP        337 51.17                              47    0.1710 88.4 292 
 ZAR  HN ES        338  1.70                              47   -0.2310 88.4 292 
 ZAR  HZ I         338  2.21         7.3 0.28             47           88.4 292 
 PAM  HN ES        338 22.21                              47    0.82 9  157  84 
                                                                                
