 2017  529 0442 49.2 L   6.758 -73.097143.8  RSN  6 0.3 1.4LRSN                1
 GAP=239        0.76       3.7     4.6  6.0  0.5631E+01  0.1794E+01 -0.2979E+00E
 Epicentro: LOS SANTOS - SANTANDER                                             3
 ACTION:UPD 17-06-16 13:39 OP:jn   STATUS:               ID:20170529044249 L   I
 OLDACT:UP  17-05-29 17:07 OP:and  STATUS:               ID:20170529043737     3
 OLDACT:UP  17-05-29 17:07 OP:and  STATUS:               ID:20170529043737     3
 OLDACT:UP  17-05-29 17:02 OP:and  STATUS:               ID:20170529043737     3
 OLDACT:REG 17-05-29 12:47 OP:and  STATUS:               ID:20170529043737     3
 2017-05-29-0438-00M.COL___344                                                 6
 STAT SP IPHASW D HRMM SECON CODA AMPLIT PERI AZIMU VELO AIN AR TRES W  DIS CAZ7
 BRR  HZ IP     C  443 10.19                             150   -0.3810 78.1 300 
 BRR  HN ES        443 27.14                             150   -0.0710 78.1 300 
 BRR  HZ I         443 31.41         4.5 0.12            148           78.1 300 
 RUS  HZ EP        443 12.33                             145   -0.1110 95.8 179 
 RUS  HN ES        443 30.83                             145    0.2910 95.8 179 
 RUS  HZ I         443 31.96         2.3 0.32            146           95.8 179 
 PTB  HZ EP   2    443 15.46                             131   -0.98 5  152 261 
 PTB  HN ES        443 37.67                             131    0.00 9  152 261 
 PTB  HZ I         443 38.94         1.9 0.20            130            152 261 
 SPBC HZ EP        443 17.42                             129   -0.15 9  163 221 
 SPBC HN ES        443 39.70                             129    0.03 9  163 221 
 SPBC HZ I         443 41.99         4.8 0.15            129            163 221 
 ZAR  HZ EP        443 22.87                             121    0.63 8  211 293 
 ZAR  HN ES        443 48.14                             121    0.15 8  211 293 
 ZAR  HZ I         443 53.19         3.2 0.42            122            211 293 
 NOR  HZ EP        443 25.37                             118    0.34 8  236 236 
 NOR  HN ES        443 52.66                             118   -0.30 8  236 236 
 NOR  HZ I         444  0.82         2.6 0.11            118            236 236 
                                                                                
