 2012  129 0728  9.5 L   7.178 -73.423 20.8  RSN  5 0.4 1.1LRSN                1
 GAP=109        0.71       3.0     3.6  3.6  0.2401E+01 -0.3934E+01 -0.1630E+01E
 Epicentro: LEBRIJA - SANTANDER                                                3
 ACTION:UP  12-02-03 08:21 OP:REBC STATUS:               ID:20120129072809 L   I
 2012-01-29-0720-00M.COL___188                                                 6
 STAT SP IPHASW D HRMM SECON CODA AMPLIT PERI AZIMU VELO SNR AR TRES W  DIS CAZ7
 GIR2 SZ EP        728 15.41                             125     0.210   28 113 
 BRR  HZ EP        728 15.69                             120     0.010   33 256 
 BRR  HE ES   2    728 20.38                             120    -0.2 5   33 256 
 BRR  HZ I         728 22.32         9.0 0.13                            33 256 
 BAR2 SZ ES   2    728 29.62                             105    -0.8 5   70 158 
 OCA  SZ EP   1    728 28.41                              56     0.2 7  118   6 
 OCA  SZ ES   2    728 42.08                              56    -0.7 5  118   6 
 OCA  SZ I         728 44.68         5.4 0.58                           118   6 
 RUS  HZ EP   1    728 32.49                              56     0.3 7  147 165 
 RUS  HZ I         728 32.91         2.5 0.23                           147 165 
 RUS  HE ES   1    728 50.02                              56     0.0 7  147 165 
                                                                                
