 2011  529 0547  1.7 L   6.189 -73.333140.4  RSN  4 0.2 1.2LRSN                1
 GAP=130        0.39       3.5     3.8  5.3  0.3638E+01  0.1258E+02  0.3441E+01E
 Epicentro: OIBA - SANTANDER                                                   3
 ACTION:UP  11-06-29 08:57 OP:tino STATUS:               ID:20110529054701 L   I
 2011-05-29-0546-23S.COL___113                                                 6
 STAT SP IPHASW D HRMM SECON CODA AMPLIT PERI AZIMU VELO SNR AR TRES W  DIS CAZ7
 RUS  HZ EP   1    547 21.67                             162     0.1 7   43 140 
 RUS  HN ES   1    547 37.11                             162     0.0 7   43 140 
 RUS  HZ I         547 39.23         2.4 0.36                            43 140 
 BAR2 SZ ES   1    547 36.73                             160    -0.1 7   48  20 
 BRR  HZ EP   1    547 25.02                             140     0.1 7  110 338 
 BRR  HZ I         547 26.05         3.3 0.15                           110 338 
 BRR  HN ES   1    547 42.98                             140    -0.1 7  110 338 
 HEL  HZ EP   2    547 37.94                             116    -0.5 4  243 270 
 HEL  HZ I         547 39.01         1.1 0.27                           243 270 
 HEL  HN ES   1    548  7.20                             116     0.2 6  243 270 
                                                                                
