 2012  729 0841 28.4 L   6.696 -73.181152.7  RSN  4 0.2 1.3LRSN                1
 GAP=225        0.45       8.3     5.7  8.4  0.4543E+01  0.1697E+01  0.1112E+02E
 Epicentro: VILLANUEVA - SANTANDER                                             3
 ACTION:UPD 12-08-14 11:46 OP:ep   STATUS:               ID:20120729084128 L   I
 2012-07-29-0840-00M.COL___215                                                 6
 STAT SP IPHASW D HRMM SECON CODA AMPLIT PERI AZIMU VELO AIN AR TRES W  DIS CAZ7
 BAR2 SZ EP        841 48.58                             175    -0.110   12 181 
 BAR2 SZ I         842  4.66         4.9 0.28            173             12 181 
 BRR  HZ EP        841 50.36                             153    -0.110   74 308 
 BRR  HZ I         841 50.67         6.7 0.30            155             74 308 
 BRR  HN ES   2    842  7.83                             153     0.2 5   74 308 
 RUS  HN ES   3    842 10.89                             148     0.3 2   90 173 
 RUS  HZ I         842 11.80         2.3 0.28            147             90 173 
 PTB  HZ EP        841 55.59                             134     0.2 9  142 263 
 PTB  HN ES   2    842 16.27                             134    -0.2 5  142 263 
 PTB  HZ I         842 23.72         2.1 0.62            136            142 263 
