 2016  729 0113  6.0 L   6.879 -73.137150.0  RSN  8 0.3 1.6LRSN                1
 GAP=133        0.78       3.7     3.5  4.6 -0.1905E+00  0.5514E+01  0.1645E+01E
 Epicentro: LOS SANTOS - SANTANDER                                             3
 ACTION:UPD 17-03-29 16:56 OP:lp   STATUS:               ID:20160729011306 L   I
 OLDACT:UP  16-07-29 14:31 OP:edw  STATUS:               ID:20160729010760d    3
 OLDACT:UP  16-07-29 14:28 OP:edw  STATUS:               ID:20160729010760d    3
 OLDACT:UP  16-07-29 14:20 OP:edw  STATUS:               ID:20160729010760d    3
 OLDACT:DUP 16-07-29 14:14 OP:edw  STATUS:               ID:20160729010760d    3
 2016-07-29-0107-59S.COL___340                                                 6
 STAT SP IPHASW D HRMM SECON CODA AMPLIT PERI AZIMU VELO AIN AR TRES W  DIS CAZ7
 BAR2 EZ EP        113 26.51                             167    0.1610 32.1 189 
 BAR2 EZ ES        113 42.11                             167   -0.1110 32.1 189 
 BRR  HZ EP   9    113 28.60                             154    1.14 0 68.3 292 
 BRR  HN ES        113 45.81                             152    0.4810 68.3 292 
 PAM  EZ EP   4    113 29.74                             154    1.46 0 70.3  43 
 PAM  EE ES        113 45.70                             154    0.0510 70.3  43 
 PAM  EZ I         113 48.97         7.9 0.46            156           70.3  43 
 RUS  HZ EP        113 31.18                             142    0.3810  109 177 
 RUS  HN ES        113 49.87                             142   -0.2710  109 177 
 RUS  HZ I         113 50.42         3.4 0.28            146            109 177 
 PTB  HZ EP        113 33.85                             133    0.28 9  151 256 
 PTB  HE ES        113 55.33                             133    0.25 9  151 256 
 PTB  HZ I         114  0.70         4.4 0.30            133            151 256 
 SPBC HZ EP        113 35.62                             129    0.09 9  171 217 
 SPBC HN ES        113 58.30                             129   -0.26 9  171 217 
 SPBC HZ I         114  2.62         8.5 0.22            131            171 217 
 ZAR  HZ EP        113 37.72                             124   -0.78 9  202 290 
 ZAR  HN ES        114  3.79                             124   -0.06 9  202 290 
 ZAR  HZ I         114 11.46         4.9 0.14            124            202 290 
 GUY2CHZ EP        113 50.61                             113    0.14 7  307 234 
 GUY2CHN ES        114 25.19                             113    0.04 7  307 234 
 GUY2CHZ I         114 34.20         2.2 0.56                           307 234 
                                                                                
