 2013  829 0411  0.6 L   6.563 -73.600104.8  RSN  4 0.4 1.2LRSN                1
 GAP=177        0.91       7.6     5.0 12.6 -0.1173E+02 -0.1272E+02  0.3133E+02E
 Epicentro: EL CARMEN DE CHUCURI - SANTANDER                                   3
 ACTION:UPD 14-01-14 09:08 OP:ep   STATUS:               ID:20130829041100 L   I
 OLDACT:UP  13-08-29 10:13 OP:jn   STATUS:               ID:20130829040850     3
 OLDACT:REG 13-08-29 08:28 OP:jn   STATUS:               ID:20130829040850     3
 2013-08-29-0408-50M.COL___212                                                 6
 STAT SP IPHASW D HRMM SECON CODA AMPLIT PERI AZIMU VELO AIN AR TRES W  DIS CAZ7
 BAR2 SZ EP        411 16.38                             154    0.1210 46.3  86 
 BAR2 SZ ES   1    411 28.70                             154    0.21 7 46.3  86 
 BAR2 SZ I         411 29.96        20.9 0.46            130           46.3  86 
 RUS  HZ EP   1    411 19.22                             135   -0.76 7 93.6 142 
 RUS  HZ I         411 34.78         1.2 0.16            110           93.6 142 
 PTB  HZ EP   4    411 19.19                             134   -0.23 0 94.7 268 
 PTB  HN ES        411 33.92                             134   -0.1910 94.7 268 
 PTB  HZ I         411 35.78         5.0 0.56            116           94.7 268 
 SPBC HZ EP   1    411 21.99                             129    0.76 7  113 207 
 SPBC HN ES        411 37.31                             129   -0.0210  113 207 
 SPBC HZ I         411 44.10         2.6 0.20            108            113 207 
                                                                                
