 2010  129 0403 38.7 L   6.783 -73.142138.6  RSN 13 0.4 2.1LRSN                1
 GAP=159        0.91       3.1     6.9  5.8 -0.8083E+01  0.1692E+02 -0.5671E+00E
 Epicentro: LOS SANTOS - SANTANDER                                             3
 ACTION:UP  10-08-24 09:46 OP:vdl  STATUS:               ID:20100129040338 L   I
 2010-01-29-0359-50S.COL___094                                                 6
 STAT SP IPHASW D HRMM SECON CODA AMPLIT PERI AZIMU VELO SNR AR TRES W  DIS CAZ7
 BAR2 SZ EP        4 3 57.36                             171    -0.110   22 192 
 BAR2 SZ ES   1    4 4 12.31                             171     0.3 7   22 192 
 GIR2 SZ EP        4 3 57.57                             166     0.010   33 350 
 GIR2 SZ ES   1    4 4 12.25                             166     0.0 7   33 350 
 RUS  HZ EP        4 4  1.32                             143    -0.310   99 176 
 RUS  HZ I         4 4  2.52        12.7 0.10                            99 176 
 RUS  HN ES        4 4 19.40                             143    -0.110   99 176 
 GUE  SZ EP        4 4  2.60                             137    -0.310  118  12 
 GUE  SZ ES   1    4 4 21.93                             137     0.2 7  118  12 
 GRA  SZ EP        4 4  3.42                             135     0.010  127  17 
 GRA  SZ ES   1    4 4 23.08                             135     0.3 7  127  17 
 OCA  SZ EP        4 4  6.54                             128    -0.1 9  162 353 
 OCA  SZ ES   1    4 4 28.43                             128     0.0 7  162 353 
 CHI  HZ EP        4 4 15.59                             116    -0.2 8  247 195 
 CHI  HZ I         4 4 51.52         5.1 0.74                           247 195 
 HEL  HN ES   1    4 4 49.21                             113    -0.4 6  272 256 
 HEL  HZ I         4 4 56.40        11.9 0.52                           272 256 
 RREF HZ EP        4 4 25.82                             109     1.4 7  321 230 
 RREF HZ I         4 5 10.03         7.5 0.32                           321 230 
 DBB  SZ EP   1    4 4 25.60                             108    -0.3 5  340 275 
 TOL  SZ EP        4 4 27.25                             108     0.7 7  342 225 
 ANIL HN ES   2    4 5  5.84                             107    -0.8 3  356 225 
 PRA  HZ EP        4 4 31.24                             105    -0.6 6  391 210 
                                                                                
