 2015 1029 0856 39.8 L   6.784 -73.191144.5  RSN  7 0.5 1.3LRSN                1
 GAP=132        1.30       4.6     6.8  9.9  0.6695E+01  0.1819E+02 -0.9175E+00E
 Epicentro: ZAPATOCA - SANTANDER                                               3
 ACTION:UPD 15-12-22 20:43 OP:cam  STATUS:               ID:20151029085639 L   I
 OLDACT:UP  15-10-29 18:08 OP:mh   STATUS:               ID:20151029084739     3
 OLDACT:UP  15-10-29 17:14 OP:mh   STATUS:               ID:20151029084739     3
 OLDACT:UP  15-10-29 17:13 OP:mh   STATUS:               ID:20151029084739     3
 OLDACT:REG 15-10-29 12:59 OP:cara STATUS:               ID:20151029084739     3
 2015-10-29-0847-39M.COL___313                                                 6
 STAT SP IPHASW D HRMM SECON CODA AMPLIT PERI AZIMU VELO AIN AR TRES W  DIS CAZ7
 BAR2 EZ EP        856 59.64                             171    0.3610 21.3 177 
 BRR  HZ EP        857  1.32                             153    0.6610 67.7 302 
 BRR  HN ES        857 17.44                             153    0.5510 67.7 302 
 PAM  EZ EP        857  2.65                             149    0.4410 82.0  41 
 PAM  EN ES        857 19.01                             149   -0.6310 82.0  41 
 PAM  EZ I         857 21.71         4.9 0.58            154           82.0  41 
 RUS  HZ EP        857  3.82                             144    0.4410 99.4 173 
 RUS  HN ES        857 21.31                             144   -0.4310 99.4 173 
 RUS  HZ I         857 25.15         1.1 0.48            145           99.4 173 
 ZAR  HZ EP        857 11.90                             122    0.11 9  200 293 
 ZAR  HN ES        857 36.47                             122   -0.24 9  200 293 
 ZAR  HZ I         857 44.19         2.3 0.34            123            200 293 
 SML  HZ EP        857 15.93                             117   -0.42 8  243 337 
 SML  HE ES        857 43.99                             117   -0.82 8  243 337 
 SML  HZ I         857 47.50         3.5 0.50            119            243 337 
 CHI  HN ES        857 45.45                             117   -0.80 8  246 194 
 CHI  HZ I         857 50.30         1.4 0.50            119            246 194 
                                                                                
