 2014 1129 0341 35.5 L   6.779 -73.135146.5  RSN 10 0.5 1.6LRSN                1
 GAP=139        1.12       3.9     4.7  6.5 -0.2530E+01  0.9366E+01  0.4280E+01E
 Epicentro: LOS SANTOS - SANTANDER                                             3
 ACTION:UPD 14-12-19 15:48 OP:nd   STATUS:               ID:20141129034135 L   I
 OLDACT:REG 14-11-29 13:00 OP:fm   STATUS:               ID:20141129033743     3
 2014-11-29-0337-43M.COL___303                                                 6
 STAT SP IPHASW D HRMM SECON CODA AMPLIT PERI AZIMU VELO AIN AR TRES W  DIS CAZ7
 BAR2 SZ EP        341 55.46                             171    0.2610 21.3 194 
 BAR2 SZ ES        342 10.58                             171    0.0410 21.3 194 
 BAR2 SZ I         342 12.36         7.1 0.16            168           21.3 194 
 BRR  HZ EP        341 57.27                             152    0.4010 73.4 300 
 BRR  HN ES        342 14.13                             152    0.6110 73.4 300 
 BRR  HZ I         342 15.78         7.5 0.38            151           73.4 300 
 PAM  SZ EP        341 58.05                             151    0.1810 78.4  38 
 PAM  SN ES        342 15.08                             151   -0.2310 78.4  38 
 PAM  SZ I         342 17.91         8.0 0.50            156           78.4  38 
 RUS  HE ES        342 17.25                             145   -0.3710 98.2 177 
 RUS  HZ I         342 19.61         4.7 0.28            145           98.2 177 
 PTB  HZ EP        342  2.04                             132   -0.57 9  149 260 
 PTB  HE ES        342 23.23                             132   -0.52 9  149 260 
 PTB  HZ I         342 28.95         3.2 0.26            131            149 260 
 SPBC HZ EP        342  4.49                             129    0.52 9  162 220 
 SPBC HN ES        342 26.38                             129    0.21 9  162 220 
 SPBC HZ I         342 29.28         7.6 0.40            129            162 220 
 ZAR  HZ EP        342  7.86                             122   -0.36 8  206 293 
 ZAR  HN ES        342 33.00                             122   -0.72 8  206 293 
 ZAR  HZ I         342 39.89         3.3 0.60            123            206 293 
 NOR  HZ EP        342 11.81                             119    0.56 8  234 235 
 NOR  HN ES        342 39.68                             119    0.56 8  234 235 
 NOR  HZ I         342 47.59         2.9 0.18            119            234 235 
 CHI  HZ EP        342 12.55                             117   -0.50 8  247 196 
 CHI  HN ES        342 41.63                             117   -0.69 8  247 196 
 CHI  HZ I         342 49.52         1.7 0.30            118            247 196 
 TOL  SE ES        343  1.86                             109    0.56 7  343 225 
 TOL  SZ I         343 10.28         4.1 0.44            110            343 225 
                                                                                
