 2010  929 0733 17.8 L   6.783 -73.062150.4  RSN  4 0.2 1.3LRSN                1
 GAP=238        0.53      11.0    18.9 10.3  0.1623E+03 -0.1004E+03 -0.6035E+02E
 Epicentro: LOS SANTOS - SANTANDER                                             3
 ACTION:UP  11-02-18 11:06 OP:tino STATUS:               ID:20100929073317 L   I
 2010-09-29-0728-01S.COL___125                                                 6
 STAT SP IPHASW D HRMM SECON CODA AMPLIT PERI AZIMU VELO SNR AR TRES W  DIS CAZ7
 BAR2 SZ EP   1    733 37.64                             171    -0.3 7   25 213 
 BAR2 SZ ES   2    733 53.54                             171    -0.2 5   25 213 
 BAR2 SZ I         733 54.21         6.1 0.76                            25 213 
 BTL  SZ EP        733 38.29                             169     0.310   27 303 
 BRR  HZ EP   1    733 39.84                             151    -0.1 7   80 297 
 BRR  HN ES   2    733 57.28                             151     0.0 5   80 297 
 BRR  HZ I         733 59.08         4.0 0.15                            80 297 
 RUS  HZ EP   2    733 41.87                             145     0.0 5   98 181 
 RUS  HN ES   2    734  0.76                             145     0.2 5   98 181 
 RUS  HZ I         734  2.32         1.5 0.67                            98 181 
                                                                                
