 2017  829 0402 48.9 L   6.805 -73.136148.0  RSN 21 0.8 2.6LRSN                1
 GAP= 72        1.68       4.5     4.8  7.4  0.1497E+01  0.7323E+01  0.8186E+01E
 Epicentro: LOS SANTOS - SANTANDER                                             3
 ACTION:UPD 17-09-04 20:26 OP:rebc STATUS:               ID:20170829040248 L   I
 OLDACT:UP  17-08-29 16:13 OP:dani STATUS:               ID:20170829035734     3
 OLDACT:UP  17-08-29 16:13 OP:dani STATUS:               ID:20170829035734     3
 OLDACT:REG 17-08-29 12:58 OP:dani STATUS:               ID:20170829035734     3
 2017-08-29-0358-00M.COL___417                                                 6
 STAT SP IPHASW D HRMM SECON CODA AMPLIT PERI AZIMU VELO AIN AR TRES W  DIS CAZ7
 BAR2 EZ EP     D  4 3  8.72                             170   -0.1410 24.1 192 
 BAR2 EZ ES        4 3 24.53                             170    0.1310 24.1 192 
 BAR2 EZ I         4 3 25.51        59.8 0.16            170           24.1 192 
 BRR  HZ EP     D  4 3 10.54                             153    0.1610 71.9 298 
 BRR  HE ES        4 3 27.94                             153    0.8510 71.9 298 
 BRR  HZ I         4 3 31.80        51.7 0.14            145           71.9 298 
 PAM  EZ EP     D  4 3 11.58                             151    0.2510 76.2  39 
 PAM  EN ES        4 3 28.76                             151   -0.0310 76.2  39 
 PAM  EZ I         4 3 30.95       112.7 0.50            147           76.2  39 
 RUS  HZ EP        4 3 12.72                             144   -0.2410  101 177 
 RUS  HN ES        4 3 31.35                             144   -0.3310  101 177 
 RUS  HZ I         4 3 32.62        50.6 0.34            141            101 177 
 TAM  HZ IP     D  4 3 17.16                             131    0.44 9  154 105 
 SPBC HZ EP        4 3 17.80                             129    0.07 9  164 219 
 SPBC HN ES        4 3 39.65                             129   -0.53 9  164 219 
 SPBC HZ I         4 3 41.44        74.9 0.18            124            164 219 
 YPLC HZ EP        4 3 19.03                             127    0.13 9  177 152 
 YPLC HE ES        4 3 42.77                             127    0.50 9  177 152 
 YPLC HZ I         4 3 45.94        54.8 0.28            123            177 152 
 ZAR  HZ EP        4 3 22.49                             123    0.87 9  205 292 
 ZAR  HN ES        4 3 45.73                             123   -1.38 9  205 292 
 ZAR  HZ I         4 3 52.38        33.4 0.38            116            205 292 
 TABC EZ EP        4 3 26.32                             120    1.38 8  231 211 
 TABC EZ I         4 4  6.46        22.2 0.56            115            231 211 
 NOR  HZ EP        4 3 24.93                             119   -0.01 8  236 235 
 NOR  HN ES        4 3 52.65                             119   -0.36 8  236 235 
 NOR  HZ I         4 3 55.37        20.6 0.66            113            236 235 
 CHI  HZ EP        4 3 27.05                             117    0.19 8  249 195 
 CHI  HN ES        4 3 56.18                             117   -0.26 8  249 195 
 CHI  HZ I         4 3 59.79        20.4 0.38            113            249 195 
 ROSC BZ EP   3    4 3 28.59                             117    1.28 2  254 211 
 ROSC BN ES   3    4 3 56.58                             117   -0.65 2  254 211 
 ROSC BZ I         4 4  2.59        38.0 0.35            112            254 211 
 HEL  HZ EP        4 3 29.68                             115    0.27 8  273 256 
 HEL  HN ES        4 4  0.91                             115   -0.06 8  273 256 
 HEL  HZ I         4 4  6.19         9.0 0.28            110            273 256 
 URE  HZ EP        4 3 29.12                             114   -1.10 7  285 292 
 URE  HZ I         4 4 10.16        26.2 0.26            109            285 292 
 GUY2CHZ EP   9    4 3 33.95                             113    1.15 0  302 235 
 GUY2CHN ES        4 4  8.66                             113    0.51 7  302 235 
 GUY2CHZ I         4 4 18.94        13.1 0.40                           302 235 
 VIL  EZ EP        4 3 32.30                             112   -0.26 7  304 192 
 VIL  HN ES        4 4  6.55                             112   -0.02 7  304 192 
 VIL  EZ I         4 4  9.36        22.1 0.25            108            304 192 
 PTGC HZ EP        4 3 31.95                             112   -0.97 7  309 159 
 PTGC HN ES        4 4  5.25                             112   -1.97 7  309 159 
 PTGC HZ I         4 4 10.17        22.7 0.32            108            309 159 
 ELA  HZ EP        4 3 38.61                             111    2.58 7  330 230 
 ELA  HE ES        4 4 11.77                             111   -0.99 7  330 230 
 PRA  HZ EP        4 3 42.59                             107   -0.08 6  393 210 
 PRA  HN ES        4 4 24.35                             107   -0.22 6  393 210 
 PRA  HZ I         4 4 29.48        12.9 0.44            103            393 210 
 ORTC HZ EP        4 3 43.13                             107    0.05 6  397 216 
 ORTC HN ES        4 4 27.05                             107    1.75 6  397 216 
 ORTC HZ I         4 4 29.03         8.9 0.44            103            397 216 
 SJC  HZ EP        4 3 42.79                             106   -1.81 6  409 327 
 SJC  HN ES   4    4 4 24.14                             106   -3.86 0  409 327 
 SJC  HZ I         4 4 24.93         5.0 0.36            102            409 327 
                                                                                
