 2010 1129 0436 40.0 L   6.750 -73.142146.0  RSN  5 0.3 1.2LRSN                1
 GAP=160        0.57       6.7    11.8  6.6  0.5305E+02 -0.2502E+02 -0.8854E+01E
 Epicentro: LOS SANTOS - SANTANDER                                             3
 ACTION:UP  10-12-17 16:55 OP:REBC STATUS:               ID:20101129043640 L   I
 2010-11-29-0434-03S.COL___129                                                 6
 STAT SP IPHASW D HRMM SECON CODA AMPLIT PERI AZIMU VELO SNR AR TRES W  DIS CAZ7
 BAR2 SZ ES   1    437 14.55                             173    -0.2 7   18 195 
 BRR  HZ EP        437  1.10                             152    -0.210   74 302 
 BRR  HN ES   1    437 18.26                             152     0.3 7   74 302 
 BRR  HZ I         437 21.91         4.3 0.64                            74 302 
 RUS  HZ EP        437  3.34                             146     0.010   95 176 
 RUS  HN ES   2    437 21.95                             146     0.4 5   95 176 
 RUS  HZ I         437 23.52         2.1 0.25                            95 176 
 GRA  SZ EP   2    437  6.03                             136     0.4 5  131  17 
 CHI  HZ EP   3    437 17.44                             118     0.3 2  243 196 
 CHI  HZ I         437 18.08         1.1 0.30                           243 196 
                                                                                
