 2017 1029 0608 48.2 L   6.816 -73.166144.9  RSN 13 0.5 1.9LRSN                1
 GAP=109        1.07       3.4     3.6  5.6  0.4112E+00  0.4874E+01  0.5711E+01E
 Epicentro: LOS SANTOS - SANTANDER                                             3
 ACTION:UPD 17-11-07 19:38 OP:rebc STATUS:               ID:20171029060848 L   I
 OLDACT:UP  17-10-29 15:41 OP:edw  STATUS:               ID:20171029060741     3
 OLDACT:UP  17-10-29 15:41 OP:edw  STATUS:               ID:20171029060741     3
 OLDACT:UP  17-10-29 15:31 OP:edw  STATUS:               ID:20171029060741     3
 OLDACT:REG 17-10-29 13:31 OP:dhb  STATUS:               ID:20171029060741     3
 2017-10-29-0608-00M.COL___408                                                 6
 STAT SP IPHASW D HRMM SECON CODA AMPLIT PERI AZIMU VELO AIN AR TRES W  DIS CAZ7
 BAR2 EZ EP        6 9  7.46                             170   -0.3310 24.8 184 
 BAR2 EZ ES        6 9 22.33                             170   -0.7110 24.8 184 
 BAR2 EZ I         6 9 23.64        29.4 0.26            168           24.8 184 
 BRR  HZ IP     C  6 9  9.22                             153    0.0910 68.4 298 
 BRR  HN ES        6 9 26.40                             153    0.9710 68.4 298 
 BRR  HZ I         6 9 28.95        12.9 0.20            153           68.4 298 
 PAM  EZ EP        6 9 10.43                             151    0.0710 77.5  42 
 PAM  EE ES        6 9 27.90                             151    0.2810 77.5  42 
 PAM  EZ I         6 9 29.91        11.0 0.68            155           77.5  42 
 RUS  HZ EP        6 9 11.64                             143   -0.4010  103 175 
 RUS  HN ES        6 9 30.47                             143   -0.1410  103 175 
 RUS  HZ I         6 9 31.92         7.4 0.56            143            103 175 
 PTB  HZ EP        6 9 14.47                             132   -0.49 9  146 258 
 PTB  HN ES        6 9 35.33                             132   -0.48 9  146 258 
 PTB  HZ I         6 9 37.62         6.5 0.62            132            146 258 
 SPBC HZ EP        6 9 16.46                             129   -0.20 9  163 218 
 SPBC HN ES        6 9 38.74                             129   -0.10 9  163 218 
 SPBC HZ I         6 9 44.19        11.6 0.22            129            163 218 
 YPLC HZ EP        6 9 17.95                             126   -0.27 9  179 151 
 YPLC HE ES        6 9 42.29                             126    0.68 9  179 151 
 YPLC HZ I         6 9 45.46         4.6 0.58            127            179 151 
 ZAR  HZ EP        6 9 20.46                             122    0.12 9  201 292 
 ZAR  HN ES        6 9 45.39                             122    0.01 9  201 292 
 ZAR  HZ I         6 9 51.68         9.5 0.34            123            201 292 
 NOR  HZ EP        6 9 24.09                             118    0.26 8  234 234 
 NOR  HE ES        6 9 51.29                             118   -0.30 8  234 234 
 NOR  HZ I         6 9 56.45         4.7 0.16            119            234 234 
 ROSC BZ EP        6 9 26.32                             116   -0.03 8  253 210 
 ROSC BN ES        6 9 56.58                             116    0.51 8  253 210 
 ROSC BZ I         610  2.18         7.9 0.35            117            253 210 
 GUY2CHZ EP   4    6 9 33.14                             112    1.43 0  300 234 
 GUY2CHN ES   4    610  7.95                             112    2.33 0  300 234 
 GUY2CHZ I         610 13.08         3.0 0.60                           300 234 
 PTGC HZ EP   4    6 9 30.74                             111   -1.59 0  311 158 
 PTGC HN ES   4    610  1.50                             111   -5.22 0  311 158 
 PRA  HZ EP        6 9 41.97                             106    0.19 6  392 209 
 PRA  HE ES        610 23.72                             106    0.18 6  392 209 
 PRA  HZ I         610 31.24         2.3 0.24            107            392 209 
 ORTC HZ EP        6 9 42.11                             106   -0.03 6  396 216 
 ORTC HE ES        610 25.57                             106    1.39 6  396 216 
 ORTC HZ I         610 31.24         1.6 0.42            107            396 216 
 SJC  HZ EP   4    6 9 41.65                             106   -1.80 0  407 327 
 SJC  HN ES   4    610 22.49                             106   -4.03 0  407 327 
                                                                                
