 2015  929 0433 56.2 L   6.750 -73.413105.6  RSN  6 0.3 1.0LRSN                1
 GAP=164        0.75       3.7     4.5  6.4  0.8962E+01  0.1285E+02  0.7959E+01E
 Epicentro: EL CARMEN - SANTANDER                                              3
 ACTION:UPD 15-10-28 16:29 OP:cam  STATUS:               ID:20150929043356 L   I
 OLDACT:UP  15-09-29 19:24 OP:ak   STATUS:               ID:20150929042747d    3
 OLDACT:DUP 15-09-29 19:18 OP:ak   STATUS:               ID:20150929042747d    3
 OLDACT:UP  15-09-29 19:09 OP:ak   STATUS:               ID:20150929042746     3
 OLDACT:REG 15-09-29 12:34 OP:spq  STATUS:               ID:20150929042746     3
 2015-09-29-0427-46M.COL___352                                                 6
 STAT SP IPHASW D HRMM SECON CODA AMPLIT PERI AZIMU VELO AIN AR TRES W  DIS CAZ7
 BAR2 EZ EP        434 11.32                             163    0.0610 30.9 124 
 BAR2 EZ ES        434 22.79                             163   -0.2310 30.9 124 
 BAR2 EZ I         434 24.88         4.6 0.15            162           30.9 124 
 BRR  HZ EP   1    434 11.34                             152   -0.55 7 51.5 320 
 BRR  HN ES        434 24.38                             152    0.2510 51.5 320 
 RUS  HZ EP        434 16.28                             133   -0.0710  102 159 
 RUS  HN ES        434 32.29                             133    0.2210  102 159 
 RUS  HZ I         434 34.18         1.5 0.24            132            102 159 
 PTB  HN ES   4    434 30.02                             128   -3.57 0  118 259 
 PTB  HZ I         434 31.63         1.8 0.15            127            118 259 
 SPBC HZ EP   1    434 20.40                             122    0.71 7  142 211 
 SPBC HE ES        434 37.69                             122   -0.34 9  142 211 
 SPBC HZ I         434 43.92         2.3 0.09            121            142 211 
 ZAR  HZ EP   2    434 23.23                             115   -0.41 4  179 297 
 ZAR  HE ES        434 45.17                             115    0.12 9  179 297 
 ZAR  HZ I         434 47.99         1.4 0.36            116            179 297 
                                                                                
