 2013 1229 0413 23.7 L   7.492 -73.267114.5  RSN  6 0.4 1.5LRSN                1
 GAP=179        0.86       3.4     5.6  8.1  0.4474E+01  0.1125E+02 -0.1647E+01E
 Epicentro: EL PLAYON - SANTANDER                                              3
 ACTION:UPD 14-01-13 10:22 OP:ep   STATUS:               ID:20131229041323 L   I
 OLDACT:UP  13-12-29 09:03 OP:PTA  STATUS:               ID:20131229041000     3
 OLDACT:UP  13-12-29 09:02 OP:PTA  STATUS:               ID:20131229041000     3
 OLDACT:REG 13-12-29 08:26 OP:mh   STATUS:               ID:20131229041000     3
 2013-12-29-0410-00M.COL___285                                                 6
 STAT SP IPHASW D HRMM SECON CODA AMPLIT PERI AZIMU VELO AIN AR TRES W  DIS CAZ7
 BRR  HZ EP   1    413 41.24                             148    0.10 7 65.0 229 
 BRR  HN ES   1    413 54.27                             148   -0.49 7 65.0 229 
 BRR  HZ I         413 55.70         7.1 0.12            144           65.0 229 
 OCA  HN ES        413 57.77                             142    0.3910 82.8 356 
 BAR2 SZ EP        413 44.35                             136    0.2410 99.9 175 
 BAR2 SZ ES        413 59.83                             136   -0.2010 99.9 175 
 BAR2 SZ I         414  0.54        14.2 0.13            136           99.9 175 
 PTB  HZ EP   4    413 48.43                             120   -2.02 0  168 231 
 PTB  HN ES   4    414  6.96                             120   -4.36 0  168 231 
 PTB  HZ I         414 13.48         1.7 0.14            118            168 231 
 SML  HZ EP        413 50.38                             120   -0.18 9  170 329 
 SML  HN ES   1    414 10.71                             120   -0.82 7  170 329 
 SML  HZ I         414 12.50         8.0 0.09            119            170 329 
 ZAR  HZ EP   1    413 51.04                             119   -0.16 7  176 270 
 ZAR  HN ES        414 13.14                             119    0.48 9  176 270 
 ZAR  HZ I         414 17.42         4.0 0.05            117            176 270 
                                                                                
