 2015  129 0235 27.3 L   6.743 -73.143140.9  RSN  6 0.5 1.2LRSN                1
 GAP=233        1.26       6.9     7.9  9.5  0.1450E+02  0.1098E+02  0.2310E+02E
 Epicentro: LOS SANTOS - SANTANDER                                             3
 ACTION:UPD 15-03-02 15:43 OP:nd   STATUS:               ID:20150129023527 L   I
 OLDACT:DUP 15-01-29 14:21 OP:cam  STATUS:               ID:20150129022820d    3
 OLDACT:UP  15-01-29 14:21 OP:cam  STATUS:               ID:20150129022819     3
 OLDACT:REG 15-01-29 13:08 OP:cvam STATUS:               ID:20150129022819     3
 2015-01-29-0228-19M.COL___271                                                 6
 STAT SP IPHASW D HRMM SECON CODA AMPLIT PERI AZIMU VELO AIN AR TRES W  DIS CAZ7
 BAR2 EZ EP        235 46.10                             173   -0.1110 17.2 195 
 BAR2 EZ ES        236  1.43                             173    0.4510 17.2 195 
 BAR2 EZ I         236  3.73         4.6 0.28            169           17.2 195 
 BRR  HN ES        236  4.70                             150    0.3510 74.6 303 
 RUS  HZ EP        235 50.37                             145    0.2710 94.3 176 
 RUS  HN ES        236  6.92                             145   -0.9810 94.3 176 
 RUS  HZ I         236  9.70         1.7 0.26            143           94.3 176 
 PTB  HZ EP        235 53.06                             131   -0.72 9  147 261 
 PTB  HN ES        236 14.18                             131   -0.26 9  147 261 
 PTB  HZ I         236 15.72         2.5 0.16            132            147 261 
 SPBC HN ES        236 16.89                             129    0.34 9  159 220 
 CHI  HZ EP        236  4.63                             117    0.57 8  243 196 
 CHI  HN ES        236 33.07                             117    0.33 8  243 196 
 CHI  HZ I         236 38.49         1.6 0.58            117            243 196 
                                                                                
