 2017  629 0855 51.6 L   6.813 -73.138146.7  RSN 17 0.5 2.0LRSN                1
 GAP=108        0.93       3.3     3.5  5.2 -0.7939E+00  0.2671E+00 -0.5442E+00E
 Epicentro: LOS SANTOS - SANTANDER                                             3
 ACTION:UPD 17-09-14 16:56 OP:jn   STATUS:               ID:20170629085551 L   I
 OLDACT:UP  17-06-29 17:22 OP:and  STATUS:               ID:20170629084740     3
 OLDACT:UP  17-06-29 17:15 OP:and  STATUS:               ID:20170629084740     3
 OLDACT:UP  17-06-29 17:13 OP:and  STATUS:               ID:20170629084740     3
 OLDACT:UP  17-06-29 17:13 OP:and  STATUS:               ID:20170629084740     3
 OLDACT:REG 17-06-29 13:22 OP:and  STATUS:               ID:20170629084740     3
 2017-06-29-0848-00M.COL___361                                                 6
 STAT SP IPHASW D HRMM SECON CODA AMPLIT PERI AZIMU VELO AIN AR TRES W  DIS CAZ7
 BAR2 EZ IP     D  856 11.31                             170   -0.0710 24.9 191 
 BAR2 EZ ES        856 26.57                             170   -0.2310 24.9 191 
 BAR2 EZ I         856 27.89        47.4 0.18            166           24.9 191 
 BRR  HZ IP     D  856 13.25                             152    0.3910 71.3 297 
 BRR  HN ES   2    856 30.59                             152    1.15 5 71.3 297 
 BRR  HZ I         856 31.60        17.6 0.11            152           71.3 297 
 PTB  HZ EP        856 17.96                             132   -0.79 9  149 258 
 PTB  HN ES        856 39.20                             132   -0.72 9  149 258 
 PTB  HZ I         856 42.28         8.2 0.18            130            149 258 
 TAM  HZ IP     D  856 19.58                             131    0.27 9  155 106 
 TAM  HN ES   2    856 41.30                             131    0.38 5  155 106 
 SPBC HZ EP        856 20.33                             129    0.00 9  165 219 
 SPBC HN ES        856 43.05                             129    0.32 9  165 219 
 SPBC HZ I         856 45.14        22.8 0.12            127            165 219 
 ZAR  HZ EP        856 24.09                             122   -0.05 9  204 292 
 ZAR  HN ES        856 49.77                             122    0.25 9  204 292 
 ZAR  HZ I         856 54.64        14.3 0.44            122            204 292 
 NOR  HZ EP        856 27.31                             118   -0.24 8  236 234 
 NOR  HN ES        856 55.52                             118   -0.06 8  236 234 
 NOR  HZ I         857  1.74         6.4 0.16            117            236 234 
 CHI  HZ EP        856 29.52                             117   -0.00 8  250 195 
 CHI  HN ES        856 58.58                             117   -0.52 8  250 195 
 CHI  HZ I         857  2.15         4.2 0.52            116            250 195 
 ROSC BZ EP   9    856 31.60                             117    1.65 0  254 211 
 ROSC BN ES   2    857  1.33                             116   -0.18 4  254 211 
 ROSC BZ I         857  7.89        11.1 0.40            116            254 211 
 HEL  HZ EP   9    856 33.34                             115    1.35 0  273 256 
 HEL  HN ES        857  5.35                             115    0.50 8  273 256 
 HEL  HZ I         857  9.35         5.6 0.34            114            273 256 
 GUY2CHZ EP        856 36.45                             112    1.03 7  303 235 
 GUY2CHE ES   3    857 11.70                             112    2.10 2  303 235 
 GUY2CHZ I         857 23.27         4.9 0.60                           303 235 
 PTGC HZ EP   9    856 34.21                             112   -1.40 0  310 159 
 PTGC HN ES        857  7.92                             112   -0.62 7  310 159 
 PTGC HZ I         857 18.14         2.6 0.32            111            310 159 
 LL6C HZ EP   2    856 36.73                             110   -0.46 3  324 357 
 LL6C HN ES   2    857 13.01                             110    0.26 3  324 357 
 ARGC HZ EP        856 40.88                             108   -0.30 6  358 340 
 ARGC HN ES   3    857 20.68                             108    0.84 2  358 340 
 ORTC HZ EP        856 45.92                             106    0.18 6  397 216 
 ORTC HN ES        857 28.71                             106    0.74 6  397 216 
 ORTC HZ I         857 32.65         3.2 0.34            106            397 216 
 PAL  HZ EP        856 46.89                             106   -0.07 6  407 239 
 SJC  HZ EP   3    856 45.45                             106   -1.66 1  409 327 
 SJC  HN ES   4    857 25.84                             106   -4.57 0  409 327 
 SJC  HZ I         857 31.85         1.6 0.22            106            409 327 
                                                                                
