 2012 1229 0604 41.2 L   6.836 -73.119135.8  RSN  9 0.5 2.1LRSN                1
 GAP=186        1.13       4.5     6.7  8.6  0.3560E+01  0.1381E+02  0.1475E+01E
 Epicentro: LOS SANTOS - SANTANDER                                             3
 ACTION:UPD 13-01-04 14:31 OP:ep   STATUS:               ID:20121229060441 L   I
 2012-12-29-0600-00M.COL___242                                                 6
 STAT SP IPHASW D HRMM SECON CODA AMPLIT PERI AZIMU VELO AIN AR TRES W  DIS CAZ7
 BAR2 SZ EP        6 4 59.76                             168    0.0510 27.9 195 
 BAR2 SZ ES   1    6 5 13.87                             168   -0.30 7 27.9 195 
 BAR2 SZ I         6 5 15.62        73.6 0.44                          27.9 195 
 BRR  HZ IP     D  6 5  1.55                             151    0.2510 72.1 295 
 BRR  HN ES   1    6 5 17.86                             151    0.86 7 72.1 295 
 BRR  HZ I         6 5 19.29        31.0 0.14                          72.1 295 
 RUS  HZ EP   1    6 5  3.82                             141   -0.43 7  104 178 
 RUS  HN ES   1    6 5 22.70                             141    0.45 7  104 178 
 RUS  HZ I         6 5 23.87        13.2 0.66                           104 178 
 PTB  HZ EP        6 5  6.47                             129   -1.23 9  151 258 
 PTB  HE ES   1    6 5 27.71                             129   -0.67 7  151 258 
 PTB  HZ I         6 5 29.37        22.6 0.14                           151 258 
 OCA  HZ EP   1    6 5  8.26                             128   -0.12 7  157 352 
 OCA  HN ES   1    6 5 29.24                             128   -0.36 7  157 352 
 OCA  HZ I         6 5 32.92        17.1 0.20                           157 352 
 ZAR  HZ EP        6 5 13.75                             120    0.62 8  205 291 
 ZAR  HN ES   1    6 5 38.23                             120    0.18 6  205 291 
 ZAR  HZ I         6 5 44.38        21.4 0.28                           205 291 
 CHI  HZ EP   1    6 5 19.71                             115    0.86 6  253 196 
 CHI  HN ES   1    6 5 48.19                             115   -0.05 6  253 196 
 CHI  HZ I         6 5 53.26         3.5 0.20                           253 196 
 ROSC BN ES   1    6 5 49.12                             114    0.05 6  258 211 
 ROSC BZ I         6 5 56.74         8.4 0.60                           258 211 
 HEL  HZ EP   1    6 5 21.81                             112    0.48 6  276 255 
 HEL  HN ES   1    6 5 52.68                             112    0.02 6  276 255 
 HEL  HZ I         6 5 58.18         9.7 0.54                           276 255 
 MON  HZ EP   4    6 5 26.96                             107   -2.83 0  354 308 
 MON  HN ES   4    6 6  5.32                             107   -2.39 0  354 308 
                                                                                
