 2014  829 0708 13.2 L   6.746 -73.125140.0  RSN 11 0.5 1.6LRSN                1
 GAP=165        1.14       4.7     5.4  8.0 -0.7855E+01  0.8392E+01  0.3256E+01E
 Epicentro: LOS SANTOS - SANTANDER                                             3
 ACTION:UPD 14-09-15 21:54 OP:nd   STATUS:               ID:20140829070813 L   I
 OLDACT:REG 14-08-29 13:40 OP:fm   STATUS:               ID:20140829065807     3
 2014-08-29-0658-07M.COL___278                                                 6
 STAT SP IPHASW D HRMM SECON CODA AMPLIT PERI AZIMU VELO AIN AR TRES W  DIS CAZ7
 BAR2 SZ EP        7 8 32.01                             172   -0.0610 18.2 200 
 BAR2 SZ ES        7 8 47.03                             172    0.2610 18.2 200 
 BAR2 SZ I         7 8 47.94        12.0 0.36            170           18.2 200 
 BRR  HZ EP        7 8 33.89                             150   -0.1710 76.1 302 
 BRR  HN ES        7 8 50.85                             150    0.5510 76.1 302 
 BRR  HZ I         7 8 55.49         5.5 0.44            148           76.1 302 
 PAM  SZ EP   1    7 8 34.60                             149   -0.45 7 80.7  36 
 PAM  SN ES   1    7 8 51.40                             149   -0.66 7 80.7  36 
 PAM  SZ I         7 8 54.00        11.7 0.60            152           80.7  36 
 PTB  HZ EP   1    7 8 38.98                             131   -0.87 7  149 261 
 PTB  HN ES        7 8 59.69                             131   -0.91 9  149 261 
 PTB  HZ I         7 9  2.03         4.2 0.12            130            149 261 
 SPBC HZ EP   1    7 8 40.84                             129   -0.16 7  160 221 
 SPBC HE ES        7 9  3.01                             129    0.36 9  160 221 
 SPBC HZ I         7 9 10.25         3.8 0.16            128            160 221 
 OCA  HZ EP   1    7 8 42.02                             127    0.32 7  166 353 
 OCA  HN ES        7 9  4.55                             127    0.65 9  166 353 
 OCA  HZ I         7 9  7.27         6.4 0.32            128            166 353 
 ZAR  HN ES        7 9 10.81                             121   -0.33 8  208 293 
 ZAR  HZ I         7 9 15.96         5.3 0.28            120            208 293 
 SML  HN ES   4    7 9 17.14                             116   -1.96 0  250 335 
 HEL  HE ES        7 9 25.04                             114    0.58 8  273 257 
 HEL  HZ I         7 9 31.25         2.0 0.28            114            273 257 
 GUY2CHN ES   4    7 9 32.38                             112    2.30 0  300 236 
 GUY2CHZ I         7 9 36.63         1.4 0.40                           300 236 
 MON  HZ EP   4    7 8 58.91                             107   -3.74 0  359 309 
 MON  HN ES   4    7 9 38.05                             107   -3.15 0  359 309 
 MON  HZ I         7 9 44.55         0.9 0.42            108            359 309 
 PRA  HZ EP   1    7 9  6.38                             106    0.29 4  388 210 
 PRA  HN ES   1    7 9 48.27                             106    0.96 4  388 210 
 PRA  HZ I         7 9 52.92         1.6 0.30            106            388 210 
                                                                                
