 2013 1229 0435 20.3 L   6.828 -73.105144.0  RSN 16 0.4 2.2LRSN                1
 GAP=140        0.89       2.8     4.1  6.0 -0.4339E+00  0.7104E+01  0.9304E+00E
 Epicentro: LOS SANTOS - SANTANDER                                             3
 ACTION:UPD 14-01-13 10:22 OP:ep   STATUS:               ID:20131229043520 L   I
 OLDACT:UP  13-12-29 09:28 OP:PTA  STATUS:               ID:20131229043000     3
 OLDACT:UP  13-12-29 09:28 OP:PTA  STATUS:               ID:20131229043000     3
 OLDACT:UP  13-12-29 09:27 OP:PTA  STATUS:               ID:20131229043000     3
 OLDACT:REG 13-12-29 08:26 OP:mh   STATUS:               ID:20131229043000     3
 2013-12-29-0430-00M.COL___285                                                 6
 STAT SP IPHASW D HRMM SECON CODA AMPLIT PERI AZIMU VELO AIN AR TRES W  DIS CAZ7
 BAR2 SZ IP     D  435 40.01                             169    0.2210 27.5 198 
 PAM  SE ES   2    435 59.73                             152    0.79 5 72.1  38 
 BRR  HZ EP        435 41.92                             151    0.5310 73.8 295 
 BRR  HN ES   1    435 58.02                             151    0.17 7 73.8 295 
 BRR  HZ I         436  2.86        29.2 0.14            145           73.8 295 
 RUS  HZ EP        435 43.99                             142   -0.0810  104 179 
 RUS  HN ES        436  2.03                             142   -0.6010  104 179 
 RUS  HZ I         436  3.69        13.6 0.20            134            104 179 
 PTB  HZ EP   1    435 46.64                             130   -0.93 7  153 258 
 PTB  HN ES        436  8.55                             130   -0.30 9  153 258 
 PTB  HZ I         436 10.55        32.2 0.14            122            153 258 
 OCA  HZ EP        435 48.42                             129    0.20 9  158 351 
 OCA  HN ES        436  9.72                             129   -0.29 9  158 351 
 OCA  HZ I         436 14.71        14.8 0.18            124            158 351 
 SPBC HZ EP        435 48.98                             127   -0.17 9  168 220 
 SPBC HZ I         436 14.78        22.1 0.24            120            168 220 
 ZAR  HZ EP   1    435 52.86                             121   -0.06 6  207 291 
 ZAR  HN ES   2    436 18.39                             121    0.01 4  207 291 
 ZAR  HZ I         436 24.74        18.0 0.18            115            207 291 
 NOR  HZ EP   1    435 56.36                             117   -0.14 6  240 234 
 NOR  HZ I         436 29.48        12.5 0.12            111            240 234 
 SML  HZ EP   1    435 56.34                             117   -0.37 6  243 334 
 SML  HN ES   2    436 25.09                             117   -0.03 4  243 334 
 SML  HZ I         436 33.27        20.6 0.09            111            243 334 
 CHI  HZ EP   1    435 58.25                             116   -0.09 6  253 196 
 CHI  HN ES        436 28.56                             116    0.53 8  253 196 
 CHI  HZ I         436 37.98         4.9 0.32            110            253 196 
 HEL  HZ EP        436  1.01                             114    0.04 7  277 255 
 HEL  HN ES        436 33.08                             114    0.37 7  277 255 
 HEL  HZ I         436 39.08        11.3 0.52            108            277 255 
 URE  HZ EP   1    436  0.66                             113   -0.94 6  287 291 
 URE  HN ES   4    436 31.44                             113   -2.39 0  287 291 
 GUY2CHZ EP   1    436  5.21                             111    0.78 5  307 235 
 GUY2CHN ES   4    436 39.52                             111    0.66 0  307 235 
 CBOC HZ EP        436  8.47                             109    0.75 7  339 252 
 CBOC HN ES        436 44.66                             109   -0.07 7  339 252 
 CBOC HZ I         436 47.96         3.6 0.18            104            339 252 
 SJC  HZ EP   4    436 14.32                             105   -1.45 0  409 326 
 SJC  HN ES   4    436 53.78                             105   -5.27 0  409 326 
 SJC  HZ I         437  0.18         5.2 0.53            101            409 326 
                                                                                
