 2016  529 0112 54.5 L   6.793 -73.159147.1  RSN  7 0.4 1.6LRSN                1
 GAP=135        1.00       3.7     6.4  6.9 -0.7156E+01  0.5773E+01  0.4209E+01E
 Epicentro: LOS SANTOS - SANTANDER                                             3
 ACTION:UPD 16-08-18 17:50 OP:cam  STATUS:               ID:20160529011254 L   I
 OLDACT:UP  16-05-29 13:52 OP:mh   STATUS:               ID:20160529010744     3
 OLDACT:REG 16-05-29 12:19 OP:mh   STATUS:               ID:20160529010744     3
 2016-05-29-0107-44M.COL___317                                                 6
 STAT SP IPHASW D HRMM SECON CODA AMPLIT PERI AZIMU VELO AIN AR TRES W  DIS CAZ7
 BAR2 EZ EP        113 14.35                             171    0.0510 22.4 187 
 BAR2 EZ ES        113 29.45                             171   -0.2710 22.4 187 
 BAR2 EZ I         113 30.70        12.8 0.30            168           22.4 187 
 BRR  HZ EP        113 16.09                             153    0.3210 70.3 300 
 BRR  HN ES        113 32.96                             153    0.6210 70.3 300 
 BRR  HZ I         113 37.06         9.1 0.46            150           70.3 300 
 PAM  EZ EP        113 17.19                             151    0.2210 78.9  40 
 PAM  EN ES        113 34.76                             151    0.2810 78.9  40 
 PAM  EZ I         113 36.47         4.8 0.28            156           78.9  40 
 RUS  HZ EP        113 18.36                             144   -0.0010 99.9 175 
 RUS  HN ES        113 36.82                             144   -0.1410 99.9 175 
 RUS  HZ I         113 38.12         4.9 0.26            145           99.9 175 
 OCA  HN ES        113 44.35                             130   -0.85 9  161 354 
 SPBC HZ EP   1    113 22.42                             130   -0.56 7  162 219 
 SPBC HN ES        113 44.77                             130   -0.41 9  162 219 
 SPBC HZ I         113 52.98         8.2 0.28            129            162 219 
 URE  HN ES   4    114  9.20                             114    1.67 0  283 292 
 PRA  HZ EP   1    113 48.03                             107    0.10 4  391 209 
 PRA  HN ES        114 30.23                             107    0.64 6  391 209 
 PRA  HZ I         114 35.48                             108            391 209 
                                                                                
