 2012  629 0722 12.3 L   6.694 -73.198146.0  RSN  4 0.4 0.9LRSN                1
 GAP=223        0.72       7.7     7.9  9.2  0.3222E+02  0.5903E+01  0.4404E+01E
 Epicentro: VILLANUEVA - SANTANDER                                             3
 ACTION:UPD 12-08-06 17:53 OP:ep   STATUS:               ID:20120629072212 L   I
 2012-06-29-0720-00M.COL___201                                                 6
 STAT SP IPHASW D HRMM SECON CODA AMPLIT PERI AZIMU VELO AIN AR TRES W  DIS CAZ7
 BAR2 SZ ES   1    722 46.42                             175   -0.55 7 11.3 171 
 BRR  HZ EP   1    722 33.54                             152   -0.03 7 72.9 309 
 BRR  HZ I         722 33.75         1.7 0.07                          72.9 309 
 BRR  HE ES   1    722 50.62                             152    0.46 7 72.9 309 
 RUS  HZ EP   1    722 35.20                             147   -0.10 7 89.5 172 
 RUS  HZ I         722 36.15         1.0 0.15                          89.5 172 
 RUS  HN ES   1    722 53.66                             147    0.41 7 89.5 172 
 PTB  HN ES   1    722 58.91                             134   -0.22 7  140 263 
 PTB  HZ I         722 59.33         1.1 0.25                           140 263 
                                                                                
