 2013 1029 0842 25.2 L   6.826 -73.192137.3  RSN 10 0.4 1.6LRSN                1
 GAP=130        1.01       3.1     5.3  7.3 -0.2192E+01  0.8446E+01 -0.4809E+01E
 Epicentro: ZAPATOCA - SANTANDER                                               3
 ACTION:UPD 13-11-25 09:24 OP:ep   STATUS:               ID:20131029084225 L   I
 OLDACT:REG 13-10-29 07:14 OP:jn   STATUS:               ID:20131029084000     3
 2013-10-29-0840-00M.COL___273                                                 6
 STAT SP IPHASW D HRMM SECON CODA AMPLIT PERI AZIMU VELO AIN AR TRES W  DIS CAZ7
 BAR2 SZ EP        842 44.04                             169    0.1610 25.9 178 
 BAR2 SZ ES        842 58.57                             169    0.1210 25.9 178 
 BAR2 SZ I         843  0.27        26.9 0.18            170           25.9 178 
 BRR  HZ EP        842 45.77                             153    0.6610 65.3 298 
 BRR  HN ES   4    843  2.47                             153    1.84 0 65.3 298 
 BRR  HZ I         843  7.38         7.4 0.18            154           65.3 298 
 PAM  SZ EP        842 46.95                             149    0.3410 78.6  44 
 PAM  SZ I         843  6.04         9.4 0.32            146           78.6  44 
 RUS  HZ EP   1    842 48.11                             141   -0.29 7  104 173 
 RUS  HN ES        843  5.92                             141   -0.5610  104 173 
 RUS  HZ I         843  7.77         2.6 0.38            142            104 173 
 PTB  HZ EP        842 50.66                             131   -0.43 9  143 257 
 PTB  HN ES        843 11.18                             131   -0.10 9  143 257 
 PTB  HZ I         843 15.04         5.3 0.46            133            143 257 
 OCA  HN ES   1    843 13.64                             128   -0.23 7  157 355 
 SPBC HZ EP        842 52.98                             127   -0.01 9  162 217 
 SPBC HE ES        843 14.99                             127    0.33 9  162 217 
 SPBC HZ I         843 19.56         7.2 0.20            129            162 217 
 NOR  HN ES   1    843 28.01                             117    0.52 6  232 233 
 NOR  HZ I         843 31.85         5.6 0.42            118            232 233 
 SML  HZ EP        843  0.15                             116   -0.70 8  239 336 
 SML  HE ES        843 28.69                             116    0.04 8  239 336 
 CHI  HZ EP   1    843  3.59                             115    0.96 6  250 194 
 CHI  HN ES        843 31.24                             115   -0.57 8  250 194 
 CHI  HZ I         843 37.98         2.1 0.36            116            250 194 
                                                                                
