 2017  729 0822 24.4 L   6.793 -73.138152.0  RSN 13 0.4 1.9LRSN                1
 GAP=100        0.99       3.2     3.1  4.9  0.1226E+01  0.1371E+01  0.2616E+01E
 Epicentro: LOS SANTOS - SANTANDER                                             3
 ACTION:UPD 17-08-30 15:38 OP:rebc STATUS:               ID:20170729082224 L   I
 OLDACT:REG 17-07-29 13:08 OP:and  STATUS:               ID:20170729081743     3
 2017-07-29-0818-00M.COL___377                                                 6
 STAT SP IPHASW D HRMM SECON CODA AMPLIT PERI AZIMU VELO AIN AR TRES W  DIS CAZ7
 BAR2 EZ EP        822 44.60                             171   -0.1410 22.8 192 
 BAR2 EZ ES        822 59.92                             171   -0.7110 22.8 192 
 BAR2 EZ I         823  0.94        30.0 0.18            169           22.8 192 
 BRR  HZ EP        822 46.53                             153    0.2710 72.3 299 
 BRR  HN ES        823  3.75                             153    0.4210 72.3 299 
 BRR  HZ I         823  4.55        11.1 0.12            151           72.3 299 
 PAM  EZ EP        822 47.54                             152    0.2810 77.4  39 
 PAM  EN ES        823  4.82                             152   -0.2910 77.4  39 
 PAM  EZ I         823  6.60        11.7 0.48            153           77.4  39 
 RUS  HZ EP        822 48.71                             145    0.0210 99.8 176 
 RUS  HN ES        823  7.74                             145    0.0910 99.8 176 
 RUS  HZ I         823  8.06        11.0 0.22            144           99.8 176 
 PTB  HZ EP        822 51.28                             133   -0.63 9  148 259 
 PTB  HE ES        823 13.46                             133    0.06 9  148 259 
 PTB  HZ I         823 14.30         8.7 0.38            131            148 259 
 TAM  HZ EP        822 52.79                             132    0.33 9  154 105 
 SPBC HZ EP        822 53.59                             130    0.24 9  163 219 
 SPBC HN ES        823 15.58                             130   -0.37 9  163 219 
 SPBC HZ I         823 18.05        26.0 0.38            128            163 219 
 YPLC HZ EP        822 54.48                             128   -0.05 9  176 151 
 YPLC HE ES        823 18.69                             128    0.64 9  176 151 
 YPLC HZ I         823 22.99         5.5 0.36            127            176 151 
 ZAR  HZ EP        822 57.31                             123   -0.03 9  205 292 
 ZAR  HN ES        823 23.32                             123    0.27 9  205 292 
 ZAR  HZ I         823 29.11         5.9 0.26            122            205 292 
 NOR  HZ EP        823  0.79                             120    0.29 8  235 235 
 NOR  HN ES        823 29.16                             120    0.49 8  235 235 
 NOR  HZ I         823 31.82         5.9 0.52            118            235 235 
 CHI  HZ EP        823  2.75                             118    0.38 8  248 195 
 CHI  HN ES        823 31.63                             118   -0.38 8  248 195 
 CHI  HZ I         823 40.10         2.4 0.07            117            248 195 
 URE  HZ EP        823  5.21                             115   -0.66 7  285 292 
 URE  HE ES   4    823 35.84                             115   -2.39 0  285 292 
 URE  HZ I         823 52.22         4.3 0.32            113            285 292 
 PTGC HZ EP        823  7.52                             113   -0.88 7  308 159 
 PTGC HN ES   4    823 40.50                             113   -2.25 0  308 159 
 PTGC HZ I         823 49.09         3.5 0.46            112            308 159 
                                                                                
