 2017 1129 0636 59.0 L   6.840 -73.168142.1  RSN 19 0.8 2.3LRSN                1
 GAP= 63        1.59       3.2     4.0  7.5 -0.7626E+00  0.8273E+01 -0.1725E+01E
 Epicentro: ZAPATOCA - SANTANDER                                               3
 ACTION:UPD 17-12-12 20:01 OP:rebc STATUS:               ID:20171129063659 L   I
 OLDACT:UP  17-11-29 16:41 OP:dhb  STATUS:               ID:20171129062741d    3
 OLDACT:DUP 17-11-29 16:32 OP:dhb  STATUS:               ID:20171129062741d    3
 2017-11-29-0628-00M.COL___477                                                 6
 STAT SP IPHASW D HRMM SECON CODA AMPLIT PERI AZIMU VELO AIN AR TRES W  DIS CAZ7
 BAR2 EZ IP     C  637 18.13                             169   -0.1210 27.4 183 
 BAR2 EZ ES        637 32.87                             169   -0.4210 27.4 183 
 BAR2 EZ I         637 34.34        53.4 0.32            170           27.4 183 
 PAM  EZ IP     D  637 21.16                             150    0.4610 75.7  43 
 PAM  EZ I         637 26.37                                           75.7  43 
 PAM  EE ES        637 37.97                             150    0.3310 75.7  43 
 PAM  EZ I         637 40.59        18.3 0.68            152           75.7  43 
 RUS  HZ EP        637 22.23                             142   -0.4810  105 175 
 RUS  HN ES        637 40.74                             142   -0.4810  105 175 
 RUS  HZ I         637 42.19        26.8 0.26            144            105 175 
 PTB  HZ EP        637 24.89                             131   -0.62 9  146 257 
 PTB  HE ES        637 46.51                             131    0.31 9  146 257 
 PTB  HZ I         637 51.43        13.4 0.16            131            146 257 
 OCA  HZ EP        637 26.23                             129   -0.33 9  156 354 
 OCA  HN ES        637 49.04                             129    0.97 9  156 354 
 OCA  HZ I         637 52.03        71.4 0.24            130            156 354 
 TAM  HZ EP        637 26.53                             129   -0.17 9  159 106 
 TAM  HN ES        637 48.33                             129    0.00 9  159 106 
 TAM  HZ I         637 57.46        11.7 0.62            132            159 106 
 SPBC HZ EP        637 27.17                             128   -0.21 9  165 217 
 SPBC HN ES        637 48.74                             128   -0.79 9  165 217 
 SPBC HZ I         637 51.51        29.1 0.22            129            165 217 
 YPLC HZ IP     D  637 28.55                             125   -0.46 9  182 151 
 YPLC HE ES        637 52.94                             125    0.51 9  182 151 
 YPLC HZ I         637 53.87         8.9 0.20            128            182 151 
 ZAR  HZ EP        637 30.70                             122   -0.07 9  200 291 
 ZAR  HN ES        637 55.54                             122   -0.03 9  200 291 
 ZAR  HZ I         638  2.69        19.3 0.40            122            200 291 
 NOR  HN ES        638  2.09                             117   -0.22 8  235 233 
 NOR  HZ I         638  6.90         5.8 0.14            118            235 233 
 CHI  HZ EP        637 36.99                             116    0.12 8  252 194 
 CHI  HE ES        638  7.19                             116    0.76 8  252 194 
 CHI  HZ I         638  8.94        43.0 0.76            117            252 194 
 ROSC BZ EP        637 38.64                             115    1.47 8  255 210 
 ROSC BE ES        638  7.34                             115    0.37 8  255 210 
 ROSC BZ I         638 12.80        22.3 0.40            117            255 210 
 HEL  HZ EP        637 39.36                             114    0.50 8  271 255 
 HEL  HE ES        638 11.88                             114    1.91 8  271 255 
 HEL  HZ I         638 34.49        18.5 0.84            114            271 255 
 URE  HZ EP        637 38.62                             113   -0.81 7  280 291 
 URE  HN ES        638  9.41                             113   -1.56 7  280 291 
 URE  HZ I         638 22.09        11.0 0.36            113            280 291 
 DRL03HZ EP        637 40.25                             113    0.37 7  284 353 
 DRL03HE ES        638 12.47                             113    0.68 7  284 353 
 GUY2CHZ EP        637 43.18                             111    0.70 7  302 234 
 GUY2CHN ES   3    638 19.32                             111    2.91 2  302 234 
 GUY2CHZ I         638 41.40         9.3 0.68                           302 234 
 PTGC HZ EP   9    637 41.28                             110   -1.96 0  314 159 
 PTGC HE ES        638 15.33                             111   -0.48 7  314 159 
 LL6C HZ EP        637 44.23                             110    0.23 7  320 358 
 LL6C HE ES        638 17.65                             110   -1.47 7  320 358 
 LL6C HZ I         638 36.38         6.5 0.58            111            320 358 
 PRA  HZ EP        637 52.64                             106   -0.04 6  395 209 
 PRA  HE ES        638 32.81                             106   -1.76 6  395 209 
                                                                                
