 2010  329 0003 12.3 L   6.797 -73.023141.9  RSN  6 0.3 1.8LRSN                1
 GAP=195        0.45       5.1     7.7  5.9  0.1207E+02 -0.9595E+01 -0.1526E+00E
 Epicentro: CEPITA - SANTANDER                                                 3
 ACTION:UP  10-08-24 09:56 OP:vdl  STATUS:               ID:20100329000312 L   I
 2010-03-29-0000-00S.COL___096                                                 6
 STAT SP IPHASW D HRMM SECON CODA AMPLIT PERI AZIMU VELO SNR AR TRES W  DIS CAZ7
 BAR2 SZ IP        0 3 31.83                             168     0.210   29 218 
 BAR2 SZ ES   2    0 3 46.54                             168    -0.1 5   29 218 
 BRR  HZ IP        0 3 33.87                             148     0.110   84 294 
 BRR  HE ES   1    0 3 50.51                             148    -0.1 7   84 294 
 BRR  HZ I         0 3 50.58        22.4 0.31                            84 294 
 RUS  HZ EP   3    0 3 35.55                             143    -0.1 2  100 184 
 RUS  HN ES   3    0 3 53.14                             143    -0.7 2  100 184 
 OCA  SZ EP   2    0 3 40.02                             128    -0.6 5  163 348 
 CHI  HZ EP   3    0 3 49.66                             116    -0.5 2  252 198 
 CHI  HE ES   3    0 4 18.89                             116    -0.9 2  252 198 
 CHI  HZ I         0 4 27.04         2.1 0.35                           252 198 
 RREF BZ EP   2    0 3 59.50                             109     0.0 3  332 231 
 RREF BE ES   3    0 4 36.43                             109     0.2 2  332 231 
 RREF BZ I         0 4 44.10         2.5 0.41                           332 231 
                                                                                
