 2017 1229 0059 46.6 L   6.742 -73.132143.4  RSN 15 0.6 2.1LRSN                1
 GAP= 67        1.43       3.8     3.6  7.8  0.4701E+00  0.5334E+01  0.3286E+01E
 Epicentro: LOS SANTOS - SANTANDER                                             3
 ACTION:UPD 18-01-04 13:25 OP:rebc STATUS:               ID:20171229005946 L   I
 OLDACT:REG 17-12-29 12:37 OP:osc  STATUS:               ID:20171229005317     3
 2017-12-29-0058-00M.COL___457                                                 6
 STAT SP IPHASW D HRMM SECON CODA AMPLIT PERI AZIMU VELO AIN AR TRES W  DIS CAZ7
 BAR2 EZ EP        1 0  6.05                             173    0.2210 17.5 198 
 BAR2 EZ ES        1 0 21.01                             173    0.1710 17.5 198 
 BAR2 EZ I         1 0 22.06        31.5 0.24            172           17.5 198 
 PAM  EZ EP        1 0  9.10                             149    0.2910 81.5  36 
 PAM  EN ES        1 0 26.24                             149    0.1010 81.5  36 
 PAM  EZ I         1 0 27.79        10.8 0.44            151           81.5  36 
 PTB  HZ EP        1 0 12.64                             131   -0.76 9  148 261 
 PTB  HN ES        1 0 33.88                             131   -0.43 9  148 261 
 PTB  HZ I         1 0 35.96        14.5 0.22            132            148 261 
 TAM  HZ IP     C  1 0 14.31                             131    0.51 9  152 103 
 TAM  HE ES        1 0 35.32                             131    0.29 9  152 103 
 TAM  HZ I         1 0 36.18         5.8 0.46            133            152 103 
 SPBC HZ EP        1 0 14.68                             129    0.15 9  159 221 
 SPBC HN ES        1 0 36.83                             129    0.50 9  159 221 
 SPBC HZ I         1 0 39.60        14.3 0.20            131            159 221 
 OCA  HZ EP        1 0 14.59                             128   -0.75 9  167 353 
 OCA  HN ES        1 0 36.58                             128   -1.19 9  167 353 
 OCA  HZ I         1 0 38.18        43.2 0.32            130            167 353 
 YPLC HZ EP        1 0 16.41                             127    0.82 9  170 151 
 ZAR  HZ EP        1 0 19.36                             121    0.08 8  208 294 
 ZAR  HE ES        1 0 45.20                             121    0.42 8  208 294 
 ZAR  HZ I         1 0 52.86        14.4 0.28            123            208 294 
 URE  HN ES        1 0 59.52                             113   -0.73 7  288 293 
 DRL03HZ EP        1 0 29.05                             112    0.23 7  295 353 
 DRL03HE ES        1 1  2.76                             112    0.99 7  295 353 
 GUY2CHZ EP        1 0 30.56                             112    0.75 7  299 236 
 GUY2CHN ES        1 1  3.88                             112    0.35 7  299 236 
 GUY2CHZ I         1 1 10.99         6.7 0.30                           299 236 
 PTGC HZ EP        1 0 28.94                             112   -0.66 7  302 158 
 PTGC HE ES        1 1  1.29                             112   -1.86 7  302 158 
 CBOC HN ES        1 1  9.94                             109    0.12 7  333 253 
 DBB  HN ES        1 1 11.35                             109    0.01 7  341 275 
 SJC  HZ EP   9    1 0 41.02                             105   -1.78 0  415 327 
 SJC  HN ES        1 1 24.80                                   -0.07 6  415 327 
 SJC  HZ I         1 1 26.58         3.1 0.42            106            415 327 
                                                                                
