 2011  129 0301 43.8 L   6.801 -73.209135.5  RSN  4 0.1 1.3LRSN                1
 GAP=152        0.32       1.7     3.6  3.9 -0.1044E+01  0.4509E+01 -0.2384E+01E
 Epicentro: ZAPATOCA - SANTANDER                                               3
 ACTION:UP  11-02-08 08:43 OP:pat  STATUS:               ID:20110129030143 L   I
 2011-01-29-0300-02S.COL___137                                                 6
 STAT SP IPHASW D HRMM SECON CODA AMPLIT PERI AZIMU VELO SNR AR TRES W  DIS CAZ7
 BAR2 SZ ES   1    3 2 16.62                             170     0.1 8   23 173 
 BAR2 SZ I         3 2 18.04         7.9 0.28                            23 173 
 RUS  HZ EP   1    3 2  6.70                             141     0.1 8  101 172 
 RUS  HN ES   1    3 2 24.31                             141    -0.1 8  101 172 
 RUS  HZ I         3 2 25.75         1.7 0.20                           101 172 
 GRA  SZ EP        3 2  8.34                             134     0.010  128  20 
 GRA  SZ ES        3 2 27.46                             134     0.010  128  20 
 GRA  SZ I         3 2 30.07         3.5 0.32                           128  20 
 MON  HN ES   1    3 3  9.11                             107     0.0 5  347 309 
                                                                                
