 2014  829 0242 55.8 L   6.798 -73.154151.2  RSN  6 0.4 1.6LRSN                1
 GAP=212        0.88       4.1     6.0  7.1  0.1413E+01  0.8232E+00 -0.4863E+01E
 Epicentro: LOS SANTOS - SANTANDER                                             3
 ACTION:UPD 14-09-15 21:54 OP:nd   STATUS:               ID:20140829024255 L   I
 OLDACT:REG 14-08-29 17:27 OP:fm   STATUS:               ID:20140829024149     3
 2014-08-29-0241-49M.COL___272                                                 6
 STAT SP IPHASW D HRMM SECON CODA AMPLIT PERI AZIMU VELO AIN AR TRES W  DIS CAZ7
 BAR2 SZ EP        243 16.28                             171    0.2510 23.0 188 
 BAR2 SZ ES   1    243 31.17                             171   -0.68 7 23.0 188 
 BAR2 SZ I         243 32.36         6.9 0.44            166           23.0 188 
 BRR  HZ EP   1    243 17.62                             154    0.16 7 70.5 299 
 BRR  HN ES        243 34.94                             154    0.5610 70.5 299 
 BRR  HZ I         243 36.31         7.7 0.44            149           70.5 299 
 PTB  HZ EP        243 23.09                             133   -0.00 9  147 259 
 PTB  HN ES        243 43.91                             133   -0.50 9  147 259 
 PTB  HZ I         243 45.87         4.0 0.24            130            147 259 
 SPBC HZ EP   1    243 24.43                             130   -0.18 7  162 219 
 SPBC HN ES        243 47.27                             130    0.15 9  162 219 
 SPBC HZ I         243 55.35         3.7 0.28            128            162 219 
 ZAR  HZ EP   1    243 28.20                             124   -0.28 6  203 292 
 ZAR  HN ES        243 54.29                             124    0.28 9  203 292 
 ZAR  HZ I         244  2.90         3.9 0.22            122            203 292 
 SML  HZ EP   1    243 33.05                             119    0.38 6  243 336 
 SML  HN ES        244  0.91                             119   -0.55 8  243 336 
 SML  HZ I         244  3.01         4.4 0.28            118            243 336 
                                                                                
