 2011  329 0735 53.5 L   6.756 -73.035142.9  RSN  5 0.3 1.7LRSN                1
 GAP=211        0.78       8.9    11.0 10.6 -0.3429E+02 -0.3590E+02  0.3930E+02E
 Epicentro: CEPITA - SANTANDER                                                 3
 ACTION:UP  11-06-16 14:36 OP:jfem STATUS:               ID:20110329073553 L   I
 2011-03-29-0733-51S.COL___138                                                 6
 STAT SP IPHASW D HRMM SECON CODA AMPLIT PERI AZIMU VELO SNR AR TRES W  DIS CAZ7
 BAR2 SZ EP        736 13.26                             170     0.410   25 222 
 BAR2 SZ I         736 13.55         7.3 0.21                            25 222 
 BTL  SZ EP        736 12.54                             167    -0.410   31 305 
 BTL  SZ ES   1    736 27.94                             167    -0.2 7   31 305 
 GIR2 SZ EP   2    736 13.15                             164     0.1 5   40 334 
 GIR2 SZ ES   3    736 28.26                             164    -0.1 2   40 334 
 BRR  HZ EP        736 15.09                             148    -0.110   84 297 
 BRR  HN ES   1    736 32.27                             148     0.2 7   84 297 
 BRR  HZ I         736 35.24        13.4 0.24                            84 297 
 GRA  SZ ES   1    736 38.35                             136     0.1 7  127  12 
 GRA  SZ I         736 39.98         5.6 0.28                           127  12 
                                                                                
