 2017 1029 0821 33.6 L   6.776 -73.083143.6  RSN  4 0.3 0.7LRSN                1
 GAP=146        0.80       4.3     4.4  8.1 -0.2213E+01 -0.8738E+00  0.4841E+01E
 Epicentro: LOS SANTOS - SANTANDER                                             3
 ACTION:UPD 17-11-07 19:38 OP:rebc STATUS:               ID:20171029082133 L   I
 OLDACT:UP  17-10-29 16:51 OP:edw  STATUS:               ID:20171029081745     3
 OLDACT:REG 17-10-29 13:39 OP:dhb  STATUS:               ID:20171029081745     3
 2017-10-29-0818-00M.COL___399                                                 6
 STAT SP IPHASW D HRMM SECON CODA AMPLIT PERI AZIMU VELO AIN AR TRES W  DIS CAZ7
 PAM  EZ EP        821 55.69                             151    0.1910 75.3  34 
 PAM  EN ES        822 12.29                             151   -0.2710 75.3  34 
 PAM  EZ I         822 22.10         1.0 0.28            152           75.3  34 
 BRR  HZ EP        821 54.63                             150   -0.3710 78.6 298 
 BRR  HE ES        822 12.13                             150    0.4810 78.6 298 
 RUS  HZ EP        821 57.27                             144    0.2910 97.7 180 
 RUS  HN ES        822 15.07                             144   -0.1110 97.7 180 
 RUS  HZ I         822 19.36         0.7 0.42            150           97.7 180 
 PTB  HN ES        822 22.13                             130   -0.25 9  154 260 
                                                                                
