 2013  829 0745 24.1 L   6.836 -73.163145.8  RSN 17 0.6 2.5LRSN                1
 GAP=133        1.29       3.1     5.0  6.2 -0.3132E+01  0.8647E+01  0.1916E+01E
 Epicentro: LOS SANTOS - SANTANDER                                             3
 ACTION:UPD 14-01-14 09:08 OP:ep   STATUS:               ID:20130829074524 L   I
 OLDACT:REG 13-08-29 09:06 OP:jn   STATUS:               ID:20130829073842     3
 2013-08-29-0738-42M.COL___199                                                 6
 STAT SP IPHASW D HRMM SECON CODA AMPLIT PERI AZIMU VELO AIN AR TRES W  DIS CAZ7
 BAR2 SZ IP     D  745 43.92                             169    0.0610 27.0 185 
 BAR2 SZ ES        745 58.79                             169   -0.4510 27.0 185 
 BAR2 SZ I         746  0.22        43.2 0.26            168           27.0 185 
 BRR  HZ IP     C  745 45.65                             154    0.5510 67.7 296 
 BRR  HN ES        746  2.59                             154    1.1410 67.7 296 
 BRR  HZ I         746  6.52       100.9 0.34            145           67.7 296 
 PAM  SZ EP        745 46.80                             151    0.5410 75.6  43 
 PAM  SE ES        746  3.85                             151    0.3410 75.6  43 
 PAM  SZ I         746  5.87        55.6 0.34            150           75.6  43 
 RUS  HZ EP        745 47.83                             143   -0.3710  105 175 
 RUS  HN ES        746  6.42                             143   -0.5410  105 175 
 RUS  HZ I         746  8.01        22.8 0.26            143            105 175 
 PTB  HZ EP        745 50.36                             132   -0.66 9  147 257 
 PTB  HN ES        746 11.43                             132   -0.55 9  147 257 
 PTB  HZ I         746 16.95        32.6 0.28            127            147 257 
 OCA  HZ EP        745 51.77                             130   -0.30 9  156 354 
 OCA  HN ES        746 13.44                             130   -0.41 9  156 354 
 OCA  HZ I         746 22.51        38.7 0.40            126            156 354 
 SPBC HZ EP        745 52.78                             129   -0.04 9  165 218 
 SPBC HN ES        746 14.74                             129   -0.46 9  165 218 
 ZAR  HZ EP   1    745 56.34                             123    0.09 6  201 291 
 ZAR  HN ES   1    746 21.58                             123    0.28 6  201 291 
 ZAR  HZ I         746 27.01        55.3 0.44            118            201 291 
 NOR  HZ IP     D  746  0.28                             118    0.32 8  235 233 
 NOR  HN ES        746 27.35                             118   -0.54 8  235 233 
 NOR  HZ I         746 35.67        26.7 0.16            115            235 233 
 SML  HZ EP        745 59.99                             118   -0.30 8  239 335 
 SML  HE ES        746 27.99                             118   -0.50 8  239 335 
 CHI  HZ EP        746  2.39                             117    0.19 8  252 195 
 CHI  HE ES   1    746 31.77                             117   -0.12 6  252 195 
 CHI  HZ I         746 34.71        22.0 0.30            115            252 195 
 ROSC BZ EP        746  3.54                             116    1.01 8  255 210 
 ROSC BE ES        746 33.25                             116    0.78 8  255 210 
 HEL  HZ EP        746  4.66                             115    0.40 8  271 255 
 HEL  HE ES   1    746 36.48                             115    0.93 6  271 255 
 HEL  HZ I         746 41.84        12.2 0.40            112            271 255 
 URE  HZ EP   1    746  3.53                             114   -1.32 6  281 291 
 URE  HZ I         746 45.02        42.6 0.24            110            281 291 
 PRA  HZ EP   1    746 17.57                             106   -0.38 4  395 209 
 PRA  HN ES        746 58.88                             106   -1.05 6  395 209 
 PRA  HZ I         747  5.06        17.3 0.48            105            395 209 
 ORTC HZ EP        746 18.64                             106    0.34 6  398 216 
 ORTC HN ES        747  1.53                             106    0.98 6  398 216 
 ORTC HZ I         747 11.54        13.6 0.48            104            398 216 
 SJC  HZ EP   4    746 17.65                             106   -1.54 0  405 327 
 SJC  HN ES   4    746 58.16                             106   -3.97 0  405 327 
 SJC  HZ I         747  5.84         5.9 0.24            103            405 327 
                                                                                
