 2014  129 0229 14.6 L   6.749 -73.128142.8  RSN  6 0.4 1.4LRSN                1
 GAP=141        1.07       5.3     5.5  7.1 -0.2069E+01  0.4215E+01  0.7336E+01E
 Epicentro: LOS SANTOS - SANTANDER                                             3
 ACTION:UPD 14-03-13 09:59 OP:ep   STATUS:               ID:20140129022914 L   I
 OLDACT:REG 14-01-29 08:19 OP:stll STATUS:               ID:20140129022813     3
 2014-01-29-0228-13M.COL___252                                                 6
 STAT SP IPHASW D HRMM SECON CODA AMPLIT PERI AZIMU VELO AIN AR TRES W  DIS CAZ7
 BAR2 SZ EP        229 33.68                             172   -0.0510 18.4 199 
 BAR2 SZ ES        229 48.67                             172   -0.0210 18.4 199 
 BAR2 SZ I         229 51.41         8.4 0.50            170           18.4 199 
 BRR  HZ EP        229 35.87                             150    0.2310 75.7 302 
 BRR  HN ES        229 52.82                             150    0.7310 75.7 302 
 PAM  SZ EP        229 36.90                             149    0.2510 80.6  36 
 PAM  SZ I         229 37.03         4.8 0.24            153           80.6  36 
 PAM  SN ES        229 53.38                             149   -0.5010 80.6  36 
 RUS  HZ EP        229 37.22                             145   -0.3810 94.9 177 
 RUS  HN ES        229 55.74                             145    0.1710 94.9 177 
 RUS  HZ I         229 57.88         2.6 0.40            145           94.9 177 
 PTB  HZ EP        229 41.03                             131   -0.33 9  149 261 
 PTB  HN ES        230  1.67                             131   -0.61 9  149 261 
 PTB  HZ I         230  6.36         2.9 0.16            132            149 261 
 CHI  HZ EP        229 52.17                             117    0.62 8  244 196 
                                                                                
