 2013 1029 0926 10.5 L   6.774 -73.167144.3  RSN  6 0.4 1.0LRSN                1
 GAP=198        0.75       4.7     7.1  8.3  0.7544E+01  0.1046E+02 -0.4738E+01E
 Epicentro: LOS SANTOS - SANTANDER                                             3
 ACTION:UPD 13-11-25 09:24 OP:ep   STATUS:               ID:20131029092610 L   I
 OLDACT:REG 13-10-29 07:16 OP:jn   STATUS:               ID:20131029092000     3
 2013-10-29-0920-00M.COL___273                                                 6
 STAT SP IPHASW D HRMM SECON CODA AMPLIT PERI AZIMU VELO AIN AR TRES W  DIS CAZ7
 BAR2 SZ ES   2    926 44.96                             172   -0.03 5 20.2 185 
 BRR  HN ES   2    926 48.22                             152    0.45 5 70.6 301 
 RUS  HN ES   1    926 51.92                             144   -0.24 8 98.0 175 
 RUS  HZ I         926 55.30         1.1 0.36            143           98.0 175 
 PTB  HZ EP        926 37.33                             132    0.2610  145 260 
 PTB  HN ES        926 57.34                             132   -0.4610  145 260 
 PTB  HZ I         927  3.42         1.7 0.56            131            145 260 
 SPBC HZ EP        926 38.32                             129   -0.1910  159 219 
 SPBC HE ES   1    927  1.10                             129    0.72 7  159 219 
 SPBC HZ I         927  6.65         1.8 0.16            129            159 219 
 SML  HE ES   1    927 15.91                             117    0.08 6  245 336 
                                                                                
