 2016  829 0330 55.9 L   6.789 -73.169148.6  RSN  7 0.3 1.5LRSN                1
 GAP=234        0.88       4.8     5.2  6.0  0.1018E+02  0.4989E+01 -0.8671E+00E
 Epicentro: LOS SANTOS - SANTANDER                                             3
 ACTION:UPD 16-10-29 15:40 OP:rebc STATUS:               ID:20160829033055 L   I
 OLDACT:DUP 16-08-29 13:39 OP:drio STATUS:               ID:20160829032740d    3
 2016-08-29-0328-00M.COL___362                                                 6
 STAT SP IPHASW D HRMM SECON CODA AMPLIT PERI AZIMU VELO AIN AR TRES W  DIS CAZ7
 BAR2 EZ EP        331 15.38                             171   -0.4110 21.8 184 
 BAR2 EZ ES        331 30.99                             171   -0.3610 21.8 184 
 BAR2 EZ I         331 33.40         9.1 0.24                          21.8 184 
 BRR  HZ EP        331 17.56                             153    0.3510 69.5 300 
 BRR  HN ES        331 34.50                             153    0.6210 69.5 300 
 BRR  HZ I         331 37.74         6.6 0.30                          69.5 300 
 RUS  HZ EP        331 20.10                             145    0.2910 99.6 175 
 RUS  HN ES        331 38.34                             145   -0.1610 99.6 175 
 RUS  HZ I         331 39.60         2.7 0.40                          99.6 175 
 PTB  HZ EP        331 22.64                             133   -0.16 9  145 259 
 PTB  HE EP        331 22.76                             132            145 259 
 PTB  HE ES        331 43.84                             133    0.02 9  145 259 
 PTB  HZ I         331 46.03         3.8 0.18                           145 259 
 SPBC HZ EP        331 24.70                             130    0.37 9  161 219 
 SPBC HN ES        331 46.53                             130   -0.01 9  161 219 
 SPBC HZ I         331 52.88         5.4 0.24                           161 219 
 ZAR  HZ EP        331 28.03                             123   -0.25 9  202 293 
 ZAR  HN ES        331 53.14                             123   -0.44 9  202 293 
 GUY2CHZ EP   4    331 41.15                             113    1.87 0  298 235 
 GUY2CHN ES   4    332 17.94                             113    4.80 0  298 235 
 GUY2CHZ I         332 22.08         1.9 0.62                           298 235 
                                                                                
