 2011  529 0923 41.8 L   6.741 -73.020154.8  RSN  7 0.4 1.5LRSN                1
 GAP=174        0.86       5.3     6.9 10.0 -0.1665E+02 -0.9388E+01  0.9222E+01E
 Epicentro: ARATOCA - SANTANDER                                                3
 ACTION:UP  11-06-29 08:57 OP:tino STATUS:               ID:20110529092341 L   I
 2011-05-29-0921-51S.COL___113                                                 6
 STAT SP IPHASW D HRMM SECON CODA AMPLIT PERI AZIMU VELO SNR AR TRES W  DIS CAZ7
 BAR2 SZ EP   1    924  1.88                             171    -0.6 7   24 227 
 BAR2 SZ I         924 19.53         6.4 0.18                            24 227 
 BRR  HZ EP   1    924  4.92                             149     0.1 7   86 298 
 BRR  HN ES        924 22.80                             149     0.110   86 298 
 BRR  HZ I         924 26.52         7.8 0.10                            86 298 
 RUS  HZ EP   2    924  5.46                             147    -0.5 5   94 184 
 RUS  HN ES   2    924 25.60                             147     0.7 5   94 184 
 RUS  HZ I         924 26.98         4.5 0.52                            94 184 
 GRA  SZ EP   1    924  8.65                             138     0.6 7  129  11 
 GRA  SZ ES   1    924 28.13                             138    -0.4 7  129  11 
 GRA  SZ I         924 30.97         3.9 0.32                           129  11 
 OCA  SZ EP   1    924 11.79                             130     0.2 7  169 349 
 OCA  SZ ES   1    924 34.94                             130     0.1 7  169 349 
 NOR  SN ES   1    924 48.04                             119     0.2 6  243 238 
 HEL  HN ES   1    924 56.15                             115    -0.4 6  284 258 
                                                                                
