 2016  229 0952  8.7 L   6.799 -73.152140.5  RSN 18 0.5 2.4LRSN                1
 GAP=125        0.92       2.8     3.4  5.2 -0.2533E+01  0.7581E+01 -0.6101E-01E
 Epicentro: LOS SANTOS - SANTANDER                                             3
 ACTION:UPD 16-03-04 21:30 OP:rebc STATUS:               ID:20160229095208 L   I
 OLDACT:UP  16-02-29 15:58 OP:mh   STATUS:               ID:20160229094746     3
 OLDACT:UP  16-02-29 15:58 OP:mh   STATUS:               ID:20160229094746     3
 OLDACT:UP  16-02-29 15:58 OP:mh   STATUS:               ID:20160229094746     3
 OLDACT:UP  16-02-29 15:57 OP:mh   STATUS:               ID:20160229094746     3
 OLDACT:UP  16-02-29 15:57 OP:mh   STATUS:               ID:20160229094746     3
 OLDACT:UP  16-02-29 15:56 OP:mh   STATUS:               ID:20160229094746     3
 OLDACT:UP  16-02-29 15:56 OP:mh   STATUS:               ID:20160229094746     3
 OLDACT:UP  16-02-29 15:55 OP:mh   STATUS:               ID:20160229094746     3
 OLDACT:UP  16-02-29 15:55 OP:mh   STATUS:               ID:20160229094746     3
 OLDACT:UP  16-02-29 15:54 OP:mh   STATUS:               ID:20160229094746     3
 OLDACT:UP  16-02-29 15:54 OP:mh   STATUS:               ID:20160229094746     3
 OLDACT:REG 16-02-29 12:30 OP:mh   STATUS:               ID:20160229094746     3
 2016-02-29-0947-46M.COL___309                                                 6
 STAT SP IPHASW D HRMM SECON CODA AMPLIT PERI AZIMU VELO AIN AR TRES W  DIS CAZ7
 BAR2 EZ EP     C  952 27.88                             170    0.1710 23.1 188 
 BAR2 EZ ES        952 42.51                             170   -0.0110 23.1 188 
 BAR2 EZ  AMP      952 43.61       182.3 0.17                          23.1 188 
 PAM  EZ EP     C  952 30.90                             150    0.4910 78.0  40 
 PAM  EN ES        952 47.60                             150    0.2710 78.0  40 
 PAM  EZ I         952 50.28        56.8 0.48            153           78.0  40 
 RUS  HZ EP   1    952 32.07                             143    0.12 7  100 176 
 RUS  HN ES        952 50.25                             143    0.1810  100 176 
 RUS  HZ I         952 51.41        26.9 0.50            143            100 176 
 PTB  HZ EP        952 34.66                             131   -0.54 9  147 259 
 PTB  HN ES   1    952 55.09                             131   -0.75 7  147 259 
 PTB  HZ I         952 58.65        35.4 0.18            131            147 259 
 OCA  HZ EP   1    952 36.33                             128   -0.30 7  160 353 
 OCA  HN ES        952 57.83                             128   -0.57 9  160 353 
 OCA  HZ I         953  0.71        68.1 0.30            130            160 353 
 SPBC HZ EP        952 36.85                             128    0.08 9  163 219 
 SPBC HN ES        952 58.42                             128   -0.22 9  163 219 
 SPBC HZ I         953  2.60        30.1 0.20            128            163 219 
 ZAR  HZ EP        952 40.84                             121    0.08 9  203 292 
 ZAR  HE ES        953  6.45                             121    0.69 9  203 292 
 ZAR  HZ I         953  7.76        26.1 0.36            122            203 292 
 NOR  HZ EP        952 43.67                             117   -0.41 8  234 234 
 NOR  HN ES        953 11.27                             117   -0.38 8  234 234 
 NOR  HZ I         953 13.45        18.9 0.14            118            234 234 
 CHI  HZ EP   1    952 46.10                             116    0.00 6  248 195 
 CHI  HN ES        953 15.22                             116   -0.03 8  248 195 
 CHI  HZ I         953 20.97         6.5 0.26            116            248 195 
 ROSC BZ EP   1    952 45.89                             116   -0.61 6  252 211 
 ROSC BN ES   4    953 19.72                             116    3.75 0  252 211 
 ROSC BZ I         953 23.93        17.3 0.40            116            252 211 
 HEL  HZ EP   1    952 49.16                             114    0.57 6  271 256 
 HEL  HN ES        953 19.35                             114   -0.33 8  271 256 
 HEL  HZ I         953 26.41        12.4 0.28            114            271 256 
 URE  HZ EP   4    952 49.87                             113    0.40 0  283 292 
 URE  HN ES   4    953 19.50                             113   -1.75 0  283 292 
 GUY2CHZ EP   1    952 52.94                             111    0.93 5  301 235 
 GUY2CHN ES   4 C  953 26.47                             111    0.69 0  301 235 
 GUY2CHZ I         953 32.93        15.4 0.24                           301 235 
 PTGC HZ EP   4    952 50.69                             110   -1.67 0  309 159 
 PTGC HN ES   4    953 24.22                             110   -2.18 0  309 159 
 LL6C HZ EP   4    952 52.56                             109   -1.66 0  325 358 
 LL6C HN ES   4    953 29.92                             109    0.22 0  325 358 
 ELA  HZ EP   4    952 58.54                             109    3.26 0  328 229 
 ELA  HN ES   4    953 33.95                             109    2.35 0  328 229 
 CBOC HZ EP   1    952 56.01                             109    0.67 5  333 252 
 CBOC HN ES        953 32.51                             109    0.81 7  333 252 
 CBOC HZ I         953 36.10         4.5 0.32            109            333 252 
 MON  HZ EP   4    952 54.15                             108   -3.32 0  353 308 
 MON  HN ES   4    953 33.85                             108   -1.64 0  353 308 
 MON  HZ I         953 35.05         5.5 0.20            109            353 308 
 ANIL HZ EP   4    953  1.82                             107    3.56 0  357 224 
 ANIL HE ES   4    953 40.69                             107    3.80 0  357 224 
 ANIL HZ I         953 43.38        14.7 0.24            108            357 224 
 SDV  BZ EP   1    952 57.70                             107   -0.94 5  361  50 
 SDV  BE ES   4    953 35.05                             107   -2.53 0  361  50 
 SDV  BZ I         953 38.32         5.6 0.72            109            361  50 
 PAL  HZ EP        953  3.91                             105    0.28 6  405 239 
 PAL  HN ES        953 46.22                             105   -0.24 6  405 239 
 PAL  HZ I         953 48.59         4.3 0.58            106            405 239 
 SJC  HZ EP   4    953  2.52                             105   -1.56 0  409 327 
 SJC  HN ES   4    953 43.34                             105   -3.92 0  409 327 
 MACC HZ EP   4    953 15.20                             101   -2.08 0  520 189 
 MACC HN ES   4    954  8.10                             101   -2.65 0  520 189 
 MACC HZ I         954 14.48         1.3 0.32            101            520 189 
                                                                                
