 2012 1129 0833 59.2 L   7.437 -73.211128.3  RSN  7 0.4 1.8LRSN                1
 GAP=108        1.03       3.7     4.7  9.6  0.1654E+01  0.1949E+02  0.3046E+01E
 Epicentro: EL PLAYON - SANTANDER                                              3
 ACTION:UPD 12-12-05 15:37 OP:}ep  STATUS:               ID:20121129083359 L   I
 2012-11-29-0830-00M.COL___236                                                 6
 STAT SP IPHASW D HRMM SECON CODA AMPLIT PERI AZIMU VELO AIN AR TRES W  DIS CAZ7
 GIR2 SZ EP        834 17.28                             162    0.2110 39.6 177 
 PAM  SZ EP        834 18.78                             155    0.4010 57.4 101 
 PAM  SN ES        834 33.55                             155    0.1910 57.4 101 
 PAM  SN I         834 34.49        13.2 0.36                          57.4 101 
 OCA  HZ EP        834 20.40                             143    0.4610 89.5 352 
 OCA  HN ES        834 36.03                             143   -0.1010 89.5 352 
 OCA  HN I         834 38.57        25.2 0.34                          89.5 352 
 BAR2 SZ EP        834 19.65                             142   -0.7010 93.5 178 
 BAR2 SZ ES        834 36.56                             142   -0.3010 93.5 178 
 BAR2 SZ I         834 38.51        10.2 0.38                          93.5 178 
 PTB  HZ EP        834 26.83                             123   -0.13 9  170 234 
 PTB  HN ES        834 48.83                             123    0.21 9  170 234 
 PTB  HN I         834 51.31         6.2 0.30                           170 234 
 SML  HN ES        834 49.44                             122   -0.69 9  178 328 
 SML  HN I         834 49.83        14.8 0.12                           178 328 
 ZAR  HN ES        834 51.26                             121    0.41 9  182 272 
 ZAR  HN I         834 53.59         4.7 0.32                           182 272 
                                                                                
