 2014  429 0847 47.7 L   6.845 -73.089152.8  RSN  6 0.4 1.9LRSN                1
 GAP=189        0.86       3.5     5.8  9.9  0.1798E+01 -0.5309E+00 -0.1689E+02E
 Epicentro: LOS SANTOS - SANTANDER                                             3
 ACTION:UPD 14-05-13 23:12 OP:nd   STATUS:               ID:20140429084747 L   I
 OLDACT:UP  14-04-29 17:54 OP:mh   STATUS:               ID:20140429084548d    3
 OLDACT:UP  14-04-29 17:53 OP:mh   STATUS:               ID:20140429084548d    3
 OLDACT:DUP 14-04-29 17:46 OP:mh   STATUS:               ID:20140429084548d    3
 OLDACT:UP  14-04-29 17:45 OP:mh   STATUS:               ID:20140429084547     3
 OLDACT:UP  14-04-29 17:41 OP:mh   STATUS:               ID:20140429084547     3
 OLDACT:REG 14-04-29 16:44 OP:mh   STATUS:               ID:20140429084547     3
 2014-04-29-0845-47M.COL___236                                                 6
 STAT SP IPHASW D HRMM SECON CODA AMPLIT PERI AZIMU VELO AIN AR TRES W  DIS CAZ7
 RUS  HZ EP        848 12.49                             144   -0.0010  105 180 
 RUS  HN ES        848 32.13                             144    0.3010  105 180 
 PTB  HZ EP        848 16.04                             132    0.15 9  155 257 
 PTB  HN ES   1    848 37.42                             132   -0.46 7  155 257 
 PTB  HZ I         848 39.76         9.6 0.13            134            155 257 
 OCA  HZ EP        848 15.57                             132   -0.62 9  156 351 
 OCA  HN ES   1    848 38.49                             132    0.07 7  156 351 
 OCA  HZ I         848 43.74         8.5 0.22            135            156 351 
 SPBC HZ EP   4    848 19.10                             129    1.62 0  171 220 
 SPBC HN ES        848 40.37                             129   -0.34 9  171 220 
 SPBC HZ I         848 46.99         7.9 0.24            133            171 220 
 ZAR  HZ EP   1    848 21.08                             123    0.06 6  208 290 
 ZAR  HN ES   1    848 47.71                             123    0.70 6  208 290 
 ZAR  HZ I         848 56.74        10.7 0.05            125            208 290 
 SML  HZ EP        848 25.14                             119    0.61 8  242 333 
 SML  HN ES        848 53.07                             119   -0.20 8  242 333 
                                                                                
