 2017 1029 1924 50.0 L   6.834 -73.119154.0  RSN 43 1.3 3.4LRSN                1
 GAP= 56        2.06       4.0     4.5  7.6 -0.2648E+00  0.9219E+01  0.2855E+01E
 Epicentro: LOS SANTOS - SANTANDER                                             3
      52.0      28.0      38.0 25.0 10.0 28.0  0.0  0.1           RSN FPFIT    F
 ACTION:UPD 17-11-07 19:39 OP:rebc STATUS:               ID:20171029192449 L   I
 OLDACT:UP  17-10-31 15:03 OP:nlst STATUS:               ID:20171029192449 L   3
 OLDACT:UP  17-10-29 23:04 OP:osc  STATUS:               ID:20171029191739d    3
 OLDACT:DUP 17-10-29 22:43 OP:osc  STATUS:               ID:20171029191739d    3
 OLDACT:UP  17-10-29 22:41 OP:osc  STATUS:               ID:20171029191738     3
 OLDACT:REG 17-10-29 20:31 OP:dani STATUS:               ID:20171029191738     3
 2017-10-29-1918-00M.COL___437                                                 6
 STAT SP IPHASW D HRMM SECON CODA AMPLIT PERI AZIMU VELO AIN AR TRES W  DIS CAZ7
 BAR2 EZ IP     C 1925 10.56                             169   -0.1110 27.7 195 
 BAR2 EZ ES       1925 25.85                             169   -0.9710 27.7 195 
 BAR2 EZ I        1925 28.43      1273.4 0.30            169           27.7 195 
 BRR  HZ IP     C 1925 12.37                             153    0.3210 72.1 295 
 BRR  HN ES       1925 29.54                             153    0.2610 72.1 295 
 BRR  HZ I        1925 33.42       645.3 0.32            152           72.1 295 
 PAM  EZ IP     C 1925 13.37                             153    0.5810 72.6  40 
 PAM  EN ES       1925 30.76                             153    0.1610 72.6  40 
 PAM  EZ I        1925 33.88       268.8 0.42            156           72.6  40 
 RUS  HZ IP     D 1925 14.47                             144   -0.3110  104 178 
 RUS  HN ES       1925 33.20                             144   -0.9410  104 178 
 RUS  HZ I        1925 34.65       478.5 0.30            145            104 178 
 PTB  HZ EP       1925 17.11                             133   -0.82 9  151 258 
 PTB  HN ES   4   1925 38.23                             133   -1.52 0  151 258 
 PTB  HZ I        1925 44.07       196.3 0.17            133            151 258 
 TAM  HZ IP     C 1925 18.98                             132    0.84 9  153 107 
 TAM  HN ES       1925 40.63                             132    0.51 9  153 107 
 TAM  HZ I        1925 42.85       149.0 0.50            135            153 107 
 SPBC HZ EP       1925 19.49                             129   -0.05 9  168 219 
 SPBC HN ES   4   1925 40.85                             129   -1.77 0  168 219 
 SPBC HZ I        1925 46.42       518.7 0.18            130            168 219 
 YPLC HZ IP     D 1925 20.99                             128    0.44 9  179 153 
 YPLC HN ES       1925 44.97                             128    0.56 9  179 153 
 YPLC HZ I        1925 45.94       350.0 0.26            130            179 153 
 ZAR  HZ EP       1925 23.09                             123    0.00 8  205 291 
 ZAR  HN ES       1925 48.92                             123   -0.01 8  205 291 
 ZAR  HZ I        1925 53.95       405.5 0.40            124            205 291 
 TABC EZ EP       1925 27.94                             120    1.23 8  235 211 
 TABC EZ ES       1925 56.12                             120    0.75 8  235 211 
 TABC EZ I        1925 59.62       359.4 0.70            121            235 211 
 NOR  HZ EP       1925 26.22                             119   -0.44 8  239 234 
 NOR  HE ES       1925 54.48                             119   -0.81 8  239 234 
 NOR  HZ I        1926  2.36       190.7 0.24            120            239 234 
 CHI  HZ EP       1925 28.30                             118   -0.30 8  253 196 
 CHI  HN ES       1925 58.13                             118   -0.61 8  253 196 
 CHI  HZ I        1926  4.24       169.2 0.32            119            253 196 
 ROSC BZ EP   9 D 1925 30.21                             117    1.16 0  258 211 
 ROSC BE ES       1926  0.91                             117    0.21 8  258 211 
 ROSC BZ I        1926  5.26       532.8 0.40            118            258 211 
 URE  HZ EP       1925 31.25                             115   -0.34 7  285 291 
 URE  HN ES       1926  2.03                             115   -2.03 7  285 291 
 GUY2CHZ EP       1925 34.72                             113    0.25 7  306 235 
 GUY2CHE ES       1926  9.32                             113    0.13 7  306 235 
 GUY2CHZ I        1926 16.78       151.6 0.34                           306 235 
 VIL  EZ EP       1925 33.73                             113   -0.51 7  308 192 
 VIL  EN ES       1926  8.30                             113   -0.49 7  308 192 
 VIL  EZ I        1926 18.27       275.5 0.38            114            308 192 
 PTGC HZ IP     D 1925 33.67                             112   -0.80 7  311 159 
 PTGC HN ES       1926  7.12                             112   -2.07 7  311 159 
 PTGC HZ I        1926 11.99        93.2 0.32            114            311 159 
 NIZA HZ EP       1925 40.74                             111    4.21 7  326 233 
 NIZA HN ES       1926 14.68                             111    1.83 7  326 233 
 LL5C HZ EP       1925 37.19                             111    0.71 7  329 348 
 LL5C HN ES       1926 13.23                             111    0.46 7  329 348 
 DBB  EZ EP       1925 38.80                             110    0.72 7  342 274 
 DBB  EN ES       1926 13.80                             110   -1.82 7  342 274 
 DBB  EZ I        1926 15.79        63.7 0.20            111            342 274 
 SDV  BZ EP       1925 40.02                             109    0.24 6  356  50 
 SDV  B2 ES       1926 17.74                             109   -0.91 6  356  50 
 SDV  BZ I        1926 19.49        37.8 0.40            111            356  50 
 ARGC HZ EP   9   1925 40.65                             109    1.01 0  357 340 
 ARGC HN ES       1926 19.33                             109   -0.08 6  357 340 
 ARGC HZ I        1926 27.30        49.4 0.44            110            357 340 
 CCALAHZ EP       1925 45.80                             108    3.35 6  379 227 
 CCALAHN ES       1926 27.33                             108    3.94 6  379 227 
 PRA  HZ EP       1925 43.72                             107   -0.60 6  397 210 
 PRA  HN ES       1926 25.78                             107   -0.95 6  397 210 
 ORTC HZ EP       1925 44.77                             107    0.04 6  400 216 
 ORTC HE ES       1926 28.23                             107    0.78 6  400 216 
 ORTC HZ I        1926 34.45       103.4 0.30            108            400 216 
 APAC HZ EP       1925 44.30                             107   -0.33 6  400 287 
 APAC HN ES   4   1926 25.66                             107   -1.61 0  400 287 
 APAC HZ I        1926 40.47        48.0 0.38            108            400 287 
 SJC  HZ EP       1925 44.67                             107   -0.95 6  408 326 
 SJC  HN ES   4   1926 25.86                             107   -3.17 0  408 326 
 SJC  HZ I        1926 40.71        58.1 0.25            108            408 326 
 PAL  HZ EP       1925 46.10                             107    0.18 6  410 239 
 PAL  HE ES       1926 28.05                             107   -1.52 6  410 239 
 PAL  HZ I        1926 41.08        36.7 0.32            107            410 239 
 LCBC HZ EP       1925 47.39                             106    0.15 5  422 302 
 LCBC HN ES       1926 31.54                             106   -0.39 5  422 302 
 LCBC HZ I        1926 35.28        55.2 0.40            107            422 302 
 CRJC HZ EP   9   1925 50.79                             104   -1.44 0  464   3 
 CRJC HE ES       1926 38.51                             104   -0.85 5  464   3 
 CRJC HZ I        1926 45.93        84.3 0.26            105            464   3 
 YOT  HZ EP       1925 53.10                             104   -0.69 5  477 229 
 YOT  HE ES       1926 45.30                             104    1.71 5  477 229 
 GUA  EZ EP       1925 53.26                             104   -0.49 5  477 173 
 GUA  EE ES       1926 42.76                             104   -0.75 5  477 173 
 GUA  EZ I        1926 48.06        62.8 0.28            105            477 173 
 SMAR HZ EP       1925 55.77                             103    0.07 4  494 346 
 SMAR HE ES   4   1926 44.03                             103   -2.95 0  494 346 
 CAP2 HZ EP   4   1925 55.00                             103   -2.48 0  509 293 
 CAP2 HE ES   4   1926 47.95                             103   -2.19 0  509 293 
 CAP2 HZ I        1926 50.26        21.5 0.24            104            509 293 
 MACC HZ EP       1925 57.56                             102   -1.82 4  525 189 
 MACC HN ES   4   1926 49.24                             102   -4.28 0  525 189 
 MACC HZ I        1926 54.83        97.9 0.88            103            525 189 
 MARO HZ EP       1926  2.55                             102    0.80 4  542 216 
 MARO HE ES       1926 58.42                             102    0.67 4  542 216 
 MARO HZ I        1927  2.38        18.9 0.43            103            542 216 
 URI  HZ EP       1926  1.11                             101   -1.52 4  552  13 
 URI  HE ES   4   1926 56.01                             101   -3.31 0  552  13 
 URI  HZ I        1927  3.54        17.8 0.38            102            552  13 
 JAMC HZ EP       1926  5.03                             101    1.00 3  562 225 
 JAMC HE ES       1927  1.50                             101   -0.31 3  562 225 
 GARC HZ EP       1926  4.66                             101   -1.30 3  577 207 
 GARC HE ES       1927  1.57                             101   -3.67 3  577 207 
 GARC HZ I        1927  7.12        45.7 0.46            102            577 207 
 CONO HZ EP       1926 11.47                             100    0.40 3  617 216 
 CONO HE ES       1927  9.70                             100   -4.65 3  617 216 
 CONO HZ I        1927 24.29        11.0 0.40            101            617 216 
 FLO2 HZ EP       1926 13.16                              99   -0.64 2  645 206 
 FLO2 HN ES       1927 18.28                              99   -0.92 2  645 206 
 FLO2 HZ I        1927 24.52         7.8 0.48            100            645 206 
 SOTO HZ EP       1926 15.77                              99    1.05 2  648 217 
 SOTO HN ES       1927 19.16                              99   -1.67 2  648 217 
 BBAC HZ EP       1926 21.43                              98    0.54 1  702 221 
 BBAC HE ES       1927 27.22                              98   -4.59 1  702 221 
                                                                                
