 2012  129 1034 10.6 L   6.452 -73.571 10.0  RSN  8 0.4 1.6LRSN                1
 GAP= 77        0.85       3.2     2.5  9.2  0.1735E+01  0.1126E+02  0.1005E+02E
 Epicentro: SANTA HELENA DEL OPON - SANTANDER                                  3
 ACTION:UP  12-02-03 08:21 OP:REBC STATUS:               ID:20120129103410 L   I
 2012-01-29-1030-00M.COL___188                                                 6
 STAT SP IPHASW D HRMM SECON CODA AMPLIT PERI AZIMU VELO SNR AR TRES W  DIS CAZ7
 BAR2 SZ IP       1034 18.72                             105     0.210   46  70 
 BAR2 SZ ES   1   1034 24.47                             105    -0.1 7   46  70 
 BAR2 SZ I        1034 25.41        30.2 0.14                            46  70 
 BRR  HZ EP       1034 22.42                              99    -0.110   74 348 
 BRR  HE ES   2   1034 31.51                              99    -0.2 5   74 348 
 BRR  HZ I        1034 33.16        27.5 0.38                            74 348 
 GIR2 SZ IP       1034 23.75                              98     0.110   81  31 
 RUS  HZ EP       1034 24.23                              98     0.010   82 139 
 RUS  HN ES   2   1034 34.39                              98    -0.4 5   82 139 
 RUS  HZ I        1034 35.37         9.2 0.14                            82 139 
 PTB  HZ EP       1034 26.40                              96     0.210   98 276 
 PTB  HN ES   1   1034 38.63                              96     0.3 7   98 276 
 PTB  HZ I        1034 38.96        60.5 0.16                            98 276 
 ZAR  HZ EP   3   1034 37.43                              56    -0.8 2  183 309 
 ZAR  HZ I        1035  3.22         6.9 0.24                           183 309 
 CHI  HZ EP   3   1034 42.55                              56     1.4 2  202 185 
 CHI  HN ES   3   1035  6.57                              56     1.6 2  202 185 
 CHI  HZ I        1035 11.42         3.2 0.60                           202 185 
 HEL  HZ IP     C 1034 42.44                              56    -0.7 8  219 263 
 HEL  HZ I        1035  8.00         6.2 0.20                           219 263 
                                                                                
