 2010 1129 1455 35.1 L   6.778 -73.068150.8  RSN  4 0.2 1.6LRSN                1
 GAP=236        0.40      10.5    28.0  8.8  0.2148E+03 -0.5401E+02 -0.4054E+02E
 Epicentro: LOS SANTOS - SANTANDER                                             3
 ACTION:UP  10-12-17 16:55 OP:REBC STATUS:               ID:20101129145535 L   I
 2010-11-29-1451-17S.COL___132                                                 6
 STAT SP IPHASW D HRMM SECON CODA AMPLIT PERI AZIMU VELO SNR AR TRES W  DIS CAZ7
 BAR2 SZ EP   1   1455 55.21                             170    -0.1 7   24 212 
 BAR2 SZ I        1456  2.24         7.9 0.79                            24 212 
 BAR2 SZ ES   2   1456 10.97                             170    -0.1 5   24 212 
 BTL  SZ EP   2   1455 55.72                             169     0.3 5   27 305 
 BRR  HZ EP   2   1455 57.24                             150     0.0 5   80 297 
 BRR  HZ I        1456 36.68        13.8 0.84                            80 297 
 RUS  HZ EP   2   1455 59.01                             145    -0.1 5   98 181 
 RUS  HZ I        1456  0.12         2.6 0.07                            98 181 
 RUS  HE ES   2   1456 18.06                             145     0.2 5   98 181 
                                                                                
