 2017 1029 1820 48.7 L   6.822 -73.119152.8  RSN  6 0.4 1.5LRSN                1
 GAP=139        0.99       5.0     5.0  7.6 -0.8233E+01  0.6737E+01  0.6578E+01E
 Epicentro: LOS SANTOS - SANTANDER                                             3
 ACTION:UPD 17-11-07 19:39 OP:rebc STATUS:               ID:20171029182048 L   I
 OLDACT:REG 17-10-29 20:27 OP:dani STATUS:               ID:20171029181737     3
 2017-10-29-1818-00M.COL___437                                                 6
 STAT SP IPHASW D HRMM SECON CODA AMPLIT PERI AZIMU VELO AIN AR TRES W  DIS CAZ7
 BRR  HZ EP       1821 11.11                             153    0.4310 72.7 296 
 BRR  HN ES       1821 28.19                             153    0.3610 72.7 296 
 BRR  HZ I        1821 31.29         5.8 0.44            154           72.7 296 
 PAM  EZ EP       1821 11.81                             153    0.3710 73.6  39 
 PAM  EE ES       1821 28.84                             153   -0.3510 73.6  39 
 PAM  EZ I        1821 30.87         5.6 0.54            155           73.6  39 
 RUS  HZ EP       1821 12.87                             145   -0.4310  103 178 
 RUS  HN ES       1821 32.53                             145    0.0410  103 178 
 RUS  HZ I        1821 33.74         3.4 0.30            147            103 178 
 PTB  HZ EP       1821 16.13                             133   -0.41 9  151 258 
 PTB  HE ES       1821 37.59                             133   -0.67 9  151 258 
 SPBC HN ES       1821 41.49                             130    0.47 9  167 219 
 GUY2CHZ EP       1821 33.21                             113    0.15 7  305 235 
 GUY2CHE ES       1822  7.77                             113    0.10 7  305 235 
 GUY2CHZ I        1822 17.21         1.3 0.32                           305 235 
                                                                                
