 2011  329 1145 55.4 L   6.770 -73.020142.4  RSN  4 0.3 1.8LRSN                1
 GAP=212        0.78       7.0     9.2  8.7 -0.3363E+02 -0.7765E+01  0.5849E+01E
 Epicentro: CEPITA - SANTANDER                                                 3
 ACTION:UP  11-06-16 14:36 OP:jfem STATUS:               ID:20110329114555 L   I
 2011-03-29-1144-03S.COL___138                                                 6
 STAT SP IPHASW D HRMM SECON CODA AMPLIT PERI AZIMU VELO SNR AR TRES W  DIS CAZ7
 BAR2 SZ IP       1146 15.15                             169     0.510   27 223 
 BAR2 SZ I        1146 15.50        17.8 0.10                            27 223 
 BAR2 SZ ES   1   1146 29.37                             169    -0.4 7   27 223 
 BRR  HZ EP   1   1146 17.00                             147     0.0 7   85 296 
 BRR  HZ I        1146 24.14        18.3 0.54                            85 296 
 BRR  HN ES   1   1146 34.16                             147     0.2 7   85 296 
 GRA  SZ EP   1   1146 19.92                             136    -0.4 7  126  11 
 GRA  SZ ES   1   1146 39.69                             136    -0.1 7  126  11 
 GRA  SZ I        1146 40.52         5.7 0.31                           126  11 
 NOR  SZ EP   2   1146 31.81                             117    -0.2 4  245 237 
 NOR  SN ES   2   1146 59.90                             117    -0.6 4  245 237 
                                                                                
