 2014 1029 1622  0.6 L   6.769 -73.130141.3  RSN  4 0.3 1.6LRSN                1
 GAP=140        0.85       5.0     5.0  8.9 -0.9450E+01  0.1103E+02 -0.6561E+01E
 Epicentro: LOS SANTOS - SANTANDER                                             3
 ACTION:UPD 14-11-29 23:58 OP:nd   STATUS:               ID:20141029162200 L   I
 OLDACT:REG 14-10-31 05:32 OP:mh   STATUS:               ID:20141029161752     3
 2014-10-29-1617-52M.COL___183                                                 6
 STAT SP IPHASW D HRMM SECON CODA AMPLIT PERI AZIMU VELO AIN AR TRES W  DIS CAZ7
 PAM  SZ EP       1622 22.54                             149    0.1510 79.0  37 
 PAM  SN ES   1   1622 39.52                             149    0.10 7 79.0  37 
 PAM  SZ I        1622 41.70         7.3 0.54            153           79.0  37 
 RUS  HZ EP       1622 23.61                             144   -0.0010 97.1 177 
 RUS  HN ES       1622 41.32                             144   -0.2810 97.1 177 
 RUS  HZ I        1622 43.32         4.5 0.42            146           97.1 177 
 PTB  HZ EP       1622 26.54                             131   -0.72 9  149 260 
 PTB  HN ES       1622 48.22                             131    0.13 9  149 260 
 PTB  HZ I        1622 49.91         6.4 0.16            133            149 260 
 SPBC HZ EP       1622 29.04                             128    0.47 9  162 220 
 SPBC HN ES       1622 50.65                             128    0.23 9  162 220 
 SPBC HZ I        1622 55.41         8.1 0.18            131            162 220 
                                                                                
