 2014 1029 1828 58.2 L   6.857 -73.185142.5  RSN  4 0.3 1.6LRSN                1
 GAP=226        0.67       5.0     5.9  7.6  0.1996E+02 -0.7675E+01 -0.1535E+02E
 Epicentro: ZAPATOCA - SANTANDER                                               3
 ACTION:UPD 14-11-29 23:58 OP:nd   STATUS:               ID:20141029182858 L   I
 OLDACT:UP  14-10-31 12:05 OP:mh   STATUS:               ID:20141029182747     3
 OLDACT:REG 14-10-31 05:33 OP:mh   STATUS:               ID:20141029182747     3
 2014-10-29-1827-47M.COL___283                                                 6
 STAT SP IPHASW D HRMM SECON CODA AMPLIT PERI AZIMU VELO AIN AR TRES W  DIS CAZ7
 RUS  HZ EP       1829 22.47                             141    0.3110  107 174 
 RUS  HN ES       1829 40.59                             141   -0.2410  107 174 
 RUS  HZ I        1829 42.03         4.0 0.24            140            107 174 
 PTB  HZ EP       1829 24.80                             132    0.13 9  145 256 
 PTB  HN ES       1829 45.46                             132    0.17 9  145 256 
 PTB  HZ I        1829 49.65         6.6 0.46            126            145 256 
 CHI  HZ EP       1829 36.56                             116    0.26 8  254 194 
 CHI  HN ES       1830  5.58                             116   -0.41 8  254 194 
 CHI  HZ I        1830 13.46         3.0 0.38            114            254 194 
 MON  HZ EP   1   1829 45.59                             108   -0.66 5  346 308 
 MON  HN ES       1830 23.50                             108   -0.21 7  346 308 
 MON  HZ I        1830 38.76         2.0 0.36            106            346 308 
                                                                                
