 2015  429 1643 56.7 L   6.842 -73.229133.2  RSN 12 0.4 2.0LRSN                1
 GAP=123        0.88       2.3     3.4  5.1 -0.1869E+01  0.6569E+01 -0.1370E+01E
 Epicentro: ZAPATOCA - SANTANDER                                               3
 ACTION:UPD 15-06-03 16:58 OP:cam  STATUS:               ID:20150429164356 L   I
 OLDACT:REG 15-04-29 21:03 OP:ak   STATUS:               ID:20150429163749     3
 2015-04-29-1637-49M.COL___277                                                 6
 STAT SP IPHASW D HRMM SECON CODA AMPLIT PERI AZIMU VELO AIN AR TRES W  DIS CAZ7
 BAR2 EZ IP     C 1644 14.69                             167   -0.2810 28.1 170 
 BAR2 EZ ES   1   1644 28.60                             167   -0.60 7 28.1 170 
 BAR2 EZ I        1644 30.47        22.5 0.14            171           28.1 170 
 BRR  HZ EP       1644 16.66                             154    0.7110 60.9 299 
 BRR  HN ES       1644 31.10                             154    0.1610 60.9 299 
 BRR  HZ I        1644 38.88        22.4 0.24            152           60.9 299 
 PAM  SZ IP     C 1644 17.69                             147   -0.1310 80.3  47 
 PAM  SN ES       1644 34.69                             147    0.4310 80.3  47 
 PAM  SZ I        1644 36.75        24.5 0.56            153           80.3  47 
 RUS  HZ EP   1   1644 19.08                             139   -0.63 7  106 171 
 RUS  HN ES       1644 37.69                             139    0.0610  106 171 
 RUS  HZ I        1644 38.60         8.4 0.32            146            106 171 
 PTB  HZ EP       1644 21.69                             131   -0.27 9  140 256 
 PTB  HN ES       1644 41.66                             131    0.02 9  140 256 
 PTB  HZ I        1644 45.66        12.1 0.23            133            140 256 
 OCA  HZ EP   1   1644 23.68                             128    0.11 7  155 356 
 OCA  HN ES       1644 44.55                             128    0.05 9  155 356 
 OCA  HZ I        1644 48.09        34.8 0.36            131            155 356 
 SPBC HZ EP       1644 24.54                             126    0.42 9  161 215 
 SPBC HN ES       1644 44.94                             126   -0.54 9  161 215 
 SPBC HZ I        1644 47.62         9.3 0.22            130            161 215 
 ZAR  HZ EP   1   1644 27.82                             121    0.50 6  194 292 
 ZAR  HN ES   2   1644 51.49                             121    0.32 4  194 292 
 ZAR  HZ I        1644 59.51         8.1 0.21            123            194 292 
 NOR  HZ EP       1644 31.59                             116    0.32 8  230 232 
 NOR  HN ES       1644 58.44                             116    0.24 8  230 232 
 NOR  HZ I        1645  2.88         5.1 0.24            120            230 232 
 SML  HZ EP       1644 31.46                             116   -0.35 8  236 337 
 SML  HN ES       1644 58.59                             116   -0.58 8  236 337 
 GUY2CHZ EP   2   1644 39.37                             110    0.11 4  297 233 
 GUY2CHN ES       1645 12.61                             110    0.19 7  297 233 
 GUY2CHZ I        1645 20.03         4.2 0.24                           297 233 
 MON  HZ EP   2   1644 44.64                             107    0.54 3  344 309 
 MON  HN ES       1645 20.50                             107   -0.55 7  344 309 
                                                                                
