 2010  729 1954 10.3 L   6.778 -73.107144.7  RSN  6 0.3 1.3LRSN                1
 GAP=163        0.61       4.0     9.0  6.9 -0.1086E+02 -0.5817E+01  0.2032E+01E
 Epicentro: LOS SANTOS - SANTANDER                                             3
 ACTION:UPD 10-12-01 15:21 OP:pat  STATUS:               ID:20100729195410 L   I
 2010-07-29-1950-18S.COL___123                                                 6
 STAT SP IPHASW D HRMM SECON CODA AMPLIT PERI AZIMU VELO AIN AR TRES W  DIS CAZ7
 BAR2 SZ EP   1   1954 29.73                             171     0.0 7   22 202 
 BAR2 SZ ES   2   1954 44.51                             171    -0.4 5   22 202 
 BAR2 SZ I        1954 45.78         8.6 0.38                            22 202 
 BRR  HZ EP   1   1954 31.65                             151     0.0 7   76 299 
 BRR  HE ES   2   1954 48.38                             151     0.1 5   76 299 
 RUS  HZ EP   1   1954 34.14                             144     0.4 7   98 178 
 RUS  HZ I        1954 34.44         2.8 0.35                            98 178 
 RUS  HN ES   2   1954 51.93                             144    -0.1 5   98 178 
 GUE  SZ EP   1   1954 34.59                             139    -0.4 7  118  10 
 GUE  SZ ES   2   1954 54.18                             139    -0.1 5  118  10 
 GUE  SZ I        1954 54.55         1.4 0.16                           118  10 
 GRA  SZ EP   1   1954 35.48                             136     0.0 7  127  15 
 GRA  SZ ES   2   1954 55.91                             136     0.7 5  127  15 
 GRA  SZ I        1954 57.16         3.9 0.32                           127  15 
 PRA  HZ EP   1   1955  3.81                             106     0.0 4  392 210 
                                                                                
