 2012  829 1858 29.9 L   6.887 -73.179144.7  RSN  9 0.4 2.7LRSN                1
 GAP=128        0.76       3.6     3.7  5.2 -0.6307E+00  0.4989E+01  0.4557E+01E
 Epicentro: BETULIA - SANTANDER                                                3
 ACTION:UPD 12-09-10 11:59 OP:ep   STATUS:               ID:20120829185829 L   I
 2012-08-29-1850-00M.COL___218                                                 6
 STAT SP IPHASW D HRMM SECON CODA AMPLIT PERI AZIMU VELO AIN AR TRES W  DIS CAZ7
 GIR2 SZ EP       1858 49.20                             171   -0.0310 21.3 356 
 GIR2 SZ ES   1   1859  3.53                             171   -0.76 7 21.3 356 
 BAR2 SZ EP       1858 49.78                             167    0.1410 32.6 181 
 BAR2 SZ ES   1   1859  4.85                             167   -0.17 7 32.6 181 
 BAR2 SZ I        1859  6.73       130.0 0.31                          32.6 181 
 BRR  HZ EP       1858 50.86                             155    0.3210 63.8 293 
 BRR  HN ES   1   1859  7.43                             155    0.80 7 63.8 293 
 BRR  HZ I        1859  9.15       200.9 0.10                          63.8 293 
 PAM  SZ EP       1858 51.76                             152    0.0110 72.9  47 
 PAM  SN ES   1   1859  8.82                             152    0.04 7 72.9  47 
 PAM  SZ I        1859  9.95        88.4 0.28                          72.9  47 
 RUS  HZ EP       1858 54.39                             141    0.0910  110 175 
 RUS  HN ES   1   1859 13.43                             141    0.12 7  110 175 
 RUS  HZ I        1859 15.66        30.0 0.32                           110 175 
 PTB  HZ EP       1858 56.21                             132   -0.46 9  146 255 
 PTB  HN ES   1   1859 17.21                             132   -0.33 7  146 255 
 ZAR  HZ EP   1   1859  0.93                             123   -0.65 6  197 290 
 ZAR  HN ES   1   1859 26.58                             123    0.29 6  197 290 
 ZAR  HZ I        1859 32.36        79.4 0.24                           197 290 
 NOR  SZ EP       1859  6.19                             118    0.31 8  238 232 
 NOR  SN ES   1   1859 33.90                             118   -0.04 6  238 232 
 NOR  SZ I        1859 39.65        31.2 0.25                           238 232 
 CHI  HZ EP   1   1859  8.44                             116   -0.03 6  257 194 
 CHI  HN ES   1   1859 38.49                             116   -0.05 6  257 194 
 CHI  HZ I        1859 43.22        18.7 0.34                           257 194 
                                                                                
