 2011 1129 1058  0.8 L   6.789 -73.087133.4  RSN  4 0.2 1.7LRSN                1
 GAP=145        0.48       3.3     4.5  5.1  0.3253E+01 -0.7137E+01 -0.2331E+01E
 Epicentro: LOS SANTOS - SANTANDER                                             3
 ACTION:UPD 12-07-13 16:13 OP:ep   STATUS:               ID:20111129105800 L   I
 2011-11-29-1054-48S.COL___159                                                 6
 STAT SP IPHASW D HRMM SECON CODA AMPLIT PERI AZIMU VELO AIN AR TRES W  DIS CAZ7
 BAR2 SZ EP   1   1058 18.82                             169   -0.11 7 24.2 206 
 BAR2 SZ ES   1   1058 32.82                             169   -0.28 7 24.2 206 
 BAR2 SZ I        1058 35.85        11.5 0.09                          24.2 206 
 PAM  SZ EP       1058 21.68                             149    0.1910 74.4  35 
 PAM  SE ES   2   1058 37.54                             149   -0.12 5 74.4  35 
 BRR  HZ EP       1058 20.75                             148   -0.2310 77.5 297 
 BRR  HN ES       1058 36.93                             148    0.1810 77.5 297 
 BRR  HN I        1058 38.17        32.2 0.20                          77.5 297 
 RUS  HZ EP   1   1058 23.19                             142   -0.02 7 99.2 180 
 RUS  HN ES   1   1058 40.93                             142    0.21 7 99.2 180 
 RUS  HZ I        1058 42.97         3.7 0.30                          99.2 180 
                                                                                
