 2012  329 1633 43.3 L   6.723 -73.200152.0  RSN  6 0.4 1.9LRSN                1
 GAP=225        0.76       7.0     7.9  8.5  0.2737E+02  0.7090E+01  0.1233E+02E
 ACTION:UP  12-03-31 23:24 OP:EP   STATUS:               ID:20120329163343 L   I
 2012-03-29-1630-00M.COL___196                                                 6
 STAT SP IPHASW D HRMM SECON CODA AMPLIT PERI AZIMU VELO SNR AR TRES W  DIS CAZ7
 BAR2 SZ ES   2   1634 18.62                             174    -0.7 5   15 172 
 BRR  HZ EP   1   1634  5.03                             154    -0.1 7   71 307 
 BRR  HZ I        1634  5.26        17.0 0.15                            71 307 
 BRR  HE ES   1   1634 22.73                             154     0.6 7   71 307 
 RUS  HZ EP   1   1634  7.35                             147     0.2 7   93 172 
 RUS  HN ES   2   1634 25.46                             147    -0.3 5   93 172 
 RUS  HZ I        1634 26.58         8.8 0.32                            93 172 
 PTB  HZ EP   1   1634  9.78                             135    -0.4 7  140 262 
 PTB  HN ES   1   1634 31.08                             135     0.0 7  140 262 
 PTB  HZ I        1634 32.81         6.9 0.19                           140 262 
 ZAR  HZ EP   2   1634 15.50                             124    -0.5 4  202 295 
 ZAR  HE ES   2   1634 41.19                             124    -0.2 4  202 295 
 ZAR  HZ I        1634 46.90        13.1 0.11                           202 295 
 CHI  HZ EP   2   1634 20.94                             120     0.6 4  239 194 
 CHI  HN ES   2   1634 49.47                             120     0.3 4  239 194 
 CHI  HZ I        1634 56.40         5.1 0.38                           239 194 
                                                                                
