 2017 1029 1645 48.6 L   6.787 -73.153143.2  RSN  9 0.6 1.6LRSN                1
 GAP=112        1.48       5.7     4.9  8.8  0.5458E+01  0.6777E+01  0.8070E+01E
 Epicentro: LOS SANTOS - SANTANDER                                             3
 ACTION:UPD 17-11-07 19:38 OP:rebc STATUS:               ID:20171029164548 L   I
 OLDACT:UP  17-10-30 00:12 OP:dani STATUS:               ID:20171029163741     3
 OLDACT:REG 17-10-29 20:20 OP:dani STATUS:               ID:20171029163741     3
 2017-10-29-1638-00M.COL___438                                                 6
 STAT SP IPHASW D HRMM SECON CODA AMPLIT PERI AZIMU VELO AIN AR TRES W  DIS CAZ7
 BAR2 EZ EP       1646  7.93                             171    0.0510 21.8 189 
 BAR2 EZ ES       1646 22.77                             171   -0.1510 21.8 189 
 BAR2 EZ I        1646 25.73        10.9 0.28            172           21.8 189 
 BRR  HZ EP       1646  9.73                             152    0.2710 71.2 300 
 BRR  HE ES       1646 26.46                             152    0.7210 71.2 300 
 BRR  HZ I        1646 30.07        11.0 0.22            153           71.2 300 
 PAM  EZ EP       1646 10.91                             150    0.2810 79.0  39 
 PAM  EN ES       1646 27.69                             150   -0.1410 79.0  39 
 PAM  EZ I        1646 28.66         4.4 0.20            152           79.0  39 
 RUS  HZ EP       1646 11.93                             144   -0.0610 99.2 176 
 RUS  HN ES       1646 30.73                             144    0.4910 99.2 176 
 RUS  HZ I        1646 32.64         2.9 0.28            146           99.2 176 
 PTB  HZ EP       1646 14.53                             132   -0.72 9  147 259 
 PTB  HN ES       1646 35.04                             132   -1.00 9  147 259 
 PTB  HN ISg      1646 35.17                             132   -0.87 9  147 259 
 PTB  HZ I        1646 36.76         3.9 0.30            133            147 259 
 SPBC HZ EP       1646 16.98                             129    0.25 9  162 219 
 YPLC HZ EP       1646 18.36                             126    0.25 9  176 151 
 YPLC HN ES       1646 40.39                             126   -0.75 9  176 151 
 YPLC HZ I        1646 43.45         5.2 0.30            129            176 151 
 ZAR  HZ EP       1646 20.59                             122   -0.26 9  204 293 
 ZAR  HN ES       1646 46.27                             122    0.26 9  204 293 
 ZAR  HZ I        1646 52.10         4.1 0.19            124            204 293 
 NOR  HE ES       1646 53.13                             118    1.50 8  233 235 
                                                                                
