 2010 1029 1453 46.8 L   6.787 -73.105142.8  RSN  9 0.3 2.4LRSN                1
 GAP=160        0.58       3.2     4.8  4.5 -0.4997E+01  0.1485E+01  0.7535E+00E
 Epicentro: LOS SANTOS - SANTANDER                                             3
 ACTION:UP  11-02-18 11:13 OP:tino STATUS:               ID:20101029145346 L   I
 2010-10-29-1450-08S.COL___128                                                 6
 STAT SP IPHASW D HRMM SECON CODA AMPLIT PERI AZIMU VELO SNR AR TRES W  DIS CAZ7
 BAR2 SZ IP       1454  6.10                             170     0.010   23 202 
 BAR2 SZ ES   1   1454 21.21                             170     0.1 7   23 202 
 BAR2 SZ I        1454 22.37        42.7 0.25                            23 202 
 GIR2 SZ EP   1   1454  6.11                             166    -0.1 7   34 343 
 GIR2 SZ ES   2   1454 21.15                             166    -0.2 5   34 343 
 BRR  HZ IP     C 1454  7.90                             150     0.010   76 298 
 BRR  HZ I        1454  9.74        56.6 0.13                            76 298 
 BRR  HN ES   1   1454 24.60                             150     0.2 7   76 298 
 RUS  HZ IP     D 1454 10.12                             144     0.010   99 179 
 RUS  HE ES   2   1454 28.51                             144     0.1 5   99 179 
 RUS  HZ I        1454 30.49        31.5 0.28                            99 179 
 BRI  SZ EP   2   1454 10.74                             141     0.3 5  108  18 
 GRA  SZ IP       1454 11.93                             136     0.110  126  15 
 GRA  SZ ES   1   1454 31.00                             136    -0.3 7  126  15 
 GRA  SZ I        1454 32.38        26.8 0.41                           126  15 
 OCA  SZ EP   2   1454 14.78                             128    -0.3 5  162 352 
 OCA  SZ I        1454 39.46        37.7 0.47                           162 352 
 NOR  SZ EP   1   1454 22.44                             117    -0.3 6  238 235 
 NOR  SN ES   2   1454 49.80                             117    -0.9 4  238 235 
 HEL  HZ EP   1   1454 27.98                             114     0.6 6  276 256 
 HEL  HZ I        1455  4.72        19.1 0.32                           276 256 
                                                                                
