 2017 1129 1730 28.0 L   6.831 -73.287126.7  RSN  5 0.1 1.3LRSN                1
 GAP=116        0.39       1.9     1.6  3.3  0.5820E-01  0.1747E+01 -0.1252E+01E
 Epicentro: ZAPATOCA - SANTANDER                                               3
 ACTION:UPD 17-12-12 20:01 OP:rebc STATUS:               ID:20171129173029dL   I
 OLDACT:UP  17-11-29 23:28 OP:mg   STATUS:               ID:20171129172300     3
 OLDACT:UP  17-11-29 23:27 OP:mg   STATUS:               ID:20171129172300     3
 OLDACT:REG 17-11-29 21:35 OP:dani STATUS:               ID:20171129172300     3
 2017-11-29-1728-00M.COL___498                                                 6
 STAT SP IPHASW D HRMM SECON CODA AMPLIT PERI AZIMU VELO AIN AR TRES W  DIS CAZ7
 BAR2 EZ EP       1730 45.54                             166    0.0210 28.8 156 
 BAR2 EZ ES       1730 58.93                             166   -0.2210 28.8 156 
 PAM  EZ EP       1730 48.71                             144   -0.1410 85.9  49 
 PAM  EN ES       1731  5.26                             144    0.1810 85.9  49 
 PAM  EZ I        1731  7.08         3.0 0.11            146           85.9  49 
 RUS  HZ EP       1730 50.40                             138   -0.0110  106 168 
 RUS  HN ES       1731  7.98                             138    0.1110  106 168 
 RUS  HZ I        1731  9.96         2.3 0.20            140            106 168 
 PTB  HN ES       1731 11.01                             130    0.0810  133 256 
 PTB  HZ I        1731 12.99         3.3 0.20            132            133 256 
 ZAR  HZ EP       1730 57.62                             120   -0.01 9  188 293 
 ZAR  HN ES       1731 20.70                             120   -0.01 9  188 293 
 ZAR  HZ I        1731 22.49         3.8 0.34            122            188 293 
                                                                                
