 2012 1129 1622 32.3 L   6.771 -73.213139.8  RSN  5 0.1 1.6LRSN                1
 GAP=167        0.36       3.1     2.9  4.8  0.2016E+01  0.1549E+01 -0.4237E+01E
 Epicentro: ZAPATOCA - SANTANDER                                               3
 ACTION:UPD 12-12-05 15:37 OP:}ep  STATUS:               ID:20121129162232 L   I
 2012-11-29-1620-00M.COL___236                                                 6
 STAT SP IPHASW D HRMM SECON CODA AMPLIT PERI AZIMU VELO AIN AR TRES W  DIS CAZ7
 BAR2 SZ EP       1622 51.31                             172    0.1510 20.0 170 
 BAR2 SZ I        1622 51.83        15.5 0.13                          20.0 170 
 GIR2 SZ EP       1622 51.34                             165   -0.0210 34.2   4 
 RUS  HZ EP       1622 55.12                             143   -0.1810 98.1 172 
 RUS  HN ES       1623 13.23                             143    0.0010 98.1 172 
 RUS  HN I        1623 14.82         9.4 0.42                          98.1 172 
 PTB  HZ EP       1622 58.06                             132   -0.01 9  140 260 
 PTB  HN ES   1   1623 18.15                             132   -0.01 7  140 260 
 PTB  HZ I        1623 21.13         4.3 0.18                           140 260 
 CHI  HZ EP   1   1623  9.27                             116    0.14 6  244 194 
 CHI  HZ I        1623 41.42         2.1 0.54                           244 194 
                                                                                
