 2010  129 1205 13.3 L   6.846 -73.105140.6  RSN  9 0.7 2.4LRSN                1
 GAP=199        1.16       7.2    14.9 10.3  0.3984E+02  0.9142E+02  0.1237E+02E
 Epicentro: LOS SANTOS - SANTANDER                                             3
 ACTION:UP  10-08-24 09:46 OP:vdl  STATUS:               ID:20100129120513 L   I
 2010-01-29-1201-08S.COL___093                                                 6
 STAT SP IPHASW D HRMM SECON CODA AMPLIT PERI AZIMU VELO SNR AR TRES W  DIS CAZ7
 GIR2 SZ IP       12 5 32.00                             168    -0.310   27 339 
 GIR2 SZ ES   2   12 5 47.26                             168     0.2 5   27 339 
 BAR2 SZ IP       12 5 32.87                             168     0.410   29 197 
 BAR2 SZ ES       12 5 47.50                             168     0.110   29 197 
 RUS  BZ EP   1   12 5 36.90                             141     0.0 7  106 179 
 RUS  BE ES   1   12 5 55.33                             141     0.0 7  106 179 
 RUS  BZ I        12 5 56.24        33.4 0.33                           106 179 
 CHI  HZ EP   1   12 5 51.48                             115     0.1 6  255 196 
 CHI  HE ES   1   12 6 19.83                             115    -1.3 6  255 196 
 CHI  HZ I        12 6 23.73         9.1 0.38                           255 196 
 HEL  HZ EP   1   12 5 55.21                             113     1.3 6  278 255 
 HEL  HZ I        12 6 32.05        18.9 0.45                           278 255 
 RREF BZ EP   2   12 6  1.41                             109     1.4 3  328 229 
 RREF BZ I        12 6 41.32        12.3 0.75                           328 229 
 DBB  SZ EP   2   12 6  1.39                             108     0.3 3  344 273 
 MON  HZ EP   1   12 6  0.96                             108    -1.2 5  353 307 
 MON  HE ES   1   12 6 39.60                             108    -0.6 5  353 307 
 PRA  HZ EP   2   12 6  7.36                             105    -0.1 3  399 210 
                                                                                
