 2013  429 1830 36.0 L   6.786 -73.181146.0  RSN  4 0.4 1.7LRSN                1
 GAP=142        0.72       5.8     5.2  9.6 -0.9105E+01  0.2033E+02 -0.1670E+02E
 Epicentro: LOS SANTOS - SANTANDER                                             3
 ACTION:UPD 13-05-22 14:41 OP:EP   STATUS:               ID:20130429183036 L   I
 2013-04-29-1830-00M.COL___248                                                 6
 STAT SP IPHASW D HRMM SECON CODA AMPLIT PERI AZIMU VELO AIN AR TRES W  DIS CAZ7
 PAM  SZ EP   1   1830 58.73                             150    0.25 7 81.1  41 
 PAM  SN ES   2   1831 15.76                             150   -0.24 5 81.1  41 
 PAM  SN I        1831 16.98         6.2 0.48            154           81.1  41 
 RUS  HZ EP   1   1830 59.09                             144   -0.62 7 99.4 174 
 RUS  HN ES       1831 18.38                             144    0.1910 99.4 174 
 RUS  HN I        1831 19.98         8.1 0.40            145           99.4 174 
 PTB  HZ EP   1   1831  2.44                             133   -0.20 7  144 259 
 PTB  HN ES   1   1831 23.48                             133    0.08 7  144 259 
 PTB  HN I        1831 25.22         5.6 0.18            133            144 259 
 NOR  HZ EP   1   1831 12.03                             119    0.70 6  231 234 
 NOR  HN ES   1   1831 38.53                             119   -0.34 6  231 234 
 NOR  HN I        1831 45.99         6.9 0.18            120            231 234 
                                                                                
