 2012 1129 1524 26.4 L   5.734 -73.914104.2  RSN 17 0.5 3.1LRSN                1
 GAP= 91        1.18       2.5     2.9  7.1 -0.1621E+01  0.3054E+01 -0.2312E+01E
 Epicentro: ALBANIA - SANTANDER                                                3
 ACTION:UPD 12-12-05 15:37 OP:}ep  STATUS:               ID:20121129152426 L   I
 2012-11-29-1520-00M.COL___234                                                 6
 STAT SP IPHASW D HRMM SECON CODA AMPLIT PERI AZIMU VELO AIN AR TRES W  DIS CAZ7
 RUS  HZ IP     C 1524 45.92                             134    0.1310 93.6  79 
 RUS  HN ES       1525  0.66                             134   -0.2110 93.6  79 
 RUS  HZ I        1525  9.30        84.5 0.41                          93.6  79 
 PTB  HZ IP     C 1524 45.72                             130   -0.6510  107 326 
 PTB  HN ES   1   1525  1.21                             130   -0.71 7  107 326 
 PTB  HZ I        1525  5.33       266.9 0.19                           107 326 
 NOR  HZ EP     C 1524 46.42                             130   -0.0210  108 260 
 NOR  HN ES       1525  2.08                             130    0.0510  108 260 
 NOR  HZ I        1525  3.97       456.5 0.20                           108 260 
 ROSC BZ EP   9   1524 48.09                             130    1.09 0  109 205 
 ROSC BN ES       1525  3.59                                   -0.5310  109 205 
 ROSC BZ I        1525  9.52       252.3 0.53                           109 205 
 CHI  HZ EP     D 1524 48.38                             126   -0.1010  124 171 
 CHI  HE ES       1525  4.98                             126   -0.6910  124 171 
 CHI  HZ I        1525  9.84       115.0 0.22                           124 171 
 BAR2 SZ IP       1524 48.73                             125    0.3910  125  40 
 BAR2 SZ ES       1525  5.79                             125    0.3810  125  40 
 BAR2 SZ I        1525  8.23       637.0 0.25                           125  40 
 GIR2 SZ EP       1524 53.11                             116    0.30 9  169  28 
 VIL  SZ EP       1524 54.16                             114    0.00 9  181 172 
 VIL  SZ I        1524 55.69       167.9 0.24                           181 172 
 VIL  SN ES       1525 16.15                             114    0.38 9  181 172 
 RREF HZ EP     C 1524 55.62                             114    0.53 9  184 240 
 RREF HN ES   1   1525 19.01                             114    1.58 7  184 240 
 RREF HZ I        1525 21.71       270.3 0.24                           184 240 
 HEL  HZ EP       1524 55.13                             114    0.14 9  186 286 
 HEL  HE ES       1525 17.38                             114    0.13 9  186 286 
 HEL  HZ I        1525 19.67        83.1 0.25                           186 286 
 TOL  SZ EP       1524 56.99                             111    0.32 9  201 231 
 ANIL HZ EP   1   1524 58.96                             110    0.79 6  215 230 
 ZAR  HZ EP       1524 57.77                             109   -0.71 8  221 332 
 ZAR  HN ES   1   1525 23.71                             109    0.25 6  221 332 
 ZAR  HZ I        1525 24.97       223.5 0.29                           221 332 
 PAM  SZ EP       1524 59.23                             109   -0.07 8  223  37 
 PAM  SE ES   1   1525 24.99                             109    0.06 6  223  37 
 PAM  SZ I        1525 27.15        73.4 0.16                           223  37 
 PRA  HZ EP     D 1525  1.00                             106   -0.70 8  248 206 
 PRA  HN ES   1   1525 28.54                             106   -0.66 6  248 206 
 PRA  HZ I        1525 34.79        94.8 0.30                           248 206 
 OCA  HZ EP       1525  6.11                             103   -0.03 7  285  13 
 OCA  HN ES       1525 37.60                             103    0.50 7  285  13 
 OCA  HZ I        1525 45.88       109.1 0.42                           285  13 
 URE  HZ EP   1   1525  4.52                             103   -1.61 6  286 321 
 MON  HZ EP   4   1525 16.29                              97   -2.07 0  388 330 
                                                                                
