 2010  429 1710 27.3 L   6.733 -73.032142.9  RSN  8 0.3 2.1LRSN                1
 GAP=185        0.62       5.7     7.9  7.0 -0.3033E+02 -0.2360E+02  0.1833E+02E
 Epicentro: ARATOCA - SANTANDER                                                3
 ACTION:UPD 10-08-24 10:01 OP:vdl  STATUS:               ID:20100429171027 L   I
 2010-04-29-1707-45S.COL___104                                                 6
 STAT SP IPHASW D HRMM SECON CODA AMPLIT PERI AZIMU VELO SNR AR TRES W  DIS CAZ7
 BAR2 SZ EP   2   1710 46.51                             171    -0.1 5   23 227 
 BAR2 SZ ES   2   1711  1.43                             171    -0.2 5   23 227 
 BRR  HZ IP     C 1710 49.07                             149     0.010   86 299 
 BRR  HZ I        1710 51.54        27.3 0.12                            86 299 
 BRR  HE ES   1   1711  6.10                             149     0.1 7   86 299 
 BRI  SZ EP   1   1710 51.07                             141    -0.1 7  112  13 
 GUE  SZ IP       1710 52.65                             139     0.510  122   6 
 GUE  SZ ES   2   1711 11.97                             139     0.4 5  122   6 
 GRA  SZ IP       1710 52.38                             136    -0.310  130  11 
 GRA  SZ ES   1   1711 12.05                             136    -0.3 7  130  11 
 CHI  HZ EP   2   1711  4.69                             117     0.2 4  245 198 
 CHI  HZ I        1711 39.47         4.2 0.39                           245 198 
 HEL  HZ EP   2   1711  7.89                             114    -0.7 4  283 258 
 HEL  HZ I        1711 42.25         5.1 0.43                           283 258 
 PRA  HZ EP   2   1711 20.39                             106    -0.3 3  392 212 
 PRA  HN ES   2   1712  2.91                             106     0.5 3  392 212 
 PRA  HZ I        1712  8.00         6.1 0.42                           392 212 
                                                                                
