 2010  829 1530 34.2 L   6.819 -73.066138.1  RSN 13 0.6 2.4LRSN                1
 GAP=167        1.18       4.4     8.3  7.8 -0.1310E+02  0.8681E+01 -0.2329E+01E
 Epicentro: LOS SANTOS - SANTANDER                                             3
 ACTION:UP  10-09-07 10:59 OP:vdl  STATUS:               ID:20100829153034 L   I
 2010-08-29-1527-14S.COL___120                                                 6
 STAT SP IPHASW D HRMM SECON CODA AMPLIT PERI AZIMU VELO SNR AR TRES W  DIS CAZ7
 BTL  SZ ES   1   1531  6.52                             169    -1.0 7   25 296 
 BAR2 SZ EP       1530 53.01                             168     0.010   28 207 
 BAR2 SZ ES   1   1531  7.80                             168     0.1 7   28 207 
 BAR2 SZ I        1531 10.88        67.2 0.35                            28 207 
 GIR2 SZ EP   1   1530 53.10                             166     0.1 7   32 334 
 BRR  HZ EP       1530 54.86                             149    -0.110   78 294 
 BRR  HN ES   1   1531 11.23                             149     0.1 7   78 294 
 BRR  HZ I        1531 14.29        39.0 0.19                            78 294 
 RUS  HZ EP   1   1530 56.86                             141    -0.5 7  102 181 
 RUS  HN ES       1531 15.66                             141     0.310  102 181 
 RUS  HZ I        1531 17.00        30.1 0.10                           102 181 
 GUE  SZ EP       1530 57.40                             138    -0.510  113   8 
 GRA  SZ EP       1530 58.79                             136     0.410  121  14 
 GRA  SZ ES   2   1531 18.41                             136     1.2 5  121  14 
 GRA  SZ I        1531 19.76        27.0 0.28                           121  14 
 OCA  SZ EP   1   1531  1.81                             128     0.0 7  159 350 
 OCA  SZ ES   1   1531 23.49                             128     0.1 7  159 350 
 OCA  SZ I        1531 30.56        22.7 0.93                           159 350 
 CHI  HN ES   2   1531 40.78                             115    -0.6 4  253 197 
 CHI  HZ I        1531 42.73        15.4 0.38                           253 197 
 ROSC BE ES   2   1531 43.08                             114     0.5 4  259 212 
 ROSC BZ I        1531 47.77        22.3 0.06                           259 212 
 HEL  HE ES   2   1531 45.94                                    -1.0 4  281 256 
 HEL  HZ I        1531 51.93        12.8 0.59                           281 256 
 RREF HZ EP   1   1531 21.74                             109     0.8 5  330 230 
 RREF HN ES       1531 58.17                             109     0.8 7  330 230 
 RREF HZ I        1532  0.29        13.4 0.07                           330 230 
 PRA  HZ EP   1   1531 26.99                             105    -1.2 4  398 211 
 PRA  HE ES   2   1532  9.62                                    -0.7 3  398 211 
 PRA  HZ I        1532 15.50        18.2 0.47                           398 211 
                                                                                
