 2015  629 1322 51.7 L   6.313 -73.582114.8  RSN  5 0.2 1.6LRSN                1
 GAP=185        0.56       3.0     3.0  5.9 -0.2337E+01  0.1008E+02  0.9158E+00E
 Epicentro: SANTA HELENA DEL OPON - SANTANDER                                  3
 ACTION:UPD 15-09-10 22:15 OP:cam  STATUS:               ID:20150629132252 L   I
 OLDACT:UP  15-07-03 20:29 OP:cam  STATUS:               ID:20150629132252 L   3
 OLDACT:UP  15-07-01 05:42 OP:DRIO STATUS:               ID:20150629132252 L   3
 OLDACT:UP  15-06-29 21:49 OP:mh   STATUS:               ID:20150629131751     3
 OLDACT:REG 15-06-29 15:39 OP:mh   STATUS:               ID:20150629131751     3
 2015-06-29-1317-51M.COL___319                                                 6
 STAT SP IPHASW D HRMM SECON CODA AMPLIT PERI AZIMU VELO AIN AR TRES W  DIS CAZ7
 BAR2 EZ EP       1323  9.12                             153    0.2110 53.9  55 
 BAR2 EZ ES       1323 22.35                             153    0.0510 53.9  55 
 BAR2 EZ I        1323 23.57        17.8 0.07            159           53.9  55 
 BRR  HZ EP       1323 10.77                             139   -0.1910 89.0 351 
 BRR  HE ES   1   1323 25.81                             139   -0.13 7 89.0 351 
 BRR  HZ I        1323 30.19         7.7 0.40            140           89.0 351 
 NOR  HZ EP       1323 18.39                             121    0.19 9  165 240 
 NOR  HN ES       1323 38.52                             121   -0.31 9  165 240 
 NOR  HZ I        1323 40.29         6.4 0.24            124            165 240 
 ZAR  HZ EP       1323 20.81                             116   -0.25 9  192 313 
 ZAR  HN ES       1323 44.09                             116    0.17 9  192 313 
 ZAR  HZ I        1323 48.64         5.4 0.28            118            192 313 
 HEL  HN ES   1   1323 49.84                             113    0.41 6  216 267 
 HEL  HZ I        1323 56.04         2.3 0.53            116            216 267 
                                                                                
