 2013  529 1938 19.1 L   6.765 -73.133151.1  RSN  6 0.4 1.8LRSN                1
 GAP=140        0.98       5.4     5.6  7.2 -0.5151E+00  0.1049E+02  0.7160E+01E
 Epicentro: LOS SANTOS - SANTANDER                                             3
 ACTION:UPD 13-06-20 09:54 OP:ep   STATUS:               ID:20130529193819 L   I
 2013-05-29-1928-51M.COL___216                                                 6
 STAT SP IPHASW D HRMM SECON CODA AMPLIT PERI AZIMU VELO AIN AR TRES W  DIS CAZ7
 BAR2 SZ ES       1938 55.08                             172   -0.0310 19.9 196 
 GIR2 SZ EP       1938 39.87                             166    0.3210 35.3 349 
 GIR2 SZ ES       1938 55.52                             166    0.0410 35.3 349 
 BRR  HZ EP       1938 41.30                             152    0.2610 74.3 301 
 BRR  HN ES       1938 58.71                             152    0.5910 74.3 301 
 PAM  SN ES       1938 59.30                             151   -0.6210 79.5  37 
 RUS  HZ EP       1938 43.36                             146    0.2210 96.6 177 
 RUS  HN ES       1939  1.89                             146    0.0210 96.6 177 
 RUS  HE I        1939  3.38         5.1 0.68            145           96.6 177 
 PTB  HZ EP       1938 46.16                             133   -0.45 9  148 260 
 PTB  HN ES       1939  7.54                             133   -0.49 9  148 260 
 PTB  HE I        1939 13.26        13.0 0.70            132            148 260 
                                                                                
