 2017 1029 1350 58.4 L   6.867 -73.148149.7  RSN 16 0.8 2.2LRSN                1
 GAP= 77        1.74       5.2     4.8  8.0  0.1117E+01  0.9335E+01  0.7439E+01E
 Epicentro: LOS SANTOS - SANTANDER                                             3
 ACTION:UPD 17-11-07 19:38 OP:rebc STATUS:               ID:20171029135058 L   I
 OLDACT:UP  17-10-29 22:58 OP:dani STATUS:               ID:20171029134738     3
 OLDACT:UP  17-10-29 22:57 OP:dani STATUS:               ID:20171029134738     3
 OLDACT:REG 17-10-29 20:09 OP:dani STATUS:               ID:20171029134738     3
 2017-10-29-1348-00M.COL___438                                                 6
 STAT SP IPHASW D HRMM SECON CODA AMPLIT PERI AZIMU VELO AIN AR TRES W  DIS CAZ7
 BAR2 EZ IP     C 1351 18.59                             168   -0.0910 30.6 187 
 BAR2 EZ ES       1351 34.50                             168    0.0110 30.6 187 
 BAR2 EZ I        1351 36.51        31.2 0.48            167           30.6 187 
 BRR  HZ EP       1351 20.44                             154    0.6310 67.8 293 
 BRR  HE ES       1351 37.67                             154    1.1810 67.8 293 
 BRR  HZ I        1351 41.23        29.5 0.12            154           67.8 293 
 PAM  EZ EP     C 1351 21.31                             153    0.5610 72.0  43 
 PAM  EN ES       1351 38.59                             153    0.4210 72.0  43 
 PAM  EZ I        1351 40.46        16.7 0.46            158           72.0  43 
 RUS  HZ EP       1351 22.52                             143   -0.5710  108 176 
 RUS  HN ES       1351 41.20                             143   -1.1410  108 176 
 RUS  HZ I        1351 44.73        13.0 0.28            144            108 176 
 PTB  HZ EP       1351 25.13                             133   -0.70 9  149 256 
 PTB  HN ES       1351 46.93                             133   -0.28 9  149 256 
 PTB  HZ I        1351 48.99        18.1 0.14            133            149 256 
 TAM  HZ EP       1351 26.76                             131    0.14 9  157 108 
 TAM  HE ES       1351 48.66                             131    0.04 9  157 108 
 TAM  HZ I        1351 49.16        14.5 0.19            135            157 108 
 SPBC HZ EP       1351 27.52                             129   -0.23 9  169 217 
 SPBC HE ES       1351 50.17                             129   -0.46 9  169 217 
 SPBC HZ I        1351 57.11        38.3 0.18            130            169 217 
 YPLC HZ EP       1351 28.84                             127   -0.30 9  183 152 
 YPLC HN ES       1351 52.43                             127   -0.68 9  183 152 
 YPLC HZ I        1351 55.06        15.9 0.22            129            183 152 
 ZAR  HZ EP       1351 31.06                             124    0.23 9  201 290 
 ZAR  HN ES       1351 56.50                             124    0.39 9  201 290 
 ZAR  HZ I        1352  2.69        29.1 0.28            125            201 290 
 TABC EZ EP       1351 36.00                             119    0.94 8  236 210 
 NOR  HZ EP       1351 34.56                             119   -0.26 8  239 233 
 NOR  HN ES       1352  3.12                             119   -0.10 8  239 233 
 NOR  HZ I        1352  8.20        15.5 0.28            120            239 233 
 ROSC BZ EP       1351 38.65                             117    1.22 8  259 210 
 GUY2CHZ EP       1351 43.71                             113    1.04 7  305 234 
 GUY2CHE ES       1352 17.09                             113   -0.10 7  305 234 
 GUY2CHZ I        1352 25.10         9.9 0.34                           305 234 
 PRA  HZ EP       1351 53.59                             107    0.78 6  398 209 
 PRA  HN ES       1352 34.19                             107   -1.05 6  398 209 
 PRA  HZ I        1352 43.15         5.9 0.31            108            398 209 
 ORTC HZ EP       1351 53.87                             107    0.72 6  401 216 
 ORTC HN ES       1352 36.53                             107    0.68 6  401 216 
 ORTC HZ I        1352 48.30         4.0 0.58            108            401 216 
 SJC  HZ EP       1351 52.36                             107   -1.01 6  403 326 
 SJC  HN ES       1352 32.87                             107   -3.37 6  403 326 
 SJC  HZ I        1352 38.74         3.7 0.38            108            403 326 
                                                                                
