 2016 1129 1330 11.6 L   6.803 -73.147147.8  RSN  9 0.3 2.2LRSN                1
 GAP=150        0.81       3.7     3.6  5.4 -0.2277E+01  0.2780E+01  0.9132E+01E
 Epicentro: LOS SANTOS - SANTANDER                                             3
 ACTION:UPD 17-10-26 21:13 OP:lp   STATUS:               ID:20161129133011 L   I
 OLDACT:REG 16-11-29 21:11 OP:lv   STATUS:               ID:20161129132744     3
 2016-11-29-1328-00M.COL___352                                                 6
 STAT SP IPHASW D HRMM SECON CODA AMPLIT PERI AZIMU VELO AIN AR TRES W  DIS CAZ7
 BAR2 EZ EP       1330 31.37                             170   -0.1110 23.6 190 
 BAR2 EZ ES       1330 46.74                             170   -0.2510 23.6 190 
 BAR2 EZ I        1330 48.04        44.0 0.13            168           23.6 190 
 BRR  HZ EP       1330 33.17                             153    0.2110 71.0 298 
 BRR  HN ES       1330 50.32                             153    0.7110 71.0 298 
 BRR  HZ I        1330 54.26        27.0 0.26            150           71.0 298 
 PAM  EZ EP       1330 34.17                             151    0.1510 77.2  40 
 PAM  EN ES       1330 51.24                             151   -0.2710 77.2  40 
 PAM  EZ I        1330 53.57        22.0 0.52            156           77.2  40 
 PTB  HZ EP       1330 38.13                             132   -0.60 9  148 259 
 PTB  HN ES       1330 59.83                             132   -0.06 9  148 259 
 PTB  HZ I        1331  5.80        13.5 0.13            131            148 259 
 ZAR  HZ EP   4   1330 46.07                             123    1.91 0  204 292 
 ZAR  HN ES       1331  9.25                             123   -0.30 9  204 292 
 ZAR  HZ I        1331 14.58        17.9 0.36            123            204 292 
 NOR  HZ EP       1330 47.53                             119    0.07 8  235 234 
 NOR  HE ES       1331 15.42                             119   -0.01 8  235 234 
 NOR  HZ I        1331 24.96         9.1 0.40            119            235 234 
 CHI  HZ EP       1330 49.80                             117    0.36 8  249 195 
 CHI  HN ES       1331 19.04                             117    0.08 8  249 195 
 CHI  HZ I        1331 22.68        11.4 0.48            119            249 195 
 PTGC HZ EP   4   1330 54.74                             112   -0.85 0  309 159 
 PTGC HN ES   4   1331 20.82                             112   -9.07 0  309 159 
 PRA  HZ EP       1331  5.65                             107    0.43 6  392 210 
 PRA  HN ES       1331 46.71                             107   -0.33 6  392 210 
 PRA  HZ I        1331 53.66        10.1 0.29            108            392 210 
 SJC  HZ EP   4   1331  5.50                             106   -1.69 0  409 327 
 SJC  HN ES   4   1331 47.14                             106   -3.42 0  409 327 
 SJC  HZ I        1331 53.74         2.7 0.24            107            409 327 
                                                                                
