 2015  129 1031 27.9 L   7.400 -73.789 31.5  RSN  6 0.4 0.9LRSN                1
 GAP=114        0.82       2.6     2.9  3.6 -0.5682E+00  0.3210E+01 -0.4812E+01E
 Epicentro: PUERTO WILCHES - SANTANDER                                         3
 ACTION:UPD 15-03-02 15:43 OP:nd   STATUS:               ID:20150129103127 L   I
 OLDACT:DUP 15-01-29 23:19 OP:spq  STATUS:               ID:20150129102745d    3
 2015-01-29-1027-43M.COL___271                                                 6
 STAT SP IPHASW D HRMM SECON CODA AMPLIT PERI AZIMU VELO AIN AR TRES W  DIS CAZ7
 BRR  HZ EP       1031 34.76                             129   -0.3610 33.4 165 
 BRR  HE ES       1031 41.02                             129    0.2910 33.4 165 
 BRR  HZ I        1031 41.73         9.7 0.28            126           33.4 165 
 OCA  HZ EP   1   1031 44.23                              61   -0.19 7  106  29 
 OCA  HN ES   1   1031 57.09                              61   -0.18 7  106  29 
 BAR2 EZ EP       1031 45.36                              61    0.1710  112 143 
 BAR2 EZ ES   1   1031 59.02                              61    0.38 7  112 143 
 BAR2 EZ I        1031 59.62         2.3 0.50             61            112 143 
 ZAR  HE ES       1032  0.07                              61    0.4210  118 275 
 ZAR  HZ I        1032  1.18         3.1 0.52             61            118 275 
 PTB  HZ EP   1   1031 45.33                              61   -0.67 7  120 218 
 PTB  HE ES   1   1031 59.63                              61   -0.46 7  120 218 
 PTB  HZ I        1032  1.61         1.3 0.24             61            120 218 
 SML  HE ES   1   1032  8.66                              61    0.21 7  158 349 
                                                                                
