 2012 1229 1112 29.2 L   6.725 -73.188144.0  RSN  5 0.3 2.0LRSN                1
 GAP=227        0.75       5.7     5.3  5.8  0.1745E+02  0.5960E+01 -0.2053E+01E
 Epicentro: VILLANUEVA - SANTANDER                                             3
 ACTION:UPD 13-01-04 14:31 OP:ep   STATUS:               ID:20121229111229 L   I
 2012-12-29-1110-00M.COL___242                                                 6
 STAT SP IPHASW D HRMM SECON CODA AMPLIT PERI AZIMU VELO AIN AR TRES W  DIS CAZ7
 BAR2 SZ EP       1112 48.35                             174   -0.1210 14.7 178 
 BAR2 SZ ES       1113  3.07                             174   -0.4410 14.7 178 
 BAR2 SZ I        1113  4.45        48.8 0.20                          14.7 178 
 BRR  HZ IP     C 1112 50.15                             152   -0.0310 71.7 306 
 BRR  HZ I        1112 50.45        17.0 0.33                          71.7 306 
 BRR  HE ES       1113  6.90                             152    0.3510 71.7 306 
 RUS  HZ EP   1   1112 52.53                             146    0.30 7 92.8 173 
 RUS  HE ES       1113 10.51                             146    0.3210 92.8 173 
 RUS  HE I        1113 12.80        14.0 0.30                          92.8 173 
 PTB  HZ EP       1112 55.03                             133   -0.45 9  142 262 
 PTB  HN ES       1113 15.89                             133   -0.09 9  142 262 
 PTB  HZ I        1113 18.64         9.9 0.14                           142 262 
 ZAR  HZ EP   1   1113  1.82                             122    0.40 6  203 295 
 ZAR  HN ES       1113 26.65                             122    0.09 9  203 295 
 ZAR  HZ I        1113 33.13         9.6 0.28                           203 295 
                                                                                
