 2014  829 1712 47.0 L   6.684 -73.049152.6  RSN  5 0.5 1.9LRSN                1
 GAP=154        1.24      12.0    11.7 10.6  0.3256E+02 -0.1472E+02  0.1446E+02E
 Epicentro: ARATOCA - SANTANDER                                                3
 ACTION:UPD 14-09-15 21:54 OP:nd   STATUS:               ID:20140829171247 L   I
 OLDACT:DUP 14-08-29 23:26 OP:stll STATUS:               ID:20140829170822d    3
 2014-08-29-1708-21M.COL___266                                                 6
 STAT SP IPHASW D HRMM SECON CODA AMPLIT PERI AZIMU VELO AIN AR TRES W  DIS CAZ7
 BAR2 SZ EP       1713  7.31                             173   -0.0710 17.9 235 
 BAR2 SZ ES       1713 22.69                             173   -0.5710 17.9 235 
 BAR2 SZ I        1713 24.27        18.0 0.20             47           17.9 235 
 PAM  SZ EP       1713 10.31                             151    0.0710 82.1  28 
 PAM  SZ I        1713 30.95        15.2 0.18             47           82.1  28 
 BRR  HZ EP       1713  9.34                             149   -0.4910 86.9 303 
 BRR  HE ES       1713 28.33                             149    0.7010 86.9 303 
 RUS  HZ EP       1713 11.24                             149    0.6510 87.6 182 
 RUS  HZ I        1713 56.50         9.4 0.38             47           87.6 182 
 PTB  HZ EP       1713 14.99                             132   -0.34 9  156 264 
 PTB  HZ I        1713 45.59         8.4 0.16             47            156 264 
                                                                                
