 2016  829 1915  3.2 L   6.020 -73.669117.6  RSN 17 0.5 2.4LRSN                1
 GAP= 79        1.12       2.5     3.0  6.3 -0.1153E+01  0.2693E+01  0.1164E+01E
 Epicentro: VELEZ - SANTANDER                                                  3
 ACTION:UPD 16-10-29 15:40 OP:rebc STATUS:               ID:20160829191503 L   I
 OLDACT:UP  16-08-29 23:22 OP:dani STATUS:               ID:20160829190734     3
 OLDACT:UP  16-08-29 23:22 OP:dani STATUS:               ID:20160829190734     3
 OLDACT:UP  16-08-29 23:21 OP:dani STATUS:               ID:20160829190734     3
 OLDACT:REG 16-08-29 21:31 OP:edw  STATUS:               ID:20160829190734     3
 2016-08-29-1908-00M.COL___353                                                 6
 STAT SP IPHASW D HRMM SECON CODA AMPLIT PERI AZIMU VELO AIN AR TRES W  DIS CAZ7
 SPBC HZ EP       1915 20.72                             151   -0.0810 60.4 228 
 SPBC HZ I        1915 39.69        90.9 0.22                          60.4 228 
 RUS  HZ EP       1915 21.60                             149   -0.1410 66.4 102 
 RUS  HE ES       1915 36.18                             149   -0.0510 66.4 102 
 RUS  HZ I        1915 38.88        20.2 0.54                          66.4 102 
 BAR2 EZ EP       1915 22.79                             142    0.2610 83.1  40 
 BAR2 EZ ES       1915 37.97                             142    0.3310 83.1  40 
 BAR2 EZ I        1915 38.61       152.9 0.44                          83.1  40 
 PTB  HZ EP       1915 23.08                             135   -0.8510  104 303 
 PTB  HE ES       1915 39.27                             135   -0.8510  104 303 
 PTB  HZ I        1915 41.71        35.6 0.12                           104 303 
 BRR  HZ EP       1915 25.51                             131    0.1810  120 358 
 BRR  HN ES       1915 42.88                             131    0.2710  120 358 
 BRR  HZ I        1915 44.26        38.9 0.12                           120 358 
 NOR  HZ EP       1915 27.04                             126   -0.45 9  142 249 
 NOR  HE ES       1915 47.29                             126    0.82 9  142 249 
 NOR  HZ I        1915 50.37        47.7 0.44                           142 249 
 ROSC BZ EP   4   1915 31.87                             124    3.24 0  149 209 
 CHI  HZ EP       1915 29.37                             124    0.22 9  154 183 
 CHI  HE ES       1915 48.84                             124   -0.57 9  154 183 
 CHI  HZ I        1915 52.85        17.9 0.38                           154 183 
 PAM  EZ EP   4   1915 30.64                             119   -1.43 0  181  36 
 PAM  EE ES       1915 54.51                             119   -0.11 9  181  36 
 PAM  EZ I        1915 57.70        21.5 0.22                           181  36 
 GUY2CHZ EP       1915 35.58                             115    0.66 8  207 245 
 GUY2CHN ES   4   1916  1.34                             115    1.65 0  207 245 
 GUY2CHZ I        1916  6.61        15.0 0.62                           207 245 
 ZAR  HZ EP       1915 34.55                             115    0.03 8  209 321 
 ZAR  HE ES       1915 59.24                             115    0.26 8  209 321 
 ZAR  HZ I        1916  3.92        53.6 0.84                           209 321 
 VIL  EZ EP       1915 34.62                             114   -0.26 8  211 181 
 VIL  EE ES       1916  0.34                             114    0.73 8  211 181 
 VIL  EZ I        1916  0.89        35.2 0.28                           211 181 
 TAM  HE ES       1915 59.69                             114   -0.08 8  213  77 
 ELA  HZ EP   9   1915 39.71                             112    2.12 0  231 236 
 ELA  HN ES       1916  6.08                             113   -0.48 8  231 236 
 ELA  HZ I        1916 13.13        11.1 0.48                           231 236 
 OCA  HZ EP       1915 39.54                             110    0.42 8  248   9 
 OCA  HE ES       1916  7.42                             110    0.26 8  248   9 
 ANIL HZ EP       1915 39.88                             110   -0.28 8  256 229 
 ANIL HN ES   4   1916 10.29                             110    1.27 0  256 229 
 ANIL HZ I        1916 12.47        32.4 0.24                           256 229 
 SOCV BZ EP       1915 56.03                             101   -0.65 6  399  51 
 MACC HZ EP   4   1915 58.44                             100   -1.82 0  429 183 
 MACC HE ES   4   1916 40.85                             100   -3.94 0  429 183 
 MACC HZ I        1916 43.70         4.9 0.18                           429 183 
                                                                                
