 2017  329 1146 10.8 L   6.792 -73.084138.6  RSN  5 0.3 1.5LRSN                1
 GAP=145        0.54       5.3     8.1  6.5 -0.2380E+02  0.2803E+01  0.3547E+01E
 Epicentro: LOS SANTOS - SANTANDER                                             3
 ACTION:UPD 17-05-25 18:46 OP:jn   STATUS:               ID:20170329114610 L   I
 OLDACT:UP  17-03-29 21:41 OP:ansd STATUS:               ID:20170329113748     3
 OLDACT:UP  17-03-29 21:41 OP:ansd STATUS:               ID:20170329113748     3
 OLDACT:UP  17-03-29 21:41 OP:ansd STATUS:               ID:20170329113748     3
 OLDACT:REG 17-03-29 19:57 OP:and  STATUS:               ID:20170329113748     3
 2017-03-29-1138-00M.COL___355                                                 6
 STAT SP IPHASW D HRMM SECON CODA AMPLIT PERI AZIMU VELO AIN AR TRES W  DIS CAZ7
 BAR2 EZ EP       1146 29.37                             169   -0.2310 24.6 206 
 BAR2 EZ ES   2   1146 44.01                             169   -0.25 5 24.6 206 
 BAR2 EZ I        1146 46.14         8.5 0.20            170           24.6 206 
 PAM  EZ EP       1146 32.42                             150    0.3610 74.0  35 
 PAM  EN ES       1146 48.49                             150   -0.1410 74.0  35 
 PAM  EZ I        1146 51.68         6.1 0.46            153           74.0  35 
 BRR  HZ EP   2   1146 31.43                             149   -0.15 5 77.6 297 
 BRR  HN ES   3   1146 48.40                             149    0.62 2 77.6 297 
 RUS  HZ EP   2   1146 33.62                             142   -0.16 5 99.4 180 
 RUS  HN ES   2   1146 52.16                             142    0.47 5 99.4 180 
 RUS  HZ I        1146 53.76         6.3 0.22            145           99.4 180 
 PTB  HZ EP   9   1146 36.47                             129   -1.34 0  154 260 
 PTB  HE ES   2   1146 57.63                             130    0.10 5  154 260 
 PTB  HZ I        1146 59.15         2.1 0.11            133            154 260 
                                                                                
