 2014  929 1227 24.5 L   6.794 -73.172142.0  RSN  4 0.5 1.5LRSN                1
 GAP=207        1.32       8.4    10.2 10.9  0.3414E+01  0.1322E+02 -0.3413E+02E
 Epicentro: LOS SANTOS - SANTANDER                                             3
 ACTION:UPD 14-10-03 23:09 OP:nd   STATUS:               ID:20140929122724 L   I
 OLDACT:UP  14-09-29 21:26 OP:cam  STATUS:               ID:20140929122000     3
 OLDACT:UP  14-09-29 21:26 OP:cam  STATUS:               ID:20140929122000     3
 OLDACT:REG 14-09-29 20:31 OP:cam  STATUS:               ID:20140929122000     3
 2014-09-29-1220-00M.COL___252                                                 6
 STAT SP IPHASW D HRMM SECON CODA AMPLIT PERI AZIMU VELO AIN AR TRES W  DIS CAZ7
 BAR2 SZ EP       1227 44.30                             171    0.6210 22.4 183 
 BAR2 SZ ES       1227 57.92                             171   -0.7110 22.4 183 
 BAR2 SZ I        1228  0.37         6.9 0.28            173           22.4 183 
 BRR  HN ES       1228  1.95                             153    0.7310 69.0 300 
 PTB  HZ EP       1227 51.11                             132    0.19 9  145 259 
 PTB  HN ES       1228 11.10                             132   -0.41 9  145 259 
 PTB  HZ I        1228 13.98         2.7 0.16            132            145 259 
 SML  HZ EP       1228  0.29                             117   -0.58 8  243 336 
 SML  HE ES       1228 29.10                             117   -0.13 8  243 336 
 SML  HZ I        1228 33.50         3.8 0.24            117            243 336 
                                                                                
