 2013 1229 1857 10.2 L   6.251 -73.652116.5  RSN  7 0.4 1.5LRSN                1
 GAP= 93        0.80       5.6     4.4  8.0  0.2747E+01 -0.1862E+01 -0.1416E+02E
 Epicentro: SANTA HELENA DEL OPON - SANTANDER                                  3
 ACTION:UPD 14-01-13 10:22 OP:ep   STATUS:               ID:20131229185710 L   I
 OLDACT:UP  13-12-29 17:34 OP:jn   STATUS:               ID:20131229185002d    3
 OLDACT:DUP 13-12-29 17:28 OP:jn   STATUS:               ID:20131229185002d    3
 OLDACT:REG 13-12-29 14:46 OP:jn   STATUS:               ID:20131229185000     3
 2013-12-29-1850-00M.COL___285                                                 6
 STAT SP IPHASW D HRMM SECON CODA AMPLIT PERI AZIMU VELO AIN AR TRES W  DIS CAZ7
 BAR2 SZ EP       1857 28.48                             149    0.2910 64.2  54 
 BAR2 SZ ES       1857 42.67                             149    0.4710 64.2  54 
 BAR2 SZ I        1857 43.77         9.6 0.18            147           64.2  54 
 RUS  HN ES   1   1857 43.38                             146   -0.65 7 74.4 122 
 RUS  HZ I        1857 46.18         5.9 0.28            145           74.4 122 
 SPBC HN ES   2   1857 44.13                             143    0.28 5 80.9 215 
 PTB  HN ES   1   1857 45.15                             138   -0.39 7 94.5 290 
 BRR  HZ EP   1   1857 30.41                             138    0.33 7 94.9 356 
 BRR  HN ES   1   1857 45.34                             138   -0.22 7 94.9 356 
 BRR  HZ I        1857 46.37        10.5 0.26            138           94.9 356 
 PAM  SZ EP       1857 36.65                             122   -0.20 9  160  41 
 PAM  SE ES   2   1857 56.97                             122   -0.64 5  160  41 
 PAM  SZ I        1858  1.67         4.5 0.34            122            160  41 
 ZAR  HE ES   2   1858  2.39                             117   -0.04 4  191 316 
                                                                                
