 2017 1029 1248 13.4 L   6.842 -73.149146.2  RSN 25 0.9 2.8LRSN                1
 GAP= 65        1.86       4.7     4.4  8.6  0.1757E+01  0.1016E+02  0.9335E+01E
 Epicentro: LOS SANTOS - SANTANDER                                             3
 ACTION:UPD 17-11-07 19:38 OP:rebc STATUS:               ID:20171029124812 L   I
 OLDACT:UP  17-10-31 15:03 OP:nlst STATUS:               ID:20171029124812 L   3
 OLDACT:UP  17-10-29 22:30 OP:dani STATUS:               ID:20171029124738     3
 OLDACT:REG 17-10-29 20:05 OP:dani STATUS:               ID:20171029124738     3
 2017-10-29-1248-00M.COL___420                                                 6
 STAT SP IPHASW D HRMM SECON CODA AMPLIT PERI AZIMU VELO AIN AR TRES W  DIS CAZ7
 BAR2 EZ IP     C 1248 33.13                             169   -0.0110 27.9 188 
 BAR2 EZ I        1248 50.95       171.2 0.32            169           27.9 188 
 BRR  HZ IP     C 1248 34.89                             153    0.4810 68.7 295 
 BRR  HE ES       1248 51.81                             153    0.9710 68.7 295 
 BRR  HZ I        1248 55.95       122.8 0.30            151           68.7 295 
 PAM  EZ IP     D 1248 35.91                             152    0.4810 74.1  42 
 PAM  EN ES       1248 52.93                             152    0.2910 74.1  42 
 PAM  EZ I        1248 55.30       107.3 0.46            153           74.1  42 
 RUS  HZ EP     C 1248 37.10                             143   -0.3910  105 176 
 RUS  HN ES       1248 55.78                             143   -0.5310  105 176 
 RUS  HZ I        1248 57.45        39.9 0.46            143            105 176 
 PTB  HZ EP       1248 39.63                             132   -0.78 9  148 257 
 PTB  HN ES       1249  0.63                             132   -0.88 9  148 257 
 PTB  HZ I        1249  8.32        38.2 0.32            131            148 257 
 TAM  HZ EP     C 1248 41.61                             130    0.39 9  157 107 
 TAM  HE ES       1249  3.08                             130    0.13 9  157 107 
 TAM  HZ I        1249  4.70        36.0 0.55            131            157 107 
 SPBC HZ EP       1248 42.12                             128   -0.09 9  167 218 
 SPBC HN ES       1249  3.99                             128   -0.72 9  167 218 
 SPBC HZ I        1249  8.75       104.2 0.20            128            167 218 
 YPLC HZ IP     C 1248 43.62                             126    0.02 9  181 152 
 YPLC HN ES       1249  7.15                             126   -0.04 9  181 152 
 YPLC HZ I        1249  8.52        33.0 0.26            127            181 152 
 ZAR  HZ EP       1248 45.97                             123    0.36 9  202 291 
 ZAR  HE ES       1249 11.11                             123    0.34 9  202 291 
 ZAR  HZ I        1249 16.32        74.4 0.26            122            202 291 
 TABC EZ EP       1248 50.76                             119    1.22 8  234 210 
 TABC EZ I        1249 24.70        85.0 0.38            119            234 210 
 NOR  HZ EP       1248 48.98                             118   -0.39 8  237 233 
 NOR  HN ES       1249 16.79                             118   -0.67 8  237 233 
 NOR  HZ I        1249 24.71        30.8 0.24            118            237 233 
 CHI  HZ EP       1248 51.40                             117   -0.16 8  253 195 
 CHI  HN ES       1249 20.60                             117   -0.75 8  253 195 
 CHI  HZ I        1249 24.25        52.7 0.58            117            253 195 
 ROSC BZ EP       1248 53.06                             116    1.15 8  257 210 
 ROSC BN ES       1249 21.25                             116   -0.74 8  257 210 
 ROSC BZ I        1249 27.69       109.8 0.45            116            257 210 
 URE  HZ EP       1248 53.92                             114   -0.29 7  282 291 
 URE  HN ES       1249 23.57                             114   -2.51 7  282 291 
 URE  HZ I        1249 34.41        23.6 0.40            113            282 291 
 GUY2CHZ EP       1248 57.95                             112    0.70 7  304 234 
 GUY2CHE ES       1249 34.29                             112    2.80 7  304 234 
 GUY2CHZ I        1249 39.60        36.0 0.58                           304 234 
 VIL  EZ EP       1248 56.90                             112   -0.40 7  308 191 
 VIL  EN ES       1249 31.03                             112   -0.55 7  308 191 
 VIL  EZ I        1249 40.93        70.5 0.44            112            308 191 
 PTGC HZ EP     C 1248 56.27                             111   -1.47 7  313 159 
 PTGC HN ES   4   1249 29.87                             111   -2.49 0  313 159 
 PTGC HZ I        1249 32.49        30.9 0.32            111            313 159 
 ELA  HZ EP       1249  2.19                             110    1.65 7  332 229 
 ELA  HN ES       1249 38.65                             110    1.31 7  332 229 
 ELA  HZ I        1249 45.91        31.1 0.58            110            332 229 
 DBB  EZ EP       1249  1.52                             109    0.75 7  339 273 
 DBB  EE ES       1249 37.24                             109   -0.51 7  339 273 
 DBB  EZ I        1249 38.68        15.1 0.28            109            339 273 
 PRA  HZ EP       1249  6.94                             106   -0.40 6  396 209 
 PRA  HE ES       1249 48.37                             106   -1.08 6  396 209 
 PRA  HZ I        1249 53.48        37.6 0.42            106            396 209 
 ORTC HZ EP       1249  7.47                             106   -0.24 6  399 216 
 ORTC HN ES       1249 50.35                             106    0.26 6  399 216 
 ORTC HZ I        1249 54.63        19.6 0.24            106            399 216 
 SJC  HZ EP       1249  7.29                             106   -1.16 6  405 327 
 SJC  HN ES   4   1249 48.34                             106   -3.08 0  405 327 
 SJC  HZ I        1250  3.08        10.6 0.32            106            405 327 
 PAL  HZ EP       1249  8.65                             106   -0.12 6  408 238 
 PAL  HN ES       1249 53.80                             106    1.80 6  408 238 
 PAL  HZ I        1249 56.70         7.6 0.24            106            408 238 
 CRJC HZ EP   9   1249 13.46                             103   -1.86 0  463   4 
 CRJC HE ES       1250  1.32                             104   -0.47 5  463   4 
 CRJC HZ I        1250  8.29        17.1 0.25            103            463   4 
 SMAR HZ EP   1   1249 18.08                             102   -0.61 3  492 346 
 SMAR HN ES   4   1250  6.40                             102   -3.25 0  492 346 
                                                                                
