 2016 1029 1538 56.0 L   6.409 -73.637104.1  RSN 16 0.3 2.5LRSN                1
 GAP= 75        0.65       1.9     1.8  3.3 -0.1547E+01  0.7304E+00  0.1391E+01E
 Epicentro: SANTA HELENA DEL OPON - SANTANDER                                  3
 ACTION:UPD 16-11-09 19:24 OP:rebc STATUS:               ID:20161029153856 L   I
 OLDACT:REG 16-10-29 19:34 OP:edw  STATUS:               ID:20161029153745     3
 2016-10-29-1538-00M.COL___325                                                 6
 STAT SP IPHASW D HRMM SECON CODA AMPLIT PERI AZIMU VELO AIN AR TRES W  DIS CAZ7
 BAR2 EZ EP       1539 12.28                             150    0.2310 54.2  68 
 BAR2 EZ ES       1539 24.77                             150    0.2110 54.2  68 
 BAR2 EZ I        1539 26.04       282.9 0.28            142           54.2  68 
 BRR  HZ EP       1539 13.16                             140   -0.1810 77.6 354 
 BRR  HN ES       1539 27.22                             140    0.3710 77.6 354 
 BRR  HZ I        1539 28.86        72.6 0.10            130           77.6 354 
 RUS  HZ EP       1539 14.38                             138   -0.1410 83.8 133 
 RUS  HN ES       1539 28.55                             138   -0.4110 83.8 133 
 RUS  HZ I        1539 30.16       106.1 0.22            126           83.8 133 
 PTB  HZ EP   9   1539 13.66                             135   -0.86 0 91.7 279 
 PTB  HN ES       1539 27.78                                   -0.3210 91.7 279 
 PTB  HZ I        1539 29.30        83.0 0.12            122           91.7 279 
 SPBC HZ EP       1539 14.82                             133   -0.2310 96.6 210 
 SPBC HN ES       1539 29.90                             133    0.0010 96.6 210 
 SPBC HZ I        1539 32.82        85.1 0.22            120           96.6 210 
 PAM  EZ EP       1539 20.45                             121    0.06 9  146  45 
 PAM  EN ES       1539 39.15                             121   -0.26 9  146  45 
 PAM  EZ I        1539 40.61        37.2 0.44            111            146  45 
 NOR  HZ EP       1539 22.12                             117    0.23 9  165 236 
 NOR  HN ES       1539 41.94                             117   -0.14 9  165 236 
 NOR  HZ I        1539 43.38        39.0 0.14            107            165 236 
 ROSC BZ EP   4   1539 26.47                             113    1.50 0  189 204 
 ROSC BN ES   4   1539 49.49                             113    1.94 0  189 204 
 ROSC BZ I        1539 55.36        22.9 0.45            104            189 204 
 CHI  HZ EP       1539 25.83                             112   -0.04 9  197 183 
 CHI  HN ES       1539 49.74                             112    0.59 9  197 183 
 CHI  HZ I        1539 52.39        14.5 0.22            104            197 183 
 TAM  HZ EP       1539 25.96                             111   -0.24 9  204  89 
 TAM  HE ES       1539 49.83                             111    0.08 9  204  89 
 TAM  HZ I        1539 52.66        26.4 0.22            104            204  89 
 HEL  HZ EP       1539 27.23                             111   -0.12 8  211 264 
 HEL  HN ES   4   1539 52.66                             111    0.87 0  211 264 
 HEL  HZ I        1539 55.12        25.1 0.32            103            211 264 
 GUY2CHZ EP   4   1539 30.79                             108    0.87 0  232 236 
 GUY2CHN ES       1539 55.97                             108   -0.40 8  232 236 
 GUY2CHZ I        1540  1.51        19.2 0.22                           232 236 
 ELA  HZ EP       1539 33.63                             106    0.39 8  260 229 
 ELA  HN ES       1540  2.20                             106   -0.07 8  260 229 
 ELA  HZ I        1540  6.68         8.4 0.20            100            260 229 
 CBOC HN ES   4   1540  1.97                             105   -1.58 0  270 257 
 ANIL HE ES   4   1540  8.45                             103    0.65 0  289 223 
 ANIL HZ I        1540 17.73        31.7 0.26             99            289 223 
 PRA  HZ EP       1539 40.75                             101   -0.06 7  329 205 
 ORTC HZ EP       1539 41.17                             101    0.32 7  329 213 
 PRA  HZ I        1540 23.30        26.3 0.30             97            329 205 
 ORTC HZ I        1540 22.99        11.6 0.22             97            329 213 
 PRA  HE ES       1540 15.76                             101    0.01 7  329 205 
 SJC  HZ EP   4   1539 50.40                              96   -1.62 0  421 336 
 SJC  HE ES   4   1540 31.76                              96   -3.94 0  421 336 
                                                                                
