 2011  629 1954 16.1 L   6.797 -73.166143.2  RSN  7 0.5 1.9LRSN                1
 GAP=153        0.96       6.5    10.3 11.8 -0.2493E+02  0.2182E+02  0.1880E+02E
 Epicentro: LOS SANTOS - SANTANDER                                             3
 ACTION:UP  11-07-14 19:09 OP:ep   STATUS:               ID:20110629195416 L   I
 2011-06-29-1940-00M.COL___124                                                 6
 STAT SP IPHASW D HRMM SECON CODA AMPLIT PERI AZIMU VELO SNR AR TRES W  DIS CAZ7
 BAR2 SZ EP       1954 35.33                             170     0.010   23 185 
 BAR2 SZ ES   2   1954 49.90                             170    -0.5 5   23 185 
 BAR2 SZ I        1954 53.20        19.9 0.39                            23 185 
 BRR  HZ EP       1954 37.47                             152     0.610   69 300 
 BRR  HZ I        1954 47.22        19.2 0.23                            69 300 
 BRR  HN ES   3   1954 52.95                             152    -0.1 2   69 300 
 RUS  HZ EP       1954 39.86                             143     0.310  100 175 
 RUS  HN ES   3   1954 58.11                             143     0.2 2  100 175 
 BRI  SZ EP       1954 39.23                             141    -0.610  110  22 
 GRA  SZ ES   2   1955  0.39                             136    -0.3 5  127  18 
 NOR  SZ EP       1954 51.73                             118     0.3 8  233 234 
 NOR  SN ES   2   1955 18.03                             118    -1.0 4  233 234 
 CHI  HZ EP       1954 53.18                             116    -0.3 8  248 195 
 CHI  HZ I        1954 55.59         4.1 0.19                           248 195 
 CHI  HN ES   3   1955 22.54                             116    -0.2 2  248 195 
                                                                                
