 2017  129 1119 56.2 L   6.435 -73.768 99.2  RSN  5 0.3 1.2LRSN                1
 GAP=150        0.57       2.9     3.3  7.0  0.1780E+01 -0.9100E+00  0.1221E+01E
 Epicentro: SANTA HELENA DEL OPON - SANTANDER                                  3
 ACTION:UPD 17-05-22 16:04 OP:jn   STATUS:               ID:20170129111956 L   I
 OLDACT:REG 17-01-29 22:09 OP:dnl  STATUS:               ID:20170129111744     3
 2017-01-29-1118-00M.COL___333                                                 6
 STAT SP IPHASW D HRMM SECON CODA AMPLIT PERI AZIMU VELO AIN AR TRES W  DIS CAZ7
 BAR2 EZ EP       1120 12.95                             144    0.3210 67.1  75 
 BAR2 EZ ES       1120 25.50                             144    0.0810 67.1  75 
 BAR2 EZ I        1120 26.17         9.7 0.24            144           67.1  75 
 BRR  HZ EP   3   1120 13.16                             140    0.29 2 74.6   5 
 BRR  HN ES       1120 25.99                             140    0.1510 74.6   5 
 PTB  HZ EP   2   1120 12.82                             139   -0.26 5 77.0 279 
 PTB  HE ES   2   1120 25.82                             139   -0.39 5 77.0 279 
 PTB  HZ I        1120 26.53         3.2 0.14            140           77.0 279 
 RUS  HZ EP   2   1120 15.62                             133    0.21 5 96.6 128 
 RUS  HN ES       1120 30.23                             133   -0.1410 96.6 128 
 RUS  HZ I        1120 32.18         1.9 0.18            132           96.6 128 
 PAM  EZ EP   4   1120 23.53                             119    2.28 0  155  50 
 PAM  EE ES       1120 40.38                             119   -0.38 9  155  50 
 PAM  EZ I        1120 41.39         3.4 0.12            119            155  50 
                                                                                
