 2017  329 1701  6.6 L   6.829 -73.152140.2  RSN  6 0.4 1.5LRSN                1
 GAP=134        0.75       4.0     3.9  6.3 -0.1915E+01  0.5174E+01 -0.2461E+01E
 Epicentro: LOS SANTOS - SANTANDER                                             3
 ACTION:UPD 17-05-25 18:47 OP:jn   STATUS:               ID:20170329170106 L   I
 OLDACT:UP  17-03-29 23:36 OP:ansd STATUS:               ID:20170329165750d    3
 OLDACT:UP  17-03-29 23:36 OP:ansd STATUS:               ID:20170329165750d    3
 OLDACT:DUP 17-03-29 23:32 OP:ansd STATUS:               ID:20170329165750d    3
 OLDACT:UP  17-03-29 23:31 OP:ansd STATUS:               ID:20170329165749d    3
 OLDACT:UP  17-03-29 23:31 OP:ansd STATUS:               ID:20170329165749d    3
 OLDACT:UP  17-03-29 23:30 OP:ansd STATUS:               ID:20170329165749d    3
 OLDACT:UP  17-03-29 23:30 OP:ansd STATUS:               ID:20170329165749d    3
 OLDACT:UP  17-03-29 23:29 OP:ansd STATUS:               ID:20170329165749d    3
 OLDACT:DUP 17-03-29 23:27 OP:ansd STATUS:               ID:20170329165749d    3
 2017-03-29-1658-00M.COL___364                                                 6
 STAT SP IPHASW D HRMM SECON CODA AMPLIT PERI AZIMU VELO AIN AR TRES W  DIS CAZ7
 BAR2 EZ EP       17 1 25.45                             169   -0.2210 26.4 187 
 BAR2 EZ ES       17 1 40.59                             169    0.0810 26.4 187 
 BAR2 EZ I        17 1 42.86        10.2 0.24            167           26.4 187 
 BRR  HZ EP       17 1 27.03                             152   -0.0410 69.1 296 
 BRR  HN ES   2   17 1 44.10                             152    1.10 5 69.1 296 
 PAM  EZ EP       17 1 28.04                             150   -0.1010 75.3  42 
 PAM  EN ES       17 1 44.79                             150   -0.1210 75.3  42 
 PAM  EZ I        17 1 45.98         6.7 0.24            154           75.3  42 
 RUS  HZ EP       17 1 30.49                             141    0.4010  104 176 
 RUS  HN ES       17 1 48.27                             141   -0.1110  104 176 
 RUS  HZ I        17 1 52.69         2.9 0.26            142            104 176 
 PTB  HZ EP   3   17 1 32.16                             131   -1.00 2  148 258 
 PTB  HN ES       17 1 53.65                             131   -0.19 9  148 258 
 PTB  HZ I        17 1 56.26         7.3 0.20            132            148 258 
 ZAR  HZ EP   2   17 1 39.53                             121    0.99 4  202 291 
 ZAR  HN ES   2   17 2  2.78                             121   -0.64 4  202 291 
                                                                                
