 2016 1229 1059 12.5 L   6.699 -73.295145.4  RSN  4 0.4 1.2LRSN                1
 GAP=196        1.13      10.7     8.0  9.9  0.5519E+02  0.9226E+01 -0.2463E+02E
 Epicentro: GALAN - SANTANDER                                                  3
 ACTION:UPD 17-01-11 20:20 OP:rebc STATUS:               ID:20161229105912 L   I
 OLDACT:DUP 16-12-30 00:45 OP:q    STATUS:               ID:20161229105746d    3
 2016-12-29-1058-00M.COL___375                                                 6
 STAT SP IPHASW D HRMM SECON CODA AMPLIT PERI AZIMU VELO AIN AR TRES W  DIS CAZ7
 BAR2 EZ EP       1059 31.95                             173    0.0210 17.1 133 
 BAR2 EZ ES       1059 46.81                             173   -0.3110 17.1 133 
 BAR2 EZ I        1059 48.54         7.2 0.56            178           17.1 133 
 RUS  HZ EP       1059 35.05                             146   -0.5310 92.2 165 
 RUS  HE ES       1059 54.34                             146    0.7310 92.2 165 
 RUS  HZ I        1059 54.47         1.5 0.24            152           92.2 165 
 PTB  HZ EP       1059 37.99                             136    0.2010  130 262 
 PTB  HN ES       1059 56.99                             136   -0.5710  130 262 
 ZAR  HZ EP       1059 43.83                             124    0.02 9  194 297 
 ZAR  HN ES       11 0  8.84                             124    0.56 9  194 297 
 ZAR  HZ I        11 0 16.71         1.0 0.50            124            194 297 
                                                                                
