 2010  929 1544  8.1 L   6.805 -72.970132.0  RSN  4 0.2 1.8LRSN                1
 GAP=185        0.51       4.1     9.0 11.4  0.1577E+02 -0.7253E+02 -0.1770E+02E
 Epicentro: CEPITA - SANTANDER                                                 3
 ACTION:UP  11-02-18 11:06 OP:tino STATUS:               ID:20100929154408 L   I
 2010-09-29-1540-30S.COL___125                                                 6
 STAT SP IPHASW D HRMM SECON CODA AMPLIT PERI AZIMU VELO SNR AR TRES W  DIS CAZ7
 BAR2 SZ EP       1544 26.59                             166     0.310   33 225 
 BAR2 SZ I        1544 26.88        16.3 0.17                            33 225 
 BRR  HZ EP       1544 28.79                             145    -0.110   89 292 
 BRR  HZ I        1544 30.00        19.1 0.47                            89 292 
 BRR  HN ES   1   1544 45.18                             145     0.0 7   89 292 
 RUS  HZ EP       1544 30.50                             141    -0.110  102 187 
 RUS  HZ I        1544 31.60         5.9 0.66                           102 187 
 RUS  HN ES   2   1544 47.88                             141    -0.2 5  102 187 
 GUE  SZ EP       1544 31.21                             137    -0.110  113   3 
                                                                                
