 2014  129 1908 24.5 L   6.816 -73.206138.8  RSN  6 0.4 1.8LRSN                1
 GAP=128        0.91       3.5     4.4  6.6 -0.4292E+01  0.1332E+02 -0.5864E+01E
 Epicentro: ZAPATOCA - SANTANDER                                               3
 ACTION:UPD 14-03-13 09:59 OP:ep   STATUS:               ID:20140129190824 L   I
 OLDACT:REG 14-01-29 15:26 OP:nd   STATUS:               ID:20140129190000     3
 2014-01-29-1900-00M.COL___288                                                 6
 STAT SP IPHASW D HRMM SECON CODA AMPLIT PERI AZIMU VELO AIN AR TRES W  DIS CAZ7
 BAR2 SZ EP       19 8 43.39                             169    0.1110 24.9 174 
 BAR2 SZ ES       19 8 57.99                             169    0.0210 24.9 174 
 BAR2 SZ I        19 8 59.45        19.1 0.18            172           24.9 174 
 PAM  SZ EP     C 19 8 46.45                             148    0.3210 80.5  44 
 PAM  SN ES       19 9  2.93                             148   -0.1010 80.5  44 
 PAM  SZ I        19 9  5.71        15.4 0.70            151           80.5  44 
 RUS  HZ EP       19 8 47.80                             142    0.0810  103 172 
 RUS  HN ES       19 9  5.50                             142   -0.3510  103 172 
 RUS  HZ I        19 9  7.19         5.0 0.32            146            103 172 
 PTB  HZ EP       19 8 50.26                             132   -0.04 9  142 258 
 PTB  HN ES       19 9 11.13                             132    0.68 9  142 258 
 PTB  HZ I        19 9 15.32         6.3 0.16            133            142 258 
 NOR  HZ EP       19 8 59.73                             117    0.41 8  230 233 
 NOR  HN ES       19 9 25.72                             117   -0.80 8  230 233 
 NOR  HZ I        19 9 29.31         4.0 0.22            120            230 233 
 SML  HZ EP       19 8 60.00                             116   -0.22 8  239 337 
 SML  HN ES       19 9 27.73                             116   -0.39 8  239 337 
 SML  HZ I        19 9 33.31         9.1 0.08            118            239 337 
                                                                                
