 2012  629 1934  7.6 L   7.347 -73.279113.8  RSN  5 0.3 1.8LRSN                1
 GAP=175        0.68       6.7     4.0 10.0 -0.6982E+00  0.1900E+02  0.5684E+00E
 Epicentro: RIONEGRO - SANTANDER                                               3
 ACTION:UPD 12-08-06 17:53 OP:ep   STATUS:               ID:20120629193407 L   I
 2012-06-29-1930-50M.COL___181                                                 6
 STAT SP IPHASW D HRMM SECON CODA AMPLIT PERI AZIMU VELO AIN AR TRES W  DIS CAZ7
 BRR  HZ EP   1   1934 24.12                             152   -0.19 8 54.7 241 
 BRR  HZ I        1934 24.40        18.8 0.13                          54.7 241 
 BRR  HN ES   1   1934 37.19                             152   -0.20 8 54.7 241 
 PAM  SN ES   1   1934 39.49                             149   -0.15 8 64.0  91 
 BAR2 SZ EP   1   1934 26.65                             141    0.02 8 84.1 173 
 BAR2 SZ I        1934 26.82        16.1 0.10                          84.1 173 
 BAR2 SZ ES   1   1934 42.05                             141    0.53 8 84.1 173 
 PTB  HN ES       1934 52.83                             121   -0.3010  158 236 
 ZAR  HN ES   1   1934 56.91                             118    0.55 7  175 275 
                                                                                
