 2012  729 1334 32.8 L   6.772 -73.149145.3  RSN 14 0.4 2.5LRSN                1
 GAP= 98        0.80       3.2     3.3  5.3 -0.3216E+00  0.3860E+01  0.3433E+01E
 Epicentro: LOS SANTOS - SANTANDER                                             3
 ACTION:UPD 12-08-14 11:46 OP:ep   STATUS:               ID:20120729133432 L   I
 2012-07-29-1330-00M.COL___215                                                 6
 STAT SP IPHASW D HRMM SECON CODA AMPLIT PERI AZIMU VELO AIN AR TRES W  DIS CAZ7
 BAR2 SZ IP       1334 52.46                             172     0.110   20 190 
 BAR2 SZ I        1334 52.75        71.5 0.22            165             20 190 
 BAR2 SZ ES   1   1335  7.18                             172    -0.4 7   20 190 
 BRR  HZ EP       1334 54.43                             152     0.410   72 301 
 BRR  HN ES   1   1335 11.14                             152     0.6 7   72 301 
 BRR  HZ I        1335 13.51       125.6 0.17            149             72 301 
 PAM  SZ EP       1334 55.17                             150     0.010   80  38 
 PAM  SN ES   1   1335 12.53                             150    -0.1 7   80  38 
 RUS  HZ EP       1334 56.31                             145     0.010   98 176 
 RUS  HZ I        1334 57.18        20.4 0.22            143             98 176 
 RUS  HE ES   1   1335 14.70                             145     0.0 7   98 176 
 PTB  HZ EP       1334 59.30                             132    -0.4 9  147 260 
 PTB  HN ES   2   1335 20.28                             132    -0.3 5  147 260 
 PTB  HZ I        1335 26.37        48.1 0.31            130            147 260 
 TAM  HZ IP     D 1335  0.59                             131     0.1 9  155 104 
 YOP  SE ES   2   1335 25.70                             127    -0.1 4  176 153 
 ZAR  HZ EP       1335  4.53                             122    -0.8 9  205 293 
 ZAR  HN ES   1   1335 30.67                             122     0.0 6  205 293 
 ZAR  HZ I        1335 41.30        47.8 0.39            122            205 293 
 NOR  SZ EP       1335  8.32                             119     0.0 8  233 235 
 NOR  SN ES   1   1335 36.36                             119     0.4 6  233 235 
 CHI  HZ EP   1   1335  9.99                             117    -0.2 6  246 195 
 CHI  HN ES   1   1335 39.38                             117     0.1 6  246 195 
 CHI  HZ I        1335 49.31        18.2 0.42            117            246 195 
 ROSC BN ES   1   1335 39.65                             117    -0.5 6  250 211 
 HEL  HZ EP   1   1335 13.32                             115     0.4 6  271 256 
 HEL  HN ES   2   1335 44.79                             115     0.6 4  271 256 
 HEL  HZ I        1335 53.34        16.5 0.37            114            271 256 
 VIL  SN ES   2   1335 49.54                             112     0.1 4  300 192 
 VIL  SZ I        1335 59.83        14.7 0.27            113            300 192 
 PRA  HZ EP   1   1335 26.73                             107     0.7 4  389 210 
 PRA  HN ES   1   1336  7.62                             107     0.1 4  389 210 
