 2016  329 1755 18.2 L   6.823 -73.116150.0  RSN  6 0.4 1.7LRSN                1
 GAP=139        0.86       4.0     4.3  7.5 -0.1076E+01  0.1238E+02 -0.6268E+00E
 Epicentro: LOS SANTOS - SANTANDER                                             3
 ACTION:UPD 16-05-13 21:28 OP:cam  STATUS:               ID:20160329175518 L   I
 OLDACT:DUP 16-03-30 01:14 OP:ak   STATUS:               ID:20160329174746d    3
 2016-03-29-1747-44M.COL___310                                                 6
 STAT SP IPHASW D HRMM SECON CODA AMPLIT PERI AZIMU VELO AIN AR TRES W  DIS CAZ7
 PAM  EZ EP   1   1755 40.65                             153    0.04 7 73.4  39 
 PAM  EN ES       1755 57.89                             153   -0.2210 73.4  39 
 PAM  EZ I        1756  0.71         4.6 0.50            158           73.4  39 
 RUS  HZ EP       1755 42.38                             144   -0.1210  103 178 
 RUS  HE ES       1756  2.05                             144    0.5610  103 178 
 PTB  HZ EP       1755 45.42                             132   -0.40 9  151 258 
 PTB  HN ES       1756  6.93                             132   -0.45 9  151 258 
 PTB  HZ I        1756 12.42         6.1 0.24            134            151 258 
 SPBC HZ EP       1755 47.24                             129   -0.13 9  167 219 
 SPBC HN ES       1756  9.98                             129   -0.17 9  167 219 
 SPBC HZ I        1756 16.54        10.1 0.30            132            167 219 
 ZAR  HZ EP       1755 51.43                             123    0.32 8  206 291 
 ZAR  HN ES       1756 17.40                             123    0.60 8  206 291 
 ZAR  HZ I        1756 23.09         5.7 0.60            125            206 291 
 GUY2CHZ EP   2   1756  2.94                             113    0.50 4  305 235 
 GUY2CHE ES   4   1756 38.92                             113    1.95 0  305 235 
 GUY2CHZ I        1756 45.77         2.9 0.60                           305 235 
                                                                                
