 2014  729 1235  7.3 L   6.824 -73.214142.8  RSN  5 0.3 1.6LRSN                1
 GAP=240        0.73       4.9     4.8  6.7  0.1292E+02  0.9091E+01  0.3553E+01E
 Epicentro: ZAPATOCA - SANTANDER                                               3
 ACTION:UPD 15-03-16 20:48 OP:nd   STATUS:               ID:20140729123507 L   I
 OLDACT:DUP 14-07-29 22:01 OP:carl STATUS:               ID:20140729122819d    3
 2014-07-29-1228-18M.COL___251                                                 6
 STAT SP IPHASW D HRMM SECON CODA AMPLIT PERI AZIMU VELO AIN AR TRES W  DIS CAZ7
 BAR2 SZ EP       1235 26.46                             169   -0.1610 25.8 172 
 BAR2 SZ ES       1235 41.63                             169   -0.0610 25.8 172 
 BAR2 SZ I        1235 42.88        13.4 0.36            164           25.8 172 
 RUS  HZ EP       1235 31.16                             142    0.1610  104 172 
 RUS  HN ES       1235 49.53                             142    0.0410  104 172 
 RUS  HZ I        1235 51.01         3.5 0.44            140            104 172 
 PTB  HZ EP       1235 33.77                             133    0.37 9  141 257 
 PTB  HN ES       1235 54.10                             133    0.34 9  141 257 
 PTB  HZ I        1235 56.51         4.4 0.16            131            141 257 
 ZAR  HN ES       1236  2.79                             123   -0.45 9  196 292 
 CHI  HN ES       1236 13.78                             116   -0.45 8  249 193 
 CHI  HZ I        1236 19.23         4.0 0.66            116            249 193 
                                                                                
