 2016  129 1134 57.9 L   6.798 -73.169150.8  RSN  9 0.4 1.6LRSN                1
 GAP=134        0.86       3.8     3.7  5.9 -0.3075E+01  0.8439E+01 -0.1627E+01E
 Epicentro: LOS SANTOS - SANTANDER                                             3
 ACTION:UPD 16-03-09 23:29 OP:cam  STATUS:               ID:20160129113457 L   I
 OLDACT:REG 16-01-29 20:31 OP:ak   STATUS:               ID:20160129112355     3
 2016-01-29-1134-00M.COL___402                                                 6
 STAT SP IPHASW D HRMM SECON CODA AMPLIT PERI AZIMU VELO AIN AR TRES W  DIS CAZ7
 BAR2 EZ EP       1135 18.09                             171   -0.0210 22.8 184 
 BAR2 EZ ES       1135 34.29                             171    0.4010 22.8 184 
 BAR2 EZ I        1135 34.45         5.9 0.26            169           22.8 184 
 PAM  EZ EP       1135 21.14                             151    0.3910 79.3  41 
 PAM  EN ES       1135 38.47                             151   -0.1110 79.3  41 
 PAM  EZ I        1135 40.37         4.6 0.52            157           79.3  41 
 RUS  HZ EP       1135 21.72                             145   -0.4110  101 175 
 RUS  HN ES       1135 40.79                             145   -0.2510  101 175 
 RUS  HZ I        1135 44.04         3.3 0.38            147            101 175 
 PTB  HZ EP       1135 24.46                             134   -0.58 9  145 259 
 PTB  HN ES       1135 45.64                             134   -0.57 9  145 259 
 PTB  HZ I        1135 51.58         4.6 0.18            134            145 259 
 SPBC HZ EP       1135 27.08                             130    0.47 9  161 218 
 SPBC HN ES       1135 49.10                             130    0.10 9  161 218 
 SPBC HZ I        1135 56.14        10.3 0.28            132            161 218 
 ZAR  HZ EP       1135 30.45                             124    0.02 9  202 292 
 ZAR  HN ES       1135 55.95                             124    0.14 9  202 292 
 ZAR  HZ I        1136  1.97         5.4 0.44            125            202 292 
 NOR  HZ EP   2   1135 33.87                             120    0.20 4  232 234 
 NOR  HE ES       1136  2.02                             120    0.44 8  232 234 
 NOR  HZ I        1136  6.98         4.1 0.18            121            232 234 
 URE  HZ EP   4   1135 40.19                             115    1.24 0  281 292 
 URE  HE ES   4   1136  8.62                             115   -2.35 0  281 292 
 URE  HZ I        1136 11.24         4.2 0.12            116            281 292 
 GUY2CHZ EP   1   1135 41.49                             113    0.01 5  299 235 
 GUY2CHN ES   2   1136 16.16                             113    0.69 4  299 235 
 GUY2CHZ I        1136 24.46         2.3 0.30                           299 235 
                                                                                
