 2011  929 1224 38.6 L   6.882 -73.347115.3  RSN 11 0.4 2.2LRSN                1
 GAP= 83        0.70       2.5     3.1  4.2  0.9796E+00  0.3705E+01  0.1217E+01E
 Epicentro: BETULIA - SANTANDER                                                3
 ACTION:UPD 12-07-13 16:00 OP:ep   STATUS:               ID:20110929122438 L   I
 2011-09-29-1221-09S.COL___168                                                 6
 STAT SP IPHASW D HRMM SECON CODA AMPLIT PERI AZIMU VELO AIN AR TRES W  DIS CAZ7
 BTL  SZ EP       1224 54.40                             175    0.0410 9.67  65 
 BAR2 SZ EP       1224 55.06                             161    0.0110 36.9 150 
 BAR2 SZ ES       1225  7.63                             161   -0.2310 36.9 150 
 BAR2 SZ I        1225  9.07       111.6 0.39                          36.9 150 
 BRR  HZ EP       1224 54.94                             156   -0.2210 47.4 302 
 BRR  HZ I        1224 55.80        41.6 0.17                          47.4 302 
 BRR  HN ES       1225  8.49                             156    0.4310 47.4 302 
 PAM  SZ EP   1   1224 58.64                             141    0.17 7 87.6  55 
 PAM  SN ES   1   1225 14.09                             141    0.15 7 87.6  55 
 RUS  HZ EP   1   1225  0.29                             133   -0.34 7  113 165 
 RUS  HN ES   1   1225 17.59                             133   -0.20 7  113 165 
 OCA  SZ EP       1225  3.73                             124    0.01 9  150   1 
 OCA  SZ ES   1   1225 22.96                             124   -0.33 7  150   1 
 OCA  SZ I        1225 29.71        22.6 0.12                           150   1 
 ZAR  HZ EP   1   1225  6.02                             118   -0.64 7  180 292 
 ZAR  HN ES   1   1225 28.47                             118   -0.06 7  180 292 
 ZAR  HZ I        1225 30.87        23.2 0.50                           180 292 
 YOP  SZ EP   1   1225  8.80                             116    0.09 6  198 149 
 YOP  SZ I        1225  9.07        11.1 0.36                           198 149 
 YOP  SE ES   2   1225 32.84                             116    0.66 4  198 149 
 NOR  SZ EP   1   1225 11.84                             113    0.40 6  223 229 
 HEL  HZ EP   1   1225 16.17                             110    0.88 6  253 253 
 HEL  HZ I        1225 50.03         8.8 0.41                           253 253 
 RREF HZ EP   1   1225 22.75                             105    0.32 5  312 225 
 RREF HN ES   1   1225 55.97                             105   -0.62 5  312 225 
 RREF HZ I        1226  5.50         5.4 0.25                           312 225 
                                                                                
