 2010 1129 1543 45.1 L   6.800 -73.011146.6  RSN  4 0.2 1.5LRSN                1
 GAP=250        0.39      12.0    47.0 10.9  0.4445E+03 -0.3157E+03 -0.8350E+02E
 Epicentro: CEPITA - SANTANDER                                                 3
 ACTION:UP  10-12-17 16:55 OP:REBC STATUS:               ID:20101129154345 L   I
 2010-11-29-1540-27S.COL___132                                                 6
 STAT SP IPHASW D HRMM SECON CODA AMPLIT PERI AZIMU VELO SNR AR TRES W  DIS CAZ7
 BAR2 SZ EP   2   1544  4.73                             167    -0.2 5   30 220 
 BAR2 SZ ES   2   1544 20.36                             167    -0.1 5   30 220 
 BAR2 SZ I        1544 22.76        10.1 0.36                            30 220 
 BTL  SZ EP   2   1544  5.30                             167     0.3 5   31 295 
 BRR  HZ EP   3   1544  7.06                             148    -0.1 2   85 294 
 BRR  HZ I        1544 28.80        12.6 0.54                            85 294 
 RUS  HZ EP   2   1544  8.86                             144    -0.1 5  101 185 
 RUS  HE ES   2   1544 27.65                             144     0.1 5  101 185 
 RUS  HZ I        1544 28.75         2.1 0.37                           101 185 
                                                                                
