 2017  829 1443 12.2 L   6.807 -73.113144.7  RSN  5 0.3 1.7LRSN                1
 GAP=140        0.67       3.1     3.3  5.3  0.9819E-01  0.6264E+01  0.2648E+01E
 Epicentro: LOS SANTOS - SANTANDER                                             3
 ACTION:UPD 17-09-04 20:26 OP:rebc STATUS:               ID:20170829144312 L   I
 OLDACT:REG 17-08-29 20:51 OP:dhb  STATUS:               ID:20170829143744     3
 2017-08-29-1438-00M.COL___417                                                 6
 STAT SP IPHASW D HRMM SECON CODA AMPLIT PERI AZIMU VELO AIN AR TRES W  DIS CAZ7
 BRR  HZ EP       1443 33.61                             151    0.2610 74.0 297 
 BRR  HN ES       1443 49.83                             151   -0.0510 74.0 297 
 BRR  HZ I        1443 53.29        12.2 0.12            150           74.0 297 
 PAM  EZ IP     C 1443 34.16                             152    0.0710 74.5  38 
 PAM  EN ES       1443 51.06                             152   -0.1310 74.5  38 
 PAM  EZ I        1443 53.32        13.6 0.59            156           74.5  38 
 RUS  HZ EP       1443 35.99                             143    0.1410  101 178 
 RUS  HN ES       1443 54.27                             143   -0.0610  101 178 
 RUS  HZ I        1443 56.42         3.7 0.12            146            101 178 
 ZAR  HZ EP       1443 44.17                             122   -0.68 8  207 292 
 ZAR  HE ES       1444 10.69                             122    0.35 8  207 292 
 ZAR  HZ I        1444 15.77         8.2 0.32            123            207 292 
 NOR  HZ EP       1443 48.38                             118    0.19 8  238 235 
 NOR  HN ES       1444 16.11                             118   -0.19 8  238 235 
 NOR  HZ I        1444 22.51         2.1 0.20            119            238 235 
                                                                                
