 2016  229 1448  4.8 L   6.781 -73.127140.8  RSN  6 0.2 1.9LRSN                1
 GAP=140        0.60       2.7     2.7  4.3 -0.1035E+01  0.4529E+01 -0.1281E+01E
 Epicentro: LOS SANTOS - SANTANDER                                             3
 ACTION:UPD 16-03-04 21:30 OP:rebc STATUS:               ID:20160229144804 L   I
 OLDACT:REG 16-02-29 21:20 OP:ar   STATUS:               ID:20160229143751     3
 2016-02-29-1437-51M.COL___315                                                 6
 STAT SP IPHASW D HRMM SECON CODA AMPLIT PERI AZIMU VELO AIN AR TRES W  DIS CAZ7
 BAR2 EZ EP       1448 23.48                             171   -0.2810 21.8 196 
 BAR2 EZ ES       1448 38.29                             171   -0.2910 21.8 196 
 BAR2 EZ I        1448 39.31        16.2 0.34            171           21.8 196 
 PAM  EZ EP       1448 26.57                             150    0.1010 77.7  37 
 PAM  EN ES       1448 43.50                             150    0.1010 77.7  37 
 PAM  EZ I        1448 45.49        20.6 0.48            152           77.7  37 
 RUS  HZ EP       1448 27.83                             143   -0.0410 98.4 177 
 RUS  HN ES       1448 46.23                             143    0.3410 98.4 177 
 RUS  HZ I        1448 47.68         8.9 0.42            147           98.4 177 
 PTB  HZ EP       1448 31.28                             130   -0.20 9  149 260 
 PTB  HN ES       1448 52.53                             130    0.21 9  149 260 
 PTB  HZ I        1448 54.42         8.3 0.18            131            149 260 
 SPBC HZ EP       1448 33.14                             128    0.28 9  163 220 
 SPBC HN ES       1448 54.51                             128   -0.26 9  163 220 
 SPBC HZ I        1448 57.78         9.5 0.22            129            163 220 
 ZAR  HZ EP       1448 37.03                             121   -0.14 8  207 292 
 ZAR  HN ES       1449  2.62                             121    0.17 8  207 292 
 ZAR  HZ I        1449 10.51         8.2 0.24            121            207 292 
                                                                                
