 2016  129 1831 23.9 L   5.975 -73.839100.4  RSN  5 0.3 1.7LRSN                1
 GAP=148        0.71       3.4     2.7  8.3 -0.3757E+01  0.1245E+02 -0.4914E+01E
 Epicentro: BOLIVAR - SANTANDER                                                3
 ACTION:UPD 16-03-09 23:29 OP:cam  STATUS:               ID:20160129183123 L   I
 OLDACT:UP  16-02-23 20:56 OP:AR   STATUS:               ID:20160129183123 L   3
 OLDACT:REG 16-01-29 21:04 OP:ak   STATUS:               ID:20160129181229     3
 2016-01-29-1822-00M.COL___412                                                 6
 STAT SP IPHASW D HRMM SECON CODA AMPLIT PERI AZIMU VELO AIN AR TRES W  DIS CAZ7
 RUS  HZ EP       1831 41.86                             137   -0.2910 84.2  96 
 RUS  HN ES       1831 56.42                             137    0.0810 84.2  96 
 BAR2 EZ EP       1831 43.06                             131   -0.0910 99.7  47 
 BAR2 EZ ES       1831 58.44                             131    0.3010 99.7  47 
 NOR  HZ EP       1831 44.95                             125   -0.1810  123 248 
 NOR  HN ES       1832  1.24                             125   -0.4210  123 248 
 NOR  HZ I        1832  4.15        20.2 0.08            127            123 248 
 GUY2CHZ EP       1831 53.02                             113    0.30 9  188 244 
 GUY2CHN ES       1832 15.67                             113    0.51 9  188 244 
 GUY2CHZ I        1832 21.35         3.3 0.34                           188 244 
 ZAR  HZ EP   2   1831 53.69                             110    0.01 4  202 326 
 ZAR  HN ES       1832 16.80                             110   -0.08 9  202 326 
                                                                                
