 2016 1229 1724 55.0 L   6.451 -73.431 84.4  RSN  5 0.5 1.0LRSN                1
 GAP=127        0.92       7.5     5.7 10.9  0.2604E+02  0.4175E+02  0.3282E+02E
 Epicentro: SIMACOTA - SANTANDER                                               3
 ACTION:UPD 17-01-11 20:20 OP:rebc STATUS:               ID:20161229172455 L   I
 OLDACT:UP  16-12-30 00:40 OP:cog  STATUS:               ID:20161229171745d    3
 OLDACT:DUP 16-12-29 23:58 OP:cog  STATUS:               ID:20161229171745d    3
 2016-12-29-1718-00M.COL___371                                                 6
 STAT SP IPHASW D HRMM SECON CODA AMPLIT PERI AZIMU VELO AIN AR TRES W  DIS CAZ7
 BAR2 EZ EP   2   1725  6.32                             158   -1.31 5 31.6  60 
 BAR2 EZ ES       1725 17.48                             158   -0.0110 31.6  60 
 BAR2 EZ I        1725 34.43         7.1 0.60            167           31.6  60 
 RUS  HZ EP       1725 10.78                             136    0.0010 72.7 148 
 RUS  HN ES   2   1725 23.85                             136    0.75 5 72.7 148 
 RUS  HZ I        1725 32.30         1.3 0.34            156           72.7 148 
 BRR  HN ES   3   1725 23.89                             133    1.01 2 79.0 337 
 PTB  HZ EP       1725 14.38                             122    0.2710  114 275 
 PTB  HN ES       1725 28.60                             122   -0.4210  114 275 
 PTB  HZ I        1725 36.42         1.9 0.18            141            114 275 
 ZAR  HZ EP   4   1725 26.47                             108    3.21 0  195 306 
 ZAR  HN ES       1725 45.61                             108    0.30 9  195 306 
 ZAR  HZ I        1725 51.33         2.5 0.40            125            195 306 
                                                                                
