 2012  829 1622 40.9 L   6.788 -73.131145.1  RSN  6 0.4 2.3LRSN                1
 GAP=184        0.85       4.7     5.9  7.6  0.5539E+01  0.5197E+00 -0.1038E+02E
 Epicentro: LOS SANTOS - SANTANDER                                             3
 ACTION:UPD 12-09-10 11:59 OP:ep   STATUS:               ID:20120829162240 L   I
 2012-08-29-1620-00M.COL___218                                                 6
 STAT SP IPHASW D HRMM SECON CODA AMPLIT PERI AZIMU VELO AIN AR TRES W  DIS CAZ7
 BAR2 SZ EP       1623  0.46                             171    0.0710 22.4 195 
 BAR2 SZ ES   1   1623 15.16                             171   -0.46 7 22.4 195 
 BAR2 SZ I        1623 16.37       100.2 0.25                          22.4 195 
 BRR  HZ EP       1623  2.35                             152    0.3010 73.2 299 
 BRR  HN ES   1   1623 19.20                             152    0.62 7 73.2 299 
 BRR  HZ I        1623 23.69        61.7 0.15                          73.2 299 
 RUS  HZ EP   1   1623  4.51                             144    0.07 7 99.2 177 
 RUS  HN ES   1   1623 23.11                             144    0.27 7 99.2 177 
 RUS  HZ I        1623 24.75        13.8 0.31                          99.2 177 
 PTB  HZ EP   1   1623  7.39                             132   -0.50 7  149 259 
 PTB  HN ES   1   1623 28.17                             132   -0.81 7  149 259 
 PTB  HZ I        1623 31.03        23.1 0.20                           149 259 
 OCA  HZ EP       1623  9.08                             129   -0.18 9  162 353 
 OCA  HN ES   1   1623 31.00                             129   -0.41 7  162 353 
 ZAR  HZ EP   1   1623 13.73                             122    0.27 6  206 292 
 ZAR  HN ES   1   1623 39.42                             122    0.53 6  206 292 
 ZAR  HZ I        1623 44.68        16.8 0.15                           206 292 
                                                                                
