 2016 1129 1128 18.8 L   6.774 -73.131140.2  RSN  7 0.5 2.0LRSN                1
 GAP=159        1.27       6.7     5.8  8.5 -0.1040E+02  0.1211E+02  0.1396E+02E
 Epicentro: LOS SANTOS - SANTANDER                                             3
 ACTION:UPD 17-10-26 21:13 OP:lp   STATUS:               ID:20161129112820dL   I
 OLDACT:REG 16-12-02 00:48 OP:lv   STATUS:               ID:20161129111747     3
 2016-11-29-1118-00M.COL___348                                                 6
 STAT SP IPHASW D HRMM SECON CODA AMPLIT PERI AZIMU VELO AIN AR TRES W  DIS CAZ7
 BAR2 EZ EP       1128 37.83                             171    0.1610 20.9 196 
 BAR2 EZ ES       1128 52.38                             171   -0.0510 20.9 196 
 BAR2 EZ I        1128 55.56        20.6 0.34            170           20.9 196 
 BRR  HZ IP     C 1128 39.54                             151    0.0610 74.0 300 
 BRR  HN ES       1128 56.61                             151    0.9710 74.0 300 
 BRR  HZ I        1128 58.47         7.4 0.14            150           74.0 300 
 PAM  EZ EP       1128 40.54                             149    0.0810 78.6  37 
 PAM  EN ES       1128 56.88                             149   -0.5110 78.6  37 
 PAM  EZ I        1129  0.48       176.3 0.19            153           78.6  37 
 PTB  HZ EP       1128 44.86                             130   -0.52 9  149 260 
 PTB  HN ES       1129  5.43                             130   -0.71 9  149 260 
 PTB  HZ I        1129 11.59         4.5 0.15            131            149 260 
 ZAR  HZ EP       1128 51.89                             121    0.77 8  207 293 
 ZAR  HN ES       1129 15.68                             121   -0.68 8  207 293 
 ZAR  HZ I        1129 22.57         7.5 0.26            122            207 293 
 NOR  HE ES       1129 22.28                             117    0.55 8  234 235 
 PRA  HZ EP       1129 11.95                             106    0.06 6  390 210 
 PRA  HN ES       1129 53.06                             106   -0.28 6  390 210 
 PRA  HZ I        1130  0.01         4.1 0.34            107            390 210 
                                                                                
