 2010  529 1944  5.4 L   6.834 -73.376140.2  RSN  6 0.4 1.9LRSN                1
 GAP=173        0.82       5.4    21.8 10.9 -0.7865E+02  0.1265E+03 -0.1545E+02E
 Epicentro: SAN VICENTE DE CHUCURI - SANTANDER                                 3
 ACTION:UP  10-08-24 10:07 OP:vdl  STATUS:               ID:20100529194405 L   I
 2010-05-29-1940-33S.COL___109                                                 6
 STAT SP IPHASW D HRMM SECON CODA AMPLIT PERI AZIMU VELO SNR AR TRES W  DIS CAZ7
 GIR2 SZ EP   2   1944 24.67                             166     0.2 5   34  37 
 GIR2 SZ ES   3   1944 39.76                             166     0.4 2   34  37 
 BAR2 SZ EP       1944 24.57                             165     0.010   34 142 
 BAR2 SZ ES   2   1944 39.42                             165    -0.2 5   34 142 
 GUE  SZ EP       1944 29.31                             137    -0.610  121  24 
 GUE  SZ ES   2   1944 48.30                             137    -0.8 5  121  24 
 GRA  SZ EP       1944 31.27                             134     0.610  132  28 
 GRA  SZ ES   2   1944 50.99                             134     0.6 5  132  28 
 OCA  SZ EP       1944 32.80                             129     0.0 9  156   2 
 OCA  SZ ES   2   1944 54.43                             129     0.2 5  156   2 
 CHI  HZ EP       1944 42.49                             116    -0.1 8  247 189 
 CHI  HN ES   2   1945 12.02                             116     0.4 4  247 189 
 CHI  HZ I        1945 15.44         5.6 0.33                           247 189 
                                                                                
