 2016  329 1325 35.2 L   6.789 -73.171143.2  RSN 11 0.4 2.0LRSN                1
 GAP=134        0.92       3.1     3.6  5.7 -0.7429E-01  0.8983E+01  0.2557E+01E
 Epicentro: LOS SANTOS - SANTANDER                                             3
 ACTION:UPD 16-05-13 21:28 OP:cam  STATUS:               ID:20160329132535 L   I
 OLDACT:DUP 16-03-29 23:15 OP:ak   STATUS:               ID:20160329131750d    3
 2016-03-29-1317-49M.COL___312                                                 6
 STAT SP IPHASW D HRMM SECON CODA AMPLIT PERI AZIMU VELO AIN AR TRES W  DIS CAZ7
 BAR2 EZ EP       1325 54.54                             171    0.0910 21.8 183 
 BAR2 EZ ES       1326  9.75                             171    0.2610 21.8 183 
 BAR2 EZ I        1326 11.04        27.5 0.26            170           21.8 183 
 PAM  EZ EP       1325 57.39                             149    0.1210 80.2  41 
 PAM  EN ES       1326 14.72                             149    0.2010 80.2  41 
 PAM  EZ I        1326 17.79        10.7 0.49            153           80.2  41 
 RUS  HZ EP       1325 58.24                             143   -0.3410 99.6 174 
 RUS  HN ES       1326 16.44                             143   -0.4210 99.6 174 
 RUS  HZ I        1326 18.35        11.6 0.38            146           99.6 174 
 PTB  HZ EP       1326  0.89                             132   -0.75 9  145 259 
 PTB  HE ES       1326 22.10                             132   -0.20 9  145 259 
 PTB  HZ I        1326 28.87         8.5 0.14            131            145 259 
 ZAR  HZ EP       1326  7.89                             122    0.68 9  202 293 
 ZAR  HN ES       1326 32.46                             122    0.24 9  202 293 
 ZAR  HZ I        1326 37.80        15.7 0.34            122            202 293 
 NOR  HZ EP       1326 10.18                             118   -0.23 8  232 234 
 NOR  HN ES       1326 38.29                             118    0.38 8  232 234 
 NOR  HZ I        1326 46.98         6.3 0.22            119            232 234 
 CHI  HZ EP       1326 12.72                             117    0.22 8  247 195 
 CHI  HN ES       1326 41.50                             117   -0.13 8  247 195 
 CHI  HZ I        1326 47.30         6.1 0.28            118            247 195 
 GUY2CHZ EP   4   1326 19.59                             112    1.28 0  298 235 
 GUY2CHN ES       1326 52.06                             112    0.10 7  298 235 
 GUY2CHZ I        1327  0.84         5.4 0.58                           298 235 
 SOCV BZ EP   4   1326 16.41                             111   -2.02 0  304  57 
 SOCV BN ES   4   1326 48.88                             111   -3.31 0  304  57 
 MON  HZ EP   4   1326 21.55                             108   -2.34 0  352 309 
 MON  HE ES       1327  1.11                             108   -0.80 6  352 309 
 MON  HZ I        1327 15.07         3.9 0.56            109            352 309 
 ORTC HZ EP       1326 29.10                             106    0.42 6  393 216 
 ORTC HN ES       1327 11.11                             106    0.69 6  393 216 
 ORTC HZ I        1327 15.87         3.6 0.24            107            393 216 
 SJC  HZ EP   9   1326 28.18                             105   -2.40 0  409 327 
 SJC  HN ES       1327 10.78                                   -0.63 6  409 327 
 SJC  HZ I        1327 18.47         2.4 0.42            106            409 327 
 CRJC HZ EP   4   1326 34.34                             103   -3.42 0  469   4 
                                                                                
