 2010  429 1313 38.5 L   6.748 -73.030147.7  RSN  4 0.2 2.0LRSN                1
 GAP=211        0.41       7.8     6.5  7.3 -0.2231E+01 -0.2504E+02 -0.2079E+02E
 Epicentro: ARATOCA - SANTANDER                                                3
 ACTION:UPD 10-08-24 10:01 OP:vdl  STATUS:               ID:20100429131338 L   I
 2010-04-29-1310-23S.COL___104                                                 6
 STAT SP IPHASW D HRMM SECON CODA AMPLIT PERI AZIMU VELO SNR AR TRES W  DIS CAZ7
 BAR2 SZ EP   2   1313 58.26                             171    -0.2 5   24 224 
 BAR2 SZ ES   2   1314 13.95                             171     0.0 5   24 224 
 BRR  HZ IP     C 1314  0.77                             149     0.010   85 298 
 BRR  HZ I        1314  2.29        16.1 0.11                            85 298 
 BRR  HE ES   1   1314 17.98                             149    -0.1 7   85 298 
 BRI  SZ IP       1314  2.89                             142     0.110  110  14 
 GUE  SZ EP   2   1314  3.32                             139    -0.4 5  120   6 
                                                                                
