 2012  729 1214 14.5 L   6.681 -73.215152.2  RSN  5 0.4 1.5LRSN                1
 GAP=209        0.72       9.4     8.2  8.6  0.3845E+02  0.8263E+01 -0.3829E+01E
 Epicentro: VILLANUEVA - SANTANDER                                             3
 ACTION:UPD 12-08-14 11:46 OP:ep   STATUS:               ID:20120729121414 L   I
 2012-07-29-1210-00M.COL___215                                                 6
 STAT SP IPHASW D HRMM SECON CODA AMPLIT PERI AZIMU VELO AIN AR TRES W  DIS CAZ7
 BAR2 SZ EP       1214 34.67                             176    -0.110   10 160 
 BAR2 SZ I        1214 34.85         7.4 0.20            168             10 160 
 BAR2 SZ ES   2   1214 49.75                             176    -0.8 5   10 160 
 BRR  HZ EP       1214 36.42                             153     0.010   72 311 
 BRR  HN ES   1   1214 53.95                             153     0.4 7   72 311 
 RUS  HN ES   2   1214 57.22                             149     0.7 5   88 171 
 RUS  HZ I        1214 58.58         3.8 0.52            145             88 171 
 PTB  HZ EP   1   1214 41.03                             136    -0.2 7  138 264 
 PTB  HZ I        1214 44.09         2.8 0.26            130            138 264 
 PTB  HN ES   2   1215  1.76                             136    -0.2 5  138 264 
 ZAR  HZ EP   2   1214 47.41                             124     0.2 4  202 296 
 ZAR  HN ES   2   1215 12.75                             124     0.0 4  202 296 
 ZAR  HZ I        1215 18.76         4.0 0.32            121            202 296 
