 2013  629 1044 37.0 L   6.790 -73.147144.8  RSN 13 0.5 2.0LRSN                1
 GAP=137        1.17       3.8     5.0  6.8 -0.6019E+00  0.1074E+02  0.1044E+00E
 Epicentro: LOS SANTOS - SANTANDER                                             3
 ACTION:UPD 14-01-08 09:58 OP:ep   STATUS:               ID:20130629104437 L   I
 OLDACT:REG 13-06-29 15:50 OP:jn   STATUS:               ID:20130629103959     3
 2013-06-29-1039-59M.COL___267                                                 6
 STAT SP IPHASW D HRMM SECON CODA AMPLIT PERI AZIMU VELO AIN AR TRES W  DIS CAZ7
 BAR2 SZ EP       1044 56.72                             171    0.2010 22.2 190 
 BAR2 SZ ES       1045 11.59                             171   -0.1310 22.2 190 
 BAR2 SZ I        1045 12.86        29.6 0.44            168           22.2 190 
 GIR2 SZ EP       1044 56.77                             167    0.1510 32.4 351 
 BRR  HZ EP       1044 58.68                             152    0.5810 71.7 299 
 BRR  HN ES       1045 15.11                             152    0.5810 71.7 299 
 BRR  HZ I        1045 18.77        26.1 0.32            150           71.7 299 
 PAM  SZ EP       1044 59.54                             150    0.3410 78.3  39 
 PAM  SN ES       1045 16.36                             150   -0.1310 78.3  39 
 PAM  SZ I        1045 18.69        28.2 0.54            155           78.3  39 
 RUS  HZ EP       1045  0.69                             144    0.0910 99.4 176 
 RUS  HN ES       1045 18.76                             144   -0.2310 99.4 176 
 RUS  HZ I        1045 20.41        14.3 0.32            144           99.4 176 
 PTB  HZ EP       1045  3.23                             132   -0.66 9  147 259 
 PTB  HN ES   1   1045 24.16                             132   -0.68 7  147 259 
 PTB  HZ I        1045 26.82        12.6 0.42            131            147 259 
 OCA  HN ES   1   1045 26.45                             129   -1.03 7  161 353 
 ZAR  HZ EP       1045 10.55                             122    1.10 9  204 292 
 ZAR  HE ES       1045 35.02                             122    0.29 9  204 292 
 ZAR  HZ I        1045 41.42        23.2 0.28            122            204 292 
 NOR  HE ES   1   1045 40.40                             118    0.02 6  234 235 
 NOR  HZ I        1045 44.89         5.6 0.18            118            234 235 
 SML  HZ EP       1045 13.03                             117   -0.68 8  245 335 
 SML  HE ES   1   1045 41.24                             117   -1.08 6  245 335 
 CHI  HZ EP   1   1045 14.53                             117   -0.02 6  247 195 
 CHI  HN ES   1   1045 43.27                             117   -0.55 6  247 195 
 CHI  HZ I        1045 51.32         3.5 0.66            118            247 195 
 HEL  HZ EP   4   1045 19.01                             115    1.86 0  272 256 
 HEL  HN ES   4   1045 51.06                             115    2.62 0  272 256 
 HEL  HZ I        1045 55.08         3.7 0.38            115            272 256 
 GUY2CHZ EP   1   1045 20.67                             112    0.16 5  300 235 
 GUY2CHN ES   1   1045 54.08                             112   -0.34 5  300 235 
 GUY2CHZ I        1046  1.57         3.0 0.26                           300 235 
                                                                                
