 2012  729 1303 52.2 L   6.718 -73.183142.9  RSN  6 0.5 1.7LRSN                1
 GAP=135        1.09       9.5     8.7 11.1  0.3401E+02  0.5454E+00 -0.1485E+02E
 Epicentro: VILLANUEVA - SANTANDER                                             3
 ACTION:UPD 12-08-14 11:46 OP:ep   STATUS:               ID:20120729130352 L   I
 2012-07-29-1300-00M.COL___215                                                 6
 STAT SP IPHASW D HRMM SECON CODA AMPLIT PERI AZIMU VELO AIN AR TRES W  DIS CAZ7
 BAR2 SZ EP       13 4 11.35                             174     0.110   14 180 
 BAR2 SZ ES   1   13 4 25.50                             174    -0.7 7   14 180 
 BAR2 SZ I        13 4 27.42        12.4 0.48            171             14 180 
 BRR  HZ EP       13 4 13.11                             152     0.010   73 306 
 BRR  HZ I        13 4 13.30        19.8 0.17            149             73 306 
 BRR  HN ES   1   13 4 30.26                             152     0.9 7   73 306 
 PAM  SZ EP   2   13 4 14.05                             147    -0.6 5   87  38 
 RUS  HZ EP   1   13 4 15.54                             146     0.5 7   92 173 
 RUS  HE ES   1   13 4 32.90                             146     0.1 7   92 173 
 RUS  HZ I        13 4 35.42         7.3 0.26            146             92 173 
 PTB  HZ EP   1   13 4 18.07                             133    -0.3 7  142 262 
 PTB  HN ES   1   13 4 38.58                             133    -0.3 7  142 262 
 PTB  HZ I        13 4 41.62         3.1 0.24            131            142 262 
 ZAR  HN ES   2   13 4 49.02                             122    -0.5 4  204 295 
 ZAR  HZ I        13 4 55.15         5.1 0.09            121            204 295 
