 2017  729 1103 54.2 L   6.887 -73.321122.5  RSN 20 0.7 2.6LRSN                1
 GAP= 85        1.54       4.3     3.4  7.0  0.1194E+01  0.6994E+01  0.4493E+01E
 Epicentro: BETULIA - SANTANDER                                                3
 ACTION:UPD 17-08-30 15:38 OP:rebc STATUS:               ID:20170729110354 L   I
 OLDACT:UP  17-07-29 21:57 OP:ar   STATUS:               ID:20170729105740     3
 OLDACT:UP  17-07-29 21:51 OP:ar   STATUS:               ID:20170729105740     3
 OLDACT:UP  17-07-29 21:44 OP:ar   STATUS:               ID:20170729105740     3
 OLDACT:REG 17-07-29 18:08 OP:ar   STATUS:               ID:20170729105740     3
 2017-07-29-1058-00M.COL___386                                                 6
 STAT SP IPHASW D HRMM SECON CODA AMPLIT PERI AZIMU VELO AIN AR TRES W  DIS CAZ7
 BAR2 EZ IP     D 11 4 11.24                             163   -0.1510 36.0 155 
 BAR2 EZ ES       11 4 24.06                             163   -0.7610 36.0 155 
 BRR  HZ IP     C 11 4 11.63                             156    0.0110 49.6 300 
 BRR  HN ES       11 4 25.79                             156    0.5710 49.6 300 
 BRR  HZ I        11 4 26.93       103.8 0.12            156           49.6 300 
 PAM  EZ EP       11 4 14.81                             143    0.3110 85.0  54 
 PAM  EN ES       11 4 30.89                             143    0.5310 85.0  54 
 PAM  EZ I        11 4 32.84       101.8 0.22            140           85.0  54 
 RUS  HZ EP       11 4 16.30                             135   -0.4510  113 166 
 RUS  HE ES       11 4 34.12                             135   -0.2510  113 166 
 RUS  HZ I        11 4 34.62        52.4 0.26            130            113 166 
 PTB  HZ IP     C 11 4 16.51                             130   -1.2410  131 253 
 PTB  HE ES       11 4 35.83                             130   -0.3210  131 253 
 PTB  HZ I        11 4 38.18        74.0 0.14            127            131 253 
 SPBC HZ EP       11 4 20.53                             124   -0.12 9  160 211 
 SPBC HN ES       11 4 40.08                             124   -1.22 9  160 211 
 SPBC HZ I        11 4 42.24        65.6 0.14            120            160 211 
 TAM  HZ EP       11 4 22.17                             121   -0.13 9  176 106 
 TAM  HZ I        11 4 43.30        19.6 0.30            117            176 106 
 TAM  HN ES       11 4 44.32                             121    0.08 9  176 106 
 ZAR  HZ EP       11 4 23.08                             120    0.19 9  182 292 
 ZAR  HN ES       11 4 46.31                             120    1.02 9  182 292 
 ZAR  HZ I        11 4 48.01        81.4 0.16            117            182 292 
 YPLC HZ EP       11 4 24.25                             118   -0.06 9  195 148 
 YPLC HE ES       11 4 48.70                             118    0.88 9  195 148 
 YPLC HZ I        11 4 50.23       129.0 0.32            114            195 148 
 NOR  HZ EP     D 11 4 27.48                             114   -0.13 8  225 230 
 NOR  HE ES       11 4 53.72                             114    0.03 8  225 230 
 NOR  HZ I        11 5  2.08        24.9 0.54            111            225 230 
 ROSC BZ EP   4   11 4 32.44                             111    1.41 0  252 206 
 ROSC BE ES   4   11 5  3.93                             111    4.15 0  252 206 
 ROSC BZ I        11 5 13.04        16.2 0.35            108            252 206 
 CHI  HZ EP       11 4 31.83                             111    0.57 8  254 190 
 CHI  HN ES       11 5  0.17                             111   -0.02 8  254 190 
 CHI  HZ I        11 5  7.11        10.8 0.30            108            254 190 
 HEL  HZ EP       11 4 32.43                             111    0.97 8  256 253 
 HEL  HN ES       11 5  1.22                             111    0.67 8  256 253 
 HEL  HZ I        11 5  5.46        26.0 0.54            108            256 253 
 URE  HZ EP       11 4 30.67                             110   -1.06 8  262 292 
 URE  HN ES   4   11 4 59.31                             110   -1.72 0  262 292 
 URE  HZ I        11 5  1.01        50.7 0.16            108            262 292 
 GUY2CHZ EP       11 4 36.73                             108    1.05 7  291 231 
 GUY2CHE ES       11 5  9.50                             108    1.44 7  291 231 
 GUY2CHZ I        11 5 14.71        22.6 0.40                           291 231 
 DBB  EZ EP   4   11 4 39.96                             106    1.50 0  319 273 
 DBB  EN ES       11 5 12.47                             106   -0.53 7  319 273 
 DBB  EZ I        11 5 15.48        15.7 0.16            103            319 273 
 PTGC HZ EP   9   11 4 37.38                             106   -1.62 0  325 156 
 PTGC HN ES       11 5 12.44                             106    0.09 7  325 156 
 PTGC HZ I        11 5 14.67        18.8 0.42            103            325 156 
 SJC  HZ EP       11 4 45.40                             102   -1.46 6  391 329 
 SJC  HN ES   4   11 5 25.29                             102   -2.66 0  391 329 
 SJC  HZ I        11 5 30.85        10.0 0.26            100            391 329 
 ORTC HZ EP   4   11 4 50.44                             102    3.43 0  392 213 
 ORTC HN ES   4   11 5 30.79                             102    2.56 0  392 213 
 ORTC HZ I        11 5 31.96         6.2 0.26             99            392 213 
 PAL  HZ EP       11 4 47.57                             102    0.27 6  394 236 
 PAL  HE ES       11 5 28.48                             102   -0.26 6  394 236 
 PAL  HZ I        11 5 30.58         9.5 0.19             99            394 236 
 SMAR HE ES   4   11 5 45.36                              99   -2.22 0  483 348 
                                                                                
