 2016  529 1630 39.4 L   6.787 -73.135150.6  RSN  6 0.4 1.7LRSN                1
 GAP=138        1.14       5.5     5.8  7.7 -0.8142E+01  0.5735E+01  0.4410E+01E
 Epicentro: LOS SANTOS - SANTANDER                                             3
 ACTION:UPD 16-08-18 17:50 OP:cam  STATUS:               ID:20160529163039 L   I
 OLDACT:DUP 16-05-29 23:58 OP:ar   STATUS:               ID:20160529161748d    3
 OLDACT:REG 16-05-29 22:45 OP:ar   STATUS:               ID:20160529161746     3
 2016-05-29-1617-46M.COL___316                                                 6
 STAT SP IPHASW D HRMM SECON CODA AMPLIT PERI AZIMU VELO AIN AR TRES W  DIS CAZ7
 BAR2 EZ EP       1630 59.39                             171   -0.1910 22.2 194 
 BAR2 EZ ES       1631 15.11                             171   -0.2110 22.2 194 
 BAR2 EZ I        1631 16.01        10.2 0.44            171           22.2 194 
 BRR  HZ EP       1631  1.19                             153    0.0310 72.9 299 
 BRR  HN ES       1631 19.09                             153    0.9610 72.9 299 
 BRR  HZ I        1631 21.86         8.9 0.16            152           72.9 299 
 PAM  EZ EP       1631  2.22                             151    0.0710 77.8  38 
 PAM  EN ES       1631 19.38                             151   -0.5110 77.8  38 
 PAM  EZ I        1631 21.39        14.5 0.56            154           77.8  38 
 RUS  HZ EP       1631  3.97                             145    0.4510 99.1 177 
 RUS  HN ES       1631 22.48                             145    0.1510 99.1 177 
 RUS  HZ I        1631 24.09         2.9 0.34            147           99.1 177 
 PTB  HZ EP       1631  6.32                             133   -0.52 9  149 259 
 PTB  HN ES       1631 27.83                             133   -0.41 9  149 259 
 PTB  HZ I        1631 32.63         6.5 0.58            133            149 259 
 SPBC HZ EP       1631  8.67                             130    0.44 9  163 220 
 SPBC HN ES       1631 30.35                             130   -0.37 9  163 220 
 SPBC HZ I        1631 33.07         6.7 0.34            131            163 220 
                                                                                
