 2011 1129 1712 10.3 L   6.761 -73.128138.4  RSN  6 0.1 1.8LRSN                1
 GAP=141        0.38       2.4     3.2  3.4 -0.1275E+01  0.4475E+00 -0.7042E+00E
 Epicentro: LOS SANTOS - SANTANDER                                             3
 ACTION:UPD 12-07-13 16:13 OP:ep   STATUS:               ID:20111129171210 L   I
 2011-11-29-1710-00M.COL___181                                                 6
 STAT SP IPHASW D HRMM SECON CODA AMPLIT PERI AZIMU VELO AIN AR TRES W  DIS CAZ7
 BAR2 SZ EP       1712 28.97                             172   -0.0510 19.5 198 
 BAR2 SZ ES       1712 43.42                             172   -0.1610 19.5 198 
 BAR2 SZ I        1712 44.67        16.1 0.37                          19.5 198 
 GIR2 SZ EP   1   1712 29.16                             165   -0.12 7 35.9 348 
 BRR  HZ EP       1712 30.96                             150    0.0310 75.0 301 
 BRR  HE ES   1   1712 47.19                             150    0.20 7 75.0 301 
 BRR  HE I        1712 48.04        40.1 0.21                          75.0 301 
 PAM  SZ EP       1712 32.06                             149    0.1310 79.6  36 
 PAM  SE ES   1   1712 48.64                             149   -0.12 7 79.6  36 
 RUS  HZ EP   1   1712 33.04                             143   -0.01 7 96.1 177 
 RUS  HE ES   1   1712 51.00                             143    0.24 7 96.1 177 
 RUS  HZ I        1712 53.69         4.3 0.40                          96.1 177 
 NOR  SN ES   2   1713 12.70                             117   -0.32 4  234 236 
                                                                                
