 2010  729 1845 35.7 L   6.593 -73.070146.5  RSN  6 0.5 1.9LRSN                1
 GAP=169        1.13      10.9    16.1 12.8 -0.2064E+02  0.4822E+02 -0.1192E+02E
 Epicentro: CURITI - SANTANDER                                                 3
 ACTION:UPD 10-12-01 15:21 OP:pat  STATUS:               ID:20100729184535 L   I
 2010-07-29-1842-18S.COL___123                                                 6
 STAT SP IPHASW D HRMM SECON CODA AMPLIT PERI AZIMU VELO AIN AR TRES W  DIS CAZ7
 BAR2 SZ IP     C 1845 55.71                             175     0.510   13 270 
 BAR2 SZ ES   2   1846 10.98                             175     0.5 5   13 270 
 BAR2 SZ I        1846 11.80        18.6 0.24                            13 270 
 RUS  HN ES   2   1846 14.62                             151    -0.7 5   77 181 
 RUS  HZ I        1846 18.77         5.9 0.23                            77 181 
 BRR  HZ EP   1   1845 57.55                             147    -0.6 7   91 309 
 BRR  HZ I        1845 58.01        33.3 0.11                            91 309 
 BRR  HE ES   2   1846 15.16                             147    -0.5 5   91 309 
 GRA  SZ EP   1   1846  2.52                             133    -0.2 7  146  12 
 GRA  SZ I        1846 23.60         6.7 0.55                           146  12 
 HEL  HZ EP   1   1846 16.81                             115     0.5 6  276 261 
 HEL  HZ I        1846 55.12         4.9 0.64                           276 261 
 PRA  HZ EP   1   1846 26.92                             107    -0.5 5  377 212 
 PRA  HZ I        1847 14.50         2.2 0.45                           377 212 
                                                                                
