 2013 1129 1247 32.4 L   7.031 -73.501110.1  RSN  6 0.4 1.8LRSN                1
 GAP= 99        0.94       5.6     4.7  7.4 -0.3683E+01  0.1051E+02 -0.1076E+02E
 Epicentro: SAN VICENTE DE CHUCURI - SANTANDER                                 3
 ACTION:UPD 14-01-09 16:31 OP:ep   STATUS:               ID:20131129124732 L   I
 OLDACT:REG 13-11-29 15:27 OP:cam  STATUS:               ID:20131129124000     3
 2013-11-29-1240-00M.COL___282                                                 6
 STAT SP IPHASW D HRMM SECON CODA AMPLIT PERI AZIMU VELO AIN AR TRES W  DIS CAZ7
 BRR  HZ EP       1247 47.45                             166   -0.0210 24.8 290 
 BRR  HN ES       1247 59.20                             166   -0.0110 24.8 290 
 BRR  HZ I        1247 59.77        22.3 0.12            163           24.8 290 
 BAR2 SZ EP   1   1247 49.87                             150    0.42 7 59.9 144 
 BAR2 SZ ES   1   1248  2.91                             150    0.18 7 59.9 144 
 BAR2 SZ I        1248  5.35        16.5 0.36            155           59.9 144 
 PAM  SZ EP   1   1247 52.47                             137    0.09 7 94.9  69 
 PAM  SE ES   1   1248  7.55                             137   -0.40 7 94.9  69 
 PAM  SZ I        1248  9.30         7.8 0.18            138           94.9  69 
 PTB  HZ EP       1247 53.16                             129   -0.7210  119 243 
 PTB  HN ES   1   1248 10.62                             129    0.01 7  119 243 
 PTB  HZ I        1248 12.57         6.3 0.16            131            119 243 
 ZAR  HZ EP       1247 58.60                             120    0.75 9  158 289 
 ZAR  HN ES   4   1248 19.82                             120    2.15 0  158 289 
 ZAR  HZ I        1248 20.62        11.6 0.26            120            158 289 
 SML  HZ EP   2   1248  2.14                             113   -0.85 4  206 342 
 SML  HE ES   1   1248 27.00                             113    0.16 6  206 342 
 SML  HZ I        1248 34.24        15.1 0.10            113            206 342 
                                                                                
