 2011 1029 1602 31.0 L   6.768 -73.099142.1  RSN  5 0.2 1.8LRSN                1
 GAP=144        0.40       3.6     4.1  5.5  0.2518E+01  0.8102E+00  0.7396E-02E
 Epicentro: LOS SANTOS - SANTANDER                                             3
 ACTION:UPD 12-07-13 16:06 OP:ep   STATUS:               ID:20111029160231 L   I
 2011-10-29-1558-21S.COL___157                                                 6
 STAT SP IPHASW D HRMM SECON CODA AMPLIT PERI AZIMU VELO AIN AR TRES W  DIS CAZ7
 BAR2 SZ EP   1   16 2 49.96                             171   -0.19 7 21.5 205 
 BAR2 SZ ES   2   16 3  5.05                             171   -0.04 5 21.5 205 
 BAR2 SZ I        16 3  6.16        22.8 0.29                          21.5 205 
 PAM  SZ EP   1   16 2 52.98                             150    0.17 7 77.1  35 
 PAM  SN ES   2   16 3  9.52                             150   -0.30 5 77.1  35 
 BRR  HZ EP   1   16 2 52.16                             150    0.04 7 77.5 299 
 BRR  HZ I        16 2 57.61        16.7 0.52                          77.5 299 
 BRR  HE ES   2   16 3  9.04                             150    0.43 5 77.5 299 
 RUS  HZ EP   1   16 2 54.19                             144    0.07 7 96.8 179 
 RUS  HN ES   2   16 3 12.12                             144   -0.03 5 96.8 179 
 RUS  HZ I        16 3 13.82         5.7 0.37                          96.8 179 
 ZAR  HN ES   2   16 3 29.09                             121   -0.38 4  210 293 
 ZAR  HZ I        16 3 34.41         5.3 0.61                           210 293 
                                                                                
