 2016  329 1052 19.6 L   6.775 -73.140139.4  RSN  4 0.1 1.2LRSN                1
 GAP=138        0.40       2.1     2.5  3.7  0.2618E+00  0.2905E+01 -0.9091E+00E
 Epicentro: LOS SANTOS - SANTANDER                                             3
 ACTION:UPD 16-05-13 21:28 OP:cam  STATUS:               ID:20160329105219 L   I
 OLDACT:REG 16-03-29 20:07 OP:ak   STATUS:               ID:20160329104749     3
 2016-03-29-1047-49M.COL___306                                                 6
 STAT SP IPHASW D HRMM SECON CODA AMPLIT PERI AZIMU VELO AIN AR TRES W  DIS CAZ7
 BAR2 EZ EP   2   1052 38.51                             171    0.08 5 20.7 193 
 BAR2 EZ ES       1052 52.98                             171   -0.1310 20.7 193 
 BAR2 EZ I        1052 54.62         4.4 0.38            172           20.7 193 
 PAM  EZ EP       1052 41.37                             149    0.1010 79.2  38 
 PAM  EE ES       1052 58.16                             149   -0.0110 79.2  38 
 PAM  EZ I        1053  0.81         3.3 0.42            151           79.2  38 
 RUS  HZ EP       1052 42.33                             143   -0.2110 97.8 176 
 RUS  HE ES       1053  0.62                             143    0.2010 97.8 176 
 RUS  HZ I        1053  1.85         1.4 0.42            147           97.8 176 
 ZAR  HZ EP   2   1052 51.84                             121    0.02 4  206 293 
 ZAR  HN ES       1053 16.98                             121    0.04 8  206 293 
 ZAR  HZ I        1053 22.58         2.0 0.17            121            206 293 
                                                                                
