 2014  729 1720 55.8 L   6.810 -73.115144.0  RSN  8 0.4 2.0LRSN                1
 GAP=247        0.87       4.1     4.4  5.6  0.4313E+01  0.6928E+01  0.4206E+00E
 Epicentro: LOS SANTOS - SANTANDER                                             3
 ACTION:UPD 15-03-16 20:48 OP:nd   STATUS:               ID:20140729172055 L   I
 OLDACT:REG 14-07-29 21:36 OP:carl STATUS:               ID:20140729171819     3
 2014-07-29-1718-19M.COL___254                                                 6
 STAT SP IPHASW D HRMM SECON CODA AMPLIT PERI AZIMU VELO AIN AR TRES W  DIS CAZ7
 BAR2 SZ EP       1721 15.78                             170    0.5110 25.2 197 
 BAR2 SZ ES       1721 30.32                             170   -0.1310 25.2 197 
 BAR2 SZ I        1721 32.48        11.7 0.40            165           25.2 197 
 RUS  HZ EP       1721 19.55                             143    0.0910  102 178 
 RUS  HN ES       1721 37.88                             143   -0.0310  102 178 
 RUS  HZ I        1721 39.86         4.6 0.20            144            102 178 
 PTB  HZ EP       1721 22.45                             131   -0.51 9  151 259 
 PTB  HN ES       1721 44.05                             131   -0.09 9  151 259 
 PTB  HZ I        1721 49.77        14.0 0.38            130            151 259 
 SPBC HZ EP       1721 24.48                             128    0.01 9  166 220 
 SPBC HN ES       1721 46.81                             128   -0.01 9  166 220 
 SPBC HZ I        1721 53.97        21.2 0.32            128            166 220 
 ZAR  HZ EP       1721 28.73                             122    0.30 8  207 291 
 ZAR  HE ES       1721 53.87                             122    0.00 8  207 291 
 ZAR  HZ I        1722  0.33        13.0 0.48            123            207 291 
 NOR  HZ EP       1721 30.81                             118   -1.00 8  238 235 
 NOR  HN ES       1721 59.94                             118    0.05 8  238 235 
 NOR  HZ I        1722  3.48         9.3 0.18            119            238 235 
 CHI  HZ EP       1721 33.50                             117   -0.13 8  251 196 
 CHI  HN ES       1722  3.10                             117   -0.03 8  251 196 
 CHI  HZ I        1722  8.88         4.0 0.44            118            251 196 
 GUY2CHZ EP       1721 40.29                             112    0.56 7  305 235 
 GUY2CHE ES       1722 14.60                             112    0.61 7  305 235 
 GUY2CHZ I        1722 23.01         5.3 0.28                           305 235 
                                                                                
