 2010  929 1047 56.3 L   6.781 -73.082143.5  RSN  9 0.5 2.4LRSN                1
 GAP=166        1.21       4.9     8.1  8.3 -0.5616E+01  0.4711E+01 -0.3508E+01E
 Epicentro: LOS SANTOS - SANTANDER                                             3
 ACTION:UP  11-02-18 11:06 OP:tino STATUS:               ID:20100929104756 L   I
 2010-09-29-1043-27S.COL___125                                                 6
 STAT SP IPHASW D HRMM SECON CODA AMPLIT PERI AZIMU VELO SNR AR TRES W  DIS CAZ7
 BAR2 SZ EP       1048 15.84                             170     0.210   24 208 
 BAR2 SZ ES   1   1048 30.38                             170    -0.4 7   24 208 
 BAR2 SZ I        1048 32.11        96.2 0.29                            24 208 
 GIR2 SZ EP       1048 15.93                             165     0.110   35 339 
 BRR  HZ EP       1048 17.77                             150     0.210   79 297 
 BRR  HN ES       1048 34.73                             150     0.510   79 297 
 BRR  HZ I        1048 35.78        62.1 0.15                            79 297 
 RUS  HZ EP       1048 19.77                             144     0.110   98 180 
 RUS  HN ES       1048 37.73                             144    -0.110   98 180 
 RUS  HZ I        1048 39.25        29.4 0.57                            98 180 
 GRA  SZ EP       1048 20.67                             136    -0.710  126  14 
 GRA  SZ I        1048 41.38        36.2 0.23                           126  14 
 OCA  SZ EP       1048 24.67                             128     0.0 9  163 351 
 OCA  SZ ES   1   1048 46.92                             128     0.0 7  163 351 
 OCA  SZ I        1048 50.92        48.5 0.15                           163 351 
 NOR  SZ EP       1048 32.40                             117     0.0 8  239 236 
 NOR  SN ES   1   1048 59.41                             117    -1.1 6  239 236 
 NOR  SZ I        1049  2.12         3.0 0.37                           239 236 
 HEL  HN ES   2   1049  7.86                             114    -1.1 4  278 257 
 HEL  HZ I        1049 14.29        15.9 0.12                           278 257 
 TOL  SZ EP       1048 45.85                             109     1.0 6  347 226 
                                                                                
