 2016  229 1541 40.9 L   6.769 -73.182140.7  RSN  9 0.6 2.2LRSN                1
 GAP=133        1.42       5.2     5.5  9.4 -0.1634E+01  0.2392E+02 -0.8649E+01E
 Epicentro: LOS SANTOS - SANTANDER                                             3
 ACTION:UPD 16-03-04 21:30 OP:rebc STATUS:               ID:20160229154140 L   I
 OLDACT:REG 16-02-29 21:29 OP:ar   STATUS:               ID:20160229153747     3
 2016-02-29-1537-47M.COL___318                                                 6
 STAT SP IPHASW D HRMM SECON CODA AMPLIT PERI AZIMU VELO AIN AR TRES W  DIS CAZ7
 BAR2 EZ EP       1541 59.76                             172   -0.0710 19.6 180 
 BAR2 EZ ES       1542 14.74                             172    0.1310 19.6 180 
 BAR2 EZ I        1542 15.96        50.8 0.20            171           19.6 180 
 PAM  EZ EP       1542  2.89                             148    0.0110 82.6  40 
 PAM  EN ES       1542 20.03                             148   -0.0210 82.6  40 
 PAM  EZ I        1542 22.33        36.6 0.44            151           82.6  40 
 RUS  HZ EP       1542  3.51                             144   -0.4110 97.6 174 
 RUS  HN ES       1542 22.08                             144    0.1910 97.6 174 
 RUS  HZ I        1542 23.49        18.1 0.32            145           97.6 174 
 PTB  HZ EP       1542  6.47                             132   -0.54 9  143 260 
 PTB  HN ES       1542 26.53                             132   -0.87 9  143 260 
 PTB  HZ I        1542 28.52        24.3 0.10            133            143 260 
 SPBC HZ EP       1542  8.65                             129    0.15 9  158 219 
 SPBC HN ES       1542 30.05                             129    0.01 9  158 219 
 SPBC HZ I        1542 32.76        23.1 0.10            130            158 219 
 ZAR  HZ EP       1542 13.82                             122    1.08 9  202 293 
 ZAR  HN ES       1542 38.52                             122    0.92 9  202 293 
 ZAR  HZ I        1542 40.63        23.3 0.42            123            202 293 
 NOR  HZ EP       1542 14.93                             118   -0.82 8  229 235 
 NOR  HN ES       1542 44.03                             118    1.08 8  229 235 
 NOR  HZ I        1542 48.74        11.8 0.30            119            229 235 
 URE  HN ES       1542 52.37                             113   -0.69 7  281 293 
 MON  HZ EP       1542 30.43                             108    0.87 6  353 309 
 MON  HN ES       1543  6.74                             108   -0.80 6  353 309 
 MON  HZ I        1543  7.42         4.5 0.32            109            353 309 
                                                                                
