 2011 1029 1010  9.8 L   6.806 -73.101144.0  RSN 15 0.3 2.8LRSN                1
 GAP=118        0.46       2.0     2.6  4.1 -0.1568E+00  0.3511E+01  0.1953E+01E
 Epicentro: LOS SANTOS - SANTANDER                                             3
 ACTION:UPD 12-07-13 16:06 OP:ep   STATUS:               ID:20111029101009 L   I
 2011-10-29-1008-36S.COL___157                                                 6
 STAT SP IPHASW D HRMM SECON CODA AMPLIT PERI AZIMU VELO AIN AR TRES W  DIS CAZ7
 BTL  SZ EP   2   1010 29.54                             171    0.30 5 22.2 304 
 BAR2 SZ IP       1010 29.21                             170   -0.0910 25.3 201 
 BAR2 SZ ES   2   1010 44.09                             170   -0.39 5 25.3 201 
 PAM  SZ IP       1010 31.96                             152    0.3010 73.8  37 
 PAM  SN ES   2   1010 49.01                             152    0.33 5 73.8  37 
 BRR  HZ IP     D 1010 31.08                             151    0.0410 75.2 296 
 BRR  HE ES   2   1010 48.01                             151    0.44 5 75.2 296 
 BRR  HZ I        1010 52.37        83.1 0.15                          75.2 296 
 RUS  HZ IP     D 1010 33.13                             143   -0.3310  101 179 
 RUS  HN ES   2   1010 51.52                             143   -0.35 5  101 179 
 RUS  HZ I        1010 53.80        61.7 0.48                           101 179 
 OCA  SZ EP   1   1010 37.73                             129   -0.29 7  160 351 
 OCA  SZ ES   2   1010 59.45                             129   -0.54 5  160 351 
 OCA  SZ I        1011  5.22        69.8 0.24                           160 351 
 YOP  SZ EP   1   1010 39.99                             126    0.38 7  177 155 
 YOP  SE ES   2   1011  3.15                             126    0.32 4  177 155 
 ZAR  HZ EP   1   1010 42.50                             121   -0.12 6  208 291 
 ZAR  HN ES   2   1011  8.02                             121   -0.17 4  208 291 
 ZAR  HZ I        1011 13.88        59.3 0.45                           208 291 
 NOR  SZ EP   2   1010 45.82                             118   -0.13 4  239 235 
 NOR  SN ES   2   1011 14.13                             118    0.02 4  239 235 
 HEL  HZ EP   1   1010 50.67                             114    0.15 6  277 256 
 HEL  HN ES   2   1011 22.86                             114    0.62 4  277 256 
 HEL  HZ I        1011 28.86        42.7 0.48                           277 256 
 VIL  SZ EP   2   1010 53.38                             111    0.01 4  305 192 
 VIL  SE ES   2   1011 27.12                             111   -0.21 4  305 192 
 VIL  SZ I        1011 33.40        19.4 0.60                           305 192 
 GUY  SZ EP   1   1010 54.46                             111    0.32 5  308 235 
 GUY  SN ES   2   1011 28.57                             111   -0.12 4  308 235 
 GUY  SZ I        1011 36.43        57.2 0.32                           308 235 
 RREF HZ EP   1   1010 56.14                             110   -0.25 5  326 230 
 RREF HE ES   2   1011 33.16                             110    0.47 3  326 230 
 RREF HZ I        1011 41.56        27.4 0.34                           326 230 
 TOL  SZ EP   2   1010 58.06                             109   -0.43 3  347 225 
 TOL  SZ ES   2   1011 36.23                             109   -0.20 3  347 225 
 PRA  HZ EP   2   1011  3.59                             106   -0.07 3  395 210 
 PRA  HN ES   2   1011 45.69                             106    0.05 3  395 210 
                                                                                
