 2012  129 1146  7.3 L   7.417 -73.438112.6  RSN  7 0.3 1.7LRSN                1
 GAP= 95        0.66       3.5     3.8  6.4 -0.1675E+01  0.4162E+01  0.1620E+01E
 Epicentro: SABANA DE TORRES - SANTANDER                                       3
 ACTION:UP  12-02-03 08:21 OP:REBC STATUS:               ID:20120129114607 L   I
 2012-01-29-1140-00M.COL___188                                                 6
 STAT SP IPHASW D HRMM SECON CODA AMPLIT PERI AZIMU VELO SNR AR TRES W  DIS CAZ7
 BRR  HZ EP       1146 23.45                             156     0.010   46 221 
 BRR  HZ I        1146 24.01        13.5 0.30                            46 221 
 BRR  HE ES   1   1146 36.19                             156     0.2 7   46 221 
 GIR2 SZ EP       1146 23.58                             156    -0.110   46 144 
 PAM  SZ EP       1146 26.51                             142     0.110   82  96 
 PAM  SN ES   1   1146 41.42                             142     0.1 7   82  96 
 OCA  SZ EP       1146 26.97                             138     0.210   92   8 
 OCA  SZ ES   1   1146 41.48                             138    -0.4 7   92   8 
 OCA  SZ I        1146 43.95        32.9 0.27                            92   8 
 BAR2 SZ EP       1146 27.32                             137     0.210   96 163 
 BAR2 SZ ES   2   1146 42.29                             137    -0.4 5   96 163 
 BAR2 SZ I        1146 44.80        11.8 0.24                            96 163 
 PTB  HZ EP       1146 31.48                             123    -0.4 9  149 229 
 PTB  HZ I        1146 56.20         3.1 0.52                           149 229 
 ZAR  HE ES   2   1146 53.05                             121     0.5 5  157 273 
 ZAR  HZ I        1146 57.21         5.1 0.28                           157 273 
                                                                                
