 2014  329 1901 46.7 L   6.795 -73.158144.9  RSN 22 0.4 2.9LRSN                1
 GAP= 71        0.92       2.2     2.7  4.5 -0.7406E-01  0.1701E+01  0.4271E+00E
 Epicentro: LOS SANTOS - SANTANDER                                             3
 ACTION:UPD 14-04-09 23:21 OP:nd   STATUS:               ID:20140329190146 L   I
 OLDACT:REG 14-03-29 15:59 OP:nd   STATUS:               ID:20140329190035     3
 2014-03-29-1900-35M.COL___256                                                 6
 STAT SP IPHASW D HRMM SECON CODA AMPLIT PERI AZIMU VELO AIN AR TRES W  DIS CAZ7
 BAR2 SZ IP     D 19 2  6.22                             171    0.0410 22.6 187 
 BAR2 SZ ES       19 2 21.07                             171   -0.3310 22.6 187 
 BAR2 SZ I        19 2 22.77       442.9 0.32            170           22.6 187 
 BRR  HZ IP     D 19 2  8.05                             153    0.3810 70.3 299 
 BRR  HN ES       19 2 24.70                             153    0.6510 70.3 299 
 BRR  HZ I        19 2 29.01       171.3 0.44            148           70.3 299 
 PAM  SZ EP     D 19 2  9.02                             150    0.1610 78.6  40 
 PAM  SN ES       19 2 26.07                             150   -0.1110 78.6  40 
 PAM  SZ I        19 2 28.36       133.4 0.56            151           78.6  40 
 RUS  HZ IP     C 19 2 10.18                             144   -0.1210  100 175 
 RUS  HN ES       19 2 28.86                             144    0.1210  100 175 
 RUS  HZ I        19 2 30.33        64.6 0.26            144            100 175 
 PTB  HZ EP   1   19 2 12.95                             132   -0.48 7  146 259 
 PTB  HN ES       19 2 33.53                             132   -0.79 9  146 259 
 PTB  HZ I        19 2 38.47        76.1 0.22            129            146 259 
 TAM  HZ EP       19 2 14.65                             130    0.27 9  156 105 
 TAM  HN ES       19 2 35.92                             130   -0.08 9  156 105 
 TAM  HZ I        19 2 37.76        39.3 0.46            132            156 105 
 OCA  HZ EP       19 2 14.25                             129   -0.69 9  161 354 
 OCA  HN ES       19 2 36.63                             129   -0.37 9  161 354 
 OCA  HZ I        19 2 42.85        62.7 0.24            127            161 354 
 SPBC HZ EP       19 2 15.09                             129    0.11 9  162 219 
 SPBC HN ES       19 2 37.05                             129   -0.02 9  162 219 
 SPBC HZ I        19 2 41.55       120.7 0.40            127            162 219 
 ZAR  HZ EP   1   19 2 18.73                             122   -0.22 6  203 292 
 ZAR  HN ES       19 2 44.20                             122    0.07 9  203 292 
 ZAR  HZ I        19 2 50.96        95.9 0.34            120            203 292 
 NOR  HZ EP       19 2 22.33                             118    0.14 8  233 234 
 NOR  HN ES       19 2 50.07                             118    0.16 8  233 234 
 NOR  HZ I        19 2 57.81        44.1 0.24            116            233 234 
 SML  HZ EP   1   19 2 22.62                             117   -0.61 6  244 336 
 SML  HN ES       19 2 52.80                             117    1.04 8  244 336 
 SML  HZ I        19 2 57.65       119.8 0.10            115            244 336 
 CHI  HZ EP       19 2 24.31                             117    0.09 8  248 195 
 CHI  HN ES       19 2 53.69                             117    0.17 8  248 195 
 CHI  HZ I        19 2 57.32        51.9 0.60            116            248 195 
 ROSC BZ EP   4   19 2 26.19                             117    1.58 0  252 211 
 ROSC BN ES   4   19 2 56.09                             117    1.88 0  252 211 
 ROSC BZ I        19 3  0.90       117.3 0.40            115            252 211 
 URE  HZ EP   4   19 2 26.81                             113   -0.76 0  283 292 
 URE  HN ES   4   19 2 56.41                             113   -3.08 0  283 292 
 URE  HZ I        19 3  6.56        42.9 0.14            111            283 292 
 VIL  SZ EP       19 2 29.99                             112    0.04 7  303 191 
 VIL  SN ES   4   19 3  3.49                             112   -0.23 0  303 191 
 VIL  SZ I        19 3  9.75        79.3 0.40            111            303 191 
 PTGC HZ EP   4 C 19 2 29.38                             111   -1.10 0  309 158 
 PTGC HN ES   4   19 3  3.07                             111   -1.59 0  309 158 
 PTGC HZ I        19 3  4.67        31.9 0.32            111            309 158 
 RREF HZ EP   4   19 2 34.49                             111    1.88 0  320 229 
 RREF HN ES   4   19 3 11.72                             111    3.26 0  320 229 
 RREF HZ I        19 3 18.10        45.9 0.40            109            320 229 
 DBB  SZ EP   4   19 2 34.01                             109    0.05 0  338 274 
 DBB  SZ ES   4   19 3  9.50                             109   -1.35 0  338 274 
 DBB  SZ I        19 3 13.89        81.1 0.42            108            338 274 
 COD  HZ EP   4   19 2 33.46                             109   -1.59 0  349 355 
 COD  HN ES   4   19 3 11.91                             109   -0.88 0  349 355 
 COD  HZ I        19 3 22.75        19.2 0.40            108            349 355 
 ARGC HZ EP   4   19 2 36.18                             108   -0.11 0  359 341 
 ARGC HN ES       19 3 14.93                             108   -0.07 6  359 341 
 ARGC HZ I        19 3 23.54        22.5 0.34            107            359 341 
 ORTC HZ EP   4   19 2 40.68                             106    0.27 0  394 216 
 ORTC HN ES   4   19 3 23.38                             106    1.04 0  394 216 
 ORTC HZ I        19 3 27.68        25.5 0.24            105            394 216 
 SJC  HZ EP   4   19 2 40.33                             106   -1.83 0  409 327 
 SJC  HN ES   4   19 3 20.75                             106   -4.70 0  409 327 
 SJC  HZ I        19 3 35.95        20.6 0.76            104            409 327 
                                                                                
