 2013  629 1620 39.9 L   6.776 -73.071137.8  RSN  5 0.4 1.2LRSN                1
 GAP=147        0.91       5.9     8.6  8.0  0.1183E+02 -0.2561E+01  0.4314E+01E
 Epicentro: LOS SANTOS - SANTANDER                                             3
 ACTION:UPD 14-01-08 09:58 OP:ep   STATUS:               ID:20130629162039 L   I
 OLDACT:REG 13-06-29 16:20 OP:jn   STATUS:               ID:20130629161959     3
 2013-06-29-1619-59M.COL___266                                                 6
 STAT SP IPHASW D HRMM SECON CODA AMPLIT PERI AZIMU VELO AIN AR TRES W  DIS CAZ7
 BAR2 SZ EP       1620 58.55                             170    0.0010 23.8 211 
 BAR2 SZ ES       1621 12.44                             170   -0.6810 23.8 211 
 BAR2 SZ I        1621 14.72         4.5 0.16            170           23.8 211 
 GIR2 SZ EP       1620 58.69                             164   -0.0510 36.1 338 
 PAM  SN ES   1   1621 17.94                             150    0.33 7 74.6  33 
 PAM  SZ I        1621 19.00         3.3 0.32            153           74.6  33 
 BRR  HZ EP       1621  0.51                             148   -0.1810 79.7 297 
 BRR  HN ES       1621 17.26                             148    0.3410 79.7 297 
 BRR  HZ I        1621 20.02         5.0 0.34            149           79.7 297 
 RUS  HZ EP       1621  2.63                             143   -0.0010 97.7 181 
 RUS  HE ES   1   1621 21.06                             143    0.68 7 97.7 181 
 RUS  HZ I        1621 21.95         2.2 0.24            145           97.7 181 
                                                                                
