 2017  929 1658 50.9 L   6.788 -73.136147.1  RSN  7 0.3 1.2LRSN                1
 GAP=138        0.63       2.7     3.6  4.4 -0.1596E+01  0.2779E+01  0.3563E+01E
 Epicentro: LOS SANTOS - SANTANDER                                             3
 ACTION:UPD 17-10-05 19:17 OP:rebc STATUS:               ID:20170929165850 L   I
 OLDACT:REG 17-09-29 20:32 OP:osc  STATUS:               ID:20170929165740     3
 2017-09-29-1658-00M.COL___447                                                 6
 STAT SP IPHASW D HRMM SECON CODA AMPLIT PERI AZIMU VELO AIN AR TRES W  DIS CAZ7
 BAR2 EZ EP       1659 10.27                             171   -0.3510 22.2 193 
 BAR2 EZ ES       1659 26.29                             171    0.2610 22.2 193 
 BRR  HZ EP       1659 12.48                             152    0.2510 72.8 299 
 BRR  HN ES       1659 28.87                             152   -0.0410 72.8 299 
 PAM  EZ EP       1659 13.39                             151    0.1610 77.8  38 
 PAM  EN ES       1659 30.34                             151   -0.3410 77.8  38 
 RUS  HZ EP       1659 14.61                             144   -0.0210 99.1 177 
 RUS  HN ES       1659 33.44                             144    0.2710 99.1 177 
 RUS  HZ I        1659 34.36         1.4 0.30            144           99.1 177 
 ZAR  HE ES   2   1659 49.14                             123    0.10 4  206 292 
 CHI  HZ EP       1659 28.55                             118    0.04 8  248 195 
 CHI  HN ES       1659 57.72                             118   -0.16 8  248 195 
 GUY2CHZ EP   3   1659 36.36                             113    1.83 2  301 235 
 GUY2CHE ES       17 0  8.26                             113   -0.35 7  301 235 
 GUY2CHZ I        17 0 10.23         1.2 0.16                           301 235 
                                                                                
