 2017  829 1311  4.2 L   6.798 -73.128140.4  RSN 15 0.6 2.0LRSN                1
 GAP=139        1.16       3.9     5.0  6.2 -0.2840E-01  0.1196E+02  0.6313E+01E
 Epicentro: LOS SANTOS - SANTANDER                                             3
 ACTION:UPD 17-09-04 20:26 OP:rebc STATUS:               ID:20170829131104 L   I
 OLDACT:REG 17-08-29 20:39 OP:dhb  STATUS:               ID:20170829130743     3
 2017-08-29-1308-00M.COL___417                                                 6
 STAT SP IPHASW D HRMM SECON CODA AMPLIT PERI AZIMU VELO AIN AR TRES W  DIS CAZ7
 BAR2 EZ IP     D 1311 22.97                             170   -0.2310 23.5 195 
 BAR2 EZ ES       1311 38.01                             170   -0.0010 23.5 195 
 BAR2 EZ I        1311 39.13        33.6 0.23            167           23.5 195 
 BRR  HZ IP       1311 24.61                             151   -0.2810 73.0 298 
 BRR  HN ES       1311 41.63                             151    0.6210 73.0 298 
 BRR  HZ I        1311 44.28        18.5 0.17            149           73.0 298 
 PAM  EN ES       1311 42.89                             150    0.2610 76.3  38 
 RUS  HZ EP       1311 26.99                             143   -0.4210  100 177 
 RUS  HN ES       1311 45.28                             143   -0.2310  100 177 
 RUS  HZ I        1311 46.64        10.6 0.16            143            100 177 
 SPBC HZ EP       1311 33.09                             127    0.69 9  164 220 
 SPBC HN ES       1311 54.34                             127   -0.05 9  164 220 
 SPBC HZ I        1311 58.88        19.1 0.18            127            164 220 
 ZAR  HZ EP       1311 37.00                             121    0.50 8  206 292 
 ZAR  HN ES       1312  0.76                             121   -0.94 8  206 292 
 ZAR  HZ I        1312  7.20        11.1 0.11            121            206 292 
 NOR  HZ IP     C 1311 39.40                             117   -0.39 8  236 235 
 NOR  HN ES       1312  6.67                             117   -0.87 8  236 235 
 NOR  HZ I        1312 12.24         5.9 0.20            117            236 235 
 CHI  HN EP       1311 41.62                             116   -0.03 8  249 196 
 CHI  HE ES       1312 10.70                             116   -0.15 8  249 196 
 CHI  HN I        1312 13.03        25.6 0.31            117            249 196 
 ROSC BZ EP   9   1311 45.64                             115    3.51 0  254 211 
 ROSC BN ES       1312 14.61                                   -0.61 8  254 211 
 ROSC BZ I        1312 17.45        15.0 0.12            116            254 211 
 HEL  HE ES       1312 15.94                             113    0.27 8  274 256 
 GUY2CHZ EP       1311 48.22                             111    0.48 7  303 235 
 GUY2CHE ES   4   1312 24.61                             111    2.92 0  303 235 
 GUY2CHZ I        1312 29.22         4.4 0.60                           303 235 
 ELA  HZ EP       1311 51.66                             109    0.67 7  330 230 
 ELA  HN ES   2   1312 28.92                             109    1.44 3  330 230 
 ELA  HZ I        1312 34.85         3.3 0.31            110            330 230 
 DBB  HN ES   4   1312 26.21                             108   -2.53 0  341 274 
 DBB  EZ I        1312 27.38         2.5 0.12            109            341 274 
 PRA  HZ EP       1311 57.40                             105   -0.24 6  393 210 
 PRA  HE ES       1312 40.41                             105    1.10 6  393 210 
 SJC  HZ EP   2   1311 57.97                             105   -1.77 3  410 327 
 SJC  HN ES   4   1312 40.13                             105   -2.93 0  410 327 
 SJC  HZ I        1312 47.53         1.8 0.52            106            410 327 
                                                                                
