 2017  929 1758 20.6 L   6.841 -73.134141.4  RSN 20 0.7 2.3LRSN                1
 GAP=111        1.26       3.6     4.0  6.3  0.1299E+01  0.1063E+02  0.6611E+01E
 Epicentro: LOS SANTOS - SANTANDER                                             3
 ACTION:UPD 17-10-05 19:17 OP:rebc STATUS:               ID:20170929175820 L   I
 OLDACT:UP  17-09-30 01:01 OP:dhb  STATUS:               ID:20170929175740     3
 OLDACT:UP  17-09-30 00:58 OP:dhb  STATUS:               ID:20170929175740     3
 OLDACT:UP  17-09-30 00:50 OP:dhb  STATUS:               ID:20170929175740     3
 OLDACT:REG 17-09-29 20:42 OP:osc  STATUS:               ID:20170929175740     3
 2017-09-29-1758-00M.COL___447                                                 6
 STAT SP IPHASW D HRMM SECON CODA AMPLIT PERI AZIMU VELO AIN AR TRES W  DIS CAZ7
 BAR2 EZ IP     C 1758 39.56                             169   -0.2010 28.0 191 
 BAR2 EZ ES       1758 54.21                             169   -0.5310 28.0 191 
 BAR2 EZ I        1758 55.48        72.9 0.30            166           28.0 191 
 BRR  HZ IP     C 1758 41.31                             152    0.1410 70.3 295 
 BRR  HN ES       1758 58.10                             152    0.8410 70.3 295 
 BRR  HZ I        1759  2.37        35.8 0.17            152           70.3 295 
 PAM  EZ IP     D 1758 42.52                             151    0.4710 73.1  41 
 PAM  EN ES       1758 59.07                             151    0.2610 73.1  41 
 PAM  EZ I        1759  2.32        11.6 0.42            157           73.1  41 
 RUS  HZ EP       1758 43.95                             142   -0.2510  105 177 
 RUS  HN ES       1759  2.09                             142   -0.5610  105 177 
 RUS  HZ I        1759  3.72        15.3 0.13            142            105 177 
 YPLC HZ IP       1758 50.19                             125   -0.18 9  180 152 
 YPLC HN ES       1759 13.91                             125    0.29 9  180 152 
 YPLC HZ I        1759 16.03        18.9 0.30            127            180 152 
 ZAR  HZ EP       1758 53.19                             121    0.53 9  204 291 
 ZAR  HN ES       1759 17.29                             121   -0.42 9  204 291 
 ZAR  HZ I        1759 23.28        29.0 0.13            123            204 291 
 TABC EZ EP   2   1758 58.07                             118    1.54 4  234 210 
 TABC EZ ES       1759 24.91                             118    0.32 8  234 210 
 TABC EZ I        1759 30.10        23.5 0.34            119            234 210 
 NOR  HZ EP       1758 55.84                             117   -0.58 8  238 234 
 NOR  HN ES       1759 23.74                             117   -0.66 8  238 234 
 NOR  HZ I        1759 26.15        10.9 0.06            118            238 234 
 CHI  HZ EP       1758 58.63                             116    0.11 8  253 195 
 CHI  HE ES       1759 27.58                             116   -0.56 8  253 195 
 CHI  HZ I        1759 35.04        10.8 0.28            117            253 195 
 ROSC BZ EP       1758 59.53                             115    0.60 8  257 211 
 ROSC BE ES   3   1759 30.30                             115    1.43 2  257 211 
 ROSC BZ I        1759 33.14        21.5 0.44            117            257 211 
 HEL  HZ EP       1759  1.55                             114    0.74 8  274 255 
 HEL  HE ES       1759 31.74                             114   -0.46 8  274 255 
 HEL  HZ I        1759 37.76         8.9 0.54            115            274 255 
 URE  HZ EP       1759  0.19                             113   -1.17 7  283 291 
 URE  HN ES   4   1759 29.05                             113   -4.13 0  283 291 
 URE  HZ I        1759 31.71        20.4 0.14            114            283 291 
 GUY2CHZ EP   3   1759  6.06                             111    1.69 2  305 234 
 GUY2CHE ES       1759 40.04                             111    1.49 7  305 234 
 GUY2CHZ I        1759 48.05         8.7 0.75                           305 234 
 ELA  HZ EP   4   1759 10.58                             109    2.91 0  333 229 
 ELA  HE ES       1759 43.83                             109   -0.59 7  333 229 
 ELA  HZ I        1759 57.84         6.2 0.32            111            333 229 
 CBOC HZ EP       1759  8.28                             109    0.69 7  336 251 
 CBOC HE ES   2   1759 44.92                             109    0.65 3  336 251 
 CBOC HZ I        1759 47.65         2.6 0.20            110            336 251 
 DBB  EZ EP   4   1759  5.51                             108   -2.45 0  340 273 
 DBB  EN ES       1759 44.26                             108   -0.68 7  340 273 
 DBB  EZ I        1759 45.54         6.7 0.38            110            340 273 
 ANIL HZ EP   4   1759 18.20                             107    7.53 0  361 224 
 ANIL HE ES       1759 50.10                             107    0.35 6  361 224 
 ANIL HZ I        1759 53.99        21.4 0.24            109            361 224 
 PRA  HZ IP     C 1759 14.54                             105    0.08 6  397 209 
 PRA  HE ES       1759 55.83                             105   -0.67 6  397 209 
 PRA  HZ I        18 0  0.30        10.2 0.37            107            397 209 
 ORTC HZ IP       1759 13.97                             105   -0.87 6  400 216 
 ORTC HN ES       1759 57.77                             105    0.59 6  400 216 
 ORTC HZ I        18 0  2.39         3.0 0.32            107            400 216 
 SJC  HZ IP   2 C 1759 13.89                             105   -1.72 3  406 326 
 SJC  HE ES   4   1759 55.07                             105   -3.48 0  406 326 
 SJC  HZ I        1759 59.15         3.7 0.57            107            406 326 
                                                                                
