 2016  129 1234 15.2 L   6.815 -73.170143.8  RSN  6 0.3 1.6LRSN                1
 GAP=133        0.76       2.5     5.7  5.5 -0.4250E+01  0.1439E+02 -0.2100E+01E
 Epicentro: LOS SANTOS - SANTANDER                                             3
 ACTION:UPD 16-03-09 23:29 OP:cam  STATUS:               ID:20160129123415 L   I
 OLDACT:REG 16-01-29 20:36 OP:ak   STATUS:               ID:20160129122320     3
 2016-01-29-1234-00M.COL___414                                                 6
 STAT SP IPHASW D HRMM SECON CODA AMPLIT PERI AZIMU VELO AIN AR TRES W  DIS CAZ7
 BAR2 EZ EP       1234 34.74                             170    0.1110 24.7 183 
 BAR2 EZ ES       1234 49.53                             170   -0.2510 24.7 183 
 BAR2 EZ I        1234 51.42        10.5 0.24            169           24.7 183 
 PAM  EZ EP       1234 37.63                             150    0.3910 77.9  42 
 PAM  EN ES       1234 54.40                             150   -0.0310 77.9  42 
 PAM  EZ I        1234 56.89         7.1 0.56            154           77.9  42 
 RUS  HZ EP       1234 39.01                             143    0.1110  103 175 
 RUS  HN ES       1234 57.22                             143   -0.1710  103 175 
 RUS  HZ I        1234 58.35         2.3 0.28            145            103 175 
 SPBC HZ EP       1234 43.13                             129   -0.38 9  163 218 
 SPBC HN ES       1235  5.94                             129    0.34 9  163 218 
 SPBC HZ I        1235 10.50         4.9 0.24            129            163 218 
 SML  HZ EP       1234 50.71                             117   -0.72 8  241 336 
 SML  HN ES       1235 20.03                             117    0.35 8  241 336 
 SML  HZ I        1235 24.05         7.2 0.15            118            241 336 
 CHI  HZ EP       1234 53.07                             117    0.18 8  250 194 
 CHI  HN ES       1235 22.28                             117   -0.01 8  250 194 
 CHI  HZ I        1235 25.72         2.3 0.58            118            250 194 
                                                                                
