 2013  429 1158 16.1 L   7.110 -73.679136.5  RSN  4 0.3 1.7LRSN                1
 GAP=167        0.62       5.2     7.7  6.5  0.1244E+02  0.7243E+01 -0.3051E+01E
 Epicentro: BARRANCABERMEJA - SANTANDER                                        3
 ACTION:UPD 13-05-22 14:41 OP:EP   STATUS:               ID:20130429115816 L   I
 2013-04-29-1157-50M.COL___199                                                 6
 STAT SP IPHASW D HRMM SECON CODA AMPLIT PERI AZIMU VELO AIN AR TRES W  DIS CAZ7
 BRR  HN ES       1158 47.92                             178   -0.1010 3.71 266 
 BRR  HN I        1158 50.44        13.8 0.52            169           3.71 266 
 PTB  HZ EP   1   1158 38.37                             140   -0.42 7  107 234 
 PTB  HN ES   2   1158 57.08                             140    0.62 5  107 234 
 PTB  HN I        1159  2.85         8.6 0.28            135            107 234 
 RUS  HZ ES   1   1159  4.44                             130    0.13 7  150 154 
 RUS  HZ I        1159  5.25         6.1 0.16            132            150 154 
 SML  HZ EP   1   1158 46.99                             122    0.27 7  192 347 
 SML  HE ES   4   1159 15.63                             122    5.05 0  192 347 
 SML  HN I        1159 19.14         5.1 0.10            119            192 347 
                                                                                
