 2010  329 1929 53.3 L   6.831 -73.016145.3  RSN  5 0.4 2.0LRSN                1
 GAP=252        0.61       5.9    11.6  7.6  0.1970E+02  0.9360E+01  0.1610E+02E
 Epicentro: CEPITA - SANTANDER                                                 3
 ACTION:UP  10-08-24 09:56 OP:vdl  STATUS:               ID:20100329192953 L   I
 2010-03-29-1926-42S.COL___098                                                 6
 STAT SP IPHASW D HRMM SECON CODA AMPLIT PERI AZIMU VELO SNR AR TRES W  DIS CAZ7
 BAR2 SZ EP   1   1930 13.15                             167     0.0 7   32 215 
 BAR2 SZ ES   2   1930 28.15                             167    -0.4 5   32 215 
 BRR  HZ EP   1   1930 15.15                             149     0.0 7   83 292 
 BRR  HE ES   2   1930 32.17                             149     0.0 5   83 292 
 BRR  HZ I        1930 39.40        25.6 0.65                            83 292 
 RUS  HZ EP   1   1930 17.49                             143     0.2 7  104 184 
 RUS  HE ES   2   1930 36.34                             143     0.4 5  104 184 
 RUS  HZ I        1930 37.44         7.8 0.38                           104 184 
 CHI  HZ EP   1   1930 31.85                             116     0.0 6  256 198 
 CHI  HZ I        1930 32.33         4.3 0.35                           256 198 
 CHI  HE ES   2   1931  1.04                             116    -0.8 4  256 198 
 PRA  HZ EP   1   1930 47.44                             106    -0.6 4  402 211 
 PRA  HE ES   2   1931 31.66                             106     1.0 3  402 211 
 PRA  HZ I        1931 33.68         5.4 0.14                           402 211 
                                                                                
