 2016 1129 1623 30.9 L   6.803 -73.167144.9  RSN  5 0.2 1.7LRSN                1
 GAP=143        0.50       3.2     2.5  4.1 -0.1783E+01  0.2961E+01  0.3370E+01E
 Epicentro: LOS SANTOS - SANTANDER                                             3
 ACTION:UPD 17-10-26 21:13 OP:lp   STATUS:               ID:20161129162330 L   I
 OLDACT:DUP 16-11-30 00:46 OP:lv   STATUS:               ID:20161129161745d    3
 2016-11-29-1618-00M.COL___348                                                 6
 STAT SP IPHASW D HRMM SECON CODA AMPLIT PERI AZIMU VELO AIN AR TRES W  DIS CAZ7
 BAR2 EZ EP       1623 50.36                             170   -0.0610 23.3 184 
 BAR2 EZ ES       1624  5.69                             170    0.0410 23.3 184 
 BAR2 EZ I        1624  6.58        14.2 0.20            168           23.3 184 
 PAM  EZ EP       1623 53.24                             150    0.1410 78.7  41 
 PAM  EN ES       1624 10.37                             150   -0.0410 78.7  41 
 PAM  EZ I        1624 12.38         5.2 0.44            152           78.7  41 
 PTB  HZ EP       1623 57.20                             132   -0.38 9  145 259 
 PTB  HN ES       1624 18.31                             132   -0.09 9  145 259 
 PTB  HZ I        1624 20.06         5.3 0.14            133            145 259 
 ZAR  HN ES       1624 28.37                             122    0.25 9  202 292 
 PRA  HZ EP       1624 24.34                             106    0.06 6  391 209 
 PRA  HN ES       1625  6.27                             106    0.35 6  391 209 
 PRA  HZ I        1625 12.32         2.3 0.29            106            391 209 
                                                                                
