 2012  529 1120 35.7 L   6.755 -73.205144.7  RSN  7 0.3 2.3LRSN                1
 GAP=238        0.59       3.9     3.8  4.5  0.4897E+01  0.6761E+01  0.3907E+01E
 Epicentro: VILLANUEVA - SANTANDER                                             3
 ACTION:UP  12-07-05 12:08 OP:pat  STATUS:               ID:20120529112035 L   I
 2012-05-29-1120-00M.COL___200                                                 6
 STAT SP IPHASW D HRMM SECON CODA AMPLIT PERI AZIMU VELO AIN AR TRES W  DIS CAZ7
 BAR2 SZ EP       1120 55.25                             172     0.110   18 172 
 BAR2 SZ ES       1121 10.24                             172     0.010   18 172 
 BAR2 SZ I        1121 12.01        74.8 0.23                            18 172 
 RUS  HZ EP       1120 58.89                             145    -0.210   96 172 
 RUS  HN ES   1   1121 17.38                             145     0.1 7   96 172 
 RUS  HZ I        1121 19.11        14.3 0.26                            96 172 
 PTB  HZ EP       1121  1.91                             133     0.0 9  140 260 
 PTB  HE ES   1   1121 22.04                             133    -0.3 7  140 260 
 PTB  HZ I        1121 30.53        24.0 0.37                           140 260 
 ZAR  HZ EP   1   1121  7.50                             123    -0.2 6  200 294 
 ZAR  HN ES   1   1121 32.65                             123     0.1 6  200 294 
 ZAR  HZ I        1121 34.32        40.7 0.31                           200 294 
 NOR  SZ EP   1   1121 10.94                             119     0.4 6  227 235 
 NOR  SN ES   1   1121 38.13                             119     0.5 6  227 235 
 CHI  HZ EP   1   1121 12.35                             118    -0.3 6  242 194 
 CHI  HN ES   2   1121 41.53                             118     0.1 4  242 194 
 CHI  HZ I        1121 50.83         6.5 0.34                           242 194 
 PRA  HZ EP       1121 28.58                             107     0.3 6  385 209 
 PRA  HN ES   1   1122  8.66                             107    -0.7 4  385 209 
                                                                                
