 2013  429 1932  4.5 L   6.760 -73.139136.9  RSN  5 0.4 1.9LRSN                1
 GAP=139        0.79       5.3     5.1  8.6 -0.5019E+01  0.8247E+01  0.1006E+02E
 Epicentro: LOS SANTOS - SANTANDER                                             3
 ACTION:UPD 13-05-22 14:41 OP:EP   STATUS:               ID:20130429193204 L   I
 2013-04-29-1930-00M.COL___248                                                 6
 STAT SP IPHASW D HRMM SECON CODA AMPLIT PERI AZIMU VELO AIN AR TRES W  DIS CAZ7
 BRR  HZ EP   1   1932 25.12                             150    0.27 7 74.1 301 
 BRR  HE ES   1   1932 41.45                             150    0.71 7 74.1 301 
 PAM  SZ EP   1   1932 26.11                             148    0.17 7 80.4  37 
 PAM  SN ES   1   1932 42.10                             148   -0.59 7 80.4  37 
 PAM  SN I        1932 43.97        13.6 0.44            153           80.4  37 
 RUS  HZ EP   1   1932 27.13                             143    0.10 7 96.1 176 
 RUS  HN ES   1   1932 44.74                             143    0.11 7 96.1 176 
 RUS  HN I        1932 45.96         7.9 0.24            144           96.1 176 
 PTB  HZ EP   1   1932 30.34                             130   -0.39 7  148 261 
 PTB  HN ES   1   1932 50.59                             130   -0.63 7  148 261 
 PTB  HN I        1932 55.62        10.4 0.22            130            148 261 
 NOR  HZ EP   1   1932 39.73                             117    0.23 6  233 235 
 NOR  HN ES   2   1933  6.72                             117   -0.10 4  233 235 
 NOR  HN I        1933 13.17        10.7 0.16            117            233 235 
                                                                                
