 2014  729 1351 51.4 L   6.791 -73.156142.0  RSN  7 0.4 1.9LRSN                1
 GAP=243        0.99       5.2     5.7  6.9  0.1088E+02  0.1032E+02  0.7956E+01E
 Epicentro: LOS SANTOS - SANTANDER                                             3
 ACTION:UPD 15-03-16 20:48 OP:nd   STATUS:               ID:20140729135151 L   I
 OLDACT:DUP 14-07-29 22:58 OP:carl STATUS:               ID:20140729134813d    3
 2014-07-29-1348-12M.COL___257                                                 6
 STAT SP IPHASW D HRMM SECON CODA AMPLIT PERI AZIMU VELO AIN AR TRES W  DIS CAZ7
 BAR2 SZ EP       1352 10.52                             171   -0.0210 22.2 188 
 BAR2 SZ ES       1352 26.13                             171    0.6510 22.2 188 
 BAR2 SZ I        1352 26.67        20.0 0.18            165           22.2 188 
 RUS  HZ EP       1352 14.01                             143   -0.6910 99.7 175 
 RUS  HN ES       1352 32.67                             143   -0.2210 99.7 175 
 RUS  HZ I        1352 33.89         8.3 0.24            141           99.7 175 
 PTB  HZ EP       1352 17.77                             132   -0.16 9  146 259 
 PTB  HN ES       1352 38.43                             132   -0.21 9  146 259 
 PTB  HZ I        1352 40.69        15.0 0.14            131            146 259 
 SPBC HZ EP       1352 19.57                             129    0.11 9  162 219 
 SPBC HN ES       1352 40.85                             129   -0.51 9  162 219 
 SPBC HZ I        1352 45.49        13.6 0.60            127            162 219 
 ZAR  HN ES       1352 48.80                             122    0.21 9  203 293 
 CHI  HZ EP       1352 28.80                             117    0.06 8  247 195 
 CHI  HN ES       1352 58.57                             117    0.69 8  247 195 
 CHI  HZ I        1353  4.93         3.3 0.32            116            247 195 
 PRA  HZ EP       1352 45.24                             106    0.62 6  391 209 
 PRA  HN ES       1353 26.43                             106    0.30 6  391 209 
                                                                                
