 2012  229 1150 53.2 L   6.784 -73.148141.3  RSN  5 0.4 1.6LRSN                1
 GAP=137        0.72       4.9     5.3  7.7  0.5586E+01  0.5001E+01 -0.3891E+00E
 ACTION:UP  12-03-07 16:35 OP:epov STATUS:               ID:20120229115053 L   I
 2012-02-29-1150-00M.COL___191                                                 6
 STAT SP IPHASW D HRMM SECON CODA AMPLIT PERI AZIMU VELO AIN AR TRES W  DIS CAZ7
 BAR2 SZ EP   1   1151 12.28                             171    0.04 7 21.5 190 
 BAR2 SZ I        1151 12.57         9.5 0.09                          21.5 190 
 BAR2 SZ ES   1   1151 26.51                             171   -0.59 7 21.5 190 
 BRR  HZ EP   1   1151 14.03                             151    0.14 7 71.9 300 
 BRR  HN ES   1   1151 30.71                             151    0.67 7 71.9 300 
 PAM  SZ EP   1   1151 15.09                             149    0.07 7 78.9  39 
 PAM  SE ES   1   1151 31.95                             149   -0.10 7 78.9  39 
 PAM  SZ I        1151 34.18         8.1 0.47                          78.9  39 
 RUS  HZ EP   1   1151 16.29                             143   -0.08 7 98.8 176 
 RUS  HN ES   1   1151 34.69                             143    0.24 7 98.8 176 
 RUS  HZ I        1151 36.26         3.7 0.33                          98.8 176 
 ZAR  HN ES   1   1151 49.99                             121   -0.53 6  205 293 
 ZAR  HZ I        1151 56.69         6.3 0.31                           205 293 
                                                                                
