 2014  829 1712 42.1 L   6.720 -73.196149.6  RSN  6 0.3 1.8LRSN                1
 GAP=134        0.89       4.7     5.1  7.9 -0.4405E+00 -0.7293E+01 -0.2344E+01E
 Epicentro: VILLANUEVA - SANTANDER                                             3
 ACTION:UPD 14-09-15 21:54 OP:nd   STATUS:               ID:20140829171242 L   I
 OLDACT:REG 14-08-29 18:40 OP:stll STATUS:               ID:20140829170821     3
 2014-08-29-1708-21M.COL___266                                                 6
 STAT SP IPHASW D HRMM SECON CODA AMPLIT PERI AZIMU VELO AIN AR TRES W  DIS CAZ7
 BAR2 SZ EP       1713  1.94                             174   -0.0710 14.2 174 
 BAR2 SZ I        1713  2.23         9.9 0.10            173           14.2 174 
 BRR  HZ EP       1713  4.11                             153    0.4810 71.3 307 
 BRR  HN ES       1713 20.65                             153    0.2010 71.3 307 
 PAM  SZ EP       1713  4.82                             148   -0.5010 87.7  39 
 PAM  SZ I        1713  5.00        17.0 0.22            148           87.7  39 
 RUS  HZ EP       1713  5.64                             147    0.0110 92.4 172 
 RUS  HZ I        1713  6.72         6.1 0.46            145           92.4 172 
 RUS  HN ES       1713 24.15                             147    0.1410 92.4 172 
 PTB  HZ EP       1713  8.46                             134   -0.27 9  141 262 
 PTB  HZ I        1713  9.48         6.5 0.16            133            141 262 
 PTB  HN ES       1713 29.33                             134   -0.20 9  141 262 
 SPBC HZ EP       1713 10.50                             132    0.60 9  153 219 
 SPBC HZ I        1713 11.02        15.9 0.20            130            153 219 
 SPBC HE ES       1713 31.22                             132   -0.40 9  153 219 
                                                                                
