 2016 1129 1213 14.5 L   6.797 -73.151146.9  RSN  7 0.4 1.9LRSN                1
 GAP=149        1.01       4.8     4.5  7.0 -0.3596E+01  0.5030E+01  0.1308E+02E
 Epicentro: LOS SANTOS - SANTANDER                                             3
 ACTION:UPD 17-10-26 21:13 OP:lp   STATUS:               ID:20161129121314 L   I
 OLDACT:REG 16-11-29 21:07 OP:lv   STATUS:               ID:20161129120746     3
 2016-11-29-1208-00M.COL___352                                                 6
 STAT SP IPHASW D HRMM SECON CODA AMPLIT PERI AZIMU VELO AIN AR TRES W  DIS CAZ7
 BAR2 EZ EP       1213 34.25                             171    0.0310 22.9 189 
 BAR2 EZ ES       1213 49.43                             171   -0.2010 22.9 189 
 BAR2 EZ I        1213 50.41        17.3 0.11            168           22.9 189 
 BRR  HZ EP       1213 35.95                             153    0.2410 70.9 299 
 BRR  HE ES       1213 53.14                             153    0.8510 70.9 299 
 BRR  HZ I        1213 56.23        14.7 0.29            151           70.9 299 
 PAM  EZ EP       1213 37.05                             151    0.2210 78.0  40 
 PAM  EN ES       1213 53.87                             151   -0.4110 78.0  40 
 PAM  EZ I        1213 56.24        12.3 0.52            156           78.0  40 
 PTB  HZ EP       1213 40.83                             132   -0.63 9  147 259 
 PTB  HN ES       1214  1.94                             132   -0.59 9  147 259 
 PTB  HZ I        1214  8.17         8.0 0.22            132            147 259 
 ZAR  HZ EP   4   1213 49.00                             123    2.06 0  204 292 
 ZAR  HN ES       1214 12.12                             123   -0.15 9  204 292 
 ZAR  HZ I        1214 17.26         9.7 0.32            123            204 292 
 NOR  HZ EP       1213 50.41                             119    0.23 8  234 234 
 NOR  HN ES       1214 18.30                             119    0.25 8  234 234 
 NOR  HZ I        1214 27.49         5.2 0.13            119            234 234 
 CHI  HZ EP       1213 52.25                             117    0.08 8  248 195 
 CHI  HN ES       1214 21.71                             117    0.13 8  248 195 
 CHI  HZ I        1214 25.41         4.7 0.31            119            248 195 
                                                                                
