 2015  129 1343 41.7 L   6.751 -73.087146.5  RSN  4 0.3 1.5LRSN                1
 GAP=171        0.60       6.2     8.4  6.3 -0.4128E+02  0.1454E+02 -0.9647E+01E
 Epicentro: LOS SANTOS - SANTANDER                                             3
 ACTION:UPD 15-03-02 15:43 OP:nd   STATUS:               ID:20150129134341 L   I
 OLDACT:DUP 15-01-30 00:42 OP:spq  STATUS:               ID:20150129133748d    3
 OLDACT:UP  15-01-30 00:40 OP:spq  STATUS:               ID:20150129133747     3
 OLDACT:REG 15-01-29 20:51 OP:spq  STATUS:               ID:20150129133747     3
 2015-01-29-1337-47M.COL___271                                                 6
 STAT SP IPHASW D HRMM SECON CODA AMPLIT PERI AZIMU VELO AIN AR TRES W  DIS CAZ7
 BAR2 EZ EP     C 1344  1.42                             172    0.0510 20.4 211 
 BAR2 EZ ES   1   1344 16.65                             172   -0.06 7 20.4 211 
 BAR2 EZ I        1344 17.90         7.3 0.18            172           20.4 211 
 PAM  SZ EP       1344  4.23                             151    0.2010 77.9  33 
 PAM  SN ES   2   1344 21.10                             151   -0.34 5 77.9  33 
 PAM  SZ I        1344 23.80         2.7 0.64            153           77.9  33 
 RUS  HZ EP   1   1344  4.51                             146   -0.61 7 94.9 180 
 RUS  HE ES   1   1344 23.68                             146    0.29 7 94.9 180 
 RUS  HZ I        1344 25.19         4.1 0.26            148           94.9 180 
 SPBC HZ EP       1344 10.40                             129    0.14 9  163 222 
 SPBC HE ES       1344 32.46                             129   -0.08 9  163 222 
 SPBC HZ I        1344 35.16         6.6 0.19            131            163 222 
                                                                                
