 2017  429 1905 58.6 L   6.803 -73.168149.0  RSN  5 0.4 1.3LRSN                1
 GAP=110        1.00       5.4     5.0  8.2 -0.6318E+00 -0.2380E+01  0.1225E+02E
 Epicentro: LOS SANTOS - SANTANDER                                             3
 *EXPLOSION                                                                    3
 ACTION:UPD 17-05-30 21:17 OP:jn   STATUS:               ID:20170429190558 L   I
 OLDACT:DUP 17-04-29 22:57 OP:dani STATUS:               ID:20170429185740d    3
 2017-04-29-1858-00M.COL___367                                                 6
 STAT SP IPHASW D HRMM SECON CODA AMPLIT PERI AZIMU VELO AIN AR TRES W  DIS CAZ7
 BRR  HZ EP       19 6 20.14                             154    0.1510 68.9 299 
 BRR  HN ES       19 6 37.35                             154    0.6810 68.9 299 
 BRR  HZ I        19 6 40.50         7.1 0.37            152           68.9 299 
 PAM  EZ EP       19 6 21.23                             151   -0.0310 78.7  41 
 PAM  EN ES       19 6 38.49                             151   -0.4310 78.7  41 
 PAM  EZ I        19 6 39.83         2.6 0.24            155           78.7  41 
 RUS  HZ EP       19 6 22.65                             144   -0.0810  101 175 
 RUS  HE ES       19 6 41.67                             144    0.1410  101 175 
 RUS  HZ I        19 6 42.11         2.2 0.21            147            101 175 
 PTB  HZ EP       19 6 25.85                             133    0.21 9  145 259 
 PTB  HN ES       19 6 45.95                             133   -0.77 9  145 259 
 PTB  HZ I        19 6 52.98         2.6 0.36            133            145 259 
 YPLC HZ EP       19 6 28.87                             127    0.08 9  178 151 
                                                                                
