 2016  529 1624 13.5 L   6.297 -73.637 27.8  RSN  6 0.1 2.0LRSN                1
 GAP=160        0.41       1.5     1.4  3.0 -0.5595E+00  0.3083E+01 -0.2532E+01E
 Epicentro: SANTA HELENA DEL OPON - SANTANDER                                  3
 ACTION:UPD 16-08-18 17:50 OP:cam  STATUS:               ID:20160529162414 L   I
 OLDACT:UP  16-06-01 05:07 OP:dnl  STATUS:               ID:20160529162414 L   3
 OLDACT:REG 16-05-29 22:45 OP:ar   STATUS:               ID:20160529161746     3
 2016-05-29-1617-46M.COL___316                                                 6
 STAT SP IPHASW D HRMM SECON CODA AMPLIT PERI AZIMU VELO AIN AR TRES W  DIS CAZ7
 BAR2 EZ EP       1624 24.19                             106    0.0410 60.0  57 
 BAR2 EZ ES       1624 32.37                             106   -0.0610 60.0  57 
 BAR2 EZ I        1624 33.50       155.1 0.40            107           60.0  57 
 RUS  HZ EP       1624 26.61                             100   -0.0510 75.9 126 
 RUS  HN ES       1624 36.99                             100    0.1010 75.9 126 
 RUS  HZ I        1624 40.32        14.7 0.20             98           75.9 126 
 SPBC HZ EP   4   1624 29.21                              96    1.56 0 86.1 214 
 SPBC HN ES   4   1624 41.41                              96    2.76 0 86.1 214 
 SPBC HZ I        1624 42.35        75.8 0.68             61           86.1 214 
 BRR  HZ EP       1624 28.02                              61   -0.0210 89.9 355 
 BRR  HN ES       1624 39.53                              61    0.1710 89.9 355 
 BRR  HZ I        1624 40.99        54.0 0.12             95           89.9 355 
 PTB  HZ IP     D 1624 28.40                              61   -0.2310 94.5 287 
 PTB  HN ES       1624 40.49                              61    0.0910 94.5 287 
 PTB  HZ I        1624 43.51        28.5 0.18             61           94.5 287 
 PAM  EZ EP       1624 36.93                              61    0.16 9  155  42 
 PAM  EN ES       1624 54.68                              61   -0.21 9  155  42 
 PAM  EZ I        1624 56.14        19.5 0.16             61            155  42 
                                                                                
