 2013 1129 1506  6.3 L   6.754 -73.152151.6  RSN  8 0.4 1.8LRSN                1
 GAP=138        0.85       5.1     4.6  6.4 -0.8036E+00  0.3207E+01  0.2687E+01E
 Epicentro: LOS SANTOS - SANTANDER                                             3
 ACTION:UPD 14-01-09 16:31 OP:ep   STATUS:               ID:20131129150606 L   I
 OLDACT:REG 13-11-29 15:34 OP:cam  STATUS:               ID:20131129150000     3
 2013-11-29-1500-00M.COL___282                                                 6
 STAT SP IPHASW D HRMM SECON CODA AMPLIT PERI AZIMU VELO AIN AR TRES W  DIS CAZ7
 BAR2 SZ EP       15 6 26.56                             173    0.0310 18.2 191 
 BAR2 SZ ES       15 6 41.85                             173   -0.4810 18.2 191 
 BAR2 SZ I        15 6 45.52        19.8 0.26            171           18.2 191 
 BRR  HZ EP       15 6 28.35                             153    0.1710 73.2 302 
 BRR  HN ES       15 6 46.03                             153    0.7710 73.2 302 
 PAM  SZ EP   1   15 6 29.33                             150   -0.06 7 81.8  38 
 PAM  SN ES   2   15 6 46.97                             150   -0.44 5 81.8  38 
 PAM  SZ I        15 6 48.70         6.6 0.54            155           81.8  38 
 RUS  HZ EP   1   15 6 30.45                             146    0.17 7 95.6 175 
 RUS  HN ES   2   15 6 49.33                             146    0.34 5 95.6 175 
 RUS  HZ I        15 6 50.09         6.0 0.36            148           95.6 175 
 PTB  HZ EP       15 6 33.19                             134   -0.41 9  146 261 
 PTB  HN ES       15 6 54.54                             134   -0.37 9  146 261 
 PTB  HZ I        15 7  1.64         9.7 0.40            135            146 261 
 SPBC HZ EP   1   15 6 35.45                             131    0.61 7  159 220 
 SPBC HN ES   1   15 6 57.13                             131    0.02 7  159 220 
 SPBC HZ I        15 7  0.22        16.1 0.26            133            159 220 
 ZAR  HZ EP   2   15 6 39.39                             123    0.13 4  205 294 
 ZAR  HN ES   1   15 7  4.59                             123   -0.38 6  205 294 
 ZAR  HZ I        15 7  6.44         6.4 0.14            125            205 294 
 NOR  HN ES   2   15 7  9.76                             120   -0.09 4  231 235 
                                                                                
