 2015  829 1242 50.3 L   6.771 -73.110144.4  RSN  4 0.2 1.6LRSN                1
 GAP=166        0.45       5.1     2.8  4.8  0.2199E+01  0.1844E+01 -0.1821E+01E
 Epicentro: LOS SANTOS - SANTANDER                                             3
 ACTION:UPD 15-09-15 23:06 OP:cam  STATUS:               ID:20150829124250 L   I
 OLDACT:REG 15-08-29 20:25 OP:spq  STATUS:               ID:20150829123750     3
 2015-08-29-1237-50M.COL___364                                                 6
 STAT SP IPHASW D HRMM SECON CODA AMPLIT PERI AZIMU VELO AIN AR TRES W  DIS CAZ7
 BAR2 EZ EP       1243  9.50                             171   -0.2010 21.3 202 
 BAR2 EZ ES   1   1243 25.09                             171    0.24 7 21.3 202 
 BAR2 EZ I        1243 25.47         9.0 0.18            171           21.3 202 
 BRR  HZ EP       1243 11.53                             151   -0.0410 76.2 299 
 BRR  HE ES   1   1243 27.96                             151   -0.21 7 76.2 299 
 BRR  HZ I        1243 29.62        12.0 0.38            145           76.2 299 
 PAM  EZ EP       1243 12.50                             150    0.1510 77.5  36 
 PAM  EE ES   1   1243 29.52                             150   -0.05 7 77.5  36 
 PAM  EZ I        1243 31.30         7.9 0.62            149           77.5  36 
 ZAR  HE ES       1243 48.90                             121    0.13 8  209 293 
 ZAR  HZ I        1243 56.91         2.9 0.10            120            209 293 
                                                                                
