 2017 1129 1323 12.1 L   6.087 -73.589120.8  RSN  7 0.4 1.4LRSN                1
 GAP=101        0.99       4.1     3.5  6.8 -0.1132E+01  0.1759E+01  0.5799E+01E
 Epicentro: CHIPATA - SANTANDER                                                3
 ACTION:UPD 17-12-12 20:01 OP:rebc STATUS:               ID:20171129132312 L   I
 OLDACT:DUP 17-11-29 23:29 OP:dani STATUS:               ID:20171129131615d    3
 OLDACT:REG 17-11-29 21:09 OP:dani STATUS:               ID:20171129131614     3
 2017-11-29-1318-00M.COL___485                                                 6
 STAT SP IPHASW D HRMM SECON CODA AMPLIT PERI AZIMU VELO AIN AR TRES W  DIS CAZ7
 RUS  HZ EP       1323 30.51                             152   -0.1210 60.0 111 
 RUS  HN ES       1323 44.86                             152   -0.2210 60.0 111 
 RUS  HZ I        1323 46.83         3.8 0.16            156           60.0 111 
 BAR2 EZ EP       1323 31.22                             147    0.2410 71.7  39 
 BAR2 EZ ES       1323 46.00                             147    0.2910 71.7  39 
 SPBC HZ EP       1323 30.83                             147    0.0410 72.0 228 
 SPBC HN ES       1323 45.64                             147    0.2710 72.0 228 
 SPBC HZ I        1323 50.49        15.5 0.24            147           72.0 228 
 PTB  HZ EP       1323 32.71                             135   -0.7610  108 298 
 PTB  HN ES       1323 49.79                             135   -0.3510  108 298 
 PTB  HZ I        1323 54.14         3.0 0.14            138            108 298 
 NOR  HZ EP       1323 38.05                             125    0.30 9  153 248 
 NOR  HN ES       1323 58.32                             125    0.57 9  153 248 
 NOR  HZ I        1324  1.83         5.3 0.20            127            153 248 
 YPLC HZ EP       1323 38.09                             124    0.22 9  154 120 
 CHI  HZ EP       1323 39.32                             123    0.21 9  162 186 
 CHI  HN ES       1323 59.54                             123   -0.64 9  162 186 
 CHI  HZ I        1324  5.63         2.7 0.36            126            162 186 
                                                                                
