 2017  129 1441 23.7 L   6.845 -73.389117.7  RSN  4 0.1 1.4LRSN                1
 GAP=147        0.41       2.2     3.3  4.8 -0.2598E+00 -0.4012E+01  0.2064E+01E
 Epicentro: SAN VICENTE DE CHUCURI - SANTANDER                                 3
 ACTION:UPD 17-05-22 16:04 OP:jn   STATUS:               ID:20170129144123 L   I
 OLDACT:REG 17-01-29 22:26 OP:dnl  STATUS:               ID:20170129143744     3
 2017-01-29-1438-00M.COL___342                                                 6
 STAT SP IPHASW D HRMM SECON CODA AMPLIT PERI AZIMU VELO AIN AR TRES W  DIS CAZ7
 BAR2 EZ EP       1441 40.54                             162    0.1710 36.1 141 
 BAR2 EZ ES       1441 53.59                             162    0.2110 36.1 141 
 BAR2 EZ I        1441 54.69        12.1 0.20            169           36.1 141 
 BRR  HZ EP   3   1441 40.43                             157   -0.01 2 46.0 309 
 BRR  HE ES       1441 53.40                             157   -0.1010 46.0 309 
 BRR  HZ I        1441 59.42         7.7 0.32            153           46.0 309 
 PAM  EZ EP   2   1441 44.30                             139    0.05 5 93.7  54 
 PAM  EN ES       1442  0.18                             139   -0.1010 93.7  54 
 PAM  EZ I        1442  2.10         3.5 0.30            143           93.7  54 
 RUS  HZ EP   2   1441 45.63                             134   -0.04 5  111 162 
 RUS  HN ES       1442  2.62                             134   -0.1910  111 162 
                                                                                
