 2013 1229 1058 11.5 L   7.202 -73.081156.4  RSN  6 0.3 1.8LRSN                1
 GAP=193        0.70       3.2     4.8  7.1  0.2000E+01  0.5956E+01 -0.5814E+01E
 Epicentro: BUCARAMANGA - SANTANDER                                            3
 ACTION:UPD 14-01-13 10:22 OP:ep   STATUS:               ID:20131229105811 L   I
 OLDACT:REG 13-12-29 14:55 OP:jn   STATUS:               ID:20131229105747     3
 2013-12-29-1057-47M.COL___234                                                 6
 STAT SP IPHASW D HRMM SECON CODA AMPLIT PERI AZIMU VELO AIN AR TRES W  DIS CAZ7
 BAR2 SZ EP       1058 34.26                             155    0.2810 68.3 189 
 BAR2 SZ ES       1058 51.45                             155   -0.0910 68.3 189 
 BAR2 SZ I        1058 54.53        12.7 0.16            162           68.3 189 
 OCA  HE ES   1   1058 57.39                             141    0.39 7  118 347 
 OCA  HZ I        1059  4.89         4.5 0.28            143            118 347 
 RUS  HN ES   2   1059  1.50                             135   -0.26 5  145 180 
 PTB  HZ EP       1058 41.26                             130    0.04 9  169 244 
 PTB  HN ES       1059  4.15                             130   -0.27 9  169 244 
 PTB  HZ I        1059  5.64         6.8 0.16            137            169 244 
 ZAR  HN ES       1059 10.00                             125    0.44 9  199 279 
 ZAR  HZ I        1059 11.56         7.7 0.10            131            199 279 
 SML  HZ EP       1058 44.84                             124   -0.16 8  208 328 
 SML  HN ES       1059 10.65                             124   -0.49 8  208 328 
                                                                                
