 2010  829 1035 15.1 L   6.265 -73.512114.1  RSN 10 0.4 1.7LRSN                1
 GAP=113        0.90       3.9     8.7 10.0 -0.1391E+02  0.4874E+02 -0.8752E+01E
 Epicentro: EL GUACAMAYO - SANTANDER                                           3
 ACTION:UP  10-09-07 10:59 OP:vdl  STATUS:               ID:20100829103515 L   I
 2010-08-29-1031-58S.COL___120                                                 6
 STAT SP IPHASW D HRMM SECON CODA AMPLIT PERI AZIMU VELO SNR AR TRES W  DIS CAZ7
 BAR2 SZ EP       1035 32.40                             154     0.310   51  45 
 BAR2 SZ ES   2   1035 45.44                             154     0.1 5   51  45 
 BAR2 SZ I        1035 46.84        34.3 0.28                            51  45 
 RUS  HZ EP       1035 33.45                             149     0.310   63 131 
 RUS  HZ I        1035 33.91         6.5 0.35                            63 131 
 RUS  HN ES   1   1035 46.97                             149    -0.2 7   63 131 
 BTL  SZ EP       1035 33.05                             143    -0.710   77  21 
 BTL  SZ ES   2   1035 47.44                             143    -0.8 5   77  21 
 BRR  HZ EP   2   1035 34.48                             137    -0.4 5   96 347 
 BRR  HN ES   2   1035 51.23                             137     1.0 5   96 347 
 GIR2 SZ EP   2   1035 35.42                             137     0.3 5   97  21 
 ROSC BE ES   2   1036  6.07                             118     0.0 4  181 210 
 CHI  HN ES   2   1036  6.73                             118     0.4 4  182 188 
 CHI  HZ I        1036 10.75         3.5 0.43                           182 188 
 OCA  SZ EP       1035 47.80                             112     0.2 8  219   6 
 OCA  SZ ES   2   1036 13.29                             112     0.3 4  219   6 
 OCA  SZ I        1036 20.63         4.7 0.74                           219   6 
 RREF HN ES   2   1036 20.61                             109    -0.3 4  253 234 
 RREF HZ I        1036 25.51         2.5 0.27                           253 234 
 PRA  HZ EP   2   1035 59.17                                    -0.1 3  321 208 
 PRA  HE ES   1   1036 33.47                             104    -0.2 5  321 208 
 PRA  HZ I        1036 38.47         4.3 0.85                           321 208 
                                                                                
