 2013  729 1713 26.5 L   6.631 -73.623100.0  RSN  5 0.3 1.3LRSN                1
 GAP=120        0.86       7.9     4.3  8.0  0.7731E+01  0.9279E+01 -0.6430E+01E
 Epicentro: EL CARMEN DE CHUCURI - SANTANDER                                   3
 ACTION:UPD 13-08-12 10:40 OP:ep   STATUS:               ID:20130729171326 L   I
 OLDACT:UP  13-07-29 17:06 OP:cam  STATUS:               ID:20130729170959     3
 OLDACT:REG 13-07-29 15:21 OP:cam  STATUS:               ID:20130729170959     3
 2013-07-29-1709-59M.COL___266                                                 6
 STAT SP IPHASW D HRMM SECON CODA AMPLIT PERI AZIMU VELO AIN AR TRES W  DIS CAZ7
 BAR2 SZ ES       1713 53.89                             152    0.2110 48.9  95 
 BAR2 SZ I        1713 55.07        11.7 0.19             47           48.9  95 
 BRR  HZ EP       1713 41.22                             150   -0.4810 53.6 349 
 PTB  HZ IP     C 1713 44.45                             134   -0.2710 92.7 264 
 PTB  HN ES       1713 59.00                             134    0.0410 92.7 264 
 PTB  HZ I        1714  0.74         3.8 0.30             47           92.7 264 
 RUS  HZ EP       1713 46.15                             132    0.0210  101 144 
 RUS  HZ I        1714  3.90         2.4 0.50             47            101 144 
 ZAR  HZ EP       1713 52.77                             117    0.58 9  166 305 
 ZAR  HZ I        1714 16.79         3.8 0.32             47            166 305 
                                                                                
