 2012  729 1410 45.1 L   6.619 -73.687103.0  RSN  4 0.2 1.5LRSN                1
 GAP=124        0.46       5.1     3.2  6.9  0.6737E+01  0.9832E+01  0.1966E+02E
 Epicentro: EL CARMEN DE CHUCURI - SANTANDER                                   3
 ACTION:UPD 12-08-14 11:46 OP:ep   STATUS:               ID:20120729141045 L   I
 2012-07-29-1410-00M.COL___215                                                 6
 STAT SP IPHASW D HRMM SECON CODA AMPLIT PERI AZIMU VELO AIN AR TRES W  DIS CAZ7
 BRR  HN ES   1   1411 13.02                             150     0.2 7   54 357 
 BAR2 SZ EP       1411  1.12                             149     0.010   56  93 
 BAR2 SZ ES   1   1411 13.49                             149    -0.2 7   56  93 
 BAR2 SZ I        1411 14.82        20.2 0.51            150             56  93 
 PTB  HZ EP       1411  3.10                             137     0.110   86 264 
 PTB  HZ I        1411  3.43         3.7 0.22            138             86 264 
 PTB  HN ES   2   1411 16.67                             137    -0.3 5   86 264 
 RUS  HZ EP   2   1411  5.16                             131    -0.2 5  105 140 
 RUS  HN ES   2   1411 21.50                             131     0.4 5  105 140 
