 2017 1229 1611 12.2 L   6.809 -73.133140.9  RSN  4 0.3 1.5LRSN                1
 GAP=154        0.70       7.6     4.5  8.4 -0.1279E+02  0.1397E+02  0.8237E+01E
 Epicentro: LOS SANTOS - SANTANDER                                             3
 ACTION:UPD 18-01-04 13:25 OP:rebc STATUS:               ID:20171229161112 L   I
 OLDACT:REG 17-12-29 21:59 OP:mg   STATUS:               ID:20171229160739     3
 2017-12-29-1608-00M.COL___451                                                 6
 STAT SP IPHASW D HRMM SECON CODA AMPLIT PERI AZIMU VELO AIN AR TRES W  DIS CAZ7
 BAR2 EZ EP       1611 30.85                             170   -0.3910 24.6 193 
 BAR2 EZ ES   2   1611 45.95                             170   -0.16 5 24.6 193 
 BAR2 EZ I        1611 47.27        11.5 0.24            172           24.6 193 
 PAM  EZ EP       1611 34.10                             150    0.3410 75.7  39 
 PAM  EN ES       1611 50.61                             150    0.0010 75.7  39 
 PAM  EZ I        1611 53.38         4.4 0.48            150           75.7  39 
 PTB  HZ EP       1611 38.91                             130    0.02 9  149 259 
 PTB  HN ES   1   1612  0.28                             130    0.55 7  149 259 
 PTB  HZ I        1612  2.14         2.9 0.09            131            149 259 
 ZAR  HZ EP   2   1611 44.39                             121   -0.01 4  205 292 
 ZAR  HE ES   1   1612  9.04                             121   -0.49 6  205 292 
 ZAR  HZ I        1612 16.24         3.9 0.34            121            205 292 
                                                                                
