 2013  929 1029 20.6 L   6.817 -73.157143.7  RSN 16 0.5 2.7LRSN                1
 GAP= 70        1.11       2.9     3.1  5.2 -0.2852E+00  0.4164E+01  0.2115E+01E
 Epicentro: LOS SANTOS - SANTANDER                                             3
 ACTION:UPD 13-10-22 09:25 OP:ep   STATUS:               ID:20130929102920 L   I
 OLDACT:UP  13-09-29 17:33 OP:jn   STATUS:               ID:20130929102737     3
 OLDACT:REG 13-09-29 16:07 OP:jn   STATUS:               ID:20130929102737     3
 2013-09-29-1027-37M.COL___237                                                 6
 STAT SP IPHASW D HRMM SECON CODA AMPLIT PERI AZIMU VELO AIN AR TRES W  DIS CAZ7
 BAR2 SZ EP       1029 40.09                             170    0.0910 25.1 186 
 BAR2 SZ ES       1029 54.70                             170   -0.4410 25.1 186 
 BAR2 SZ I        1029 56.96        88.1 0.22            166           25.1 186 
 BRR  HZ EP       1029 41.80                             153    0.4110 69.1 298 
 BRR  HN ES       1029 58.43                             153    0.8110 69.1 298 
 BRR  HZ I        1030  1.93        68.2 0.18            148           69.1 298 
 PAM  SZ EP       1029 42.94                             151    0.4010 76.7  41 
 PAM  SE ES       1029 59.41                             151   -0.2510 76.7  41 
 PAM  SZ I        1030  1.75        98.2 0.52            152           76.7  41 
 RUS  HZ EP       1029 44.22                             143   -0.0510  103 175 
 RUS  HN ES       1030  2.51                             143   -0.2510  103 175 
 RUS  HZ I        1030  4.75        46.5 0.34            140            103 175 
 PTB  HZ EP       1029 46.70                             132   -0.60 9  147 258 
 PTB  HN ES       1030  7.80                             132   -0.34 9  147 258 
 PTB  HZ I        1030 10.72        69.5 0.16            127            147 258 
 TAM  HZ EP       1029 48.53                             130    0.27 9  157 106 
 TAM  HN ES       1030 10.15                             130    0.30 9  157 106 
 OCA  HN ES   1   1030  9.46                             130   -0.88 7  158 354 
 OCA  HZ I        1030 15.16        39.7 0.22            127            158 354 
 SPBC HZ EP       1029 49.18                             128    0.19 9  164 218 
 SPBC HN ES       1030 11.60                             128    0.46 9  164 218 
 SPBC HZ I        1030 20.97        47.7 0.36            124            164 218 
 ZAR  HZ EP       1029 52.48                             122   -0.21 9  202 292 
 ZAR  HN ES       1030 17.85                             122    0.11 9  202 292 
 ZAR  HZ I        1030 25.59        59.3 0.22            119            202 292 
 NOR  HZ EP       1029 56.30                             118    0.10 8  235 234 
 NOR  HE ES       1030 23.05                             118   -0.93 8  235 234 
 NOR  HZ I        1030 26.20        40.5 0.20            115            235 234 
 SML  HZ EP       1029 56.03                             117   -0.81 8  241 335 
 SML  HE ES       1030 25.26                             117    0.14 8  241 335 
 CHI  HZ EP       1029 58.20                             116   -0.13 8  250 195 
 CHI  HN ES       1030 27.43                             116   -0.34 8  250 195 
 CHI  HZ I        1030 35.86        21.9 0.40            114            250 195 
 HEL  HZ EP       1030  0.08                             114   -0.52 8  271 255 
 HEL  HN ES       1030 33.09                             114    1.27 8  271 255 
 HEL  HZ I        1030 39.66        40.2 0.32            111            271 255 
 CBOC HZ EP       1030  7.83                             109    0.50 7  333 252 
 CBOC HZ I        1030 54.63         9.9 0.50            107            333 252 
 PRA  HZ EP       1030 14.50                             106    0.35 6  393 209 
 PRA  HN ES   1   1030 55.38                             106   -0.56 4  393 209 
 PRA  HZ I        1031  1.87        21.8 0.32            104            393 209 
 ORTC HZ EP       1030 14.89                             106    0.37 6  396 216 
 ORTC HN ES   1   1030 56.67                             106    0.07 4  396 216 
 ORTC HZ I        1031  4.69        18.7 0.62            104            396 216 
                                                                                
