 2017 1029 1138 17.7 L   6.816 -73.117143.2  RSN  8 0.4 1.3LRSN                1
 GAP=139        0.96       4.2     3.9  6.7 -0.1851E+01  0.8623E+01  0.1061E+01E
 Epicentro: LOS SANTOS - SANTANDER                                             3
 ACTION:UPD 17-11-07 19:38 OP:rebc STATUS:               ID:20171029113817 L   I
 OLDACT:UP  17-10-29 21:19 OP:dani STATUS:               ID:20171029112747d    3
 OLDACT:UP  17-10-29 21:18 OP:dani STATUS:               ID:20171029112747d    3
 OLDACT:DUP 17-10-29 21:16 OP:dani STATUS:               ID:20171029112747d    3
 2017-10-29-1128-00M.COL___404                                                 6
 STAT SP IPHASW D HRMM SECON CODA AMPLIT PERI AZIMU VELO AIN AR TRES W  DIS CAZ7
 BAR2 EZ EP       1138 36.92                             169   -0.1210 25.8 196 
 BAR2 EZ ES       1138 52.56                             169    0.4010 25.8 196 
 BRR  HZ EP       1138 38.70                             151    0.0410 73.2 296 
 BRR  HN ES       1138 55.23                             151    0.2010 73.2 296 
 BRR  HZ I        1138 56.42         6.9 0.26            150           73.2 296 
 PAM  EZ EP       1138 39.86                             151    0.4510 74.0  39 
 PAM  EN ES       1138 55.61                             151   -0.7610 74.0  39 
 RUS  HZ EP       1138 41.02                             143   -0.2610  102 178 
 RUS  HN ES       1139  0.03                             143    0.3210  102 178 
 RUS  HZ I        1139  0.90         1.8 0.30            144            102 178 
 PTB  HE ES       1139  5.32                             131   -0.55 9  151 258 
 ZAR  HZ EP       1138 50.44                             121    0.25 8  206 291 
 ZAR  HE ES       1139 15.90                             121    0.35 8  206 291 
 ZAR  HZ I        1139 21.19         1.5 0.23            121            206 291 
 NOR  HE ES       1139 21.48                             117   -0.22 8  238 235 
 GUY2CHN ES       1139 35.62                             111   -0.19 7  305 235 
                                                                                
