 2016 1029 1835  9.8 L   6.808 -73.170144.7  RSN  9 0.4 1.8LRSN                1
 GAP=133        0.99       4.2     4.8  6.3 -0.5995E+01  0.8182E+01  0.6028E+01E
 Epicentro: LOS SANTOS - SANTANDER                                             3
 ACTION:UPD 16-11-09 19:24 OP:rebc STATUS:               ID:20161029183509 L   I
 OLDACT:UP  16-10-29 20:47 OP:edw  STATUS:               ID:20161029182745     3
 OLDACT:UP  16-10-29 20:46 OP:edw  STATUS:               ID:20161029182745     3
 OLDACT:UP  16-10-29 20:46 OP:edw  STATUS:               ID:20161029182745     3
 OLDACT:UP  16-10-29 20:45 OP:edw  STATUS:               ID:20161029182745     3
 OLDACT:UP  16-10-29 20:45 OP:edw  STATUS:               ID:20161029182745     3
 OLDACT:REG 16-10-29 19:47 OP:edw  STATUS:               ID:20161029182745     3
 2016-10-29-1828-00M.COL___325                                                 6
 STAT SP IPHASW D HRMM SECON CODA AMPLIT PERI AZIMU VELO AIN AR TRES W  DIS CAZ7
 BAR2 EZ IP     C 1835 29.25                             170   -0.0610 23.9 183 
 BAR2 EZ EP     D 1835 29.26                             170   -0.0510 23.9 183 
 BAR2 EZ ES       1835 44.23                             170   -0.3010 23.9 183 
 BAR2 EZ I        1835 45.43        13.2 0.12            169           23.9 183 
 BRR  HZ EP       1835 31.09                             153    0.4210 68.4 299 
 BRR  HN ES   2   1835 47.80                             153    0.85 5 68.4 299 
 PAM  EZ IP     C 1835 32.15                             150    0.1910 78.4  41 
 PAM  EN ES       1835 49.45                             150    0.2010 78.4  41 
 PAM  EZ I        1835 51.11        18.7 0.54            152           78.4  41 
 RUS  HZ EP       1835 32.60                             143   -0.9310  102 175 
 RUS  HN ES       1835 52.26                             143    0.2310  102 175 
 RUS  HZ I        1835 53.30         8.4 0.22            143            102 175 
 PTB  HZ EP       1835 36.50                             132    0.04 9  145 258 
 PTB  HN ES       1835 56.61                             132   -0.64 9  145 258 
 PTB  HZ I        1835 59.78         8.9 0.16            132            145 258 
 SPBC HN ES   4   1835 57.59                             129   -2.63 0  162 218 
 NOR  HN ES       1836 13.34                             118    0.37 8  233 234 
 CHI  HZ EP       1835 47.66                             117    0.20 8  249 195 
 CHI  HN ES       1836 17.05                             117    0.21 8  249 195 
 CHI  HZ I        1836 20.43         3.1 0.40            117            249 195 
 GUY2CHZ EP       1835 52.93                             112   -0.24 7  300 234 
 GUY2CHN ES   4   1836 28.27                             112    1.27 0  300 234 
 GUY2CHZ I        1836 35.59         2.2 0.30                           300 234 
 PRA  HZ EP       1836  3.07                             106   -0.16 6  392 209 
 PRA  HE ES       1836 45.76                             106    0.87 6  392 209 
 PRA  HZ I        1836 51.99         3.2 0.28            107            392 209 
 URI  HZ EP   4   1836 29.96                             100    7.22 0  556  13 
 URI  HN ES   4   1837 22.15                             100    2.51 0  556  13 
                                                                                
