 2010  929 1235 36.0 L   6.805 -73.008138.0  RSN  5 0.2 1.7LRSN                1
 GAP=174        0.54       3.4     5.8  7.0  0.4526E+00 -0.1208E+02 -0.4104E+01E
 Epicentro: CEPITA - SANTANDER                                                 3
 ACTION:UP  11-02-18 11:06 OP:tino STATUS:               ID:20100929123536 L   I
 2010-09-29-1230-12S.COL___125                                                 6
 STAT SP IPHASW D HRMM SECON CODA AMPLIT PERI AZIMU VELO SNR AR TRES W  DIS CAZ7
 BAR2 SZ EP       1235 55.03                             167     0.110   31 220 
 BAR2 SZ ES   2   1236  9.60                             167     0.0 5   31 220 
 BAR2 SZ I        1236 11.44        16.1 0.09                            31 220 
 BRR  HZ IP     C 1235 56.89                             147    -0.310   85 293 
 BRR  HZ I        1235 57.18        25.7 0.27                            85 293 
 BRR  HN ES       1236 13.85                             147     0.110   85 293 
 RUS  HN ES   1   1236 16.99                             142     0.0 7  101 185 
 RUS  HZ I        1236 18.52         2.5 0.10                           101 185 
 GUE  SZ EP   1   1236  0.03                             139     0.2 7  114   5 
 GRA  SZ ES   1   1236 18.98                             136    -0.1 7  122  11 
                                                                                
