 2012  529 1016 46.1 L   5.975 -73.682106.0  RSN  4 0.3 1.5LRSN                1
 GAP=208        0.75       7.9     5.0 10.2  0.2207E+02  0.2128E+02  0.1643E+02E
 Epicentro: VELEZ - SANTANDER                                                  3
 ACTION:UP  12-07-05 12:08 OP:pat  STATUS:               ID:20120529101646 L   I
 2012-05-29-1010-00M.COL___200                                                 6
 STAT SP IPHASW D HRMM SECON CODA AMPLIT PERI AZIMU VELO AIN AR TRES W  DIS CAZ7
 RUS  HZ EP       1017  3.72                             146     0.210   67  98 
 RUS  HZ I        1017  4.49         4.1 0.15                            67  98 
 RUS  HE ES   2   1017 17.16                             146     0.0 5   67  98 
 BAR2 SZ EP       1017  4.49                             138    -0.310   88  39 
 BAR2 SZ ES   1   1017 19.51                             138     0.2 7   88  39 
 BAR2 SZ I        1017 20.60        11.1 0.36                            88  39 
 PTB  HZ EP       1017  5.79                             132    -0.310  106 306 
 PTB  HN ES   1   1017 21.85                             132     0.2 7  106 306 
 PTB  HZ I        1017 25.33         4.7 0.15                           106 306 
 ZAR  HZ EP   1   1017 17.89                             111     0.6 6  212 322 
 ZAR  HN ES   1   1017 41.43                             111    -0.1 6  212 322 
 ZAR  HZ I        1017 43.51         5.3 0.35                           212 322 
                                                                                
