 2013  129 1014 37.4 L   6.809 -73.124145.2  RSN  7 0.3 1.5LRSN                1
 GAP=139        0.85       3.7     4.7  5.9 -0.1670E+01  0.1082E+01  0.3501E+01E
 Epicentro: LOS SANTOS - SANTANDER                                             3
 ACTION:UPD 13-02-15 09:17 OP:ep   STATUS:               ID:20130129101437 L   I
 2013-01-29-1010-00M.COL___241                                                 6
 STAT SP IPHASW D HRMM SECON CODA AMPLIT PERI AZIMU VELO AIN AR TRES W  DIS CAZ7
 BAR2 SZ EP       1014 57.10                             170    0.0910 24.8 195 
 BAR2 SZ ES       1015 11.89                             170   -0.4010 24.8 195 
 BAR2 SZ I        1015 13.15        12.5 0.18            170           24.8 195 
 BRR  HZ EP       1014 58.74                             152    0.1410 72.9 297 
 BRR  HN ES       1015 15.79                             152    0.6610 72.9 297 
 BRR  HZ I        1015 16.77         5.5 0.14            153           72.9 297 
 PAM  SZ EP       1014 59.75                             151    0.3110 75.1  39 
 PAM  SZ I        1015  0.09        10.6 0.20            152           75.1  39 
 PAM  SN ES   1   1015 16.63                             151    0.02 7 75.1  39 
 RUS  HZ EP   1   1015  1.47                             143    0.30 7  101 177 
 RUS  HN ES   1   1015 19.54                             143   -0.16 7  101 177 
 RUS  HZ I        1015 20.85         3.9 0.28            144            101 177 
 PTB  HZ EP       1015  4.25                             131   -0.32 9  150 259 
 PTB  HN ES       1015 25.64                             131   -0.11 9  150 259 
 PTB  HZ I        1015 26.17         2.4 0.28            132            150 259 
 OCA  HN ES       1015 27.07                             130   -0.55 9  160 352 
 CHI  HZ EP       1015 15.14                             117   -0.11 8  250 196 
                                                                                
