 2011 1129 1816  4.2 L   6.799 -73.112140.7  RSN  4 0.2 1.8LRSN                1
 GAP=141        0.54       3.6     5.1  5.4 -0.7079E+00 -0.1407E+01 -0.7374E+00E
 Epicentro: LOS SANTOS - SANTANDER                                             3
 ACTION:UPD 12-07-13 16:13 OP:ep   STATUS:               ID:20111129181604 L   I
 2011-11-29-1812-41S.COL___160                                                 6
 STAT SP IPHASW D HRMM SECON CODA AMPLIT PERI AZIMU VELO AIN AR TRES W  DIS CAZ7
 BAR2 SZ EP       1816 23.02                             170   -0.2310 24.2 199 
 BAR2 SZ ES   1   1816 37.84                             170   -0.26 7 24.2 199 
 BAR2 SZ I        1816 41.66         8.7 0.59                          24.2 199 
 BRR  HZ EP       1816 24.81                             151   -0.2010 74.5 297 
 BRR  HN ES   1   1816 41.56                             151    0.33 7 74.5 297 
 BRR  HN I        1816 45.86        34.3 0.09                          74.5 297 
 PAM  SZ EP       1816 25.88                             151    0.1310 75.1  37 
 PAM  SE ES   1   1816 42.59                             151    0.04 7 75.1  37 
 RUS  HZ EP   1   1816 27.76                             143    0.31 7  100 178 
 RUS  HN ES   1   1816 45.69                             143    0.12 7  100 178 
 RUS  HZ I        1816 47.39         5.4 0.35                           100 178 
                                                                                
