 2016  929 1406  3.0 L   6.847 -73.131143.3  RSN  4 0.3 0.9LRSN                1
 GAP=144        0.75       4.6     3.9  7.0 -0.4770E+01  0.1320E+01  0.2790E+01E
 Epicentro: LOS SANTOS - SANTANDER                                             3
 ACTION:UPD 17-08-17 21:17 OP:lp   STATUS:               ID:20160929140603 L   I
 OLDACT:DUP 16-09-29 23:56 OP:edw  STATUS:               ID:20160929135743d    3
 OLDACT:UP  16-09-29 23:54 OP:edw  STATUS:               ID:20160929135742d    3
 OLDACT:UP  16-09-29 23:53 OP:edw  STATUS:               ID:20160929135742d    3
 OLDACT:UP  16-09-29 23:52 OP:edw  STATUS:               ID:20160929135742d    3
 OLDACT:DUP 16-09-29 23:50 OP:edw  STATUS:               ID:20160929135742d    3
 2016-09-29-1358-00M.COL___372                                                 6
 STAT SP IPHASW D HRMM SECON CODA AMPLIT PERI AZIMU VELO AIN AR TRES W  DIS CAZ7
 PAM  EZ EP       14 6 24.27                             152   -0.4210 72.3  41 
 PAM  EN ES       14 6 41.78                             152    0.2010 72.3  41 
 RUS  HZ EP       14 6 27.32                             142    0.4010  106 177 
 RUS  HN ES       14 6 45.27                             142   -0.2910  106 177 
 RUS  HZ I        14 6 47.89         0.9 0.28            142            106 177 
 PTB  HZ EP       14 6 29.86                             131   -0.19 9  150 257 
 PTB  HN ES       14 6 51.30                             131    0.17 9  150 257 
 PTB  HZ I        14 6 53.54         1.5 0.10            132            150 257 
 TAM  HZ EP       14 6 30.66                             130    0.16 9  155 107 
                                                                                
