 2013  429 1358 34.7 L   6.773 -73.133148.3  RSN 10 0.3 2.6LRSN                1
 GAP=139        0.61       2.9     3.5  4.7 -0.8342E+00  0.2301E+01 -0.2608E+01E
 Epicentro: LOS SANTOS - SANTANDER                                             3
 ACTION:UPD 13-05-22 14:41 OP:EP   STATUS:               ID:20130429135834 L   I
 2013-04-29-1357-52M.COL___205                                                 6
 STAT SP IPHASW D HRMM SECON CODA AMPLIT PERI AZIMU VELO AIN AR TRES W  DIS CAZ7
 BAR2 SZ EP     C 1358 54.70                             172    0.1010 20.7 195 
 BAR2 SZ ES   1   1359  9.76                             172   -0.35 7 20.7 195 
 BAR2 SZ I        1359 11.38        28.2 0.20            169           20.7 195 
 BRR  HZ EP     C 1358 56.54                             152    0.2510 73.9 300 
 BRR  HN ES   1   1359 13.81                             152    0.70 7 73.9 300 
 BRR  HN I        1359 17.10        86.5 0.16            149           73.9 300 
 PAM  SZ EP   1   1358 57.57                             151    0.28 7 78.9  37 
 PAM  SN ES   2   1359 14.80                             151   -0.10 5 78.9  37 
 PAM  SN I        1359 17.24        24.3 0.54            156           78.9  37 
 RUS  HZ EP   1   1358 58.66                             145    0.16 7 97.5 177 
 RUS  HN ES   1   1359 16.89                             145   -0.15 7 97.5 177 
 RUS  HN I        1359 19.58        18.9 0.24            148           97.5 177 
 PTB  HZ EP   1   1359  1.50                             132   -0.46 7  149 260 
 PTB  HN ES       1359 22.95                             132   -0.26 9  149 260 
 PTB  HN I        1359 28.04        78.4 0.46            131            149 260 
 OCA  HZ EP   1   1359  3.47                             130   -0.05 7  163 353 
 OCA  HN ES   1   1359 25.49                             130   -0.50 7  163 353 
 ZAR  HZ EP   1   1359  7.42                             123   -0.15 6  206 293 
 ZAR  HN ES   2   1359 33.25                             123    0.05 4  206 293 
 ZAR  HN I        1359 39.28        63.3 0.26            123            206 293 
 NOR  HZ EP   1   1359 10.72                             119    0.20 6  234 235 
 NOR  HN ES   2   1359 38.62                             119    0.17 4  234 235 
 NOR  HN I        1359 44.78        64.4 0.14            120            234 235 
 SML  HZ EP   1   1359 11.57                             118   -0.27 6  247 335 
 SML  HN ES   2   1359 41.21                             118    0.41 4  247 335 
 SML  HN I        1359 43.63        61.2 0.34            119            247 335 
 URE  HZ EP   4   1359 15.18                             114   -1.00 0  286 292 
 URE  HN ES   4   1359 47.57                             114   -0.94 0  286 292 
 URE  HN I        1359 55.85        27.4 0.24            115            286 292 
                                                                                
