 2016 1129 1036 17.6 L   6.780 -73.147147.8  RSN  4 0.2 1.3LRSN                1
 GAP=152        0.52       4.7     2.8  5.0 -0.4309E+01  0.5027E+01 -0.3091E+01E
 Epicentro: LOS SANTOS - SANTANDER                                             3
 ACTION:UPD 17-10-26 21:13 OP:lp   STATUS:               ID:20161129103617 L   I
 OLDACT:DUP 16-11-29 22:54 OP:lv   STATUS:               ID:20161129102743d    3
 2016-11-29-1028-00M.COL___348                                                 6
 STAT SP IPHASW D HRMM SECON CODA AMPLIT PERI AZIMU VELO AIN AR TRES W  DIS CAZ7
 BAR2 EZ EP       1036 37.69                             171    0.2410 21.1 191 
 BAR2 EZ ES       1036 52.90                             171   -0.0310 21.1 191 
 PAM  EZ EP       1036 40.28                             151    0.1210 79.2  39 
 PAM  EE ES       1036 57.60                             151   -0.1410 79.2  39 
 PAM  EZ I        1037  1.56         2.3 0.32            148           79.2  39 
 PTB  HZ EP       1036 44.34                             133   -0.36 9  147 260 
 PTB  HN ES       1037  5.89                             133    0.06 9  147 260 
 PTB  HZ I        1037  8.81         3.0 0.11            133            147 260 
 ZAR  HN ES       1037 15.85                             123    0.11 9  205 293 
 ZAR  HZ I        1037 22.33         2.0 0.14            122            205 293 
                                                                                
