 2013  729 1359 30.5 L   6.753 -73.135145.3  RSN  8 0.4 1.7LRSN                1
 GAP=160        0.92       7.1     5.2  7.0 -0.1200E+02  0.8803E+01 -0.7011E+01E
 Epicentro: LOS SANTOS - SANTANDER                                             3
 ACTION:UPD 13-08-12 10:40 OP:ep   STATUS:               ID:20130729135930 L   I
 OLDACT:UP  13-07-29 17:49 OP:cam  STATUS:               ID:20130729135851     3
 OLDACT:REG 13-07-29 17:46 OP:cam  STATUS:               ID:20130729135851     3
 2013-07-29-1358-51M.COL___237                                                 6
 STAT SP IPHASW D HRMM SECON CODA AMPLIT PERI AZIMU VELO AIN AR TRES W  DIS CAZ7
 BAR2 SZ ES       14 0  4.82                             173   -0.3210 18.5 196 
 BAR2 SZ I        14 0  6.79        11.7 0.18            168           18.5 196 
 GIR2 SZ EP       1359 50.08                             165   -0.1510 36.6 350 
 GIR2 SZ ES   1   14 0  5.84                             165    0.19 7 36.6 350 
 BRR  HZ EP       1359 51.80                             151    0.0410 74.8 302 
 BRR  HN ES       14 0  8.97                             151    0.5910 74.8 302 
 BRR  HZ I        14 0  9.96        10.3 0.32            148           74.8 302 
 PAM  SZ EP       1359 52.84                             150    0.0110 80.8  37 
 PAM  SZ I        1359 52.98        10.8 0.18            153           80.8  37 
 PAM  SN ES   1   14 0 10.25                             150   -0.03 7 80.8  37 
 PTB  HN ES   1   14 0 17.38                             132   -1.04 7  148 261 
 PTB  HZ I        14 0 17.91         7.6 0.54            129            148 261 
 ZAR  HZ EP   1   14 0  3.21                             122    0.02 6  207 293 
 ZAR  HE ES   1   14 0 28.91                             122    0.19 6  207 293 
 ZAR  HZ I        14 0 34.91         5.0 0.46            120            207 293 
 NOR  HN ES   1   14 0 34.39                             119    0.77 6  233 236 
 NOR  HZ I        14 0 41.85         2.3 0.18            116            233 236 
 SML  HN ES   2   14 0 35.83                             117   -0.78 4  249 336 
                                                                                
