 2012  729 1120  0.7 L   6.744 -73.217137.0  RSN  4 0.2 1.3LRSN                1
 GAP=221        0.44       6.0     4.7  8.5  0.4811E+01  0.9008E+01 -0.2864E+02E
 Epicentro: VILLANUEVA - SANTANDER                                             3
 ACTION:UPD 12-08-14 11:46 OP:ep   STATUS:               ID:20120729112000 L   I
 2012-07-29-1120-00M.COL___215                                                 6
 STAT SP IPHASW D HRMM SECON CODA AMPLIT PERI AZIMU VELO AIN AR TRES W  DIS CAZ7
 BAR2 SZ EP   2   1120 18.85                             173    -0.3 5   17 167 
 BAR2 SZ ES   2   1120 33.34                             173    -0.2 5   17 167 
 BAR2 SZ I        1120 34.63         5.5 0.25            174             17 167 
 BRR  HZ EP       1120 20.84                             152     0.210   68 306 
 BRR  HZ I        1120 21.26         6.5 0.11            151             68 306 
 RUS  HN ES   1   1120 40.81                             144     0.1 7   95 171 
 PTB  HZ EP   1   1120 25.95                             132    -0.2 7  139 261 
 PTB  HN ES   1   1120 45.97                             132     0.0 7  139 261 
 PTB  HZ I        1120 48.51         1.4 0.19            133            139 261 
