 2014  729 1230 17.0 L   6.821 -73.156146.0  RSN 12 0.4 2.5LRSN                1
 GAP=134        0.85       2.5     3.4  4.9 -0.1121E+01  0.6569E+01  0.1389E+01E
 Epicentro: LOS SANTOS - SANTANDER                                             3
 ACTION:UPD 15-03-16 20:48 OP:nd   STATUS:               ID:20140729123017 L   I
 OLDACT:REG 14-07-29 21:31 OP:carl STATUS:               ID:20140729122818     3
 2014-07-29-1228-18M.COL___251                                                 6
 STAT SP IPHASW D HRMM SECON CODA AMPLIT PERI AZIMU VELO AIN AR TRES W  DIS CAZ7
 BAR2 SZ EP       1230 36.80                             170    0.1110 25.5 187 
 BAR2 SZ ES       1230 52.22                             170    0.1510 25.5 187 
 BAR2 SZ I        1230 54.47        48.6 0.28            167           25.5 187 
 PAM  SZ EP       1230 39.51                             151    0.3410 76.3  41 
 PAM  SN ES       1230 56.79                             151    0.3210 76.3  41 
 PAM  SZ I        1230 58.91        43.4 0.46            157           76.3  41 
 RUS  HZ EP       1230 40.65                             143   -0.2910  103 176 
 RUS  HN ES       1230 59.38                             143   -0.2410  103 176 
 RUS  HZ I        1231  0.45        17.7 0.44            145            103 176 
 PTB  HZ EP       1230 43.38                             132   -0.54 9  147 258 
 PTB  HN ES       1231  4.33                             132   -0.59 9  147 258 
 PTB  HZ I        1231 12.38        33.8 0.34            131            147 258 
 ZAR  HN ES       1231 14.70                             123    0.29 9  202 292 
 ZAR  HZ I        1231 21.12        30.2 0.30            123            202 292 
 NOR  HZ EP       1230 53.00                             118    0.22 8  235 234 
 NOR  HN ES       1231 20.90                             118    0.20 8  235 234 
 NOR  HZ I        1231 24.61        20.9 0.26            119            235 234 
 SML  HZ EP       1230 52.68                             118   -0.66 8  241 335 
 SML  HN ES       1231 21.63                             118   -0.07 8  241 335 
 SML  HZ I        1231 25.28        29.9 0.24            120            241 335 
 CHI  HZ EP       1230 54.76                             117   -0.16 8  251 195 
 CHI  HN ES       1231 24.07                             117   -0.43 8  251 195 
 CHI  HZ I        1231 32.82        10.4 0.58            119            251 195 
 GUY2CHZ EP       1231  1.02                             112    0.36 7  302 234 
 GUY2CHN ES       1231 35.15                             112    0.43 7  302 234 
 GUY2CHZ I        1231 43.36        22.9 0.76                           302 234 
 RREF HZ EP   4   1231  4.77                             111    1.55 0  322 229 
 RREF HN ES   4   1231 41.48                             111    2.20 0  322 229 
 RREF HZ I        1231 48.41        14.1 0.50            112            322 229 
 TOL  SZ EP       1231  5.54                             109    0.18 7  344 224 
 TOL  SN ES       1231 43.74                             109    0.66 7  344 224 
 TOL  SZ I        1231 50.65        36.3 0.38            110            344 224 
 PRA  HZ EP       1231 11.28                             106    0.59 6  394 209 
 PRA  HN ES       1231 52.50                             106   -0.08 6  394 209 
 PRA  HZ I        1231 58.51        14.4 0.34            108            394 209 
                                                                                
