 2013  929 1703 34.6 L   6.312 -73.593109.1  RSN  4 0.3 1.1LRSN                1
 GAP=155        0.72       5.9     3.8  8.0  0.1215E+02  0.1001E+02  0.3582E+01E
 Epicentro: SANTA HELENA DEL OPON - SANTANDER                                  3
 ACTION:UPD 13-10-22 09:26 OP:ep   STATUS:               ID:20130929170334 L   I
 OLDACT:REG 13-09-29 14:59 OP:jn   STATUS:               ID:20130929165959     3
 2013-09-29-1659-59M.COL___272                                                 6
 STAT SP IPHASW D HRMM SECON CODA AMPLIT PERI AZIMU VELO AIN AR TRES W  DIS CAZ7
 BAR2 SZ EP       17 3 51.18                             151   -0.0110 54.9  56 
 BAR2 SZ ES       17 4  3.96                             151   -0.1910 54.9  56 
 RUS  HZ EP       17 3 52.78                             144    0.0410 73.0 129 
 RUS  HN ES       17 4  7.15                             144    0.2510 73.0 129 
 RUS  HZ I        17 4  8.21         1.5 0.24            148           73.0 129 
 PTB  HZ EP   1   17 3 53.62                             134   -0.51 7 98.8 285 
 PTB  HN ES       17 4  9.27                             134   -0.1110 98.8 285 
 PTB  HZ I        17 4 12.29         3.4 0.42            133           98.8 285 
 ZAR  HN ES   1   17 4 26.80                             115    0.72 7  191 313 
 ZAR  HZ I        17 4 31.91         3.3 0.12            114            191 313 
                                                                                
