 2013  329 1043 47.9 L   5.839 -73.699110.6  RSN  5 0.3 1.3LRSN                1
 GAP=228        0.53       5.2     3.3  8.5  0.4043E+01  0.5828E+01  0.1997E+02E
 Epicentro: PUENTE NACIONAL - SANTANDER                                        3
 ACTION:UPD 13-04-09 14:05 OP:ep   STATUS:               ID:20130329104347 L   I
 2013-03-29-1040-00M.COL___245                                                 6
 STAT SP IPHASW D HRMM SECON CODA AMPLIT PERI AZIMU VELO AIN AR TRES W  DIS CAZ7
 RUS  HZ EP   1   1044  6.03                             146    0.13 8 68.5  85 
 BAR2 SZ EP   1   1044  7.82                             134   -0.27 8  101  34 
 BAR2 SZ ES   1   1044 24.02                             134    0.19 8  101  34 
 BAR2 SZ I        1044 25.30         5.4 0.18            136            101  34 
 PTB  HZ EP       1044  9.15                             130    0.1810  114 313 
 PTB  HN ES       1044 25.21                             130   -0.1810  114 313 
 PTB  HN I        1044 27.60         3.1 0.28            132            114 313 
 BRR  HN ES       1044 29.77                             124   -0.1010  140 359 
 BRR  HN I        1044 32.46         3.7 0.16            126            140 359 
 ZAR  HZ EP   1   1044 20.29                             111   -0.22 6  223 325 
 ZAR  HN ES   2   1044 46.72                             111    0.79 4  223 325 
                                                                                
