 2016  929 1116 32.6 L   6.800 -73.294126.9  RSN  9 0.3 1.7LRSN                1
 GAP=104        0.79       2.6     3.2  4.9 -0.1605E+00  0.1738E+01 -0.2263E+01E
 Epicentro: ZAPATOCA - SANTANDER                                               3
 ACTION:UPD 17-08-17 21:17 OP:lp   STATUS:               ID:20160929111632 L   I
 OLDACT:UP  16-09-29 23:20 OP:edw  STATUS:               ID:20160929110747d    3
 OLDACT:UP  16-09-29 23:19 OP:edw  STATUS:               ID:20160929110747d    3
 OLDACT:DUP 16-09-29 23:12 OP:edw  STATUS:               ID:20160929110747d    3
 2016-09-29-1108-00M.COL___372                                                 6
 STAT SP IPHASW D HRMM SECON CODA AMPLIT PERI AZIMU VELO AIN AR TRES W  DIS CAZ7
 BAR2 EZ EP       1116 50.07                             168    0.0510 26.1 152 
 BAR2 EZ ES       1117  3.60                             168   -0.0210 26.1 152 
 BAR2 EZ I        1117  4.12        30.1 0.30            169           26.1 152 
 BRR  HZ EP       1116 50.72                             154   -0.2010 57.3 306 
 BRR  HN ES       1117  5.15                             154   -0.0710 57.3 306 
 PAM  EZ EP       1116 54.36                             143    0.7410 88.7  48 
 PAM  EN ES       1117 10.21                             143    0.1810 88.7  48 
 PAM  EZ I        1117 14.07         9.0 0.34            144           88.7  48 
 RUS  HZ EP       1116 54.52                             139   -0.2010  103 167 
 RUS  HN ES       1117 11.71                             139   -0.2810  103 167 
 RUS  HZ I        1117 13.82         4.2 0.24            140            103 167 
 PTB  HZ EP   9   1116 54.99                             131   -1.57 0  132 257 
 PTB  HN ES       1117 14.01                             134    0.3210  132 257 
 PTB  HZ I        1117 15.38         7.8 0.18            132            132 257 
 SPBC HZ EP   4   1116 59.45                             126    0.72 0  153 214 
 SPBC HN ES       1117 19.26                             126    0.14 9  153 214 
 SPBC HZ I        1117 21.88         8.3 0.22            127            153 214 
 OCA  HZ EP       1116 59.27                             125   -0.12 9  159 359 
 OCA  HN ES       1117 19.86                             125   -0.44 9  159 359 
 ZAR  HZ EP       1117  2.07                             120   -0.19 9  189 294 
 ZAR  HN ES       1117 25.79                             120    0.38 9  189 294 
 ZAR  HZ I        1117 29.83         5.0 0.08            121            189 294 
 NOR  HN ES   4 C 1117 31.29                             116   -0.48 0  222 232 
 CHI  HZ EP   4   1117  8.82                             113   -0.06 0  245 191 
 CHI  HN ES   4   1117 38.06                             113    0.87 0  245 191 
 GUY2CHZ EP   4   1117  4.39                             110   -9.47 0  288 233 
 GUY2CHN ES   4   1117 48.42                             110    2.37 0  288 233 
 GUY2CHZ I        1117 52.44         1.9 0.58                           288 233 
                                                                                
