 2010 1029 1002 35.5 L   6.834 -73.054143.0  RSN  4 0.3 1.3LRSN                1
 GAP=168        0.54       4.2     8.8  8.0 -0.2085E+01 -0.1948E+02 -0.3052E+01E
 Epicentro: LOS SANTOS - SANTANDER                                             3
 ACTION:UP  11-02-18 11:13 OP:tino STATUS:               ID:20101029100235 L   I
 2010-10-29-1000-57S.COL___128                                                 6
 STAT SP IPHASW D HRMM SECON CODA AMPLIT PERI AZIMU VELO SNR AR TRES W  DIS CAZ7
 BAR2 SZ EP   1   10 2 55.00                             168     0.1 7   30 208 
 BAR2 SZ ES   2   10 3  9.75                             168    -0.4 5   30 208 
 BRR  HZ EP   1   10 2 56.37                             150    -0.4 7   79 293 
 BRR  HZ I        10 2 59.04         4.6 0.27                            79 293 
 BRR  HN ES   2   10 3 13.85                             150     0.5 5   79 293 
 RUS  HZ EP   1   10 2 59.38                             142     0.2 7  104 182 
 RUS  HE ES   2   10 3 17.70                             142     0.0 5  104 182 
 RUS  HZ I        10 3 19.10         2.5 0.42                           104 182 
 GRA  SZ EP   1   10 3  0.02                             138     0.1 7  119  13 
 GRA  SZ ES   2   10 3 19.06                             138     0.0 5  119  13 
 GRA  SZ I        10 3 21.02         2.3 0.43                           119  13 
                                                                                
