 2016  329 1618 25.0 L   6.697 -73.398121.1  RSN  8 0.5 1.6LRSN                1
 GAP=109        1.09       4.4     3.2  7.8 -0.2400E+01  0.9814E+01 -0.2700E+01E
 Epicentro: EL CARMEN - SANTANDER                                              3
 ACTION:UPD 16-05-13 21:28 OP:cam  STATUS:               ID:20160329161825 L   I
 OLDACT:UP  16-03-30 00:35 OP:ak   STATUS:               ID:20160329160749d    3
 OLDACT:UP  16-03-30 00:35 OP:ak   STATUS:               ID:20160329160749d    3
 OLDACT:DUP 16-03-30 00:29 OP:ak   STATUS:               ID:20160329160749d    3
 2016-03-29-1607-48M.COL___310                                                 6
 STAT SP IPHASW D HRMM SECON CODA AMPLIT PERI AZIMU VELO AIN AR TRES W  DIS CAZ7
 BAR2 EZ EP       1618 41.91                             167    0.1910 26.5 116 
 BAR2 EZ ES       1618 55.22                             167    0.4310 26.5 116 
 BAR2 EZ I        1618 56.23        18.1 0.40            171           26.5 116 
 RUS  HZ EP   1   1618 45.93                             139   -0.04 7 95.5 159 
 RUS  HN ES       1619  1.86                             139   -0.5010 95.5 159 
 RUS  HZ I        1619  4.67         5.3 0.22            144           95.5 159 
 PAM  EZ EP       1618 46.57                             137   -0.1610  105  47 
 PAM  EN ES       1619  3.73                             137    0.0210  105  47 
 PAM  EZ I        1619  7.21         6.1 0.42            140            105  47 
 PTB  HZ EP       1618 46.63                             132   -0.6310  118 262 
 PTB  HE ES       1619  3.90                             132   -0.7410  118 262 
 PTB  HZ I        1619  8.06         8.3 0.14            134            118 262 
 TAM  HE ES       1619 15.80                             120    0.24 9  180  99 
 ZAR  HZ EP       1618 53.60                             119   -0.14 9  184 299 
 ZAR  HN ES       1619 16.73                             119    0.54 9  184 299 
 ZAR  HZ I        1619 21.58        10.1 0.22            121            184 299 
 NOR  HZ EP   2   1618 56.58                             116    0.43 4  205 233 
 NOR  HN ES       1619 21.44                             116    0.97 8  205 233 
 NOR  HZ I        1619 26.04         4.4 0.07            119            205 233 
 GUY2CHZ EP   1   1619  4.07                             109   -0.10 6  272 233 
 GUY2CHE ES       1619 34.93                             109    0.19 8  272 233 
 GUY2CHZ I        1619 46.27         1.7 0.32                           272 233 
                                                                                
