 2011  729 1804 28.3 L   6.807 -73.142156.0  RSN  7 0.3 2.1LRSN                1
 GAP=156        0.64       4.1     4.5  6.9 -0.3046E+01  0.2394E+01  0.4667E+01E
 Epicentro: LOS SANTOS - SANTANDER                                             3
 ACTION:UPD 12-07-25 14:04 OP:epov STATUS:               ID:20110729180428 L   I
 2011-07-29-1800-00M.COL___129                                                 6
 STAT SP IPHASW D HRMM SECON CODA AMPLIT PERI AZIMU VELO AIN AR TRES W  DIS CAZ7
 BAR2 SZ IP     C 18 4 48.88                             171   -0.2710 24.1 191 
 BAR2 SZ I        18 4 49.34        15.9 0.17                          24.1 191 
 BRR  HZ EP       18 4 50.77                             154    0.2310 71.2 298 
 BRR  HZ I        18 4 58.55        28.1 0.12                          71.2 298 
 BRR  HN ES   1   18 5  7.88                             154   -0.03 7 71.2 298 
 RUS  HZ EP       18 4 52.76                             146   -0.3310  101 176 
 RUS  HZ I        18 4 53.38         7.0 0.18                           101 176 
 RUS  HN ES   1   18 5 12.84                             146    0.39 7  101 176 
 BRI  SZ EP   1   18 4 53.36                             144    0.26 7  108  21 
 BRI  SZ I        18 5 15.04        10.9 0.21                           108  21 
 NOR  SZ EP   1   18 5  4.50                             121   -0.20 6  235 234 
 NOR  SN ES   1   18 5 32.74                             121   -0.36 6  235 234 
 HEL  HN ES   1   18 5 40.96                             117    0.04 6  273 256 
 PRA  HZ EP   1   18 5 22.57                             108    0.31 4  393 210 
 PRA  HE ES   1   18 6  5.21                             108    0.84 4  393 210 
 PRA  HZ I        18 6  9.82        15.5 0.19                           393 210 
                                                                                
