 2016  329 1410 24.0 L   6.790 -73.143141.3  RSN  7 0.4 1.6LRSN                1
 GAP=137        0.82       3.4     3.6  5.6 -0.6198E+00  0.7648E+01  0.3417E+01E
 Epicentro: LOS SANTOS - SANTANDER                                             3
 ACTION:UPD 16-05-13 21:28 OP:cam  STATUS:               ID:20160329141024 L   I
 OLDACT:REG 16-03-29 20:24 OP:ak   STATUS:               ID:20160329140743     3
 2016-03-29-1407-43M.COL___312                                                 6
 STAT SP IPHASW D HRMM SECON CODA AMPLIT PERI AZIMU VELO AIN AR TRES W  DIS CAZ7
 BAR2 EZ EP       1410 43.07                             171   -0.0010 22.3 191 
 BAR2 EZ ES       1410 57.98                             171    0.0310 22.3 191 
 BAR2 EZ I        1411  0.71        12.3 0.28            171           22.3 191 
 PAM  EZ EP       1410 45.94                             150    0.1610 78.1  39 
 PAM  EN ES       1411  2.78                             150    0.0010 78.1  39 
 PAM  EZ I        1411  5.06         9.7 0.48            152           78.1  39 
 RUS  HZ EP       1410 47.41                             143    0.1810 99.5 176 
 RUS  HN ES       1411  5.41                             143    0.0610 99.5 176 
 RUS  HZ I        1411  6.88         6.8 0.28            145           99.5 176 
 PTB  HZ EP       1410 49.91                             131   -0.70 9  148 259 
 PTB  HN ES       1411 11.01                             131   -0.36 9  148 259 
 ZAR  HZ EP   2   1410 56.91                             121    0.68 4  205 292 
 ZAR  HN ES       1411 21.48                             121    0.11 9  205 292 
 ZAR  HZ I        1411 27.12         5.6 0.38            122            205 292 
 CHI  HZ EP       1411  0.86                             116   -0.48 8  248 195 
 CHI  HE ES       1411 30.41                             116   -0.06 8  248 195 
 CHI  HZ I        1411 34.20         1.6 0.29            118            248 195 
 GUY2CHZ EP       1411  7.90                             111    0.54 7  301 235 
 GUY2CHE ES       1411 41.88                             111    0.70 7  301 235 
 GUY2CHZ I        1411 49.32         2.2 0.30                           301 235 
                                                                                
