 2012  529 1205 39.6 L   6.823 -73.200140.7  RSN  8 0.3 2.1LRSN                1
 GAP=241        0.62       4.0     4.0  4.8  0.5381E+01  0.7021E+01  0.4693E+01E
 Epicentro: ZAPATOCA - SANTANDER                                               3
 ACTION:UP  12-07-05 12:08 OP:pat  STATUS:               ID:20120529120539 L   I
 2012-05-29-1200-00M.COL___200                                                 6
 STAT SP IPHASW D HRMM SECON CODA AMPLIT PERI AZIMU VELO AIN AR TRES W  DIS CAZ7
 BAR2 SZ EP       12 5 58.87                             169     0.210   26 176 
 BAR2 SZ ES       12 6 13.71                             169     0.210   26 176 
 BAR2 SZ I        12 6 16.90        44.0 0.36                            26 176 
 RUS  HZ EP       12 6  2.77                             142    -0.310  104 173 
 RUS  HN ES   2   12 6 21.00                             142    -0.4 5  104 173 
 RUS  HZ I        12 6 22.75        11.3 0.24                           104 173 
 PTB  HZ EP       12 6  5.57                             132    -0.1 9  142 257 
 PTB  HN ES   1   12 6 25.56                             132    -0.4 7  142 257 
 PTB  HZ I        12 6 32.18        12.8 0.30                           142 257 
 ZAR  HZ EP   1   12 6 11.23                             122     0.2 6  197 292 
 ZAR  HN ES   1   12 6 35.73                             122     0.2 6  197 292 
 ZAR  HZ I        12 6 43.28        15.3 0.38                           197 292 
 NOR  SZ EP   1   12 6 14.58                             118    -0.1 6  231 233 
 NOR  SE ES   1   12 6 41.94                             118    -0.1 6  231 233 
 CHI  HZ EP       12 6 17.17                             116     0.0 8  250 194 
 CHI  HN ES   1   12 6 46.80                             116     0.4 6  250 194 
 CHI  HZ I        12 6 54.92         7.3 0.51                           250 194 
 HEL  HZ EP   1   12 6 19.19                             114     0.2 6  267 255 
 HEL  HZ I        12 6 57.32         8.1 0.33                           267 255 
 PRA  HZ EP   1   12 6 32.49                             106    -0.4 4  391 209 
 PRA  HN ES   1   12 7 15.03                             106     0.6 4  391 209 
                                                                                
