 2012 1029 1044  4.8 L   5.888 -73.675122.0  RSN 12 0.2 2.4LRSN                1
 GAP= 93        0.42       1.5     2.6  4.1 -0.1628E+01  0.6638E+01 -0.2220E+01E
 Epicentro: PUENTE NACIONAL - SANTANDER                                        3
 ACTION:UPD 12-11-22 17:06 OP:ep   STATUS:               ID:20121029104404 L   I
 2012-10-29-1040-00M.COL___231                                                 6
 STAT SP IPHASW D HRMM SECON CODA AMPLIT PERI AZIMU VELO AIN AR TRES W  DIS CAZ7
 RUS  HZ EP   1   1044 23.87                             150    0.08 7 65.5  89 
 RUS  HN ES       1044 38.54                             150   -0.0610 65.5  89 
 RUS  HN I        1044 39.51        26.4 0.38                          65.5  89 
 BAR2 SZ EP   1   1044 25.68                             140    0.17 7 95.1  35 
 BAR2 SZ ES   2   1044 41.74                             140    0.08 5 95.1  35 
 BRR  HZ EP   1   1044 28.53                             129   -0.16 7  135 358 
 BRR  HN ES   2   1044 47.48                             129    0.17 5  135 358 
 BRR  HN I        1044 50.41       108.5 0.14                           135 358 
 ROSC BZ EP   1   1044 29.23                             129   -0.10 7  136 212 
 CHI  HZ EP   1   1044 29.66                             128    0.00 7  139 183 
 CHI  HE ES       1044 48.85                             128   -0.19 9  139 183 
 CHI  HN I        1044 50.93        36.2 0.52                           139 183 
 GIR2 SZ EP   1   1044 29.86                             127    0.30 7  142  22 
 PAM  SZ EP   1   1044 35.36                             118    0.07 7  193  34 
 PAM  SE ES   2   1044 59.13                             118    0.06 4  193  34 
 PAM  SN I        1045  1.34        20.0 0.62                           193  34 
 HEL  HZ EP   1   1044 36.97                             116    0.25 6  208 279 
 HEL  HN ES   2   1045  1.86                             116    0.25 4  208 279 
 HEL  HN I        1045  7.64        17.6 0.30                           208 279 
 RREF HZ EP   1   1044 38.26                             115    0.42 6  215 240 
 RREF HN ES   2   1045  3.81                             115    0.20 4  215 240 
 RREF HZ I        1045  9.89        19.7 0.26                           215 240 
 ZAR  HZ EP   1   1044 37.14                             114   -0.49 6  220 324 
 ZAR  HN ES   2   1045  2.68                             114   -0.56 4  220 324 
 OCA  HZ EP   1   1044 42.49                             110   -0.12 6  263   9 
 OCA  HN ES   2   1045 11.96                             110   -0.14 4  263   9 
 PRA  HZ EP   1   1044 43.62                             109   -0.28 6  275 209 
 PRA  HN ES   2   1045 14.85                             109    0.46 4  275 209 
 PRA  HN I        1045 19.29        12.9 0.24                           275 209 
                                                                                
