 2012  429 1733 18.9 L   6.701 -73.695 18.0  RSN  7 0.4 1.8LRSN                1
 GAP=104        0.82       2.7     3.0  4.8  0.2294E+01  0.7745E+01  0.3431E+01E
 Epicentro: EL CARMEN DE CHUCURI - SANTANDER                                   3
 ACTION:UP  12-07-05 11:56 OP:tino STATUS:               ID:20120429173319 L   I
 2012-04-29-1730-00M.COL___189                                                 6
 STAT SP IPHASW D HRMM SECON CODA AMPLIT PERI AZIMU VELO AIN AR TRES W  DIS CAZ7
 BRR  HZ EP   1   1733 26.54                             109    -0.2 7   45 358 
 BRR  HN ES   1   1733 32.69                             109    -0.1 7   45 358 
 BRR  HZ I        1733 33.12        26.7 0.09                            45 358 
 BAR2 SZ EP   1   1733 29.09                             105     0.3 7   58 102 
 BAR2 SZ I        1733 29.41        27.1 0.22                            58 102 
 PTB  HZ EP   1   1733 32.15                             100    -0.6 7   86 258 
 PTB  HN ES   1   1733 43.93                             100     0.4 7   86 258 
 PTB  HZ I        1733 45.52        32.4 0.08                            86 258 
 RUS  HZ EP   1   1733 37.57                              98     0.4 7  112 143 
 RUS  HN ES   1   1733 50.93                              98    -0.4 7  112 143 
 ZAR  HZ EP   1   1733 42.67                              56     0.2 7  156 304 
 ZAR  HN ES   1   1734  0.53                              56    -0.2 7  156 304 
 ZAR  HZ I        1734  3.17        21.4 0.32                           156 304 
 HEL  HZ EP   1   1733 50.34                              56     0.6 6  211 255 
 HEL  HN ES   1   1734 13.77                              56     0.0 6  211 255 
 HEL  HZ I        1734 15.45        13.7 0.30                           211 255 
 RREF HN ES   1   1734 27.45                              56    -0.2 6  270 223 
                                                                                
