 2017  529 1039 39.6 L   6.813 -73.138148.0  RSN 12 0.5 2.0LRSN                1
 GAP=215        1.25       5.2     6.0  8.4  0.1046E+02 -0.7224E+01  0.5411E+01E
 Epicentro: LOS SANTOS - SANTANDER                                             3
 ACTION:UPD 17-06-16 13:39 OP:jn   STATUS:               ID:20170529103939 L   I
 OLDACT:UP  17-05-29 23:05 OP:ar   STATUS:               ID:20170529103738     3
 OLDACT:REG 17-05-29 20:33 OP:ar   STATUS:               ID:20170529103738     3
 2017-05-29-1038-00M.COL___338                                                 6
 STAT SP IPHASW D HRMM SECON CODA AMPLIT PERI AZIMU VELO AIN AR TRES W  DIS CAZ7
 BRR  HZ EP       1040  1.55                             153    0.5310 71.3 297 
 BRR  HN ES       1040 18.35                             153    0.6410 71.3 297 
 BRR  HZ I        1040 22.22        20.5 0.26            152           71.3 297 
 RUS  HZ EP       1040  3.73                             144    0.0310  102 177 
 RUS  HN ES       1040 22.25                             144   -0.2310  102 177 
 RUS  HZ I        1040 23.19        10.7 0.38            142            102 177 
 PTB  HZ EP       1040  6.23                             132   -0.65 9  149 258 
 PTB  HN ES       1040 27.00                             132   -1.13 9  149 258 
 PTB  HZ I        1040 34.46        10.0 0.42            131            149 258 
 SPBC HZ EP       1040  8.54                             129    0.08 9  165 219 
 SPBC HE ES       1040 30.72                             129   -0.22 9  165 219 
 SPBC HZ I        1040 36.40        16.8 0.44            127            165 219 
 YPLC HZ EP       1040 10.01                             127    0.34 9  178 152 
 YPLC HZ I        1040 34.83        13.8 0.26            124            178 152 
 YPLC HE ES   4   1040 34.98                             127    1.87 0  178 152 
 ZAR  HZ EP       1040 11.94                             123   -0.31 9  204 292 
 ZAR  HE ES       1040 37.86                             123    0.17 9  204 292 
 ZAR  HZ I        1040 42.59        10.7 0.24            121            204 292 
 NOR  HZ EP       1040 16.09                             119    0.44 8  236 234 
 NOR  HE ES       1040 43.88                             119    0.13 8  236 234 
 NOR  HZ I        1040 51.29         6.0 0.18            117            236 234 
 CHI  HZ EP       1040 17.93                             117    0.30 8  250 195 
 CHI  HE ES       1040 47.39                             117    0.13 8  250 195 
 CHI  HZ I        1040 50.87         4.9 0.72            115            250 195 
 ROSC BZ EP   4   1040 20.35                             117    2.30 0  254 211 
 ROSC BE ES   4   1040 51.91                             117    3.89 0  254 211 
 ROSC BZ I        1040 53.41        10.4 0.70            115            254 211 
 HEL  HE ES   4   1040 54.57                             115    2.93 0  273 256 
 HEL  HZ I        1040 59.70         4.8 0.38            113            273 256 
 PTGC HZ EP       1040 22.68                             112   -1.02 7  310 159 
 PTGC HE ES   4   1040 55.98                             112   -2.10 0  310 159 
 PTGC HZ I        1040 59.54         6.8 0.28            110            310 159 
 ORTC HN ES       1041 17.25                             107    1.16 6  397 216 
                                                                                
