 2010  929 1523 44.8 L   6.839 -73.066146.5  RSN 11 0.5 2.3LRSN                1
 GAP=167        1.21       4.4     8.5  9.4 -0.9293E+01 -0.7673E+01  0.9272E+00E
 Epicentro: LOS SANTOS - SANTANDER                                             3
 ACTION:UP  11-02-18 11:06 OP:tino STATUS:               ID:20100929152344 L   I
 2010-09-29-1522-27S.COL___125                                                 6
 STAT SP IPHASW D HRMM SECON CODA AMPLIT PERI AZIMU VELO SNR AR TRES W  DIS CAZ7
 BAR2 SZ EP       1524  4.65                             168     0.010   30 206 
 BRR  HZ IP     C 1524  6.39                             150     0.010   77 293 
 BRR  HZ I        1524  6.58       162.0 0.09                            77 293 
 BRR  HN ES       1524 23.44                             150     0.210   77 293 
 RUS  HZ EP       1524  8.84                             143    -0.110  105 181 
 RUS  HN ES       1524 27.19                             143    -0.610  105 181 
 RUS  HZ I        1524 29.00        23.8 0.44                           105 181 
 GUE  SZ EP       1524  9.61                             140     0.510  111   8 
 GUE  SZ I        1524 11.06        10.7 0.17                           111   8 
 GRA  SZ EP       1524  9.36                             138    -0.210  119  14 
 GRA  SZ I        1524 10.61        49.4 0.05                           119  14 
 OCA  SZ EP       1524 13.10                             130     0.2 9  157 350 
 OCA  SZ I        1524 39.38        56.7 0.14                           157 350 
 NOR  SZ EP   1   1524 21.00                             117    -0.7 6  245 235 
 NOR  SN ES   2   1524 48.96                             117    -1.4 4  245 235 
 NOR  SZ I        1524 53.78         1.9 0.40                           245 235 
 CHI  HZ EP       1524 23.11                             116    -0.2 8  255 197 
 CHI  HN ES       1524 53.59                             116     0.3 8  255 197 
 CHI  HZ I        1524 57.37        13.6 0.62                           255 197 
 ROSC BN ES   1   1524 55.38                             116     1.0 6  261 212 
 ROSC BZ I        1524 59.35        20.1 0.17                           261 212 
 HEL  HN ES   2   1524 57.42                             114    -1.0 4  282 255 
 HEL  HZ I        1525  3.33        11.7 0.66                           282 255 
 TOL  SZ EP       1524 34.88                             108     0.7 6  353 225 
                                                                                
