 2017 1029 1801 44.2 L   6.861 -73.143146.2  RSN  7 0.3 1.0LRSN                1
 GAP=134        0.87       4.1     3.9  7.2 -0.3410E+01  0.1059E+02 -0.7922E+00E
 Epicentro: LOS SANTOS - SANTANDER                                             3
 ACTION:UPD 17-11-07 19:39 OP:rebc STATUS:               ID:20171029180144 L   I
 OLDACT:REG 17-10-29 20:26 OP:dani STATUS:               ID:20171029175745     3
 2017-10-29-1758-00M.COL___437                                                 6
 STAT SP IPHASW D HRMM SECON CODA AMPLIT PERI AZIMU VELO AIN AR TRES W  DIS CAZ7
 BAR2 EZ EP       18 2  4.09                             168    0.0310 30.0 188 
 BAR2 EZ ES       18 2 19.78                             168    0.2510 30.0 188 
 PAM  EZ EP       18 2  6.54                             153    0.3510 72.1  43 
 PAM  EE ES       18 2 23.24                             153   -0.0710 72.1  43 
 PAM  EZ I        18 2 24.01         3.9 0.24            154           72.1  43 
 RUS  HZ EP       18 2  8.20                             142   -0.3110  107 176 
 RUS  HN ES       18 2 26.91                             142   -0.5410  107 176 
 RUS  HZ I        18 2 28.74         0.6 0.03            143            107 176 
 PTB  HZ EP       18 2 11.43                             132    0.04 9  150 256 
 PTB  HN ES       18 2 32.39                             132   -0.19 9  150 256 
 PTB  HZ I        18 2 34.32         2.1 0.18            132            150 256 
 SPBC HE ES       18 2 36.69                             128    0.75 9  169 218 
 ZAR  HN ES       18 2 41.37                             123   -0.27 9  202 290 
 GUY2CHE ES       18 3  2.70                             112   -0.03 7  305 234 
                                                                                
