 2012  529 1616  1.2 L   6.814 -73.202139.3  RSN  6 0.2 1.8LRSN                1
 GAP=129        0.43       3.0     2.8  4.2 -0.1744E+01  0.2908E+01 -0.5110E+00E
 Epicentro: ZAPATOCA - SANTANDER                                               3
 ACTION:UP  12-07-05 12:08 OP:pat  STATUS:               ID:20120529161601 L   I
 2012-05-29-1610-00M.COL___200                                                 6
 STAT SP IPHASW D HRMM SECON CODA AMPLIT PERI AZIMU VELO AIN AR TRES W  DIS CAZ7
 BAR2 SZ EP       1616 20.29                             169     0.210   25 175 
 BAR2 SZ ES   1   1616 34.75                             169    -0.1 7   25 175 
 BAR2 SZ I        1616 36.40        24.4 0.30                            25 175 
 PAM  SZ EP       1616 23.05                             148     0.110   80  44 
 PAM  SN ES   1   1616 39.65                             148    -0.2 7   80  44 
 RUS  HZ EP   1   1616 24.59                             142     0.1 7  103 173 
 RUS  HN ES   1   1616 42.67                             142     0.0 7  103 173 
 RUS  HZ I        1616 44.41         7.3 0.31                           103 173 
 PTB  HZ EP   1   1616 26.96                             132    -0.2 7  142 258 
 PTB  HN ES   1   1616 47.32                             132     0.0 7  142 258 
 PTB  HZ I        1616 53.55         5.4 0.11                           142 258 
 ZAR  HN ES   2   1616 57.18                             122     0.1 4  198 292 
 ZAR  HZ I        1617  3.67         7.6 0.41                           198 292 
 PRA  HZ EP   1   1616 53.91                             105    -0.4 4  390 209 
                                                                                
