 2015 1029 1814 43.2 L   6.807 -73.134149.0  RSN 17 0.3 2.7LRSN                1
 GAP= 71        0.83       2.1     2.6  4.0 -0.2397E-01  0.3041E+01  0.1823E+00E
 Epicentro: LOS SANTOS - SANTANDER                                             3
 ACTION:UPD 15-12-22 20:43 OP:cam  STATUS:               ID:20151029181443 L   I
 OLDACT:UP  15-10-30 02:32 OP:ar   STATUS:               ID:20151029180750     3
 OLDACT:REG 15-10-30 00:22 OP:ar   STATUS:               ID:20151029180750     3
 2015-10-29-1807-50M.COL___319                                                 6
 STAT SP IPHASW D HRMM SECON CODA AMPLIT PERI AZIMU VELO AIN AR TRES W  DIS CAZ7
 BAR2 EZ IP     C 1815  3.00                             170   -0.2010 24.3 193 
 BAR2 EZ ES       1815 18.86                             170    0.0310 24.3 193 
 BAR2 EZ I        1815 19.34        98.5 0.18            167           24.3 193 
 BRR  HZ EP       1815  4.83                             153    0.1310 72.0 298 
 BRR  HN ES       1815 22.17                             153    0.6610 72.0 298 
 BRR  HZ I        1815 25.08        76.0 0.28            151           72.0 298 
 PAM  EZ IP     C 1815  5.78                             152    0.1410 76.0  39 
 PAM  EN ES       1815 22.81                             152   -0.3710 76.0  39 
 PAM  EZ I        1815 25.07        61.7 0.52            157           76.0  39 
 RUS  HZ EP     C 1815  6.87                             144   -0.4110  101 177 
 RUS  HE ES       1815 25.75                             144   -0.3410  101 177 
 RUS  HZ I        1815 28.94        24.4 0.20            145            101 177 
 TAM  HZ IP     C 1815 11.22                             131    0.22 9  154 105 
 TAM  HE ES       1815 32.80                             131    0.08 9  154 105 
 TAM  HZ I        1815 33.51        27.1 0.54            136            154 105 
 OCA  HZ EP       1815 12.14                             130    0.47 9  160 353 
 OCA  HN ES       1815 33.52                             130   -0.39 9  160 353 
 OCA  HZ I        1815 37.88        99.3 0.40            133            160 353 
 SPBC HZ EP       1815 11.94                             129   -0.10 9  165 219 
 SPBC HN ES       1815 34.41                             129   -0.15 9  165 219 
 SPBC HZ I        1815 40.00        70.6 0.32            129            165 219 
 ZAR  HZ EP       1815 15.69                             123   -0.22 9  205 292 
 ZAR  HE ES       1815 41.70                             123    0.24 9  205 292 
 ZAR  HZ I        1815 47.05        73.5 0.44            123            205 292 
 NOR  HZ EP     C 1815 19.29                             119    0.06 8  236 234 
 NOR  HN ES       1815 47.13                             119   -0.24 8  236 234 
 NOR  HZ I        1815 55.40        36.7 0.20            119            236 234 
 SML  HZ EP       1815 20.44                             118    0.48 8  244 335 
 SML  HE ES       1815 48.59                             118   -0.07 8  244 335 
 SML  HZ I        1815 51.74        48.3 0.10            120            244 335 
 CHI  HZ EP       1815 21.10                             118   -0.05 8  250 195 
 CHI  HN ES       1815 51.64                             118    0.85 8  250 195 
 CHI  HZ I        1815 55.77        12.5 0.48            119            250 195 
 ROSC BN ES   4   1815 54.27                             117    2.69 0  254 211 
 ROSC BZ I        1816  0.63        53.7 0.35            118            254 211 
 HEL  HZ EP   4   1815 25.10                             115    1.41 0  273 256 
 HEL  HN ES   2   1815 54.87                             115   -0.44 4  273 256 
 HEL  HZ I        1816  1.84        30.2 0.26            116            273 256 
 URE  HZ EP       1815 23.82                             114   -0.67 7  285 292 
 URE  HN ES   4   1815 54.28                             114   -2.45 0  285 292 
 URE  HZ I        1816  4.70        38.3 0.22            115            285 292 
 GUY2CHZ EP       1815 27.30                             113    0.22 7  303 235 
 GUY2CHN ES   4   1816  5.09                             113    3.75 0  303 235 
 GUY2CHZ I        1816  9.43        35.8 0.46                           303 235 
 DBB  SZ EP       1815 30.74                             110   -0.17 7  341 274 
 DBB  SZ ES   4   1816  6.49                             110   -1.66 0  341 274 
 MON  HZ EP   4   1815 30.25                             109   -2.10 0  354 308 
 MON  HN ES   4   1816  8.78                             109   -1.94 0  354 308 
 MON  HZ I        1816 11.01         8.5 0.28            110            354 308 
                                                                                
