 2013  429 1738 20.7 L   6.802 -73.158148.0  RSN  9 0.4 2.2LRSN                1
 GAP=135        0.82       3.5     4.7  6.4 -0.2148E+01  0.5953E+01 -0.9096E+00E
 Epicentro: LOS SANTOS - SANTANDER                                             3
 ACTION:UPD 13-05-22 14:41 OP:EP   STATUS:               ID:20130429173820 L   I
 2013-04-29-1730-00M.COL___248                                                 6
 STAT SP IPHASW D HRMM SECON CODA AMPLIT PERI AZIMU VELO AIN AR TRES W  DIS CAZ7
 BAR2 SZ EP     D 1738 40.67                             171    0.0610 23.4 187 
 BAR2 SZ ES   1   1738 56.00                             171   -0.13 7 23.4 187 
 BAR2 SZ I        1738 58.34        10.3 0.28            170           23.4 187 
 GIR2 SZ EP   1   1738 40.71                             168    0.07 7 30.8 353 
 BRR  HZ EP     C 1738 42.54                             153    0.5110 69.9 299 
 BRR  HN ES   1   1738 59.47                             153    0.82 7 69.9 299 
 BRR  HN I        1739  1.82        39.1 0.18            149           69.9 299 
 PAM  SZ EP     C 1738 43.43                             151    0.2210 78.1  40 
 PAM  SN ES   1   1739  0.75                             151    0.00 7 78.1  40 
 PAM  SZ I        1739  2.89        19.3 0.56            154           78.1  40 
 RUS  HZ EP     C 1738 44.50                             144   -0.2110  101 175 
 RUS  HN ES   1   1739  2.96                             144   -0.47 7  101 175 
 RUS  HZ I        1739  4.29        10.4 0.36            148            101 175 
 PTB  HZ EP   1   1738 47.69                             133   -0.06 7  146 259 
 PTB  HN ES   1   1739  8.27                             133   -0.56 7  146 259 
 PTB  HZ I        1739 14.44        11.0 0.20            132            146 259 
 OCA  HN ES   1   1739 10.79                             130   -0.55 7  160 354 
 OCA  HN I        1739 14.56        74.3 0.34            131            160 354 
 NOR  HZ EP   1   1738 56.89                             119    0.42 6  234 234 
 NOR  HN ES   1   1739 24.39                             119    0.03 6  234 234 
 NOR  HN I        1739 30.61        21.4 0.24            120            234 234 
 SML  HZ EP   1   1738 57.01                             118   -0.37 6  243 336 
 SML  HN ES   1   1739 25.37                             118   -0.60 6  243 336 
 SML  HN I        1739 34.35        33.5 0.12            119            243 336 
                                                                                
