 2010 1229 1727 46.4 L   6.770 -73.162140.0  RSN  6 0.3 2.0LRSN                1
 GAP=210        0.53       6.0     6.3  6.6 -0.1050E+02  0.2111E+02 -0.6481E+01E
 Epicentro: LOS SANTOS - SANTANDER                                             3
 ACTION:UP  11-01-14 15:27 OP:pat  STATUS:               ID:20101229172746 L   I
 2010-12-29-1720-00M.COL___137                                                 6
 STAT SP IPHASW D HRMM SECON CODA AMPLIT PERI AZIMU VELO SNR AR TRES W  DIS CAZ7
 BAR2 SZ EP   1   1728  5.15                             172    -0.1 7   20 187 
 BAR2 SZ ES   1   1728 20.04                             172     0.1 7   20 187 
 BAR2 SZ I        1728 21.66        30.5 0.14                            20 187 
 BTL  SZ EP   1   1728  5.29                             171     0.0 7   20 325 
 RUS  HZ EP   1   1728  9.09                             144    -0.3 7   97 175 
 RUS  HN ES   1   1728 27.47                             144     0.2 7   97 175 
 RUS  HZ I        1728 29.23         9.3 0.29                            97 175 
 NOR  SZ EP   2   1728 21.22                             118    -0.2 4  231 235 
 NOR  SN ES   1   1728 48.57                             118    -0.2 6  231 235 
 HEL  HZ EP   2   1728 26.95                             114     0.9 4  270 256 
 HEL  HZ I        1729  5.57         6.5 0.35                           270 256 
 PRA  HZ EP   2   1728 39.57                             106     0.3 3  388 210 
                                                                                
