 2017 1129 1642  1.5 L   6.817 -73.179143.8  RSN  5 0.2 1.8LRSN                1
 GAP=145        0.54       3.2     2.9  4.2 -0.4117E+01  0.4666E+01 -0.7007E+00E
 Epicentro: ZAPATOCA - SANTANDER                                               3
 ACTION:UPD 17-12-12 20:01 OP:rebc STATUS:               ID:20171129164201 L   I
 OLDACT:REG 17-11-30 00:18 OP:dani STATUS:               ID:20171129162802     3
 2017-11-29-1638-00M.COL___495                                                 6
 STAT SP IPHASW D HRMM SECON CODA AMPLIT PERI AZIMU VELO AIN AR TRES W  DIS CAZ7
 BAR2 EZ EP       1642 21.04                             170    0.1210 24.9 181 
 BAR2 EZ ES       1642 35.93                             170   -0.1510 24.9 181 
 BAR2 EZ I        1642 38.82        14.5 0.30            170           24.9 181 
 PAM  EZ EP       1642 23.47                             150   -0.0910 78.3  42 
 PAM  EE ES       1642 40.86                             150    0.0910 78.3  42 
 PAM  EZ I        1642 43.05         9.5 0.54            153           78.3  42 
 RUS  HZ EP       1642 25.08                             143   -0.1310  103 174 
 RUS  HN ES       1642 43.83                             143    0.1110  103 174 
 RUS  HZ I        1642 45.23        11.3 0.41            145            103 174 
 PTB  HZ EP       1642 27.73                             132   -0.28 9  145 258 
 PTB  HN ES       1642 48.88                             132    0.19 9  145 258 
 PTB  HZ I        1642 50.36         4.8 0.56            133            145 258 
 NOR  HZ EP       1642 37.35                             118    0.44 8  233 234 
 NOR  HN ES       1643  4.29                             118   -0.25 8  233 234 
 NOR  HZ I        1643  9.91         5.8 0.26            120            233 234 
                                                                                
