 2017 1129 1809 46.7 L   6.817 -73.108147.7  RSN  9 0.5 1.8LRSN                1
 GAP=247        0.94       4.5     4.9  5.8  0.6062E+01  0.7180E+01  0.1546E+01E
 Epicentro: LOS SANTOS - SANTANDER                                             3
 ACTION:UPD 17-12-12 20:01 OP:rebc STATUS:               ID:20171129180946 L   I
 OLDACT:UP  17-11-30 00:08 OP:mg   STATUS:               ID:20171129180248d    3
 OLDACT:DUP 17-11-30 00:02 OP:mg   STATUS:               ID:20171129180248d    3
 OLDACT:UP  17-11-30 00:01 OP:mg   STATUS:               ID:20171129180247     3
 OLDACT:REG 17-11-29 21:37 OP:dani STATUS:               ID:20171129180247     3
 2017-11-29-1808-00M.COL___498                                                 6
 STAT SP IPHASW D HRMM SECON CODA AMPLIT PERI AZIMU VELO AIN AR TRES W  DIS CAZ7
 BAR2 EZ EP       1810  6.87                             170    0.3010 26.2 198 
 BAR2 EZ ES       1810 22.35                             170    0.2410 26.2 198 
 BAR2 EZ I        1810 24.58        27.7 0.24            164           26.2 198 
 RUS  HZ EP       1810 10.64                             144   -0.0810  102 178 
 RUS  HN ES       1810 29.61                             144    0.1210  102 178 
 RUS  HZ I        1810 30.63         6.6 0.40            144            102 178 
 PTB  HZ EP       1810 13.88                             132   -0.30 9  152 258 
 PTB  HN ES       1810 35.05                             132   -0.60 9  152 258 
 PTB  HZ I        1810 42.28         2.8 0.18            130            152 258 
 SPBC HZ EP       1810 15.83                             129    0.14 9  167 220 
 SPBC HN ES       1810 37.92                             129   -0.41 9  167 220 
 SPBC HZ I        1810 42.65        10.2 0.13            128            167 220 
 ZAR  HZ EP       1810 19.14                             122   -0.40 8  207 291 
 ZAR  HN ES       1810 45.47                             122    0.27 8  207 291 
 ZAR  HZ I        1810 51.47         6.0 0.17            123            207 291 
 NOR  HZ EP       1810 22.84                             118   -0.13 8  239 235 
 NOR  HE ES       1810 51.33                             118    0.03 8  239 235 
 NOR  HZ I        1810 57.32         3.8 0.13            119            239 235 
 CHI  HZ EP       1810 24.99                             117    0.21 8  252 196 
 CHI  HN ES       1810 54.52                             117    0.00 8  252 196 
 CHI  HZ I        1810 58.18         2.5 0.42            118            252 196 
 GUY2CHZ EP       1810 31.50                             112    0.64 7  306 235 
 GUY2CHE ES   2   1811  7.99                             112    2.66 4  306 235 
 GUY2CHZ I        1811 15.97         2.2 0.34                           306 235 
 PRA  HZ EP       1810 40.33                             107   -0.35 6  396 210 
 PRA  HE ES   1   1811 22.31                             107   -0.50 4  396 210 
 PRA  HZ I        1811 28.61         3.0 0.17            108            396 210 
                                                                                
