 2011  529 1710 14.9 L   6.782 -73.035142.0  RSN  6 0.4 1.7LRSN                1
 GAP=171        0.86       5.5    10.2  8.6 -0.8761E+01 -0.1364E+02 -0.6878E+01E
 Epicentro: CEPITA - SANTANDER                                                 3
 ACTION:UP  11-06-29 08:57 OP:tino STATUS:               ID:20110529171015 L   I
 2011-05-29-1708-40S.COL___113                                                 6
 STAT SP IPHASW D HRMM SECON CODA AMPLIT PERI AZIMU VELO SNR AR TRES W  DIS CAZ7
 BAR2 SZ EP       1710 34.44                             169     0.210   27 218 
 BAR2 SZ ES   1   1710 48.61                             169    -0.6 7   27 218 
 BAR2 SZ I        1710 51.23        13.8 0.21                            27 218 
 BRR  HZ EP       1710 36.08                             148    -0.310   83 296 
 BRR  HN ES   1   1710 53.60                             148     0.4 7   83 296 
 BRR  HZ I        1710 55.16        14.2 0.19                            83 296 
 RUS  HZ EP   2   1710 38.38                             143     0.2 5   98 183 
 RUS  HZ I        1710 39.23         2.8 0.25                            98 183 
 RUS  HN ES   2   1710 56.72                             143     0.4 5   98 183 
 GRA  SZ EP   1   1710 40.04                             136     0.3 7  125  12 
 GRA  SZ ES   1   1710 58.91                             136    -0.2 7  125  12 
 GRA  SZ I        1711  1.64         6.9 0.48                           125  12 
 OCA  SZ EP   1   1710 43.45                             128     0.1 7  164 349 
 OCA  SZ I        1711  4.20         6.4 0.40                           164 349 
 PRA  HZ EP   2   1711  8.01                             105    -0.8 3  396 211 
                                                                                
