 2010  629 1105 23.9 L   6.838 -72.988145.7  RSN  5 0.4 1.7LRSN                1
 GAP=199        0.73       6.0     8.9  8.0  0.1248E+02 -0.9996E+00 -0.7379E+01E
 Epicentro: CEPITA - SANTANDER                                                 3
 ACTION:UP  10-08-24 10:13 OP:vdl  STATUS:               ID:20100629110523 L   I
 2010-06-29-1100-54S.COL___118                                                 6
 STAT SP IPHASW D HRMM SECON CODA AMPLIT PERI AZIMU VELO SNR AR TRES W  DIS CAZ7
 BAR2 SZ IP       11 5 43.58                             166    -0.210   35 218 
 BAR2 SZ ES   1   11 5 59.34                             166     0.0 7   35 218 
 BRR  HZ IP     C 11 5 45.72                             148    -0.210   85 290 
 BRR  HN ES   1   11 6  2.81                             148    -0.2 7   85 290 
 BRR  HZ I        11 6  7.90        12.3 0.13                            85 290 
 RUS  HZ EP   2   11 5 47.61                             143    -0.3 5  105 186 
 RUS  HZ I        11 6  2.85         3.4 0.53                           105 186 
 RUS  HN ES   2   11 6  7.59                             143     0.9 5  105 186 
 OCA  SZ EP   2   11 5 52.71                             130     0.6 5  159 347 
 OCA  SZ ES   2   11 6 14.62                             130     0.6 5  159 347 
 OCA  SZ I        11 6 18.83         6.7 0.39                           159 347 
 HEL  HZ EP   2   11 6  6.16                             113     0.1 4  290 256 
 HEL  HE ES   2   11 6 39.60                             113     0.6 4  290 256 
 HEL  HZ I        11 6 42.52         4.5 0.35                           290 256 
                                                                                
