 2017  829 1132 12.1 L   6.785 -73.142136.0  RSN  6 0.4 1.6LRSN                1
 GAP=237        1.01       5.7     6.8  7.0  0.1810E+02  0.1988E+02  0.8089E+01E
 Epicentro: LOS SANTOS - SANTANDER                                             3
 ACTION:UPD 17-09-04 20:26 OP:rebc STATUS:               ID:20170829113212 L   I
 OLDACT:DUP 17-08-29 22:14 OP:dhb  STATUS:               ID:20170829112744d    3
 OLDACT:UP  17-08-29 22:11 OP:dhb  STATUS:               ID:20170829112743     3
 OLDACT:REG 17-08-29 20:29 OP:dhb  STATUS:               ID:20170829112743     3
 2017-08-29-1128-00M.COL___417                                                 6
 STAT SP IPHASW D HRMM SECON CODA AMPLIT PERI AZIMU VELO AIN AR TRES W  DIS CAZ7
 BAR2 EZ IP     D 1132 30.11                             170   -0.4510 21.8 192 
 BAR2 EZ ES       1132 44.90                             170   -0.0310 21.8 192 
 BAR2 EZ I        1132 46.09        13.3 0.08            171           21.8 192 
 BRR  HZ IP     D 1132 32.03                             150   -0.2710 72.4 300 
 BRR  HN ES       1132 48.28                             150    0.2410 72.4 300 
 BRR  HZ I        1132 50.46        11.1 0.15            150           72.4 300 
 RUS  HZ EP       1132 34.93                             142    0.1210 98.9 176 
 RUS  HN ES       1132 52.77                             142    0.2710 98.9 176 
 RUS  HZ I        1132 53.66         5.6 0.17            144           98.9 176 
 ZAR  HZ EP       1132 44.14                             120    0.07 9  205 293 
 ZAR  HE ES       1133  9.13                             120    0.16 9  205 293 
 ZAR  HZ I        1133 11.00         6.0 0.22            121            205 293 
 NOR  HZ EP       1132 46.78                             116   -0.47 8  234 235 
 NOR  HN ES       1133 14.07                             116   -0.57 8  234 235 
 NOR  HZ I        1133 15.06         2.2 0.21            118            234 235 
 GUY2CHZ EP       1132 56.45                             110    1.21 7  301 235 
 GUY2CHN ES   4   1133 32.37                             110    3.51 0  301 235 
 GUY2CHZ I        1133 35.17         2.0 0.18                           301 235 
                                                                                
