 2011  629 1727 18.8 L   6.756 -73.113144.6  RSN  5 0.3 1.8LRSN                1
 GAP=143        0.84       4.8     8.1  6.9  0.1978E+01 -0.5116E+01 -0.1205E+01E
 Epicentro: LOS SANTOS - SANTANDER                                             3
 ACTION:UP  11-07-14 19:09 OP:ep   STATUS:               ID:20110629172718 L   I
 2011-06-29-1726-49S.COL___140                                                 6
 STAT SP IPHASW D HRMM SECON CODA AMPLIT PERI AZIMU VELO SNR AR TRES W  DIS CAZ7
 BAR2 SZ EP       1727 38.27                             172     0.010   20 203 
 BAR2 SZ ES   1   1727 52.59                             172    -0.8 7   20 203 
 BAR2 SZ I        1727 54.35         8.3 0.42                            20 203 
 BTL  SZ EP       1727 38.63                             170     0.310   25 316 
 BTL  SZ ES   1   1727 53.90                             170     0.3 7   25 316 
 BRR  HZ EP       1727 39.96                             151    -0.210   77 300 
 BRR  HZ I        1727 47.90        17.2 0.54                            77 300 
 BRR  HN ES   1   1727 56.89                             151     0.1 7   77 300 
 PAM  SZ EP       1727 41.12                             150     0.110   79  35 
 PAM  SN ES   1   1727 58.20                             150    -0.1 7   79  35 
 RUS  HZ EP       1727 41.75                             145    -0.310   96 178 
 RUS  HN ES       1728  0.58                             145     0.310   96 178 
                                                                                
