 2012 1129 1055 22.9 L   6.799 -73.201127.2  RSN  5 0.2 1.6LRSN                1
 GAP=130        0.47       3.4     3.4  7.0 -0.4192E+01  0.6972E+01 -0.2721E+01E
 Epicentro: ZAPATOCA - SANTANDER                                               3
 ACTION:UPD 12-12-05 15:37 OP:}ep  STATUS:               ID:20121129105522 L   I
 2012-11-29-1050-00M.COL___236                                                 6
 STAT SP IPHASW D HRMM SECON CODA AMPLIT PERI AZIMU VELO AIN AR TRES W  DIS CAZ7
 BAR2 SZ EP   1   1055 40.60                             169    0.29 7 22.9 175 
 BAR2 SZ I        1055 56.12        15.3 0.18                          22.9 175 
 GIR2 SZ EP   1   1055 40.55                             165    0.17 7 31.0   2 
 PAM  SZ EP       1055 43.61                             146    0.1310 81.5  43 
 PAM  SZ I        1055 43.83        11.6 0.22                          81.5  43 
 PAM  SN ES   1   1055 59.24                             146   -0.27 7 81.5  43 
 RUS  HZ EP   1   1055 44.67                             139   -0.26 7  101 173 
 RUS  HN ES   1   1056  2.14                             139    0.04 7  101 173 
 RUS  HN I        1056  4.19         5.1 0.41                           101 173 
 PTB  HZ EP   1   1055 47.61                             129   -0.25 7  142 258 
 PTB  HZ I        1055 49.66         5.3 0.21                           142 258 
 PTB  HN ES   1   1056  7.35                             129    0.04 7  142 258 
                                                                                
