 2016  129 1449 56.7 L   6.800 -73.173142.8  RSN  8 0.4 1.7LRSN                1
 GAP=133        0.81       2.5     4.0  5.9 -0.1603E+01  0.1107E+02 -0.1964E+01E
 Epicentro: LOS SANTOS - SANTANDER                                             3
 ACTION:UPD 16-03-09 23:29 OP:cam  STATUS:               ID:20160129144956 L   I
 OLDACT:REG 16-01-29 20:51 OP:ak   STATUS:               ID:20160129143611     3
 2016-01-29-1446-00M.COL___411                                                 6
 STAT SP IPHASW D HRMM SECON CODA AMPLIT PERI AZIMU VELO AIN AR TRES W  DIS CAZ7
 BAR2 EZ EP       1450 16.31                             170    0.3810 23.0 183 
 BAR2 EZ ES       1450 30.79                             170   -0.1710 23.0 183 
 BAR2 EZ I        1450 34.41         7.0 0.34            170           23.0 183 
 PAM  EZ EP       1450 19.15                             150    0.4710 79.3  41 
 PAM  EE ES       1450 36.00                             150    0.1410 79.3  41 
 PAM  EZ I        1450 38.53         6.5 0.62            155           79.3  41 
 RUS  HZ EP       1450 20.12                             143   -0.0210  101 174 
 RUS  HN ES       1450 38.00                             143   -0.4610  101 174 
 RUS  HZ I        1450 39.92         5.0 0.22            148            101 174 
 SPBC HZ EP       1450 24.43                             129   -0.33 9  161 218 
 SPBC HN ES       1450 46.99                             129    0.32 9  161 218 
 SPBC HZ I        1450 54.63         7.6 0.12            131            161 218 
 ZAR  HZ EP   2   1450 28.74                             122    0.11 4  201 292 
 ZAR  HN ES       1450 53.84                             122    0.28 9  201 292 
 ZAR  HZ I        1450 59.88         4.8 0.12            124            201 292 
 SML  HZ EP       1450 32.41                             117   -0.57 8  242 336 
 SML  HN ES       1451  0.93                             117   -0.39 8  242 336 
 SML  HZ I        1451  4.51         7.7 0.05            120            242 336 
 CHI  HN ES       1451  3.32                             117   -0.01 8  248 194 
 GUY2CHZ EP   2   1450 40.79                             112    0.93 4  299 234 
 GUY2CHN ES       1451 13.43                             112   -0.12 7  299 234 
 GUY2CHZ I        1451 21.86         2.5 0.28                           299 234 
                                                                                
