 2016  729 1958  8.3 L   6.783 -73.087144.0  RSN  7 0.4 1.7LRSN                1
 GAP=145        0.81       3.8     4.3  6.0 -0.3841E+01  0.1165E+02  0.3585E+01E
 Epicentro: LOS SANTOS - SANTANDER                                             3
 ACTION:UPD 17-03-29 16:56 OP:lp   STATUS:               ID:20160729195808 L   I
 OLDACT:REG 16-07-29 21:03 OP:ar   STATUS:               ID:20160729194737     3
 2016-07-29-1948-00M.COL___362                                                 6
 STAT SP IPHASW D HRMM SECON CODA AMPLIT PERI AZIMU VELO AIN AR TRES W  DIS CAZ7
 BAR2 EZ EP       1958 28.04                             170    0.3010 23.6 207 
 BAR2 EZ ES       1958 43.46                             170    0.5710 23.6 207 
 BAR2 EZ I        1958 45.54         5.8 0.18            168           23.6 207 
 PAM  EZ EP       1958 29.93                             152   -0.2710 74.9  35 
 PAM  EN ES       1958 47.34                             152    0.0710 74.9  35 
 PAM  EZ I        1958 50.25        10.1 0.54            156           74.9  35 
 RUS  HZ EP       1958 31.57                             144   -0.1810 98.5 180 
 RUS  HN ES       1958 49.59                             144   -0.4310 98.5 180 
 RUS  HZ I        1958 53.48         2.9 0.21            146           98.5 180 
 ZAR  HN ES       1959  6.92                             121   -0.19 8  211 292 
 ZAR  HZ I        1959 11.18         4.1 0.26            123            211 292 
 NOR  HZ EP       1958 44.17                             118   -0.24 8  239 236 
 NOR  HN ES       1959 12.22                             118   -0.34 8  239 236 
 NOR  HZ I        1959 20.13         4.5 0.18            119            239 236 
 GUY2CHZ EP   2   1958 53.31                             112    0.98 4  305 236 
 GUY2CHN ES       1959 26.92                             112    0.25 7  305 236 
 GUY2CHZ I        1959 34.56         3.7 0.82                           305 236 
 PRA  HZ EP       1959  1.92                             106   -0.06 6  394 211 
 PRA  HN ES       1959 44.49                             106    0.66 6  394 211 
 PRA  HZ I        1959 49.62         3.9 0.30            108            394 211 
                                                                                
