 2011  329 1213 51.1 L   6.870 -73.101158.6  RSN  4 0.5 1.7LRSN                1
 GAP=180        1.09      14.8    25.4 19.5 -0.2079E+03 -0.2776E+03  0.8891E+02E
 Epicentro: LOS SANTOS - SANTANDER                                             3
 ACTION:UP  11-06-16 14:36 OP:jfem STATUS:               ID:20110329121351 L   I
 2011-03-29-1212-04S.COL___138                                                 6
 STAT SP IPHASW D HRMM SECON CODA AMPLIT PERI AZIMU VELO SNR AR TRES W  DIS CAZ7
 BTL  SZ EP       1214 12.71                             172     0.510   19 286 
 BTL  SZ ES   2   1214 28.08                             172    -0.6 5   19 286 
 BAR2 SZ EP       1214 12.31                             168    -0.210   32 197 
 BAR2 SZ I        1214 28.55         4.9 0.42                            32 197 
 BRR  HZ EP   2   1214 14.35                             153     0.6 5   72 291 
 BRR  HN ES   2   1214 31.09                             153    -0.3 5   72 291 
 BRR  HZ I        1214 33.78        10.4 0.54                            72 291 
 GRA  SZ EP       1214 16.33                             142    -0.510  117  16 
 GRA  SZ ES   2   1214 37.63                             142     0.7 5  117  16 
 GRA  SZ I        1214 40.13         7.9 0.10                           117  16 
                                                                                
