 2010  829 1332 33.6 L   6.589 -73.399126.0  RSN  4 0.1 1.5LRSN                1
 GAP=173        0.35       4.7     6.9  4.6  0.2369E+02 -0.1485E+02 -0.8496E+01E
 Epicentro: HATO - SANTANDER                                                   3
 ACTION:UP  10-09-07 10:59 OP:vdl  STATUS:               ID:20100829133233 L   I
 2010-08-29-1327-49S.COL___120                                                 6
 STAT SP IPHASW D HRMM SECON CODA AMPLIT PERI AZIMU VELO SNR AR TRES W  DIS CAZ7
 BAR2 SZ EP       1332 50.96                             169     0.110   24  89 
 BAR2 SZ I        1332 51.33        12.9 0.15                            24  89 
 BAR2 SZ ES   2   1333  4.19                             169    -0.2 5   24  89 
 BRR  HZ EP       1332 52.29                             150    -0.110   67 329 
 BRR  HN ES       1333  7.12                             150     0.110   67 329 
 RUS  HZ I        1332 55.42         3.7 0.14                            85 156 
 RUS  HN ES   2   1333 10.39                             144     0.0 5   85 156 
 GUE  SZ EP   1   1332 59.36                             127     0.0 7  147  21 
                                                                                
