 2017 1229 1511 16.2 L   6.829 -73.174146.8  RSN  8 0.4 1.8LRSN                1
 GAP=108        0.65       3.5     2.9  5.6 -0.8272E+00  0.9056E+00 -0.4817E+00E
 Epicentro: ZAPATOCA - SANTANDER                                               3
 ACTION:UPD 18-01-04 13:25 OP:rebc STATUS:               ID:20171229151116 L   I
 OLDACT:UP  17-12-29 23:10 OP:mg   STATUS:               ID:20171229145928     3
 OLDACT:REG 17-12-29 21:53 OP:mg   STATUS:               ID:20171229145928     3
 2017-12-29-1508-00M.COL___450                                                 6
 STAT SP IPHASW D HRMM SECON CODA AMPLIT PERI AZIMU VELO AIN AR TRES W  DIS CAZ7
 BAR2 EZ EP       1511 36.01                             169    0.0210 26.2 182 
 BAR2 EZ ES   1   1511 51.35                             169   -0.09 7 26.2 182 
 BAR2 EZ I        1511 52.57        23.0 0.30            171           26.2 182 
 PAM  EZ EP     D 1511 38.77                             151    0.2910 77.0  43 
 PAM  EN ES   2   1511 56.31                             151    0.44 5 77.0  43 
 PAM  EZ I        1511 57.19         5.1 0.16            152           77.0  43 
 PTB  HZ EP       1511 42.68                             133   -0.33 9  145 257 
 PTB  HN ES       1512  3.64                             133   -0.30 9  145 257 
 PTB  HZ I        1512  6.66         5.1 0.14            133            145 257 
 SPBC HZ EP   1   1511 45.08                             129    0.28 7  164 217 
 SPBC HN ES       1512  7.20                             129    0.06 9  164 217 
 SPBC HZ I        1512 10.10        13.6 0.14            130            164 217 
 YPLC HZ EP       1511 46.49                             126    0.03 9  181 151 
 YPLC HN ES   1   1512  9.69                             126   -0.40 7  181 151 
 YPLC HZ I        1512 13.75         6.1 0.29            128            181 151 
 ZAR  HZ EP   1   1511 48.49                             123    0.22 6  200 292 
 ZAR  HN ES   2   1512 13.73                             123    0.43 4  200 292 
 ZAR  HZ I        1512 20.55        11.0 0.34            123            200 292 
 GUY2CHZ EP   2   1512  0.64                             113    0.89 4  301 234 
 GUY2CHN ES   1   1512 33.74                             113    0.00 5  301 234 
 GUY2CHZ I        1512 43.94         2.9 0.31                           301 234 
 SJC  HZ EP   2   1512  9.56                             106   -1.69 3  405 327 
 SJC  HN ES   4   1512 51.22                             106   -3.00 0  405 327 
 SJC  HZ I        1512 58.65         1.4 0.39            106            405 327 
                                                                                
