 2017  829 1542 18.7 L   6.854 -73.063142.2  RSN  6 0.4 1.5LRSN                1
 GAP=250        0.85       5.9     6.5  7.2  0.1412E+02  0.2168E+02  0.3560E+01E
 Epicentro: LOS SANTOS - SANTANDER                                             3
 ACTION:UPD 17-09-04 20:26 OP:rebc STATUS:               ID:20170829154218 L   I
 OLDACT:REG 17-08-29 20:54 OP:dhb  STATUS:               ID:20170829153742     3
 2017-08-29-1538-00M.COL___417                                                 6
 STAT SP IPHASW D HRMM SECON CODA AMPLIT PERI AZIMU VELO AIN AR TRES W  DIS CAZ7
 BAR2 EZ IP     C 1542 37.93                             167   -0.1410 31.9 205 
 BAR2 EZ ES       1542 53.65                             167    0.4410 31.9 205 
 BAR2 EZ I        1542 55.78         6.9 0.16            175           31.9 205 
 BRR  HZ EP       1542 40.07                             150    0.3010 77.0 291 
 BRR  HZ I        1543  5.93         4.6 0.31            141           77.0 291 
 RUS  HZ EP       1542 42.30                             142   -0.2010  106 181 
 RUS  HN ES       1543  0.71                             142   -0.3810  106 181 
 RUS  HZ I        1543  1.76         2.8 0.52            149            106 181 
 ZAR  HE ES       1543 16.70                             121   -0.50 8  211 290 
 ZAR  HZ I        1543 22.65         3.4 0.27            115            211 290 
 NOR  HZ EP       1542 55.81                             117    0.43 8  246 235 
 NOR  HE ES   3   1543 22.81                             117   -1.21 2  246 235 
 NOR  HZ I        1543 28.65         2.1 0.11            115            246 235 
 GUY2CHZ EP       1543  3.09                             111   -0.26 7  312 235 
 GUY2CHE ES       1543 38.71                             111    0.49 7  312 235 
 GUY2CHZ I        1543 47.15         1.7 0.59                           312 235 
                                                                                
