 2011 1229 1158 30.5 L   6.764 -73.141141.4  RSN 27 0.5 4.3LRSN                1
 GAP=103        0.80       2.5     2.9  4.4 -0.5722E+00  0.2206E+01  0.3195E+01E
 Epicentro: LOS SANTOS - SANTANDER                                             3
 ACTION:UPD 12-07-13 16:19 OP:ep   STATUS:               ID:20111229115830 L   I
 2011-12-29-1156-47S.COL___161                                                 6
 STAT SP IPHASW D HRMM SECON CODA AMPLIT PERI AZIMU VELO AIN AR TRES W  DIS CAZ7
 BAR2 SZ EP       1158 49.74                             172    0.2410 19.5 194 
 BAR2 SZ ES   2   1159  3.96                             172   -0.38 5 19.5 194 
 BAR2 SZ I        1159  5.51      7810.9 0.28                          19.5 194 
 GIR2 SZ IP       1158 49.89                             165    0.1510 35.3 351 
 GIR2 SZ ES   1   1159  3.94                             165   -0.83 7 35.3 351 
 BRR  HZ IP     D 1158 51.68                             151    0.3910 73.6 301 
 BRR  HN ES   1   1159  8.26                             151    0.73 7 73.6 301 
 BRR  HZ I        1159  9.65      4660.4 0.18                          73.6 301 
 PAM  SZ IP       1158 52.71                             149    0.3210 80.2  37 
 PAM  SZ I        1158 53.15      3534.4 0.22                          80.2  37 
 PAM  SN ES   2   1159  9.22                             149   -0.27 5 80.2  37 
 RUS  HZ EP       1158 53.60                             144    0.1010 96.6 176 
 RUS  HN ES   1   1159 11.82                             144    0.36 7 96.6 176 
 RUS  HZ I        1159 13.82      3615.8 0.35                          96.6 176 
 GUE  SZ EP   1   1158 55.15                             137    0.06 7  120  11 
 PTB  HZ IP     C 1158 56.34                             131   -0.73 9  148 260 
 PTB  HN ES   2   1159 16.93                             131   -0.88 5  148 260 
 OCA  SZ EP   1   1158 58.98                             128    0.15 7  164 353 
 OCA  SZ ES   1   1159 20.68                             128   -0.26 7  164 353 
 OCA  SZ I        1159 26.43      2843.6 0.19                           164 353 
 YOP  SZ EP       1159  0.45                             126    0.62 9  175 153 
 YOP  SE ES   1   1159 21.99                             126   -0.73 7  175 153 
 YOP  SZ I        1159 27.47      1802.9 0.48                           175 153 
 ZAR  HZ EP   1   1159  2.56                             121   -0.29 6  206 293 
 ZAR  HN ES   1   1159 28.41                             121    0.31 6  206 293 
 ZAR  HZ I        1159 33.75      2661.0 0.36                           206 293 
 NOR  SZ EP       1159  5.57                             118   -0.18 8  233 235 
 NOR  SN ES   1   1159 33.34                             118    0.07 6  233 235 
 CHI  HZ EP       1159  7.77                             117    0.24 8  245 196 
 CHI  HN ES   1   1159 36.03                             117   -0.40 6  245 196 
 CHI  HZ I        1159 40.76      1041.5 0.51                           245 196 
 HEL  HZ EP   1   1159  9.96                             114   -0.46 6  272 257 
 HEL  HN ES   1   1159 41.37                             114   -0.20 6  272 257 
 HEL  HZ I        1159 48.55      1364.3 0.41                           272 257 
 VIL  SZ EP   1   1159 13.21                             111   -0.05 5  300 192 
 VIL  SE ES   2   1159 46.58                             111   -0.06 4  300 192 
 VIL  SZ I        1159 51.30       495.5 0.35                           300 192 
 GUY  SZ EP   1   1159 14.63                             111    0.69 5  302 236 
 GUY  SZ I        1159 54.81      1570.9 0.29                           302 236 
 RREF HZ EP   1   1159 16.32                             110    0.14 5  320 230 
 RREF HN ES   1   1159 51.56                             110   -0.27 5  320 230 
 RREF HZ I        1159 58.26      1064.1 0.70                           320 230 
 TOL  SZ EP   1   1159 19.14                             109    0.87 5  341 225 
 SDV  BZ EP       1159 19.74                             107   -0.86 6  363  50 
 SDV  BZ I        12 0  1.71      1009.2 0.61                           363  50 
 PRA  HZ EP   1   1159 23.26                             106   -0.21 4  389 210 
 PRA  HE ES   2   12 0  5.64                             106    0.83 3  389 210 
 PRA  HZ I        12 0 15.59      1464.1 0.27                           389 210 
 PAL  HZ EP   1   1159 25.70                             105    0.39 4  404 240 
 PAL  HZ I        1159 27.91       537.7 0.24                           404 240 
 PAL  HN ES   1   12 0  7.94                             105   -0.13 4  404 240 
 GUA  SZ I        12 0 27.57        85.8 0.31                           470 173 
 YOT  HZ EP   1   1159 32.34                             103   -0.80 4  470 229 
 YOT  HZ I        1159 36.05       165.9 0.65                           470 229 
 YOT  HE ES   2   12 0 22.69                             103    0.68 2  470 229 
 GUA  SZ EP   1   1159 32.40                             103   -0.63 4  470 173 
 BET  SZ EP   1   1159 38.00                             101   -0.88 3  519 210 
 HORQ SZ EP   1   1159 40.22                             101   -0.31 3  530 227 
 HORQ SZ I        1159 44.04       114.8 0.36                           530 227 
 MARA HZ EP   1   1159 40.45                             101   -0.59 3  534 216 
 MARA HZ I        12 0 44.04        71.3 0.41                           534 216 
 FLO2 HZ EP   1   1159 52.25                              98   -0.86 2  637 206 
 SOTA HZ EP   1   1159 54.11                              98    0.04 2  640 217 
                                                                                
