 2010 1029 1039 19.3 L   6.810 -73.060151.1  RSN  4 0.2 1.3LRSN                1
 GAP=168        0.38       3.0     5.9  5.4 -0.2186E+00 -0.5635E+01 -0.2087E+01E
 Epicentro: LOS SANTOS - SANTANDER                                             3
 ACTION:UP  11-02-18 11:13 OP:tino STATUS:               ID:20101029103919 L   I
 2010-10-29-1033-55S.COL___128                                                 6
 STAT SP IPHASW D HRMM SECON CODA AMPLIT PERI AZIMU VELO SNR AR TRES W  DIS CAZ7
 BAR2 SZ EP   1   1039 39.81                             169     0.2 7   28 210 
 BAR2 SZ ES   2   1039 55.26                             169    -0.3 5   28 210 
 BRR  HZ IP     D 1039 41.53                             151     0.110   79 295 
 BRR  HE ES   2   1039 58.72                             151     0.0 5   79 295 
 BRR  HZ I        1040  0.53         6.9 0.25                            79 295 
 RUS  HZ EP   1   1039 43.58                             145     0.0 7  102 181 
 RUS  HZ I        1039 44.40         1.7 0.27                           102 181 
 RUS  HE ES   2   1040  2.66                             145     0.0 5  102 181 
 GRA  SZ EP   1   1039 44.49                             139    -0.2 7  122  13 
 GRA  SZ ES   2   1040  4.76                             139     0.2 5  122  13 
                                                                                
