 2017  829 1500 16.7 L   6.313 -73.615109.6  RSN  4 0.3 1.3LRSN                1
 GAP=178        0.80       6.3     4.7  7.9 -0.1846E+02  0.1880E+02 -0.1085E+02E
 Epicentro: SANTA HELENA DEL OPON - SANTANDER                                  3
 ACTION:UPD 17-09-04 20:26 OP:rebc STATUS:               ID:20170829150016 L   I
 OLDACT:REG 17-08-29 23:10 OP:dhb  STATUS:               ID:20170829145735     3
 2017-08-29-1458-00M.COL___417                                                 6
 STAT SP IPHASW D HRMM SECON CODA AMPLIT PERI AZIMU VELO AIN AR TRES W  DIS CAZ7
 BAR2 EZ IP     C 15 0 33.70                             151    0.1910 57.0  57 
 BAR2 EZ ES       15 0 46.48                             151   -0.1310 57.0  57 
 BAR2 EZ I        15 0 49.19         7.5 0.23            154           57.0  57 
 RUS  HZ EP       15 0 35.52                             143    0.4510 75.0 128 
 RUS  HE ES       15 0 49.19                             143   -0.1910 75.0 128 
 RUS  HZ I        15 0 53.35         3.6 0.80            146           75.0 128 
 SPBC HZ EP       15 0 35.32                             138   -0.2610 88.9 215 
 SPBC HN ES       15 0 50.32                             138    0.0310 88.9 215 
 SPBC HZ I        15 0 51.36         7.1 0.05            141           88.9 215 
 NOR  HZ EP       15 0 42.02                             119   -0.50 9  162 239 
 NOR  HN ES       15 1  3.02                             119    0.37 9  162 239 
 NOR  HZ I        15 1  4.80         1.9 0.17            123            162 239 
                                                                                
