 2011 1029 1404 29.4 L   6.785 -73.135137.6  RSN  6 0.2 1.5LRSN                1
 GAP=139        0.33       2.8     3.2  3.9  0.1692E+01  0.1235E+01  0.8034E+00E
 Epicentro: LOS SANTOS - SANTANDER                                             3
 ACTION:UPD 12-07-13 16:06 OP:ep   STATUS:               ID:20111029140429 L   I
 2011-10-29-1400-00M.COL___177                                                 6
 STAT SP IPHASW D HRMM SECON CODA AMPLIT PERI AZIMU VELO AIN AR TRES W  DIS CAZ7
 BAR2 SZ EP   1   14 4 47.99                             170   -0.07 7 21.9 194 
 BAR2 SZ ES   2   14 5  2.72                             170    0.14 5 21.9 194 
 BAR2 SZ I        14 5  3.92         7.7 0.28                          21.9 194 
 GIR2 SZ EP   2   14 4 48.06                             166   -0.14 5 33.2 349 
 GIR2 SZ ES   2   14 5  2.69                             166   -0.13 5 33.2 349 
 BRR  HZ IP     C 14 4 49.78                             150   -0.0410 73.0 299 
 BRR  HZ I        14 4 50.04        17.9 0.20                          73.0 299 
 BRR  HN ES   2   14 5  5.94                             150    0.23 5 73.0 299 
 PAM  SZ EP   1   14 4 50.83                             149    0.00 7 78.0  38 
 PAM  SN ES   2   14 5  7.56                             149    0.05 5 78.0  38 
 RUS  HZ EP   1   14 4 52.50                             142    0.24 7 98.8 177 
 RUS  HN ES   2   14 5  9.76                             142   -0.30 5 98.8 177 
 RUS  HZ I        14 5 11.50         2.8 0.62                          98.8 177 
 ZAR  HE ES   2   14 5 26.48                             120   -0.11 4  206 292 
                                                                                
