 2016  229 1020 53.9 L   6.807 -73.169149.8  RSN  8 0.4 1.6LRSN                1
 GAP=133        0.99       3.7     4.5  7.5 -0.2317E+01  0.1180E+02 -0.3403E+01E
 Epicentro: LOS SANTOS - SANTANDER                                             3
 ACTION:UPD 16-03-04 21:30 OP:rebc STATUS:               ID:20160229102053 L   I
 OLDACT:REG 16-02-29 20:40 OP:ar   STATUS:               ID:20160229101749     3
 2016-02-29-1017-49M.COL___309                                                 6
 STAT SP IPHASW D HRMM SECON CODA AMPLIT PERI AZIMU VELO AIN AR TRES W  DIS CAZ7
 BAR2 EZ EP       1021 13.99                             171   -0.0110 23.8 184 
 BAR2 EZ ES       1021 29.35                             171   -0.3510 23.8 184 
 BAR2 EZ I        1021 32.07         7.0 0.22            168           23.8 184 
 PAM  EZ EP       1021 16.79                             151    0.2110 78.4  41 
 PAM  EN ES       1021 34.07                             151   -0.2310 78.4  41 
 PAM  EZ I        1021 34.75         2.9 0.24            152           78.4  41 
 RUS  HZ EP       1021 18.41                             144    0.3110  102 175 
 RUS  HE ES       1021 37.32                             144    0.3310  102 175 
 RUS  HZ I        1021 38.22         3.1 0.36            142            102 175 
 PTB  HZ EP       1021 20.35                             133   -0.62 9  145 258 
 PTB  HZ I        1021 36.75         5.1 0.10            128            145 258 
 PTB  HN ES       1021 41.87                             133   -0.23 9  145 258 
 OCA  HZ EP   4   1021 27.29                             131    4.89 0  159 354 
 OCA  HN ES       1021 44.85                             131    0.20 9  159 354 
 OCA  HZ I        1021 48.81        12.1 0.30            128            159 354 
 SPBC HZ EP   2   1021 23.04                             130    0.44 5  162 218 
 SPBC HN ES       1021 45.03                             130    0.03 9  162 218 
 SPBC HZ I        1021 52.91         5.7 0.22            126            162 218 
 ZAR  HZ EP       1021 25.70                             124   -0.61 9  201 292 
 ZAR  HN ES       1021 52.49                             124    0.87 9  201 292 
 ZAR  HZ I        1021 58.26         4.6 0.30            119            201 292 
 GUY2CHZ EP   4   1021 40.29                             113    2.80 0  300 234 
 GUY2CHN ES   4   1022 13.28                             113    1.77 0  300 234 
 GUY2CHZ I        1022 20.87         3.2 0.76                           300 234 
                                                                                
