 2013  329 1316 52.3 L   7.132 -73.289  4.0  RSN  7 0.4 1.5LRSN                1
 GAP=148        0.85       2.8     1.8  7.2 -0.7598E-01  0.4769E+01 -0.8257E+01E
 Epicentro: LEBRIJA - SANTANDER                                                3
 ACTION:UPD 13-04-09 14:05 OP:ep   STATUS:               ID:20130329131652 L   I
 2013-03-29-1310-00M.COL___245                                                 6
 STAT SP IPHASW D HRMM SECON CODA AMPLIT PERI AZIMU VELO AIN AR TRES W  DIS CAZ7
 GIR2 SZ IP     D 1316 54.65                              92   -0.2110 12.1 119 
 GIR2 SZ ES   1   1316 56.84                              92   -0.03 7 12.1 119 
 GIR2 SZ I        1316 57.69        80.6 0.24             94           12.1 119 
 BRR  HZ IP     D 1317  0.21                              90    0.2410 46.8 267 
 BRR  HE ES   1   1317  5.79                              90   -0.18 7 46.8 267 
 BRR  HE I        1317  6.81        29.8 0.14             47           46.8 267 
 BAR2 SZ EP       1317  1.91                              90   -0.4410 60.9 169 
 PAM  SZ EP   1   1317  4.23                              90    0.39 7 69.0  71 
 PAM  SE ES   1   1317 12.50                              90   -0.36 7 69.0  71 
 PAM  SE I        1317 13.72        14.9 0.20             47           69.0  71 
 RUS  HZ EP   1   1317 14.70                              90    0.25 7  139 171 
 RUS  HE ES       1317 31.96                              90    0.23 9  139 171 
 RUS  HE IS   1   1317 31.96                              90    0.23 7  139 171 
 RUS  HE I        1317 37.46         5.1 0.42             47            139 171 
 PTB  HZ IP     D 1317 15.12                              90    0.29 9  145 243 
 PTB  HN ES       1317 31.98                              90   -0.43 9  145 243 
 PTB  HN I        1317 32.40         8.0 0.32             47            145 243 
 ZAR  HZ EP   1   1317 20.79                              56    1.02 7  178 283 
 ZAR  HN ES       1317 40.88                              56   -0.33 9  178 283 
 ZAR  HN I        1317 41.46        12.7 0.28             47            178 283 
                                                                                
