 2016 1029 1636 25.7 L   6.760 -73.108141.9  RSN 21 0.5 2.8LRSN                1
 GAP= 95        1.10       4.3     3.8  5.4 -0.4240E+01  0.3119E+01  0.6242E+01E
 Epicentro: LOS SANTOS - SANTANDER                                             3
 ACTION:UPD 16-11-09 19:24 OP:rebc STATUS:               ID:20161029163625 L   I
 OLDACT:UP  16-10-29 21:35 OP:edw  STATUS:               ID:20161029162745     3
 OLDACT:UP  16-10-29 21:33 OP:edw  STATUS:               ID:20161029162745     3
 OLDACT:UP  16-10-29 21:33 OP:edw  STATUS:               ID:20161029162745     3
 OLDACT:UP  16-10-29 21:32 OP:edw  STATUS:               ID:20161029162745     3
 OLDACT:UP  16-10-29 21:31 OP:edw  STATUS:               ID:20161029162745     3
 OLDACT:REG 16-10-29 19:38 OP:edw  STATUS:               ID:20161029162745     3
 2016-10-29-1628-00M.COL___325                                                 6
 STAT SP IPHASW D HRMM SECON CODA AMPLIT PERI AZIMU VELO AIN AR TRES W  DIS CAZ7
 BAR2 EZ IP     C 1636 44.41                             171   -0.3910 20.3 204 
 BAR2 EZ ES       1637  0.23                             171    0.5310 20.3 204 
 BAR2 EZ I        1637  0.68       312.9 0.30            168           20.3 204 
 BRR  HZ IP     C 1636 46.22                             150   -0.5510 77.0 300 
 BRR  HN ES       1637  3.43                             150    0.2210 77.0 300 
 BRR  HZ I        1637  7.73       111.2 0.28            147           77.0 300 
 PAM  EZ EP       1636 47.26                             150   -0.3010 78.4  35 
 PAM  EN ES       1637  4.66                             150    0.0410 78.4  35 
 PAM  EZ I        1637  6.95        97.0 0.54            153           78.4  35 
 RUS  HZ EP       1636 48.48                             144   -0.2510 96.0 178 
 RUS  HN ES       1637  6.42                             144   -0.2810 96.0 178 
 RUS  HZ I        1637  8.06        80.6 0.52            144           96.0 178 
 TAM  HZ IP     D 1636 52.85                             131    0.26 9  150 104 
 TAM  HE ES       1637 14.09                             131    0.52 9  150 104 
 TAM  HZ I        1637 15.27        28.7 0.22            134            150 104 
 PTB  HZ EP   9   1636 51.23                             130   -1.42 0  151 261 
 PTB  HN ES       1637 12.08                             131   -0.18 9  151 261 
 PTB  HZ I        1637 17.82       103.1 0.12            129            151 261 
 SPBC HZ EP       1636 53.45                             128   -0.38 9  162 221 
 SPBC HN ES       1637 15.13                             128   -0.65 9  162 221 
 SPBC HZ I        1637 17.90       149.9 0.26            127            162 221 
 NOR  HZ EP       1637  1.13                             117   -0.17 8  236 236 
 NOR  HN ES   4   1637 28.10                             117   -0.97 0  236 236 
 NOR  HZ I        1637 34.81        40.5 0.20            117            236 236 
 CHI  HZ IP     C 1637  2.76                             117   -0.08 8  246 196 
 CHI  HN ES       1637 31.75                             117   -0.06 8  246 196 
 CHI  HZ I        1637 34.30        31.8 0.38            117            246 196 
 ROSC BZ EP   4   1637  4.56                             116    1.13 0  251 212 
 ROSC BN ES   4   1637 34.94                             116    2.07 0  251 212 
 ROSC BZ I        1637 39.14        84.2 0.35            116            251 212 
 HEL  HZ EP       1637  6.59                             114    0.54 8  275 257 
 HEL  HE ES   4   1637 39.87                             114    2.35 0  275 257 
 HEL  HZ I        1637 43.76        28.6 0.54            113            275 257 
 VIL  EZ EP   4   1637  6.89                             111   -1.65 0  300 193 
 VIL  HN ES   4   1637 41.03                             111   -0.94 0  300 193 
 GUY2CHZ EP       1637  9.71                             111    0.48 7  302 236 
 GUY2CHN ES   4   1637 45.70                             111    2.52 0  302 236 
 GUY2CHZ I        1637 52.99        26.0 0.38                           302 236 
 PTGC HZ EP   4   1637  7.59                             111   -1.15 0  303 159 
 PTGC HN ES   4   1637 40.42                             111   -1.90 0  303 159 
 PTGC HZ I        1637 43.16        24.1 0.28            112            303 159 
 LL1C HZ EP   4   1637  9.53                             111   -0.16 0  312 351 
 LL1C HN ES   4   1637 44.94                             111    0.94 0  312 351 
 ELA  HZ EP   4   1637 16.02                             109    3.60 0  329 231 
 ELA  HN ES       1637 50.52                             109    1.65 7  329 231 
 ELA  HZ I        1637 55.63        24.4 0.46            109            329 231 
 LL6C HZ EP   4   1636 50.37                             109   -21.4 0  330 357 
 LL6C HN ES   4   1637 24.72                             109   -23.0 0  330 357 
 CBOC HZ EP   2   1637 13.30                             109    0.55 3  336 253 
 CBOC HN ES   2   1637 49.16                             109   -0.30 3  336 253 
 CBOC HZ I        1638  0.63         7.6 0.70            109            336 253 
 ANIL HZ EP       1637 15.99                             108    0.66 6  357 225 
 ANIL HN ES   4   1637 55.28                             108    1.23 0  357 225 
 ANIL HZ I        1638  0.99        73.5 0.30            108            357 225 
 PRA  HZ EP       1637 18.23                             106   -0.65 6  390 210 
 PRA  HN ES   4   1637 59.52                             106   -0.84 0  390 210 
 PRA  HZ I        1638  4.66        26.2 0.62            106            390 210 
 ORTC HZ EP   4   1637 18.08                             106   -1.28 0  394 217 
 ORTC HN ES   4   1638  2.50                             106    1.28 0  394 217 
 ORTC HZ I        1638  6.99        16.3 0.50            106            394 217 
 SJC  HZ EP   4   1637 18.03                             105   -3.80 0  415 327 
 SJC  HN ES   4   1637 59.15                             105   -6.47 0  415 327 
 SJC  HZ I        1638  6.30        11.6 0.34            105            415 327 
 LCBC HE ES   4   1638  5.71                             104   -2.41 0  428 303 
 YOT  HN ES   4   1638 20.69                             103    2.91 0  472 230 
 CRJC HZ EP   4   1637 24.91                             103   -3.67 0  472   3 
 CRJC HN ES   4   1638 12.90                             103   -4.74 0  472   3 
 CRJC HZ I        1638 17.41        14.0 0.48            103            472   3 
 URI  HZ EP   4   1637 34.56                             100   -4.46 0  560  13 
 URI  HN ES   4   1638 29.22                             100   -6.99 0  560  13 
 URI  HZ I        1638 37.43         2.7 0.38            101            560  13 
                                                                                
