 2014  929 1426 45.9 L   6.963 -72.825132.0  RSN  4 0.3 2.2LRSN                1
 GAP=258        0.69       6.6     7.3  8.6  0.2708E+02 -0.2526E+02 -0.4035E+02E
 Epicentro: SANTA BARBARA - SANTANDER                                          3
 ACTION:UPD 14-10-03 23:09 OP:nd   STATUS:               ID:20140929142645 L   I
 OLDACT:UP  14-09-29 22:24 OP:cam  STATUS:               ID:20140929142000     3
 OLDACT:REG 14-09-29 20:36 OP:cam  STATUS:               ID:20140929142000     3
 2014-09-29-1420-00M.COL___252                                                 6
 STAT SP IPHASW D HRMM SECON CODA AMPLIT PERI AZIMU VELO AIN AR TRES W  DIS CAZ7
 BAR2 SZ EP     C 1427  5.35                             156    0.2010 56.9 224 
 BAR2 SZ ES       1427 20.03                             156   -0.1110 56.9 224 
 BRR  HZ EP       1427  7.12                             141   -0.4410 99.3 279 
 BRR  HN ES       1427 24.72                             141    0.2810 99.3 279 
 BRR  HN I        1427 25.45        28.0 0.28            139           99.3 279 
 ZAR  HN ES       1427 47.51                             116   -0.04 8  232 285 
 ZAR  HN I        1427 49.68        13.9 0.18            115            232 285 
 SML  HZ EP       1427 22.36                             114    0.35 8  245 326 
 SML  HN ES       1427 49.96                             114   -0.19 8  245 326 
 SML  HZ I        1427 52.71         8.7 0.22            114            245 326 
                                                                                
