 2013  429 1733 35.3 L   6.769 -73.127146.0  RSN 10 0.4 2.1LRSN                1
 GAP=140        0.67       3.4     4.4  5.4 -0.3278E+01  0.4955E+01  0.5075E+01E
 Epicentro: LOS SANTOS - SANTANDER                                             3
 ACTION:UPD 13-05-22 14:41 OP:EP   STATUS:               ID:20130429173335 L   I
 2013-04-29-1730-00M.COL___248                                                 6
 STAT SP IPHASW D HRMM SECON CODA AMPLIT PERI AZIMU VELO AIN AR TRES W  DIS CAZ7
 BAR2 SZ EP   1   1733 54.88                             172   -0.06 7 20.5 197 
 BAR2 SZ ES   1   1734 10.13                             172   -0.10 7 20.5 197 
 BAR2 SZ I        1734 12.80        11.4 0.20            169           20.5 197 
 GIR2 SZ EP   1   1733 55.22                             166    0.08 7 35.0 348 
 BRR  HZ EP     C 1733 56.81                             151    0.1010 74.6 300 
 BRR  HN ES   1   1734 14.24                             151    0.86 7 74.6 300 
 BRR  HN I        1734 14.85        39.8 0.32            149           74.6 300 
 PAM  SZ EP   1   1733 57.76                             150    0.10 7 78.8  37 
 PAM  SN ES   1   1734 14.86                             150   -0.21 7 78.8  37 
 PAM  SZ I        1734 17.06         7.5 0.48            154           78.8  37 
 RUS  HZ EP   1   1733 58.75                             145   -0.11 7 97.1 177 
 RUS  HN ES   2   1734 17.22                             145    0.01 5 97.1 177 
 RUS  HZ I        1734 18.67         5.4 0.26            146           97.1 177 
 PTB  HZ EP   1   1734  1.92                             132   -0.53 7  149 260 
 PTB  HN ES   1   1734 22.97                             132   -0.63 7  149 260 
 PTB  HZ I        1734 28.73        10.3 0.36            131            149 260 
 OCA  HN ES   1   1734 26.14                             129   -0.23 7  164 353 
 OCA  HN I        1734 28.88        57.0 0.22            131            164 353 
 NOR  HZ EP       1734 10.98                             119   -0.07 8  234 235 
 NOR  HN ES   2   1734 39.20                             119    0.29 4  234 235 
 NOR  HN I        1734 43.67        24.5 0.16            119            234 235 
 SML  HN ES   2   1734 41.46                             117    0.15 4  248 335 
 SML  HN I        1734 44.68        22.8 0.10            118            248 335 
 PRA  HZ EP       1734 29.25                             107    0.61 6  390 210 
 PRA  HN ES   1   1735 10.32                             107    0.10 4  390 210 
 PRA  HZ I        1735 16.24         4.5 0.70            108            390 210 
                                                                                
