 2012  129 1251 52.0 L   6.789 -73.203147.1  RSN  5 0.3 1.3LRSN                1
 GAP=171        0.41      13.1    11.0 12.5  0.1180E+03  0.9027E+02  0.1030E+03E
 Epicentro: ZAPATOCA - SANTANDER                                               3
 ACTION:UP  12-02-03 08:22 OP:REBC STATUS:               ID:20120129125153 L   I
 2012-01-29-1250-00M.COL___188                                                 6
 STAT SP IPHASW D HRMM SECON CODA AMPLIT PERI AZIMU VELO SNR AR TRES W  DIS CAZ7
 BAR2 SZ EP   3   1252 11.84                             171     0.1 2   22 174 
 GIR2 SZ ES   3   1252 26.69                             167    -0.6 2   32   2 
 BRR  HZ EP   3   1252 12.84                             154    -0.1 2   66 302 
 BRR  HE ES   3   1252 30.22                             154     0.8 2   66 302 
 RUS  HZ EP       1252 15.85                             144     0.110  100 172 
 RUS  HN ES   3   1252 34.06                             144    -0.3 2  100 172 
 RUS  HZ I        1252 35.89         3.1 0.28                           100 172 
 PTB  HZ EP       1252 18.41                             134     0.0 9  141 259 
 PTB  HZ I        1252 41.59         2.8 0.36                           141 259 
                                                                                
