 2011  629 1136 21.3 L   7.444 -73.503100.5  RSN  8 0.3 1.6LRSN                1
 GAP=161        0.77       3.6     5.7  9.1 -0.2497E+01  0.2161E+02  0.1034E+02E
 Epicentro: SABANA DE TORRES - SANTANDER                                       3
 ACTION:UP  11-07-14 19:09 OP:ep   STATUS:               ID:20110629113621 L   I
 2011-06-29-1133-37S.COL___140                                                 6
 STAT SP IPHASW D HRMM SECON CODA AMPLIT PERI AZIMU VELO SNR AR TRES W  DIS CAZ7
 BRR  HZ EP       1136 36.45                             155     0.410   44 212 
 BRR  HZ I        1136 36.84        21.7 0.20                            44 212 
 BTL  SZ EP       1136 37.63                             145     0.010   64 156 
 BRI  SZ EP       1136 39.40                             137     0.410   84  69 
 BRI  SZ ES   1   1136 53.07                             137     0.2 7   84  69 
 PAM  SZ EP       1136 39.79                             136    -0.210   89  97 
 PAM  SN ES   1   1136 54.43                             136    -0.1 7   89  97 
 OCA  SZ EP       1136 39.63                             135     0.010   90  13 
 OCA  SZ ES   1   1136 53.12                             135    -0.7 7   90  13 
 GRA  SZ EP       1136 39.65                             135     0.010   91  58 
 GRA  SZ ES   1   1136 54.16                             135     0.2 7   91  58 
 GRA  SZ I        1136 56.22        21.1 0.25                            91  58 
 BAR2 SZ EP       1136 40.47                             131    -0.110  101 159 
 BAR2 SZ ES   2   1136 55.51                             131    -0.2 5  101 159 
 BAR2 SZ I        1136 56.92        14.2 0.35                           101 159 
 RUS  HZ EP       1136 48.60                             114    -0.3 9  178 165 
 RUS  HZ I        1137  9.99         1.4 0.47                           178 165 
                                                                                
