 2015  929 1746 37.3 L   6.484 -73.265158.4  RSN 14 0.5 2.3LRSN                1
 GAP=126        1.24       3.7     4.7  6.9 -0.2975E+01  0.7905E+01  0.9309E+00E
 Epicentro: SOCORRO - SANTANDER                                                3
 ACTION:UPD 15-10-28 16:29 OP:cam  STATUS:               ID:20150929174637 L   I
 OLDACT:REG 15-09-29 22:42 OP:ar   STATUS:               ID:20150929173749     3
 2015-09-29-1737-49M.COL___349                                                 6
 STAT SP IPHASW D HRMM SECON CODA AMPLIT PERI AZIMU VELO AIN AR TRES W  DIS CAZ7
 BAR2 EZ EP     C 1746 57.96                             174   -0.3510 15.0  37 
 BAR2 EZ ES       1747 14.48                             174   -0.2310 15.0  37 
 BAR2 EZ I        1747 15.77        49.6 0.24            174           15.0  37 
 RUS  HZ EP       1747  0.07                             156   -0.3210 68.4 163 
 RUS  HN ES       1747 17.87                             156   -0.5310 68.4 163 
 RUS  HZ I        1747 20.08        16.5 0.28            159           68.4 163 
 BRR  HZ EP   1   1747  0.95                             150    0.37 7 84.8 324 
 BRR  HN ES       1747 19.97                             150    1.2210 84.8 324 
 BRR  HZ I        1747 21.66        24.8 0.12            149           84.8 324 
 PAM  EZ EP       1747  3.50                             143    0.3010  113  33 
 PAM  EE ES       1747 23.89                             143    0.4810  113  33 
 PAM  EZ I        1747 26.87         8.8 0.14            144            113  33 
 SPBC HZ EP   2   1747  3.59                             139   -0.20 5  128 224 
 SPBC HN ES       1747 24.73                             139    0.2710  128 224 
 SPBC HZ I        1747 27.50        33.1 0.16            140            128 224 
 PTB  HZ EP       1747  3.45                             138   -0.5310  132 273 
 PTB  HN ES       1747 24.07                             138   -0.7310  132 273 
 PTB  HZ I        1747 27.09        26.0 0.12            137            132 273 
 NOR  HZ EP       1747 11.43                             125    0.72 9  205 240 
 NOR  HE ES       1747 36.32                             125   -0.46 9  205 240 
 NOR  HZ I        1747 37.86        19.7 0.46            125            205 240 
 ZAR  HZ EP       1747 10.83                             124   -0.20 8  208 302 
 ZAR  HE ES       1747 36.82                             124   -0.52 8  208 302 
 ZAR  HZ I        1747 44.74        18.8 0.38            124            208 302 
 CHI  HZ EP       1747 11.94                             124    0.07 8  211 194 
 CHI  HN ES       1747 38.92                             124    0.08 8  211 194 
 HEL  HZ EP   4   1747 18.11                             119    2.03 0  253 263 
 HEL  HE ES   4   1747 47.74                             119    1.40 0  253 263 
 HEL  HZ I        1747 52.97        11.1 0.28            119            253 263 
 SML  HZ EP   2   1747 16.94                             117   -0.67 4  271 341 
 SML  HE ES       1747 48.61                             117   -0.45 8  271 341 
 SML  HZ I        1747 55.34        27.7 0.10            117            271 341 
 GUY2CHZ EP   2   1747 19.14                             117    0.93 4  271 239 
 GUY2CHN ES       1747 51.06                             117    0.94 8  271 239 
 GUY2CHZ I        1747 59.84        11.4 0.58                           271 239 
 URE  HZ EPg  4   1747 17.43                             116   -1.93 0  287 299 
 URE  HZ EP   4   1747 18.21                             116   -1.15 0  287 299 
 URE  HN ES   4   1747 49.79                             116   -2.39 0  287 299 
 URE  HZ I        1747 51.90        13.4 0.18            116            287 299 
 ORTC HZ EP   2   1747 27.88                             110    0.34 3  360 218 
 ORTC HE ES   2   1748  7.43                             110    0.70 3  360 218 
 ORTC HZ I        1748 12.25         3.1 0.20            111            360 218 
                                                                                
