 2013  529 1304 50.7 L   6.736 -73.171141.4  RSN  7 0.4 2.0LRSN                1
 GAP=136        0.95       3.7     4.7  5.7 -0.2126E+01  0.3059E+01 -0.1397E+01E
 Epicentro: VILLANUEVA - SANTANDER                                             3
 ACTION:UPD 13-06-20 09:54 OP:ep   STATUS:               ID:20130529130450 L   I
 2013-05-29-1258-51M.COL___208                                                 6
 STAT SP IPHASW D HRMM SECON CODA AMPLIT PERI AZIMU VELO AIN AR TRES W  DIS CAZ7
 BAR2 SZ EP       13 5  9.53                             173   -0.1110 15.9 184 
 BAR2 SZ ES       13 5 24.07                             173   -0.3710 15.9 184 
 BAR2 SZ I        13 5 25.39        15.9 0.24            173           15.9 184 
 GIR2 SZ EP       13 5  9.83                             164   -0.2010 38.0 356 
 GIR2 SZ ES       13 5 25.31                             164    0.1910 38.0 356 
 BRR  HZ EP       13 5 11.66                             151    0.2410 72.5 305 
 BRR  HN ES       13 5 27.91                             151    0.3010 72.5 305 
 BRR  HE I        13 5 33.70        28.7 0.26            150           72.5 305 
 PAM  SZ EP       13 5 12.79                             148   -0.0910 84.7  38 
 PAM  SN ES       13 5 29.77                             148   -0.4310 84.7  38 
 PAM  SE I        13 5 31.51        26.1 0.42            151           84.7  38 
 RUS  HZ EP       13 5 14.11                             145    0.6110 93.7 174 
 RUS  HN ES       13 5 31.51                             145    0.2010 93.7 174 
 RUS  HE I        13 5 32.47         7.5 0.48            148           93.7 174 
 PTB  HZ EP       13 5 16.66                             132   -0.26 9  144 261 
 PTB  HN ES       13 5 37.06                             132   -0.33 9  144 261 
 PTB  HE I        13 5 40.20        15.0 0.30            132            144 261 
 OCA  HZ EP       13 5 18.83                             127   -0.46 9  167 354 
 OCA  HN ES       13 5 42.29                             127    0.67 9  167 354 
                                                                                
