 2011  529 1939 33.8 L   6.802 -73.086139.2  RSN  8 0.3 1.9LRSN                1
 GAP=162        0.67       3.8     5.5  6.7 -0.9648E+01  0.1752E+01  0.1632E+01E
 Epicentro: LOS SANTOS - SANTANDER                                             3
 ACTION:UP  11-06-29 08:57 OP:tino STATUS:               ID:20110529193933 L   I
 2011-05-29-1936-07S.COL___113                                                 6
 STAT SP IPHASW D HRMM SECON CODA AMPLIT PERI AZIMU VELO SNR AR TRES W  DIS CAZ7
 BAR2 SZ EP       1939 52.61                             169     0.010   26 205 
 BAR2 SZ I        1939 53.37        13.9 0.16                            26 205 
 BAR2 SZ ES   2   1940  7.48                             169     0.1 5   26 205 
 BRR  HZ EP       1939 54.57                             149     0.010   77 296 
 BRR  HZ I        1939 54.88        31.0 0.19                            77 296 
 BRR  HN ES   1   1940 11.16                             149     0.4 7   77 296 
 RUS  HZ EP   2   1939 56.80                             142    -0.1 5  101 180 
 RUS  HN ES   2   1940 14.62                             142    -0.3 5  101 180 
 RUS  HZ I        1940 16.74         6.0 0.16                           101 180 
 BRI  SZ EP   2   1939 57.26                             141     0.4 5  106  18 
 GRA  SZ EP       1939 58.58                             136     0.310  124  15 
 GRA  SZ ES       1940 17.07                             136    -0.310  124  15 
 GRA  SZ I        1940 20.17        14.2 0.35                           124  15 
 OCA  SZ EP   2   1940  1.11                             128    -0.5 5  161 351 
 OCA  SZ ES   2   1940 22.60                             128    -0.8 5  161 351 
 OCA  SZ I        1940 26.20        10.3 0.39                           161 351 
 NOR  SZ EP   2   1940  9.31                             116    -0.4 4  240 235 
 NOR  SN ES   2   1940 37.08                             116    -0.7 4  240 235 
 HEL  HZ EP   2   1940 14.63                             113     0.3 4  278 256 
 HEL  HE ES   2   1940 46.12                             113     0.1 4  278 256 
 HEL  HZ I        1940 51.15         6.1 0.62                           278 256 
                                                                                
