 2010 1029 1826 31.2 L   6.790 -73.129144.1  RSN 10 0.5 2.2LRSN                1
 GAP=157        0.93       6.3     8.0  8.9 -0.2261E+02  0.1433E+02 -0.3362E+01E
 Epicentro: LOS SANTOS - SANTANDER                                             3
 ACTION:UP  11-02-18 11:13 OP:tino STATUS:               ID:20101029182631 L   I
 2010-10-29-1824-41S.COL___128                                                 6
 STAT SP IPHASW D HRMM SECON CODA AMPLIT PERI AZIMU VELO SNR AR TRES W  DIS CAZ7
 BTL  SZ EP   1   1826 50.96                             171     0.4 7   21 313 
 BAR2 SZ IP     C 1826 50.55                             171    -0.110   23 195 
 BAR2 SZ ES   2   1827  5.11                             171    -0.6 5   23 195 
 BAR2 SZ I        1827  6.20        45.6 0.25                            23 195 
 GIR2 SZ EP   1   1826 50.62                             166    -0.1 7   33 347 
 GIR2 SZ ES   2   1827  6.06                             166     0.1 5   33 347 
 BRR  HZ EP   1   1826 52.51                             151     0.2 7   73 299 
 BRR  HE ES   2   1827  9.23                             151     0.5 5   73 299 
 BRR  HZ I        1827 13.74        44.4 0.17                            73 299 
 RUS  HZ EP   1   1826 54.77                             144     0.1 7   99 177 
 RUS  HE ES   2   1827 13.10                             144     0.1 5   99 177 
 RUS  HZ I        1827 13.91        12.2 0.32                            99 177 
 BRI  SZ EP   1   1826 55.14                             141     0.2 7  109  20 
 GUE  SZ EP   1   1826 54.59                             139    -1.2 7  117  11 
 GRA  SZ EP   1   1826 56.52                             136     0.2 7  126  16 
 GRA  SZ ES   2   1827 16.30                             136     0.4 5  126  16 
 GRA  SZ I        1827 18.15        19.9 0.33                           126  16 
 NOR  SZ EP   1   1827  7.06                             118     0.1 6  236 235 
 NOR  SN ES   2   1827 34.13                             118    -0.7 4  236 235 
 HEL  HZ EP   1   1827 12.22                             114     0.7 6  274 256 
 HEL  HE ES   2   1827 42.12                             114    -0.8 4  274 256 
 HEL  HZ I        1827 50.07         8.1 0.31                           274 256 
                                                                                
