 2017  429 1031 55.7 L   7.005 -73.163161.1  RSN  5 0.4 1.7LRSN                1
 GAP=211        0.89       6.3     8.8  8.4  0.2449E+02 -0.5479E+01 -0.2590E+02E
 Epicentro: GIRON - SANTANDER                                                  3
 ACTION:UPD 17-05-30 21:17 OP:jn   STATUS:               ID:20170429103155 L   I
 OLDACT:UP  17-04-29 21:37 OP:dani STATUS:               ID:20170429102747     3
 OLDACT:UP  17-04-29 21:36 OP:dani STATUS:               ID:20170429102747     3
 OLDACT:UP  17-04-29 21:36 OP:dani STATUS:               ID:20170429102747     3
 OLDACT:REG 17-04-29 21:03 OP:dani STATUS:               ID:20170429102747     3
 2017-04-29-1028-00M.COL___368                                                 6
 STAT SP IPHASW D HRMM SECON CODA AMPLIT PERI AZIMU VELO AIN AR TRES W  DIS CAZ7
 BRR  HZ EP       1032 18.41                             158    0.3610 61.7 281 
 BRR  HN ES       1032 35.72                             158    0.2310 61.7 281 
 BRR  HZ I        1032 37.42        10.0 0.12             96           61.7 281 
 RUS  HN ES       1032 43.23                             141   -0.3910  123 176 
 PTB  HZ EP     C 1032 24.52                             135    0.21 9  152 250 
 PTB  HN ES       1032 46.14                             135   -0.49 9  152 250 
 PTB  HZ I        1032 52.07         2.9 0.27             95            152 250 
 ZAR  HZ EP       1032 28.68                             127    0.42 9  195 286 
 ZAR  HN ES   3   1032 54.89                             127    1.22 2  195 286 
 ZAR  HZ I        1033  0.56         4.4 0.42            104            195 286 
 SJC  HZ EP       1032 49.13                             109   -0.36 6  389 325 
 SJC  HN ES       1033 30.75                             109   -0.70 6  389 325 
 SJC  HZ I        1033 32.10         1.6 0.65             55            389 325 
                                                                                
