 2016 1229 1502 51.4 L   6.770 -73.161140.0  RSN 14 0.5 2.7LRSN                1
 GAP= 97        1.18       4.7     3.4  6.2 -0.9682E-01  0.5114E+01  0.6911E+01E
 Epicentro: LOS SANTOS - SANTANDER                                             3
 ACTION:UPD 17-01-11 20:20 OP:rebc STATUS:               ID:20161229150251 L   I
 OLDACT:UP  16-12-29 23:43 OP:cog  STATUS:               ID:20161229145749     3
 OLDACT:UP  16-12-29 23:42 OP:cog  STATUS:               ID:20161229145749     3
 OLDACT:REG 16-12-29 21:07 OP:y    STATUS:               ID:20161229145749     3
 2016-12-29-1458-00M.COL___381                                                 6
 STAT SP IPHASW D HRMM SECON CODA AMPLIT PERI AZIMU VELO AIN AR TRES W  DIS CAZ7
 BAR2 HZ IP       15 3 10.37                             172    0.1510 19.8 187 
 BAR2 HZ ES       15 3 25.06                             172    0.1210 19.8 187 
 BAR2 HZ I        15 3 26.12       109.7 0.24            169           19.8 187 
 BRR  HZ IP       15 3 12.31                             151    0.4210 71.4 302 
 BRR  HE ES       15 3 28.38                             151    0.4710 71.4 302 
 BRR  HZ I        15 3 33.34       113.4 0.12            151           71.4 302 
 PAM  EZ EP       15 3 13.22                             149    0.0310 81.0  39 
 PAM  EE ES       15 3 29.84                             149   -0.3710 81.0  39 
 PAM  EZ I        15 3 32.33       107.5 0.44            154           81.0  39 
 RUS  HZ EP       15 3 14.31                             143    0.0010 97.4 175 
 RUS  HN ES       15 3 32.67                             143    0.4610 97.4 175 
 RUS  HZ I        15 3 33.66        67.2 0.24            143           97.4 175 
 PTB  HZ EP       15 3 17.00                             131   -0.65 9  145 260 
 PTB  HN ES       15 3 37.88                             131   -0.27 9  145 260 
 PTB  HZ I        15 3 40.77        65.8 0.20            131            145 260 
 TAM  HZ EP       15 3 18.81                             129    0.15 9  156 104 
 TAM  HE ES       15 3 39.33                             129   -0.62 9  156 104 
 TAM  HZ I        15 3 40.83        25.9 0.60            132            156 104 
 ZAR  HZ EP       15 3 23.81                             121    0.41 9  204 293 
 ZAR  HE ES       15 3 47.85                             121   -0.54 9  204 293 
 ZAR  HZ I        15 3 54.45        91.9 0.42            122            204 293 
 NOR  HZ EP       15 3 26.29                             118   -0.11 8  231 235 
 NOR  HN ES       15 3 54.13                             118    0.40 8  231 235 
 NOR  HZ I        15 3 59.43        44.1 0.36            118            231 235 
 CHI  HZ EP       15 3 28.29                             116   -0.05 8  245 195 
 CHI  HN ES   4   15 3 59.79                             116    2.61 0  245 195 
 CHI  HZ I        15 4  2.21        19.6 0.40            117            245 195 
 ROSC BZ EP   4   15 3 30.61                             116    1.86 0  249 211 
 ROSC BE ES   3   15 3 58.78                             116    0.85 2  249 211 
 ROSC BZ I        15 4  6.68        82.8 0.55            117            249 211 
 GUY2CHZ EP   4   15 3 35.58                             111    1.26 0  298 235 
 GUY2CHE ES   4   15 4 10.11                             111    2.27 0  298 235 
 GUY2CHZ I        15 4 15.79        28.4 0.22                           298 235 
 VIL  EZ EP   4   15 3 35.96                             111    1.86 0  300 191 
 VIL  EN ES   4   15 4  5.44                             111   -2.01 0  300 191 
 ELA  HZ EP   4   15 3 40.40                             109    2.83 0  326 230 
 ELA  HE ES       15 4 11.88                             109   -1.74 7  326 230 
 ELA  HZ I        15 4 16.20        17.9 0.66            110            326 230 
 CBOC HZ EP       15 3 38.52                             109    0.79 7  331 253 
 CBOC HE ES   4   15 4  9.91                             109   -4.00 0  331 253 
 CBOC HZ I        15 4 16.36        10.3 0.56            110            331 253 
 ANIL HZ EP   4   15 3 42.63                             108    2.10 0  354 225 
 ANIL HE ES   4   15 4 20.43                             108    1.55 0  354 225 
 ORTC HZ EP       15 3 45.41                             105    0.76 6  392 216 
 ORTC HN ES   4   15 4 27.22                             105    1.00 0  392 216 
 ORTC HZ I        15 4 32.25        21.4 0.46            106            392 216 
                                                                                
