 2014  429 1539 39.9 L   6.812 -73.133146.8  RSN 21 0.5 2.9LRSN                1
 GAP= 71        0.92       2.2     2.9  5.1 -0.9409E+00  0.4187E+01  0.1008E+01E
 Epicentro: LOS SANTOS - SANTANDER                                             3
 OLDACT:REG 14-04-29 21:16 OP:spq  STATUS:               ID:20140429153819     3
 ACTION:UPD 14-05-13 23:12 OP:nd   STATUS:               ID:20140429153939 L   I
 OLDACT:UP  14-04-30 00:26 OP:fm   STATUS:               ID:20140429153819     3
 2014-04-29-1538-19M.COL___217                                                 6
 STAT SP IPHASW D HRMM SECON CODA AMPLIT PERI AZIMU VELO AIN AR TRES W  DIS CAZ7
 PAM  SZ IP       1540  2.64                             151    0.5110 75.4  39 
 PAM  SE ES       1540 19.68                             151    0.2310 75.4  39 
 PAM  SZ I        1540 21.99       105.2 0.50            150           75.4  39 
 RUS  HZ EP       1540  3.52                             144   -0.3410  102 177 
 RUS  HE ES       1540 22.31                             144   -0.2210  102 177 
 PTB  HZ EP       1540  6.31                             132   -0.81 9  149 258 
 PTB  HN ES       1540 27.76                             132   -0.57 9  149 258 
 PTB  SZ I        1540 31.41        88.9 0.18            131            149 258 
 TAM  HZ EP       1540  7.87                             131    0.29 9  154 106 
 TAM  SZ I        1540 28.46        78.6 0.40            128            154 106 
 TAM  HN ES   2   1540 28.48                             131   -0.68 5  154 106 
 OCA  HZ EP       1540  8.48                             130    0.28 9  159 353 
 OCA  HN ES       1540 30.33                             130    0.07 9  159 353 
 OCA  SZ I        1540 36.10        86.5 0.36            129            159 353 
 SPBC HZ EP       1540  8.47                             129   -0.20 9  165 219 
 SPBC HN ES       1540 30.83                             129   -0.28 9  165 219 
 SPBC SZ I        1540 36.87       171.3 0.26            128            165 219 
 ZAR  HZ EP       1540 12.44                             122   -0.07 9  205 292 
 ZAR  HE ES       1540 38.10                             122    0.16 9  205 292 
 ZAR  SZ I        1540 44.67       112.3 0.44            122            205 292 
 NOR  HZ EP       1540 15.56                             118   -0.35 8  237 234 
 NOR  HN ES       1540 43.93                             118   -0.06 8  237 234 
 NOR  SZ I        1540 48.50        87.5 0.26            118            237 234 
 SML  HZ EP   1   1540 16.33                             118   -0.20 6  243 335 
 SML  HE ES   1   1540 45.59                             118    0.49 6  243 335 
 SML  SZ I        1540 46.84        88.1 0.10            117            243 335 
 CHI  HZ EP       1540 17.71                             117   -0.14 8  250 195 
 CHI  HN ES       1540 48.34                             117    0.90 8  250 195 
 CHI  SZ I        1540 54.43        27.7 0.38            116            250 195 
 HEL  HZ EP       1540 21.04                             115    0.67 8  274 256 
 HEL  HN ES       1540 52.50                             115    0.58 8  274 256 
 HEL  SZ I        1540 56.96        46.4 0.34            114            274 256 
 URE  HZ EP   4   1540 19.73                             114   -1.40 0  285 292 
 URE  HE ES   4   1540 51.45                             114   -1.82 0  285 292 
 URE  SZ I        1540 57.49        67.1 0.16            113            285 292 
 GUY2CHZ EP       1540 24.39                             112    0.60 7  303 235 
 GUY2CHN ES   4   1540 59.71                             112    1.70 0  303 235 
 GUY2CSZ I        1541  6.11        65.9 0.42                           303 235 
 VIL  SZ EP   2   1540 23.72                             112    0.16 4  305 192 
 VIL  SN ES   1   1540 57.48                             112   -0.12 5  305 192 
 VIL  SZ I        1541  7.55        38.5 0.40            111            305 192 
 CBOC HZ EP       1540 27.45                             110    0.38 7  335 252 
 CBOC HE ES   1   1541  3.69                             110   -0.17 5  335 252 
 CBOC SZ I        1541 12.60        14.7 0.86            109            335 252 
 DBB  SZ EP       1540 27.29                             109   -0.29 7  341 274 
 DBB  SZ ES   4   1541  0.07                             109   -4.70 0  341 274 
 ARGC HZ EP   1   1540 29.22                             108   -0.30 5  358 340 
 ARGC HN ES   1   1541  7.18                             108   -1.03 5  358 340 
 ARGC SZ I        1541 20.25        23.7 0.44            107            358 340 
 PRA  HZ EP       1540 33.06                             106   -0.62 6  394 210 
 PRA  HN ES       1541 15.65                             106    0.02 6  394 210 
 PRA  SZ I        1541 22.97        35.3 0.26            106            394 210 
 ORTC HZ EP       1540 33.70                             106   -0.39 6  397 216 
 ORTC HN ES       1541 17.27                             106    0.92 6  397 216 
 ORTC SZ I        1541 20.60        23.7 0.24            105            397 216 
 SJC  HZ EP   4   1540 34.14                             106   -1.33 0  409 327 
 SJC  HN ES   4   1541 15.16                             106   -3.64 0  409 327 
 SJC  SZ I        1541 20.61        13.5 0.24            105            409 327 
 YOT  HZ EP   1   1540 42.81                             103   -0.40 3  474 229 
 YOT  HN ES   4   1541 26.90                             103   -5.69 0  474 229 
                                                                                
