 2016  829 1603 12.5 L   6.839 -72.985142.5  RSN  4 0.4 1.4LRSN                1
 GAP=156        1.03       5.5     8.1  8.5 -0.2735E+01 -0.5101E+01  0.3369E+01E
 Epicentro: CEPITA - SANTANDER                                                 3
 ACTION:UPD 16-10-29 15:40 OP:rebc STATUS:               ID:20160829160312 L   I
 OLDACT:UP  16-08-30 00:50 OP:edw  STATUS:               ID:20160829155734     3
 OLDACT:REG 16-08-29 21:15 OP:edw  STATUS:               ID:20160829155734     3
 2016-08-29-1558-00M.COL___352                                                 6
 STAT SP IPHASW D HRMM SECON CODA AMPLIT PERI AZIMU VELO AIN AR TRES W  DIS CAZ7
 BAR2 EZ EP       16 3 31.79                             166   -0.2310 35.0 219 
 BAR2 EZ ES       16 3 47.31                             166    0.0510 35.0 219 
 BAR2 EZ I        16 3 48.03         6.2 0.18                          35.0 219 
 PAM  EZ EP       16 3 34.31                             155    0.7310 63.7  30 
 PAM  EE ES       16 3 49.65                             155   -0.3910 63.7  30 
 BRR  HZ EP       16 3 33.59                             147   -0.5810 85.6 290 
 BRR  HE ES       16 3 51.45                             147    0.3610 85.6 290 
 RUS  HZ EP       16 3 36.32                             142    0.0610  105 186 
 RUS  HN ES       16 3 54.83                             142    0.0210  105 186 
 RUS  HZ I        16 3 55.88         3.7 0.24                           105 186 
                                                                                
