 2014  629 1036 39.9 L   6.817 -73.160137.6  RSN  5 0.3 1.4LRSN                1
 GAP=200        0.83       3.9     5.9  8.2 -0.2518E+00  0.1232E+02 -0.1490E+02E
 Epicentro: LOS SANTOS - SANTANDER                                             3
 ACTION:UPD 14-07-01 22:57 OP:nd   STATUS:               ID:20140629103639 L   I
 OLDACT:REG 14-06-29 20:01 OP:spq  STATUS:               ID:20140629102818     3
 2014-06-29-1028-18M.COL___243                                                 6
 STAT SP IPHASW D HRMM SECON CODA AMPLIT PERI AZIMU VELO AIN AR TRES W  DIS CAZ7
 BAR2 SZ EP       1036 59.14                             169    0.5110 25.0 186 
 BAR2 SZ ES   1   1037 13.04                             169   -0.16 7 25.0 186 
 BAR2 SZ I        1037 17.49         5.4 0.36            173           25.0 186 
 RUS  HN ES       1037 20.80                             141   -0.2810  103 175 
 RUS  HZ I        1037 22.72         2.6 0.25            148            103 175 
 PTB  HZ EP       1037  5.75                             130   -0.39 9  147 258 
 PTB  HN ES       1037 26.62                             130    0.04 9  147 258 
 PTB  HZ I        1037 29.18         5.2 0.12            134            147 258 
 SPBC HZ EP       1037  7.53                             127   -0.34 9  164 218 
 SPBC HN ES       1037 30.12                             127    0.46 9  164 218 
 SPBC HZ I        1037 32.93         4.4 0.28            132            164 218 
 SML  HZ EP       1037 16.16                             116    0.31 8  241 335 
 SML  HN ES       1037 43.67                             116   -0.20 8  241 335 
 SML  HZ I        1037 49.45         1.9 0.09            119            241 335 
                                                                                
