 2015  329 1638 17.7 L   6.844 -73.172148.0  RSN 13 0.4 2.3LRSN                1
 GAP=139        1.00       3.0     4.1  5.4 -0.4026E+01  0.5538E+01  0.3001E+01E
 Epicentro: ZAPATOCA - SANTANDER                                               3
 ACTION:UPD 15-04-30 16:30 OP:nd   STATUS:               ID:20150329163817 L   I
 OLDACT:REG 15-03-29 20:40 OP:fm   STATUS:               ID:20150329162747     3
 2015-03-29-1627-47M.COL___290                                                 6
 STAT SP IPHASW D HRMM SECON CODA AMPLIT PERI AZIMU VELO AIN AR TRES W  DIS CAZ7
 BAR2 EZ EP     D 1638 37.77                             169    0.0410 27.9 182 
 BAR2 EZ ES       1638 53.25                             169   -0.0810 27.9 182 
 BAR2 EZ I        1638 55.48        25.8 0.26            169           27.9 182 
 BRR  HZ EP       1638 39.73                             154    0.8610 66.4 296 
 BRR  HN ES       1638 55.60                             154    0.2510 66.4 296 
 BRR  HZ I        1639  1.95        17.8 0.12            152           66.4 296 
 PAM  SZ EP       1638 40.52                             152    0.4310 75.7  44 
 PAM  SE ES       1638 57.41                             152   -0.1110 75.7  44 
 PAM  SZ I        1638 59.91        28.5 0.50            157           75.7  44 
 PTB  HZ EP       1638 44.65                             133   -0.07 9  146 257 
 PTB  HE ES       1639  5.03                             133   -0.74 9  146 257 
 PTB  HZ I        1639 11.56        20.0 0.20            133            146 257 
 OCA  HE ES       1639  6.79                             131   -0.80 9  155 354 
 OCA  HZ I        1639 14.07        29.2 0.36            134            155 354 
 SPBC HZ EP       1638 46.65                             129    0.05 9  165 217 
 SPBC HE ES       1639  8.98                             129   -0.13 9  165 217 
 SPBC HZ I        1639 14.61        31.1 0.12            131            165 217 
 ZAR  HN ES       1639 15.24                             123    0.31 9  200 291 
 ZAR  HZ I        1639 22.29        16.8 0.58            124            200 291 
 NOR  HZ EP       1638 53.39                             119   -0.26 8  235 233 
 NOR  HE ES       1639 21.93                             119    0.26 8  235 233 
 NOR  HZ I        1639 29.07        11.6 0.16            121            235 233 
 SML  HZ EP       1638 54.46                             118    0.58 8  238 335 
 SML  HE ES       1639 21.79                             118   -0.28 8  238 335 
 SML  HZ I        1639 26.33        17.7 0.10            121            238 335 
 ROSC BZ EP       1638 55.58                             117   -0.69 8  255 210 
 ROSC BN ES       1639 26.39                             117    0.06 8  255 210 
 ROSC BZ I        1639 32.14        14.8 0.40            119            255 210 
 HEL  HZ EP       1638 57.73                             115   -0.16 8  271 255 
 HEL  HN ES       1639 29.74                             115    0.53 8  271 255 
 HEL  HZ I        1639 36.43         8.7 0.36            117            271 255 
 GUY2CHZ EP       1639  1.03                             113   -0.47 7  302 234 
 GUY2CHE ES       1639 35.71                             113    0.07 7  302 234 
 GUY2CHZ I        1639 44.65        13.2 0.74                           302 234 
 ORTC HZ EP       1639 11.59                             106   -0.40 6  398 215 
 ORTC HN ES       1639 54.75                             106    0.43 6  398 215 
 ORTC HZ I        1640  2.49         5.7 0.24            109            398 215 
                                                                                
