 2017  429 1611 42.1 L   6.821 -73.143145.8  RSN  5 0.4 1.8LRSN                1
 GAP=240        1.00       6.3     6.4  9.9  0.1756E+02  0.7198E+01  0.5048E+01E
 Epicentro: LOS SANTOS - SANTANDER                                             3
 ACTION:UPD 17-05-30 21:17 OP:jn   STATUS:               ID:20170429161142 L   I
 OLDACT:UP  17-05-12 15:15 OP:nlst STATUS:               ID:20170429161142 L   3
 OLDACT:UP  17-04-29 22:40 OP:dani STATUS:               ID:20170429160743d    3
 OLDACT:DUP 17-04-29 22:38 OP:dani STATUS:               ID:20170429160743d    3
 OLDACT:REG 17-04-29 21:24 OP:dani STATUS:               ID:20170429160742     3
 2017-04-29-1608-00M.COL___374                                                 6
 STAT SP IPHASW D HRMM SECON CODA AMPLIT PERI AZIMU VELO AIN AR TRES W  DIS CAZ7
 BRR  HZ EP       1612  3.98                             153    0.7710 70.4 297 
 BRR  HN ES       1612 19.75                             153    0.0810 70.4 297 
 BRR  HZ I        1612 24.45        11.0 0.41            153           70.4 297 
 RUS  HZ EP       1612  5.52                             143   -0.5010  103 176 
 RUS  HE ES       1612 24.68                             143   -0.0010  103 176 
 RUS  HZ I        1612 25.56         7.0 0.28            147            103 176 
 PTB  HZ EP       1612  8.99                             132   -0.15 9  149 258 
 PTB  HN ES       1612 30.00                             132   -0.24 9  149 258 
 PTB  HZ I        1612 37.31        10.6 0.32            134            149 258 
 ZAR  HN ES       1612 39.28                             122   -0.47 9  203 291 
 NOR  HZ EP   3 D 1612 19.11                             118    1.10 2  236 234 
 NOR  HN ES       1612 46.46                             118    0.44 8  236 234 
                                                                                
