 2010  429 1049 36.8 L   6.779 -73.029149.3  RSN 14 0.5 3.0LRSN                1
 GAP=150        1.00       4.8     7.0  6.7 -0.2221E+02 -0.5393E+01  0.1166E+02E
 Epicentro: CEPITA - SANTANDER                                                 3
 ACTION:UPD 10-08-24 10:01 OP:vdl  STATUS:               ID:20100429104936 L   I
 2010-04-29-1046-27S.COL___104                                                 6
 STAT SP IPHASW D HRMM SECON CODA AMPLIT PERI AZIMU VELO SNR AR TRES W  DIS CAZ7
 BAR2 SZ IP       1049 56.96                             169     0.010   27 220 
 BAR2 SZ ES   1   1050 12.24                             169    -0.4 7   27 220 
 BRR  HZ IP     D 1049 59.44                             149     0.310   84 296 
 BRR  HE ES   1   1050 16.72                             149     0.2 7   84 296 
 BRR  HZ I        1050 19.11       189.2 0.11                            84 296 
 BRI  SZ IP       1050  1.49                             143     0.510  107  14 
 BRI  SZ ES   1   1050 20.64                             143     0.9 7  107  14 
 GUE  SZ IP       1050  1.98                             140     0.110  117   6 
 GRA  SZ IP       1050  1.76                             138    -0.610  125  11 
 GRA  SZ ES       1050 21.75                             138    -0.410  125  11 
 OCA  SZ IP       1050  5.29                             130    -0.5 9  165 349 
 OCA  SZ ES   1   1050 28.35                             130    -0.1 7  165 349 
 OCA  SZ I        1050 32.06       218.2 0.44                           165 349 
 CHI  HZ EP   1   1050 14.98                             118     0.1 6  250 198 
 CHI  HE ES   2   1050 44.05                             118    -0.5 4  250 198 
 CHI  HZ I        1050 47.91        35.3 0.61                           250 198 
 HEL  HZ EP   2   1050 18.69                             114     0.1 4  284 257 
 HEL  HE ES   2   1050 50.54                             114    -0.6 4  284 257 
 HEL  HZ I        1050 55.00        28.4 0.40                           284 257 
 RREF BZ EP   1   1050 23.89                             111    -0.2 5  330 231 
 RREF BN ES   1   1051  1.79                             111     0.8 5  330 231 
 RREF BZ I        1051  8.40        60.7 0.31                           330 231 
 TOL  SZ EP   1   1050 27.08                             109     1.0 5  351 226 
 SDV  BZ IP     C 1050 26.29                             109     0.2 6  352  49 
 SDV  BZ I        1050 27.42        12.2 0.31                           352  49 
 DBB  SZ EP   1   1050 25.61                             109    -0.3 5  352 274 
 ANIL BZ EP   2   1050 28.01                             109     0.4 3  365 226 
 ANIL BN ES   1   1051  6.62                             109    -0.7 5  365 226 
 ANIL BZ I        1051 11.73        88.1 0.39                           365 226 
 PRA  HZ IP     C 1050 30.70                             107    -0.3 6  397 211 
 PRA  HE ES   1   1051 13.18                             107    -0.1 4  397 211 
 PRA  HZ I        1051 18.64        44.1 0.29                           397 211 
                                                                                
