 2010 1029 1845 32.6 L   6.564 -73.441117.2  RSN  6 0.4 1.6LRSN                1
 GAP= 98        1.01       7.8     9.8 14.5 -0.3981E+01  0.5812E+02  0.1857E+02E
 Epicentro: HATO - SANTANDER                                                   3
 ACTION:UP  11-02-18 11:13 OP:tino STATUS:               ID:20101029184532 L   I
 2010-10-29-1842-41S.COL___128                                                 6
 STAT SP IPHASW D HRMM SECON CODA AMPLIT PERI AZIMU VELO SNR AR TRES W  DIS CAZ7
 BAR2 SZ EP   1   1845 48.62                             165    -0.3 7   29  84 
 BAR2 SZ I        1845 48.99        14.4 0.30                            29  84 
 BAR2 SZ ES   2   1846  1.57                             165    -0.1 5   29  84 
 BTL  SZ IP     C 1845 50.31                             158     0.810   44  26 
 GIR2 SZ EP   1   1845 49.94                             149    -0.4 7   63  26 
 BRR  HZ EP   1   1845 50.07                             148    -0.4 7   67 333 
 BRR  HE ES   2   1846  4.14                             148    -0.2 5   67 333 
 BRR  HZ I        1846  6.06        18.4 0.48                            67 333 
 RUS  HZ EP   1   1845 51.88                             142    -0.4 7   84 152 
 RUS  HE ES   2   1846  7.96                             142     0.2 5   84 152 
 RUS  HZ I        1846 10.39         3.9 0.41                            84 152 
 NOR  SZ EP   1   1846  2.45                             117     0.3 7  193 235 
 NOR  SN ES   2   1846 25.11                             117    -0.2 4  193 235 
                                                                                
