 2011  129 1433 10.5 L   6.804 -73.114133.8  RSN  6 0.2 1.6LRSN                1
 GAP=162        0.54       3.8    16.2  5.7 -0.2875E+02 -0.3313E+02  0.1588E+01E
 Epicentro: LOS SANTOS - SANTANDER                                             3
 ACTION:UP  11-02-08 08:43 OP:pat  STATUS:               ID:20110129143310 L   I
 2011-01-29-1429-28S.COL___138                                                 6
 STAT SP IPHASW D HRMM SECON CODA AMPLIT PERI AZIMU VELO SNR AR TRES W  DIS CAZ7
 BTL  SZ EP       1433 28.83                             170     0.210   21 307 
 BTL  SZ ES   2   1433 42.06                             170    -0.7 5   21 307 
 BAR2 SZ EP       1433 28.75                             169     0.010   25 198 
 BAR2 SZ ES   1   1433 43.26                             169     0.3 7   25 198 
 BAR2 SZ I        1433 45.13        14.2 0.25                            25 198 
 GIR2 SZ EP       1433 28.73                             166     0.010   32 344 
 RUS  HZ EP       1433 33.00                             141    -0.110  101 178 
 RUS  HN ES   2   1433 50.51                             141    -0.2 5  101 178 
 RUS  HZ I        1433 53.52         3.6 0.43                           101 178 
 GRA  SZ EP       1433 34.51                             135     0.010  124  16 
 GRA  SZ I        1433 35.89         8.0 0.20                           124  16 
 CHI  HZ EP   2   1433 47.63                             114    -0.1 4  250 196 
 CHI  HN ES   2   1434 16.54                             114    -0.2 4  250 196 
                                                                                
