 2014  829 1945 60.0 L   6.765 -73.149140.0  RSN 11 0.6 2.4LRSN                1
 GAP=138        1.44       4.3     5.8  7.6 -0.6813E+01  0.1114E+02  0.5324E+01E
 Epicentro: LOS SANTOS - SANTANDER                                             3
 ACTION:UPD 14-09-15 21:54 OP:nd   STATUS:               ID:20140829194560 L   I
 OLDACT:REG 14-08-29 20:48 OP:stll STATUS:               ID:20140829193817     3
 2014-08-29-1938-17M.COL___266                                                 6
 STAT SP IPHASW D HRMM SECON CODA AMPLIT PERI AZIMU VELO AIN AR TRES W  DIS CAZ7
 BAR2 SZ IP     D 1946 19.14                             172    0.3010 19.5 191 
 BAR2 SZ ES       1946 34.29                             172    0.7410 19.5 191 
 BAR2 SZ I        1946 36.94        40.0 0.34            170           19.5 191 
 BRR  HZ IP     C 1946 20.96                             151    0.3610 72.8 301 
 BRR  HZ I        1946 21.17        58.0 0.24            152           72.8 301 
 BRR  HN ES       1946 37.30                             151    0.6210 72.8 301 
 PAM  SZ EP     C 1946 21.83                             149    0.0510 80.6  38 
 PAM  SZ I        1946 22.20        83.8 0.24            152           80.6  38 
 PAM  SN ES       1946 38.80                             149    0.0110 80.6  38 
 RUS  HZ EP       1946 23.10                             144    0.2210 96.8 176 
 RUS  HN ES       1946 39.55                             144   -1.2010 96.8 176 
 RUS  HZ I        1946 42.81        12.2 0.28            144           96.8 176 
 PTB  HZ EP       1946 25.92                             131   -0.46 9  147 260 
 PTB  HN ES       1946 46.34                             131   -0.64 9  147 260 
 PTB  HZ I        1946 52.67        42.0 0.40            131            147 260 
 SPBC HZ EP       1946 27.82                             128    0.09 9  160 220 
 SPBC HZ I        1946 30.70        24.3 0.30            129            160 220 
 SPBC HN ES       1946 49.59                             128    0.21 9  160 220 
 OCA  HZ EP       1946 27.22                             128   -0.99 9  164 353 
 OCA  HN ES       1946 49.87                             128   -0.36 9  164 353 
 OCA  HZ I        1946 54.19        31.5 0.30            130            164 353 
 CHI  HZ EP       1946 37.17                             116    0.23 8  245 195 
 CHI  HN ES       1947  5.93                             116    0.15 8  245 195 
 CHI  HZ I        1947 16.07        10.3 0.34            117            245 195 
 HEL  HZ EP       1946 41.06                             114    1.30 8  271 257 
 HEL  HN ES       1947  9.91                             114   -0.88 8  271 257 
 GUY2CHZ EP       1946 43.44                             111    0.40 7  299 235 
 GUY2CHN ES       1947 17.19                             111    0.56 7  299 235 
 PRA  HZ EP       1946 53.05                             106    0.16 6  388 210 
 PRA  HN ES       1947 33.24                             106   -0.92 6  388 210 
 PRA  HZ I        1947 39.13        14.1 0.30            106            388 210 
                                                                                
