 2017 1229 1005 12.7 L   6.889 -73.151143.6  RSN 10 0.6 1.8LRSN                1
 GAP= 63        0.98       4.2     3.7  7.6 -0.1256E+01  0.7826E+01  0.1058E+02E
 Epicentro: BETULIA - SANTANDER                                                3
 ACTION:UPD 18-01-04 13:25 OP:rebc STATUS:               ID:20171229100512 L   I
 OLDACT:UP  17-12-29 22:41 OP:mg   STATUS:               ID:20171229095151     3
 OLDACT:REG 17-12-29 21:19 OP:mg   STATUS:               ID:20171229095151     3
 2017-12-29-0958-00M.COL___445                                                 6
 STAT SP IPHASW D HRMM SECON CODA AMPLIT PERI AZIMU VELO AIN AR TRES W  DIS CAZ7
 BAR2 EZ EP       10 5 32.22                             166   -0.0510 33.0 186 
 BAR2 EZ ES   1   10 5 47.44                             166   -0.13 7 33.0 186 
 BAR2 EZ I        10 5 49.41        10.0 0.19            166           33.0 186 
 PAM  EZ EP       10 5 34.56                             153    0.3110 70.5  45 
 PAM  EN ES       10 5 51.39                             153    0.3010 70.5  45 
 PAM  EZ I        10 5 53.44        12.2 0.44            156           70.5  45 
 PTB  HZ EP       10 5 38.95                             131   -0.65 9  149 255 
 PTB  HN ES       10 6  0.05                             131   -0.57 9  149 255 
 PTB  HZ I        10 6  2.43         8.2 0.16            132            149 255 
 OCA  HE ES       10 6  0.93                             131   -0.20 9  150 353 
 OCA  HZ I        10 6  2.89         8.1 0.20            134            150 353 
 TAM  HZ EP   1   10 5 40.39                             129   -0.10 7  159 108 
 SPBC HZ EP       10 5 41.50                             127   -0.21 9  171 217 
 SPBC HN ES   2   10 6  5.70                             127    1.34 4  171 217 
 SPBC HZ I        10 6  8.79         8.0 0.20            129            171 217 
 YPLC HZ EP   1   10 5 42.90                             125   -0.29 7  186 153 
 YPLC HN ES   1   10 6  7.16                             125    0.15 7  186 153 
 YPLC HZ I        10 6  9.91         8.3 0.33            127            186 153 
 ZAR  HZ EP   2   10 5 46.28                             122    1.73 4  200 290 
 ZAR  HN ES   1   10 6 10.05                             122    0.63 6  200 290 
 ZAR  HZ I        10 6 15.45        11.3 0.30            124            200 290 
 GUY2CHZ EP   2   10 5 58.13                             111    1.36 4  306 233 
 GUY2CHN ES   1   10 6 31.39                             111    0.22 5  306 233 
 GUY2CHZ I        10 6 40.69         3.0 0.40                           306 233 
 CBOC HZ EP       10 5 59.90                             109    0.12 7  336 250 
 CBOC HN ES       10 6 36.28                             109   -0.26 7  336 250 
 CBOC HZ I        10 6 40.57         1.1 0.23            111            336 250 
                                                                                
