 2014  529 1849  7.8 L   6.794 -73.134143.8  RSN  8 0.4 2.1LRSN                1
 GAP=138        1.05       3.6     4.8  6.9 -0.1408E+01  0.1124E+02 -0.3409E+01E
 Epicentro: LOS SANTOS - SANTANDER                                             3
 ACTION:UPD 15-03-16 17:01 OP:nd   STATUS:               ID:20140529184907 L   I
 OLDACT:UP  14-05-29 22:51 OP:cam  STATUS:               ID:20140529184748     3
 OLDACT:REG 14-05-29 22:27 OP:cam  STATUS:               ID:20140529184748     3
 2014-05-29-1847-48M.COL___259                                                 6
 STAT SP IPHASW D HRMM SECON CODA AMPLIT PERI AZIMU VELO AIN AR TRES W  DIS CAZ7
 BAR2 SZ EP       1849 27.14                             171   -0.0110 22.9 193 
 BAR2 SZ ES       1849 41.36                             171   -0.9210 22.9 193 
 BAR2 SZ I        1849 43.06        33.3 0.24            171           22.9 193 
 BRR  HZ EP       1849 29.00                             152    0.2110 72.7 299 
 BRR  HN ES       1849 45.93                             152    0.7410 72.7 299 
 BRR  HZ I        1849 47.59        25.0 0.16            150           72.7 299 
 PAM  SZ IP     C 1849 30.09                             150    0.3310 77.1  38 
 PAM  SE ES       1849 47.09                             150    0.1810 77.1  38 
 PAM  SZ I        1849 49.28        28.5 0.56            152           77.1  38 
 RUS  HZ EP       1849 31.08                             144   -0.1910 99.8 177 
 RUS  HN ES       1849 49.83                             144    0.2310 99.8 177 
 RUS  HZ I        1849 50.50         9.0 0.30            146           99.8 177 
 SPBC HE ES       1849 58.03                             129   -0.24 9  163 219 
 ZAR  HZ EP       1849 40.46                             122    0.22 8  206 292 
 ZAR  HN ES       1850  5.62                             122    0.06 8  206 292 
 ZAR  HZ I        1850 12.02        16.3 0.36            122            206 292 
 NOR  HZ EP   1   1849 43.71                             118    0.26 6  235 235 
 NOR  HN ES       1850 11.30                             118    0.02 8  235 235 
 NOR  HZ I        1850 13.33         5.9 0.18            119            235 235 
 SML  HZ EP   1   1849 43.68                             117   -0.73 6  245 335 
 SML  HE ES       1850 12.34                             117   -0.66 8  245 335 
                                                                                
