 2013  129 1156 40.5 L   6.802 -73.113141.9  RSN  8 0.4 2.0LRSN                1
 GAP=141        0.85       3.7     4.7  5.8  0.4695E+01  0.1085E+02  0.5821E+01E
 Epicentro: LOS SANTOS - SANTANDER                                             3
 ACTION:UPD 13-02-15 09:17 OP:ep   STATUS:               ID:20130129115640 L   I
 2013-01-29-1150-00M.COL___241                                                 6
 STAT SP IPHASW D HRMM SECON CODA AMPLIT PERI AZIMU VELO AIN AR TRES W  DIS CAZ7
 BAR2 SZ EP       1156 59.45                             170   -0.2010 24.4 198 
 BAR2 SZ I        1156 59.62        46.2 0.32            165           24.4 198 
 BAR2 SZ ES   1   1157 14.30                             170   -0.32 7 24.4 198 
 BRR  HZ EP       1157  1.20                             151   -0.1810 74.3 297 
 BRR  HZ I        1157  1.34        30.0 0.28            148           74.3 297 
 BRR  HN ES       1157 18.10                             151    0.4110 74.3 297 
 PAM  SZ EP   1   1157  2.31                             151    0.18 7 75.0  37 
 PAM  SZ I        1157  2.50        15.3 0.22            157           75.0  37 
 PAM  SN ES       1157 19.18                             151    0.1610 75.0  37 
 RUS  HZ EP       1157  3.53                             143   -0.3110  101 178 
 RUS  HZ I        1157  4.54         8.5 0.14            142            101 178 
 RUS  HN ES       1157 21.97                             143   -0.1010  101 178 
 PTB  HZ EP   4   1157  6.06                             130   -1.39 0  151 259 
 PTB  HN ES   4   1157 27.25                             130   -1.25 0  151 259 
 PTB  HZ I        1157 34.78        11.3 0.18            128            151 259 
 ZAR  HZ EP       1157 13.49                             121    0.48 8  207 292 
 ZAR  HN ES       1157 37.83                             121   -0.56 8  207 292 
 ZAR  HZ I        1157 43.73        14.1 0.32            120            207 292 
 CHI  HZ EP       1157 17.99                             116   -0.09 8  250 196 
 CHI  HN ES   1   1157 48.49                             116    1.07 6  250 196 
 CHI  HZ I        1157 52.31         2.9 0.34            116            250 196 
 HEL  HZ EP       1157 20.96                             114    0.08 7  276 256 
                                                                                
