 2015  729 1031 57.5 L   6.622 -74.112 73.7  RSN  4 0.1 1.5LRSN                1
 GAP=165        0.30       1.7     1.0  2.6  0.3313E+00 -0.3937E+00 -0.1119E+01E
 Epicentro: PUERTO PARRA - SANTANDER                                           3
 ACTION:UPD 15-09-08 21:51 OP:cam  STATUS:               ID:20150729103157 L   I
 OLDACT:ARG 15-07-29 19:51 OP:spq  STATUS:               ID:20150729102748     3
 2015-07-29-1027-48M.COL___334                                                 6
 STAT SP IPHASW D HRMM SECON CODA AMPLIT PERI AZIMU VELO AIN AR TRES W  DIS CAZ7
 CPBEREZ EP       1032  9.05                             149    0.0210 39.2 257 
 CPBEREN ES       1032 18.03                             149   -0.0110 39.2 257 
 BRR  HZ EP       1032 11.29                             132   -0.1010 69.5  39 
 BRR  HN ES       1032 22.31                             132    0.0610 69.5  39 
 BRR  HZ I        1032 22.97        15.8 0.14            132           69.5  39 
 BAR2 EZ EP       1032 15.05                             120    0.0110  103  92 
 BAR2 EZ ES       1032 28.73                             120   -0.0110  103  92 
 BAR2 EZ I        1032 30.01         5.2 0.24            121            103  92 
 ZAR  HZ EP       1032 17.46                             114    0.0910  127 319 
 ZAR  HN ES       1032 32.83                             114   -0.0610  127 319 
 ZAR  HZ I        1032 34.25        12.4 0.30            114            127 319 
                                                                                
