 2012  129 1524 26.3 L   6.758 -73.136151.3  RSN  5 0.2 1.5LRSN                1
 GAP=187        0.53       5.2     6.7  4.8  0.1577E+02  0.9050E+01  0.8143E+01E
 Epicentro: LOS SANTOS - SANTANDER                                             3
 ACTION:UP  12-02-03 08:22 OP:REBC STATUS:               ID:20120129152426 L   I
 2012-01-29-1520-00M.COL___188                                                 6
 STAT SP IPHASW D HRMM SECON CODA AMPLIT PERI AZIMU VELO SNR AR TRES W  DIS CAZ7
 BAR2 SZ EP       1524 46.54                             173     0.010   19 196 
 BAR2 SZ ES   1   1525  2.07                             173    -0.2 7   19 196 
 BAR2 SZ I        1525  3.09        10.9 0.20                            19 196 
 GIR2 SZ EP       1524 46.75                             166     0.010   36 350 
 GIR2 SZ ES   1   1525  2.56                             166    -0.2 7   36 350 
 BRR  HZ EP       1524 48.35                             152     0.110   74 301 
 BRR  HZ I        1524 48.51        10.0 0.12                            74 301 
 BRR  HN ES   1   1525  5.69                             152     0.3 7   74 301 
 RUS  HZ EP       1524 50.43                             146     0.110   96 176 
 RUS  HZ I        1524 51.44         1.7 0.16                            96 176 
 RUS  HN ES   2   1525  9.09                             146     0.1 5   96 176 
 PTB  HZ EP       1524 53.50                             133    -0.3 9  148 261 
 PTB  HZ I        1525 21.62         2.8 0.44                           148 261 
                                                                                
