 2012  129 1915 33.0 L   6.722 -73.244158.4  RSN  4 0.4 1.6LRSN                1
 GAP=161        1.07      10.4    14.6 13.0  0.7978E+02  0.1994E+02  0.3565E+01E
 Epicentro: VILLANUEVA - SANTANDER                                             3
 ACTION:UP  12-02-03 08:22 OP:REBC STATUS:               ID:20120129191533 L   I
 2012-01-29-1910-00M.COL___188                                                 6
 STAT SP IPHASW D HRMM SECON CODA AMPLIT PERI AZIMU VELO SNR AR TRES W  DIS CAZ7
 GIR2 SZ EP       1915 54.01                             165    -0.510   40   8 
 BRR  HZ EP       1915 55.72                             156     0.410   67 310 
 BRR  HE ES   1   1916 12.99                             156     0.2 7   67 310 
 BRR  HZ I        1916 15.18        11.3 0.20                            67 310 
 RUS  HZ EP       1915 58.01                             148     0.410   93 169 
 RUS  HN ES   1   1916 16.45                             148    -0.3 7   93 169 
 RUS  HZ I        1916 17.90         4.7 0.56                            93 169 
 PTB  HZ EP       1915 59.72                             137    -0.3 9  136 262 
 PTB  HZ I        1916 23.77         4.6 0.20                           136 262 
                                                                                
