 2011 1029 1237  9.3 L   6.767 -73.103138.6  RSN  8 0.3 1.8LRSN                1
 GAP=144        0.42       2.8     3.6  5.0 -0.2197E+00  0.3267E+01 -0.6620E+00E
 Epicentro: LOS SANTOS - SANTANDER                                             3
 ACTION:UPD 12-07-13 16:06 OP:ep   STATUS:               ID:20111029123709 L   I
 2011-10-29-1220-00M.COL___177                                                 6
 STAT SP IPHASW D HRMM SECON CODA AMPLIT PERI AZIMU VELO AIN AR TRES W  DIS CAZ7
 BAR2 SZ EP   1   1237 27.77                             171   -0.23 7 21.2 204 
 BAR2 SZ ES   2   1237 42.39                             171   -0.22 5 21.2 204 
 BAR2 SZ I        1237 44.15        17.9 0.23                          21.2 204 
 GIR2 SZ EP   3   1237 27.81                             165   -0.43 2 35.9 344 
 GIR2 SZ ES   3   1237 43.19                             165    0.16 2 35.9 344 
 BRR  HZ EP   1   1237 29.69                             149   -0.32 7 77.1 299 
 BRR  HN ES   2   1237 46.43                             149    0.24 5 77.1 299 
 BRR  HZ I        1237 50.18        14.8 0.12                          77.1 299 
 PAM  SZ EP   1   1237 30.57                             149   -0.17 7 77.4  35 
 PAM  SN ES   2   1237 47.53                             149    0.05 5 77.4  35 
 RUS  HZ EP   1   1237 32.28                             143    0.24 7 96.7 179 
 RUS  HN ES   2   1237 50.13                             143    0.33 5 96.7 179 
 RUS  HZ I        1237 51.35         5.4 0.32                          96.7 179 
 OCA  SZ EP   2   1237 38.06                             127    0.61 5  165 352 
 OCA  SZ ES   2   1237 59.66                             127    0.23 5  165 352 
 OCA  SZ I        1238  5.50         9.3 0.44                           165 352 
 ZAR  HZ EP   2   1237 41.97                             120    0.10 4  210 293 
 ZAR  HN ES   2   1238  7.31                             120    0.02 4  210 293 
 ZAR  HZ I        1238 12.78         7.2 0.27                           210 293 
 NOR  SN ES   2   1238 12.44                             117   -0.05 4  236 236 
                                                                                
