 2013 1029 1739 17.1 L   6.188 -73.667110.4  RSN  7 0.4 1.8LRSN                1
 GAP= 92        0.98       3.2     3.3  6.7  0.8518E+00  0.6467E+01  0.4116E+00E
 Epicentro: LA PAZ - SANTANDER                                                 3
 ACTION:UPD 13-11-25 09:24 OP:ep   STATUS:               ID:20131029173917 L   I
 OLDACT:REG 13-10-29 16:00 OP:carl STATUS:               ID:20131029173850     3
 2013-10-29-1738-50M.COL___218                                                 6
 STAT SP IPHASW D HRMM SECON CODA AMPLIT PERI AZIMU VELO AIN AR TRES W  DIS CAZ7
 BAR2 SZ EP       1739 35.09                             145    0.3110 69.8  50 
 BAR2 SZ ES       1739 48.68                             145    0.1010 69.8  50 
 BAR2 SZ I        1739 50.13        87.8 0.16            150           69.8  50 
 RUS  HZ EP       1739 35.35                             145    0.0310 72.4 117 
 RUS  HN ES       1739 49.00                             145   -0.5510 72.4 117 
 RUS  HZ I        1739 50.68         7.0 0.26            149           72.4 117 
 SPBC HZ EP       1739 34.99                             143    0.1010 74.3 217 
 SPBC HN ES       1739 49.41                             143    0.6310 74.3 217 
 SPBC HZ I        1739 52.63        12.4 0.16            145           74.3 217 
 PTB  HZ EP       1739 35.71                             136   -0.7510 95.6 294 
 PTB  HN ES       1739 51.44                             136   -0.1410 95.6 294 
 PTB  HZ I        1739 54.27        11.7 0.10            138           95.6 294 
 NOR  HZ EP       1739 41.46                             122   -0.24 9  150 243 
 NOR  HN ES       1740  0.57                             122   -0.33 9  150 243 
 NOR  HZ I        1740  2.53        13.2 0.16            125            150 243 
 CHI  HZ EP       1739 44.58                             118    0.03 9  172 182 
 CHI  HE ES       1740  6.22                             118    0.25 9  172 182 
 CHI  HZ I        1740  7.95         2.1 0.32            122            172 182 
 ZAR  HZ EP       1739 46.89                             114    0.37 9  195 318 
 ZAR  HN ES       1740  9.83                             114    0.35 9  195 318 
 ZAR  HZ I        1740 11.90         7.7 0.12            118            195 318 
                                                                                
