 2012  229 1753 16.0 L   6.778 -73.158142.2  RSN 14 0.4 3.0LRSN                1
 GAP=136        0.77       3.6     4.0  5.6 -0.1109E+01  0.8840E+01  0.3636E+01E
 ACTION:UP  12-03-07 16:35 OP:epov STATUS:               ID:20120229175316 L   I
 2012-02-29-1750-00M.COL___190                                                 6
 STAT SP IPHASW D HRMM SECON CODA AMPLIT PERI AZIMU VELO AIN AR TRES W  DIS CAZ7
 BAR2 SZ EP       1753 35.18                             171    0.0210 20.7 187 
 BAR2 SZ I        1753 35.49       242.8 0.20                          20.7 187 
 BAR2 SZ ES   1   1753 49.95                             171   -0.14 7 20.7 187 
 BRR  HZ EP       1753 37.10                             152    0.3310 71.2 301 
 BRR  HZ I        1753 56.86       304.0 0.14                          71.2 301 
 PAM  SZ EP       1753 37.98                             149   -0.0310 80.1  39 
 PAM  SN ES   1   1753 55.19                             149    0.02 7 80.1  39 
 PAM  SZ I        1753 57.36       146.2 0.23                          80.1  39 
 RUS  HZ IP     D 1753 38.98                             144   -0.2610 98.3 175 
 RUS  HZ I        1753 40.76       100.5 0.52                          98.3 175 
 RUS  HE ES   1   1753 57.81                             144    0.45 7 98.3 175 
 PTB  HZ EP   1   1753 41.93                             132   -0.59 7  146 260 
 PTB  HN ES   1   1754  2.62                             132   -0.58 7  146 260 
 ZAR  HZ EP   1   1753 47.72                             122   -0.46 6  204 293 
 ZAR  HN ES   1   1754 13.71                             122    0.43 6  204 293 
 ZAR  HZ I        1754 19.69       225.9 0.47                           204 293 
 NOR  SZ EP   1   1753 50.98                             118   -0.28 6  232 235 
 NOR  SE ES   1   1754 19.28                             118    0.53 6  232 235 
 NOR  SZ I        1754 23.05        11.0 0.18                           232 235 
 CHI  HZ EP   1   1753 53.13                             117   -0.09 6  246 195 
 CHI  HN ES   1   1754 21.70                             117   -0.54 6  246 195 
 CHI  HZ I        1754 26.72        55.8 0.43                           246 195 
 ROSC BZ EP   1   1753 54.65                             116    1.02 6  250 211 
 ROSC BZ I        1754 31.34       147.3 0.46                           250 211 
 HEL  HZ EP   1   1753 55.80                             114   -0.02 6  270 256 
 HEL  HZ I        1754 33.86        67.0 0.30                           270 256 
 GUY  SZ EP   1   1753 59.51                             112    0.08 5  301 235 
 RREF HZ EP   1   1754  2.07                             110    0.37 5  319 230 
 RREF HZ I        1754 44.89       104.7 0.26                           319 230 
 TOL  SZ EP   1   1754  4.38                             109    0.57 5  341 225 
 PRA  HZ EP   1   1754  8.39                             106   -0.69 4  389 210 
                                                                                
