 2010  929 1931 17.8 L   6.794 -73.078154.0  RSN  6 0.3 1.8LRSN                1
 GAP=166        0.88       5.0    11.8 12.0  0.2123E+02 -0.9050E+02 -0.2741E+02E
 Epicentro: LOS SANTOS - SANTANDER                                             3
 ACTION:UP  11-02-18 11:06 OP:tino STATUS:               ID:20100929193117 L   I
 2010-09-29-1927-31S.COL___125                                                 6
 STAT SP IPHASW D HRMM SECON CODA AMPLIT PERI AZIMU VELO SNR AR TRES W  DIS CAZ7
 BAR2 SZ EP       1931 38.37                             170    -0.110   25 208 
 BAR2 SZ I        1931 55.08        26.7 0.10                            25 208 
 BRR  HZ EP       1931 40.28                             152     0.110   78 296 
 BRR  HN ES       1931 57.68                             152    -0.110   78 296 
 BRR  HZ I        1931 58.48        14.6 0.09                            78 296 
 RUS  HZ EP       1931 42.28                             146     0.010  100 180 
 RUS  HN ES       1932  1.46                             146     0.010  100 180 
 RUS  HZ I        1932  2.28         9.7 1.19                           100 180 
 GUE  SZ EP       1931 43.75                             141     0.510  116   8 
 GUE  SZ I        1932  5.67         1.8 0.05                           116   8 
 GRA  SZ EP       1931 43.19                             139    -0.510  124  14 
 GRA  SZ I        1932  4.50         6.1 0.37                           124  14 
 CHI  HZ I        1931 57.47         5.1 0.73                           250 197 
 CHI  HE ES   2   1932 25.96                             119     0.0 4  250 197 
                                                                                
