 2014  529 1857 30.6 L   7.444 -73.219132.5  RSN  4 0.3 1.7LRSN                1
 GAP=133        0.87       5.2     5.7  8.0  0.9387E+01  0.5130E+01 -0.1106E+02E
 Epicentro: EL PLAYON - SANTANDER                                              3
 ACTION:UPD 15-03-16 17:01 OP:nd   STATUS:               ID:20140529185730 L   I
 OLDACT:REG 14-05-29 20:11 OP:cam  STATUS:               ID:20140529185000     3
 2014-05-29-1850-00M.COL___276                                                 6
 STAT SP IPHASW D HRMM SECON CODA AMPLIT PERI AZIMU VELO AIN AR TRES W  DIS CAZ7
 PAM  SZ EP       1857 50.65                             155    0.2910 58.5 101 
 PAM  SE ES       1858  5.70                             155   -0.0410 58.5 101 
 PAM  SZ I        1858  6.70         6.4 0.18            155           58.5 101 
 BRR  HZ EP       1857 50.41                             152    0.3610 65.9 236 
 BRR  HN ES       1858  5.27                             152    0.0810 65.9 236 
 BAR2 SZ EP       1857 51.64                             143   -0.6310 94.2 178 
 SML  HZ EP       1857 59.65                             123    0.23 9  177 328 
 SML  HN ES       1858 21.55                             123   -0.32 9  177 328 
 SML  HZ I        1858 22.18         9.5 0.10            124            177 328 
                                                                                
