 2013  529 1808 15.3 L   6.826 -73.150141.4  RSN 11 0.5 2.7LRSN                1
 GAP= 67        1.35       4.5     3.9  7.5  0.4140E+01  0.4971E+01  0.4697E+01E
 Epicentro: LOS SANTOS - SANTANDER                                             3
 ACTION:UPD 13-06-20 09:54 OP:ep   STATUS:               ID:20130529180815 L   I
 2013-05-29-1758-50M.COL___207                                                 6
 STAT SP IPHASW D HRMM SECON CODA AMPLIT PERI AZIMU VELO AIN AR TRES W  DIS CAZ7
 BAR2 SZ EP       18 8 34.40                             169   -0.0910 26.1 188 
 BAR2 SZ ES       18 8 49.48                             169    0.0410 26.1 188 
 BAR2 SZ I        18 8 50.67        47.0 0.58            167           26.1 188 
 GIR2 SZ EP       18 8 34.16                             168   -0.2410 28.4 350 
 BRR  HZ EP       18 8 36.10                             152    0.2010 69.4 297 
 BRR  HE ES       18 8 52.90                             152    0.9510 69.4 297 
 BRR  HN I        18 8 53.46       201.5 0.30            152           69.4 297 
 PAM  SZ EP       18 8 37.13                             151    0.1610 75.5  41 
 PAM  SZ I        18 8 37.40       110.6 0.18            153           75.5  41 
 PAM  SN ES       18 8 53.90                             151    0.0610 75.5  41 
 RUS  HZ EP       18 8 38.63                             142   -0.2410  103 176 
 RUS  HN ES       18 8 57.08                             142   -0.1410  103 176 
 RUS  HE I        18 8 59.32        79.6 0.50            142            103 176 
 PTB  HZ EP       18 8 40.94                             131   -1.01 9  148 258 
 PTB  HN ES       18 9  2.19                             131   -0.53 9  148 258 
 PTB  HE I        18 9  4.56        71.5 0.46            130            148 258 
 TAM  HZ EP       18 8 42.75                             129   -0.03 9  156 106 
 TAM  HE ES       18 9  3.89                             129   -0.30 9  156 106 
 OCA  HE ES       18 9  3.94                             129   -0.69 9  157 353 
 YOP  SZ EP       18 8 45.36                             125    0.02 9  182 154 
 YOP  SN ES       18 9  9.28                             125    0.54 9  182 154 
 ZAR  HZ EP       18 8 48.53                             122    1.19 9  203 291 
 ZAR  HN ES       18 9 12.25                             122   -0.05 9  203 291 
 HEL  HZ EP       18 8 56.43                             114    1.08 8  272 255 
 HEL  HN ES       18 9 25.88                             114   -0.68 8  272 255 
 HEL  HE I        18 9 33.85        21.8 0.54            114            272 255 
                                                                                
