 2014  129 1621 42.8 L   6.824 -73.141144.6  RSN 18 0.5 2.7LRSN                1
 GAP=136        1.14       2.7     4.7  5.7 -0.4219E+01  0.9188E+01 -0.9370E+00E
 Epicentro: LOS SANTOS - SANTANDER                                             3
 ACTION:UPD 14-03-13 09:59 OP:ep   STATUS:               ID:20140129162142 L   I
 OLDACT:REG 14-01-29 15:20 OP:nd   STATUS:               ID:20140129162000     3
 2014-01-29-1620-00M.COL___288                                                 6
 STAT SP IPHASW D HRMM SECON CODA AMPLIT PERI AZIMU VELO AIN AR TRES W  DIS CAZ7
 BAR2 SZ IP     C 1622  2.61                             169    0.2510 26.0 190 
 BAR2 SZ ES       1622 17.52                             169   -0.0810 26.0 190 
 BAR2 SZ I        1622 19.45       142.9 0.44            170           26.0 190 
 BRR  HZ EP       1622  4.55                             153    0.7610 70.4 296 
 BRR  HN ES   2   1622 20.46                             153    0.31 5 70.4 296 
 BRR  HZ I        1622 25.73        61.4 0.18            153           70.4 296 
 PAM  SZ EP       1622  5.40                             151    0.6410 75.0  41 
 PAM  SN ES       1622 22.44                             151    0.5610 75.0  41 
 PAM  SZ I        1622 24.80       141.3 0.56            155           75.0  41 
 RUS  HZ EP     D 1622  6.43                             143   -0.2110  103 176 
 RUS  HN ES       1622 25.03                             143   -0.1910  103 176 
 RUS  HZ I        1622 28.12        51.9 0.40            146            103 176 
 PTB  HZ EP       1622  9.26                             132   -0.51 9  149 258 
 PTB  HN ES       1622 30.33                             132   -0.47 9  149 258 
 PTB  HZ I        1622 38.15        65.1 0.34            133            149 258 
 TAM  HZ IP   4 D 1622 10.77                             130    0.35 0  155 106 
 TAM  HN ES   4   1622 31.66                             130   -0.29 0  155 106 
 TAM  HZ I        1622 39.12        16.9 0.42            135            155 106 
 OCA  HZ EP       1622 10.28                             130   -0.51 9  158 353 
 OCA  HN ES       1622 32.29                             130   -0.32 9  158 353 
 OCA  HZ I        1622 37.33        60.8 0.46            133            158 353 
 SPBC HZ EP       1622 11.55                             128    0.10 9  166 219 
 SPBC HN ES       1622 33.40                             128   -0.38 9  166 219 
 SPBC HZ I        1622 38.68       105.7 0.20            131            166 219 
 ZAR  HZ EP   4   1622 13.80                             122   -1.32 0  204 291 
 ZAR  HN ES   4   1622 40.11                             122   -0.22 0  204 291 
 ZAR  HZ I        1622 48.20        52.7 0.30            124            204 291 
 NOR  HZ EP       1622 18.71                             118    0.03 8  237 234 
 NOR  HN ES       1622 46.39                             118   -0.27 8  237 234 
 NOR  HZ I        1622 48.84        35.6 0.30            120            237 234 
 SML  HZ EP       1622 18.78                             117   -0.35 8  241 335 
 SML  HN ES       1622 47.08                             117   -0.38 8  241 335 
 SML  HZ I        1622 50.56        61.8 0.30            120            241 335 
 CHI  HZ EP       1622 20.59                             117   -0.15 8  251 195 
 CHI  HN ES       1622 49.68                             117   -0.64 8  251 195 
 CHI  HZ I        1622 56.07        21.5 0.56            119            251 195 
 ROSC BZ EP   4   1622 22.31                             116    1.17 0  255 211 
 ROSC BN ES   4   1622 53.00                             116    1.96 0  255 211 
 HEL  HZ EP       1622 24.60                             114    1.51 8  273 255 
 HEL  HN ES       1622 55.04                             114    0.53 8  273 255 
 HEL  HZ I        1623  0.89        27.6 0.34            116            273 255 
 GUY2CHZ EP       1622 26.71                             112    0.13 7  303 234 
 GUY2CHN ES   4   1623  1.13                             112    0.40 0  303 234 
 GUY2CHZ I        1623  9.29        41.7 0.76                           303 234 
 COD  HZ EP       1622 30.27                             109   -0.57 6  346 354 
 COD  HN ES       1623  8.14                             109   -0.16 6  346 354 
 COD  HZ I        1623 15.50         9.4 0.26            111            346 354 
 PRA  HZ EP       1622 36.15                             106   -0.44 6  395 209 
 PRA  HN ES       1623 18.55                             106    0.01 6  395 209 
 PRA  HZ I        1623 24.06        27.2 0.74            108            395 209 
 ORTC HZ EP       1622 36.66                             106   -0.32 6  398 216 
 ORTC HN ES       1623 20.43                             106    1.21 6  398 216 
 ORTC HZ I        1623 27.30        18.6 0.24            108            398 216 
 SJC  HZ EP   4   1622 36.76                             106   -1.34 0  407 327 
 SJC  HN ES   4   1623 16.52                             106   -4.71 0  407 327 
 SJC  HZ I        1623 22.27        11.9 0.52            108            407 327 
                                                                                
