 2013 1129 1859 12.4 L   6.820 -73.157149.7  RSN 13 0.4 3.4LRSN 3.6WRSN        1
 SPEC AVERAGE  MO 14.5 ST158.4 OM  3.1 f0 6.18 R0.3445 AL 0.00 WI 27.5 MW  3.6 3
 SPEC SD       MO  0.2 ST183.7 OM  0.4 f0 3.05 R0.2117 AL      WI      MW  0.1 3
 GAP= 70        1.08       3.0     3.1  6.2 -0.5107E+00  0.3509E+01  0.1497E+01E
 Epicentro: LOS SANTOS - SANTANDER                                             3
 SPEC HEL HH N MO 14.4 ST 16.4 OM  2.5 f0 3.86 R0.4026 AL 0.00 WI 35.3 MW  3.5 3
 SPEC HEL HH N T19 023 K 0.000 GD  309 VS 4.20 DE 3.20 Q0300.0 QA 0.60 VS 4.20 3
 SPEC ZAR HH E MO 14.7 ST581.3 OM  2.9 f0 10.0 R0.1554 AL 0.00 WI 34.8 MW  3.7 3
 SPEC ZAR HH E T19 010 K 0.000 GD  251 VS 4.20 DE 3.20 Q0300.0 QA 0.60 VS 4.20 3
 SPEC SPBCHH E MO 14.4 ST323.9 OM  2.7 f0 10.0 R0.1554 AL 0.00 WI 33.3 MW  3.6 3
 SPEC SPBCHH E T19 0 3 K 0.000 GD  222 VS 4.20 DE 3.20 Q0300.0 QA 0.60 VS 4.20 3
 SPEC OCA HH N MO 14.8 ST127.0 OM  3.1 f0 5.42 R0.2867 AL 0.00 WI 21.8 MW  3.8 3
 SPEC OCA HH N T19 0 2 K 0.000 GD  217 VS 4.20 DE 3.20 Q0300.0 QA 0.60 VS 4.20 3
 SPEC TAM HH N MO 14.6 ST  3.5 OM  2.9 f0 1.91 R0.8136 AL 0.00 WI 32.7 MW  3.7 3
 SPEC TAM HH N T19 0 2 K 0.000 GD  216 VS 4.20 DE 3.20 Q0300.0 QA 0.60 VS 4.20 3
 SPEC PTB HH N MO 14.4 ST110.9 OM  2.7 f0 7.13 R0.2180 AL 0.00 WI 20.0 MW  3.6 3
 SPEC PTB HH N T185958 K 0.000 GD  209 VS 4.20 DE 3.20 Q0300.0 QA 0.60 VS 4.20 3
 SPEC RUS HH N MO 14.2 ST 16.3 OM  2.5 f0 4.60 R0.3378 AL 0.00 WI 26.0 MW  3.4 3
 SPEC RUS HH N T185954 K 0.000 GD  181 VS 4.20 DE 3.20 Q0300.0 QA 0.60 VS 4.20 3
 SPEC PAM SH N MO 14.4 ST  6.1 OM  2.8 f0 2.70 R0.5756 AL 0.00 WI 22.1 MW  3.6 3
 SPEC PAM SH N T185951 K 0.000 GD  168 VS 4.20 DE 3.20 Q0300.0 QA 0.60 VS 4.20 3
 SPEC BRR HH N MO 14.3 ST240.5 OM  2.7 f0 10.0 R0.1554 AL 0.00 WI 21.8 MW  3.5 3
 SPEC BRR HH N T185950 K 0.000 GD  164 VS 4.20 DE 3.20 Q0300.0 QA 0.60 VS 4.20 3
 ACTION:UPD 14-01-09 16:31 OP:ep   STATUS:               ID:20131129185912 L   I
 OLDACT:UP  13-11-29 17:26 OP:cam  STATUS:               ID:20131129185745     3
 OLDACT:UP  13-11-29 17:26 OP:cam  STATUS:               ID:20131129185745     3
 OLDACT:REG 13-11-29 17:09 OP:cam  STATUS:               ID:20131129185745     3
 2013-11-29-1857-45M.COL___253                                                 6
 STAT SP IPHASW D HRMM SECON CODA AMPLIT PERI AZIMU VELO AIN AR TRES W  DIS CAZ7
 BAR2 SZ IP     C 1859 32.47                             170   -0.0510 25.3 186 
 BAR2 SZ I        1859 48.63       828.7 0.28            170           25.3 186 
 BRR  HZ IP     C 1859 34.26                             154    0.4310 69.0 297 
 BRR  HN ES       1859 51.46                             154    0.8910 69.0 297 
 BRR  HZ I        1859 54.50       347.7 0.26            153           69.0 297 
 PAM  SZ EP     C 1859 35.27                             152    0.3110 76.5  41 
 PAM  SN ES       1859 52.55                             152   -0.0310 76.5  41 
 PAM  SZ I        1859 53.16       275.8 0.22            153           76.5  41 
 RUS  HZ EP       1859 36.36                             144   -0.3210  103 175 
 RUS  HN ES       1859 55.22                             144   -0.4210  103 175 
 RUS  HZ I        1859 56.04       191.0 0.22            146            103 175 
 PTB  HZ EP       1859 38.85                             133   -0.74 9  147 258 
 PTB  HN ES       1859 59.93                             133   -0.89 9  147 258 
 TAM  HZ EP       1859 40.91                             131    0.37 9  157 106 
 TAM  HN ES       19 0  2.74                             131    0.24 9  157 106 
 TAM  HE I        19 0  4.06       484.9 0.54            133            157 106 
 OCA  HZ EP       1859 40.51                             131   -0.27 9  158 354 
 OCA  HN ES       19 0  2.37                             131   -0.56 9  158 354 
 OCA  HZ I        19 0 10.85       327.4 0.24            132            158 354 
 SPBC HZ EP   1   1859 41.32                             130    0.05 7  164 218 
 SPBC HE ES   1   19 0  3.39                             130   -0.41 7  164 218 
 SPBC HZ I        19 0  7.73       343.6 0.44            130            164 218 
 ZAR  HZ EP   1   1859 45.07                             123    0.20 6  202 292 
 ZAR  HE ES       19 0 10.51                             123    0.29 9  202 292 
 ZAR  HZ I        19 0 15.69       261.0 0.52            124            202 292 
 NOR  HZ EP       1859 48.32                             119   -0.04 8  235 234 
 NOR  HN ES       19 0 16.94                             119    0.51 8  235 234 
 NOR  HZ I        19 0 21.95       154.4 0.26            120            235 234 
 SML  HZ EP       1859 48.92                             119   -0.03 8  241 335 
 SML  HN ES   1   19 0 16.90                             119   -0.58 6  241 335 
 SML  HZ I        19 0 21.79       297.8 0.10            119            241 335 
 CHI  HZ EP   1   1859 50.56                             118    0.07 6  250 195 
 CHI  HN ES       19 0 20.14                             118   -0.08 8  250 195 
 CHI  HZ I        19 0 25.07       164.9 0.38            119            250 195 
 ROSC BZ EP   4   1859 52.27                             117    1.42 0  254 211 
 HEL  HZ EP       1859 53.06                             116    0.34 8  271 255 
 HEL  HN ES       19 0 24.90                             116    0.72 8  271 255 
 HEL  HZ I        19 0 31.06       136.4 0.24            116            271 255 
 GUY2CHZ EP   4   1859 56.48                             113    0.28 0  301 234 
 PTGC HZ EP   4   1859 55.46                             112   -1.24 0  311 159 
 CBOC HZ EP   4   19 0  0.14                             111    0.74 0  333 252 
 COD  HZ EP   4   1859 59.88                             110   -0.76 0  346 355 
 ARGC HZ EP   4   19 0  3.26                             109    1.37 0  357 340 
 SDV  BZ EP   4   19 0  2.05                             109   -0.47 0  360  51 
 PRA  HZ EP   4   19 0  5.97                             107   -0.22 0  393 209 
 ORTC HZ EP   4   19 0  6.92                             107    0.37 0  396 216 
 PAL  HZ EP   4   19 0  8.01                             106    0.34 0  406 239 
 SMAR HZ EP   4   19 0 16.88                             103   -1.18 0  495 346 
                                                                                
