 2016  929 1419 30.2 L   5.973 -73.748119.5  RSN  4 0.2 1.1LRSN                1
 GAP=133        0.63       5.1     4.9  6.7  0.1623E+02 -0.1373E+02 -0.2068E+02E
 Epicentro: BOLIVAR - SANTANDER                                                3
 ACTION:UPD 17-08-17 21:17 OP:lp   STATUS:               ID:20160929141930 L   I
 OLDACT:UP  16-09-30 00:25 OP:edw  STATUS:               ID:20160929141747d    3
 OLDACT:UP  16-09-30 00:24 OP:edw  STATUS:               ID:20160929141747d    3
 OLDACT:UP  16-09-30 00:24 OP:edw  STATUS:               ID:20160929141747d    3
 OLDACT:DUP 16-09-30 00:22 OP:edw  STATUS:               ID:20160929141747d    3
 OLDACT:UP  16-09-30 00:21 OP:edw  STATUS:               ID:20160929141746     3
 OLDACT:UP  16-09-30 00:20 OP:edw  STATUS:               ID:20160929141746     3
 OLDACT:REG 16-09-29 20:19 OP:edw  STATUS:               ID:20160929141746     3
 2016-09-29-1418-00M.COL___366                                                 6
 STAT SP IPHASW D HRMM SECON CODA AMPLIT PERI AZIMU VELO AIN AR TRES W  DIS CAZ7
 SPBC HZ EP       1419 47.67                             156    0.1710 50.5 225 
 SPBC HN ES       1420  0.98                             156   -0.0110 50.5 225 
 SPBC HZ I        1420  3.46         5.0 0.22            157           50.5 225 
 RUS  HZ EP       1419 49.61                             146    0.1210 74.1  97 
 RUS  HN ES   2   1420  4.28                             146   -0.24 5 74.1  97 
 RUS  HZ I        1420  5.90         1.9 0.30            148           74.1  97 
 PTB  HZ EP       1419 50.26                             137   -0.5410  100 309 
 PTB  HN ES       1420  6.95                             137    0.0910  100 309 
 PTB  HZ I        1420  7.89         2.1 0.14            140            100 309 
 ZAR  HZ EP       1420  1.73                             115    0.20 8  208 324 
 ZAR  HN ES       1420 26.07                             115    0.12 8  208 324 
                                                                                
