 2017  729 1017 36.7 L   6.850 -72.970139.2  RSN  4 0.2 1.3LRSN                1
 GAP=258        0.50       5.5     6.4  4.2  0.2979E+02 -0.5113E+01 -0.7449E+01E
 Epicentro: CEPITA - SANTANDER                                                 3
 ACTION:UPD 17-08-30 15:38 OP:rebc STATUS:               ID:20170729101736 L   I
 OLDACT:REG 17-07-29 18:02 OP:ar   STATUS:               ID:20170729100743     3
 2017-07-29-1008-00M.COL___386                                                 6
 STAT SP IPHASW D HRMM SECON CODA AMPLIT PERI AZIMU VELO AIN AR TRES W  DIS CAZ7
 BAR2 EZ EP       1017 56.09                             164    0.1410 37.0 220 
 BAR2 EZ ES       1018 11.05                             164    0.1110 37.0 220 
 BAR2 EZ I        1018 13.31         3.3 0.16            162           37.0 220 
 BRR  HZ EP       1017 57.83                             146   -0.3410 86.8 289 
 BRR  HN ES       1018 14.88                             146   -0.0110 86.8 289 
 RUS  HZ EP       1018  0.48                             141    0.1710  107 187 
 RUS  HN ES       1018 18.52                             141   -0.1810  107 187 
 ZAR  HZ EP       1018 10.55                             119    0.06 8  220 289 
 ZAR  HN ES       1018 36.92                             119    0.10 8  220 289 
 ZAR  HZ I        1018 39.88         2.3 0.46            119            220 289 
                                                                                
