 2011  529 1951 52.5 L   6.781 -73.157138.6  RSN  7 0.4 1.7LRSN                1
 GAP=154        0.66       4.1     7.1  7.8 -0.8174E+01  0.2097E+01 -0.4121E+01E
 Epicentro: LOS SANTOS - SANTANDER                                             3
 ACTION:UP  11-06-29 08:57 OP:tino STATUS:               ID:20110529195152 L   I
 2011-05-29-1950-47S.COL___113                                                 6
 STAT SP IPHASW D HRMM SECON CODA AMPLIT PERI AZIMU VELO SNR AR TRES W  DIS CAZ7
 BAR2 SZ ES   2   1952 25.57                             171    -0.2 5   21 188 
 BAR2 SZ I        1952 27.57        18.9 0.31                            21 188 
 BRR  HZ EP       1952 13.19                             151     0.410   71 301 
 BRR  HZ I        1952 13.67        18.7 0.13                            71 301 
 BRR  HN ES   2   1952 29.07                             151     0.4 5   71 301 
 RUS  HZ EP   1   1952 15.36                             143     0.0 7   99 175 
 RUS  HE ES   2   1952 33.14                             143    -0.1 5   99 175 
 RUS  HZ I        1952 34.90         4.1 0.42                            99 175 
 BRI  SZ EP   1   1952 15.86                             139     0.0 7  111  21 
 GRA  SZ EP   2   1952 17.04                             135    -0.2 5  128  18 
 GRA  SZ I        1952 18.80         5.5 0.21                           128  18 
 GRA  SZ ES   2   1952 36.41                             135    -0.2 5  128  18 
 OCA  SZ EP   1   1952 20.54                             128     0.1 7  162 354 
 OCA  SZ ES   2   1952 41.43                             128    -0.8 5  162 354 
 OCA  SZ I        1952 50.61         7.8 0.36                           162 354 
 NOR  SZ EP   2   1952 26.69                             117    -0.8 4  232 235 
 NOR  SE ES   2   1952 54.53                             117    -0.4 4  232 235 
                                                                                
