 2013  329 1204 57.5 L   6.748 -73.156129.4  RSN  5 0.3 1.5LRSN                1
 GAP=138        0.70       4.4     4.1  8.9  0.4050E+01  0.1428E+02  0.3430E+01E
 Epicentro: LOS SANTOS - SANTANDER                                             3
 ACTION:UPD 13-04-09 14:05 OP:ep   STATUS:               ID:20130329120454 L   I
 2013-03-29-1200-00M.COL___245                                                 6
 STAT SP IPHASW D HRMM SECON CODA AMPLIT PERI AZIMU VELO AIN AR TRES W  DIS CAZ7
 BRR  HN ES   1   12 5 32.75                             149    0.44 8 73.2 303 
 BRR  HN I        12 5 37.33        11.3 0.22            149           73.2 303 
 PAM  SN ES   1   12 5 34.36                             146   -0.30 8 82.6  38 
 RUS  HZ EP   1   12 5 19.23                             142   -0.06 8 94.9 175 
 RUS  HN ES   1   12 5 36.53                             142    0.28 8 94.9 175 
 RUS  HN I        12 5 38.48         4.0 0.28            147           94.9 175 
 PTB  HN ES       12 5 42.43                             128   -0.4810  146 261 
 PTB  HN I        12 5 44.81         4.2 0.30            131            146 261 
 ZAR  HZ EP   1   12 5 29.34                             118    0.23 7  205 294 
 ZAR  HN ES       12 5 53.90                             118    0.17 9  205 294 
 ZAR  HN I        12 5 59.50         3.2 0.12            121            205 294 
                                                                                
