 2012  129 1127 13.8 L   6.742 -73.173141.8  RSN  5 0.4 1.3LRSN                1
 GAP=177        1.09       8.1     8.5 10.8  0.1793E+02  0.9005E+01  0.1816E+02E
 Epicentro: VILLANUEVA - SANTANDER                                             3
 ACTION:UP  12-02-03 08:21 OP:REBC STATUS:               ID:20120129112713 L   I
 2012-01-29-1120-00M.COL___188                                                 6
 STAT SP IPHASW D HRMM SECON CODA AMPLIT PERI AZIMU VELO SNR AR TRES W  DIS CAZ7
 BAR2 SZ EP       1127 32.76                             173    -0.110   17 183 
 BAR2 SZ I        1127 49.02         5.6 0.46                            17 183 
 GIR2 SZ EP       1127 33.03                             164    -0.210   37 357 
 GIR2 SZ ES   1   1127 47.68                             164    -0.6 7   37 357 
 BRR  HZ EP       1127 34.79                             152     0.210   72 304 
 BRR  HZ I        1127 35.18         7.7 0.12                            72 304 
 BRR  HN ES   1   1127 51.75                             152     1.0 7   72 304 
 RUS  HZ EP       1127 36.98                             145     0.210   94 174 
 RUS  HN ES   1   1127 54.70                             145     0.1 7   94 174 
 RUS  HZ I        1127 56.51         2.9 0.58                            94 174 
 PTB  HZ EP       1127 39.96                             132    -0.1 9  144 261 
 PTB  HE ES   1   1128  0.07                             132    -0.5 7  144 261 
 PTB  HZ I        1128  6.48         1.7 0.12                           144 261 
                                                                                
