 2016  829 1901 36.5 L   6.809 -73.159143.2  RSN  8 0.6 1.9LRSN                1
 GAP=237        1.33       6.4     6.9  8.4  0.1152E+02  0.1626E+02  0.2542E+01E
 Epicentro: LOS SANTOS - SANTANDER                                             3
 ACTION:UPD 16-10-29 15:40 OP:rebc STATUS:               ID:20160829190136 L   I
 OLDACT:UP  16-08-29 23:08 OP:dani STATUS:               ID:20160829185741     3
 OLDACT:UP  16-08-29 23:08 OP:dani STATUS:               ID:20160829185741     3
 OLDACT:UP  16-08-29 23:07 OP:dani STATUS:               ID:20160829185741     3
 OLDACT:REG 16-08-29 21:28 OP:edw  STATUS:               ID:20160829185741     3
 2016-08-29-1858-00M.COL___353                                                 6
 STAT SP IPHASW D HRMM SECON CODA AMPLIT PERI AZIMU VELO AIN AR TRES W  DIS CAZ7
 BAR2 EZ EP       19 1 55.80                             170    0.0110 24.1 186 
 BAR2 EZ ES       19 2 10.89                             170    0.0210 24.1 186 
 BAR2 EZ I        19 2 11.86        26.4 0.24                          24.1 186 
 BRR  HZ EP       19 1 57.46                             153    0.2410 69.4 298 
 BRR  HN ES       19 2 13.73                             153    0.3110 69.4 298 
 BRR  HZ I        19 2 17.64        20.3 0.26                          69.4 298 
 RUS  HZ EP       19 1 59.83                             143   -0.2010  102 175 
 RUS  HE ES       19 2 18.15                             143   -0.2710  102 175 
 RUS  HZ I        19 2 19.38        12.2 0.30                           102 175 
 PTB  HZ EP       19 2  2.13                             132   -0.96 9  146 258 
 PTB  HN ES       19 2 23.28                             132   -0.59 9  146 258 
 PTB  HZ I        19 2 25.32        11.7 0.42                           146 258 
 SPBC HN ES       19 2 27.85                             128    1.05 9  163 218 
 ZAR  HZ EP       19 2  9.22                             122    0.67 9  202 292 
 ZAR  HN ES       19 2 33.43                             122   -0.15 9  202 292 
 ZAR  HZ I        19 2 38.78         5.8 0.18                           202 292 
 NOR  HZ EP       19 2 11.47                             118   -0.49 8  234 234 
 NOR  HE ES       19 2 39.38                             118   -0.28 8  234 234 
 NOR  HZ I        19 2 45.02         5.0 0.26                           234 234 
 GUY2CHZ EP       19 2 20.89                             112    1.02 7  301 234 
 GUY2CHN ES   4   19 2 57.89                             112    4.16 0  301 234 
 GUY2CHZ I        19 3  1.90         4.1 0.28                           301 234 
                                                                                
