 2017  629 1734 21.5 L   6.824 -73.132146.1  RSN 17 0.5 2.7LRSN                1
 GAP=170        1.11       3.7     2.9  5.6  0.2071E+01  0.3642E+01  0.4755E+01E
 Epicentro: LOS SANTOS - SANTANDER                                             3
 ACTION:UPD 17-09-14 16:56 OP:jn   STATUS:               ID:20170629172740dL   I
 OLDACT:DUP 17-06-30 00:55 OP:osc  STATUS:               ID:20170629172740dL   3
 2017-06-29-1728-00M.COL___367                                                 6
 STAT SP IPHASW D HRMM SECON CODA AMPLIT PERI AZIMU VELO AIN AR TRES W  DIS CAZ7
 BAR2 EZ EP     D 1734 40.94                             169   -0.2410 26.2 192 
 BAR2 EZ ES       1734 56.45                             169   -0.1210 26.2 192 
 BAR2 EZ I        1734 57.31       185.8 0.18            167           26.2 192 
 BRR  HZ IP     D 1734 42.71                             153    0.0710 71.3 296 
 BRR  HE ES       1734 59.93                             153    0.7610 71.3 296 
 BRR  HZ I        1735  2.41        73.9 0.14            151           71.3 296 
 PTB  HZ EP       1734 48.04                             132   -0.59 9  150 258 
 PTB  HE ES       1735  9.27                             132   -0.55 9  150 258 
 PTB  HZ I        1735 14.79        40.7 0.16            131            150 258 
 TAM  HZ IP     D 1734 49.15                             131    0.06 9  154 106 
 TAM  HE ES       1735 10.80                             131    0.16 9  154 106 
 TAM  HZ I        1735 12.17        29.7 0.46            134            154 106 
 SPBC HZ EP       1734 49.90                             129   -0.36 9  166 219 
 SPBC HE ES       1735 12.31                             129   -0.42 9  166 219 
 SPBC HZ I        1735 13.12       108.5 0.22            128            166 219 
 YPLC HZ EP     C 1734 51.24                             127   -0.19 9  178 152 
 YPLC HE ES       1735 15.20                             127    0.40 9  178 152 
 YPLC HZ I        1735 16.02        59.4 0.28            128            178 152 
 ZAR  HZ EP       1734 53.87                             122   -0.09 9  204 291 
 ZAR  HE ES       1735 19.51                             122    0.19 9  204 291 
 ZAR  HZ I        1735 28.21        42.2 0.21            123            204 291 
 NOR  HZ EP       1734 57.32                             118   -0.17 8  237 234 
 NOR  HE ES       1735 24.83                             118   -0.78 8  237 234 
 NOR  HZ I        1735 30.37        44.8 0.27            118            237 234 
 CHI  HZ EP       1734 59.06                             117   -0.43 8  252 195 
 CHI  HE ES       1735 28.52                             117   -0.63 8  252 195 
 CHI  HZ I        1735 33.97        31.7 0.28            118            252 195 
 ROSC BZ EP   4   1735  0.89                             117    0.97 0  256 211 
 ROSC BE ES       1735 30.66                             117    0.74 8  256 211 
 ROSC BZ I        1735 37.00        49.3 0.45            117            256 211 
 HEL  HZ EP       1735  2.25                             115    0.34 8  274 255 
 HEL  HE ES       1735 34.29                             115    0.82 8  274 255 
 HEL  HZ I        1735 39.34        18.1 0.22            115            274 255 
 URE  HE ES   4   1735 32.70                             114   -1.97 0  284 291 
 GUY2CHZ EP       1735  6.05                             112    0.67 7  304 235 
 GUY2CHE ES       1735 40.39                             112    0.74 7  304 235 
 GUY2CHZ I        1735 47.53        48.5 0.34                           304 235 
 VIL  EZ EP       1735  4.25                             112   -0.96 7  306 192 
 VIL  EE ES       1735 40.14                             112    0.80 7  306 192 
 VIL  EZ I        1735 44.06        32.5 0.24            113            306 192 
 CBOC HZ EP       1735  9.21                             110    0.57 7  336 252 
 CBOC HN ES       1735 45.16                             110   -0.28 7  336 252 
 CBOC HZ I        1736  0.42         7.5 0.32            110            336 252 
 DBB  EZ EP       1735  9.32                             109    0.23 7  341 274 
 DBB  EN ES       1735 45.43                             109   -0.82 7  341 274 
 DBB  EZ I        1735 47.68        12.6 0.23            110            341 274 
 ORTC HZ EP       1735 15.50                             106   -0.23 6  398 216 
 ORTC HE ES       1735 58.94                             106    0.87 6  398 216 
 ORTC HZ I        1736  4.10        16.3 0.38            107            398 216 
 PAL  HZ EP       1735 17.54                             106    0.61 6  408 239 
 PAL  HE ES   2   1736  0.17                             106   -0.03 3  408 239 
 PAL  HZ I        1736  5.35        10.4 0.38            106            408 239 
                                                                                
