 2012 1229 1201 39.6 L   6.257 -73.666110.0  RSN  4 0.1 1.4LRSN                1
 GAP=168        0.32       3.1     1.7  3.6  0.2367E+01  0.5045E+00  0.8906E-01E
 Epicentro: SANTA HELENA DEL OPON - SANTANDER                                  3
 ACTION:UPD 13-01-04 14:31 OP:ep   STATUS:               ID:20121229120139 L   I
 2012-12-29-1200-00M.COL___242                                                 6
 STAT SP IPHASW D HRMM SECON CODA AMPLIT PERI AZIMU VELO AIN AR TRES W  DIS CAZ7
 BAR2 SZ IP       12 1 56.80                             147   -0.1310 65.0  55 
 BAR2 SZ I        12 1 57.13        15.9 0.23                          65.0  55 
 BAR2 SZ ES   1   12 2 10.48                             147    0.03 7 65.0  55 
 RUS  HZ EP       12 1 58.07                             143    0.0210 76.0 122 
 RUS  HE ES   1   12 2 12.49                             143    0.04 7 76.0 122 
 RUS  HE I        12 2 15.71         4.5 0.28                          76.0 122 
 PTB  HZ EP       12 1 58.75                             137    0.0310 92.9 290 
 PTB  HN ES       12 2 13.61                             137   -0.0210 92.9 290 
 PTB  HZ I        12 2 14.43         5.4 0.18                          92.9 290 
 BRR  HZ EP   1   12 1 58.92                             136    0.12 7 94.2 357 
 BRR  HZ I        12 2 12.32         5.9 0.41                          94.2 357 
                                                                                
