 2017  329 1032 47.8 L   6.880 -73.121148.0  RSN  7 0.3 1.5LRSN                1
 GAP=150        0.47       4.6     2.9  4.6 -0.3389E+01  0.6583E+01 -0.3967E+01E
 Epicentro: LOS SANTOS - SANTANDER                                             3
 ACTION:UPD 17-05-25 18:46 OP:jn   STATUS:               ID:20170329103247 L   I
 OLDACT:UP  17-03-29 21:18 OP:ansd STATUS:               ID:20170329102231     3
 OLDACT:UP  17-03-29 21:17 OP:ansd STATUS:               ID:20170329102231     3
 OLDACT:UP  17-03-29 21:17 OP:ansd STATUS:               ID:20170329102231     3
 OLDACT:UP  17-03-29 21:17 OP:ansd STATUS:               ID:20170329102231     3
 OLDACT:UP  17-03-29 21:17 OP:ansd STATUS:               ID:20170329102231     3
 OLDACT:UP  17-03-29 21:16 OP:ansd STATUS:               ID:20170329102231     3
 OLDACT:UP  17-03-29 21:15 OP:ansd STATUS:               ID:20170329102231     3
 OLDACT:UP  17-03-29 20:53 OP:and  STATUS:               ID:20170329102231     3
 OLDACT:UP  17-03-29 20:53 OP:and  STATUS:               ID:20170329102231     3
 OLDACT:REG 17-03-29 19:40 OP:and  STATUS:               ID:20170329102231     3
 2017-03-29-1028-00M.COL___352                                                 6
 STAT SP IPHASW D HRMM SECON CODA AMPLIT PERI AZIMU VELO AIN AR TRES W  DIS CAZ7
 BAR2 EZ EP   2   1033  8.42                             167    0.47 5 32.5 192 
 BAR2 EZ ES       1033 23.58                             167   -0.0610 32.5 192 
 PAM  EZ EP       1033  9.85                             154    0.0410 68.9  42 
 PAM  EN ES       1033 26.85                             154   -0.1010 68.9  42 
 PAM  EZ I        1033 28.71         5.6 0.45            161           68.9  42 
 BRR  HZ EP       1033  9.24                             153    0.0810 70.0 291 
 BRR  HN ES   3   1033 27.21                             153    1.42 2 70.0 291 
 BRR  HZ I        1033 28.64         9.9 0.12            151           70.0 291 
 PTB  HZ EP       1033 15.30                             131   -0.10 9  152 256 
 PTB  HN ES   2   1033 36.77                             131   -0.14 5  152 256 
 PTB  HZ I        1033 39.08         1.9 0.15            131            152 256 
 SPBC HN ES   4   1033 42.96                             128    2.63 0  172 218 
 SPBC HZ I        1033 47.17         2.3 0.03            128            172 218 
 ZAR  HN ES       1033 45.67                             123   -0.07 9  203 290 
 ZAR  HZ I        1033 54.48         3.4 0.26            124            203 290 
 URE  HN ES   4   1033 57.69                             114   -3.32 0  283 290 
 URE  HZ I        1034  2.06         2.1 0.10            115            283 290 
                                                                                
