 2011 1229 1733  7.9 L   6.746 -73.194135.2  RSN  5 0.3 1.4LRSN                1
 GAP=228        0.48       5.0     7.9  6.8  0.2357E+02  0.1819E+02  0.1240E+02E
 Epicentro: VILLANUEVA - SANTANDER                                             3
 ACTION:UPD 12-07-13 16:19 OP:ep   STATUS:               ID:20111229173307 L   I
 2011-12-29-1730-00M.COL___187                                                 6
 STAT SP IPHASW D HRMM SECON CODA AMPLIT PERI AZIMU VELO AIN AR TRES W  DIS CAZ7
 BAR2 SZ EP   1   1733 26.15                             172    0.00 7 17.0 176 
 BAR2 SZ ES   2   1733 40.56                             172    0.18 5 17.0 176 
 BAR2 SZ I        1733 42.58         6.5 0.20                          17.0 176 
 BRR  HZ EP   1   1733 27.87                             151    0.03 7 69.8 305 
 BRR  HN ES   2   1733 42.77                             151   -0.62 5 69.8 305 
 RUS  HN ES   2   1733 47.96                             143    0.32 5 95.2 173 
 ZAR  HN ES   2   1734  4.51                             120    0.52 4  201 294 
 CHI  HZ EP   1   1733 44.16                             116   -0.09 6  241 194 
 CHI  HN ES   2   1734 12.30                             116   -0.30 4  241 194 
                                                                                
