 2016  729 1343 24.2 L   6.350 -73.529119.1  RSN 17 0.5 2.5LRSN                1
 GAP= 72        1.17       3.4     3.8  5.9 -0.2251E+01  0.8710E+01  0.6512E+00E
 Epicentro: CONTRATACION - SANTANDER                                           3
 ACTION:UPD 17-03-29 16:56 OP:lp   STATUS:               ID:20160729134324 L   I
 OLDACT:UP  16-07-29 22:12 OP:ar   STATUS:               ID:20160729133745     3
 OLDACT:REG 16-07-29 20:36 OP:ar   STATUS:               ID:20160729133745     3
 2016-07-29-1338-00M.COL___362                                                 6
 STAT SP IPHASW D HRMM SECON CODA AMPLIT PERI AZIMU VELO AIN AR TRES W  DIS CAZ7
 BAR2 EZ IP     C 1343 41.96                             157    0.5010 46.7  55 
 BAR2 EZ ES       1343 55.17                             157    0.2310 46.7  55 
 BAR2 EZ I        1343 56.29       167.2 0.17            162           46.7  55 
 RUS  HZ EP       1343 43.22                             147    0.0410 70.6 136 
 RUS  HN ES       1343 57.57                             147   -0.4310 70.6 136 
 RUS  HZ I        1343 58.90        52.4 0.14            152           70.6 136 
 BRR  HZ EP       1343 43.62                             141    0.0410 86.1 346 
 BRR  HN ES       1343 58.89                             141    0.1710 86.1 346 
 BRR  HZ I        1344  2.13        45.9 0.38            142           86.1 346 
 SPBC HZ EP       1343 44.20                             138   -0.4410 97.8 218 
 SPBC HN ES       1344  0.22                             138   -0.3710 97.8 218 
 SPBC HZ I        1344  5.49        75.3 0.18            137           97.8 218 
 NOR  HZ EP       1343 50.74                             120   -0.92 9  172 240 
 NOR  HN ES       1344 12.47                             120   -0.62 9  172 240 
 NOR  HZ I        1344 16.95        66.7 0.18            121            172 240 
 TAM  HZ EP       1343 54.69                             117    0.87 9  192  87 
 ZAR  HZ EP       1343 53.48                             117   -0.44 9  194 311 
 ZAR  HN ES       1344 17.12                             117    0.01 9  194 311 
 ZAR  HZ I        1344 21.18        78.4 0.44            118            194 311 
 HEL  HZ EP       1343 57.81                             114    0.32 8  222 266 
 HEL  HN ES       1344 24.46                             114    0.98 8  222 266 
 HEL  HZ I        1344 27.28        30.6 0.28            114            222 266 
 GUY2CHZ EP       1343 59.55                             112    0.08 8  238 239 
 GUY2CHN ES   4   1344 29.12                             112    2.12 0  238 239 
 GUY2CHZ I        1344 31.01        20.4 0.32                           238 239 
 ELA  HZ EP   4   1344  4.60                             109    2.05 0  265 232 
 ELA  HN ES   4   1344 35.77                             109    3.30 0  265 232 
 ELA  HZ I        1344 40.71        14.2 0.28            110            265 232 
 URE  HZ EP   4   1344  0.92                             109   -1.61 0  270 305 
 URE  HN ES   4   1344 30.23                             109   -2.21 0  270 305 
 URE  HZ I        1344 39.83        36.1 0.16            110            270 305 
 CBOC HZ EP       1344  4.09                             108    0.22 7  280 259 
 CBOC HN ES   4   1344 32.16                             108   -2.66 0  280 259 
 CBOC HZ I        1344 36.05         8.2 0.20            109            280 259 
 ANIL HZ EP       1344  6.24                             107    0.81 7  292 225 
 ANIL HE ES       1344 38.09                             107    0.49 7  292 225 
 ANIL HZ I        1344 44.08        42.4 0.28            108            292 225 
 PRA  HZ EP       1344  9.19                             105   -0.13 7  328 207 
 PRA  HN ES       1344 44.70                             105    0.18 7  328 207 
 PRA  HZ I        1344 51.56        12.5 0.36            106            328 207 
 PAL  HZ EP       1344 10.96                             104   -0.32 7  344 243 
 PAL  HN ES   4   1344 45.34                             104   -2.68 0  344 243 
 PAL  HZ I        1344 50.57         6.6 0.24            105            344 243 
 SJC  HZ EP       1344 20.96                             100   -0.81 5  432 335 
 SJC  HN ES   4   1345  3.76                             100   -2.93 0  432 335 
 SJC  HZ I        1345 11.17         4.0 0.31            101            432 335 
 CRJC HZ EP       1344 32.81                              97    0.26 4  521   8 
 CRJC HN ES       1345 24.12                              97   -1.75 4  521   8 
 CRJC HZ I        1345 32.01        10.6 0.38             99            521   8 
                                                                                
