 2013  429 1519 16.6 L   6.803 -73.164148.0  RSN  8 0.5 2.2LRSN                1
 GAP=134        1.02       5.2     5.7  9.3 -0.8453E+01  0.1571E+02 -0.1152E+02E
 Epicentro: LOS SANTOS - SANTANDER                                             3
 ACTION:UPD 13-05-22 14:41 OP:EP   STATUS:               ID:20130429151916 L   I
 2013-04-29-1517-47M.COL___214                                                 6
 STAT SP IPHASW D HRMM SECON CODA AMPLIT PERI AZIMU VELO AIN AR TRES W  DIS CAZ7
 BAR2 SZ EP   1   1519 36.68                             170    0.14 7 23.4 185 
 BAR2 SZ ES   1   1519 51.86                             170   -0.20 7 23.4 185 
 BAR2 SZ I        1519 54.23        20.6 0.28            173           23.4 185 
 GIR2 SZ EP   1   1519 36.75                             168    0.19 7 30.6 354 
 GIR2 SZ I        1519 55.87        10.8 0.48            163           30.6 354 
 BRR  HZ IP     C 1519 38.54                             153    0.6110 69.3 299 
 BRR  HN ES   2   1519 55.41                             153    0.88 5 69.3 299 
 BRR  HZ I        1519 57.95        11.0 0.42            150           69.3 299 
 PAM  SZ EP   1   1519 39.48                             151    0.33 7 78.4  41 
 PAM  SN ES   1   1519 56.72                             151    0.01 7 78.4  41 
 PAM  SN I        1519 57.87        27.0 0.50            146           78.4  41 
 RUS  HZ EP   1   1519 40.64                             144   -0.01 7  101 175 
 RUS  HN ES   1   1519 58.65                             144   -0.73 7  101 175 
 RUS  HN I        1520  0.88        32.9 0.42            143            101 175 
 PTB  HZ EP   1   1519 43.29                             133   -0.33 7  146 259 
 PTB  HN ES       1520  4.16                             133   -0.51 9  146 259 
 PTB  HN I        1520  5.91        25.6 0.20            130            146 259 
 NOR  HN ES       1520 20.86                             119    0.66 8  233 234 
 NOR  HN I        1520 26.66        32.5 0.18            117            233 234 
 SML  HZ EP   1   1519 52.29                             118   -0.98 6  243 336 
 SML  HN ES   1   1520 21.40                             118   -0.43 6  243 336 
 SML  HN I        1520 29.70        36.1 0.10            114            243 336 
                                                                                
