 2010 1129 1643  3.4 L   6.776 -73.090145.6  RSN  9 0.4 1.9LRSN                1
 GAP=165        0.90       6.4    10.1  8.6  0.1086E+01 -0.2006E+01  0.1427E+02E
 Epicentro: LOS SANTOS - SANTANDER                                             3
 ACTION:UP  10-12-17 16:55 OP:REBC STATUS:               ID:20101129164303 L   I
 2010-11-29-1639-47S.COL___132                                                 6
 STAT SP IPHASW D HRMM SECON CODA AMPLIT PERI AZIMU VELO SNR AR TRES W  DIS CAZ7
 BAR2 SZ EP   1   1643 22.98                             171     0.0 7   23 207 
 BAR2 SZ ES   1   1643 37.46                             171    -0.8 7   23 207 
 BAR2 SZ I        1643 39.66        26.7 0.18                            23 207 
 BTL  SZ EP       1643 23.61                             169     0.510   25 309 
 BRR  HZ EP   1   1643 24.67                             150    -0.3 7   78 298 
 BRR  HN ES   1   1643 42.11                             150     0.4 7   78 298 
 BRR  HZ I        1643 45.60        19.2 0.36                            78 298 
 RUS  HZ EP   1   1643 26.93                             144     0.0 7   98 180 
 RUS  HN ES   2   1643 45.57                             144     0.3 5   98 180 
 RUS  HZ I        1643 46.92        12.2 0.22                            98 180 
 GRA  SZ EP   2   1643 28.21                             136    -0.5 5  127  14 
 GRA  SZ I        1643 54.10         8.1 0.42                           127  14 
 NOR  SZ EP   2   1643 39.24                             118    -0.3 4  238 236 
 NOR  SE ES   2   1644  7.01                             118    -0.7 4  238 236 
 CHI  HZ EP   1   1643 41.09                             117     0.1 6  248 197 
 CHI  HZ I        1643 41.88         5.6 0.04                           248 197 
 CHI  HE ES   2   1644 10.95                             117     0.6 4  248 197 
 RREF HZ EP   3   1643 50.35                             110     0.5 2  325 230 
 RREF HZ I        1644 35.12         4.5 0.29                           325 230 
 PRA  HZ EP   2   1643 56.63                             106    -0.4 3  393 211 
                                                                                
