 2013  529 1846 12.3 L   6.781 -73.164140.9  RSN  8 0.4 2.3LRSN                1
 GAP=135        1.15       4.3     5.3  7.4 -0.6348E+01 -0.4653E+01 -0.1134E+01E
 Epicentro: LOS SANTOS - SANTANDER                                             3
 ACTION:UPD 13-06-20 09:54 OP:ep   STATUS:               ID:20130529184612 L   I
 2013-05-29-1838-52M.COL___207                                                 6
 STAT SP IPHASW D HRMM SECON CODA AMPLIT PERI AZIMU VELO AIN AR TRES W  DIS CAZ7
 BAR2 SZ EP       1846 31.38                             171    0.0610 21.0 186 
 BAR2 SZ ES       1846 45.66                             171   -0.4810 21.0 186 
 BAR2 SZ I        1846 47.38        24.8 0.16            171           21.0 186 
 GIR2 SZ EP       1846 31.55                             166    0.0810 33.1 354 
 GIR2 SZ ES       1846 46.63                             166    0.2310 33.1 354 
 BRR  HZ EP       1846 33.36                             152    0.4510 70.5 301 
 BRR  HN ES       1846 49.87                             152    0.9110 70.5 301 
 BRR  HE I        1846 50.74        49.9 0.22            150           70.5 301 
 PAM  SZ EP       1846 34.36                             149    0.1610 80.3  40 
 PAM  SZ I        1846 34.69        35.0 0.22            150           80.3  40 
 PAM  SN ES       1846 51.22                             149   -0.0510 80.3  40 
 RUS  HZ EP       1846 35.48                             143    0.0210 98.7 175 
 RUS  HN ES       1846 53.29                             143   -0.2110 98.7 175 
 RUS  HE I        1846 54.61        29.6 0.46            144           98.7 175 
 PTB  HN ES       1846 58.75                             131   -0.49 9  145 259 
 PTB  HN I        1847  1.61        18.1 0.28            131            145 259 
 CAPV BZ EP       1846 39.61                             130    0.02 9  152  38 
 CAPV BZ ES       1847  0.98                             130    0.12 9  152  38 
 OCA  HN ES       1847  1.32                             128   -1.04 9  162 354 
 OCA  HN I        1847  5.20        79.9 0.44            128            162 354 
                                                                                
