 2014  529 1300 49.4 L   7.337 -73.114 10.1  RSN  5 0.3 1.3LRSN                1
 GAP=123        0.68       1.8     1.6  3.3 -0.2603E+00  0.1210E+01 -0.1288E+01E
 Epicentro: RIONEGRO - SANTANDER                                               3
 ACTION:UPD 15-03-16 17:01 OP:nd   STATUS:               ID:20140529130049 L   I
 OLDACT:UP  14-05-29 21:39 OP:cam  STATUS:               ID:20140529130002d    3
 OLDACT:UP  14-05-29 21:36 OP:cam  STATUS:               ID:20140529130002d    3
 OLDACT:UP  14-05-29 21:36 OP:cam  STATUS:               ID:20140529130002d    3
 OLDACT:DUP 14-05-29 21:33 OP:cam  STATUS:               ID:20140529130002d    3
 OLDACT:UP  14-05-29 21:33 OP:cam  STATUS:               ID:20140529130001d    3
 OLDACT:UP  14-05-29 21:32 OP:cam  STATUS:               ID:20140529130001d    3
 OLDACT:DUP 14-05-29 21:31 OP:cam  STATUS:               ID:20140529130001d    3
 OLDACT:UP  14-05-29 21:30 OP:cam  STATUS:               ID:20140529130000     3
 OLDACT:UP  14-05-29 21:29 OP:cam  STATUS:               ID:20140529130000     3
 OLDACT:REG 14-05-29 19:55 OP:cam  STATUS:               ID:20140529130000     3
 2014-05-29-1300-00M.COL___276                                                 6
 STAT SP IPHASW D HRMM SECON CODA AMPLIT PERI AZIMU VELO AIN AR TRES W  DIS CAZ7
 PAM  SZ EP     D 13 0 57.34                              99   -0.1210 45.7  90 
 PAM  SN ES       13 1  3.69                              99   -0.0910 45.7  90 
 PAM  SZ I        13 1  4.47        17.7 0.68             47           45.7  90 
 BRR  HZ EP       13 1  0.82                              95    0.1010 70.8 249 
 BRR  HN ES       13 1  9.41                              95   -0.1710 70.8 249 
 BAR2 SZ EP   1   13 1  3.00                              95    0.24 7 82.7 185 
 BAR2 SZ ES       13 1 13.09                              95   -0.1210 82.7 185 
 BAR2 SZ I        13 1 14.72        11.4 0.14             47           82.7 185 
 RUS  HZ EP       13 1 15.24                              56    0.60 9  160 179 
 RUS  HN ES       13 1 34.07                              56   -0.30 9  160 179 
 RUS  HZ I        13 1 37.99         4.0 0.20             47            160 179 
 SML  HZ EP       13 1 18.52                              56    0.27 9  193 327 
 SML  HE ES       13 1 40.52                              56   -0.26 9  193 327 
                                                                                
