 2013  929 1740 58.6 L   6.748 -73.196139.0  RSN  8 0.4 1.7LRSN                1
 GAP=133        0.89       5.1     4.7  6.1  0.6652E+01  0.2364E+01  0.2092E-01E
 Epicentro: VILLANUEVA - SANTANDER                                             3
 ACTION:UPD 13-10-22 09:26 OP:ep   STATUS:               ID:20130929174058 L   I
 OLDACT:REG 13-09-29 15:06 OP:jn   STATUS:               ID:20130929173960d    3
 2013-09-29-1739-59M.COL___272                                                 6
 STAT SP IPHASW D HRMM SECON CODA AMPLIT PERI AZIMU VELO AIN AR TRES W  DIS CAZ7
 BAR2 SZ EP       1741 17.39                             173    0.0510 17.3 175 
 BAR2 SZ ES       1741 32.58                             173    0.6510 17.3 175 
 BAR2 SZ I        1741 33.96        15.5 0.28            174           17.3 175 
 BRR  HZ EP       1741 19.22                             152    0.2710 69.5 305 
 BRR  HN ES       1741 34.64                             152   -0.1710 69.5 305 
 BRR  HZ I        1741 41.16        12.7 0.22            151           69.5 305 
 PAM  SZ EP       1741 20.41                             147   -0.2310 85.3  40 
 RUS  HZ EP       1741 21.29                             144   -0.0610 95.4 172 
 RUS  HN ES       1741 38.71                             144   -0.3610 95.4 172 
 RUS  HZ I        1741 41.52         7.7 0.24            149           95.4 172 
 PTB  HZ EP       1741 24.11                             132   -0.35 9  141 261 
 PTB  HN ES       1741 44.47                             132   -0.14 9  141 261 
 PTB  HZ I        1741 47.35         5.5 0.12            133            141 261 
 ZAR  HN ES   1   1741 55.01                             121   -0.07 6  201 294 
 ZAR  HZ I        1742  0.62         7.1 0.18            123            201 294 
 GUY2CHZ EP   1   1741 42.26                             112    1.22 5  293 235 
 GUY2CHZ I        1742 23.86         2.8 0.66                           293 235 
 PRA  HZ EP   1   1741 50.73                             106   -0.29 4  384 209 
                                                                                
