 2017  129 1318 20.0 L   6.769 -73.161148.8  RSN  6 0.4 1.9LRSN                1
 GAP=136        0.87       4.9     4.5  7.3 -0.1863E+01  0.3517E+01 -0.3796E+01E
 Epicentro: LOS SANTOS - SANTANDER                                             3
 ACTION:UPD 17-05-22 16:04 OP:jn   STATUS:               ID:20170129131820 L   I
 OLDACT:UP  17-01-29 23:47 OP:dnl  STATUS:               ID:20170129130746     3
 OLDACT:REG 17-01-29 22:24 OP:dnl  STATUS:               ID:20170129130746     3
 2017-01-29-1308-00M.COL___336                                                 6
 STAT SP IPHASW D HRMM SECON CODA AMPLIT PERI AZIMU VELO AIN AR TRES W  DIS CAZ7
 BAR2 EZ EP       1318 39.88                             172   -0.0010 19.6 187 
 BAR2 EZ ES       1318 55.54                             172    0.1210 19.6 187 
 BAR2 EZ I        1318 57.68        28.7 0.32            174           19.6 187 
 BRR  HZ EP       1318 41.80                             153    0.3510 71.5 302 
 BRR  HN ES       1318 58.80                             153    0.5910 71.5 302 
 BRR  HZ I        1319  2.67        22.7 0.30            151           71.5 302 
 PAM  EZ EP       1318 42.71                             150   -0.0110 81.1  39 
 PAM  EN ES       1318 59.99                             150   -0.4810 81.1  39 
 PAM  EZ I        1319  2.92         8.8 0.30            152           81.1  39 
 RUS  HZ EP   2   1318 43.97                             145    0.20 5 97.3 175 
 RUS  HN ES       1319  2.37                             145    0.0210 97.3 175 
 RUS  HZ I        1319  3.77         9.7 0.36            150           97.3 175 
 PTB  HZ EP   2   1318 46.84                             133   -0.13 5  145 260 
 PTB  HN ES       1319  7.37                             133   -0.67 9  145 260 
 PTB  HZ I        1319 10.25         7.9 0.12            134            145 260 
 ZAR  HZ EP   4   1318 54.45                             123    1.87 0  204 293 
 ZAR  HN ES   2   1319 17.89                             123   -0.13 4  204 293 
 ZAR  HZ I        1319 23.08         8.5 0.26            124            204 293 
                                                                                
