 2013  929 1930 25.4 L   6.535 -73.608106.7  RSN  4 0.2 1.1LRSN                1
 GAP=130        0.46       4.3     2.3  4.8  0.3341E+01  0.2528E+01  0.2202E+01E
 Epicentro: EL CARMEN DE CHUCURI - SANTANDER                                   3
 ACTION:UPD 13-10-22 09:26 OP:ep   STATUS:               ID:20130929193025 L   I
 OLDACT:REG 13-09-29 17:13 OP:jn   STATUS:               ID:20130929192959     3
 2013-09-29-1929-59M.COL___272                                                 6
 STAT SP IPHASW D HRMM SECON CODA AMPLIT PERI AZIMU VELO AIN AR TRES W  DIS CAZ7
 BAR2 SZ EP       1930 41.28                             154   -0.0910 47.5  82 
 BAR2 SZ ES       1930 53.82                             154    0.0210 47.5  82 
 BAR2 SZ I        1930 54.86         6.7 0.38            153           47.5  82 
 BRR  HZ EP   1   1930 42.09                             146    0.05 7 64.3 350 
 BRR  HN ES   4   1930 57.90                             146    2.90 0 64.3 350 
 BRR  HZ I        1931  2.09         4.9 0.37            142           64.3 350 
 RUS  HZ EP       1930 45.07                             136    0.2510 91.7 141 
 RUS  HE ES   1   1930 59.73                             136   -0.22 7 91.7 141 
 RUS  HZ I        1931  0.38         1.1 0.50            145           91.7 141 
 PTB  HZ EP       1930 44.14                             135   -0.2110 93.9 270 
 PTB  HN ES       1930 59.22                             135    0.1210 93.9 270 
 PTB  HZ I        1930 59.98         3.1 0.20            139           93.9 270 
                                                                                
