 2015 1229 1513 36.0 L   6.815 -73.120148.0  RSN 10 0.4 2.0LRSN                1
 GAP=203        0.78       3.1     4.9  5.3  0.2881E+01  0.6642E+01  0.1352E+01E
 Epicentro: LOS SANTOS - SANTANDER                                             3
 ACTION:UPD 16-02-04 15:08 OP:cam  STATUS:               ID:20151229151336 L   I
 OLDACT:REG 15-12-29 20:39 OP:dnl  STATUS:               ID:20151229150747     3
 2015-12-29-1507-47M.COL___340                                                 6
 STAT SP IPHASW D HRMM SECON CODA AMPLIT PERI AZIMU VELO AIN AR TRES W  DIS CAZ7
 BAR2 EZ EP       1513 56.11                             170    0.1310 25.6 196 
 BAR2 EZ ES       1514 11.86                             170    0.3310 25.6 196 
 BAR2 EZ I        1514 13.09        20.2 0.24            163           25.6 196 
 BRR  HZ EP   2   1513 58.26                             152    0.74 5 73.0 296 
 BRR  HE ES       1514 14.59                             152    0.3110 73.0 296 
 RUS  HZ EP   2   1513 59.94                             144   -0.17 5  102 178 
 RUS  HN ES   1   1514 18.23                             144   -0.66 7  102 178 
 RUS  HZ I        1514 20.48         8.5 0.37            142            102 178 
 PTB  HZ EP   2   1514  3.03                             132   -0.43 5  151 258 
 PTB  HN ES   4   1514 23.09                             132   -1.77 0  151 258 
 PTB  HZ I        1514 30.16        11.4 0.34            129            151 258 
 SPBC HZ EP   2   1514  4.98                             129   -0.01 5  166 219 
 SPBC HE ES       1514 27.44                             129   -0.14 9  166 219 
 SPBC HZ I        1514 31.85        24.8 0.19            126            166 219 
 ZAR  HZ EP   2   1514  9.10                             123    0.27 4  206 291 
 ZAR  HE ES       1514 34.60                             123    0.18 8  206 291 
 ZAR  HZ I        1514 39.76         9.2 0.14            122            206 291 
 NOR  HZ EP       1514 12.29                             119    0.05 8  238 235 
 NOR  HN ES       1514 40.36                             119   -0.13 8  238 235 
 NOR  HZ I        1514 47.06        11.3 0.18            117            238 235 
 SML  HZ EP   2   1514 13.55                             118    0.80 4  243 335 
 SML  HN ES       1514 40.47                             118   -0.92 8  243 335 
 CHI  HZ EP       1514 14.07                             118   -0.04 8  251 196 
 CHI  HN ES   4   1514 41.91                             118   -1.90 0  251 196 
 CHI  HZ I        1514 50.14         3.5 0.26            117            251 196 
 GUY2CHZ EP   4   1514 21.09                             113    0.98 0  304 235 
 GUY2CHN ES   2   1514 54.68                             113    0.18 4  304 235 
 GUY2CHZ I        1515  2.23         5.4 0.27                           304 235 
                                                                                
