 2015 1229 1058 52.4 L   6.803 -73.138145.5  RSN 11 0.4 2.0LRSN                1
 GAP=184        0.87       2.6     4.9  5.2 -0.1077E+01  0.5374E+01  0.2461E+00E
 Epicentro: LOS SANTOS - SANTANDER                                             3
 ACTION:UPD 16-02-04 15:08 OP:cam  STATUS:               ID:20151229105852 L   I
 OLDACT:REG 15-12-29 20:31 OP:dnl  STATUS:               ID:20151229105748     3
 2015-12-29-1057-48M.COL___338                                                 6
 STAT SP IPHASW D HRMM SECON CODA AMPLIT PERI AZIMU VELO AIN AR TRES W  DIS CAZ7
 BAR2 EZ EP       1059 12.18                             170    0.1710 23.8 192 
 BAR2 EZ ES       1059 27.12                             170   -0.1810 23.8 192 
 BAR2 EZ I        1059 28.63        22.6 0.25            167           23.8 192 
 BRR  HZ EP   2   1059 14.08                             152    0.53 5 71.7 298 
 BRR  HE ES       1059 31.05                             152    1.0010 71.7 298 
 BRR  HN I        1059 31.71        29.5 0.33            149           71.7 298 
 RUS  HZ EP   2   1059 15.85                             144   -0.30 5  101 177 
 RUS  HE ES       1059 34.41                             144   -0.2610  101 177 
 RUS  HZ I        1059 35.34         6.2 0.30            142            101 177 
 PTB  HZ EP   1   1059 18.97                             132   -0.45 7  149 259 
 PTB  HN ES       1059 39.86                             132   -0.64 9  149 259 
 PTB  HZ I        1059 43.05         8.6 0.14            129            149 259 
 OCA  HZ EP   2   1059 20.74                             130    0.07 5  160 353 
 OCA  HN ES       1059 42.53                             130   -0.18 9  160 353 
 OCA  HZ I        1059 45.31        20.7 0.40            129            160 353 
 SPBC HZ EP   2   1059 21.35                             129    0.40 5  164 219 
 SPBC HE ES   1   1059 42.78                             129   -0.44 7  164 219 
 SPBC HZ I        1059 46.22        12.0 0.13            127            164 219 
 NOR  HZ EP   2   1059 28.69                             118    0.49 4  236 235 
 NOR  HE ES   2   1059 56.05                             118   -0.08 4  236 235 
 NOR  HZ I        11 0  3.03         5.9 0.10            117            236 235 
 SML  HZ EP       1059 28.64                             117   -0.37 8  244 335 
 SML  HE ES       1059 57.39                             117   -0.18 8  244 335 
 SML  HZ I        11 0  0.98         9.6 0.12            117            244 335 
 CHI  HZ EP       1059 30.35                             117    0.21 8  249 195 
 CHI  HN ES   2   11 0  0.20                             117    0.62 4  249 195 
 CHI  HZ I        11 0  6.67         3.8 0.46            116            249 195 
 GUY2CHZ EP   2   1059 36.59                             112    0.50 4  302 235 
 GUY2CHZ EPg  4   1059 37.69                             112    1.60 0  302 235 
 GUY2CHN ES       11 0 10.47                             112    0.30 7  302 235 
 GUY2CHZ I        11 0 18.73         4.9 0.27                           302 235 
 PRA  HZ EP   2   1059 46.06                             106    0.07 3  393 210 
 PRA  HN ES       11 0 28.03                             106    0.24 6  393 210 
 PRA  HZ I        11 0 34.93         4.9 0.32            106            393 210 
                                                                                
