 2017  729 1806  0.8 L   6.838 -73.132144.0  RSN 15 0.6 2.4LRSN                1
 GAP= 74        1.51       5.0     4.2  7.6  0.1601E+01  0.5660E+01  0.5232E+01E
 Epicentro: LOS SANTOS - SANTANDER                                             3
 ACTION:UPD 17-08-30 15:38 OP:rebc STATUS:               ID:20170729180600 L   I
 OLDACT:UP  17-07-29 23:33 OP:ar   STATUS:               ID:20170729175743     3
 OLDACT:UP  17-07-29 23:27 OP:ar   STATUS:               ID:20170729175743     3
 OLDACT:UP  17-07-29 23:26 OP:ar   STATUS:               ID:20170729175743     3
 OLDACT:REG 17-07-29 20:34 OP:ar   STATUS:               ID:20170729175743     3
 2017-07-29-1758-00M.COL___389                                                 6
 STAT SP IPHASW D HRMM SECON CODA AMPLIT PERI AZIMU VELO AIN AR TRES W  DIS CAZ7
 BAR2 EZ EP       18 6 20.16                             169   -0.1810 27.8 192 
 BAR2 EZ ES       18 6 34.67                             169   -0.8910 27.8 192 
 BAR2 EZ I        18 6 36.28        66.8 0.20            169           27.8 192 
 BRR  HZ EP       18 6 21.99                             152    0.2510 70.6 295 
 BRR  HN ES       18 6 38.70                             152    0.6310 70.6 295 
 BRR  HZ I        18 6 44.24        53.5 0.14            150           70.6 295 
 PAM  EZ EP       18 6 23.05                             151    0.4510 73.2  41 
 PAM  EN ES       18 6 39.92                             151    0.3310 73.2  41 
 PAM  EZ I        18 6 41.88        49.6 0.50            149           73.2  41 
 RUS  HZ EP       18 6 24.71                             142    0.0110  105 177 
 RUS  HN ES       18 6 42.17                             142   -1.1610  105 177 
 RUS  HZ I        18 6 43.14        11.6 0.50            140            105 177 
 PTB  HZ EP       18 6 27.32                             131   -0.54 9  150 257 
 PTB  HN ES       18 6 48.60                             131   -0.35 9  150 257 
 PTB  HZ I        18 6 52.88        24.8 0.20            128            150 257 
 TAM  HZ EP       18 6 28.58                             130    0.25 9  155 107 
 TAM  HZ I        18 6 48.91        21.2 0.40            127            155 107 
 TAM  HN ES       18 6 49.91                             130    0.12 9  155 107 
 SPBC HZ EP       18 6 28.63                             128   -0.96 9  167 218 
 SPBC HE ES       18 6 53.27                             128    1.24 9  167 218 
 SPBC HZ I        18 6 55.74        29.9 0.44            125            167 218 
 YPLC HZ EP       18 6 30.73                             126   -0.05 9  180 152 
 YPLC HN ES       18 6 54.68                             126    0.52 9  180 152 
 ZAR  HZ EP       18 6 33.21                             122    0.08 9  204 291 
 ZAR  HN ES       18 6 58.84                             122    0.50 9  204 291 
 ZAR  HZ I        18 7  3.65        41.2 0.38            119            204 291 
 NOR  HZ EP       18 6 37.17                             118    0.33 8  238 234 
 NOR  HE ES       18 7  4.70                             118   -0.24 8  238 234 
 NOR  HZ I        18 7  9.84        21.1 0.24            115            238 234 
 ROSC BZ EP   4   18 6 41.80                             116    2.48 0  257 211 
 ROSC BN ES   4   18 7 13.41                             116    4.05 0  257 211 
 ROSC BZ I        18 7 17.53        19.3 0.45            113            257 211 
 URE  HE ES   4   18 7 12.14                             113   -1.60 0  284 291 
 URE  HZ I        18 7 20.65        15.8 0.18            110            284 291 
 GUY2CHZ EP   4   18 6 46.65                             112    1.89 0  305 234 
 GUY2CHE ES   4   18 7 21.54                             112    2.50 0  305 234 
 GUY2CHZ I        18 7 25.33         7.6 0.34                           305 234 
 PTGC HZ EP   4   18 6 43.60                             111   -1.38 0  312 159 
 PTGC HN ES   4   18 7 16.78                             111   -2.65 0  312 159 
 ORTC HZ EP       18 6 56.07                             106    0.89 6  400 216 
 ORTC HN ES       18 7 37.98                             106    0.39 6  400 216 
 ORTC HZ I        18 7 44.75         4.7 0.38            104            400 216 
 SJC  HZ EP       18 6 54.38                             105   -1.62 6  407 326 
 SJC  HN ES   4   18 7 35.69                             105   -3.36 0  407 326 
 SJC  HZ I        18 7 39.52         9.9 0.48            103            407 326 
                                                                                
