 2017 1129 1547 59.1 L   5.805 -73.908105.1  RSN  7 0.4 1.4LRSN                1
 GAP=121        0.91       3.4     3.0  6.6 -0.3276E+00  0.4034E+01  0.3381E+01E
 Epicentro: ALBANIA - SANTANDER                                                3
 ACTION:UPD 17-12-12 20:01 OP:rebc STATUS:               ID:20171129154759 L   I
 OLDACT:DUP 17-11-30 00:00 OP:dani STATUS:               ID:20171129153532d    3
 2017-11-29-1538-00M.COL___495                                                 6
 STAT SP IPHASW D HRMM SECON CODA AMPLIT PERI AZIMU VELO AIN AR TRES W  DIS CAZ7
 SPBC HZ EP       1548 13.93                             166    0.2310 24.8 227 
 SPBC HE ES       1548 25.31                             166    0.2310 24.8 227 
 RUS  HZ EP       1548 18.52                             136    0.1410 91.9  84 
 RUS  HN ES       1548 33.64                             136    0.2410 91.9  84 
 RUS  HZ I        1548 35.06         2.6 0.24            138           91.9  84 
 PTB  HZ EP       1548 18.40                             132   -0.1610  101 323 
 PTB  HN ES       1548 33.49                             132   -0.2410  101 323 
 PTB  HZ I        1548 37.25         4.8 0.34            133            101 323 
 NOR  HZ EP       1548 19.04                             130   -0.3310  110 256 
 NOR  HE ES       1548 34.85                             130   -0.3310  110 256 
 NOR  HZ I        1548 36.93        13.7 0.14            132            110 256 
 CHI  HE ES       1548 39.13                             125   -0.6510  131 171 
 GUY2CHZ EP       1548 26.60                             116    0.11 9  174 248 
 GUY2CHE ES       1548 48.59                             116    0.74 9  174 248 
 GUY2CHZ I        1548 53.79         3.4 0.26                           174 248 
 PRA  HE ES       1549  3.63                             106    0.20 8  255 205 
                                                                                
