 2012  629 1958 55.2 L   6.799 -73.140140.5  RSN 10 0.4 2.0LRSN                1
 GAP=137        0.83       3.2     4.0  6.4 -0.6197E+00  0.9332E+01  0.2223E+01E
 Epicentro: LOS SANTOS - SANTANDER                                             3
 ACTION:UPD 12-08-06 17:53 OP:ep   STATUS:               ID:20120629195855 L   I
 2012-06-29-1956-46M.COL___190                                                 6
 STAT SP IPHASW D HRMM SECON CODA AMPLIT PERI AZIMU VELO AIN AR TRES W  DIS CAZ7
 BAR2 SZ EP   1   1959 14.16                             170   -0.04 7 23.4 191 
 BAR2 SZ I        1959 14.89        21.7 0.22                          23.4 191 
 BAR2 SZ ES   1   1959 28.47                             170   -0.54 7 23.4 191 
 BRR  HZ EP       1959 16.10                             151    0.2910 71.7 298 
 BRR  HZ I        1959 17.63        39.0 0.15                          71.7 298 
 BRR  HN ES   1   1959 32.87                             151    0.98 7 71.7 298 
 PAM  SZ EP   1   1959 17.19                             150    0.35 7 77.1  39 
 PAM  SN ES   1   1959 33.70                             150   -0.01 7 77.1  39 
 PAM  SZ I        1959 35.58         7.0 0.15                          77.1  39 
 RUS  HZ EP   1   1959 18.46                             143    0.03 7  100 176 
 RUS  HN ES       1959 36.50                             143   -0.0410  100 176 
 RUS  HZ I        1959 38.80        11.1 0.38                           100 176 
 PTB  HZ EP   1   1959 21.05                             131   -0.74 7  148 259 
 PTB  HN ES   1   1959 41.93                             131   -0.60 7  148 259 
 PTB  HZ I        1959 44.58        19.6 0.13                           148 259 
 OCA  HN ES   1   1959 44.33                             128   -0.57 7  160 353 
 ZAR  HZ EP   1   1959 27.21                             121   -0.16 6  205 292 
 ZAR  HN ES   1   1959 52.64                             121    0.19 6  205 292 
 ZAR  HZ I        1959 58.81        17.0 0.28                           205 292 
 NOR  SZ EP   1   1959 31.13                             117    0.46 6  235 235 
 NOR  SN ES       1959 58.49                             117    0.15 8  235 235 
 CHI  HZ EP   1   1959 32.40                             116   -0.22 6  249 195 
 CHI  HN ES   1   20 0  2.09                             116    0.29 6  249 195 
 CHI  HZ I        20 0  5.46         3.4 0.20                           249 195 
 HEL  HN ES   1   20 0  6.23                             114   -0.19 6  273 256 
                                                                                
