 2013 1229 1854 25.1 L   6.770 -73.181140.3  RSN  8 0.4 2.2LRSN                1
 GAP=133        1.05       3.7     4.5  7.7 -0.3165E+01  0.8905E+01 -0.6333E+01E
 Epicentro: LOS SANTOS - SANTANDER                                             3
 ACTION:UPD 14-01-13 10:22 OP:ep   STATUS:               ID:20131229185425 L   I
 OLDACT:REG 13-12-29 14:46 OP:jn   STATUS:               ID:20131229185000     3
 2013-12-29-1850-00M.COL___285                                                 6
 STAT SP IPHASW D HRMM SECON CODA AMPLIT PERI AZIMU VELO AIN AR TRES W  DIS CAZ7
 BAR2 SZ IP     C 1854 44.04                             172    0.0710 19.6 180 
 BAR2 SZ ES       1854 59.09                             172    0.3810 19.6 180 
 BAR2 SZ I        1855  0.15        75.9 0.26            174           19.6 180 
 BRR  HZ EP       1854 46.15                             152    0.6210 69.5 302 
 BRR  HN ES   2   1855  2.01                             152    0.52 5 69.5 302 
 BRR  HZ I        1855  4.05        31.2 0.18            151           69.5 302 
 PAM  SZ EP     D 1854 47.19                             148    0.1710 82.4  40 
 PAM  SN ES       1855  4.03                             148   -0.1110 82.4  40 
 PAM  SZ I        1855  6.66        24.7 0.44            150           82.4  40 
 RUS  HZ EP     D 1854 47.78                             143   -0.2910 97.6 174 
 RUS  HN ES       1855  5.81                             143   -0.1910 97.6 174 
 RUS  HZ I        1855  7.82        20.6 0.34            148           97.6 174 
 PTB  HZ EP       1854 51.02                             132   -0.17 9  143 260 
 PTB  HN ES       1855 10.77                             132   -0.79 9  143 260 
 PTB  HZ I        1855 12.84        22.3 0.10            133            143 260 
 SPBC HN ES       1855 14.35                             129    0.16 9  158 219 
 SPBC HZ I        1855 16.93        25.7 0.46            131            158 219 
 OCA  HZ EP       1854 53.51                             128    0.27 9  163 355 
 OCA  HN ES       1855 14.42                             128   -0.79 9  163 355 
 OCA  HZ I        1855 20.80        14.7 0.22            129            163 355 
 ZAR  HN ES       1855 22.25                             121    0.48 9  202 293 
 ZAR  HZ I        1855 28.76        22.8 0.34            122            202 293 
                                                                                
