 2017 1029 1214 50.7 L   7.307 -73.482111.2  RSN  5 0.4 1.2LRSN                1
 GAP=170        1.04       7.2     3.8  9.0 -0.3860E+01  0.1237E+02 -0.2146E+02E
 Epicentro: SABANA DE TORRES - SANTANDER                                       3
 ACTION:UPD 17-11-07 19:38 OP:rebc STATUS:               ID:20171029121450 L   I
 OLDACT:UP  17-10-29 21:59 OP:dani STATUS:               ID:20171029120740     3
 OLDACT:REG 17-10-29 20:03 OP:dani STATUS:               ID:20171029120740     3
 2017-10-29-1208-00M.COL___423                                                 6
 STAT SP IPHASW D HRMM SECON CODA AMPLIT PERI AZIMU VELO AIN AR TRES W  DIS CAZ7
 BRR  HZ EP       1215  6.02                             162   -0.1610 33.7 229 
 BRR  HN ES       1215 18.10                             162   -0.1510 33.7 229 
 BRR  HZ I        1215 23.33         4.8 0.33            163           33.7 229 
 BAR2 EZ ES       1215 25.12                             140    0.6510 85.7 157 
 PAM  EZ EP       1215 10.36                             140    0.2810 86.5  88 
 PAM  EN ES       1215 24.78                             140   -0.4210 86.5  88 
 PAM  EZ I        1215 25.49         3.5 0.13            148           86.5  88 
 PTB  HZ EP       1215 13.90                             125   -0.13 9  137 232 
 PTB  HN ES       1215 31.69                             125   -0.53 9  137 232 
 PTB  HZ I        1215 34.45         1.3 0.18            130            137 232 
 ZAR  HZ EP       1215 15.51                             122   -0.16 9  153 278 
 ZAR  HE ES       1215 35.77                             122    0.63 9  153 278 
 ZAR  HZ I        1215 39.36         3.7 0.21            125            153 278 
                                                                                
