 2016  129 1418 52.6 L   7.213 -73.214141.3  RSN  5 0.5 1.7LRSN                1
 GAP=104        1.06       4.3     6.3  9.8 -0.2560E+01  0.2660E+02 -0.7838E+01E
 Epicentro: RIONEGRO - SANTANDER                                               3
 ACTION:UPD 16-03-09 23:29 OP:cam  STATUS:               ID:20160129141853dL   I
 OLDACT:UP  16-01-29 23:20 OP:ak   STATUS:               ID:20160129140008     3
 OLDACT:REG 16-01-29 20:49 OP:ak   STATUS:               ID:20160129140008     3
 2016-01-29-1410-00M.COL___412                                                 6
 STAT SP IPHASW D HRMM SECON CODA AMPLIT PERI AZIMU VELO AIN AR TRES W  DIS CAZ7
 PAM  EZ EP       1419 12.94                             157   -0.3310 58.5  76 
 PAM  EN ES       1419 29.30                             157   -0.1210 58.5  76 
 PAM  EZ I        1419 30.37         7.7 0.26            163           58.5  76 
 BAR2 EZ EP       1419 13.02                             153   -0.4210 68.8 177 
 BAR2 EZ ES       1419 30.22                             153    0.4910 68.8 177 
 BAR2 EZ I        1419 32.44         8.1 0.42            156           68.8 177 
 PTB  HZ EP   2   1419 19.88                             129   -0.08 5  156 242 
 PTB  HE ES       1419 40.71                             129   -0.61 9  156 242 
 PTB  HZ I        1419 46.22         4.1 0.19            131            156 242 
 SML  HZ EP       1419 24.35                             122    0.13 9  199 332 
 SML  HN ES       1419 49.45                             122    0.54 9  199 332 
 SML  HZ I        1419 53.87         7.8 0.13            124            199 332 
 CHI  HN ES       1420  8.50                             112    0.80 7  291 191 
                                                                                
