 2017  829 1016 32.3 L   6.882 -73.126147.7  RSN 25 0.7 2.5LRSN                1
 GAP= 65        1.41       3.2     3.6  5.9 -0.1028E+01  0.5531E+01  0.1033E+01E
 Epicentro: LOS SANTOS - SANTANDER                                             3
 ACTION:UPD 17-09-04 20:26 OP:rebc STATUS:               ID:20170829101632 L   I
 OLDACT:UP  17-08-29 21:38 OP:dhb  STATUS:               ID:20170829100746d    3
 OLDACT:DUP 17-08-29 21:22 OP:dhb  STATUS:               ID:20170829100746d    3
 OLDACT:REG 17-08-29 20:22 OP:dhb  STATUS:               ID:20170829100745     3
 2017-08-29-1008-00M.COL___417                                                 6
 STAT SP IPHASW D HRMM SECON CODA AMPLIT PERI AZIMU VELO AIN AR TRES W  DIS CAZ7
 BAR2 EZ IP     D 1016 52.33                             167   -0.0910 32.6 191 
 BAR2 EZ ES       1017  7.15                             167   -0.9310 32.6 191 
 BAR2 EZ I        1017  8.50        58.8 0.13            166           32.6 191 
 PAM  EZ IP     D 1016 55.27                             154    0.9710 69.2  43 
 PAM  EN ES       1017 12.02                             154    0.6010 69.2  43 
 PAM  EZ I        1017 12.65        30.8 0.22            157           69.2  43 
 BRR  HZ IP     C 1016 54.15                             153    0.5610 69.3 291 
 BRR  HN ES       1017 10.83                             153    0.6610 69.3 291 
 BRR  HZ I        1017 14.63        60.5 0.14            151           69.3 291 
 RUS  HZ EP       1016 56.62                             142   -0.3110  110 177 
 RUS  HN ES       1017 15.30                             142   -0.8210  110 177 
 RUS  HZ I        1017 16.40        17.3 0.23            142            110 177 
 TAM  HZ IP     D 1017  0.78                             131    0.56 9  156 108 
 TAM  HN ES       1017 22.18                             131    0.21 9  156 108 
 TAM  HZ I        1017 22.83        18.4 0.16            133            156 108 
 SPBC HZ EP       1017  1.34                             128   -0.45 9  172 218 
 SPBC HN ES       1017 24.50                             128   -0.26 9  172 218 
 SPBC HZ I        1017 30.75        41.8 0.22            127            172 218 
 YPLC HZ EP       1017  2.94                             126   -0.02 9  184 153 
 YPLC HN ES       1017 26.42                             126   -0.43 9  184 153 
 YPLC HZ I        1017 29.72        32.9 0.45            127            184 153 
 ZAR  HZ EP       1017  5.11                             123    0.33 9  203 290 
 ZAR  HN ES       1017 30.84                             123    0.75 9  203 290 
 ZAR  HZ I        1017 36.24        52.8 0.23            122            203 290 
 TABC EZ EP   2   1017 10.13                             119    0.98 4  239 210 
 TABC EZ ES       1017 39.38                             119    1.52 8  239 210 
 TABC EZ I        1017 42.33        30.0 0.72            119            239 210 
 NOR  HZ EP       1017  8.79                             118   -0.15 8  242 233 
 NOR  HN ES       1017 37.26                             118   -0.23 8  242 233 
 NOR  HZ I        1017 42.34        22.3 0.17            118            242 233 
 CHI  HZ EP       1017 10.84                             117   -0.32 8  258 195 
 CHI  HN ES       1017 40.97                             117   -0.46 8  258 195 
 CHI  HZ I        1017 44.12         7.4 0.32            117            258 195 
 ROSC BZ EP   9   1017 12.93                             116    1.40 0  262 210 
 ROSC BN ES       1017 43.52                                    0.02 8  262 210 
 ROSC BZ I        1017 49.33        33.5 0.35            116            262 210 
 HEL  HZ EP   9   1017 14.49                             115    1.35 0  276 254 
 HEL  HE ES       1017 45.92                                   -0.39 7  276 254 
 HEL  HZ I        1017 53.00        12.9 0.25            114            276 254 
 URE  HZ EP   9   1017 12.48                             114   -0.88 0  283 290 
 URE  HE ES       1017 44.59                                    0.11 7  283 290 
 URE  HZ I        1017 45.45        27.1 0.15            114            283 290 
 GUY2CHZ EP       1017 17.60                             112    0.77 7  308 234 
 GUY2CHE ES       1017 52.42                             112    0.89 7  308 234 
 GUY2CHZ I        1017 59.83        15.6 0.38                           308 234 
 VIL  EZ EP   1   1017 16.50                             112   -0.40 5  313 192 
 VIL  EN ES   1   1017 51.25                             112   -0.40 5  313 192 
 VIL  EZ I        1017 55.44        17.4 0.23            112            313 192 
 LL6C HZ IP     D 1017 17.09                             111   -0.01 7  316 357 
 LL6C HE ES       1017 50.24                             111   -1.78 7  316 357 
 LL6C HZ I        1018  1.33         5.1 0.35            112            316 357 
 ELA  HZ EP       1017 20.64                             110    0.50 7  337 229 
 ELA  HN ES       1017 56.22                             110   -1.19 7  337 229 
 ELA  HZ I        1018  6.48         9.4 0.53            110            337 229 
 DBB  EZ EP       1017 20.22                             110    0.14 7  341 273 
 DBB  EN ES   1   1017 56.55                             110   -0.76 5  341 273 
 DBB  EZ I        1018  3.97         5.2 0.14            110            341 273 
 ANIL HE ES       1018  2.57                             108   -0.20 6  365 224 
 ANIL HZ I        1018 10.83        30.1 0.37            108            365 224 
 PRA  HZ EP       1017 26.61                             106   -0.36 6  401 209 
 PRA  HE ES       1018  8.58                             106   -1.00 6  401 209 
 PRA  HZ I        1018 14.40        17.6 0.43            107            401 209 
 SJC  HZ IP     D 1017 27.06                             106   -0.16 6  403 326 
 SJC  HE ES       1018  8.32                             106   -1.70 6  403 326 
 SJC  HZ I        1018 11.71         9.1 0.36            107            403 326 
 ORTC HZ EP       1017 27.49                             106    0.16 6  404 216 
 ORTC HE ES       1018 10.61                             106    0.39 6  404 216 
 ORTC HZ I        1018 15.87         8.7 0.07            106            404 216 
 PAL  HZ IP     D 1017 28.60                             106    0.27 6  412 238 
 PAL  HE ES       1018 11.72                             106   -0.28 6  412 238 
 PAL  HZ I        1018 16.92         4.6 0.10            106            412 238 
 MACC HZ EP   4   1017 39.73                             102   -2.48 0  530 189 
 MACC HE ES   4   1018 32.93                             102   -3.77 0  530 189 
 MACC HZ I        1018 38.90         4.2 0.57            102            530 189 
                                                                                
