 2013  929 1600 56.7 L   6.801 -73.146149.7  RSN 15 0.5 2.5LRSN                1
 GAP=136        1.15       3.1     4.8  5.7 -0.1717E+01  0.7563E+01  0.1729E+01E
 Epicentro: LOS SANTOS - SANTANDER                                             3
 ACTION:UPD 13-10-22 09:25 OP:ep   STATUS:               ID:20130929160056 L   I
 OLDACT:REG 13-09-29 14:54 OP:jn   STATUS:               ID:20130929155959     3
 2013-09-29-1559-59M.COL___272                                                 6
 STAT SP IPHASW D HRMM SECON CODA AMPLIT PERI AZIMU VELO AIN AR TRES W  DIS CAZ7
 BAR2 SZ EP       16 1 16.84                             171    0.0810 23.5 190 
 BAR2 SZ ES       16 1 32.17                             171   -0.2810 23.5 190 
 BAR2 SZ I        16 1 34.55        62.4 0.32            165           23.5 190 
 BRR  HZ IP     C 16 1 18.69                             153    0.4710 71.1 298 
 BRR  HE ES       16 1 36.14                             153    1.0910 71.1 298 
 BRR  HZ I        16 1 40.24        42.6 0.30            145           71.1 298 
 PAM  SZ EP       16 1 19.62                             152    0.3410 77.3  40 
 PAM  SN ES       16 1 37.19                             152    0.2510 77.3  40 
 PAM  SZ I        16 1 39.37        29.4 0.52            150           77.3  40 
 RUS  HZ EP       16 1 20.67                             145   -0.1310  101 176 
 RUS  HN ES       16 1 38.80                             145   -0.8410  101 176 
 RUS  HZ I        16 1 40.68        37.5 0.26            138            101 176 
 PTB  HZ EP       16 1 23.65                             133   -0.30 9  148 259 
 PTB  HN ES       16 1 44.83                             133   -0.40 9  148 259 
 PTB  HZ I        16 1 50.75        42.3 0.18            124            148 259 
 OCA  HZ EP   1   16 1 24.90                             131   -0.36 7  160 353 
 OCA  HN ES   1   16 1 47.10                             131   -0.47 7  160 353 
 OCA  HZ I        16 1 51.79        45.0 0.28            124            160 353 
 SPBC HZ EP       16 1 25.79                             130    0.32 9  163 219 
 SPBC HN ES   1   16 1 48.03                             130    0.09 7  163 219 
 SPBC HZ I        16 1 51.89        66.5 0.24            122            163 219 
 ZAR  HZ EP       16 1 28.29                             123   -1.06 9  204 292 
 ZAR  HE ES   1   16 1 55.16                             123    0.31 6  204 292 
 ZAR  HZ I        16 2  1.08        46.3 0.34            116            204 292 
 NOR  HZ EP       16 1 32.74                             119    0.12 8  235 234 
 NOR  HE ES       16 2  0.55                             119   -0.13 8  235 234 
 NOR  HZ I        16 2  6.18        34.2 0.28            112            235 234 
 SML  HZ EP       16 1 33.48                             118   -0.01 8  244 335 
 SML  HN ES       16 2  1.50                             118   -0.72 8  244 335 
 CHI  HZ EP       16 1 34.83                             118    0.24 8  249 195 
 CHI  HN ES       16 2  4.43                             118    0.25 8  249 195 
 CHI  HZ I        16 2 14.25        12.2 0.32            112            249 195 
 HEL  HZ EP   1   16 1 38.07                             116    1.00 6  272 256 
 HEL  HZ I        16 2 17.19        14.7 0.54            109            272 256 
 GUY2CHZ EP   1   16 1 41.27                             113    0.82 5  301 235 
 GUY2CHZ I        16 2 23.58        16.1 0.26                           301 235 
 PRA  HZ EP       16 1 50.38                             107    0.06 6  392 210 
 PRA  HN ES       16 2 31.92                             107   -0.27 6  392 210 
 PRA  HZ I        16 2 37.56        13.8 0.52            102            392 210 
 ORTC HZ EP   1   16 1 50.87                             107    0.15 4  396 216 
 ORTC HZ I        16 2 39.85        10.5 0.40            102            396 216 
                                                                                
