 2011  529 1527 51.7 L   6.791 -72.997134.0  RSN  5 0.5 1.4LRSN                1
 GAP=175        0.96       6.2    12.0 13.1 -0.1022E+02 -0.4883E+02 -0.9176E+01E
 Epicentro: CEPITA - SANTANDER                                                 3
 ACTION:UP  11-06-29 08:57 OP:tino STATUS:               ID:20110529152751 L   I
 2011-05-29-1526-41S.COL___113                                                 6
 STAT SP IPHASW D HRMM SECON CODA AMPLIT PERI AZIMU VELO SNR AR TRES W  DIS CAZ7
 BAR2 SZ EP   2   1528  9.48                             167    -0.6 5   30 223 
 BAR2 SZ ES   2   1528 24.47                             167     0.1 5   30 223 
 BAR2 SZ I        1528 28.51         9.0 0.55                            30 223 
 BRR  HZ EP   1   1528 11.80                             145    -0.8 7   86 294 
 BRR  HZ I        1528 15.99         6.5 0.09                            86 294 
 BRR  HN ES   1   1528 29.14                             145     0.3 7   86 294 
 RUS  HZ EP   2   1528 14.38                             142     0.1 5  100 185 
 RUS  HN ES   2   1528 32.23                             142     0.4 5  100 185 
 RUS  HZ I        1528 34.45         3.5 0.31                           100 185 
 GRA  SZ EP   1   1528 16.07                             135     0.4 7  123  10 
 GRA  SZ ES   1   1528 33.93                             135    -0.4 7  123  10 
 GRA  SZ I        1528 38.11         2.8 0.54                           123  10 
 OCA  SZ EP   2   1528 20.25                             126     0.8 5  164 348 
 OCA  SZ ES   2   1528 41.59                             126     0.4 5  164 348 
 OCA  SZ I        1528 51.59         4.9 0.35                           164 348 
                                                                                
