 2015 1229 1256 41.9 L   7.570 -73.066148.0  RSN 10 0.5 2.3LRSN                1
 GAP=220        1.12       4.1     6.1  8.6  0.3748E+01  0.7284E+00 -0.2229E+01E
 Epicentro: EL PLAYON - SANTANDER                                              3
 ACTION:UPD 16-02-04 15:08 OP:cam  STATUS:               ID:20151229125641 L   I
 OLDACT:REG 15-12-29 20:37 OP:dnl  STATUS:               ID:20151229124750     3
 2015-12-29-1247-50M.COL___337                                                 6
 STAT SP IPHASW D HRMM SECON CODA AMPLIT PERI AZIMU VELO AIN AR TRES W  DIS CAZ7
 BRR  HZ EP   2   1257  4.63                             148    0.38 5 87.8 234 
 BRR  HE ES       1257 22.39                             148    0.6710 87.8 234 
 BRR  HZ I        1257 25.27        32.9 0.32            145           87.8 234 
 BAR2 EZ EP     C 1257  5.94                             142   -0.1410  109 187 
 BAR2 EZ ES       1257 24.89                             142   -0.0910  109 187 
 BAR2 EZ I        1257 26.89        31.1 0.22            142            109 187 
 SML  HZ EP       1257 12.02                             127    0.44 9  175 321 
 SML  HE ES       1257 34.33                             127   -0.43 9  175 321 
 SML  HZ I        1257 39.36        28.2 0.09            128            175 321 
 RUS  HZ EP       1257 13.03                             126   -0.19 9  186 181 
 RUS  HN ES   2   1257 36.67                             126   -1.01 4  186 181 
 RUS  HZ I        1257 38.56        11.8 0.31            127            186 181 
 PTB  HZ EP       1257 12.58                             125   -0.58 9  191 234 
 PTB  HN ES       1257 36.55                             125   -1.02 9  191 234 
 PTB  HZ I        1257 41.72        14.4 0.16            124            191 234 
 ZAR  HZ EP       1257 14.10                             124    0.28 9  198 268 
 ZAR  HE ES       1257 38.93                             124    0.17 9  198 268 
 ZAR  HZ I        1257 41.58        20.9 0.13            123            198 268 
 SPBC HZ EP   2   1257 18.37                             118    0.09 4  240 208 
 SPBC HN ES       1257 47.36                             118    0.67 8  240 208 
 SPBC HZ I        1257 54.54        10.8 0.12            119            240 208 
 NOR  HZ EP   2   1257 25.78                             113    1.07 4  298 222 
 NOR  HE ES       1257 58.10                             113   -0.03 7  298 222 
 NOR  HZ I        1258  5.09        11.8 0.14            113            298 222 
 HEL  HZ EP   4   1257 28.12                             112    1.47 0  312 241 
 HEL  HE ES       1258  1.07                             112   -0.52 7  312 241 
 HEL  HZ I        1258  7.14         6.0 0.25            112            312 241 
 GUY2CHZ EP   4   1257 35.23                             109    2.58 0  363 225 
 GUY2CHE ES       1258 13.14                             109    0.86 6  363 225 
 GUY2CHZ I        1258 22.28         7.4 0.42                           363 225 
                                                                                
