 2011  929 1257  2.4 L   6.757 -73.115147.1  RSN  7 0.2 1.8LRSN                1
 GAP=142        0.41       4.0     5.8  4.4  0.7521E+01 -0.8080E+00 -0.2691E+01E
 Epicentro: LOS SANTOS - SANTANDER                                             3
 ACTION:UPD 12-07-13 16:00 OP:ep   STATUS:               ID:20110929125702 L   I
 2011-09-29-1255-47S.COL___168                                                 6
 STAT SP IPHASW D HRMM SECON CODA AMPLIT PERI AZIMU VELO AIN AR TRES W  DIS CAZ7
 BAR2 SZ EP       1257 22.02                             172   -0.1410 19.7 202 
 BAR2 SZ ES   1   1257 37.54                             172    0.00 7 19.7 202 
 BAR2 SZ I        1257 38.78        25.0 0.22                          19.7 202 
 BTL  SZ EP   2   1257 22.53                             170    0.28 5 24.6 317 
 BRR  HZ EP       1257 23.92                             151   -0.1110 76.5 300 
 BRR  HZ I        1257 24.21        22.5 0.10                          76.5 300 
 BRR  HN ES   2   1257 41.13                             151    0.25 5 76.5 300 
 PAM  SZ EP   1   1257 24.89                             150    0.00 7 79.1  35 
 RUS  HZ EP   1   1257 26.33                             145    0.36 7 95.6 178 
 RUS  HN ES   2   1257 44.06                             145   -0.26 5 95.6 178 
 RUS  HZ I        1257 45.87         6.9 0.36                          95.6 178 
 ZAR  HZ EP   2   1257 35.54                             122    0.06 4  209 293 
 ZAR  HZ I        1258  6.98         5.3 0.26                           209 293 
 CHI  HZ EP   2   1257 39.67                             118   -0.14 4  245 196 
 CHI  HZ I        1257 41.01         2.2 0.24                           245 196 
                                                                                
