 2017 1029 1343 35.6 L   6.749 -73.123142.3  RSN  4 0.1 1.0LRSN                1
 GAP=142        0.44       2.3     3.5  3.6 -0.9287E-01 -0.8382E+00  0.2035E+00E
 Epicentro: LOS SANTOS - SANTANDER                                             3
 ACTION:UPD 17-11-07 19:38 OP:rebc STATUS:               ID:20171029134335 L   I
 OLDACT:REG 17-10-29 20:09 OP:dani STATUS:               ID:20171029133745     3
 2017-10-29-1338-00M.COL___438                                                 6
 STAT SP IPHASW D HRMM SECON CODA AMPLIT PERI AZIMU VELO AIN AR TRES W  DIS CAZ7
 BAR2 EZ EP       1343 54.75                             172   -0.0010 18.6 201 
 BAR2 EZ ES       1344  9.74                             172    0.0710 18.6 201 
 BRR  HZ EP       1343 56.53                             150   -0.1710 76.2 301 
 BRR  HN ES       1344 13.20                             150    0.0710 76.2 301 
 PAM  EZ EP       1343 57.58                             149   -0.0810 80.3  36 
 PAM  EN ES       1344 14.86                             149    0.0210 80.3  36 
 PAM  EZ I        1344 16.97         1.9 0.42            149           80.3  36 
 RUS  HZ EP       1343 58.90                             145    0.2710 94.8 177 
 RUS  HN ES       1344 16.37                             145   -0.1910 94.8 177 
 RUS  HZ I        1344 18.00         1.8 0.26            146           94.8 177 
                                                                                
