 2015  529 1344 28.7 L   6.782 -73.106150.0  RSN  4 0.1 1.5LRSN                1
 GAP=240        0.35       4.9     5.6  3.8  0.2264E+02 -0.3742E+01 -0.3421E+01E
 Epicentro: LOS SANTOS - SANTANDER                                             3
 ACTION:UPD 15-09-10 22:07 OP:cam  STATUS:               ID:20150529134428 L   I
 OLDACT:DUP 15-05-30 01:26 OP:spq  STATUS:               ID:20150529133750d    3
 2015-05-29-1337-49M.COL___309                                                 6
 STAT SP IPHASW D HRMM SECON CODA AMPLIT PERI AZIMU VELO AIN AR TRES W  DIS CAZ7
 BAR2 EZ EP       1344 48.76                             171   -0.0510 22.7 202 
 BAR2 EZ ES   1   1345  4.49                             171   -0.02 7 22.7 202 
 BAR2 EZ I        1345  6.22         4.5 0.09            164           22.7 202 
 BRR  HZ EP       1344 50.48                             152   -0.0810 76.0 298 
 BRR  HE ES       1345  7.74                             152    0.1110 76.0 298 
 BRR  HZ I        1345 11.39        11.9 0.46            148           76.0 298 
 RUS  HZ EP   1   1344 52.91                             145    0.20 7 98.4 179 
 RUS  HN ES   1   1345 11.36                             145   -0.08 7 98.4 179 
 RUS  HZ I        1345 13.22         2.8 0.30            144           98.4 179 
 ZAR  HN ES   1   1345 27.73                             123   -0.08 6  209 292 
 ZAR  HZ I        1345 31.99         4.6 0.44            122            209 292 
                                                                                
