 2016  129 1015  7.5 L   6.860 -73.138142.0  RSN  8 0.3 1.4LRSN                1
 GAP=246        0.72       4.1     4.4  5.2  0.7587E+01  0.6163E+01  0.4548E+01E
 Epicentro: LOS SANTOS - SANTANDER                                             3
 ACTION:UPD 16-03-09 23:29 OP:cam  STATUS:               ID:20160129101507 L   I
 OLDACT:DUP 16-01-29 21:40 OP:ak   STATUS:               ID:20160129095949d    3
 OLDACT:UP  16-01-29 21:33 OP:ak   STATUS:               ID:20160129095948     3
 OLDACT:REG 16-01-29 20:26 OP:ak   STATUS:               ID:20160129095948     3
 2016-01-29-1010-00M.COL___405                                                 6
 STAT SP IPHASW D HRMM SECON CODA AMPLIT PERI AZIMU VELO AIN AR TRES W  DIS CAZ7
 BAR2 EZ EP       1015 27.01                             167    0.1310 30.0 189 
 BAR2 EZ ES       1015 42.28                             167    0.3210 30.0 189 
 BAR2 EZ I        1015 43.97         5.2 0.24            163           30.0 189 
 RUS  HZ EP       1015 30.77                             141   -0.6510  107 177 
 RUS  HN ES       1015 50.22                             141    0.1810  107 177 
 RUS  HZ I        1015 50.97         1.8 0.10            136            107 177 
 PTB  HZ EP       1015 34.39                             131   -0.03 9  150 256 
 PTB  HE ES       1015 55.18                             131   -0.19 9  150 256 
 PTB  HZ I        1016  1.05         2.2 0.38            124            150 256 
 SPBC HZ EP       1015 36.56                             127    0.25 9  169 218 
 SPBC HN ES   1   1015 58.50                             127   -0.24 7  169 218 
 SPBC HZ I        1016  5.08         7.8 0.10            121            169 218 
 ZAR  HN ES       1016  4.59                             122    0.02 9  202 290 
 ZAR  HZ I        1016 10.89         3.2 0.32            116            202 290 
 CHI  HZ EP       1015 45.46                             116   -0.30 8  255 195 
 CHI  HZ I        1016  8.39         0.7 0.16            111            255 195 
 CHI  HN ES       1016 15.50                             116   -0.07 8  255 195 
 GUY2CHZ EP   2   1015 52.43                             111    0.93 4  306 234 
 GUY2CHN ES   4   1016 27.78                             111    2.00 0  306 234 
 GUY2CHZ I        1016 33.97         1.7 0.42                           306 234 
 PRA  HZ EP   2   1016  1.96                             106    0.30 3  398 209 
 PRA  HN ES       1016 44.37                             106    0.50 6  398 209 
 PRA  HZ I        1016 48.63         1.1 0.28            102            398 209 
                                                                                
