 2012  129 1209 30.4 L   6.766 -73.095145.2  RSN  7 0.3 1.4LRSN                1
 GAP=145        0.72       5.4     7.9  7.6  0.3182E+01 -0.1926E+02  0.2653E+01E
 Epicentro: LOS SANTOS - SANTANDER                                             3
 ACTION:UP  12-02-03 08:22 OP:REBC STATUS:               ID:20120129120930 L   I
 2012-01-29-1207-59S.COL___188                                                 6
 STAT SP IPHASW D HRMM SECON CODA AMPLIT PERI AZIMU VELO SNR AR TRES W  DIS CAZ7
 BAR2 SZ EP       12 9 49.89                             171    -0.110   21 207 
 BAR2 SZ I        1210  6.40         5.3 0.36                            21 207 
 GIR2 SZ EP       12 9 49.65                             165    -0.510   36 343 
 GIR2 SZ ES   1   1210  5.66                             165     0.1 7   36 343 
 PAM  SZ EP       12 9 52.47                             151    -0.110   77  35 
 PAM  SE ES   3   1210  9.61                             151    -0.2 2   77  35 
 BRR  HZ EP       12 9 51.83                             150    -0.110   78 299 
 BRR  HN ES   1   1210  8.91                             150     0.3 7   78 299 
 BRR  HZ I        1210 12.75         7.7 0.12                            78 299 
 RUS  HZ EP       12 9 54.08                             145     0.310   97 179 
 RUS  HN ES   3   1210 12.39                             145     0.3 2   97 179 
 RUS  HZ I        1210 15.29         1.7 0.48                            97 179 
 PTB  HZ EP   3   12 9 57.29                             131    -0.5 2  153 261 
 PTB  HN ES   3   1210 18.03                             131    -1.1 2  153 261 
 PTB  HZ I        1210 24.98         4.5 0.42                           153 261 
 OCA  SZ EP       12 9 59.52                             129     0.4 9  165 351 
                                                                                
