 2016  629 1835 50.6 L   6.818 -73.141149.2  RSN 23 0.5 2.7LRSN                1
 GAP= 67        1.10       3.5     2.8  5.1 -0.3498E+00  0.3302E+01  0.5711E+01E
 Epicentro: LOS SANTOS - SANTANDER                                             3
 ACTION:UPD 16-07-21 22:24 OP:rebc STATUS:               ID:20160629183550 L   I
 OLDACT:UP  16-06-30 00:48 OP:ar   STATUS:               ID:20160629182944     3
 OLDACT:UP  16-06-30 00:45 OP:ar   STATUS:               ID:20160629182944     3
 OLDACT:REG 16-06-30 00:35 OP:ar   STATUS:               ID:20160629182944     3
 2016-06-29-1829-44M.COL___355                                                 6
 STAT SP IPHASW D HRMM SECON CODA AMPLIT PERI AZIMU VELO AIN AR TRES W  DIS CAZ7
 BAR2 EZ EP       1836 10.41                             170   -0.2210 25.3 190 
 BAR2 EZ ES       1836 25.57                             170   -0.7210 25.3 190 
 BAR2 EZ I        1836 27.02        84.8 0.22                          25.3 190 
 BRR  HZ EP       1836 12.29                             153    0.2510 70.7 297 
 BRR  HN ES       1836 29.37                             153    0.5710 70.7 297 
 BRR  HZ I        1836 32.34        61.8 0.26                          70.7 297 
 PAM  EZ EP       1836 13.40                             152    0.3710 75.6  40 
 PAM  EN ES       1836 30.92                             152    0.3710 75.6  40 
 PAM  EZ I        1836 33.17        39.5 0.22                          75.6  40 
 RUS  HZ EP       1836 14.44                             144   -0.3410  103 176 
 RUS  HN ES       1836 33.50                             144   -0.1710  103 176 
 RUS  HZ I        1836 34.00        24.2 0.20                           103 176 
 PTB  HZ EP       1836 17.10                             132   -0.78 9  149 258 
 PTB  HN ES       1836 38.28                             132   -0.91 9  149 258 
 PTB  HZ I        1836 45.55        36.9 0.20                           149 258 
 TAM  HZ EP       1836 18.86                             131    0.35 9  155 106 
 TAM  HN ES       1836 40.55                             131    0.24 9  155 106 
 TAM  HZ I        1837 13.35        63.3 0.36                           155 106 
 SPBC HZ EP       1836 19.53                             129    0.04 9  165 219 
 SPBC HN ES       1836 42.45                             129    0.40 9  165 219 
 SPBC HZ I        1836 49.31        61.4 0.22                           165 219 
 ZAR  HZ EP   4   1836 23.88                             123    0.69 0  204 292 
 ZAR  HN ES       1836 48.35                             123   -0.30 9  204 292 
 ZAR  HZ I        1836 53.55        42.3 0.26                           204 292 
 NOR  HZ EP       1836 26.54                             119   -0.10 8  236 234 
 NOR  HN ES       1836 55.32                             119    0.53 8  236 234 
 NOR  HZ I        1837  3.75        19.3 0.36                           236 234 
 CHI  HZ EP       1836 28.89                             117    0.23 8  251 195 
 CHI  HN ES       1836 58.14                             117   -0.24 8  251 195 
 CHI  HZ I        1837  1.64        22.3 0.46                           251 195 
 ROSC BZ EP   4   1836 31.05                             117    1.98 0  255 211 
 ROSC BE ES       1836 59.77                             117    0.66 8  255 211 
 ROSC BZ I        1837  5.01        63.4 0.40                           255 211 
 HEL  HZ EP   4   1836 32.75                             115    1.70 0  273 255 
 HEL  HN ES       1837  2.91                             115    0.28 8  273 255 
 HEL  HZ I        1837  8.48        17.0 0.30                           273 255 
 URE  HN ES   4   1837  1.20                             114   -2.70 0  284 292 
 URE  HZ I        1837  8.65        16.7 0.14                           284 292 
 GUY2CHZ EP   4   1836 35.33                             113    0.84 0  303 235 
 GUY2CHN ES   4   1837 13.10                             113    4.34 0  303 235 
 GUY2CHZ I        1837 16.63        23.0 0.34                           303 235 
 VIL  SZ EP       1836 34.07                             112   -0.28 7  305 192 
 VIL  SN ES   4   1837  7.98                             112   -0.54 0  305 192 
 PTGC HZ EP       1836 33.82                             112   -0.93 7  310 159 
 PTGC HN ES   4   1837  7.34                             112   -1.88 0  310 159 
 PTGC HZ I        1837 14.22        25.5 0.30                           310 159 
 CBOC HZ EP       1836 38.03                             110    0.30 7  335 252 
 CBOC HN ES       1837 15.34                             110    0.81 7  335 252 
 DBB  SZ EP       1836 38.52                             110    0.31 7  340 274 
 DBB  SZ ES       1837 14.71                             110   -0.67 7  340 274 
 DBB  SZ I        1837 18.26        42.5 0.26                           340 274 
 ANIL HZ EP   4   1836 43.12                             109    2.43 0  359 224 
 ANIL HN ES   4   1837 23.30                             109    3.51 0  359 224 
 ANIL HZ I        1837 30.35        50.0 0.36                           359 224 
 PRA  HZ EP       1836 44.27                             107   -0.15 6  394 209 
 PRA  HN ES       1837 25.90                             107   -0.53 6  394 209 
 PRA  HZ I        1837 32.67        23.0 0.38                           394 209 
 ORTC HZ EP       1836 44.87                             107    0.06 6  397 216 
 ORTC HN ES       1837 28.21                             107    1.09 6  397 216 
 ORTC HZ I        1837 31.80        14.0 0.26                           397 216 
 PAL  HZ EP       1836 45.94                             106   -0.05 6  407 239 
 PAL  HN ES   4   1837 31.06                             106    1.83 0  407 239 
 PAL  HZ I        1837 41.96         9.6 0.18                           407 239 
 CRJC HZ EP   9   1836 50.86                             104   -2.06 0  466   4 
 CRJC HZ I        1837 15.32         7.8 0.44                           466   4 
 CRJC HN ES       1837 38.60                             106   -0.90 5  466   4 
                                                                                
