 2012 1129 1100 28.9 L   6.808 -73.192141.1  RSN  7 0.3 1.8LRSN                1
 GAP=131        0.63       3.2     3.4  4.5 -0.3863E+00  0.6010E+01  0.8274E+00E
 Epicentro: ZAPATOCA - SANTANDER                                               3
 ACTION:UPD 12-12-05 15:37 OP:}ep  STATUS:               ID:20121129110028 L   I
 2012-11-29-1100-00M.COL___236                                                 6
 STAT SP IPHASW D HRMM SECON CODA AMPLIT PERI AZIMU VELO AIN AR TRES W  DIS CAZ7
 BAR2 SZ EP       11 0 48.12                             170    0.1210 23.9 178 
 BAR2 SZ ES       11 1  3.07                             170    0.1810 23.9 178 
 BAR2 SZ I        11 1  4.43        19.9 0.20                          23.9 178 
 PAM  SZ EP       11 0 51.03                             149    0.2210 80.1  43 
 PAM  SN ES       11 1  7.76                             149   -0.1210 80.1  43 
 PAM  SZ I        11 1 10.39         7.2 0.46                          80.1  43 
 RUS  HZ EP       11 0 52.10                             142   -0.2110  102 173 
 RUS  HE ES       11 1 10.37                             142   -0.1910  102 173 
 RUS  HE I        11 1 12.76         9.6 0.24                           102 173 
 PTB  HZ EP       11 0 54.63                             132   -0.44 9  143 258 
 PTB  HE ES   1   11 1 15.93                             132    0.46 7  143 258 
 PTB  HZ I        11 1 19.17         5.7 0.10                           143 258 
 ZAR  HZ EP   1   11 1  0.68                             122    0.14 6  199 292 
 ZAR  HN ES   1   11 1 24.90                             122   -0.31 6  199 292 
 ZAR  HZ I        11 1 32.21         4.7 0.36                           199 292 
 CHI  HZ EP   1   11 1  6.60                             116    0.29 6  248 194 
 PRA  HZ EP       11 1 22.48                             106    0.40 6  390 209 
 PRA  HZ I        11 2  8.75         2.3 0.34                           390 209 
                                                                                
