 2012 1229 1503 54.3 L   6.714 -73.180141.0  RSN  4 0.4 1.8LRSN                1
 GAP=227        0.86       8.0     8.9  8.7  0.3872E+02  0.1242E+02  0.8048E+01E
 Epicentro: VILLANUEVA - SANTANDER                                             3
 ACTION:UPD 13-01-04 14:31 OP:ep   STATUS:               ID:20121229150354 L   I
 2012-12-29-1500-00M.COL___242                                                 6
 STAT SP IPHASW D HRMM SECON CODA AMPLIT PERI AZIMU VELO AIN AR TRES W  DIS CAZ7
 BAR2 SZ ES   1   15 4 27.11                             174   -0.79 7 13.5 181 
 BAR2 SZ I        15 4 29.83        17.7 0.35                          13.5 181 
 BRR  HZ EP       15 4 14.90                             151   -0.1210 73.1 306 
 BRR  HE ES       15 4 31.63                             151    0.4310 73.1 306 
 BRR  HZ I        15 4 35.54        10.8 0.45                          73.1 306 
 RUS  HZ EP   1   15 4 17.15                             145    0.25 7 91.5 173 
 RUS  HN ES   1   15 4 34.94                             145    0.39 7 91.5 173 
 RUS  HN I        15 4 37.19        13.1 0.31                          91.5 173 
 PTB  HZ EP   1   15 4 20.10                             132   -0.27 7  142 262 
 PTB  HN ES   1   15 4 40.53                             132   -0.20 7  142 262 
 PTB  HZ I        15 4 44.02         5.2 0.24                           142 262 
                                                                                
