 2013  729 1057 17.9 L   6.764 -73.131152.9  RSN  5 0.4 2.0LRSN                1
 GAP=208        0.97       7.0     9.6  8.0  0.2187E+01  0.9398E+01 -0.1645E+02E
 Epicentro: LOS SANTOS - SANTANDER                                             3
 ACTION:UPD 13-08-12 10:40 OP:ep   STATUS:               ID:20130729105717 L   I
 OLDACT:UP  13-07-29 16:19 OP:cam  STATUS:               ID:20130729104959     3
 OLDACT:REG 13-07-29 14:39 OP:cam  STATUS:               ID:20130729104959     3
 2013-07-29-1049-59M.COL___268                                                 6
 STAT SP IPHASW D HRMM SECON CODA AMPLIT PERI AZIMU VELO AIN AR TRES W  DIS CAZ7
 BAR2 SZ EP   1   1057 38.56                             172    0.27 7 19.8 197 
 BAR2 SZ ES   1   1057 53.63                             172   -0.60 7 19.8 197 
 GIR2 SZ ES   1   1057 54.29                             166   -0.32 7 35.5 349 
 BRR  HZ EP       1057 40.50                             153    0.5210 74.6 301 
 BRR  HN ES       1057 57.82                             153    0.5910 74.6 301 
 PTB  HZ EP   1   1057 45.13                             133   -0.37 7  149 260 
 PTB  HN ES   1   1058  6.63                             133   -0.43 7  149 260 
 PTB  HZ I        1058  9.42         9.7 0.10            131            149 260 
 SML  HZ EP       1057 55.13                             118   -0.24 8  248 335 
 SML  HN ES       1058 24.28                             118   -0.34 8  248 335 
 SML  HZ I        1058 26.52         7.1 0.10            118            248 335 
                                                                                
