 2017  129 1744 39.5 L   6.847 -73.169151.0  RSN  4 0.4 1.3LRSN                1
 GAP=131        0.85       5.2     4.7  8.1 -0.5055E+01  0.4651E+01  0.3686E+01E
 Epicentro: ZAPATOCA - SANTANDER                                               3
 ACTION:UPD 17-05-22 16:04 OP:jn   STATUS:               ID:20170129174439 L   I
 OLDACT:REG 17-01-29 22:39 OP:dnl  STATUS:               ID:20170129173745     3
 2017-01-29-1738-00M.COL___348                                                 6
 STAT SP IPHASW D HRMM SECON CODA AMPLIT PERI AZIMU VELO AIN AR TRES W  DIS CAZ7
 BRR  HZ EP   2   1745  1.48                             155    0.47 5 66.5 296 
 BRR  HN ES       1745 18.24                             155    0.4810 66.5 296 
 BRR  HZ I        1745 20.38         5.8 0.48            158           66.5 296 
 PAM  EZ EP       1745  2.48                             152    0.2810 75.2  44 
 PAM  EE ES       1745 19.37                             152   -0.5010 75.2  44 
 PAM  EZ I        1745 22.37         5.2 0.20            156           75.2  44 
 RUS  HZ EP   2   1745  4.31                             143    0.11 5  106 175 
 RUS  HN ES       1745 23.55                             143    0.1110  106 175 
 RUS  HZ I        1745 27.47         1.0 0.28            145            106 175 
 PTB  HZ EP       1745  6.57                             133   -0.25 9  146 257 
 PTB  HN ES       1745 27.74                             133   -0.35 9  146 257 
 PTB  HZ I        1745 30.50         3.4 0.20            136            146 257 
                                                                                
