 2017 1029 1239 24.5 L   6.803 -73.169143.8  RSN 11 0.5 1.9LRSN                1
 GAP=102        1.14       4.1     3.6  6.2  0.1310E+01  0.2282E+01  0.3548E+01E
 Epicentro: LOS SANTOS - SANTANDER                                             3
 ACTION:UPD 17-11-07 19:38 OP:rebc STATUS:               ID:20171029123924 L   I
 OLDACT:UP  17-10-29 22:23 OP:dani STATUS:               ID:20171029123739d    3
 OLDACT:UP  17-10-29 22:23 OP:dani STATUS:               ID:20171029123739d    3
 OLDACT:UP  17-10-29 22:22 OP:dani STATUS:               ID:20171029123739d    3
 OLDACT:DUP 17-10-29 22:14 OP:dani STATUS:               ID:20171029123739d    3
 2017-10-29-1238-00M.COL___420                                                 6
 STAT SP IPHASW D HRMM SECON CODA AMPLIT PERI AZIMU VELO AIN AR TRES W  DIS CAZ7
 BAR2 EZ EP       1239 43.91                             170   -0.0310 23.4 184 
 BAR2 EZ ES       1239 58.13                             170   -0.9310 23.4 184 
 BAR2 EZ I        1240  1.72        23.7 0.30            167           23.4 184 
 BRR  HZ EP       1239 45.68                             153    0.3410 68.8 299 
 BRR  HN ES       1240  2.36                             153    0.7910 68.8 299 
 PAM  EZ EP       1239 46.70                             150    0.0610 78.8  41 
 PAM  EN ES       1240  3.86                             150   -0.0010 78.8  41 
 PAM  EZ I        1240  6.63        10.3 0.36            155           78.8  41 
 RUS  HZ EP       1239 47.96                             143   -0.1810  101 175 
 RUS  HE ES       1240  6.82                             143    0.2710  101 175 
 RUS  HZ I        1240  7.84         9.7 0.36            143            101 175 
 PTB  HZ EP       1239 50.41                             132   -0.72 9  145 259 
 PTB  HN ES       1240 11.43                             132   -0.43 9  145 259 
 PTB  HZ I        1240 13.32         5.7 0.38            131            145 259 
 TAM  HZ EP       1239 52.33                             130    0.02 9  158 105 
 SPBC HZ EP       1239 52.88                             129    0.12 9  162 218 
 SPBC HE ES       1240 15.66                             129    0.89 9  162 218 
 SPBC HZ I        1240 21.89        17.2 0.36            128            162 218 
 YPLC HZ EP       1239 54.39                             126    0.04 9  178 151 
 YPLC HN ES       1240 17.71                             126    0.12 9  178 151 
 YPLC HZ I        1240 19.48        14.6 0.37            127            178 151 
 ZAR  HZ EP       1239 56.38                             122   -0.22 9  202 292 
 ZAR  HE ES       1240 21.79                             122    0.18 9  202 292 
 ZAR  HZ I        1240 32.05         7.6 0.30            123            202 292 
 NOR  HZ EP       1240  0.07                             118    0.11 8  233 234 
 NOR  HN ES       1240 26.96                             118   -0.62 8  233 234 
 NOR  HZ I        1240 34.76         5.4 0.26            118            233 234 
 ROSC BZ EP   3   1240  4.15                             116    1.71 2  252 210 
 ROSC BN ES   4   1240 36.39                             116    4.38 0  252 210 
 ROSC BZ I        1240 42.08         8.1 0.07            117            252 210 
                                                                                
