 2017  829 1630 13.6 L   6.794 -73.113145.2  RSN  8 0.4 1.8LRSN                1
 GAP=240        1.01       4.4     5.6  6.5  0.4358E+01  0.9708E+01  0.2660E+01E
 Epicentro: LOS SANTOS - SANTANDER                                             3
 ACTION:UPD 17-09-04 20:26 OP:rebc STATUS:               ID:20170829163013 L   I
 OLDACT:REG 17-08-29 21:00 OP:dhb  STATUS:               ID:20170829162735     3
 2017-08-29-1628-00M.COL___417                                                 6
 STAT SP IPHASW D HRMM SECON CODA AMPLIT PERI AZIMU VELO AIN AR TRES W  DIS CAZ7
 BAR2 EZ IP     C 1630 33.09                             170   -0.0410 23.6 199 
 BAR2 EZ ES       1630 48.47                             170    0.0710 23.6 199 
 BAR2 EZ I        1630 50.49        20.8 0.25            167           23.6 199 
 BRR  HZ IP     D 1630 34.72                             151   -0.1310 74.7 298 
 BRR  HN ES       1630 51.89                             151    0.4310 74.7 298 
 BRR  HZ I        1630 58.79        16.4 0.24            149           74.7 298 
 RUS  HZ EP       1630 36.90                             144   -0.3010 99.7 178 
 RUS  HN ES       1630 55.68                             144    0.0510 99.7 178 
 RUS  HZ I        1630 56.97        10.4 0.31            146           99.7 178 
 SPBC HZ EP       1630 42.08                             129   -0.11 9  165 220 
 SPBC HE ES       1631  4.22                             129   -0.29 9  165 220 
 SPBC HZ I        1631  9.86         8.2 0.16            130            165 220 
 ZAR  HZ EP       1630 47.35                             122    1.01 8  208 292 
 ZAR  HE ES       1631 11.02                             122   -0.89 8  208 292 
 ZAR  HZ I        1631 16.44         6.9 0.57            123            208 292 
 NOR  HZ EP       1630 49.27                             118   -0.26 8  237 235 
 NOR  HE ES       1631 17.75                             118    0.16 8  237 235 
 NOR  HZ I        1631 21.60         3.2 0.10            120            237 235 
 GUY2CHZ EP   9   1630 59.94                             112    2.51 0  304 235 
 GUY2CHN ES       1631 34.10                                   -0.06 7  304 235 
 GUY2CHZ I        1631 40.75         1.9 0.37                           304 235 
 PRA  HE ES       1631 49.75                             106    0.71 6  393 210 
 PRA  HZ I        1631 53.30         2.9 0.46            108            393 210 
                                                                                
