 2010 1129 1452 26.8 L   6.488 -73.428125.1  RSN  4 0.3 1.4LRSN                1
 GAP=185        0.54      15.9    27.3 22.8  0.2934E+03 -0.2201E+03  0.7701E+02E
 Epicentro: SIMACOTA - SANTANDER                                               3
 ACTION:UP  10-12-17 16:55 OP:REBC STATUS:               ID:20101129145226 L   I
 2010-11-29-1451-17S.COL___132                                                 6
 STAT SP IPHASW D HRMM SECON CODA AMPLIT PERI AZIMU VELO SNR AR TRES W  DIS CAZ7
 BAR2 SZ EP   2   1452 44.63                             166     0.5 5   29  67 
 BAR2 SZ I        1452 55.48         8.1 0.58                            29  67 
 BTL  SZ EP   1   1452 44.75                             157    -0.2 7   51  20 
 BRR  HZ EP   2   1452 46.18                             147     0.2 5   75 335 
 BRR  HZ I        1452 46.47        11.2 0.32                            75 335 
 BRR  HE ES   2   1453  0.96                             147    -0.1 5   75 335 
 RUS  HZ EP   2   1452 46.62                             147    -0.2 5   76 150 
 RUS  HZ I        1453  8.15         2.2 0.43                            76 150 
                                                                                
