 2014  829 1123 27.7 L   6.810 -73.182138.1  RSN 19 0.6 2.3LRSN                1
 GAP= 75        1.75       4.2     4.4  8.1 -0.1776E+01  0.9308E+01  0.5255E+01E
 Epicentro: ZAPATOCA - SANTANDER                                               3
 ACTION:UPD 14-09-15 21:54 OP:nd   STATUS:               ID:20140829112327 L   I
 OLDACT:REG 14-08-29 18:30 OP:stll STATUS:               ID:20140829111819     3
 2014-08-29-1118-19M.COL___278                                                 6
 STAT SP IPHASW D HRMM SECON CODA AMPLIT PERI AZIMU VELO AIN AR TRES W  DIS CAZ7
 BAR2 SZ IP     D 1123 46.65                             169    0.2010 24.1 180 
 BAR2 SZ ES       1124  0.76                             169   -0.3010 24.1 180 
 BAR2 SZ I        1124  3.35        28.3 0.22            168           24.1 180 
 BRR  HZ IP     C 1123 48.59                             153    0.7710 67.1 299 
 BRR  HN ES       1124  4.27                             153    0.7810 67.1 299 
 BRR  HZ I        1124 10.93        49.5 0.14            145           67.1 299 
 PAM  SZ EP     C 1123 49.54                             149    0.2910 79.2  42 
 PAM  SZ I        1123 49.92        90.6 0.24            150           79.2  42 
 PAM  SN ES       1124  6.10                             149    0.0710 79.2  42 
 PTB  HZ EP       1123 53.62                             131   -0.11 9  144 258 
 PTB  HN ES       1124 13.87                             131   -0.15 9  144 258 
 PTB  HZ I        1124 17.43        28.4 0.10            126            144 258 
 OCA  HZ IP     D 1123 55.15                             128   -0.16 9  159 355 
 OCA  HN ES       1124 16.82                             128    0.00 9  159 355 
 OCA  HZ I        1124 21.85        35.4 0.18            125            159 355 
 TAM  HZ EP       1123 55.05                             128   -0.16 9  159 105 
 TAM  HZ I        1123 55.47        21.0 0.38            129            159 105 
 TAM  HN ES       1124 15.52                             128   -1.12 9  159 105 
 SPBC HZ EP       1123 55.74                             127    0.25 9  162 218 
 SPBC HN ES       1124 17.73                             127    0.59 9  162 218 
 SPBC HZ I        1124 22.54        14.2 0.20            124            162 218 
 ZAR  HZ EP       1123 59.77                             121    0.52 9  200 292 
 ZAR  HN ES       1124 24.15                             121    0.31 9  200 292 
 ZAR  HZ I        1124 33.47        22.8 0.30            117            200 292 
 NOR  HZ EP       1124  3.27                             117    0.54 8  232 234 
 NOR  HE ES       1124 29.78                             117   -0.26 8  232 234 
 NOR  HZ I        1124 37.84        14.0 0.16            114            232 234 
 SML  HZ EP       1124  3.00                             116   -0.64 8  241 336 
 SML  HN ES       1124 31.11                             116   -0.55 8  241 336 
 SML  HZ I        1124 39.59        31.9 0.34            113            241 336 
 CHI  HZ EP       1124  5.82                             115    0.81 8  249 194 
 CHI  HN ES       1124 33.47                             115   -0.63 8  249 194 
 CHI  HZ I        1124 47.31         4.5 0.40            114            249 194 
 HEL  HZ EP       1124  8.01                             113    0.86 8  268 255 
 HEL  HN ES       1124 36.73                             113   -1.17 8  268 255 
 HEL  HZ I        1124 46.40         7.9 0.22            110            268 255 
 URE  HZ EP       1124  7.10                             112   -0.86 7  280 292 
 URE  HE ES       1124 38.87                             112   -0.48 7  280 292 
 URE  HZ I        1124 52.41        12.1 0.16            109            280 292 
 GUY2CHZ EP   4   1124 12.32                             111    1.63 0  299 234 
 GUY2CHN ES       1124 43.55                             111   -0.65 7  299 234 
 GUY2CHZ I        1124 54.17         5.7 0.64                           299 234 
 CBOC HZ EP       1124 14.97                             109    1.04 7  330 252 
 CBOC HN ES       1124 48.61                             109   -1.35 7  330 252 
 CBOC HZ I        1124 54.99         2.8 0.50            106            330 252 
 DBB  SZ EP       1124 14.78                             108    0.36 7  335 274 
 DBB  SZ I        1124 58.64        20.3 0.32            106            335 274 
 MON  HZ EP   9   1124 14.46                             107   -1.53 0  350 309 
 MON  HN ES       1124 51.90                                   -0.21 6  350 309 
 MON  HZ I        1125  9.98         7.2 0.72            105            350 309 
 PRA  HZ IP     D 1124 21.44                             105    0.57 6  391 209 
 PRA  HE ES       1125  1.76                             105   -0.56 6  391 209 
 PRA  HZ I        1125  7.71         5.5 0.64            104            391 209 
 SJC  HZ EP   9   1124 21.18                             104   -1.50 0  406 327 
 SJC  HN ES       1124 59.84                                   -4.20 6  406 327 
 SJC  HZ I        1125  6.81         8.4 0.36            103            406 327 
                                                                                
