 2014  829 1015 14.4 L   6.722 -73.344130.0  RSN 11 0.5 2.1LRSN                1
 GAP= 99        1.23       4.3     5.3  6.9  0.1459E+01  0.4902E+01  0.2441E+01E
 Epicentro: GALAN - SANTANDER                                                  3
 ACTION:UPD 14-09-15 21:54 OP:nd   STATUS:               ID:20140829101514 L   I
 OLDACT:REG 14-08-29 18:27 OP:stll STATUS:               ID:20140829100819     3
 2014-08-29-1008-17M.COL___278                                                 6
 STAT SP IPHASW D HRMM SECON CODA AMPLIT PERI AZIMU VELO AIN AR TRES W  DIS CAZ7
 BAR2 SZ IP     C 1015 32.31                             169    0.2210 22.9 129 
 BAR2 SZ ES       1015 45.32                             169   -0.6010 22.9 129 
 BAR2 SZ I        1015 47.58        41.8 0.26            172           22.9 129 
 BRR  HZ IP     C 1015 33.45                             154    0.3310 58.9 316 
 BRR  HN ES       1015 47.83                             154    0.0910 58.9 316 
 BRR  HZ I        1015 48.83        28.3 0.44            153           58.9 316 
 PTB  HZ EP       1015 37.50                             133   -0.4510  125 261 
 SPBC HZ EP       1015 40.29                             129    0.53 9  143 214 
 OCA  HZ EP       1015 41.85                             124   -0.39 9  168   1 
 TAM  HZ IP     D 1015 43.28                             123    0.49 9  175 100 
 ZAR  HZ EP       1015 44.62                             121    0.52 9  188 297 
 ZAR  HN ES       1016  7.75                             121    0.46 9  188 297 
 ZAR  HZ I        1016 12.40        12.6 0.26            121            188 297 
 NOR  HZ EP       1015 45.86                             117   -0.88 8  212 233 
 NOR  HE ES       1016 12.26                             117    0.26 8  212 233 
 NOR  HZ I        1016 16.55         7.5 0.24            118            212 233 
 CHI  HZ EP       1015 50.20                             115    0.44 8  235 191 
 CHI  HE ES       1016 17.03                             115   -0.35 8  235 191 
 SML  HZ EP       1015 50.20                             114    0.07 8  243 341 
 MON  HZ EP       1016  0.10                             106   -1.38 7  342 312 
                                                                                
