 2016  129 1532  2.0 L   6.824 -73.147145.2  RSN 12 0.4 2.2LRSN                1
 GAP=135        0.89       2.9     3.4  5.4 -0.2453E+01  0.8530E+01 -0.2070E+01E
 Epicentro: LOS SANTOS - SANTANDER                                             3
 ACTION:UPD 16-03-09 23:29 OP:cam  STATUS:               ID:20160129153202 L   I
 OLDACT:DUP 16-01-30 00:02 OP:ak   STATUS:               ID:20160129151215d    3
 2016-01-29-1522-00M.COL___412                                                 6
 STAT SP IPHASW D HRMM SECON CODA AMPLIT PERI AZIMU VELO AIN AR TRES W  DIS CAZ7
 BAR2 EZ EP       1532 21.72                             169    0.0910 25.9 189 
 BAR2 EZ ES       1532 36.84                             169   -0.0910 25.9 189 
 BAR2 EZ I        1532 39.43        21.6 0.36            170           25.9 189 
 PAM  EZ EP       1532 24.62                             151    0.5610 75.4  41 
 PAM  EN ES       1532 41.36                             151    0.1110 75.4  41 
 PAM  EZ I        1532 43.84        12.9 0.54            154           75.4  41 
 RUS  HZ EP       1532 25.41                             143   -0.5010  103 176 
 RUS  HN ES       1532 44.72                             143    0.1810  103 176 
 RUS  HZ I        1532 47.19        10.3 0.40            146            103 176 
 PTB  HZ EP       1532 28.69                             132   -0.29 9  148 258 
 PTB  HN ES       1532 49.29                             132   -0.71 9  148 258 
 PTB  HZ I        1532 56.93        28.8 0.42            131            148 258 
 SPBC HZ EP       1532 30.85                             128    0.19 9  165 218 
 SPBC HN ES       1532 52.88                             128   -0.12 9  165 218 
 SPBC HZ I        1532 59.38        22.4 0.26            130            165 218 
 ZAR  HZ EP   1   1532 34.91                             122    0.60 6  203 291 
 ZAR  HN ES       1532 59.91                             122    0.41 9  203 291 
 ZAR  HZ I        1533  5.81        24.6 0.28            122            203 291 
 NOR  HZ EP       1532 37.47                             118   -0.40 8  236 234 
 NOR  HE ES       1533  6.12                             118    0.29 8  236 234 
 NOR  HZ I        1533  9.61        15.7 0.22            119            236 234 
 SML  HZ EP       1532 38.12                             118   -0.23 8  241 335 
 SML  HN ES       1533  6.35                             118   -0.33 8  241 335 
 HEL  HZ EP   2   1532 41.75                             115   -0.51 4  273 255 
 HEL  HN ES       1533 13.59                             115   -0.06 8  273 255 
 HEL  HZ I        1533 20.75        12.4 0.36            115            273 255 
 GUY2CHZ EP       1532 46.14                             112    0.38 7  303 234 
 GUY2CHN ES       1533 20.33                             112    0.45 7  303 234 
 GUY2CHZ I        1533 27.19         7.9 0.26                           303 234 
 CBOC HZ EP       1532 48.39                             110   -0.60 7  334 252 
 CBOC HN ES       1533 26.28                             110    0.65 7  334 252 
 CBOC HZ I        1533 30.23         3.2 0.32            111            334 252 
 SJC  HZ EP   4   1532 54.96                             106   -2.33 0  407 327 
 SJC  HZ I        1533 16.34         3.9 0.12            107            407 327 
 SJC  HN ES   4   1533 36.55                             106   -3.85 0  407 327 
                                                                                
