 2016  729 1358 43.8 L   6.792 -73.144141.8  RSN  7 0.4 2.3LRSN                1
 GAP=137        0.97       4.3     4.6  6.2  0.1465E-01  0.1121E+02  0.3152E+01E
 Epicentro: LOS SANTOS - SANTANDER                                             3
 ACTION:UPD 17-03-29 16:56 OP:lp   STATUS:               ID:20160729135843 L   I
 OLDACT:UP  16-07-29 22:21 OP:ar   STATUS:               ID:20160729135745     3
 OLDACT:REG 16-07-29 20:37 OP:ar   STATUS:               ID:20160729135745     3
 2016-07-29-1358-00M.COL___362                                                 6
 STAT SP IPHASW D HRMM SECON CODA AMPLIT PERI AZIMU VELO AIN AR TRES W  DIS CAZ7
 BAR2 EZ IP     D 1359  2.75                             170   -0.2210 22.5 191 
 BAR2 EZ ES       1359 17.91                             170    0.0210 22.5 191 
 BAR2 EZ I        1359 19.34        56.2 0.20            170           22.5 191 
 BRR  HZ EP       1359  4.60                             152    0.0210 71.7 299 
 BRR  HE ES       1359 21.16                             152    0.3910 71.7 299 
 BRR  HZ I        1359 25.61        37.2 0.18            150           71.7 299 
 PAM  EZ EP       1359  5.73                             150    0.0710 77.9  39 
 PAM  HN ES       1359 22.34                             150   -0.3410 77.9  39 
 PAM  EZ I        1359 24.88        27.5 0.48            154           77.9  39 
 RUS  HZ EP       1359  6.73                             143   -0.4010 99.7 176 
 RUS  HN ES       1359 25.74                             143    0.4410 99.7 176 
 RUS  HZ I        1359 26.42        15.8 0.18            146           99.7 176 
 ZAR  HZ EP       1359 16.87                             121    0.80 9  205 292 
 ZAR  HN ES       1359 40.73                             121   -0.48 9  205 292 
 ZAR  HZ I        1359 45.89        25.4 0.28            122            205 292 
 NOR  HZ EP       1359 18.92                             118   -0.37 8  234 235 
 NOR  HE ES       1359 46.56                             118   -0.40 8  234 235 
 NOR  HZ I        1359 52.25        12.3 0.15            119            234 235 
 GUY2CHZ EP       1359 27.77                             112    0.55 7  301 235 
 GUY2CHN ES   4   14 0  3.87                             112    2.81 0  301 235 
 GUY2CHZ I        14 0  8.97        13.5 0.34                           301 235 
                                                                                
