 2016  629 1909 22.7 L   6.807 -73.147146.2  RSN 16 0.4 2.3LRSN                1
 GAP=136        0.96       3.6     4.2  5.1 -0.3907E+01  0.3528E+01  0.4987E+01E
 Epicentro: LOS SANTOS - SANTANDER                                             3
 ACTION:UPD 16-07-21 22:24 OP:rebc STATUS:               ID:20160629190922 L   I
 OLDACT:UP  16-06-29 23:33 OP:ar   STATUS:               ID:20160629190741     3
 OLDACT:REG 16-06-29 23:06 OP:lv   STATUS:               ID:20160629190741     3
 2016-06-29-1907-41M.COL___355                                                 6
 STAT SP IPHASW D HRMM SECON CODA AMPLIT PERI AZIMU VELO AIN AR TRES W  DIS CAZ7
 BAR2 EZ EP       19 9 42.28                             170   -0.1010 24.1 189 
 BAR2 EZ ES       19 9 57.49                             170   -0.2610 24.1 189 
 BAR2 EZ I        19 9 58.25        42.6 0.26                          24.1 189 
 BRR  HZ EP     D 19 9 44.04                             153    0.1910 70.7 298 
 BRR  HN ES       1910  1.21                             153    0.8410 70.7 298 
 BRR  HZ I        1910  7.03        25.7 0.14                          70.7 298 
 PAM  EZ EP       19 9 44.97                             151    0.0610 76.8  40 
 PAM  EN ES       1910  2.16                             151   -0.0910 76.8  40 
 PAM  EZ I        1910  4.26        26.5 0.44                          76.8  40 
 RUS  HZ EP       19 9 46.53                             144   -0.0110  101 176 
 RUS  HN ES       1910  4.99                             144   -0.1510  101 176 
 RUS  HZ I        1910  5.58        13.8 0.44                           101 176 
 PTB  HZ EP       19 9 49.11                             132   -0.58 9  148 259 
 PTB  HN ES       1910 10.07                             132   -0.69 9  148 259 
 PTB  HZ I        1910 17.49        24.5 0.46                           148 259 
 SPBC HZ EP       19 9 51.21                             129   -0.06 9  164 219 
 SPBC HN ES       1910 14.15                             129    0.58 9  164 219 
 SPBC HZ I        1910 20.37        27.8 0.20                           164 219 
 ZAR  HZ EP   4   19 9 57.65                             122    2.54 0  204 292 
 ZAR  HN ES   2   1910 20.27                             122   -0.14 4  204 292 
 ZAR  HZ I        1910 28.19        16.5 0.22                           204 292 
 NOR  HZ EP       19 9 58.08                             118   -0.40 8  235 234 
 NOR  HE ES       1910 26.07                             118   -0.33 8  235 234 
 NOR  HZ I        1910 33.93        12.0 0.16                           235 234 
 CHI  HZ EP       1910  0.51                             117    0.02 8  249 195 
 CHI  HN ES       1910 29.84                             117   -0.13 8  249 195 
 CHI  HZ I        1910 35.07         6.6 0.22                           249 195 
 ROSC BZ EP   9   1910  2.84                             117    1.95 0  253 211 
 ROSC BN ES       1910 32.48                             116   -0.17 8  253 211 
 ROSC BZ I        1910 40.00        23.9 0.40                           253 211 
 HEL  HZ EP   4   1910  5.27                             115    2.34 0  272 256 
 HEL  HN ES   4   1910 38.22                             115    3.90 0  272 256 
 HEL  HZ I        1910 40.87         7.9 0.40                           272 256 
 URE  HZ EP   4   1910  6.01                             114    2.28 0  283 292 
 URE  HN ES   4   1910 34.27                             114   -1.47 0  283 292 
 URE  HZ I        1910 45.36        12.0 0.16                           283 292 
 GUY2CHZ EP       1910  7.07                             112    0.72 7  302 235 
 GUY2CHE ES   4   1910 44.68                             112    4.26 0  302 235 
 GUY2CHZ I        1910 52.32         7.5 0.38                           302 235 
 PRA  HZ EP       1910 16.82                             106    0.53 6  393 209 
 PRA  HN ES       1910 59.13                             106    1.02 6  393 209 
 PRA  HZ I        1911  4.54         9.4 0.28                           393 209 
 ORTC HZ EP       1910 16.30                             106   -0.38 6  396 216 
 ORTC HN ES   4   1911  1.50                             106    2.69 0  396 216 
 ORTC HZ I        1911  5.99         6.1 0.56                           396 216 
 CRJC HZ EP   9   1910 22.29                             103   -2.81 0  467   4 
 CRJC HN ES       1911 10.85                             103   -0.13 5  467   4 
 CRJC HZ I        1911 21.22         7.6 0.62                           467   4 
                                                                                
