 2017 1029 1614 15.1 L   6.796 -73.134140.7  RSN 16 0.7 2.2LRSN                1
 GAP=100        1.58       4.6     4.7  7.5 -0.9555E-01  0.5767E+01  0.1110E+02E
 Epicentro: LOS SANTOS - SANTANDER                                             3
 ACTION:UPD 17-11-07 19:38 OP:rebc STATUS:               ID:20171029161415 L   I
 OLDACT:UP  17-10-30 00:08 OP:dani STATUS:               ID:20171029160741d    3
 OLDACT:UP  17-10-30 00:08 OP:dani STATUS:               ID:20171029160741d    3
 OLDACT:UP  17-10-30 00:06 OP:dani STATUS:               ID:20171029160741d    3
 OLDACT:DUP 17-10-29 23:56 OP:dani STATUS:               ID:20171029160741d    3
 OLDACT:UP  17-10-29 23:55 OP:dani STATUS:               ID:20171029160740     3
 OLDACT:REG 17-10-29 20:18 OP:dani STATUS:               ID:20171029160740     3
 2017-10-29-1608-00M.COL___438                                                 6
 STAT SP IPHASW D HRMM SECON CODA AMPLIT PERI AZIMU VELO AIN AR TRES W  DIS CAZ7
 BAR2 EZ EP     D 1614 33.99                             170   -0.1210 23.2 193 
 BAR2 EZ ES       1614 49.01                             170    0.0710 23.2 193 
 BAR2 EZ I        1614 51.84        37.9 0.34            168           23.2 193 
 BRR  HZ IP     D 1614 35.81                             151    0.0410 72.5 298 
 BRR  HE ES       1614 53.12                             151    1.2210 72.5 298 
 BRR  HZ I        1614 53.44        30.3 0.30            152           72.5 298 
 PAM  EZ EP       1614 36.80                             150    0.0610 76.9  39 
 PAM  EN ES       1614 53.79                             150    0.1610 76.9  39 
 PAM  EZ I        1614 56.19        38.5 0.54            155           76.9  39 
 RUS  HZ EP       1614 38.03                             143   -0.2810  100 177 
 RUS  HN ES       1614 56.35                             143   -0.0710  100 177 
 RUS  HZ I        1614 58.09        26.1 0.28            144            100 177 
 PTB  HZ EP       1614 40.86                             131   -0.90 9  149 259 
 PTB  HN ES       1615  1.30                             131   -1.26 9  149 259 
 PTB  HZ I        1615  9.10         9.2 0.20            132            149 259 
 TAM  HZ EP       1614 42.37                             129    0.12 9  154 105 
 SPBC HZ EP       1614 42.90                             128   -0.35 9  164 219 
 SPBC HN ES       1615  4.84                             128   -0.38 9  164 219 
 SPBC HZ I        1615  7.60        39.1 0.26            129            164 219 
 YPLC HZ EP       1614 44.38                             126   -0.05 9  176 152 
 YPLC HN ES       1615  7.03                             126   -0.28 9  176 152 
 YPLC HZ I        1615 11.21        26.4 0.24            128            176 152 
 ZAR  HZ EP       1614 46.86                             121   -0.49 8  205 292 
 ZAR  HE ES       1615 12.27                             121   -0.24 8  205 292 
 ZAR  HZ I        1615 17.42        24.0 0.54            123            205 292 
 TABC EZ EP       1614 51.44                             118    0.86 8  230 211 
 NOR  HZ EP       1614 50.69                             117    0.07 8  235 235 
 NOR  HN ES       1615 17.34                             117   -0.99 8  235 235 
 NOR  HZ I        1615 23.67         8.3 0.18            119            235 235 
 CHI  HZ EP       1614 52.31                             116   -0.20 8  249 195 
 CHI  HN ES       1615 21.19                             116   -0.50 8  249 195 
 CHI  HZ I        1615 27.71         8.9 0.26            118            249 195 
 ROSC BZ EP       1614 54.69                             116    1.72 8  253 211 
 ROSC BN ES       1615 23.32                             116    0.80 8  253 211 
 ROSC BZ I        1615 28.68        18.9 0.42            117            253 211 
 GUY2CHZ EP       1614 59.49                             111    0.93 7  302 235 
 GUY2CHN ES       1615 33.97                             111    1.51 7  302 235 
 GUY2CHZ I        1615 44.26         5.6 0.44                           302 235 
 VIL  EZ EP       1614 57.22                             111   -1.05 7  303 192 
 VIL  EE ES       1615 32.04                             111    0.10 7  303 192 
 VIL  EZ I        1615 37.03        12.8 0.68            113            303 192 
 ORTC HZ EP       1615  9.09                             105    0.20 6  396 216 
 ORTC HN ES       1615 51.41                             105    0.56 6  396 216 
                                                                                
