 2012  429 1245 27.0 L   6.770 -73.160142.2  RSN  4 0.2 1.1LRSN                1
 GAP=139        0.59       4.7     4.6  6.6 -0.6774E+01  0.8332E+01 -0.3079E+01E
 Epicentro: LOS SANTOS - SANTANDER                                             3
 ACTION:UPD 12-07-05 11:56 OP:tino STATUS:               ID:20120429124527 L   I
 2012-04-29-1240-00M.COL___189                                                 6
 STAT SP IPHASW D HRMM SECON CODA AMPLIT PERI AZIMU VELO AIN AR TRES W  DIS CAZ7
 BAR2 SZ EP   1   1245 46.42                             172     0.3 7   20 187 
 BAR2 SZ I        1245 46.61         5.6 0.08                            20 187 
 BAR2 SZ ES   1   1246  1.25                             172     0.2 7   20 187 
 PAM  SZ EP   1   1245 49.32                             149     0.3 7   81  39 
 PAM  SN ES   1   1246  5.92                             149    -0.3 7   81  39 
 PAM  SZ I        1246  8.21         2.0 0.43                            81  39 
 RUS  HZ EP   1   1245 49.88                             144    -0.3 7   97 175 
 RUS  HN ES   1   1246  8.19                             144     0.0 7   97 175 
 RUS  HZ I        1246 10.19         1.3 0.26                            97 175 
 PTB  HZ EP   1   1245 53.37                             132    -0.1 7  146 260 
 PTB  HZ I        1245 55.95         2.3 0.25                           146 260 
 PTB  HE ES   1   1246 14.07                             132    -0.1 7  146 260 
                                                                                
