 2016  829 1320 33.9 L   6.770 -73.050144.9  RSN 12 0.4 2.0LRSN                1
 GAP=127        0.98       3.3     3.2  4.6 -0.3802E+01  0.1141E+01  0.1188E+01E
 Epicentro: LOS SANTOS - SANTANDER                                             3
 ACTION:UPD 16-10-29 15:40 OP:rebc STATUS:               ID:20160829132033 L   I
 OLDACT:REG 16-08-29 20:04 OP:edw  STATUS:               ID:20160829131733     3
 2016-08-29-1318-00M.COL___358                                                 6
 STAT SP IPHASW D HRMM SECON CODA AMPLIT PERI AZIMU VELO AIN AR TRES W  DIS CAZ7
 BAR2 EZ IP     C 1320 53.39                             170   -0.1010 24.5 217 
 BAR2 EZ ES       1321  8.86                             170    0.1210 24.5 217 
 BAR2 EZ I        1321 10.01        14.5 0.14                          24.5 217 
 PAM  EZ EP       1320 56.19                             152    0.3310 73.9  32 
 PAM  EN ES       1321 13.46                             152    0.5010 73.9  32 
 PAM  EZ I        1321 14.99        19.2 0.36                          73.9  32 
 BRR  HZ IP     C 1320 55.26                             149   -0.3910 82.1 297 
 BRR  HN ES       1321 12.17                             149   -0.4110 82.1 297 
 RUS  HZ EP       1320 57.39                             145    0.0310 97.1 182 
 RUS  HN ES       1321 15.94                             145    0.3210 97.1 182 
 RUS  HZ I        1321 16.84         7.8 0.21                          97.1 182 
 PTB  HZ EP   9   1321  0.08                             130   -1.66 0  158 261 
 PTB  HN ES       1321 21.11                                   -0.66 9  158 261 
 PTB  HZ I        1321 23.37        15.1 0.14                           158 261 
 SPBC HZ EP       1321  2.38                             128   -0.41 9  168 223 
 SPBC HN ES       1321 24.39                             128   -0.91 9  168 223 
 SPBC HZ I        1321 25.90        20.3 0.10                           168 223 
 ZAR  HZ EP       1321  7.06                             121   -0.42 8  215 292 
 ZAR  HN ES       1321 34.16                             121    0.52 8  215 292 
 ZAR  HZ I        1321 37.75        11.9 0.21                           215 292 
 NOR  HZ EP       1321 10.01                             117   -0.35 8  242 237 
 NOR  HE ES       1321 38.85                             117    0.09 8  242 237 
 NOR  HZ I        1321 44.18         8.9 0.22                           242 237 
 CHI  HZ EP       1321 11.83                             117    0.26 8  248 198 
 CHI  HN ES       1321 41.04                             117    0.12 8  248 198 
 CHI  HZ I        1321 48.66         3.6 0.23                           248 198 
 HEL  HZ EP       1321 15.46                             114    0.30 7  282 257 
 HEL  HN ES       1321 47.75                             114    0.43 7  282 257 
 SOCV BZ EP       1321 16.20                             112    0.03 7  294  55 
 SOCV BN ES       1321 48.59                             112   -0.52 7  294  55 
 GUY2CHZ EP       1321 18.82                             112    0.54 7  308 236 
 GUY2CHN ES       1321 53.13                             112    0.26 7  308 236 
 GUY2CHZ I        1322  0.03         5.8 0.30                           308 236 
 SJC  HZ EP   4   1321 28.23                             105   -2.25 0  418 326 
 SJC  HN ES   4   1322  9.91                             105   -4.68 0  418 326 
                                                                                
