 2011 1029 1235 24.5 L   6.770 -73.137142.4  RSN  7 0.2 1.6LRSN                1
 GAP=139        0.35       2.9     3.1  4.8 -0.2459E+00  0.1613E+01  0.7055E+00E
 Epicentro: LOS SANTOS - SANTANDER                                             3
 ACTION:UPD 12-07-13 16:06 OP:ep   STATUS:               ID:20111029123524 L   I
 2011-10-29-1220-00M.COL___177                                                 6
 STAT SP IPHASW D HRMM SECON CODA AMPLIT PERI AZIMU VELO AIN AR TRES W  DIS CAZ7
 BAR2 SZ EP   1   1235 43.67                             171    0.01 7 20.3 194 
 BAR2 SZ ES   2   1235 58.67                             171    0.06 5 20.3 194 
 BAR2 SZ I        1235 59.94        10.8 0.13                          20.3 194 
 GIR2 SZ EP   3   1235 43.59                             166   -0.27 2 34.7 350 
 BRR  HZ EP   1   1235 45.60                             151    0.18 7 73.6 300 
 BRR  HZ I        1235 46.09        11.7 0.41                          73.6 300 
 BRR  HN ES   2   1236  1.94                             151    0.20 5 73.6 300 
 PAM  SZ EP   1   1235 46.41                             150   -0.06 7 79.4  38 
 PAM  SN ES   2   1236  3.60                             150   -0.02 5 79.4  38 
 RUS  HZ EP   1   1235 47.70                             144    0.03 7 97.3 176 
 RUS  HN ES   2   1236  5.45                             144   -0.30 5 97.3 176 
 RUS  HZ I        1236  7.23         4.2 0.27                          97.3 176 
 ZAR  HN ES   2   1236 21.71                             121   -0.53 4  206 293 
 ZAR  HZ I        1236 27.09         3.1 0.37                           206 293 
 NOR  SN ES   2   1236 27.73                             118    0.21 4  234 235 
                                                                                
