 2014  729 1021 46.1 L   6.833 -73.082137.7  RSN  4 0.1 1.2LRSN                1
 GAP=250        0.42       3.9     3.5  6.0  0.9185E+01 -0.7140E+01 -0.1446E+02E
 Epicentro: LOS SANTOS - SANTANDER                                             3
 ACTION:UPD 15-03-16 20:48 OP:nd   STATUS:               ID:20140729102146 L   I
 OLDACT:REG 14-07-29 21:24 OP:carl STATUS:               ID:20140729101813     3
 2014-07-29-1018-13M.COL___260                                                 6
 STAT SP IPHASW D HRMM SECON CODA AMPLIT PERI AZIMU VELO AIN AR TRES W  DIS CAZ7
 RUS  HZ EP       1022  9.27                             141   -0.0510  104 180 
 RUS  HE ES       1022 27.47                             141    0.0310  104 180 
 RUS  HZ I        1022 30.59         1.1 0.42            144            104 180 
 PTB  HZ EP       1022 12.96                             129   -0.18 9  155 258 
 PTB  HN ES       1022 33.99                             129   -0.24 9  155 258 
 PTB  HZ I        1022 41.39         3.1 0.44            131            155 258 
 SPBC HZ EP       1022 14.79                             126    0.08 9  170 220 
 SPBC HN ES       1022 37.16                             126    0.15 9  170 220 
 SPBC HZ I        1022 40.33         2.9 0.18            128            170 220 
 ZAR  HZ EP       1022 18.65                             120    0.06 8  209 291 
 ZAR  HN ES       1022 44.13                             120    0.21 8  209 291 
                                                                                
