 2010 1129 1315 23.1 L   7.538 -73.056155.6  RSN  4 0.3 1.8LRSN                1
 GAP=159        0.55       8.6    11.5  9.0 -0.5006E+02  0.1696E+01  0.8725E+01E
 Epicentro: EL PLAYON - SANTANDER                                              3
 ACTION:UP  10-12-17 16:55 OP:REBC STATUS:               ID:20101129131523 L   I
 2010-11-29-1312-07S.COL___131                                                 6
 STAT SP IPHASW D HRMM SECON CODA AMPLIT PERI AZIMU VELO SNR AR TRES W  DIS CAZ7
 GRA  SZ EP   2   1315 44.87                             162     0.4 5   47  36 
 GRA  SZ ES   2   1316  0.83                             162    -0.3 5   47  36 
 GRA  SZ I        1316  2.58        10.9 0.21                            47  36 
 BTL  SZ EP       1315 45.73                             154     0.010   72 199 
 BRR  HZ EP   1   1315 46.20                             149     0.0 7   87 237 
 BRR  HN ES   2   1316  4.16                             149     0.0 5   87 237 
 BRR  HZ I        1316  8.07         7.8 0.36                            87 237 
 BAR2 SZ EP   2   1315 47.18                             144    -0.6 5  106 188 
 BAR2 SZ ES   2   1316  7.34                             144     0.3 5  106 188 
 BAR2 SZ I        1316 11.22        12.9 0.27                           106 188 
                                                                                
