 2012  629 1613 35.0 L   6.759 -73.152141.0  RSN  6 0.4 1.8LRSN                1
 GAP=152        0.82       7.1     4.8  9.7 -0.1239E+02  0.1801E+02 -0.7131E+01E
 Epicentro: LOS SANTOS - SANTANDER                                             3
 ACTION:UPD 12-08-06 17:53 OP:ep   STATUS:               ID:20120629161335 L   I
 2012-06-29-1610-00M.COL___201                                                 6
 STAT SP IPHASW D HRMM SECON CODA AMPLIT PERI AZIMU VELO AIN AR TRES W  DIS CAZ7
 BAR2 SZ EP   1   1613 53.99                             172    0.07 8 18.8 190 
 BAR2 SZ ES   1   1614  9.08                             172    0.37 8 18.8 190 
 BAR2 SZ I        1614 10.46        11.5 0.22                          18.8 190 
 BRR  HZ EP   1   1613 56.20                             151    0.52 8 72.8 302 
 BRR  HZ I        1614 36.50        26.5 0.32                          72.8 302 
 PAM  SZ EP   1   1613 56.99                             149    0.08 8 81.3  38 
 PAM  SZ I        1613 57.32         5.4 0.24                          81.3  38 
 PAM  SN ES   1   1614 13.59                             149   -0.44 8 81.3  38 
 PTB  HZ EP   1   1614  0.73                             131   -0.66 7  146 261 
 PTB  HN ES       1614 21.59                             131   -0.4210  146 261 
 ZAR  HN ES       1614 32.66                             121    0.31 9  205 293 
 NOR  SN ES   1   1614 37.78                             118    0.33 7  231 235 
                                                                                
