 2016  229 1447  8.0 L   6.899 -73.206148.8  RSN  4 0.2 1.6LRSN                1
 GAP=155        0.49       3.1     2.9  5.4 -0.3150E+01  0.4343E+01 -0.1827E+00E
 Epicentro: BETULIA - SANTANDER                                                3
 ACTION:UPD 16-03-04 21:30 OP:rebc STATUS:               ID:20160229144707 L   I
 OLDACT:UP  16-03-01 15:33 OP:nlst STATUS:               ID:20160229144707 L   3
 OLDACT:UP  16-03-01 00:34 OP:ar   STATUS:               ID:20160229143752d    3
 OLDACT:DUP 16-03-01 00:21 OP:ar   STATUS:               ID:20160229143752d    3
 OLDACT:REG 16-02-29 21:20 OP:ar   STATUS:               ID:20160229143751     3
 2016-02-29-1437-51M.COL___315                                                 6
 STAT SP IPHASW D HRMM SECON CODA AMPLIT PERI AZIMU VELO AIN AR TRES W  DIS CAZ7
 PAM  EZ EP       1447 30.67                             152    0.3110 74.1  49 
 PAM  EN ES       1447 47.64                             152   -0.1610 74.1  49 
 PAM  EZ I        1447 49.59         9.0 0.52            157           74.1  49 
 RUS  HZ EP       1447 32.80                             141   -0.1110  112 173 
 RUS  HN ES       1447 52.35                             141    0.0210  112 173 
 RUS  HZ I        1447 53.64         2.5 0.30            143            112 173 
 PTB  HZ EP       1447 34.68                             133   -0.20 9  144 254 
 PTB  HN ES       1447 55.92                             133    0.08 9  144 254 
 PTB  HZ I        1447 58.12         2.9 0.16            135            144 254 
 SPBC HN ES   2   1448  0.17                             129    0.21 5  168 215 
 SPBC HZ I        1448  5.29        15.0 0.22            130            168 215 
                                                                                
