 2015  829 1614 17.0 L   6.185 -73.635112.8  RSN 17 0.3 2.4LRSN                1
 GAP= 64        0.76       1.7     2.5  4.4 -0.3872E+00  0.3772E+01  0.1210E+01E
 Epicentro: LA PAZ - SANTANDER                                                 3
 ACTION:UPD 15-09-15 23:06 OP:cam  STATUS:               ID:20150829161417 L   I
 OLDACT:REG 15-08-29 20:34 OP:spq  STATUS:               ID:20150829160748     3
 2015-08-29-1607-48M.COL___361                                                 6
 STAT SP IPHASW D HRMM SECON CODA AMPLIT PERI AZIMU VELO AIN AR TRES W  DIS CAZ7
 BAR2 EZ IP     C 1614 35.02                             147    0.2110 67.3  48 
 BAR2 EZ ES   1   1614 48.72                             147    0.04 7 67.3  48 
 BAR2 EZ I        1614 50.35       172.6 0.32            149           67.3  48 
 RUS  HZ EP       1614 35.22                             147   -0.0710 69.0 118 
 RUS  HE ES   1   1614 49.11                             147   -0.42 7 69.0 118 
 RUS  HZ I        1614 50.29        24.7 0.36            150           69.0 118 
 SPBC HZ EP       1614 34.75                             143   -0.4710 76.2 219 
 SPBC HN ES       1614 49.56                             143    0.1510 76.2 219 
 SPBC HZ I        1614 51.02        58.3 0.33            144           76.2 219 
 BRR  HZ EP     C 1614 37.14                             135   -0.0510  102 355 
 BRR  HN ES       1614 53.25                             135    0.3310  102 355 
 BRR  HZ I        1615  0.33        28.3 0.28            136            102 355 
 NOR  HZ EP       1614 41.60                             122   -0.53 9  153 243 
 NOR  HE ES   4   1615  0.54                             122   -1.16 0  153 243 
 NOR  HZ I        1615  3.50        22.8 0.18            123            153 243 
 CHI  HZ EP       1614 44.46                             119   -0.17 9  172 184 
 CHI  HN ES       1615  5.91                             119   -0.23 9  172 184 
 CHI  HZ I        1615  7.84        17.5 0.26            121            172 184 
 ZAR  HZ EP       1614 46.69                             115   -0.21 9  198 317 
 ZAR  HN ES       1615 10.02                             115   -0.17 9  198 317 
 ZAR  HZ I        1615 11.74        56.9 0.40            116            198 317 
 TAM  HZ EP   1   1614 48.13                             114    0.31 6  206  82 
 TAM  HE ES   4   1615 10.17                             114   -1.65 0  206  82 
 TAM  HZ I        1615 11.26        21.0 0.38            116            206  82 
 HEL  HZ EP   1   1614 49.28                             114    0.62 6  210 270 
 HEL  HE ES       1615 13.08                             114   -0.24 8  210 270 
 HEL  HZ I        1615 18.81         8.8 0.56            115            210 270 
 GUY2CHZ EP       1614 50.30                             112    0.44 8  219 241 
 GUY2CHN ES   1   1615 15.89                             112    0.43 6  219 241 
 GUY2CHZ I        1615 22.16        14.4 0.38                           219 241 
 VIL  SZ EP   1   1614 50.74                             111    0.17 6  229 182 
 VIL  SE ES       1615 17.41                             111    0.68 8  229 182 
 VIL  SZ I        1615 19.86        37.8 0.38            113            229 182 
 TOL  SZ EP       1614 54.20                             109    0.16 8  257 227 
 TOL  SN ES       1615 23.03                             109    0.13 8  257 227 
 TOL  SZ I        1615 27.62         9.4 0.45            110            257 227 
 URE  HN ES   4   1615 22.60                             107   -2.65 0  272 310 
 URE  HZ I        1615 24.90        18.5 0.20            108            272 310 
 PTGC HE ES   4   1615 24.35                             107   -1.58 0  275 143 
 PTGC HZ I        1615 28.58        22.3 0.35            109            275 143 
 SML  HZ EP   1   1614 58.07                             106    0.25 5  293 351 
 SML  HE ES   1   1615 29.63                             106   -0.01 5  293 351 
 SML  HZ I        1615 36.90        17.9 0.28            107            293 351 
 PRA  HZ EP       1614 58.83                             105   -0.59 7  306 207 
 PRA  HN ES       1615 32.35                             105   -0.14 7  306 207 
 PRA  HZ I        1615 37.63        20.2 0.24            106            306 207 
 ORTC HZ EP       1614 59.31                             105   -0.37 7  309 215 
 ORTC HN ES       1615 33.51                             105    0.57 7  309 215 
 ORTC HZ I        1615 38.49        11.9 0.44            106            309 215 
                                                                                
