 2013  629 1738 45.2 L   6.786 -73.156147.8  RSN 10 0.4 2.0LRSN                1
 GAP= 71        1.05       4.8     4.1  7.6 -0.1107E+01  0.4331E+01  0.3360E+01E
 Epicentro: LOS SANTOS - SANTANDER                                             3
 ACTION:UPD 14-01-08 09:58 OP:ep   STATUS:               ID:20130629173845 L   I
 OLDACT:REG 13-06-29 16:36 OP:jn   STATUS:               ID:20130629173640     3
 2013-06-29-1736-40M.COL___233                                                 6
 STAT SP IPHASW D HRMM SECON CODA AMPLIT PERI AZIMU VELO AIN AR TRES W  DIS CAZ7
 BAR2 SZ EP       1739  5.00                             171   -0.0410 21.7 188 
 BAR2 SZ ES       1739 21.11                             171    0.5910 21.7 188 
 BAR2 SZ I        1739 21.40        18.8 0.40            173           21.7 188 
 GIR2 SZ EP       1739  4.96                             167   -0.1910 32.6 353 
 BRR  HZ IP     D 1739  6.77                             153    0.2210 70.9 300 
 BRR  HN ES       1739 23.47                             153    0.2610 70.9 300 
 BRR  HZ I        1739 27.48        20.4 0.12            151           70.9 300 
 PAM  SZ EP       1739  7.96                             151    0.2110 79.3  39 
 PAM  SE ES       1739 24.65                             151   -0.6810 79.3  39 
 PAM  SZ I        1739 26.55        19.1 0.16            152           79.3  39 
 RUS  HZ EP       1739  9.11                             145    0.0610 99.2 175 
 RUS  HN ES   1   1739 27.32                             145   -0.34 7 99.2 175 
 RUS  HZ I        1739 30.04         6.7 0.44            148           99.2 175 
 PTB  HZ EP       1739 11.83                             133   -0.37 9  146 259 
 PTB  HN ES       1739 32.49                             133   -0.78 9  146 259 
 PTB  HZ I        1739 35.17        15.9 0.20            133            146 259 
 TAM  HE ES   1   1739 35.16                             131    0.28 7  156 104 
 OCA  HN ES   1   1739 36.53                             130    0.43 7  162 354 
 OCA  HZ I        1739 39.35        14.3 0.18            131            162 354 
 ZAR  HE ES   1   1739 43.31                             123    0.21 6  204 293 
 ZAR  HZ I        1739 49.27        17.9 0.34            124            204 293 
 NOR  HN ES   1   1739 49.62                             119    0.96 6  233 235 
                                                                                
