 2017  329 1431 18.3 L   6.763 -73.149144.7  RSN  6 0.3 1.6LRSN                1
 GAP=138        0.50       3.0     4.1  5.1 -0.2418E+01 -0.1021E+01 -0.2062E+01E
 Epicentro: LOS SANTOS - SANTANDER                                             3
 ACTION:UPD 17-05-25 18:46 OP:jn   STATUS:               ID:20170329143118 L   I
 OLDACT:UP  17-03-29 22:29 OP:ansd STATUS:               ID:20170329142744     3
 OLDACT:UP  17-03-29 22:29 OP:ansd STATUS:               ID:20170329142744     3
 OLDACT:UP  17-03-29 22:28 OP:ansd STATUS:               ID:20170329142744     3
 OLDACT:UP  17-03-29 22:28 OP:ansd STATUS:               ID:20170329142744     3
 OLDACT:UP  17-03-29 22:23 OP:ansd STATUS:               ID:20170329142744     3
 OLDACT:REG 17-03-29 20:07 OP:and  STATUS:               ID:20170329142744     3
 2017-03-29-1428-00M.COL___362                                                 6
 STAT SP IPHASW D HRMM SECON CODA AMPLIT PERI AZIMU VELO AIN AR TRES W  DIS CAZ7
 BAR2 EZ EP       1431 37.48                             172   -0.2710 19.3 191 
 BAR2 EZ ES   3   1431 52.13                             172   -0.77 2 19.3 191 
 BAR2 EZ I        1431 53.71        11.5 0.20            173           19.3 191 
 BRR  HZ EP   2   1431 39.75                             152    0.30 5 72.9 301 
 BRR  HN ES   3   1431 57.02                             152    1.09 2 72.9 301 
 PAM  EZ EP       1431 40.79                             149    0.1610 80.8  38 
 PAM  EN ES       1431 58.01                             149   -0.0210 80.8  38 
 PAM  EZ I        1432  0.74         6.5 0.48            150           80.8  38 
 RUS  HZ EP   2   1431 41.61                             145   -0.07 5 96.6 176 
 RUS  HN ES       1431 59.95                             145    0.0510 96.6 176 
 RUS  HZ I        1432  1.31        11.6 0.34            148           96.6 176 
 PTB  HZ EP   9   1431 44.43                             132   -0.67 0  147 260 
 PTB  HN ES       1432  5.08                             133   -0.24 9  147 260 
 PTB  HZ I        1432  6.93         3.9 0.10            131            147 260 
 ZAR  HN ES   2   1432 16.12                             122   -0.05 4  205 293 
 ZAR  HZ I        1432 21.71         4.0 0.12            121            205 293 
                                                                                
