 2015 1129 1248 54.8 L   6.806 -73.167147.1  RSN 13 0.4 2.1LRSN                1
 GAP=134        0.98       2.6     3.8  5.2 -0.2298E+01  0.5118E+01  0.1618E+00E
 Epicentro: LOS SANTOS - SANTANDER                                             3
 ACTION:UPD 15-12-28 16:14 OP:cam  STATUS:               ID:20151129124854 L   I
 OLDACT:REG 15-11-29 20:20 OP:drio STATUS:               ID:20151129124748     3
 2015-11-29-1247-48M.COL___310                                                 6
 STAT SP IPHASW D HRMM SECON CODA AMPLIT PERI AZIMU VELO AIN AR TRES W  DIS CAZ7
 BAR2 EZ EP       1249 14.61                             170   -0.0310 23.7 184 
 BAR2 EZ ES       1249 30.21                             170    0.1410 23.7 184 
 BAR2 EZ I        1249 31.46        17.5 0.40            170           23.7 184 
 BRR  HZ EP     C 1249 16.49                             154    0.4910 68.8 299 
 BRR  HN ES       1249 33.06                             154    0.5610 68.8 299 
 BRR  HZ I        1249 36.48        15.5 0.16            149           68.8 299 
 PAM  EZ EP       1249 17.44                             151    0.1910 78.4  41 
 PAM  EE ES       1249 34.82                             151    0.0810 78.4  41 
 PAM  EZ I        1249 35.87        11.2 0.18            154           78.4  41 
 RUS  HZ EP       1249 18.84                             144    0.0510  101 175 
 RUS  HE ES       1249 37.07                             144   -0.3910  101 175 
 RUS  HZ I        1249 38.27         9.3 0.44            146            101 175 
 PTB  HZ EP       1249 21.49                             133   -0.23 9  146 258 
 PTB  HN ES       1249 42.76                             133    0.08 9  146 258 
 PTB  HZ I        1249 44.25        12.7 0.16            131            146 258 
 OCA  HZ EP       1249 23.53                             130    0.37 9  159 354 
 OCA  HE ES       1249 44.47                             130   -0.78 9  159 354 
 OCA  HZ I        1249 50.58        32.6 0.26            130            159 354 
 SPBC HZ EP       1249 23.63                             129    0.28 9  162 218 
 SPBC HE ES       1249 45.01                             129   -0.58 9  162 218 
 SPBC HZ I        1249 48.44        21.3 0.30            130            162 218 
 ZAR  HZ EP   4   1249 28.29                             123    1.17 0  202 292 
 ZAR  HN ES       1249 52.37                             123    0.07 9  202 292 
 ZAR  HZ I        1249 59.73        20.1 0.30            122            202 292 
 NOR  HZ EP       1249 29.88                             119   -0.61 8  233 234 
 NOR  HE ES       1249 57.92                             119   -0.37 8  233 234 
 NOR  HZ I        1250  6.50         9.4 0.34            119            233 234 
 SML  HZ EP       1249 31.00                             118   -0.37 8  242 336 
 SML  HE ES       1249 59.59                             118   -0.26 8  242 336 
 SML  HZ I        1250  4.35        14.2 0.10            118            242 336 
 HEL  HZ EP   4   1249 36.97                             115    2.08 0  270 256 
 HEL  HN ES   4   1250  3.88                             115   -2.24 0  270 256 
 HEL  HZ I        1250 14.79         5.3 0.30            115            270 256 
 GUY2CHZ EP   4   1249 40.39                             113    2.05 0  300 234 
 GUY2CHN ES       1250 13.01                             113    0.74 7  300 234 
 GUY2CHZ I        1250 22.56         4.5 0.42                           300 234 
 PRA  HZ EP       1249 49.19                             107    0.85 6  391 209 
 PRA  HE ES       1250 29.93                             107   -0.14 6  391 209 
 PRA  HZ I        1250 34.24         3.7 0.36            108            391 209 
                                                                                
