 2016  929 1155 56.5 L   6.812 -73.538115.0  RSN  5 0.2 1.1LRSN                1
 GAP=120        0.54       3.8     2.2  5.7  0.2834E+01  0.7064E+00 -0.1142E+02E
 Epicentro: EL CARMEN - SANTANDER                                              3
 ACTION:UPD 17-08-17 21:17 OP:lp   STATUS:               ID:20160929115556 L   I
 OLDACT:UP  16-09-29 23:32 OP:edw  STATUS:               ID:20160929114744d    3
 OLDACT:UP  16-09-29 23:32 OP:edw  STATUS:               ID:20160929114744d    3
 OLDACT:UP  16-09-29 23:30 OP:edw  STATUS:               ID:20160929114744d    3
 OLDACT:DUP 16-09-29 23:27 OP:edw  STATUS:               ID:20160929114744d    3
 2016-09-29-1148-00M.COL___372                                                 6
 STAT SP IPHASW D HRMM SECON CODA AMPLIT PERI AZIMU VELO AIN AR TRES W  DIS CAZ7
 BAR2 EZ EP       1156 13.44                             157    0.1010 46.2 122 
 BAR2 EZ ES       1156 26.31                             157   -0.1310 46.2 122 
 BAR2 EZ I        1156 27.69         3.6 0.62            155           46.2 122 
 PTB  HZ EP       1156 17.38                             134    0.1710  106 254 
 PTB  HE ES       1156 33.31                             134   -0.0310  106 254 
 PTB  HZ I        1156 34.13         1.9 0.22            133            106 254 
 PAM  EZ EP       1156 18.28                             134    0.1010  110  58 
 PAM  EN ES   4   1156 32.05                             134   -3.01 0  110  58 
 PAM  EZ I        1156 34.40         2.4 0.20            135            110  58 
 RUS  HZ EP   4   1156 13.65                             132   -4.88 0  113 154 
 RUS  HE ES       1156 35.70                             132    0.0110  113 154 
 RUS  HZ I        1156 39.74         1.4 0.30            130            113 154 
 ZAR  HZ EP       1156 22.41                             121   -0.46 9  164 297 
 ZAR  HN ES       1156 43.60                             121    0.20 9  164 297 
 ZAR  HZ I        1156 44.14         2.3 0.26            121            164 297 
                                                                                
