 2014 1229 1809 13.5 L   6.740 -73.145158.6  RSN  4 0.4 1.7LRSN                1
 GAP=251        0.93      11.3     7.1  8.4  0.3139E+02  0.1136E+02  0.3574E+01E
 Epicentro: LOS SANTOS - SANTANDER                                             3
 ACTION:UPD 15-02-10 17:08 OP:nd   STATUS:               ID:20141229180913 L   I
 OLDACT:UP  14-12-29 22:13 OP:cam  STATUS:               ID:20141229180817     3
 OLDACT:REG 14-12-29 20:50 OP:cam  STATUS:               ID:20141229180817     3
 2014-12-29-1808-17M.COL___280                                                 6
 STAT SP IPHASW D HRMM SECON CODA AMPLIT PERI AZIMU VELO AIN AR TRES W  DIS CAZ7
 BAR2 EZ EP       18 9 34.77                             174    0.1910 16.8 194 
 BAR2 EZ ES       18 9 50.65                             174   -0.3610 16.8 194 
 BAR2 EZ I        18 9 52.52         8.4 0.30            164           16.8 194 
 BRR  HZ EP       18 9 35.86                             153   -0.3810 74.6 303 
 BRR  HE ES       18 9 54.54                             153    0.5710 74.6 303 
 BRR  HE I        18 9 56.10        12.3 0.18            152           74.6 303 
 PTB  HZ EP       18 9 41.82                             135    0.37 9  147 261 
 PTB  HN ES       1810  3.19                             135   -0.06 9  147 261 
 PTB  HZ I        1810 10.52         5.5 0.40            132            147 261 
 ZAR  HE ES       1810 12.89                             125   -0.38 8  207 294 
                                                                                
