 2010  829 1419 10.4 L   6.558 -73.491113.6  RSN 15 0.4 2.7LRSN                1
 GAP= 65        0.95       2.9     4.5  5.5 -0.4633E+01  0.9115E+01  0.1828E+01E
 Epicentro: EL CARMEN DE CHUCURI - SANTANDER                                   3
 ACTION:UP  10-09-07 10:59 OP:vdl  STATUS:               ID:20100829141910 L   I
 2010-08-29-1415-20S.COL___120                                                 6
 STAT SP IPHASW D HRMM SECON CODA AMPLIT PERI AZIMU VELO SNR AR TRES W  DIS CAZ7
 BAR2 SZ EP       1419 26.51                             162     0.010   34  84 
 BAR2 SZ ES   1   1419 39.04                             162     0.0 7   34  84 
 BAR2 SZ I        1419 40.32       503.2 0.45                            34  84 
 BTL  SZ EP       1419 27.03                             156     0.010   47  32 
 BTL  SZ ES   2   1419 39.91                             156    -0.1 5   47  32 
 BRR  HZ EP       1419 27.25                             148    -0.510   66 338 
 BRR  HN ES       1419 41.85                             148     0.510   66 338 
 BRR  HZ I        1419 46.23       125.8 0.20                            66 338 
 GIR2 SZ EP       1419 27.97                             148     0.010   66  30 
 GIR2 SZ ES   2   1419 40.78                             148    -1.0 5   66  30 
 RUS  HZ EP   1   1419 29.67                             141    -0.3 7   86 148 
 RUS  HN ES   1   1419 45.07                             141    -0.1 7   86 148 
 RUS  HZ I        1419 46.72        76.7 0.22                            86 148 
 GUE  SZ EP       1419 36.43                             123     0.5 9  154  24 
 GUE  SZ I        1419 57.54        49.2 0.14                           154  24 
 GRA  SZ EP       1419 36.75                             120    -0.2 9  165  27 
 GRA  SZ ES   2   1419 57.93                                     0.3 5  165  27 
 OCA  SZ EP       1419 38.84                             117    -0.4 9  187   6 
 OCA  SZ ES       1420  2.13                             117     0.4 9  187   6 
 OCA  SZ I        1420 10.31        85.8 1.07                           187   6 
 CHI  HZ EP   1   1419 42.68                             113     0.0 6  215 187 
 CHI  HZ I        1419 44.28        21.3 0.21                           215 187 
 CHI  HN ES   2   1420  8.27                             113     0.4 4  215 187 
 HEL  HZ EP   1   1419 43.72                             112    -0.5 6  229 260 
 HEL  HN ES   1   1420  9.78                             112    -0.8 6  229 260 
 HEL  HZ I        1420 13.49        39.7 0.05                           229 260 
 RREF HZ EP   1   1419 49.94                             107     0.1 6  275 228 
 RREF HN ES   1   1420 21.17                             107     0.5 6  275 228 
 RREF HZ I        1420 25.16        29.7 0.46                           275 228 
 TOL  SZ EP       1419 52.62                             106     0.5 7  298 223 
 TOL  SZ ES   2   1420 25.04                             106     0.4 4  298 223 
 DBB  SZ EP   1   1419 52.40                             105    -0.2 5  305 280 
 ANIL HZ EP   1   1419 54.53                             105     0.8 5  312 223 
 ANIL HE ES   2   1420 27.15                             105    -0.3 3  312 223 
 ANIL HZ I        1420 36.67        66.5 0.18                           312 223 
 PRA  HZ EP       1419 57.40                             102    -0.6 6  350 206 
 PRA  HN ES   1   1420 35.96                             102     0.8 5  350 206 
 PRA  HZ I        1420 40.97        25.9 1.42                           350 206 
                                                                                
