 2013  629 1605 25.6 L   6.801 -73.171140.5  RSN 11 0.5 1.7LRSN                1
 GAP=133        0.90       3.6     4.8  7.5 -0.1697E+00  0.1421E+02  0.1081E+01E
 Epicentro: LOS SANTOS - SANTANDER                                             3
 ACTION:UPD 14-01-08 09:58 OP:ep   STATUS:               ID:20130629160525 L   I
 OLDACT:DUP 13-06-29 19:01 OP:jn   STATUS:               ID:20130629155960d    3
 OLDACT:REG 13-06-29 16:19 OP:jn   STATUS:               ID:20130629155959     3
 2013-06-29-1559-59M.COL___266                                                 6
 STAT SP IPHASW D HRMM SECON CODA AMPLIT PERI AZIMU VELO AIN AR TRES W  DIS CAZ7
 BAR2 SZ EP   1   16 5 44.48                             170   -0.13 7 23.2 183 
 BAR2 SZ ES   1   16 5 59.93                             170    0.50 7 23.2 183 
 BAR2 SZ I        16 6  1.54        12.8 0.46            169           23.2 183 
 GIR2 SZ EP       16 5 45.18                             167    0.5310 30.8 355 
 BRR  HZ EP   1   16 5 46.59                             152    0.53 7 68.7 300 
 BRR  HN ES   4   16 6  3.84                             152    1.84 0 68.7 300 
 BRR  HZ I        16 6  8.90         8.1 0.14            152           68.7 300 
 PAM  SZ EP   1   16 5 47.36                             149   -0.02 7 79.0  41 
 PAM  SN ES   1   16 6  3.89                             149   -0.46 7 79.0  41 
 PAM  SZ I        16 6  6.89         6.1 0.60            156           79.0  41 
 RUS  HZ EP       16 5 48.98                             142    0.1010  101 175 
 RUS  HN ES       16 6  6.47                             142   -0.5610  101 175 
 RUS  HZ I        16 6  9.97         6.7 0.48            147            101 175 
 PTB  HZ EP   1   16 5 51.55                             131   -0.37 7  145 259 
 PTB  HN ES   1   16 6 12.27                             131   -0.16 7  145 259 
 PTB  HZ I        16 6 16.08         8.0 0.16            133            145 259 
 ZAR  HE ES   1   16 6 22.47                             121    0.18 6  201 292 
 ZAR  HZ I        16 6 28.52         9.3 0.70            124            201 292 
 NOR  HZ EP   1   16 6  0.05                             117   -0.77 6  233 234 
 NOR  HN ES   1   16 6 28.01                             117   -0.26 6  233 234 
 NOR  HZ I        16 6 31.04         5.2 0.24            121            233 234 
 SML  HN ES   1   16 6 29.57                             116   -0.48 6  242 336 
 CHI  HZ EP   1   16 6  2.83                             116   -0.14 6  248 195 
 CHI  HN ES   1   16 6 32.80                             116    0.70 6  248 195 
 CHI  HZ I        16 6 37.98         3.2 0.32            120            248 195 
 GUY2CHZ EP   1   16 6  9.59                             111    0.84 5  299 234 
                                                                                
