 2011  329 1105 46.0 L   6.792 -73.018142.5  RSN  5 0.3 1.8LRSN                1
 GAP=187        0.81       6.1    11.3  9.4 -0.2198E+02 -0.4299E+02  0.6166E+01E
 Epicentro: CEPITA - SANTANDER                                                 3
 ACTION:UP  11-06-16 14:36 OP:jfem STATUS:               ID:20110329110546 L   I
 2011-03-29-1104-14S.COL___138                                                 6
 STAT SP IPHASW D HRMM SECON CODA AMPLIT PERI AZIMU VELO SNR AR TRES W  DIS CAZ7
 BAR2 SZ EP       11 6  5.93                             168     0.510   29 220 
 BAR2 SZ ES   1   11 6 20.50                             168     0.0 7   29 220 
 BAR2 SZ I        11 6 23.81        17.9 0.34                            29 220 
 BTL  SZ IP       11 6  5.14                             168    -0.310   31 297 
 BRR  HZ EP   1   11 6  7.81                             148     0.2 7   84 294 
 BRR  HN ES   1   11 6 24.33                             148    -0.2 7   84 294 
 BRR  HZ I        11 6 27.46        21.6 0.47                            84 294 
 GRA  SZ IP       11 6 10.82                             137     0.110  123  11 
 GRA  SZ ES   2   11 6 29.57                             137    -0.5 5  123  11 
 GRA  SZ I        11 6 35.36         6.9 0.30                           123  11 
 CHI  HZ EP   2   11 6 23.39                             116    -0.5 4  252 198 
 CHI  HE ES   2   11 6 52.96                             116    -0.5 4  252 198 
 CHI  HZ I        11 7  3.76         3.3 0.60                           252 198 
                                                                                
