 2010  329 1155  7.4 L   6.820 -72.942145.5  RSN  7 0.4 2.2LRSN                1
 GAP=215        0.62       4.2     9.5  7.0 -0.1071E+02  0.3933E+01  0.9062E+01E
 Epicentro: CEPITA - SANTANDER                                                 3
 ACTION:UP  10-08-24 09:56 OP:vdl  STATUS:               ID:20100329115507 L   I
 2010-03-29-1153-47S.COL___098                                                 6
 STAT SP IPHASW D HRMM SECON CODA AMPLIT PERI AZIMU VELO SNR AR TRES W  DIS CAZ7
 BAR2 SZ EP   1   1155 27.62                             165     0.3 7   37 227 
 BAR2 SZ ES   2   1155 42.59                             165    -0.3 5   37 227 
 BRR  HZ EP   1   1155 29.53                             146    -0.2 7   91 291 
 BRR  HN ES   2   1155 46.83                             146    -0.3 5   91 291 
 BRR  HZ I        1155 50.36        33.0 0.09                            91 291 
 OCA  SZ EP   1   1155 35.91                             129     0.0 7  162 345 
 OCA  SZ ES   2   1155 58.60                             129     0.5 5  162 345 
 OCA  SZ I        1156  2.10        27.9 0.20                           162 345 
 CHI  HZ EP   1   1155 45.94                             116    -0.1 6  257 200 
 CHI  HZ I        1155 48.44         4.6 0.60                           257 200 
 CHI  HN ES   2   1156 17.02                             116     0.8 4  257 200 
 HEL  HZ EP   1   1155 49.99                             113    -0.1 5  294 256 
 HEL  HZ I        1156 28.71         6.8 0.58                           294 256 
 RREF BZ EP   1   1155 55.72                             109     0.0 5  341 232 
 RREF BE ES   2   1156 34.15                             109     0.8 3  341 232 
 RREF BZ I        1156 39.55         6.1 0.23                           341 232 
 PRA  HZ EP   1   1156  1.87                             106    -0.6 4  405 212 
 PRA  HE ES   2   1156 45.20                             106    -0.2 3  405 212 
 PRA  HZ I        1156 50.56         7.1 0.72                           405 212 
                                                                                
