 2015  129 1009 19.9 L   6.812 -73.174144.4  RSN  7 0.3 1.2LRSN                1
 GAP=132        0.68       3.4     4.6  6.5 -0.6450E+01  0.1213E+02 -0.7692E+01E
 Epicentro: LOS SANTOS - SANTANDER                                             3
 ACTION:UPD 15-03-02 15:43 OP:nd   STATUS:               ID:20150129100919 L   I
 OLDACT:REG 15-01-29 20:38 OP:spq  STATUS:               ID:20150129100748     3
 2015-01-29-1007-48M.COL___271                                                 6
 STAT SP IPHASW D HRMM SECON CODA AMPLIT PERI AZIMU VELO AIN AR TRES W  DIS CAZ7
 BAR2 EZ EP       10 9 39.27                             170   -0.1310 24.4 182 
 BAR2 EZ ES   1   10 9 54.60                             170    0.00 7 24.4 182 
 BAR2 EZ I        10 9 57.34         2.0 0.24            171           24.4 182 
 BRR  HZ EP   1   10 9 41.30                             153    0.58 7 67.8 299 
 PAM  SZ EP       10 9 42.11                             150    0.0710 78.4  42 
 PAM  SE ES   1   10 9 59.39                             150    0.09 7 78.4  42 
 PAM  SZ I        1010  1.46         3.7 0.56            153           78.4  42 
 RUS  HE ES   1   1010  1.69                             143   -0.47 7  102 174 
 RUS  HZ I        1010  4.72         1.7 0.34            146            102 174 
 PTB  HZ EP   1   10 9 45.87                             132   -0.64 7  145 258 
 PTB  HN ES   1   1010  7.26                             132   -0.00 7  145 258 
 PTB  HZ I        1010  8.87         1.8 0.28            135            145 258 
 SPBC HZ EP       10 9 48.60                             129    0.38 9  162 218 
 SPBC HN ES       1010 10.41                             129    0.11 9  162 218 
 SPBC HZ I        1010 11.69         2.9 0.12            132            162 218 
 SML  HZ EP   1   10 9 55.85                             117   -0.33 6  241 336 
 SML  HN ES   1   1010 24.39                             117   -0.09 6  241 336 
 SML  HZ I        1010 26.21         2.7 0.26            120            241 336 
                                                                                
