 2016  529 1711 39.7 L   6.831 -73.183145.8  RSN  8 0.4 2.0LRSN                1
 GAP=130        0.94       3.3     4.3  5.7 -0.4991E+01  0.5113E+01  0.2621E+00E
 Epicentro: ZAPATOCA - SANTANDER                                               3
 ACTION:UPD 16-08-18 17:50 OP:cam  STATUS:               ID:20160529171139 L   I
 OLDACT:REG 16-05-29 22:47 OP:ar   STATUS:               ID:20160529170746     3
 2016-05-29-1707-46M.COL___316                                                 6
 STAT SP IPHASW D HRMM SECON CODA AMPLIT PERI AZIMU VELO AIN AR TRES W  DIS CAZ7
 BAR2 EZ EP       1711 59.40                             169   -0.0410 26.4 180 
 BAR2 EZ ES       1712 14.45                             169   -0.3610 26.4 180 
 BAR2 EZ I        1712 15.71        14.1 0.18            171           26.4 180 
 BRR  HZ EP       1712  1.25                             154    0.6410 65.9 298 
 BRR  HN ES       1712 17.59                             154    0.7110 65.9 298 
 BRR  HZ I        1712 21.81        16.5 0.18            153           65.9 298 
 PAM  EZ EP       1712  2.27                             151    0.3010 77.6  44 
 PAM  EN ES       1712 19.24                             151   -0.0710 77.6  44 
 PAM  EZ I        1712 21.21        15.6 0.48            153           77.6  44 
 RUS  HZ EP       1712  3.78                             143    0.0110  104 174 
 RUS  HN ES       1712 22.33                             143   -0.1910  104 174 
 RUS  HZ I        1712 23.56         9.0 0.44            146            104 174 
 PTB  HZ EP       1712  6.07                             133   -0.34 9  144 257 
 PTB  HN ES       1712 26.90                             133   -0.31 9  144 257 
 PTB  HZ I        1712 29.22        12.3 0.48            134            144 257 
 OCA  HZ EP       1712  7.36                             130   -0.34 9  156 355 
 OCA  HN ES       1712 29.07                             130   -0.43 9  156 355 
 OCA  HZ I        1712 33.63        28.3 0.26            132            156 355 
 SPBC HZ EP       1712  8.62                             129    0.36 9  163 217 
 SPBC HN ES       1712 30.76                             129    0.26 9  163 217 
 SPBC HZ I        1712 32.62        13.2 0.09            131            163 217 
 NOR  HZ EP       1712 15.32                             119   -0.01 8  233 233 
 NOR  HE ES       1712 42.65                             119   -0.44 8  233 233 
 NOR  HZ I        1712 45.05         6.8 0.18            120            233 233 
                                                                                
