 2012  529 1530 52.4 L   6.801 -73.206143.7  RSN  9 0.2 2.3LRSN                1
 GAP=129        0.43       1.7     2.2  3.4 -0.4873E+00  0.2857E+01  0.8298E+00E
 Epicentro: ZAPATOCA - SANTANDER                                               3
 ACTION:UP  12-07-05 12:08 OP:pat  STATUS:               ID:20120529153052 L   I
 2012-05-29-1530-00M.COL___200                                                 6
 STAT SP IPHASW D HRMM SECON CODA AMPLIT PERI AZIMU VELO AIN AR TRES W  DIS CAZ7
 BAR2 SZ EP       1531 12.05                             170     0.210   23 174 
 BAR2 SZ ES   1   1531 27.00                             170     0.1 7   23 174 
 BAR2 SZ I        1531 28.34        52.1 0.41                            23 174 
 PAM  SZ EP       1531 14.75                             149     0.010   82  43 
 PAM  SN ES       1531 32.08                             149     0.010   82  43 
 RUS  HZ EP   1   1531 16.00                             143     0.0 7  101 172 
 RUS  HN ES       1531 34.34                             143    -0.110  101 172 
 RUS  HZ I        1531 35.97        25.5 0.32                           101 172 
 PTB  HZ EP   1   1531 18.28                             133    -0.4 7  141 258 
 PTB  HE ES   1   1531 39.20                             133     0.1 7  141 258 
 PTB  HZ I        1531 47.39        23.9 0.40                           141 258 
 OCA  HN ES   1   1531 42.11                             129    -0.3 7  160 356 
 ZAR  HZ EP   1   1531 24.26                             123     0.1 6  198 293 
 ZAR  HE ES   1   1531 48.86                             123     0.0 6  198 293 
 ZAR  HZ I        1531 57.17        26.2 0.22                           198 293 
 NOR  SN ES   1   1531 54.93                             119     0.1 6  229 233 
 CHI  HZ EP       1531 29.92                             117     0.1 8  247 194 
 CHI  HZ I        1531 32.77         9.4 0.43                           247 194 
 CHI  HN ES   1   1531 58.92                             117    -0.1 6  247 194 
 PRA  HZ EP   1   1531 45.81                             106     0.3 4  389 209 
 PRA  HE ES   1   1532 26.54                             106    -0.4 4  389 209 
                                                                                
