 2017 1029 1013  2.0 L   6.834 -73.143144.8  RSN 16 0.7 2.1LRSN                1
 GAP= 75        1.52       4.2     4.0  7.1  0.1190E+00  0.6998E+01  0.5065E+01E
 Epicentro: LOS SANTOS - SANTANDER                                             3
 ACTION:UPD 17-11-07 19:38 OP:rebc STATUS:               ID:20171029101302 L   I
 OLDACT:UP  17-10-29 20:49 OP:dani STATUS:               ID:20171029100738     3
 OLDACT:UP  17-10-29 20:47 OP:dani STATUS:               ID:20171029100738     3
 OLDACT:REG 17-10-29 19:45 OP:dani STATUS:               ID:20171029100738     3
 2017-10-29-1008-00M.COL___405                                                 6
 STAT SP IPHASW D HRMM SECON CODA AMPLIT PERI AZIMU VELO AIN AR TRES W  DIS CAZ7
 BAR2 EZ EP     D 1013 21.50                             169   -0.1010 27.1 189 
 BAR2 EZ ES       1013 36.54                             169   -0.3510 27.1 189 
 BAR2 EZ I        1013 37.65        40.7 0.16            167           27.1 189 
 BRR  HZ EP     D 1013 23.42                             153    0.4510 69.7 296 
 BRR  HN ES       1013 40.51                             153    1.1910 69.7 296 
 BRR  HZ I        1013 41.59        30.7 0.26            152           69.7 296 
 PAM  EZ IP     D 1013 24.34                             151    0.4010 74.4  41 
 PAM  EN ES       1013 41.48                             151    0.4310 74.4  41 
 PAM  EZ I        1013 43.94        12.2 0.72            156           74.4  41 
 RUS  HZ EP       1013 25.86                             143   -0.0810  104 176 
 RUS  HN ES       1013 43.80                             143   -0.8010  104 176 
 RUS  HZ I        1013 45.19        13.1 0.34            143            104 176 
 PTB  HZ EP       1013 28.38                             132   -0.61 9  149 257 
 PTB  HN ES       1013 49.31                             132   -0.72 9  149 257 
 PTB  HZ I        1013 56.52        10.1 0.30            131            149 257 
 TAM  HZ EP       1013 29.73                             130    0.05 9  156 106 
 TAM  HN ES       1013 51.14                             130   -0.13 9  156 106 
 SPBC HZ EP       1013 30.42                             128   -0.31 9  166 218 
 SPBC HN ES       1013 52.07                             128   -1.06 9  166 218 
 SPBC HZ I        1013 57.78        18.5 0.22            129            166 218 
 YPLC HZ EP     C 1013 31.77                             126   -0.28 9  180 152 
 YPLC HN ES       1013 55.60                             126    0.12 9  180 152 
 YPLC HZ I        1014  0.56         5.3 0.32            128            180 152 
 ZAR  HZ EP       1013 34.32                             122    0.05 9  203 291 
 ZAR  HN ES       1014  0.41                             122    0.98 9  203 291 
 ZAR  HZ I        1014  8.15        15.5 0.36            123            203 291 
 NOR  HZ EP       1013 37.36                             118   -0.58 8  237 234 
 NOR  HN ES       1014  5.13                             118   -0.83 8  237 234 
 NOR  HZ I        1014 12.60         7.9 0.48            119            237 234 
 CHI  HN ES   1   1014 10.30                             117    0.57 6  252 195 
 ROSC BZ EP       1013 41.72                             116    1.28 8  256 211 
 ROSC BN ES       1014 10.64                             116    0.22 8  256 211 
 ROSC BZ I        1014 17.24         9.8 0.35            117            256 211 
 GUY2CHZ EP       1013 47.08                             112    1.24 7  304 234 
 GUY2CHE ES       1014 20.57                             112    0.54 7  304 234 
 GUY2CHZ I        1014 26.39         4.6 0.28                           304 234 
 PRA  HZ EP       1013 55.45                             106   -0.44 6  395 209 
 PRA  HN ES       1014 38.33                             106    0.41 6  395 209 
 PRA  HZ I        1014 44.04         4.4 0.25            107            395 209 
 ORTC HZ EP       1013 56.74                             106    0.48 6  399 216 
 ORTC HN ES       1014 39.13                             106    0.54 6  399 216 
 ORTC HZ I        1014 44.33         3.2 0.29            107            399 216 
 SJC  HZ EP       1013 55.95                             106   -1.23 6  406 327 
 SJC  HN ES       1014 38.74                             106   -1.48 6  406 327 
                                                                                
