 2014 1029 1409 35.2 L   5.840 -73.692125.0  RSN  4 0.1 1.4LRSN                1
 GAP=131        0.34       1.6     2.4  5.2 -0.1342E+00  0.2212E+01  0.2286E+00E
 Epicentro: PUENTE NACIONAL - SANTANDER                                        3
 ACTION:UPD 14-11-29 23:58 OP:nd   STATUS:               ID:20141029140935 L   I
 OLDACT:REG 14-10-31 05:31 OP:mh   STATUS:               ID:20141029140748     3
 2014-10-29-1407-48M.COL___280                                                 6
 STAT SP IPHASW D HRMM SECON CODA AMPLIT PERI AZIMU VELO AIN AR TRES W  DIS CAZ7
 RUS  HZ EP       14 9 54.73                             150    0.1210 67.6  85 
 RUS  HZ I        1410 12.82         1.8 0.16            137           67.6  85 
 BAR2 SZ EP   1   14 9 56.60                             139    0.01 7  100  34 
 BAR2 SZ ES       1410 13.22                             139   -0.0710  100  34 
 BAR2 SZ I        1410 14.73        17.6 0.36            127            100  34 
 PTB  HZ EP       14 9 57.39                             134   -0.0810  115 312 
 PTB  HN ES   1   1410 14.97                             134    0.11 7  115 312 
 PTB  HZ I        1410 18.22         5.7 0.27            128            115 312 
 CHI  HN ES       1410 18.88                             130   -0.0410  134 182 
 CHI  HZ I        1410 21.82         3.8 0.30            120            134 182 
                                                                                
