 2010  529 1101 52.8 L   6.848 -73.131145.4  RSN  7 0.4 2.1LRSN                1
 GAP=174        0.84       4.7     8.9  7.1 -0.2228E+02  0.2205E+02 -0.8816E+01E
 Epicentro: LOS SANTOS - SANTANDER                                             3
 ACTION:UP  10-08-24 10:07 OP:vdl  STATUS:               ID:20100529110152 L   I
 2010-05-29-1058-01S.COL___109                                                 6
 STAT SP IPHASW D HRMM SECON CODA AMPLIT PERI AZIMU VELO SNR AR TRES W  DIS CAZ7
 GIR2 SZ EP       11 2 12.36                             169     0.110   26 345 
 GIR2 SZ ES   2   11 2 28.23                             169     0.7 5   26 345 
 BAR2 SZ EP       11 2 12.52                             168     0.010   29 192 
 BAR2 SZ ES       11 2 27.61                             168    -0.310   29 192 
 GUE  SZ EP   1   11 2 16.93                             141    -0.1 7  111  12 
 GRA  SZ IP       11 2 17.86                             138     0.310  120  17 
 GRA  SZ ES       11 2 37.22                             138     0.410  120  17 
 OCA  SZ EP       11 2 20.29                             130    -0.3 9  155 352 
 OCA  SZ ES       11 2 41.81                             130    -0.5 9  155 352 
 OCA  SZ I        11 2 46.53        19.8 0.20                           155 352 
 HEL  HZ EP   2   11 2 34.25                             114     0.9 4  275 255 
 HEL  HE ES   2   11 3  5.77                             114     0.9 4  275 255 
 HEL  HZ I        11 3 10.80         5.7 0.48                           275 255 
 RREF BZ EP   2   11 2 39.09                             110    -0.4 3  326 229 
 RREF BE ES   2   11 3 15.21                             110    -0.7 3  326 229 
 RREF BZ I        11 3 23.34         5.1 0.27                           326 229 
                                                                                
