 2011 1129 1947  9.2 L   6.274 -73.614107.1  RSN  6 0.2 2.0LRSN                1
 GAP=115        0.53       3.0     3.2  5.7 -0.2339E+01  0.7226E+01 -0.1318E+01E
 Epicentro: SANTA HELENA DEL OPON - SANTANDER                                  3
 ACTION:UPD 12-07-13 16:13 OP:ep   STATUS:               ID:20111129194709 L   I
 2011-11-29-1940-00M.COL___181                                                 6
 STAT SP IPHASW D HRMM SECON CODA AMPLIT PERI AZIMU VELO AIN AR TRES W  DIS CAZ7
 BAR2 SZ EP       1947 26.02                             149    0.1510 59.3  54 
 BAR2 SZ ES   1   1947 39.16                             149    0.28 7 59.3  54 
 BAR2 SZ I        1947 40.52        28.4 0.21                          59.3  54 
 RUS  HZ EP   1   1947 26.98                             144   -0.14 7 72.4 126 
 RUS  HN ES   1   1947 40.88                             144   -0.21 7 72.4 126 
 BRR  HZ EP       1947 28.20                             136    0.1610 92.7 353 
 BRR  HE ES   1   1947 42.29                             136   -0.44 7 92.7 353 
 BRR  HZ I        1947 44.94        15.6 0.21                          92.7 353 
 GIR2 SZ EP   1   1947 29.05                             133    0.15 7  100  28 
 PAM  SZ EP   1   1947 34.57                             120   -0.17 7  155  41 
 NOR  SZ EP   1   1947 34.33                             119   -0.31 7  160 241 
 NOR  EN ES   1   1947 54.71                             119    0.23 7  160 241 
 NOR  SN ES   1   1947 54.92                             119            160 241 
 NOR  EN I        1947 56.99        23.7 0.58                           160 241 
                                                                                
