 2017  829 1014 49.2 L   6.788 -73.106139.9  RSN  6 0.4 1.5LRSN                1
 GAP=241        0.88       4.3     5.3  6.8  0.6813E+01  0.9955E+01  0.1717E+01E
 Epicentro: LOS SANTOS - SANTANDER                                             3
 ACTION:UPD 17-09-04 20:26 OP:rebc STATUS:               ID:20170829101449 L   I
 OLDACT:REG 17-08-29 20:22 OP:dhb  STATUS:               ID:20170829100745     3
 2017-08-29-1008-00M.COL___417                                                 6
 STAT SP IPHASW D HRMM SECON CODA AMPLIT PERI AZIMU VELO AIN AR TRES W  DIS CAZ7
 BAR2 EZ IP     C 1015  7.83                             170   -0.2710 23.3 201 
 BAR2 EZ ES       1015 22.48                             170   -0.3810 23.3 201 
 BAR2 EZ I        1015 23.70         6.2 0.18            169           23.3 201 
 BRR  HZ EP       1015 10.01                             150    0.0510 75.7 298 
 BRR  HN ES       1015 26.50                             150    0.3310 75.7 298 
 BRR  HZ I        1015 30.97         4.3 0.11            148           75.7 298 
 RUS  HZ IP     C 1015 12.15                             143   -0.0910 99.1 179 
 RUS  HN ES       1015 30.77                             143    0.5410 99.1 179 
 RUS  HZ I        1015 32.20         5.5 0.41            146           99.1 179 
 SPBC HZ EP   1   1015 17.02                             127   -0.38 7  165 220 
 SPBC HN ES       1015 39.16                             127   -0.26 9  165 220 
 SPBC HZ I        1015 41.53         4.2 0.07            129            165 220 
 ZAR  HZ EP   1   1015 22.58                             120    0.86 6  209 292 
 ZAR  HN ES       1015 46.77                             120   -0.33 8  209 292 
 ZAR  HZ I        1015 54.12         2.6 0.28            121            209 292 
 NOR  HN ES       1015 52.87                             117    0.15 8  238 235 
                                                                                
