 2013  329 1122 38.7 L   6.806 -73.137149.4  RSN 13 0.5 2.7LRSN                1
 GAP= 71        0.99       3.1     3.1  5.0  0.7967E-01  0.3372E+01  0.3204E+00E
 Epicentro: LOS SANTOS - SANTANDER                                             3
 ACTION:UPD 13-04-09 14:05 OP:ep   STATUS:               ID:20130329112238 L   I
 2013-03-29-1120-00M.COL___245                                                 6
 STAT SP IPHASW D HRMM SECON CODA AMPLIT PERI AZIMU VELO AIN AR TRES W  DIS CAZ7
 BAR2 SZ IP       1122 58.70                             170   -0.1310 24.1 192 
 BAR2 SZ ES   1   1123 14.33                             170   -0.16 7 24.1 192 
 BAR2 SZ I        1123 16.41        77.0 0.28            170           24.1 192 
 GIR2 SZ IP     C 1122 58.75                             168   -0.0910 30.8 348 
 GIR2 SZ ES   1   1123 14.78                             168    0.27 7 30.8 348 
 BRR  HZ IP     C 1123  0.56                             153    0.2410 71.7 298 
 BRR  HE ES       1123 18.09                             153    0.9510 71.7 298 
 BRR  HE I        1123 18.81       110.4 0.20            150           71.7 298 
 PAM  SZ IP     C 1123  1.45                             152    0.1710 76.3  39 
 PAM  SN ES       1123 18.82                             152   -0.0410 76.3  39 
 PAM  SN I        1123 20.05        70.1 0.42            153           76.3  39 
 RUS  HZ EP   1   1123  2.63                             144   -0.26 7  101 177 
 RUS  HN ES       1123 21.22                             144   -0.5110  101 177 
 PTB  HZ EP   1   1123  5.25                             133   -0.85 7  149 259 
 PTB  HN ES       1123 26.97                             133   -0.47 9  149 259 
 PTB  HN I        1123 31.73        61.6 0.22            131            149 259 
 TAM  HZ IP     C 1123  6.85                             131    0.21 9  154 105 
 TAM  HN ES       1123 28.64                             131    0.24 9  154 105 
 TAM  HN I        1123 29.17        59.8 0.48            134            154 105 
 OCA  HZ EP   1   1123  7.26                             131   -0.03 7  160 353 
 OCA  HN ES       1123 28.79                             131   -0.76 9  160 353 
 OCA  HN I        1123 32.57       215.3 0.36            130            160 353 
 ZAR  HZ EP       1123 11.43                             123   -0.06 9  205 292 
 ZAR  HE ES   1   1123 36.98                             123   -0.06 6  205 292 
 ZAR  HE I        1123 44.47       100.0 0.42            122            205 292 
 HEL  HZ EP       1123 20.06                             115    0.80 8  273 256 
 HEL  HE ES   1   1123 51.72                             115    0.85 6  273 256 
 HEL  HE I        1123 58.18        16.8 0.36            115            273 256 
 URE  HZ EP   1   1123 19.73                             114   -0.33 6  284 292 
 URE  HN ES   2   1123 51.33                             114   -0.96 4  284 292 
 URE  HN I        1124  0.38        30.6 0.30            113            284 292 
 COD  HZ EP   1   1123 27.08                             110   -0.12 5  348 354 
 COD  HN ES       1124  5.29                             110    0.29 6  348 354 
 COD  HN I        1124  9.68        11.7 0.32            110            348 354 
 PRA  HZ EP       1123 32.34                             107   -0.17 6  393 210 
 PRA  HN ES       1124 14.82                             107    0.37 6  393 210 
 PRA  HN I        1124 19.12         8.2 0.24            107            393 210 
                                                                                
