 2015 1229 1818 26.0 L   6.823 -73.167147.2  RSN 19 0.6 2.7LRSN                1
 GAP=133        0.91       2.5     3.4  4.9  0.8667E-01  0.4650E+01 -0.2360E+00E
 Epicentro: LOS SANTOS - SANTANDER                                             3
 ACTION:UPD 16-02-04 15:08 OP:cam  STATUS:               ID:20151229181826 L   I
 OLDACT:REG 15-12-29 20:51 OP:dnl  STATUS:               ID:20151229181748     3
 2015-12-29-1817-48M.COL___340                                                 6
 STAT SP IPHASW D HRMM SECON CODA AMPLIT PERI AZIMU VELO AIN AR TRES W  DIS CAZ7
 BAR2 EZ EP       1818 45.87                             170    0.0510 25.6 184 
 BAR2 EZ ES       1819  0.47                             170   -0.8410 25.6 184 
 BAR2 EZ I        1819  2.97        79.9 0.17            168           25.6 184 
 BRR  HZ EP   2   1818 47.70                             153    0.60 5 67.9 298 
 BRR  HE ES   2   1819  4.06                             153    0.48 5 67.9 298 
 BRR  HZ I        1819  7.78        52.7 0.25            151           67.9 298 
 PAM  EZ EP       1818 48.68                             151    0.3610 77.0  42 
 PAM  EE ES   2   1819  6.18                             151    0.43 5 77.0  42 
 PAM  EZ I        1819  8.43        27.6 0.19            157           77.0  42 
 RUS  HZ EP       1818 49.93                             143   -0.1310  103 175 
 RUS  HN ES       1819  8.59                             143   -0.2610  103 175 
 RUS  HZ I        1819  9.61        53.7 0.28            146            103 175 
 PTB  HZ EP       1818 52.45                             132   -0.45 9  146 258 
 PTB  HN ES       1819 13.88                             132   -0.02 9  146 258 
 PTB  HZ I        1819 17.26        58.3 0.16            132            146 258 
 SPBC HZ EP       1818 54.77                             129    0.14 9  164 218 
 SPBC HN ES       1819 17.21                             129    0.23 9  164 218 
 SPBC HZ I        1819 21.95        69.2 0.13            130            164 218 
 ZAR  HZ EP       1818 58.52                             123    0.33 9  201 292 
 ZAR  HE ES       1819 23.84                             123    0.52 9  201 292 
 ZAR  HZ I        1819 29.52        55.8 0.30            123            201 292 
 NOR  HZ EP       1819  1.69                             118   -0.05 8  234 234 
 NOR  HN ES       1819 29.49                             118   -0.15 8  234 234 
 NOR  HZ I        1819 37.19        43.5 0.19            120            234 234 
 SML  HZ EP       1819  2.31                             118   -0.01 8  240 336 
 SML  HE ES       1819 30.67                             118   -0.01 8  240 336 
 SML  HZ I        1819 32.98        44.2 0.10            120            240 336 
 CHI  HZ EP       1819  3.91                             117   -0.04 8  250 194 
 CHI  HN ES       1819 33.13                             117   -0.44 8  250 194 
 CHI  HZ I        1819 39.13        25.5 0.21            119            250 194 
 ROSC BZ EP       1819  5.32                             116    1.04 8  254 210 
 ROSC BN ES   2   1819 35.28                             116    1.13 4  254 210 
 ROSC BZ I        1819 39.51        50.2 0.31            118            254 210 
 HEL  HE ES       1819 37.19                             115   -0.17 8  270 255 
 HEL  HZ I        1819 44.32        29.0 0.46            116            270 255 
 URE  HZ EP       1819  5.90                             114   -0.86 7  281 292 
 URE  HE ES   4   1819 36.66                             114   -1.92 0  281 292 
 URE  HZ I        1819 50.00        39.6 0.24            115            281 292 
 GUY2CHZ EP       1819 10.00                             112    0.40 7  301 234 
 GUY2CHE ES   2   1819 43.88                             112    0.26 4  301 234 
 GUY2CHZ I        1819 51.72        25.7 0.65                           301 234 
 SOCV BZ EP   4   1819  7.60                             112   -1.55 0  302  57 
 SOCV BN ES   4   1819 38.94                             112   -3.90 0  302  57 
 DBB  SZ EP   4   1819 14.29                             109    1.08 0  337 274 
 DBB  SZ ES       1819 49.90                             109   -0.17 7  337 274 
 ANIL HZ EP   4   1819 16.91                             108    1.06 0  358 224 
 ANIL HE ES   2   1819 55.91                             108    1.15 3  358 224 
 PRA  HZ EP       1819 19.63                             106   -0.03 6  393 209 
 PRA  HE ES       1820  1.31                             106   -0.23 6  393 209 
 PRA  HZ I        1820  6.03        21.3 0.50            108            393 209 
 PAL  HZ EP   2   1819 21.56                             106    0.47 3  405 239 
 PAL  HN ES   2   1820  4.14                             106    0.05 3  405 239 
 PAL  HZ I        1820  9.41         8.8 0.34            107            405 239 
 SJC  HZ EP   3   1819 19.76                             106   -1.42 1  406 327 
 SJC  HE ES   3   1820  0.23                             106   -4.01 1  406 327 
 SJC  HZ I        1820  5.76         6.3 0.28            107            406 327 
                                                                                
