 2013  829 1947 40.7 L   6.136 -73.792 96.0  RSN  7 0.5 1.5LRSN                1
 GAP=101        1.19       4.2     3.5  8.6 -0.2569E+01  0.1020E+02 -0.5220E+01E
 Epicentro: LANDAZURI - SANTANDER                                              3
 ACTION:UPD 14-01-14 09:08 OP:ep   STATUS:               ID:20130829194740 L   I
 OLDACT:REG 13-08-29 16:44 OP:nd   STATUS:               ID:20130829193959     3
 2013-08-29-1939-59M.COL___212                                                 6
 STAT SP IPHASW D HRMM SECON CODA AMPLIT PERI AZIMU VELO AIN AR TRES W  DIS CAZ7
 SPBC HZ IP     C 1947 56.17                             145    0.0110 61.9 210 
 SPBC HN ES       1948  8.55                             145    0.3010 61.9 210 
 SPBC HZ I        1948 10.15         7.5 0.24            147           61.9 210 
 RUS  HZ EP       1947 58.20                             137   -0.1710 83.0 109 
 RUS  HN ES       1948 11.90                             137   -0.2810 83.0 109 
 RUS  HZ I        1948 13.62         3.6 0.40            139           83.0 109 
 BAR2 SZ EP       1947 58.21                             136    0.0810 84.2  53 
 BAR2 SZ ES       1948 12.34                             136    0.5910 84.2  53 
 BAR2 SZ I        1948 13.73        10.6 0.42            137           84.2  53 
 PTB  HZ EP       1947 57.24                             135   -0.7410 86.0 301 
 PTB  HN ES       1948 11.07                             135   -0.4110 86.0 301 
 PTB  HZ I        1948 12.05         6.9 0.20            135           86.0 301 
 NOR  HZ EP       1948  2.65                             121   -0.1710  135 242 
 NOR  HN ES       1948 19.53                             121   -0.5710  135 242 
 NOR  HZ I        1948 22.52        10.0 0.20            122            135 242 
 ZAR  HN EP       1948  8.74                             112   -0.17 9  191 322 
 ZAR  HE ES       1948 31.52                             112    0.59 9  191 322 
 ZAR  HN I        1948 36.01        10.4 0.36            112            191 322 
 GUY2CHZ EP       1948 10.97                             111    0.26 9  201 240 
 GUY2CHN ES       1948 35.20                             111    1.05 9  201 240 
 GUY2CHZ I        1948 40.39         2.5 0.47                           201 240 
                                                                                
