 2014  129 1114 53.9 L   6.799 -73.182142.5  RSN  5 0.4 1.6LRSN                1
 GAP=198        0.84       4.7     5.3  7.7  0.1126E+02  0.4517E+01 -0.1236E+02E
 Epicentro: LOS SANTOS - SANTANDER                                             3
 ACTION:UPD 14-03-13 09:59 OP:ep   STATUS:               ID:20140129111453 L   I
 OLDACT:REG 14-01-29 14:58 OP:nd   STATUS:               ID:20140129111000     3
 2014-01-29-1110-00M.COL___285                                                 6
 STAT SP IPHASW D HRMM SECON CODA AMPLIT PERI AZIMU VELO AIN AR TRES W  DIS CAZ7
 BAR2 SZ EP       1115 12.93                             170   -0.1910 22.9 180 
 BAR2 SZ ES       1115 27.98                             170   -0.1410 22.9 180 
 BAR2 SZ I        1115 28.85         9.7 0.24            171           22.9 180 
 RUS  HZ EP       1115 17.87                             143    0.5310  101 174 
 RUS  HN ES       1115 35.70                             143    0.0610  101 174 
 RUS  HZ I        1115 37.70         1.8 0.38            145            101 174 
 PTB  HZ EP       1115 19.64                             132   -0.59 9  144 259 
 PTB  HN ES       1115 40.71                             132   -0.07 9  144 259 
 PTB  HZ I        1115 42.44         4.7 0.32            132            144 259 
 ZAR  HZ EP   2   1115 26.54                             122    0.80 4  200 293 
 ZAR  HN ES       1115 50.87                             122    0.28 9  200 293 
 ZAR  HZ I        1115 57.46         4.8 0.34            122            200 293 
 SML  HZ EP   2   1115 29.34                             117   -0.82 4  242 336 
 SML  HN ES       1115 58.63                             117    0.17 8  242 336 
 SML  HZ I        1116  0.28         8.3 0.26            118            242 336 
                                                                                
