 2012 1229 1148 59.4 L   6.631 -73.235136.7  RSN  5 0.2 1.4LRSN                1
 GAP=172        0.45       5.1     3.8  4.4  0.9625E+01  0.4746E+01  0.4370E+01E
 Epicentro: BARICHARA - SANTANDER                                              3
 ACTION:UPD 13-01-04 14:31 OP:ep   STATUS:               ID:20121229114859 L   I
 2012-12-29-1144-45M.COL___189                                                 6
 STAT SP IPHASW D HRMM SECON CODA AMPLIT PERI AZIMU VELO AIN AR TRES W  DIS CAZ7
 BAR2 SZ EP   1   1149 17.53                             177   -0.15 7 7.26 127 
 BAR2 SZ ES   1   1149 31.83                             177   -0.14 7 7.26 127 
 BAR2 SZ I        1149 34.01         6.7 0.22                          7.26 127 
 BRR  HZ EP       1149 19.67                             150   -0.0810 74.5 315 
 BRR  HZ I        1149 24.54         7.2 0.25                          74.5 315 
 BRR  HN ES   1   1149 35.93                             150    0.29 7 74.5 315 
 RUS  HZ EP   1   1149 21.22                             147    0.20 7 83.4 168 
 RUS  HN I        1149 41.83         3.4 0.42                          83.4 168 
 PTB  HZ EP       1149 24.38                             132   -0.10 9  135 266 
 PTB  HN ES   1   1149 44.14                             132    0.07 7  135 266 
 PTB  HZ I        1149 49.23         3.8 0.19                           135 266 
 ZAR  HZ EP   1   1149 31.47                             120    0.34 6  203 298 
 ZAR  HE ES   1   1149 55.62                             120   -0.29 6  203 298 
 ZAR  HZ I        1150  2.18         3.6 0.48                           203 298 
                                                                                
