 2017  729 1544 37.7 L   6.805 -73.143142.5  RSN 16 0.5 2.5LRSN                1
 GAP=102        1.14       3.8     3.2  5.7 -0.9322E+00  0.1617E+01  0.5911E+01E
 Epicentro: LOS SANTOS - SANTANDER                                             3
 ACTION:UPD 17-08-30 15:38 OP:rebc STATUS:               ID:20170729154437 L   I
 OLDACT:UP  17-07-29 22:57 OP:ar   STATUS:               ID:20170729153741     3
 OLDACT:UP  17-07-29 22:56 OP:ar   STATUS:               ID:20170729153741     3
 OLDACT:REG 17-07-29 20:06 OP:ar   STATUS:               ID:20170729153741     3
 2017-07-29-1538-00M.COL___398                                                 6
 STAT SP IPHASW D HRMM SECON CODA AMPLIT PERI AZIMU VELO AIN AR TRES W  DIS CAZ7
 BAR2 EZ EP       1544 56.75                             170   -0.1610 23.9 191 
 BAR2 EZ ES       1545 11.40                             170   -0.5210 23.9 191 
 BAR2 EZ I        1545 13.04       112.3 0.20            166           23.9 191 
 BRR  HZ IP     D 1544 58.53                             152    0.0710 71.2 298 
 BRR  HN ES       1545 15.45                             152    0.7710 71.2 298 
 BRR  HZ I        1545 19.04        77.9 0.12            154           71.2 298 
 PAM  EZ EP       1544 59.60                             150    0.1010 76.8  40 
 PAM  EN ES       1545 16.56                             150    0.0410 76.8  40 
 PAM  EZ I        1545 18.57        84.8 0.54            156           76.8  40 
 RUS  HZ EP       1545  1.01                             143   -0.1210  101 176 
 RUS  HN ES       1545 19.06                             143   -0.3710  101 176 
 RUS  HZ I        1545 21.17        37.8 0.20            142            101 176 
 PTB  HZ EP       1545  3.65                             131   -0.75 9  148 259 
 PTB  HN ES       1545 24.56                             131   -0.70 9  148 259 
 PTB  HZ I        1545 27.17        35.0 0.10            132            148 259 
 TAM  HZ IP     C 1545  5.12                             130    0.05 9  155 105 
 TAM  HN ES       1545 26.72                             130    0.28 9  155 105 
 TAM  HZ I        1545 28.79        20.9 0.46            132            155 105 
 SPBC HZ EP       1545  6.40                             128    0.43 9  164 219 
 SPBC HN ES       1545 28.72                             128    0.67 9  164 219 
 SPBC HZ I        1545 33.45        58.5 0.22            128            164 219 
 YPLC HZ EP       1545  7.22                             126   -0.03 9  177 151 
 YPLC HN ES       1545 30.48                             126    0.15 9  177 151 
 YPLC HZ I        1545 33.73        43.6 0.30            126            177 151 
 TABC EZ EP   4   1545 15.41                             118    2.13 0  231 211 
 TABC EZ ES   4   1545 45.61                             118    4.54 0  231 211 
 TABC EZ I        1545 46.42        39.1 0.38            119            231 211 
 NOR  HZ EP   4   1545 14.83                             118    1.57 0  235 234 
 NOR  HN ES       1545 41.36                             118    0.33 8  235 234 
 CHI  HZ EP       1545 15.34                             116    0.09 8  249 195 
 CHI  HN ES       1545 44.45                             116   -0.11 8  249 195 
 CHI  HZ I        1545 51.94        15.5 0.38            117            249 195 
 ROSC BZ EP   9   1545 17.92                             116    2.25 0  253 211 
 ROSC BN ES       1545 48.10                             115    0.54 8  253 211 
 ROSC BZ I        1545 53.66        28.0 0.45            117            253 211 
 GUY2CHZ EP       1545 21.44                             112    0.26 7  302 235 
 GUY2CHN ES   4   1545 58.03                             112    2.90 0  302 235 
 GUY2CHZ I        1546  1.19        17.5 0.42                           302 235 
 VIL  EZ EP   4   1545 18.93                             111   -2.07 0  304 192 
 VIL  EN ES       1545 55.29                             111    0.49 7  304 192 
 VIL  EZ I        1546  5.44        34.8 0.42            112            304 192 
 PTGC HZ EP       1545 20.45                             111   -0.97 7  309 159 
 PTGC HN ES   4   1545 53.67                             111   -1.87 0  309 159 
 CBOC HZ EP       1545 25.51                             109    1.01 7  334 252 
 CBOC HN ES       1546  0.12                             109   -0.90 7  334 252 
 CBOC HZ I        1546  2.18         5.5 0.18            111            334 252 
                                                                                
