 2017  829 1235  7.9 L   6.819 -73.138136.9  RSN  8 0.6 1.8LRSN                1
 GAP=137        1.37       4.8     6.1  8.2 -0.1493E+01  0.1548E+02  0.7979E+01E
 Epicentro: LOS SANTOS - SANTANDER                                             3
 ACTION:UPD 17-09-04 20:26 OP:rebc STATUS:               ID:20170829123507 L   I
 OLDACT:REG 17-08-29 20:37 OP:dhb  STATUS:               ID:20170829122445     3
 2017-08-29-1228-00M.COL___417                                                 6
 STAT SP IPHASW D HRMM SECON CODA AMPLIT PERI AZIMU VELO AIN AR TRES W  DIS CAZ7
 BAR2 EZ IP     D 1235 26.22                             169   -0.3210 25.5 191 
 BAR2 EZ ES       1235 41.95                             169    0.8910 25.5 191 
 BAR2 EZ I        1235 42.61        17.4 0.13            167           25.5 191 
 BRR  HZ IP     D 1235 27.98                             151   -0.1310 71.0 297 
 BRR  HN ES       1235 44.37                             151    0.5210 71.0 297 
 BRR  HZ I        1235 49.12        12.9 0.10            149           71.0 297 
 PAM  EZ IP     C 1235 29.02                             150   -0.0510 75.2  40 
 PAM  EN ES       1235 44.98                             150   -0.5810 75.2  40 
 PAM  EZ I        1235 46.41         7.4 0.21            155           75.2  40 
 RUS  HZ EP       1235 30.80                             141   -0.1710  103 177 
 RUS  HN ES       1235 48.67                             141   -0.2710  103 177 
 RUS  HZ I        1235 50.56        15.9 0.44            143            103 177 
 SPBC HZ EP       1235 35.39                             127   -0.58 9  165 219 
 SPBC HN ES       1235 57.27                             127   -0.57 9  165 219 
 SPBC HZ I        1236  0.16        17.6 0.22            127            165 219 
 ZAR  HZ EP       1235 40.58                             120    0.77 9  204 292 
 ZAR  HN ES       1236  4.51                             120   -0.17 9  204 292 
 ZAR  HZ I        1236 10.48        14.5 0.33            121            204 292 
 NOR  HZ EP       1235 43.28                             116   -0.09 8  237 234 
 NOR  HN ES       1236 10.42                             116   -0.59 8  237 234 
 NOR  HZ I        1236 15.09         3.0 0.23            117            237 234 
 CHI  HZ EP       1235 46.76                             115    1.36 8  251 195 
 CHI  HE ES       1236 14.96                             115    0.34 8  251 195 
 CHI  HZ I        1236 20.79         2.6 0.25            117            251 195 
                                                                                
