 2010  829 1737  1.8 L   7.404 -73.192131.1  RSN  5 0.1 2.3LRSN                1
 GAP=152        0.32       3.0     3.7  3.7 -0.7408E+01 -0.5129E+01  0.2592E+01E
 Epicentro: EL PLAYON - SANTANDER                                              3
 ACTION:UP  10-09-07 10:59 OP:vdl  STATUS:               ID:20100829173701 L   I
 2010-08-29-1730-54S.COL___120                                                 6
 STAT SP IPHASW D HRMM SECON CODA AMPLIT PERI AZIMU VELO SNR AR TRES W  DIS CAZ7
 GIR2 SZ EP       1737 19.88                             164     0.010   36 180 
 GUE  SZ EP       1737 21.05                             156     0.010   56  32 
 BRR  HZ EP       1737 21.03                             152    -0.110   66 240 
 BRR  HZ I        1737 21.24        40.0 0.15                            66 240 
 BRR  HN ES       1737 36.21                             152     0.110   66 240 
 GRA  SZ EP       1737 21.56                             151     0.110   68  39 
 GRA  SZ ES   1   1737 36.67                             151    -0.1 7   68  39 
 GRA  SZ I        1737 38.70        88.4 0.34                            68  39 
 BAR2 SZ EP       1737 23.02                             144     0.010   90 179 
 BAR2 SZ I        1737 23.45        30.3 0.08                            90 179 
 BAR2 SZ ES   2   1737 39.59                             144     0.1 5   90 179 
                                                                                
