 2016 1229 1213 28.8 L   6.596 -73.572102.8  RSN  9 0.5 1.5LRSN                1
 GAP= 65        1.31       4.1     4.0  8.2 -0.2542E+01  0.8742E+01  0.8920E+01E
 Epicentro: EL CARMEN - SANTANDER                                              3
 ACTION:UPD 17-01-11 20:20 OP:rebc STATUS:               ID:20161229121328 L   I
 OLDACT:UP  16-12-29 22:19 OP:cog  STATUS:               ID:20161229120744     3
 OLDACT:REG 16-12-29 20:41 OP:cog  STATUS:               ID:20161229120744     3
 2016-12-29-1208-00M.COL___378                                                 6
 STAT SP IPHASW D HRMM SECON CODA AMPLIT PERI AZIMU VELO AIN AR TRES W  DIS CAZ7
 BAR2 EZ EP       1213 44.09                             156    0.0510 43.1  91 
 BAR2 EZ ES       1213 56.57                             156    0.6110 43.1  91 
 BAR2 EZ I        1213 58.15        33.7 0.42            162           43.1  91 
 BRR  HZ EP       1213 44.81                             148    0.2110 58.6 345 
 BRR  HE ES       1213 57.49                             148    0.5410 58.6 345 
 BRR  HZ I        1214  8.10        13.5 0.52            150           58.6 345 
 RUS  HZ EP       1213 48.07                             134   -0.0010 94.7 145 
 RUS  HN ES       1214  2.85                             134   -0.2910 94.7 145 
 RUS  HZ I        1214  4.25         3.1 0.20            142           94.7 145 
 PTB  HZ EP       1213 46.99                             133   -0.7310 98.0 266 
 PTB  HN ES       1214  1.90                             133   -0.6010 98.0 266 
 PTB  HZ I        1214  5.72        12.4 0.10            136           98.0 266 
 PAM  EZ EP       1213 50.71                             125   -0.3710  127  49 
 PAM  EE ES       1214  7.74                             125   -0.7410  127  49 
 PAM  EZ I        1214 13.47         3.6 0.20            131            127  49 
 ZAR  HZ EP       1213 56.52                             115    1.14 9  173 305 
 ZAR  HN ES   4   1214 19.22                             115    3.08 0  173 305 
 ZAR  HZ I        1214 20.49         9.9 0.42            120            173 305 
 NOR  HZ EP       1213 56.46                             114   -0.11 9  183 232 
 NOR  HE ES       1214 18.03                             114   -0.23 9  183 232 
 NOR  HZ I        1214 22.16         4.3 0.22            119            183 232 
 CHI  HZ EP       1214  1.42                             110    0.46 8  218 185 
 CHI  HE ES       1214 26.55                             110    0.48 8  218 185 
 CHI  HZ I        1214 32.62         1.5 0.58            115            218 185 
 GUY2CHZ EP   4   1214  7.51                             106    2.80 0  250 233 
 GUY2CHE ES       1214 32.64                             106   -0.12 8  250 233 
 GUY2CHZ I        1214 36.96         1.8 0.36                           250 233 
                                                                                
