 2012  529 1040 38.7 L   6.774 -73.180138.0  RSN  5 0.3 1.9LRSN                1
 GAP=179        0.76       4.9     5.3  8.2  0.1116E+01  0.8352E+01 -0.6416E+01E
 Epicentro: LOS SANTOS - SANTANDER                                             3
 ACTION:UP  12-07-05 12:08 OP:pat  STATUS:               ID:20120529104038 L   I
 2012-05-29-1040-00M.COL___200                                                 6
 STAT SP IPHASW D HRMM SECON CODA AMPLIT PERI AZIMU VELO AIN AR TRES W  DIS CAZ7
 BAR2 SZ EP       1040 57.53                             171     0.210   20 181 
 BAR2 SZ ES   1   1041 11.99                             171     0.2 7   20 181 
 BAR2 SZ I        1041 13.56        17.4 0.23                            20 181 
 RUS  HZ EP   1   1041  1.33                             143    -0.1 7   98 174 
 RUS  HZ I        1041  2.70         7.4 0.14                            98 174 
 PTB  HZ EP       1041  4.33                             131    -0.3 9  143 260 
 PTB  HE ES   1   1041 24.54                             131    -0.3 7  143 260 
 PTB  HZ I        1041 27.81         9.2 0.33                           143 260 
 OCA  HZ EP   1   1041  6.80                             127     0.2 7  163 355 
 OCA  HE ES   1   1041 27.93                             127    -0.5 7  163 355 
 OCA  HZ I        1041 29.17        12.9 0.35                           163 355 
 ZAR  HZ EP   1   1041 10.63                             121     0.3 6  202 293 
 ZAR  HN ES   1   1041 35.55                             121     0.5 6  202 293 
 ZAR  HZ I        1041 45.09         8.0 0.22                           202 293 
                                                                                
