 2013  129 1816 46.1 L   6.652 -73.092146.4  RSN  5 0.4 1.9LRSN                1
 GAP=207        1.04      11.1     5.3 11.0 -0.1826E+02  0.1130E+01  0.5241E+02E
 Epicentro: CURITI - SANTANDER                                                 3
 ACTION:UPD 13-02-15 09:17 OP:ep   STATUS:               ID:20130129181646 L   I
 2013-01-29-1810-00M.COL___241                                                 6
 STAT SP IPHASW D HRMM SECON CODA AMPLIT PERI AZIMU VELO AIN AR TRES W  DIS CAZ7
 BAR2 SZ IP       1817  6.30                             175    0.6410 12.0 236 
 BAR2 SZ I        1817 24.81        12.0 0.22            157           12.0 236 
 BRR  HZ IP     C 1817  8.25                             148    0.0810 85.0 306 
 BRR  HN ES       1817 25.51                             148    0.1410 85.0 306 
 PAM  SZ EP       1817  9.13                             148    0.0910 87.5  30 
 PAM  SZ I        1817  9.31        11.3 0.20            157           87.5  30 
 PAM  SN ES       1817 26.47                             148   -0.4410 87.5  30 
 PTB  HZ EP       1817 13.29                             131   -0.19 9  151 265 
 PTB  HN ES       1817 34.32                             131   -0.49 9  151 265 
 PTB  HN I        1817 39.70        21.4 0.66            130            151 265 
 ZAR  HZ EP   1   1817 19.02                             121   -0.84 6  216 296 
 ZAR  HN ES       1817 46.75                             121    0.58 8  216 296 
 ZAR  HZ I        1817 50.76         7.1 0.36            124            216 296 
                                                                                
