 2013  829 1702 52.8 L   6.791 -73.131147.8  RSN 16 0.5 2.8LRSN                1
 GAP= 67        1.23       3.1     4.0  6.0  0.1616E+01  0.6079E+01  0.2313E+01E
 Epicentro: LOS SANTOS - SANTANDER                                             3
 ACTION:UPD 14-01-14 09:08 OP:ep   STATUS:               ID:20130829170252 L   I
 OLDACT:REG 13-08-29 16:03 OP:nd   STATUS:               ID:20130829165959     3
 2013-08-29-1659-59M.COL___235                                                 6
 STAT SP IPHASW D HRMM SECON CODA AMPLIT PERI AZIMU VELO AIN AR TRES W  DIS CAZ7
 BAR2 SZ IP     D 17 3 12.65                             171   -0.0210 22.7 194 
 BAR2 SZ ES       17 3 27.74                             171   -0.4210 22.7 194 
 BAR2 SZ I        17 3 30.48       139.8 0.28            170           22.7 194 
 BRR  HZ IP     C 17 3 14.58                             152    0.3010 73.1 299 
 BRR  HN ES       17 3 32.02                             152    0.9910 73.1 299 
 BRR  HZ I        17 3 35.87       106.8 0.18            149           73.1 299 
 PAM  SZ EP     C 17 3 15.50                             151    0.2810 77.1  38 
 PAM  SN ES       17 3 32.77                             151    0.0610 77.1  38 
 PAM  SZ I        17 3 35.03        32.5 0.20            155           77.1  38 
 RUS  HZ EP       17 3 16.55                             145   -0.1310 99.5 177 
 RUS  HN ES       17 3 35.05                             145   -0.2510 99.5 177 
 RUS  HZ I        17 3 36.40        55.2 0.32            147           99.5 177 
 PTB  HZ EP       17 3 19.40                             132   -0.66 9  149 259 
 PTB  HN ES   2   17 3 40.71                             132   -0.61 5  149 259 
 PTB  HZ I        17 3 46.64       127.9 0.32            132            149 259 
 TAM  HZ EP       17 3 20.75                             131    0.27 9  153 105 
 TAM  HN ES       17 3 41.60                             131   -0.46 9  153 105 
 TAM  HZ I        17 3 43.74        33.4 0.44            137            153 105 
 OCA  HZ EP       17 3 20.67                             130   -0.71 9  161 353 
 OCA  HN ES       17 3 43.33                             130   -0.34 9  161 353 
 OCA  HZ I        17 3 49.04        71.6 0.42            131            161 353 
 YOP  SZ EP       17 3 23.07                             127    0.23 9  177 154 
 YOP  SN ES       17 3 46.50                             127    0.24 9  177 154 
 YOP  SZ I        17 3 47.72        51.4 0.24            131            177 154 
 ZAR  HZ EP       17 3 26.05                             122    0.48 8  206 292 
 ZAR  HN ES   2   17 3 50.55                             122   -0.58 4  206 292 
 ZAR  HZ I        17 3 57.96        88.2 0.36            123            206 292 
 NOR  HZ EP       17 3 28.18                             119   -0.55 8  235 235 
 NOR  HN ES       17 3 56.17                             119   -0.58 8  235 235 
 NOR  HZ I        17 4  0.91        49.3 0.18            120            235 235 
 SML  HZ EP       17 3 28.84                             118   -0.87 8  245 335 
 SML  HN ES       17 3 59.29                             118    0.79 8  245 335 
 SML  HZ I        17 4  5.01        93.6 0.24            119            245 335 
 CHI  HZ EP       17 3 30.60                             118    0.04 8  248 196 
 CHI  HN ES       17 4  0.14                             118    0.13 8  248 196 
 CHI  HZ I        17 4  5.42        26.7 0.24            119            248 196 
 ROSC BZ EP       17 3 32.12                             117    1.09 8  253 211 
 ROSC BN ES   4   17 4  3.38                             117    2.53 0  253 211 
 HEL  HZ EP   4   17 3 34.72                             115    1.45 0  273 256 
 HEL  HN ES   4   17 4  6.57                             115    1.74 0  273 256 
 HEL  HZ I        17 4 11.16        45.6 0.36            116            273 256 
 URE  HZ EP   4   17 3 32.47                             114   -1.71 0  286 292 
 URE  HN ES   4   17 4  4.46                             114   -1.99 0  286 292 
 URE  HZ I        17 4 18.18        36.8 0.18            114            286 292 
 GUY2CHZ EP       17 3 37.25                             113    0.66 7  302 235 
                                                                                
