 2013  429 1847 27.1 L   6.784 -73.148143.3  RSN  7 0.4 2.1LRSN                1
 GAP=137        0.67       3.3     4.0  5.9 -0.2666E+01  0.4571E+01  0.5203E+00E
 Epicentro: LOS SANTOS - SANTANDER                                             3
 ACTION:UPD 13-05-22 14:41 OP:EP   STATUS:               ID:20130429184727 L   I
 2013-04-29-1840-00M.COL___248                                                 6
 STAT SP IPHASW D HRMM SECON CODA AMPLIT PERI AZIMU VELO AIN AR TRES W  DIS CAZ7
 BRR  HN ES   1   1848  4.42                             152    0.12 7 71.9 300 
 BRR  HN I        1848  8.52        26.9 0.36            149           71.9 300 
 PAM  SZ EP       1847 49.29                             150    0.1810 78.9  39 
 PAM  SN ES   1   1848  6.42                             150    0.12 7 78.9  39 
 PAM  SN I        1848  7.34        23.8 0.68            155           78.9  39 
 RUS  HZ EP   1   1847 50.52                             144    0.07 7 98.9 176 
 RUS  HN ES   1   1848  8.36                             144   -0.32 7 98.9 176 
 RUS  HZ I        1848 10.33         7.1 0.24            145           98.9 176 
 PTB  HZ EP   1   1847 53.48                             132   -0.30 7  147 259 
 PTB  HN ES   1   1848 14.15                             132   -0.47 7  147 259 
 PTB  HN I        1848 19.10        11.8 0.22            130            147 259 
 NOR  HZ EP   1   1848  2.84                             118    0.32 6  234 235 
 NOR  HN ES   1   1848 30.82                             118    0.64 6  234 235 
 NOR  HN I        1848 37.06        11.9 0.18            118            234 235 
 SML  HZ EP   1   1848  2.95                             117   -0.77 6  245 336 
 SML  HN ES   1   1848 32.59                             117    0.29 6  245 336 
 SML  HN I        1848 34.92        23.0 0.10            118            245 336 
 PRA  HZ EP   1   1848 20.39                             106    0.08 4  390 210 
 PRA  HN ES   4   1849  3.89                             106    2.05 0  390 210 
 PRA  HN I        1849  8.28         3.6 0.72            107            390 210 
                                                                                
