 2016 1029 1135 33.1 L   6.771 -73.153142.3  RSN  5 0.3 1.5LRSN                1
 GAP=137        0.88       4.6     4.5  6.5 -0.1906E+01  0.3718E+01  0.1242E+01E
 Epicentro: LOS SANTOS - SANTANDER                                             3
 ACTION:UPD 16-11-09 19:24 OP:rebc STATUS:               ID:20161029113533 L   I
 OLDACT:REG 16-10-29 18:56 OP:edw  STATUS:               ID:20161029112741     3
 2016-10-29-1128-00M.COL___325                                                 6
 STAT SP IPHASW D HRMM SECON CODA AMPLIT PERI AZIMU VELO AIN AR TRES W  DIS CAZ7
 BAR2 EZ EP       1135 52.39                             172    0.1810 20.0 189 
 BAR2 EZ ES       1136  7.12                             172   -0.0210 20.0 189 
 BAR2 EZ I        1136  7.87        13.4 0.36            171           20.0 189 
 BRR  HZ EP       1135 53.78                             151   -0.1110 72.1 301 
 BRR  HN ES       1136 10.75                             151    0.6110 72.1 301 
 BRR  HZ I        1136 11.90         8.0 0.36            151           72.1 301 
 PAM  EZ EP       1135 55.14                             149    0.0510 80.4  38 
 PAM  EN ES       1136 11.88                             149   -0.4010 80.4  38 
 PAM  EZ I        1136 13.99         6.5 0.44            152           80.4  38 
 RUS  HZ EP       1135 56.73                             144    0.4910 97.4 175 
 RUS  HE ES       1136 14.09                             144   -0.2310 97.4 175 
 RUS  HZ I        1136 16.54         4.0 0.38            145           97.4 175 
 PTB  HZ EP       1135 59.29                             131   -0.33 9  146 260 
 PTB  HN ES       1136 20.02                             131   -0.32 9  146 260 
 PTB  HZ I        1136 24.94         3.3 0.16            132            146 260 
                                                                                
