 2011  629 1135 10.0 L   6.757 -73.073149.0  RSN  5 0.3 1.7LRSN                1
 GAP=201        0.68       8.3    15.3  6.9  0.9446E+02 -0.3568E+02 -0.1668E+02E
 Epicentro: LOS SANTOS - SANTANDER                                             3
 ACTION:UP  11-07-14 19:09 OP:ep   STATUS:               ID:20110629113510 L   I
 2011-06-29-1133-37S.COL___140                                                 6
 STAT SP IPHASW D HRMM SECON CODA AMPLIT PERI AZIMU VELO SNR AR TRES W  DIS CAZ7
 BAR2 SZ EP       1135 29.84                             171    -0.110   22 214 
 BAR2 SZ ES   1   1135 45.08                             171    -0.5 7   22 214 
 BAR2 SZ I        1135 46.59         7.4 0.33                            22 214 
 BTL  SZ EP       1135 30.13                             169     0.010   28 310 
 BTL  SZ ES   1   1135 46.08                             169     0.3 7   28 310 
 GIR2 SZ EP   2   1135 30.60                             165     0.4 5   38 339 
 BRR  HZ EP       1135 31.73                             150    -0.310   81 299 
 BRR  HZ I        1135 32.01        10.7 0.22                            81 299 
 BRR  HN ES   1   1135 49.48                             150     0.3 7   81 299 
 RUS  HZ EP   1   1135 34.09                             146     0.4 7   96 181 
 RUS  HN ES   1   1135 52.22                             146     0.0 7   96 181 
                                                                                
