 2013  429 1423 39.1 L   6.808 -73.148146.8  RSN 19 0.5 2.9LRSN                1
 GAP= 71        0.84       2.9     3.0  4.6 -0.4865E+00  0.1955E+01 -0.1703E+00E
 Epicentro: LOS SANTOS - SANTANDER                                             3
 ACTION:UPD 13-05-22 14:41 OP:EP   STATUS:               ID:20130429142339 L   I
 2013-04-29-1420-00M.COL___248                                                 6
 STAT SP IPHASW D HRMM SECON CODA AMPLIT PERI AZIMU VELO AIN AR TRES W  DIS CAZ7
 BAR2 SZ IP     C 1423 58.91                             170    0.0810 24.1 189 
 BAR2 SZ ES   1   1424 14.23                             170   -0.01 7 24.1 189 
 BAR2 SZ I        1424 15.22       181.8 0.20            169           24.1 189 
 GIR2 SZ EP   1   1423 58.97                             168    0.14 7 30.4 351 
 GIR2 SZ ES   1   1424 14.67                             168    0.42 7 30.4 351 
 GIR2 SZ I        1424 15.99        49.1 0.38            165           30.4 351 
 BRR  HZ IP     C 1424  0.76                             153    0.4810 70.5 298 
 BRR  HN ES   1   1424 17.38                             153    0.55 7 70.5 298 
 BRR  HZ I        1424 23.49        80.6 0.16            149           70.5 298 
 PAM  SZ EP     C 1424  1.67                             151    0.3210 76.9  40 
 PAM  SN ES   2   1424 18.52                             151   -0.22 5 76.9  40 
 PAM  SN I        1424 21.17        93.4 0.44            155           76.9  40 
 RUS  HZ IP     D 1424  2.80                             144   -0.1710  101 176 
 RUS  HN ES   1   1424 21.09                             144   -0.53 7  101 176 
 RUS  HZ I        1424 22.69        71.2 0.32            146            101 176 
 PTB  HZ EP       1424  5.74                             132   -0.36 9  148 258 
 PTB  HN ES   1   1424 26.57                             132   -0.62 7  148 258 
 PTB  HZ I        1424 31.36        67.9 0.18            131            148 258 
 TAM  HZ EP       1424  7.09                             131    0.23 9  156 105 
 TAM  HN ES   1   1424 28.16                             131   -0.39 7  156 105 
 TAM  HZ I        1424 29.26        43.5 0.30            136            156 105 
 OCA  HZ EP   2   1424  7.94                             130    0.58 5  159 353 
 OCA  HN ES   2   1424 29.61                             130    0.17 5  159 353 
 OCA  HN I        1424 35.60       529.1 0.28            131            159 353 
 ZAR  HZ EP   1   1424 11.56                             123    0.05 6  203 292 
 ZAR  HN ES   1   1424 36.67                             123   -0.15 6  203 292 
 ZAR  HZ I        1424 42.41        84.6 0.32            122            203 292 
 NOR  HZ EP     C 1424 15.10                             119    0.22 8  235 234 
 NOR  HN ES       1424 42.48                             119   -0.33 8  235 234 
 NOR  HN I        1424 49.62       253.0 0.16            119            235 234 
 SML  HZ EP   1   1424 16.04                             118    0.40 6  243 335 
 SML  HN ES   1   1424 43.36                             118   -0.82 6  243 335 
 SML  HZ I        1424 45.57       104.1 0.34            118            243 335 
 ROSC BZ EP   4   1424 18.75                             117    1.45 0  253 211 
 ROSC BN ES   4   1424 49.47                             117    2.35 0  253 211 
 ROSC BZ I        1424 56.79       124.0 0.35            118            253 211 
 HEL  HZ EP   1   1424 20.08                             115    0.76 6  272 256 
 HEL  HN ES   4   1424 53.72                             115    3.00 0  272 256 
 HEL  HZ I        1424 58.14        58.9 0.34            115            272 256 
 URE  HZ EP   4   1424 18.88                             114   -1.23 0  283 292 
 URE  HN ES   4   1424 49.38                             114   -2.75 0  283 292 
 URE  HZ I        1425  1.92        48.8 0.22            114            283 292 
 DBB  SZ EP   1   1424 26.46                             110   -0.08 5  339 274 
 COD  HZ EP   1   1424 27.47                             109    0.10 5  347 355 
 COD  HN ES   1   1425  3.56                             109   -1.49 5  347 355 
 COD  HZ I        1425 14.04        11.1 0.40            110            347 355 
 SDV  BZ EP   1   1424 28.22                             108   -0.88 5  360  50 
 PRA  HZ EP     D 1424 32.49                             107   -0.20 6  393 209 
 PRA  HN ES   1   1425 15.02                             107    0.51 4  393 209 
 PRA  HZ I        1425 19.42        47.2 0.68            108            393 209 
 SJC  HZ EP   4   1424 33.13                             106   -1.42 0  408 327 
 SJC  HE ES   4   1425 14.06                             106   -3.77 0  408 327 
 SJC  HE I        1425 17.02        26.9 0.28            107            408 327 
                                                                                
