 2012  829 1638  4.9 L   6.797 -73.153144.1  RSN  8 0.4 2.2LRSN                1
 GAP=184        0.75       4.4     5.0  6.8  0.6267E+01  0.6271E+01 -0.6132E+00E
 Epicentro: LOS SANTOS - SANTANDER                                             3
 ACTION:UPD 12-09-10 11:59 OP:ep   STATUS:               ID:20120829163804 L   I
 2012-08-29-1630-00M.COL___218                                                 6
 STAT SP IPHASW D HRMM SECON CODA AMPLIT PERI AZIMU VELO AIN AR TRES W  DIS CAZ7
 BAR2 SZ IP       1638 24.53                             171    0.1610 22.9 188 
 BAR2 SZ I        1638 25.03        68.6 0.17                          22.9 188 
 BAR2 SZ ES   1   1638 39.22                             171   -0.30 7 22.9 188 
 GIR2 SZ EP       1638 24.45                             167    0.0210 31.5 352 
 BRR  HZ EP       1638 26.24                             153    0.3510 70.7 299 
 BRR  HZ I        1638 26.77        67.4 0.17                          70.7 299 
 BRR  HN ES   1   1638 42.78                             153    0.56 7 70.7 299 
 RUS  HZ EP   1   1638 28.51                             144   -0.01 7  100 176 
 RUS  HN ES   1   1638 46.62                             144   -0.28 7  100 176 
 RUS  HZ I        1638 48.69        16.6 0.27                           100 176 
 PTB  HZ EP       1638 31.32                             132   -0.38 9  147 259 
 PTB  HN ES   1   1638 51.94                             132   -0.63 7  147 259 
 PTB  HZ I        1638 57.23        16.1 0.19                           147 259 
 ZAR  HZ EP   1   1638 36.92                             122   -0.30 6  203 292 
 ZAR  HN ES   1   1639  2.35                             122   -0.04 6  203 292 
 ZAR  HZ I        1639  8.10        22.8 0.13                           203 292 
 NOR  SN ES   2   1639  9.18                             118    0.97 4  234 234 
 CHI  HN ES   1   1639 12.07                             117    0.29 6  248 195 
 CHI  HZ I        1639 19.71         4.5 0.53                           248 195 
                                                                                
