 2015 1129 1007  9.9 L   6.817 -73.163139.3  RSN 13 0.5 2.0LRSN                1
 GAP=133        1.12       3.0     4.2  6.0 -0.1701E+01  0.8636E+01  0.7379E+00E
 Epicentro: LOS SANTOS - SANTANDER                                             3
 ACTION:UPD 15-12-28 16:14 OP:cam  STATUS:               ID:20151129100709 L   I
 OLDACT:REG 15-11-29 20:14 OP:drio STATUS:               ID:20151129095738     3
 2015-11-29-0957-38M.COL___307                                                 6
 STAT SP IPHASW D HRMM SECON CODA AMPLIT PERI AZIMU VELO AIN AR TRES W  DIS CAZ7
 BAR2 EZ EP       10 7 28.79                             169    0.0010 24.9 185 
 BAR2 EZ ES       10 7 43.16                             169   -0.3610 24.9 185 
 BAR2 EZ I        10 7 44.65        33.9 0.28            168           24.9 185 
 BRR  HZ IP     D 10 7 30.50                             152    0.3010 68.6 298 
 BRR  HN ES       10 7 46.74                             152    0.7010 68.6 298 
 BRR  HZ I        10 7 50.51        18.2 0.44            148           68.6 298 
 PAM  EZ EP     C 10 7 31.75                             150    0.3310 77.2  42 
 PAM  EE ES       10 7 48.61                             150    0.4010 77.2  42 
 PAM  EZ I        10 7 50.65        20.2 0.46            154           77.2  42 
 RUS  HZ EP       10 7 33.28                             142    0.1110  103 175 
 RUS  HN ES       10 7 51.21                             142   -0.1110  103 175 
 RUS  HZ I        10 7 52.41         7.3 0.18            145            103 175 
 PTB  HZ EP       10 7 35.39                             131   -0.82 9  146 258 
 PTB  HN ES       10 7 56.28                             131   -0.44 9  146 258 
 PTB  HZ I        10 8  3.37        11.2 0.60            130            146 258 
 OCA  HZ EP   4   10 7 36.19                             128   -1.33 0  158 354 
 OCA  HN ES       10 7 58.69                             128   -0.37 9  158 354 
 OCA  HZ I        10 8  1.67        28.2 0.18            129            158 354 
 SPBC HZ EP       10 7 37.76                             127   -0.17 9  163 218 
 SPBC HN ES       10 7 59.07                             127   -0.73 9  163 218 
 SPBC HZ I        10 8  3.64        15.2 0.20            128            163 218 
 ZAR  HZ EP       10 7 41.88                             121    0.21 9  202 292 
 ZAR  HN ES       10 8  6.56                             121    0.11 9  202 292 
 ZAR  HZ I        10 8 14.40        10.1 0.30            121            202 292 
 SML  HZ EP       10 7 45.17                             116   -0.73 8  241 336 
 SML  HN ES       10 8 13.61                             116   -0.36 8  241 336 
 SML  HZ I        10 8 18.66        10.1 0.46            117            241 336 
 HEL  HZ EP   4   10 7 51.22                             114    1.59 0  271 255 
 HEL  HN ES       10 8 21.41                             114    0.79 8  271 255 
 HEL  HZ I        10 8 26.97         8.0 0.42            114            271 255 
 URE  HZ EP   4   10 7 52.97                             112    2.59 0  281 292 
 URE  HE ES   4   10 8 19.56                             112   -2.39 0  281 292 
 URE  HZ I        10 8 33.04         6.5 0.18            113            281 292 
 GUY2CHZ EP       10 7 54.01                             111    0.85 7  301 234 
 GUY2CHN ES       10 8 27.35                             111    0.45 7  301 234 
 GUY2CHZ I        10 8 35.57         4.2 0.32                           301 234 
 PRA  HZ EP       10 8  3.52                             105    0.24 6  393 209 
 PRA  HN ES       10 8 45.11                             105    0.19 6  393 209 
 PRA  HZ I        10 8 50.82         3.4 0.34            107            393 209 
                                                                                
