 2017 1029 1104  7.9 L   6.794 -73.134152.0  RSN  5 0.5 1.2LRSN                1
 GAP=138        0.91       4.9     4.6  8.1  0.2699E+01  0.6034E+01  0.3735E+01E
 Epicentro: LOS SANTOS - SANTANDER                                             3
 ACTION:UPD 17-11-07 19:38 OP:rebc STATUS:               ID:20171029110407 L   I
 OLDACT:UP  17-10-29 21:00 OP:dani STATUS:               ID:20171029105742     3
 OLDACT:REG 17-10-29 19:48 OP:dani STATUS:               ID:20171029105742     3
 2017-10-29-1058-00M.COL___414                                                 6
 STAT SP IPHASW D HRMM SECON CODA AMPLIT PERI AZIMU VELO AIN AR TRES W  DIS CAZ7
 BRR  HZ EP       11 4 30.13                             153    0.2910 72.6 298 
 BRR  HN ES       11 4 47.40                             153    0.4710 72.6 298 
 BRR  HZ I        11 4 53.92         3.3 0.48            151           72.6 298 
 PAM  EZ EP       11 4 30.98                             152    0.1810 77.1  38 
 PAM  EN ES       11 4 48.22                             152   -0.4110 77.1  38 
 PAM  EZ I        11 4 50.53         1.7 0.43            155           77.1  38 
 RUS  HZ EP       11 4 32.01                             145   -0.2510 99.9 177 
 RUS  HN ES       11 4 51.49                             145    0.2710 99.9 177 
 RUS  HZ I        11 4 53.76         4.1 0.45            150           99.9 177 
 PTB  HZ EP   1   11 4 34.99                             133   -0.53 7  149 259 
 PTB  HE ES   1   11 4 56.43                             133   -0.61 7  149 259 
 PTB  HZ I        11 4 57.71         1.5 0.30            135            149 259 
 ZAR  HZ EP   3   11 4 42.77                             124    1.83 2  205 292 
 ZAR  HE ES       11 5  6.58                             124   -0.11 8  205 292 
 ZAR  HZ I        11 5 16.32         1.3 0.34            125            205 292 
                                                                                
