 2016 1229 1008 50.6 L   6.809 -73.167144.5  RSN 15 0.4 2.8LRSN                1
 GAP=103        0.87       2.9     2.5  4.5 -0.3588E+00  0.2531E+01  0.4400E+01E
 Epicentro: LOS SANTOS - SANTANDER                                             3
 ACTION:UPD 17-01-11 20:20 OP:rebc STATUS:               ID:20161229100850 L   I
 OLDACT:UP  16-12-29 22:02 OP:cog  STATUS:               ID:20161229100743     3
 OLDACT:REG 16-12-29 20:28 OP:cog  STATUS:               ID:20161229100743     3
 2016-12-29-1008-00M.COL___375                                                 6
 STAT SP IPHASW D HRMM SECON CODA AMPLIT PERI AZIMU VELO AIN AR TRES W  DIS CAZ7
 BAR2 EZ IP     D 10 9 10.09                             170   -0.0410 24.0 184 
 BAR2 EZ ES       10 9 24.61                             170   -0.7310 24.0 184 
 BAR2 EZ I        10 9 26.74       196.1 0.22            169           24.0 184 
 BRR  HZ EP       10 9 11.83                             153    0.3210 68.6 299 
 BRR  HN ES       10 9 28.45                             153    0.6610 68.6 299 
 BRR  HZ I        10 9 33.15        87.5 0.22            152           68.6 299 
 PAM  EZ EP       10 9 12.89                             150    0.1210 78.2  41 
 PAM  EN ES       10 9 29.97                             150   -0.0610 78.2  41 
 PAM  EZ I        10 9 32.28        82.8 0.46            149           78.2  41 
 RUS  HZ EP       10 9 14.03                             143   -0.3210  102 175 
 RUS  HN ES       10 9 33.22                             143    0.3710  102 175 
 RUS  HZ I        10 9 34.36        37.9 0.56            141            102 175 
 PTB  HZ EP       10 9 16.56                             132   -0.75 9  146 258 
 PTB  HN ES       10 9 37.88                             132   -0.24 9  146 258 
 PTB  HZ I        10 9 44.74        51.0 0.48            130            146 258 
 TAM  HZ EP       10 9 18.49                             130    0.03 9  158 105 
 TAM  HZ I        10 9 39.36        35.2 0.34            127            158 105 
 TAM  HN ES       10 9 40.29                             130    0.14 9  158 105 
 ZAR  HZ EP       10 9 22.61                             122   -0.13 9  201 292 
 ZAR  HE ES       10 9 48.00                             122    0.22 9  201 292 
 ZAR  HZ I        10 9 53.35        75.2 0.34            120            201 292 
 NOR  HZ EP       10 9 26.14                             118   -0.01 8  233 234 
 NOR  HE ES       10 9 53.51                             118   -0.34 8  233 234 
 NOR  HZ I        1010  0.01        30.5 0.38            116            233 234 
 CHI  HZ EP       10 9 28.21                             117   -0.10 8  249 195 
 CHI  HN ES       10 9 57.64                             117   -0.04 8  249 195 
 CHI  HZ I        1010  1.09        39.3 0.70            115            249 195 
 ROSC BZ EP   4   10 9 29.99                             116    1.34 0  252 210 
 ROSC BN ES   4   10 9 55.79                             116   -2.51 0  252 210 
 ROSC BZ I        1010  4.79       103.5 0.45            114            252 210 
 GUY2CHZ EP       10 9 34.31                             112    0.27 7  300 234 
 GUY2CHN ES       1010  7.61                             112   -0.28 7  300 234 
 GUY2CHZ I        1010 16.36        43.2 0.32                           300 234 
 VIL  EZ EP       10 9 33.95                             112   -0.11 7  304 191 
 VIL  EN ISg      1010  8.37                             112    0.45 7  304 191 
 VIL  EZ I        1010 17.82        67.1 0.32            110            304 191 
 PTGC HZ EP   4   10 9 33.13                             111   -1.51 0  310 158 
 PTGC HN ES   4   1010  6.74                             111   -2.22 0  310 158 
 PTGC HZ I        1010  9.33        21.7 0.30            109            310 158 
 ELA  HZ EP   4   10 9 38.91                             110    1.60 0  328 229 
 ELA  HE ES       1010 14.34                             110    0.64 7  328 229 
 ELA  HZ I        1010 26.73        27.8 0.42            108            328 229 
 ANIL HZ EP   4   10 9 41.61                             108    1.32 0  356 224 
 ANIL HN ES   4   1010 20.60                             108    1.59 0  356 224 
 ORTC HZ EP       10 9 44.49                             106    0.04 6  395 216 
 ORTC HN ES       1010 26.92                             106    0.51 6  395 216 
 ORTC HZ I        1010 33.59        15.2 0.40            104            395 216 
                                                                                
