 2013  629 1113 45.9 L   6.788 -73.147150.7  RSN 12 0.5 1.9LRSN                1
 GAP=137        1.12       4.1     5.0  6.7 -0.8903E+00  0.6186E+01 -0.5341E+00E
 Epicentro: LOS SANTOS - SANTANDER                                             3
 ACTION:UPD 14-01-08 09:58 OP:ep   STATUS:               ID:20130629111345 L   I
 OLDACT:REG 13-06-29 15:59 OP:jn   STATUS:               ID:20130629110959     3
 2013-06-29-1109-59M.COL___267                                                 6
 STAT SP IPHASW D HRMM SECON CODA AMPLIT PERI AZIMU VELO AIN AR TRES W  DIS CAZ7
 BAR2 SZ EP       1114  6.16                             171    0.0310 22.0 190 
 BAR2 SZ ES       1114 21.75                             171   -0.1410 22.0 190 
 BAR2 SZ I        1114 22.87        13.9 0.38            165           22.0 190 
 GIR2 SZ EP       1114  6.27                             167    0.0410 32.5 351 
 BRR  HZ EP       1114  8.04                             153    0.4010 71.7 300 
 BRR  HN ES       1114 25.72                             153    1.1410 71.7 300 
 BRR  HZ I        1114 30.05        16.4 0.10            150           71.7 300 
 PAM  SZ EP       1114  8.93                             151    0.1910 78.5  39 
 PAM  SE ES       1114 26.44                             151   -0.1010 78.5  39 
 PAM  SZ I        1114 28.39         8.8 0.48            151           78.5  39 
 RUS  HZ EP       1114 10.04                             145   -0.0410 99.3 176 
 RUS  HN ES       1114 28.54                             145   -0.3810 99.3 176 
 RUS  HZ I        1114 29.83         8.2 0.40            137           99.3 176 
 PTB  HZ EP       1114 12.89                             133   -0.38 9  147 259 
 PTB  HN ES       1114 34.11                             133   -0.48 9  147 259 
 PTB  HZ I        1114 36.28        14.7 0.14            127            147 259 
 OCA  HN ES   1   1114 36.21                             131   -1.02 7  162 353 
 ZAR  HE ES   1   1114 44.72                             123    0.39 6  204 292 
 NOR  HE ES   1   1114 49.51                             120   -0.37 6  234 235 
 SML  HZ EP       1114 22.60                             118   -0.36 8  245 335 
 SML  HN ES   1   1114 51.51                             118   -0.33 6  245 335 
 CHI  HZ EP   1   1114 24.46                             118    0.69 6  247 195 
 PRA  HZ EP   1   1114 40.39                             107    0.91 4  391 210 
 PRA  HZ I        1115 25.62         3.5 0.30            103            391 210 
                                                                                
