 2016 1029 1237 15.2 L   6.514 -73.803 93.9  RSN  5 0.3 1.4LRSN                1
 GAP=142        0.69       3.2     2.5  6.5  0.4259E+00 -0.1658E+01  0.3788E+01E
 Epicentro: CIMITARRA - SANTANDER                                              3
 ACTION:UPD 16-11-09 19:24 OP:rebc STATUS:               ID:20161029123715 L   I
 OLDACT:REG 16-10-29 19:08 OP:edw  STATUS:               ID:20161029122745     3
 2016-10-29-1228-00M.COL___328                                                 6
 STAT SP IPHASW D HRMM SECON CODA AMPLIT PERI AZIMU VELO AIN AR TRES W  DIS CAZ7
 BRR  HZ IP       1237 30.92                             142    0.2710 66.4   9 
 BRR  HN ES       1237 43.09                             142    0.3710 66.4   9 
 BRR  HZ I        1237 44.61        14.5 0.48            145           66.4   9 
 BAR2 EZ EP       1237 31.29                             141    0.0910 69.2  83 
 BAR2 EZ ES       1237 43.55                             141   -0.1610 69.2  83 
 BAR2 EZ I        1237 44.49        17.0 0.20            144           69.2  83 
 PTB  HZ IP       1237 31.13                             140   -0.0010 72.3 272 
 PTB  HN ES       1237 43.27                             140   -0.3210 72.3 272 
 PTB  HZ I        1237 45.34        13.8 0.10            142           72.3 272 
 RUS  HZ EP       1237 34.66                             129   -0.0510  105 131 
 RUS  HN ES       1237 50.15                             129    0.1910  105 131 
 RUS  HZ I        1237 51.47         1.8 0.36            131            105 131 
 PAM  EE ES       1237 58.22                             118   -0.45 9  152  53 
 PAM  HZ I        1237 58.79         3.4 0.14            120            152  53 
                                                                                
