 2016 1029 1025 19.8 L   6.767 -73.148147.5  RSN  4 0.1 1.4LRSN                1
 GAP=138        0.42       2.3     3.4  3.4 -0.6866E-01 -0.7138E+00  0.2347E+00E
 Epicentro: LOS SANTOS - SANTANDER                                             3
 ACTION:UPD 16-11-09 19:24 OP:rebc STATUS:               ID:20161029102519 L   I
 OLDACT:REG 16-10-29 18:45 OP:edw  STATUS:               ID:20161029101747     3
 2016-10-29-1018-00M.COL___322                                                 6
 STAT SP IPHASW D HRMM SECON CODA AMPLIT PERI AZIMU VELO AIN AR TRES W  DIS CAZ7
 BAR2 EZ EP       1025 39.67                             172    0.1410 19.7 191 
 BAR2 EZ ES       1025 55.11                             172    0.1610 19.7 191 
 BAR2 EZ I        1025 56.19         9.1 0.20            172           19.7 191 
 BRR  HZ EP       1025 41.03                             152   -0.1610 72.8 301 
 BRR  HN ES       1025 57.91                             152    0.0110 72.8 301 
 PAM  EZ EP       1025 42.50                             150    0.1610 80.3  38 
 PAM  EE ES       1025 59.79                             150   -0.1510 80.3  38 
 PAM  EZ I        1026  1.52         2.5 0.66            151           80.3  38 
 RUS  HZ EP       1025 43.38                             145   -0.0510 97.0 176 
 RUS  HN ES       1026  1.78                             145   -0.1110 97.0 176 
 RUS  HZ I        1026  3.47         3.3 0.24            146           97.0 176 
                                                                                
