 2014  529 1059 37.6 L   6.804 -73.170147.9  RSN 11 0.3 2.2LRSN                1
 GAP= 70        0.72       2.0     2.7  4.3 -0.3291E+00  0.2232E+01 -0.1284E+01E
 Epicentro: LOS SANTOS - SANTANDER                                             3
 ACTION:UPD 15-03-16 17:01 OP:nd   STATUS:               ID:20140529105937 L   I
 OLDACT:UP  14-05-29 22:41 OP:cam  STATUS:               ID:20140529105750     3
 OLDACT:UP  14-05-29 22:41 OP:cam  STATUS:               ID:20140529105750     3
 OLDACT:REG 14-05-29 22:27 OP:cam  STATUS:               ID:20140529105750     3
 2014-05-29-1057-50M.COL___253                                                 6
 STAT SP IPHASW D HRMM SECON CODA AMPLIT PERI AZIMU VELO AIN AR TRES W  DIS CAZ7
 BAR2 SZ EP       1059 57.56                             171    0.0510 23.4 183 
 BAR2 SZ ES       11 0 13.06                             171    0.0310 23.4 183 
 BAR2 SZ I        11 0 14.41        40.5 0.42            172           23.4 183 
 BRR  HZ EP     C 1059 59.43                             154    0.5710 68.6 299 
 BRR  HE ES   4   11 0 16.98                             154    1.55 0 68.6 299 
 BRR  HZ I        11 0 17.96        17.8 0.14            152           68.6 299 
 PAM  SZ EP       11 0  0.31                             151    0.1610 78.8  41 
 PAM  SN ES       11 0 17.79                             151    0.0610 78.8  41 
 PAM  SZ I        11 0 20.11        24.3 0.60            153           78.8  41 
 RUS  HZ EP       11 0  1.46                             144   -0.1710  101 175 
 RUS  HE ES       11 0 19.86                             144   -0.4910  101 175 
 RUS  HZ I        11 0 21.14        14.3 0.38            148            101 175 
 PTB  HZ EP       11 0  4.18                             133   -0.35 9  145 258 
 PTB  HN ES       11 0 25.79                             133    0.27 9  145 258 
 TAM  HZ EP       11 0  5.68                             130   -0.05 9  158 105 
 OCA  HZ EP       11 0  6.11                             130    0.07 9  160 354 
 OCA  HE ES       11 0 28.15                             130   -0.05 9  160 354 
 OCA  HZ I        11 0 31.61        14.0 0.38            131            160 354 
 SPBC HZ EP       11 0  6.51                             130    0.35 9  162 218 
 SPBC HN ES       11 0 28.65                             130    0.24 9  162 218 
 SPBC HZ I        11 0 31.31        25.1 0.30            132            162 218 
 ZAR  HZ EP       11 0 10.13                             123    0.19 9  201 292 
 ZAR  HN ES       11 0 34.63                             123   -0.51 9  201 292 
 ZAR  HZ I        11 0 42.59        22.7 0.34            124            201 292 
 SML  HZ EP       11 0 13.81                             118   -0.40 8  242 336 
 SML  HN ES       11 0 42.66                             118   -0.09 8  242 336 
 SML  HZ I        11 0 46.46        19.6 0.10            119            242 336 
 CHI  HN ES       11 0 44.78                             118   -0.10 8  248 195 
 URE  HZ EP   4   11 0 21.67                             114    3.17 0  281 292 
 RREF HZ EP   4   11 0 26.93                             111    3.27 0  320 229 
 SJC  HZ EP   4   11 0 31.80                             106   -1.24 0  407 327 
                                                                                
