 2011 1029 1618 50.1 L   6.761 -73.099145.0  RSN 10 0.2 2.2LRSN                1
 GAP=144        0.30       2.2     2.2  3.2 -0.9523E+00  0.2539E+01  0.1606E+01E
 Epicentro: LOS SANTOS - SANTANDER                                             3
 ACTION:UPD 12-07-13 16:06 OP:ep   STATUS:               ID:20111029161850 L   I
 2011-10-29-1617-54S.COL___157                                                 6
 STAT SP IPHASW D HRMM SECON CODA AMPLIT PERI AZIMU VELO AIN AR TRES W  DIS CAZ7
 BAR2 SZ EP   2   1619  9.40                             171   -0.17 5 20.8 206 
 BAR2 SZ ES   2   1619 24.80                             171    0.03 5 20.8 206 
 BAR2 SZ I        1619 25.84        38.3 0.26                          20.8 206 
 PAM  SZ EP   1   1619 12.26                             151    0.02 7 77.7  35 
 PAM  SN ES   2   1619 29.32                             151   -0.19 5 77.7  35 
 BRR  HZ EP   2   1619 11.96                             150    0.42 5 77.8 299 
 BRR  HN ES   2   1619 28.49                             150    0.22 5 77.8 299 
 BRR  HZ I        1619 30.90        18.8 0.54                          77.8 299 
 RUS  HZ EP   1   1619 13.51                             145    0.07 7 96.1 179 
 RUS  HN ES   2   1619 31.53                             145   -0.13 5 96.1 179 
 RUS  HZ I        1619 33.54        13.1 0.48                          96.1 179 
 ZAR  HZ EP   2   1619 23.23                             121    0.09 4  210 293 
 ZAR  HN ES   2   1619 48.56                             121   -0.37 4  210 293 
 ZAR  HZ I        1619 53.35        17.8 0.59                           210 293 
 NOR  SE ES   2   1619 53.81                             118   -0.14 4  236 236 
 HEL  HZ EP   2   1619 30.25                             114   -0.45 4  276 257 
 HEL  HN ES   2   1620  2.53                             114    0.15 4  276 257 
 HEL  HZ I        1620  9.96         6.3 0.41                           276 257 
 GUY  SZ EP   1   1619 34.15                             112    0.02 5  305 236 
 GUY  SN ES   2   1620  8.37                             112   -0.12 4  305 236 
 GUY  SZ I        1620 16.85         9.4 0.27                           305 236 
 RREF HZ EP   1   1619 36.31                             111   -0.02 5  323 231 
 RREF HN ES   2   1620 12.65                             111    0.25 3  323 231 
 RREF HZ I        1620 22.19         7.9 0.21                           323 231 
 PRA  HZ EP   2   1619 43.35                             106   -0.10 3  391 211 
 PRA  HN ES   2   1620 25.21                             106    0.14 3  391 211 
                                                                                
