 2011  629 1149 31.1 L   6.774 -73.074138.0  RSN  6 0.6 1.5LRSN                1
 GAP=147        1.33       8.4    14.9 11.9 -0.4206E+02 -0.3250E+02  0.1107E+02E
 Epicentro: LOS SANTOS - SANTANDER                                             3
 ACTION:UP  11-07-14 19:09 OP:ep   STATUS:               ID:20110629114931 L   I
 2011-06-29-1145-32S.COL___140                                                 6
 STAT SP IPHASW D HRMM SECON CODA AMPLIT PERI AZIMU VELO SNR AR TRES W  DIS CAZ7
 BAR2 SZ EP       1149 49.06                             170    -0.710   23 211 
 BAR2 SZ ES   2   1150  3.55                             170    -0.8 5   23 211 
 BAR2 SZ I        1150  5.37         4.6 0.40                            23 211 
 BTL  SZ EP       1149 50.05                             169     0.210   27 307 
 BTL  SZ ES   1   1150  5.58                             169     1.1 7   27 307 
 PAM  SZ EP       1149 52.13                             150    -0.210   75  34 
 PAM  SN ES   1   1150  8.83                             150     0.0 7   75  34 
 BRR  HZ EP   1   1149 51.46                             148    -0.4 7   79 298 
 BRR  HN ES   2   1150  7.83                             148    -0.3 5   79 298 
 BRR  HZ I        1150 11.82        13.7 0.14                            79 298 
 RUS  HZ EP       1149 54.19                             143     0.410   98 181 
 RUS  HN ES   2   1150 11.39                             143    -0.2 5   98 181 
 RUS  HZ I        1150 13.57         2.8 0.27                            98 181 
 GRA  SZ EP       1149 56.21                             135     0.510  126  14 
 GRA  SZ ES   2   1150 13.78                             135    -1.1 5  126  14 
 GRA  SZ I        1150 15.76         5.9 0.36                           126  14 
                                                                                
