 2011  629 1114 20.8 L   6.816 -73.063145.3  RSN  5 0.2 1.4LRSN                1
 GAP=168        0.49       6.6    10.3  7.9  0.3834E+02 -0.4140E+02 -0.1651E+02E
 Epicentro: LOS SANTOS - SANTANDER                                             3
 ACTION:UP  11-07-14 19:09 OP:ep   STATUS:               ID:20110629111420 L   I
 2011-06-29-1113-30S.COL___140                                                 6
 STAT SP IPHASW D HRMM SECON CODA AMPLIT PERI AZIMU VELO SNR AR TRES W  DIS CAZ7
 BTL  SZ EP       1114 40.49                             170     0.110   25 297 
 BTL  SZ ES   2   1114 55.75                             170     0.1 5   25 297 
 GIR2 SZ EP       1114 40.42                             167     0.010   32 334 
 BRR  HZ EP       1114 42.12                             150    -0.210   79 294 
 BRR  HN ES   1   1114 59.12                             150     0.0 7   79 294 
 BRR  HZ I        1115 14.23        10.4 0.33                            79 294 
 RUS  HZ EP   2   1114 45.05                             144     0.5 5  102 181 
 RUS  HN ES   2   1115  2.68                             144    -0.5 5  102 181 
 RUS  HZ I        1115  4.42         1.6 0.26                           102 181 
 GRA  SZ EP   3   1114 45.11                             138    -0.5 2  122  14 
                                                                                
