 2013  429 1332  7.2 L   6.791 -73.174135.8  RSN  6 0.1 1.8LRSN                1
 GAP=142        0.36       3.2     2.3  5.3 -0.3291E+01  0.4898E+00  0.2481E+01E
 Epicentro: LOS SANTOS - SANTANDER                                             3
 ACTION:UPD 13-05-22 14:41 OP:EP   STATUS:               ID:20130429133207 L   I
 2013-04-29-1330-00M.COL___248                                                 6
 STAT SP IPHASW D HRMM SECON CODA AMPLIT PERI AZIMU VELO AIN AR TRES W  DIS CAZ7
 BAR2 SZ EP   1   1332 25.38                             170   -0.22 7 22.0 182 
 BAR2 SZ I        1332 41.50         6.7 0.10            169           22.0 182 
 BRR  HN ES   4   1332 47.08                             151    4.38 0 68.9 301 
 BRR  HN I        1332 48.39        31.2 0.16            147           68.9 301 
 PAM  SZ IP     C 1332 28.63                             148    0.0910 80.2  41 
 PAM  SN ES   1   1332 45.16                             148   -0.03 7 80.2  41 
 PAM  SN I        1332 46.31        12.0 0.80            147           80.2  41 
 RUS  HZ EP   1   1332 30.05                             142    0.12 7 99.8 174 
 RUS  HN ES   2   1332 47.64                             142   -0.01 5 99.8 174 
 RUS  HN I        1332 48.30         4.5 0.36            140           99.8 174 
 PTB  HZ EP   1   1332 32.93                             130   -0.13 7  144 259 
 PTB  HN ES       1332 53.30                             130    0.06 9  144 259 
 PTB  HN I        1332 55.95         9.8 0.26            126            144 259 
 NOR  HZ EP   4   1332 43.53                             117    1.50 0  232 234 
 NOR  HN ES   4   1333  7.66                             117   -1.53 0  232 234 
 NOR  HN I        1333 17.37         7.4 0.18            114            232 234 
 SML  HN ES   4   1333 10.13                             115   -1.23 0  243 336 
                                                                                
