 2012  429 1840 40.3 L   6.740 -73.129143.1  RSN  4 0.3 1.0LRSN                1
 GAP=141        0.68       5.4     5.0  8.7 -0.6088E+01  0.8963E+01 -0.2600E+01E
 Epicentro: JORDAN - SANTANDER                                                 3
 ACTION:UPD 12-07-05 11:56 OP:tino STATUS:               ID:20120429184040 L   I
 2012-04-29-1840-00M.COL___189                                                 6
 STAT SP IPHASW D HRMM SECON CODA AMPLIT PERI AZIMU VELO AIN AR TRES W  DIS CAZ7
 BRR  HZ EP   1   1841  1.76                             150     0.3 7   76 302 
 BRR  HN ES   1   1841 18.27                             150     0.4 7   76 302 
 PAM  SZ EP   1   1841  2.38                             149    -0.1 7   82  36 
 PAM  SN ES   1   1841 19.46                             149    -0.3 7   82  36 
 PAM  SZ I        1841 21.29         1.4 0.15                            82  36 
 RUS  HN ES   1   1841 21.32                             145     0.1 7   94 177 
 RUS  HZ I        1841 23.13         1.9 0.23                            94 177 
 PTB  HZ EP   1   1841  7.04                             131     0.0 7  148 261 
 PTB  HN ES   1   1841 27.54                             131    -0.5 7  148 261 
 PTB  HZ I        1841 30.10         1.9 0.11                           148 261 
                                                                                
