 2015  829 1445 19.3 L   6.831 -73.108145.8  RSN  4 0.3 1.8LRSN                1
 GAP=223        0.70       4.0     5.5  7.6 -0.1289E+01  0.1220E+02 -0.6258E+01E
 Epicentro: LOS SANTOS - SANTANDER                                             3
 ACTION:UPD 15-09-15 23:06 OP:cam  STATUS:               ID:20150829144519 L   I
 OLDACT:REG 15-08-29 20:30 OP:spq  STATUS:               ID:20150829143747     3
 2015-08-29-1437-47M.COL___364                                                 6
 STAT SP IPHASW D HRMM SECON CODA AMPLIT PERI AZIMU VELO AIN AR TRES W  DIS CAZ7
 BAR2 EZ EP       1445 39.11                             169    0.0810 27.6 197 
 BAR2 EZ ES   1   1445 54.31                             169   -0.11 7 27.6 197 
 BAR2 EZ I        1445 56.05         6.1 0.22            167           27.6 197 
 ZAR  HN ES       1446 17.32                             122   -0.23 8  207 291 
 ZAR  HZ I        1446 23.15         8.2 0.36            122            207 291 
 NOR  HZ EP       1445 55.06                             118   -0.56 8  240 234 
 NOR  HN ES       1446 24.42                             118    0.48 8  240 234 
 NOR  HZ I        1446 28.79         4.1 0.34            119            240 234 
 SML  HZ EP       1445 56.09                             118    0.29 8  242 334 
 SML  HN ES   1   1446 24.32                             118    0.06 6  242 334 
 SML  HZ I        1446 28.87         8.6 0.10            118            242 334 
                                                                                
