 2012  229 1102 50.5 L   6.334 -73.624109.8  RSN 20 0.4 3.8LRSN                1
 GAP= 69        0.82       2.6     2.6  5.4  0.2614E+00  0.5359E+01  0.3538E+01E
 ACTION:UP  12-03-07 16:35 OP:epov STATUS:               ID:20120229110250 L   I
 2012-02-29-1100-00M.COL___191                                                 6
 STAT SP IPHASW D HRMM SECON CODA AMPLIT PERI AZIMU VELO AIN AR TRES W  DIS CAZ7
 BAR2 SZ EP       11 3  7.60                             150    0.3010 56.6  60 
 BAR2 SZ ES   1   11 3 20.96                             150    0.57 7 56.6  60 
 BAR2 SZ I        11 3 22.31      4333.8 0.46                          56.6  60 
 RUS  HZ IP     D 11 3  8.90                             142   -0.1410 77.3 129 
 RUS  HN ES       11 3 22.85                             142   -0.6510 77.3 129 
 RUS  HZ I        11 3 26.09       862.0 0.50                          77.3 129 
 BRR  HZ EP       11 3  9.18                             139    0.1510 86.0 354 
 PTB  HZ EP       11 3  9.35                             136   -0.4310 94.8 284 
 PTB  HN ES   1   11 3 24.36                             136   -0.44 7 94.8 284 
 PAM  SZ EP       11 3 15.64                             122   -0.13 9  151  43 
 PAM  SN ES   1   11 3 35.49                             122    0.01 7  151  43 
 PAM  SZ I        11 3 39.68       431.0 0.36                           151  43 
 NOR  SZ EP   1   11 3 16.17                             119   -0.19 7  162 238 
 NOR  SN ES   1   11 3 36.58                             119    0.05 7  162 238 
 YOP  SZ EP   1   11 3 17.55                             118    0.07 7  172 129 
 YOP  SN ES   1   11 3 39.09                             118    0.58 7  172 129 
 YOP  SZ I        11 3 40.56      1573.5 0.22                           172 129 
 ROSC BZ EP   1   11 3 20.07                             116    1.09 7  182 205 
 ROSC BZ I        11 3 46.44      1016.2 0.37                           182 205 
 ZAR  HZ EP   1   11 3 19.14                             115    0.13 7  187 313 
 ZAR  HN ES   1   11 3 41.64                             115    0.40 7  187 313 
 ZAR  HZ I        11 3 46.15      1303.5 0.44                           187 313 
 CHI  HZ EP   1   11 3 19.41                             115   -0.32 7  189 184 
 CHI  HZ I        11 3 47.32       422.3 0.32                           189 184 
 HEL  HZ EP   1   11 3 22.37                             112    0.19 6  211 266 
 HEL  HZ I        11 3 50.85       502.4 0.27                           211 266 
 GUY  SZ EP   1   11 3 24.86                             110    0.32 6  231 238 
 GUY  SZ I        11 3 58.57       958.8 0.42                           231 238 
 VIL  SZ EP       11 3 25.81                             108   -0.01 8  246 182 
 VIL  SN ES   1   11 3 53.78                             108    0.42 6  246 182 
 VIL  SZ I        11 3 58.42       350.9 0.41                           246 182 
 RREF HZ EP   1   11 3 26.81                             108    0.10 6  248 230 
 RREF HZ I        11 4  3.38       591.5 0.37                           248 230 
 TOL  SZ EP   1   11 3 29.06                             106    0.22 6  270 224 
 PRA  HZ EP   1   11 3 34.56                             103   -0.06 5  322 206 
 PRA  HN ES   1   11 4  8.90                             103   -0.13 5  322 206 
 PAL  HZ EP   1   11 3 36.64                             102    0.50 5  334 242 
 YOT  HZ EP       11 3 43.22                              99   -0.65 6  398 229 
 YOT  HZ I        11 3 46.02       138.9 0.63                           398 229 
 SDV  BZ EP   1   11 3 47.23                              97   -1.07 4  434  49 
 SDV  BZ I        11 3 48.75       258.5 0.34                           434  49 
 HORQ SZ EP   1   11 3 50.29                              97   -1.06 4  458 227 
                                                                                
