 2015  129 1040 59.5 L   6.805 -73.129142.0  RSN 19 0.4 2.2LRSN                1
 GAP= 72        0.96       2.6     2.7  5.1 -0.8535E+00  0.2590E+01  0.3160E+01E
 Epicentro: LOS SANTOS - SANTANDER                                             3
 ACTION:UPD 15-03-02 15:43 OP:nd   STATUS:               ID:20150129104059 L   I
 OLDACT:UP  15-01-29 23:32 OP:spq  STATUS:               ID:20150129103744     3
 OLDACT:REG 15-01-29 20:41 OP:spq  STATUS:               ID:20150129103744     3
 2015-01-29-1037-44M.COL___271                                                 6
 STAT SP IPHASW D HRMM SECON CODA AMPLIT PERI AZIMU VELO AIN AR TRES W  DIS CAZ7
 BAR2 EZ EP       1041 18.51                             170   -0.1710 24.2 194 
 BAR2 EZ ES   1   1041 33.59                             170   -0.07 7 24.2 194 
 BAR2 EZ I        1041 34.23        34.0 0.34            168           24.2 194 
 BRR  HZ EP       1041 20.29                             152   -0.0210 72.5 297 
 BRR  HN ES       1041 37.20                             152    0.6510 72.5 297 
 BRR  HZ I        1041 41.53        38.9 0.34            152           72.5 297 
 PAM  SZ EP       1041 21.38                             151    0.1710 75.8  39 
 PAM  SN ES       1041 38.31                             151    0.1610 75.8  39 
 PAM  SZ I        1041 40.37        33.0 0.50            155           75.8  39 
 RUS  HZ EP       1041 22.81                             143   -0.0910  101 177 
 RUS  HN ES   1   1041 41.00                             143   -0.16 7  101 177 
 RUS  HZ I        1041 42.50        14.4 0.30            144            101 177 
 PTB  HZ EP       1041 25.66                             131   -0.66 9  150 259 
 PTB  HN ES       1041 47.75                             131    0.50 9  150 259 
 PTB  HZ I        1041 49.35        27.1 0.18            131            150 259 
 TAM  HZ EP     D 1041 26.91                             130    0.19 9  153 105 
 TAM  HE ES       1041 48.23                             130    0.27 9  153 105 
 TAM  HZ I        1041 49.57        12.5 0.32            133            153 105 
 OCA  HZ EP       1041 26.89                             129   -0.59 9  160 352 
 OCA  HE ES       1041 48.79                             129   -0.52 9  160 352 
 OCA  HZ I        1041 52.66        29.4 0.16            132            160 352 
 SPBC HZ EP       1041 27.59                             128   -0.26 9  165 219 
 SPBC HE ES       1041 49.85                             128   -0.12 9  165 219 
 SPBC HZ I        1041 55.13        23.8 0.22            128            165 219 
 ZAR  HZ EP       1041 31.63                             122   -0.21 8  206 292 
 ZAR  HN ES       1041 57.38                             122    0.30 8  206 292 
 ZAR  HZ I        1042  3.53        22.5 0.24            123            206 292 
 NOR  HZ EP       1041 35.48                             118    0.29 8  236 235 
 NOR  HN ES       1042  2.43                             118   -0.61 8  236 235 
 NOR  HZ I        1042  4.42         9.9 0.32            118            236 235 
 SML  HZ EP   4   1041 34.80                             117   -1.14 0  244 335 
 SML  HE ES   1   1042  4.79                             117    0.42 6  244 335 
 CHI  HZ EP       1041 37.37                             116    0.28 8  250 196 
 CHI  HN ES       1042  5.71                             116   -0.70 8  250 196 
 CHI  HZ I        1042  9.25         6.0 0.28            117            250 196 
 ROSC BE ES   4   1042 10.31                             116    3.06 0  254 211 
 ROSC BZ I        1042 17.92        12.9 0.40            117            254 211 
 HEL  HZ EP   4   1041 40.80                             114    1.08 0  274 256 
 HEL  HN ES   1   1042 10.23                             114   -0.87 6  274 256 
 HEL  HZ I        1042 16.88         6.0 0.22            115            274 256 
 GUY2CHZ EP   4   1041 44.25                             112    1.12 0  303 235 
 GUY2CHN ES   1   1042 17.78                             112    0.62 5  303 235 
 GUY2CHZ I        1042 23.92         6.0 0.28                           303 235 
 PTGC HZ EP   4   1041 41.87                             111   -1.29 0  309 159 
 PTGC HN ES   4   1042 15.22                             111   -2.00 0  309 159 
 PTGC HZ I        1042 19.93        13.2 0.44            112            309 159 
 TOL  SZ EP       1041 48.63                             109    0.85 7  345 225 
 TOL  SE ES       1042 26.10                             109    0.65 7  345 225 
 TOL  SZ I        1042 34.32         5.8 0.40            110            345 225 
 MON  HZ EP   4   1041 46.42                             108   -2.05 0  355 308 
 MON  HE ES   4   1042 24.94                             108   -1.74 0  355 308 
 MON  HZ I        1042 25.62         3.7 0.19            109            355 308 
 ORTC HZ EP       1041 53.70                             106    0.24 6  397 216 
 ORTC HN ES   1   1042 36.00                             106    0.45 4  397 216 
 ORTC HZ I        1042 40.40         4.0 0.50            107            397 216 
                                                                                
