 2014  329 1903 59.5 L   6.602 -74.119 70.0  RSN 18 0.5 2.4LRSN                1
 GAP= 66        1.29       2.7     2.8  7.4 -0.2047E+01 -0.3865E+01  0.4537E+01E
 Epicentro: PUERTO PARRA - SANTANDER                                           3
 ACTION:UPD 14-04-09 23:21 OP:nd   STATUS:               ID:20140329190359 L   I
 OLDACT:DUP 14-03-29 20:27 OP:nd   STATUS:               ID:20140329190036d    3
 2014-03-29-1900-35M.COL___256                                                 6
 STAT SP IPHASW D HRMM SECON CODA AMPLIT PERI AZIMU VELO AIN AR TRES W  DIS CAZ7
 PTB  HZ IP     C 19 4  9.81                             149   -0.7310 37.9 260 
 PTB  HN ES       19 4 18.97                             149   -0.2010 37.9 260 
 PTB  HZ I        19 4 20.96       113.7 0.16            135           37.9 260 
 BRR  HZ IP     C 19 4 13.27                             129   -0.0210 71.8  39 
 BRR  HN ES       19 4 24.89                             129    0.8210 71.8  39 
 BRR  HZ I        19 4 25.50       265.3 0.12            121           71.8  39 
 BAR2 SZ IP     C 19 4 16.76                             118   -0.1210  104  91 
 BAR2 SZ ES       19 4 30.47                             118    0.0010  104  91 
 BAR2 SZ I        19 4 31.31       183.7 0.24            112            104  91 
 SPBC HZ IP     C 19 4 16.53                             118   -0.3210  105 177 
 SPBC HN ES       19 4 30.30                             118   -0.1210  105 177 
 SPBC HZ I        19 4 31.90       145.6 0.26            109            105 177 
 ZAR  HZ EP       19 4 18.85                             112   -0.4610  128 320 
 ZAR  HN ES       19 4 35.16                             112    0.3710  128 320 
 ZAR  HZ I        19 4 37.69        90.0 0.26            103            128 320 
 RUS  HZ EP       19 4 20.50                             111   -0.68 9  139 124 
 RUS  HN ES       19 4 37.65                             111   -0.47 9  139 124 
 RUS  HZ I        19 4 39.35        19.0 0.26            104            139 124 
 NOR  HZ EP       19 4 20.41                             110   -0.54 9  142 216 
 NOR  HN ES       19 4 38.32                             110    0.61 9  142 216 
 NOR  HZ I        19 4 40.16        82.3 0.20            102            142 216 
 PAM  SZ EP       19 4 25.24                             105   -0.39 9  177  62 
 PAM  SN ES       19 4 46.44                             105    0.39 9  177  62 
 PAM  SZ I        19 4 48.12        26.2 0.22            100            177  62 
 OCA  HZ EP   4   19 4 25.97                             103   -2.20 0  201  26 
 OCA  HN ES       19 4 50.94                             103    0.38 9  201  26 
 OCA  HZ I        19 4 53.79        24.7 0.18             98            201  26 
 URE  HZ EP   4   19 4 25.96                             103   -2.03 0  201 309 
 URE  HN ES   4   19 4 52.03                             103    1.79 0  201 309 
 URE  HZ I        19 4 56.04        53.8 0.34             97            201 309 
 CHI  HZ EP       19 4 31.33                             102    0.33 8  222 169 
 CHI  HN ES       19 4 57.14                             102    1.55 8  222 169 
 CHI  HZ I        19 4 59.86        13.7 0.76             97            222 169 
 CBOC HZ EP   4   19 4 31.30                             101    0.29 0  225 249 
 CBOC HN ES   4   19 4 59.35                             101    3.73 0  225 249 
 CBOC HZ I        19 5  5.19        11.7 0.48             96            225 249 
 RREF HZ EP       19 4 32.82                             101    0.36 8  232 216 
 RREF HN ES       19 4 57.96                             101   -0.24 8  232 216 
 RREF HZ I        19 5  3.19        28.2 0.24             96            232 216 
 DBB  SZ EP   4   19 4 32.18                             101   -0.03 0  236 281 
 DBB  SZ ES   4   19 5  3.25                             101    5.49 0  236 281 
 DBB  SZ I        19 5  6.50        36.9 0.46             96            236 281 
 SML  HZ EP   4   19 4 32.16                             100   -0.88 0  243   1 
 SML  HN ES   4   19 4 56.25                             100   -2.98 0  243   1 
 SML  HZ I        19 5  4.96        49.7 0.10             96            243   1 
 TAM  HZ EP       19 4 34.83                              99   -0.07 8  258  94 
 TAM  HN ES       19 5  2.25                              99   -0.29 8  258  94 
 TAM  HZ I        19 5  2.54        11.9 0.22             95            258  94 
 ORTC HZ EP   4   19 4 44.09                              97    1.28 0  323 203 
 ORTC HN ES       19 5 17.27                              97    0.65 7  323 203 
 ORTC HZ I        19 5 25.88         7.7 0.48             94            323 203 
 SJC  HZ EP   4   19 4 48.04                              96   -2.13 0  383 342 
 SJC  HN ES   4   19 5 24.94                              96   -4.78 0  383 342 
 SJC  HZ I        19 5 29.39         7.7 0.32             93            383 342 
                                                                                
