 2015  829 1602 10.8 L   6.808 -73.132144.2  RSN 20 0.4 2.5LRSN                1
 GAP=138        0.94       2.4     4.0  5.0 -0.1345E+01  0.6699E+01  0.1872E+01E
 Epicentro: LOS SANTOS - SANTANDER                                             3
 ACTION:UPD 15-09-15 23:06 OP:cam  STATUS:               ID:20150829160210 L   I
 OLDACT:DUP 15-08-29 23:24 OP:spq  STATUS:               ID:20150829155749d    3
 2015-08-29-1557-48M.COL___364                                                 6
 STAT SP IPHASW D HRMM SECON CODA AMPLIT PERI AZIMU VELO AIN AR TRES W  DIS CAZ7
 BAR2 EZ EP     D 16 2 30.02                             170   -0.2110 24.5 193 
 BAR2 EZ ES   1   16 2 45.57                             170    0.16 7 24.5 193 
 BAR2 EZ I        16 2 47.11        33.8 0.34            166           24.5 193 
 BRR  HZ EP       16 2 32.00                             152    0.2010 72.2 297 
 BRR  HN ES       16 2 49.06                             152    0.8510 72.2 297 
 BRR  HZ I        16 2 55.57        43.9 0.24            146           72.2 297 
 PAM  EZ EP     C 16 2 33.04                             151    0.3210 75.8  39 
 PAM  EN ES       16 2 49.89                             151    0.0510 75.8  39 
 PAM  EZ I        16 2 52.18        69.0 0.56            156           75.8  39 
 RUS  HZ EP   1   16 2 34.71                             143    0.29 7  101 177 
 RUS  HE ES       16 2 52.48                             143   -0.3810  101 177 
 RUS  HZ I        16 2 53.91        37.6 0.32            146            101 177 
 OCA  HZ EP       16 2 39.18                             129    0.28 9  160 353 
 OCA  HE ES       16 3  0.05                             129   -0.79 9  160 353 
 OCA  HZ I        16 3  8.96        54.5 0.34            130            160 353 
 SPBC HZ EP       16 2 39.33                             128    0.03 9  165 219 
 SPBC HE ES       16 3  1.33                             128   -0.23 9  165 219 
 SPBC HZ I        16 3  7.26        46.4 0.19            128            165 219 
 ZAR  HZ EP       16 2 43.60                             122    0.37 9  205 292 
 ZAR  HN ES       16 3  8.05                             122   -0.50 9  205 292 
 ZAR  HZ I        16 3 17.37        34.1 0.32            121            205 292 
 NOR  HN ES   1   16 3 14.35                             118   -0.19 6  236 235 
 NOR  HZ I        16 3 20.04        16.3 0.34            118            236 235 
 SML  HZ EP   1   16 2 46.53                             117   -0.76 6  244 335 
 SML  HN ES   1   16 3 15.28                             117   -0.50 6  244 335 
 SML  HZ I        16 3 21.63        25.9 0.14            117            244 335 
 CHI  HZ EP       16 2 48.35                             117   -0.16 8  250 195 
 CHI  HE ES       16 3 17.53                             117   -0.42 8  250 195 
 CHI  HZ I        16 3 23.79        14.2 0.28            118            250 195 
 HEL  HZ EP   4   16 2 53.04                             114    1.95 0  274 256 
 HEL  HN ES   4   16 3 24.41                             114    1.87 0  274 256 
 HEL  HZ I        16 3 32.05        11.8 0.30            114            274 256 
 URE  HZ EP   4   16 2 50.47                             113   -1.42 0  285 292 
 URE  HE ES   4   16 3 21.49                             113   -2.47 0  285 292 
 URE  HZ I        16 3 34.56        24.4 0.22            113            285 292 
 GUY2CHZ EP       16 2 54.84                             112    0.34 7  303 235 
 GUY2CHE ES   1   16 3 28.49                             112   -0.12 5  303 235 
 GUY2CHZ I        16 3 36.07        11.4 0.30                           303 235 
 PTGC HZ EP   4   16 2 53.19                             111   -1.39 0  309 159 
 PTGC HN ES   4   16 3 26.50                             111   -2.25 0  309 159 
 PTGC HZ I        16 3 29.26        33.0 0.46            114            309 159 
 CBOC HZ EP   1   16 2 57.71                             109   -0.11 5  335 252 
 DBB  SZ ES   1   16 3 35.41                             109   -0.06 5  341 274 
 DBB  SZ I        16 3 41.85        41.5 0.50            109            341 274 
 TOL  SZ EP       16 2 59.94                             109    0.79 7  345 225 
 TOL  SN ES   1   16 3 37.92                             109    1.02 5  345 225 
 TOL  SZ I        16 3 44.51        10.9 0.60            110            345 225 
 PRA  HZ EP       16 3  4.08                             106   -0.33 6  394 210 
 PRA  HE ES       16 3 45.64                             106   -0.61 6  394 210 
 PRA  HZ I        16 3 54.46        12.2 0.54            107            394 210 
 ORTC HZ EP       16 3  5.17                             106    0.35 6  397 216 
 ORTC HN ES   4   16 3 48.11                             106    1.13 0  397 216 
 ORTC HZ I        16 3 55.49         9.0 0.62            107            397 216 
 CRJC HZ EP   4   16 3 10.51                             103   -2.60 0  467   3 
 CRJC HN ES   4   16 3 59.11                             103   -2.63 0  467   3 
 CRJC HZ I        16 4  7.94         6.2 0.40            104            467   3 
                                                                                
