 2017  729 1653 23.5 L   6.772 -73.141142.3  RSN  9 0.7 1.9LRSN                1
 GAP=113        1.61       6.3     6.0  9.4 -0.1478E+01  0.1094E+02  0.6317E+01E
 Epicentro: LOS SANTOS - SANTANDER                                             3
 ACTION:UPD 17-08-30 15:38 OP:rebc STATUS:               ID:20170729165323 L   I
 OLDACT:REG 17-07-29 20:08 OP:ar   STATUS:               ID:20170729164739     3
 2017-07-29-1648-00M.COL___389                                                 6
 STAT SP IPHASW D HRMM SECON CODA AMPLIT PERI AZIMU VELO AIN AR TRES W  DIS CAZ7
 BAR2 EZ EP       1653 42.43                             171   -0.2510 20.4 193 
 BAR2 EZ ES       1653 57.58                             171   -0.0310 20.4 193 
 BAR2 EZ I        1654  0.10        28.3 0.26            171           20.4 193 
 BRR  HZ EP       1653 44.26                             151   -0.1510 73.2 300 
 BRR  HN ES       1654  1.40                             151    0.7010 73.2 300 
 BRR  HZ I        1654  3.86        24.1 0.18            150           73.2 300 
 PAM  EZ EP       1653 45.41                             150   -0.0810 79.4  38 
 PAM  EN ES       1654  2.65                             150    0.0210 79.4  38 
 PAM  EZ I        1654  5.40        10.6 0.40            153           79.4  38 
 RUS  HZ EP       1653 46.52                             144   -0.1810 97.5 176 
 RUS  HN ES       1654  4.94                             144    0.1510 97.5 176 
 RUS  HZ I        1654  6.22         9.3 0.30            147           97.5 176 
 PTB  HZ EP       1653 49.40                             131   -0.81 9  148 260 
 PTB  HN ES       1654  9.99                             131   -1.03 9  148 260 
 PTB  HZ I        1654 16.69         4.0 0.14            132            148 260 
 SPBC HE ES       1654 13.74                             129    0.31 9  161 220 
 YPLC HZ EP       1653 52.75                             126   -0.02 9  174 151 
 ZAR  HZ EP       1653 57.77                             121    1.85 8  206 293 
 ZAR  HN ES       1654 20.48                             121   -0.71 8  206 293 
 ZAR  HZ I        1654 25.26        13.7 0.42            123            206 293 
 NOR  HZ EP       1653 58.52                             118   -0.39 8  233 235 
 NOR  HN ES       1654 27.44                             118    0.93 8  233 235 
 NOR  HZ I        1654 32.95         7.4 0.18            119            233 235 
                                                                                
