 2015  829 1649 48.5 L   6.178 -73.653114.7  RSN  5 0.3 1.6LRSN                1
 GAP=134        0.70       2.9     3.5  6.8 -0.1436E+01  0.2205E+01  0.5656E-01E
 Epicentro: LA PAZ - SANTANDER                                                 3
 ACTION:UPD 15-09-15 23:06 OP:cam  STATUS:               ID:20150829164948 L   I
 OLDACT:REG 15-08-29 20:36 OP:spq  STATUS:               ID:20150829164750     3
 2015-08-29-1647-50M.COL___364                                                 6
 STAT SP IPHASW D HRMM SECON CODA AMPLIT PERI AZIMU VELO AIN AR TRES W  DIS CAZ7
 BAR2 EZ EP     C 1650  6.51                             147   -0.1310 69.3  49 
 BAR2 EZ ES   1   1650 20.91                             147    0.15 7 69.3  49 
 BAR2 EZ I        1650 21.59        17.1 0.14            147           69.3  49 
 SPBC HZ EP   1   1650  6.59                             145   -0.19 7 74.4 219 
 SPBC HN ES       1650 20.93                             145   -0.0810 74.4 219 
 SPBC HZ I        1650 22.51        12.8 0.28            144           74.4 219 
 NOR  HZ EP   1   1650 14.13                             123    0.59 7  151 243 
 NOR  HN ES       1650 32.86                             123   -0.17 9  151 243 
 NOR  HZ I        1650 33.95         4.1 0.26            123            151 243 
 CHI  HZ EP       1650 15.78                             120   -0.37 9  171 183 
 CHI  HN ES   1   1650 38.34                             120    0.65 7  171 183 
 CHI  HZ I        1650 40.87         1.8 0.41            120            171 183 
 ZAR  HN ES       1650 41.83                             116    0.13 9  197 318 
 ZAR  HZ I        1650 46.30         4.4 0.50            115            197 318 
                                                                                
