 2010 1029 1336 35.2 L   6.806 -73.054150.5  RSN  9 0.5 2.0LRSN                1
 GAP=166        1.09       7.9    11.5 12.0 -0.4369E+02  0.2592E+02 -0.1020E+02E
 Epicentro: LOS SANTOS - SANTANDER                                             3
 ACTION:UP  11-02-18 11:13 OP:tino STATUS:               ID:20101029133635 L   I
 2010-10-29-1331-51S.COL___128                                                 6
 STAT SP IPHASW D HRMM SECON CODA AMPLIT PERI AZIMU VELO SNR AR TRES W  DIS CAZ7
 BAR2 SZ EP   1   1336 55.71                             169     0.2 7   28 211 
 BAR2 SZ ES   2   1337 10.80                             169    -0.6 5   28 211 
 BAR2 SZ I        1337 12.42        34.8 0.59                            28 211 
 GIR2 SZ EP   1   1336 55.79                             167     0.2 7   34 333 
 BRR  HZ EP   1   1336 57.59                             151     0.2 7   80 295 
 BRR  HZ I        1336 57.93        38.0 0.18                            80 295 
 BRR  HN ES   2   1337 15.59                             151     0.9 5   80 295 
 RUS  HZ EP   1   1336 59.72                             145     0.2 7  101 182 
 RUS  HE ES   2   1337 18.39                             145     0.0 5  101 182 
 RUS  HZ I        1337 19.64        14.5 0.45                           101 182 
 BRI  SZ EP   1   1337  0.18                             143     0.9 7  105  16 
 GUE  SZ EP   1   1336 59.36                             141    -0.9 7  114   7 
 GRA  SZ EP   1   1337  0.48                             139    -0.2 7  122  13 
 GRA  SZ ES   2   1337 19.61                             139    -0.8 5  122  13 
 GRA  SZ I        1337 23.04        11.1 0.25                           122  13 
 NOR  SZ EP   1   1337 11.63                             119    -0.6 6  244 236 
 NOR  SE ES   2   1337 40.27                             119    -0.8 4  244 236 
 NOR  SZ I        1337 45.12         1.9 0.22                           244 236 
 HEL  HZ EP   1   1337 16.99                             115     0.2 6  282 256 
 HEL  HZ I        1337 55.38         9.1 0.41                           282 256 
                                                                                
