 2012  929 1422 34.7 L   6.826 -73.214 18.1  RSN  5 0.2 1.4LRSN                1
 GAP=167        0.55       2.0     3.7  5.2  0.4280E+01  0.9996E+01  0.2120E+01E
 Epicentro: ZAPATOCA - SANTANDER                                               3
 ACTION:UPD 12-10-22 14:21 OP:ep   STATUS:               ID:20120929142234 L   I
 2012-09-29-1420-00M.COL___220                                                 6
 STAT SP IPHASW D HRMM SECON CODA AMPLIT PERI AZIMU VELO AIN AR TRES W  DIS CAZ7
 BAR2 SZ EP       1422 40.50                             123    0.3510 26.1 172 
 BAR2 SZ ES   1   1422 44.14                             123   -0.25 7 26.1 172 
 GIR2 SZ EP       1422 40.15                             120   -0.1410 28.1   5 
 BRR  HZ EP       1422 45.33                             103    0.2010 63.2 300 
 BRR  HN ES   1   1422 53.08                             103   -0.18 7 63.2 300 
 BRR  HN I        1422 53.36        34.6 0.52                          63.2 300 
 RUS  HZ EP   2   1422 51.35                              98   -0.40 5  104 172 
 RUS  HN ES   1   1423  4.96                              98   -0.09 7  104 172 
 RUS  HZ I        1423  7.04         4.7 0.20                           104 172 
 PTB  HN ES   2   1423 13.22                              56   -0.09 5  141 257 
 PTB  HN I        1423 13.40         5.7 0.22                           141 257 
                                                                                
