 2017 1229 1353  9.5 L   6.771 -73.152143.6  RSN  4 0.2 1.5LRSN                1
 GAP=151        0.53       6.9     4.1  6.6 -0.1606E+02  0.6401E+01  0.7851E+01E
 Epicentro: LOS SANTOS - SANTANDER                                             3
 ACTION:UPD 18-01-04 13:25 OP:rebc STATUS:               ID:20171229135309 L   I
 OLDACT:DUP 17-12-29 22:56 OP:mg   STATUS:               ID:20171229134740d    3
 2017-12-29-1348-00M.COL___433                                                 6
 STAT SP IPHASW D HRMM SECON CODA AMPLIT PERI AZIMU VELO AIN AR TRES W  DIS CAZ7
 BAR2 EZ EP       1353 29.03                             172    0.2410 20.0 190 
 BAR2 EZ ES   2   1353 44.03                             172    0.18 5 20.0 190 
 BAR2 EZ I        1353 45.50         6.8 0.20            172           20.0 190 
 PAM  EZ EP       1353 31.75                             149    0.1010 80.3  38 
 PAM  EN ES       1353 48.71                             149   -0.2310 80.3  38 
 PAM  EZ I        1353 50.38         4.2 0.18            150           80.3  38 
 PTB  HZ EP       1353 35.91                             132   -0.25 9  146 260 
 PTB  HE ES   1   1353 56.90                             132   -0.06 7  146 260 
 PTB  HZ I        1353 59.97         2.7 0.24            131            146 260 
 ZAR  HN ES   2   1354  7.60                             122    0.50 4  205 293 
 ZAR  HZ I        1354 12.79         4.3 0.23            121            205 293 
                                                                                
