 2011  429 1835 10.8 L   6.789 -73.144148.9  RSN 10 0.3 2.5LRSN                1
 GAP=114        0.71       3.6     4.3  5.3 -0.6824E+01  0.3934E+01  0.2349E+01E
 Epicentro: LOS SANTOS - SANTANDER                                             3
 ACTION:UP  11-06-22 15:33 OP:REBC STATUS:               ID:20110429183510 L   I
 2011-04-29-1834-09S.COL___138                                                 6
 STAT SP IPHASW D HRMM SECON CODA AMPLIT PERI AZIMU VELO SNR AR TRES W  DIS CAZ7
 BAR2 SZ IP       1835 30.46                             171    -0.310   22 191 
 BAR2 SZ ES   1   1835 45.94                             171    -0.4 7   22 191 
 BAR2 SZ I        1835 47.39       102.8 0.22                            22 191 
 BRR  HZ IP     C 1835 32.47                             153     0.110   72 299 
 BRR  HZ I        1835 32.75        96.4 0.16                            72 299 
 BRR  HE ES   1   1835 49.77                             153     0.7 7   72 299 
 PAM  SZ EP       1835 33.37                             151     0.010   78  39 
 PAM  SE ES   2   1835 50.55                             151    -0.5 5   78  39 
 BRI  SZ EP   1   1835 35.26                             142     0.2 7  110  20 
 BRI  SZ ES   1   1835 53.97                             142     0.0 7  110  20 
 BRI  SZ I        1835 55.96        53.8 0.40                           110  20 
 GRA  SZ IP       1835 36.54                             137     0.110  127  17 
 GRA  SZ ES   1   1835 56.58                             137     0.2 7  127  17 
 GRA  SZ I        1835 57.63        56.9 0.40                           127  17 
 OCA  SZ EP   1   1835 39.23                             130    -0.2 7  161 353 
 OCA  SZ ES   2   1836  1.44                             130    -0.4 5  161 353 
 OCA  SZ I        1836  6.55        37.1 0.19                           161 353 
 YOP  SZ EP   2   1835 41.72                             127     0.8 4  178 153 
 YOP  SN ES   2   1836  4.90                             127     0.4 4  178 153 
 YOP  SZ I        1836  7.93        20.7 0.38                           178 153 
 NOR  SZ EP       1835 46.57                             119    -0.1 8  234 235 
 NOR  SN ES   1   1836 14.36                             119    -0.2 6  234 235 
 NOR  SZ I        1836 21.10         8.0 0.19                           234 235 
 HEL  HZ EP   2   1835 51.39                             115     0.2 4  272 256 
 HEL  HN ES   2   1836 22.55                             115    -0.1 4  272 256 
 HEL  HZ I        1836 29.44        27.8 0.33                           272 256 
 DBB  SZ EP   1   1835 58.22                             110    -0.2 5  340 274 
 DBB  SZ I        1836 42.50         3.7 0.31                           340 274 
                                                                                
