 2015  129 1656 19.5 L   6.820 -73.167144.9  RSN  5 0.3 1.2LRSN                1
 GAP=144        0.75       5.8     5.2  8.0 -0.1650E+02  0.1352E+02 -0.6035E+01E
 Epicentro: LOS SANTOS - SANTANDER                                             3
 ACTION:UPD 15-03-02 15:43 OP:nd   STATUS:               ID:20150129165619 L   I
 OLDACT:DUP 15-01-30 00:56 OP:spq  STATUS:               ID:20150129164750d    3
 2015-01-29-1647-49M.COL___280                                                 6
 STAT SP IPHASW D HRMM SECON CODA AMPLIT PERI AZIMU VELO AIN AR TRES W  DIS CAZ7
 BAR2 EZ EP       1656 38.70                             170   -0.3910 25.2 184 
 BAR2 EZ ES   1   1656 54.39                             170    0.04 7 25.2 184 
 BAR2 EZ I        1656 56.50         4.0 0.24            170           25.2 184 
 PAM  SZ EP       1656 41.81                             151    0.1710 77.3  42 
 PAM  SN ES   1   1656 59.19                             151    0.30 7 77.3  42 
 PAM  SZ I        1657  0.89         2.8 0.56            154           77.3  42 
 RUS  HZ EP   1   1656 43.54                             143    0.18 7  103 175 
 RUS  HN ES   1   1657  1.70                             143   -0.25 7  103 175 
 RUS  HZ I        1657  2.70         2.4 0.34            146            103 175 
 PTB  HZ EP   1   1656 45.85                             132   -0.40 7  146 258 
 PTB  HN ES   1   1657  6.78                             132   -0.32 7  146 258 
 PTB  HZ I        1657  9.66         1.8 0.21            133            146 258 
 NOR  HN ES       1657 23.54                             118    0.63 8  234 234 
 NOR  HZ I        1657 28.22         1.8 0.16            120            234 234 
                                                                                
