 2013  929 1958 58.6 L   6.796 -73.144150.7  RSN  8 0.4 1.6LRSN                1
 GAP=137        0.93       4.3     4.8  7.2  0.7634E+00  0.1099E+02  0.2106E+01E
 Epicentro: LOS SANTOS - SANTANDER                                             3
 ACTION:UPD 13-10-22 09:26 OP:ep   STATUS:               ID:20130929195858 L   I
 OLDACT:REG 13-09-29 17:20 OP:jn   STATUS:               ID:20130929195748     3
 2013-09-29-1957-48M.COL___237                                                 6
 STAT SP IPHASW D HRMM SECON CODA AMPLIT PERI AZIMU VELO AIN AR TRES W  DIS CAZ7
 BAR2 SZ EP       1959 18.83                             171   -0.0210 22.9 191 
 BAR2 SZ ES       1959 34.24                             171   -0.3810 22.9 191 
 BAR2 SZ I        1959 36.88         8.0 0.28            170           22.9 191 
 BRR  HZ EP       1959 20.68                             153    0.3410 71.6 299 
 BRR  HN ES       1959 37.82                             153    0.5510 71.6 299 
 BRR  HZ I        1959 42.60        12.1 0.30            150           71.6 299 
 PAM  SN ES       1959 38.92                             152   -0.2210 77.6  39 
 PAM  SZ I        1959 40.98         5.8 0.44            156           77.6  39 
 RUS  HZ EP       1959 22.88                             145    0.0410  100 176 
 RUS  HN ES       1959 42.03                             145    0.3110  100 176 
 RUS  HZ I        1959 42.82         2.1 0.36            149            100 176 
 PTB  HZ EP       1959 25.50                             133   -0.51 9  148 259 
 PTB  HN ES       1959 46.79                             133   -0.59 9  148 259 
 PTB  HZ I        1959 52.76         6.5 0.38            133            148 259 
 ZAR  HN ES   2   1959 57.15                             123    0.12 4  204 292 
 ZAR  HZ I        20 0  3.30         6.0 0.48            124            204 292 
 NOR  HE ES   1   20 0  3.38                             120    0.65 6  235 235 
 NOR  HZ I        20 0  6.57         3.1 0.34            121            235 235 
 SML  HN ES   1   20 0  4.60                             118    0.19 6  244 335 
                                                                                
