 2015  129 1020 10.7 L   6.793 -73.146148.0  RSN 20 0.4 2.5LRSN                1
 GAP= 71        0.95       2.6     2.7  4.6 -0.5777E+00  0.3045E+01  0.1582E+01E
 Epicentro: LOS SANTOS - SANTANDER                                             3
 ACTION:UPD 15-03-02 15:43 OP:nd   STATUS:               ID:20150129102010 L   I
 OLDACT:UP  15-01-29 22:15 OP:spq  STATUS:               ID:20150129101746     3
 OLDACT:REG 15-01-29 20:39 OP:spq  STATUS:               ID:20150129101746     3
 2015-01-29-1017-46M.COL___271                                                 6
 STAT SP IPHASW D HRMM SECON CODA AMPLIT PERI AZIMU VELO AIN AR TRES W  DIS CAZ7
 BAR2 EZ IP     C 1020 30.39                             171   -0.2110 22.5 190 
 BAR2 EZ ES   1   1020 45.62                             171   -0.49 7 22.5 190 
 BAR2 EZ I        1020 46.59        57.6 0.20            170           22.5 190 
 BRR  HZ EP     C 1020 32.36                             153    0.2410 71.5 299 
 BRR  HN ES       1020 49.53                             153    0.7110 71.5 299 
 BRR  HZ I        1020 50.30        42.1 0.30            152           71.5 299 
 PAM  SZ EP       1020 33.19                             151   -0.0110 78.0  39 
 PAM  SN ES       1020 50.55                             151   -0.2010 78.0  39 
 PAM  SZ I        1020 52.95        31.9 0.58            155           78.0  39 
 RUS  HZ EP       1020 34.28                             144   -0.3510 99.8 176 
 RUS  HN ES   1   1020 53.28                             144   -0.00 7 99.8 176 
 RUS  HZ I        1020 54.19        22.6 0.17            146           99.8 176 
 PTB  HZ EP       1020 37.01                             133   -0.84 9  148 259 
 PTB  HN ES       1020 58.23                             133   -0.78 9  148 259 
 PTB  HZ I        1021  4.31        47.0 0.52            133            148 259 
 TAM  HZ EP     D 1020 38.65                             131    0.10 9  155 105 
 TAM  HE ES       1021  0.63                             131    0.36 9  155 105 
 TAM  HZ I        1021  1.56        11.8 0.64            135            155 105 
 OCA  HZ EP       1020 39.16                             130   -0.11 9  161 353 
 OCA  HE ES       1021  1.79                             130    0.24 9  161 353 
 OCA  HZ I        1021  5.66        33.5 0.22            132            161 353 
 SPBC HZ EP       1020 39.27                             130   -0.06 9  163 219 
 SPBC HN ES       1021  1.98                             130    0.34 9  163 219 
 SPBC HZ I        1021  6.88        56.9 0.12            130            163 219 
 ZAR  HZ EP       1020 43.11                             123   -0.22 9  204 292 
 ZAR  HE ES       1021  9.28                             123    0.50 9  204 292 
 ZAR  HZ I        1021 15.66        44.5 0.36            124            204 292 
 NOR  HZ EP       1020 46.36                             119   -0.16 8  234 235 
 NOR  HN ES       1021 14.25                             119   -0.20 8  234 235 
 NOR  HZ I        1021 19.72        26.1 0.48            120            234 235 
 SML  HZ EP       1020 46.95                             118   -0.59 8  244 335 
 SML  HE ES   1   1021 16.22                             118   -0.05 6  244 335 
 SML  HZ I        1021 19.57        26.0 0.10            119            244 335 
 CHI  HZ EP       1020 48.39                             118   -0.06 8  248 195 
 CHI  HE ES   1   1021 18.56                             118    0.67 6  248 195 
 CHI  HZ I        1021 24.61        18.2 0.46            119            248 195 
 ROSC BZ EP   4   1020 50.06                             117    1.18 0  252 211 
 HEL  HZ EP       1020 51.74                             115    0.72 8  272 256 
 HEL  HE ES   4   1021 24.58                             115    2.13 0  272 256 
 HEL  HZ I        1021 29.33        18.7 0.28            116            272 256 
 GUY2CHZ EP       1020 54.30                             113   -0.07 7  301 235 
 GUY2CHE ES   4   1021 29.21                             113    0.78 0  301 235 
 GUY2CHZ I        1021 36.89        23.4 0.62                           301 235 
 PTGC HZ EP   4   1020 53.29                             112   -1.30 0  308 159 
 PTGC HN ES   4   1021 26.59                             112   -2.22 0  308 159 
 PTGC HZ I        1021 28.83        20.8 0.48            114            308 159 
 CBOC HZ EP   1   1020 58.16                             110    0.47 5  333 252 
 CBOC HN ES   1   1021 34.32                             110   -0.01 5  333 252 
 CBOC HZ I        1021 38.49         8.1 0.24            111            333 252 
 DBB  SZ EP       1020 58.83                             110    0.55 7  340 274 
 DBB  SZ ES   4   1021 34.22                             110   -1.17 0  340 274 
 DBB  SZ I        1021 37.23        27.8 0.46            111            340 274 
 TOL  SZ EP       1020 59.70                             110    0.71 7  343 225 
 MON  HZ EP   4   1020 57.74                             109   -2.12 0  354 308 
 MON  HN ES   4   1021 36.17                             109   -2.02 0  354 308 
 MON  HZ I        1021 38.27         9.8 0.86            110            354 308 
 YOT  HZ EP   1   1021 13.57                             104   -0.19 4  471 229 
                                                                                
