 2013  729 1630 47.2 L   6.776 -73.169149.9  RSN  6 0.1 1.8LRSN                1
 GAP=135        0.35       1.7     2.4  3.4 -0.1470E+00  0.2776E+01 -0.2218E+01E
 Epicentro: LOS SANTOS - SANTANDER                                             3
 ACTION:UPD 13-08-12 10:40 OP:ep   STATUS:               ID:20130729163047 L   I
 OLDACT:UP  13-07-29 17:02 OP:cam  STATUS:               ID:20130729163050     3
 OLDACT:REG 13-07-29 15:40 OP:cam  STATUS:               ID:20130729163050     3
 2013-07-29-1630-50M.COL___231                                                 6
 STAT SP IPHASW D HRMM SECON CODA AMPLIT PERI AZIMU VELO AIN AR TRES W  DIS CAZ7
 BAR2 SZ EP       1631  7.17                             172   -0.0910 20.4 184 
 BAR2 SZ ES   1   1631 22.81                             172   -0.11 7 20.4 184 
 BAR2 SZ I        1631 24.83        14.1 0.31            170           20.4 184 
 BRR  HZ EP       1631  9.00                             153    0.2710 70.3 301 
 PAM  SZ EP       1631 10.05                             150   -0.0110 81.0  40 
 PAM  SN ES   1   1631 28.01                             150    0.11 7 81.0  40 
 RUS  HZ EP   1   1631 11.09                             145   -0.09 7 98.2 174 
 RUS  HN ES       1631 29.87                             145   -0.0210 98.2 174 
 RUS  HZ I        1631 30.93         5.1 0.22            147           98.2 174 
 PTB  HZ EP       1631 14.22                             133   -0.00 9  145 260 
 PTB  HN ES   1   1631 35.34                             133    0.02 7  145 260 
 PTB  HZ I        1631 40.70        12.8 0.36            133            145 260 
 SML  HZ EP   1   1631 24.16                             118   -0.03 6  245 336 
 SML  HN ES       1631 52.88                             118   -0.17 8  245 336 
                                                                                
