 2010  529 1108  6.6 L   6.815 -73.086138.7  RSN  8 0.4 2.2LRSN                1
 GAP=182        0.67       4.6     7.7  8.4 -0.2414E+02  0.2145E+02 -0.3301E+01E
 Epicentro: LOS SANTOS - SANTANDER                                             3
 ACTION:UP  10-08-24 10:07 OP:vdl  STATUS:               ID:20100529110806 L   I
 2010-05-29-1104-12S.COL___109                                                 6
 STAT SP IPHASW D HRMM SECON CODA AMPLIT PERI AZIMU VELO SNR AR TRES W  DIS CAZ7
 BAR2 SZ EP       11 8 25.17                             168    -0.310   27 204 
 BAR2 SZ ES   2   11 8 40.52                             168     0.3 5   27 204 
 GUE  SZ EP       11 8 30.45                             138     0.010  114   9 
 GRA  SZ EP       11 8 31.01                             136     0.110  122  15 
 GRA  SZ ES   2   11 8 50.44                             136     0.5 5  122  15 
 OCA  SZ EP   1   11 8 34.02                             128    -0.3 7  160 351 
 OCA  SZ ES   2   11 8 55.87                             128     0.0 5  160 351 
 OCA  SZ I        11 9  1.33        18.3 0.34                           160 351 
 CHI  HZ EP   2   11 8 44.38                             115     0.1 4  252 197 
 CHI  HE ES   2   11 9 12.90                             115    -0.8 4  252 197 
 CHI  HZ I        11 9 22.16         9.7 0.38                           252 197 
 HEL  HZ EP   2   11 8 47.20                             112     0.0 4  279 256 
 HEL  HN ES   2   11 9 17.96                             112    -0.9 4  279 256 
 HEL  HZ I        11 9 23.49         5.9 0.25                           279 256 
 RREF BZ EP   1   11 8 53.16                             109     0.0 5  328 230 
 RREF BN ES   1   11 9 30.03                             109     0.6 5  328 230 
 RREF BZ I        11 9 37.79        10.3 0.42                           328 230 
 TOL  SZ EP   2   11 8 56.17                             107     0.9 3  349 225 
 TOL  SZ ES   2   11 9 34.02                             107     0.8 3  349 225 
                                                                                
