 2014  929 1141 23.5 L   6.721 -73.422131.6  RSN  4 0.2 1.7LRSN                1
 GAP=142        0.47       2.9     3.1  3.7 -0.1151E+00  0.2150E+01 -0.3812E+01E
 Epicentro: EL CARMEN - SANTANDER                                              3
 ACTION:UPD 14-10-03 23:09 OP:nd   STATUS:               ID:20140929114123 L   I
 OLDACT:UP  14-09-29 21:23 OP:cam  STATUS:               ID:20140929114000     3
 OLDACT:REG 14-09-29 20:23 OP:cam  STATUS:               ID:20140929114000     3
 2014-09-29-1140-00M.COL___252                                                 6
 STAT SP IPHASW D HRMM SECON CODA AMPLIT PERI AZIMU VELO AIN AR TRES W  DIS CAZ7
 BAR2 SZ EP       1141 41.33                             166   -0.2310 30.1 118 
 BAR2 SZ ES       1141 55.71                             166    0.0310 30.1 118 
 BAR2 SZ I        1141 56.60         7.9 0.18            169           30.1 118 
 BRR  HZ EP       1141 42.41                             157    0.3010 53.4 323 
 BRR  HE ES       1141 56.68                             157    0.0210 53.4 323 
 BRR  HE I        1141 58.18        24.3 0.22            155           53.4 323 
 PTB  HZ EP       1141 46.43                             136   -0.0210  116 260 
 PTB  HN ES       1142  4.33                             136   -0.0510  116 260 
 PTB  HZ I        1142  5.33         4.7 0.28            137            116 260 
 SML  HZ EP       1141 59.17                             115    0.15 8  241 343 
 SML  HE ES       1142 26.55                             115   -0.21 8  241 343 
 SML  HZ I        1142 30.18         3.6 0.10            115            241 343 
                                                                                
