 2013  329 1712 38.2 L   6.387 -73.692  9.5  RSN 10 0.3 3.1LRSN 3.5WRSN        1
 SPEC AVERAGE  MO 14.4 ST 49.7 OM  3.4 f0 5.98 R0.3485 AL 3.39 WI 62.8 MW  3.5 3
 SPEC SD       MO  0.1 ST 35.6 OM  0.8 f0 2.04 R0.1352 AL      WI      MW  0.1 3
 GAP=185        0.68       2.0     3.3  7.3  0.3226E+01  0.1929E+02  0.5050E+01E
 Epicentro: SANTA HELENA DEL OPON - SANTANDER                                  3
 SPEC ZAR HH N MO 14.3 ST100.9 OM  2.5 f0 8.86 R0.2054 AL 5.65 WI 48.4 MW  3.5 3
 SPEC ZAR HH N T171323 K 0.050 GD  133 VS 5.20 DE 3.20 Q0750.0 QA 1.50 VS 5.20 3
 SPEC PAM SH E MO 14.5 ST 31.8 OM  2.7 f0 5.31 R0.3427 AL 2.06 WI 91.7 MW  3.6 3
 SPEC PAM SH E T171318 K 0.050 GD  123 VS 5.20 DE 3.20 Q0750.0 QA 1.50 VS 5.20 3
 SPEC HEL HH N MO 14.3 ST  5.1 OM  2.5 f0 3.21 R0.5670 AL 2.34 WI 25.2 MW  3.5 3
 SPEC HEL HH N T171332 K 0.050 GD  142 VS 5.20 DE 3.20 Q0750.0 QA 1.50 VS 5.20 3
 SPEC BRR HH E MO 14.5 ST 61.1 OM  2.9 f0 6.53 R0.2787 AL 3.50 WI 85.7 MW  3.6 3
 SPEC BRR HH E T171259 K 0.050 GD 80.3 VS 5.20 DE 3.20 Q0750.0 QA 1.50 VS 5.20 3
 ACTION:UPD 13-04-09 14:05 OP:ep   STATUS:               ID:20130329171238 L   I
 2013-03-29-1710-00M.COL___245                                                 6
 STAT SP IPHASW D HRMM SECON CODA AMPLIT PERI AZIMU VELO AIN AR TRES W  DIS CAZ7
 BAR2 SZ IP       1712 48.38                              95    0.0710 60.8  68 
 BAR2 SZ ES       1712 55.97                              95   -0.2110 60.8  68 
 BAR2 SZ I        1712 58.36       649.7 0.52             47           60.8  68 
 BRR  HZ EP       1712 50.72                              94   -0.2010 79.7 358 
 BRR  HE ES       1713  0.74                              94   -0.0910 79.7 358 
 BRR  HE I        1713  3.69       458.1 0.20             47           79.7 358 
 PTB  HZ EP   4   1712 51.23                              93   -0.70 0 86.2 281 
 PTB  HN ES   4   1713  5.07                              93    2.45 0 86.2 281 
 PTB  HN I        1713  5.20       417.6 0.30             47           86.2 281 
 RUS  HZ EP   1   1712 52.75                              94    0.25 7 86.7 129 
 RUS  HN ES       1713  3.55                              94   -0.0810 86.7 129 
 RUS  HN I        1713  4.39      1174.1 0.36             47           86.7 129 
 GIR2 SZ IP     D 1712 53.54                              93    0.2610 94.3  36 
 GIR2 SZ ES       1713  5.26                              93    0.2410 94.3  36 
 GIR2 SZ I        1713  7.32       275.4 0.32             47           94.3  36 
 PAM  SZ EP       1713  2.70                              92    0.32 9  152  46 
 PAM  SE ES   1   1713 20.79                              92   -0.44 7  152  46 
 PAM  SE I        1713 27.04       529.7 0.26             47            152  46 
 ZAR  HZ EP       1713  4.71                              56   -0.52 9  178 314 
 ZAR  HN ES       1713 26.58                              56    0.29 9  178 314 
 ZAR  HN I        1713 29.77       209.1 0.42             47            178 314 
 HEL  HZ EP   4   1713  8.81                              56   -0.20 0  204 264 
 HEL  HE ES   4   1713 32.39                              56   -0.63 0  204 264 
 HEL  HE I        1713 33.35       166.0 0.20             37            204 264 
 OCA  HZ EP   4   1713 10.52                              56    1.21 0  209  11 
 OCA  HN ES   4   1713 35.74                              56    2.18 0  209  11 
 TAM  HZ EP   4   1713 12.52                              56    3.17 0  210  88 
 VIL  SZ EP   4   1713 19.30                              56    4.69 0  252 180 
 VIL  SN ES   4   1713 52.01                              56    9.01 0  252 180 
 VIL  SN I        1714  4.20       214.0 0.52             37            252 180 
 URE  HZ EP   4   1713 15.83                              56    1.14 0  253 307 
 SJC  HZ EP   4   1713 37.33                              55    1.78 0  421 337 
 SJC  HN ES   4   1714 22.81                              55    2.55 0  421 337 
 SJC  HN I        1714 38.31        28.6 0.48             36            421 337 
                                                                                
