 2016  329 1056  8.1 L   6.918 -73.227126.6  RSN  4 0.4 1.1LRSN                1
 GAP=242        0.81       8.3     5.8  8.7  0.2936E+02  0.4204E+01 -0.1110E+02E
 Epicentro: BETULIA - SANTANDER                                                3
 ACTION:UPD 16-05-13 21:28 OP:cam  STATUS:               ID:20160329105608 L   I
 OLDACT:UP  16-03-29 21:55 OP:ak   STATUS:               ID:20160329104751d    3
 OLDACT:DUP 16-03-29 21:52 OP:ak   STATUS:               ID:20160329104751d    3
 OLDACT:REG 16-03-29 20:07 OP:ak   STATUS:               ID:20160329104749     3
 2016-03-29-1047-49M.COL___306                                                 6
 STAT SP IPHASW D HRMM SECON CODA AMPLIT PERI AZIMU VELO AIN AR TRES W  DIS CAZ7
 BAR2 EZ EP       1056 26.24                             163    0.4510 36.4 172 
 BAR2 EZ ES       1056 39.44                             163   -0.1710 36.4 172 
 BAR2 EZ I        1056 40.64         4.5 0.25            162           36.4 172 
 RUS  HZ EP       1056 31.09                             135   -0.0610  115 172 
 RUS  HN ES       1056 48.89                             135   -0.2510  115 172 
 RUS  HZ I        1056 50.24         1.3 0.20            135            115 172 
 PTB  HZ EP   2   1056 32.63                             128   -0.39 5  142 253 
 PTB  HE ES       1056 52.89                             128    0.42 9  142 253 
 PTB  HZ I        1056 53.85         1.9 0.07            128            142 253 
 ZAR  HN ES   1   1057  0.66                             119   -0.60 7  191 290 
                                                                                
