 2017  829 1142 20.3 L   6.806 -73.124148.4  RSN 18 0.7 2.1LRSN                1
 GAP=114        1.32       3.4     4.3  6.5  0.8128E+00  0.1024E+02  0.2338E+01E
 Epicentro: LOS SANTOS - SANTANDER                                             3
 ACTION:UPD 17-09-04 20:26 OP:rebc STATUS:               ID:20170829114220 L   I
 OLDACT:UP  17-08-29 22:28 OP:dhb  STATUS:               ID:20170829113738     3
 OLDACT:REG 17-08-29 20:29 OP:dhb  STATUS:               ID:20170829113738     3
 2017-08-29-1138-00M.COL___414                                                 6
 STAT SP IPHASW D HRMM SECON CODA AMPLIT PERI AZIMU VELO AIN AR TRES W  DIS CAZ7
 BAR2 EZ IP     C 1142 40.12                             170   -0.2010 24.5 195 
 BAR2 EZ ES       1142 55.72                             170   -0.1810 24.5 195 
 BAR2 EZ I        1142 56.88        35.1 0.35            170           24.5 195 
 BRR  HZ IP     C 1142 42.04                             152    0.1610 73.0 297 
 BRR  HN ES       1142 59.45                             152    0.7610 73.0 297 
 BRR  HZ I        1143  3.51        16.7 0.08            146           73.0 297 
 PAM  EZ IP     D 1142 43.04                             152    0.3110 75.3  38 
 PAM  EN ES       1143  0.36                             152    0.1810 75.3  38 
 PAM  EZ I        1143  2.37        11.2 0.18            149           75.3  38 
 RUS  HZ IP     D 1142 44.51                             144    0.1210  101 177 
 RUS  HN ES       1143  2.76                             144   -0.3910  101 177 
 RUS  HZ I        1143  4.15        21.3 0.26            143            101 177 
 SPBC HZ IP     D 1142 49.17                             129   -0.07 9  165 220 
 SPBC HN ES       1143 11.45                             129   -0.33 9  165 220 
 SPBC HZ I        1143 14.23        24.2 0.22            126            165 220 
 YPLC HZ IP     D 1142 50.26                             127   -0.02 9  176 152 
 YPLC HE ES       1143 13.52                             127   -0.10 9  176 152 
 YPLC HZ I        1143 16.47        11.4 0.19            126            176 152 
 ZAR  HZ EP       1142 54.10                             123    0.93 8  206 292 
 ZAR  HE ES       1143 17.96                             123   -0.81 8  206 292 
 ZAR  HZ I        1143 25.38        26.8 0.28            118            206 292 
 TABC EZ ES       1143 24.16                             120   -0.44 8  232 211 
 TABC EZ I        1143 30.75        11.8 0.41            117            232 211 
 NOR  HZ EP       1142 56.12                             119   -0.36 8  237 235 
 NOR  HN ES       1143 24.37                             119   -0.30 8  237 235 
 NOR  HZ I        1143 32.18        10.0 0.66            115            237 235 
 CHI  HZ EP       1142 59.02                             118    0.69 8  250 196 
 CHI  HN ES       1143 27.48                             118   -0.48 8  250 196 
 CHI  HZ I        1143 33.49         4.9 0.07            115            250 196 
 ROSC BE ES       1143 29.09                             117    0.28 8  255 211 
 HEL  HZ EP       1143  2.18                             115    1.21 8  275 256 
 HEL  HN ES       1143 33.64                             115    0.98 8  275 256 
 HEL  HZ I        1143 39.50         5.9 0.19            111            275 256 
 URE  HZ EP       1143  1.95                             114    0.18 7  286 292 
 URE  HZ I        1143 44.50        10.8 0.53            110            286 292 
 GUY2CHZ EP   2   1143  6.08                             113    1.74 4  304 235 
 GUY2CHN ES   4   1143 41.65                             113    2.99 0  304 235 
 GUY2CHZ I        1143 48.35         5.9 0.44                           304 235 
 ELA  HN ES       1143 44.35                             111   -0.05 7  331 230 
 ELA  HZ I        1143 52.40         6.3 0.50            108            331 230 
 DBB  EZ EP   2   1143  7.68                             110   -0.52 3  342 274 
 DBB  HN ES       1143 44.65                             110   -0.88 7  342 274 
 DBB  EZ I        1143 47.07         2.6 0.24            107            342 274 
 PRA  HZ EP       1143 12.60                             107   -1.56 6  394 210 
 PRA  HE ES       1143 56.71                             107    0.57 6  394 210 
 PRA  HZ I        1143 59.53         4.4 0.54            104            394 210 
 SJC  HZ IP     C 1143 14.29                             106   -1.80 6  410 327 
 SJC  HN ES       1143 58.87                             106   -0.69 6  410 327 
 SJC  HZ I        1144  8.13         2.2 0.15            103            410 327 
                                                                                
