 2017  329 1557 39.4 L   6.785 -73.119143.9  RSN 12 0.5 2.0LRSN                1
 GAP=122        0.83       3.3     3.0  4.7 -0.5291E+00  0.2469E+01  0.4486E+01E
 Epicentro: LOS SANTOS - SANTANDER                                             3
 ACTION:UPD 17-05-25 18:47 OP:jn   STATUS:               ID:20170329155739 L   I
 OLDACT:UP  17-03-29 23:11 OP:ansd STATUS:               ID:20170329154716d    3
 OLDACT:UP  17-03-29 23:10 OP:ansd STATUS:               ID:20170329154716d    3
 OLDACT:UP  17-03-29 23:09 OP:ansd STATUS:               ID:20170329154716d    3
 OLDACT:UP  17-03-29 23:08 OP:ansd STATUS:               ID:20170329154716d    3
 OLDACT:UP  17-03-29 23:07 OP:ansd STATUS:               ID:20170329154716d    3
 OLDACT:UP  17-03-29 23:05 OP:ansd STATUS:               ID:20170329154716d    3
 OLDACT:DUP 17-03-29 23:03 OP:ansd STATUS:               ID:20170329154716d    3
 OLDACT:UP  17-03-29 23:03 OP:ansd STATUS:               ID:20170329154715     3
 OLDACT:UP  17-03-29 23:02 OP:ansd STATUS:               ID:20170329154715     3
 OLDACT:UP  17-03-29 23:02 OP:ansd STATUS:               ID:20170329154715     3
 OLDACT:UP  17-03-29 23:01 OP:ansd STATUS:               ID:20170329154715     3
 OLDACT:UP  17-03-29 23:01 OP:ansd STATUS:               ID:20170329154715     3
 OLDACT:REG 17-03-29 20:11 OP:and  STATUS:               ID:20170329154715     3
 2017-03-29-1548-00M.COL___368                                                 6
 STAT SP IPHASW D HRMM SECON CODA AMPLIT PERI AZIMU VELO AIN AR TRES W  DIS CAZ7
 BAR2 EZ IP     C 1557 58.89                             171    0.1210 22.5 198 
 BAR2 EZ ES       1558 13.55                             171   -0.3510 22.5 198 
 BAR2 EZ I        1558 15.12        24.2 0.15            168           22.5 198 
 BRR  HZ EP       1558  0.82                             151    0.2910 74.5 299 
 BRR  HN ES       1558 17.38                             151    0.3610 74.5 299 
 BRR  HZ I        1558 21.76        19.0 0.16            152           74.5 299 
 PAM  EZ EP     D 1558  1.42                             151    0.0510 76.9  37 
 PAM  EN ES       1558 18.28                             151   -0.2410 76.9  37 
 PAM  EZ I        1558 20.96        17.2 0.42            155           76.9  37 
 RUS  HZ EP       1558  2.99                             144    0.1710 98.8 178 
 RUS  HN ES       1558 21.52                             144    0.4110 98.8 178 
 RUS  HZ I        1558 23.45         7.7 0.26            144           98.8 178 
 PTB  HZ EP       1558  5.94                             131   -0.49 9  150 260 
 PTB  HN ES       1558 27.17                             131   -0.36 9  150 260 
 PTB  HZ I        1558 29.52        11.5 0.22            132            150 260 
 SPBC HZ EP       1558  8.04                             128    0.24 9  164 220 
 SPBC HN ES       1558 29.87                             128   -0.09 9  164 220 
 SPBC HZ I        1558 34.57        16.9 0.14            129            164 220 
 ZAR  HZ EP   3   1558 13.50                             122    1.45 2  207 292 
 ZAR  HN ES       1558 37.44                             122   -0.09 8  207 292 
 ZAR  HZ I        1558 42.65        10.7 0.32            123            207 292 
 NOR  HZ EP       1558 15.67                             118    0.51 8  236 235 
 NOR  HN ES       1558 43.16                             118    0.09 8  236 235 
 NOR  HZ I        1558 44.24         7.1 0.12            119            236 235 
 CHI  HZ EP       1558 16.22                             117   -0.67 8  248 196 
 CHI  HN ES   3   1558 48.45                             117    2.30 2  248 196 
 CHI  HZ I        1558 54.42         3.4 0.34            118            248 196 
 PTGC HZ EP       1558 22.60                             111   -0.27 7  306 159 
 PTGC HN ES   3   1558 55.35                             111   -1.43 2  306 159 
 CBOC HN ES       1559  2.88                             109   -0.34 7  336 253 
 ORTC HZ EP   2   1558 34.19                             106    0.90 3  396 217 
 ORTC HN ES   4   1559 18.79                             106    3.46 0  396 217 
 ORTC HZ I        1559 22.05         2.7 0.37            107            396 217 
                                                                                
