 2010 1129 1102 54.3 L   6.783 -73.101142.2  RSN 16 0.3 2.6LRSN                1
 GAP=164        0.71       2.9     5.0  4.4 -0.5575E+01  0.3947E+01  0.3374E+00E
 Epicentro: LOS SANTOS - SANTANDER                                             3
 ACTION:UP  10-12-17 16:55 OP:REBC STATUS:               ID:20101129110254 L   I
 2010-11-29-1100-52S.COL___131                                                 6
 STAT SP IPHASW D HRMM SECON CODA AMPLIT PERI AZIMU VELO SNR AR TRES W  DIS CAZ7
 BAR2 SZ EP       11 3 13.67                             170     0.110   23 203 
 BAR2 SZ ES       11 3 28.29                             170    -0.210   23 203 
 BAR2 SZ I        11 3 30.01       113.3 0.28                            23 203 
 BTL  SZ EP       11 3 13.81                             170     0.310   24 309 
 GIR2 SZ EP   2   11 3 13.85                             166     0.2 5   34 343 
 BRR  HZ EP       11 3 15.66                             150     0.310   76 298 
 BRR  HN ES   1   11 3 32.40                             150     0.6 7   76 298 
 BRR  HZ I        11 3 36.65       107.5 0.18                            76 298 
 RUS  HZ EP       11 3 17.70                             144     0.110   98 179 
 RUS  HZ I        11 3 18.63        31.5 0.16                            98 179 
 RUS  HE ES   1   11 3 35.50                             144    -0.2 7   98 179 
 GUE  SZ EP       11 3 18.70                             138    -0.110  117  10 
 GRA  SZ EP       11 3 19.49                             136     0.210  126  15 
 GRA  SZ ES   2   11 3 38.15                             136    -0.6 5  126  15 
 GRA  SZ I        11 3 44.72        39.7 0.17                           126  15 
 OCA  SZ EP   1   11 3 21.88                             128    -0.7 7  163 352 
 OCA  SZ ES   2   11 3 43.93                             128    -0.7 5  163 352 
 OCA  SZ I        11 3 47.19        76.5 0.13                           163 352 
 NOR  SZ EP       11 3 29.92                             117    -0.3 8  238 236 
 NOR  SE ES   1   11 3 57.64                             117    -0.5 6  238 236 
 CHI  HZ EP       11 3 31.95                             116     0.2 8  248 196 
 CHI  HE ES   2   11 4  0.59                             116    -0.4 4  248 196 
 CHI  HZ I        11 4  8.51        21.9 0.57                           248 196 
 ROSC BZ EP   2   11 3 32.35                             116     0.0 4  254 212 
 ROSC BZ I        11 4  7.63        28.4 0.44                           254 212 
 HEL  HZ EP   2   11 3 34.94                             114     0.1 4  276 256 
 HEL  HZ I        11 4 12.80        25.0 0.52                           276 256 
 GUY  SZ EP   2   11 3 38.65                             111     0.5 4  304 236 
 RREF HZ EP   1   11 3 40.65                             110     0.0 5  324 230 
 RREF HN ES   2   11 4 16.49                             110    -0.2 3  324 230 
 RREF HZ I        11 4 25.75        19.2 0.45                           324 230 
 TOL  SZ EP   2   11 3 43.17                             108     0.5 3  346 225 
 PRA  HZ EP   2   11 3 47.35                             106    -0.5 3  393 210 
 PRA  HN ES   2   11 4 29.36                             106    -0.2 3  393 210 
                                                                                
