 2011  429 1826 54.2 L   6.156 -74.014 18.0  RSN  4 0.3 1.7LRSN                1
 GAP=315        0.67       6.8     6.2  6.7  0.1220E+02  0.1312E+02  0.1858E+02E
 Epicentro: CIMITARRA - SANTANDER                                              3
 ACTION:UP  11-06-22 15:33 OP:REBC STATUS:               ID:20110429182654 L   I
 2011-04-29-1823-58S.COL___138                                                 6
 STAT SP IPHASW D HRMM SECON CODA AMPLIT PERI AZIMU VELO SNR AR TRES W  DIS CAZ7
 BAR2 SZ EP   1   1827 10.89                              98    -0.1 9  104  62 
 BAR2 SZ ES   1   1827 24.07                              98     0.1 9  104  62 
 BAR2 SZ I        1827 25.16        11.5 0.18                           104  62 
 BRR  HZ EP   1   1827 11.29                              97    -0.4 9  110  18 
 BRR  HN ES   1   1827 25.41                              97     0.1 9  110  18 
 BRR  HZ I        1827 26.16         8.7 0.14                           110  18 
 PAM  SZ EP   1   1827 23.16                              56    -0.2 8  196  48 
 PAM  SE ES   2   1827 45.56                              56    -0.5 5  196  48 
 GRA  SZ EP       1827 28.10                              56     0.510  233  35 
 GRA  SZ I        1827 44.16        13.4 0.33                           233  35 
                                                                                
