 2017 1029 1421 54.7 L   6.834 -73.141145.4  RSN 24 0.9 2.6LRSN                1
 GAP= 65        1.95       5.0     5.4  8.1  0.1702E+01  0.9768E+01  0.9814E+01E
 Epicentro: LOS SANTOS - SANTANDER                                             3
 ACTION:UPD 17-11-07 19:38 OP:rebc STATUS:               ID:20171029142154 L   I
 OLDACT:UP  17-10-31 15:03 OP:nlst STATUS:               ID:20171029142154 L   3
 OLDACT:UP  17-10-29 23:10 OP:dani STATUS:               ID:20171029141743     3
 OLDACT:UP  17-10-29 23:07 OP:dani STATUS:               ID:20171029141743     3
 OLDACT:UP  17-10-29 23:06 OP:dani STATUS:               ID:20171029141743     3
 OLDACT:REG 17-10-29 20:12 OP:dani STATUS:               ID:20171029141743     3
 2017-10-29-1418-00M.COL___438                                                 6
 STAT SP IPHASW D HRMM SECON CODA AMPLIT PERI AZIMU VELO AIN AR TRES W  DIS CAZ7
 BAR2 EZ IP     C 1422 14.38                             169    0.0410 27.1 190 
 BAR2 EZ ES       1422 29.48                             169   -0.2010 27.1 190 
 BAR2 EZ I        1422 32.09       108.2 0.36            166           27.1 190 
 BRR  HZ EP     C 1422 16.28                             153    0.5710 69.9 296 
 BRR  HN ES       1422 33.26                             153    1.1410 69.9 296 
 BRR  HZ I        1422 36.57        61.4 0.32            148           69.9 296 
 PAM  EZ IP     C 1422 17.20                             151    0.5410 74.2  41 
 PAM  EE ES       1422 34.38                             151    0.5710 74.2  41 
 PAM  EZ I        1422 36.42        66.6 0.50            152           74.2  41 
 RUS  HZ EP       1422 18.33                             143   -0.3310  104 176 
 RUS  HN ES       1422 36.87                             143   -0.4910  104 176 
 RUS  HZ I        1422 38.10        43.8 0.32            139            104 176 
 PTB  HZ EP       1422 20.98                             132   -0.74 9  149 257 
 PTB  HN ES       1422 41.66                             132   -1.16 9  149 257 
 PTB  HZ I        1422 44.63        36.3 0.30            127            149 257 
 TAM  HZ IP     C 1422 22.63                             130    0.26 9  156 106 
 SPBC HZ EP       1422 23.34                             129   -0.11 9  166 218 
 SPBC HN ES       1422 44.82                             129   -1.08 9  166 218 
 SPBC HZ I        1422 47.95        99.7 0.34            124            166 218 
 YPLC HZ EP     C 1422 24.70                             126   -0.04 9  180 152 
 YPLC HN ES       1422 48.34                             126    0.15 9  180 152 
 YPLC HZ I        1422 49.44        35.0 0.28            123            180 152 
 ZAR  HZ EP       1422 27.55                             122    0.55 9  203 291 
 ZAR  HE ES       1422 52.85                             122    0.64 9  203 291 
 ZAR  HZ I        1422 58.52        46.6 0.28            118            203 291 
 TABC EZ EP       1422 31.84                             119    1.07 8  233 210 
 TABC EZ I        1423  6.26        30.5 0.68            115            233 210 
 NOR  HZ EP       1422 30.38                             118   -0.28 8  237 234 
 NOR  HZ I        1423  4.76        22.1 0.14            114            237 234 
 CHI  HZ EP       1422 33.09                             117    0.33 8  252 195 
 CHI  HN ES       1423  2.21                             117   -0.25 8  252 195 
 CHI  HZ I        1423 10.04        13.7 0.42            113            252 195 
 ROSC BZ EP       1422 34.40                             116    1.25 8  256 211 
 ROSC BN ES       1423  2.47                             116   -0.69 8  256 211 
 ROSC BZ I        1423 12.25        36.6 0.35            113            256 211 
 URE  HZ EP       1422 34.95                             114   -0.67 7  283 291 
 URE  HN ES       1423  5.51                             114   -2.05 7  283 291 
 URE  HZ I        1423 14.96        19.1 0.20            110            283 291 
 GUY2CHZ EP       1422 38.84                             112    0.28 7  304 234 
 GUY2CHN ES       1423 12.06                             112   -0.72 7  304 234 
 GUY2CHZ I        1423 22.26        15.4 0.34                           304 234 
 VIL  EZ EP       1422 38.59                             112    0.09 7  307 192 
 VIL  EN ES       1423 11.69                             112   -0.99 7  307 192 
 VIL  EZ I        1423 14.69        19.7 0.45            109            307 192 
 PTGC HZ EP       1422 37.36                             111   -1.53 7  312 159 
 PTGC HN ES   4   1423 10.65                             111   -2.73 0  312 159 
 PTGC HZ I        1423 15.59        16.8 0.23            109            312 159 
 ELA  HZ EP       1422 43.40                             110    1.57 7  332 229 
 ELA  HE ES       1423 22.04                             110    3.43 7  332 229 
 ELA  HZ I        1423 26.33        12.0 0.37            107            332 229 
 PRA  HZ EP       1422 48.10                             106   -0.49 6  396 209 
 PRA  HN ES       1423 30.22                             106   -0.43 6  396 209 
 PRA  HZ I        1423 38.32        13.3 0.40            104            396 209 
 ORTC HZ EP       1422 48.68                             106   -0.29 6  399 216 
 ORTC HN ES       1423 32.09                             106    0.77 6  399 216 
 ORTC HZ I        1423 38.60        10.7 0.64            104            399 216 
 SJC  HZ EP     D 1422 48.66                             106   -1.23 6  406 327 
 SJC  HN ES   4   1423 29.99                             106   -2.96 0  406 327 
 SJC  HZ I        1423 35.49         3.9 0.36            103            406 327 
 PAL  HZ EP       1422 50.31                             106    0.21 6  408 239 
 PAL  HE ES       1423 33.08                             106   -0.25 6  408 239 
 PAL  HZ I        1423 37.45         7.5 0.28            103            408 239 
 YOT  HZ EP       1422 58.86                             103    0.81 5  475 229 
 URI  HZ EP       1423  4.98                             101   -2.24 4  553  13 
                                                                                
