 2012 1029 1515  4.9 L   6.802 -73.123146.0  RSN 13 0.4 3.1LRSN 3.4WRSN        1
 SPEC AVERAGE  MO 14.2 ST 25.4 OM  3.1 f0 4.64 R0.3295 AL 3.42 WI 18.8 MW  3.4 3
 SPEC SD       MO  0.1 ST 15.3 OM  0.7 f00.894 R0.0668 AL      WI      MW  0.1 3
 GAP=139        0.75       2.8     3.6  5.6 -0.8687E+00  0.6965E+01  0.2977E+01E
 Epicentro: LOS SANTOS - SANTANDER                                             3
 SPEC ZAR HH N MO 14.3 ST 44.4 OM  2.5 f0 5.45 R0.2697 AL 2.71 WI 22.7 MW  3.5 3
 SPEC ZAR HH N T151559 K 0.000 GD  252 VS 4.20 DE 3.20 Q0230.0 QA 0.60 VS 4.20 3
 SPEC OCA HH N MO 14.4 ST 26.1 OM  2.7 f0 4.12 R0.3568 AL 3.10 WI 17.7 MW  3.6 3
 SPEC OCA HH N T151552 K 0.000 GD  216 VS 4.20 DE 3.20 Q0230.0 QA 0.60 VS 4.20 3
 SPEC RUS HH N MO 14.0 ST  5.5 OM  2.4 f0 3.29 R0.4468 AL 3.25 WI  7.4 MW  3.3 3
 SPEC RUS HH N T151546 K 0.000 GD  177 VS 4.20 DE 3.20 Q0230.0 QA 0.60 VS 4.20 3
 SPEC HEL HH N MO 14.0 ST 16.7 OM  2.1 f0 4.99 R0.2946 AL 3.80 WI 19.4 MW  3.3 3
 SPEC HEL HH N T151615 K 0.000 GD  311 VS 4.20 DE 3.20 Q0230.0 QA 0.60 VS 4.20 3
 SPEC CHI HH N MO 14.2 ST 13.5 OM  2.3 f0 4.08 R0.3603 AL 3.63 WI 26.5 MW  3.4 3
 SPEC CHI HH N T1516 9 K 0.000 GD  289 VS 4.20 DE 3.20 Q0230.0 QA 0.60 VS 4.20 3
 SPEC BRR HH N MO 14.2 ST 46.2 OM  2.6 f0 5.91 R0.2487 AL 4.03 WI 19.0 MW  3.4 3
 SPEC BRR HH N T151541 K 0.000 GD  163 VS 4.20 DE 3.20 Q0230.0 QA 0.60 VS 4.20 3
 ACTION:UPD 12-11-22 17:06 OP:ep   STATUS:               ID:20121029151504 L   I
 2012-10-29-1510-00M.COL___231                                                 6
 STAT SP IPHASW D HRMM SECON CODA AMPLIT PERI AZIMU VELO AIN AR TRES W  DIS CAZ7
 BAR2 SZ EP       1515 24.49                             170   -0.1410 24.1 196 
 BAR2 SZ ES   1   1515 40.01                             170    0.03 7 24.1 196 
 BAR2 SZ I        1515 41.62       216.6 0.44                          24.1 196 
 GIR2 SZ EP   1   1515 24.60                             167   -0.06 7 31.6 346 
 BRR  HZ IP     C 1515 26.41                             152    0.1610 73.3 297 
 BRR  HN ES   2   1515 43.72                             152    0.86 5 73.3 297 
 BRR  HN I        1515 44.46       538.6 0.22                          73.3 297 
 PAM  SZ EP       1515 27.28                             151    0.1910 75.6  38 
 PAM  SN ES   2   1515 44.52                             151    0.17 5 75.6  38 
 PAM  SN I        1515 47.26        63.5 0.56                          75.6  38 
 RUS  HZ EP   1   1515 28.31                             144   -0.42 7  101 178 
 RUS  HN ES   1   1515 47.02                             144   -0.26 7  101 178 
 RUS  HN I        1515 47.64       142.2 0.32                           101 178 
 OCA  HZ EP   1   1515 33.55                             130    0.26 7  160 352 
 OCA  HN ES       1515 55.44                             130    0.05 9  160 352 
 OCA  HN I        1515 58.52       617.9 0.28                           160 352 
 ZAR  HZ EP   1   1515 37.04                             122   -0.60 6  206 292 
 ZAR  HN ES       1516  2.40                             122   -0.75 8  206 292 
 ZAR  HN I        1516  8.10       208.5 0.30                           206 292 
 CHI  HZ EP   1   1515 42.54                             117   -0.22 6  250 196 
 CHI  HN ES   2   1516 12.03                             117   -0.22 4  250 196 
 CHI  HN I        1516 15.91       102.0 0.36                           250 196 
 ROSC BZ EP   1   1515 44.03                             117    0.78 6  254 211 
 ROSC BZ I        1516 17.94        97.6 0.40                           254 211 
 HEL  HZ EP   1   1515 45.79                             115    0.34 6  275 256 
 HEL  HN ES       1516 17.06                             115    0.01 8  275 256 
 HEL  HN I        1516 26.98        42.5 0.70                           275 256 
 GUY  SZ EP   1   1515 49.08                             112    0.00 5  306 235 
 GUY  SN ES       1516 24.26                             112    0.75 7  306 235 
 RREF HZ EP   1   1515 51.53                             111    0.19 5  324 230 
 RREF HZ I        1516 32.97        49.1 0.30                           324 230 
 PRA  HZ EP   1   1515 57.88                             106   -0.77 4  393 210 
 PRA  HN ES   2   1516 40.34                             106   -0.19 3  393 210 
 PRA  HN I        1516 45.15        39.0 0.32                           393 210 
                                                                                
