 2014 1029 1551 46.7 L   6.773 -73.174146.2  RSN  6 0.4 1.9LRSN                1
 GAP=134        0.94       5.0     5.2  6.8 -0.3227E+01  0.3132E+01 -0.2551E-01E
 Epicentro: LOS SANTOS - SANTANDER                                             3
 ACTION:UPD 14-11-29 23:58 OP:nd   STATUS:               ID:20141029155146 L   I
 OLDACT:UP  14-10-31 11:06 OP:mh   STATUS:               ID:20141029154747d    3
 OLDACT:DUP 14-10-31 11:05 OP:mh   STATUS:               ID:20141029154747d    3
 2014-10-29-1547-46M.COL___278                                                 6
 STAT SP IPHASW D HRMM SECON CODA AMPLIT PERI AZIMU VELO AIN AR TRES W  DIS CAZ7
 BAR2 SZ EP   1   1552  6.37                             172    0.10 7 20.0 183 
 BAR2 SZ ES       1552 21.60                             172    0.0310 20.0 183 
 BAR2 SZ I    1   1552 22.51        25.8 0.12            173           20.0 183 
 BRR  HZ EP       1552  8.20                             153    0.4210 70.0 302 
 BRR  HN ES       1552 24.81                             153    0.5510 70.0 302 
 BRR  HZ I        1552 26.65        16.2 0.14            153           70.0 302 
 PAM  SZ EP       1552  9.14                             150   -0.0310 81.7  40 
 PAM  SN ES       1552 26.26                             150   -0.4810 81.7  40 
 PAM  SZ I        1552 28.63         9.8 0.50            151           81.7  40 
 RUS  HZ EP       1552 10.59                             145    0.3410 97.8 174 
 RUS  HN ES       1552 28.47                             145   -0.1810 97.8 174 
 RUS  HZ I        1552 30.18         9.6 0.25            147           97.8 174 
 PTB  HZ EP       1552 12.89                             133   -0.44 9  144 260 
 PTB  HN ES   1   1552 33.44                             133   -0.69 7  144 260 
 PTB  HZ I        1552 35.47                             134            144 260 
 GUY2CHZ EP   9   1552 30.87                             113    1.07 0  297 235 
 GUY2CHN ES       1553  4.86                                    0.34 7  297 235 
                                                                                
