 2017  129 1213 12.5 L   6.843 -73.200139.9  RSN  6 0.3 1.7LRSN                1
 GAP=128        0.71       4.0     3.6  7.1  0.5578E-01  0.1256E+02 -0.2728E+01E
 Epicentro: ZAPATOCA - SANTANDER                                               3
 ACTION:UPD 17-05-22 16:04 OP:jn   STATUS:               ID:20170129121312 L   I
 OLDACT:UP  17-01-29 23:16 OP:dnl  STATUS:               ID:20170129120739     3
 OLDACT:UP  17-01-29 23:16 OP:dnl  STATUS:               ID:20170129120739     3
 OLDACT:UP  17-01-29 23:15 OP:dnl  STATUS:               ID:20170129120739     3
 OLDACT:REG 17-01-29 22:13 OP:dnl  STATUS:               ID:20170129120739     3
 2017-01-29-1208-00M.COL___336                                                 6
 STAT SP IPHASW D HRMM SECON CODA AMPLIT PERI AZIMU VELO AIN AR TRES W  DIS CAZ7
 BAR2 EZ EP       1213 31.57                             168    0.0410 27.8 176 
 BAR2 EZ ES       1213 46.03                             168   -0.3410 27.8 176 
 BAR2 EZ I        1213 49.92         9.3 0.50            171           27.8 176 
 BRR  HZ EP   2   1213 33.17                             154    0.57 5 63.7 297 
 BRR  HN ES   4   1213 50.32                             154    2.05 0 63.7 297 
 BRR  HZ I        1213 54.81        13.0 0.46            152           63.7 297 
 PAM  EZ EP   2   1213 34.48                             150    0.36 5 77.9  45 
 PAM  EN ES       1213 51.12                             150    0.1310 77.9  45 
 PAM  EZ I        1213 52.98         6.3 0.24            155           77.9  45 
 RUS  HZ EP   2   1213 35.58                             141   -0.50 5  106 173 
 RUS  HN ES       1213 54.57                             141    0.0910  106 173 
 RUS  HZ I        1213 56.07         5.6 0.34            149            106 173 
 PTB  HZ EP       1213 38.33                             132   -0.22 9  143 256 
 PTB  HN ES       1213 59.35                             132    0.48 9  143 256 
 PTB  HZ I        1214  2.92         7.9 0.46            135            143 256 
 ZAR  HZ EP   4   1213 41.22                             122   -2.59 0  197 291 
 ZAR  HN ES       1214  7.89                             122   -0.34 9  197 291 
 ZAR  HZ I        1214 15.17         9.2 0.36            125            197 291 
                                                                                
