 2011  629 1223 40.2 L   6.771 -73.123144.6  RSN 13 0.5 3.1LRSN                1
 GAP=141        1.22       5.2     7.3  7.8 -0.7355E+01  0.2304E+02  0.6892E+01E
 Epicentro: LOS SANTOS - SANTANDER                                             3
 ACTION:UP  11-07-14 19:09 OP:ep   STATUS:               ID:20110629122340 L   I
 2011-06-29-1222-00S.COL___134                                                 6
 STAT SP IPHASW D HRMM SECON CODA AMPLIT PERI AZIMU VELO SNR AR TRES W  DIS CAZ7
 BAR2 SZ IP       1223 59.51                             171    -0.110   21 198 
 BAR2 SZ ES   1   1224 14.72                             171    -0.1 7   21 198 
 BAR2 SZ I        1224 16.37       183.0 0.44                            21 198 
 BRR  HZ IP       1224  1.32                             151    -0.110   75 300 
 BRR  HN ES   1   1224 18.98                             151     1.0 7   75 300 
 BRR  HZ I        1224 23.14       182.1 0.23                            75 300 
 PAM  SZ EP       1224  2.34                             150     0.010   78  37 
 PAM  SN ES   1   1224 19.54                             150    -0.1 7   78  37 
 RUS  HZ EP       1224  3.36                             145    -0.210   97 177 
 RUS  HN ES   1   1224 21.64                             145    -0.2 7   97 177 
 RUS  HZ I        1224 23.11       108.0 0.42                            97 177 
 OCA  SZ EP       1224  8.35                             129    -0.4 9  164 352 
 OCA  SZ I        1224 34.35       107.7 0.04                           164 352 
 NOR  SZ EP       1224 15.24                             118    -0.6 8  235 235 
 NOR  SN ES   2   1224 43.57                             118    -0.1 4  235 235 
 CHI  HZ EP       1224 17.53                             117     0.0 8  246 196 
 CHI  HN ES   1   1224 46.72                             117     0.0 6  246 196 
 CHI  HZ I        1224 52.71        40.0 0.41                           246 196 
 ROSC BZ EP       1224 19.12                             117     1.0 8  251 212 
 ROSC BZ I        1224 53.16       105.8 0.50                           251 212 
 HEL  HZ EP       1224 20.90                             114     0.4 8  274 257 
 HEL  HN ES   1   1224 50.68                             114    -1.3 6  274 257 
 HEL  HZ I        1224 59.83        90.1 0.50                           274 257 
 RREF HZ EP       1224 26.28                             111     0.0 7  322 230 
 RREF HZ I        1225  9.40        70.7 0.36                           322 230 
 DBB  SZ EP       1224 28.22                             109     0.3 7  342 275 
 TOL  SZ EP       1224 29.28                             109     0.9 7  343 225 
 PRA  HZ EP       1224 33.20                             106    -0.3 6  390 210 
 PRA  HZ I        1225 19.21       101.5 0.16                           390 210 
                                                                                
