 2016  229 1459 49.2 L   6.815 -73.177146.6  RSN  6 0.5 1.5LRSN                1
 GAP=144        1.22       5.9     6.8  8.5 -0.1548E+02  0.1197E+02  0.6386E+01E
 Epicentro: ZAPATOCA - SANTANDER                                               3
 ACTION:UPD 16-03-04 21:30 OP:rebc STATUS:               ID:20160229145949 L   I
 OLDACT:REG 16-02-29 21:25 OP:ar   STATUS:               ID:20160229145751     3
 2016-02-29-1457-51M.COL___309                                                 6
 STAT SP IPHASW D HRMM SECON CODA AMPLIT PERI AZIMU VELO AIN AR TRES W  DIS CAZ7
 BAR2 EZ EP       15 0  9.06                             170    0.0910 24.6 181 
 BAR2 EZ ES       15 0 24.15                             170   -0.2310 24.6 181 
 BAR2 EZ I        15 0 26.82         9.5 0.26            168           24.6 181 
 PAM  EZ EP       15 0 11.93                             151    0.3510 78.4  42 
 PAM  EN ES       15 0 29.06                             151    0.0410 78.4  42 
 PAM  EZ I        15 0 31.40         5.0 0.68            153           78.4  42 
 RUS  HZ EP       15 0 13.22                             143    0.0310  103 174 
 RUS  HN ES       15 0 31.65                             143   -0.2310  103 174 
 RUS  HZ I        15 0 33.03         4.6 0.32            143            103 174 
 PTB  HZ EP       15 0 14.61                             133   -1.36 9  145 258 
 PTB  HE ES       15 0 37.56                             133    0.72 9  145 258 
 PTB  HZ I        15 0 39.30         4.6 0.16            134            145 258 
 SPBC HZ EP       15 0 18.03                             129    0.33 9  162 218 
 SPBC HN ES       15 0 39.85                             129   -0.06 9  162 218 
 SPBC HZ I        15 0 41.78         5.5 0.19            130            162 218 
 CHI  HZ EP       15 0 27.34                             117    0.30 8  249 194 
 CHI  HN ES       15 0 56.70                             117    0.16 8  249 194 
 CHI  HZ I        15 1  4.43         1.8 0.36            118            249 194 
                                                                                
