 2013  729 1941 57.0 L   6.649 -73.317146.4  RSN  5 0.4 1.8LRSN                1
 GAP=147        0.95       7.1     6.4  8.7  0.7136E+01  0.1484E+02  0.2287E+01E
 Epicentro: GALAN - SANTANDER                                                  3
 ACTION:UPD 13-08-12 10:40 OP:ep   STATUS:               ID:20130729194157 L   I
 OLDACT:REG 13-07-29 15:42 OP:cam  STATUS:               ID:20130729193959     3
 2013-07-29-1939-59M.COL___268                                                 6
 STAT SP IPHASW D HRMM SECON CODA AMPLIT PERI AZIMU VELO AIN AR TRES W  DIS CAZ7
 GIR2 SZ EP   1   1942 16.60                             160   -0.79 7 49.5  16 
 GIR2 SZ ES   1   1942 32.92                             160   -0.36 7 49.5  16 
 BRR  HZ EP     C 1942 18.37                             154    0.3610 66.9 319 
 BRR  HZ I        1942 18.58        28.0 0.18            149           66.9 319 
 BRR  HN ES       1942 34.81                             154    0.4410 66.9 319 
 RUS  HN ES   1   1942 38.12                             148    0.30 7 87.5 163 
 PTB  HZ EP       1942 22.28                             137    0.0810  127 265 
 PTB  HN ES       1942 41.26                             137   -0.5710  127 265 
 PTB  HZ I        1942 45.38         4.9 0.10            134            127 265 
 ZAR  HZ EP   1   1942 28.69                             124    0.19 6  194 299 
 ZAR  HE ES   1   1942 53.14                             124    0.10 6  194 299 
 ZAR  HZ I        1942 59.95         3.7 0.24            122            194 299 
                                                                                
