 2014  529 1007  9.9 L   6.839 -73.180140.0  RSN 11 0.4 1.8LRSN                1
 GAP=130        0.87       3.0     3.8  6.0 -0.2159E+01  0.1010E+02 -0.3584E+01E
 Epicentro: ZAPATOCA - SANTANDER                                               3
 ACTION:UPD 15-03-16 17:01 OP:nd   STATUS:               ID:20140529100709 L   I
 OLDACT:REG 14-05-29 19:45 OP:cam  STATUS:               ID:20140529100000     3
 2014-05-29-1000-00M.COL___276                                                 6
 STAT SP IPHASW D HRMM SECON CODA AMPLIT PERI AZIMU VELO AIN AR TRES W  DIS CAZ7
 BAR2 SZ EP     D 10 7 28.75                             169   -0.2010 27.2 181 
 BAR2 SZ ES       10 7 43.45                             169   -0.3410 27.2 181 
 BAR2 SZ I        10 7 44.95        18.1 0.18            169           27.2 181 
 BRR  HZ EP       10 7 30.52                             153    0.3610 65.9 297 
 BRR  HN ES   4   10 7 47.49                             153    1.56 0 65.9 297 
 BRR  HZ I        10 7 50.65        17.8 0.36            150           65.9 297 
 PAM  SZ IP     C 10 7 31.63                             150    0.1410 76.7  44 
 PAM  SN ES       10 7 48.69                             150    0.3810 76.7  44 
 PAM  SZ I        10 7 50.58        11.2 0.56            156           76.7  44 
 RUS  HZ EP   1   10 7 33.05                             142   -0.41 7  105 174 
 RUS  HN ES       10 7 51.98                             142    0.1710  105 174 
 RUS  HZ I        10 7 53.11         6.6 0.30            146            105 174 
 PTB  HZ EP       10 7 35.68                             131   -0.50 9  145 257 
 PTB  HN ES       10 7 56.48                             131   -0.17 9  145 257 
 PTB  HZ I        10 8  0.07         7.6 0.14            132            145 257 
 SPBC HZ EP       10 7 38.00                             128   -0.09 9  164 217 
 SPBC HN ES       10 8  0.40                             128    0.34 9  164 217 
 SPBC HZ I        10 8  6.20         8.3 0.18            130            164 217 
 ZAR  HZ EP       10 7 41.49                             122    0.01 9  199 291 
 ZAR  HN ES       10 8  6.75                             122    0.67 9  199 291 
 ZAR  HZ I        10 8 14.03         7.4 0.24            123            199 291 
 NOR  HZ EP   1   10 7 45.10                             117   -0.17 6  234 233 
 NOR  HN ES       10 8 12.65                             117   -0.19 8  234 233 
 NOR  HZ I        10 8 20.73         4.4 0.42            120            234 233 
 SML  HZ EP   1   10 7 45.17                             117   -0.47 6  238 336 
 SML  HN ES       10 8 12.95                             117   -0.55 8  238 336 
 SML  HZ I        10 8 19.42         6.7 0.10            119            238 336 
 HEL  HZ EP   2   10 7 50.71                             114    1.14 4  270 255 
 GUY2CHZ EP   2   10 7 54.35                             111    1.14 4  301 234 
                                                                                
