 2013  729 1351 42.8 L   6.795 -73.142141.1  RSN 12 0.5 2.3LRSN                1
 GAP=137        1.25       4.2     5.0  7.1 -0.1368E+01  0.1103E+02  0.1960E+01E
 Epicentro: LOS SANTOS - SANTANDER                                             3
 ACTION:UPD 13-08-12 10:40 OP:ep   STATUS:               ID:20130729135142 L   I
 OLDACT:UP  13-07-29 16:45 OP:cam  STATUS:               ID:20130729134959     3
 OLDACT:UP  13-07-29 16:43 OP:cam  STATUS:               ID:20130729134959     3
 OLDACT:REG 13-07-29 14:52 OP:cam  STATUS:               ID:20130729134959     3
 2013-07-29-1349-59M.COL___267                                                 6
 STAT SP IPHASW D HRMM SECON CODA AMPLIT PERI AZIMU VELO AIN AR TRES W  DIS CAZ7
 BAR2 SZ EP     D 1352  1.76                             170   -0.1110 22.8 191 
 BAR2 SZ ES   1   1352 16.42                             170   -0.31 7 22.8 191 
 BAR2 SZ I        1352 17.50        52.6 0.21            174           22.8 191 
 GIR2 SZ EP     C 1352  1.85                             167   -0.1010 31.9 350 
 GIR2 SZ ES       1352 17.13                             167    0.2610 31.9 350 
 GIR2 SZ I        1352 17.87        31.1 0.16            158           31.9 350 
 BRR  HZ IP     C 1352  3.64                             151    0.1510 71.8 299 
 BRR  HN ES       1352 20.42                             151    0.8010 71.8 299 
 BRR  HZ I        1352 25.54        32.6 0.12            143           71.8 299 
 PAM  SZ EP       1352  4.88                             150    0.3410 77.6  39 
 PAM  SN ES       1352 21.43                             150   -0.0610 77.6  39 
 PAM  SZ I        1352 22.10        32.8 0.38            142           77.6  39 
 RUS  HZ EP   1   1352  6.19                             143    0.13 7 99.9 176 
 RUS  HN ES       1352 24.07                             143   -0.1210 99.9 176 
 RUS  HZ I        1352 24.94        18.1 0.24            142           99.9 176 
 PTB  HZ EP       1352  8.65                             131   -0.78 9  148 259 
 PTB  HN ES       1352 29.38                             131   -0.81 9  148 259 
 PTB  HZ I        1352 31.50        37.2 0.18            125            148 259 
 OCA  HN ES       1352 31.72                             128   -0.95 9  161 353 
 ZAR  HE ES       1352 41.17                             121    1.03 9  205 292 
 ZAR  HZ I        1352 47.17        17.3 0.44            115            205 292 
 NOR  HN ES   1   1352 45.93                             117    0.00 6  235 235 
 SML  HZ EP       1352 19.14                             116   -0.12 8  244 335 
 SML  HZ I        1352 48.73        26.8 0.28            110            244 335 
 CHI  HZ EP   1   1352 20.84                             116    0.64 6  248 195 
 CHI  HN ES   1   1352 49.58                             116    0.21 6  248 195 
 GUY2CHZ EP   4   1352 27.86                             111    1.65 0  301 235 
 DBB  SZ EP       1352 30.99                             109    0.83 7  340 274 
 DBB  SZ ES   1   1353  6.23                             109   -0.85 5  340 274 
 PRA  HZ EP   4   1352 37.28                             106    1.14 0  392 210 
 SJC  HZ EP   4   1352 37.11                             105   -1.20 0  410 327 
                                                                                
