 2015  829 1931 18.0 L   6.757 -73.110145.8  RSN  8 0.3 1.8LRSN                1
 GAP=143        0.61       2.9     3.0  5.1 -0.1906E+01  0.3352E+01  0.1576E+01E
 Epicentro: LOS SANTOS - SANTANDER                                             3
 ACTION:UPD 15-09-15 23:06 OP:cam  STATUS:               ID:20150829193118 L   I
 OLDACT:REG 15-08-29 20:44 OP:spq  STATUS:               ID:20150829192749     3
 2015-08-29-1927-49M.COL___364                                                 6
 STAT SP IPHASW D HRMM SECON CODA AMPLIT PERI AZIMU VELO AIN AR TRES W  DIS CAZ7
 BAR2 EZ EP       1931 37.48                             172   -0.1410 19.9 204 
 BAR2 EZ ES   1   1931 52.80                             172   -0.09 7 19.9 204 
 BAR2 EZ I        1931 53.98        11.5 0.44            170           19.9 204 
 BRR  HZ EP       1931 39.40                             151   -0.1310 76.9 300 
 BRR  HN ES       1931 56.68                             151    0.3910 76.9 300 
 BRR  HZ I        1932  3.12        16.8 0.32            150           76.9 300 
 PAM  EZ EP       1931 40.44                             150    0.0910 78.8  35 
 PAM  EN ES   1   1931 57.73                             150   -0.02 7 78.8  35 
 PAM  EZ I        1931 59.18         6.6 0.12            155           78.8  35 
 RUS  HZ EP   1   1931 41.64                             145    0.18 7 95.7 178 
 RUS  HE ES   1   1931 59.80                             145    0.08 7 95.7 178 
 RUS  HZ I        1932  2.43         5.0 0.34            149           95.7 178 
 SPBC HE ES       1932  8.17                             129   -0.43 9  162 221 
 SPBC HZ I        1932 13.59        11.9 0.38            131            162 221 
 ZAR  HE ES       1932 16.41                             122   -0.39 8  209 293 
 ZAR  HZ I        1932 21.93         8.5 0.26            124            209 293 
 NOR  HZ EP   1   1931 54.09                             118    0.26 6  235 236 
 NOR  HN ES       1932 21.88                             118    0.13 8  235 236 
 NOR  HZ I        1932 25.71         5.1 0.38            121            235 236 
 GUY2CHN ES   1   1932 36.36                             112    0.58 5  302 236 
 GUY2CHZ I        1932 44.17         3.8 0.36                           302 236 
                                                                                
