 2012 1129 1353 57.5 L   6.804 -73.253140.4  RSN  5 0.2 2.0LRSN                1
 GAP=116        0.67       3.9     4.4  5.8 -0.5845E+01  0.8757E+01 -0.4052E+01E
 Epicentro: ZAPATOCA - SANTANDER                                               3
 ACTION:UPD 12-12-05 15:37 OP:}ep  STATUS:               ID:20121129135357 L   I
 2012-11-29-1350-00M.COL___236                                                 6
 STAT SP IPHASW D HRMM SECON CODA AMPLIT PERI AZIMU VELO AIN AR TRES W  DIS CAZ7
 BAR2 SZ EP       1354 16.84                             170    0.3210 24.7 161 
 BAR2 SZ ES       1354 31.59                             170    0.2410 24.7 161 
 BAR2 SZ I        1354 32.92        36.8 0.21                          24.7 161 
 GIR2 SZ EP       1354 16.87                             167    0.3410 31.1  12 
 PAM  SZ EP       1354 19.65                             147    0.0110 85.1  46 
 PAM  SZ I        1354 20.02        17.0 0.22                          85.1  46 
 PAM  SN ES       1354 36.55                             147   -0.3610 85.1  46 
 RUS  HZ EP       1354 20.80                             142   -0.0810  103 169 
 RUS  HE ES       1354 38.92                             142   -0.1910  103 169 
 RUS  HE I        1354 41.29        18.1 0.43                           103 169 
 PTB  HZ EP       1354 22.73                             133   -0.26 9  136 258 
 PTB  HN ES   1   1354 42.79                             133   -0.08 7  136 258 
 PTB  HZ I        1354 50.79         6.4 0.13                           136 258 
                                                                                
