 2010 1229 1718 30.9 L   6.801 -73.179140.9  RSN 10 0.4 2.3LRSN                1
 GAP=133        0.68       2.7     4.6  5.8 -0.3924E+01  0.8173E+01  0.1215E+01E
 Epicentro: LOS SANTOS - SANTANDER                                             3
 ACTION:UP  11-01-14 15:27 OP:pat  STATUS:               ID:20101229171830 L   I
 2010-12-29-1716-37S.COL___135                                                 6
 STAT SP IPHASW D HRMM SECON CODA AMPLIT PERI AZIMU VELO SNR AR TRES W  DIS CAZ7
 BTL  SZ EP   1   1718 50.27                             173     0.5 7   16 323 
 BAR2 SZ EP   1   1718 50.22                             170     0.3 7   23 181 
 BAR2 SZ ES   1   1719  4.56                             170    -0.2 7   23 181 
 BAR2 SZ I        1719  6.16        50.6 0.24                            23 181 
 RUS  HZ EP   1   1718 54.06                             143    -0.1 7  101 174 
 RUS  HE ES   1   1719 12.70                             143     0.3 7  101 174 
 RUS  HZ I        1719 13.86        22.8 0.27                           101 174 
 GRA  SZ EP   1   1718 55.84                             136     0.0 7  127  19 
 GRA  SZ ES   1   1719 15.05                             136    -0.2 7  127  19 
 GRA  SZ I        1719 16.82        16.0 0.32                           127  19 
 OCA  SZ EP   1   1718 58.94                             129     0.2 7  160 354 
 OCA  SZ ES   1   1719 20.07                             129    -0.5 7  160 354 
 OCA  SZ I        1719 28.69        31.2 0.26                           160 354 
 YOP  SZ EP   1   1719  0.68                             125    -0.1 7  181 152 
 NOR  SZ EP   1   1719  6.03                             118     0.0 6  232 234 
 NOR  SN ES   1   1719 33.90                             118     0.4 6  232 234 
 CHI  HZ EP   1   1719  8.07                             116    -0.2 6  248 194 
 CHI  HN ES   1   1719 37.14                             116    -0.2 6  248 194 
 CHI  HZ I        1719 40.02        17.0 0.30                           248 194 
 HEL  HZ EP   2   1719 11.40                             114     0.9 4  268 256 
 HEL  HN ES   1   1719 41.07                             114    -0.3 6  268 256 
 HEL  HZ I        1719 48.15        10.5 0.28                           268 256 
 PRA  HZ EP   1   1719 23.93                             106    -0.1 4  390 209 
 PRA  HN ES   1   1720  4.57                             106    -0.9 4  390 209 
                                                                                
