 2010  429 1635 49.6 L   6.815 -72.939146.4  RSN  4 0.1 2.3LRSN                1
 GAP=227        0.31       3.1     6.1  4.6  0.7645E+00 -0.6477E+01  0.3472E+01E
 Epicentro: CEPITA - SANTANDER                                                 3
 ACTION:UPD 10-08-24 10:01 OP:vdl  STATUS:               ID:20100429163549 L   I
 2010-04-29-1633-12S.COL___104                                                 6
 STAT SP IPHASW D HRMM SECON CODA AMPLIT PERI AZIMU VELO SNR AR TRES W  DIS CAZ7
 BAR2 SZ EP   1   1636  9.75                             166     0.1 7   37 228 
 BAR2 SZ ES   2   1636 25.17                             166    -0.1 5   37 228 
 BRR  HZ IP     C 1636 12.09                             146     0.010   91 291 
 BRR  HZ I        1636 12.38        31.3 0.18                            91 291 
 BRR  HE ES   1   1636 29.61                             146     0.0 7   91 291 
 OCA  SZ ES   2   1636 40.46                                    -0.1 5  163 345 
 OCA  SZ I        1636 45.74        38.3 0.29                           163 345 
 PRA  HZ EP   2   1636 44.45                             106    -0.2 3  405 212 
 PRA  HZ I        1636 45.26         3.5 0.18                           405 212 
 PRA  HN ES   2   1637 27.69                             106     0.0 3  405 212 
                                                                                
