 2013  729 1938 33.5 L   6.758 -73.197150.5  RSN  4 0.2 1.5LRSN                1
 GAP=228        0.59       5.9     4.5  5.4  0.1129E+02  0.1412E+01  0.1798E+01E
 Epicentro: VILLANUEVA - SANTANDER                                             3
 ACTION:UPD 13-08-12 10:40 OP:ep   STATUS:               ID:20130729193833 L   I
 OLDACT:UP  13-07-29 17:17 OP:cam  STATUS:               ID:20130729192959     3
 OLDACT:REG 13-07-29 15:42 OP:cam  STATUS:               ID:20130729192959     3
 2013-07-29-1929-59M.COL___267                                                 6
 STAT SP IPHASW D HRMM SECON CODA AMPLIT PERI AZIMU VELO AIN AR TRES W  DIS CAZ7
 BAR2 SZ EP       1938 53.30                             173   -0.3010 18.4 175 
 BAR2 SZ ES       1939  9.08                             173   -0.2110 18.4 175 
 BAR2 SZ I        1939  9.58         7.4 0.11            170           18.4 175 
 BRR  HZ EP   1   1938 55.20                             154    0.18 7 68.8 304 
 BRR  HN ES   1   1939 12.20                             154    0.39 7 68.8 304 
 RUS  HZ EP       1938 57.68                             146    0.2510 96.6 173 
 RUS  HE ES   1   1939 16.28                             146    0.18 7 96.6 173 
 RUS  HZ I        1939 17.12         4.7 0.32            145           96.6 173 
 PTB  HZ EP   1   1939  0.10                             134   -0.18 7  141 260 
 PTB  HN ES       1939 21.10                             134   -0.08 9  141 260 
 PTB  HZ I        1939 22.66         5.3 0.44            134            141 260 
                                                                                
