 2012  229 1659 41.0 L   6.766 -73.148149.0  RSN  7 0.4 1.7LRSN                1
 GAP=138        0.83       5.2     4.7  7.4 -0.1608E+01  0.9355E+01  0.4688E+01E
 ACTION:UP  12-03-07 16:35 OP:epov STATUS:               ID:20120229165941 L   I
 2012-02-29-1658-59S.COL___194                                                 6
 STAT SP IPHASW D HRMM SECON CODA AMPLIT PERI AZIMU VELO AIN AR TRES W  DIS CAZ7
 BAR2 SZ EP   1   17 0  1.00                             172    0.01 7 19.5 191 
 BAR2 SZ ES   1   17 0 16.05                             172   -0.50 7 19.5 191 
 BAR2 SZ I        17 0 17.76        26.9 0.30                          19.5 191 
 BRR  HZ EP   1   17 0  2.90                             153    0.27 7 72.9 301 
 BRR  HE ES   1   17 0 20.46                             153    0.99 7 72.9 301 
 BRR  HZ I        17 0 23.25        20.9 0.20                          72.9 301 
 PAM  SZ EP   1   17 0  3.76                             150   -0.02 7 80.5  38 
 PAM  SN ES   1   17 0 21.14                             150   -0.39 7 80.5  38 
 PAM  SZ I        17 0 23.14        10.0 0.50                          80.5  38 
 RUS  HZ EP   1   17 0  4.94                             145    0.10 7 96.8 176 
 RUS  HN ES   1   17 0 23.74                             145    0.33 7 96.8 176 
 RUS  HZ I        17 0 25.37        15.1 0.54                          96.8 176 
 PTB  HZ EP   1   17 0  7.75                             133   -0.43 7  147 260 
 PTB  HE ES   1   17 0 28.79                             133   -0.57 7  147 260 
 PTB  HZ I        17 0 32.38         0.1 0.15                           147 260 
 ZAR  HE ES   1   17 0 39.26                             123   -0.13 6  205 293 
 ZAR  HZ I        17 0 46.69        17.6 0.24                           205 293 
 NOR  SZ EP   1   17 0 17.05                             119    0.35 6  232 235 
 NOR  SN ES   1   17 0 44.41                             119   -0.10 6  232 235 
                                                                                
