 2014  329 1410 30.6 L   6.805 -73.159144.4  RSN  8 0.4 2.0LRSN                1
 GAP=135        1.12       4.0     4.7  6.7  0.3117E+00  0.7078E+01  0.4483E+01E
 Epicentro: LOS SANTOS - SANTANDER                                             3
 ACTION:UPD 14-04-09 23:21 OP:nd   STATUS:               ID:20140329141030 L   I
 OLDACT:REG 14-03-29 17:21 OP:nd   STATUS:               ID:20140329140741     3
 2014-03-29-1407-41M.COL___259                                                 6
 STAT SP IPHASW D HRMM SECON CODA AMPLIT PERI AZIMU VELO AIN AR TRES W  DIS CAZ7
 BAR2 SZ EP       1410 49.96                             170   -0.0810 23.7 186 
 BAR2 SZ ES       1411  4.91                             170   -0.3110 23.7 186 
 BAR2 SZ I        1411  6.31        34.9 0.38            170           23.7 186 
 BRR  HZ IP     C 1410 51.67                             153    0.1910 69.6 299 
 BRR  HN ES       1411  8.73                             153    0.9510 69.6 299 
 BRR  HZ I        1411 12.05        22.3 0.28            151           69.6 299 
 PAM  SZ IP     D 1410 52.86                             150    0.1910 77.9  41 
 PAM  SN ES       1411  9.38                             150   -0.5310 77.9  41 
 PAM  SZ I        1411 11.91        10.9 0.46            154           77.9  41 
 RUS  HZ EP       1410 54.30                             143    0.0710  101 175 
 RUS  HN ES       1411 12.98                             143    0.2910  101 175 
 RUS  HZ I        1411 14.06         9.5 0.18            146            101 175 
 PTB  HZ EP       1410 56.57                             132   -0.73 9  146 259 
 PTB  HN ES       1411 17.39                             132   -0.75 9  146 259 
 PTB  HZ I        1411 20.01        20.0 0.40            132            146 259 
 SPBC HZ EP       1410 59.15                             129    0.24 9  163 218 
 SPBC HN ES       1411 20.74                             129   -0.28 9  163 218 
 SPBC HZ I        1411 25.31        14.0 0.18            130            163 218 
 ZAR  HZ EP       1411  2.75                             122   -0.01 9  202 292 
 ZAR  HN ES       1411 28.22                             122    0.36 9  202 292 
 ZAR  HZ I        1411 37.07        14.4 0.12            123            202 292 
 CHI  HZ EP       1411  8.26                             117    0.05 8  249 195 
 CHI  HN ES       1411 37.99                             117    0.43 8  249 195 
 CHI  HZ I        1411 41.24         3.7 0.38            118            249 195 
                                                                                
