 2013  129 1534 32.3 L   5.818 -73.759111.4  RSN  4 0.1 1.7LRSN                1
 GAP=232        0.35       3.9     2.4  4.6  0.2955E+01  0.4959E+01  0.3103E+01E
 Epicentro: JESUS MARIA - SANTANDER                                            3
 ACTION:UPD 13-02-15 09:17 OP:ep   STATUS:               ID:20130129153432 L   I
 2013-01-29-1530-00M.COL___241                                                 6
 STAT SP IPHASW D HRMM SECON CODA AMPLIT PERI AZIMU VELO AIN AR TRES W  DIS CAZ7
 RUS  HZ EP   1   1534 51.07                             144    0.19 8 75.2  84 
 RUS  HN ES   1   1535  5.23                             144   -0.11 8 75.2  84 
 BAR2 SZ EP   1   1534 53.14                             133    0.05 7  107  37 
 BAR2 SZ ES       1535  9.26                             133   -0.0110  107  37 
 BAR2 SZ I        1535 10.69        30.2 0.30            118            107  37 
 PTB  HZ EP       1534 53.04                             132   -0.1310  111 316 
 PTB  HN ES   1   1535  9.55                             132    0.13 7  111 316 
 PTB  HZ I        1535 10.81         2.5 0.12            118            111 316 
 BRR  HZ EP       1534 56.20                             124   -0.01 9  143   2 
 BRR  HZ I        1535  4.78         9.6 0.32            111            143   2 
                                                                                
