 2013  329 1232 35.2 L   6.724 -73.198146.5  RSN  4 0.4 1.7LRSN                1
 GAP=225        0.86       8.9     6.9  9.1  0.2193E+02  0.5395E+01  0.2061E+02E
 Epicentro: VILLANUEVA - SANTANDER                                             3
 ACTION:UPD 13-04-09 14:05 OP:ep   STATUS:               ID:20130329123235 L   I
 2013-03-29-1230-00M.COL___245                                                 6
 STAT SP IPHASW D HRMM SECON CODA AMPLIT PERI AZIMU VELO AIN AR TRES W  DIS CAZ7
 BAR2 SZ EP   1   1232 54.51                             175   -0.23 7 14.7 173 
 BAR2 SZ ES   1   1233  9.25                             175   -0.75 7 14.7 173 
 BAR2 SZ I        1233 10.35         7.4 0.26            173           14.7 173 
 BRR  HZ EP   1   1232 56.49                             152    0.12 7 70.9 307 
 BRR  HE ES       1233 13.40                             152    0.4910 70.9 307 
 BRR  HE I        1233 13.63        15.5 0.22            152           70.9 307 
 RUS  HZ EP   1   1232 58.48                             147    0.04 7 92.8 172 
 RUS  HN ES   2   1233 17.32                             147    0.72 5 92.8 172 
 PTB  HZ EP   1   1233  1.66                             134    0.10 7  141 262 
 PTB  HN ES       1233 21.85                             134   -0.29 9  141 262 
 PTB  HN I        1233 24.54         5.7 0.36            133            141 262 
                                                                                
