 2014 1229 1406 57.3 L   6.733 -73.172153.1  RSN  5 0.5 1.6LRSN                1
 GAP=229        1.26       7.7     8.1 10.1  0.1276E+02  0.6853E+01 -0.7239E+00E
 Epicentro: VILLANUEVA - SANTANDER                                             3
 ACTION:UPD 15-02-10 17:08 OP:nd   STATUS:               ID:20141229140657 L   I
 OLDACT:UP  14-12-29 21:26 OP:cam  STATUS:               ID:20141229135817     3
 OLDACT:REG 14-12-29 20:16 OP:cam  STATUS:               ID:20141229135817     3
 2014-12-29-1358-17M.COL___280                                                 6
 STAT SP IPHASW D HRMM SECON CODA AMPLIT PERI AZIMU VELO AIN AR TRES W  DIS CAZ7
 BAR2 EZ EP       14 7 17.05                             174   -0.6310 15.6 184 
 BAR2 EZ ES       14 7 32.95                             174   -0.6410 15.6 184 
 BAR2 EZ I        14 7 34.20         7.8 0.30            166           15.6 184 
 BRR  HZ EP     C 14 7 19.31                             153   -0.0110 72.6 305 
 BRR  HE ES       14 7 37.33                             153    0.8310 72.6 305 
 BRR  HZ I        14 7 39.65        12.8 0.40            149           72.6 305 
 RUS  HZ EP       14 7 21.79                             147    0.5010 93.4 174 
 RUS  HN ES       14 7 40.29                             147    0.2910 93.4 174 
 RUS  HZ I        14 7 41.22         2.5 0.56            145           93.4 174 
 PTB  HZ EP       14 7 24.48                             134   -0.03 9  144 262 
 PTB  HN ES       14 7 45.25                             134   -0.48 9  144 262 
 PTB  HZ I        14 7 52.78         4.7 0.30            130            144 262 
 SPBC HN ES       14 7 47.93                             132    0.13 9  156 220 
 SPBC HZ I        14 7 55.57         8.8 0.42            129            156 220 
                                                                                
