 2010  729 1131 12.9 L   6.791 -73.047154.6  RSN  5 0.4 1.8LRSN                1
 GAP=170        0.89       6.9    15.3 12.8 -0.1103E+02 -0.6097E+02 -0.1549E+02E
 Epicentro: LOS SANTOS - SANTANDER                                             3
 ACTION:UPD 10-12-01 15:20 OP:pat  STATUS:               ID:20100729113112 L   I
 2010-07-29-1127-17S.COL___123                                                 6
 STAT SP IPHASW D HRMM SECON CODA AMPLIT PERI AZIMU VELO AIN AR TRES W  DIS CAZ7
 BAR2 SZ EP   1   1131 33.62                             170     0.0 7   27 214 
 BAR2 SZ ES   2   1131 49.61                             170    -0.2 5   27 214 
 BAR2 SZ I        1131 50.37        11.7 0.41                            27 214 
 BRR  HZ EP   1   1131 35.54                             151     0.0 7   81 295 
 BRR  HZ I        1131 35.80        26.8 0.15                            81 295 
 BRR  HN ES   2   1131 53.38                             151     0.1 5   81 295 
 RUS  HZ EP   1   1131 37.63                             146     0.2 7   99 182 
 RUS  HE ES   2   1131 56.39                             146    -0.2 5   99 182 
 RUS  HZ I        1131 57.52         5.3 0.47                            99 182 
 GUE  SZ EP   1   1131 37.43                             141    -0.9 7  116   7 
 GRA  SZ EP   1   1131 39.41                             139     0.7 7  124  12 
 GRA  SZ ES   2   1131 59.22                             139     0.3 5  124  12 
                                                                                
