 2015 1229 1205 39.0 L   6.809 -73.132144.4  RSN 10 0.5 1.9LRSN                1
 GAP=202        0.78       4.1     6.4  6.9  0.1258E+02  0.1447E+02  0.7561E+01E
 Epicentro: LOS SANTOS - SANTANDER                                             3
 ACTION:UPD 16-02-04 15:08 OP:cam  STATUS:               ID:20151229120539 L   I
 OLDACT:REG 15-12-29 20:34 OP:dnl  STATUS:               ID:20151229115747     3
 2015-12-29-1157-47M.COL___340                                                 6
 STAT SP IPHASW D HRMM SECON CODA AMPLIT PERI AZIMU VELO AIN AR TRES W  DIS CAZ7
 BAR2 EZ EP   2   12 5 58.53                             170    0.09 5 24.6 193 
 BAR2 EZ ES   2   12 6 12.91                             170   -0.73 5 24.6 193 
 BAR2 EZ I        12 6 14.50        14.1 0.23            164           24.6 193 
 BRR  HZ EP   2   12 6  0.35                             152    0.35 5 72.1 297 
 BRR  HN ES       12 6 17.10                             152    0.6810 72.1 297 
 RUS  HZ EP   2   12 6  3.00                             143    0.37 5  101 177 
 RUS  HE ES       12 6 20.84                             143   -0.2610  101 177 
 RUS  HZ I        12 6 22.72         8.2 0.29            139            101 177 
 PTB  HZ EP   2   12 6  5.31                             131   -0.65 5  149 259 
 PTB  HN ES   2   12 6 25.99                             131   -1.04 5  149 259 
 PTB  HZ I        12 6 28.62         6.8 0.11            127            149 259 
 SPBC HZ EP   2   12 6  7.88                             129    0.37 5  165 219 
 SPBC HE ES   2   12 6 29.54                             129   -0.24 5  165 219 
 ZAR  HN ES       12 6 36.63                             122   -0.11 9  205 292 
 ZAR  HZ I        12 6 42.17         6.8 0.12            119            205 292 
 SML  HZ EP   2   12 6 14.94                             117   -0.53 4  243 335 
 SML  HN ES   2   12 6 43.00                             117   -0.96 4  243 335 
 SML  HZ I        12 6 47.06        11.3 0.07            116            243 335 
 CHI  HZ EP   2   12 6 17.13                             117    0.41 4  250 195 
 CHI  HN ES   2   12 6 46.58                             117    0.40 4  250 195 
 CHI  HZ I        12 6 57.71         3.0 0.42            114            250 195 
 GUY2CHZ EP   2   12 6 23.67                             112    0.97 4  303 235 
 GUY2CHE ES   2   12 6 56.24                             112   -0.59 4  303 235 
 GUY2CHZ I        12 7  6.80         3.2 0.18                           303 235 
 PRA  HZ EP   2   12 6 33.05                             106    0.44 3  394 210 
 PRA  HE ES       12 7 14.44                             106   -0.03 6  394 210 
 PRA  HZ I        12 7 22.70         3.2 0.29            104            394 210 
                                                                                
