 2010  129 1416 51.7 L   6.753 -73.032144.6  RSN  6 0.3 1.8LRSN                1
 GAP=178        0.50       4.3    15.4  6.0 -0.6418E+01  0.1620E+02 -0.2341E+01E
 Epicentro: CEPITA - SANTANDER                                                 3
 ACTION:UP  10-08-24 09:46 OP:vdl  STATUS:               ID:20100129141651 L   I
 2010-01-29-1359-50S.COL___090                                                 6
 STAT SP IPHASW D HRMM SECON CODA AMPLIT PERI AZIMU VELO SNR AR TRES W  DIS CAZ7
 BAR2 SZ EP   1   1417 11.16                             170    -0.1 7   24 223 
 BAR2 SZ ES   2   1417 26.34                             170    -0.1 5   24 223 
 GIR2 SZ EP   1   1417 11.42                             164    -0.1 7   40 334 
 GIR2 SZ ES   2   1417 26.99                             164     0.0 5   40 334 
 RUS  HZ EP   1   1417 14.94                             145    -0.1 7   95 183 
 RUS  HZ I        1417 15.98         5.9 0.23                            95 183 
 RUS  HE ES   1   1417 33.31                             145     0.2 7   95 183 
 GUE  SZ EP   2   1417 17.04                             138     0.4 5  120   6 
 RREF HZ EP   2   1417 39.31                             110     0.7 3  328 232 
 RREF HZ I        1418 20.47         5.0 0.30                           328 232 
 PRA  HZ EP   2   1417 44.59                             106    -0.9 3  394 212 
                                                                                
