 2015  629 1613 13.6 L   6.608 -73.380118.0  RSN 10 0.4 2.1LRSN                1
 GAP= 92        0.80       2.5     3.8  6.0 -0.1395E+01  0.1331E+02 -0.4083E+01E
 Epicentro: GALAN - SANTANDER                                                  3
 ACTION:UPD 15-09-10 22:15 OP:cam  STATUS:               ID:20150629161313 L   I
 OLDACT:UP  15-06-30 00:41 OP:mh   STATUS:               ID:20150629160749     3
 OLDACT:UP  15-06-30 00:36 OP:mh   STATUS:               ID:20150629160749     3
 OLDACT:UP  15-06-30 00:36 OP:mh   STATUS:               ID:20150629160749     3
 OLDACT:UP  15-06-30 00:34 OP:mh   STATUS:               ID:20150629160749     3
 OLDACT:REG 15-06-29 23:23 OP:mh   STATUS:               ID:20150629160749     3
 2015-06-29-1607-49M.COL___319                                                 6
 STAT SP IPHASW D HRMM SECON CODA AMPLIT PERI AZIMU VELO AIN AR TRES W  DIS CAZ7
 BAR2 EZ EP       1613 30.10                             169    0.2410 21.9  95 
 BAR2 EZ ES       1613 42.44                             169   -0.1110 21.9  95 
 BAR2 EZ I        1613 44.34        50.5 0.40            175           21.9  95 
 RUS  HZ EP       1613 33.31                             142   -0.2310 85.6 157 
 RUS  HE ES       1613 49.23                             142    0.1310 85.6 157 
 RUS  HZ I        1613 50.15        11.8 0.38            148           85.6 157 
 OCA  HZ EP       1613 42.27                             119    0.24 9  180   2 
 OCA  HN ES       1614  4.30                             119    0.09 9  180   2 
 OCA  HZ I        1614  9.56        38.6 0.16            120            180   2 
 ZAR  HZ EP   1   1613 43.15                             117    0.25 7  190 301 
 ZAR  HN ES       1614  5.54                             117   -0.22 9  190 301 
 ZAR  HZ I        1614 14.07        11.6 0.14            118            190 301 
 NOR  HZ EP       1613 43.52                             116   -0.63 9  201 235 
 NOR  HN ES   1   1614  7.65                             116   -0.34 6  201 235 
 HEL  HZ EP   1   1613 49.04                             111   -0.09 6  242 259 
 HEL  HE ES   1   1614 17.08                             111    0.24 6  242 259 
 HEL  HZ I        1614 20.50         5.8 0.46            113            242 259 
 SML  HZ EP       1613 49.36                             110   -0.67 8  254 343 
 SML  HN ES       1614 18.65                             110    0.20 8  254 343 
 SML  HZ I        1614 30.58        20.1 0.28            111            254 343 
 GUY2CHZ EP       1613 52.96                             109    0.76 8  268 235 
 GUY2CHN ES   1   1614 22.83                             109    0.52 6  268 235 
 GUY2CHZ I        1614 30.30         5.9 0.52                           268 235 
 URE  HZ EP   4   1613 48.18                             109   -3.61 0  269 298 
 URE  HN ES   4   1614 17.37                             109   -4.22 0  269 298 
 URE  HZ I        1614 20.51        10.9 0.34            110            269 298 
 TOL  SN ES   4   1614 33.00                             106    2.22 0  310 224 
 TOL  SZ I        1614 39.84         5.0 0.72            108            310 224 
                                                                                
