 2011  929 1353 54.8 L   6.789 -73.132142.2  RSN 11 0.3 2.5LRSN                1
 GAP=116        0.67       2.6     3.1  4.0 -0.5606E+00  0.3563E+01  0.1734E+01E
 Epicentro: LOS SANTOS - SANTANDER                                             3
 ACTION:UPD 12-07-13 16:00 OP:ep   STATUS:               ID:20110929135354 L   I
 2011-09-29-1352-20S.COL___168                                                 6
 STAT SP IPHASW D HRMM SECON CODA AMPLIT PERI AZIMU VELO AIN AR TRES W  DIS CAZ7
 BAR2 SZ EP       1354 14.17                             171    0.1910 22.5 194 
 BAR2 SZ I        1354 14.51        85.9 0.05                          22.5 194 
 BAR2 SZ ES       1354 28.77                             171   -0.1810 22.5 194 
 BRR  HZ IP     C 1354 15.95                             151    0.2710 73.1 299 
 BRR  HE ES       1354 32.52                             151    0.5610 73.1 299 
 PAM  SZ EP       1354 16.94                             150    0.3110 77.3  38 
 PAM  SN ES       1354 33.26                             150   -0.4110 77.3  38 
 RUS  HZ EP   1   1354 18.12                             143    0.01 7 99.3 177 
 RUS  HE ES   1   1354 36.30                             143    0.01 7 99.3 177 
 RUS  HZ I        1354 40.32        24.3 0.20                          99.3 177 
 OCA  SZ EP       1354 22.67                             129   -0.30 9  162 353 
 OCA  SZ I        1354 48.77        53.2 0.34                           162 353 
 YOP  SZ EP   2   1354 24.54                             126    0.13 4  177 154 
 YOP  SE ES   2   1354 47.54                             126    0.03 4  177 154 
 YOP  SZ I        1354 49.75        26.3 0.27                           177 154 
 ZAR  HZ EP   1   1354 26.88                             121   -0.33 6  206 292 
 ZAR  HE ES   1   1354 52.21                             121   -0.28 6  206 292 
 ZAR  HZ I        1354 57.85        57.3 0.28                           206 292 
 NOR  SZ EP   1   1354 30.25                             118   -0.13 6  235 235 
 NOR  SN ES   1   1354 57.63                             118   -0.51 6  235 235 
 CHI  HZ EP   1   1354 32.54                             116    0.32 6  248 196 
 CHI  HE ES   1   1355  0.85                             116   -0.56 6  248 196 
 CHI  HZ I        1355 12.65        14.8 0.64                           248 196 
 HEL  HZ EP   1   1354 34.85                             114   -0.12 6  273 256 
 HEL  HN ES   1   1355  6.14                             114   -0.16 6  273 256 
 HEL  HZ I        1355 13.26        18.0 0.42                           273 256 
 PRA  HZ EP   1   1354 48.09                             106   -0.07 4  392 210 
 PRA  HN ES   1   1355 30.50                             106    0.71 4  392 210 
                                                                                
