 2012 1229 1040 29.1 L   6.342 -73.355  4.0  RSN  4 0.2 1.1LRSN                1
 GAP=131        0.54       1.3     1.6  3.8  0.4912E+00 -0.8295E+00 -0.4954E+00E
 Epicentro: CHIMA - SANTANDER                                                  3
 ACTION:UPD 13-01-04 14:31 OP:ep   STATUS:               ID:20121229104029 L   I
 2012-12-29-1040-00M.COL___242                                                 6
 STAT SP IPHASW D HRMM SECON CODA AMPLIT PERI AZIMU VELO AIN AR TRES W  DIS CAZ7
 BAR2 SZ EP       1040 34.92                              47   -0.1110 33.6  35 
 BAR2 SZ ES       1040 39.80                              47    0.1510 33.6  35 
 BAR2 SZ I        1040 40.51        15.9 0.16                          33.6  35 
 RUS  HZ EP     C 1040 39.11                              47    0.1010 58.1 149 
 RUS  HN ES       1040 46.58                              47   -0.1610 58.1 149 
 RUS  HN I        1040 47.38         9.0 0.11                          58.1 149 
 BRR  HZ EP   1   1040 44.11                              47    0.27 7 93.3 335 
 BRR  HE ES   1   1040 54.83                              47   -0.50 7 93.3 335 
 BRR  HZ I        1040 56.62         5.0 0.30                          93.3 335 
 PTB  HZ EP       1040 48.62                              47    0.1510  124 280 
 PTB  HZ I        1040 48.80         3.8 0.15                           124 280 
 PTB  HE ES   1   1041  3.57                              47    0.00 7  124 280 
                                                                                
