 2017 1129 1627 51.5 L   6.791 -73.147143.5  RSN  4 0.2 1.3LRSN                1
 GAP=140        0.47       2.9     2.8  4.0 -0.2522E+01  0.3313E+01 -0.1088E+01E
 Epicentro: LOS SANTOS - SANTANDER                                             3
 ACTION:UPD 17-12-12 20:01 OP:rebc STATUS:               ID:20171129162751 L   I
 OLDACT:REG 17-11-29 21:29 OP:dani STATUS:               ID:20171129161459     3
 2017-11-29-1618-00M.COL___492                                                 6
 STAT SP IPHASW D HRMM SECON CODA AMPLIT PERI AZIMU VELO AIN AR TRES W  DIS CAZ7
 BAR2 EZ ES       1628 25.76                             171   -0.1910 22.3 190 
 PAM  EZ EP       1628 13.68                             150    0.1310 78.2  39 
 PAM  EE ES       1628 30.75                             150    0.0110 78.2  39 
 PAM  EZ I        1628 43.83         3.9 0.42            149           78.2  39 
 RUS  HZ EP       1628 15.00                             144    0.0210 99.5 176 
 RUS  HN ES       1628 33.36                             144    0.0810 99.5 176 
 RUS  HZ I        1628 35.46         3.0 0.26            155           99.5 176 
 PTB  HZ EP       1628 18.01                             131   -0.27 9  147 259 
 PTB  HN ES       1628 39.36                             131    0.21 9  147 259 
 PTB  HZ I        1628 43.41         2.4 0.42            138            147 259 
                                                                                
