 2015 1129 1844 26.7 L   6.742 -73.161148.9  RSN  6 0.4 1.8LRSN                1
 GAP=137        0.95       4.6     4.8  6.9 -0.5412E+01  0.3666E+01  0.5644E+00E
 Epicentro: LOS SANTOS - SANTANDER                                             3
 ACTION:UPD 15-12-28 16:14 OP:cam  STATUS:               ID:20151129184426 L   I
 OLDACT:DUP 15-11-29 22:26 OP:drio STATUS:               ID:20151129183749d    3
 2015-11-29-1837-48M.COL___307                                                 6
 STAT SP IPHASW D HRMM SECON CODA AMPLIT PERI AZIMU VELO AIN AR TRES W  DIS CAZ7
 BAR2 EZ EP       1844 46.73                             173    0.1510 16.8 188 
 BAR2 EZ ES       1845  2.42                             173    0.3210 16.8 188 
 BAR2 EZ I        1845  4.32        14.9 0.20            173           16.8 188 
 BRR  HZ EP       1844 48.58                             152    0.3110 73.0 304 
 BRR  HN ES       1845  5.39                             152    0.2810 73.0 304 
 BRR  HZ I        1845  9.96         5.9 0.46            152           73.0 304 
 PAM  EZ EP       1844 49.63                             149    0.0410 83.4  38 
 PAM  EE ES       1845  6.87                             149   -0.6010 83.4  38 
 PAM  EZ I        1845  8.77        10.9 0.44            153           83.4  38 
 RUS  HZ EP       1844 50.81                             146    0.5010 94.4 175 
 RUS  HN ES       1845  8.54                             146   -0.2010 94.4 175 
 RUS  HZ I        1845 10.53         7.3 0.28            149           94.4 175 
 PTB  HZ EP       1844 53.09                             133   -0.57 9  145 261 
 PTB  HN ES       1845 14.72                             133    0.02 9  145 261 
 PTB  HZ I        1845 17.78         5.3 0.24            134            145 261 
 SPBC HE ES       1845 16.47                             131   -0.38 9  157 220 
 SPBC HZ I        1845 20.38        14.7 0.20            133            157 220 
                                                                                
