 2011  329 1613 49.9 L   6.711 -73.702 90.2  RSN 16 0.5 2.6LRSN                1
 GAP= 81        1.06       4.9     5.1 10.3 -0.1507E+02  0.7666E+01  0.8581E+01E
 Epicentro: EL CARMEN DE CHUCURI - SANTANDER                                   3
 ACTION:UP  11-06-16 14:36 OP:jfem STATUS:               ID:20110329161349 L   I
 2011-03-29-1612-13S.COL___138                                                 6
 STAT SP IPHASW D HRMM SECON CODA AMPLIT PERI AZIMU VELO SNR AR TRES W  DIS CAZ7
 BRR  HZ IP     D 1614  3.30                             152    -0.110   44 358 
 BRR  HZ I        1614  3.67       206.2 0.12                            44 358 
 BRR  HE ES   2   1614 14.62                             152     0.6 5   44 358 
 BTL  SZ IP       1614  4.25                             147    -0.110   53  64 
 BAR2 SZ IP       1614  4.72                             145     0.010   59 103 
 BAR2 SZ I        1614 17.84       142.9 0.11                            59 103 
 GIR2 SZ IP       1614  5.38                             140     0.010   69  54 
 PAM  SZ EP       1614 11.46                             121    -0.310  131  58 
 PAM  SN ES   2   1614 29.07                             121     0.3 5  131  58 
 PAM  SZ I        1614 30.43        31.9 0.12                           131  58 
 GUE  SZ EP   1   1614 13.29                             117    -0.4 7  151  35 
 GRA  SZ EP       1614 15.56                             114     0.7 9  163  37 
 GRA  SZ ES   2   1614 35.11                             114     0.7 5  163  37 
 GRA  SZ I        1614 37.12       134.3 0.26                           163  37 
 OCA  SZ IP       1614 15.72                             113    -0.4 9  174  14 
 OCA  SZ ES   1   1614 36.53                             113    -0.1 7  174  14 
 OCA  SZ I        1614 38.57       111.7 0.25                           174  14 
 NOR  SZ IP       1614 15.88                             112    -0.9 9  181 226 
 NOR  SN ES   2   1614 37.22                             112    -0.6 4  181 226 
 YOP  SZ EP   1   1614 20.34                             109     0.5 6  207 137 
 YOP  SZ I        1614 45.55        38.0 0.40                           207 137 
 HEL  HZ EP   2   1614 20.35                             109    -0.2 4  210 254 
 HEL  HN ES   2   1614 44.47                             109     0.0 4  210 254 
 HEL  HZ I        1614 47.40        52.3 0.36                           210 254 
 CHI  HZ EP   2   1614 22.76                             107    -0.2 4  230 181 
 CHI  HZ I        1614 25.93        18.6 0.21                           230 181 
 GUY  SZ EP   2   1614 25.85                             106     0.8 4  247 228 
 GUY  SE ES       1614 53.02                             106     0.6 8  247 228 
 GUY  SZ I        1614 58.40        56.1 0.48                           247 228 
 RREF HZ EP   1   1614 28.65                             104     0.6 6  271 222 
 RREF HZ I        1615  6.09        40.7 0.41                           271 222 
 DBB  SZ EP   1   1614 28.97                             103     0.6 6  279 277 
 DBB  SZ I        1615  5.75         5.2 0.37                           279 277 
 PRA  HZ EP   2   1614 37.80                             100     0.1 3  356 202 
 PRA  HZ I        1615 21.79        45.4 0.24                           356 202 
                                                                                
