 2010  529 1856 10.9 L   6.785 -73.007148.0  RSN 12 0.4 2.6LRSN                1
 GAP=150        0.78       4.1     6.5  5.8 -0.1897E+02  0.2810E+01  0.1020E+01E
 Epicentro: CEPITA - SANTANDER                                                 3
 ACTION:UP  10-08-24 10:07 OP:vdl  STATUS:               ID:20100529185611dL   I
 2010-05-29-1854-28S.COL___109                                                 6
 STAT SP IPHASW D HRMM SECON CODA AMPLIT PERI AZIMU VELO SNR AR TRES W  DIS CAZ7
 BAR2 SZ EP       1856 30.60                             168    -0.410   29 222 
 BAR2 SZ ES   1   1856 46.17                             168    -0.4 7   29 222 
 GIR2 SZ EP   1   1856 30.80                             165    -0.3 7   38 328 
 GIR2 SZ ES   2   1856 47.20                             165     0.4 5   38 328 
 GUE  SZ EP       1856 35.98                             140     0.210  116   5 
 GRA  SZ EP   1   1856 36.87                             138     0.7 7  124  10 
 GRA  SZ ES   2   1856 55.23                             138    -0.7 5  124  10 
 OCA  SZ EP       1856 39.87                             129     0.1 9  164 348 
 OCA  SZ ES   2   1857  2.88                             129     0.5 5  164 348 
 OCA  SZ I        1857  7.51        35.5 0.36                           164 348 
 CHI  HZ EP   1   1856 48.68                             117    -0.4 6  251 199 
 CHI  HN ES   1   1857 19.18                             117     0.4 6  251 199 
 CHI  HZ I        1857 23.61        25.4 0.33                           251 199 
 ROSC BZ EP   1   1856 50.18                             116     0.3 6  260 214 
 ROSC BN ES   1   1857 20.88                             116     0.5 6  260 214 
 ROSC BZ I        1857 24.06        27.9 0.43                           260 214 
 HEL  HZ EP   1   1856 52.59                             114    -0.3 6  287 257 
 HEL  HZ I        1857 29.38        24.7 0.51                           287 257 
 RREF BZ EP   1   1856 57.73                             110    -0.7 5  332 231 
 RREF BN ES   1   1857 35.79                             110     0.4 5  332 231 
 RREF BZ I        1857 40.39        28.4 0.49                           332 231 
 SDV  BZ EP       1857  0.04                             109     0.2 6  350  48 
 SDV  BE ES   2   1857 38.06                             109     0.1 3  350  48 
 SDV  BZ I        1857 39.45         9.1 0.35                           350  48 
 TOL  SZ EP   2   1857  0.40                             109     0.0 3  353 227 
 TOL  SZ ES       1857 39.27                             109     0.3 6  353 227 
 DBB  SZ EP   1   1856 59.56                             109    -0.7 5  355 274 
                                                                                
