 2015 1129 1841 54.0 L   6.744 -73.151144.1  RSN  5 0.3 1.5LRSN                1
 GAP=138        0.83       4.4     4.3  6.1 -0.1703E+01  0.3251E+01  0.8930E+00E
 Epicentro: LOS SANTOS - SANTANDER                                             3
 ACTION:UPD 15-12-28 16:14 OP:cam  STATUS:               ID:20151129184154 L   I
 OLDACT:REG 15-11-29 20:34 OP:drio STATUS:               ID:20151129183748     3
 2015-11-29-1837-48M.COL___307                                                 6
 STAT SP IPHASW D HRMM SECON CODA AMPLIT PERI AZIMU VELO AIN AR TRES W  DIS CAZ7
 BAR2 EZ EP       1842 13.41                             173    0.1310 17.1 192 
 BAR2 EZ ES       1842 28.44                             173    0.1010 17.1 192 
 BAR2 EZ I        1842 29.74         8.3 0.14            172           17.1 192 
 BRR  HZ EP       1842 15.00                             151   -0.0810 73.9 303 
 BRR  HN ES       1842 32.12                             151    0.5710 73.9 303 
 PAM  EZ EP       1842 16.35                             149    0.0310 82.7  37 
 PAM  EE ES       1842 33.36                             149   -0.4010 82.7  37 
 PAM  EZ I        1842 35.44         4.5 0.66            152           82.7  37 
 RUS  HZ EP       1842 17.54                             145    0.4310 94.4 175 
 RUS  HN ES       1842 34.93                             145   -0.2310 94.4 175 
 RUS  HZ I        1842 37.41         4.5 0.26            146           94.4 175 
 PTB  HZ EP       1842 20.42                             132   -0.22 9  146 261 
 PTB  HN ES       1842 41.05                             132   -0.39 9  146 261 
 PTB  HZ I        1842 46.02         4.6 0.16            133            146 261 
                                                                                
