 2011  929 1326 56.2 L   6.817 -73.288121.2  RSN  7 0.3 2.1LRSN                1
 GAP=106        0.70       2.7     3.7  4.9  0.3442E+00  0.3666E+01 -0.1482E+01E
 Epicentro: ZAPATOCA - SANTANDER                                               3
 ACTION:UPD 12-07-13 16:00 OP:ep   STATUS:               ID:20110929132656 L   I
 2011-09-29-1322-25S.COL___168                                                 6
 STAT SP IPHASW D HRMM SECON CODA AMPLIT PERI AZIMU VELO AIN AR TRES W  DIS CAZ7
 BAR2 SZ IP       1327 13.32                             166    0.3710 27.5 155 
 BAR2 SZ ES       1327 26.00                             166   -0.0510 27.5 155 
 BRR  HZ EP       1327 13.90                             153    0.0710 56.8 304 
 BRR  HZ I        1327 14.23        32.9 0.14                          56.8 304 
 BRR  HE ES       1327 27.66                             153    0.0410 56.8 304 
 PAM  SZ EP   1   1327 16.43                             142   -0.08 7 87.0  48 
 PAM  SE ES   1   1327 32.96                             142    0.57 7 87.0  48 
 RUS  HZ EP   1   1327 17.99                             137    0.07 7  105 167 
 RUS  HN ES   1   1327 34.43                             137   -0.46 7  105 167 
 RUS  HZ I        1327 37.81        12.4 0.24                           105 167 
 OCA  SZ EP       1327 22.15                             124   -0.23 9  157 359 
 OCA  SZ ES       1327 42.32                             124   -0.51 9  157 359 
 OCA  SZ I        1327 43.43        39.9 0.16                           157 359 
 ZAR  HZ EP   2   1327 25.19                             119   -0.28 4  189 293 
 ZAR  HN ES   1   1327 48.78                             119    0.44 7  189 293 
 ZAR  HZ I        1327 52.42         8.4 0.18                           189 293 
 NOR  SZ EP   1   1327 29.53                             114    0.23 6  223 232 
 NOR  SN ES   2   1327 54.65                             114   -0.50 4  223 232 
                                                                                
