 2011  729 1133 57.8 L   6.771 -73.090137.3  RSN  4 0.2 1.5LRSN                1
 GAP=165        0.43       2.5     5.2  5.0 -0.8996E-02 -0.7071E+01 -0.2213E+01E
 Epicentro: LOS SANTOS - SANTANDER                                             3
 *BAR2-BRR-RUS-GRA                                                             3
 ACTION:UPD 12-07-25 14:04 OP:epov STATUS:               ID:20110729113357 L   I
 2011-07-29-1130-45S.COL___141                                                 6
 STAT SP IPHASW D HRMM SECON CODA AMPLIT PERI AZIMU VELO AIN AR TRES W  DIS CAZ7
 BAR2 SZ ES   1   1134 30.62                             170   -0.32 7 22.2 207 
 BRR  HZ EP   1   1134 18.52                             149    0.01 7 78.2 298 
 BRR  HZ I        1134 18.90        14.1 0.12                          78.2 298 
 BRR  HN ES   1   1134 34.72                             149    0.09 7 78.2 298 
 RUS  HZ EP   1   1134 20.43                             143   -0.09 7 97.1 180 
 RUS  HE ES   1   1134 38.46                             143    0.26 7 97.1 180 
 RUS  HZ I        1134 40.18         2.2 0.23                          97.1 180 
 GRA  SZ EP   1   1134 22.37                             135   -0.10 7  127  14 
 GRA  SZ ES   1   1134 41.83                             135    0.15 7  127  14 
 GRA  SZ I        1134 43.25         4.9 0.41                           127  14 
                                                                                
