 2013  329 1414 10.3 L   6.741 -73.532114.7  RSN  6 0.4 1.7LRSN                1
 GAP=106        1.10       5.3     4.4  8.5 -0.1666E+01  0.1554E+01  0.1184E+01E
 Epicentro: EL CARMEN DE CHUCURI - SANTANDER                                   3
 ACTION:UPD 13-04-09 14:05 OP:ep   STATUS:               ID:20130329141410 L   I
 2013-03-29-1410-00M.COL___245                                                 6
 STAT SP IPHASW D HRMM SECON CODA AMPLIT PERI AZIMU VELO AIN AR TRES W  DIS CAZ7
 BAR2 SZ IP       1414 27.07                             159    0.1510 42.0 113 
 BAR2 SZ ES       1414 39.37                             159   -0.4710 42.0 113 
 BAR2 SZ I        1414 43.06         9.7 0.28            159           42.0 113 
 BRR  HZ EP       1414 27.13                             157    0.4210 45.1 334 
 BRR  HN ES       1414 40.18                             157    0.7110 45.1 334 
 PTB  HZ IP     C 1414 30.84                             134   -0.0510  105 258 
 PTB  HN ES       1414 46.27                             134   -0.6410  105 258 
 PTB  HN I        1414 46.71        16.8 0.30            133            105 258 
 RUS  HZ EP   1   1414 31.74                             134    0.07 7  106 152 
 RUS  HE ES       1414 48.69                             134    0.3910  106 152 
 RUS  HE I        1414 48.92        11.2 0.42            134            106 152 
 PAM  SZ EP       1414 32.15                             132   -0.1510  113  54 
 PAM  SE ES       1414 48.98                             132   -0.4410  113  54 
 PAM  SE I        1414 51.60         6.9 0.58            133            113  54 
 HEL  HZ EP   4   1414 47.74                             112    3.49 0  229 255 
 HEL  HN ES   4   1415 13.46                             112    2.77 0  229 255 
 HEL  HN I        1415 18.23         3.1 0.22            111            229 255 
                                                                                
