 2017 1029 1942 36.1 L   6.760 -73.130144.0  RSN  6 0.2 1.4LRSN                1
 GAP=140        0.65       3.5     3.4  5.1 -0.8363E+00  0.5886E+01  0.3818E+01E
 Epicentro: LOS SANTOS - SANTANDER                                             3
 ACTION:UPD 17-11-07 19:39 OP:rebc STATUS:               ID:20171029194236 L   I
 OLDACT:REG 17-10-29 20:35 OP:dani STATUS:               ID:20171029193736     3
 2017-10-29-1938-00M.COL___437                                                 6
 STAT SP IPHASW D HRMM SECON CODA AMPLIT PERI AZIMU VELO AIN AR TRES W  DIS CAZ7
 BAR2 EZ EP       1942 55.21                             172   -0.2110 19.4 197 
 BAR2 EZ ES       1943 10.53                             172    0.0210 19.4 197 
 BAR2 EZ I        1943 11.51        10.0 0.58            170           19.4 197 
 BRR  HZ EP       1942 57.58                             151    0.3310 74.9 301 
 BRR  HE ES       1943 14.10                             151    0.3310 74.9 301 
 PAM  EE ES       1943 15.20                             150   -0.3610 79.8  37 
 RUS  HZ EP       1942 59.46                             145    0.1310 96.0 177 
 RUS  HN ES       1943 17.60                             145    0.1310 96.0 177 
 RUS  HZ I        1943 19.52         4.0 0.42            145           96.0 177 
 PTB  HZ EP       1943  3.02                             131    0.03 9  149 261 
 PTB  HE ES       1943 23.65                             131   -0.32 9  149 261 
 PTB  HZ I        1943 26.04         1.6 0.24            132            149 261 
 GUY2CHZ EP   4   1943 21.73                             112    2.25 0  300 236 
 GUY2CHE ES       1943 53.11                             112   -0.22 7  300 236 
                                                                                
