 2015  429 1723 24.0 L   6.814 -73.217134.4  RSN  7 0.4 1.6LRSN                1
 GAP=127        0.79       2.9     4.1  8.0 -0.6998E+00  0.1980E+02  0.5317E+00E
 Epicentro: ZAPATOCA - SANTANDER                                               3
 ACTION:UPD 15-06-03 16:58 OP:cam  STATUS:               ID:20150429172324 L   I
 OLDACT:REG 15-04-29 23:51 OP:ak   STATUS:               ID:20150429172147     3
 2015-04-29-1721-47M.COL___271                                                 6
 STAT SP IPHASW D HRMM SECON CODA AMPLIT PERI AZIMU VELO AIN AR TRES W  DIS CAZ7
 PAM  SZ IP     D 1723 45.65                             147    0.3210 81.5  44 
 PAM  SN ES       1724  1.81                             147   -0.1110 81.5  44 
 PAM  SZ I        1724  3.51         4.4 0.21            157           81.5  44 
 RUS  HZ EP       1723 46.81                             140   -0.0610  103 172 
 RUS  HN ES       1724  4.65                             140   -0.0310  103 172 
 RUS  HZ I        1724  8.16        10.3 0.20            146            103 172 
 PTB  HZ EP       1723 48.94                             131   -0.47 9  140 258 
 ZAR  HZ EP   2   1723 55.54                             121    0.60 4  196 293 
 ZAR  HN ES       1724 18.61                             121   -0.43 9  196 293 
 ZAR  HZ I        1724 27.07         4.7 0.11            125            196 293 
 NOR  HZ EP       1723 58.65                             116    0.11 8  229 233 
 NOR  HN ES       1724 26.08                             116    0.63 8  229 233 
 NOR  HZ I        1724 32.28         2.7 0.23            121            229 233 
 SML  HZ EP   2   1723 58.73                             115   -0.82 4  239 337 
 SML  HE ES       1724 27.70                             115    0.46 8  239 337 
 GUY2CHZ EP       1724  6.27                             110   -0.25 7  296 234 
 GUY2CHN ES   2   1724 39.56                             110   -0.09 4  296 234 
 GUY2CHZ I        1724 49.09         2.5 0.54                           296 234 
                                                                                
