 2011  529 1510 28.5 L   6.762 -73.060148.8  RSN  6 0.2 2.0LRSN                1
 GAP=166        0.44       2.7     4.4  4.1 -0.3346E+01 -0.6602E+01  0.3256E+00E
 Epicentro: LOS SANTOS - SANTANDER                                             3
 ACTION:UP  11-06-29 08:57 OP:tino STATUS:               ID:20110529151028 L   I
 2011-05-29-1508-52S.COL___113                                                 6
 STAT SP IPHASW D HRMM SECON CODA AMPLIT PERI AZIMU VELO SNR AR TRES W  DIS CAZ7
 BAR2 SZ EP       1510 48.41                             171    -0.110   23 216 
 BAR2 SZ ES   1   1511  4.17                             171     0.1 7   23 216 
 BAR2 SZ I        1511  6.55        14.8 0.58                            23 216 
 BRR  HZ EP       1510 50.30                             150    -0.310   81 298 
 BRR  HZ I        1510 50.64        36.1 0.11                            81 298 
 BRR  HN ES       1511  7.90                             150     0.110   81 298 
 RUS  HZ EP   2   1510 52.44                             146     0.2 5   96 182 
 RUS  HE ES   2   1511 10.56                             146    -0.2 5   96 182 
 BRI  SZ EP       1510 52.89                             142     0.210  109  15 
 GRA  SZ EP       1510 54.23                             137     0.110  127  13 
 GRA  SZ ES   1   1511 13.89                             137    -0.2 7  127  13 
 GRA  SZ I        1511 16.24         7.3 0.31                           127  13 
 PRA  HZ EP   2   1511 22.33                             107     0.1 3  393 211 
 PRA  HN ES   2   1512  4.23                             107     0.1 3  393 211 
                                                                                
