 2010  329 1832 44.0 L   6.861 -73.015144.0  RSN  6 0.3 2.1LRSN                1
 GAP=196        0.46       2.7     8.3  5.2  0.1389E+01 -0.3091E+01  0.2084E+01E
 Epicentro: CEPITA - SANTANDER                                                 3
 ACTION:UP  10-08-24 09:56 OP:vdl  STATUS:               ID:20100329183244 L   I
 2010-03-29-1831-25S.COL___098                                                 6
 STAT SP IPHASW D HRMM SECON CODA AMPLIT PERI AZIMU VELO SNR AR TRES W  DIS CAZ7
 BAR2 SZ EP   1   1833  3.70                             166     0.0 7   35 212 
 BAR2 SZ ES   2   1833 18.66                             166    -0.4 5   35 212 
 BRR  HZ EP   1   1833  5.67                             149     0.1 7   82 289 
 BRR  HE ES   2   1833 22.59                             149     0.2 5   82 289 
 BRR  HZ I        1833 23.50        29.5 0.13                            82 289 
 RUS  HZ EP   1   1833  8.13                             142     0.0 7  107 184 
 RUS  HE ES   2   1833 27.37                             142     0.5 5  107 184 
 RUS  HZ I        1833 28.64         9.9 0.32                           107 184 
 OCA  SZ EP   1   1833 11.99                             130     0.2 7  156 348 
 OCA  SZ ES   2   1833 33.06                             130    -0.4 5  156 348 
 CHI  HZ EP   1   1833 22.48                             116    -0.3 6  259 198 
 CHI  HN ES   2   1833 52.74                             116    -0.3 4  259 198 
 CHI  HZ I        1834  0.85         4.7 0.53                           259 198 
 PRA  HZ EP   1   1833 38.94                             106    -0.1 4  405 211 
 PRA  HN ES   2   1834 22.13                             106     0.2 3  405 211 
 PRA  HZ I        1834 27.84         6.5 0.28                           405 211 
                                                                                
