 2017  329 1447 41.4 L   6.735 -73.129146.0  RSN 11 0.4 2.0LRSN                1
 GAP=123        0.76       2.9     3.8  4.7  0.2018E+01  0.5548E+01  0.3168E+01E
 Epicentro: JORDAN - SANTANDER                                                 3
 ACTION:UPD 17-05-25 18:46 OP:jn   STATUS:               ID:20170329144742dL   I
 OLDACT:UP  17-03-29 22:36 OP:ansd STATUS:               ID:20170329143747     3
 OLDACT:UP  17-03-29 22:36 OP:ansd STATUS:               ID:20170329143747     3
 OLDACT:UP  17-03-29 22:35 OP:ansd STATUS:               ID:20170329143747     3
 OLDACT:UP  17-03-29 22:35 OP:ansd STATUS:               ID:20170329143747     3
 OLDACT:UP  17-03-29 22:33 OP:ansd STATUS:               ID:20170329143747     3
 OLDACT:UP  17-03-29 22:33 OP:ansd STATUS:               ID:20170329143747     3
 OLDACT:UP  17-03-29 22:32 OP:ansd STATUS:               ID:20170329143747     3
 OLDACT:UP  17-03-29 22:32 OP:ansd STATUS:               ID:20170329143747     3
 OLDACT:UP  17-03-29 22:32 OP:ansd STATUS:               ID:20170329143747     3
 OLDACT:REG 17-03-29 20:07 OP:and  STATUS:               ID:20170329143747     3
 2017-03-29-1438-00M.COL___362                                                 6
 STAT SP IPHASW D HRMM SECON CODA AMPLIT PERI AZIMU VELO AIN AR TRES W  DIS CAZ7
 BAR2 EZ EP       1448  1.09                             173    0.1010 16.8 200 
 BAR2 EZ ES       1448 15.90                             173   -0.3410 16.8 200 
 BAR2 EZ I        1448 17.85        41.1 0.28            172           16.8 200 
 BRR  HZ IP     C 1448  2.93                             151    0.0010 76.4 303 
 BRR  HN ES       1448 20.24                             151    0.5610 76.4 303 
 BRR  HZ I        1448 23.49        26.0 0.36            151           76.4 303 
 PAM  EZ IP     C 1448  4.16                             150    0.1910 82.0  35 
 PAM  EN ES       1448 21.38                             150   -0.1610 82.0  35 
 PAM  EZ I        1448 24.12        19.4 0.54            152           82.0  35 
 RUS  HZ EP       1448  4.68                             146   -0.0310 93.3 177 
 RUS  HN ES       1448 23.03                             146    0.1810 93.3 177 
 RUS  HZ I        1448 24.18        15.4 0.54            147           93.3 177 
 PTB  HZ EP       1448  7.70                             132   -0.79 9  148 262 
 PTB  HN ES   3   1448 28.27                             132   -1.31 2  148 262 
 PTB  HZ I        1448 29.72        15.7 0.14            132            148 262 
 ZAR  HZ EP       1448 14.31                             122   -0.06 8  209 294 
 ZAR  HN ES       1448 40.09                             122    0.04 8  209 294 
 ZAR  HZ I        1448 42.93        12.7 0.10            123            209 294 
 CHI  HZ EP       1448 18.88                             118    0.42 8  242 196 
 CHI  HN ES       1448 47.34                             118    0.01 8  242 196 
 CHI  HZ I        1448 51.76         3.4 0.42            119            242 196 
 PTGC HZ EP   2   1448 23.70                             112   -0.78 4  301 158 
 CBOC HZ EP   3   1448 29.04                             110    0.71 2  333 253 
 CBOC HN ES   2   1449  5.24                             110    0.35 3  333 253 
 CBOC HZ I        1449  6.67         1.8 0.20            111            333 253 
 PRA  HZ EP   3   1448 35.44                             107    1.09 1  387 210 
 PRA  HN ES   4   1449 17.94                             107    2.32 0  387 210 
 PRA  HZ I        1449 20.98         3.3 0.26            108            387 210 
 SJC  HZ EP   9   1448 35.79                             105   -2.06 0  416 327 
 SJC  HN ES       1449 19.72                             106   -0.06 5  416 327 
                                                                                
