 2017  429 1753 52.2 L   6.765 -73.132144.0  RSN  6 0.5 1.6LRSN                1
 GAP=140        1.19       5.4     5.1  9.4 -0.1777E+01  0.1323E+02  0.2697E+01E
 Epicentro: LOS SANTOS - SANTANDER                                             3
 ACTION:UPD 17-05-30 21:17 OP:jn   STATUS:               ID:20170429175352 L   I
 OLDACT:UP  17-04-29 22:50 OP:dani STATUS:               ID:20170429174739     3
 OLDACT:REG 17-04-29 21:27 OP:dani STATUS:               ID:20170429174739     3
 2017-04-29-1748-00M.COL___361                                                 6
 STAT SP IPHASW D HRMM SECON CODA AMPLIT PERI AZIMU VELO AIN AR TRES W  DIS CAZ7
 BRR  HZ IP     C 1754 13.35                             151   -0.0310 74.4 301 
 BRR  HN ES       1754 30.41                             151    0.5410 74.4 301 
 BRR  HZ I        1754 35.23         9.5 0.44            150           74.4 301 
 PAM  EZ EP       1754 14.22                             150   -0.1710 79.5  37 
 PAM  EN ES       1754 31.64                             150   -0.0310 79.5  37 
 PAM  EZ I        1754 33.55         4.0 0.54            154           79.5  37 
 RUS  HZ EP       1754 15.51                             145   -0.0210 96.6 177 
 RUS  HN ES       1754 33.68                             145   -0.0210 96.6 177 
 RUS  HZ I        1754 34.80         5.0 0.42            150           96.6 177 
 PTB  HZ EP       1754 18.53                             131   -0.60 9  149 260 
 PTB  HN ES       1754 39.45                             131   -0.66 9  149 260 
 PTB  HZ I        1754 46.26         4.5 0.38            133            149 260 
 ZAR  HZ EP       1754 25.86                             122    0.99 8  207 293 
 ZAR  HN ES       1754 49.86                             122   -0.45 8  207 293 
 ZAR  HZ I        1754 56.79         5.4 0.12            124            207 293 
 NOR  HN ES       1754 56.13                             118    0.67 8  234 235 
                                                                                
