 2016  229 1320 22.0 L   6.769 -73.133145.6  RSN  6 0.5 1.9LRSN                1
 GAP=139        1.29       5.5     6.1  9.5  0.8840E-01  0.1617E+02  0.8985E+01E
 Epicentro: LOS SANTOS - SANTANDER                                             3
 ACTION:UPD 16-03-04 21:30 OP:rebc STATUS:               ID:20160229132022 L   I
 OLDACT:DUP 16-02-29 23:20 OP:ar   STATUS:               ID:20160229131750d    3
 OLDACT:UP  16-02-29 23:15 OP:ar   STATUS:               ID:20160229131749     3
 OLDACT:REG 16-02-29 20:54 OP:ar   STATUS:               ID:20160229131749     3
 2016-02-29-1317-49M.COL___315                                                 6
 STAT SP IPHASW D HRMM SECON CODA AMPLIT PERI AZIMU VELO AIN AR TRES W  DIS CAZ7
 BAR2 EZ EP       1320 41.71                             172    0.1210 20.3 195 
 BAR2 EZ ES       1320 56.48                             172   -0.3610 20.3 195 
 BAR2 EZ I        1320 57.63        20.9 0.30            169           20.3 195 
 PAM  EZ EP       1320 44.49                             150    0.1410 79.2  37 
 PAM  EN ES       1321  1.50                             150   -0.2410 79.2  37 
 RUS  HZ EP       1320 46.06                             145    0.5310 97.1 177 
 RUS  HN ES       1321  4.33                             145    0.4910 97.1 177 
 RUS  HZ I        1321  5.05        10.5 0.26            144           97.1 177 
 PTB  HZ EP       1320 48.34                             132   -0.72 9  148 260 
 PTB  HN ES       1321  9.53                             132   -0.60 9  148 260 
 PTB  HZ I        1321 12.03        13.0 0.14            130            148 260 
 ZAR  HN ES       1321 21.28                             122    1.04 8  207 293 
 ZAR  HZ I        1321 25.97        16.0 0.54            121            207 293 
 CHI  HZ EP       1320 58.77                             117   -0.64 8  246 196 
 CHI  HN ES       1321 28.76                             117    0.20 8  246 196 
 CHI  HZ I        1321 34.80         3.0 0.26            117            246 196 
                                                                                
