 2015 1029 1735 26.6 L   6.817 -73.134150.6  RSN 20 0.4 2.7LRSN                1
 GAP= 71        0.92       2.5     2.7  4.4 -0.5218E+00  0.3601E+01  0.3747E+00E
 Epicentro: LOS SANTOS - SANTANDER                                             3
 ACTION:UPD 15-12-22 20:43 OP:cam  STATUS:               ID:20151029173526 L   I
 OLDACT:UP  15-10-30 02:21 OP:ar   STATUS:               ID:20151029172750     3
 OLDACT:UP  15-10-30 02:17 OP:ar   STATUS:               ID:20151029172750     3
 OLDACT:REG 15-10-30 00:12 OP:ar   STATUS:               ID:20151029172750     3
 2015-10-29-1727-50M.COL___319                                                 6
 STAT SP IPHASW D HRMM SECON CODA AMPLIT PERI AZIMU VELO AIN AR TRES W  DIS CAZ7
 BAR2 EZ IP     D 1735 46.69                             170   -0.1810 25.4 192 
 BAR2 EZ ES       1736  2.81                             170    0.1410 25.4 192 
 BAR2 EZ I        1736  6.03        61.2 0.22            167           25.4 192 
 BRR  HZ IP     D 1735 48.53                             153    0.2210 71.4 297 
 BRR  HN ES       1736  6.00                             153    0.7810 71.4 297 
 BRR  HZ I        1736  9.09        93.7 0.10            152           71.4 297 
 PAM  EZ EP       1735 49.42                             152    0.2010 75.2  40 
 PAM  EE ES       1736  6.69                             152   -0.1610 75.2  40 
 PAM  EZ I        1736  8.93        44.6 0.46            157           75.2  40 
 RUS  HZ EP       1735 50.63                             144   -0.3510  102 177 
 RUS  HN ES       1736  9.57                             144   -0.4010  102 177 
 RUS  HZ I        1736 10.34        37.3 0.22            145            102 177 
 TAM  HZ EP       1735 54.77                             132    0.15 9  154 106 
 TAM  HN ES     D 1736 16.74                             132    0.28 9  154 106 
 TAM  HZ I        1736 16.94        25.3 0.30            136            154 106 
 OCA  HZ EP       1735 55.01                             131   -0.15 9  159 353 
 OCA  HE ES       1736 16.98                             131   -0.43 9  159 353 
 OCA  HZ I        1736 21.11       139.6 0.20            134            159 353 
 SPBC HZ EP       1735 55.67                             130   -0.03 9  165 219 
 SPBC HN ES       1736 18.31                             130   -0.07 9  165 219 
 SPBC HZ I        1736 24.25        51.7 0.28            130            165 219 
 ZAR  HZ EP       1735 59.56                             123    0.12 9  205 292 
 ZAR  HN ES       1736 25.09                             123    0.06 9  205 292 
 ZAR  HZ I        1736 30.51       115.1 0.32            124            205 292 
 NOR  HZ EP       1736  2.64                             119   -0.22 8  237 234 
 NOR  HE ES       1736 31.16                             119    0.04 8  237 234 
 NOR  HZ I        1736 36.49        37.1 0.70            120            237 234 
 SML  HZ EP       1736  3.12                             119   -0.28 8  243 335 
 SML  HN ES   4   1736 33.19                             119    1.11 0  243 335 
 SML  HZ I        1736 36.09        70.6 0.10            120            243 335 
 CHI  HZ EP       1736  4.89                             118    0.07 8  251 195 
 CHI  HN ES       1736 34.02                             118   -0.59 8  251 195 
 CHI  HZ I        1736 44.11        14.8 0.36            119            251 195 
 ROSC BZ EP   4   1736  7.41                             117    2.16 0  255 211 
 ROSC BN ES   4   1736 37.42                             117    2.04 0  255 211 
 ROSC BZ I        1736 41.88        42.6 0.35            118            255 211 
 HEL  HZ EP   4   1736  9.07                             116    1.80 0  274 255 
 HEL  HN ES       1736 38.79                             116   -0.18 8  274 255 
 HEL  HZ I        1736 46.03        26.4 0.56            116            274 255 
 URE  HZ EP       1736  7.33                             114   -0.65 7  284 291 
 URE  HN ES   4   1736 37.76                             114   -2.48 0  284 291 
 URE  HZ I        1736 42.43        42.9 0.16            115            284 291 
 GUY2CHZ EP       1736 11.59                             113    0.90 7  303 235 
 GUY2CHN ES   4   1736 47.20                             113    2.13 0  303 235 
 GUY2CHZ I        1736 55.61        28.4 0.54                           303 235 
 DBB  SZ EP       1736 15.42                             110    0.99 7  341 274 
 DBB  SZ ES       1736 51.10                             110   -0.61 7  341 274 
 MON  HZ EP   4   1736 13.88                             109   -1.92 0  354 308 
 MON  HN ES   4   1736 51.68                             109   -2.47 0  354 308 
 MON  HZ I        1736 56.38        10.9 0.74            111            354 308 
 ANIL HZ EP   9   1736 18.83                             109    1.96 0  360 224 
 ANIL HN ES       1736 57.94                             109   -0.08 6  360 224 
 ANIL HZ I        1737  7.97        48.1 0.50            110            360 224 
 ORTC HZ EP   4   1736 22.57                             107    1.60 0  398 216 
 ORTC HN ES       1737  4.18                             107    0.82 6  398 216 
 ORTC HZ I        1737  7.51        10.5 0.48            108            398 216 
 SJC  HZ EP   4   1736 20.46                             107   -1.79 0  408 327 
 SJC  HN ES   4   1737  1.89                             107   -3.74 0  408 327 
 SJC  HZ I        1737  6.92         7.1 0.44            108            408 327 
                                                                                
