 2015  329 1938 25.6 L   6.800 -73.120142.3  RSN 11 0.5 2.1LRSN                1
 GAP=140        1.24       3.5     4.9  6.6 -0.3822E+01  0.1010E+02 -0.1674E+01E
 Epicentro: LOS SANTOS - SANTANDER                                             3
 ACTION:UPD 15-04-30 16:30 OP:nd   STATUS:               ID:20150329193825 L   I
 OLDACT:REG 15-03-29 20:54 OP:fm   STATUS:               ID:20150329192744     3
 2015-03-29-1927-44M.COL___290                                                 6
 STAT SP IPHASW D HRMM SECON CODA AMPLIT PERI AZIMU VELO AIN AR TRES W  DIS CAZ7
 BAR2 EZ EP       1938 45.06                             170    0.2810 24.0 197 
 BAR2 EZ ES       1938 59.64                             170   -0.1310 24.0 197 
 BAR2 EZ I        1939  1.74        22.7 0.20            170           24.0 197 
 BRR  HZ IP     C 1938 46.99                             151    0.5210 73.7 297 
 BRR  HN ES       1939  3.97                             151    1.1810 73.7 297 
 BRR  HZ I        1939  5.42        23.9 0.10            149           73.7 297 
 PAM  SZ EP     C 1938 47.90                             151    0.6110 75.6  38 
 PAM  SE ES       1939  4.14                             151   -0.1010 75.6  38 
 PAM  SZ I        1939  6.65        11.3 0.22            153           75.6  38 
 RUS  HZ EP       1938 48.97                             143    0.0110  100 178 
 RUS  HN ES       1939  6.79                             143   -0.4110  100 178 
 RUS  HZ I        1939  8.47         7.8 0.22            147            100 178 
 PTB  HZ EP       1938 51.86                             131   -0.64 9  151 259 
 PTB  HE ES       1939 12.89                             131   -0.63 9  151 259 
 PTB  HZ I        1939 17.57        16.0 0.10            131            151 259 
 OCA  HZ EP       1938 53.55                             129   -0.08 9  161 352 
 OCA  HN ES       1939 14.92                             129   -0.61 9  161 352 
 OCA  HZ I        1939 20.97        29.6 0.38            130            161 352 
 SPBC HZ EP       1938 54.03                             128    0.06 9  165 220 
 SPBC HE ES       1939 15.45                             128   -0.67 9  165 220 
 SPBC HZ I        1939 22.67        23.5 0.10            130            165 220 
 ZAR  HZ EP       1938 57.75                             121   -0.30 8  207 292 
 ZAR  HE ES       1939 23.67                             121    0.27 8  207 292 
 ZAR  HZ I        1939 29.24        22.0 0.32            122            207 292 
 NOR  HZ EP       1939  1.32                             117   -0.02 8  237 235 
 NOR  HN ES       1939 29.51                             117    0.26 8  237 235 
 NOR  HZ I        1939 32.09        12.1 0.16            119            237 235 
 SML  HZ EP       1939  2.25                             117    0.13 8  245 335 
 SML  HE ES       1939 29.86                             117   -0.78 8  245 335 
 SML  HZ I        1939 37.24        13.3 0.10            118            245 335 
 GUY2CHZ EP       1939  9.52                             111    0.25 7  304 235 
 GUY2CHN ES       1939 44.09                             111    0.72 7  304 235 
 GUY2CHZ I        1939 51.63         8.5 0.42                           304 235 
                                                                                
