 2017  929 1443  8.7 L   6.793 -73.144141.3  RSN  8 0.4 1.6LRSN                1
 GAP=137        0.98       4.3     4.9  7.3 -0.5086E+01  0.1992E+02 -0.2319E+01E
 Epicentro: LOS SANTOS - SANTANDER                                             3
 ACTION:UPD 17-10-05 19:17 OP:rebc STATUS:               ID:20170929144308 L   I
 OLDACT:REG 17-09-29 20:15 OP:osc  STATUS:               ID:20170929143010     3
 2017-09-29-1438-00M.COL___452                                                 6
 STAT SP IPHASW D HRMM SECON CODA AMPLIT PERI AZIMU VELO AIN AR TRES W  DIS CAZ7
 BAR2 EZ EP       1443 27.47                             170   -0.3210 22.7 191 
 BAR2 EZ ES       1443 42.82                             170    0.1510 22.7 191 
 BAR2 EZ I        1443 44.76         9.8 0.22            170           22.7 191 
 BRR  HZ EP       1443 29.30                             151   -0.1110 71.7 299 
 BRR  HE ES   4   1443 43.18                             151   -2.37 0 71.7 299 
 PAM  EZ EP       1443 30.22                             150   -0.2610 77.8  39 
 PAM  EE ES       1443 47.37                             150   -0.0910 77.8  39 
 PAM  EZ I        1443 48.94         6.3 0.18            154           77.8  39 
 RUS  HZ EP       1443 31.92                             143   -0.0510 99.8 176 
 RUS  HN ES       1443 50.45                             143    0.3410 99.8 176 
 RUS  HZ I        1443 52.05         5.7 0.32            145           99.8 176 
 SPBC HE ES   2   1443 59.50                             128    0.74 5  163 219 
 ZAR  HZ EP       1443 41.88                             121    0.96 9  205 292 
 ZAR  HE ES       1444  5.98                             121   -0.06 9  205 292 
 ZAR  HZ I        1444  8.11         6.6 0.10            123            205 292 
 NOR  HZ EP       1443 43.83                             118   -0.33 8  234 235 
 NOR  HE ES       1444 11.42                             118   -0.39 8  234 235 
 NOR  HZ I        1444 17.48         2.6 0.18            119            234 235 
 GUY2CHZ EP       1443 52.83                             111    0.74 7  301 235 
 GUY2CHE ES       1444 25.23                             111   -0.70 7  301 235 
 GUY2CHZ I        1444 34.02         2.2 0.32                           301 235 
                                                                                
