 2012  229 1106 53.4 L   6.788 -73.084147.3  RSN 15 0.4 3.0LRSN                1
 GAP=131        0.69       3.4     4.6  4.5 -0.3957E+01  0.5474E+01  0.3310E+01E
 ACTION:UP  12-03-07 16:35 OP:epov STATUS:               ID:20120229110653 L   I
 2012-02-29-1100-00M.COL___191                                                 6
 STAT SP IPHASW D HRMM SECON CODA AMPLIT PERI AZIMU VELO AIN AR TRES W  DIS CAZ7
 BAR2 SZ IP       11 7 13.27                             170    0.0110 24.2 207 
 BAR2 SZ ES   1   11 7 28.32                             170   -0.41 7 24.2 207 
 BAR2 SZ I        11 7 29.98       270.7 0.38                          24.2 207 
 PAM  SZ EP   1   11 7 15.98                             152    0.35 7 74.3  35 
 PAM  SZ I        11 7 16.26       177.2 0.19                          74.3  35 
 PAM  SE ES   1   11 7 33.14                             152    0.20 7 74.3  35 
 BRR  HZ IP     C 11 7 15.08                             151   -0.0510 77.9 297 
 BRR  HZ I        11 7 15.47       199.5 0.13                          77.9 297 
 BRR  HE ES   1   11 7 32.27                             151    0.22 7 77.9 297 
 RUS  HZ EP   1   11 7 17.14                             144   -0.08 7 99.0 180 
 RUS  HN ES   1   11 7 35.64                             144   -0.13 7 99.0 180 
 RUS  HZ I        11 7 38.69        52.0 0.39                          99.0 180 
 ZAR  HZ EP   1   11 7 26.09                             122   -0.59 6  211 292 
 ZAR  HZ I        11 7 56.66        80.9 0.55                           211 292 
 NOR  SZ EP   1   11 7 29.03                             118   -0.74 6  240 236 
 NOR  SN ES   1   11 7 57.88                             118   -0.23 6  240 236 
 CHI  HZ EP   1   11 7 31.32                             117    0.04 6  249 197 
 CHI  HN ES   1   11 8  1.34                             117    0.54 6  249 197 
 ROSC BZ EP   1   11 7 32.55                             117    0.65 6  255 213 
 ROSC BZ I        11 8 10.88       109.9 0.40                           255 213 
 HEL  HZ EP   1   11 7 35.16                             114    0.74 6  278 256 
 HEL  HZ I        11 8 12.21        50.8 0.33                           278 256 
 VIL  SZ EP   1   11 7 36.49                             112   -0.45 5  304 193 
 VIL  SZ I        11 8 16.68        41.3 0.39                           304 193 
 GUY  SZ EP   1   11 7 38.02                             112    0.09 5  308 236 
 GUY  SZ I        11 8 21.33        68.3 0.43                           308 236 
 RREF HZ EP   1   11 7 40.39                             111    0.25 5  326 230 
 TOL  SZ EP   1   11 7 42.99                             109    0.79 5  347 226 
 SDV  BZ EP   1   11 7 42.60                             109   -0.43 5  356  49 
 PRA  HZ EP   1   11 7 46.66                             107   -0.61 4  394 211 
 PRA  HE ES   2   11 8 28.67                             107   -0.59 3  394 211 
                                                                                
