 2012 1129 1319 23.1 L   6.806 -73.165141.9  RSN  9 0.3 2.5LRSN                1
 GAP=134        0.57       2.1     3.0  4.0 -0.6521E+00  0.5030E+01  0.9458E-02E
 Epicentro: LOS SANTOS - SANTANDER                                             3
 ACTION:UPD 12-12-05 15:37 OP:}ep  STATUS:               ID:20121129131923 L   I
 2012-11-29-1314-50M.COL___201                                                 6
 STAT SP IPHASW D HRMM SECON CODA AMPLIT PERI AZIMU VELO AIN AR TRES W  DIS CAZ7
 BAR2 SZ EP       1319 42.50                             170    0.1810 23.8 185 
 BAR2 SZ ES       1319 57.13                             170   -0.1510 23.8 185 
 BAR2 SZ I        1319 58.89        73.6 0.26                          23.8 185 
 GIR2 SZ EP       1319 42.35                             167    0.0210 30.3 354 
 PAM  SZ EP       1319 45.17                             150    0.1710 78.2  41 
 PAM  SN ES       1320  2.06                             150    0.0110 78.2  41 
 PAM  SZ I        1320  4.49       102.7 0.43                          78.2  41 
 RUS  HZ EP       1319 46.67                             143    0.0910  101 175 
 RUS  HN ES       1320  4.91                             143    0.0410  101 175 
 RUS  HN I        1320  8.90        28.1 0.42                           101 175 
 PTB  HZ EP       1319 49.13                             131   -0.49 9  146 258 
 PTB  HE ES   1   1320 10.15                             131   -0.13 7  146 258 
 PTB  HZ I        1320 15.95        41.1 0.25                           146 258 
 OCA  HZ EP   1   1319 50.40                             129   -0.67 7  159 354 
 OCA  HE ES   1   1320 12.99                             129    0.14 7  159 354 
 ZAR  HZ EP       1319 55.33                             122    0.22 9  202 292 
 ZAR  HN ES   1   1320 20.40                             122    0.36 6  202 292 
 ZAR  HZ I        1320 26.35        33.9 0.23                           202 292 
 CHI  HZ EP   1   1320  0.91                             116    0.26 6  249 195 
 CHI  HN ES   1   1320 29.75                             116   -0.15 6  249 195 
 CHI  HZ I        1320 35.91         9.8 0.41                           249 195 
 PRA  HZ EP   1   1320 16.30                             106   -0.18 4  392 209 
 PRA  HE ES   1   1320 58.53                             106    0.44 4  392 209 
 PRA  HZ I        1321  6.34        17.6 0.34                           392 209 
                                                                                
