 2011 1129 1034 35.9 L   6.762 -73.075142.0  RSN  4 0.2 1.6LRSN                1
 GAP=148        0.49       3.8     5.7  6.1  0.4408E+01 -0.4667E+01 -0.2781E+01E
 Epicentro: LOS SANTOS - SANTANDER                                             3
 ACTION:UPD 12-07-13 16:13 OP:ep   STATUS:               ID:20111129103435 L   I
 2011-11-29-1031-04S.COL___157                                                 6
 STAT SP IPHASW D HRMM SECON CODA AMPLIT PERI AZIMU VELO AIN AR TRES W  DIS CAZ7
 BAR2 SZ ES   2   1035  9.58                             171   -0.42 5 22.2 212 
 BAR2 SZ I        1035 11.47         5.4 0.38                          22.2 212 
 PAM  SZ EP   1   1034 57.80                             151    0.15 7 76.2  33 
 PAM  SE ES   2   1035 14.60                             151    0.00 5 76.2  33 
 BRR  HZ EP       1034 56.95                             149   -0.2310 80.1 299 
 BRR  HN ES   1   1035 14.10                             149    0.32 7 80.1 299 
 BRR  HN I        1035 14.59        33.8 0.18                          80.1 299 
 RUS  HZ EP   1   1034 58.94                             145   -0.02 7 96.1 181 
 RUS  HE ES   1   1035 17.10                             145    0.15 7 96.1 181 
 RUS  HZ I        1035 18.53         2.5 0.33                          96.1 181 
                                                                                
