 2016  229 1453 41.8 L   6.806 -73.181142.5  RSN  4 0.2 1.5LRSN                1
 GAP=144        0.65       3.9     3.8  5.5 -0.4588E+01  0.5706E+01 -0.2041E+01E
 Epicentro: ZAPATOCA - SANTANDER                                               3
 ACTION:UPD 16-03-04 21:30 OP:rebc STATUS:               ID:20160229145341 L   I
 OLDACT:REG 16-02-29 21:22 OP:ar   STATUS:               ID:20160229144750     3
 2016-02-29-1447-50M.COL___318                                                 6
 STAT SP IPHASW D HRMM SECON CODA AMPLIT PERI AZIMU VELO AIN AR TRES W  DIS CAZ7
 BAR2 EZ EP       1454  1.10                             170    0.0510 23.6 180 
 BAR2 EZ ES       1454 16.00                             170   -0.0510 23.6 180 
 BAR2 EZ I        1454 16.87         7.1 0.26            172           23.6 180 
 PAM  EZ EP       1454  4.23                             150    0.4310 79.4  42 
 PAM  EN ES       1454 20.71                             150   -0.2410 79.4  42 
 PAM  EZ I        1454 22.91         5.6 0.50            151           79.4  42 
 RUS  HZ EP       1454  5.10                             143   -0.2110  102 174 
 RUS  HN ES       1454 23.77                             143    0.1310  102 174 
 RUS  HZ I        1454 24.55         4.5 0.42            145            102 174 
 PTB  HZ EP       1454  7.86                             132   -0.32 9  144 258 
 PTB  HN ES       1454 28.92                             132    0.18 9  144 258 
 PTB  HZ I        1454 31.52         4.0 0.16            133            144 258 
                                                                                
