 2016  329 1003 12.9 L   6.827 -73.202145.5  RSN  7 0.3 1.6LRSN                1
 GAP=128        0.75       3.4     3.4  5.5  0.1471E+00  0.5631E+01  0.2477E+01E
 Epicentro: ZAPATOCA - SANTANDER                                               3
 ACTION:UPD 16-05-13 21:28 OP:cam  STATUS:               ID:20160329100312 L   I
 OLDACT:DUP 16-03-29 21:24 OP:ak   STATUS:               ID:20160329095749d    3
 OLDACT:UP  16-03-29 21:23 OP:ak   STATUS:               ID:20160329095748     3
 OLDACT:REG 16-03-29 20:04 OP:ak   STATUS:               ID:20160329095748     3
 2016-03-29-0957-48M.COL___306                                                 6
 STAT SP IPHASW D HRMM SECON CODA AMPLIT PERI AZIMU VELO AIN AR TRES W  DIS CAZ7
 BAR2 EZ EP       10 3 32.48                             169   -0.0410 26.1 175 
 BAR2 EZ ES       10 3 47.85                             169   -0.0110 26.1 175 
 BAR2 EZ I        10 3 49.06         4.7 0.20            170           26.1 175 
 PAM  EZ EP       10 3 35.48                             150    0.3110 79.3  44 
 PAM  EN ES       10 3 52.72                             150    0.1510 79.3  44 
 PAM  EZ I        10 3 54.72         4.0 0.48            153           79.3  44 
 RUS  HZ EP       10 3 36.42                             143   -0.4310  104 173 
 RUS  HN ES       10 3 55.22                             143   -0.3410  104 173 
 RUS  HZ I        10 3 56.41         2.8 0.30            146            104 173 
 PTB  HZ EP       10 3 39.23                             133   -0.08 9  142 257 
 PTB  HN ES       10 4  0.39                             133    0.44 9  142 257 
 PTB  HZ I        10 4  3.96         2.6 0.07            131            142 257 
 ZAR  HZ EP   2   10 3 44.31                             123   -0.27 4  197 292 
 ZAR  HE ES       10 4  8.88                             123   -0.44 9  197 292 
 ZAR  HZ I        10 4 20.97         2.2 0.23            122            197 292 
 CHI  HZ EP       10 3 50.95                             117    0.26 8  250 194 
 CHI  HN ES   1   10 4 20.88                             117    0.68 6  250 194 
 CHI  HZ I        10 4 24.54       225.3 0.03            118            250 194 
 GUY2CHE ES   2   10 4 29.93                             112    0.13 4  298 234 
 GUY2CHZ I        10 4 37.73         1.2 0.56                           298 234 
                                                                                
