 2013  329 1245 22.5 L   6.890 -73.120150.4  RSN 12 0.5 2.8LRSN                1
 GAP=135        1.08       3.6     4.5  5.5 -0.2817E+01  0.9153E+01 -0.1863E+01E
 Epicentro: LOS SANTOS - SANTANDER                                             3
 ACTION:UPD 13-04-09 14:05 OP:ep   STATUS:               ID:20130329124522 L   I
 2013-03-29-1240-00M.COL___245                                                 6
 STAT SP IPHASW D HRMM SECON CODA AMPLIT PERI AZIMU VELO AIN AR TRES W  DIS CAZ7
 GIR2 SZ EP       1245 42.59                             171    0.0310 22.4 339 
 GIR2 SZ ES       1245 58.41                             171    0.2210 22.4 339 
 GIR2 SZ I        1245 59.24        53.6 0.56            168           22.4 339 
 BAR2 SZ EP       1245 42.81                             167   -0.1610 33.7 192 
 BAR2 SZ ES       1245 58.37                             167   -0.5410 33.7 192 
 BAR2 SZ I        1246  7.57        83.5 0.16            169           33.7 192 
 PAM  SZ EP       1245 45.23                             155    0.5010 68.0  43 
 PAM  SE ES       1246  2.32                             155    0.2710 68.0  43 
 PAM  SE I        1246  4.24       131.1 0.38            156           68.0  43 
 BRR  HZ IP     C 1245 44.37                             154    0.2610 69.6 290 
 BRR  HE ES       1246  1.46                             154    0.5310 69.6 290 
 BRR  HE I        1246  5.23       340.2 0.16            152           69.6 290 
 RUS  HZ EP   1   1245 47.48                             142    0.02 7  110 178 
 RUS  HN ES       1246  6.50                             142   -0.4110  110 178 
 RUS  HN I        1246  6.98        28.3 0.18            146            110 178 
 OCA  HZ EP   2   1245 50.19                             132   -0.15 5  151 352 
 OCA  HN ES       1246 12.04                             132    0.01 9  151 352 
 OCA  HN I        1246 19.62       233.7 0.20            133            151 352 
 PTB  HZ EP       1245 49.75                             132   -0.59 9  153 255 
 PTB  HE ES       1246 11.38                             132   -0.64 9  153 255 
 PTB  HE I        1246 12.33       123.3 0.20            133            153 255 
 ZAR  HZ EP   1   1245 55.40                             124    0.20 6  203 289 
 ZAR  HE ES   1   1246 21.72                             124    1.05 6  203 289 
 HEL  HZ EP       1246  4.20                             115    0.62 7  277 254 
 HEL  HE ES   2   1246 34.85                             115   -0.74 4  277 254 
 HEL  HE I        1246 42.21        37.5 0.38            117            277 254 
 COD  HZ EP       1246  9.53                             110   -0.46 7  339 354 
 COD  HE ES       1246 46.03                             110   -0.98 7  339 354 
 COD  HE I        1246 54.47        12.7 0.46            112            339 354 
 DBB  SZ IP     C 1246 10.37                             110   -0.09 7  342 273 
 DBB  SZ ES       1246 47.49                             110   -0.35 7  342 273 
 DBB  SZ I        1246 52.49        12.6 0.32            111            342 273 
 PRA  HZ EP   2   1246 17.38                             107   -0.02 3  402 209 
 PRA  HE ES       1247  1.50                             107    1.31 6  402 209 
 PRA  HE I        1247  3.52        25.8 0.42            109            402 209 
                                                                                
