 2015  829 1738 55.1 L   6.806 -73.105148.7  RSN 13 0.3 2.1LRSN                1
 GAP=141        0.82       2.3     3.7  4.8 -0.1604E+01  0.5356E+01  0.1775E+00E
 Epicentro: LOS SANTOS - SANTANDER                                             3
 ACTION:UPD 15-09-15 23:06 OP:cam  STATUS:               ID:20150829173855 L   I
 OLDACT:REG 15-08-29 20:38 OP:spq  STATUS:               ID:20150829173748     3
 2015-08-29-1737-48M.COL___364                                                 6
 STAT SP IPHASW D HRMM SECON CODA AMPLIT PERI AZIMU VELO AIN AR TRES W  DIS CAZ7
 BAR2 EZ EP     C 1739 15.08                             170   -0.0810 25.1 200 
 BAR2 EZ ES   1   1739 30.81                             170    0.03 7 25.1 200 
 BAR2 EZ I        1739 32.03        13.9 0.22            167           25.1 200 
 PAM  EZ EP     D 1739 17.97                             152    0.4910 74.1  37 
 PAM  EN ES       1739 35.06                             152    0.1610 74.1  37 
 PAM  EZ I        1739 36.87         9.1 0.62            156           74.1  37 
 BRR  HZ EP     C 1739 16.92                             152    0.1010 74.9 296 
 BRR  HN ES       1739 34.36                             152    0.6410 74.9 296 
 BRR  HZ I        1739 37.69        13.9 0.15            148           74.9 296 
 RUS  HZ EP   1   1739 18.99                             144   -0.23 7  101 179 
 RUS  HE ES       1739 37.53                             144   -0.4610  101 179 
 RUS  HZ I        1739 38.70        11.8 0.26            145            101 179 
 OCA  HZ EP       1739 23.94                             130    0.26 9  160 352 
 OCA  HN ES       1739 45.09                             130   -0.84 9  160 352 
 OCA  HZ I        1739 50.73        24.0 0.50            131            160 352 
 SPBC HZ EP       1739 24.03                             129   -0.16 9  167 220 
 SPBC HN ES       1739 47.05                             129    0.21 9  167 220 
 SPBC HZ I        1739 50.65        19.5 0.14            128            167 220 
 ZAR  HE ES       1739 53.54                             122   -0.41 8  208 292 
 ZAR  HZ I        1739 59.15        21.0 0.34            121            208 292 
 NOR  HZ EP       1739 31.59                             119    0.11 8  239 235 
 NOR  HE ES   1   1739 59.55                             119   -0.27 6  239 235 
 NOR  HZ I        1740  4.79         8.4 0.64            118            239 235 
 SML  HZ EP       1739 31.96                             118   -0.11 8  245 334 
 SML  HE ES   1   1740  0.72                             118   -0.16 6  245 334 
 SML  HZ I        1740  8.81        13.1 0.10            118            245 334 
 CHI  HZ EP   1   1739 33.25                             118    0.04 6  250 196 
 CHI  HE ES   1   1740  2.52                             118   -0.37 6  250 196 
 CHI  HZ I        1740 12.43         4.6 0.28            118            250 196 
 HEL  HZ EP       1739 36.25                             115    0.25 7  277 256 
 HEL  HE ES   1   1740  8.01                             115    0.13 6  277 256 
 HEL  HZ I        1740 16.37         5.0 0.44            115            277 256 
 GUY2CHZ EP   4   1739 40.59                             113    1.25 0  305 235 
 GUY2CHE ES   4   1740 15.14                             113    1.32 0  305 235 
 GUY2CHZ I        1740 23.84         7.4 0.54                           305 235 
 TOL  SE ES   1   1740 22.32                             110    0.33 5  347 225 
 TOL  SZ I        1740 27.59         4.9 0.38            110            347 225 
                                                                                
