 2013  129 1803 51.3 L   7.513 -73.245137.2  RSN  8 0.4 1.9LRSN                1
 GAP=113        0.98       3.5     4.1  6.2  0.8554E+00  0.6526E+01  0.8012E-01E
 Epicentro: EL PLAYON - SANTANDER                                              3
 ACTION:UPD 13-02-15 09:17 OP:ep   STATUS:               ID:20130129180351 L   I
 2013-01-29-1800-00M.COL___241                                                 6
 STAT SP IPHASW D HRMM SECON CODA AMPLIT PERI AZIMU VELO AIN AR TRES W  DIS CAZ7
 PAM  SZ EP       18 4 12.05                             154    0.2510 63.2 108 
 PAM  SZ I        18 4 12.45        16.0 0.20            157           63.2 108 
 PAM  SN ES       18 4 27.91                             154    0.1310 63.2 108 
 BRR  HZ IP     D 18 4 11.70                             152    0.3210 68.3 229 
 BRR  HZ I        18 4 11.88        21.8 0.14            150           68.3 229 
 BRR  HN ES       18 4 27.21                             152    0.1810 68.3 229 
 OCA  HZ EP       18 4 12.81                             148    0.4510 80.7 354 
 OCA  HN ES       18 4 28.26                             148   -0.5110 80.7 354 
 OCA  HN I        18 4 30.03        57.2 0.20            148           80.7 354 
 BAR2 SZ EP       18 4 14.30                             141    0.3110  102 176 
 BAR2 SZ I        18 4 14.42        24.6 0.14            142            102 176 
 BAR2 SZ ES       18 4 31.52                             141   -0.1510  102 176 
 PTB  HZ EP       18 4 20.11                             125    0.20 9  172 231 
 PTB  HN ES       18 4 42.31                             125    0.09 9  172 231 
 PTB  HN I        18 4 43.56         8.1 0.36            125            172 231 
 ZAR  HZ EP       18 4 20.41                             124   -0.12 9  178 269 
 ZAR  HN ES       18 4 43.34                             124    0.02 9  178 269 
 ZAR  HZ I        18 4 50.28         6.6 0.22            124            178 269 
 RUS  HZ EP       18 4 21.42                             124    0.04 9  180 174 
 RUS  HE ES       18 4 43.84                             124   -0.98 9  180 174 
 RUS  HZ I        18 4 46.96         1.6 0.30            125            180 174 
 SJC  HN EP       18 4 37.47                             108   -0.88 7  339 321 
                                                                                
