 2011  729 1152  7.1 L   6.772 -73.005147.1  RSN  6 0.4 1.7LRSN                1
 GAP=173        0.74       4.2     7.2  7.4 -0.1036E+02 -0.3528E+01 -0.1806E+01E
 Epicentro: CEPITA - SANTANDER                                                 3
 ACTION:UPD 12-07-25 14:04 OP:epov STATUS:               ID:20110729115207 L   I
 2011-07-29-1150-58S.COL___141                                                 6
 STAT SP IPHASW D HRMM SECON CODA AMPLIT PERI AZIMU VELO AIN AR TRES W  DIS CAZ7
 BAR2 SZ EP   1   1152 27.10                             169    0.09 7 27.9 225 
 BAR2 SZ I        1152 27.37         6.8 0.21                          27.9 225 
 BAR2 SZ ES   1   1152 42.96                             169    0.43 7 27.9 225 
 BRR  HZ EP   1   1152 28.67                             148   -0.67 7 86.4 295 
 BRR  HZ I        1152 30.58        14.5 0.13                          86.4 295 
 BRR  HN ES   1   1152 46.47                             148   -0.20 7 86.4 295 
 RUS  HZ EP   1   1152 30.57                             145   -0.23 7 97.7 185 
 RUS  HN ES   1   1152 49.01                             145   -0.26 7 97.7 185 
 BRI  SZ EP   1   1152 31.53                             142    0.50 7  107  12 
 GRA  SZ EP   1   1152 32.42                             137    0.00 7  125  10 
 GRA  SZ ES   1   1152 52.17                             137    0.01 7  125  10 
 GRA  SZ I        1152 54.80         5.0 0.27                           125  10 
 RREF HN ES   1   1153 32.15                             110    0.76 5  332 232 
                                                                                
