 2014  829 1306 37.4 L   6.812 -73.146144.7  RSN 19 0.6 2.6LRSN                1
 GAP= 71        1.63       3.9     4.3  7.3 -0.9076E+00  0.8798E+01  0.3984E+01E
 Epicentro: LOS SANTOS - SANTANDER                                             3
 ACTION:UPD 14-09-15 21:54 OP:nd   STATUS:               ID:20140829130637 L   I
 OLDACT:REG 14-08-29 18:32 OP:stll STATUS:               ID:20140829125817     3
 2014-08-29-1258-17M.COL___272                                                 6
 STAT SP IPHASW D HRMM SECON CODA AMPLIT PERI AZIMU VELO AIN AR TRES W  DIS CAZ7
 BAR2 SZ IP     D 13 6 57.13                             170    0.1610 24.7 189 
 BAR2 SZ I        13 6 57.61        78.3 0.16            169           24.7 189 
 BAR2 SZ ES       13 7 12.33                             170    0.1310 24.7 189 
 BRR  HZ IP     C 13 6 59.03                             153    0.6010 70.5 298 
 BRR  HZ I        13 6 59.32       171.6 0.26            147           70.5 298 
 BRR  HN ES       13 7 15.97                             153    1.1610 70.5 298 
 PAM  SZ EP     C 13 6 59.93                             151    0.4510 76.4  40 
 PAM  SZ I        13 7  0.19       110.1 0.26            149           76.4  40 
 PAM  SN ES       13 7 16.53                             151   -0.1410 76.4  40 
 RUS  HZ EP       13 7  1.08                             143   -0.1010  102 176 
 RUS  HE ES       13 7 19.12                             143   -0.5810  102 176 
 RUS  HZ I        13 7 20.93        32.5 0.18            141            102 176 
 PTB  HZ EP       13 7  3.70                             132   -0.64 9  148 258 
 PTB  HN ES       13 7 25.16                             132   -0.16 9  148 258 
 PTB  HZ I        13 7 28.48        54.5 0.14            127            148 258 
 TAM  HZ EP       13 7  5.24                             130    0.18 9  155 105 
 TAM  HE ES       13 7 26.38                             130   -0.23 9  155 105 
 TAM  HZ I        13 7 27.71        24.8 0.30            128            155 105 
 OCA  HZ EP       13 7  5.26                             130   -0.28 9  159 353 
 OCA  HE ES       13 7 27.19                             130   -0.27 9  159 353 
 OCA  HZ I        13 7 31.24        46.8 0.16            126            159 353 
 SPBC HZ EP       13 7  6.05                             128    0.10 9  164 219 
 SPBC HN ES       13 7 27.73                             128   -0.46 9  164 219 
 SPBC HZ I        13 7 31.07        73.0 0.18            125            164 219 
 ZAR  HZ EP       13 7  9.70                             122   -0.06 9  204 292 
 ZAR  HE ES       13 7 35.23                             122    0.26 9  204 292 
 ZAR  HZ I        13 7 42.19        75.3 0.28            118            204 292 
 SML  HZ EP       13 7 13.10                             117   -0.77 8  242 335 
 SML  HN ES       13 7 41.26                             117   -1.02 8  242 335 
 SML  HZ I        13 7 49.25        42.9 0.26            114            242 335 
 CHI  HZ EP       13 7 15.25                             117    0.04 8  250 195 
 CHI  HN ES       13 7 44.07                             117   -0.61 8  250 195 
 CHI  HZ I        13 7 48.58         9.2 0.24            114            250 195 
 HEL  HZ EP       13 7 18.48                             114    0.85 8  272 256 
 HEL  HN ES       13 7 49.05                             114    0.07 8  272 256 
 HEL  HZ I        13 7 55.52        29.3 0.42            111            272 256 
 GUY2CHZ EP       13 7 22.35                             112    1.27 7  302 235 
 GUY2CHN ES       13 7 56.12                             112    1.00 7  302 235 
 GUY2CHZ I        13 8  6.50        22.2 0.68                           302 235 
 CBOC HZ EP       13 7 24.81                             110    0.46 7  334 252 
 CBOC HN ES       13 8  0.80                             110   -0.14 7  334 252 
 DBB  SZ EP       13 7 24.63                             109   -0.22 7  339 274 
 DBB  SZ I        13 8  4.86        43.1 0.38            106            339 274 
 MON  HZ EP   9   13 7 26.15                             108   -0.14 0  353 308 
 MON  HN ES       13 8  2.00                                   -2.26 6  353 308 
 MON  HZ I        13 8  5.33         8.7 0.40            105            353 308 
 PRA  HZ EP       13 7 30.96                             106   -0.09 6  393 209 
 PRA  HE ES       13 8 12.68                             106   -0.20 6  393 209 
 PRA  HZ I        13 8 18.56        11.7 0.54            104            393 209 
 ORTC HZ EP       13 7 31.48                             106    0.04 6  397 216 
 ORTC HE ES       13 8 12.14                             106   -1.43 6  397 216 
 ORTC HZ I        13 8 21.70         7.8 0.70            104            397 216 
 SJC  HZ EP   9   13 7 31.41                             105   -1.41 0  408 327 
 SJC  HN ES       13 8 11.39                                   -3.23 6  408 327 
 SJC  HZ I        13 8 16.92         7.4 0.48            103            408 327 
                                                                                
