 2016  529 1050 46.2 L   6.833 -73.142137.8  RSN  7 0.5 1.7LRSN                1
 GAP=135        1.20       4.4     5.5  7.5 -0.6438E+01  0.9782E+01 -0.4044E+00E
 Epicentro: LOS SANTOS - SANTANDER                                             3
 ACTION:UPD 16-08-18 17:50 OP:cam  STATUS:               ID:20160529105046 L   I
 OLDACT:REG 16-05-29 21:03 OP:ar   STATUS:               ID:20160529104747     3
 2016-05-29-1047-47M.COL___304                                                 6
 STAT SP IPHASW D HRMM SECON CODA AMPLIT PERI AZIMU VELO AIN AR TRES W  DIS CAZ7
 BAR2 EZ EP     C 1051  4.93                             168    0.0210 27.0 190 
 BAR2 EZ ES       1051 19.38                             168   -0.1610 27.0 190 
 BAR2 EZ I        1051 20.54         6.4 0.32            169           27.0 190 
 BRR  HZ EP       1051  6.83                             151    0.4610 70.0 296 
 BRR  HE ES       1051 23.01                             151    0.8610 70.0 296 
 BRR  HZ I        1051 31.87         8.5 0.38            149           70.0 296 
 PAM  EZ EP       1051  7.89                             150    0.5510 74.3  41 
 PAM  EN ES       1051 23.60                             150   -0.2710 74.3  41 
 RUS  HZ EP       1051  9.22                             141   -0.1810  104 176 
 RUS  HN ES       1051 27.44                             141   -0.0910  104 176 
 RUS  HZ I        1051 28.78         4.1 0.24            146            104 176 
 PTB  HZ EP       1051 11.96                             130   -0.63 9  149 258 
 PTB  HN ES       1051 32.52                             130   -0.70 9  149 258 
 PTB  HZ I        1051 36.21         6.5 0.18            131            149 258 
 OCA  HZ EP       1051 13.72                             128    0.20 9  157 353 
 OCA  HN ES       1051 34.21                             128   -0.65 9  157 353 
 OCA  HZ I        1051 37.90        13.9 0.24            131            157 353 
 NOR  HZ EP       1051 21.67                             116   -0.03 8  237 234 
 NOR  HN ES       1051 50.00                             116    0.57 8  237 234 
 NOR  HZ I        1051 51.74         4.4 0.24            119            237 234 
                                                                                
