 2011  929 1515 25.1 L   6.758 -73.122140.1  RSN 11 0.4 2.6LRSN                1
 GAP=141        0.72       2.9     3.5  4.5 -0.1490E+01  0.4834E+01  0.2328E+01E
 Epicentro: LOS SANTOS - SANTANDER                                             3
 ACTION:UPD 12-07-13 16:00 OP:ep   STATUS:               ID:20110929151525 L   I
 2011-09-29-1512-46S.COL___168                                                 6
 STAT SP IPHASW D HRMM SECON CODA AMPLIT PERI AZIMU VELO AIN AR TRES W  DIS CAZ7
 BAR2 SZ EP       1515 43.93                             172    0.0010 19.5 200 
 BAR2 SZ ES       1515 58.29                             172   -0.3610 19.5 200 
 BAR2 SZ I        1515 59.92       171.5 0.20                          19.5 200 
 BTL  SZ EP       1515 44.47                             170    0.4610 23.9 318 
 BRR  HZ IP     C 1515 45.89                             150    0.0310 75.8 301 
 BRR  HZ I        1515 46.36       166.2 0.03                          75.8 301 
 BRR  HN ES       1516  2.53                             150    0.4410 75.8 301 
 PAM  SZ EP       1515 46.79                             149    0.0010 79.4  36 
 PAM  SN ES       1516  3.68                             149   -0.0710 79.4  36 
 RUS  HZ EP   1   1515 47.96                             144    0.06 7 95.8 177 
 RUS  HE ES   1   1516  5.83                             144    0.11 7 95.8 177 
 RUS  HZ I        1516  7.59        37.8 0.39                          95.8 177 
 OCA  SZ EP   1   1515 52.93                             127   -0.47 7  165 352 
 OCA  SZ I        1516 17.97        59.7 0.20                           165 352 
 ZAR  HZ EP   1   1515 57.00                             120   -0.57 6  208 293 
 ZAR  HN ES   1   1516 22.45                             120   -0.49 6  208 293 
 ZAR  HZ I        1516 29.09        58.9 0.38                           208 293 
 NOR  SZ EP   1   1516  0.14                             117   -0.26 6  234 236 
 NOR  SE ES   1   1516 27.81                             117   -0.17 6  234 236 
 CHI  HZ EP   1   1516  2.04                             116    0.01 6  245 196 
 CHI  HN ES   1   1516 30.32                             116   -0.55 6  245 196 
 CHI  HZ I        1516 38.32        16.8 0.41                           245 196 
 HEL  HZ EP   1   1516  6.00                             113    0.86 6  274 257 
 HEL  HN ES   1   1516 36.34                             113   -0.08 6  274 257 
 HEL  HZ I        1516 49.22        14.2 0.52                           274 257 
 PRA  HZ EP   1   1516 18.37                             106    0.31 4  389 210 
 PRA  HN ES   1   1516 59.92                             106    0.51 4  389 210 
                                                                                
