 2010  629 1557 20.3 L   6.846 -73.044146.0  RSN  4 0.3 1.5LRSN                1
 GAP=175        0.55       7.8    13.2 10.0  0.5851E+02 -0.5430E+02 -0.3987E+02E
 Epicentro: LOS SANTOS - SANTANDER                                             3
 ACTION:UP  10-08-24 10:13 OP:vdl  STATUS:               ID:20100629155720 L   I
 2010-06-29-1554-02S.COL___118                                                 6
 STAT SP IPHASW D HRMM SECON CODA AMPLIT PERI AZIMU VELO SNR AR TRES W  DIS CAZ7
 BAR2 SZ EP   2   1557 39.87                             167    -0.3 5   32 209 
 BAR2 SZ ES   2   1557 55.86                             167     0.2 5   32 209 
 BRR  HZ IP     C 1557 41.83                             150    -0.110   79 291 
 BRR  HE ES   2   1557 59.02                             150     0.2 5   79 291 
 BRR  HZ I        1558  1.45         9.6 0.40                            79 291 
 RUS  HZ EP   2   1557 45.05                             143     0.6 5  105 182 
 RUS  HE ES   2   1558  2.84                             143    -0.4 5  105 182 
 RUS  HZ I        1558  3.84         3.3 0.46                           105 182 
 GUE  SZ EP   2   1557 44.47                             141     0.0 5  110   7 
                                                                                
