 2013  429 1857 16.4 L   6.818 -73.167148.2  RSN  7 0.4 2.2LRSN                1
 GAP=133        0.66       3.3     4.9  7.4 -0.1864E+01  0.1295E+02 -0.7237E+01E
 Epicentro: LOS SANTOS - SANTANDER                                             3
 ACTION:UPD 13-05-22 14:41 OP:EP   STATUS:               ID:20130429185716 L   I
 2013-04-29-1850-00M.COL___248                                                 6
 STAT SP IPHASW D HRMM SECON CODA AMPLIT PERI AZIMU VELO AIN AR TRES W  DIS CAZ7
 GIR2 SZ EP   1   1857 36.39                             168    0.13 8 29.0 354 
 BRR  HZ EP   1   1857 38.15                             154    0.54 8 68.2 298 
 BRR  HN ES   2   1857 54.75                             154    0.57 5 68.2 298 
 BRR  HN I        1857 58.77        29.6 0.18            150           68.2 298 
 PAM  SZ EP   1   1857 39.00                             151    0.16 8 77.4  42 
 PAM  SN ES   2   1857 56.15                             151   -0.22 5 77.4  42 
 PAM  SN I        1857 57.29        29.9 0.42            157           77.4  42 
 RUS  HZ EP   1   1857 40.52                             144    0.02 7  103 175 
 RUS  HN ES       1857 59.11                             144   -0.2310  103 175 
 RUS  HZ I        1858  0.40         6.8 0.44            148            103 175 
 PTB  HZ EP   1   1857 42.95                             133   -0.40 7  146 258 
 PTB  HN ES   2   1858  4.06                             133   -0.35 5  146 258 
 PTB  HN I        1858  9.30        24.6 0.20            133            146 258 
 NOR  HZ EP   1   1857 52.79                             119    0.64 6  234 234 
 NOR  HN ES   1   1858 19.98                             119   -0.08 6  234 234 
 NOR  HN I        1858 26.16        23.1 0.16            121            234 234 
 SML  HZ EP   1   1857 52.23                             118   -0.59 6  241 336 
 SML  HN ES   1   1858 21.09                             118   -0.17 6  241 336 
 SML  HN I        1858 25.69        26.1 0.10            120            241 336 
                                                                                
