 2016 1129 1216 19.9 L   6.757 -73.125145.8  RSN  6 0.3 1.7LRSN                1
 GAP=163        0.79       5.5     3.8  6.3 -0.7692E+01  0.5667E+01  0.3414E+01E
 Epicentro: LOS SANTOS - SANTANDER                                             3
 ACTION:UPD 17-10-26 21:13 OP:lp   STATUS:               ID:20161129121619 L   I
 OLDACT:DUP 16-11-30 00:12 OP:lv   STATUS:               ID:20161129120747d    3
 2016-11-29-1208-00M.COL___352                                                 6
 STAT SP IPHASW D HRMM SECON CODA AMPLIT PERI AZIMU VELO AIN AR TRES W  DIS CAZ7
 BAR2 EZ EP       1216 39.68                             172    0.2510 19.3 199 
 BAR2 EZ ES       1216 54.51                             172   -0.1810 19.3 199 
 BAR2 EZ I        1216 55.31        15.0 0.34            173           19.3 199 
 BRR  HZ EP       1216 41.47                             151    0.2010 75.5 301 
 BRR  HE ES       1216 58.41                             151    0.4510 75.5 301 
 PAM  EZ EP       1216 42.48                             150    0.2510 79.7  36 
 PAM  EN ES       1216 59.29                             150   -0.3810 79.7  36 
 PAM  EZ I        1217  2.18         7.8 0.43            150           79.7  36 
 PTB  HZ EP       1216 46.42                             132   -0.55 9  149 261 
 PTB  HN ES       1217  8.03                             132   -0.08 9  149 261 
 PTB  HZ I        1217  9.23         4.7 0.14            131            149 261 
 ZAR  HZ EP   4   1216 54.33                             122    1.60 0  208 293 
 ZAR  HN ES       1217 18.16                             122   -0.19 8  208 293 
 ZAR  HZ I        1217 24.52         5.2 0.14            121            208 293 
 NOR  HN ES       1217 23.45                             119    0.13 8  234 236 
 NOR  HZ I        1217 27.38         5.4 0.46            118            234 236 
                                                                                
