 2017 1129 1057 48.2 L   6.745 -73.160135.7  RSN  4 0.4 1.6LRSN                1
 GAP=151        1.05       9.1     5.5  9.2 -0.1793E+02  0.2362E+02 -0.2155E+02E
 Epicentro: LOS SANTOS - SANTANDER                                             3
 ACTION:UPD 17-12-12 20:01 OP:rebc STATUS:               ID:20171129105748 L   I
 OLDACT:UP  17-11-29 22:43 OP:dani STATUS:               ID:20171129104737     3
 OLDACT:REG 17-11-29 20:06 OP:dani STATUS:               ID:20171129104737     3
 2017-11-29-1048-00M.COL___490                                                 6
 STAT SP IPHASW D HRMM SECON CODA AMPLIT PERI AZIMU VELO AIN AR TRES W  DIS CAZ7
 BAR2 EZ EP       1058  6.48                             172   -0.0210 17.1 188 
 BAR2 EZ ES       1058 21.27                             172    0.5010 17.1 188 
 BAR2 EZ I        1058 22.69         9.9 0.18            173           17.1 188 
 PAM  EZ EP       1058  9.50                             147   -0.2210 83.1  38 
 PAM  EN ES       1058 26.29                             147   -0.2210 83.1  38 
 PAM  EZ I        1058 28.24        10.2 0.50            150           83.1  38 
 PTB  HZ EP       1058 13.79                             130   -0.33 9  145 261 
 PTB  HN ES       1058 33.87                             130   -0.47 9  145 261 
 PTB  HZ I        1058 39.37         2.9 0.36            131            145 261 
 ZAR  HZ EP       1058 21.04                             120    0.93 9  205 294 
 ZAR  HN ES       1058 44.99                             120   -0.01 9  205 294 
 ZAR  HZ I        1058 50.02         4.8 0.40            121            205 294 
                                                                                
