 2017  929 1234 54.0 L   6.784 -73.114148.4  RSN  7 0.4 1.4LRSN                1
 GAP=141        0.88       4.0     4.2  6.0 -0.1940E+01  0.9299E+01  0.4584E+01E
 Epicentro: LOS SANTOS - SANTANDER                                             3
 ACTION:UPD 17-10-05 19:17 OP:rebc STATUS:               ID:20170929123454 L   I
 OLDACT:DUP 17-09-29 22:42 OP:osc  STATUS:               ID:20170929122742d    3
 2017-09-29-1228-00M.COL___443                                                 6
 STAT SP IPHASW D HRMM SECON CODA AMPLIT PERI AZIMU VELO AIN AR TRES W  DIS CAZ7
 BAR2 EZ ES       1235 29.84                             171    0.3610 22.6 200 
 BRR  HZ EP       1235 15.60                             152   -0.0510 75.1 298 
 BRR  HN ES       1235 32.89                             152    0.3510 75.1 298 
 PAM  EZ EP       1235 16.55                             152    0.1110 76.6  37 
 PAM  EN ES       1235 33.80                             152   -0.1610 76.6  37 
 PAM  EZ I        1235 36.26         3.0 0.52            153           76.6  37 
 RUS  HZ EP       1235 18.03                             145    0.1610 98.7 178 
 RUS  HN ES       1235 35.96                             145   -0.5410 98.7 178 
 RUS  HZ I        1235 37.57         3.4 0.24            145           98.7 178 
 ZAR  HE ES       1235 52.17                             122   -0.60 8  208 292 
 NOR  HZ EP       1235 29.74                             119   -0.34 8  237 235 
 NOR  HN ES       1235 58.05                             119   -0.17 8  237 235 
 NOR  HZ I        1236  2.24         1.8 0.32            119            237 235 
 GUY2CHZ EP       1235 38.46                             113    0.52 7  303 235 
 GUY2CHE ES       1236 12.75                             113    0.53 7  303 235 
 GUY2CHZ I        1236 24.16         1.4 0.42                           303 235 
                                                                                
