 2013  729 1158 41.6 L   6.770 -73.152149.2  RSN  7 0.4 1.6LRSN                1
 GAP=183        0.85       6.3     5.9  6.5  0.9386E+01 -0.6698E-02 -0.9738E+01E
 Epicentro: LOS SANTOS - SANTANDER                                             3
 ACTION:UPD 13-08-12 10:40 OP:ep   STATUS:               ID:20130729115841 L   I
 OLDACT:UP  13-07-29 16:33 OP:cam  STATUS:               ID:20130729114959     3
 OLDACT:REG 13-07-29 14:43 OP:cam  STATUS:               ID:20130729114959     3
 2013-07-29-1149-59M.COL___268                                                 6
 STAT SP IPHASW D HRMM SECON CODA AMPLIT PERI AZIMU VELO AIN AR TRES W  DIS CAZ7
 BAR2 SZ EP     C 1159  1.62                             172   -0.0010 19.9 190 
 BAR2 SZ ES       1159 16.64                             172   -0.5710 19.9 190 
 BAR2 SZ I        1159 18.76         5.9 0.16            167           19.9 190 
 GIR2 SZ EP     C 1159  1.69                             166   -0.1210 34.5 352 
 BRR  HZ EP     D 1159  3.40                             153    0.1810 72.3 301 
 BRR  HE ES       1159 20.64                             153    0.5910 72.3 301 
 RUS  HZ EP   1   1159  5.73                             145    0.23 7 97.3 176 
 RUS  HN ES   1   1159 24.45                             145    0.34 7 97.3 176 
 RUS  HZ I        1159 25.21         5.9 0.24            144           97.3 176 
 PTB  HZ EP       1159  8.95                             133    0.18 9  146 260 
 PTB  HN ES       1159 29.54                             133   -0.40 9  146 260 
 PTB  HZ I        1159 35.48         5.6 0.20            131            146 260 
 ZAR  HZ EP   2   1159 14.24                             123   -0.14 4  205 293 
 SML  HZ EP   1   1159 18.24                             118   -0.52 6  246 336 
                                                                                
