 2017  829 1651 39.7 L   7.553 -73.004151.3  RSN  6 0.5 1.8LRSN                1
 GAP=217        0.95       7.1     7.0  7.0 -0.6925E+01  0.9183E+01  0.2473E+01E
 Epicentro: SURATA - SANTANDER                                                 3
 ACTION:UPD 17-09-04 20:26 OP:rebc STATUS:               ID:20170829165139 L   I
 OLDACT:REG 17-08-29 21:02 OP:dhb  STATUS:               ID:20170829164740     3
 2017-08-29-1648-00M.COL___417                                                 6
 STAT SP IPHASW D HRMM SECON CODA AMPLIT PERI AZIMU VELO AIN AR TRES W  DIS CAZ7
 PAM  EZ IP       1652  1.26                             164    0.4110 41.1 125 
 PAM  EN ES       1652 17.61                             164    0.2710 41.1 125 
 PAM  EZ I        1652 18.54         9.9 0.26            170           41.1 125 
 BRR  HZ IP     D 1652  2.35                             147   -0.4110 92.4 238 
 BRR  HN ES       1652 20.76                             147    0.0410 92.4 238 
 BRR  HZ I        1652 29.33        13.9 0.18            144           92.4 238 
 BAR2 EZ IP     D 1652  3.92                             143   -0.2810  108 191 
 BAR2 EZ ES       1652 23.05                             143   -0.2410  108 191 
 BAR2 EZ I        1652 26.40         9.6 0.18            144            108 191 
 RUS  HZ IP     D 1652 10.85                             127   -0.30 9  184 183 
 RUS  HN ES       1652 35.50                             127   -0.17 9  184 183 
 RUS  HZ I        1652 36.46         5.2 0.15            130            184 183 
 ZAR  HN ES   3   1652 36.92                             123   -1.32 2  205 268 
 ZAR  HZ I        1652 41.16         2.7 0.14            124            205 268 
 NOR  HZ EP       1652 23.98                             113    0.89 7  302 223 
 NOR  HN ES   2   1652 58.30                             113    1.38 4  302 223 
 NOR  HZ I        1653  2.48         5.4 0.16            115            302 223 
                                                                                
