 2011  929 1659 54.7 L   6.772 -73.095140.9  RSN  6 0.4 1.8LRSN                1
 GAP=144        0.71       5.0     6.2  6.7  0.4951E+00  0.1420E+02 -0.1014E+01E
 Epicentro: LOS SANTOS - SANTANDER                                             3
 ACTION:UPD 12-07-13 16:00 OP:ep   STATUS:               ID:20110929165954 L   I
 2011-09-29-1657-52S.COL___168                                                 6
 STAT SP IPHASW D HRMM SECON CODA AMPLIT PERI AZIMU VELO AIN AR TRES W  DIS CAZ7
 BAR2 SZ EP       17 0 13.38                             170   -0.2910 22.1 206 
 BAR2 SZ I        17 0 13.74         9.7 0.38                          22.1 206 
 BAR2 SZ ES   1   17 0 28.50                             170    0.00 7 22.1 206 
 BTL  SZ EP       17 0 14.00                             169    0.2710 25.0 310 
 PAM  SZ EP       17 0 16.24                             150   -0.0510 76.4  35 
 PAM  SN ES   1   17 0 33.12                             150   -0.05 7 76.4  35 
 BRR  HZ EP       17 0 15.24                             149   -0.4210 77.6 299 
 BRR  HZ I        17 0 15.58        13.2 0.14                          77.6 299 
 BRR  HE ES   2   17 0 32.58                             149    0.53 5 77.6 299 
 RUS  HZ EP       17 0 17.78                             144    0.0910 97.3 179 
 RUS  HN ES   2   17 0 35.63                             144   -0.02 5 97.3 179 
 ZAR  HZ EP       17 0 27.98                             120    0.53 8  210 292 
 ZAR  HN ES   3   17 0 51.52                             120   -1.52 2  210 292 
 ZAR  HZ I        17 0 57.28         5.7 0.34                           210 292 
                                                                                
