 2010  629 1304 21.6 L   6.790 -73.055147.5  RSN  6 0.3 1.8LRSN                1
 GAP=175        0.60       4.9     8.9  6.0  0.9005E+01 -0.5940E+01 -0.1227E+01E
 Epicentro: LOS SANTOS - SANTANDER                                             3
 ACTION:UP  10-08-24 10:13 OP:vdl  STATUS:               ID:20100629130421 L   I
 2010-06-29-1300-35S.COL___118                                                 6
 STAT SP IPHASW D HRMM SECON CODA AMPLIT PERI AZIMU VELO SNR AR TRES W  DIS CAZ7
 BAR2 SZ IP       13 4 41.33                             170    -0.110   26 213 
 BAR2 SZ ES   1   13 4 57.03                             170     0.0 7   26 213 
 BRR  HZ IP     D 13 4 43.24                             150    -0.210   81 296 
 BRR  HN ES   1   13 5  0.72                             150     0.2 7   81 296 
 BRR  HZ I        13 5  2.30        16.8 0.38                            81 296 
 RUS  HZ EP   2   13 4 45.11                             145    -0.3 5   99 182 
 RUS  HE ES   2   13 5  4.31                             145     0.3 5   99 182 
 RUS  HZ I        13 5  4.98         3.7 0.28                            99 182 
 GUE  SZ EP   2   13 4 47.22                             140     0.8 5  116   7 
 OCA  SZ EP   2   13 4 50.21                             130    -0.1 5  163 350 
 OCA  SZ I        13 5  7.85        14.6 0.29                           163 350 
 PRA  HZ EP   1   13 5 15.93                             107     0.3 4  396 211 
 PRA  HN ES   2   13 5 58.05                             107     0.3 3  396 211 
 PRA  HZ I        13 6  0.26         2.1 0.56                           396 211 
                                                                                
