 2012  129 1214  5.9 L   6.745 -73.146151.9  RSN  5 0.2 1.4LRSN                1
 GAP=184        0.45      10.1    11.2 11.5  0.6191E+02 -0.4169E+02 -0.2050E+02E
 Epicentro: JORDAN - SANTANDER                                                 3
 ACTION:UP  12-02-03 08:22 OP:REBC STATUS:               ID:20120129121405 L   I
 2012-01-29-1210-00M.COL___188                                                 6
 STAT SP IPHASW D HRMM SECON CODA AMPLIT PERI AZIMU VELO SNR AR TRES W  DIS CAZ7
 BAR2 SZ EP       1214 26.36                             173     0.210   17 193 
 GIR2 SZ EP       1214 26.36                             166    -0.210   37 352 
 BRR  HZ EP       1214 27.99                             152     0.110   74 303 
 BRR  HZ I        1214 28.15         7.8 0.16                            74 303 
 BRR  HN ES   2   1214 45.06                             152     0.0 5   74 303 
 RUS  HN ES   3   1214 48.05                             146    -0.5 2   95 176 
 PTB  HZ EP   3   1214 32.69                             133    -0.6 2  147 261 
 PTB  HZ I        1215  4.98         1.4 0.30                           147 261 
                                                                                
