 2010 1029 1849  4.6 L   6.794 -73.012150.7  RSN  7 0.5 1.9LRSN                1
 GAP=180        0.92       7.9     9.1 10.8 -0.1727E+02  0.2404E+02 -0.8065E+01E
 Epicentro: CEPITA - SANTANDER                                                 3
 ACTION:UP  11-02-18 11:13 OP:tino STATUS:               ID:20101029184904 L   I
 2010-10-29-1846-41S.COL___128                                                 6
 STAT SP IPHASW D HRMM SECON CODA AMPLIT PERI AZIMU VELO SNR AR TRES W  DIS CAZ7
 BAR2 SZ EP   1   1849 25.29                             168     0.3 7   29 220 
 BAR2 SZ ES   2   1849 40.89                             168     0.0 5   29 220 
 BAR2 SZ I        1849 42.02        22.5 0.19                            29 220 
 GIR2 SZ EP   1   1849 24.73                             165    -0.4 7   37 328 
 BRR  HZ EP   1   1849 27.11                             149     0.0 7   85 294 
 BRR  HZ I        1849 27.38        16.5 0.19                            85 294 
 BRR  HN ES   2   1849 44.68                             149     0.0 5   85 294 
 RUS  HZ EP   1   1849 29.19                             145     0.3 7  100 184 
 RUS  HN ES   2   1849 47.66                             145    -0.1 5  100 184 
 RUS  HZ I        1849 49.22         4.8 0.26                           100 184 
 GUE  SZ EP   1   1849 29.63                             141    -0.1 7  115   5 
 NOR  SZ EP   1   1849 40.95                             118    -1.0 6  247 237 
 NOR  SN ES   2   1850 10.14                             118    -0.9 4  247 237 
 HEL  HZ EP   1   1849 47.61                             114     0.9 6  286 257 
 HEL  HN ES   2   1850 20.32                             114     0.9 4  286 257 
 HEL  HZ I        1850 24.83         4.2 0.49                           286 257 
                                                                                
