 2012  529 1927  2.3 L   6.801 -73.167145.6  RSN 10 0.2 3.0LRSN                1
 GAP=134        0.61       2.3     2.8  4.1 -0.1234E+01  0.5107E+01  0.2575E+00E
 Epicentro: LOS SANTOS - SANTANDER                                             3
 ACTION:UP  12-07-05 12:08 OP:pat  STATUS:               ID:20120529192702 L   I
 2012-05-29-1920-00M.COL___200                                                 6
 STAT SP IPHASW D HRMM SECON CODA AMPLIT PERI AZIMU VELO AIN AR TRES W  DIS CAZ7
 BAR2 SZ EP       1927 21.97                             171     0.110   23 184 
 BAR2 SZ ES       1927 37.37                             171     0.210   23 184 
 BAR2 SZ I        1927 38.63       134.6 0.20                            23 184 
 PAM  SZ EP       1927 24.75                             150     0.210   79  41 
 PAM  SN ES       1927 41.97                             150     0.010   79  41 
 RUS  HZ EP       1927 25.77                             144    -0.310  101 175 
 RUS  HE ES       1927 44.23                             144    -0.310  101 175 
 RUS  HZ I        1927 45.64        76.1 0.40                           101 175 
 PTB  HZ EP       1927 28.89                             132    -0.1 9  146 259 
 PTB  HE ES   1   1927 49.91                             132     0.0 7  146 259 
 PTB  HZ I        1927 55.99        79.2 0.31                           146 259 
 OCA  HZ EP   1   1927 30.49                             130     0.0 7  160 354 
 OCA  HE ES   1   1927 52.36                             130    -0.2 7  160 354 
 OCA  HZ I        1927 58.46       227.7 0.41                           160 354 
 ZAR  HZ EP   1   1927 34.50                             123     0.0 6  202 292 
 ZAR  HN ES   1   1927 59.47                             123    -0.1 6  202 292 
 ZAR  HZ I        1928  5.45       127.0 0.50                           202 292 
 NOR  SZ EP       1927 37.95                             119     0.2 8  233 234 
 NOR  SE ES   1   1928  6.07                             119     0.6 6  233 234 
 CHI  HZ EP       1927 39.78                             117    -0.1 8  248 195 
 CHI  HN ES   1   1928  9.55                             117     0.3 6  248 195 
 CHI  HZ I        1928 15.08        55.6 0.35                           248 195 
 HEL  HZ EP   1   1927 42.63                             115     0.4 6  270 256 
 HEL  HE ES   1   1928 12.83                             115    -0.6 6  270 256 
 HEL  HZ I        1928 20.32        38.9 0.30                           270 256 
 RREF HN ES   1   1928 24.14                             111     0.1 5  320 229 
 RREF HZ I        1928 30.57        68.4 0.22                           320 229 
                                                                                
