 2015 1229 1600 36.6 L   6.788 -73.172140.4  RSN 11 0.5 2.3LRSN                1
 GAP=134        1.11       3.6     4.6  6.8 -0.2599E+01  0.1244E+02  0.1495E+01E
 Epicentro: LOS SANTOS - SANTANDER                                             3
 ACTION:UPD 16-02-04 15:08 OP:cam  STATUS:               ID:20151229160036 L   I
 OLDACT:DUP 15-12-29 23:52 OP:dnl  STATUS:               ID:20151229155750d    3
 2015-12-29-1557-49M.COL___340                                                 6
 STAT SP IPHASW D HRMM SECON CODA AMPLIT PERI AZIMU VELO AIN AR TRES W  DIS CAZ7
 BAR2 EZ EP       16 0 55.65                             171    0.1210 21.7 183 
 BAR2 EZ ES       16 1  9.43                             171   -0.8810 21.7 183 
 BAR2 EZ I        16 1 12.09        60.0 0.17            170           21.7 183 
 PAM  EZ EP       16 0 58.34                             149   -0.0610 80.2  41 
 PAM  EN ES       16 1 15.74                             149    0.3210 80.2  41 
 PAM  EZ I        16 1 17.71        34.0 0.45            151           80.2  41 
 RUS  HZ EP       16 0 59.74                             143    0.0210 99.5 174 
 RUS  HE ES       16 1 18.34                             143    0.5610 99.5 174 
 RUS  HZ I        16 1 19.31        27.8 0.06            144           99.5 174 
 PTB  HZ EP       16 1  2.45                             131   -0.38 9  145 259 
 PTB  HN ES       16 1 23.48                             131    0.17 9  145 259 
 PTB  HZ I        16 1 25.15        19.7 0.18            131            145 259 
 SPBC HZ EP       16 1  4.59                             128    0.19 9  160 218 
 SPBC HE ES       16 1 26.79                             128    0.69 9  160 218 
 SPBC HZ I        16 1 29.22        51.3 0.16            128            160 218 
 ZAR  HZ EP       16 1  9.34                             121    0.89 9  202 293 
 ZAR  HE ES       16 1 32.79                             121   -0.52 9  202 293 
 ZAR  HZ I        16 1 39.89        14.8 0.19            121            202 293 
 SML  HZ EP   1   16 1 12.70                             116   -0.20 6  244 336 
 SML  HN ES   2   16 1 40.60                             116   -0.64 4  244 336 
 SML  HZ I        16 1 43.58        27.9 0.11            117            244 336 
 CHI  HZ EP   2   16 1 13.77                             116    0.01 4  247 195 
 CHI  HN ES       16 1 41.77                             116   -1.00 8  247 195 
 CHI  HZ I        16 1 47.06         7.2 0.44            117            247 195 
 GUY2CHZ EP   4   16 1 21.12                             111    1.53 0  298 235 
 GUY2CHN ES       16 1 53.48                             111    0.34 7  298 235 
 GUY2CHZ I        16 2  2.07        10.8 0.23                           298 235 
 PRA  HZ EP       16 1 29.21                             106   -0.40 6  389 209 
 PRA  HN ES       16 2 11.06                             106    0.07 6  389 209 
 PRA  HZ I        16 2 18.00         8.6 0.21            106            389 209 
 ORTC HZ EP   1   16 1 29.86                             105   -0.13 4  393 216 
 ORTC HN ES       16 2 11.20                             105   -0.46 6  393 216 
 ORTC HZ I        16 2 18.40         5.0 0.27            106            393 216 
                                                                                
