 2011 1029 1547 49.0 L   6.694 -73.114132.7  RSN  4 0.3 1.5LRSN                1
 GAP=145        0.56       4.9     8.0  8.1 -0.3099E+01 -0.1172E+02  0.2097E+01E
 Epicentro: JORDAN - SANTANDER                                                 3
 ACTION:UPD 12-07-13 16:06 OP:ep   STATUS:               ID:20111029154749 L   I
 2011-10-29-1544-00S.COL___157                                                 6
 STAT SP IPHASW D HRMM SECON CODA AMPLIT PERI AZIMU VELO AIN AR TRES W  DIS CAZ7
 BAR2 SZ EP   1   1548  6.86                             174   -0.07 7 13.6 214 
 BAR2 SZ ES   2   1548 20.40                             174   -0.48 5 13.6 214 
 BAR2 SZ I        1548 23.49         7.5 0.22                          13.6 214 
 BRR  HZ EP   2   1548  8.89                             147   -0.49 5 80.3 305 
 BRR  HZ I        1548  9.18         9.7 0.08                          80.3 305 
 BRR  HN ES   2   1548 25.67                             147    0.43 5 80.3 305 
 PAM  SZ EP   1   1548 10.67                             146    0.29 7 84.8  33 
 PAM  SN ES   2   1548 26.83                             146   -0.18 5 84.8  33 
 RUS  HZ EP   1   1548 10.53                             144   -0.12 7 88.7 178 
 RUS  HN ES   2   1548 28.00                             144    0.49 5 88.7 178 
 RUS  HZ I        1548 30.59         5.3 0.62                          88.7 178 
                                                                                
