 2015  729 1034 23.5 L   6.700 -73.258143.7  RSN  6 0.5 1.4LRSN                1
 GAP=147        1.33       8.5     7.6 10.0  0.2124E+02  0.8230E+01 -0.3163E+02E
 Epicentro: GALAN - SANTANDER                                                  3
 ACTION:UPD 15-09-08 21:51 OP:cam  STATUS:               ID:20150729103423 L   I
 OLDACT:DUP 15-07-30 00:26 OP:stll STATUS:               ID:20150729102749d    3
 2015-07-29-1027-48M.COL___334                                                 6
 STAT SP IPHASW D HRMM SECON CODA AMPLIT PERI AZIMU VELO AIN AR TRES W  DIS CAZ7
 BAR2 EZ EP       1034 42.16                             174   -0.6110 14.6 145 
 BAR2 EZ ES       1034 57.74                             174   -0.0310 14.6 145 
 BAR2 EZ I        1034 59.27         3.8 0.16            178           14.6 145 
 BRR  HZ EP       1034 44.19                             153   -0.0610 67.4 312 
 BRR  HN ES       1035  0.81                             153    0.4110 67.4 312 
 RUS  HN ES       1035  4.75                             146    0.4610 91.3 168 
 CPBEREZ EP       1034 49.20                             135    0.1210  134 262 
 CPBEREN ES       1035  8.11                             135   -0.8910  134 262 
 OCA  HZ EP       1034 52.17                             127   -0.48 9  170 358 
 ZAR  HZ EP       1034 56.18                             123    1.03 9  197 296 
 ZAR  HN ES       1035 20.01                             123    0.21 9  197 296 
 ZAR  HZ I        1035 25.97         3.7 0.72            123            197 296 
                                                                                
