 2015  129 1153 18.9 L   6.758 -73.117148.5  RSN  7 0.3 1.7LRSN                1
 GAP=142        0.71       3.0     3.7  7.2 -0.2112E+01  0.1063E+02  0.3183E-01E
 Epicentro: LOS SANTOS - SANTANDER                                             3
 ACTION:UPD 15-03-02 15:43 OP:nd   STATUS:               ID:20150129115318 L   I
 OLDACT:REG 15-01-29 20:45 OP:spq  STATUS:               ID:20150129114748     3
 2015-01-29-1147-48M.COL___271                                                 6
 STAT SP IPHASW D HRMM SECON CODA AMPLIT PERI AZIMU VELO AIN AR TRES W  DIS CAZ7
 PAM  SZ EP     C 1153 41.89                             150    0.3710 79.1  36 
 PAM  SE ES       1153 59.08                             150   -0.0810 79.1  36 
 PAM  SZ I        1154  1.23         7.9 0.44            151           79.1  36 
 RUS  HE ES   1   1154  0.66                             145   -0.41 7 95.8 178 
 RUS  HZ I        1154  1.93         3.5 0.58            148           95.8 178 
 PTB  HZ EP       1153 46.65                             132    0.34 9  150 261 
 PTB  HE ES   1   1154  8.23                             132    0.55 7  150 261 
 PTB  HZ I        1154  9.36         6.7 0.12            132            150 261 
 ZAR  HN ES       1154 17.74                             122   -0.10 8  209 293 
 ZAR  HZ I        1154 23.60         9.9 0.28            122            209 293 
 NOR  HN ES       1154 22.45                             119   -0.33 8  235 236 
 NOR  HZ I        1154 25.05         3.2 0.22            120            235 236 
 CHI  HZ EP   1   1153 56.22                             118   -0.15 6  245 196 
 CHI  HN ES   1   1154 25.69                             118    0.10 6  245 196 
 CHI  HZ I        1154 27.97         1.9 0.78            119            245 196 
 SML  HZ EP   1   1153 55.84                             117   -0.45 6  249 335 
 SML  HE ES   1   1154 24.95                             117   -0.49 6  249 335 
 SML  HZ I        1154 31.46         7.4 0.12            117            249 335 
                                                                                
