 2010 1229 1057 58.7 L   6.803 -73.438132.3  RSN  6 0.3 1.6LRSN                1
 GAP=135        0.95       5.7     9.8 11.9 -0.2859E+02  0.5159E+02 -0.2777E+02E
 Epicentro: SAN VICENTE DE CHUCURI - SANTANDER                                 3
 ACTION:UP  11-01-14 15:27 OP:pat  STATUS:               ID:20101229105758 L   I
 2010-12-29-1055-45S.COL___117                                                 6
 STAT SP IPHASW D HRMM SECON CODA AMPLIT PERI AZIMU VELO SNR AR TRES W  DIS CAZ7
 BTL  SZ EP       1058 17.35                             170     0.610   23  56 
 BAR2 SZ IP       1058 17.33                             164     0.210   37 130 
 BAR2 SZ ES   1   1058 31.24                             164    -0.2 7   37 130 
 BAR2 SZ I        1058 35.60         7.5 0.13                            37 130 
 RUS  HZ EP       1058 21.36                             139    -0.410  108 159 
 RUS  HN ES   1   1058 39.77                             139     0.0 7  108 159 
 RUS  HZ I        1058 41.78         6.6 0.31                           108 159 
 GRA  SZ EP   1   1058 24.12                             131     0.2 7  139  30 
 GRA  SZ ES   1   1058 43.19                             131    -0.5 7  139  30 
 GRA  SZ I        1058 44.75         8.4 0.19                           139  30 
 OCA  SZ EP   1   1058 25.72                             126    -0.2 7  159   5 
 OCA  SZ I        1058 49.27         6.6 0.11                           159   5 
 NOR  SN ES   1   1058 55.88                             119    -0.3 6  210 229 
                                                                                
