 2016 1229 1258  9.6 L   6.768 -73.193149.7  RSN  9 0.6 1.7LRSN                1
 GAP=132        1.38       5.5     6.4  9.4  0.2332E+00  0.1563E+02  0.1282E+02E
 Epicentro: ZAPATOCA - SANTANDER                                               3
 ACTION:UPD 17-01-11 20:20 OP:rebc STATUS:               ID:20161229125809 L   I
 OLDACT:UP  16-12-29 22:40 OP:cog  STATUS:               ID:20161229124750     3
 OLDACT:UP  16-12-29 22:40 OP:cog  STATUS:               ID:20161229124750     3
 OLDACT:REG 16-12-29 20:45 OP:cog  STATUS:               ID:20161229124750     3
 2016-12-29-1248-00M.COL___381                                                 6
 STAT SP IPHASW D HRMM SECON CODA AMPLIT PERI AZIMU VELO AIN AR TRES W  DIS CAZ7
 BAR2 EZ EP       1258 29.54                             172   -0.0510 19.5 177 
 BAR2 EZ ES       1258 45.29                             172    0.0710 19.5 177 
 BAR2 EZ I        1258 45.55        16.7 0.32            168           19.5 177 
 BRR  HZ EP       1258 31.28                             154    0.2910 68.5 303 
 BRR  HN ES       1258 48.65                             154    0.9410 68.5 303 
 PAM  EZ EP       1258 32.54                             150   -0.0210 83.4  41 
 PAM  EE ES       1258 49.35                             150   -1.1410 83.4  41 
 PAM  EZ I        1258 50.28         5.9 0.22            154           83.4  41 
 RUS  HZ EP       1258 33.70                             145    0.2110 97.6 173 
 RUS  HN ES       1258 52.45                             145    0.2910 97.6 173 
 RUS  HZ I        1258 53.77         5.9 0.36            143           97.6 173 
 PTB  HZ EP       1258 36.12                             134   -0.22 9  142 260 
 PTB  HN ES   3   1258 55.90                             134   -1.33 2  142 260 
 PTB  HZ I        1258 59.13         6.8 0.18            132            142 260 
 ZAR  HZ EP   4   1258 43.72                             124    1.80 0  201 294 
 ZAR  HN ES       1259  7.17                             124    0.02 9  201 294 
 NOR  HZ EP   4   1258 42.12                             120   -2.74 0  228 234 
 NOR  HE ES       1259 11.34                             120   -1.05 8  228 234 
 NOR  HZ I        1259 20.94         3.9 0.13            119            228 234 
 CHI  HZ EP       1258 47.72                             118    0.74 8  244 194 
 CHI  HN ES       1259 16.00                             118   -0.16 8  244 194 
 CHI  HZ I        1259 22.11         4.5 0.36            118            244 194 
 GUY2CHZ EP   4   1258 54.66                             114    2.01 0  295 235 
 GUY2CHE ES   4   1259 31.05                             114    4.78 0  295 235 
 GUY2CHZ I        1259 35.71         2.6 0.32                           295 235 
                                                                                
