 2012  629 1625 39.5 L   6.981 -73.252119.7  RSN  6 0.4 1.8LRSN                1
 GAP=129        0.78       6.0     4.3  7.6 -0.7103E+01  0.1316E+02 -0.2908E+01E
 Epicentro: BETULIA - SANTANDER                                                3
 ACTION:UPD 12-08-06 17:53 OP:ep   STATUS:               ID:20120629162539 L   I
 2012-06-29-1620-00M.COL___201                                                 6
 STAT SP IPHASW D HRMM SECON CODA AMPLIT PERI AZIMU VELO AIN AR TRES W  DIS CAZ7
 BAR2 SZ EP   1   1625 56.76                             159    0.09 7 43.6 170 
 BAR2 SZ I        1625 56.91        27.4 0.07                          43.6 170 
 BAR2 SZ ES   1   1626 10.43                             159    0.33 7 43.6 170 
 BRR  HZ EP   1   1625 56.92                             155    0.16 7 52.7 285 
 BRR  HN ES   1   1626  9.73                             155   -0.53 7 52.7 285 
 BRR  HZ I        1626 13.98        22.5 0.35                          52.7 285 
 PAM  SZ EP   1   1625 58.35                             147   -0.31 7 72.7  57 
 PAM  SN ES   1   1626 13.83                             147    0.19 7 72.7  57 
 PTB  HZ EP   1   1626  3.73                             126   -0.13 7  142 250 
 PTB  HN ES   1   1626 22.32                             126   -0.57 7  142 250 
 PTB  HZ I        1626 25.09         4.4 0.20                           142 250 
 ZAR  HZ EP   1   1626  8.15                             118   -0.27 7  186 288 
 ZAR  HN ES   1   1626 31.90                             118    0.89 7  186 288 
 ZAR  HZ I        1626 36.24         4.6 0.14                           186 288 
 NOR  SE ES   1   1626 41.60                             112    0.33 6  238 229 
                                                                                
