 2013  929 1452 13.8 L   6.691 -73.180141.1  RSN  4 0.3 1.2LRSN                1
 GAP=225        0.72       7.0     5.6  7.3  0.1039E+02  0.8771E+01 -0.8443E+01E
 Epicentro: VILLANUEVA - SANTANDER                                             3
 ACTION:UPD 13-10-22 09:25 OP:ep   STATUS:               ID:20130929145213 L   I
 OLDACT:UP  13-09-29 19:22 OP:jn   STATUS:               ID:20130929144960d    3
 OLDACT:REG 13-09-29 14:44 OP:jn   STATUS:               ID:20130929144960d    3
 2013-09-29-1449-59M.COL___272                                                 6
 STAT SP IPHASW D HRMM SECON CODA AMPLIT PERI AZIMU VELO AIN AR TRES W  DIS CAZ7
 BAR2 SZ EP       1452 32.48                             175   -0.1910 10.9 182 
 BAR2 SZ ES       1452 47.24                             175   -0.1510 10.9 182 
 BAR2 SZ I        1452 48.14         3.8 0.24            168           10.9 182 
 BRR  HZ EP       1452 34.51                             150   -0.1310 74.7 308 
 BRR  HN ES   1   1452 51.42                             150    0.51 7 74.7 308 
 RUS  HN ES   1   1452 54.08                             146    0.30 7 88.9 173 
 RUS  HZ I        1452 55.73         1.4 0.28            143           88.9 173 
 PTB  HZ EP   1   1452 40.41                             132    0.54 7  142 263 
 PTB  HN ES       1452 59.93                             132   -0.28 9  142 263 
 PTB  HZ I        1453  5.62         4.5 0.34            129            142 263 
                                                                                
