 2010  929 1212 40.9 L   6.792 -73.044148.4  RSN  7 0.4 1.8LRSN                1
 GAP=170        0.93       5.7     7.4  8.2 -0.6785E+01 -0.1461E+02 -0.2020E+01E
 Epicentro: LOS SANTOS - SANTANDER                                             3
 ACTION:UP  11-02-18 11:06 OP:tino STATUS:               ID:20100929121240 L   I
 2010-09-29-1210-12S.COL___125                                                 6
 STAT SP IPHASW D HRMM SECON CODA AMPLIT PERI AZIMU VELO SNR AR TRES W  DIS CAZ7
 BAR2 SZ EP       1213  1.02                             169     0.110   27 215 
 BAR2 SZ ES   1   1213 16.15                             169    -0.4 7   27 215 
 BAR2 SZ I        1213 17.34        19.6 0.32                            27 215 
 BRR  HZ EP       1213  2.94                             150     0.010   82 295 
 BRR  HZ I        1213  3.19        43.2 0.58                            82 295 
 BRR  HN ES       1213 20.32                             150     0.210   82 295 
 RUS  HZ EP       1213  5.13                             145     0.310  100 183 
 RUS  HN ES   2   1213 23.70                             145     0.2 5  100 183 
 RUS  HZ I        1213 24.94         6.2 0.14                           100 183 
 GUE  SZ EP       1213  6.10                             140     0.310  116   7 
 GRA  SZ EP       1213  5.81                             138    -0.410  124  12 
 GRA  SZ I        1213 27.15        13.2 0.30                           124  12 
 NOR  SZ EP   1   1213 17.27                             118    -0.5 6  244 236 
 NOR  SN ES   2   1213 45.47                             118    -1.0 4  244 236 
 NOR  SZ I        1213 49.75         0.8 0.41                           244 236 
 HEL  HE ES   2   1213 55.81                             114     1.0 4  283 257 
 HEL  HZ I        1213 59.76         6.8 0.24                           283 257 
                                                                                
