 2017  329 1553 36.8 L   6.522 -73.515111.0  RSN  7 0.3 1.6LRSN                1
 GAP= 97        0.91       3.9     4.6  6.6  0.7784E+00  0.5166E+01  0.1116E+01E
 Epicentro: EL CARMEN - SANTANDER                                              3
 ACTION:UPD 17-05-25 18:47 OP:jn   STATUS:               ID:20170329155336 L   I
 OLDACT:UP  17-03-29 23:03 OP:ansd STATUS:               ID:20170329154715     3
 OLDACT:UP  17-03-29 23:02 OP:ansd STATUS:               ID:20170329154715     3
 OLDACT:UP  17-03-29 23:02 OP:ansd STATUS:               ID:20170329154715     3
 OLDACT:UP  17-03-29 23:01 OP:ansd STATUS:               ID:20170329154715     3
 OLDACT:UP  17-03-29 23:01 OP:ansd STATUS:               ID:20170329154715     3
 OLDACT:REG 17-03-29 20:11 OP:and  STATUS:               ID:20170329154715     3
 2017-03-29-1548-00M.COL___368                                                 6
 STAT SP IPHASW D HRMM SECON CODA AMPLIT PERI AZIMU VELO AIN AR TRES W  DIS CAZ7
 BAR2 EZ IP     C 1553 52.83                             159    0.0610 37.6  78 
 BAR2 EZ ES       1554  4.96                             159   -0.2510 37.6  78 
 BAR2 EZ I        1554  6.54        26.1 0.24            161           37.6  78 
 BRR  HZ EP       1553 53.64                             145   -0.4910 68.3 341 
 BRR  HN ES       1554  7.94                             145    0.3110 68.3 341 
 RUS  HZ EP       1553 56.02                             139    0.0210 84.4 145 
 RUS  HN ES   2   1554 11.59                             139    0.62 5 84.4 145 
 RUS  HZ I        1554 12.74         4.1 0.48            140           84.4 145 
 PTB  HZ EP   9   1553 55.69                             133   -1.30 0  104 271 
 PTB  HN ES       1554 10.64                             134   -0.7910  104 271 
 PTB  HZ I        1554 12.02        10.5 0.20            132            104 271 
 SPBC HN ES       1554 14.45                             130   -0.0910  114 213 
 SPBC HZ I        1554 17.74         9.7 0.10            129            114 213 
 ZAR  HZ EP       1554  5.21                             116    0.26 9  183 306 
 ZAR  HN ES   2   1554 27.50                             116    0.61 4  183 306 
 ZAR  HZ I        1554 32.07         4.6 0.22            116            183 306 
 NOR  HZ EP   4   1554  3.52                             116   -1.53 0  184 235 
 NOR  HN ES   2   1554 26.92                             116   -0.16 4  184 235 
                                                                                
