 2016  429 1821  3.8 L   6.784 -73.178139.3  RSN  4 0.2 1.2LRSN                1
 GAP=141        0.49       3.9     3.0  4.7  0.3163E-01  0.1538E+01 -0.6644E+01E
 Epicentro: LOS SANTOS - SANTANDER                                             3
 ACTION:UPD 16-05-05 14:25 OP:rebc STATUS:               ID:20160429182103 L   I
 OLDACT:REG 16-04-29 20:17 OP:cara STATUS:               ID:20160429181745     3
 2016-04-29-1817-45M.COL___262                                                 6
 STAT SP IPHASW D HRMM SECON CODA AMPLIT PERI AZIMU VELO AIN AR TRES W  DIS CAZ7
 BAR2 EZ ES       1821 37.46                             171    0.1410 21.2 181 
 BAR2 EZ I        1821 38.64         6.2 0.20            170           21.2 181 
 PAM  EZ IP       1821 25.48                             148   -0.1210 81.1  41 
 RUS  HZ EP       1821 26.79                             143   -0.0610 99.1 174 
 RUS  HE ES       1821 44.76                             143   -0.0410 99.1 174 
 RUS  HZ I        1821 46.18         1.9 0.48            144           99.1 174 
 PTB  HZ EP       1821 30.21                             131    0.29 9  144 259 
 PTB  HN ES       1821 50.07                             131   -0.20 9  144 259 
 PTB  HZ I        1821 54.47         1.8 0.14            131            144 259 
                                                                                
