 2010  629 1738 11.3 L   6.788 -73.116145.9  RSN  8 0.3 2.0LRSN                1
 GAP=159        0.56       2.5     5.4  4.4 -0.4929E+01 -0.1319E+01 -0.5600E+00E
 Epicentro: LOS SANTOS - SANTANDER                                             3
 ACTION:UP  10-08-24 10:13 OP:vdl  STATUS:               ID:20100629173811 L   I
 2010-06-29-1735-52S.COL___118                                                 6
 STAT SP IPHASW D HRMM SECON CODA AMPLIT PERI AZIMU VELO SNR AR TRES W  DIS CAZ7
 BAR2 SZ IP       1738 30.84                             171    -0.110   23 199 
 BAR2 SZ ES   1   1738 45.92                             171    -0.3 7   23 199 
 BRR  HZ IP     C 1738 32.65                             151     0.010   75 298 
 BRR  HZ I        1738 32.90        27.4 0.19                            75 298 
 BRR  HE ES   1   1738 49.52                             151     0.2 7   75 298 
 RUS  HZ EP   1   1738 34.66                             144    -0.3 7   99 178 
 RUS  HE ES   1   1738 53.75                             144     0.4 7   99 178 
 RUS  HZ I        1738 54.70        11.3 0.43                            99 178 
 BRI  SZ IP       1738 35.38                             141     0.210  109  19 
 BRI  SZ ES   2   1738 53.63                             141    -0.2 5  109  19 
 GUE  SZ EP   1   1738 35.91                             139    -0.1 7  117  10 
 GRA  SZ IP       1738 36.61                             137     0.110  126  16 
 GRA  SZ ES   1   1738 56.40                             137     0.1 7  126  16 
 OCA  SZ EP   1   1738 39.42                             129    -0.3 7  162 352 
 OCA  SZ ES   2   1739  1.98                             129     0.0 5  162 352 
 OCA  SZ I        1739  6.65        10.4 0.40                           162 352 
 PRA  HZ EP   1   1739  5.53                             107     0.7 4  392 210 
 PRA  HE ES   1   1739 46.17                             107    -0.5 4  392 210 
 PRA  HZ I        1739 49.91         4.2 0.64                           392 210 
                                                                                
