 2013  529 1007 35.2 L   6.772 -73.128145.8  RSN 14 0.4 2.2LRSN                1
 GAP=121        1.07       3.2     4.3  4.9 -0.3479E+01  0.4763E+01  0.7751E+00E
 Epicentro: LOS SANTOS - SANTANDER                                             3
 ACTION:UPD 13-06-20 09:54 OP:ep   STATUS:               ID:20130529100735 L   I
 OLDACT:UP  13-05-31 22:29 OP:Juan STATUS:               ID:20130529100735 L   3
 2013-05-29-0958-49M.COL___216                                                 6
 STAT SP IPHASW D HRMM SECON CODA AMPLIT PERI AZIMU VELO AIN AR TRES W  DIS CAZ7
 BAR2 SZ IP     D 10 7 54.94                             172    0.1510 20.8 197 
 BAR2 SZ ES       10 8  9.91                             172   -0.1510 20.8 197 
 BAR2 SZ I        10 8 11.17        28.3 0.12            171           20.8 197 
 GIR2 SZ EP       10 7 55.04                             166    0.0610 34.7 348 
 GIR2 SZ ES       10 8 10.01                             166   -0.3910 34.7 348 
 BRR  HZ IP     C 10 7 56.98                             151    0.4310 74.5 300 
 BRR  HN ES       10 8 13.85                             151    0.6610 74.5 300 
 BRR  HE I        10 8 14.52        59.9 0.22            152           74.5 300 
 PAM  SZ EP       10 7 57.91                             150    0.4110 78.6  37 
 PAM  SN ES       10 8 15.04                             150    0.1610 78.6  37 
 PAM  SE I        10 8 16.59        15.9 0.54            153           78.6  37 
 RUS  HZ EP       10 7 58.84                             145    0.1110 97.4 177 
 RUS  HE ES       10 8 16.67                             145   -0.4110 97.4 177 
 RUS  HN I        10 8 19.02        17.4 0.32            146           97.4 177 
 PTB  HZ EP       10 8  1.75                             132   -0.56 9  149 260 
 PTB  HN ES       10 8 22.70                             132   -0.74 9  149 260 
 PTB  HE I        10 8 28.41        19.1 0.36            132            149 260 
 CAPV BZ ES       10 8 23.96                             131   -0.22 9  151  37 
 OCA  HN ES       10 8 26.86                             129    0.70 9  164 353 
 NOR  HZ EP       10 8 11.20                             118    0.28 8  235 235 
 SML  HZ EP       10 8 12.15                             117   -0.08 8  247 335 
 SML  HE ES       10 8 40.60                             117   -0.51 8  247 335 
 HEL  HZ EP   4   10 8 16.63                             115    1.07 0  273 257 
 URE  HZ EP       10 8 16.02                             113   -0.60 7  287 292 
 URE  HN ES   4   10 8 46.07                             113   -2.85 0  287 292 
 URE  HE I        10 8 49.13        17.0 0.20            114            287 292 
 SOCV BZ EP       10 8 17.57                             112   -0.69 7  301  56 
 GUY2CHZ EP       10 8 19.41                             112    0.61 7  301 235 
 GUY2CHN I        10 9  2.10         4.7 0.30                           301 235 
 PRA  HZ EP       10 8 28.72                             107    0.19 6  390 210 
 PRA  HE ES       10 9 10.69                             107    0.57 6  390 210 
                                                                                
