 2011  629 1703 22.3 L   6.667 -73.604104.4  RSN  4 0.4 1.4LRSN                1
 GAP=200        0.89      14.6    22.1 15.8  0.2694E+03  0.2302E+03  0.1558E+03E
 Epicentro: EL CARMEN DE CHUCURI - SANTANDER                                   3
 ACTION:UP  11-07-14 19:09 OP:ep   STATUS:               ID:20110629170322 L   I
 2011-06-29-1701-23S.COL___140                                                 6
 STAT SP IPHASW D HRMM SECON CODA AMPLIT PERI AZIMU VELO SNR AR TRES W  DIS CAZ7
 BTL  SZ EP       17 3 38.41                             149     0.510   46  53 
 BAR2 SZ ES   1   17 3 49.83                             150    -0.4 7   47 100 
 BAR2 SZ I        17 3 50.88        11.5 0.20                            47 100 
 BRR  HZ EP       17 3 37.48                             149    -0.310   50 346 
 BRR  HZ I        17 3 49.06        18.8 0.15                            50 346 
 BRR  HN ES   2   17 3 50.07                             149     0.2 5   50 346 
 RUS  HZ EP       17 3 42.42                             131    -0.110  103 146 
 RUS  HZ I        17 3 49.79         1.2 0.49                           103 146 
 RUS  HN ES   3   17 3 58.96                             131     0.7 2  103 146 
                                                                                
