 2016 1229 1934 59.4 L   6.796 -73.159141.5  RSN  7 0.4 1.4LRSN                1
 GAP=135        1.06       5.0     4.6  8.0 -0.4889E+01  0.1553E+02  0.1533E+01E
 Epicentro: LOS SANTOS - SANTANDER                                             3
 ACTION:UPD 17-01-11 20:20 OP:rebc STATUS:               ID:20161229193459 L   I
 OLDACT:UP  16-12-30 01:24 OP:lv   STATUS:               ID:20161229192750d    3
 OLDACT:DUP 16-12-30 01:19 OP:lv   STATUS:               ID:20161229192750d    3
 2016-12-29-1928-00M.COL___374                                                 6
 STAT SP IPHASW D HRMM SECON CODA AMPLIT PERI AZIMU VELO AIN AR TRES W  DIS CAZ7
 BAR2 EZ EP       1935 18.25                             170   -0.2410 22.7 186 
 BAR2 EZ ES       1935 33.28                             170   -0.1110 22.7 186 
 BAR2 EZ I        1935 34.12         9.6 0.39            171           22.7 186 
 PAM  EZ EP       1935 20.83                             150   -0.4010 78.7  40 
 PAM  EN ES       1935 38.54                             150    0.2810 78.7  40 
 PAM  EZ I        1935 40.57         3.6 0.37            152           78.7  40 
 RUS  HZ EP       1935 22.91                             143    0.2210  100 175 
 RUS  HE ES       1935 41.17                             143    0.2910  100 175 
 RUS  HZ I        1935 41.63         2.7 0.22            145            100 175 
 PTB  HZ EP       1935 25.28                             131   -0.58 9  146 259 
 PTB  HE ES       1935 45.92                             131   -0.60 9  146 259 
 PTB  HZ I        1935 49.02         3.1 0.16            132            146 259 
 ZAR  HE ES       1935 57.24                             122    0.82 9  203 292 
 NOR  HE ES       1936  2.57                             118    0.31 8  233 234 
 NOR  HZ I        1936  6.41         1.5 0.14            119            233 234 
 GUY2CHZ EP       1935 43.26                             112    0.63 7  300 235 
 GUY2CHN ES       1936 16.08                             112   -0.28 7  300 235 
 GUY2CHZ I        1936 23.90         1.1 0.22                           300 235 
                                                                                
