 2010  729 1521 52.4 L   6.781 -73.098138.1  RSN 12 0.5 2.6LRSN                1
 GAP=161        1.02       4.7    10.5  8.4 -0.2356E+02  0.8827E+01  0.5548E+01E
 Epicentro: LOS SANTOS - SANTANDER                                             3
 ACTION:UPD 10-12-01 15:20 OP:pat  STATUS:               ID:20100729152152 L   I
 2010-07-29-1518-59S.COL___123                                                 6
 STAT SP IPHASW D HRMM SECON CODA AMPLIT PERI AZIMU VELO AIN AR TRES W  DIS CAZ7
 BAR2 SZ IP     C 1522 10.88                             170    -0.210   23 204 
 BAR2 SZ ES   2   1522 25.43                             170    -0.2 5   23 204 
 BAR2 SZ I        1522 26.53       190.5 0.16                            23 204 
 GIR2 SZ EP   1   1522 11.01                             165    -0.2 7   35 342 
 GIR2 SZ ES   2   1522 26.38                             165     0.4 5   35 342 
 BRR  HZ EP   1   1522 12.80                             149    -0.3 7   77 298 
 BRR  HE ES   2   1522 29.54                             149     0.4 5   77 298 
 BRR  HZ I        1522 30.90       133.5 0.15                            77 298 
 RUS  HZ EP   1   1522 14.93                             143    -0.3 7   98 179 
 RUS  HE ES   2   1522 33.38                             143     0.4 5   98 179 
 RUS  HZ I        1522 34.27        58.4 0.29                            98 179 
 BRI  SZ EP   1   1522 15.64                             139     0.1 7  109  18 
 BRI  SZ I        1522 38.94        28.1 0.38                           109  18 
 GUE  SZ EP   1   1522 15.96                             137    -0.5 7  118   9 
 GUE  SZ ES   2   1522 34.93                             137    -0.4 5  118   9 
 GUE  SZ I        1522 36.73        32.1 0.17                           118   9 
 GRA  SZ IP     D 1522 17.92                             135     0.910  126  15 
 GRA  SZ ES   2   1522 36.74                             135     0.5 5  126  15 
 GRA  SZ I        1522 39.60        59.7 0.26                           126  15 
 OCA  SZ EP   1   1522 19.61                             127    -0.8 7  163 351 
 OCA  SZ ES   2   1522 41.51                             127    -0.7 5  163 351 
 OCA  SZ I        1522 49.06        73.2 0.62                           163 351 
 CHI  HZ EP   1   1522 29.86                             115     0.3 6  248 196 
 CHI  HN ES   2   1522 57.92                             115    -0.7 4  248 196 
 CHI  HZ I        1523  1.81        17.6 0.49                           248 196 
 ROSC BZ EP   1   1522 30.76                             115     0.6 6  254 212 
 ROSC BN ES   2   1522 59.81                             115     0.1 4  254 212 
 ROSC BZ I        1523  7.28        19.9 0.61                           254 212 
 HEL  HZ EP   1   1522 33.27                             113     0.5 6  277 257 
 HEL  HZ I        1523 10.07        26.9 0.47                           277 257 
 PRA  HZ EP   1   1522 45.54                             105    -0.2 4  393 210 
 PRA  HN ES   2   1523 26.90                             105    -0.5 3  393 210 
 PRA  HZ I        1523 33.32        15.3 0.36                           393 210 
                                                                                
