 2015  629 1615 59.4 L   6.812 -73.083147.4  RSN  9 0.4 2.2LRSN                1
 GAP=189        0.98       3.2     5.2  6.8 -0.1858E+01  0.1424E+02 -0.1414E+01E
 Epicentro: LOS SANTOS - SANTANDER                                             3
 ACTION:UPD 15-09-10 22:15 OP:cam  STATUS:               ID:20150629161559 L   I
 OLDACT:UP  15-06-30 01:06 OP:mh   STATUS:               ID:20150629160750d    3
 OLDACT:DUP 15-06-30 00:59 OP:mh   STATUS:               ID:20150629160750d    3
 OLDACT:UP  15-06-30 00:41 OP:mh   STATUS:               ID:20150629160749     3
 OLDACT:UP  15-06-30 00:36 OP:mh   STATUS:               ID:20150629160749     3
 OLDACT:UP  15-06-30 00:36 OP:mh   STATUS:               ID:20150629160749     3
 OLDACT:UP  15-06-30 00:34 OP:mh   STATUS:               ID:20150629160749     3
 OLDACT:REG 15-06-29 23:23 OP:mh   STATUS:               ID:20150629160749     3
 2015-06-29-1607-49M.COL___319                                                 6
 STAT SP IPHASW D HRMM SECON CODA AMPLIT PERI AZIMU VELO AIN AR TRES W  DIS CAZ7
 BAR2 EZ EP       1616 19.69                             169    0.4310 26.6 204 
 BAR2 EZ ES       1616 35.04                             169    0.2710 26.6 204 
 BAR2 EZ I        1616 36.19        25.7 0.21            165           26.6 204 
 RUS  HZ EP       1616 23.18                             144   -0.1610  102 180 
 RUS  HN ES   1   1616 41.66                             144   -0.39 7  102 180 
 RUS  HZ I        1616 43.54         8.4 0.24            145            102 180 
 OCA  HZ EP   1   1616 28.14                             130    0.37 7  160 351 
 OCA  HN ES       1616 49.58                             130   -0.35 9  160 351 
 OCA  HZ I        1616 53.87        30.5 0.22            132            160 351 
 ZAR  HZ EP       1616 33.39                             122    0.86 8  210 291 
 ZAR  HN ES       1616 58.49                             122    0.09 8  210 291 
 ZAR  HZ I        1617  3.50        13.0 0.20            122            210 291 
 NOR  HZ EP       1616 35.46                             118   -0.41 8  241 235 
 NOR  HN ES       1617  3.84                             118   -0.51 8  241 235 
 NOR  HZ I        1617  9.86        13.5 0.18            118            241 235 
 SML  HZ EP       1616 35.53                             118   -0.75 8  246 334 
 SML  HN ES       1617  4.97                             118   -0.10 8  246 334 
 SML  HZ I        1617  7.45        15.2 0.10            119            246 334 
 HEL  HZ EP   1   1616 40.20                             114   -0.24 6  279 256 
 HEL  HN ES       1617 12.50                             114    0.02 7  279 256 
 HEL  HZ I        1617 20.99         4.8 0.38            115            279 256 
 GUY2CHZ EP       1616 44.67                             112    0.90 7  308 235 
 GUY2CHN ES       1617 18.39                             112   -0.02 7  308 235 
 GUY2CHZ I        1617 26.20         7.8 0.46                           308 235 
 TOL  SZ EP       1616 48.05                             109   -0.30 6  349 225 
 TOL  SN ES   4   1617 29.38                             109    2.82 0  349 225 
 TOL  SZ I        1617 36.53         6.2 0.62            110            349 225 
                                                                                
