 2015  329 1749 34.8 L   6.824 -73.140146.0  RSN  9 0.5 1.9LRSN                1
 GAP=136        1.25       4.1     5.3  7.6 -0.7488E+00  0.8570E+01 -0.5090E+01E
 Epicentro: LOS SANTOS - SANTANDER                                             3
 ACTION:UPD 15-04-30 16:30 OP:nd   STATUS:               ID:20150329174934 L   I
 OLDACT:REG 15-03-29 20:47 OP:fm   STATUS:               ID:20150329174747     3
 2015-03-29-1747-47M.COL___290                                                 6
 STAT SP IPHASW D HRMM SECON CODA AMPLIT PERI AZIMU VELO AIN AR TRES W  DIS CAZ7
 BAR2 EZ EP       1749 54.68                             169    0.1710 26.0 190 
 BAR2 EZ ES       1750  9.44                             169   -0.4510 26.0 190 
 BAR2 EZ I        1750 11.95        14.0 0.24            172           26.0 190 
 BRR  HZ EP       1749 56.60                             153    0.6710 70.6 296 
 BRR  HN ES       1750 13.22                             153    0.8010 70.6 296 
 BRR  HZ I        1750 18.51        11.9 0.46            151           70.6 296 
 PAM  SZ IP     C 1749 57.61                             152    0.7210 75.0  40 
 PAM  SE ES       1750 14.08                             152   -0.0510 75.0  40 
 PAM  SZ I        1750 16.84        16.5 0.62            153           75.0  40 
 RUS  HZ EP       1749 58.96                             143    0.2110  103 177 
 RUS  HN ES       1750 16.91                             143   -0.5310  103 177 
 RUS  HZ I        1750 18.42         7.9 0.24            149            103 177 
 PTB  HZ EP   1   1750  0.89                             132   -0.99 7  149 258 
 PTB  HN ES       1750 23.10                             132    0.09 9  149 258 
 PTB  HZ I        1750 25.27         7.1 0.12            133            149 258 
 OCA  HZ EP       1750  2.90                             130    0.01 9  158 353 
 OCA  HN ES       1750 23.95                             130   -0.85 9  158 353 
 OCA  HZ I        1750 29.25        19.5 0.48            131            158 353 
 ZAR  HN ES       1750 32.69                             122    0.19 9  204 291 
 ZAR  HZ I        1750 38.87        10.6 0.32            124            204 291 
 SML  HZ EP       1750 11.17                             118   -0.03 8  242 335 
 SML  HE ES       1750 39.02                             118   -0.58 8  242 335 
 SML  HZ I        1750 47.04         7.7 0.10            119            242 335 
 GUY2CHZ EP   1   1750 18.55                             112   -0.09 5  303 234 
 GUY2CHN ES   1   1750 52.29                             112   -0.55 5  303 234 
 GUY2CHZ I        1751  3.67         2.0 0.64                           303 234 
                                                                                
