 2012  229 1536 38.0 L   6.765 -73.160149.6  RSN  6 0.4 2.0LRSN                1
 GAP=136        0.84       5.7     5.1  7.6  0.3117E+01  0.9315E+01 -0.2028E+01E
 ACTION:UP  12-03-07 16:35 OP:epov STATUS:               ID:20120229153638 L   I
 2012-02-29-1530-00M.COL___191                                                 6
 STAT SP IPHASW D HRMM SECON CODA AMPLIT PERI AZIMU VELO AIN AR TRES W  DIS CAZ7
 BAR2 SZ EP   1   1536 58.04                             172   -0.01 7 19.3 187 
 BAR2 SZ ES   1   1537 13.29                             172   -0.37 7 19.3 187 
 BAR2 SZ I        1537 14.32        27.0 0.39                          19.3 187 
 BRR  HZ EP   1   1536 59.91                             153    0.29 7 71.8 302 
 BRR  HE ES   1   1537 17.45                             153    0.99 7 71.8 302 
 PAM  SZ EP   1   1537  0.80                             150   -0.09 7 81.4  39 
 PAM  SZ I        1537  1.09        12.3 0.19                          81.4  39 
 PAM  SE ES   1   1537 18.29                             150   -0.43 7 81.4  39 
 RUS  HZ EP   1   1537  2.18                             146    0.28 7 96.9 175 
 RUS  HN ES   1   1537 20.65                             146    0.14 7 96.9 175 
 RUS  HZ I        1537 21.90        11.6 0.37                          96.9 175 
 PTB  HZ EP   1   1537  4.69                             133   -0.42 7  145 260 
 PTB  HN ES   1   1537 25.78                             133   -0.45 7  145 260 
 ZAR  HZ EP   1   1537 11.09                             123    0.36 6  204 293 
 ZAR  HE ES   1   1537 35.81                             123   -0.42 6  204 293 
 ZAR  HZ I        1537 43.19        15.3 0.25                           204 293 
                                                                                
