 2011  329 1616 49.7 L   6.710 -73.677 97.2  RSN  6 0.5 2.0LRSN                1
 GAP=123        0.96       8.6     6.6 11.5 -0.1320E+02  0.2015E+02  0.3940E+02E
 Epicentro: EL CARMEN DE CHUCURI - SANTANDER                                   3
 ACTION:UP  11-06-16 14:36 OP:jfem STATUS:               ID:20110329161649 L   I
 2011-03-29-1614-20S.COL___138                                                 6
 STAT SP IPHASW D HRMM SECON CODA AMPLIT PERI AZIMU VELO SNR AR TRES W  DIS CAZ7
 BRR  HZ EP       1617  3.65                             154    -0.410   44 355 
 BRR  HZ I        1617  3.96        47.4 0.10                            44 355 
 BRR  HN ES   1   1617 15.23                             154     0.0 7   44 355 
 BTL  SZ IP       1617  5.13                             150     0.410   51  63 
 BAR2 SZ IP       1617  5.09                             148     0.010   56 103 
 BAR2 SZ ES   2   1617 17.38                             148     0.2 5   56 103 
 BAR2 SZ I        1617 18.78        42.4 0.17                            56 103 
 PAM  SZ EP   2   1617 11.88                             124     0.1 5  129  57 
 PAM  SN ES   2   1617 28.85                             124    -0.2 5  129  57 
 PAM  SZ I        1617 30.97         9.1 0.19                           129  57 
 NOR  SZ EP   1   1617 16.24                             114    -0.9 7  183 226 
 NOR  SN ES   2   1617 39.15                             114     0.6 4  183 226 
 DBB  SZ EP   1   1617 29.64                             105     0.9 6  282 277 
                                                                                
