 2015  629 1945 47.0 L   6.397 -73.590114.4  RSN  8 0.4 2.1LRSN                1
 GAP= 89        0.92       3.0     3.6  7.3 -0.2328E+01  0.1689E+02 -0.3984E+01E
 Epicentro: SANTA HELENA DEL OPON - SANTANDER                                  3
 ACTION:UPD 15-09-10 22:15 OP:cam  STATUS:               ID:20150629194547 L   I
 OLDACT:UP  15-07-01 05:42 OP:DRIO STATUS:               ID:20150629194547 L   3
 OLDACT:UP  15-06-30 01:30 OP:mh   STATUS:               ID:20150629193749     3
 OLDACT:UP  15-06-30 01:29 OP:mh   STATUS:               ID:20150629193749     3
 OLDACT:REG 15-06-29 23:26 OP:mh   STATUS:               ID:20150629193749     3
 2015-06-29-1937-49M.COL___316                                                 6
 STAT SP IPHASW D HRMM SECON CODA AMPLIT PERI AZIMU VELO AIN AR TRES W  DIS CAZ7
 BAR2 EZ EP       1946  4.36                             155    0.4310 50.0  64 
 BAR2 EZ ES       1946 17.25                             155    0.1310 50.0  64 
 BAR2 EZ I        1946 18.78        77.4 0.31            156           50.0  64 
 RUS  HZ EP       1946  5.91                             143   -0.2210 79.1 135 
 RUS  HN ES       1946 20.92                             143   -0.1210 79.1 135 
 RUS  HZ I        1946 20.97        13.0 0.34            146           79.1 135 
 NOR  HZ EP   1   1946 13.18                             120   -0.70 7  169 237 
 NOR  HN ES       1946 34.24                             120   -0.60 9  169 237 
 NOR  HZ I        1946 34.69        18.1 0.14            120            169 237 
 ZAR  HZ EP       1946 15.43                             117   -0.14 9  185 311 
 ZAR  HN ES       1946 37.83                             117   -0.00 9  185 311 
 ZAR  HZ I        1946 41.30        13.3 0.22            117            185 311 
 HEL  HZ EP       1946 19.57                             113    0.17 8  216 264 
 HEL  HN ES       1946 44.58                             113   -0.08 8  216 264 
 HEL  HZ I        1946 46.67        11.5 0.28            113            216 264 
 GUY2CHZ EP       1946 21.58                             111   -0.19 8  235 237 
 GUY2CHN ES  4    1946 49.94                             111    1.07 8  235 237 
 GUY2CHZ I        1946 53.77         9.6 0.56                           235 237 
 SML  HZ EP       1946 25.04                             108   -0.22 8  271 349 
 SML  HN ES       1946 55.07                             108   -0.02 8  271 349 
 SML  HZ I        1947  1.40        18.4 0.26            108            271 349 
 TOL  SZ EP       1946 26.95                             107    0.54 7  277 224 
 TOL  SN ES       1946 56.93                             107   -0.20 7  277 224 
 TOL  SZ I        1947  3.21         6.0 0.18            108            277 224 
                                                                                
