 2012  629 1157 36.4 L   6.792 -73.177143.9  RSN  6 0.3 1.7LRSN                1
 GAP=133        0.72       4.7     3.9  7.0  0.3342E+01  0.6211E+01  0.2298E+00E
 Epicentro: LOS SANTOS - SANTANDER                                             3
 ACTION:UPD 12-08-06 17:53 OP:ep   STATUS:               ID:20120629115736 L   I
 2012-06-29-1150-00M.COL___200                                                 6
 STAT SP IPHASW D HRMM SECON CODA AMPLIT PERI AZIMU VELO AIN AR TRES W  DIS CAZ7
 BAR2 SZ EP   1   1157 55.76                             171   -0.04 9 22.1 181 
 BAR2 SZ ES   1   1158 10.70                             171   -0.21 9 22.1 181 
 BAR2 SZ I        1158 13.22        13.4 0.25                          22.1 181 
 BRR  HZ EP   1   1157 57.63                             153    0.41 9 68.6 301 
 BRR  HZ I        1157 57.85        23.6 0.13                          68.6 301 
 BRR  HN ES   1   1158 14.01                             153    0.57 9 68.6 301 
 PAM  SZ EP   1   1157 58.40                             149   -0.22 9 80.3  41 
 PAM  SN ES   1   1158 15.67                             149   -0.26 9 80.3  41 
 RUS  HZ EP   1   1158  0.49                             144    0.54 9100.0 174 
 RUS  HN ES   1   1158 18.28                             144   -0.01 9100.0 174 
 RUS  HZ I        1158 19.63         4.6 0.23                         100.0 174 
 PTB  HZ EP   1   1158  2.39                             132   -0.52 8  144 259 
 PTB  HN ES   1   1158 23.17                             132   -0.40 8  144 259 
 PTB  HZ I        1158 26.27         3.9 0.10                           144 259 
 ZAR  HN ES       1158 33.45                             122    0.0210  201 293 
                                                                                
