 2015  329 1846 43.2 L   6.753 -73.056144.6  RSN  4 0.2 1.6LRSN                1
 GAP=187        0.49       4.5     3.8  4.0 -0.8526E+01  0.9856E+00  0.4240E+01E
 Epicentro: JORDAN - SANTANDER                                                 3
 ACTION:UPD 15-04-30 16:30 OP:nd   STATUS:               ID:20150329184643 L   I
 OLDACT:REG 15-03-29 20:49 OP:fm   STATUS:               ID:20150329183750     3
 2015-03-29-1837-50M.COL___290                                                 6
 STAT SP IPHASW D HRMM SECON CODA AMPLIT PERI AZIMU VELO AIN AR TRES W  DIS CAZ7
 BAR2 EZ EP       1847  2.96                             171    0.2810 22.5 218 
 BAR2 EZ ES       1847 17.77                             171   -0.0910 22.5 218 
 BAR2 EZ I        1847 20.59         6.7 0.50            172           22.5 218 
 PAM  SZ EP       1847  5.31                             151    0.1010 75.9  31 
 PAM  SN ES       1847 22.18                             151   -0.1910 75.9  31 
 PAM  SZ I        1847 25.35         5.1 0.66            153           75.9  31 
 BRR  HZ EP       1847  4.88                             149   -0.0210 82.4 298 
 BRR  HN ES       1847 21.89                             149    0.0710 82.4 298 
 BRR  HZ I        1847 25.23        20.0 0.94            149           82.4 298 
 GUY2CHZ EP   1   1847 26.87                             112   -0.48 5  306 237 
 GUY2CHN ES   1   1848  1.73                             112   -0.05 5  306 237 
 GUY2CHZ I        1848 12.94         1.6 0.60                           306 237 
                                                                                
