 2010  829 1620 40.3 L   6.761 -73.076142.0  RSN  5 0.4 1.4LRSN                1
 GAP=167        0.74       9.7    14.3 14.6  0.6300E+02 -0.1504E+03 -0.7608E+02E
 Epicentro: LOS SANTOS - SANTANDER                                             3
 ACTION:UP  10-09-07 10:59 OP:vdl  STATUS:               ID:20100829162040 L   I
 2010-08-29-1616-42S.COL___120                                                 6
 STAT SP IPHASW D HRMM SECON CODA AMPLIT PERI AZIMU VELO SNR AR TRES W  DIS CAZ7
 BAR2 SZ ES   3   1621 13.43                             172    -0.9 2   22 212 
 BAR2 SZ I        1621 15.84         7.4 0.31                            22 212 
 BRR  HZ EP       1621  1.31                             150    -0.210   80 299 
 BRR  HZ I        1621  1.73        10.5 0.03                            80 299 
 BRR  HN ES       1621 18.27                             150     0.210   80 299 
 RUS  HN ES   2   1621 21.55                             146     0.3 5   96 180 
 RUS  HZ I        1621 23.36         1.6 0.23                            96 180 
 GUE  SZ EP   1   1621  4.68                             138    -0.2 7  119   8 
 GUE  SZ I        1621  5.73         2.3 0.20                           119   8 
 GRA  SZ EP   2   1621  5.97                             136     0.6 5  128  14 
 GRA  SZ I        1621 25.60         5.7 0.30                           128  14 
                                                                                
