 2010  529 1221 30.6 L   6.893 -73.118144.0  RSN  6 0.5 2.3LRSN                1
 GAP=175        0.75       7.8    11.7  9.2 -0.6957E+02  0.5594E+02 -0.1906E+02E
 Epicentro: PIEDECUESTA - SANTANDER                                            3
 ACTION:UP  10-08-24 10:07 OP:vdl  STATUS:               ID:20100529122130 L   I
 2010-05-29-1219-06S.COL___109                                                 6
 STAT SP IPHASW D HRMM SECON CODA AMPLIT PERI AZIMU VELO SNR AR TRES W  DIS CAZ7
 BAR2 SZ EP       1221 49.79                             166    -0.510   34 192 
 BAR2 SZ ES   1   1222  5.82                             166     0.2 7   34 192 
 GUE  SZ EP   1   1221 54.14                             142    -0.1 7  106  12 
 GRA  SZ EP   2   1221 54.75                             139     0.0 5  115  18 
 GRA  SZ ES   1   1222 14.12                             139     0.5 7  115  18 
 HEL  HZ EP   2   1222 11.33                             114     0.0 4  278 254 
 HEL  HE ES   2   1222 42.15                             114    -0.9 4  278 254 
 HEL  HZ I        1222 48.52         7.9 0.30                           278 254 
 RREF BZ EP   2   1222 17.87                             110     0.2 3  331 228 
 RREF BN ES   2   1222 55.30                             110     0.9 3  331 228 
 RREF BZ I        1223  1.57        11.4 0.29                           331 228 
 TOL  SZ EP   1   1222 20.36                             108     0.5 5  353 224 
 TOL  SZ ES   2   1222 58.99                             108     0.7 3  353 224 
                                                                                
