 2010 1129 1243  4.5 L   6.784 -73.112148.5  RSN  9 0.3 2.2LRSN                1
 GAP=163        0.58       3.0     5.8  4.8 -0.5087E+01 -0.2446E+01  0.1613E+01E
 Epicentro: LOS SANTOS - SANTANDER                                             3
 ACTION:UP  10-12-17 16:55 OP:REBC STATUS:               ID:20101129124304 L   I
 2010-11-29-1240-07S.COL___131                                                 6
 STAT SP IPHASW D HRMM SECON CODA AMPLIT PERI AZIMU VELO SNR AR TRES W  DIS CAZ7
 BTL  SZ EP       1243 24.68                             170     0.210   23 311 
 BAR2 SZ EP       1243 24.43                             171     0.010   23 200 
 BAR2 SZ ES   1   1243 39.69                             171    -0.3 7   23 200 
 BAR2 SZ I        1243 41.18        59.3 0.16                            23 200 
 BTL  SZ ES   2   1243 40.29                             170     0.3 5   23 311 
 BRR  HZ IP     C 1243 26.31                             151     0.110   75 298 
 BRR  HZ I        1243 26.57        51.9 0.17                            75 298 
 BRR  HN ES   1   1243 43.60                             151     0.5 7   75 298 
 RUS  HZ EP   1   1243 28.14                             145    -0.3 7   99 178 
 RUS  HN ES   2   1243 47.01                             145     0.0 5   99 178 
 RUS  HZ I        1243 48.25        11.7 0.29                            99 178 
 GRA  SZ EP       1243 30.16                             137     0.110  126  16 
 GRA  SZ ES   2   1243 49.71                             137    -0.3 5  126  16 
 GRA  SZ I        1243 51.13        20.2 0.48                           126  16 
 OCA  SZ EP   2   1243 33.06                             130    -0.2 5  162 352 
 OCA  SZ ES   2   1243 55.10                             130    -0.6 5  162 352 
 OCA  SZ I        1243 59.58        23.3 0.20                           162 352 
 NOR  SZ EP   2   1243 40.05                             119    -0.6 4  237 235 
 NOR  SN ES   2   1244  8.27                             119    -0.6 4  237 235 
 CHI  HZ EP   2   1243 42.55                             118     0.2 4  248 196 
 CHI  HE ES   2   1244 11.44                             118    -0.3 4  248 196 
 CHI  HZ I        1244 15.35         8.3 0.61                           248 196 
 PRA  HZ EP   2   1243 58.64                             107     0.5 3  392 210 
 PRA  HN ES   2   1244 40.43                             107     0.4 3  392 210 
                                                                                
