 2010  829 1508 49.7 L   6.831 -73.014142.0  RSN  4 0.2 1.5LRSN                1
 GAP=173        0.52       4.6     7.2  7.2  0.1047E+02 -0.1781E+02  0.2540E+01E
 Epicentro: CEPITA - SANTANDER                                                 3
 ACTION:UP  10-09-07 10:59 OP:vdl  STATUS:               ID:20100829150849 L   I
 2010-08-29-1507-40S.COL___120                                                 6
 STAT SP IPHASW D HRMM SECON CODA AMPLIT PERI AZIMU VELO SNR AR TRES W  DIS CAZ7
 BAR2 SZ EP   1   15 9  9.12                             167     0.0 7   32 215 
 BAR2 SZ ES   2   15 9 24.08                             167    -0.2 5   32 215 
 BAR2 SZ I        15 9 27.41         8.4 0.54                            32 215 
 BRR  HZ EP       15 9 10.95                             148    -0.210   83 292 
 BRR  HZ I        15 9 11.28         8.4 0.28                            83 292 
 BRR  HN ES       15 9 28.03                             148     0.110   83 292 
 RUS  HZ EP   1   15 9 13.64                                     0.3 7  104 184 
 RUS  HN ES   2   15 9 31.49                             143    -0.3 5  104 184 
 RUS  HZ I        15 9 33.51         5.2 0.14                           104 184 
 GRA  SZ ES   2   15 9 33.05                             138     0.0 5  119  11 
 GRA  SZ I        15 9 35.66         4.4 0.46                           119  11 
                                                                                
