 2011  629 1800 45.5 L   6.773 -73.126141.3  RSN 10 0.4 1.9LRSN                1
 GAP=140        1.22       5.6    11.6  9.2 -0.2058E+02 -0.1320E+02  0.6760E+01E
 Epicentro: LOS SANTOS - SANTANDER                                             3
 ACTION:UP  11-07-14 19:09 OP:ep   STATUS:               ID:20110629180045 L   I
 2011-06-29-1757-47S.COL___140                                                 6
 STAT SP IPHASW D HRMM SECON CODA AMPLIT PERI AZIMU VELO SNR AR TRES W  DIS CAZ7
 BAR2 SZ EP       18 1  4.35                             171    -0.210   21 197 
 BAR2 SZ I        18 1  4.66        15.6 0.11                            21 197 
 BAR2 SZ ES   1   18 1 19.01                             171    -0.4 7   21 197 
 BTL  SZ EP       18 1  5.36                             170     0.810   22 316 
 BRR  HZ EP       18 1  6.20                             151    -0.210   75 300 
 BRR  HZ I        18 1  6.38        20.0 0.14                            75 300 
 BRR  HN ES   1   18 1 22.73                             151     0.1 7   75 300 
 PAM  SZ EP   1   18 1  7.18                             150    -0.1 7   78  37 
 RUS  HZ EP       18 1  8.38                             144    -0.210   98 177 
 RUS  HZ I        18 1  9.55         8.2 0.14                            98 177 
 RUS  HN ES   1   18 1 27.07                             144     0.5 7   98 177 
 BRI  SZ EP       18 1  9.92                             140     0.810  110  19 
 GRA  SZ IP       18 1 10.12                             135    -0.410  128  16 
 GRA  SZ ES   1   18 1 29.53                             135    -0.6 7  128  16 
 GRA  SZ I        18 1 33.50         6.2 0.36                           128  16 
 CHI  HZ EP       18 1 22.31                             116    -0.4 8  246 196 
 CHI  HZ I        18 1 59.17         3.8 0.38                           246 196 
 RREF HN ES   3   18 2  6.72                             110    -0.5 2  322 230 
 PRA  HZ EP       18 1 38.94                             106     0.2 6  391 210 
 PRA  HZ I        18 2 24.57        11.7 0.20                           391 210 
                                                                                
