 2010 1129 1051 46.9 L   6.774 -73.094147.3  RSN 12 0.2 2.4LRSN                1
 GAP=165        0.46       1.8     3.6  3.4 -0.2536E+01  0.2064E+01  0.6372E+00E
 Epicentro: LOS SANTOS - SANTANDER                                             3
 ACTION:UP  10-12-17 16:55 OP:REBC STATUS:               ID:20101129105146 L   I
 2010-11-29-1051-02S.COL___131                                                 6
 STAT SP IPHASW D HRMM SECON CODA AMPLIT PERI AZIMU VELO SNR AR TRES W  DIS CAZ7
 BAR2 SZ EP       1052  6.78                             171     0.010   22 206 
 BAR2 SZ ES   1   1052 21.88                             171    -0.3 7   22 206 
 BAR2 SZ I        1052 23.56        55.6 0.21                            22 206 
 BTL  SZ EP       1052  6.96                             170     0.210   25 310 
 BRR  HZ EP       1052  8.69                             151     0.110   78 298 
 BRR  HN ES   1   1052 25.69                             151     0.1 7   78 298 
 BRR  HZ I        1052 29.52        53.0 0.20                            78 298 
 RUS  HZ EP       1052 10.65                             145     0.010   97 179 
 RUS  HE ES   1   1052 29.23                             145     0.1 7   97 179 
 RUS  HZ I        1052 30.77        20.8 0.35                            97 179 
 GRA  SZ EP       1052 12.28                             137    -0.110  127  15 
 GRA  SZ ES   1   1052 32.39                             137     0.1 7  127  15 
 GRA  SZ I        1052 33.36        43.3 0.33                           127  15 
 OCA  SZ EP   1   1052 15.56                             129    -0.2 7  164 351 
 OCA  SZ ES   2   1052 37.96                             129    -0.2 5  164 351 
 OCA  SZ I        1052 42.06        32.4 0.36                           164 351 
 NOR  SZ EP   1   1052 22.80                             118    -0.3 6  238 236 
 NOR  SN ES   2   1052 50.90                             118    -0.4 4  238 236 
 CHI  HZ EP   1   1052 24.70                             118     0.1 6  247 197 
 CHI  HE ES   1   1052 53.61                             118    -0.3 6  247 197 
 CHI  HZ I        1053  3.06        14.6 0.56                           247 197 
 ROSC BE ES   2   1052 54.99                             117     0.0 4  253 212 
 ROSC BZ I        1053  1.46        25.3 0.58                           253 212 
 HEL  HZ EP   2   1052 27.95                             115     0.2 4  277 257 
 HEL  HZ I        1053  5.42        17.2 0.31                           277 257 
 RREF HZ EP   1   1052 33.70                             111     0.3 5  324 230 
 RREF HN ES   2   1053  9.73                             111     0.0 3  324 230 
 RREF HZ I        1053 18.45        20.7 0.35                           324 230 
 PRA  HZ EP   2   1052 39.92                             107    -0.6 3  392 211 
 PRA  HN ES   1   1053 22.88                             107     0.5 4  392 211 
                                                                                
