 2010  129 1735 36.1 L   6.614 -72.830141.7  RSN  4 0.3 2.1LRSN                1
 GAP=298        0.47      14.7    12.6 10.4 -0.1362E+03 -0.4249E+02  0.1055E+03E
 Epicentro: MOLAGAVITA - SANTANDER                                             3
 ACTION:UP  10-08-24 09:46 OP:vdl  STATUS:               ID:20100129173535 L   I
 2010-01-29-1733-51S.COL___093                                                 6
 STAT SP IPHASW D HRMM SECON CODA AMPLIT PERI AZIMU VELO SNR AR TRES W  DIS CAZ7
 BAR2 SZ EP   1   1735 55.48                             165    -0.2 7   39 266 
 BAR2 SZ ES   2   1736 11.20                             165     0.2 5   39 266 
 CHI  HZ EP   2   1736 13.32                             117     0.6 4  241 205 
 RREF BZ EP   2   1736 24.36                             109     0.5 3  337 236 
 RREF BN ES   1   1737  0.98                             109    -0.1 5  337 236 
 RREF BZ I        1737  7.02         5.4 0.43                           337 236 
 PRA  HZ EP   2   1736 29.36                             106    -0.3 3  393 216 
 PRA  HN ES   2   1737 11.08                             106    -0.3 3  393 216 
                                                                                
