 2017  329 1634 12.0 L   6.829 -73.301121.5  RSN  6 0.3 1.5LRSN                1
 GAP=106        0.55       4.4     4.7  5.0  0.6810E+01  0.3111E+01  0.3854E+00E
 Epicentro: ZAPATOCA - SANTANDER                                               3
 ACTION:UPD 17-05-25 18:47 OP:jn   STATUS:               ID:20170329163412 L   I
 OLDACT:UP  17-03-29 23:14 OP:ansd STATUS:               ID:20170329162631     3
 OLDACT:UP  17-03-29 23:14 OP:ansd STATUS:               ID:20170329162631     3
 OLDACT:REG 17-03-29 20:13 OP:and  STATUS:               ID:20170329162631     3
 2017-03-29-1628-00M.COL___368                                                 6
 STAT SP IPHASW D HRMM SECON CODA AMPLIT PERI AZIMU VELO AIN AR TRES W  DIS CAZ7
 BAR2 EZ IP     D 1634 28.76                             166   -0.1110 29.3 153 
 BAR2 EZ ES       1634 42.11                             166    0.0710 29.3 153 
 BRR  HZ EP   2   1634 29.33                             154   -0.26 5 54.8 304 
 BRR  HN ES   2   1634 43.00                             154   -0.32 5 54.8 304 
 PAM  EZ EP   2   1634 32.44                             142    0.06 5 87.2  50 
 PAM  EN ES   2   1634 48.40                             142    0.11 5 87.2  50 
 PAM  EZ I        1634 49.19         4.5 0.26            146           87.2  50 
 RUS  HZ EP       1634 33.79                             136   -0.1210  106 167 
 RUS  HN ES   2   1634 51.54                             136    0.52 5  106 167 
 RUS  HZ I        1634 52.43         4.2 0.20            140            106 167 
 PTB  HZ EP   9   1634 33.98                             129   -1.55 0  132 256 
 PTB  HN ES   2   1634 51.49                             131   -0.86 5  132 256 
 PTB  HZ I        1634 55.85         5.9 0.16            128            132 256 
 ZAR  HZ EP   2   1634 41.12                             119    0.00 4  187 293 
 ZAR  HN ES   2   1635  4.50                             119    0.65 4  187 293 
 ZAR  HZ I        1635 11.83         6.7 0.28            118            187 293 
                                                                                
