 2012  429 1424 24.0 L   6.710 -73.150139.9  RSN  5 0.3 1.3LRSN                1
 GAP=140        0.73       5.2     5.0  7.5 -0.2842E+01  0.3458E+01  0.3293E+01E
 Epicentro: VILLANUEVA - SANTANDER                                             3
 ACTION:UPD 12-07-05 11:56 OP:tino STATUS:               ID:20120429142424 L   I
 2012-04-29-1420-00M.COL___189                                                 6
 STAT SP IPHASW D HRMM SECON CODA AMPLIT PERI AZIMU VELO AIN AR TRES W  DIS CAZ7
 BAR2 SZ EP   1   1424 43.24                             174     0.5 7   14 195 
 BAR2 SZ ES   1   1424 57.74                             174     0.3 7   14 195 
 BAR2 SZ I        1424 59.72         7.6 0.16                            14 195 
 BRR  HN ES   1   1425  1.14                             150     0.1 7   76 305 
 PAM  SZ EP   1   1424 45.92                             147    -0.2 7   86  36 
 PAM  SN ES   1   1425  3.15                             147    -0.2 7   86  36 
 PAM  SZ I        1425  4.93         3.3 0.38                            86  36 
 RUS  HZ EP   1   1424 46.77                             145     0.3 7   91 175 
 RUS  HZ I        1424 48.41         2.4 0.24                            91 175 
 RUS  HN ES   1   1425  3.55                             145    -0.5 7   91 175 
 PTB  HZ EP   1   1424 50.12                             131    -0.2 7  146 263 
 PTB  HN ES   1   1425 10.65                             131    -0.2 7  146 263 
 PTB  HZ I        1425 14.03         2.0 0.15                           146 263 
                                                                                
