 2012 1229 1607  0.4 L   6.790 -73.157138.9  RSN  5 0.3 1.8LRSN                1
 GAP=236        0.69       6.1     6.2  6.6  0.2503E+02  0.1732E+01 -0.3918E+01E
 Epicentro: LOS SANTOS - SANTANDER                                             3
 ACTION:UPD 13-01-04 14:31 OP:ep   STATUS:               ID:20121229160700 L   I
 2012-12-29-1600-00M.COL___242                                                 6
 STAT SP IPHASW D HRMM SECON CODA AMPLIT PERI AZIMU VELO AIN AR TRES W  DIS CAZ7
 BAR2 SZ EP   1   16 7 18.47                             170   -0.70 7 22.1 187 
 BAR2 SZ ES       16 7 33.65                             170   -0.1710 22.1 187 
 BAR2 SZ I        16 7 35.16        18.8 0.23                          22.1 187 
 BRR  HZ IP     C 16 7 20.96                             151    0.1910 70.6 300 
 BRR  HE ES   1   16 7 36.99                             151    0.32 7 70.6 300 
 BRR  HZ I        16 7 41.58        10.6 0.38                          70.6 300 
 RUS  HZ EP       16 7 23.57                             142    0.1610 99.6 175 
 RUS  HE ES       16 7 41.52                             142    0.1710 99.6 175 
 RUS  HE I        16 7 42.82        10.2 0.49                          99.6 175 
 PTB  HN ES   1   16 7 46.88                             131   -0.30 7  146 259 
 ZAR  HE ES   1   16 7 57.26                             121    0.03 6  203 293 
 ZAR  HZ I        16 8  3.69         4.8 0.31                           203 293 
                                                                                
