 2016  329 1113 43.6 L   6.769 -73.161144.1  RSN 13 0.5 2.0LRSN                1
 GAP=136        1.10       3.1     4.1  6.4 -0.2716E+01  0.9058E+01  0.8620E+00E
 Epicentro: LOS SANTOS - SANTANDER                                             3
 ACTION:UPD 16-05-13 21:28 OP:cam  STATUS:               ID:20160329111343 L   I
 OLDACT:UP  16-03-29 22:13 OP:ak   STATUS:               ID:20160329110743     3
 OLDACT:REG 16-03-29 20:09 OP:ak   STATUS:               ID:20160329110743     3
 2016-03-29-1107-43M.COL___306                                                 6
 STAT SP IPHASW D HRMM SECON CODA AMPLIT PERI AZIMU VELO AIN AR TRES W  DIS CAZ7
 BAR2 EZ IP     D 1114  3.01                             172    0.0810 19.7 187 
 BAR2 EZ ES       1114 18.40                             172    0.3710 19.7 187 
 BAR2 EZ I        1114 19.24        18.3 0.16            170           19.7 187 
 PAM  EZ EP       1114  6.12                             149    0.2910 81.1  39 
 PAM  EN ES       1114 23.40                             149    0.2010 81.1  39 
 PAM  EZ I        1114 25.61        15.3 0.40            153           81.1  39 
 RUS  HZ EP       1114  6.73                             144   -0.1810 97.3 175 
 RUS  HN ES       1114 24.80                             144   -0.3310 97.3 175 
 RUS  HZ I        1114 26.45        10.4 0.32            146           97.3 175 
 PTB  HZ EP       1114  9.37                             132   -0.82 9  146 260 
 PTB  HN ES       1114 30.17                             132   -0.79 9  146 260 
 PTB  HZ I        1114 36.78         9.3 0.11            131            146 260 
 SPBC HZ EP       1114 11.72                             129    0.14 9  159 219 
 SPBC HN ES       1114 33.52                             129    0.08 9  159 219 
 SPBC HZ I        1114 36.10        19.7 0.22            130            159 219 
 OCA  HZ EP       1114 11.33                             129   -0.72 9  164 354 
 OCA  HE ES       1114 34.13                             129   -0.15 9  164 354 
 OCA  HZ I        1114 38.85        28.4 0.48            130            164 354 
 ZAR  HZ EP       1114 16.61                             122    0.73 9  204 293 
 ZAR  HN ES       1114 41.82                             122    0.73 9  204 293 
 ZAR  HZ I        1114 47.05        16.9 0.34            122            204 293 
 NOR  HZ EP       1114 19.13                             118    0.29 8  231 235 
 NOR  HN ES       1114 45.81                             118   -0.54 8  231 235 
 NOR  HZ I        1114 54.20        10.4 0.18            119            231 235 
 CHI  HZ EP       1114 20.90                             117    0.14 8  245 195 
 CHI  HE ES       1114 50.15                             117    0.38 8  245 195 
 CHI  HZ I        1114 56.82         3.2 0.44            119            245 195 
 HEL  HZ EP   2   1114 24.25                             115    0.83 4  270 256 
 HEL  HN ES       1114 54.90                             115    0.39 8  270 256 
 HEL  HZ I        1115  1.96         6.3 0.24            115            270 256 
 GUY2CHZ EP   1   1114 26.13                             112   -0.59 5  298 235 
 GUY2CHN ES   4   1115  2.55                             112    2.17 0  298 235 
 GUY2CHZ I        1115  9.38         7.2 0.44                           298 235 
 ORTC HE ES       1115 18.99                             106    0.34 6  392 216 
 ORTC HZ I        1115 25.56         3.5 0.46            107            392 216 
 SJC  HZ EP   9   1114 37.45                             105   -1.86 0  411 327 
 SJC  HE ES       1115 20.12                                   -0.81 6  411 327 
                                                                                
