 2013 1129 1038 50.4 L   6.810 -73.161146.1  RSN 12 0.4 2.8LRSN 3.2WRSN        1
 SPEC AVERAGE  MO 13.9 ST 48.4 OM  2.4 f0 7.25 R0.6672 AL 0.00 WI 22.6 MW  3.2 3
 SPEC SD       MO  0.4 ST 37.3 OM  0.5 f0 3.50 R1.2119 AL      WI      MW  0.3 3
 GAP= 70        0.95       3.0     3.2  5.1 -0.7810E+00  0.2598E+01  0.2187E+00E
 Epicentro: LOS SANTOS - SANTANDER                                             3
 SPEC SML HH E MO 13.4 ST 32.8 OM  1.6 f0 10.0 R0.1554 AL 0.00 WI 47.1 MW  2.9 3
 SPEC SML HH E T103953 K 0.000 GD  282 VS 4.20 DE 3.20 Q0300.0 QA 0.60 VS 4.20 3
 SPEC NOR HH E MO 13.8 ST 80.3 OM  2.0 f0 10.0 R0.1554 AL 0.00 WI 28.3 MW  3.2 3
 SPEC NOR HH E T103954 K 0.000 GD  275 VS 4.20 DE 3.20 Q0300.0 QA 0.60 VS 4.20 3
 SPEC ZAR HH N MO 13.9 ST 91.4 OM  2.1 f0 10.0 R0.1554 AL 0.00 WI 26.5 MW  3.2 3
 SPEC ZAR HH N T103946 K 0.000 GD  249 VS 4.20 DE 3.20 Q0300.0 QA 0.60 VS 4.20 3
 SPEC OCA HH N MO 14.1 ST 98.0 OM  2.4 f0 8.53 R0.1822 AL 0.00 WI 19.7 MW  3.4 3
 SPEC OCA HH N T103938 K 0.000 GD  215 VS 4.20 DE 3.20 Q0300.0 QA 0.60 VS 4.20 3
 SPEC TAM HH N MO 14.8 ST0.044 OM  3.1 f00.382 R4.0681 AL 0.00 WI 22.1 MW  3.8 3
 SPEC TAM HH N T103938 K 0.000 GD  214 VS 4.20 DE 3.20 Q0300.0 QA 0.60 VS 4.20 3
 SPEC PTB HH N MO 13.7 ST 60.1 OM  2.0 f0 10.0 R0.1554 AL 0.00 WI 21.8 MW  3.1 3
 SPEC PTB HH N T103937 K 0.000 GD  206 VS 4.20 DE 3.20 Q0300.0 QA 0.60 VS 4.20 3
 SPEC RUS HH N MO 13.4 ST  4.1 OM  1.8 f0 4.99 R0.3114 AL 0.00 WI 12.6 MW  2.9 3
 SPEC RUS HH N T103931 K 0.000 GD  178 VS 4.20 DE 3.20 Q0300.0 QA 0.60 VS 4.20 3
 SPEC PAM SH N MO 14.0 ST  1.7 OM  2.4 f0 2.40 R0.6475 AL 0.00 WI  8.8 MW  3.3 3
 SPEC PAM SH N T103929 K 0.000 GD  165 VS 4.20 DE 3.20 Q0300.0 QA 0.60 VS 4.20 3
 SPEC BRR HH N MO 13.9 ST 67.1 OM  2.3 f0 8.94 R0.1738 AL 0.00 WI 16.8 MW  3.2 3
 SPEC BRR HH N T103928 K 0.000 GD  161 VS 4.20 DE 3.20 Q0300.0 QA 0.60 VS 4.20 3
 ACTION:UPD 14-01-09 16:31 OP:ep   STATUS:               ID:20131129103850 L   I
 OLDACT:UP  13-11-29 17:15 OP:cam  STATUS:               ID:20131129103736     3
 OLDACT:REG 13-11-29 16:56 OP:cam  STATUS:               ID:20131129103736     3
 2013-11-29-1037-36M.COL___235                                                 6
 STAT SP IPHASW D HRMM SECON CODA AMPLIT PERI AZIMU VELO AIN AR TRES W  DIS CAZ7
 BAR2 SZ EP       1039 10.13                             170    0.0310 24.2 186 
 BAR2 SZ ES       1039 25.18                             170   -0.2810 24.2 186 
 BAR2 SZ I        1039 25.96       274.5 0.32            169           24.2 186 
 BRR  HZ IP     C 1039 11.87                             153    0.3810 69.2 298 
 BRR  HN ES       1039 28.75                             153    0.8210 69.2 298 
 BRR  HZ I        1039 32.54       123.6 0.72            151           69.2 298 
 PAM  SZ EP       1039 12.96                             151    0.2910 77.6  41 
 PAM  SN ES       1039 30.08                             151    0.0410 77.6  41 
 PAM  SZ I        1039 31.56        70.4 0.18            154           77.6  41 
 RUS  HZ EP       1039 14.21                             144   -0.0710  102 175 
 RUS  HN ES       1039 32.60                             144   -0.3010  102 175 
 RUS  HZ I        1039 34.68        53.7 0.16            146            102 175 
 PTB  HZ EP       1039 16.68                             132   -0.60 9  146 258 
 PTB  HN ES       1039 37.83                             132   -0.41 9  146 258 
 PTB  HZ I        1039 41.28        61.5 0.22            132            146 258 
 TAM  HZ IP     D 1039 18.57                             130    0.28 9  157 105 
 TAM  HN ES   2   1039 40.32                             130    0.29 5  157 105 
 OCA  HZ EP   1   1039 18.21                             130   -0.41 7  159 354 
 OCA  HN ES       1039 39.86                             130   -0.78 9  159 354 
 OCA  HZ I        1039 44.92        62.6 0.22            131            159 354 
 SPBC HZ EP       1039 19.12                             129    0.20 9  163 218 
 SPBC HE ES   1   1039 41.23                             129    0.08 7  163 218 
 SPBC HZ I        1039 47.22        78.8 0.24            130            163 218 
 ZAR  HZ EP       1039 23.04                             123    0.36 9  202 292 
 ZAR  HN ES       1039 48.28                             123    0.43 9  202 292 
 ZAR  HZ I        1039 53.78        72.2 0.28            123            202 292 
 NOR  HZ EP       1039 26.16                             119    0.08 8  234 234 
 NOR  HE ES       1039 53.74                             119   -0.17 8  234 234 
 NOR  HZ I        1039 59.93        35.0 0.16            119            234 234 
 SML  HZ EP   1   1039 26.43                             118   -0.44 6  242 336 
 SML  HE ES   2   1039 54.95                             118   -0.36 4  242 336 
 SML  HZ I        1039 58.19        64.5 0.26            119            242 336 
 CHI  HZ EP   4   1039 28.52                             117    0.33 0  249 195 
 ROSC BZ EP   4   1039 30.53                             117    1.97 0  253 211 
 HEL  HZ EP   4   1039 32.04                             115    1.55 0  271 255 
 HEL  HN ES   4   1040  2.76                             115    1.00 0  271 255 
 HEL  HZ I        1040  8.28        29.6 0.40            115            271 255 
 GUY2CHZ EP   4   1039 35.94                             112    1.99 0  300 234 
 CBOC HZ EP   4   1039 38.55                             110    1.36 0  332 252 
                                                                                
