 2011  329 1331 40.8 L   6.804 -73.128142.0  RSN 10 0.3 2.3LRSN                1
 GAP=115        0.70       3.4     5.3  5.9 -0.6029E+01  0.5412E+00  0.6364E+01E
 Epicentro: LOS SANTOS - SANTANDER                                             3
 ACTION:UP  11-06-16 14:36 OP:jfem STATUS:               ID:20110329133140 L   I
 2011-03-29-1328-15S.COL___135                                                 6
 STAT SP IPHASW D HRMM SECON CODA AMPLIT PERI AZIMU VELO SNR AR TRES W  DIS CAZ7
 BAR2 SZ IP       1331 59.94                             170     0.010   24 195 
 BAR2 SZ ES   1   1332 14.79                             170    -0.2 7   24 195 
 BAR2 SZ I        1332 16.23       107.0 0.18                            24 195 
 BRR  HZ IP     D 1332  1.74                             151     0.110   73 297 
 BRR  HE ES   2   1332 18.60                             151     0.7 5   73 297 
 BRR  HZ I        1332 22.87        73.6 0.10                            73 297 
 PAM  SZ EP       1332  2.73                             151     0.210   76  39 
 PAM  SZ I        1332  3.13        36.7 0.19                            76  39 
 PAM  SN ES   2   1332 19.68                             151     0.3 5   76  39 
 GRA  SZ IP       1332  5.76                             136     0.210  125  17 
 GRA  SZ I        1332  7.07        30.8 0.27                           125  17 
 GRA  SZ ES   1   1332 24.21                             136    -0.7 7  125  17 
 OCA  SZ EP   2   1332  8.71                             129    -0.1 5  160 352 
 OCA  SZ ES   2   1332 30.28                             129    -0.3 5  160 352 
 OCA  SZ I        1332 34.93        47.9 0.25                           160 352 
 YOP  SZ EP       1332 10.64                             125     0.1 9  179 154 
 YOP  SZ I        1332 43.76        14.1 0.66                           179 154 
 NOR  SZ EP   1   1332 16.35                             117    -0.2 6  237 235 
 NOR  SN ES   2   1332 44.19                             117    -0.2 4  237 235 
 CHI  HZ EP   1   1332 18.08                             116    -0.3 6  250 196 
 CHI  HE ES   2   1332 46.97                             116    -0.7 4  250 196 
 CHI  HZ I        1332 54.72        11.4 0.47                           250 196 
 DBB  SZ EP   2   1332 28.14                             109    -0.2 3  341 274 
 DBB  SZ I        1333  8.31         2.1 0.39                           341 274 
 PRA  HZ EP   2   1332 33.95                             106    -0.4 3  393 210 
 PRA  HN ES   2   1333 16.75                             106     0.7 3  393 210 
                                                                                
