 2011  929 1318  7.0 L   6.810 -73.086144.0  RSN  5 0.2 1.7LRSN                1
 GAP=168        0.50       5.4     4.3  5.6  0.3942E+01  0.9151E+01  0.2657E+01E
 Epicentro: LOS SANTOS - SANTANDER                                             3
 ACTION:UPD 12-07-13 16:00 OP:ep   STATUS:               ID:20110929131807 L   I
 2011-09-29-1315-20S.COL___167                                                 6
 STAT SP IPHASW D HRMM SECON CODA AMPLIT PERI AZIMU VELO AIN AR TRES W  DIS CAZ7
 BAR2 SZ EP       1318 26.32                             169   -0.1210 26.4 204 
 BAR2 SZ ES       1318 41.60                             169   -0.0410 26.4 204 
 BAR2 SZ I        1318 42.11         8.2 0.26                          26.4 204 
 PAM  SN ES   1   1318 45.65                             152    0.00 7 72.4  36 
 BRR  HZ EP   1   1318 28.30                             150    0.07 7 76.6 295 
 BRR  HE ES   1   1318 45.21                             150    0.38 7 76.6 295 
 BRR  HZ I        1318 48.57        15.9 0.28                          76.6 295 
 ZAR  HN ES   1   1319  5.17                             121   -0.40 6  210 291 
 NOR  SZ EP   2   1318 43.68                             118    0.44 4  241 235 
                                                                                
