 2011  529 1522  7.2 L   6.786 -73.077138.0  RSN  6 0.2 1.8LRSN                1
 GAP=166        0.41       2.3     4.5  4.6 -0.7624E+00 -0.8419E+01  0.3280E+00E
 Epicentro: LOS SANTOS - SANTANDER                                             3
 ACTION:UP  11-06-29 08:57 OP:tino STATUS:               ID:20110529152207 L   I
 2011-05-29-1518-08S.COL___113                                                 6
 STAT SP IPHASW D HRMM SECON CODA AMPLIT PERI AZIMU VELO SNR AR TRES W  DIS CAZ7
 BAR2 SZ EP   1   1522 26.11                             169     0.2 7   24 209 
 BAR2 SZ ES   2   1522 40.45                             169    -0.1 5   24 209 
 BAR2 SZ I        1522 42.45        21.5 0.31                            24 209 
 BRR  HZ EP   1   1522 27.88                             149    -0.1 7   79 297 
 BRR  HE ES       1522 44.25                             149     0.110   79 297 
 BRR  HZ I        1522 45.78        19.6 0.09                            79 297 
 RUS  HZ EP   1   1522 29.86                             143    -0.2 7   99 180 
 RUS  HE ES   2   1522 48.05                             143     0.1 5   99 180 
 RUS  HZ I        1522 50.53         4.7 0.31                            99 180 
 GRA  SZ EP   1   1522 32.06                             135     0.3 7  125  14 
 GRA  SZ ES   1   1522 50.74                             135    -0.1 7  125  14 
 GRA  SZ I        1522 55.82         6.0 0.28                           125  14 
 OCA  SZ EP   1   1522 35.09                             127    -0.1 7  163 351 
 OCA  SZ ES   2   1522 56.91                             127    -0.1 5  163 351 
 OCA  SZ I        1522 59.76        10.0 0.20                           163 351 
 PRA  HZ EP   2   1523  0.89                             105     0.1 3  394 211 
                                                                                
