 2017 1029 1032 26.1 L   6.770 -73.129148.0  RSN  5 0.3 1.2LRSN                1
 GAP=140        0.77       4.1     4.6  6.0 -0.1297E+01  0.5760E+00  0.9390E+00E
 Epicentro: LOS SANTOS - SANTANDER                                             3
 ACTION:UPD 17-11-07 19:38 OP:rebc STATUS:               ID:20171029103226 L   I
 OLDACT:REG 17-10-29 19:45 OP:dani STATUS:               ID:20171029102744     3
 2017-10-29-1028-00M.COL___414                                                 6
 STAT SP IPHASW D HRMM SECON CODA AMPLIT PERI AZIMU VELO AIN AR TRES W  DIS CAZ7
 BAR2 EZ EP       1032 45.84                             172   -0.1410 20.5 197 
 BAR2 EZ ES       1033  1.24                             172   -0.2210 20.5 197 
 BRR  HZ EP       1032 47.95                             152    0.2510 74.4 300 
 BRR  HN ES       1033  4.93                             152    0.4010 74.4 300 
 BRR  HZ I        1033 11.78         6.3 0.45            151           74.4 300 
 PAM  EZ EP       1032 48.90                             150    0.2310 78.9  37 
 PAM  EE ES       1033  5.89                             150   -0.3610 78.9  37 
 PAM  EZ I        1033  8.71         2.6 0.43            153           78.9  37 
 RUS  HZ EP       1032 50.01                             145    0.1510 97.2 177 
 RUS  HN ES       1033  8.51                             145    0.1410 97.2 177 
 RUS  HZ I        1033  9.85         1.4 0.40            150           97.2 177 
 PTB  HZ EP   2   1032 52.74                             132   -0.65 5  149 260 
 PTB  HN ES   1   1033 14.04                             132   -0.61 7  149 260 
 PTB  HZ I        1033 16.93         1.3 0.05            134            149 260 
                                                                                
