 2017 1029 1100 35.7 L   6.795 -73.169145.3  RSN  5 0.4 1.1LRSN                1
 GAP=134        1.06       5.4     4.7  8.4  0.2239E+01  0.9138E+01  0.1609E+01E
 Epicentro: LOS SANTOS - SANTANDER                                             3
 ACTION:UPD 17-11-07 19:38 OP:rebc STATUS:               ID:20171029110035 L   I
 OLDACT:DUP 17-10-29 21:01 OP:dani STATUS:               ID:20171029105744d    3
 OLDACT:UP  17-10-29 21:00 OP:dani STATUS:               ID:20171029105742     3
 OLDACT:REG 17-10-29 19:48 OP:dani STATUS:               ID:20171029105742     3
 2017-10-29-1058-00M.COL___414                                                 6
 STAT SP IPHASW D HRMM SECON CODA AMPLIT PERI AZIMU VELO AIN AR TRES W  DIS CAZ7
 BRR  HZ EP       11 0 56.85                             153    0.1610 69.2 300 
 BRR  HE ES       11 1 13.79                             153    0.7310 69.2 300 
 BRR  HZ I        11 1 18.14         5.6 0.22            153           69.2 300 
 PAM  EZ EP       11 0 57.87                             150   -0.1310 79.5  41 
 PAM  EN ES       11 1 14.96                             150   -0.4310 79.5  41 
 PAM  EZ I        11 1 18.14         2.0 0.66            154           79.5  41 
 RUS  HZ EP       11 0 59.47                             144    0.0810  100 175 
 RUS  HN ES       11 1 18.01                             144    0.1510  100 175 
 RUS  HZ I        11 1 19.80         1.1 0.26            149            100 175 
 PTB  HZ EP       11 1  2.13                             132   -0.27 9  145 259 
 PTB  HE ES       11 1 22.55                             132   -0.66 9  145 259 
 PTB  HZ I        11 1 27.73         0.9 0.31            135            145 259 
 ZAR  HZ EP       11 1  8.52                             123    0.62 9  202 293 
 ZAR  HN ES       11 1 32.73                             123   -0.27 9  202 293 
 ZAR  HZ I        11 1 39.21         1.4 0.23            125            202 293 
                                                                                
