 2014  929 1931 44.2 L   6.769 -73.153147.4  RSN  7 0.3 1.8LRSN                1
 GAP=234        0.70       3.9     4.1  4.7  0.6216E+01  0.4303E+01  0.2378E+01E
 Epicentro: LOS SANTOS - SANTANDER                                             3
 ACTION:UPD 14-10-03 23:09 OP:nd   STATUS:               ID:20140929193144 L   I
 OLDACT:UP  14-09-29 23:14 OP:cam  STATUS:               ID:20140929193000     3
 OLDACT:REG 14-09-29 20:48 OP:cam  STATUS:               ID:20140929193000     3
 2014-09-29-1930-00M.COL___252                                                 6
 STAT SP IPHASW D HRMM SECON CODA AMPLIT PERI AZIMU VELO AIN AR TRES W  DIS CAZ7
 BAR2 SZ EP       1932  3.85                             172   -0.0810 19.8 189 
 BAR2 SZ ES       1932 19.66                             172    0.3210 19.8 189 
 BAR2 SZ I        1932 25.01         7.4 0.50            167           19.8 189 
 BRR  HZ EP       1932  5.87                             152    0.3210 72.2 301 
 BRR  HN ES       1932 22.18                             152   -0.0410 72.2 301 
 BRR  HN I        1932 26.51        27.6 0.20            151           72.2 301 
 RUS  HZ EP       1932  7.86                             145    0.0210 97.2 175 
 RUS  HE ES       1932 25.81                             145   -0.5010 97.2 175 
 RUS  HZ I        1932 29.38         3.2 0.46            147           97.2 175 
 PTB  HZ EP       1932 10.77                             133   -0.37 9  146 260 
 PTB  HN ES       1932 32.21                             133    0.03 9  146 260 
 PTB  HZ I        1932 39.46         8.8 0.36            133            146 260 
 SPBC HZ EP       1932 12.69                             130    0.20 9  160 220 
 SPBC HN ES       1932 34.87                             130    0.28 9  160 220 
 SPBC HZ I        1932 41.85        13.3 0.30            131            160 220 
 ZAR  HN ES       1932 41.91                             123   -0.30 9  205 293 
 ZAR  HZ I        1932 48.34         8.6 0.62            125            205 293 
 GUY2CHZ EP       1932 27.67                             113    0.12 7  299 235 
 GUY2CHZ I        1933 10.92         3.1 0.34                           299 235 
                                                                                
