 2016  529 1311 31.3 L   6.822 -73.151149.4  RSN  6 0.4 1.5LRSN                1
 GAP=135        1.14       4.6     6.0  7.7 -0.3234E+01  0.4657E+01 -0.3503E+01E
 Epicentro: LOS SANTOS - SANTANDER                                             3
 ACTION:UPD 16-08-18 17:50 OP:cam  STATUS:               ID:20160529131131 L   I
 OLDACT:REG 16-05-29 21:59 OP:ar   STATUS:               ID:20160529130747     3
 2016-05-29-1307-47M.COL___314                                                 6
 STAT SP IPHASW D HRMM SECON CODA AMPLIT PERI AZIMU VELO AIN AR TRES W  DIS CAZ7
 BAR2 EZ EP       1311 51.43                             170    0.0610 25.7 188 
 BAR2 EZ ES       1312  6.74                             170   -0.3210 25.7 188 
 BAR2 EZ I        1312 15.75         4.0 0.46            170           25.7 188 
 BRR  HZ EP       1311 52.60                             154   -0.1110 69.6 297 
 BRR  HN ES       1312 10.21                             154    0.7710 69.6 297 
 BRR  HZ I        1312 12.69         6.9 0.28            156           69.6 297 
 PAM  EZ EP       1311 54.04                             152    0.2710 75.8  41 
 PAM  EN ES       1312 11.09                             152   -0.2410 75.8  41 
 PAM  EZ I        1312 12.75        12.5 0.42            156           75.8  41 
 RUS  HZ EP       1311 55.17                             144   -0.3710  103 176 
 RUS  HN ES       1312 14.83                             144    0.3410  103 176 
 RUS  HZ I        1312 16.26         2.6 0.22            148            103 176 
 PTB  HZ EP       1311 58.18                             133   -0.34 9  148 258 
 PTB  HN ES       1312 19.53                             133   -0.25 9  148 258 
 PTB  HZ I        1312 22.61         3.7 0.14            137            148 258 
 OCA  HZ EP       1312  0.41                             131    0.80 9  158 353 
 OCA  HN ES       1312 21.06                             131   -0.67 9  158 353 
 OCA  HZ I        1312 23.45         8.9 0.26            136            158 353 
                                                                                
