 2017  929 1139 22.2 L   6.557 -73.472117.8  RSN 22 0.6 2.4LRSN                1
 GAP= 68        1.29       3.1     3.0  6.3 -0.2627E+00  0.6725E+01  0.5971E+01E
 Epicentro: EL CARMEN - SANTANDER                                              3
 ACTION:UPD 17-10-05 19:17 OP:rebc STATUS:               ID:20170929113922 L   I
 OLDACT:UP  17-09-29 22:10 OP:osc  STATUS:               ID:20170929113742     3
 OLDACT:REG 17-09-29 19:49 OP:osc  STATUS:               ID:20170929113742     3
 2017-09-29-1138-00M.COL___434                                                 6
 STAT SP IPHASW D HRMM SECON CODA AMPLIT PERI AZIMU VELO AIN AR TRES W  DIS CAZ7
 BAR2 EZ IP     C 1139 39.00                             164    0.3010 32.3  83 
 BAR2 EZ ES       1139 51.38                             164   -0.2210 32.3  83 
 BAR2 EZ I        1139 52.86       786.2 0.44            169           32.3  83 
 BRR  HZ EP       1139 39.78                             148   -0.2610 66.4 337 
 BRR  HE ES       1139 53.94                             148   -0.0610 66.4 337 
 BRR  HZ I        1140  3.86        52.8 0.12            153           66.4 337 
 RUS  HZ EP       1139 41.96                             142   -0.0910 85.1 150 
 RUS  HN ES       1139 57.29                             142   -0.2710 85.1 150 
 RUS  HZ I        1139 58.65        34.6 0.23            145           85.1 150 
 PAM  EZ EP       1139 45.54                             131    0.4310  122  45 
 PAM  EE ES       1140  3.61                             131    0.5910  122  45 
 PAM  EZ I        1140  5.13        34.3 0.28            138            122  45 
 YPLC HZ EP       1139 50.82                             119    0.80 9  176 137 
 YPLC HN ES   4   1140 12.96                             119    1.19 0  176 137 
 YPLC HZ I        1140 14.77        90.3 0.32            124            176 137 
 ZAR  HZ EP       1139 50.89                             118    0.04 9  185 304 
 ZAR  HN ES       1140 13.81                             118    0.58 9  185 304 
 ZAR  HZ I        1140 15.97        25.7 0.08            122            185 304 
 TAM  HZ EP       1139 51.76                             118    0.69 9  186  94 
 TAM  HE ES       1140 12.71                             118   -0.91 9  186  94 
 TAM  HZ I        1140 14.17        26.1 0.14            123            186  94 
 TABC EZ EP   3   1139 53.13                             118    1.23 2  189 205 
 TABC EZ ES       1140 15.69                             118    0.58 9  189 205 
 TABC EZ I        1140 19.50        19.1 0.58            121            189 205 
 NOR  HZ EP       1139 50.54                             117   -0.89 9  190 235 
 NOR  HE ES   4   1140 11.89                             117   -2.38 0  190 235 
 NOR  HZ I        1140 15.58        27.3 0.18            120            190 235 
 ROSC BZ EP   4   1139 55.32                             115    1.03 0  212 206 
 ROSC BE ES   4   1140 21.11                             115    1.76 0  212 206 
 ROSC BZ I        1140 25.64        19.8 0.55            118            212 206 
 CHI  HZ EP       1139 54.56                             114   -0.12 8  215 188 
 CHI  HN ES       1140 20.21                             114    0.17 8  215 188 
 CHI  HZ I        1140 29.68        10.3 0.32            117            215 188 
 HEL  HZ EP       1139 57.29                             112    0.87 8  231 260 
 HEL  HN ES       1140 22.29                             112   -0.85 8  231 260 
 HEL  HZ I        1140 24.82        13.2 0.36            115            231 260 
 GUY2CHZ EP       1139 59.82                             110    0.41 8  256 235 
 GUY2CHE ES       1140 28.35                             110   -0.12 8  256 235 
 GUY2CHZ I        1140 32.83        16.3 0.42                           256 235 
 URE  HZ EP       1139 58.63                             109   -1.00 8  263 300 
 URE  HE ES   4   1140 27.64                             109   -1.22 0  263 300 
 URE  HZ I        1140 35.42        27.7 0.18            113            263 300 
 VIL  EZ EP       1140  0.03                             108   -0.70 8  271 185 
 VIL  EN ES   4   1140 29.80                             108   -1.02 0  271 185 
 VIL  EZ I        1140 39.35        19.4 0.36            112            271 185 
 ELA  HZ EP       1140  2.51                             108   -0.20 7  284 229 
 ELA  HN ES       1140 33.42                             108   -0.93 7  284 229 
 ELA  HZ I        1140 41.59        11.2 0.28            110            284 229 
 PTGC HZ EP   4   1140  2.31                             106   -1.58 0  300 150 
 PTGC HE ES       1140 35.94                             106   -0.50 7  300 150 
 DBB  EN ES   2   1140 39.06                             106    1.00 4  307 280 
 ANIL HZ EP       1140  5.00                             105   -0.77 7  313 223 
 ANIL HE ES       1140 40.70                             105    0.90 7  313 223 
 ANIL HZ I        1140 43.78        32.6 0.26            108            313 223 
 PRA  HZ EP       1140 10.06                             103    0.07 6  351 207 
 PRA  HE ES       1140 47.25                             103   -0.06 6  351 207 
 PRA  HZ I        1140 50.41        15.5 0.26            106            351 207 
 ORTC HZ EP       1140 10.79                             103    0.64 6  353 214 
 ORTC HE ES       1140 48.40                             103    0.80 6  353 214 
 ORTC HZ I        1140 57.36         3.6 0.28            106            353 214 
 SJC  HZ EP       1140 16.65                             100   -0.92 6  415 333 
 SJC  HE ES   4   1140 58.56                             100   -2.23 0  415 333 
 SJC  HZ I        1141  2.49         6.3 0.64            103            415 333 
                                                                                
