 2017  329 1731 18.3 L   6.593 -73.530115.7  RSN  6 0.4 1.5LRSN                1
 GAP=119        0.77       3.6     4.6  5.9  0.3239E+01 -0.1611E+01  0.1182E+01E
 Epicentro: EL CARMEN - SANTANDER                                              3
 ACTION:UPD 17-05-25 18:47 OP:jn   STATUS:               ID:20170329173118 L   I
 OLDACT:UP  17-03-29 23:56 OP:ansd STATUS:               ID:20170329172747     3
 OLDACT:UP  17-03-29 23:55 OP:ansd STATUS:               ID:20170329172747     3
 OLDACT:UP  17-03-29 23:53 OP:ansd STATUS:               ID:20170329172747     3
 OLDACT:UP  17-03-29 23:52 OP:ansd STATUS:               ID:20170329172747     3
 OLDACT:REG 17-03-29 20:20 OP:and  STATUS:               ID:20170329172747     3
 2017-03-29-1728-00M.COL___364                                                 6
 STAT SP IPHASW D HRMM SECON CODA AMPLIT PERI AZIMU VELO AIN AR TRES W  DIS CAZ7
 BAR2 EZ IP     D 1731 35.21                             161    0.3410 38.5  90 
 BAR2 EZ ES       1731 47.34                             161   -0.4310 38.5  90 
 BAR2 EZ I        1731 48.41        10.2 0.24            162           38.5  90 
 BRR  HZ EP       1731 35.77                             150    0.1410 60.3 341 
 BRR  HN ES       1731 49.23                             150    0.1110 60.3 341 
 RUS  HZ EP       1731 38.83                             139    0.2710 91.9 147 
 RUS  HN ES       1731 54.36                             139    0.0310 91.9 147 
 RUS  HZ I        1731 55.23         5.6 0.38            139           91.9 147 
 PTB  HZ EP   2   1731 38.24                             134   -0.55 5  103 267 
 PTB  HN ES   3   1731 52.86                             134   -1.88 2  103 267 
 PTB  HZ I        1731 54.27        12.4 0.30            133            103 267 
 PAM  EZ EP       1731 41.31                             130    0.0010  123  48 
 PAM  EN ES       1731 59.00                             130   -0.2110  123  48 
 PAM  EZ I        1731 59.87         3.1 0.24            129            123  48 
 ZAR  HZ EP   9   1731 47.46                             118    1.35 0  177 304 
 ZAR  HE ES       1732  9.50                             117    0.39 9  177 304 
 ZAR  HZ I        1732 12.42         3.8 0.08            117            177 304 
 NOR  HZ EP   4   1731 49.11                             117    1.90 0  187 233 
                                                                                
