 2016 1129 1128 18.3 L   6.795 -73.169146.9  RSN  6 0.2 1.8LRSN                1
 GAP=244        0.59       3.3     4.0  4.5  0.4656E+01  0.4320E+01  0.7351E+01E
 Epicentro: LOS SANTOS - SANTANDER                                             3
 ACTION:UPD 17-10-26 21:13 OP:lp   STATUS:               ID:20161129112818 L   I
 OLDACT:DUP 16-11-29 23:12 OP:lv   STATUS:               ID:20161129111748d    3
 2016-11-29-1118-00M.COL___348                                                 6
 STAT SP IPHASW D HRMM SECON CODA AMPLIT PERI AZIMU VELO AIN AR TRES W  DIS CAZ7
 BAR2 EZ EP       1128 37.88                             171   -0.1910 22.5 184 
 BAR2 EZ ES       1128 53.23                             171   -0.2510 22.5 184 
 BAR2 EZ I        1128 53.87        23.5 0.24            163           22.5 184 
 BRR  HZ IP     C 1128 39.54                             153    0.0610 69.2 300 
 BRR  HN ES       1128 56.47                             153    0.4810 69.2 300 
 BRR  HZ I        1128 58.47         7.2 0.14            148           69.2 300 
 PTB  HZ EP       1128 45.03                             133   -0.12 9  145 259 
 PTB  HN ES       1129  5.91                             133   -0.16 9  145 259 
 PTB  HZ I        1129 11.60         5.2 0.16            129            145 259 
 ZAR  HZ EP   4   1128 52.24                             123    1.62 0  202 293 
 ZAR  HN ES       1129 15.65                             123   -0.16 9  202 293 
 ZAR  HZ I        1129 22.56         7.1 0.25            121            202 293 
 CHI  HZ EP       1128 56.08                             117    0.12 8  247 195 
 CHI  HN ES       1129 25.57                             117    0.26 8  247 195 
 CHI  HZ I        1129 31.66         2.3 0.17            117            247 195 
 PRA  HZ EP       1129 11.96                             107    0.28 6  390 209 
 PRA  HN ES       1129 53.07                             107   -0.23 6  390 209 
 PRA  HZ I        1130  0.02         4.2 0.32            107            390 209 
                                                                                
