 2011  629 1418 42.1 L   6.772 -73.096141.2  RSN  5 0.2 1.7LRSN                1
 GAP=165        0.44       3.1     4.2  4.8 -0.2993E+01 -0.5820E+00 -0.3146E+01E
 Epicentro: LOS SANTOS - SANTANDER                                             3
 ACTION:UP  11-07-14 19:09 OP:ep   STATUS:               ID:20110629141842 L   I
 2011-06-29-1414-34S.COL___140                                                 6
 STAT SP IPHASW D HRMM SECON CODA AMPLIT PERI AZIMU VELO SNR AR TRES W  DIS CAZ7
 BAR2 SZ EP       1419  1.17                             171     0.010   22 206 
 BAR2 SZ ES   1   1419 15.75                             171    -0.3 7   22 206 
 BAR2 SZ I        1419 17.50        15.4 0.25                            22 206 
 BRR  HZ EP       1419  3.14                             149     0.010   78 299 
 BRR  HN ES   2   1419 19.92                             149     0.4 5   78 299 
 BRR  HZ I        1419 21.33        10.9 0.12                            78 299 
 RUS  HZ EP       1419  5.28                             144     0.110   97 179 
 RUS  HZ I        1419  6.05         4.4 0.09                            97 179 
 RUS  HN ES   2   1419 23.25                             144     0.1 5   97 179 
 GRA  SZ EP       1419  6.98                             135    -0.110  127  15 
 NOR  SN ES   1   1419 45.57                             117    -0.2 6  237 236 
                                                                                
