 2017  929 1231 13.8 L   6.785 -73.119139.8  RSN  4 0.2 1.4LRSN                1
 GAP=162        0.50       3.4     4.4  4.2 -0.9478E+01  0.8592E+01 -0.2339E+01E
 Epicentro: LOS SANTOS - SANTANDER                                             3
 ACTION:UPD 17-10-05 19:17 OP:rebc STATUS:               ID:20170929123113 L   I
 OLDACT:REG 17-09-29 19:57 OP:osc  STATUS:               ID:20170929122741     3
 2017-09-29-1228-00M.COL___443                                                 6
 STAT SP IPHASW D HRMM SECON CODA AMPLIT PERI AZIMU VELO AIN AR TRES W  DIS CAZ7
 BAR2 EZ EP       1231 32.46                             170   -0.1910 22.4 198 
 BAR2 EZ ES       1231 47.19                             170   -0.2010 22.4 198 
 BAR2 EZ I        1231 49.74        10.0 0.42            172           22.4 198 
 PAM  EZ EP       1231 35.48                             150    0.1710 76.9  37 
 PAM  EE ES       1231 52.22                             150    0.1010 76.9  37 
 PAM  EZ I        1231 54.67         4.6 0.54            151           76.9  37 
 RUS  HZ EP       1231 36.76                             143   -0.0310 98.7 178 
 RUS  HE ES       1231 54.89                             143    0.1310 98.7 178 
 RUS  HZ I        1231 55.86         2.0 0.34            146           98.7 178 
 NOR  HZ EP       1231 49.08                             117   -0.22 8  236 235 
 NOR  HE ES       1232 17.31                             117    0.28 8  236 235 
                                                                                
