 2017  329 2242 42.2 L   6.795 -73.098142.5  RSN 14 0.5 2.7LRSN                1
 GAP=123        1.19       4.0     4.9  6.1  0.5089E+00  0.9600E+01  0.7277E+01E
 Epicentro: LOS SANTOS - SANTANDER                                             3
 ACTION:UPD 17-05-25 18:47 OP:jn   STATUS:               ID:20170329224242 L   I
 OLDACT:UP  17-03-30 04:11 OP:cog  STATUS:               ID:20170329223550d    3
 OLDACT:DUP 17-03-30 04:02 OP:cog  STATUS:               ID:20170329223550d    3
 2017-03-29-2238-00M.COL___353                                                 6
 STAT SP IPHASW D HRMM SECON CODA AMPLIT PERI AZIMU VELO AIN AR TRES W  DIS CAZ7
 BAR2 EZ EP       2243  1.40                             170   -0.0110 24.2 203 
 BAR2 EZ ES       2243 15.72                             170   -0.7110 24.2 203 
 BAR2 EZ I        2243 19.00       128.2 0.44            165           24.2 203 
 PAM  EZ EP       2243  4.22                             150    0.3610 74.6  36 
 PAM  EN ES       2243 21.23                             150    0.4410 74.6  36 
 PAM  EZ I        2243 21.94        51.4 0.34            158           74.6  36 
 BRR  HZ EP       2243  3.29                             150    0.0510 76.1 297 
 BRR  HN ES       2243 19.86                             150    0.1710 76.1 297 
 BRR  HZ I        2243 22.69        56.3 0.42            149           76.1 297 
 RUS  HZ EP       2243  5.29                             143   -0.2410 99.8 179 
 RUS  HN ES       2243 23.61                             143   -0.1510 99.8 179 
 RUS  HZ I        2243 25.19        23.7 0.28            142           99.8 179 
 PTB  HZ EP   9   2243  8.05                             130   -1.27 0  153 259 
 PTB  HN ES       2243 28.81                             130   -0.43 9  153 259 
 PTB  HZ I        2243 33.78        51.6 0.14            129            153 259 
 ZAR  HZ EP       2243 14.84                             120   -0.08 8  209 292 
 ZAR  HE ES       2243 39.67                             120   -0.81 8  209 292 
 ZAR  HZ I        2243 45.57        59.8 0.68            121            209 292 
 TABC EZ EP   3   2243 18.94                             118    0.99 2  232 212 
 TABC EZ ES   4   2243 50.06                             118    4.19 0  232 212 
 TABC EZ I        2243 53.32        63.7 0.48            118            232 212 
 NOR  HZ EP       2243 17.47                             117   -0.66 8  239 235 
 NOR  HN ES   4   2243 43.64                             117   -2.54 0  239 235 
 NOR  HZ I        2243 47.52        46.9 0.24            117            239 235 
 CHI  HZ EP       2243 19.36                             116   -0.41 8  249 196 
 CHI  HN ES       2243 49.75                             116    0.64 8  249 196 
 CHI  HZ I        2243 54.91        17.4 0.30            117            249 196 
 ROSC BZ EP       2243 21.10                             115    0.75 8  255 212 
 ROSC BN ES   3   2243 51.92                             115    1.79 2  255 212 
 ROSC BZ I        2243 59.06        44.0 0.45            116            255 212 
 HEL  HZ EP       2243 23.05                             113    0.29 7  277 256 
 HEL  HN ES       2243 54.90                             113    0.48 7  277 256 
 HEL  HZ I        2244  1.20        20.6 0.34            114            277 256 
 PTGC HZ EP   9   2243 24.37                             111   -1.22 0  306 160 
 PTGC HN ES       2243 56.61                             111   -1.64 7  306 160 
 PRA  HZ EP       2243 35.18                             105   -0.63 6  394 210 
 PRA  HE ES       2244 17.85                             105    0.19 6  394 210 
 PRA  HZ I        2244 24.15        25.7 0.28            106            394 210 
 ORTC HZ EP       2243 36.15                             105   -0.13 6  398 217 
 ORTC HN ES       2244 19.07                             105    0.58 6  398 217 
 ORTC HZ I        2244 25.73        13.7 0.34            106            398 217 
                                                                                
