 2011  729 2131 43.3 L   6.762 -73.094149.3  RSN 10 0.2 2.6LRSN                1
 GAP=145        0.46       2.1     3.2  3.4 -0.2136E+01  0.2623E+01  0.7866E+00E
 Epicentro: LOS SANTOS - SANTANDER                                             3
 ACTION:UPD 12-07-25 14:04 OP:epov STATUS:               ID:20110729213143 L   I
 2011-07-29-2130-10S.COL___141                                                 6
 STAT SP IPHASW D HRMM SECON CODA AMPLIT PERI AZIMU VELO AIN AR TRES W  DIS CAZ7
 BAR2 SZ IP       2132  3.15                             172   -0.1510 21.1 207 
 BAR2 SZ ES   1   2132 18.79                             172   -0.12 7 21.1 207 
 BAR2 SZ I        2132 19.94        90.0 0.34                          21.1 207 
 PAM  SZ EP   1   2132  6.08                             151    0.21 7 77.3  34 
 PAM  SE ES   1   2132 23.30                             151   -0.19 7 77.3  34 
 BRR  HZ EP   1   2132  5.10                             151   -0.12 7 78.2 299 
 BRR  HZ I        2132  6.71       105.4 0.14                          78.2 299 
 BRR  HE ES   1   2132 22.65                             151    0.33 7 78.2 299 
 RUS  HZ EP   1   2132  7.03                             146   -0.04 7 96.2 179 
 RUS  HN ES   1   2132 25.83                             146    0.20 7 96.2 179 
 RUS  HZ I        2132 27.04        26.5 0.19                          96.2 179 
 BRI  SZ EP   1   2132  7.72                             142    0.05 7  111  17 
 OCA  SZ EP   1   2132 12.13                             130   -0.20 7  165 351 
 OCA  SZ ES   1   2132 35.09                             130    0.10 7  165 351 
 OCA  SZ I        2132 39.26        62.9 0.25                           165 351 
 NOR  SZ EP   1   2132 19.08                             119   -0.38 6  237 236 
 NOR  SE ES   1   2132 47.24                             119   -0.44 6  237 236 
 CHI  HZ EP   1   2132 21.43                             118    0.52 6  246 197 
 CHI  HZ I        2132 23.94        22.8 0.35                           246 197 
 HEL  HZ EP   1   2132 24.41                             115    0.24 6  277 257 
 HEL  HE ES   2   2132 56.45                             115    0.38 4  277 257 
 PRA  HZ EP   1   2132 36.86                             107    0.03 4  391 211 
 PRA  HN ES   1   2133 18.62                             107    0.02 4  391 211 
                                                                                
