 2014 1229 2114 46.6 L   6.829 -73.174146.1  RSN  8 0.3 1.7LRSN                1
 GAP=111        0.69       3.3     3.2  5.2 -0.1116E+01  0.1506E+01  0.1546E+01E
 Epicentro: ZAPATOCA - SANTANDER                                               3
 ACTION:UPD 15-02-10 17:08 OP:nd   STATUS:               ID:20141229211446 L   I
 OLDACT:REG 14-12-30 04:40 OP:spq  STATUS:               ID:20141229210749     3
 2014-12-29-2107-49M.COL___283                                                 6
 STAT SP IPHASW D HRMM SECON CODA AMPLIT PERI AZIMU VELO AIN AR TRES W  DIS CAZ7
 BAR2 EZ ES   1   2115 21.81                             169    0.12 7 26.2 182 
 BAR2 EZ I        2115 22.50        10.1 0.22            169           26.2 182 
 PAM  SZ EP       2115  9.06                             151    0.2510 77.0  43 
 PAM  SN ES   1   2115 25.88                             151   -0.26 7 77.0  43 
 PAM  SZ I        2115 28.26         8.0 0.68            155           77.0  43 
 RUS  HZ EP       2115 10.53                             143   -0.0810  104 174 
 RUS  HN ES       2115 29.48                             143    0.1310  104 174 
 RUS  HZ I        2115 30.71         7.0 0.32            145            104 174 
 PTB  HZ EP       2115 12.83                             133   -0.52 9  145 257 
 PTB  HN ES       2115 33.87                             133   -0.36 9  145 257 
 PTB  HZ I        2115 38.79         8.4 0.10            131            145 257 
 TAM  HZ EP   1   2115 14.61                             130   -0.03 7  159 106 
 SPBC HZ EP       2115 15.33                             129    0.18 9  164 217 
 SPBC HE ES   1   2115 37.36                             129   -0.08 7  164 217 
 SPBC HZ I        2115 44.33         8.9 0.31            129            164 217 
 ZAR  HN ES   1   2115 44.42                             123    0.81 6  200 292 
 ZAR  HZ I        2115 51.84         6.7 0.34            123            200 292 
 CHI  HZ EP       2115 24.64                             117    0.10 8  251 194 
 CHI  HE ES   1   2115 54.33                             117    0.18 6  251 194 
 CHI  HZ I        2115 57.45         2.5 0.28            118            251 194 
 SJC  HZ EP   4   2115 40.63                             106   -1.00 0  405 327 
                                                                                
