 2017  129 2203 10.1 L   6.749 -73.128150.4  RSN  5 0.4 1.0LRSN                1
 GAP=141        0.94       5.1     5.0  7.0 -0.2674E+01  0.5021E+01  0.7138E+00E
 Epicentro: LOS SANTOS - SANTANDER                                             3
 ACTION:UPD 17-05-22 16:04 OP:jn   STATUS:               ID:20170129220310 L   I
 OLDACT:UP  17-01-30 03:44 OP:edw  STATUS:               ID:20170129215746d    3
 OLDACT:DUP 17-01-30 03:40 OP:edw  STATUS:               ID:20170129215746d    3
 OLDACT:REG 17-01-30 02:31 OP:edw  STATUS:               ID:20170129215745     3
 2017-01-29-2158-00M.COL___342                                                 6
 STAT SP IPHASW D HRMM SECON CODA AMPLIT PERI AZIMU VELO AIN AR TRES W  DIS CAZ7
 BAR2 EZ ES       22 3 46.00                             173    0.0810 18.4 199 
 BRR  HZ EP       22 3 32.44                             152    0.4010 75.6 302 
 BRR  HN ES       22 3 49.42                             152    0.3010 75.6 302 
 PAM  EZ EP     C 22 3 33.39                             151    0.3510 80.6  36 
 PAM  EN ES       22 3 50.35                             151   -0.5510 80.6  36 
 PAM  EZ I        22 3 52.68         1.9 0.66            152           80.6  36 
 RUS  HZ EP       22 3 33.55                             146   -0.4010 94.9 177 
 RUS  HN ES       22 3 52.81                             146    0.2810 94.9 177 
 RUS  HZ I        22 3 54.81         2.2 0.44            147           94.9 177 
 PTB  HZ EP       22 3 37.48                             133   -0.09 9  149 261 
 PTB  HN ES       22 3 58.53                             133   -0.43 9  149 261 
 PTB  HZ I        22 4  1.75         0.9 0.15            134            149 261 
                                                                                
