 2013 1029 2153 29.1 L   6.781 -73.128153.0  RSN  8 0.4 2.0LRSN                1
 GAP=140        0.95       4.7     5.0  6.2  0.1265E+01  0.5537E+01 -0.2560E+01E
 Epicentro: LOS SANTOS - SANTANDER                                             3
 ACTION:UPD 13-11-25 09:24 OP:ep   STATUS:               ID:20131029215329 L   I
 OLDACT:REG 13-10-29 22:21 OP:cam  STATUS:               ID:20131029214849     3
 2013-10-29-2148-49M.COL___224                                                 6
 STAT SP IPHASW D HRMM SECON CODA AMPLIT PERI AZIMU VELO AIN AR TRES W  DIS CAZ7
 BAR2 SZ EP       2153 49.67                             172    0.0910 21.8 196 
 BAR2 SZ ES       2154  5.18                             172   -0.3610 21.8 196 
 BAR2 SZ I        2154  6.00        31.9 0.34            170           21.8 196 
 BRR  HZ EP       2153 51.48                             153    0.2910 73.9 299 
 BRR  HN ES       2154  9.19                             153    0.7710 73.9 299 
 PAM  SZ EP       2153 52.38                             152    0.2610 77.8  37 
 PAM  SN ES       2154  9.71                             152   -0.3610 77.8  37 
 PAM  SZ I        2154 11.85        12.6 0.60            155           77.8  37 
 RUS  HZ EP       2153 53.38                             146   -0.0410 98.4 177 
 RUS  HN ES       2154 12.49                             146    0.1010 98.4 177 
 RUS  HZ I        2154 13.32         8.9 0.38            148           98.4 177 
 PTB  HZ EP       2153 56.44                             133   -0.37 9  149 260 
 PTB  HN ES   1   2154 17.70                             133   -0.72 7  149 260 
 PTB  HZ I        2154 23.56        10.2 0.10            132            149 260 
 ZAR  HN ES   1   2154 28.39                             124    0.20 6  207 292 
 ZAR  HZ I        2154 34.70        14.0 0.40            123            207 292 
 SML  HZ EP       2154  6.01                             119   -0.43 8  246 335 
 CHI  HZ EP   2   2154  7.70                             119    0.64 4  247 196 
                                                                                
