 2015  429 2027 54.5 L   6.814 -73.154139.3  RSN  5 0.4 1.4LRSN                1
 GAP=238        0.75       7.3     5.6  8.0  0.2356E+01  0.1486E+02 -0.4049E+01E
 Epicentro: LOS SANTOS - SANTANDER                                             3
 ACTION:UPD 15-06-03 16:58 OP:cam  STATUS:               ID:20150429202754 L   I
 OLDACT:REG 15-04-30 02:42 OP:spq  STATUS:               ID:20150429201749     3
 2015-04-29-2017-49M.COL___268                                                 6
 STAT SP IPHASW D HRMM SECON CODA AMPLIT PERI AZIMU VELO AIN AR TRES W  DIS CAZ7
 BAR2 EZ ES   1   2028 28.24                             169    0.14 8 24.8 187 
 BAR2 EZ I        2028 29.13         5.9 0.32            163           24.8 187 
 BRR  HZ EP   1   2028 15.32                             152    0.47 8 69.7 298 
 RUS  HZ EP       2028 17.51                             142   -0.2110  102 176 
 RUS  HN ES   1   2028 35.84                             142   -0.02 7  102 176 
 RUS  HZ I        2028 36.65         2.6 0.26            142            102 176 
 PTB  HZ EP   1   2028 20.27                             131   -0.61 7  147 258 
 PTB  HN ES   1   2028 41.06                             131   -0.41 7  147 258 
 PTB  HZ I        2028 48.19         3.2 0.17            128            147 258 
 NOR  HZ EP   1   2028 30.41                             117    0.55 6  235 234 
 NOR  HE ES       2028 57.72                             117    0.26 8  235 234 
 NOR  HZ I        2029  4.19         2.5 0.16            117            235 234 
                                                                                
