 2016 1029 2151 52.9 L   6.787 -73.168144.0  RSN 15 0.4 2.1LRSN                1
 GAP= 70        0.97       3.5     3.2  5.5 -0.2848E+01  0.2648E+01  0.4741E+01E
 Epicentro: LOS SANTOS - SANTANDER                                             3
 ACTION:UPD 16-11-09 19:24 OP:rebc STATUS:               ID:20161029215152 L   I
 OLDACT:UP  16-10-30 04:52 OP:and  STATUS:               ID:20161029214745     3
 OLDACT:UP  16-10-30 04:33 OP:and  STATUS:               ID:20161029214745     3
 OLDACT:REG 16-10-30 03:01 OP:and  STATUS:               ID:20161029214745     3
 2016-10-29-2148-00M.COL___322                                                 6
 STAT SP IPHASW D HRMM SECON CODA AMPLIT PERI AZIMU VELO AIN AR TRES W  DIS CAZ7
 BAR2 EZ EP     C 2152 12.07                             171   -0.2310 21.6 184 
 BAR2 EZ ES       2152 27.47                             171    0.0610 21.6 184 
 BAR2 EZ I        2152 28.35        60.9 0.25            170           21.6 184 
 BRR  HZ IP     C 2152 13.91                             153    0.1210 69.8 301 
 BRR  HN ES       2152 31.07                             153    0.9910 69.8 301 
 BRR  HZ I        2152 31.65        23.1 0.13            149           69.8 301 
 PAM  EZ IP     C 2152 14.87                             150   -0.2310 80.1  40 
 PAM  EN ES       2152 32.06                             150   -0.3510 80.1  40 
 PAM  EZ I        2152 34.31        15.8 0.52            151           80.1  40 
 RUS  HZ EP       2152 16.29                             144   -0.1110 99.3 175 
 RUS  HN ES       2152 34.72                             144    0.0010 99.3 175 
 RUS  HZ I        2152 36.14        19.9 0.38            144           99.3 175 
 PTB  HZ EP       2152 19.05                             132   -0.44 9  145 259 
 PTB  HN ES       2152 39.82                             132   -0.40 9  145 259 
 PTB  HZ I        2152 47.06        14.0 0.15            129            145 259 
 TAM  HN ES       2152 42.46                             130    0.20 9  157 104 
 SPBC HZ EP       2152 21.37                             129    0.35 9  160 219 
 SPBC HN ES       2152 42.81                             129   -0.13 9  160 219 
 SPBC HZ I        2152 46.05        22.0 0.12            127            160 219 
 NOR  HZ EP       2152 28.47                             119    0.24 8  232 234 
 NOR  HN ES       2152 54.78                             119   -1.00 8  232 234 
 NOR  HZ I        2153  1.77         7.2 0.24            117            232 234 
 CHI  HZ EP       2152 30.41                             117    0.12 8  247 195 
 CHI  HN ES       2152 59.75                             117    0.31 8  247 195 
 CHI  HZ I        2153  3.08         5.1 0.24            116            247 195 
 ROSC BZ EP   9   2152 32.82                             117    2.16 0  250 211 
 ROSC BE ES       2153  2.43                                    0.17 8  250 211 
 ROSC BZ I        2153  6.77        19.2 0.40            116            250 211 
 GUY2CHZ EP   3   2152 37.33                             112    1.21 2  298 235 
 GUY2CHE ES       2153 10.38                             112    0.56 7  298 235 
 GUY2CHZ I        2153 17.61         4.3 0.40                           298 235 
 PTGC HZ EP   4   2152 35.23                             111   -1.41 0  308 158 
 LL6C HZ EP   9   2152 18.02                             110   -20.7 0  326 358 
 LL6C HN ES       2152 54.25                                    0.52 7  326 358 
 PRA  HZ EP   9   2152 43.13                             106   -2.95 0  390 209 
 PRA  HN ES       2153 25.06                                    0.46 6  390 209 
 PRA  HZ I        2153 30.50         8.2 0.30            106            390 209 
 ORTC HZ EP   2   2152 47.09                             106    0.63 3  393 216 
 ORTC HE ES   4   2153 29.46                             106    1.23 0  393 216 
 ORTC HZ I        2153 36.18         3.7 0.32            106            393 216 
 SJC  HZ EP   9   2152 46.36                             106   -2.05 0  409 327 
 SJC  HN ES       2153 29.39                             106   -0.25 6  409 327 
 SJC  HZ I        2153 42.46         2.5 0.37            105            409 327 
 CRJC HZ EP   4   2152 52.20                             103   -3.36 0  469   4 
 CRJC HE ES   4   2153 40.03                             103   -4.39 0  469   4 
                                                                                
