 2013  529 2354  8.0 L   6.791 -73.162143.6  RSN 15 0.5 2.5LRSN 3.1WRSN        1
 SPEC AVERAGE  MO 13.7 ST  1.8 OM  2.4 f0 2.85 R0.5623 AL 2.02 WI 29.3 MW  3.1 3
 SPEC SD       MO  0.1 ST  1.5 OM  0.4 f00.508 R0.0935 AL      WI      MW  0.1 3
 GAP= 64        1.09       3.2     3.3  5.4  0.3482E+00  0.3603E+01  0.4873E+01E
 Epicentro: LOS SANTOS - SANTANDER                                             3
 SPEC TAM HH E MO 13.7 ST  1.7 OM  2.0 f0 2.99 R0.5197 AL 2.30 WI 34.6 MW  3.1 3
 SPEC TAM HH E T235456 K 0.000 GD  212 VS 4.20 DE 3.20 Q0300.0 QA 0.60 VS 4.20 3
 SPEC NOR HH E MO 13.7 ST  1.1 OM  1.9 f0 2.62 R0.5931 AL 2.03 WI 31.3 MW  3.1 3
 SPEC NOR HH E T2355 9 K 0.000 GD  273 VS 4.20 DE 3.20 Q0300.0 QA 0.60 VS 4.20 3
 SPEC OCA HH Z MO 13.5 ST  1.1 OM  1.8 f0 2.99 R0.5197 AL 1.34 WI 28.4 MW  3.0 3
 SPEC OCA HH Z T235455 K 0.000 GD  215 VS 4.20 DE 3.20 Q0300.0 QA 0.60 VS 4.20 3
 SPEC PAM SH N MO 13.7 ST0.649 OM  2.1 f0 2.21 R0.7032 AL 2.06 WI 19.3 MW  3.1 3
 SPEC PAM SH N T235446 K 0.000 GD  164 VS 4.20 DE 3.20 Q0300.0 QA 0.60 VS 4.20 3
 SPEC CHI HH N MO 13.9 ST  1.3 OM  2.0 f0 2.47 R0.6291 AL 2.38 WI 28.4 MW  3.2 3
 SPEC CHI HH N T235512 K 0.000 GD  285 VS 4.20 DE 3.20 Q0300.0 QA 0.60 VS 4.20 3
 SPEC BRR HH N MO 13.9 ST  5.1 OM  2.3 f0 3.80 R0.4089 AL 2.02 WI 34.1 MW  3.2 3
 SPEC BRR HH N T235444 K 0.000 GD  159 VS 4.20 DE 3.20 Q0300.0 QA 0.60 VS 4.20 3
 ACTION:UPD 13-06-20 09:54 OP:ep   STATUS:               ID:20130529235408 L   I
 2013-05-29-2350-00M.COL___261                                                 6
 STAT SP IPHASW D HRMM SECON CODA AMPLIT PERI AZIMU VELO AIN AR TRES W  DIS CAZ7
 BAR2 SZ EP       2354 27.44                             171    0.0710 22.1 186 
 BAR2 SZ ES       2354 42.54                             171    0.0810 22.1 186 
 BAR2 SZ I        2354 44.03        94.5 0.24            170           22.1 186 
 GIR2 SZ EP       2354 27.50                             167    0.0410 32.0 354 
 GIR2 SZ ES       2354 42.75                             167    0.1310 32.0 354 
 BRR  HZ EP       2354 29.23                             153    0.3510 70.1 300 
 BRR  HN ES       2354 46.30                             153    1.1510 70.1 300 
 BRR  HZ I        2354 48.79        55.5 0.30            150           70.1 300 
 PAM  SZ EP       2354 30.40                             150    0.2710 79.3  40 
 PAM  SE ES       2354 47.05                             150   -0.3110 79.3  40 
 PAM  SZ I        2354 50.21        34.7 0.66            152           79.3  40 
 RUS  HZ EP       2354 31.38                             144   -0.1310 99.7 175 
 RUS  HN ES       2354 49.52                             144   -0.3010 99.7 175 
 RUS  HZ I        2354 51.56        34.0 0.22            145           99.7 175 
 PTB  HZ EP       2354 34.02                             132   -0.62 9  146 259 
 PTB  HN ES       2354 54.90                             132   -0.50 9  146 259 
 PTB  HZ I        2354 57.84        44.1 0.14            131            146 259 
 TAM  HZ IP     C 2354 35.82                             130    0.15 9  157 104 
 TAM  HE ES   1   2354 57.21                             130   -0.02 7  157 104 
 OCA  HN ES       2354 57.40                             129   -0.85 9  161 354 
 OCA  HZ I        2355  6.37        30.7 0.26            130            161 354 
 YOP  SZ EP   1   2354 38.18                             126    0.27 7  179 153 
 YOP  SE ES   1   2355  0.54                             126   -0.67 7  179 153 
 YOP  SZ I        2355  3.75        33.8 0.20            128            179 153 
 ZAR  HN ES   1   2355  5.14                             122   -0.16 6  203 293 
 ZAR  HZ I        2355 10.68        42.8 0.26            122            203 293 
 NOR  HZ EP       2354 43.60                             118    0.18 8  233 234 
 NOR  HE ES       2355 11.28                             118    0.26 8  233 234 
 NOR  HZ I        2355 21.02        27.0 0.44            118            233 234 
 SML  HE ES   1   2355 13.08                             117    0.04 6  244 336 
 CHI  HZ EP       2354 45.72                             117    0.27 8  247 195 
 CHI  HN ES       2355 14.67                             117    0.03 8  247 195 
 CHI  HZ I        2355 20.15        16.0 0.34            118            247 195 
 HEL  HZ EP       2354 48.39                             114    0.48 8  270 256 
 HEL  HN ES   1   2355 17.64                             114   -1.38 6  270 256 
 HEL  HZ I        2355 25.94        16.2 0.36            115            270 256 
 GUY2CHZ EP       2354 51.58                             112    0.27 7  299 235 
 GUY2CHZ I        2355 33.71        22.7 0.36                           299 235 
                                                                                
