 2013  429 2217 11.6 L   6.854 -73.184146.6  RSN 21 0.5 3.6LRSN                1
 GAP= 73        1.13       3.7     3.7  5.0 -0.2763E+01  0.5016E+01  0.8223E+00E
 Epicentro: ZAPATOCA - SANTANDER                                               3
 ACTION:UPD 13-05-22 14:41 OP:EP   STATUS:               ID:20130429221711 L   I
 2013-04-29-2210-00M.COL___253                                                 6
 STAT SP IPHASW D HRMM SECON CODA AMPLIT PERI AZIMU VELO AIN AR TRES W  DIS CAZ7
 ARGC HZ EP   4   2218  1.97                             109                    
 ARGC HZ ES   4   2218 34.31                             109                    
 ARGC HZ I        2218 42.77        79.2 0.32            109                    
 GIR2 SZ IP     C 2217 31.69                             170    0.4810 24.9 358 
 GIR2 SZ ES       2217 45.74                             170   -0.7710 24.9 358 
 GIR2 SZ I        2217 48.44       623.2 0.48            166           24.9 358 
 BAR2 SZ IP     D 2217 31.46                             168    0.0110 28.9 180 
 BAR2 SZ ES       2217 46.98                             168    0.0410 28.9 180 
 BAR2 SZ I        2217 52.35       561.8 0.24            169           28.9 180 
 BRR  HZ IP     C 2217 33.27                             155    0.7810 64.7 296 
 BRR  HN ES   1   2217 49.33                             155    0.55 7 64.7 296 
 BRR  HZ I        2217 53.26       789.6 0.30            150           64.7 296 
 PAM  SZ IP     C 2217 34.20                             151    0.3910 75.8  45 
 PAM  SN ES       2217 51.05                             151   -0.0810 75.8  45 
 PAM  SZ I        2217 53.36      1175.9 0.48            154           75.8  45 
 PTB  HZ IP     C 2217 38.01                             133   -0.36 9  145 256 
 PTB  HN ES   1   2217 58.93                             133   -0.33 7  145 256 
 PTB  HZ I        2218  5.19       485.2 0.34            131            145 256 
 OCA  HZ EP       2217 39.64                             131    0.26 9  154 354 
 OCA  HN ES   1   2218  0.75                             131   -0.30 7  154 354 
 OCA  HZ I        2218  7.09       392.5 0.26            131            154 354 
 TAM  HZ IP     C 2217 39.88                             130    0.01 9  161 107 
 TAM  HN ES   1   2218  1.26                             130   -0.66 7  161 107 
 TAM  HZ I        2218  2.13       223.4 0.26            135            161 107 
 ZAR  HZ EP       2217 44.17                             123    0.70 9  198 291 
 ZAR  HN ES   4   2218 10.02                             123    1.69 0  198 291 
 ZAR  HZ I        2218 15.93       648.4 0.38            122            198 291 
 NOR  HZ EP     D 2217 47.82                             119    0.43 8  235 233 
 NOR  HN ES       2218 15.66                             119    0.36 8  235 233 
 NOR  HZ I        2218 20.71       215.1 0.16            119            235 233 
 SML  HZ EP       2217 47.90                             118    0.40 8  237 336 
 SML  HN ES   2   2218 15.01                             118   -0.49 4  237 336 
 SML  HZ I        2218 25.20       343.6 0.32            118            237 336 
 ROSC BZ IP   4 D 2217 51.40                             116    1.31 0  256 210 
 ROSC BN ES   1   2218 20.71                             116    0.60 6  256 210 
 ROSC BZ I        2218 26.35       400.5 0.40            117            256 210 
 HEL  HZ EP       2217 51.04                             115   -0.53 8  269 254 
 HEL  HN ES   4   2218 25.00                             115    2.26 0  269 254 
 HEL  HZ I        2218 31.04       214.3 0.36            115            269 254 
 URE  HZ EP       2217 51.50                             114   -0.53 7  278 291 
 URE  HN ES   4   2218 23.97                             114    0.41 0  278 291 
 URE  HZ I        2218 33.77       323.0 0.20            114            278 291 
 VIL  SZ EP     D 2217 55.17                             112   -0.45 7  308 191 
 VIL  SN ES   1   2218 29.76                             112   -0.19 5  308 191 
 VIL  SZ I        2218 39.15       244.6 0.40            113            308 191 
 DBB  SZ EP     D 2217 59.20                             110    0.62 7  335 273 
 DBB  SZ ES       2218 33.89                             110   -1.33 7  335 273 
 DBB  SZ I        2218 42.85       149.9 0.30            110            335 273 
 COD  HZ IP     D 2217 58.66                             109   -0.62 7  342 355 
 COD  HN ES   4   2218 35.00                             109   -1.48 0  342 355 
 COD  HZ I        2218 49.23        41.7 0.26            110            342 355 
 SDV  BZ EP     D 2218  1.05                             108   -0.57 6  360  51 
 SDV  BN ES   4   2218 37.62                             108   -3.01 0  360  51 
 SDV  BZ I        2218 43.57       107.8 0.55            110            360  51 
 PRA  HZ EP       2218  4.94                             106   -0.57 6  395 209 
 PRA  HN ES   4   2218 46.10                             106   -1.46 0  395 209 
 PRA  HZ I        2218 51.87       165.9 0.28            107            395 209 
 SJC  HZ EP   4   2218  5.36                             106   -0.97 0  402 327 
 SJC  HN ES   4   2218 46.57                             106   -2.46 0  402 327 
 SJC  HZ I        2218 51.90        57.6 0.28            106            402 327 
 PAL  HZ EP   4   2218  7.48                             106    0.76 0  405 238 
 PAL  HN ES   4   2218 51.93                             106    2.21 0  405 238 
 PAL  HZ I        2218 56.07        81.8 0.50            106            405 238 
                                                                                
