 2017 1129 2220  9.2 L   6.810 -73.175142.6  RSN  4 0.3 1.4LRSN                1
 GAP=144        0.80       4.8     4.4  8.8 -0.8717E+01  0.1369E+02 -0.7999E+00E
 Epicentro: LOS SANTOS - SANTANDER                                             3
 ACTION:UPD 17-12-12 20:02 OP:rebc STATUS:               ID:20171129222009 L   I
 OLDACT:REG 17-11-30 04:41 OP:edw  STATUS:               ID:20171129220129     3
 2017-11-29-2218-00M.COL___501                                                 6
 STAT SP IPHASW D HRMM SECON CODA AMPLIT PERI AZIMU VELO AIN AR TRES W  DIS CAZ7
 PAM  EZ EP       2220 31.20                             150    0.0710 78.7  42 
 PAM  EE ES       2220 48.45                             150    0.1910 78.7  42 
 PAM  EZ I        2220 50.50         8.7 0.50            152           78.7  42 
 RUS  HZ EP       2220 32.63                             143   -0.0810  102 174 
 RUS  HN ES       2220 50.91                             143   -0.1610  102 174 
 RUS  HZ I        2220 51.80         3.9 0.24            147            102 174 
 PTB  HZ EP       2220 35.33                             132   -0.27 9  145 258 
 PTB  HN ES       2220 55.89                             132   -0.33 9  145 258 
 PTB  HZ I        2220 59.57         2.2 0.20            134            145 258 
 NOR  HN ES       2221 12.81                             118    0.76 8  233 234 
                                                                                
