 2017 1229 2030 25.3 L   6.805 -73.142148.0  RSN 13 0.6 2.2LRSN                1
 GAP=112        1.25       3.5     4.2  7.2  0.4282E+00  0.3321E+01  0.3189E+01E
 Epicentro: LOS SANTOS - SANTANDER                                             3
 ACTION:UPD 18-01-04 13:25 OP:rebc STATUS:               ID:20171229203025 L   I
 OLDACT:UP  17-12-30 07:06 OP:edw  STATUS:               ID:20171229202143     3
 OLDACT:REG 17-12-30 02:39 OP:edw  STATUS:               ID:20171229202143     3
 2017-12-29-2028-00M.COL___476                                                 6
 STAT SP IPHASW D HRMM SECON CODA AMPLIT PERI AZIMU VELO AIN AR TRES W  DIS CAZ7
 BAR2 EZ EP       2030 45.45                             170    0.2210 24.0 191 
 BAR2 EZ ES       2031  1.09                             170    0.3310 24.0 191 
 BAR2 EZ I        2031  1.42        43.4 0.32            170           24.0 191 
 PAM  EZ EP     D 2030 48.46                             151    0.7210 76.7  40 
 PAM  EE ES       2031  5.07                             151   -0.1410 76.7  40 
 PAM  EZ I        2031  7.85        14.7 0.52            153           76.7  40 
 PTB  HZ EP       2030 51.95                             132   -0.57 9  148 259 
 PTB  HN ES       2031 13.33                             132   -0.39 9  148 259 
 PTB  HZ I        2031 14.68        12.8 0.20            133            148 259 
 OCA  HZ ES   2   2031 15.57                             130   -0.37 5  160 353 
 SPBC HZ EP       2030 54.63                             129    0.57 9  164 219 
 SPBC HN ES       2031 16.30                             129   -0.17 9  164 219 
 SPBC HZ I        2031 19.07        22.4 0.34            130            164 219 
 YPLC HZ EP       2030 55.96                             127    0.65 9  177 152 
 YPLC HN ES       2031 18.66                             127   -0.04 9  177 152 
 YPLC HZ I        2031 22.51        14.3 0.44            128            177 152 
 ZAR  HZ EP       2030 58.69                             123    0.76 9  204 292 
 ZAR  HE ES       2031 22.93                             123   -0.43 9  204 292 
 ZAR  HZ I        2031 28.72        19.4 0.52            124            204 292 
 NOR  HZ EP   3   2031  1.63                             119    0.38 2  235 234 
 NOR  HN ES       2031 29.56                             119    0.29 8  235 234 
 URE  HN ES   4   2031 36.78                             114   -1.87 0  284 292 
 DRL03HZ EP   4   2031  5.37                             114   -1.61 0  288 353 
 DRL03HE ES       2031 38.71                             114   -0.76 7  288 353 
 GUY2CHZ EP   4   2031 10.84                             113    1.73 0  302 235 
 GUY2CHE ES   4   2031 46.32                             113    3.06 0  302 235 
 GUY2CHZ I        2031 53.38         4.6 0.44                           302 235 
 PTGC HZ EP       2031  8.73                             112   -0.59 7  309 159 
 PTGC HE ES       2031 41.97                             112   -1.67 7  309 159 
 PTGC HZ I        2031 44.66         8.7 0.40            113            309 159 
 DRL02HZ EP       2031 10.77                             111   -0.29 7  324 358 
 DRL02HE ES   4   2031 47.49                             111    0.76 0  324 358 
 PRA  HZ EP       2031 19.57                             107    0.57 6  393 210 
 PRA  HE ES       2032  0.81                             107   -0.06 6  393 210 
 PRA  HZ I        2032  5.99         7.3 0.38            107            393 210 
 ORTC HE ES   4   2032  3.12                             107    1.54 0  396 216 
                                                                                
