 2017 1129 2238 55.0 L   6.832 -73.174146.9  RSN  6 0.3 1.4LRSN                1
 GAP=146        0.74       3.7     4.0  5.5 -0.4880E+01  0.5969E+01  0.3291E+01E
 Epicentro: ZAPATOCA - SANTANDER                                               3
 ACTION:UPD 17-12-12 20:02 OP:rebc STATUS:               ID:20171129223855 L   I
 OLDACT:REG 17-11-30 04:42 OP:edw  STATUS:               ID:20171129223728     3
 2017-11-29-2238-00M.COL___501                                                 6
 STAT SP IPHASW D HRMM SECON CODA AMPLIT PERI AZIMU VELO AIN AR TRES W  DIS CAZ7
 BAR2 EZ EP       2239 14.70                             169   -0.1210 26.5 182 
 BAR2 EZ ES       2239 30.28                             169   -0.0110 26.5 182 
 BAR2 EZ I        2239 32.53         8.4 0.46            169           26.5 182 
 PAM  EZ EP       2239 17.68                             151    0.3910 76.8  43 
 PAM  EN ES       2239 34.71                             151    0.0310 76.8  43 
 PAM  EZ I        2239 36.89         5.0 0.56            155           76.8  43 
 RUS  HZ EP       2239 18.79                             143   -0.3310  104 174 
 RUS  HE ES       2239 38.04                             143    0.1010  104 174 
 RUS  HZ I        2239 38.62         3.0 0.38            145            104 174 
 PTB  HZ EP       2239 21.53                             133   -0.31 9  145 257 
 PTB  HE ES       2239 42.55                             133   -0.23 9  145 257 
 PTB  HZ I        2239 47.52         2.4 0.24            133            145 257 
 CHI  HZ EP       2239 33.10                             117    0.07 8  251 194 
 CHI  HE ES       2240  2.57                             117   -0.13 8  251 194 
 CHI  HZ I        2240  8.17         1.4 0.68            119            251 194 
 GUY2CHE ES       2240 13.45                             112    0.85 7  301 234 
                                                                                
