 2017  329 2058 53.4 L   6.770 -73.116140.3  RSN 15 0.5 2.6LRSN                1
 GAP=123        1.01       3.4     3.7  5.3 -0.1125E+01  0.6687E+01  0.4067E+01E
 Epicentro: LOS SANTOS - SANTANDER                                             3
 ACTION:UPD 17-05-25 18:47 OP:jn   STATUS:               ID:20170329205853 L   I
 OLDACT:UP  17-03-30 03:44 OP:cog  STATUS:               ID:20170329204740     3
 OLDACT:REG 17-03-30 03:10 OP:cog  STATUS:               ID:20170329204740     3
 2017-03-29-2048-00M.COL___368                                                 6
 STAT SP IPHASW D HRMM SECON CODA AMPLIT PERI AZIMU VELO AIN AR TRES W  DIS CAZ7
 BAR2 EZ EP       2059 12.06                             171   -0.2210 21.0 200 
 BAR2 EZ ES       2059 26.91                             171   -0.1310 21.0 200 
 BAR2 EZ I        2059 29.16        75.2 0.22            168           21.0 200 
 BRR  HZ EP       2059 14.07                             150   -0.1110 75.6 300 
 BRR  HE ES       2059 30.95                             150    0.5310 75.6 300 
 BRR  HZ I        2059 35.07        53.6 0.12            150           75.6 300 
 PAM  EZ EP       2059 14.93                             149   -0.1010 78.0  36 
 PAM  EE ES       2059 31.94                             149    0.0110 78.0  36 
 PAM  EZ I        2059 33.97       136.1 0.52            155           78.0  36 
 RUS  HZ EP       2059 16.73                             144    0.4110 97.1 178 
 RUS  HN ES       2059 34.54                             144    0.3110 97.1 178 
 RUS  HZ I        2059 36.30        57.8 0.36            144           97.1 178 
 PTB  HZ EP   9   2059 19.28                             130   -0.84 0  150 260 
 PTB  HN ES       2059 39.54                             129   -0.62 9  150 260 
 PTB  HZ I        2059 43.10        50.8 0.40            130            150 260 
 ZAR  HZ EP       2059 25.30                             120   -0.60 8  208 293 
 ZAR  HN ES       2059 51.27                             120   -0.01 8  208 293 
 NOR  HZ EP       2059 28.56                             117   -0.30 8  235 236 
 NOR  HN ES       2059 55.89                             117   -0.66 8  235 236 
 NOR  HZ I        21 0  3.42        23.1 0.16            118            235 236 
 CHI  HZ EP       2059 30.55                             116    0.04 8  246 196 
 CHI  HN ES       2059 58.78                             116   -0.71 8  246 196 
 CHI  HZ I        21 0  3.02        13.0 0.52            117            246 196 
 ROSC BN EP   3   2059 32.47                             116    1.41 2  252 212 
 ROSC BZ ES   3   21 0  2.01                             116    1.53 2  252 212 
 HEL  HZ EP   4   2059 37.04                             113    3.48 0  274 257 
 HEL  HE ES       21 0  4.30                             113   -0.62 8  274 257 
 HEL  HZ I        21 0  9.26        17.0 0.28            114            274 257 
 PTGC HZ EP   9   2059 35.46                             111   -1.03 0  304 159 
 PTGC HE ES       21 0  8.70                             110   -0.40 7  304 159 
 PTGC HZ I        21 0 10.95        31.3 0.36            112            304 159 
 ELA  HZ EP   3   2059 41.79                             109    1.77 2  330 230 
 ELA  HE ES       21 0 17.16                             109    0.73 7  330 230 
 ELA  HZ I        21 0 23.51        14.8 0.60            110            330 230 
 CBOC HZ EP       2059 41.07                             109    0.78 7  336 253 
 CBOC HE ES       21 0 17.41                             109    0.50 7  336 253 
 CBOC HZ I        21 0 20.52         5.7 0.77            110            336 253 
 ANIL HE ES       21 0 22.30                             107    0.66 6  357 225 
 ANIL HZ I        21 0 30.18        31.8 0.32            108            357 225 
 PRA  HZ EP       2059 45.97                             106   -0.58 6  391 210 
 PRA  HE ES   4   21 0 25.54                             106   -2.50 0  391 210 
                                                                                
