 2017 1029 2116 48.8 L   6.766 -73.179147.3  RSN  5 0.4 1.5LRSN                1
 GAP=231        1.00       7.6     7.0  7.3  0.3343E+02  0.6377E+01 -0.4752E+01E
 Epicentro: LOS SANTOS - SANTANDER                                             3
 ACTION:UPD 17-11-07 19:39 OP:rebc STATUS:               ID:20171029211648 L   I
 OLDACT:REG 17-10-30 03:09 OP:leo  STATUS:               ID:20171029210740     3
 2017-10-29-2108-00M.COL___444                                                 6
 STAT SP IPHASW D HRMM SECON CODA AMPLIT PERI AZIMU VELO AIN AR TRES W  DIS CAZ7
 BAR2 EZ EP       2117  8.10                             172   -0.4410 19.2 181 
 BAR2 EZ ES       2117 23.47                             172   -0.4710 19.2 181 
 BAR2 EZ I        2117 24.46        10.4 0.64            165           19.2 181 
 BRR  HZ EP       2117 10.28                             153    0.2310 69.9 303 
 BRR  HN ES       2117 27.07                             153    0.4510 69.9 303 
 RUS  HZ EP       2117 12.32                             145   -0.1510 97.2 174 
 RUS  HN ES       2117 31.46                             145    0.5410 97.2 174 
 RUS  HZ I        2117 32.18         5.0 0.26            142           97.2 174 
 PTB  HZ EP       2117 15.30                             133   -0.21 9  143 260 
 PTB  HN ES       2117 36.19                             133   -0.15 9  143 260 
 PTB  HZ I        2117 42.47         2.9 0.32            130            143 260 
 ZAR  HZ EP       2117 21.72                             123    0.57 9  202 294 
 ZAR  HN ES       2117 46.02                             123   -0.36 9  202 294 
                                                                                
