 2015  329 2251 15.7 L   6.788 -73.143146.3  RSN  4 0.3 1.4LRSN                1
 GAP=137        0.80       4.4     4.2  7.1 -0.2109E+01  0.2689E+01  0.4283E+01E
 Epicentro: LOS SANTOS - SANTANDER                                             3
 ACTION:UPD 15-04-30 16:30 OP:nd   STATUS:               ID:20150329225115 L   I
 OLDACT:UP  15-03-30 08:19 OP:cam  STATUS:               ID:20150329224750     3
 OLDACT:REG 15-03-30 07:47 OP:cam  STATUS:               ID:20150329224750     3
 2015-03-29-2247-50M.COL___287                                                 6
 STAT SP IPHASW D HRMM SECON CODA AMPLIT PERI AZIMU VELO AIN AR TRES W  DIS CAZ7
 BRR  HZ EP       2251 37.04                             152    0.1110 72.1 299 
 BRR  HN ES       2251 54.02                             152    0.5110 72.1 299 
 BRR  HZ I        2251 54.96         5.9 0.48            154           72.1 299 
 PAM  SZ IP     C 2251 38.05                             151    0.0510 78.2  39 
 PAM  SN ES       2251 55.04                             151   -0.3710 78.2  39 
 PAM  SZ I        2251 56.90         5.5 0.50            153           78.2  39 
 RUS  HZ EP       2251 39.40                             144    0.0110 99.3 176 
 RUS  HN ES       2251 57.98                             144    0.1010 99.3 176 
 RUS  HZ I        2251 59.64         2.8 0.30            146           99.3 176 
 PTB  HZ EP       2251 42.76                             132    0.07 9  148 259 
 PTB  HN ES       2252  3.20                             132   -0.56 9  148 259 
 PTB  HZ I        2252  5.42         3.5 0.42            134            148 259 
                                                                                
