 2013 1229 2334  5.5 L   6.767 -73.142147.3  RSN  6 0.3 1.2LRSN                1
 GAP=138        0.82       4.1     4.2  6.3 -0.4565E+01  0.2985E+01  0.3135E+01E
 Epicentro: LOS SANTOS - SANTANDER                                             3
 ACTION:UPD 14-01-13 10:22 OP:ep   STATUS:               ID:20131229233405 L   I
 OLDACT:UP  13-12-29 22:17 OP:cam  STATUS:               ID:20131229233000     3
 OLDACT:UP  13-12-29 22:17 OP:cam  STATUS:               ID:20131229233000     3
 OLDACT:REG 13-12-29 21:27 OP:cma  STATUS:               ID:20131229233000     3
 2013-12-29-2330-00M.COL___285                                                 6
 STAT SP IPHASW D HRMM SECON CODA AMPLIT PERI AZIMU VELO AIN AR TRES W  DIS CAZ7
 BAR2 SZ ES       2334 40.55                             172   -0.1310 19.8 193 
 BRR  HN ES       2334 44.11                             152    0.4310 73.3 301 
 PAM  SZ EP       2334 28.27                             150    0.2110 80.0  38 
 PAM  SN ES       2334 45.50                             150   -0.1410 80.0  38 
 RUS  HZ EP       2334 29.25                             145    0.0810 96.9 176 
 RUS  HE ES       2334 47.38                             145   -0.2310 96.9 176 
 RUS  HZ I        2334 49.05         1.4 0.40            146           96.9 176 
 PTB  HZ EP       2334 32.23                             132   -0.36 9  147 260 
 PTB  HN ES       2334 53.22                             132   -0.48 9  147 260 
 PTB  HZ I        2335  0.27         3.5 0.32            131            147 260 
 SPBC HZ EP   2   2334 34.04                             130    0.14 5  161 220 
 SPBC HN ES       2334 56.59                             130    0.56 9  161 220 
                                                                                
