 2017  529 2034 14.8 L   6.783 -73.116144.0  RSN 13 0.6 2.4LRSN                1
 GAP=213        1.22       4.8     5.4  8.0  0.9388E+01 -0.1785E+01 -0.2780E+00E
 Epicentro: LOS SANTOS - SANTANDER                                             3
 ACTION:UPD 17-06-16 13:40 OP:jn   STATUS:               ID:20170529203414 L   I
 OLDACT:UP  17-05-30 05:18 OP:dnl  STATUS:               ID:20170529201425     3
 OLDACT:UP  17-05-30 05:17 OP:dnl  STATUS:               ID:20170529201425     3
 OLDACT:REG 17-05-30 05:03 OP:dnl  STATUS:               ID:20170529201425     3
 2017-05-29-2028-00M.COL___365                                                 6
 STAT SP IPHASW D HRMM SECON CODA AMPLIT PERI AZIMU VELO AIN AR TRES W  DIS CAZ7
 BRR  HZ IP     C 2034 36.04                             151    0.0410 75.0 299 
 BRR  HE ES       2034 52.93                             151    0.4110 75.0 299 
 BRR  HZ I        2034 56.04        34.7 0.16            150           75.0 299 
 RUS  HZ EP       2034 38.08                             144   -0.1710 98.5 178 
 RUS  HE ES       2034 56.74                             144    0.2110 98.5 178 
 RUS  HZ I        2034 58.21        34.9 0.32            143           98.5 178 
 PTB  HZ EP       2034 41.06                             131   -0.85 9  151 260 
 PTB  HN ES   4   2035  1.58                             131   -1.46 0  151 260 
 PTB  HZ I        2035  4.20        28.9 0.22            130            151 260 
 SPBC HZ EP       2034 43.18                             129   -0.07 9  164 220 
 SPBC HN ES       2035  5.30                             129   -0.12 9  164 220 
 SPBC HZ I        2035  7.47        41.5 0.32            127            164 220 
 YPLC HZ IP     C 2034 44.58                             127    0.41 9  174 152 
 YPLC HE ES   4   2035  8.64                             127    1.58 0  174 152 
 YPLC HZ I        2035 13.37        23.4 0.28            127            174 152 
 ZAR  HZ EP       2034 47.18                             122   -0.37 8  208 292 
 ZAR  HN ES       2035 12.93                             122   -0.14 8  208 292 
 ZAR  HZ I        2035 22.40        27.9 0.44            122            208 292 
 NOR  HZ EP       2034 50.78                             118    0.15 8  236 235 
 NOR  HN ES       2035 18.14                             118   -0.41 8  236 235 
 NOR  HZ I        2035 23.94        16.7 0.28            117            236 235 
 CHI  HZ EP   4   2034 53.57                             117    1.25 0  248 196 
 CHI  HN ES       2035 22.39                             117    0.82 8  248 196 
 CHI  HZ I        2035 24.96         8.5 0.50            117            248 196 
 ROSC BZ EP   9   2034 55.26                             116    2.40 0  253 212 
 ROSC BN ES       2035 24.79                             115   -0.14 8  253 212 
 ROSC BZ I        2035 28.82        14.4 0.45            116            253 212 
 HEL  HZ EP       2034 56.45                             114    1.20 8  275 256 
 HEL  HN ES       2035 26.39                             114   -0.40 8  275 256 
 HEL  HZ I        2035 33.47        15.6 0.30            114            275 256 
 PTGC HN ES       2035 30.85                             112   -1.30 7  306 159 
 PTGC HZ I        2035 36.25        13.0 0.46            112            306 159 
 ELA  HZ EP   9   2035  3.81                             110    2.06 0  330 230 
 ELA  HE ES       2035 40.81                             109    0.40 7  330 230 
 ELA  HZ I        2035 45.46        11.8 0.66            110            330 230 
 ORTC HZ EP       2035  9.64                             106    0.90 6  396 217 
 ORTC HN ES   4   2035 52.91                             106    2.13 0  396 217 
 ORTC HZ I        2035 58.76         6.4 0.48            106            396 217 
                                                                                
