 2012  429 2200 52.4 L   6.541 -73.547106.9  RSN 13 0.4 2.6LRSN                1
 GAP= 62        0.99       3.0     3.3  6.0  0.8783E+00  0.8550E+01  0.5818E+01E
 Epicentro: EL CARMEN DE CHUCURI - SANTANDER                                   3
 ACTION:UPD 12-07-05 11:56 OP:tino STATUS:               ID:20120429220052 L   I
 2012-04-29-2200-00M.COL___189                                                 6
 STAT SP IPHASW D HRMM SECON CODA AMPLIT PERI AZIMU VELO AIN AR TRES W  DIS CAZ7
 BAR2 SZ EP   1   22 1  8.42                             158     0.4 7   41  82 
 BAR2 SZ ES       22 1 20.09                             158    -0.110   41  82 
 BRR  HZ EP       22 1  9.29                             146     0.210   65 344 
 BRR  HN ES       22 1 22.83                             146     0.710   65 344 
 BRR  HZ I        22 1 24.44       179.9 0.14                            65 344 
 RUS  HZ EP       22 1 11.34                             138    -0.210   88 144 
 RUS  HE ES       22 1 26.57                             138     0.210   88 144 
 RUS  HZ I        22 1 28.52        64.6 0.18                            88 144 
 PTB  HZ EP       22 1 11.21                             133    -0.710  101 270 
 PTB  HE ES   1   22 1 26.23                             133    -0.9 7  101 270 
 PTB  HZ I        22 1 27.46        85.6 0.23                           101 270 
 PAM  SZ EP   1   22 1 15.06                             126    -0.1 7  129  47 
 PAM  SN ES       22 1 32.67                             126    -0.310  129  47 
 ZAR  HZ EP   1   22 1 20.36                             116     0.5 7  179 306 
 ZAR  HE ES       22 1 41.16                             116    -0.1 9  179 306 
 ZAR  HZ I        22 1 44.90        62.3 0.13                           179 306 
 OCA  SZ EP   1   22 1 20.94                             114    -0.3 7  189   8 
 CHI  HZ EP   1   22 1 24.05                             111    -0.1 6  212 186 
 CHI  HN ES   1   22 1 48.86                             111     0.0 6  212 186 
 CHI  HZ I        22 1 53.19        24.8 0.35                           212 186 
 HEL  HZ EP       22 1 25.73                             110     0.5 8  223 260 
 HEL  HN ES   1   22 1 50.95                             110     0.1 6  223 260 
 HEL  HZ I        22 1 53.07        32.8 0.30                           223 260 
 VIL  SZ EP   1   22 1 30.37                             106     0.1 6  269 183 
 VIL  SZ I        22 2  9.08        29.8 0.45                           269 183 
 RREF HZ EP       22 1 31.25                             106     0.3 8  270 228 
 RREF HN ES   1   22 2  1.17                             106     0.1 6  270 228 
 RREF HZ I        22 2  8.44        31.4 0.34                           270 228 
 TOL  SZ EP   1   22 1 33.41                             104     0.1 5  292 222 
 PRA  HZ EP   1   22 1 39.11                             101    -0.2 5  346 205 
 PRA  HN ES   1   22 2 16.18                             101     0.2 5  346 205 
                                                                                
