 2015  529 2306 35.5 L   6.820 -73.115152.0  RSN  6 0.4 1.8LRSN                1
 GAP=139        0.92       4.3     5.5  7.9  0.7621E+01  0.8535E+01 -0.1962E+01E
 Epicentro: LOS SANTOS - SANTANDER                                             3
 ACTION:UPD 15-09-10 22:08 OP:cam  STATUS:               ID:20150529230635 L   I
 OLDACT:UP  15-05-30 11:27 OP:mh   STATUS:               ID:20150529225749     3
 OLDACT:REG 15-05-30 10:30 OP:mh   STATUS:               ID:20150529225749     3
 2015-05-29-2257-49M.COL___315                                                 6
 STAT SP IPHASW D HRMM SECON CODA AMPLIT PERI AZIMU VELO AIN AR TRES W  DIS CAZ7
 BAR2 EZ EP   1   23 6 55.03                             170   -0.88 7 26.3 196 
 BAR2 EZ ES   1   23 7 12.07                             170    0.22 7 26.3 196 
 BAR2 EZ I        23 7 13.85        15.6 0.19            170           26.3 196 
 BRR  HZ EP       23 6 57.72                             153    0.3210 73.2 296 
 BRR  HN ES       23 7 14.69                             153    0.1810 73.2 296 
 BRR  HZ I        23 7 19.44        16.3 0.40            151           73.2 296 
 PAM  SZ EP   1   23 6 58.74                             153    0.61 7 73.5  39 
 PAM  SN ES       23 7 15.75                             153   -0.0610 73.5  39 
 PAM  SZ I        23 7 18.12         9.1 0.46            155           73.5  39 
 RUS  HZ EP       23 7  0.21                             144    0.2310  103 178 
 RUS  HN ES       23 7 18.77                             144   -0.3310  103 178 
 RUS  HZ I        23 7 19.58         6.9 0.30            148            103 178 
 ZAR  HN ES       23 7 34.42                             123    0.05 8  206 291 
 ZAR  HZ I        23 7 39.35         5.4 0.58            124            206 291 
 SML  HZ EP   4   23 7 11.94                             119   -0.45 0  243 334 
 SML  HN ES       23 7 40.64                             119   -0.54 8  243 334 
 SML  HZ I        23 7 44.65         7.8 0.10            120            243 334 
                                                                                
