 2011 1229 2203 21.0 L   6.791 -73.188144.0  RSN  5 0.4 1.5LRSN                1
 GAP=132        0.71       6.0     9.3  9.5  0.9975E+01  0.2059E+02  0.4190E+01E
 Epicentro: LOS SANTOS - SANTANDER                                             3
 ACTION:UPD 12-07-13 16:19 OP:ep   STATUS:               ID:20111229220321 L   I
 2011-12-29-2200-00M.COL___185                                                 6
 STAT SP IPHASW D HRMM SECON CODA AMPLIT PERI AZIMU VELO AIN AR TRES W  DIS CAZ7
 BAR2 SZ EP   3   22 3 40.44                             171    0.04 2 21.9 178 
 BAR2 SZ ES   2   22 3 54.97                             171   -0.55 5 21.9 178 
 BAR2 SZ I        22 3 56.99        10.9 0.20                          21.9 178 
 PAM  SZ EP   2   22 3 43.10                             149   -0.17 5 81.2  42 
 RUS  HZ EP   1   22 3 44.31                             144   -0.23 7100.0 173 
 RUS  HN ES   1   22 4  3.51                             144    0.61 7100.0 173 
 RUS  HZ I        22 4  4.29         5.3 0.18                         100.0 173 
 ZAR  HN ES   2   22 4 18.14                             123    0.30 4  200 293 
 ZAR  HZ I        22 4 23.28         2.5 0.09                           200 293 
 CHI  HZ EP   1   22 3 58.73                             117    0.36 6  246 194 
 CHI  HN ES   1   22 4 26.88                             117   -0.63 6  246 194 
 CHI  HZ I        22 4 31.67         1.8 0.41                           246 194 
                                                                                
