 2016  129 2341 34.4 L   6.801 -73.164141.1  RSN 10 0.4 1.8LRSN                1
 GAP=134        0.92       3.3     4.1  5.9 -0.3372E+01  0.9866E+01  0.2968E+01E
 Epicentro: LOS SANTOS - SANTANDER                                             3
 ACTION:UPD 16-03-09 23:29 OP:cam  STATUS:               ID:20160129234134 L   I
 OLDACT:UP  16-01-30 04:46 OP:mh   STATUS:               ID:20160129233000     3
 OLDACT:UP  16-01-30 04:46 OP:mh   STATUS:               ID:20160129233000     3
 OLDACT:UP  16-01-30 04:39 OP:mh   STATUS:               ID:20160129233000     3
 OLDACT:UP  16-01-30 04:38 OP:mh   STATUS:               ID:20160129233000     3
 OLDACT:REG 16-01-30 02:30 OP:mher STATUS:               ID:20160129233000     3
 2016-01-29-2329-59S.COL___229                                                 6
 STAT SP IPHASW D HRMM SECON CODA AMPLIT PERI AZIMU VELO AIN AR TRES W  DIS CAZ7
 BAR2 EZ ES       2342  8.42                             170    0.0610 23.1 185 
 BAR2 EZ I        2342 11.31        14.2 0.15            169           23.1 185 
 PAM  EZ EP       2341 56.33                             149    0.1110 78.6  41 
 PAM  EN ES       2342 13.56                             149    0.3410 78.6  41 
 PAM  EZ I        2342 15.60        11.0 0.52            154           78.6  41 
 RUS  HZ EP       2341 57.39                             143   -0.3410  101 175 
 RUS  HN ES       2342 15.87                             143   -0.0510  101 175 
 RUS  HZ I        2342 16.76         6.1 0.28            145            101 175 
 PTB  HZ EP       2342  0.41                             131   -0.41 9  146 259 
 PTB  HN ES       2342 20.80                             131   -0.62 9  146 259 
 PTB  HZ I        2342 26.31        11.0 0.40            132            146 259 
 OCA  HN ES       2342 24.06                             129   -0.06 9  160 354 
 NOR  HN ES       2342 37.84                             118    0.61 8  233 234 
 CHI  HZ EP       2342 11.41                             116   -0.40 8  248 195 
 CHI  HN ES   1   2342 40.60                             116   -0.38 6  248 195 
 CHI  HZ I        2342 45.00         2.1 0.31            118            248 195 
 HEL  HZ EP       2342 14.41                             114    0.23 8  270 256 
 HEL  HN ES       2342 45.36                             114    0.17 8  270 256 
 HEL  HZ I        2342 51.96         3.0 0.32            115            270 256 
 GUY2CHZ EP       2342 18.27                             111    0.64 7  300 235 
 GUY2CHE ES   4   2342 54.51                             111    3.18 0  300 235 
 GUY2CHZ I        2342 58.97         4.7 0.30                           300 235 
 PRA  HZ EP   1   2342 27.16                             106   -0.51 4  391 209 
 PRA  HN ES       2343 10.22                             106    1.01 6  391 209 
 PRA  HZ I        2343 13.39         3.2 0.24            107            391 209 
                                                                                
