 2010  829 2104 41.5 L   6.765 -73.056148.0  RSN  6 0.2 1.9LRSN                1
 GAP=221        0.46       4.4     7.6  4.4 -0.1608E+01 -0.4592E+01  0.1067E+01E
 Epicentro: LOS SANTOS - SANTANDER                                             3
 ACTION:UP  10-09-07 10:59 OP:vdl  STATUS:               ID:20100829210441 L   I
 2010-08-29-2103-27S.COL___120                                                 6
 STAT SP IPHASW D HRMM SECON CODA AMPLIT PERI AZIMU VELO SNR AR TRES W  DIS CAZ7
 BAR2 SZ EP   1   21 5  1.37                             171    -0.1 7   24 216 
 BAR2 SZ ES   1   21 5 16.88                             171    -0.1 7   24 216 
 BAR2 SZ I        21 5 18.41        11.7 0.26                            24 216 
 BTL  SZ EP   1   21 5  1.69                             168     0.1 7   29 306 
 BTL  SZ ES   2   21 5 17.30                             168     0.1 5   29 306 
 GIR2 SZ EP   2   21 5  2.03                             165     0.4 5   38 336 
 BRR  HZ EP   1   21 5  3.35                             149    -0.2 7   82 298 
 BRR  HN ES   1   21 5 20.84                             149     0.1 7   82 298 
 BRR  HZ I        21 5 25.14        14.4 0.16                            82 298 
 OCA  SZ EP   1   21 5 10.40                             129    -0.1 7  166 350 
 OCA  SZ I        21 5 36.89         9.6 0.29                           166 350 
 PRA  HZ EP   1   21 5 35.82                             107     0.5 4  394 211 
 PRA  HE ES   2   21 6 16.71                             107    -0.6 3  394 211 
 PRA  HZ I        21 6 22.61         4.0 0.16                           394 211 
                                                                                
