 2015  829 2036 53.7 L   6.785 -73.109151.5  RSN 15 0.4 2.2LRSN                1
 GAP=142        0.80       2.1     3.6  4.5 -0.9464E+00  0.2974E+01  0.8158E+00E
 Epicentro: LOS SANTOS - SANTANDER                                             3
 ACTION:UPD 15-09-15 23:06 OP:cam  STATUS:               ID:20150829203653 L   I
 OLDACT:REG 15-08-30 02:39 OP:ar   STATUS:               ID:20150829202749     3
 2015-08-29-2027-49M.COL___364                                                 6
 STAT SP IPHASW D HRMM SECON CODA AMPLIT PERI AZIMU VELO AIN AR TRES W  DIS CAZ7
 BAR2 EZ EP       2037 13.86                             171   -0.1410 22.9 201 
 BAR2 EZ ES       2037 30.03                             171    0.1910 22.9 201 
 BAR2 EZ I        2037 31.60        22.5 0.18            168           22.9 201 
 BRR  HZ EP       2037 15.87                             152    0.1610 75.6 298 
 BRR  HE ES       2037 33.36                             152    0.4810 75.6 298 
 PAM  EZ EP       2037 16.78                             152    0.3310 76.1  36 
 PAM  EN ES   2   2037 34.11                             152   -0.09 5 76.1  36 
 PAM  EZ I        2037 36.08        12.8 0.50            154           76.1  36 
 RUS  HZ EP       2037 17.77                             145   -0.1210 98.8 178 
 RUS  HN ES       2037 36.65                             145   -0.1010 98.8 178 
 OCA  HZ EP       2037 22.45                             131   -0.20 9  162 352 
 OCA  HE ES       2037 44.85                             131   -0.39 9  162 352 
 OCA  HZ I        2037 56.27        23.0 0.32            130            162 352 
 SPBC HZ EP       2037 22.75                             130   -0.02 9  165 220 
 SPBC HN ES       2037 45.06                             130   -0.38 9  165 220 
 SPBC HZ I        2037 51.85        32.9 0.36            129            165 220 
 ZAR  HZ EP   2   2037 26.97                             123    0.00 4  208 292 
 ZAR  HN ES       2037 52.52                             123   -0.40 8  208 292 
 ZAR  HZ I        2037 58.33        21.8 0.50            121            208 292 
 NOR  HZ EP       2037 29.86                             119   -0.16 8  237 235 
 NOR  HE ES       2037 57.57                             119   -0.78 8  237 235 
 NOR  HZ I        2038  2.00        12.4 0.18            119            237 235 
 SML  HZ EP   2   2037 30.50                             118   -0.49 4  247 335 
 SML  HN ES       2038  0.33                             118    0.25 8  247 335 
 SML  HZ I        2038  6.03        16.8 0.10            118            247 335 
 CHI  HZ EP       2037 31.91                             118    0.24 8  248 196 
 CHI  HN ES       2038  1.21                             118   -0.08 8  248 196 
 CHI  HZ I        2038  6.70         4.9 0.52            119            248 196 
 HEL  HZ EP   4   2037 35.94                             116    1.34 0  276 256 
 HEL  HE ES   4   2038  9.84                             116    3.34 0  276 256 
 HEL  HZ I        2038 13.42         7.9 0.26            115            276 256 
 URE  HE ES   4   2038  5.62                             114   -2.55 0  288 292 
 URE  HZ I        2038 15.88         8.3 0.12            114            288 292 
 GUY2CHZ EP   4   2037 39.10                             113    1.25 0  304 235 
 GUY2CHN ES       2038 13.18                             113    0.90 7  304 235 
 GUY2CHZ I        2038 23.81         6.8 0.58                           304 235 
 TOL  SZ EP   2   2037 43.64                             110    1.25 3  345 225 
 TOL  SN ES   2   2038 21.48                             110    1.11 3  345 225 
 TOL  SZ I        2038 27.08         4.8 0.30            110            345 225 
 PRA  HZ EP       2037 47.63                             107    0.14 6  393 210 
 PRA  HE ES   2   2038 29.42                             107   -0.03 3  393 210 
 PRA  HZ I        2038 35.62         8.2 0.54            108            393 210 
                                                                                
