 2015 1029 2329  1.5 L   6.725 -73.121134.5  RSN  9 0.4 1.8LRSN                1
 GAP=143        1.02       3.9     5.3  7.1  0.2842E+01  0.6480E+01  0.7242E+01E
 Epicentro: JORDAN - SANTANDER                                                 3
 ACTION:UPD 15-12-22 20:44 OP:cam  STATUS:               ID:20151029232901 L   I
 OLDACT:UP  15-11-01 03:33 OP:DRIO STATUS:               ID:20151029232901 L   3
 OLDACT:UP  15-10-30 08:21 OP:dnl  STATUS:               ID:20151029231748     3
 OLDACT:REG 15-10-30 03:50 OP:dnl  STATUS:               ID:20151029231748     3
 2015-10-29-2317-48M.COL___322                                                 6
 STAT SP IPHASW D HRMM SECON CODA AMPLIT PERI AZIMU VELO AIN AR TRES W  DIS CAZ7
 BAR2 EZ EP       2329 19.42                             173   -0.1810 16.1 205 
 BAR2 EZ ES       2329 33.39                             173   -0.3510 16.1 205 
 BAR2 EZ I        2329 39.94         9.2 0.20            171           16.1 205 
 BRR  HZ EP       2329 21.88                             148    0.0710 77.8 303 
 BRR  HN ES       2329 38.31                             148    0.6310 77.8 303 
 PAM  EZ EP       2329 22.74                             147   -0.0710 82.4  34 
 PAM  EN ES       2329 39.15                             147   -0.3210 82.4  34 
 PAM  EZ I        2329 41.96        16.6 0.66            151           82.4  34 
 RUS  HZ EP       2329 24.31                             144    0.8210 92.1 177 
 RUS  HN ES       2329 40.76                             144    0.0910 92.1 177 
 RUS  HZ I        2329 43.35         6.4 0.16            146           92.1 177 
 ZAR  HZ EP   4   2329 34.61                             119    0.81 0  210 294 
 ZAR  HN ES       2329 58.66                             119   -0.37 8  210 294 
 ZAR  HZ I        2330  4.73        11.7 0.32            121            210 294 
 CHI  HZ EP       2329 37.46                             115   -0.29 8  241 196 
 CHI  HN ES       2330  5.68                             115   -0.38 8  241 196 
 CHI  HZ I        2330 10.50         2.4 0.30            118            241 196 
 SML  HZ EP   4   2329 36.15                             114   -2.29 0  252 336 
 SML  HN ES   4   2330  4.16                             114   -3.13 0  252 336 
 SML  HZ I        2330 12.42        13.6 0.10            117            252 336 
 GUY2CHZ EP   4   2329 44.79                             110    0.50 0  299 236 
 GUY2CHE ES   4   2330 16.10                             110   -1.59 0  299 236 
 GUY2CHZ I        2330 25.79         2.5 0.24                           299 236 
 MON  HZ EP   9   2329 45.79                             106   -5.11 0  361 309 
 MON  HN ES       2330 23.85                             106   -0.50 6  361 309 
 MON  HZ I        2330 27.02         2.1 0.22            108            361 309 
                                                                                
