 2017  329 2240 30.2 L   6.802 -73.169149.9  RSN  4 0.4 1.5LRSN                1
 GAP=134        1.10       6.2     5.8  9.6 -0.4260E+01  0.4239E+01  0.8188E+01E
 Epicentro: LOS SANTOS - SANTANDER                                             3
 ACTION:UPD 17-05-25 18:47 OP:jn   STATUS:               ID:20170329224030 L   I
 OLDACT:REG 17-03-30 03:18 OP:cog  STATUS:               ID:20170329223549     3
 2017-03-29-2238-00M.COL___353                                                 6
 STAT SP IPHASW D HRMM SECON CODA AMPLIT PERI AZIMU VELO AIN AR TRES W  DIS CAZ7
 BRR  HZ EP       2240 51.93                             154    0.2810 68.9 299 
 BRR  HN ES       2241  9.00                             154    0.6010 68.9 299 
 BRR  HZ I        2241 10.59        11.5 0.32            154           68.9 299 
 PAM  EZ EP       2240 53.01                             151    0.0810 78.9  41 
 PAM  EN ES       2241 10.18                             151   -0.4910 78.9  41 
 PAM  EZ I        2241 10.80         4.8 0.18            155           78.9  41 
 RUS  HZ EP       2240 54.14                             145   -0.2310  101 175 
 RUS  HN ES       2241 13.51                             145    0.2710  101 175 
 RUS  HZ I        2241 15.29         2.0 0.34            146            101 175 
 PTB  HZ EP       2240 57.47                             133    0.20 9  145 259 
 PTB  HN ES       2241 17.62                             133   -0.78 9  145 259 
 PTB  HZ I        2241 22.89         4.4 0.62            134            145 259 
                                                                                
