 2014  829 2339 32.6 L   6.840 -73.300126.1  RSN  9 0.5 2.0LRSN                1
 GAP=104        1.19       3.3     4.3  6.9 -0.9835E+00  0.7362E+01 -0.4115E+01E
 Epicentro: ZAPATOCA - SANTANDER                                               3
 ACTION:UPD 14-09-15 21:54 OP:nd   STATUS:               ID:20140829233932 L   I
 OLDACT:UP  14-08-30 02:37 OP:cam  STATUS:               ID:20140829233849     3
 OLDACT:REG 14-08-30 02:28 OP:cam  STATUS:               ID:20140829233849     3
 2014-08-29-2338-49M.COL___275                                                 6
 STAT SP IPHASW D HRMM SECON CODA AMPLIT PERI AZIMU VELO AIN AR TRES W  DIS CAZ7
 BAR2 SZ EP     D 2339 50.44                             166    0.4110 30.3 155 
 BAR2 SZ ES       2340  3.46                             166   -0.1910 30.3 155 
 BRR  HZ EP     C 2339 50.64                             155   -0.0210 54.3 303 
 BRR  HE ES       2340  4.92                             155    0.1510 54.3 303 
 BRR  HZ I        2340  5.97        32.8 0.18            155           54.3 303 
 PAM  SZ EP       2339 53.85                             144    0.4910 86.3  50 
 PAM  SE ES       2340  9.83                             144    0.2610 86.3  50 
 PAM  SZ I        2340 13.36         7.6 0.30            146           86.3  50 
 RUS  HZ EP       2339 55.15                             137    0.1510  107 167 
 RUS  HN ES       2340 12.32                             137   -0.1810  107 167 
 PTB  HZ EP       2339 55.65                             131   -0.8810  132 256 
 PTB  HN ES       2340 15.43                             131    0.2210  132 256 
 PTB  HZ I        2340 17.87        13.1 0.12            132            132 256 
 OCA  HZ EP       2339 58.62                             126   -0.26 9  155 359 
 OCA  HN ES       2340 18.64                             126   -0.76 9  155 359 
 OCA  HZ I        2340 24.53        13.7 0.30            127            155 359 
 SPBC HZ EP       2339 59.68                             125    0.69 9  157 213 
 SPBC HE ES       2340 18.85                             125   -0.75 9  157 213 
 SPBC HZ I        2340 25.90         9.6 0.26            127            157 213 
 ZAR  HZ EP       2340  1.82                             120   -0.14 9  187 293 
 ZAR  HN ES       2340 25.77                             120    0.89 9  187 293 
 ZAR  HZ I        2340 28.17         9.1 0.56            121            187 293 
 SML  HZ EP       2340  6.90                             114   -0.08 8  233 339 
 SML  HE ES       2340 33.67                             114   -0.14 8  233 339 
 SML  HZ I        2340 37.52        17.5 0.28            115            233 339 
                                                                                
