 2016 1029 2329 12.8 L   6.762 -73.088140.7  RSN 10 0.4 1.8LRSN                1
 GAP=146        0.88       4.0     4.5  5.3 -0.7224E+01  0.3782E+01  0.2375E+01E
 Epicentro: LOS SANTOS - SANTANDER                                             3
 ACTION:UPD 16-11-09 19:24 OP:rebc STATUS:               ID:20161029232912 L   I
 OLDACT:REG 16-10-30 03:07 OP:and  STATUS:               ID:20161029232744     3
 2016-10-29-2328-00M.COL___322                                                 6
 STAT SP IPHASW D HRMM SECON CODA AMPLIT PERI AZIMU VELO AIN AR TRES W  DIS CAZ7
 BAR2 EZ EP       2329 31.57                             171   -0.2610 21.5 209 
 BAR2 EZ ES       2329 46.49                             171   -0.1510 21.5 209 
 BAR2 EZ I        2329 48.67        12.8 0.26            169           21.5 209 
 PAM  EZ EP       2329 34.28                             150   -0.2210 77.0  34 
 PAM  EN ES       2329 51.52                             150    0.1310 77.0  34 
 PAM  EZ I        2329 53.60         8.9 0.63            152           77.0  34 
 BRR  HZ EP       2329 33.64                             149   -0.2610 78.8 299 
 BRR  HN ES       2329 50.60                             149    0.2710 78.8 299 
 RUS  HZ EP   2   2329 35.96                             144    0.18 5 96.1 180 
 RUS  HN ES       2329 54.23                             144    0.5610 96.1 180 
 RUS  HZ I        2329 55.04         7.6 0.30            144           96.1 180 
 PTB  HZ EP   9   2329 38.65                             130   -1.26 0  153 261 
 PTB  HN ES       2329 59.37                                   -0.40 9  153 261 
 PTB  HZ I        2330  0.74         7.6 0.18            129            153 261 
 SPBC HZ EP       2329 40.65                             128   -0.39 9  164 222 
 SPBC HN ES       2330  2.55                             128   -0.49 9  164 222 
 SPBC HZ I        2330  5.05        10.7 0.31            127            164 222 
 NOR  HZ EP   2   2329 48.15                             117   -0.44 4  238 236 
 NOR  HN ES       2330 16.49                             117    0.02 8  238 236 
 NOR  HZ I        2330 22.67         5.1 0.14            117            238 236 
 CHI  HZ EP   2   2329 50.01                             116   -0.00 4  246 197 
 CHI  HN ES   2   2330 18.93                             116   -0.08 4  246 197 
 HEL  HZ EP       2329 54.50                             113    1.12 7  277 257 
 HEL  HN ES   2   2330 25.42                             113    0.42 4  277 257 
 HEL  HZ I        2330 30.46         3.9 0.48            113            277 257 
 GUY2CHZ EP   9   2329 58.00                             111    1.46 0  304 236 
 GUY2CHN ES   2   2330 31.79                                   -0.30 4  304 236 
 GUY2CHZ I        2330 36.59         2.7 0.26                           304 236 
                                                                                
