 2017  729 2109  4.1 L   6.764 -73.105141.0  RSN 11 0.3 2.1LRSN                1
 GAP=143        0.62       2.4     2.4  3.5 -0.1078E+01  0.2056E+01  0.1946E+00E
 Epicentro: LOS SANTOS - SANTANDER                                             3
 ACTION:UPD 17-08-30 15:38 OP:rebc STATUS:               ID:20170729210904 L   I
 OLDACT:UP  17-07-30 07:47 OP:dnl  STATUS:               ID:20170729210745     3
 OLDACT:REG 17-07-30 07:27 OP:dnl  STATUS:               ID:20170729210745     3
 2017-07-29-2108-00M.COL___389                                                 6
 STAT SP IPHASW D HRMM SECON CODA AMPLIT PERI AZIMU VELO AIN AR TRES W  DIS CAZ7
 BAR2 EZ EP       21 9 22.91                             171   -0.1610 20.8 204 
 BAR2 EZ ES       21 9 37.52                             171   -0.3810 20.8 204 
 BAR2 EZ I        21 9 39.36        45.1 0.20            171           20.8 204 
 BRR  HZ IP     D 21 9 24.76                             150   -0.2910 77.1 300 
 BRR  HE ES       21 9 41.81                             150    0.3910 77.1 300 
 BRR  HZ I        21 9 44.80        30.2 0.34            142           77.1 300 
 PAM  EZ EP       21 9 25.85                             150    0.0510 77.8  35 
 PAM  EN ES       21 9 42.83                             150    0.0710 77.8  35 
 PAM  EZ I        21 9 44.88        29.6 0.50            144           77.8  35 
 RUS  HZ EP       21 9 26.96                             144   -0.0910 96.4 179 
 RUS  HN ES       21 9 45.37                             144    0.4010 96.4 179 
 RUS  HZ I        21 9 46.60         6.8 0.40            143           96.4 179 
 PTB  HZ EP   9   21 9 29.76                             130   -1.24 0  151 261 
 PTB  HN ES       21 9 50.83                             130    0.07 9  151 261 
 PTB  HZ I        21 9 54.18        12.7 0.22            124            151 261 
 SPBC HZ EP       21 9 31.96                             128   -0.23 9  163 221 
 SPBC HN ES       21 9 54.17                             128    0.05 9  163 221 
 SPBC HZ I        21 9 57.61        11.5 0.32            124            163 221 
 ZAR  HZ EP       21 9 37.19                             121    0.39 8  210 293 
 ZAR  HN ES       2110  2.14                             121   -0.19 8  210 293 
 ZAR  HZ I        2110  7.50        22.3 0.28            115            210 293 
 NOR  HZ EP       21 9 39.69                             117    0.01 8  236 236 
 NOR  HN ES       2110  7.41                             117   -0.04 8  236 236 
 NOR  HZ I        2110  9.46         5.9 0.22            113            236 236 
 HEL  HZ EP   4   21 9 45.79                             114    1.36 0  276 257 
 HEL  HN ES       2110 15.81                             114   -0.09 7  276 257 
 HEL  HZ I        2110 21.28         7.4 0.40            109            276 257 
 URE  HZ EP   2   21 9 46.25                             112    0.70 4  290 292 
 URE  HZ I        2110 16.34         7.9 0.22            107            290 292 
 GUY2CHZ EP   9   21 9 49.99                             111    2.37 0  303 236 
 GUY2CHN ES       2110 24.23                             111    0.27 7  303 236 
 GUY2CHZ I        2110 32.15         3.1 0.50                           303 236 
                                                                                
