 2016  529 2301 57.6 L   6.760 -73.092150.7  RSN  9 0.4 2.0LRSN                1
 GAP=125        1.03       4.7     4.7  6.0 -0.5481E+01  0.6548E+01  0.5310E+01E
 Epicentro: LOS SANTOS - SANTANDER                                             3
 ACTION:UPD 16-08-18 17:50 OP:cam  STATUS:               ID:20160529230157 L   I
 OLDACT:REG 16-05-30 02:36 OP:drio STATUS:               ID:20160529225743     3
 2016-05-29-2257-43M.COL___316                                                 6
 STAT SP IPHASW D HRMM SECON CODA AMPLIT PERI AZIMU VELO AIN AR TRES W  DIS CAZ7
 BAR2 EZ EP       23 2 17.72                             172   -0.0310 21.0 208 
 BAR2 EZ ES       23 2 32.69                             172   -0.8010 21.0 208 
 BAR2 EZ I        23 2 35.44        17.3 0.24            169           21.0 208 
 PAM  EZ EP       23 2 20.71                             152    0.4010 77.4  34 
 PAM  EE ES       23 2 38.05                             152   -0.0010 77.4  34 
 PAM  EZ I        23 2 39.88        12.2 0.54            156           77.4  34 
 BRR  HZ EP       23 2 19.55                             151   -0.1210 78.5 299 
 BRR  HN ES       23 2 37.39                             151    0.4810 78.5 299 
 BRR  HZ I        23 2 40.38        13.4 0.12            150           78.5 299 
 RUS  HZ EP       23 2 21.53                             146    0.0510 95.9 179 
 RUS  HE ES       23 2 40.47                             146    0.3410 95.9 179 
 RUS  HZ I        23 2 43.41         6.2 0.24            148           95.9 179 
 PTB  HZ EP       23 2 24.44                             132   -0.95 9  153 261 
 PTB  HN ES   4   23 2 45.65                             132   -1.44 0  153 261 
 PTB  HZ I        23 2 52.93        21.0 0.42            132            153 261 
 SPBC HZ EP       23 2 26.73                             130    0.24 9  164 222 
 SPBC HN ES       23 2 49.42                             130    0.38 9  164 222 
 SPBC HZ I        23 2 52.96        13.1 0.12            131            164 222 
 NOR  HZ EP       23 2 33.82                             119   -0.01 8  237 236 
 NOR  HN ES       23 3  1.91                             119   -0.21 8  237 236 
 NOR  HZ I        23 3  5.63        11.0 0.20            121            237 236 
 HEL  HZ EP       23 2 39.04                             115    0.49 7  277 257 
 HEL  HN ES       23 3 10.50                             115   -0.02 7  277 257 
 HEL  HZ I        23 3 16.78         8.0 0.32            117            277 257 
 PTGC HZ EP       23 2 40.67                             113   -0.27 7  302 159 
                                                                                
