 2010  729 2352 15.2 L   6.794 -73.099145.8  RSN  5 0.2 1.7LRSN                1
 GAP=164        0.51       2.9     6.0  5.8 -0.1535E+01 -0.1090E+02 -0.3603E+01E
 Epicentro: LOS SANTOS - SANTANDER                                             3
 ACTION:UPD 10-12-01 15:21 OP:pat  STATUS:               ID:20100729235215 L   I
 2010-07-29-2349-09S.COL___122                                                 6
 STAT SP IPHASW D HRMM SECON CODA AMPLIT PERI AZIMU VELO AIN AR TRES W  DIS CAZ7
 BAR2 SZ IP       2352 34.80                             170     0.010   24 203 
 BAR2 SZ I        2352 35.08        13.2 0.09                            24 203 
 BAR2 SZ ES   2   2352 49.56                             170    -0.6 5   24 203 
 BRR  HZ IP     C 2352 36.58                             151     0.010   76 297 
 BRR  HZ I        2352 36.89        20.1 0.12                            76 297 
 BRR  HE ES   1   2352 53.49                             151     0.1 7   76 297 
 RUS  HZ EP   1   2352 38.82                             144    -0.1 7  100 179 
 RUS  HN ES   1   2352 57.60                             144     0.2 7  100 179 
 RUS  HZ I        2352 59.04         4.8 0.37                           100 179 
 GUE  SZ IP       2352 39.75                             139    -0.110  116  10 
 GRA  SZ IP       2352 40.54                             137     0.210  125  15 
 GRA  SZ ES   1   2353  0.07                             137     0.1 7  125  15 
 GRA  SZ I        2353  1.24         6.9 0.28                           125  15 
                                                                                
