 2014  829 2121 20.2 L   6.799 -73.185151.5  RSN  5 0.4 2.0LRSN                1
 GAP=197        0.83       4.1     7.1  7.8  0.1611E+02 -0.1068E+02 -0.1081E+02E
 Epicentro: ZAPATOCA - SANTANDER                                               3
 ACTION:UPD 14-09-15 21:54 OP:nd   STATUS:               ID:20140829212120 L   I
 OLDACT:UP  14-08-30 02:21 OP:cam  STATUS:               ID:20140829212000     3
 OLDACT:REG 14-08-30 02:07 OP:cam  STATUS:               ID:20140829212000     3
 2014-08-29-2120-00M.COL___282                                                 6
 STAT SP IPHASW D HRMM SECON CODA AMPLIT PERI AZIMU VELO AIN AR TRES W  DIS CAZ7
 BRR  HZ EP       2121 41.96                             155    0.2310 67.5 300 
 BRR  HN ES       2121 58.90                             155    0.3310 67.5 300 
 BRR  HN I        2121 59.56        34.7 0.32            153           67.5 300 
 RUS  HZ EP       2121 44.76                             145    0.2610  101 174 
 RUS  HE ES       2122  3.00                             145   -0.4810  101 174 
 RUS  HZ I        2122  4.55         3.7 0.48            145            101 174 
 SPBC HZ EP   1   2121 49.41                             131    0.57 7  160 218 
 SPBC HN ES   1   2122 10.98                             131   -0.24 7  160 218 
 SPBC HN I        2122 14.27        19.6 0.10            130            160 218 
 ZAR  HN ES       2122 17.69                             124   -0.19 9  200 293 
 SML  HZ EP       2121 56.40                             119   -0.53 8  242 336 
 SML  HN ES       2122 25.60                             119   -0.02 8  242 336 
 SML  HZ I        2122 29.56         6.5 0.10            119            242 336 
 GUY2CHZ EP   4   2122  5.32                             114    1.69 0  298 234 
                                                                                
