 2016  129 2310 49.5 L   6.807 -73.129151.0  RSN  8 0.4 1.8LRSN                1
 GAP=138        0.82       2.8     3.5  6.8  0.1347E-01  0.8276E+01 -0.1156E+01E
 Epicentro: LOS SANTOS - SANTANDER                                             3
 ACTION:UPD 16-03-09 23:29 OP:cam  STATUS:               ID:20160129231049 L   I
 OLDACT:UP  16-01-30 04:13 OP:mh   STATUS:               ID:20160129223600     3
 OLDACT:REG 16-01-30 02:24 OP:l    STATUS:               ID:20160129223600     3
 2016-01-29-2235-59S.COL___229                                                 6
 STAT SP IPHASW D HRMM SECON CODA AMPLIT PERI AZIMU VELO AIN AR TRES W  DIS CAZ7
 BAR2 EZ EP       2311  9.98                             170    0.1810 24.5 194 
 BAR2 EZ I        2311 26.12         9.2 0.44            171           24.5 194 
 PAM  EZ EP       2311 12.73                             152    0.5410 75.6  39 
 PAM  EN ES       2311 29.77                             152   -0.1010 75.6  39 
 PAM  EZ I        2311 31.85         6.0 0.34            152           75.6  39 
 RUS  HZ EP       2311 13.86                             145    0.0310  101 177 
 RUS  HN ES       2311 32.76                             145   -0.0310  101 177 
 RUS  HZ I        2311 33.02         5.0 0.42            145            101 177 
 PTB  HZ EP       2311 16.99                             133   -0.10 9  150 259 
 PTB  HN ES       2311 38.38                             133   -0.22 9  150 259 
 PTB  HZ I        2311 43.37         9.9 0.26            133            150 259 
 ZAR  HZ EP   1   2311 22.81                             123    0.35 6  206 292 
 ZAR  HN ES       2311 48.53                             123    0.38 8  206 292 
 ZAR  HZ I        2311 54.48         7.7 0.11            123            206 292 
 SML  HZ EP       2311 25.73                             118   -0.72 8  244 335 
 SML  HN ES       2311 54.87                             118   -0.39 8  244 335 
 SML  HZ I        2311 59.76        11.7 0.06            118            244 335 
 CHI  HZ EP   1   2311 27.97                             118    0.33 6  250 196 
 CHI  HN ES       2311 56.82                             118   -0.56 8  250 196 
 CHI  HZ I        2312  1.38         2.1 0.59            118            250 196 
 HEL  HN ES       2312  2.28                             116    0.31 8  274 256 
                                                                                
