 2010 1129 2005 53.9 L   6.782 -73.105139.4  RSN 10 0.4 2.0LRSN                1
 GAP=163        0.92       4.2     7.6  7.2 -0.1195E+02  0.5587E+01 -0.2317E+01E
 Epicentro: LOS SANTOS - SANTANDER                                             3
 ACTION:UP  10-12-17 16:55 OP:REBC STATUS:               ID:20101129200553 L   I
 2010-11-29-2003-07S.COL___131                                                 6
 STAT SP IPHASW D HRMM SECON CODA AMPLIT PERI AZIMU VELO SNR AR TRES W  DIS CAZ7
 BAR2 SZ EP   1   20 6 12.80                             170     0.0 7   23 203 
 BAR2 SZ ES   1   20 6 27.33                             170    -0.2 7   23 203 
 BAR2 SZ I        20 6 28.96        40.2 0.33                            23 203 
 BRR  HZ IP     C 20 6 14.70                             150     0.010   76 298 
 BRR  HZ I        20 6 15.06        40.1 0.10                            76 298 
 BRR  HE ES   1   20 6 31.01                             150     0.1 7   76 298 
 RUS  HZ EP   1   20 6 16.19                             143    -0.7 7   98 179 
 RUS  HE ES   1   20 6 35.21                             143     0.4 7   98 179 
 RUS  HZ I        20 6 36.75        12.1 0.50                            98 179 
 GUE  SZ EP   1   20 6 19.00                             138     0.9 7  118  10 
 GUE  SZ I        20 6 20.01         2.7 0.06                           118  10 
 GRA  SZ IP       20 6 18.80                             135     0.110  126  15 
 GRA  SZ I        20 6 20.17        28.7 0.24                           126  15 
 GRA  SZ ES   1   20 6 37.94                             135     0.0 7  126  15 
 OCA  SZ EP   1   20 6 21.30                             128    -0.7 7  163 352 
 OCA  SZ ES   2   20 6 43.19                             128    -0.7 5  163 352 
 OCA  SZ I        20 6 48.67        22.1 0.28                           163 352 
 NOR  SE ES   2   20 6 57.24                             117    -0.2 4  237 236 
 HEL  HZ EP   2   20 6 35.03                             113     0.8 4  276 256 
 HEL  HZ I        20 7 10.09         4.5 0.22                           276 256 
 RREF HZ EP   2   20 6 40.25                             109     0.2 3  324 230 
 RREF HN ES   2   20 7 16.32                             109     0.3 3  324 230 
 RREF HZ I        20 7 21.24         3.6 0.15                           324 230 
 PRA  HZ EP   1   20 6 47.37                             105     0.1 4  393 210 
 PRA  HE ES   2   20 7 28.11                             105    -0.8 3  393 210 
                                                                                
