 2012  629 2008  2.0 L   6.796 -73.188136.7  RSN  6 0.3 1.5LRSN                1
 GAP=131        0.53       3.6     3.2  6.0 -0.1721E+01  0.2945E+01 -0.5928E+00E
 Epicentro: ZAPATOCA - SANTANDER                                               3
 ACTION:UPD 12-08-06 17:53 OP:ep   STATUS:               ID:20120629200802 L   I
 2012-06-29-2000-00M.COL___201                                                 6
 STAT SP IPHASW D HRMM SECON CODA AMPLIT PERI AZIMU VELO AIN AR TRES W  DIS CAZ7
 BAR2 SZ EP   2   20 8 20.58                             170    0.02 5 22.5 178 
 BAR2 SZ ES   2   20 8 34.81                             170   -0.21 5 22.5 178 
 BRR  HN ES   2   20 8 37.78                             152    0.22 5 67.4 301 
 PAM  SZ EP       20 8 23.63                             148    0.1110 80.8  42 
 PAM  SN ES   1   20 8 40.10                             148   -0.17 7 80.8  42 
 RUS  HZ EP   1   20 8 25.09                             142    0.18 7  101 173 
 RUS  HE ES   1   20 8 42.89                             142    0.14 7  101 173 
 RUS  HZ I        20 8 44.87         6.4 0.35                           101 173 
 PTB  HZ EP   1   20 8 27.44                             131   -0.41 7  143 259 
 PTB  HN ES   1   20 8 47.67                             131   -0.31 7  143 259 
 PTB  HZ I        20 8 51.51         3.3 0.21                           143 259 
 ZAR  HE ES   2   20 8 58.79                             121    0.80 4  200 293 
                                                                                
