 2011  529 2039  5.1 L   6.786 -73.088147.2  RSN  7 0.3 1.8LRSN                1
 GAP=145        0.67       4.8     8.0  8.3 -0.8357E+01 -0.1528E+02 -0.6092E+01E
 Epicentro: LOS SANTOS - SANTANDER                                             3
 ACTION:UP  11-06-29 08:57 OP:tino STATUS:               ID:20110529203905 L   I
 2011-05-29-2038-27S.COL___113                                                 6
 STAT SP IPHASW D HRMM SECON CODA AMPLIT PERI AZIMU VELO SNR AR TRES W  DIS CAZ7
 BAR2 SZ ES   2   2039 40.19                             170    -0.2 5   24 206 
 BAR2 SZ I        2039 42.64        16.7 0.49                            24 206 
 PAM  SZ EP       2039 27.54                             152     0.210   75  35 
 BRR  HZ EP       2039 26.52                             151    -0.310   78 297 
 BRR  HZ I        2039 26.85        13.0 0.18                            78 297 
 BRR  HN ES   2   2039 44.57                             151     0.9 5   78 297 
 RUS  HZ EP   2   2039 28.83                             145    -0.1 5   99 180 
 RUS  HN ES   2   2039 47.23                             145    -0.2 5   99 180 
 RUS  HZ I        2039 48.20         6.0 0.37                            99 180 
 BRI  SZ EP       2039 29.24                             142     0.110  108  17 
 BRI  SZ ES   2   2039 47.83                             142     0.0 5  108  17 
 GRA  SZ EP       2039 30.51                             137     0.010  126  14 
 GRA  SZ I        2039 31.88         9.5 0.25                           126  14 
 GRA  SZ ES   2   2039 49.83                             137    -0.4 5  126  14 
 OCA  SZ ES   2   2039 55.66                             129    -0.5 5  163 351 
 OCA  SZ I        2039 59.20        11.1 0.24                           163 351 
                                                                                
