 2012 1129 2057 22.5 L   6.790 -73.148149.2  RSN  9 0.5 2.1LRSN                1
 GAP=137        0.99       3.9     6.0  7.6  0.1102E+01  0.1570E+02  0.7729E+00E
 Epicentro: LOS SANTOS - SANTANDER                                             3
 ACTION:UPD 12-12-05 15:37 OP:}ep  STATUS:               ID:20121129205722 L   I
 2012-11-29-2050-00M.COL___236                                                 6
 STAT SP IPHASW D HRMM SECON CODA AMPLIT PERI AZIMU VELO AIN AR TRES W  DIS CAZ7
 BAR2 SZ EP   1   2057 42.43                             171   -0.04 7 22.2 190 
 BAR2 SZ ES   1   2057 58.24                             171    0.16 7 22.2 190 
 GIR2 SZ EP   1   2057 42.82                             167    0.27 7 32.4 351 
 GIR2 SZ ES   1   2057 59.03                             167    0.79 7 32.4 351 
 GIR2 SZ I        2058  0.25        13.4 0.36                          32.4 351 
 PAM  SZ EP   1   2057 45.22                             151    0.13 7 78.4  39 
 PAM  SN ES   1   2058  2.53                             151   -0.21 7 78.4  39 
 PAM  SZ I        2058  4.79        16.5 0.20                          78.4  39 
 RUS  HZ EP   1   2057 46.36                             145   -0.10 7 99.5 176 
 RUS  HN ES   1   2058  4.59                             145   -0.59 7 99.5 176 
 RUS  HZ I        2058  6.33        13.8 0.36                          99.5 176 
 PTB  HZ EP   1   2057 49.35                             133   -0.31 7  147 259 
 PTB  HN ES   1   2058 10.29                             133   -0.59 7  147 259 
 PTB  HZ I        2058 16.38        28.1 0.42                           147 259 
 OCA  HN ES   1   2058 13.25                             130   -0.25 7  161 353 
 OCA  HZ I        2058 20.85        18.5 0.32                           161 353 
 ZAR  HZ EP   1   2057 56.69                             123    1.55 6  204 292 
 ZAR  HE ES   1   2058 20.70                             123    0.06 6  204 292 
 ZAR  HZ I        2058 26.78        15.4 0.30                           204 292 
 SML  HZ EP   1   2057 58.55                             118   -0.82 6  245 335 
 SML  HN ES   1   2058 27.68                             118   -0.48 6  245 335 
 CHI  HZ EP   1   2058  0.40                             118    0.19 6  247 195 
 CHI  HN ES   1   2058 29.83                             118    0.16 6  247 195 
 CHI  HZ I        2058 37.70         5.0 0.62                           247 195 
                                                                                
