 2017 1029 2327 25.1 L   6.818 -73.151147.5  RSN 10 0.4 1.9LRSN                1
 GAP=239        1.01       4.4     5.4  6.0  0.8709E+01  0.8736E+01  0.7611E+01E
 Epicentro: LOS SANTOS - SANTANDER                                             3
 ACTION:UPD 17-11-07 19:39 OP:rebc STATUS:               ID:20171029232725 L   I
 OLDACT:REG 17-10-30 03:22 OP:leo  STATUS:               ID:20171029231737     3
 2017-10-29-2318-00M.COL___444                                                 6
 STAT SP IPHASW D HRMM SECON CODA AMPLIT PERI AZIMU VELO AIN AR TRES W  DIS CAZ7
 BAR2 EZ EP       2327 44.77                             170   -0.2410 25.2 188 
 BAR2 EZ ES       2328  0.29                             170   -0.2210 25.2 188 
 BAR2 EZ I        2328  2.58        19.3 0.46            166           25.2 188 
 BRR  HZ EP       2327 46.54                             153    0.1610 69.7 297 
 BRR  HN ES       2328  3.63                             153    0.6610 69.7 297 
 BRR  HZ I        2328  8.49        12.4 0.16            151           69.7 297 
 RUS  HZ EP       2327 48.98                             144   -0.2210  103 176 
 RUS  HN ES       2328  8.12                             144    0.1510  103 176 
 RUS  HZ I        2328  8.55         9.1 0.26            144            103 176 
 PTB  HZ EP       2327 51.58                             132   -0.64 9  148 258 
 PTB  HN ES       2328 12.62                             132   -0.74 9  148 258 
 PTB  HZ I        2328 14.07         5.5 0.48            131            148 258 
 SPBC HZ EP       2327 53.78                             129   -0.09 9  164 218 
 SPBC HN ES   3   2328 17.39                             129    1.09 2  164 218 
 SPBC HZ I        2328 22.67        15.1 0.36            129            164 218 
 ZAR  HZ EP       2327 58.32                             123    0.77 9  203 292 
 ZAR  HE ES       2328 22.48                             123   -0.36 9  203 292 
 ZAR  HZ I        2328 28.28         6.8 0.38            124            203 292 
 NOR  HZ EP       2328  1.24                             119    0.21 8  235 234 
 NOR  HE ES       2328 29.61                             119    0.57 8  235 234 
 NOR  HZ I        2328 36.61         7.0 0.18            119            235 234 
 CHI  HZ EP       2328  3.09                             117   -0.02 8  250 195 
 CHI  HN ES       2328 33.03                             117    0.28 8  250 195 
 CHI  HZ I        2328 34.63         4.3 0.36            119            250 195 
 GUY2CHZ EP   4   2328 10.70                             113    1.81 0  302 234 
 GUY2CHN ES   4   2328 44.66                             113    1.63 0  302 234 
 GUY2CHZ I        2328 50.00         3.8 0.56                           302 234 
 PRA  HZ EP       2328 19.24                             107    0.36 6  393 209 
 PRA  HN ES       2329  0.34                             107   -0.46 6  393 209 
 PRA  HZ I        2329  4.80         2.7 0.24            108            393 209 
                                                                                
