 2012  429 2152 48.7 L   6.785 -73.106149.2  RSN  5 0.3 1.5LRSN                1
 GAP=142        0.74       4.5     6.2  6.6 -0.1605E+01  0.1037E+02 -0.3747E+01E
 Epicentro: LOS SANTOS - SANTANDER                                             3
 ACTION:UPD 12-07-05 11:56 OP:tino STATUS:               ID:20120429215248 L   I
 2012-04-29-2150-00M.COL___189                                                 6
 STAT SP IPHASW D HRMM SECON CODA AMPLIT PERI AZIMU VELO AIN AR TRES W  DIS CAZ7
 BAR2 SZ EP   1   2153  8.78                             171     0.1 7   23 201 
 BAR2 SZ ES   1   2153 24.50                             171     0.1 7   23 201 
 BAR2 SZ I        2153 26.56         6.2 0.19                            23 201 
 BRR  HZ EP       2153 10.79                             152     0.310   76 298 
 BRR  HE ES   1   2153 27.62                             152     0.2 7   76 298 
 BRR  HZ I        2153 32.35         9.1 0.15                            76 298 
 PAM  SZ EP       2153 11.31                             152     0.110   76  36 
 PAM  SE ES   1   2153 28.29                             152    -0.5 7   76  36 
 RUS  HZ EP   1   2153 12.87                             145     0.2 7   99 179 
 RUS  HE ES       2153 31.26                             145    -0.110   99 179 
 RUS  HZ I        2153 32.50         2.9 0.30                            99 179 
 PTB  HZ EP       2153 15.82                             132    -0.5 9  152 260 
                                                                                
