 2010  729 2320 56.0 L   6.936 -72.898144.0  RSN  5 0.3 1.7LRSN                1
 GAP=192        0.70       5.2    10.0  9.2  0.1413E+02 -0.4551E+02 -0.1924E+02E
 Epicentro: GUACA - SANTANDER                                                  3
 ACTION:UPD 10-12-01 15:21 OP:pat  STATUS:               ID:20100729232056 L   I
 2010-07-29-2316-31S.COL___122                                                 6
 STAT SP IPHASW D HRMM SECON CODA AMPLIT PERI AZIMU VELO AIN AR TRES W  DIS CAZ7
 BAR2 SZ IP       2321 16.68                             160     0.410   49 220 
 BAR2 SZ ES   1   2321 32.10                             160     0.1 7   49 220 
 BAR2 SZ I        2321 33.11         8.3 0.23                            49 220 
 BRR  HZ IP     D 2321 18.50                             145     0.210   92 282 
 BRR  HZ I        2321 19.80         7.5 0.13                            92 282 
 BRR  HE ES   1   2321 35.38                             145    -0.3 7   92 282 
 GUE  SZ IP       2321 19.03                             144    -0.210   99 358 
 RUS  HZ EP   1   2321 20.66                             138    -0.2 7  117 190 
 RUS  HE ES   1   2321 39.99                             138    -0.3 7  117 190 
 PRA  HZ EP   2   2321 52.33                             105    -0.3 3  419 212 
 PRA  HZ I        2322 39.29         2.0 0.23                           419 212 
                                                                                
