 2015  329 2105 18.0 L   6.585 -72.801  4.0  RSN  6 0.6 1.6LRSN                1
 GAP=195        1.40       3.2     5.9  8.7 -0.6229E+01  0.1785E+02 -0.3485E+01E
 Epicentro: MOLAGAVITA - SANTANDER                                             3
 ACTION:UPD 15-04-30 16:30 OP:nd   STATUS:               ID:20150329210518 L   I
 OLDACT:REG 15-03-30 07:40 OP:cam  STATUS:               ID:20150329205748     3
 2015-03-29-2057-48M.COL___287                                                 6
 STAT SP IPHASW D HRMM SECON CODA AMPLIT PERI AZIMU VELO AIN AR TRES W  DIS CAZ7
 BAR2 EZ IP     D 21 5 24.39                              47   -0.8810 42.2 271 
 BAR2 EZ I        21 5 29.62        44.4 0.36             96           42.2 271 
 RUS  HZ EP       21 5 32.27                              47    0.6010 82.7 202 
 RUS  HN ES       21 5 41.90                              47   -0.4110 82.7 202 
 RUS  HZ I        21 5 43.28        12.2 0.26             93           82.7 202 
 PAM  SZ EP       21 5 32.07                              47    0.1810 84.2   8 
 PAM  SN ES       21 5 42.27                              47   -0.4310 84.2   8 
 PAM  SZ I        21 5 43.34        14.6 0.30             93           84.2   8 
 BRR  HZ EP     C 21 5 37.00                              47    0.7810  116 300 
 BRR  HN ES       21 5 50.13                              47   -0.2810  116 300 
 BRR  HN I        21 5 51.44        41.5 0.20             92            116 300 
 SPBC HN ES       21 6  6.32                              47   -0.00 9  174 234 
 ZAR  HN ES       21 6 23.45                              37    0.75 8  248 294 
                                                                                
