 2012  129 2140 56.5 L   6.782 -73.041142.2  RSN  9 0.3 1.9LRSN                1
 GAP=151        0.47       2.6     3.7  4.0 -0.3381E+00  0.3540E+01  0.2131E+01E
 Epicentro: LOS SANTOS - SANTANDER                                             3
 ACTION:UP  12-02-03 08:22 OP:REBC STATUS:               ID:20120129214056 L   I
 2012-01-29-2140-00M.COL___188                                                 6
 STAT SP IPHASW D HRMM SECON CODA AMPLIT PERI AZIMU VELO SNR AR TRES W  DIS CAZ7
 BAR2 SZ EP   2   2141 15.76                             169     0.0 5   26 217 
 BAR2 SZ ES   2   2141 30.59                             169    -0.2 5   26 217 
 BAR2 SZ I        2141 34.12        14.9 0.28                            26 217 
 GIR2 SZ EP   1   2141 15.62                             165    -0.3 7   37 333 
 GIR2 SZ ES   1   2141 30.87                             165    -0.2 7   37 333 
 PAM  SZ EP   2   2141 18.33                             152     0.3 5   72  31 
 PAM  SN ES   1   2141 34.91                             152     0.0 7   72  31 
 BRR  HZ EP       2141 18.02                             148     0.010   82 296 
 BRR  HN ES   2   2141 35.07                             148     0.3 5   82 296 
 BRR  HZ I        2141 37.15        21.1 0.15                            82 296 
 RUS  HZ EP   1   2141 20.05                             144     0.3 7   98 183 
 RUS  HE ES   2   2141 38.26                             144     0.3 5   98 183 
 PTB  HZ EP   2   2141 23.58                             129    -0.7 5  159 260 
 PTB  HE ES   2   2141 45.82                             129    -0.1 5  159 260 
 OCA  SZ EP   1   2141 24.85                             128    -0.1 7  164 349 
 OCA  SZ ES   2   2141 47.39                             128     0.3 5  164 349 
 OCA  SZ I        2141 51.60         6.9 0.21                           164 349 
 ZAR  HZ EP   2   2141 30.19                             120     0.2 4  216 291 
 ZAR  HN ES   2   2141 56.30                             120     0.3 4  216 291 
 ZAR  HZ I        2142  5.00         9.0 0.47                           216 291 
 CHI  HZ EP   1   2141 34.25                             116     0.0 6  250 198 
 CHI  HN ES   2   2142  3.55                             116     0.0 4  250 198 
 CHI  HZ I        2142 13.03         4.3 0.36                           250 198 
                                                                                
