 2014  429 2041 34.1 L   6.785 -73.154148.8  RSN  6 0.5 2.0LRSN                1
 GAP=136        1.29       4.7     6.4  9.3 -0.4459E+01  0.9139E+01 -0.4132E+01E
 Epicentro: LOS SANTOS - SANTANDER                                             3
 ACTION:UPD 14-05-13 23:12 OP:nd   STATUS:               ID:20140429204134 L   I
 OLDACT:REG 14-04-30 02:44 OP:nd   STATUS:               ID:20140429204000     3
 2014-04-29-2040-00M.COL___270                                                 6
 STAT SP IPHASW D HRMM SECON CODA AMPLIT PERI AZIMU VELO AIN AR TRES W  DIS CAZ7
 BRR  HZ EP       2041 56.02                             153    0.4610 71.2 300 
 BRR  HN ES       2042 13.06                             153    0.7510 71.2 300 
 BRR  HZ I        2042 14.89        22.6 0.30            152           71.2 300 
 PAM  SZ EP       2041 57.04                             151    0.3210 79.2  39 
 PAM  SN ES       2042 14.00                             151   -0.3810 79.2  39 
 PAM  SZ I        2042 17.17         7.1 0.16            155           79.2  39 
 RUS  HZ EP       2041 57.69                             145   -0.3310 99.0 175 
 RUS  HN ES       2042 16.55                             145   -0.1410 99.0 175 
 PTB  HZ EP       2042  0.59                             133   -0.60 9  147 259 
 PTB  HN ES       2042 21.95                             133   -0.39 9  147 259 
 PTB  HZ I        2042 29.17        11.3 0.30            133            147 259 
 SPBC HZ EP       2042  2.77                             130    0.13 9  161 219 
 SPBC HN ES       2042 25.12                             130    0.20 9  161 219 
 SPBC HZ I        2042 31.63        16.6 0.36            131            161 219 
 SML  HZ EP       2042 11.88                             118    0.88 8  245 336 
 SML  HN ES       2042 38.77                             118   -1.02 8  245 336 
 SML  HZ I        2042 43.28        12.7 0.26            120            245 336 
                                                                                
