 2010  729 2307 33.9 L   6.783 -73.046139.4  RSN  4 0.1 1.5LRSN                1
 GAP=176        0.35       3.3     7.0  4.8  0.1066E+02 -0.1483E+02 -0.8112E+01E
 Epicentro: LOS SANTOS - SANTANDER                                             3
 ACTION:UPD 10-12-01 15:21 OP:pat  STATUS:               ID:20100729230733 L   I
 2010-07-29-2302-31S.COL___122                                                 6
 STAT SP IPHASW D HRMM SECON CODA AMPLIT PERI AZIMU VELO AIN AR TRES W  DIS CAZ7
 BAR2 SZ EP   1   23 7 52.88                             169     0.0 7   26 216 
 BAR2 SZ ES   1   23 8  7.54                             169    -0.1 7   26 216 
 BAR2 SZ I        23 8  8.89         8.8 0.29                            26 216 
 BRR  HZ EP   1   23 7 54.92                             148    -0.1 7   82 296 
 BRR  HE ES   2   23 8 11.76                             148     0.2 5   82 296 
 BRR  HZ I        23 8 16.54        13.0 0.23                            82 296 
 RUS  HZ EP   1   23 7 56.97                             143     0.1 7   99 182 
 RUS  HE ES   1   23 8 14.86                             143     0.0 7   99 182 
 RUS  HZ I        23 8 16.09         4.9 0.27                            99 182 
 GUE  SZ EP   1   23 7 58.13                             138     0.1 7  117   7 
 GUE  SZ I        23 8  1.27         2.1 0.16                           117   7 
                                                                                
