 2013 1029 2356 31.5 L   6.791 -73.133149.2  RSN 10 0.4 2.3LRSN                1
 GAP=156        0.98       3.4     4.3  5.6 -0.4112E+01  0.3868E+01  0.1338E+01E
 Epicentro: LOS SANTOS - SANTANDER                                             3
 ACTION:UPD 13-11-25 09:24 OP:ep   STATUS:               ID:20131029235631 L   I
 OLDACT:UP  13-10-29 23:01 OP:cam  STATUS:               ID:20131029234835     3
 OLDACT:REG 13-10-29 22:25 OP:cam  STATUS:               ID:20131029234835     3
 2013-10-29-2348-35M.COL___224                                                 6
 STAT SP IPHASW D HRMM SECON CODA AMPLIT PERI AZIMU VELO AIN AR TRES W  DIS CAZ7
 BAR2 SZ EP     C 2356 51.45                             171   -0.0510 22.6 194 
 BAR2 SZ ES       2357  6.75                             171   -0.3810 22.6 194 
 BAR2 SZ I        2357  7.79        39.6 0.36            172           22.6 194 
 BRR  HZ EP       2356 53.28                             153    0.1910 72.9 299 
 BRR  HN ES       2357 10.79                             153    0.8410 72.9 299 
 BRR  HZ I        2357 15.70        24.7 0.16            152           72.9 299 
 PAM  SZ EP       2356 54.26                             151    0.2110 77.3  38 
 PAM  SN ES       2357 11.54                             151   -0.1210 77.3  38 
 PAM  SZ I        2357 13.60        47.5 0.56            153           77.3  38 
 PTB  HZ EP       2356 58.11                             133   -0.71 9  149 259 
 PTB  HN ES       2357 19.75                             133   -0.41 9  149 259 
 PTB  HZ I        2357 21.68        20.2 0.16            133            149 259 
 OCA  HZ EP   1   2357  0.27                             130    0.11 7  161 353 
 OCA  HN ES   1   2357 21.68                             130   -0.86 7  161 353 
 OCA  HZ I        2357 25.90        19.9 0.20            131            161 353 
 SPBC HZ EP       2357  0.46                             130    0.22 9  163 220 
 SPBC HN ES       2357 22.86                             130    0.18 9  163 220 
 SPBC HZ I        2357 25.19        34.2 0.40            132            163 220 
 ZAR  HN ES       2357 29.82                             123   -0.10 8  206 292 
 NOR  HZ EP       2357  7.68                             119    0.22 8  235 235 
 NOR  HN ES       2357 35.41                             119   -0.12 8  235 235 
 NOR  HZ I        2357 39.11        11.7 0.18            121            235 235 
 SML  HZ EP       2357  8.09                             118   -0.36 8  245 335 
 SML  HE ES       2357 37.84                             118    0.54 8  245 335 
 SML  HZ I        2357 40.72        29.0 0.10            119            245 335 
 CHI  HZ EP       2357  9.58                             118    0.29 8  248 196 
                                                                                
