 2014  329 2047 39.4 L   6.729 -73.055142.4  RSN  4 0.1 1.5LRSN                1
 GAP=152        0.39       2.5     3.4  4.8 -0.3511E+01 -0.7988E-01  0.1824E+01E
 Epicentro: ARATOCA - SANTANDER                                                3
 OLDACT:REG 14-03-29 22:25 OP:fm   STATUS:               ID:20140329203816     3
 ACTION:UPD 14-04-09 23:21 OP:nd   STATUS:               ID:20140329204739 L   I
 OLDACT:UP  14-03-29 23:34 OP:fm   STATUS:               ID:20140329203816     3
 2014-03-29-2038-16M.COL___259                                                 6
 STAT SP IPHASW D HRMM SECON CODA AMPLIT PERI AZIMU VELO AIN AR TRES W  DIS CAZ7
 PAM  SZ EP       2048  1.32                             150    0.0310 78.1  30 
 PAM  SN ES       2048 18.35                             150   -0.0310 78.1  30 
 PAM  SZ I        2048 20.53         7.0 0.52            155           78.1  30 
 BRR  HZ EP   1   2048  0.69                             148   -0.25 7 83.8 300 
 BRR  HN ES   1   2048 17.92                             148    0.16 7 83.8 300 
 BRR  SZ I        2048 30.10         8.3 1.28            145           83.8 300 
 RUS  HZ EP   1   2048  2.46                             145    0.23 7 92.5 182 
 RUS  HN ES   1   2048 19.94                             145   -0.11 7 92.5 182 
 RUS  SZ I        2048 23.23         4.7 0.66            153           92.5 182 
 SPBC HN ES   1   2048 29.74                             128   -0.03 7  164 223 
                                                                                
