 2012  629 2334 10.5 L   6.714 -73.108140.3  RSN  5 0.2 1.6LRSN                1
 GAP=145        0.37       3.3     3.6  6.2 -0.1190E+00  0.4164E+01  0.3159E+01E
 Epicentro: JORDAN - SANTANDER                                                 3
 ACTION:UPD 12-08-06 17:53 OP:ep   STATUS:               ID:20120629233410 L   I
 2012-06-29-2330-00M.COL___201                                                 6
 STAT SP IPHASW D HRMM SECON CODA AMPLIT PERI AZIMU VELO AIN AR TRES W  DIS CAZ7
 BAR2 SZ EP   1   2334 29.41                             173    0.12 7 15.7 211 
 BRR  HZ EP   2   2334 31.32                             149   -0.20 5 79.7 303 
 BRR  HN ES   2   2334 48.30                             149    0.34 5 79.7 303 
 BRR  HZ I        2334 55.47        11.5 0.38                          79.7 303 
 PAM  SZ EP   1   2334 32.46                             148    0.05 7 82.6  33 
 PAM  SN ES   1   2334 49.42                             148   -0.12 7 82.6  33 
 RUS  HZ EP   2   2334 33.10                             145    0.13 5 90.8 178 
 RUS  HN ES   2   2334 50.35                             145   -0.18 5 90.8 178 
 RUS  HZ I        2334 53.29         4.1 0.26                          90.8 178 
 ZAR  HN ES   2   2335  8.71                             120   -0.28 4  212 294 
                                                                                
