 2010  729 2127 13.7 L   6.374 -73.640109.3  RSN  4 0.2 1.7LRSN                1
 GAP=224        0.61       5.2     9.9  6.4  0.3626E+02  0.1878E+02  0.3749E+01E
 Epicentro: SANTA HELENA DEL OPON - SANTANDER                                  3
 ACTION:UPD 10-12-01 15:21 OP:pat  STATUS:               ID:20100729212713 L   I
 2010-07-29-2123-10S.COL___122                                                 6
 STAT SP IPHASW D HRMM SECON CODA AMPLIT PERI AZIMU VELO AIN AR TRES W  DIS CAZ7
 BAR2 SZ IP       2127 30.69                             151     0.310   56  64 
 BAR2 SZ ES   1   2127 43.50                             151     0.1 7   56  64 
 BAR2 SZ I        2127 44.40        23.6 0.19                            56  64 
 RUS  HZ EP       2127 32.68                             141     0.210   81 131 
 RUS  HE ES   1   2127 46.87                             141    -0.3 7   81 131 
 RUS  HZ I        2127 48.64         6.1 0.63                            81 131 
 BRR  HZ IP     C 2127 31.66                             140    -0.210   82 354 
 BRR  HN ES   1   2127 46.01                             140     0.0 7   82 354 
 BRR  HZ I        2127 47.69        18.0 0.42                            82 354 
 GUE  SZ IP       2127 41.62                             117    -0.1 9  179  26 
 GUE  SZ I        2127 42.22         7.5 0.10                           179  26 
                                                                                
