 2011  529 2113 37.8 L   6.805 -73.121140.0  RSN  9 0.5 2.3LRSN                1
 GAP=139        1.22       5.5     8.9  9.8 -0.1998E+02  0.1558E+02  0.6999E+01E
 Epicentro: LOS SANTOS - SANTANDER                                             3
 ACTION:UP  11-06-29 08:57 OP:tino STATUS:               ID:20110529211337 L   I
 2011-05-29-2111-56S.COL___113                                                 6
 STAT SP IPHASW D HRMM SECON CODA AMPLIT PERI AZIMU VELO SNR AR TRES W  DIS CAZ7
 BAR2 SZ EP       2113 56.71                             169     0.010   24 196 
 BAR2 SZ I        2113 56.87        47.8 0.14                            24 196 
 BAR2 SZ ES   2   2114 11.44                             169    -0.1 5   24 196 
 BRR  HZ EP       2113 58.50                             151     0.110   73 297 
 BRR  HZ I        2113 58.90        66.9 0.11                            73 297 
 BRR  HN ES   1   2114 15.22                             151     0.7 7   73 297 
 PAM  SZ ES   3   2114 16.28                             151     0.3 2   75  38 
 RUS  HZ EP       2114  0.72                             142    -0.310  101 178 
 RUS  HZ I        2114  1.91        17.2 0.17                           101 178 
 RUS  HN ES   2   2114 18.62                             142    -0.5 5  101 178 
 BRI  SZ EP       2114  1.40                             141     0.410  107  20 
 BRI  SZ ES   1   2114 19.29                             141     0.2 7  107  20 
 GRA  SZ EP       2114  2.58                             136     0.210  124  16 
 GRA  SZ ES   1   2114 21.76                             136     0.2 7  124  16 
 GRA  SZ I        2114 23.03        27.0 0.39                           124  16 
 OCA  SZ EP       2114  5.34                             128    -0.3 9  160 352 
 OCA  SZ ES   1   2114 25.68                             128    -1.6 7  160 352 
 OCA  SZ I        2114 30.27        23.3 0.34                           160 352 
 NOR  SZ EP       2114 13.22                             117    -0.2 8  237 235 
 NOR  SN ES   2   2114 40.46                             117    -0.8 4  237 235 
 HEL  HZ EP       2114 18.64                             113     0.6 8  275 256 
 HEL  HZ I        2114 55.16        11.3 0.40                           275 256 
                                                                                
