 2013  129 2224 54.9 L   6.751 -73.096139.8  RSN  5 0.1 1.3LRSN                1
 GAP=145        0.34       2.2     3.8  3.6 -0.2529E+01 -0.1883E+01  0.3215E+01E
 Epicentro: LOS SANTOS - SANTANDER                                             3
 ACTION:UPD 13-02-15 09:17 OP:ep   STATUS:               ID:20130129222454 L   I
 2013-01-29-2220-00M.COL___241                                                 6
 STAT SP IPHASW D HRMM SECON CODA AMPLIT PERI AZIMU VELO AIN AR TRES W  DIS CAZ7
 BAR2 SZ ES   1   2225 28.52                             171    0.12 7 19.9 208 
 PAM  SZ EP   1   2225 16.37                             149   -0.14 7 78.5  34 
 PAM  SN ES   1   2225 33.51                             149    0.11 7 78.5  34 
 PAM  SZ I        2225 35.70         3.9 0.68            150           78.5  34 
 BRR  HN ES   1   2225 32.10                             149   -0.06 7 78.6 300 
 RUS  HZ EP   1   2225 17.68                             144    0.07 7 94.9 179 
 RUS  HN ES   1   2225 35.15                             144   -0.21 7 94.9 179 
 RUS  HZ I        2225 37.52         3.8 0.26            143           94.9 179 
 CHI  HZ EP   1   2225 31.86                             116    0.04 6  245 197 
 CHI  HN ES   1   2226  0.79                             116    0.14 6  245 197 
 CHI  HZ I        2226  4.87         1.5 0.22            116            245 197 
                                                                                
