 2015 1229 2312  1.2 L   6.189 -73.907 91.3  RSN 13 0.4 2.3LRSN                1
 GAP= 64        1.01       2.3     2.3  5.6 -0.1070E+01  0.2010E+01  0.6858E+00E
 Epicentro: LANDAZURI - SANTANDER                                              3
 ACTION:UPD 16-02-04 15:08 OP:cam  STATUS:               ID:20151229231201 L   I
 OLDACT:REG 15-12-30 03:40 OP:cara STATUS:               ID:20151229230750     3
 2015-12-29-2307-50M.COL___334                                                 6
 STAT SP IPHASW D HRMM SECON CODA AMPLIT PERI AZIMU VELO AIN AR TRES W  DIS CAZ7
 SPBC HZ IP     C 2312 16.34                             143    0.0810 62.1 197 
 SPBC HN ES       2312 28.58                             143    0.5910 62.1 197 
 SPBC HZ I        2312 30.32        61.2 0.12            142           62.1 197 
 PTB  HZ IP       2312 16.15                             139   -0.7810 72.1 303 
 PTB  HN ES       2312 28.59                             139   -0.5910 72.1 303 
 PTB  HZ I        2312 31.88        43.3 0.10            140           72.1 303 
 BAR2 EZ IP       2312 19.16                             132    0.2210 91.7  61 
 BAR2 EZ ES       2312 32.77                             132   -0.0010 91.7  61 
 BAR2 EZ I        2312 33.96        53.6 0.12            134           91.7  61 
 RUS  HZ EP       2312 19.64                             130   -0.1310 96.9 110 
 RUS  HN ES       2312 34.04                             130   -0.2010 96.9 110 
 BRR  HZ IP     D 2312 19.69                             127   -0.0910  104  12 
 BRR  HN ES       2312 34.72                             127    0.4710  104  12 
 BRR  HZ I        2312 35.77        64.2 0.16            130            104  12 
 NOR  HZ IP       2312 21.76                             121   -0.4610  127 237 
 NOR  HE ES       2312 38.09                             121   -0.5110  127 237 
 NOR  HZ I        2312 42.54        50.3 0.12            121            127 237 
 CHI  HZ EP       2312 27.42                             113   -0.37 9  174 174 
 CHI  HN ES       2312 48.87                             113    0.35 9  174 174 
 CHI  HZ I        2312 55.31        12.2 0.24            114            174 174 
 ZAR  HZ IP     C 2312 27.75                             112   -0.08 9  178 324 
 ZAR  HE ES       2312 49.14                             112    0.56 9  178 324 
 ZAR  HZ I        2312 50.78        29.0 0.24            114            178 324 
 HEL  HZ EP       2312 28.33                             112   -0.08 9  180 270 
 HEL  HE ES       2312 50.18                             112    0.56 9  180 270 
 HEL  HZ I        2312 53.33        24.1 0.24            113            180 270 
 PAM  EZ EP       2312 29.60                             112    0.48 9  184  46 
 PAM  EE ES       2312 50.55                             112   -0.33 9  184  46 
 PAM  EZ I        2312 55.04        14.6 0.22            113            184  46 
 GUY2CHZ EP       2312 30.18                             111    0.02 9  194 237 
 GUY2CHE ES       2312 53.13                             111    0.40 9  194 237 
 GUY2CHZ I        2312 58.14        21.8 0.70                           194 237 
 ANIL HZ EP       2312 36.94                             106    0.32 8  250 222 
 ANIL HN ES   4   2313  6.81                             106    2.58 0  250 222 
 ANIL HZ I        2313 11.27        39.0 0.30            106            250 222 
 ORTC HZ EP       2312 41.26                             103   -0.08 7  293 211 
 ORTC HN ES   4   2313 15.29                             103    2.65 0  293 211 
 ORTC HZ I        2313 20.13        30.7 0.46            103            293 211 
                                                                                
