 2015  829 2319 16.0 L   6.136 -73.832 98.8  RSN  8 0.5 1.5LRSN                1
 GAP= 82        0.79       3.8     4.0  9.9 -0.3406E+01  0.2095E+02 -0.3811E+01E
 Epicentro: EL PENON - SANTANDER                                               3
 ACTION:UPD 15-09-15 23:06 OP:cam  STATUS:               ID:20150829231916 L   I
 OLDACT:UP  15-09-01 11:28 OP:ar   STATUS:               ID:20150829231916 L   3
 OLDACT:REG 15-08-30 04:01 OP:ar   STATUS:               ID:20150829231746     3
 2015-08-29-2317-46M.COL___364                                                 6
 STAT SP IPHASW D HRMM SECON CODA AMPLIT PERI AZIMU VELO AIN AR TRES W  DIS CAZ7
 SPBC HZ EP   2   2319 31.67                             147   -0.00 5 59.8 206 
 SPBC HN ES   2   2319 44.42                             147    0.55 5 59.8 206 
 SPBC HZ I        2319 46.09        14.5 0.46            144           59.8 206 
 RUS  HZ EP       2319 34.45                             136    0.1010 87.2 108 
 RUS  HE ES       2319 47.92                             136   -0.7210 87.2 108 
 RUS  HZ I        2319 49.41         4.5 0.26            137           87.2 108 
 BAR2 EZ EP   1   2319 34.22                             135    0.16 7 87.8  55 
 BAR2 EZ ES       2319 48.59                             135    0.4810 87.8  55 
 BAR2 EZ I        2319 49.91        17.7 0.18            138           87.8  55 
 BRR  HZ EP   2   2319 35.51                             129   -0.09 5  108   7 
 BRR  HN ES   2   2319 50.75                             129   -0.10 5  108   7 
 NOR  HZ EP   2   2319 38.25                             123    0.28 5  131 241 
 NOR  HN ES   2   2319 54.98                             123   -0.09 5  131 241 
 NOR  HZ I        2319 57.31         4.9 0.18            122            131 241 
 CHI  HN ES   2   2320  3.52                             117    0.79 5  167 176 
 CHI  HZ I        2320  9.25         5.8 0.20            116            167 176 
 ZAR  HZ EP   2   2319 43.62                             113   -0.48 4  188 323 
 ZAR  HN ES   2   2320  5.42                             113   -0.57 4  188 323 
 ZAR  HZ I        2320  9.94         6.5 0.34            113            188 323 
 GUY2CHZ EP   2   2319 46.25                             112    0.48 4  197 239 
 GUY2CHN ES   2   2320  8.26                             112   -0.71 4  197 239 
 GUY2CHZ I        2320 14.72         1.7 0.50                           197 239 
                                                                                
