 2015  329 2154 15.6 L   6.813 -73.156150.9  RSN  8 0.4 1.8LRSN                1
 GAP=135        1.03       3.7     4.5  7.2  0.6845E+00  0.4404E+01 -0.3725E+01E
 Epicentro: LOS SANTOS - SANTANDER                                             3
 ACTION:UPD 15-04-30 16:30 OP:nd   STATUS:               ID:20150329215415 L   I
 OLDACT:REG 15-03-30 07:43 OP:cam  STATUS:               ID:20150329214749     3
 2015-03-29-2147-49M.COL___287                                                 6
 STAT SP IPHASW D HRMM SECON CODA AMPLIT PERI AZIMU VELO AIN AR TRES W  DIS CAZ7
 BAR2 EZ EP       2154 35.86                             170   -0.0310 24.6 187 
 BAR2 EZ I        2154 51.90        17.7 0.44            170           24.6 187 
 BRR  HZ EP     C 2154 37.60                             154    0.3710 69.5 298 
 BRR  HN ES       2154 54.66                             154    0.5710 69.5 298 
 BRR  HZ I        2154 55.08        11.1 0.12            152           69.5 298 
 PAM  SZ EP       2154 38.52                             152    0.1610 77.0  41 
 PAM  SN ES       2154 55.78                             152   -0.3310 77.0  41 
 PAM  SZ I        2154 57.72        12.2 0.54            151           77.0  41 
 RUS  HZ EP       2154 40.19                             144    0.2010  102 175 
 RUS  HN ES       2154 58.89                             144   -0.1110  102 175 
 RUS  HZ I        2155  0.32         5.0 0.32            143            102 175 
 PTB  HZ EP       2154 42.73                             133   -0.20 9  147 258 
 PTB  HN ES       2155  3.48                             133   -0.76 9  147 258 
 PTB  HZ I        2155  6.89         6.0 0.34            132            147 258 
 OCA  HZ EP       2154 43.83                             131   -0.36 9  159 354 
 OCA  HN ES       2155  6.79                             131    0.32 9  159 354 
 OCA  HZ I        2155  9.47        13.2 0.20            130            159 354 
 ZAR  HZ EP   1   2154 49.28                             124    1.04 6  202 292 
 ZAR  HN ES       2155 13.93                             124    0.25 9  202 292 
 ZAR  HZ I        2155 20.30         6.0 0.34            122            202 292 
 SML  HZ EP       2154 52.11                             119   -0.23 8  242 335 
 SML  HN ES       2155 20.35                             119   -0.64 8  242 335 
 SML  HZ I        2155 29.61         7.1 0.10            117            242 335 
                                                                                
