 2017  129 2333 21.2 L   6.782 -73.175138.1  RSN  8 0.2 1.9LRSN                1
 GAP=134        0.54       2.0     2.1  3.2  0.9413E-01  0.2032E+01  0.1305E+01E
 Epicentro: LOS SANTOS - SANTANDER                                             3
 ACTION:UPD 17-05-22 16:04 OP:jn   STATUS:               ID:20170129233321 L   I
 OLDACT:REG 17-01-30 02:37 OP:edw  STATUS:               ID:20170129232745     3
 2017-01-29-2328-00M.COL___342                                                 6
 STAT SP IPHASW D HRMM SECON CODA AMPLIT PERI AZIMU VELO AIN AR TRES W  DIS CAZ7
 BAR2 EZ EP       2333 40.10                             171    0.1910 20.9 182 
 BAR2 EZ ES       2333 54.13                             171   -0.3410 20.9 182 
 BAR2 EZ I        2333 56.05        24.9 0.36            170           20.9 182 
 BRR  HZ EP       2333 41.70                             152    0.2410 69.4 301 
 BRR  HN ES       2333 57.16                             152   -0.0810 69.4 301 
 BRR  HZ I        2333 59.25        12.6 0.34            151           69.4 301 
 PAM  EZ EP     C 2333 42.76                             148   -0.1210 81.1  40 
 PAM  EN ES       2333 59.81                             148    0.0510 81.1  40 
 PAM  EZ I        2334  2.14        13.7 0.58            152           81.1  40 
 RUS  HZ IP       2333 44.04                             143   -0.0810 98.8 174 
 RUS  HN ES       2334  2.28                             143    0.3210 98.8 174 
 RUS  HZ I        2334  3.63         7.4 0.20            144           98.8 174 
 PTB  HZ EP       2333 46.99                             131   -0.27 9  144 259 
 PTB  HN ES       2334  7.60                             131    0.04 9  144 259 
 PTB  HZ I        2334  9.88         6.7 0.07            131            144 259 
 ZAR  HZ EP       2333 53.24                             121    0.28 9  202 293 
 ZAR  HN ES       2334 17.75                             121    0.04 9  202 293 
 ZAR  HZ I        2334 23.34        11.8 0.40            122            202 293 
 NOR  HZ EP       2333 56.06                             117   -0.06 8  231 234 
 NOR  HN ES       2334 23.23                             117   -0.09 8  231 234 
 NOR  HZ I        2334 29.55         4.4 0.11            118            231 234 
 CHI  HZ EP       2333 57.87                             116   -0.35 8  246 195 
 CHI  HN ES       2334 27.23                             116    0.17 8  246 195 
 CHI  HZ I        2334 30.97         6.8 0.68            117            246 195 
                                                                                
