 2016  229 2118 29.5 L   6.810 -73.154146.2  RSN  6 0.4 1.7LRSN                1
 GAP=142        0.93       5.2     5.0  8.2 -0.1342E+02  0.1497E+02 -0.8675E+00E
 Epicentro: LOS SANTOS - SANTANDER                                             3
 ACTION:UPD 16-03-04 21:30 OP:rebc STATUS:               ID:20160229211829 L   I
 OLDACT:UP  16-03-01 04:45 OP:drio STATUS:               ID:20160229210750     3
 OLDACT:REG 16-03-01 03:00 OP:drio STATUS:               ID:20160229210750     3
 2016-02-29-2107-50M.COL___322                                                 6
 STAT SP IPHASW D HRMM SECON CODA AMPLIT PERI AZIMU VELO AIN AR TRES W  DIS CAZ7
 PAM  EZ EP       2118 52.25                             151    0.5210 77.1  41 
 PAM  EE ES       2119  9.03                             151   -0.0510 77.1  41 
 PAM  EZ I        2119 11.18         3.5 0.20            157           77.1  41 
 RUS  HZ EP       2118 53.03                             143   -0.3410  102 176 
 RUS  HE ES       2119 12.05                             143    0.0510  102 176 
 RUS  HZ I        2119 13.08         4.9 0.28            149            102 176 
 PTB  HZ EP       2118 55.85                             132   -0.58 9  147 258 
 PTB  HN ES       2119 17.39                             132   -0.06 9  147 258 
 PTB  HZ I        2119 24.73         8.3 0.40            134            147 258 
 SPBC HZ EP       2118 58.35                             129    0.30 9  164 218 
 SPBC HN ES       2119 20.18                             129   -0.15 9  164 218 
 SPBC HZ I        2119 27.49         8.5 0.10            132            164 218 
 NOR  HZ EP       2119  4.96                             119   -0.27 8  235 234 
 NOR  HE ES       2119 33.01                             119   -0.11 8  235 234 
 NOR  HZ I        2119 38.88         5.6 0.26            122            235 234 
 GUY2CHZ EP   4   2119 15.59                             112    2.49 0  301 234 
 GUY2CHN ES       2119 48.07                             112    0.94 7  301 234 
 GUY2CHZ I        2119 55.82         4.1 0.32                           301 234 
                                                                                
