 2012 1029 2025  6.2 L   6.722 -73.512110.9  RSN  4 0.1 1.6LRSN                1
 GAP=180        0.34       2.1     3.2  4.3  0.8772E+00 -0.5566E+01  0.1543E+01E
 Epicentro: EL CARMEN DE CHUCURI - SANTANDER                                   3
 ACTION:UPD 12-11-22 17:06 OP:ep   STATUS:               ID:20121029202506 L   I
 2012-10-29-2020-00M.COL___231                                                 6
 STAT SP IPHASW D HRMM SECON CODA AMPLIT PERI AZIMU VELO AIN AR TRES W  DIS CAZ7
 BRR  HZ EP   1   2025 22.13                             155   -0.13 7 48.0 333 
 BRR  HE ES       2025 34.79                             155   -0.0110 48.0 333 
 BRR  HZ I        2025 40.60        15.7 0.38                          48.0 333 
 GIR2 SZ EP       2025 22.89                             153    0.1710 52.8  42 
 RUS  HZ EP   1   2025 26.96                             134    0.04 7  103 153 
 RUS  HE ES   1   2025 43.06                             134   -0.04 7  103 153 
 RUS  HZ I        2025 45.05         5.2 0.50                           103 153 
 PAM  SZ EP   1   2025 27.64                             131   -0.13 7  113  53 
 PAM  SN ES   1   2025 44.58                             131   -0.03 7  113  53 
                                                                                
