 2011  429 2042 27.9 L   6.781 -73.138142.9  RSN 10 0.4 2.3LRSN                1
 GAP=115        0.81       3.8     4.2  6.4 -0.4354E+01  0.4524E+01  0.7528E+01E
 Epicentro: LOS SANTOS - SANTANDER                                             3
 ACTION:UP  11-06-22 15:33 OP:REBC STATUS:               ID:20110429204227 L   I
 2011-04-29-2041-09S.COL___138                                                 6
 STAT SP IPHASW D HRMM SECON CODA AMPLIT PERI AZIMU VELO SNR AR TRES W  DIS CAZ7
 BAR2 SZ EP   1   2042 47.00                             171    -0.2 7   21 193 
 BAR2 SZ ES   1   2043  1.80                             171    -0.4 7   21 193 
 BAR2 SZ I        2043  3.17        44.8 0.16                            21 193 
 GIR2 SZ EP   1   2042 47.19                             166    -0.1 7   34 349 
 BRR  HZ EP   1   2042 49.05                             151     0.2 7   73 300 
 BRR  HN ES   1   2043  5.94                             151     0.8 7   73 300 
 BRR  HZ I        2043 10.37        52.7 0.15                            73 300 
 PAM  SZ EP   1   2042 49.90                             150     0.0 7   78  38 
 PAM  SZ I        2042 50.36        33.6 0.16                            78  38 
 PAM  SN ES   1   2043  6.90                             150    -0.1 7   78  38 
 BRI  SZ EP   1   2042 51.65                             140     0.0 7  110  20 
 BRI  SZ ES   1   2043  9.69                             140    -0.5 7  110  20 
 BRI  SZ I        2043 15.15        42.5 0.34                           110  20 
 GRA  SZ EP   1   2042 53.05                             136     0.0 7  128  17 
 GRA  SZ ES   1   2043 12.81                             136     0.2 7  128  17 
 GRA  SZ I        2043 13.54        47.4 0.32                           128  17 
 YOP  SZ EP   1   2042 57.90                             126     0.4 7  177 153 
 YOP  SN ES   1   2043 20.92                             126     0.3 7  177 153 
 YOP  SZ I        2043 25.59        12.1 0.46                           177 153 
 NOR  SZ EP   1   2043  2.85                             118    -0.6 6  234 235 
 NOR  SN ES   1   2043 30.97                             118    -0.1 6  234 235 
 HEL  HZ EP   1   2043  8.76                             114     0.7 6  272 256 
 HEL  HN ES   1   2043 38.88                             114    -0.4 6  272 256 
 HEL  HZ I        2043 46.19         7.3 0.31                           272 256 
 PRA  HZ EP   1   2043 20.67                             106    -0.5 4  391 210 
                                                                                
