 2010 1129 2224 17.4 L   6.806 -73.098147.6  RSN  6 0.3 1.8LRSN                1
 GAP=181        0.61       4.2     9.2  7.3 -0.1391E+02 -0.2173E+02  0.9262E+01E
 Epicentro: LOS SANTOS - SANTANDER                                             3
 ACTION:UP  10-12-17 16:56 OP:REBC STATUS:               ID:20101129222417 L   I
 2010-11-29-2222-37S.COL___132                                                 6
 STAT SP IPHASW D HRMM SECON CODA AMPLIT PERI AZIMU VELO SNR AR TRES W  DIS CAZ7
 BAR2 SZ EP   2   2224 36.88                             170    -0.4 5   25 202 
 BAR2 SZ I        2224 37.32        11.6 0.21                            25 202 
 BAR2 SZ ES   2   2224 53.02                             170     0.2 5   25 202 
 BRR  HZ EP       2224 39.08                             151     0.110   76 296 
 BRR  HN ES   1   2224 55.49                             151    -0.3 7   76 296 
 BRR  HZ I        2224 59.77        14.7 0.19                            76 296 
 GRA  SZ EP   2   2224 42.33                             138    -0.3 5  124  15 
 GRA  SZ ES   2   2225  2.23                             138    -0.1 5  124  15 
 GRA  SZ I        2225  4.09        10.7 0.58                           124  15 
 OCA  SZ EP   1   2224 45.95                             130     0.1 7  160 351 
 OCA  SZ ES   2   2225  8.69                             130     0.6 5  160 351 
 OCA  SZ I        2225 12.47         7.8 0.38                           160 351 
 NOR  SE ES   3   2225 22.21                             118     0.1 2  239 235 
 CHI  HZ EP   1   2224 55.17                             117    -0.2 6  251 196 
 CHI  HZ I        2224 56.78         1.8 0.37                           251 196 
 CHI  HE ES   2   2225 25.81                             117     0.7 4  251 196 
                                                                                
