 2016  529 2254 23.5 L   6.345 -73.614107.2  RSN 14 0.5 2.1LRSN                1
 GAP= 70        1.27       3.0     3.4  6.3 -0.3159E+01  0.5840E+01  0.1778E+01E
 Epicentro: SANTA HELENA DEL OPON - SANTANDER                                  3
 ACTION:UPD 16-08-18 17:50 OP:cam  STATUS:               ID:20160529225423 L   I
 OLDACT:UP  16-05-30 04:33 OP:drio STATUS:               ID:20160529224744     3
 OLDACT:REG 16-05-30 02:35 OP:drio STATUS:               ID:20160529224744     3
 2016-05-29-2247-44M.COL___316                                                 6
 STAT SP IPHASW D HRMM SECON CODA AMPLIT PERI AZIMU VELO AIN AR TRES W  DIS CAZ7
 BAR2 EZ IP     C 2254 40.01                             151    0.0810 55.1  60 
 BAR2 EZ ES       2254 53.19                             151    0.4510 55.1  60 
 BAR2 EZ I        2254 54.21        67.4 0.18            153           55.1  60 
 RUS  HZ EP       2254 41.25                             142   -0.5410 77.2 130 
 RUS  HE ES       2254 55.67                             142   -0.3710 77.2 130 
 RUS  HZ I        2254 57.26        26.4 0.16            143           77.2 130 
 BRR  HZ EP       2254 41.63                             138   -0.0810 85.0 353 
 BRR  HE ES       2254 56.62                             138    0.7110 85.0 353 
 BRR  HZ I        2254 59.11        22.9 0.14            140           85.0 353 
 SPBC HZ EP       2254 41.68                             136   -0.7210 91.8 214 
 SPBC HE ES       2254 57.85                             136    0.7110 91.8 214 
 SPBC HZ I        2255  1.49        47.1 0.10            136           91.8 214 
 PTB  HZ EP       2254 41.72                             135   -0.9010 95.6 283 
 PTB  HN ES       2254 56.88                             135   -0.6510 95.6 283 
 PTB  HZ I        2254 59.29        40.3 0.28            135           95.6 283 
 PAM  EZ EP       2254 48.11                             121   -0.33 9  149  43 
 PAM  EN ES       2255  7.61                             121   -0.28 9  149  43 
 PAM  EZ I        2255 11.63        14.3 0.26            123            149  43 
 NOR  HZ EP       2254 49.40                             118    0.03 9  164 238 
 NOR  HE ES       2255  9.59                             118    0.04 9  164 238 
 NOR  HZ I        2255 12.32        23.4 0.44            118            164 238 
 CHI  HZ EP       2254 52.20                             115   -0.53 9  190 184 
 CHI  HN ES       2255 16.13                             115    0.60 9  190 184 
 CHI  HZ I        2255 21.89         5.5 0.24            115            190 184 
 OCA  HZ EP       2254 55.46                             112    0.60 8  212   9 
 OCA  HN ES       2255 19.66                             112    0.35 8  212   9 
 OCA  HZ I        2255 25.24        32.4 0.24            112            212   9 
 HEL  HZ EP       2254 55.95                             112    0.76 8  213 266 
 HEL  HE ES       2255 19.36                             112   -0.54 8  213 266 
 HEL  HZ I        2255 24.03        12.5 0.42            112            213 266 
 CBOC HZ EP       2255  2.16                             106    0.49 8  271 259 
 CBOC HN ES       2255 31.54                             106    0.10 8  271 259 
 CBOC HZ I        2255 36.34         4.2 0.26            106            271 259 
 ANIL HZ EP       2255  3.52                             105   -0.00 7  285 224 
 ANIL HE ES   4   2255 36.85                             105    2.12 0  285 224 
 ANIL HZ I        2255 39.73        16.2 0.26            105            285 224 
 PRA  HZ EP       2255  8.32                             102    0.58 7  323 206 
 PRA  HE ES       2255 42.93                             102    0.70 7  323 206 
 PRA  HZ I        2255 47.82         8.5 0.26            102            323 206 
 ORTC HZ EP       2255  7.82                             102   -0.05 7  324 214 
 ORTC HE ES   4   2255 44.49                             102    2.02 0  324 214 
 ORTC HZ I        2255 50.13         6.6 0.28            102            324 214 
                                                                                
