 2016  529 2014 15.3 L   6.791 -73.090148.4  RSN  7 0.4 1.8LRSN                1
 GAP=144        1.12       4.1     5.7  7.1 -0.6167E+01  0.5216E+01 -0.8841E+00E
 Epicentro: LOS SANTOS - SANTANDER                                             3
 ACTION:UPD 16-08-18 17:50 OP:cam  STATUS:               ID:20160529201415 L   I
 OLDACT:DUP 16-05-30 02:55 OP:drio STATUS:               ID:20160529200748d    3
 2016-05-29-2007-44M.COL___316                                                 6
 STAT SP IPHASW D HRMM SECON CODA AMPLIT PERI AZIMU VELO AIN AR TRES W  DIS CAZ7
 BAR2 EZ EP       2014 35.03                             170   -0.2710 24.3 205 
 BAR2 EZ ES       2014 50.58                             170   -0.2910 24.3 205 
 BAR2 EZ I        2014 52.95        13.3 0.24            169           24.3 205 
 PAM  EZ EP       2014 38.01                             152    0.3510 74.4  35 
 PAM  EE ES       2014 55.64                             152    0.5710 74.4  35 
 PAM  EZ I        2014 57.40         7.9 0.20            156           74.4  35 
 BRR  HZ EP       2014 37.24                             151    0.1310 77.1 297 
 BRR  HN ES       2014 54.66                             151    0.5710 77.1 297 
 BRR  HZ I        2014 58.58        11.5 0.14            151           77.1 297 
 RUS  HZ EP       2014 39.17                             145   -0.0910 99.4 180 
 RUS  HE ES       2014 57.55                             145   -0.3710 99.4 180 
 RUS  HZ I        2014 59.02         7.7 0.36            147           99.4 180 
 PTB  HZ EP       2014 43.73                             131    0.68 9  154 260 
 PTB  HE ES       2015  4.26                             131   -0.40 9  154 260 
 PTB  HZ I        2015  8.14         7.0 0.14            132            154 260 
 OCA  HZ EP       2014 43.83                             130   -0.19 9  162 351 
 OCA  HN ES       2015  5.49                             130   -0.90 9  162 351 
 SPBC HZ EP       2014 44.21                             129   -0.13 9  166 221 
 SPBC HE ES       2015  7.19                             129    0.23 9  166 221 
 SPBC HZ I        2015 11.21        13.5 0.34            131            166 221 
                                                                                
