 2013  529 2157 24.8 L   6.806 -73.142147.6  RSN 12 0.5 2.1LRSN                1
 GAP=137        1.22       4.1     5.2  6.4 -0.2530E+01  0.1113E+02  0.7204E+00E
 Epicentro: LOS SANTOS - SANTANDER                                             3
 ACTION:UPD 13-06-20 09:54 OP:ep   STATUS:               ID:20130529215724 L   I
 2013-05-29-2150-00M.COL___261                                                 6
 STAT SP IPHASW D HRMM SECON CODA AMPLIT PERI AZIMU VELO AIN AR TRES W  DIS CAZ7
 BAR2 SZ EP       2157 44.70                             170    0.0010 24.0 191 
 BAR2 SZ ES       2158  0.39                             170    0.2010 24.0 191 
 BAR2 SZ I        2158  2.98        20.0 0.22            166           24.0 191 
 GIR2 SZ EP       2157 44.68                             168   -0.0310 30.7 349 
 GIR2 SZ ES       2157 59.98                             168   -0.2310 30.7 349 
 GIR2 SZ I        2158  2.17        16.6 0.30            164           30.7 349 
 BRR  HZ EP       2157 46.53                             153    0.3510 71.2 298 
 BRR  HN ES       2158  3.86                             153    1.0310 71.2 298 
 BRR  HZ I        2158  7.24        25.0 0.32            146           71.2 298 
 PAM  SZ EP       2157 47.55                             151    0.3510 76.6  40 
 PAM  SN ES       2158  4.63                             151   -0.0110 76.6  40 
 PAM  SZ I        2158  6.89        16.3 0.20            152           76.6  40 
 RUS  HZ EP       2157 48.56                             144   -0.2510  101 176 
 RUS  HN ES       2158  7.17                             144   -0.3410  101 176 
 RUS  HZ I        2158  8.65         6.6 0.20            141            101 176 
 PTB  HZ EP       2157 51.11                             132   -0.88 9  148 259 
 PTB  HN ES       2158 12.61                             132   -0.57 9  148 259 
 PTB  HZ I        2158 18.58        22.3 0.27            126            148 259 
 OCA  HN ES   1   2158 14.56                             130   -0.82 7  160 353 
 ZAR  HE ES   1   2158 22.82                             123    0.00 6  204 292 
 ZAR  HZ I        2158 29.23        21.1 0.58            118            204 292 
 NOR  HZ EP       2158  0.55                             119   -0.19 8  235 234 
 NOR  HN ES       2158 28.98                             119    0.23 8  235 234 
 NOR  HZ I        2158 32.43        17.7 0.20            114            235 234 
 SML  HZ EP       2158  2.12                             118    0.61 8  243 335 
 SML  HN ES       2158 29.38                             118   -0.74 8  243 335 
 HEL  HZ EP   1   2158  6.15                             115    0.95 6  273 256 
 HEL  HZ I        2158 45.38         7.7 0.26            111            273 256 
 GUY2CHZ EP       2158  9.21                             113    0.61 7  302 235 
 GUY2CHN ES   4   2158 40.75                             113   -1.99 0  302 235 
 GUY2CHZ I        2158 49.66         9.5 0.38                           302 235 
                                                                                
