 2017  829 2036 21.8 L   6.769 -73.112147.0  RSN  7 0.2 1.7LRSN                1
 GAP=142        0.43       2.2     2.5  3.6  0.1095E+01  0.1053E+01  0.5662E+00E
 Epicentro: LOS SANTOS - SANTANDER                                             3
 ACTION:UPD 17-09-04 20:26 OP:rebc STATUS:               ID:20170829203621 L   I
 OLDACT:UP  17-08-30 03:23 OP:and  STATUS:               ID:20170829202747d    3
 OLDACT:DUP 17-08-30 03:21 OP:and  STATUS:               ID:20170829202747d    3
 OLDACT:UP  17-08-30 03:21 OP:and  STATUS:               ID:20170829202746     3
 OLDACT:UP  17-08-30 03:21 OP:and  STATUS:               ID:20170829202746     3
 OLDACT:UP  17-08-30 03:19 OP:and  STATUS:               ID:20170829202746     3
 OLDACT:REG 17-08-30 02:44 OP:and  STATUS:               ID:20170829202746     3
 2017-08-29-2028-00M.COL___417                                                 6
 STAT SP IPHASW D HRMM SECON CODA AMPLIT PERI AZIMU VELO AIN AR TRES W  DIS CAZ7
 BAR2 EZ EP       2036 41.52                             172   -0.0110 21.0 202 
 BAR2 EZ ES   2   2036 56.59                             172   -0.33 5 21.0 202 
 BAR2 EZ I        2036 57.57        16.3 0.26            170           21.0 202 
 BRR  HZ EP       2036 43.27                             151   -0.0910 76.1 299 
 BRR  HN ES       2037  0.44                             151    0.2710 76.1 299 
 PAM  EZ IP     C 2036 44.31                             151    0.1510 77.8  36 
 PAM  EN ES   2   2037  1.37                             151   -0.24 5 77.8  36 
 PAM  EZ I        2037  3.20         5.6 0.18            153           77.8  36 
 RUS  HZ EP       2036 45.50                             145    0.0910 97.0 178 
 RUS  HN ES       2037  3.78                             145   -0.0510 97.0 178 
 RUS  HZ I        2037  4.95         6.8 0.22            146           97.0 178 
 SPBC HZ EP   2   2036 50.28                             129   -0.08 5  163 221 
 SPBC HN ES   2   2037 12.40                             129   -0.25 5  163 221 
 SPBC HZ I        2037 13.74         7.3 0.12            129            163 221 
 ZAR  HN ES       2037 20.25                             122   -0.31 8  209 293 
 ZAR  HZ I        2037 25.48         7.5 0.54            122            209 293 
 NOR  HZ EP       2036 57.71                             119   -0.00 8  236 236 
 NOR  HN ES   2   2037 26.19                             119    0.46 4  236 236 
 NOR  HZ I        2037 30.57         2.5 0.34            119            236 236 
                                                                                
