 2010  329 2126  4.5 L   6.802 -73.022138.6  RSN  8 0.4 2.2LRSN                1
 GAP=195        0.64       2.8     6.9  5.2  0.1388E+01  0.3328E+01 -0.3483E+00E
 Epicentro: CEPITA - SANTANDER                                                 3
 ACTION:UP  10-08-24 09:56 OP:vdl  STATUS:               ID:20100329212604 L   I
 2010-03-29-2124-12S.COL___098                                                 6
 STAT SP IPHASW D HRMM SECON CODA AMPLIT PERI AZIMU VELO SNR AR TRES W  DIS CAZ7
 BAR2 SZ EP       2126 23.58                             168     0.210   29 218 
 BAR2 SZ ES   1   2126 37.71                             168    -0.5 7   29 218 
 BRR  HZ EP       2126 25.59                             147    -0.110   83 294 
 BRR  HN ES   1   2126 42.43                             147     0.3 7   83 294 
 BRR  HZ I        2126 44.09        43.7 0.13                            83 294 
 RUS  HZ EP   1   2126 27.52                             142    -0.1 7  101 184 
 RUS  HE ES   1   2126 45.80                             142     0.2 7  101 184 
 RUS  HZ I        2126 46.92        21.2 0.27                           101 184 
 OCA  SZ IP       2126 32.38                             128    -0.1 9  162 348 
 OCA  SZ ES   1   2126 54.48                             128     0.2 7  162 348 
 CHI  HZ EP   1   2126 42.32                             115     0.0 6  253 198 
 CHI  HN ES   2   2127 11.26                             115    -0.5 4  253 198 
 CHI  HZ I        2127 14.45         5.8 0.35                           253 198 
 RREF BZ EP   2   2126 52.48                             109     0.9 3  332 231 
 RREF BE ES   2   2127 28.38                             109     0.1 3  332 231 
 RREF BZ I        2127 36.41         8.3 0.26                           332 231 
 DBB  SZ EP   1   2126 52.43                             107    -0.9 5  353 274 
 PRA  HE ES   2   2127 41.29                             105     0.5 3  399 211 
                                                                                
