 2015  329 2147 27.1 L   6.399 -73.603102.8  RSN  4 0.4 1.4LRSN                1
 GAP=145        0.99       9.5     5.0  9.8  0.1985E+02  0.1789E+02  0.3389E+01E
 Epicentro: SANTA HELENA DEL OPON - SANTANDER                                  3
 ACTION:UPD 15-04-30 16:30 OP:nd   STATUS:               ID:20150329214727 L   I
 OLDACT:REG 15-03-30 07:43 OP:cam  STATUS:               ID:20150329213749     3
 2015-03-29-2137-49M.COL___287                                                 6
 STAT SP IPHASW D HRMM SECON CODA AMPLIT PERI AZIMU VELO AIN AR TRES W  DIS CAZ7
 BAR2 EZ EP     D 2147 42.80                             152   -0.0510 51.2  65 
 BAR2 EZ ES       2147 54.95                             152   -0.1610 51.2  65 
 BAR2 EZ I        2147 56.61        12.8 0.32            154           51.2  65 
 RUS  HZ EP   1   2147 45.99                             139    0.76 7 80.3 134 
 PTB  HZ EP       2147 45.49                             133   -0.3810 95.7 279 
 PTB  HN ES       2148  0.52                             133    0.0210 95.7 279 
 PTB  HZ I        2148  3.89         3.1 0.18            134           95.7 279 
 ZAR  HZ EP       2147 54.47                             114   -0.46 9  184 311 
 ZAR  HN ES       2148 17.27                             114    0.64 9  184 311 
 ZAR  HZ I        2148 22.08         3.2 0.24            115            184 311 
                                                                                
