 2016 1229 2101 49.6 L   6.787 -73.165136.5  RSN  8 0.3 1.9LRSN                1
 GAP=135        0.79       3.0     3.2  5.1 -0.9867E+00  0.7053E+01  0.1868E+01E
 Epicentro: LOS SANTOS - SANTANDER                                             3
 ACTION:UPD 17-01-11 20:20 OP:rebc STATUS:               ID:20161229210149 L   I
 OLDACT:REG 16-12-30 02:38 OP:cara STATUS:               ID:20161229205749     3
 2016-12-29-2058-00M.COL___384                                                 6
 STAT SP IPHASW D HRMM SECON CODA AMPLIT PERI AZIMU VELO AIN AR TRES W  DIS CAZ7
 BAR2 EZ EP       21 2  8.30                             171    0.2010 21.6 185 
 BAR2 EZ ES       21 2 22.55                             171    0.0310 21.6 185 
 BAR2 EZ I        21 2 24.95        17.9 0.38            169           21.6 185 
 PAM  EZ EP       21 2 11.02                             148    0.0110 79.8  40 
 PAM  EN ES       21 2 27.90                             148    0.2010 79.8  40 
 PAM  EZ I        21 2 30.42        12.0 0.56            155           79.8  40 
 RUS  HZ EP       21 2 12.23                             142   -0.1410 99.3 175 
 RUS  HN ES       21 2 29.89                             142   -0.2310 99.3 175 
 RUS  HZ I        21 2 32.60         7.5 0.30            145           99.3 175 
 PTB  HZ EP       21 2 14.80                             130   -0.83 9  145 259 
 PTB  HN ES       21 2 35.64                             130   -0.28 9  145 259 
 PTB  HZ I        21 2 43.85        10.9 0.46            131            145 259 
 ZAR  HZ EP       21 2 21.65                             120    0.32 9  203 293 
 ZAR  HN ES       21 2 46.18                             120    0.11 9  203 293 
 ZAR  HZ I        21 2 52.71        10.3 0.28            123            203 293 
 NOR  HZ EP       21 2 24.57                             117    0.02 8  232 234 
 NOR  HN ES       21 2 51.77                             117   -0.03 8  232 234 
 NOR  HZ I        21 2 57.62         7.5 0.22            119            232 234 
 CHI  HZ EP       21 2 26.51                             115   -0.10 8  247 195 
 CHI  HN ES       21 2 55.85                             115    0.40 8  247 195 
 CHI  HZ I        21 3  1.90         3.2 0.50            118            247 195 
 GUY2CHZ EP       21 2 32.56                             111    0.03 7  299 235 
 GUY2CHN ES       21 3  6.77                             111    0.78 7  299 235 
 GUY2CHZ I        21 3 15.21         6.9 0.72                           299 235 
                                                                                
