 2017 1229 2145 18.8 L   6.797 -73.163135.6  RSN  5 0.4 1.3LRSN                1
 GAP=145        1.05       7.9     5.9  9.2 -0.2345E+02  0.2957E+02 -0.1664E+02E
 Epicentro: LOS SANTOS - SANTANDER                                             3
 ACTION:UPD 18-01-04 13:25 OP:rebc STATUS:               ID:20171229214518 L   I
 OLDACT:UP  17-12-30 07:24 OP:edw  STATUS:               ID:20171229213541     3
 OLDACT:REG 17-12-30 02:52 OP:edw  STATUS:               ID:20171229213541     3
 2017-12-29-2138-00M.COL___463                                                 6
 STAT SP IPHASW D HRMM SECON CODA AMPLIT PERI AZIMU VELO AIN AR TRES W  DIS CAZ7
 BAR2 EZ ES       2145 51.39                             170   -0.1710 22.7 186 
 PAM  EZ EP       2145 39.86                             148   -0.2010 78.9  40 
 PAM  EN ES       2145 56.90                             148    0.2810 78.9  40 
 PAM  EZ I        2145 58.73         4.0 0.40            148           78.9  40 
 PTB  HZ EP       2145 44.17                             130   -0.63 9  146 259 
 PTB  HN ES       2146  5.44                             130    0.38 9  146 259 
 PTB  HZ I        2146  7.63         1.8 0.48            131            146 259 
 ZAR  HZ EP       2145 51.21                             120    0.75 9  202 292 
 ZAR  HN ES       2146 14.63                             120   -0.50 9  202 292 
 ZAR  HZ I        2146 20.21         3.5 0.26            120            202 292 
 GUY2CHN ES       2146 35.54                             110    0.25 7  299 235 
                                                                                
