 2011 1029 2011 15.8 L   6.777 -73.130145.9  RSN 11 0.4 2.4LRSN                1
 GAP=140        0.75       3.9     4.4  5.4 -0.1910E+01  0.7701E+01  0.2416E+01E
 Epicentro: LOS SANTOS - SANTANDER                                             3
 ACTION:UPD 12-07-13 16:06 OP:ep   STATUS:               ID:20111029201115 L   I
 2011-10-29-2008-28S.COL___157                                                 6
 STAT SP IPHASW D HRMM SECON CODA AMPLIT PERI AZIMU VELO AIN AR TRES W  DIS CAZ7
 BAR2 SZ EP   1   2011 35.38                             171   -0.05 7 21.3 196 
 BAR2 SZ ES   1   2011 50.76                             171    0.04 7 21.3 196 
 BAR2 SZ I        2011 51.93        83.1 0.30                          21.3 196 
 BRR  HZ EP   1   2011 37.27                             152    0.13 7 73.9 300 
 BRR  HE ES   1   2011 54.40                             152    0.64 7 73.9 300 
 BRR  HZ I        2011 56.37        43.7 0.14                          73.9 300 
 PAM  SZ EP       2011 38.34                             151    0.2410 78.3  37 
 PAM  SN ES   1   2011 55.13                             151   -0.35 7 78.3  37 
 RUS  HZ EP       2011 39.32                             145   -0.0810 98.0 177 
 RUS  HN ES   1   2011 57.59                             145   -0.20 7 98.0 177 
 RUS  HZ I        2011 59.31        20.5 0.42                          98.0 177 
 OCA  SZ EP   1   2011 44.33                             129   -0.06 7  163 353 
 OCA  SZ I        2012 10.13        19.9 0.26                           163 353 
 ZAR  HZ EP   2   2011 47.85                             122   -0.68 4  207 293 
 ZAR  HN ES   1   2012 13.33                             122   -0.72 6  207 293 
 NOR  SZ EP   1   2011 50.86                             118   -0.69 6  235 235 
 NOR  SN ES   1   2012 19.42                             118    0.00 6  235 235 
 HEL  HZ EP   1   2011 56.49                             115    0.34 6  273 256 
 HEL  HZ I        2012 34.90        11.3 0.24                           273 256 
 GUY  SZ EP   1   2012  0.38                             112    0.69 5  303 236 
 GUY  SZ I        2012 40.98        16.9 0.57                           303 236 
 RREF HZ EP   1   2012  2.72                             111    0.79 5  321 230 
 RREF HZ I        2012 44.81        10.3 0.19                           321 230 
 PRA  HZ EP   1   2012  8.72                             107   -0.47 4  391 210 
                                                                                
