 2010  429 2241 32.2 L   6.796 -72.923144.2  RSN  5 0.3 2.4LRSN                1
 GAP=243        0.57       4.7     8.2  5.3 -0.2275E+02  0.9117E+00  0.1214E+01E
 Epicentro: CEPITA - SANTANDER                                                 3
 ACTION:UP  10-08-24 10:01 OP:vdl  STATUS:               ID:20100429224132 L   I
 2010-04-29-2238-45S.COL___104                                                 6
 STAT SP IPHASW D HRMM SECON CODA AMPLIT PERI AZIMU VELO SNR AR TRES W  DIS CAZ7
 BAR2 SZ EP   2   2241 52.08                             165     0.1 5   37 232 
 BAR2 SZ ES   1   2242  7.44                             165     0.0 7   37 232 
 BRR  HZ IP     C 2241 54.71                             145     0.110   94 292 
 BRR  HZ I        2241 55.00        44.6 0.19                            94 292 
 BRR  HN ES   1   2242 12.12                             145     0.0 7   94 292 
 OCA  SZ EP       2242  0.66                             128    -0.2 9  165 345 
 OCA  SZ ES   2   2242 23.66                             128     0.4 5  165 345 
 OCA  SZ I        2242 29.15        33.3 0.62                           165 345 
 RREF BZ EP   1   2242 21.20                             109     0.7 5  341 232 
 RREF BN ES       2242 57.86                             109    -0.2 7  341 232 
 RREF BZ I        2243  0.77         6.9 0.11                           341 232 
 TOL  SZ EP   2   2242 21.96                             108    -0.5 3  361 227 
                                                                                
