 2016 1029 2124 27.9 L   6.804 -73.106156.0  RSN  4 0.3 1.3LRSN                1
 GAP=141        0.75       4.5     6.3  6.5 -0.1210E+01 -0.1487E+01 -0.2692E+01E
 Epicentro: LOS SANTOS - SANTANDER                                             3
 ACTION:UPD 16-11-09 19:24 OP:rebc STATUS:               ID:20161029212427 L   I
 OLDACT:UP  16-10-30 04:28 OP:and  STATUS:               ID:20161029211747     3
 OLDACT:REG 16-10-30 02:57 OP:and  STATUS:               ID:20161029211747     3
 2016-10-29-2118-00M.COL___322                                                 6
 STAT SP IPHASW D HRMM SECON CODA AMPLIT PERI AZIMU VELO AIN AR TRES W  DIS CAZ7
 BAR2 EZ EP       2124 48.49                             171   -0.3210 24.9 200 
 BAR2 EZ ES       2125  5.59                             171    0.4810 24.9 200 
 PAM  EZ EP       2124 51.22                             153    0.1510 74.3  37 
 PAM  EN ES       2125  8.99                             153   -0.1310 74.3  37 
 PAM  EZ I        2125 10.81         4.1 0.44            153           74.3  37 
 BRR  HZ EP       2124 50.44                             153    0.0510 74.9 297 
 BRR  HE ES       2125  7.78                             153   -0.1310 74.9 297 
 RUS  HZ EP   2   2124 53.39                             146    0.68 5  101 179 
 RUS  HN ES       2125 11.75                             146   -0.2810  101 179 
 RUS  HZ I        2125 12.61         2.1 0.24            147            101 179 
                                                                                
