 2014 1229 2211  1.0 L   6.791 -73.153150.6  RSN 14 0.4 2.0LRSN                1
 GAP= 71        0.84       2.6     3.1  4.9 -0.4942E+00  0.4936E-01  0.6336E+00E
 Epicentro: LOS SANTOS - SANTANDER                                             3
 ACTION:UPD 15-02-10 17:08 OP:nd   STATUS:               ID:20141229221101 L   I
 OLDACT:UP  14-12-30 08:53 OP:spq  STATUS:               ID:20141229220749     3
 OLDACT:REG 14-12-30 04:56 OP:spq  STATUS:               ID:20141229220749     3
 2014-12-29-2207-49M.COL___286                                                 6
 STAT SP IPHASW D HRMM SECON CODA AMPLIT PERI AZIMU VELO AIN AR TRES W  DIS CAZ7
 BAR2 EZ EP       2211 21.02                             171   -0.1210 22.2 188 
 BAR2 EZ ES   1   2211 36.56                             171   -0.33 7 22.2 188 
 BAR2 EZ I        2211 37.24        20.3 0.16            170           22.2 188 
 BRR  HZ EP   1   2211 23.16                             153    0.54 7 71.0 300 
 BRR  HN ES       2211 40.32                             153    0.8110 71.0 300 
 BRR  HZ I        2211 44.21        16.9 0.15            150           71.0 300 
 PAM  SZ EP       2211 24.02                             151    0.2610 78.7  39 
 PAM  SE ES       2211 41.24                             151   -0.3110 78.7  39 
 PAM  SZ I        2211 43.26        15.9 0.64            153           78.7  39 
 RUS  HZ EP       2211 24.89                             145   -0.2310 99.6 176 
 RUS  HE ES       2211 44.01                             145    0.0510 99.6 176 
 RUS  HZ I        2211 45.11         9.2 0.24            145           99.6 176 
 PTB  HZ EP   1   2211 27.81                             133   -0.43 7  147 259 
 PTB  HN ES       2211 48.92                             133   -0.59 9  147 259 
 PTB  HZ I        2211 51.02        11.4 0.14            131            147 259 
 TAM  HZ EP       2211 29.21                             131    0.15 9  156 105 
 OCA  HZ EP       2211 29.65                             130   -0.08 9  161 353 
 OCA  HN ES   1   2211 51.86                             130   -0.32 7  161 353 
 OCA  HZ I        2211 54.69        12.9 0.22            130            161 353 
 SPBC HZ EP       2211 29.88                             130    0.17 9  162 219 
 SPBC HE ES       2211 52.04                             130   -0.09 9  162 219 
 SPBC HZ I        2211 54.40        18.3 0.24            129            162 219 
 ZAR  HE ES       2211 59.66                             123    0.44 9  204 292 
 ZAR  HZ I        2212  5.20        10.8 0.36            122            204 292 
 SML  HZ EP   1   2211 37.79                             118   -0.13 6  244 336 
 SML  HE ES   1   2212  6.23                             118   -0.53 6  244 336 
 SML  HZ I        2212 10.47        17.4 0.22            118            244 336 
 CHI  HZ EP       2211 39.05                             118    0.25 8  247 195 
 CHI  HN ES   1   2212  8.49                             118    0.18 6  247 195 
 CHI  HZ I        2212 13.76         2.5 0.32            118            247 195 
 HEL  HZ EP   4   2211 42.80                             116    1.49 0  271 256 
 HEL  HE ES   1   2212 12.37                             116   -0.41 6  271 256 
 HEL  HZ I        2212 20.36         4.5 0.40            115            271 256 
 TOL  SZ EP   4   2211 50.45                             110    1.19 0  342 225 
 TOL  SN ES   4   2212 28.76                             110    1.82 0  342 225 
 TOL  SZ I        2212 33.57         8.4 0.50            110            342 225 
 SJC  HZ EP   4   2211 55.41                             106   -1.32 0  410 327 
 SJC  HN ES   4   2212 36.23                             106   -4.01 0  410 327 
 SJC  HZ I        2212 44.63         2.8 0.48            106            410 327 
                                                                                
