 2014  529 2154  8.5 L   6.868 -73.154140.5  RSN 15 0.5 2.1LRSN                1
 GAP=132        1.03       3.3     3.9  5.7 -0.2205E+01  0.7874E+01  0.2977E+01E
 Epicentro: LOS SANTOS - SANTANDER                                             3
 ACTION:UPD 15-03-16 17:01 OP:nd   STATUS:               ID:20140529215408 L   I
 OLDACT:REG 14-05-30 05:27 OP:spq  STATUS:               ID:20140529214811     3
 2014-05-29-2148-11M.COL___256                                                 6
 STAT SP IPHASW D HRMM SECON CODA AMPLIT PERI AZIMU VELO AIN AR TRES W  DIS CAZ7
 BAR2 SZ EP   1   2154 26.80                             167   -0.84 7 30.6 186 
 BAR2 SZ ES   1   2154 42.27                             167   -0.32 7 30.6 186 
 BAR2 SZ I        2154 43.74        14.6 0.12            165           30.6 186 
 BRR  HZ EP       2154 29.25                             153    0.4310 67.1 293 
 BRR  HE ES       2154 45.35                             153    0.6610 67.1 293 
 BRR  HZ I        2154 52.31        13.5 0.38            150           67.1 293 
 PAM  SZ EP       2154 30.12                             151    0.2910 72.4  44 
 PAM  SE ES       2154 46.50                             151    0.0210 72.4  44 
 PAM  SZ I        2154 48.97        26.2 0.34            158           72.4  44 
 RUS  HZ EP       2154 32.54                             141    0.2710  108 176 
 RUS  HN ES       2154 50.62                             141   -0.2210  108 176 
 RUS  HZ I        2154 52.31         8.5 0.40            143            108 176 
 PTB  HZ EP       2154 34.28                             131   -0.80 9  149 256 
 PTB  HE ES       2154 55.80                             131   -0.04 9  149 256 
 PTB  HZ I        2154 58.50        15.6 0.16            130            149 256 
 SPBC HE ES   1   2154 59.38                             127   -0.03 7  169 217 
 SPBC HZ I        2155  4.29        24.0 0.10            128            169 217 
 ZAR  HZ EP       2154 40.13                             122   -0.08 9  201 290 
 ZAR  HE ES       2155  5.08                             122    0.11 9  201 290 
 ZAR  HZ I        2155 10.88        13.5 0.26            122            201 290 
 SML  HZ EP   1   2154 43.83                             117   -0.20 6  237 335 
 SML  HE ES   1   2155 10.75                             117   -1.01 6  237 335 
 SML  HZ I        2155 16.07        14.9 0.10            119            237 335 
 NOR  HZ EP       2154 43.83                             117   -0.47 8  238 233 
 NOR  HN ES       2155 12.06                             117   -0.19 8  238 233 
 NOR  HZ I        2155 19.25         9.4 0.16            118            238 233 
 HEL  HZ EP   4   2154 49.91                             114    1.37 0  273 254 
 HEL  HN ES   1   2155 20.25                             114    0.46 6  273 254 
 HEL  HZ I        2155 25.90         5.6 0.26            115            273 254 
 GUY2CHZ EP       2154 53.09                             111    0.83 7  305 234 
 GUY2CHN ES       2155 25.60                             111   -0.81 7  305 234 
 GUY2CHZ I        2155 33.96         4.3 0.26                           305 234 
 RREF HZ EP       2154 55.63                             110    0.75 7  326 228 
 RREF HN ES       2155 31.48                             110    0.41 7  326 228 
 RREF HZ I        2155 42.63         4.3 0.28            111            326 228 
 TOL  SZ EP   1   2154 57.84                             108    0.77 5  348 224 
 TOL  SE ES   1   2155 34.91                             108   -0.07 5  348 224 
 TOL  SZ I        2155 43.46         6.8 0.25            110            348 224 
 PRA  HZ EP   1   2155  2.50                             105   -0.03 4  398 209 
 PRA  HE ES       2155 44.53                             105   -0.16 6  398 209 
 PRA  HZ I        2155 51.27         5.7 0.28            107            398 209 
 SJC  HN ES   4   2155 39.81                             105   -5.85 0  402 326 
 SJC  HZ I        2155 45.87         2.4 0.56            107            402 326 
                                                                                
