 2016 1229 2314  3.2 L   6.788 -73.172142.7  RSN 14 0.3 2.3LRSN                1
 GAP=100        0.68       2.5     2.4  3.7 -0.5599E-01  0.1585E+01  0.2033E+01E
 Epicentro: LOS SANTOS - SANTANDER                                             3
 ACTION:UPD 17-01-11 20:20 OP:rebc STATUS:               ID:20161229231403 L   I
 OLDACT:REG 16-12-30 03:07 OP:cara STATUS:               ID:20161229230747     3
 2016-12-29-2308-00M.COL___381                                                 6
 STAT SP IPHASW D HRMM SECON CODA AMPLIT PERI AZIMU VELO AIN AR TRES W  DIS CAZ7
 BAR2 EZ EP       2314 22.46                             171    0.0110 21.6 183 
 BAR2 EZ ES       2314 37.12                             171   -0.3310 21.6 183 
 BAR2 EZ I        2314 39.54        57.8 0.30            168           21.6 183 
 BRR  HZ EP     D 2314 24.44                             153    0.5110 69.3 301 
 BRR  HN ES       2314 40.56                             153    0.4710 69.3 301 
 BRR  HZ I        2314 45.35        36.4 0.30            150           69.3 301 
 PAM  EZ EP     D 2314 25.27                             149   -0.0210 80.3  41 
 PAM  EN ES       2314 42.47                             149   -0.0410 80.3  41 
 PAM  EZ I        2314 44.63        63.4 0.48            155           80.3  41 
 RUS  HZ EP       2314 26.50                             143   -0.0910 99.5 174 
 RUS  HN ES       2314 44.84                             143    0.0210 99.5 174 
 RUS  HZ I        2314 46.34        67.3 0.32            145           99.5 174 
 PTB  HZ EP       2314 29.18                             132   -0.47 9  145 259 
 PTB  HN ES       2314 50.22                             132   -0.05 9  145 259 
 PTB  HZ I        2314 57.22        27.9 0.66            131            145 259 
 TAM  HZ EP       2314 30.87                             129   -0.02 9  158 104 
 ZAR  HZ EP       2314 35.02                             122   -0.22 9  202 293 
 ZAR  HN ES       2314 59.89                             122   -0.33 9  202 293 
 ZAR  HZ I        2315  9.26        18.8 0.24            122            202 293 
 NOR  HZ EP       2314 38.45                             118    0.02 8  232 234 
 NOR  HE ES       2315  5.87                             118   -0.02 8  232 234 
 NOR  HZ I        2315 14.29        15.9 0.16            119            232 234 
 CHI  HZ EP       2314 40.55                             117    0.03 8  247 195 
 CHI  HN ES       2315  9.74                             117    0.12 8  247 195 
 CHI  HZ I        2315 13.46        12.6 0.46            118            247 195 
 GUY2CHZ EP       2314 46.84                             112    0.51 7  298 235 
 GUY2CHN ES   4   2315 22.01                             112    2.06 0  298 235 
 GUY2CHZ I        2315 28.59        12.0 0.26                           298 235 
 VIL  EZ EP   4   2314 45.29                             112   -0.99 0  301 191 
 VIL  HE ES   4   2315 16.76                             112   -3.11 0  301 191 
 VIL  EZ I        2315 22.91        15.1 0.42            113            301 191 
 CBOC HZ EP   4   2314 50.99                             109    1.35 0  330 252 
 CBOC HN ES   4   2315 25.17                             109   -0.68 0  330 252 
 CBOC HZ I        2315 31.98         3.5 0.46            110            330 252 
 ORTC HZ EP   4   2314 55.95                             106   -0.75 0  393 216 
 ORTC HN ES   4   2315 40.05                             106    1.63 0  393 216 
 ORTC HZ I        2315 43.76         7.1 0.34            107            393 216 
 SJC  HZ EP   4   2314 57.17                             105   -1.46 0  409 327 
 SJC  HN ES   4   2315 34.85                             105   -7.00 0  409 327 
 SJC  HZ I        2315 42.15         4.4 0.64            107            409 327 
                                                                                
