 2011  529 2138 55.7 L   6.806 -73.083139.4  RSN  4 0.1 1.4LRSN                1
 GAP=166        0.43       5.5     9.8  8.1  0.3727E+02 -0.3835E+02 -0.6910E+01E
 Epicentro: LOS SANTOS - SANTANDER                                             3
 ACTION:UP  11-06-29 08:57 OP:tino STATUS:               ID:20110529213855 L   I
 2011-05-29-2135-50S.COL___113                                                 6
 STAT SP IPHASW D HRMM SECON CODA AMPLIT PERI AZIMU VELO SNR AR TRES W  DIS CAZ7
 BAR2 SZ EP       2139 14.60                             169     0.010   26 205 
 BAR2 SZ I        2139 14.91         5.4 0.09                            26 205 
 BRR  HZ EP       2139 16.35                             149    -0.110   77 296 
 BRR  HN ES   1   2139 32.85                             149     0.1 7   77 296 
 BRR  HZ I        2139 34.03         9.2 0.04                            77 296 
 RUS  HZ EP       2139 18.96                             142     0.110  101 180 
 RUS  HN ES   2   2139 36.60                             142    -0.3 5  101 180 
 RUS  HZ I        2139 38.60         3.1 0.23                           101 180 
 GRA  SZ ES   3   2139 39.20                             136     0.0 2  123  14 
                                                                                
