 2010  629 2302  1.5 L   6.772 -73.110146.0  RSN  5 0.2 2.4LRSN                1
 GAP=160        0.64       3.1     6.2  5.8  0.1309E+01 -0.1359E+02 -0.4278E+01E
 Epicentro: LOS SANTOS - SANTANDER                                             3
 ACTION:UP  10-08-24 10:14 OP:vdl  STATUS:               ID:20100629230201 L   I
 2010-06-29-2256-24S.COL___118                                                 6
 STAT SP IPHASW D HRMM SECON CODA AMPLIT PERI AZIMU VELO SNR AR TRES W  DIS CAZ7
 BAR2 SZ EP       23 2 21.07                             171    -0.110   22 202 
 BAR2 SZ ES   1   23 2 35.83                             171    -0.6 7   22 202 
 BRR  HZ EP       23 2 22.83                             151    -0.110   76 299 
 BRR  HN ES       23 2 39.91                             151     0.210   76 299 
 BRR  HZ I        23 2 43.95        81.7 0.03                            76 299 
 RUS  HZ EP       23 2 25.11                             145     0.110   97 178 
 RUS  HN ES       23 2 43.61                             145     0.210   97 178 
 RUS  HZ I        23 2 45.21        27.0 0.74                            97 178 
 BRI  SZ EP       23 2 25.55                             141     0.010  110  18 
 BRI  SZ ES   1   23 2 44.60                             141     0.3 7  110  18 
 GRA  SZ EP       23 2 26.81                             137    -0.110  128  15 
                                                                                
