 2011 1129 2234 18.0 L   6.771 -73.120147.6  RSN  5 0.3 1.7LRSN                1
 GAP=141        0.66       4.3     6.8  6.1 -0.4055E+01 -0.2786E+01  0.4266E+01E
 Epicentro: LOS SANTOS - SANTANDER                                             3
 ACTION:UPD 12-07-13 16:13 OP:ep   STATUS:               ID:20111129223418 L   I
 2011-11-29-2231-41S.COL___160                                                 6
 STAT SP IPHASW D HRMM SECON CODA AMPLIT PERI AZIMU VELO AIN AR TRES W  DIS CAZ7
 BAR2 SZ EP   1   2234 37.58                             172   -0.28 7 20.9 199 
 BAR2 SZ ES   1   2234 52.80                             172   -0.51 7 20.9 199 
 BAR2 SZ I        2234 54.43        15.3 0.19                          20.9 199 
 BRR  HZ EP   1   2234 39.53                             151   -0.10 7 75.3 300 
 BRR  HE ES   1   2234 56.76                             151    0.29 7 75.3 300 
 BRR  HZ I        2235  0.35        15.0 0.37                          75.3 300 
 PAM  SZ EP       2234 40.78                             151    0.2710 78.2  36 
 PAM  SZ I        2234 40.93         6.7 0.18                          78.2  36 
 PAM  SE ES   1   2234 57.83                             151   -0.20 7 78.2  36 
 RUS  HZ EP   1   2234 41.86                             145    0.12 7 97.2 178 
 RUS  HN ES   1   2235  0.66                             145    0.43 7 97.2 178 
 RUS  HZ I        2235  1.77         5.8 0.20                          97.2 178 
 CHI  HZ EP   1   2234 55.22                             118   -0.38 6  246 196 
 CHI  HZ I        2235 28.32         2.7 0.39                           246 196 
                                                                                
