 2013 1029 2105 35.5 L   6.787 -73.152148.0  RSN  8 0.3 2.1LRSN                1
 GAP=136        0.84       3.4     3.8  5.3 -0.1620E+01  0.4966E+01  0.3422E+01E
 Epicentro: LOS SANTOS - SANTANDER                                             3
 ACTION:UPD 13-11-25 09:24 OP:ep   STATUS:               ID:20131029210535 L   I
 OLDACT:UP  13-10-29 22:35 OP:cam  STATUS:               ID:20131029205847     3
 OLDACT:REG 13-10-29 22:18 OP:cam  STATUS:               ID:20131029205847     3
 2013-10-29-2058-47M.COL___224                                                 6
 STAT SP IPHASW D HRMM SECON CODA AMPLIT PERI AZIMU VELO AIN AR TRES W  DIS CAZ7
 BAR2 SZ EP       21 5 55.32                             171   -0.0710 21.8 189 
 BAR2 SZ ES       21 6 10.48                             171   -0.4110 21.8 189 
 BAR2 SZ I        21 6 11.57        88.2 0.24            171           21.8 189 
 BRR  HZ EP       21 5 57.09                             153    0.1710 71.3 300 
 BRR  HN ES       21 6 14.48                             153    0.8710 71.3 300 
 BRR  HZ I        21 6 18.05        21.4 0.42            151           71.3 300 
 PAM  SZ EP       21 5 58.10                             151    0.0410 78.9  39 
 PAM  SN ES       21 6 15.51                             151   -0.1410 78.9  39 
 PAM  SZ I        21 6 17.51        11.7 0.36            154           78.9  39 
 RUS  HZ EP       21 5 59.45                             145    0.0510 99.2 176 
 RUS  HN ES       21 6 17.99                             145   -0.0310 99.2 176 
 RUS  HZ I        21 6 19.01        15.5 0.48            147           99.2 176 
 PTB  HZ EP       21 6  2.17                             133   -0.42 9  147 259 
 PTB  HN ES       21 6 23.28                             133   -0.42 9  147 259 
 PTB  HZ I        21 6 25.95        10.8 0.30            132            147 259 
 ZAR  HZ EP   1   21 6  7.94                             123   -0.16 6  204 293 
 ZAR  HN ES   2   21 6 33.13                             123   -0.39 4  204 293 
 ZAR  HZ I        21 6 39.14        13.6 0.12            123            204 293 
 NOR  HZ EP       21 6 11.50                             119    0.27 8  233 235 
 NOR  HN ES       21 6 38.97                             119   -0.12 8  233 235 
 NOR  HZ I        21 6 43.70         5.7 0.16            120            233 235 
 CHI  HZ EP   1   21 6 13.39                             118    0.21 6  247 195 
 CHI  HN ES       21 6 42.93                             118    0.38 8  247 195 
 CHI  HZ I        21 6 46.11         5.4 0.52            119            247 195 
                                                                                
