 2017  129 2211 26.0 L   6.778 -73.166141.9  RSN  6 0.3 1.6LRSN                1
 GAP=135        0.78       3.9     3.4  5.7  0.1172E+01  0.3919E+01  0.3053E+00E
 Epicentro: LOS SANTOS - SANTANDER                                             3
 ACTION:UPD 17-05-22 16:04 OP:jn   STATUS:               ID:20170129221126 L   I
 OLDACT:REG 17-01-30 02:33 OP:edw  STATUS:               ID:20170129220746     3
 2017-01-29-2208-00M.COL___342                                                 6
 STAT SP IPHASW D HRMM SECON CODA AMPLIT PERI AZIMU VELO AIN AR TRES W  DIS CAZ7
 BAR2 EZ EP       2211 45.14                             171    0.0710 20.6 185 
 BAR2 EZ ES       2211 59.57                             171   -0.4010 20.6 185 
 BAR2 EZ I        2212  0.97        11.8 0.17            173           20.6 185 
 BRR  HZ EP       2211 46.93                             152    0.2810 70.5 301 
 BRR  HN ES       2212  3.19                             152    0.4110 70.5 301 
 BRR  HZ I        2212  6.26         9.9 0.16            151           70.5 301 
 PAM  EZ EP       2211 47.92                             149   -0.0510 80.7  40 
 PAM  EN ES       2212  4.94                             149   -0.1910 80.7  40 
 PAM  EZ I        2212  7.24         6.9 0.46            151           80.7  40 
 RUS  HZ EP       2211 49.29                             144    0.1310 98.3 175 
 RUS  HN ES       2212  7.58                             144    0.3210 98.3 175 
 RUS  HZ I        2212  9.58         5.2 0.18            147           98.3 175 
 PTB  HZ EP       2211 51.87                             132   -0.50 9  145 260 
 PTB  HN ES       2212 12.66                             132   -0.31 9  145 260 
 PTB  HZ I        2212 13.97         3.7 0.07            132            145 260 
 ZAR  HZ EP   4   2211 59.02                             122    0.99 0  203 293 
 ZAR  HN ES       2212 23.25                             122    0.20 9  203 293 
 ZAR  HZ I        2212 30.28         6.1 0.22            122            203 293 
                                                                                
