 2016  429 2329 35.8 L   6.819 -73.209139.4  RSN 10 0.4 2.3LRSN                1
 GAP=128        0.92       3.0     4.1  5.6 -0.3825E+01  0.7572E+01  0.4736E+00E
 Epicentro: ZAPATOCA - SANTANDER                                               3
 ACTION:UPD 16-05-05 14:25 OP:rebc STATUS:               ID:20160429232935 L   I
 OLDACT:UP  16-04-30 04:00 OP:drio STATUS:               ID:20160429232750     3
 OLDACT:UP  16-04-30 04:00 OP:drio STATUS:               ID:20160429232750     3
 OLDACT:REG 16-04-30 03:19 OP:drio STATUS:               ID:20160429232750     3
 2016-04-29-2327-50M.COL___254                                                 6
 STAT SP IPHASW D HRMM SECON CODA AMPLIT PERI AZIMU VELO AIN AR TRES W  DIS CAZ7
 BAR2 EZ EP       2329 54.59                             169   -0.0910 25.2 173 
 BAR2 EZ ES       2330  9.40                             169   -0.0310 25.2 173 
 BAR2 EZ I        2330 12.36        37.4 0.28            171           25.2 173 
 PAM  EZ EP     C 2329 57.45                             149   -0.0610 80.5  44 
 PAM  EE ES       2330 14.87                             149    0.4010 80.5  44 
 PAM  EZ I        2330 16.76        49.2 0.46            153           80.5  44 
 RUS  HZ EP       2329 58.82                             142   -0.2910  103 172 
 RUS  HE ES       2330 17.36                             142    0.0410  103 172 
 RUS  HZ I        2330 18.47        32.6 0.34            146            103 172 
 PTB  HZ EP       2330  1.34                             132   -0.30 9  141 257 
 PTB  HE ES       2330 21.91                             132    0.09 9  141 257 
 PTB  HZ I        2330 28.20        16.5 0.18            131            141 257 
 OCA  HZ EP       2330  3.58                             129    0.24 9  158 356 
 OCA  HN ES       2330 24.38                             129   -0.45 9  158 356 
 OCA  HZ I        2330 33.51        48.5 0.50            130            158 356 
 SPBC HZ EP       2330  3.76                             128    0.22 9  161 217 
 SPBC HN ES       2330 25.44                             128    0.24 9  161 217 
 SPBC HZ I        2330 28.05        40.9 0.28            129            161 217 
 CHI  HZ EP       2330 12.67                             116   -0.49 8  249 193 
 CHI  HN ES       2330 41.94                             116   -0.38 8  249 193 
 CHI  HZ I        2330 45.84         8.5 0.44            118            249 193 
 HEL  HZ EP   4   2330 17.16                             114    2.18 0  266 255 
 HEL  HE ES       2330 45.21                             114   -0.34 8  266 255 
 HEL  HZ I        2330 54.78         6.2 0.28            115            266 255 
 GUY2CHZ EP       2330 19.94                             111    1.35 7  297 234 
 GUY2CHE ES   4   2330 57.02                             111    5.03 0  297 234 
 GUY2CHZ I        2331  4.85         8.6 0.44                           297 234 
 ORTC HZ EP       2330 29.37                             105    0.17 6  393 215 
 ORTC HE ES   4   2331 12.76                             105    1.88 0  393 215 
 ORTC HZ I        2331 17.77         5.5 0.34            107            393 215 
                                                                                
