 2017 1029 2053  7.6 L   6.798 -73.159144.0  RSN  8 0.5 1.9LRSN                1
 GAP=111        1.20       4.8     4.4  7.1  0.5214E+01  0.7859E+01  0.6679E+01E
 Epicentro: LOS SANTOS - SANTANDER                                             3
 ACTION:UPD 17-11-07 19:39 OP:rebc STATUS:               ID:20171029205307 L   I
 OLDACT:UP  17-10-30 04:04 OP:y    STATUS:               ID:20171029204742     3
 OLDACT:REG 17-10-30 03:06 OP:leo  STATUS:               ID:20171029204742     3
 2017-10-29-2048-00M.COL___444                                                 6
 STAT SP IPHASW D HRMM SECON CODA AMPLIT PERI AZIMU VELO AIN AR TRES W  DIS CAZ7
 BAR2 EZ EP       2053 26.76                             171   -0.2710 22.9 187 
 BAR2 EZ ES       2053 41.72                             171   -0.4510 22.9 187 
 BAR2 EZ I        2053 44.54        18.6 0.34            169           22.9 187 
 BRR  HZ EP       2053 28.57                             153    0.0510 70.0 299 
 BRR  HN ES       2053 45.81                             153    1.0010 70.0 299 
 BRR  HZ I        2053 49.81        14.3 0.28            152           70.0 299 
 PAM  EZ EP       2053 29.58                             150   -0.1410 78.5  40 
 PAM  EE ES       2053 47.19                             150    0.2410 78.5  40 
 RUS  HZ EP       2053 30.98                             144   -0.2210  100 175 
 RUS  HN ES       2053 49.53                             144   -0.0510  100 175 
 RUS  HZ I        2053 50.82        12.4 0.26            145            100 175 
 PTB  HZ EP       2053 33.91                             132   -0.41 9  146 259 
 PTB  HN ES       2053 54.52                             132   -0.62 9  146 259 
 PTB  HZ I        2054  1.82         4.8 0.20            133            146 259 
 YPLC HZ EP       2053 37.17                             126   -0.17 9  177 151 
 YPLC HN ES       2054  0.94                             126    0.42 9  177 151 
 YPLC HZ I        2054  3.93        11.3 0.24            129            177 151 
 ZAR  HZ EP       2053 39.44                             122   -0.39 9  203 292 
 ZAR  HE ES       2054  4.82                             122   -0.12 9  203 292 
 ZAR  HZ I        2054 10.15        11.7 0.54            124            203 292 
 GUY2CHZ EP       2053 52.26                             112    1.25 7  300 235 
 GUY2CHN ES       2054 25.37                             112    0.53 7  300 235 
 GUY2CHZ I        2054 34.34         2.2 0.58                           300 235 
                                                                                
