 2014  429 2117 29.9 L   6.539 -73.139170.4  RSN  4 0.5 1.9LRSN                1
 GAP=197        1.25       7.8    11.1 11.7  0.3977E+02 -0.1931E+02 -0.3204E+02E
 Epicentro: SAN GIL - SANTANDER                                                3
 ACTION:UPD 14-05-13 23:12 OP:nd   STATUS:               ID:20140429211729 L   I
 OLDACT:REG 14-04-30 02:46 OP:nd   STATUS:               ID:20140429211000     3
 2014-04-29-2110-00M.COL___270                                                 6
 STAT SP IPHASW D HRMM SECON CODA AMPLIT PERI AZIMU VELO AIN AR TRES W  DIS CAZ7
 RUS  HZ EP       2117 54.55                             156    0.0610 71.7 175 
 RUS  HN ES       2118 13.17                             156   -0.5110 71.7 175 
 RUS  HZ I        2118 14.44         7.1 0.28            161           71.7 175 
 BRR  HZ EP       2117 55.27                             151    0.5510 89.2 315 
 BRR  HN ES       2118 14.75                             151    0.6610 89.2 315 
 BRR  HZ I        2118 18.84        14.6 0.42            151           89.2 315 
 PTB  HZ EP       2117 59.17                             137    0.38 9  146 270 
 PTB  HN ES       2118 20.82                             137   -0.52 9  146 270 
 PTB  HZ I        2118 23.18         8.2 0.16            140            146 270 
 SML  HZ EP   1   2118 10.26                             119   -0.56 6  271 338 
 SML  HN ES       2118 41.95                             119   -0.79 8  271 338 
 SML  HZ I        2118 46.49         9.0 0.10            121            271 338 
                                                                                
