 2017  129 2105 12.3 L   6.797 -73.112149.1  RSN  8 0.2 1.9LRSN                1
 GAP=141        0.70       2.7     3.1  4.2 -0.4086E-01  0.2055E+01  0.1773E+01E
 Epicentro: LOS SANTOS - SANTANDER                                             3
 ACTION:UPD 17-05-22 16:04 OP:jn   STATUS:               ID:20170129210512 L   I
 OLDACT:UP  17-01-30 02:47 OP:edw  STATUS:               ID:20170129205745     3
 OLDACT:REG 17-01-30 02:29 OP:edw  STATUS:               ID:20170129205745     3
 2017-01-29-2058-00M.COL___348                                                 6
 STAT SP IPHASW D HRMM SECON CODA AMPLIT PERI AZIMU VELO AIN AR TRES W  DIS CAZ7
 BAR2 EZ EP       21 5 32.15                             171   -0.2210 23.9 199 
 BAR2 EZ ES       21 5 47.94                             171   -0.0710 23.9 199 
 BAR2 EZ I        21 5 48.33        28.6 0.30            169           23.9 199 
 BRR  HZ IP     C 21 5 33.91                             152   -0.1210 74.6 297 
 BRR  HE ES       21 5 51.13                             152    0.1710 74.6 297 
 BRR  HZ I        21 5 54.12        15.7 0.30            149           74.6 297 
 PAM  EZ EP     C 21 5 35.19                             152    0.4110 75.4  37 
 PAM  EN ES       21 5 52.34                             152    0.0410 75.4  37 
 PAM  EZ I        21 5 54.29        20.3 0.54            154           75.4  37 
 RUS  HZ EP       21 5 36.15                             144   -0.2210  100 178 
 RUS  HN ES       21 5 54.90                             144   -0.2210  100 178 
 RUS  HZ I        21 5 55.86         8.8 0.34            146            100 178 
 PTB  HZ EP   9   21 5 38.96                             132   -0.93 0  151 259 
 PTB  HN ES       21 5 59.95                             131   -0.51 9  151 259 
 PTB  HZ I        21 6  7.10        10.7 0.42            130            151 259 
 ZAR  HZ EP       21 5 45.20                             122   -0.16 8  208 292 
 ZAR  HN ES       21 6 10.91                             122   -0.21 8  208 292 
 ZAR  HZ I        21 6 16.16         9.7 0.32            122            208 292 
 NOR  HZ EP   4   21 5 53.87                             119    5.32 0  237 235 
 NOR  HE ES       21 6 17.39                             119    0.58 8  237 235 
 NOR  HZ I        21 6 20.25         3.6 0.24            119            237 235 
 CHI  HZ EP       21 5 50.53                             117    0.25 8  249 196 
 CHI  HN ES       21 6 19.85                             117   -0.04 8  249 196 
 CHI  HZ I        21 6 23.17         3.1 0.34            118            249 196 
                                                                                
