 2016  229 2237 29.8 L   6.757 -73.335122.7  RSN  7 0.3 1.7LRSN                1
 GAP=112        0.68       2.9     3.2  5.4 -0.1179E+01  0.9950E+01 -0.8910E+00E
 Epicentro: ZAPATOCA - SANTANDER                                               3
 ACTION:UPD 16-03-04 21:30 OP:rebc STATUS:               ID:20160229223729 L   I
 OLDACT:REG 16-03-01 03:04 OP:drio STATUS:               ID:20160229222747     3
 2016-02-29-2227-47M.COL___322                                                 6
 STAT SP IPHASW D HRMM SECON CODA AMPLIT PERI AZIMU VELO AIN AR TRES W  DIS CAZ7
 BAR2 EZ EP       2237 46.56                             168   -0.1110 24.8 137 
 BAR2 EZ ES       2238  0.20                             168    0.3410 24.8 137 
 BAR2 EZ I        2238  0.79        34.0 0.28            173           24.8 137 
 PAM  EZ EP       2237 50.68                             140   -0.2310 95.3  47 
 PAM  EE ES       2238  7.22                             140   -0.1810 95.3  47 
 PAM  EZ I        2238 10.80         7.2 0.48            144           95.3  47 
 RUS  HZ EP       2237 51.41                             139    0.1610 99.5 164 
 RUS  HE ES       2238  7.95                             139   -0.0510 99.5 164 
 RUS  HZ I        2238  8.95         3.0 0.20            144           99.5 164 
 PTB  HZ EP   4   2237 51.53                             131   -1.39 0  126 259 
 PTB  HE ES   4   2238  9.62                             131   -1.35 0  126 259 
 PTB  HZ I        2238 14.62        10.0 0.36            132            126 259 
 ZAR  HZ EP       2237 59.22                             119    0.24 9  187 296 
 ZAR  HE ES       2238 21.78                             119    0.02 9  187 296 
 ZAR  HZ I        2238 26.37         7.4 0.34            121            187 296 
 NOR  HZ EP       2238  2.31                             115    0.22 8  215 232 
 NOR  HE ES       2238 26.65                             115   -0.64 8  215 232 
 NOR  HZ I        2238 32.08         4.6 0.20            118            215 232 
 GUY2CHZ EP       2238 10.42                             109    0.29 7  281 233 
 GUY2CHN ES   4   2238 39.93                             109   -1.68 0  281 233 
 GUY2CHZ I        2238 52.45         2.6 0.46                           281 233 
                                                                                
