 2011  929 2143 59.2 L   6.801 -73.134152.7  RSN  4 0.4 1.8LRSN                1
 GAP=138        0.67       5.7     6.2  9.3  0.5839E+01 -0.1031E+02  0.9103E+01E
 Epicentro: LOS SANTOS - SANTANDER                                             3
 ACTION:UPD 12-07-13 16:00 OP:ep   STATUS:               ID:20110929214359 L   I
 2011-09-29-2138-32S.COL___168                                                 6
 STAT SP IPHASW D HRMM SECON CODA AMPLIT PERI AZIMU VELO AIN AR TRES W  DIS CAZ7
 BRR  HZ EP       2144 21.31                             153    0.1610 72.3 298 
 BRR  HZ I        2144 21.61         8.7 0.32                          72.3 298 
 BRR  HE ES   1   2144 38.60                             153    0.32 7 72.3 298 
 PAM  SZ EP       2144 22.28                             152    0.1810 76.4  39 
 PAM  SE ES   2   2144 39.25                             152   -0.71 5 76.4  39 
 RUS  HZ EP       2144 23.46                             145   -0.1710  101 177 
 RUS  HN ES   2   2144 42.66                             145   -0.04 5  101 177 
 ZAR  HE ES   2   2144 57.10                             124   -0.88 4  205 292 
 ZAR  HZ I        2145  3.83         5.6 0.44                           205 292 
                                                                                
