 2013  329 2350 35.8 L   6.782 -73.138146.6  RSN  9 0.3 2.2LRSN                1
 GAP=138        0.84       3.0     3.5  5.1 -0.1596E+01  0.4678E+01 -0.2151E+00E
 Epicentro: LOS SANTOS - SANTANDER                                             3
 ACTION:UPD 13-04-09 14:05 OP:ep   STATUS:               ID:20130329235035 L   I
 2013-03-29-2350-00M.COL___245                                                 6
 STAT SP IPHASW D HRMM SECON CODA AMPLIT PERI AZIMU VELO AIN AR TRES W  DIS CAZ7
 BAR2 SZ EP       2350 55.72                             171    0.1910 21.6 193 
 BAR2 SZ ES       2351 10.70                             171   -0.1910 21.6 193 
 BAR2 SZ I        2351 12.37        28.8 0.38            169           21.6 193 
 BRR  HZ EP       2350 57.61                             152    0.4410 72.9 300 
 BRR  HN ES       2351 14.40                             152    0.5910 72.9 300 
 BRR  HZ I        2351 19.60         9.2 0.12            149           72.9 300 
 PAM  SZ EP       2350 58.44                             151    0.2410 78.4  38 
 PAM  SN ES       2351 15.82                             151    0.1810 78.4  38 
 PAM  SN I        2351 16.12        20.4 0.22            155           78.4  38 
 RUS  HZ EP       2350 59.61                             145    0.0910 98.6 176 
 RUS  HN ES       2351 17.61                             145   -0.3910 98.6 176 
 RUS  HN I        2351 20.13         6.9 0.14            147           98.6 176 
 PTB  HZ EP       2351  2.55                             132   -0.36 9  148 260 
 PTB  HN ES       2351 23.75                             132   -0.28 9  148 260 
 PTB  HN I        2351 29.28        39.4 0.28            132            148 260 
 OCA  HZ EP       2351  4.26                             129   -0.14 9  162 353 
 OCA  HN ES       2351 25.94                             129   -0.75 9  162 353 
 OCA  HN I        2351 31.19        56.9 0.24            131            162 353 
 ZAR  HZ EP   1   2351  8.40                             122   -0.09 6  206 293 
 ZAR  HN ES       2351 34.09                             122    0.12 8  206 293 
 ZAR  HN I        2351 39.38        19.1 0.26            123            206 293 
 NOR  HZ EP       2351 11.53                             119   -0.03 8  234 235 
 NOR  HN ES       2351 39.53                             119    0.10 8  234 235 
 NOR  HN I        2351 47.89        18.2 0.42            120            234 235 
 COD  HN ES   4   2352  0.00                             109   -2.42 0  350 354 
 PRA  HN ES   2   2352 11.52                             107    0.64 3  391 210 
                                                                                
