 2016  129 2310 50.2 L   6.807 -73.124148.0  RSN  5 0.2 2.0LRSN                1
 GAP=157        0.44       5.7     4.1  5.7 -0.1754E+02 -0.2636E+01  0.1482E+02E
 Epicentro: LOS SANTOS - SANTANDER                                             3
 ACTION:UPD 16-03-09 23:29 OP:cam  STATUS:               ID:20160129231050 L   I
 OLDACT:UP  16-02-23 20:56 OP:AR   STATUS:               ID:20160129231050 L   3
 OLDACT:UP  16-01-30 04:18 OP:mh   STATUS:               ID:20160129223601d    3
 OLDACT:UP  16-01-30 04:18 OP:mh   STATUS:               ID:20160129223601d    3
 OLDACT:REG 16-01-30 02:25 OP:l    STATUS:               ID:20160129223601d    3
 2016-01-29-2235-59S.COL___229                                                 6
 STAT SP IPHASW D HRMM SECON CODA AMPLIT PERI AZIMU VELO AIN AR TRES W  DIS CAZ7
 BAR2 EZ EP       2311 10.02                             170   -0.1010 24.6 195 
 PAM  EZ EP       2311 12.76                             152    0.2310 75.3  39 
 PAM  EN ES       2311 29.87                             152   -0.0810 75.3  39 
 PAM  EZ I        2311 32.19        10.2 0.53            153           75.3  39 
 PTB  HZ EP   9   2311 16.27                             132   -1.30 0  150 259 
 PTB  HN ES   1   2311 37.90                             133    0.28 7  150 259 
 PTB  HZ I        2311 42.33         9.9 0.26            132            150 259 
 ZAR  HE ES   2   2311 48.31                             123   -0.25 4  206 292 
 ZAR  HN I        2311 52.08        14.5 0.16            122            206 292 
 NOR  HZ EP   1   2311 26.17                             119   -0.14 6  237 235 
 NOR  HE ES       2311 54.55                             119    0.07 8  237 235 
 NOR  HZ I        2311 56.43                             120            237 235 
                                                                                
