 2017  829 2113 33.9 L   6.804 -73.109151.1  RSN  6 0.2 1.5LRSN                1
 GAP=242        0.34       2.9     3.4  3.1  0.5512E+01  0.2713E+01  0.2854E+01E
 Epicentro: LOS SANTOS - SANTANDER                                             3
 ACTION:UPD 17-09-04 20:26 OP:rebc STATUS:               ID:20170829211333 L   I
 OLDACT:DUP 17-08-30 03:28 OP:and  STATUS:               ID:20170829210744d    3
 2017-08-29-2108-00M.COL___417                                                 6
 STAT SP IPHASW D HRMM SECON CODA AMPLIT PERI AZIMU VELO AIN AR TRES W  DIS CAZ7
 BAR2 EZ EP       2113 54.17                             170   -0.0210 24.8 199 
 BAR2 EZ ES   3   2114  9.44                             170   -0.59 2 24.8 199 
 BAR2 EZ I        2114 11.73         7.4 0.30            152           24.8 199 
 BRR  HZ EP   2   2113 55.60                             152   -0.21 5 74.6 297 
 BRR  HN ES       2114 13.02                             152    0.1210 74.6 297 
 RUS  HZ EP       2113 58.16                             145   -0.0310  101 178 
 RUS  HN ES       2114 17.14                             145   -0.0010  101 178 
 RUS  HZ I        2114 18.95         2.7 0.42            129            101 178 
 SPBC HZ EP       2114  3.14                             130    0.06 9  166 220 
 SPBC HZ I        2114 29.76         5.1 0.09            114            166 220 
 ZAR  HZ EP   3   2114  6.85                             123   -0.21 2  208 292 
 ZAR  HN ES   2   2114 32.59                             123   -0.34 4  208 292 
 ZAR  HZ I        2114 42.33         3.6 0.26            110            208 292 
 NOR  HZ EP       2114 10.47                             119    0.15 8  238 235 
 NOR  HN ES   2   2114 38.45                             119   -0.28 4  238 235 
 NOR  HZ I        2114 45.80         2.8 0.14            106            238 235 
                                                                                
