 2010  629 2339 37.7 L   6.819 -73.071146.5  RSN 13 0.6 3.6LRSN                1
 GAP=131        1.47       5.4    10.9  9.2 -0.3119E+02  0.2723E+02  0.3509E+01E
 Epicentro: LOS SANTOS - SANTANDER                                             3
 ACTION:UP  10-08-24 10:14 OP:vdl  STATUS:               ID:20100629233937 L   I
 2010-06-29-2335-37S.COL___118                                                 6
 STAT SP IPHASW D HRMM SECON CODA AMPLIT PERI AZIMU VELO SNR AR TRES W  DIS CAZ7
 BAR2 SZ IP       2339 57.32                             169    -0.210   28 206 
 BAR2 SZ ES       2340 12.26                             169    -0.710   28 206 
 BRR  HZ IP       2339 59.19                             150    -0.110   78 294 
 BRR  HZ I        2340 18.68       558.3 0.57                            78 294 
 RUS  HZ EP       2340  1.23                             143    -0.410  102 181 
 RUS  HZ I        2340  2.49       306.9 0.39                           102 181 
 BRI  SZ IP       2340  1.90                             143     0.610  104  17 
 BRI  SZ ES   1   2340 20.27                             143     0.5 7  104  17 
 OCA  SZ IP       2340  5.78                             130    -0.2 9  159 350 
 OCA  SZ ES   1   2340 28.57                             130     0.5 7  159 350 
 OCA  SZ I        2340 32.34       494.7 0.33                           159 350 
 CHI  HZ EP       2340 15.52                             117    -0.4 8  253 197 
 CHI  HN ES       2340 46.26                             117     0.5 8  253 197 
 CHI  HZ I        2340 50.69       176.2 0.21                           253 197 
 ROSC BZ EP       2340 17.17                             116     0.6 8  259 212 
 ROSC BN ES       2340 48.16                             116     1.3 8  259 212 
 ROSC BZ I        2340 51.12       231.8 0.39                           259 212 
 HEL  HZ EP       2340 18.86                             114     0.0 7  281 256 
 HEL  HZ I        2340 55.82       177.6 0.61                           281 256 
 DBB  SZ EP       2340 25.14                             109    -1.0 6  348 274 
 TOL  SZ EP       2340 27.26                             109     0.4 6  351 225 
 TOL  SZ ES   2   2341  5.10                             109    -0.1 3  351 225 
 SDV  BZ EP       2340 26.76                             109    -0.1 6  353  50 
 SDV  BZ I        2340 27.72       119.9 0.29                           353  50 
 ANIL HZ EP       2340 28.80                             108     0.4 6  365 225 
 PRA  HZ EP       2340 30.85                             106    -1.1 6  398 210 
 PRA  HN ES       2341 13.58                             106    -0.7 6  398 210 
 PRA  HZ I        2341 19.30       288.5 0.70                           398 210 
                                                                                
