 2010  929 2051 43.0 L   6.799 -73.001145.3  RSN  5 0.1 1.5LRSN                1
 GAP=175        0.36       5.7    10.7  9.0  0.4634E+02 -0.5735E+02 -0.2548E+02E
 Epicentro: CEPITA - SANTANDER                                                 3
 ACTION:UP  11-02-18 11:06 OP:tino STATUS:               ID:20100929205143 L   I
 2010-09-29-2048-44S.COL___125                                                 6
 STAT SP IPHASW D HRMM SECON CODA AMPLIT PERI AZIMU VELO SNR AR TRES W  DIS CAZ7
 BAR2 SZ EP       2052  2.77                             168     0.010   31 221 
 BAR2 SZ I        2052  3.25         5.5 0.06                            31 221 
 BRR  HZ EP       2052  4.89                             148    -0.110   86 294 
 BRR  HZ I        2052 18.21        13.4 0.61                            86 294 
 BRR  HE ES   2   2052 22.34                             148     0.2 5   86 294 
 RUS  HZ EP       2052  6.81                             144     0.110  101 185 
 RUS  HN ES   2   2052 24.97                             144    -0.2 5  101 185 
 RUS  HZ I        2052 27.01         2.5 0.44                           101 185 
 GUE  SZ EP   3   2052  7.49                             140     0.0 2  114   4 
 GRA  SZ EP   3   2052  7.88                             138     0.0 2  122  10 
                                                                                
