 2011  129 2125 23.6 L   6.758 -73.111147.4  RSN  7 0.5 1.9LRSN                1
 GAP=186        1.02       6.8    10.1 10.4 -0.7845E+01  0.4596E+02 -0.1207E+02E
 Epicentro: LOS SANTOS - SANTANDER                                             3
 ACTION:UP  11-02-08 08:43 OP:pat  STATUS:               ID:20110129212523 L   I
 2011-01-29-2120-00M.COL___139                                                 6
 STAT SP IPHASW D HRMM SECON CODA AMPLIT PERI AZIMU VELO SNR AR TRES W  DIS CAZ7
 BAR2 SZ EP   2   2125 42.96                             172    -0.4 5   20 204 
 BAR2 SZ ES   1   2125 58.62                             172    -0.2 7   20 204 
 BAR2 SZ I        2126  0.06        15.7 0.27                            20 204 
 BTL  SZ EP   1   2125 44.52                             170     1.0 7   25 316 
 RUS  HZ EP   1   2125 46.84                             145    -0.4 7   96 178 
 RUS  HN ES   1   2126  5.54                             145     0.0 7   96 178 
 RUS  HZ I        2126  6.46         7.3 0.39                            96 178 
 OCA  SZ EP   1   2125 52.06                             129    -0.5 7  165 352 
 OCA  SZ I        2126 19.30        16.5 0.30                           165 352 
 NOR  SZ EP   2   2125 58.73                             119    -0.8 4  235 236 
 CHI  HZ EP   1   2126  1.11                             118     0.1 6  245 196 
 CHI  HN ES   1   2126 30.41                             118     0.2 6  245 196 
 CHI  HZ I        2126 36.27         3.9 0.43                           245 196 
 HEL  HZ EP   1   2126  4.75                             115     0.5 6  275 257 
 HEL  HN ES   1   2126 35.65                             115    -0.2 6  275 257 
 HEL  HZ I        2126 42.42         4.3 0.27                           275 257 
                                                                                
