 2013  129 2053 46.6 L   6.769 -73.138145.7  RSN  8 0.4 1.6LRSN                1
 GAP=139        0.77       4.0     4.3  6.9 -0.6878E-01  0.6771E+01  0.6967E+01E
 Epicentro: LOS SANTOS - SANTANDER                                             3
 ACTION:UPD 13-02-15 09:17 OP:ep   STATUS:               ID:20130129205346 L   I
 2013-01-29-2050-00M.COL___241                                                 6
 STAT SP IPHASW D HRMM SECON CODA AMPLIT PERI AZIMU VELO AIN AR TRES W  DIS CAZ7
 BAR2 SZ ES   1   2054 21.02                             172   -0.39 7 20.1 194 
 BRR  HZ EP   1   2054  8.16                             152    0.29 7 73.6 301 
 BRR  HN ES   1   2054 25.03                             152    0.56 7 73.6 301 
 BRR  HZ I        2054 29.84        16.0 0.30            152           73.6 301 
 PAM  SZ EP   1   2054  9.00                             150    0.07 7 79.6  38 
 PAM  SN ES   1   2054 25.93                             150   -0.43 7 79.6  38 
 PAM  SZ I        2054 30.21         3.0 0.20            153           79.6  38 
 RUS  HZ EP   1   2054 10.16                             145    0.07 7 97.1 176 
 RUS  HN ES   1   2054 29.02                             145    0.61 7 97.1 176 
 RUS  HZ I        2054 31.34         5.1 0.46            148           97.1 176 
 PTB  HZ EP   1   2054 13.11                             132   -0.46 7  148 260 
 PTB  HN ES   1   2054 34.23                             132   -0.38 7  148 260 
 PTB  HZ I        2054 36.18         8.4 0.36            134            148 260 
 ZAR  HE ES   1   2054 44.77                             122    0.05 6  206 293 
 ZAR  HZ I        2054 50.97         7.3 0.36            124            206 293 
 NOR  HE ES   1   2054 50.09                             119    0.16 6  233 235 
 CHI  HZ EP   1   2054 24.32                             117    0.37 6  246 196 
 CHI  HN ES   1   2054 52.42                             117   -0.66 6  246 196 
 CHI  HZ I        2054 57.71         2.2 0.42            120            246 196 
                                                                                
