 2014 1029 2019  1.5 L   6.772 -73.183144.4  RSN  5 0.6 1.2LRSN                1
 GAP=133        1.47       9.7     8.8 11.9  0.1802E+02 -0.4789E+01 -0.7998E+01E
 Epicentro: LOS SANTOS - SANTANDER                                             3
 ACTION:UPD 14-11-29 23:58 OP:nd   STATUS:               ID:20141029201901 L   I
 OLDACT:DUP 14-10-31 14:29 OP:stll STATUS:               ID:20141029200752d    3
 OLDACT:DUP 14-10-31 14:21 OP:stll STATUS:               ID:20141029200750d    3
 2014-10-29-2007-49M.COL___277                                                 6
 STAT SP IPHASW D HRMM SECON CODA AMPLIT PERI AZIMU VELO AIN AR TRES W  DIS CAZ7
 BAR2 SZ ES       2019 35.25                             172   -0.8110 19.8 180 
 BRR  HN ES       2019 39.65                             153    0.9310 69.3 302 
 PAM  SZ EP       2019 23.59                             149   -0.3210 82.4  40 
 PAM  SZ I        2019 23.78         5.2 0.20            151           82.4  40 
 RUS  HZ EP       2019 25.17                             144    0.2310 97.8 174 
 RUS  HN ES       2019 43.67                             144    0.4610 97.8 174 
 RUS  HZ I        2019 44.39         2.5 0.38            143           97.8 174 
 PTB  HZ EP       2019 28.05                             133    0.09 9  143 260 
 PTB  HN ES       2019 47.95                             133   -0.64 9  143 260 
 PTB  HZ I        2019 52.32         1.5 0.22            131            143 260 
                                                                                
