 2013  329 2232 23.2 L   6.727 -73.165143.7  RSN  6 0.4 1.7LRSN                1
 GAP=230        0.97       5.7     5.6  8.4  0.1073E+02  0.1487E+02  0.3111E+01E
 Epicentro: VILLANUEVA - SANTANDER                                             3
 ACTION:UPD 13-04-09 14:05 OP:ep   STATUS:               ID:20130329223223 L   I
 2013-03-29-2230-00M.COL___245                                                 6
 STAT SP IPHASW D HRMM SECON CODA AMPLIT PERI AZIMU VELO AIN AR TRES W  DIS CAZ7
 BAR2 SZ EP       2232 42.47                             174    0.0610 15.0 187 
 BAR2 SZ ES       2232 57.08                             174   -0.3310 15.0 187 
 BAR2 SZ I        2232 58.89         9.1 0.42            167           15.0 187 
 BRR  HZ EP       2232 44.33                             151    0.0910 73.7 305 
 BRR  HN ES       2233  1.18                             151    0.5210 73.7 305 
 BRR  HN I        2233  1.66         8.7 0.14            149           73.7 305 
 RUS  HZ EP   1   2232 46.42                             146    0.26 7 92.7 174 
 RUS  HN ES       2233  4.10                             146    0.0210 92.7 174 
 RUS  HN I        2233  5.55         4.4 0.22            144           92.7 174 
 PTB  HZ EP   1   2232 48.78                             132   -0.87 7  144 262 
 PTB  HN ES       2233  9.77                             132   -0.54 9  144 262 
 PTB  HN I        2233 17.28         5.9 0.16            130            144 262 
 ZAR  HN ES       2233 20.92                             122    0.01 8  205 294 
 ZAR  HN I        2233 22.42         4.6 0.14            122            205 294 
 NOR  HN ES       2233 25.93                             119    0.59 8  228 236 
 NOR  HN I        2233 31.35         7.7 0.16            118            228 236 
                                                                                
