 2013 1229 2234 25.8 L   6.802 -73.152151.6  RSN  7 0.4 1.7LRSN                1
 GAP=136        0.90       3.0     4.7  6.1 -0.4142E-01  0.3480E+01  0.8670E+00E
 Epicentro: LOS SANTOS - SANTANDER                                             3
 ACTION:UPD 14-01-13 10:22 OP:ep   STATUS:               ID:20131229223425 L   I
 OLDACT:UP  13-12-29 22:03 OP:cam  STATUS:               ID:20131229223000     3
 OLDACT:REG 13-12-29 21:25 OP:cma  STATUS:               ID:20131229223000     3
 2013-12-29-2230-00M.COL___285                                                 6
 STAT SP IPHASW D HRMM SECON CODA AMPLIT PERI AZIMU VELO AIN AR TRES W  DIS CAZ7
 BRR  HZ EP       2234 48.01                             154    0.4710 70.4 299 
 BRR  HN ES       2235  5.24                             154    0.7310 70.4 299 
 BRR  HZ I        2235  9.46         8.0 0.30            146           70.4 299 
 PAM  SZ EP       2234 48.84                             152    0.1810 77.7  40 
 PAM  SE ES       2235  6.12                             152   -0.3710 77.7  40 
 PAM  SZ I        2235  8.01         8.5 0.60            143           77.7  40 
 RUS  HZ EP       2234 50.18                             145    0.0310  101 176 
 RUS  HN ES       2235  8.84                             145   -0.3010  101 176 
 RUS  HZ I        2235  9.50         6.2 0.26            143            101 176 
 PTB  HZ EP       2234 53.04                             133   -0.15 9  147 259 
 PTB  HN ES       2235 14.10                             133   -0.46 9  147 259 
 PTB  HZ I        2235 18.53         7.8 0.12            127            147 259 
 OCA  HZ EP   2   2234 54.59                             131    0.05 5  160 353 
 OCA  HZ I        2235 19.89        13.0 0.20            123            160 353 
 ZAR  HZ EP   4   2234 58.21                             124   -0.35 0  203 292 
 SML  HZ EP       2235  2.42                             119   -0.29 8  243 335 
 SML  HN ES       2235 31.16                             119   -0.33 8  243 335 
 CHI  HZ EP       2235  4.13                             118    0.30 8  249 195 
 CHI  HN ES       2235 33.47                             118   -0.03 8  249 195 
 CHI  HZ I        2235 39.04         2.1 0.38            114            249 195 
                                                                                
