 2016  529 2009 41.0 L   6.787 -73.152144.8  RSN  7 0.3 1.8LRSN                1
 GAP=136        0.90       3.2     4.4  5.7 -0.3763E+01  0.3422E+01 -0.7208E+00E
 Epicentro: LOS SANTOS - SANTANDER                                             3
 ACTION:UPD 16-08-18 17:50 OP:cam  STATUS:               ID:20160529200941 L   I
 OLDACT:REG 16-05-30 02:27 OP:drio STATUS:               ID:20160529200744     3
 2016-05-29-2007-44M.COL___316                                                 6
 STAT SP IPHASW D HRMM SECON CODA AMPLIT PERI AZIMU VELO AIN AR TRES W  DIS CAZ7
 BAR2 EZ EP       2010  0.59                             171    0.0910 21.7 189 
 BAR2 EZ ES       2010 15.50                             171   -0.1910 21.7 189 
 BAR2 EZ I        2010 17.01        17.3 0.24            173           21.7 189 
 BRR  HZ EP       2010  2.30                             152    0.2410 71.3 300 
 BRR  HN ES       2010 19.01                             152    0.5310 71.3 300 
 BRR  HZ I        2010 23.28        13.1 0.30            151           71.3 300 
 PAM  EZ EP       2010  3.44                             150    0.2210 79.0  39 
 PAM  EN ES       2010 20.39                             150   -0.1610 79.0  39 
 PAM  EZ I        2010 23.42         7.4 0.54            152           79.0  39 
 RUS  HZ EP       2010  4.45                             144   -0.1210 99.2 176 
 RUS  HE ES       2010 22.72                             144   -0.2210 99.2 176 
 RUS  HZ I        2010 24.46         7.1 0.34            148           99.2 176 
 PTB  HZ EP       2010  7.13                             132   -0.68 9  147 259 
 PTB  HN ES       2010 28.26                             132   -0.45 9  147 259 
 PTB  HZ I        2010 30.70         7.1 0.40            133            147 259 
 SPBC HZ EP       2010  9.42                             129    0.14 9  162 219 
 SPBC HE ES       2010 31.93                             129    0.60 9  162 219 
 SPBC HZ I        2010 37.41        11.5 0.50            132            162 219 
 OCA  HZ EP       2010  9.63                             129    0.25 9  162 353 
 OCA  HN ES       2010 31.23                             129   -0.27 9  162 353 
 OCA  HZ I        2010 39.16        11.6 0.48            130            162 353 
                                                                                
