 2013  729 2205  8.3 L   6.823 -73.090147.5  RSN  6 0.3 2.7LRSN                1
 GAP=224        0.70       8.1     4.8  5.6 -0.9762E+01  0.7015E+01  0.4453E+01E
 Epicentro: LOS SANTOS - SANTANDER                                             3
 ACTION:UPD 13-08-12 10:40 OP:ep   STATUS:               ID:20130729220508 L   I
 OLDACT:UP  13-07-30 00:49 OP:mh   STATUS:               ID:20130729215959     3
 OLDACT:UP  13-07-30 00:48 OP:mh   STATUS:               ID:20130729215959     3
 OLDACT:REG 13-07-29 23:34 OP:mh   STATUS:               ID:20130729215959     3
 2013-07-29-2159-59M.COL___267                                                 6
 STAT SP IPHASW D HRMM SECON CODA AMPLIT PERI AZIMU VELO AIN AR TRES W  DIS CAZ7
 BAR2 SZ IP     C 22 5 28.26                             169    0.0410 27.5 202 
 BAR2 SZ ES   1   22 5 43.41                             169   -0.36 7 27.5 202 
 BAR2 SZ I        22 5 45.74        60.9 0.38            164           27.5 202 
 GIR2 SZ EP   1   22 5 28.33                             168    0.18 7 30.5 338 
 GIR2 SZ ES   1   22 5 43.91                             168    0.27 7 30.5 338 
 GIR2 SZ I        22 5 45.35        40.1 0.26            169           30.5 338 
 BRR  HZ EP   1   22 5 29.95                             151    0.07 7 75.6 295 
 BRR  HN ES       22 5 46.83                             151    0.1210 75.6 295 
 BRR  HN I        22 5 48.53       134.8 0.22            151           75.6 295 
 PTB  HE ES       22 5 57.37                             131   -0.24 9  154 258 
 PTB  HN I        22 6  1.78       125.4 0.42            131            154 258 
 ZAR  HZ EP       22 5 40.75                             122   -0.59 8  209 291 
 HEL  HZ EP   1   22 5 49.99                             114    0.66 6  279 256 
 HEL  HN ES       22 6 21.63                             114    0.30 7  279 256 
 HEL  HN I        22 6 27.03        26.9 0.36            115            279 256 
                                                                                
