 2014  629 2154 52.6 L   6.838 -73.156141.7  RSN 19 0.5 2.6LRSN                1
 GAP= 69        0.96       3.0     3.1  5.0 -0.6705E+00  0.4410E+01  0.2731E+01E
 Epicentro: LOS SANTOS - SANTANDER                                             3
 ACTION:UPD 14-07-01 22:57 OP:nd   STATUS:               ID:20140629215452 L   I
 OLDACT:UP  14-06-30 06:17 OP:mh   STATUS:               ID:20140629214813     3
 OLDACT:UP  14-06-30 06:17 OP:mh   STATUS:               ID:20140629214813     3
 OLDACT:REG 14-06-30 02:34 OP:mh   STATUS:               ID:20140629214813     3
 2014-06-29-2148-13M.COL___248                                                 6
 STAT SP IPHASW D HRMM SECON CODA AMPLIT PERI AZIMU VELO AIN AR TRES W  DIS CAZ7
 BAR2 SZ EP       2155 11.88                             169    0.0610 27.3 186 
 BAR2 SZ ES   1   2155 26.78                             169   -0.04 7 27.3 186 
 BAR2 SZ I        2155 28.48        54.3 0.25            166           27.3 186 
 BRR  HZ EP       2155 13.58                             153    0.4510 68.3 296 
 BRR  HN ES       2155 29.59                             153    0.4310 68.3 296 
 BRR  HZ I        2155 35.30        49.3 0.13            151           68.3 296 
 PAM  SZ EP   1   2155 14.63                             151    0.41 7 74.9  42 
 PAM  SN ES       2155 31.40                             151    0.3010 74.9  42 
 PAM  SZ I        2155 34.09        38.7 0.22            157           74.9  42 
 RUS  HZ EP     C 2155 15.96                             142   -0.3010  105 176 
 RUS  HN ES       2155 34.56                             142   -0.1710  105 176 
 RUS  HZ I        2155 36.08        40.4 0.26            143            105 176 
 PTB  HZ EP       2155 18.52                             131   -0.68 9  148 257 
 PTB  HN ES       2155 39.55                             131   -0.42 9  148 257 
 PTB  HZ I        2155 41.77        69.7 0.12            131            148 257 
 OCA  HZ EP   1   2155 19.97                             129   -0.20 7  156 353 
 OCA  HN ES   1   2155 41.30                             129   -0.39 7  156 353 
 OCA  HZ I        2155 46.95        55.4 0.20            132            156 353 
 TAM  HZ EP   1   2155 20.21                             129    0.06 7  157 106 
 TAM  HN ES   1   2155 41.12                             129   -0.54 7  157 106 
 TAM  HZ I        2155 42.19        27.5 0.42            134            157 106 
 SPBC HZ EP     C 2155 20.98                             128   -0.05 9  166 218 
 SPBC HN ES   1   2155 43.13                             128   -0.08 7  166 218 
 SPBC HZ I        2155 50.00        61.5 0.34            128            166 218 
 ZAR  HZ EP   1   2155 24.31                             122   -0.19 6  201 291 
 ZAR  HN ES   1   2155 50.22                             122    0.83 6  201 291 
 ZAR  HZ I        2155 55.81        37.8 0.46            122            201 291 
 SML  HZ EP   1   2155 28.03                             117   -0.49 6  239 335 
 SML  HN ES   1   2155 55.57                             117   -0.97 6  239 335 
 SML  HZ I        2155 58.61        54.7 0.26            119            239 335 
 ROSC BZ EP       2155 31.78                             115    0.96 8  256 210 
 ROSC BN ES   4   2156  2.37                             115    1.72 0  256 210 
 ROSC BZ I        2156  8.76        37.3 0.70            117            256 210 
 HEL  HZ EP   1   2155 32.82                             114    0.23 6  272 255 
 HEL  HN ES       2156  3.43                             114   -0.36 8  272 255 
 HEL  HZ I        2156 12.26        19.8 0.44            115            272 255 
 URE  HZ EP   4   2155 32.42                             113   -0.75 0  281 291 
 URE  HN ES   4   2156  3.05                             113   -1.77 0  281 291 
 GUY2CHZ EP   4   2155 37.14                             111    0.96 0  303 234 
 GUY2CHN ES   1   2156  9.55                             111   -0.64 5  303 234 
 RREF HZ EP   1   2155 40.10                             110    1.33 5  324 229 
 RREF HN ES   4   2156 18.38                             110    3.58 0  324 229 
 CBOC HZ EP       2155 39.86                             109    0.50 7  334 251 
 CBOC HN ES   2   2156 16.14                             109    0.29 3  334 251 
 CBOC HZ I        2156 28.21         8.4 0.32            110            334 251 
 TOL  SZ EP   1   2155 41.66                             108    0.72 5  346 224 
 TOL  SN ES   1   2156 18.87                             108    0.22 5  346 224 
 TOL  SZ I        2156 26.57        45.5 0.38            110            346 224 
 PRA  HZ EP   1   2155 45.57                             106   -0.76 4  395 209 
 PRA  HN ES   1   2156 27.86                             106   -0.40 4  395 209 
 PRA  HZ I        2156 34.61        22.2 0.40            107            395 209 
 ORTC HZ EP       2155 46.54                             105   -0.15 6  398 216 
 ORTC HN ES   4   2156 30.77                             105    1.88 0  398 216 
 ORTC HZ I        2156 36.48        12.7 0.38            107            398 216 
 SJC  HZ EP   4   2155 45.94                             105   -1.58 0  405 327 
 SJC  HN ES   4   2156 26.39                             105   -3.99 0  405 327 
 SJC  HZ I        2156 30.10         7.6 0.56            107            405 327 
                                                                                
