 2015  829 2249 57.6 L   6.819 -73.126146.0  RSN 18 0.5 2.5LRSN                1
 GAP=138        0.99       2.6     4.2  5.0 -0.2402E+01  0.6941E+01  0.2028E+01E
 Epicentro: LOS SANTOS - SANTANDER                                             3
 ACTION:UPD 15-09-15 23:06 OP:cam  STATUS:               ID:20150829224957 L   I
 OLDACT:REG 15-08-30 03:37 OP:ar   STATUS:               ID:20150829224747     3
 2015-08-29-2247-47M.COL___361                                                 6
 STAT SP IPHASW D HRMM SECON CODA AMPLIT PERI AZIMU VELO AIN AR TRES W  DIS CAZ7
 BAR2 EZ EP       2250 17.27                             169   -0.0110 25.8 194 
 BAR2 EZ ES       2250 32.22                             169   -0.4310 25.8 194 
 BAR2 EZ I        2250 33.40        51.0 0.24            168           25.8 194 
 BRR  HZ EP       2250 19.07                             152    0.2810 72.2 296 
 BRR  HN ES       2250 36.08                             152    0.7210 72.2 296 
 BRR  HZ I        2250 39.96        41.3 0.28            149           72.2 296 
 PAM  EZ EP       2250 20.13                             152    0.5010 74.4  39 
 PAM  EN ES       2250 37.19                             152    0.3510 74.4  39 
 PAM  EZ I        2250 39.49        38.2 0.32            155           74.4  39 
 RUS  HZ EP       2250 21.11                             143   -0.3710  103 177 
 RUS  HN ES       2250 40.04                             143   -0.1010  103 177 
 RUS  HZ I        2250 41.42        20.2 0.46            145            103 177 
 OCA  HZ EP       2250 25.15                             130   -0.57 9  158 352 
 OCA  HN ES       2250 47.22                             130   -0.47 9  158 352 
 OCA  HZ I        2250 55.40        60.4 0.50            131            158 352 
 SPBC HZ EP       2250 26.38                             128    0.01 9  166 219 
 SPBC HN ES       2250 48.48                             128   -0.35 9  166 219 
 SPBC HZ I        2250 52.75        50.0 0.32            129            166 219 
 ZAR  HZ EP   2   2250 31.44                             122    1.29 4  205 291 
 ZAR  HN ES       2250 55.24                             122   -0.34 8  205 291 
 ZAR  HZ I        2251  0.26        29.4 0.32            122            205 291 
 NOR  HZ EP       2250 33.43                             118   -0.20 8  238 234 
 NOR  HE ES       2251  1.12                             118   -0.64 8  238 234 
 NOR  HZ I        2251  8.50        18.0 0.26            119            238 234 
 SML  HZ EP   2   2250 33.50                             118   -0.60 4  243 335 
 SML  HN ES   2   2251  2.10                             118   -0.49 4  243 335 
 SML  HZ I        2251  4.50        26.1 0.09            118            243 335 
 CHI  HZ EP       2250 35.95                             117    0.39 8  251 196 
 CHI  HN ES       2251  4.90                             117   -0.29 8  251 196 
 CHI  HZ I        2251  8.12        20.3 0.60            118            251 196 
 ROSC BZ EP   4   2250 37.09                             116    1.08 0  256 211 
 ROSC BN ES       2251  6.25                             116    0.24 8  256 211 
 ROSC BZ I        2251 11.45        42.4 0.40            117            256 211 
 HEL  HZ EP       2250 39.04                             114    0.96 8  275 255 
 HEL  HN ES   2   2251  9.55                             114   -0.14 4  275 255 
 HEL  HZ I        2251 15.23        14.2 0.28            115            275 255 
 URE  HZ EP   2   2250 38.01                             113   -0.78 4  285 291 
 URE  HE ES   4   2251  7.05                             113   -3.89 0  285 291 
 URE  HZ I        2251 11.16        12.1 0.14            114            285 291 
 GUY2CHZ EP       2250 41.42                             112   -0.10 7  304 235 
 GUY2CHN ES   2   2251 16.69                             112    0.88 4  304 235 
 GUY2CHZ I        2251 23.60        14.2 0.56                           304 235 
 TOL  SZ EP       2250 46.86                             109    0.68 6  347 225 
 TOL  SN ES       2251 24.76                             109    0.66 6  347 225 
 TOL  SZ I        2251 30.84        10.4 0.30            110            347 225 
 PRA  HZ EP       2250 51.21                             106   -0.22 6  395 210 
 PRA  HN ES       2251 32.97                             106   -0.48 6  395 210 
 PRA  HZ I        2251 39.63        13.7 0.24            107            395 210 
 ORTC HZ EP   2   2250 51.75                             106   -0.09 3  398 216 
 ORTC HN ES   2   2251 34.83                             106    0.65 3  398 216 
 ORTC HZ I        2251 38.48         9.3 0.20            107            398 216 
 SJC  HZ EP   2   2250 51.44                             106   -1.63 3  409 327 
 SJC  HN ES   4   2251 32.21                             106   -4.15 0  409 327 
 SJC  HZ I        2251 44.65         4.5 0.28            106            409 327 
 CRJC HZ EP   4   2250 57.60                             103   -2.20 0  465   3 
 CRJC HN ES   4   2251 45.31                             103   -3.04 0  465   3 
                                                                                
