 2015 1129 2135 15.3 L   6.794 -73.148147.5  RSN 11 0.4 1.9LRSN                1
 GAP=136        0.77       3.0     3.5  5.2 -0.2910E+01  0.7540E+01 -0.1683E+01E
 Epicentro: LOS SANTOS - SANTANDER                                             3
 ACTION:UPD 15-12-28 16:14 OP:cam  STATUS:               ID:20151129213515 L   I
 OLDACT:REG 15-11-30 04:15 OP:dnl  STATUS:               ID:20151129212750     3
 2015-11-29-2127-50M.COL___313                                                 6
 STAT SP IPHASW D HRMM SECON CODA AMPLIT PERI AZIMU VELO AIN AR TRES W  DIS CAZ7
 BAR2 EZ EP       2135 35.17                             171    0.0010 22.6 190 
 BAR2 EZ ES       2135 50.49                             171   -0.1410 22.6 190 
 BAR2 EZ I        2135 51.39        22.5 0.08            168           22.6 190 
 BRR  HZ EP   2   2135 37.08                             152    0.40 5 71.3 299 
 BRR  HN ES   2   2135 54.43                             152    1.10 5 71.3 299 
 BRR  HZ I        2135 58.03        11.2 0.14            148           71.3 299 
 PAM  EZ EP     D 2135 37.94                             151    0.1610 78.1  39 
 PAM  EN ES       2135 54.99                             151   -0.3010 78.1  39 
 PAM  EZ I        2135 57.84         7.5 0.51            156           78.1  39 
 RUS  HZ EP     D 2135 39.02                             144   -0.2010 99.9 176 
 RUS  HE ES       2135 57.69                             144   -0.1610 99.9 176 
 RUS  HZ I        2135 58.77         5.9 0.14            148           99.9 176 
 PTB  HZ EP   1   2135 43.22                             132    0.81 7  147 259 
 PTB  HE ES   2   2136  3.26                             132   -0.27 5  147 259 
 PTB  HZ I        2136  8.95        10.3 0.13            131            147 259 
 SPBC HZ EP       2135 44.06                             129    0.15 9  162 219 
 SPBC HE ES       2136  6.51                             129    0.32 9  162 219 
 SPBC HZ I        2136 12.02        11.3 0.11            131            162 219 
 ZAR  HE ES       2136 13.46                             123    0.17 9  204 292 
 ZAR  HZ I        2136 20.48         8.1 0.19            123            204 292 
 NOR  HZ EP       2135 51.37                             119    0.27 8  234 235 
 NOR  HE ES       2136 18.91                             119   -0.09 8  234 235 
 NOR  HZ I        2136 24.63         7.2 0.28            120            234 235 
 SML  HZ EP       2135 51.91                             118   -0.21 8  244 335 
 SML  HE ES   2   2136 20.23                             118   -0.57 4  244 335 
 SML  HZ I        2136 22.15         7.3 0.11            119            244 335 
 HEL  HE ES   2   2136 26.15                             115   -0.84 4  272 256 
 HEL  HZ I        2136 37.13         4.9 0.57            116            272 256 
 GUY2CHZ EP   4   2135 59.78                             113    0.82 0  301 235 
 GUY2CHN ES       2136 32.29                             113   -0.69 7  301 235 
 GUY2CHZ I        2136 41.69         6.8 0.39                           301 235 
                                                                                
