 2015 1129 2356 11.2 L   6.799 -73.190134.0  RSN  7 0.3 1.5LRSN                1
 GAP=131        0.84       3.7     4.0  7.0 -0.3374E+01  0.1493E+01  0.2472E+01E
 Epicentro: ZAPATOCA - SANTANDER                                               3
 ACTION:UPD 15-12-28 16:14 OP:cam  STATUS:               ID:20151129235611 L   I
 OLDACT:REG 15-11-30 04:21 OP:dnl  STATUS:               ID:20151129234737     3
 2015-11-29-2347-37M.COL___313                                                 6
 STAT SP IPHASW D HRMM SECON CODA AMPLIT PERI AZIMU VELO AIN AR TRES W  DIS CAZ7
 BAR2 EZ EP   2   2356 29.64                             170    0.24 5 22.8 178 
 BAR2 EZ ES       2356 43.56                             170   -0.0410 22.8 178 
 BAR2 EZ I        2356 45.89        18.1 0.17            172           22.8 178 
 BRR  HE ES       2356 45.67                             152   -0.4810 67.0 301 
 BRR  HZ I        2356 53.77         5.4 0.06            149           67.0 301 
 PAM  EZ EP       2356 32.55                             147    0.1710 80.7  42 
 PAM  EN ES       2356 48.99                             147    0.0810 80.7  42 
 PAM  EZ I        2356 51.88         2.5 0.35            150           80.7  42 
 RUS  HZ EP       2356 33.43                             141   -0.4010  101 173 
 RUS  HE ES       2356 51.88                             141    0.4010  101 173 
 RUS  HZ I        2356 53.47         4.9 0.21            147            101 173 
 PTB  HZ EP   2   2356 36.53                             130   -0.24 5  143 259 
 PTB  HN ES       2356 57.33                             130    0.61 9  143 259 
 PTB  HZ I        2357  3.20         4.2 0.14            131            143 259 
 SPBC HN ES       2356 59.45                             127   -0.36 9  160 218 
 SML  HE ES   2   2357 15.10                             115    0.20 4  242 336 
 SML  HZ I        2357 19.74                             116            242 336 
                                                                                
