 2011 1129 2247 57.3 L   6.737 -73.045126.8  RSN  4 0.3 1.4LRSN                1
 GAP=153        0.57       4.7     6.3  7.9  0.2764E+01 -0.1122E+02  0.2342E+01E
 Epicentro: ARATOCA - SANTANDER                                                3
 ACTION:UPD 12-07-13 16:13 OP:ep   STATUS:               ID:20111129224757 L   I
 2011-11-29-2244-06S.COL___159                                                 6
 STAT SP IPHASW D HRMM SECON CODA AMPLIT PERI AZIMU VELO AIN AR TRES W  DIS CAZ7
 BAR2 SZ ES   2   2248 27.83                             170   -0.35 5 22.1 224 
 BAR2 SZ I        2248 29.38         7.3 0.53                          22.1 224 
 PAM  SZ EP   1   2248 17.79                             147    0.26 7 76.8  30 
 PAM  SE ES   2   2248 33.14                             147   -0.15 5 76.8  30 
 BRR  HZ EP   1   2248 16.86                             144   -0.50 7 84.3 299 
 BRR  HZ I        2248 25.05        11.5 0.47                          84.3 299 
 BRR  HN ES   1   2248 33.27                             144    0.30 7 84.3 299 
 RUS  HZ EP   1   2248 18.84                             142    0.12 7 93.4 183 
 RUS  HE ES   2   2248 35.51                             142    0.11 5 93.4 183 
 RUS  HZ I        2248 37.97         2.1 0.31                          93.4 183 
                                                                                
