 2016  529 2351 11.3 L   6.791 -73.146147.4  RSN  6 0.4 1.6LRSN                1
 GAP=137        1.12       5.3     5.6  7.6 -0.7459E+01  0.5647E+01  0.4318E+01E
 Epicentro: LOS SANTOS - SANTANDER                                             3
 ACTION:UPD 16-08-18 17:50 OP:cam  STATUS:               ID:20160529235111 L   I
 OLDACT:REG 16-05-30 02:38 OP:drio STATUS:               ID:20160529234745     3
 2016-05-29-2347-45M.COL___316                                                 6
 STAT SP IPHASW D HRMM SECON CODA AMPLIT PERI AZIMU VELO AIN AR TRES W  DIS CAZ7
 BAR2 EZ EP       2351 30.99                             171   -0.0810 22.4 190 
 BAR2 EZ ES       2351 45.92                             171   -0.5910 22.4 190 
 BAR2 EZ I        2351 48.64        12.0 0.26            169           22.4 190 
 BRR  HZ EP       2351 32.80                             153    0.1910 71.7 299 
 BRR  HE ES       2351 49.89                             153    0.6310 71.7 299 
 PAM  EZ EP       2351 33.82                             151    0.1310 78.1  39 
 PAM  EE ES       2351 51.27                             151    0.0810 78.1  39 
 PAM  EZ I        2351 53.32         6.8 0.48            156           78.1  39 
 RUS  HZ EP       2351 34.97                             144   -0.1310 99.6 176 
 RUS  HE ES       2351 53.68                             144   -0.0210 99.6 176 
 RUS  HZ I        2351 54.80         2.4 0.40            146           99.6 176 
 PTB  HZ EP       2351 37.84                             132   -0.51 9  148 259 
 PTB  HN ES       2351 58.77                             132   -0.70 9  148 259 
 PTB  HZ I        2352  6.15         6.3 0.38            132            148 259 
 SPBC HZ EP       2351 40.03                             130    0.22 9  162 219 
 SPBC HE ES       2352  2.89                             130    0.81 9  162 219 
 SPBC HZ I        2352  9.45         6.2 0.20            130            162 219 
                                                                                
