 2017  329 2021  9.3 L   6.753 -73.146139.2  RSN  6 0.3 2.0LRSN                1
 GAP=139        0.56       2.2     2.9  4.6  0.9844E+00  0.4723E+01  0.1742E+01E
 Epicentro: LOS SANTOS - SANTANDER                                             3
 ACTION:UPD 17-05-25 18:47 OP:jn   STATUS:               ID:20170329202109 L   I
 OLDACT:UP  17-03-30 03:29 OP:cog  STATUS:               ID:20170329201545d    3
 OLDACT:DUP 17-03-30 03:23 OP:cog  STATUS:               ID:20170329201545d    3
 2017-03-29-2018-00M.COL___368                                                 6
 STAT SP IPHASW D HRMM SECON CODA AMPLIT PERI AZIMU VELO AIN AR TRES W  DIS CAZ7
 BRR  HZ EP       2021 30.17                             150    0.2410 73.8 302 
 BRR  HN ES       2021 46.22                             150    0.2310 73.8 302 
 BRR  HZ I        2021 51.54        23.6 0.34            152           73.8 302 
 PAM  EZ EP       2021 31.16                             148    0.0510 81.5  37 
 PAM  EE ES       2021 47.94                             148   -0.1610 81.5  37 
 PAM  EZ I        2021 50.09        23.5 0.56            153           81.5  37 
 RUS  HZ EP       2021 32.15                             144    0.0910 95.4 176 
 RUS  HN ES       2021 49.58                             144   -0.2110 95.4 176 
 RUS  HZ I        2021 51.78        10.3 0.34            148           95.4 176 
 PTB  HZ EP       2021 35.40                             131   -0.28 9  147 261 
 PTB  HN ES   3   2021 55.23                             131   -1.00 2  147 261 
 ZAR  HZ EP       2021 41.34                             121   -0.22 8  206 293 
 ZAR  HN ES       2022  6.73                             121    0.03 8  206 293 
 CHI  HN ES       2022 15.12                             116    0.30 8  244 195 
                                                                                
