 2012  829 2235 18.9 L   6.466 -72.825  0.8  RSN  5 0.4 1.2LRSN                1
 GAP=235        0.85       5.2    18.7 16.2  0.8323E+02  0.2730E+03  0.6752E+02E
 Epicentro: SAN JOAQUIN - SANTANDER                                            3
 ACTION:UPD 12-09-10 11:59 OP:ep   STATUS:               ID:20120829223518 L   I
 2012-08-29-2230-00M.COL___218                                                 6
 STAT SP IPHASW D HRMM SECON CODA AMPLIT PERI AZIMU VELO AIN AR TRES W  DIS CAZ7
 BAR2 SZ EP   1   2235 26.10                              47   -0.47 7 41.9 289 
 BAR2 SZ I        2235 26.34        38.4 0.11                          41.9 289 
 RUS  HZ EP   1   2235 31.79                              47    0.76 7 69.6 204 
 RUS  HN ES       2235 40.17                              47   -0.2910 69.6 204 
 RUS  HZ I        2235 41.60         4.8 0.18                          69.6 204 
 GIR2 SZ EP   1   2235 31.90                              47   -0.20 7 79.0 329 
 BRR  HZ I        2235 48.41         8.3 0.37                           121 306 
 BRR  HN ES       2235 53.52                              47    0.1010  121 306 
 PTB  HZ I        2235 49.23         2.1 0.21                           181 273 
 PTB  HN ES   1   2236  9.77                              37    0.32 7  181 273 
                                                                                
