 2015  729 2244 20.6 L   6.754 -73.117140.0  RSN 11 0.5 2.0LRSN                1
 GAP=142        1.08       3.9     4.3  6.3 -0.1483E+01  0.1167E+02  0.6893E+01E
 Epicentro: LOS SANTOS - SANTANDER                                             3
 ACTION:UPD 15-09-08 21:51 OP:cam  STATUS:               ID:20150729224420 L   I
 OLDACT:UP  15-07-30 05:26 OP:ak   STATUS:               ID:20150729223750     3
 OLDACT:UP  15-07-30 05:23 OP:ak   STATUS:               ID:20150729223750     3
 OLDACT:REG 15-07-30 04:18 OP:ak   STATUS:               ID:20150729223750     3
 2015-07-29-2237-50M.COL___346                                                 6
 STAT SP IPHASW D HRMM SECON CODA AMPLIT PERI AZIMU VELO AIN AR TRES W  DIS CAZ7
 BAR2 EZ EP       2244 39.17                             172   -0.2810 19.3 202 
 BAR2 EZ ES       2244 54.95                             172    0.7910 19.3 202 
 BAR2 EZ I        2244 57.21        28.3 0.31            168           19.3 202 
 BRR  HZ EP   1   2244 41.35                             150   -0.09 7 76.5 301 
 BRR  HN ES       2244 58.39                             150    0.6910 76.5 301 
 BRR  HZ I        2245  2.77        11.7 0.13            149           76.5 301 
 PAM  EZ EP       2244 42.07                             149   -0.2610 79.5  35 
 PAM  EN ES       2244 59.17                             149   -0.1110 79.5  35 
 PAM  EZ I        2245  0.91        18.1 0.20            156           79.5  35 
 RUS  HZ EP       2244 43.51                             144    0.1110 95.3 178 
 RUS  HE ES       2245  0.28                             144   -0.9010 95.3 178 
 RUS  HZ I        2245  4.06        10.4 0.44            146           95.3 178 
 ZAR  HZ EP   1   2244 53.03                             120   -0.15 6  209 293 
 ZAR  HN ES       2245 17.86                             120   -0.74 8  209 293 
 ZAR  HZ I        2245 23.58        13.4 0.23            122            209 293 
 NOR  HZ EP       2244 55.95                             117   -0.01 8  234 236 
 NOR  HE ES       2245 23.46                             117   -0.09 8  234 236 
 CHI  HZ EP       2244 57.59                             116    0.06 8  245 196 
 CHI  HN ES       2245 26.91                             116    0.57 8  245 196 
 CHI  HZ I        2245 31.82         4.7 0.43            119            245 196 
 HEL  HZ EP       2245  0.92                             113    0.19 8  274 257 
 HEL  HN ES       2245 31.84                             113   -0.20 8  274 257 
 HEL  HZ I        2245 40.46         9.0 0.30            115            274 257 
 GUY2CHZ EP       2245  4.81                             111    0.90 7  301 236 
 GUY2CHN ES       2245 37.77                             111    0.08 7  301 236 
 GUY2CHZ I        2245 46.25         7.3 0.34                           301 236 
 TOL  SZ EP   1   2245  9.04                             108    0.57 5  342 226 
 TOL  SN ES       2245 45.26                             108   -0.55 7  342 226 
 TOL  SZ I        2245 56.81         6.2 0.55            110            342 226 
 PAL  HZ EP   1   2245 15.52                             105   -0.06 4  406 240 
 PAL  HN ES       2245 58.13                             105   -0.35 6  406 240 
 PAL  HZ I        2246  2.74         4.3 0.10            107            406 240 
                                                                                
