 2017  529 2050 52.1 L   6.777 -73.142145.2  RSN 11 0.5 2.0LRSN                1
 GAP=211        1.00       4.2     4.2  6.6  0.7139E+01  0.1602E+01  0.1329E+01E
 Epicentro: LOS SANTOS - SANTANDER                                             3
 ACTION:UPD 17-06-16 13:40 OP:jn   STATUS:               ID:20170529205052 L   I
 OLDACT:UP  17-05-30 05:37 OP:dnl  STATUS:               ID:20170529204738     3
 OLDACT:UP  17-05-30 05:36 OP:dnl  STATUS:               ID:20170529204738     3
 OLDACT:REG 17-05-30 05:31 OP:dnl  STATUS:               ID:20170529204738     3
 2017-05-29-2048-00M.COL___365                                                 6
 STAT SP IPHASW D HRMM SECON CODA AMPLIT PERI AZIMU VELO AIN AR TRES W  DIS CAZ7
 BRR  HZ IP     C 2051 13.28                             152   -0.0410 72.8 300 
 BRR  HN ES       2051 30.22                             152    0.3810 72.8 300 
 BRR  HZ I        2051 33.68        17.0 0.16            149           72.8 300 
 RUS  HZ EP   2   2051 15.35                             144   -0.30 5 98.0 176 
 RUS  HE ES       2051 33.95                             144   -0.0410 98.0 176 
 RUS  HZ I        2051 34.69        14.4 0.34            143           98.0 176 
 PTB  HZ EP       2051 18.40                             132   -0.65 9  148 260 
 PTB  HN ES       2051 39.10                             132   -0.95 9  148 260 
 PTB  HZ I        2051 44.74         9.3 0.54            129            148 260 
 SPBC HZ EP       2051 20.34                             129   -0.09 9  161 220 
 SPBC HN ES       2051 42.69                             129    0.19 9  161 220 
 SPBC HZ I        2051 44.87        21.8 0.48            127            161 220 
 YPLC HZ IP     C 2051 21.64                             127   -0.01 9  174 151 
 YPLC HE ES       2051 45.10                             127    0.43 9  174 151 
 YPLC HZ I        2051 48.08         6.3 0.24            128            174 151 
 ZAR  HZ EP   2   2051 24.44                             122   -0.25 4  205 293 
 ZAR  HE ES       2051 50.25                             122    0.18 8  205 293 
 ZAR  HZ I        2051 55.44        11.9 0.42            121            205 293 
 NOR  HZ EP       2051 27.89                             118    0.18 8  234 235 
 NOR  HE ES       2051 56.06                             118    0.60 8  234 235 
 NOR  HZ I        2052  2.28         7.2 0.26            117            234 235 
 CHI  HZ EP   2   2051 29.54                             117   -0.01 4  246 195 
 CHI  HN ES       2051 58.04                             117   -0.69 8  246 195 
 CHI  HZ I        2052  2.69         3.8 0.52            117            246 195 
 ROSC BZ EP   9   2051 31.93                             117    1.92 0  251 211 
 ROSC BN ES       2052  1.25                             116   -0.22 8  251 211 
 ROSC BZ I    4   2052  5.33         9.8 0.45            116            251 211 
 CBOC HZ EP       2051 39.83                             110    0.84 7  333 253 
 CBOC HN ES       2052 16.14                             110    0.61 7  333 253 
 CBOC HZ I        2052 27.24         2.1 0.44            109            333 253 
 ORTC HZ EP   2   2051 45.09                             106   -0.74 3  394 216 
 ORTC HE ES   4   2052 30.55                             106    2.84 0  394 216 
 ORTC HZ I        2052 35.58         3.7 0.26            106            394 216 
                                                                                
