 2017 1229 2312 27.9 L   6.727 -73.157137.0  RSN  4 0.1 1.5LRSN                1
 GAP=154        0.37       3.7     2.1  3.4 -0.3832E+01  0.3842E+01 -0.4399E+01E
 Epicentro: VILLANUEVA - SANTANDER                                             3
 ACTION:UPD 18-01-04 13:25 OP:rebc STATUS:               ID:20171229231227 L   I
 OLDACT:REG 17-12-30 06:02 OP:edw  STATUS:               ID:20171229230627     3
 2017-12-29-2308-00M.COL___460                                                 6
 STAT SP IPHASW D HRMM SECON CODA AMPLIT PERI AZIMU VELO AIN AR TRES W  DIS CAZ7
 BAR2 EZ ES       2313  0.71                             173   -0.0310 15.1 191 
 BAR2 EZ I        2313  4.10         9.2 0.26            174           15.1 191 
 PAM  EZ EP       2312 49.78                             147    0.1010 84.5  37 
 PAM  EN ES       2313  6.62                             147   -0.0310 84.5  37 
 PAM  EZ I        2313  9.01         6.2 0.64            150           84.5  37 
 PTB  HZ EP       2312 53.76                             130   -0.19 9  145 262 
 PTB  HN ES       2313 14.40                             130    0.15 9  145 262 
 PTB  HZ I        2313 17.57         3.3 0.48            133            145 262 
 ZAR  HZ EP       2313  0.11                             120    0.08 8  206 294 
 ZAR  HN ES       2313 24.99                             120   -0.08 8  206 294 
 ZAR  HZ I        2313 27.23         2.9 0.38            123            206 294 
                                                                                
