 2017  129 2204 28.2 L   6.780 -73.170148.4  RSN  6 0.4 1.3LRSN                1
 GAP=134        1.10       4.9     5.7  7.9 -0.3277E+01  0.5318E+01  0.6342E+01E
 Epicentro: LOS SANTOS - SANTANDER                                             3
 ACTION:UPD 17-05-22 16:04 OP:jn   STATUS:               ID:20170129220428 L   I
 OLDACT:REG 17-01-30 02:31 OP:edw  STATUS:               ID:20170129215745     3
 2017-01-29-2158-00M.COL___342                                                 6
 STAT SP IPHASW D HRMM SECON CODA AMPLIT PERI AZIMU VELO AIN AR TRES W  DIS CAZ7
 BAR2 EZ EP       22 4 47.40                             172   -0.6610 20.9 184 
 BAR2 EZ ES       22 5  3.08                             172   -0.5010 20.9 184 
 BAR2 EZ I        22 5  4.24         6.2 0.24            170           20.9 184 
 BRR  HZ EP       22 4 49.95                             153    0.4310 69.9 301 
 BRR  HN ES       22 5  6.79                             153    0.6110 69.9 301 
 PAM  EZ IP     C 22 4 51.02                             150    0.1610 80.8  40 
 PAM  EZ ES       22 5  8.34                             150   -0.2210 80.8  40 
 PAM  EZ I        22 5 10.17         4.5 0.52            151           80.8  40 
 RUS  HZ EP       22 4 52.39                             145    0.3610 98.7 174 
 RUS  HN ES       22 5 11.09                             145    0.4410 98.7 174 
 RUS  HZ I        22 5 11.75         2.7 0.28            144           98.7 174 
 PTB  HZ EP       22 4 54.66                             133   -0.40 9  145 259 
 PTB  HN ES       22 5 15.79                             133   -0.26 9  145 259 
 PTB  HZ I        22 5 17.45         2.1 0.38            133            145 259 
 CHI  HN ES       22 5 34.93                             118   -0.05 8  246 195 
 CHI  HZ I        22 5 39.54         1.6 0.70            118            246 195 
                                                                                
