 2017  829 2030 19.0 L   6.819 -73.079143.5  RSN  4 0.4 1.7LRSN                1
 GAP=144        0.75       4.9     7.9  9.0  0.9743E+01 -0.3103E+02 -0.1262E+02E
 Epicentro: LOS SANTOS - SANTANDER                                             3
 ACTION:UPD 17-09-04 20:26 OP:rebc STATUS:               ID:20170829203019 L   I
 OLDACT:UP  17-08-30 03:21 OP:and  STATUS:               ID:20170829202746     3
 OLDACT:UP  17-08-30 03:21 OP:and  STATUS:               ID:20170829202746     3
 OLDACT:UP  17-08-30 03:19 OP:and  STATUS:               ID:20170829202746     3
 OLDACT:REG 17-08-30 02:44 OP:and  STATUS:               ID:20170829202746     3
 2017-08-29-2028-00M.COL___417                                                 6
 STAT SP IPHASW D HRMM SECON CODA AMPLIT PERI AZIMU VELO AIN AR TRES W  DIS CAZ7
 BAR2 EZ EP   2   2030 38.00                             168   -0.48 5 27.6 205 
 BAR2 EZ ES       2030 53.25                             168   -0.4010 27.6 205 
 BAR2 EZ I        2030 55.78        11.2 0.33            162           27.6 205 
 PAM  EZ IP     C 2030 41.03                             152    0.4010 71.1  36 
 PAM  EN ES   2   2030 57.16                             152   -0.33 5 71.1  36 
 PAM  EZ I        2031  0.19         7.7 0.56            144           71.1  36 
 BRR  HZ EP   2   2030 39.83                             150   -0.43 5 76.9 294 
 BRR  HZ I        2030 52.88        19.0 0.38            135           76.9 294 
 BRR  HN ES       2030 56.98                             150    0.1510 76.9 294 
 RUS  HZ EP   2   2030 42.23                             142   -0.46 5  102 180 
 RUS  HN ES       2031  1.42                             142    0.2710  102 180 
 RUS  HZ I        2031  1.92         5.5 0.30            136            102 180 
                                                                                
