 2013  629 2053 20.3 L   6.807 -73.161149.6  RSN 16 0.4 2.6LRSN                1
 GAP= 70        0.76       2.1     2.5  4.1 -0.1308E-01  0.1320E+01  0.1232E+01E
 Epicentro: LOS SANTOS - SANTANDER                                             3
 ACTION:UPD 14-01-08 09:58 OP:ep   STATUS:               ID:20130629205320 L   I
 OLDACT:UP  13-06-30 05:07 OP:cam  STATUS:               ID:20130629204959     3
 OLDACT:REG 13-06-29 22:30 OP:cam  STATUS:               ID:20130629204959     3
 2013-06-29-2049-59M.COL___266                                                 6
 STAT SP IPHASW D HRMM SECON CODA AMPLIT PERI AZIMU VELO AIN AR TRES W  DIS CAZ7
 BAR2 SZ EP       2053 40.24                             170   -0.1610 23.9 186 
 BAR2 SZ ES   1   2053 55.74                             170   -0.34 7 23.9 186 
 GIR2 SZ EP       2053 40.33                             168   -0.0610 30.2 353 
 BRR  HZ IP     D 2053 42.04                             154    0.2810 69.3 299 
 BRR  HN ES       2053 59.34                             154    0.8410 69.3 299 
 BRR  HZ I        2054  3.16        76.4 0.14            148           69.3 299 
 PAM  SZ EP       2053 43.06                             151    0.1210 77.8  41 
 PAM  SN ES       2054  0.47                             151   -0.1410 77.8  41 
 PAM  SZ I        2054  2.30       110.6 0.48            150           77.8  41 
 RUS  HZ EP       2053 44.25                             144   -0.2410  102 175 
 RUS  HN ES   1   2054  3.18                             144   -0.18 7  102 175 
 RUS  HZ I        2054  3.87        67.8 0.30            141            102 175 
 PTB  HZ EP   1   2053 46.72                             133   -0.72 7  146 258 
 PTB  HN ES   1   2054  8.06                             133   -0.56 7  146 258 
 PTB  HZ I        2054 10.37        31.4 0.42            127            146 258 
 TAM  HZ IP     D 2053 48.63                             131    0.19 9  157 105 
 TAM  HZ I        2053 48.71        78.9 0.20            128            157 105 
 TAM  HN ES   1   2054 10.67                             131    0.27 7  157 105 
 OCA  HZ EP   1   2053 48.62                             131   -0.19 7  159 354 
 OCA  HN ES   1   2054 10.18                             131   -0.87 7  159 354 
 OCA  HZ I        2054 19.06        33.3 0.54            126            159 354 
 ZAR  HZ EP   1   2053 52.49                             123   -0.31 6  202 292 
 ZAR  HE ES       2054 18.34                             123    0.18 9  202 292 
 ZAR  HZ I        2054 23.92        29.8 0.32            118            202 292 
 NOR  HZ EP       2053 56.49                             119    0.34 8  234 234 
 NOR  HE ES   1   2054 24.36                             119    0.24 6  234 234 
 NOR  HZ I        2054 29.76        40.1 0.16            115            234 234 
 SML  HZ EP   1   2053 57.11                             118    0.13 6  242 336 
 SML  HE ES   1   2054 25.23                             118   -0.37 6  242 336 
 SML  HZ I        2054 28.62        79.4 0.24            114            242 336 
 CHI  HZ EP     C 2053 58.44                             118    0.20 8  249 195 
 CHI  HN ES       2054 27.85                             118    0.00 8  249 195 
 CHI  HZ I        2054 33.97        19.4 0.34            114            249 195 
 HEL  HN ES   1   2054 31.68                             116   -0.27 6  271 256 
 VIL  SZ EP       2054  3.91                             113   -0.03 7  304 191 
 VIL  SN ES   2   2054 38.10                             113    0.12 4  304 191 
 COD  HZ EP   1   2054  8.97                             110    0.26 5  347 355 
 COD  HN ES       2054 46.87                             110    0.39 6  347 355 
 COD  HZ I        2054 54.35         6.7 0.28            106            347 355 
 PRA  HZ EP   1   2054 13.97                             107    0.04 4  392 209 
 PRA  HZ I        2055  2.30        16.5 0.50            104            392 209 
                                                                                
