 2011  429 2146  5.1 L   6.497 -73.548118.0  RSN  8 0.5 2.2LRSN                1
 GAP=159        1.08       8.1     8.3  9.7 -0.4778E+02  0.1484E+02 -0.1149E+01E
 Epicentro: SANTA HELENA DEL OPON - SANTANDER                                  3
 ACTION:UP  11-06-22 15:34 OP:REBC STATUS:               ID:20110429214605 L   I
 2011-04-29-2143-48S.COL___139                                                 6
 STAT SP IPHASW D HRMM SECON CODA AMPLIT PERI AZIMU VELO SNR AR TRES W  DIS CAZ7
 BAR2 SZ EP       2146 22.44                             159     0.410   42  75 
 BAR2 SZ ES   1   2146 34.97                             159    -0.2 7   42  75 
 BAR2 SZ I        2146 35.96        85.6 0.19                            42  75 
 BTL  SZ EP       2146 23.09                             153     0.410   56  34 
 BRR  HZ EP   1   2146 23.16                             147     0.0 7   70 345 
 BRR  HZ I        2146 27.89        30.5 0.10                            70 345 
 BRR  HN ES   1   2146 37.29                             147    -0.1 7   70 345 
 GIR2 SZ EP       2146 24.11                             145     0.310   75  31 
 PAM  SZ EP   1   2146 29.29                             129     0.2 7  132  45 
 PAM  SN ES   1   2146 46.86                             129    -0.9 7  132  45 
 GRA  SZ EP   1   2146 31.87                             120    -1.0 7  174  28 
 GRA  SZ ES   1   2146 54.72                             120     0.2 7  174  28 
 GRA  SZ I        2147  3.39        10.0 0.34                           174  28 
 NOR  SZ EP       2146 32.61                             119    -0.6 9  179 235 
 NOR  SN ES   1   2146 55.31                             119     0.1 7  179 235 
 OCA  SZ EP   1   2146 35.33                             117     0.3 6  194   7 
                                                                                
