 2015  629 2344 42.0 L   6.812 -73.152148.0  RSN  5 0.2 1.8LRSN                1
 GAP=200        0.61       2.8     4.9  4.7  0.6103E+01  0.8409E+01 -0.8734E+00E
 Epicentro: LOS SANTOS - SANTANDER                                             3
 ACTION:UPD 15-09-10 22:15 OP:cam  STATUS:               ID:20150629234442 L   I
 OLDACT:REG 15-06-30 04:20 OP:drio STATUS:               ID:20150629233749     3
 2015-06-29-2337-49M.COL___319                                                 6
 STAT SP IPHASW D HRMM SECON CODA AMPLIT PERI AZIMU VELO AIN AR TRES W  DIS CAZ7
 BAR2 EZ EP       2345  1.71                             170   -0.2310 24.6 188 
 BAR2 EZ ES       2345 17.11                             170   -0.3710 24.6 188 
 BAR2 EZ I        2345 18.11         9.0 0.18            169           24.6 188 
 RUS  HZ EP       2345  6.38                             144    0.2910  102 176 
 RUS  HE ES       2345 25.19                             144    0.3210  102 176 
 RUS  HZ I        2345 25.83         4.8 0.26            146            102 176 
 ZAR  HZ EP       2345 14.50                             123    0.01 9  203 292 
 ZAR  HE ES       2345 39.88                             123    0.07 9  203 292 
 ZAR  HZ I        2345 45.42         5.9 0.42            122            203 292 
 SML  HZ EP       2345 18.50                             118   -0.10 8  242 335 
 SML  HN ES       2345 47.37                             118    0.23 8  242 335 
 SML  HZ I        2345 55.72         6.7 0.10            118            242 335 
 PRA  HZ EP       2345 35.42                             107   -0.29 6  393 209 
 PRA  HE ES       2346 17.43                             107   -0.16 6  393 209 
 PRA  HZ I        2346 22.36         2.4 0.56            107            393 209 
                                                                                
