 2015 1029 2224  6.9 L   6.876 -73.306126.3  RSN 17 0.4 2.5LRSN                1
 GAP= 54        0.89       2.3     3.4  4.4 -0.1058E+01  0.6396E+01  0.4881E+00E
 Epicentro: BETULIA - SANTANDER                                                3
 ACTION:UPD 15-12-22 20:43 OP:cam  STATUS:               ID:20151029222406 L   I
 OLDACT:UP  15-10-30 07:40 OP:dnl  STATUS:               ID:20151029221749     3
 OLDACT:UP  15-10-30 07:38 OP:dnl  STATUS:               ID:20151029221749     3
 OLDACT:UP  15-10-30 07:27 OP:dnl  STATUS:               ID:20151029221749     3
 OLDACT:UP  15-10-30 07:26 OP:dnl  STATUS:               ID:20151029221749     3
 OLDACT:UP  15-10-30 04:32 OP:dnl  STATUS:               ID:20151029221749     3
 OLDACT:REG 15-10-30 03:48 OP:dnl  STATUS:               ID:20151029221749     3
 2015-10-29-2217-49M.COL___322                                                 6
 STAT SP IPHASW D HRMM SECON CODA AMPLIT PERI AZIMU VELO AIN AR TRES W  DIS CAZ7
 BAR2 EZ EP       2224 24.60                             164    0.1110 34.2 157 
 BAR2 EZ ES       2224 37.79                             164   -0.4410 34.2 157 
 BRR  HZ EP       2224 24.99                             156    0.1210 51.7 300 
 BRR  HN ES       2224 39.21                             156    0.3210 51.7 300 
 PAM  EZ EP       2224 27.70                             144    0.1510 84.3  53 
 PAM  EN ES       2224 44.02                             144    0.3510 84.3  53 
 PAM  EZ I        2224 46.26        54.2 0.30            142           84.3  53 
 RUS  HZ EP       2224 29.44                             136   -0.2410  112 167 
 RUS  HN ES       2224 47.09                             136   -0.3610  112 167 
 RUS  HZ I        2224 48.21        20.6 0.25            134            112 167 
 OCA  HZ EP       2224 32.91                             127    0.09 9  151 359 
 OCA  HE ES       2224 52.58                             127   -0.46 9  151 359 
 OCA  HZ I        2224 55.71       143.2 0.28            122            151 359 
 TAM  HZ EP       2224 35.34                             122    0.29 9  174 106 
 TAM  HN ES   4   2224 56.03                             122   -0.99 0  174 106 
 TAM  HZ I        2224 56.48        21.5 0.16            120            174 106 
 ZAR  HZ EP       2224 36.18                             120    0.12 9  185 292 
 ZAR  HN ES   4   2224 59.62                             120    0.80 0  185 292 
 ZAR  HZ I        2225  4.04        35.9 0.27            116            185 292 
 NOR  HZ EP       2224 40.17                             115   -0.41 8  226 230 
 NOR  HE ES       2225  7.20                             115    0.33 8  226 230 
 NOR  HZ I        2225  8.43        12.8 0.10            112            226 230 
 SML  HZ EP       2224 40.65                             115   -0.21 8  229 338 
 SML  HN ES   2   2225  7.30                             115   -0.06 4  229 338 
 CHI  HZ EP       2224 44.51                             112    0.45 8  253 191 
 CHI  HZ I        2224 45.29        13.4 0.38            110            253 191 
 CHI  HN ES       2225 12.82                             112   -0.23 8  253 191 
 HEL  HZ EP       2224 45.47                             112    0.97 8  257 253 
 HEL  HN ES   4   2225 11.47                             112   -2.38 0  257 253 
 HEL  HZ I        2225 18.76        19.1 0.60            108            257 253 
 URE  HZ EP       2224 44.43                             111   -0.42 8  264 292 
 URE  HN ES   4   2225  9.37                             111   -5.09 0  264 292 
 URE  HZ I        2225 14.80        27.1 0.42            107            264 292 
 GUY2CHZ EP   4   2224 50.06                             109    1.44 0  292 231 
 GUY2CHN ES   4   2225 19.31                             109   -1.86 0  292 231 
 CBOC HZ EP   4   2224 52.25                             107    0.81 0  320 250 
 CBOC HE ES   4   2225 21.71                             107   -4.47 0  320 250 
 CBOC HZ I        2225 25.72        22.8 0.10            104            320 250 
 DBB  SZ EP       2224 50.79                             107   -0.73 7  321 273 
 DBB  SZ I        2225 30.67        61.7 0.30            104            321 273 
 ELA  HZ EP       2224 52.39                             107    0.27 7  322 226 
 ELA  HN ES       2225 27.74                             107    0.34 7  322 226 
 PTGC HZ EP   4   2224 50.03                             107   -1.61 0  323 156 
 PTGC HE ES   4   2225 24.68                             107   -1.87 0  323 156 
 PTGC HZ I        2225 29.22        22.0 0.48            104            323 156 
 PAL  HZ EP       2224 59.44                             103   -0.78 6  395 237 
 PAL  HN ES   4   2225 42.93                             103    1.12 0  395 237 
                                                                                
