 2013  329 2205  6.9 L   6.719 -73.220146.0  RSN  5 0.5 1.8LRSN                1
 GAP=215        1.23       9.4     8.5 10.3  0.4957E+02  0.1171E+02  0.5960E+00E
 Epicentro: VILLANUEVA - SANTANDER                                             3
 ACTION:UPD 13-04-09 14:05 OP:ep   STATUS:               ID:20130329220506 L   I
 2013-03-29-2200-00M.COL___245                                                 6
 STAT SP IPHASW D HRMM SECON CODA AMPLIT PERI AZIMU VELO AIN AR TRES W  DIS CAZ7
 BAR2 SZ EP       22 5 26.17                             174   -0.2310 14.6 163 
 BAR2 SZ ES       22 5 40.70                             174   -0.9210 14.6 163 
 BAR2 SZ I        22 5 42.41        16.7 0.24            170           14.6 163 
 BRR  HZ EP       22 5 28.05                             153    0.1010 69.2 308 
 BRR  HE ES       22 5 45.15                             153    0.7710 69.2 308 
 BRR  HE I        22 5 48.41        21.0 0.20            150           69.2 308 
 RUS  HZ EP       22 5 30.24                             146    0.1410 92.6 171 
 RUS  HN ES       22 5 48.78                             146    0.5710 92.6 171 
 RUS  HN I        22 5 50.44         7.1 0.36            146           92.6 171 
 PTB  HZ EP   1   22 5 32.74                             134   -0.27 7  138 262 
 PTB  HN ES       22 5 53.11                             134   -0.28 9  138 262 
 PTB  HN I        22 5 59.51         9.0 0.32            132            138 262 
 ZAR  HN ES       22 6  3.89                             123   -0.05 9  200 295 
 ZAR  HN I        22 6 10.19         6.0 0.26            123            200 295 
                                                                                
