 2017  129 2040 40.9 L   6.744 -73.121140.4  RSN  5 0.5 1.2LRSN                1
 GAP=142        1.18       6.1     6.1  8.8 -0.3784E+01  0.8510E+01  0.1154E+01E
 Epicentro: LOS SANTOS - SANTANDER                                             3
 ACTION:UPD 17-05-22 16:04 OP:jn   STATUS:               ID:20170129204040 L   I
 OLDACT:REG 17-01-30 02:27 OP:edw  STATUS:               ID:20170129203748     3
 2017-01-29-2038-00M.COL___348                                                 6
 STAT SP IPHASW D HRMM SECON CODA AMPLIT PERI AZIMU VELO AIN AR TRES W  DIS CAZ7
 BAR2 EZ ES       2041 15.13                             172    0.5810 18.1 202 
 BAR2 EZ I        2041 17.47         5.6 0.32            174           18.1 202 
 BRR  HZ EP       2041  1.69                             150   -0.1410 76.7 302 
 BRR  HN ES       2041 18.58                             150    0.4610 76.7 302 
 PAM  EZ EP     C 2041  2.62                             149   -0.1610 80.7  35 
 PAM  EZ I        2041 17.08         2.2 0.46            140           80.7  35 
 PAM  EN ES       2041 19.41                             149   -0.4210 80.7  35 
 RUS  HZ EP       2041  4.11                             145    0.4210 94.2 177 
 RUS  HN ES       2041 20.97                             145   -0.4810 94.2 177 
 RUS  HZ I        2041 23.76         2.1 0.19            142           94.2 177 
 PTB  HZ EP       2041  8.04                             130    0.43 9  149 261 
 PTB  HN ES       2041 27.69                             130   -0.73 9  149 261 
 PTB  HZ I        2041 29.57         2.0 0.16            129            149 261 
                                                                                
