 2014  929 2024 41.1 L   7.417 -73.302123.3  RSN 21 0.4 2.6LRSN                1
 GAP= 98        0.71       2.0     2.5  3.7  0.6788E+00  0.2409E+01  0.9988E+00E
 Epicentro: EL PLAYON - SANTANDER                                              3
 ACTION:UPD 14-10-03 23:09 OP:nd   STATUS:               ID:20140929202441 L   I
 OLDACT:REG 14-09-30 02:34 OP:spq  STATUS:               ID:20140929201820     3
 2014-09-29-2018-20M.COL___298                                                 6
 STAT SP IPHASW D HRMM SECON CODA AMPLIT PERI AZIMU VELO AIN AR TRES W  DIS CAZ7
 BRR  HZ EP     C 2024 59.08                             154    0.1010 56.7 233 
 BRR  HN ES       2025 12.97                             154    0.0310 56.7 233 
 BRR  HZ I        2025 13.58       123.7 0.12            148           56.7 233 
 PAM  SZ EP       2025  0.46                             150    0.1710 67.1  97 
 PAM  SN ES       2025 15.31                             150    0.0410 67.1  97 
 PAM  SZ I        2025 17.38        90.8 0.20            151           67.1  97 
 OCA  HZ EP       2025  1.61                             141    0.1610 90.9 359 
 OCA  HE ES       2025 17.42                             141    0.0710 90.9 359 
 OCA  HZ I        2025 19.27        80.8 0.30            140           90.9 359 
 BAR2 SZ EP     D 2025  1.65                             141   -0.0210 92.2 172 
 BAR2 SZ ES   1   2025 17.17                             141   -0.56 7 92.2 172 
 BAR2 SZ I        2025 18.30        92.0 0.16            138           92.2 172 
 PTB  HZ EP       2025  7.15                             124   -0.41 9  160 233 
 PTB  HE ES       2025 28.29                             124    0.08 9  160 233 
 PTB  HZ I        2025 30.37        40.1 0.10            120            160 233 
 RUS  HZ EP       2025  8.98                             122   -0.23 9  170 172 
 RUS  HN ES   1   2025 31.75                             122    0.59 7  170 172 
 ZAR  HZ EP       2025  9.37                             122    0.63 9  172 273 
 ZAR  HN ES   4   2025 31.74                             122    1.42 0  172 273 
 ZAR  HZ I        2025 37.71        58.8 0.19            118            172 273 
 SML  HZ EP       2025  8.91                             121   -0.13 9  175 331 
 SML  HN ES   1   2025 30.42                             121   -0.43 7  175 331 
 SML  HZ I        2025 34.16       120.4 0.10            119            175 331 
 TAM  HZ EP     D 2025 11.84                             118    0.16 9  199 123 
 TAM  HE ES   1   2025 34.99                             118   -0.56 6  199 123 
 TAM  HZ I        2025 41.65        28.3 0.28            116            199 123 
 SPBC HZ EP       2025 13.45                             116    0.21 8  213 204 
 SPBC HN ES   4   2025 39.92                             116    1.60 0  213 204 
 SPBC HZ I        2025 47.69        36.2 0.22            113            213 204 
 URE  HZ EP   1   2025 16.62                             112   -0.53 6  249 279 
 URE  HN ES   2   2025 44.50                             112   -0.79 4  249 279 
 URE  HZ I        2025 51.67        46.3 0.16            109            249 279 
 ARGC HN ES   4   2025 58.35                             108    4.85 0  289 339 
 ARGC HZ I        2026  4.25        12.5 0.29            107            289 339 
 CHI  HZ EP   1   2025 24.16                             107   -0.75 5  312 189 
 CHI  HN ES   1   2025 59.30                             107    0.20 5  312 189 
 CHI  HZ I        2026  6.74        12.3 0.36            105            312 189 
 DBB  SZ EP   1   2025 26.28                             106    0.35 5  324 262 
 DBB  SZ ES   4   2025 58.73                             106   -2.19 0  324 262 
 GUY2CHZ EP   4   2025 29.00                             106    1.54 0  333 223 
 GUY2CHN ES   4   2026  6.91                             106    3.27 0  333 223 
 GUY2CHZ I        2026 15.94         7.8 0.30                           333 223 
 SJC  HZ IP     D 2025 28.10                             105   -0.06 7  343 323 
 SJC  HN ES   4   2026  3.48                             105   -1.41 0  343 323 
 SJC  HZ I        2026  6.43        10.4 0.60            103            343 323 
 CBOC HZ EP   1   2025 28.88                             105    0.34 5  345 240 
 CBOC HN ES   4   2026  3.70                             105   -1.86 0  345 240 
 CBOC HZ I        2026  8.79         3.5 0.36            103            345 240 
 TOL  SZ EP   4   2025 35.17                             103    1.77 0  385 216 
 TOL  SN ES   4   2026 19.23                             103    5.02 0  385 216 
 TOL  SZ I        2026 25.63        24.5 0.58            101            385 216 
 ANIL HN ES   4   2026 21.68                             102    4.64 0  398 216 
 ORTC HZ EP   1   2025 39.33                             100   -0.75 4  444 209 
 ORTC HE ES   4   2026 30.74                             100    4.63 0  444 209 
 ORTC HZ I        2026 37.36         8.6 0.36             98            444 209 
 PRA  HZ EP       2025 40.84                             100    0.53 5  445 203 
 PRA  HN ES   4   2026 27.78                             100    1.27 0  445 203 
 PRA  HZ I        2026 36.48        10.6 0.28             98            445 203 
 CAP2 HZ EP   4   2025 45.08                             100    2.18 0  467 287 
 CAP2 HE ES   4   2026 26.65                             100   -4.47 0  467 287 
 CAP2 HZ I        2026 31.64         7.7 0.40             98            467 287 
                                                                                
