 2012  129 2016  9.0 L   6.602 -73.232 30.2  RSN  5 0.2 1.1LRSN                1
 GAP= 99        0.40       2.6     4.3  3.0  0.8160E+01  0.8625E+01  0.3740E+01E
 Epicentro: CABRERA - SANTANDER                                                3
 ACTION:UP  12-02-03 08:22 OP:REBC STATUS:               ID:20120129201609 L   I
 2012-01-29-2010-00M.COL___188                                                 6
 STAT SP IPHASW D HRMM SECON CODA AMPLIT PERI AZIMU VELO SNR AR TRES W  DIS CAZ7
 BAR2 SZ ES   2   2016 18.31                             169     0.1 5    6 101 
 BAR2 SZ I        2016 19.78        18.2 0.23                             6 101 
 GIR2 SZ EP   2   2016 18.41                             113    -0.2 5   53   5 
 BRR  HZ EP       2016 21.70                              61     0.010   77 316 
 BRR  HN ES   1   2016 31.66                              61     0.1 7   77 316 
 BRR  HZ I        2016 32.64        10.1 0.39                            77 316 
 RUS  HZ EP   1   2016 22.85                              61     0.2 7   80 168 
 RUS  HN ES   2   2016 33.13                              61    -0.2 5   80 168 
 RUS  HZ I        2016 33.57         4.7 0.18                            80 168 
 PTB  HZ EP   2   2016 28.64                              61    -0.4 5  136 267 
 PTB  HN ES   2   2016 44.74                              61     0.1 5  136 267 
                                                                                
