 2013  829 2049 37.5 L   6.764 -73.152149.7  RSN  5 0.3 1.3LRSN                1
 GAP=234        0.84       5.0     5.9  7.7  0.6236E+01 -0.2403E+01 -0.2250E-01E
 Epicentro: LOS SANTOS - SANTANDER                                             3
 ACTION:UPD 14-01-14 09:08 OP:ep   STATUS:               ID:20130829204937 L   I
 OLDACT:REG 13-08-29 23:29 OP:stll STATUS:               ID:20130829204850     3
 2013-08-29-2048-50M.COL___217                                                 6
 STAT SP IPHASW D HRMM SECON CODA AMPLIT PERI AZIMU VELO AIN AR TRES W  DIS CAZ7
 BAR2 SZ EP       2049 57.35                             172   -0.1910 19.2 190 
 BAR2 SZ I        2049 57.56         4.7 0.24            172           19.2 190 
 BRR  HZ EP       2049 59.14                             153   -0.0210 72.6 302 
 BRR  HN ES       2050 16.46                             153    0.4110 72.6 302 
 RUS  HZ EP   1   2050  1.41                             146    0.03 7 96.6 175 
 RUS  HN ES       2050 19.75                             146   -0.2410 96.6 175 
 RUS  HZ I        2050 20.99         1.9 0.40            146           96.6 175 
 PTB  HZ EP       2050  4.41                             133   -0.26 9  146 260 
 PTB  HN ES       2050 25.35                             133   -0.51 9  146 260 
 PTB  HZ I        2050 27.46         3.4 0.10            133            146 260 
 SPBC HZ EP       2050  6.49                             131    0.51 9  160 220 
 SPBC HN ES       2050 28.52                             131    0.33 9  160 220 
                                                                                
