 2015  729 2327 48.5 L   6.806 -73.118136.9  RSN  6 0.5 1.7LRSN                1
 GAP=241        1.12       5.9     6.7  8.6  0.1335E+02  0.2387E+02  0.9125E+01E
 Epicentro: LOS SANTOS - SANTANDER                                             3
 ACTION:UPD 15-09-08 21:51 OP:cam  STATUS:               ID:20150729232748 L   I
 OLDACT:UP  15-07-30 05:54 OP:ak   STATUS:               ID:20150729231745     3
 OLDACT:REG 15-07-30 04:22 OP:ak   STATUS:               ID:20150729231745     3
 2015-07-29-2317-45M.COL___316                                                 6
 STAT SP IPHASW D HRMM SECON CODA AMPLIT PERI AZIMU VELO AIN AR TRES W  DIS CAZ7
 BAR2 EZ EP       2328  6.86                             169   -0.1910 24.7 197 
 BAR2 EZ ES       2328 20.89                             169   -0.6610 24.7 197 
 BAR2 EZ I        2328 23.37        12.9 0.17            175           24.7 197 
 BRR  HZ EP       2328  8.98                             150    0.1810 73.6 297 
 BRR  HZ I        2328 22.80         6.8 0.26            144           73.6 297 
 BRR  HE ES       2328 25.48                             150    0.8110 73.6 297 
 RUS  HZ EP       2328 11.45                             142    0.0610  101 178 
 RUS  HN ES       2328 29.52                             142    0.2510  101 178 
 ZAR  HZ EP   1   2328 20.87                             120    0.25 6  207 292 
 ZAR  HN ES       2328 45.00                             120   -0.70 8  207 292 
 ZAR  HZ I        2328 51.02         6.6 0.30            115            207 292 
 NOR  HZ EP   1   2328 23.77                             116   -0.24 6  238 235 
 NOR  HN ES       2328 51.34                             116   -0.39 8  238 235 
 NOR  HZ I        2328 57.20                             113            238 235 
 GUY2CHZ EP   4   2328 29.20                             110   -2.81 0  304 235 
 GUY2CHN ES       2329  6.56                             110    0.59 7  304 235 
 GUY2CHZ I        2329 13.56         1.6 0.30                           304 235 
                                                                                
