 2017 1029 2233  5.4 L   6.821 -73.039139.3  RSN  4 0.3 1.4LRSN                1
 GAP=250        0.69       7.6     8.8  5.6  0.5594E+02 -0.4036E+01 -0.9395E+01E
 Epicentro: LOS SANTOS - SANTANDER                                             3
 ACTION:UPD 17-11-07 19:39 OP:rebc STATUS:               ID:20171029223305 L   I
 OLDACT:REG 17-10-30 03:18 OP:leo  STATUS:               ID:20171029222738     3
 2017-10-29-2228-00M.COL___444                                                 6
 STAT SP IPHASW D HRMM SECON CODA AMPLIT PERI AZIMU VELO AIN AR TRES W  DIS CAZ7
 BAR2 EZ EP       2233 24.33                             167   -0.1210 29.8 212 
 BAR2 EZ ES       2233 39.11                             167   -0.1610 29.8 212 
 BAR2 EZ I        2233 40.18         7.2 0.34            165           29.8 212 
 BRR  HZ EP       2233 26.28                             148   -0.2110 80.8 293 
 BRR  HE ES       2233 43.26                             148    0.3610 80.8 293 
 RUS  HZ EP       2233 28.74                             142    0.0210  103 183 
 RUS  HN ES       2233 46.97                             142    0.0910  103 183 
 RUS  HZ I        2233 47.70         3.6 0.24            141            103 183 
 ZAR  HZ EP       2233 39.01                             119    0.47 8  214 290 
 ZAR  HN ES       2234  3.94                             119   -0.42 8  214 290 
 ZAR  HZ I        2234  5.38         2.6 0.28            120            214 290 
                                                                                
