 2016  729 2036 17.8 L   6.735 -73.150151.3  RSN  7 0.3 1.6LRSN                1
 GAP=139        0.86       4.0     4.0  6.1 -0.2501E+01  0.9001E+01 -0.3480E+01E
 Epicentro: LOS SANTOS - SANTANDER                                             3
 ACTION:UPD 17-03-29 16:56 OP:lp   STATUS:               ID:20160729203617 L   I
 OLDACT:REG 16-07-30 02:52 OP:lv   STATUS:               ID:20160729202759     3
 2016-07-29-2027-59S.COL___346                                                 6
 STAT SP IPHASW D HRMM SECON CODA AMPLIT PERI AZIMU VELO AIN AR TRES W  DIS CAZ7
 BAR2 EZ EP       2036 37.73                             174   -0.2010 16.2 193 
 BAR2 EZ ES       2036 53.55                             174   -0.1110 16.2 193 
 BAR2 EZ I        2036 55.32         6.8 0.25            173           16.2 193 
 PAM  EZ EP       2036 41.16                             150    0.2510 83.3  37 
 PAM  EE ES       2036 58.60                             150   -0.3710 83.3  37 
 PAM  EZ I        2036 59.53         7.0 0.19            153           83.3  37 
 RUS  HZ EP       2036 42.11                             147    0.5510 93.4 175 
 RUS  HN ES       2037  0.44                             147    0.3110 93.4 175 
 RUS  HZ I        2037  2.74         3.5 0.38            150           93.4 175 
 PTB  HZ EP       2036 44.81                             133   -0.22 9  146 262 
 PTB  HE ES       2037  6.44                             133    0.14 9  146 262 
 PTB  HZ I        2037  9.61         5.7 0.11            134            146 262 
 SPBC HN ES       2037  7.87                             131   -0.41 9  157 221 
 ZAR  HZ EP       2036 50.88                             123    0.07 8  206 294 
 ZAR  HN ES       2037 16.98                             123    0.39 8  206 294 
 ZAR  HZ I        2037 23.43         4.9 0.12            124            206 294 
 GUY2CHZ EP       2037  0.46                             114   -0.66 7  297 236 
 GUY2CHE ES   4   2037 38.22                             114    3.27 0  297 236 
 GUY2CHZ I        2037 45.07         3.0 0.31                           297 236 
                                                                                
