 2013 1229 2207  8.8 L   6.810 -73.178141.2  RSN  8 0.2 1.9LRSN                1
 GAP=132        0.63       2.0     3.3  4.2 -0.1306E+01  0.4004E+01 -0.7691E+00E
 Epicentro: LOS SANTOS - SANTANDER                                             3
 ACTION:UPD 14-01-13 10:22 OP:ep   STATUS:               ID:20131229220708 L   I
 OLDACT:UP  13-12-29 21:45 OP:cam  STATUS:               ID:20131229220000     3
 OLDACT:REG 13-12-29 21:23 OP:cma  STATUS:               ID:20131229220000     3
 2013-12-29-2200-00M.COL___285                                                 6
 STAT SP IPHASW D HRMM SECON CODA AMPLIT PERI AZIMU VELO AIN AR TRES W  DIS CAZ7
 BAR2 SZ ES       22 7 42.82                             170    0.0110 24.1 181 
 BAR2 SZ I        22 7 44.30        46.9 0.34            170           24.1 181 
 BRR  HZ EP       22 7 29.65                             153    0.3810 67.5 299 
 BRR  HN ES   4   22 7 46.79                             153    1.57 0 67.5 299 
 BRR  HZ I        22 7 50.24        15.9 0.32            152           67.5 299 
 PAM  SZ EP       22 7 30.78                             149    0.1410 78.8  42 
 PAM  SN ES       22 7 47.48                             149   -0.1710 78.8  42 
 PAM  SZ I        22 7 49.96        12.7 0.58            154           78.8  42 
 RUS  HZ EP       22 7 31.85                             142   -0.3810  102 174 
 RUS  HN ES       22 7 50.62                             142    0.1310  102 174 
 RUS  HZ I        22 7 51.96         5.7 0.26            145            102 174 
 PTB  HN ES       22 7 55.35                             132   -0.28 9  145 258 
 PTB  HZ I        22 7 59.77         6.9 0.64            132            145 258 
 SPBC HZ EP       22 7 37.15                             128    0.31 9  162 218 
 SPBC HN ES       22 7 58.67                             128   -0.03 9  162 218 
 SPBC HZ I        22 8  3.15        10.9 0.40            130            162 218 
 SML  HZ EP       22 7 44.55                             117   -0.37 8  241 336 
 SML  HN ES       22 8 13.30                             117    0.23 8  241 336 
 CHI  HZ EP       22 7 46.11                             116   -0.18 8  249 194 
 CHI  HN ES       22 8 15.67                             116    0.16 8  249 194 
 CHI  HZ I        22 8 18.92         4.4 0.60            119            249 194 
                                                                                
