 2013  829 2028 47.7 L   6.734 -73.187147.7  RSN  4 0.1 1.4LRSN                1
 GAP=228        0.45       3.6     3.4  3.7  0.6004E+01  0.1327E+01  0.4056E+00E
 Epicentro: VILLANUEVA - SANTANDER                                             3
 ACTION:UPD 14-01-14 09:08 OP:ep   STATUS:               ID:20130829202847 L   I
 OLDACT:REG 13-08-29 23:14 OP:stll STATUS:               ID:20130829201840     3
 2013-08-29-2018-40M.COL___217                                                 6
 STAT SP IPHASW D HRMM SECON CODA AMPLIT PERI AZIMU VELO AIN AR TRES W  DIS CAZ7
 BAR2 SZ EP       2029  7.30                             174   -0.1010 15.7 178 
 BAR2 SZ ES       2029 22.62                             174   -0.1710 15.7 178 
 BAR2 SZ I        2029 24.60         3.7 0.50            166           15.7 178 
 BRR  HZ EP       2029  9.29                             153    0.2710 71.2 305 
 BRR  HN ES       2029 25.71                             153    0.0310 71.2 305 
 RUS  HZ EP       2029 11.06                             146   -0.0710 93.7 173 
 RUS  HN ES       2029 29.61                             146    0.1810 93.7 173 
 PTB  HZ EP       2029 14.12                             134   -0.16 9  142 261 
 PTB  HN ES       2029 35.04                             134   -0.00 9  142 261 
 PTB  HZ I        2029 42.59         3.9 0.44            130            142 261 
                                                                                
