 2010 1029 2259 24.9 L   6.383 -73.508110.9  RSN  7 0.4 2.2LRSN                1
 GAP=100        0.84       4.8     5.0  8.0  0.3810E+00  0.1351E+02  0.1044E+02E
 Epicentro: CONTRATACION - SANTANDER                                           3
 ACTION:UP  11-02-18 11:13 OP:tino STATUS:               ID:20101029225924 L   I
 2010-10-29-2255-58S.COL___127                                                 6
 STAT SP IPHASW D HRMM SECON CODA AMPLIT PERI AZIMU VELO SNR AR TRES W  DIS CAZ7
 BAR2 SZ IP       2259 41.40                             157     0.310   43  57 
 BAR2 SZ ES   1   2259 53.51                             157    -0.2 7   43  57 
 BAR2 SZ I        2259 55.75       185.9 0.41                            43  57 
 RUS  HZ IP     D 2259 43.04                             145    -0.110   72 139 
 RUS  HN ES   2   2259 57.71                             145     0.3 5   72 139 
 RUS  HZ I        23 0  1.51        14.1 0.30                            72 139 
 BRR  HZ EP   1   2259 43.15                             140    -0.2 7   83 344 
 BRR  HZ I        2259 43.47        53.3 0.11                            83 344 
 BRR  HN ES   1   2259 57.80                             140     0.1 7   83 344 
 YOP  SZ EP   1   2259 51.42                             119     0.1 7  166 133 
 NOR  SZ EP   1   2259 51.73                             118    -0.6 7  176 239 
 NOR  SN ES   1   23 0 13.54                             118    -0.2 7  176 239 
 OCA  SZ EP   1   2259 55.48                             113    -0.3 6  206   6 
 OCA  SZ I        23 0 28.90        25.3 0.63                           206   6 
 HEL  HZ EP   1   2259 59.05                             111     0.9 6  225 265 
 HEL  HZ I        23 0 29.82         7.5 0.14                           225 265 
                                                                                
