 2013  729 2218 56.9 L   6.786 -73.156150.5  RSN 12 0.4 2.9LRSN                1
 GAP=111        0.76       2.6     2.4  5.1  0.3024E+00  0.1910E+00 -0.1119E+01E
 Epicentro: LOS SANTOS - SANTANDER                                             3
 ACTION:UPD 13-08-12 10:40 OP:ep   STATUS:               ID:20130729221856 L   I
 OLDACT:REG 13-07-30 01:22 OP:mh   STATUS:               ID:20130729221752     3
 2013-07-29-2217-52M.COL___219                                                 6
 STAT SP IPHASW D HRMM SECON CODA AMPLIT PERI AZIMU VELO AIN AR TRES W  DIS CAZ7
 BAR2 SZ EP       2219 16.98                             171   -0.0610 21.6 188 
 BAR2 SZ ES   1   2219 31.94                             171   -0.82 7 21.6 188 
 BAR2 SZ I        2219 33.31        62.5 0.38            170           21.6 188 
 GIR2 SZ EP   1   2219 17.09                             167   -0.05 7 32.7 353 
 BRR  HZ EP     C 2219 18.93                             153    0.4110 71.0 300 
 BRR  HN ES       2219 35.91                             153    0.5010 71.0 300 
 BRR  HN I        2219 37.41       124.2 0.22            151           71.0 300 
 RUS  HZ EP   1   2219 20.89                             145   -0.10 7 99.1 175 
 RUS  HN ES   1   2219 39.83                             145    0.04 7 99.1 175 
 RUS  HZ I        2219 42.17        43.1 0.50            145           99.1 175 
 PTB  HZ EP   1   2219 23.61                             133   -0.50 7  146 259 
 PTB  HN ES       2219 45.00                             133   -0.35 9  146 259 
 PTB  HN I        2219 48.44       108.5 0.20            132            146 259 
 TAM  HZ EP       2219 25.14                             131    0.15 9  156 104 
 TAM  HN ES       2219 46.82                             131   -0.10 9  156 104 
 TAM  HN I        2219 47.57        47.5 0.32            134            156 104 
 SPBC HZ EP   1   2219 25.92                             130    0.36 7  161 219 
 SPBC HN ES       2219 48.08                             130    0.15 9  161 219 
 SPBC HN I        2219 52.90       147.6 0.22            130            161 219 
 OCA  HZ EP   1   2219 25.48                             130   -0.21 7  162 354 
 OCA  HN ES       2219 48.52                             130    0.36 9  162 354 
 OCA  HN I        2219 50.96       131.3 0.16            131            162 354 
 ZAR  HZ EP   1   2219 29.51                             123   -0.08 6  204 293 
 ZAR  HE ES       2219 55.10                             123   -0.00 9  204 293 
 ZAR  HE I        2220  2.13       168.1 0.44            123            204 293 
 NOR  HZ EP   1   2219 32.86                             120    0.17 6  233 235 
 NOR  HN ES   1   2220  0.90                             120    0.28 6  233 235 
 NOR  HN I        2220  9.71        89.4 0.18            119            233 235 
 SML  HZ EP   1   2219 33.70                             118   -0.17 6  245 336 
 SML  HN ES   1   2220  1.85                             118   -0.88 6  245 336 
 SML  HN I        2220  6.66       138.3 0.10            118            245 336 
 HEL  HN ES   1   2220  8.32                             116   -0.28 6  271 256 
 GUY2CHZ EP   4   2219 41.97                             113    1.47 0  299 235 
 GUY2CHN ES   4   2220 16.45                             113    1.92 0  299 235 
 RREF HZ EP   4   2219 43.74                             112    0.73 0  320 229 
 RREF HN ES   4   2220 21.77                             112    2.77 0  320 229 
                                                                                
