 2016  629 2105 42.3 L   6.802 -73.163146.2  RSN 10 0.4 2.1LRSN                1
 GAP=134        0.98       3.6     3.8  5.7 -0.2935E+00  0.6995E+01  0.4758E+01E
 Epicentro: LOS SANTOS - SANTANDER                                             3
 ACTION:UPD 16-07-21 22:24 OP:rebc STATUS:               ID:20160629210542 L   I
 OLDACT:UP  16-06-30 04:26 OP:mh   STATUS:               ID:20160629205743     3
 OLDACT:UP  16-06-30 04:25 OP:mh   STATUS:               ID:20160629205743     3
 OLDACT:UP  16-06-30 04:24 OP:mh   STATUS:               ID:20160629205743     3
 OLDACT:UP  16-06-30 04:21 OP:mh   STATUS:               ID:20160629205743     3
 OLDACT:REG 16-06-30 03:12 OP:dnl  STATUS:               ID:20160629205743     3
 2016-06-29-2057-43M.COL___352                                                 6
 STAT SP IPHASW D HRMM SECON CODA AMPLIT PERI AZIMU VELO AIN AR TRES W  DIS CAZ7
 BAR2 EZ EP       21 6  2.04                             171    0.0410 23.2 185 
 BAR2 EZ ES       21 6 16.74                             171   -0.6110 23.2 185 
 BAR2 EZ I        21 6 18.18        37.0 0.23                          23.2 185 
 BRR  HZ EP       21 6  3.67                             153    0.2510 69.4 299 
 BRR  HN ES       21 6 20.73                             153    0.8510 69.4 299 
 BRR  HZ I        21 6 24.82        19.1 0.18                          69.4 299 
 PAM  EZ EP   1   21 6  5.05                             151    0.40 7 78.5  41 
 PAM  EN ES       21 6 21.77                             151   -0.2910 78.5  41 
 PAM  EZ I        21 6 24.13        36.0 0.31                          78.5  41 
 RUS  HZ EP       21 6  6.12                             144   -0.0210  101 175 
 RUS  HN ES       21 6 24.82                             144    0.1010  101 175 
 RUS  HZ I        21 6 25.50        22.0 0.26                           101 175 
 PTB  HZ EP       21 6  8.70                             132   -0.46 9  146 259 
 PTB  HN ES       21 6 29.81                             132   -0.28 9  146 259 
 PTB  HZ I        21 6 36.26        14.7 0.46                           146 259 
 SPBC HZ EP       21 6 10.67                             129   -0.08 9  162 218 
 SPBC HN ES       21 6 32.96                             129    0.03 9  162 218 
 ZAR  HZ EP   1   21 6 14.14                             123   -0.47 6  202 292 
 ZAR  HN ES       21 6 39.71                             123   -0.08 9  202 292 
 ZAR  HZ I        21 6 46.58         8.3 0.09                           202 292 
 NOR  HZ EP       21 6 17.97                             119    0.05 8  233 234 
 NOR  HN ES       21 6 46.43                             119    0.74 8  233 234 
 NOR  HZ I        21 6 51.64                                            233 234 
 CHI  HZ EP       21 6 20.26                             117    0.25 8  248 195 
 CHI  HN ES       21 6 49.41                             117    0.01 8  248 195 
 CHI  HZ I        21 6 52.61         8.9 0.56                           248 195 
 CBOC HZ EP   1   21 6 29.56                             110    0.51 5  332 252 
 CBOC HN ES       21 7  4.58                             110   -0.92 7  332 252 
 CBOC HZ I        21 7 15.22         2.3 0.42                           332 252 
                                                                                
