 2016  429 2028 15.8 L   6.801 -73.166143.4  RSN  8 0.3 2.0LRSN                1
 GAP=142        0.67       3.2     3.4  4.3 -0.4380E+01  0.4469E+01  0.1216E+01E
 Epicentro: LOS SANTOS - SANTANDER                                             3
 ACTION:UPD 16-05-05 14:25 OP:rebc STATUS:               ID:20160429202815 L   I
 OLDACT:UP  16-04-30 03:23 OP:drio STATUS:               ID:20160429201744     3
 OLDACT:REG 16-04-30 03:13 OP:drio STATUS:               ID:20160429201744     3
 2016-04-29-2017-44M.COL___262                                                 6
 STAT SP IPHASW D HRMM SECON CODA AMPLIT PERI AZIMU VELO AIN AR TRES W  DIS CAZ7
 BAR2 EZ EP       2028 35.08                             170   -0.0710 23.2 185 
 BAR2 EZ ES       2028 49.84                             170   -0.3910 23.2 185 
 BAR2 EZ I        2028 51.27        45.8 0.36            170           23.2 185 
 PAM  EZ EP       2028 38.07                             150    0.2210 78.7  41 
 PAM  EE ES       2028 55.22                             150    0.1810 78.7  41 
 PAM  EZ I        2028 57.25        40.1 0.54            153           78.7  41 
 RUS  HZ EP       2028 39.05                             143   -0.3010  101 175 
 RUS  HE ES       2028 57.96                             143    0.2610  101 175 
 RUS  HZ I        2028 58.79         7.9 0.34            145            101 175 
 PTB  HZ EP       2028 42.22                             132   -0.17 9  146 259 
 PTB  HE ES       2029  2.90                             132   -0.22 9  146 259 
 PTB  HZ I        2029  8.33        13.7 0.32            132            146 259 
 SPBC HZ EP       2028 44.06                             129    0.06 9  162 218 
 SPBC HN ES       2029  6.34                             129    0.35 9  162 218 
 NOR  HZ EP       2028 51.54                             118    0.33 8  233 234 
 NOR  HN ES       2029 19.25                             118    0.42 8  233 234 
 NOR  HZ I        2029 24.97         7.3 0.24            119            233 234 
 CHI  HZ EP       2028 53.28                             117   -0.05 8  248 195 
 CHI  HN ES       2029 22.31                             117   -0.28 8  248 195 
 CHI  HZ I        2029 26.12         7.5 0.38            118            248 195 
 GUY2CHZ EP       2028 58.72                             112   -0.39 7  299 235 
 GUY2CHN ES   4   2029 36.78                             112    3.89 0  299 235 
 GUY2CHZ I        2029 41.07         3.3 0.30                           299 235 
                                                                                
