 2011  529 2041 33.8 L   6.783 -73.110140.5  RSN  7 0.2 1.7LRSN                1
 GAP=142        0.48       3.4     5.2  6.0 -0.9011E+01  0.1072E+02 -0.2455E+01E
 Epicentro: LOS SANTOS - SANTANDER                                             3
 ACTION:UP  11-06-29 08:57 OP:tino STATUS:               ID:20110529204133 L   I
 2011-05-29-2038-27S.COL___113                                                 6
 STAT SP IPHASW D HRMM SECON CODA AMPLIT PERI AZIMU VELO SNR AR TRES W  DIS CAZ7
 BAR2 SZ EP   3   2041 52.46                             170    -0.3 2   23 201 
 BAR2 SZ ES   2   2042  7.40                             170    -0.2 5   23 201 
 BAR2 SZ I        2042  9.09        14.6 0.19                            23 201 
 BRR  HZ IP     C 2041 55.00                             150     0.310   76 298 
 BRR  HZ I        2041 56.27        14.1 0.39                            76 298 
 PAM  SZ EP       2041 55.45                             150     0.010   76  36 
 PAM  SN ES   2   2042 12.00                             150    -0.3 5   76  36 
 RUS  HZ EP       2041 56.84                             143    -0.110   99 178 
 RUS  HN ES   2   2042 15.15                             143     0.2 5   99 178 
 RUS  HZ I        2042 17.16         4.7 0.30                            99 178 
 BRI  SZ EP       2041 57.18                             140    -0.110  109  19 
 GRA  SZ ES   2   2042 17.81                             135    -0.2 5  126  16 
 GRA  SZ I        2042 19.20         6.3 0.20                           126  16 
 NOR  SZ EP   1   2042  9.29                             117    -0.2 6  237 235 
 NOR  SN ES   2   2042 37.01                             117    -0.3 4  237 235 
                                                                                
