 2010 1029 2333 43.4 L   6.768 -73.282143.3  RSN  4 0.3 1.5LRSN                1
 GAP=146        0.68      10.5    21.8  8.8  0.1845E+03  0.2833E+01 -0.6822E+00E
 Epicentro: ZAPATOCA - SANTANDER                                               3
 ACTION:UP  11-02-18 11:13 OP:tino STATUS:               ID:20101029233343 L   I
 2010-10-29-2330-45S.COL___128                                                 6
 STAT SP IPHASW D HRMM SECON CODA AMPLIT PERI AZIMU VELO SNR AR TRES W  DIS CAZ7
 BTL  SZ EP   1   2334  2.89                             173     0.3 7   17   5 
 BTL  SZ ES   2   2334 17.78                             173     0.2 5   17   5 
 BAR2 SZ EP   2   2334  2.46                             171    -0.3 5   22 151 
 BAR2 SZ ES   2   2334 17.34                             171    -0.5 5   22 151 
 BAR2 SZ I        2334 18.72        11.0 0.15                            22 151 
 BRR  HZ EP   1   2334  4.00                             156     0.3 7   61 308 
 BRR  HZ I        2334  9.54         8.4 0.18                            61 308 
 BRR  HN ES   2   2334 19.22                             156    -0.4 5   61 308 
 RUS  HZ EP   1   2334  6.40                             144    -0.4 7   99 167 
 RUS  HE ES   1   2334 25.42                             144     0.3 7   99 167 
 RUS  HZ I        2334 26.05         2.7 0.22                            99 167 
                                                                                
