 2011  129 2324 54.9 L   6.759 -73.130139.9  RSN  6 0.4 1.6LRSN                1
 GAP=218        0.76       8.8     8.2  9.5 -0.2276E+02  0.3756E+02 -0.5699E+01E
 Epicentro: LOS SANTOS - SANTANDER                                             3
 ACTION:UP  11-02-08 08:43 OP:pat  STATUS:               ID:20110129232454 L   I
 2011-01-29-2322-29S.COL___138                                                 6
 STAT SP IPHASW D HRMM SECON CODA AMPLIT PERI AZIMU VELO SNR AR TRES W  DIS CAZ7
 BAR2 SZ ES   2   2325 28.60                             172     0.2 5   19 198 
 BAR2 SZ I        2325 31.35        11.5 0.27                            19 198 
 BTL  SZ EP   1   2325 13.79                             170     0.0 7   23 319 
 RUS  HZ EP   1   2325 17.44                             144    -0.3 7   96 177 
 RUS  HN ES   1   2325 35.64                             144     0.1 7   96 177 
 RUS  HZ I        2325 37.41         4.1 0.28                            96 177 
 NOR  SZ EP   2   2325 29.66                             117    -0.5 4  234 236 
 NOR  SN ES   1   2325 57.16                             117    -0.5 6  234 236 
 CHI  HZ EP   1   2325 31.62                             116    -0.2 6  245 196 
 CHI  HZ I        2325 34.42         2.0 0.15                           245 196 
 RREF HZ EP   1   2325 41.53                             110     1.0 5  320 230 
 RREF HN ES   1   2326 16.58                             110     0.4 5  320 230 
 RREF HZ I        2326 23.46         3.3 0.30                           320 230 
                                                                                
