 2011  529 2103 11.9 L   6.766 -73.081145.7  RSN  8 0.5 1.8LRSN                1
 GAP=163        1.22       5.7     9.2  9.5 -0.2113E+02  0.3615E+01 -0.5020E-01E
 Epicentro: LOS SANTOS - SANTANDER                                             3
 ACTION:UP  11-06-29 08:57 OP:tino STATUS:               ID:20110529210311 L   I
 2011-05-29-2057-49S.COL___113                                                 6
 STAT SP IPHASW D HRMM SECON CODA AMPLIT PERI AZIMU VELO SNR AR TRES W  DIS CAZ7
 BAR2 SZ EP       21 3 31.21                             171    -0.310   22 210 
 BAR2 SZ I        21 3 31.51        12.7 0.15                            22 210 
 BAR2 SZ ES   1   21 3 46.79                             171     0.0 7   22 210 
 BRR  HZ EP       21 3 33.37                             150    -0.110   79 298 
 BRR  HZ I        21 3 33.72        18.9 0.12                            79 298 
 BRR  HN ES   1   21 3 51.11                             150     0.8 7   79 298 
 RUS  HZ EP       21 3 35.36                             145     0.010   97 180 
 RUS  HN ES   2   21 3 54.00                             145     0.4 5   97 180 
 RUS  HZ I        21 3 55.35         4.5 0.27                            97 180 
 BRI  SZ EP       21 3 35.89                             141     0.010  110  17 
 BRI  SZ ES   2   21 3 52.96                             141    -1.6 5  110  17 
 GRA  SZ EP       21 3 38.20                             137     0.910  127  14 
 GRA  SZ ES   2   21 3 56.96                             137    -0.1 5  127  14 
 GRA  SZ I        21 3 58.01         8.9 0.33                           127  14 
 OCA  SZ EP       21 3 40.53                             129    -0.1 9  165 351 
 OCA  SZ ES   1   21 4  2.62                             129    -0.4 7  165 351 
 OCA  SZ I        21 4  7.79         7.1 0.29                           165 351 
 NOR  SZ EP       21 3 47.65                             118    -0.4 8  238 236 
 NOR  SN ES   1   21 4 15.74                             118    -0.4 6  238 236 
 HEL  HZ EP   2   21 3 53.10                             114     0.3 4  278 257 
 HEL  HZ I        21 4 30.36         4.0 0.33                           278 257 
                                                                                
