 2010  929 2043 25.2 L   6.813 -73.063150.6  RSN 11 0.4 2.4LRSN                1
 GAP=168        0.85       3.8     7.1  6.4 -0.1227E+02  0.1543E+01  0.2937E+01E
 Epicentro: LOS SANTOS - SANTANDER                                             3
 ACTION:UP  11-02-18 11:06 OP:tino STATUS:               ID:20100929204325 L   I
 2010-09-29-2040-47S.COL___125                                                 6
 STAT SP IPHASW D HRMM SECON CODA AMPLIT PERI AZIMU VELO SNR AR TRES W  DIS CAZ7
 BAR2 SZ EP       2043 45.76                             169     0.310   28 209 
 BAR2 SZ ES   1   2044  0.85                             169    -0.4 7   28 209 
 BAR2 SZ I        2044  2.26        66.0 0.15                            28 209 
 GIR2 SZ EP   1   2043 45.80                             167     0.4 7   33 334 
 BRR  HZ IP     C 2043 47.60                             151     0.310   79 294 
 BRR  HN ES   1   2044  4.81                             151     0.3 7   79 294 
 BRR  HZ I        2044  5.82        37.4 0.06                            79 294 
 RUS  HZ IP     D 2043 49.67                             144     0.210  102 181 
 RUS  HN ES   2   2044  8.66                             144     0.2 5  102 181 
 RUS  HZ I        2044 10.15        27.5 0.40                           102 181 
 GUE  SZ EP       2043 49.69                             141    -0.410  114   8 
 GRA  SZ EP       2043 50.22                             139    -0.310  122  14 
 GRA  SZ ES   1   2044 10.07                             139    -0.2 7  122  14 
 GRA  SZ I        2044 11.75        27.3 0.35                           122  14 
 OCA  SZ EP       2043 54.05                             131     0.2 9  160 350 
 OCA  SZ I        2044 21.25        31.1 0.71                           160 350 
 NOR  SZ EP       2044  1.60                             119    -0.5 8  243 236 
 NOR  SE ES   2   2044 30.11                             119    -0.7 4  243 236 
 CHI  HZ EP       2044  3.88                             118     0.3 8  253 197 
 CHI  HE ES   1   2044 32.89                             118    -0.6 6  253 197 
 CHI  HZ I        2044 37.87        11.0 0.13                           253 197 
 RREF HZ EP   1   2044 12.23                             111    -0.2 5  330 230 
 RREF HE ES   2   2044 49.37                             111     0.1 3  330 230 
 RREF HZ I        2044 57.76        14.1 0.57                           330 230 
 ANIL HE ES   3   2044 55.12                             109    -0.5 2  365 225 
                                                                                
