 2012 1029 2052 17.0 L   6.773 -73.145140.9  RSN  4 0.2 1.7LRSN                1
 GAP=138        0.50       3.2     3.6  6.1  0.1986E+01  0.6864E+01  0.3189E+00E
 Epicentro: LOS SANTOS - SANTANDER                                             3
 ACTION:UPD 12-11-22 17:06 OP:ep   STATUS:               ID:20121029205217 L   I
 2012-10-29-2050-00M.COL___231                                                 6
 STAT SP IPHASW D HRMM SECON CODA AMPLIT PERI AZIMU VELO AIN AR TRES W  DIS CAZ7
 BRR  HZ EP       2052 37.85                             151    0.1310 72.7 301 
 BRR  HZ I        2052 49.20        19.3 0.40                          72.7 301 
 BRR  HE ES   2   2052 54.48                             151    0.60 5 72.7 301 
 PAM  SZ EP       2052 38.90                             149    0.0510 79.7  38 
 PAM  SN ES   1   2052 55.66                             149   -0.23 7 79.7  38 
 PAM  SZ I        2052 57.92         6.0 0.47                          79.7  38 
 RUS  HZ EP       2052 40.10                             143    0.0410 97.6 176 
 RUS  HN ES   1   2052 57.90                             143   -0.15 7 97.6 176 
 RUS  HZ I        2053  0.44         5.6 0.33                          97.6 176 
 ZAR  HZ EP   1   2052 49.32                             121    0.06 6  205 293 
 ZAR  HE ES   1   2053 14.01                             121   -0.42 6  205 293 
 ZAR  HZ I        2053 19.57         4.9 0.31                           205 293 
                                                                                
