 2015 1129 2119 58.4 L   6.792 -73.118147.7  RSN 16 0.5 2.3LRSN                1
 GAP=140        1.07       3.3     3.9  5.9 -0.2605E+01  0.7059E+01  0.2482E+01E
 Epicentro: LOS SANTOS - SANTANDER                                             3
 ACTION:UPD 15-12-28 16:14 OP:cam  STATUS:               ID:20151129211958 L   I
 OLDACT:REG 15-11-30 04:15 OP:dnl  STATUS:               ID:20151129211749     3
 2015-11-29-2117-49M.COL___313                                                 6
 STAT SP IPHASW D HRMM SECON CODA AMPLIT PERI AZIMU VELO AIN AR TRES W  DIS CAZ7
 BAR2 EZ EP       2120 18.25                             171    0.0410 23.2 198 
 BAR2 EZ ES       2120 33.44                             171   -0.2710 23.2 198 
 BAR2 EZ I        2120 36.11        37.1 0.31            169           23.2 198 
 BRR  HZ EP     D 2120 20.12                             152    0.2310 74.3 298 
 BRR  HN ES       2120 37.49                             152    0.8110 74.3 298 
 BRR  HZ I        2120 41.14        47.1 0.05            149           74.3 298 
 PAM  EZ IP     D 2120 20.99                             152    0.2910 76.2  37 
 PAM  EE ES       2120 38.36                             152    0.2210 76.2  37 
 PAM  EZ I        2120 40.80        12.9 0.33            155           76.2  37 
 RUS  HZ EP       2120 22.16                             144   -0.0610 99.5 178 
 RUS  HN ES       2120 40.81                             144   -0.0310 99.5 178 
 RUS  HZ I        2120 43.75        18.7 0.30            146           99.5 178 
 PTB  HZ EP   1   2120 24.94                             132   -0.79 7  151 259 
 PTB  HN ES       2120 46.32                             132   -0.77 9  151 259 
 PTB  HZ I        2120 48.61        16.2 0.11            131            151 259 
 OCA  HZ EP   1   2120 26.42                             130   -0.51 7  162 352 
 OCA  HN ES       2120 48.29                             130   -0.93 9  162 352 
 OCA  HZ I        2120 52.93        48.6 0.23            131            162 352 
 SPBC HZ EP       2120 27.17                             129    0.05 9  164 220 
 SPBC HE ES       2120 49.63                             129    0.07 9  164 220 
 SPBC HZ I        2120 51.99        46.2 0.36            129            164 220 
 ZAR  HZ EP   2   2120 31.10                             122   -0.15 4  207 292 
 ZAR  HE ES       2120 57.77                             122    0.86 8  207 292 
 ZAR  HZ I        2121  2.87        17.7 0.23            122            207 292 
 NOR  HZ EP       2120 34.95                             119    0.54 8  237 235 
 NOR  HE ES       2121  1.97                             119   -0.56 8  237 235 
 NOR  HZ I        2121  6.94        13.1 0.16            119            237 235 
 SML  HZ EP   2   2120 35.00                             118   -0.31 4  246 335 
 SML  HE ES   4   2121  2.95                             118   -1.19 0  246 335 
 SML  HZ I        2121  5.70        23.5 0.10            118            246 335 
 HEL  HZ EP   4   2120 40.48                             115    1.51 0  275 256 
 HEL  HN ES       2121 11.10                             115    0.45 8  275 256 
 HEL  HZ I        2121 16.99         8.3 0.31            115            275 256 
 URE  HE ES   1   2121 11.97                             114   -0.28 5  287 292 
 URE  HZ I        2121 21.57        11.7 0.10            114            287 292 
 GUY2CHZ EP   2   2120 43.40                             112    1.12 4  303 235 
 GUY2CHE ES       2121 15.97                             112   -0.56 7  303 235 
 GUY2CHZ I        2121 22.61         8.2 0.47                           303 235 
 ELA  HZ EP   2   2120 46.20                             110    0.71 3  331 230 
 ELA  HN ES   4   2121 20.79                             110   -1.46 0  331 230 
 ELA  HZ I        2121 29.95         7.5 0.25            111            331 230 
 ANIL HZ EP   1   2120 48.84                             109    0.43 5  359 225 
 ANIL HN ES   4   2121 28.66                             109    1.21 0  359 225 
 ANIL HZ I        2121 34.43        19.7 0.20            109            359 225 
 PRA  HZ EP   1   2120 51.98                             107   -0.05 4  393 210 
 PRA  HE ES       2121 33.94                             107    0.05 6  393 210 
 PRA  HZ I        2121 40.62         8.5 0.32            108            393 210 
                                                                                
