 2017  429 2234 41.5 L   6.796 -73.141146.0  RSN  7 0.5 1.8LRSN                1
 GAP=137        1.04       4.5     5.2  7.9  0.8474E-01  0.7967E+01  0.9105E+01E
 Epicentro: LOS SANTOS - SANTANDER                                             3
 ACTION:UPD 17-05-30 21:17 OP:jn   STATUS:               ID:20170429223441 L   I
 OLDACT:UP  17-04-30 05:08 OP:cog  STATUS:               ID:20170429222742d    3
 OLDACT:DUP 17-04-30 05:04 OP:cog  STATUS:               ID:20170429222742d    3
 2017-04-29-2228-00M.COL___377                                                 6
 STAT SP IPHASW D HRMM SECON CODA AMPLIT PERI AZIMU VELO AIN AR TRES W  DIS CAZ7
 BRR  HZ EP       2235  2.89                             153    0.2110 71.8 299 
 BRR  HE ES       2235 19.91                             153    0.6810 71.8 299 
 PAM  EZ EP       2235  3.68                             151   -0.0310 77.4  39 
 PAM  EN ES       2235 20.92                             151   -0.1410 77.4  39 
 PAM  EZ I        2235 23.21         9.9 0.66            153           77.4  39 
 RUS  HZ EP       2235  5.39                             144    0.1810  100 176 
 RUS  HN ES       2235 23.46                             144   -0.2710  100 176 
 RUS  HZ I        2235 25.52         9.4 0.32            146            100 176 
 PTB  HZ EP       2235  8.15                             132   -0.35 9  148 259 
 PTB  HN ES   3   2235 28.52                             132   -1.05 2  148 259 
 PTB  HZ I        2235 31.29         8.4 0.42            134            148 259 
 SPBC HZ EP       2235  9.21                             129   -0.78 9  163 219 
 SPBC HN ES       2235 32.64                             129    0.41 9  163 219 
 ZAR  HZ EP   3   2235 15.60                             123    1.60 2  205 292 
 ZAR  HN ES       2235 38.87                             123   -0.50 9  205 292 
 CHI  HZ EP       2235 19.68                             118    0.53 8  248 195 
 CHI  HE ES   4   2235 50.38                             118    1.84 0  248 195 
                                                                                
