 2016 1129 2210  7.6 L   6.815 -73.140152.8  RSN 13 0.6 2.1LRSN                1
 GAP=119        1.23       4.4     5.0  6.6  0.5620E+00  0.3579E+01  0.1122E+02E
 Epicentro: LOS SANTOS - SANTANDER                                             3
 ACTION:UPD 17-10-26 21:13 OP:lp   STATUS:               ID:20161129221007 L   I
 OLDACT:UP  16-11-30 04:09 OP:edw  STATUS:               ID:20161129220745     3
 OLDACT:REG 16-11-30 02:55 OP:edw  STATUS:               ID:20161129220745     3
 2016-11-29-2208-00M.COL___343                                                 6
 STAT SP IPHASW D HRMM SECON CODA AMPLIT PERI AZIMU VELO AIN AR TRES W  DIS CAZ7
 BAR2 EZ EP       2210 28.13                             170   -0.0310 25.1 191 
 BAR2 EZ ES       2210 44.07                             170   -0.0910 25.1 191 
 BAR2 EZ I        2210 44.53        36.3 0.22            167           25.1 191 
 BRR  HZ EP     C 2210 30.06                             153    0.5110 71.0 297 
 BRR  HN ES       2210 46.59                             153   -0.0510 71.0 297 
 BRR  HZ I        2210 48.19        17.3 0.20            151           71.0 297 
 PAM  HZ EP       2210 31.20                             152    0.6810 75.7  40 
 PAM  EN ES       2210 48.21                             152   -0.1510 75.7  40 
 PAM  HZ I        2210 50.48        28.2 0.46            157           75.7  40 
 PTB  HZ EP   9   2210 34.87                             133   -0.41 0  149 258 
 PTB  HN ES       2210 55.96                             133   -0.47 9  149 258 
 PTB  HZ I        2211  3.01        18.1 0.78            131            149 258 
 ZAR  HZ EP       2210 39.52                             124   -1.04 9  204 292 
 ZAR  HN ES       2211  5.98                             124   -0.25 9  204 292 
 ZAR  HZ I        2211 11.80         8.3 0.12            123            204 292 
 NOR  HZ EP       2210 44.59                             120    0.64 8  236 234 
 NOR  HN ES       2211 12.23                             120   -0.04 8  236 234 
 NOR  HZ I        2211 16.99         9.8 0.26            119            236 234 
 CHI  HZ EP       2210 46.56                             118    0.63 8  250 195 
 CHI  HN ES       2211 15.78                             118   -0.01 8  250 195 
 CHI  HZ I        2211 19.10         7.8 0.42            118            250 195 
 PTGC HZ IP     C 2210 51.52                             113   -0.45 7  310 159 
 PTGC HN ES       2211 25.08                             113   -1.46 7  310 159 
 PTGC HZ I        2211 26.80        14.6 0.42            114            310 159 
 ELA  HZ EP   4   2210 56.44                             111    1.46 0  331 229 
 ELA  HN ES   4   2211 35.72                             111    3.82 0  331 229 
 ELA  HZ I        2211 40.12         4.3 0.42            111            331 229 
 PRA  HZ EP       2211  2.22                             107    0.60 6  394 210 
 PRA  HN ES       2211 43.69                             107   -0.03 6  394 210 
 PRA  HZ I        2211 48.31         4.9 0.19            108            394 210 
 ORTC HZ EP       2211  2.82                             107    0.81 6  397 216 
 ORTC HN ES   4   2211 46.08                             107    1.66 0  397 216 
 ORTC HZ I        2211 49.64         3.7 0.33            107            397 216 
 SJC  HZ EP       2211  2.52                             107   -0.80 6  408 327 
 SJC  HN ES   4   2211 43.41                             107   -3.35 0  408 327 
 SJC  HZ I        2211 47.99         2.5 0.66            107            408 327 
 CRJC HZ EP   9   2211  8.35                             104   -1.79 0  466   3 
 CRJC HN ES       2211 57.55                                    0.45 5  466   3 
                                                                                
