 2017  629 2245 28.8 L   6.760 -73.254148.8  RSN  5 0.4 1.6LRSN                1
 GAP=245        0.87       4.8     8.2  8.7 -0.3900E+01 -0.2085E+02  0.1556E+02E
 Epicentro: ZAPATOCA - SANTANDER                                               3
 ACTION:UPD 17-09-14 16:56 OP:jn   STATUS:               ID:20170629224528 L   I
 OLDACT:UP  17-06-30 06:09 OP:dhb  STATUS:               ID:20170629223742d    3
 OLDACT:DUP 17-06-30 05:57 OP:dhb  STATUS:               ID:20170629223742d    3
 OLDACT:UP  17-06-30 05:51 OP:dhb  STATUS:               ID:20170629223741     3
 OLDACT:REG 17-06-30 04:16 OP:dhb  STATUS:               ID:20170629223741     3
 2017-06-29-2238-00M.COL___371                                                 6
 STAT SP IPHASW D HRMM SECON CODA AMPLIT PERI AZIMU VELO AIN AR TRES W  DIS CAZ7
 BRR  HZ EP       2245 49.55                             156   -0.3310 63.5 307 
 BRR  HN ES       2246  6.40                             156    0.0910 63.5 307 
 BRR  HZ I        2246 10.63        12.5 0.28            154           63.5 307 
 PTB  HZ EP       2245 54.56                             135   -0.36 9  135 260 
 PTB  HE ES       2246 15.39                             135    0.10 9  135 260 
 PTB  HZ I        2246 18.96         2.4 0.20            135            135 260 
 ZAR  HZ EP       2246  1.21                             124    0.69 9  195 295 
 ZAR  HE ES   4   2246 21.48                             124   -3.77 0  195 295 
 ZAR  HZ I        2246 31.26         4.6 0.32            125            195 295 
 NOR  HZ EP   4   2246  5.08                             121    1.66 0  222 234 
 NOR  HE ES       2246 30.06                             121   -0.35 8  222 234 
 NOR  HZ I        2246 32.91         2.6 0.15            122            222 234 
 CHI  HZ EP       2246  5.77                             118   -0.14 8  241 193 
 CHI  HN ES       2246 35.30                             118    0.46 8  241 193 
 CHI  HZ I        2246 38.80         2.9 0.36            121            241 193 
                                                                                
