 2011  929 2233 11.9 L   5.904 -74.163  3.8  RSN  6 0.5 1.9LRSN                1
 GAP=139        1.03       5.7     4.5 12.6 -0.1567E+02  0.1711E+02 -0.1302E+02E
 Epicentro: FLORIAN - SANTANDER                                                3
 ACTION:UPD 12-07-13 16:00 OP:ep   STATUS:               ID:20110929223311 L   I
 2011-09-29-2230-28S.COL___168                                                 6
 STAT SP IPHASW D HRMM SECON CODA AMPLIT PERI AZIMU VELO AIN AR TRES W  DIS CAZ7
 NOR  SZ EP   2   2233 25.86                              47    0.10 5 86.8 244 
 NOR  SN ES   2   2233 36.12                              47   -0.42 5 86.8 244 
 RUS  HZ EP       2233 30.68                              47   -0.5010  120  91 
 BRR  HZ EP       2233 34.31                              47    0.2310  142  21 
 BRR  HN ES   2   2233 51.85                              47    0.49 5  142  21 
 BRR  HZ I        2233 53.57        18.1 0.14                           142  21 
 GUY  SZ EP       2233 36.98                              47    0.39 9  155 241 
 GUY  SN ES   2   2233 55.54                              47   -0.28 5  155 241 
 GUY  SZ I        2234  2.33         8.8 0.30                           155 241 
 HEL  HZ EP       2233 35.64                              47   -0.70 9  155 282 
 HEL  HZ I        2233 54.37        22.0 0.26                           155 282 
 RREF HZ EP       2233 39.94                              47    0.70 9  172 230 
                                                                                
