 2011  729 2309 28.5 L   6.716 -73.147143.9  RSN  5 0.2 1.7LRSN                1
 GAP=156        0.41       3.7     8.7  5.4  0.1461E+02 -0.2082E+02 -0.1181E+02E
 Epicentro: VILLANUEVA - SANTANDER                                             3
 ACTION:UPD 12-07-25 14:04 OP:epov STATUS:               ID:20110729230928 L   I
 2011-07-29-2307-57S.COL___142                                                 6
 STAT SP IPHASW D HRMM SECON CODA AMPLIT PERI AZIMU VELO AIN AR TRES W  DIS CAZ7
 BAR2 SZ EP   1   23 9 47.49                             174   -0.31 7 14.2 196 
 BAR2 SZ ES   1   2310  2.76                             174   -0.06 7 14.2 196 
 BAR2 SZ I        2310  4.15        13.3 0.15                          14.2 196 
 BRR  HZ EP   2   23 9 49.63                             151   -0.14 5 75.9 305 
 BRR  HZ I        23 9 50.81        12.9 0.20                          75.9 305 
 BRR  HN ES   2   2310  6.41                             151    0.08 5 75.9 305 
 RUS  HZ EP   1   23 9 51.48                             146    0.02 7 91.3 176 
 RUS  HE ES   1   2310  9.53                             146    0.19 7 91.3 176 
 RUS  HZ I        2310 11.83         5.9 0.54                          91.3 176 
 BRI  SZ EP   1   23 9 52.92                             139   -0.03 7  117  19 
 OCA  SZ EP   1   23 9 57.87                             127    0.27 7  169 354 
                                                                                
