 2013  729 2147 31.5 L   6.773 -73.136144.6  RSN  5 0.3 2.1LRSN                1
 GAP=139        0.76       4.3     4.7  6.7 -0.1127E+01  0.5152E+01  0.1577E+01E
 Epicentro: LOS SANTOS - SANTANDER                                             3
 ACTION:UPD 13-08-12 10:40 OP:ep   STATUS:               ID:20130729214731 L   I
 OLDACT:REG 13-07-29 23:33 OP:mh   STATUS:               ID:20130729213959     3
 2013-07-29-2139-59M.COL___266                                                 6
 STAT SP IPHASW D HRMM SECON CODA AMPLIT PERI AZIMU VELO AIN AR TRES W  DIS CAZ7
 BAR2 SZ EP   1   2147 50.31                             171   -0.67 7 20.6 194 
 BAR2 SZ ES   1   2148  6.16                             171    0.01 7 20.6 194 
 BAR2 SZ I        2148  7.92        13.7 0.48            169           20.6 194 
 BRR  HZ EP       2147 52.94                             151    0.2310 73.6 300 
 BRR  HN ES       2148  9.35                             151    0.1310 73.6 300 
 BRR  HN I        2148 13.25        48.5 0.20            150           73.6 300 
 PAM  SZ EP   1   2147 53.98                             150    0.25 7 79.0  38 
 PAM  SN ES       2148 10.88                             150   -0.1710 79.0  38 
 PAM  SN I        2148 11.78        43.5 0.48            155           79.0  38 
 RUS  HZ EP   1   2147 55.53                             144    0.57 7 97.5 177 
 RUS  HN ES       2148 13.16                             144   -0.0710 97.5 177 
 RUS  HN I        2148 15.57        11.6 0.44            147           97.5 177 
 PTB  HZ EP   1   2147 57.85                             131   -0.61 7  148 260 
 PTB  HN ES   1   2148 19.61                             131    0.15 7  148 260 
 PTB  HN I        2148 24.13        25.1 0.44            132            148 260 
                                                                                
