 2014  929 2144  1.7 L   6.810 -73.149148.0  RSN 19 0.4 2.4LRSN                1
 GAP= 65        1.00       2.7     3.2  5.0 -0.1337E+00  0.1540E+01  0.3310E+01E
 Epicentro: LOS SANTOS - SANTANDER                                             3
 ACTION:UPD 14-10-03 23:09 OP:nd   STATUS:               ID:20140929214401 L   I
 OLDACT:REG 14-09-30 02:42 OP:spq  STATUS:               ID:20140929213820     3
 2014-09-29-2138-20M.COL___301                                                 6
 STAT SP IPHASW D HRMM SECON CODA AMPLIT PERI AZIMU VELO AIN AR TRES W  DIS CAZ7
 BAR2 SZ EP       2144 21.65                             170   -0.0110 24.4 189 
 BAR2 SZ ES   1   2144 36.69                             170   -0.50 7 24.4 189 
 BAR2 SZ I        2144 37.89        51.4 0.26            170           24.4 189 
 BRR  HZ EP       2144 23.50                             153    0.4210 70.4 298 
 BRR  HE ES       2144 40.71                             153    0.9810 70.4 298 
 BRR  HZ I        2144 44.76        38.8 0.16            153           70.4 298 
 PAM  SZ EP       2144 24.47                             151    0.3210 76.8  40 
 PAM  SN ES       2144 41.52                             151   -0.1210 76.8  40 
 PAM  SZ I        2144 43.82        38.2 0.46            153           76.8  40 
 RUS  HZ EP       2144 25.61                             144   -0.1810  102 176 
 RUS  HN ES   1   2144 44.56                             144    0.01 7  102 176 
 RUS  HZ I        2144 45.40        26.6 0.26            145            102 176 
 PTB  HZ EP       2144 28.41                             133   -0.47 9  148 258 
 PTB  HE ES       2144 50.12                             133    0.08 9  148 258 
 PTB  HZ I        2144 51.49        31.7 0.16            133            148 258 
 TAM  HZ EP       2144 30.03                             131    0.38 9  156 105 
 TAM  HN ES   1   2144 51.74                             131    0.32 7  156 105 
 TAM  HZ I        2144 54.17        19.5 0.28            133            156 105 
 OCA  HZ EP   1   2144 29.78                             130   -0.34 7  159 353 
 OCA  HN ES       2144 51.56                             130   -0.69 9  159 353 
 OCA  HZ I        2145  0.15        24.4 0.18            132            159 353 
 SPBC HZ EP       2144 30.42                             129   -0.05 9  164 219 
 SPBC HN ES       2144 52.35                             129   -0.53 9  164 219 
 SPBC HZ I        2144 57.15        34.4 0.22            130            164 219 
 ZAR  HZ EP   1   2144 34.77                             123    0.52 6  203 292 
 ZAR  HN ES       2144 59.37                             123   -0.25 9  203 292 
 ZAR  HZ I        2145  5.03        25.4 0.36            124            203 292 
 SML  HZ EP       2144 38.08                             118   -0.29 8  243 335 
 SML  HN ES   1   2145  6.78                             118   -0.16 6  243 335 
 SML  HZ I        2145 10.38        27.8 0.10            119            243 335 
 CHI  HZ EP       2144 39.87                             117    0.20 8  250 195 
 CHI  HN ES       2145  9.10                             117   -0.15 8  250 195 
 CHI  HZ I        2145 12.95        16.6 0.52            118            250 195 
 ROSC BN ES   4   2145 11.94                             117    1.98 0  254 211 
 ROSC BZ I        2145 16.33        37.3 0.40            118            254 211 
 GUY2CHZ EP       2144 46.30                             113    0.81 7  302 235 
 GUY2CHN ES   4   2145 21.62                             113    2.00 0  302 235 
 GUY2CHZ I        2145 27.91        13.0 0.34                           302 235 
 PTGC HZ IP     C 2144 44.93                             112   -0.89 7  310 159 
 PTGC HN ES   4   2145 18.47                             112   -1.74 0  310 159 
 PTGC HZ I        2145 26.48        15.2 0.54            113            310 159 
 CBOC HZ EP   1   2144 48.71                             110   -0.04 5  334 252 
 CBOC HE ES   4   2145 23.63                             110   -1.78 0  334 252 
 CBOC HZ I        2145 26.63         4.3 0.44            111            334 252 
 DBB  SZ ES   4   2145 24.75                             110   -1.57 0  339 274 
 MON  HZ EP   4   2144 48.68                             109   -2.04 0  353 308 
 MON  HN ES   4   2145 27.25                             109   -1.67 0  353 308 
 MON  HZ I        2145 29.44         4.9 0.36            110            353 308 
 PRA  HZ EP       2144 56.14                             107    0.71 6  393 209 
 PRA  HN ES   1   2145 37.25                             107   -0.05 4  393 209 
 PRA  HZ I        2145 44.17        12.4 0.24            108            393 209 
 ORTC HZ EP       2144 55.60                             107   -0.21 6  396 216 
 ORTC HN ES   4   2145 39.46                             107    1.47 0  396 216 
 ORTC HZ I        2145 43.08         9.2 0.28            107            396 216 
 SJC  HZ EP   4   2144 55.88                             106   -1.36 0  408 327 
 SJC  HN ES   4   2145 36.94                             106   -3.60 0  408 327 
 SJC  HZ I        2145 43.46         3.3 0.14            107            408 327 
                                                                                
