 2010  929 2353 41.5 L   6.824 -73.056142.8  RSN  5 0.2 1.7LRSN                1
 GAP=192        0.57       3.4     8.9  5.7  0.1206E+02 -0.1693E+02 -0.3329E+01E
 Epicentro: LOS SANTOS - SANTANDER                                             3
 ACTION:UP  11-02-18 11:06 OP:tino STATUS:               ID:20100929235341 L   I
 2010-09-29-2351-01S.COL___125                                                 6
 STAT SP IPHASW D HRMM SECON CODA AMPLIT PERI AZIMU VELO SNR AR TRES W  DIS CAZ7
 BAR2 SZ EP       2354  0.93                             168     0.010   29 209 
 BAR2 SZ ES   2   2354 15.96                             168    -0.1 5   29 209 
 BAR2 SZ I        2354 17.39        14.7 0.31                            29 209 
 BRR  HZ EP       2354  2.69                             149    -0.110   79 293 
 BRR  HZ I        2354  3.02        16.1 0.19                            79 293 
 BRR  HN ES   1   2354 19.68                             149     0.2 7   79 293 
 RUS  HZ EP       2354  5.48                             142     0.310  103 182 
 RUS  HE ES   1   2354 23.39                             142    -0.2 7  103 182 
 RUS  HZ I        2354 25.58         4.8 0.41                           103 182 
 OCA  SZ EP       2354  9.39                             129    -0.1 9  159 350 
 CHI  HZ EP       2354 19.73                             116     0.1 8  254 197 
 CHI  HN ES   2   2354 48.82                             116    -0.6 4  254 197 
 CHI  HZ I        2354 56.42         3.3 0.30                           254 197 
                                                                                
