 2016  929 2354 50.6 L   6.797 -73.153146.0  RSN  9 0.4 1.6LRSN                1
 GAP=136        0.85       3.2     3.6  6.2 -0.4164E+00  0.3278E+01  0.5145E+01E
 Epicentro: LOS SANTOS - SANTANDER                                             3
 ACTION:UPD 17-08-17 21:17 OP:lp   STATUS:               ID:20160929235450 L   I
 OLDACT:REG 16-09-30 03:24 OP:and  STATUS:               ID:20160929234741     3
 2016-09-29-2348-00M.COL___369                                                 6
 STAT SP IPHASW D HRMM SECON CODA AMPLIT PERI AZIMU VELO AIN AR TRES W  DIS CAZ7
 BAR2 EZ ES   2   2355 25.64                             171    0.02 5 22.8 188 
 BAR2 EZ I        2355 27.77         9.8 0.19            170           22.8 188 
 BRR  HZ EP       2355 12.01                             153    0.2210 70.7 299 
 BRR  HE ES       2355 28.85                             153    0.5710 70.7 299 
 PAM  EZ IP     C 2355 12.97                             151    0.0410 78.2  40 
 PAM  EE ES       2355 30.04                             151   -0.2710 78.2  40 
 PAM  EZ I        2355 32.13        10.7 0.48            153           78.2  40 
 RUS  HZ EP       2355 14.14                             144   -0.2510  100 176 
 RUS  HN ES       2355 33.05                             144    0.1310  100 176 
 RUS  HZ I        2355 33.84         7.4 0.32            146            100 176 
 PTB  HZ EP       2355 17.57                             132    0.02 9  147 259 
 PTB  HN ES       2355 37.65                             132   -0.89 9  147 259 
 PTB  HZ I        2355 43.20         3.9 0.15            131            147 259 
 SPBC HE ES       2355 41.46                             129    0.19 9  162 219 
 ZAR  HE ES       2355 48.32                             123    0.01 9  203 292 
 ZAR  HZ I        2355 57.87         4.5 0.10            122            203 292 
 CHI  HZ EP       2355 28.13                             117   -0.16 8  248 195 
 CHI  HN ES       2355 57.74                             117    0.08 8  248 195 
 CHI  HZ I        2356  0.93         2.4 0.33            119            248 195 
 GUY2CHZ EP   2   2355 34.92                             112    0.76 4  300 235 
 GUY2CHE ES   2   2356  8.94                             112    0.83 4  300 235 
 GUY2CHZ I        2356 15.20         2.2 0.28                           300 235 
                                                                                
