 2013  429 2133 12.2 L   6.791 -73.099152.0  RSN  4 0.2 1.5LRSN                1
 GAP=143        0.49       3.5     5.1  5.3  0.3763E+01 -0.9643E+01 -0.2561E+00E
 Epicentro: LOS SANTOS - SANTANDER                                             3
 ACTION:UPD 13-05-22 14:41 OP:EP   STATUS:               ID:20130429213312 L   I
 2013-04-29-2130-00M.COL___248                                                 6
 STAT SP IPHASW D HRMM SECON CODA AMPLIT PERI AZIMU VELO AIN AR TRES W  DIS CAZ7
 BAR2 SZ EP       2133 32.58                             171   -0.0210 23.8 203 
 BAR2 SZ ES   2   2133 48.09                             171   -0.41 5 23.8 203 
 BAR2 SZ I        2133 50.24         6.1 0.28            171           23.8 203 
 PAM  SZ EP       2133 34.86                             153   -0.1010 75.0  36 
 PAM  SN ES   2   2133 53.00                             153    0.30 5 75.0  36 
 PAM  SZ I        2133 54.68         6.4 0.56            154           75.0  36 
 BRR  HZ IP     C 2133 34.56                             152    0.2510 76.2 297 
 BRR  HE ES       2133 51.45                             152   -0.1010 76.2 297 
 BRR  HZ I        2133 52.95        12.9 0.38            156           76.2 297 
 RUS  HZ EP       2133 36.34                             145   -0.1510 99.4 179 
 RUS  HN ES   1   2133 55.69                             145    0.26 7 99.4 179 
 RUS  HZ I        2133 57.94         2.1 0.38            147           99.4 179 
                                                                                
