 2011  929 2037 36.3 L   6.761 -73.129152.0  RSN  7 0.5 1.9LRSN                1
 GAP=140        1.02       7.7     7.6 12.2 -0.4624E+01  0.5902E+01  0.3302E+02E
 Epicentro: LOS SANTOS - SANTANDER                                             3
 ACTION:UPD 12-07-13 16:00 OP:ep   STATUS:               ID:20110929203736 L   I
 2011-09-29-2034-23S.COL___168                                                 6
 STAT SP IPHASW D HRMM SECON CODA AMPLIT PERI AZIMU VELO AIN AR TRES W  DIS CAZ7
 BAR2 SZ EP       2037 55.85                             172   -0.7410 19.5 198 
 BAR2 SZ I        2037 56.85        13.5 0.38                          19.5 198 
 BTL  SZ EP       2037 57.54                             171    0.8810 23.2 319 
 BRR  HZ EP       2037 58.49                             152    0.1810 74.9 301 
 BRR  HE ES   1   2038 15.49                             152   -0.01 7 74.9 301 
 BRR  HZ I        2038 17.92        14.0 0.12                          74.9 301 
 PAM  SZ EP       2037 59.24                             151   -0.0510 79.7  37 
 PAM  SN ES   2   2038 16.63                             151   -0.61 5 79.7  37 
 RUS  HZ EP       2038  0.40                             146    0.0610 96.1 177 
 RUS  HN ES   2   2038 19.34                             146    0.23 5 96.1 177 
 ZAR  HE ES   2   2038 34.77                             123   -0.60 4  207 293 
 ZAR  HZ I        2038 40.79         7.8 0.38                           207 293 
 NOR  SZ EP       2038 12.03                             120   -0.24 8  234 236 
 NOR  SE ES   2   2038 40.54                             120    0.20 4  234 236 
                                                                                
