 2017  529 2244 41.8 L   6.754 -73.182149.0  RSN  9 0.4 2.0LRSN                1
 GAP=206        0.84       5.3     4.6  6.3  0.1707E+02  0.1555E+00  0.3904E+00E
 Epicentro: LOS SANTOS - SANTANDER                                             3
 ACTION:UPD 17-06-16 13:40 OP:jn   STATUS:               ID:20170529224441 L   I
 OLDACT:UP  17-05-30 06:02 OP:dnl  STATUS:               ID:20170529223736     3
 OLDACT:UP  17-05-30 06:02 OP:dnl  STATUS:               ID:20170529223736     3
 OLDACT:REG 17-05-30 05:09 OP:dnl  STATUS:               ID:20170529223736     3
 2017-05-29-2238-00M.COL___362                                                 6
 STAT SP IPHASW D HRMM SECON CODA AMPLIT PERI AZIMU VELO AIN AR TRES W  DIS CAZ7
 BRR  HZ IP     C 2245  3.25                             153   -0.0510 70.4 304 
 BRR  HN ES       2245 19.95                             153   -0.0810 70.4 304 
 BRR  HZ I        2245 21.17        10.7 0.24            148           70.4 304 
 RUS  HZ EP       2245  5.28                             146   -0.3110 95.9 173 
 RUS  HN ES       2245 24.14                             146    0.0410 95.9 173 
 RUS  HZ I        2245 24.62         5.6 0.18            138           95.9 173 
 PTB  HZ EP       2245  8.19                             134   -0.45 9  143 261 
 PTB  HN ES       2245 29.01                             134   -0.54 9  143 261 
 PTB  HZ I        2245 31.61        15.5 0.20            127            143 261 
 SPBC HZ EP   2   2245 10.52                             131    0.53 5  157 219 
 SPBC HE ES   4   2245 35.36                             131    3.42 0  157 219 
 SPBC HZ I        2245 39.87        14.4 0.20            124            157 219 
 YPLC HZ EP       2245 11.72                             128    0.08 9  174 149 
 YPLC HN ES       2245 35.38                             128    0.50 9  174 149 
 YPLC HZ I        2245 38.19        15.6 0.28            124            174 149 
 ZAR  HZ EP       2245 14.53                             123    0.20 9  202 294 
 ZAR  HN ES       2245 40.24                             123    0.58 9  202 294 
 ZAR  HZ I        2245 46.08        11.5 0.28            121            202 294 
 CHI  HZ EP   2   2245 18.44                             118   -0.65 4  243 195 
 CHI  HN ES   4   2245 49.96                             118    1.83 0  243 195 
 CHI  HZ I        2245 55.60         2.6 0.42            114            243 195 
 HEL  HZ EP   2   2245 22.51                             116    0.85 4  267 257 
 HEL  HE ES       2245 53.05                             116    0.33 8  267 257 
 HEL  HZ I        2246  2.11         5.8 0.36            112            267 257 
 PTGC HZ EP   2   2245 24.72                             112   -0.77 4  305 158 
 PTGC HN ES   4   2245 56.64                             112   -2.88 0  305 158 
 PTGC HZ I        2246  6.35        10.5 0.44            110            305 158 
                                                                                
