 2012  129 2040 43.5 L   6.776 -73.105142.0  RSN 12 0.3 2.0LRSN                1
 GAP=143        0.61       3.5     4.0  5.1 -0.3554E+01  0.3777E+01  0.5550E+01E
 Epicentro: LOS SANTOS - SANTANDER                                             3
 ACTION:UP  12-02-03 08:22 OP:REBC STATUS:               ID:20120129204043 L   I
 2012-01-29-2040-00M.COL___188                                                 6
 STAT SP IPHASW D HRMM SECON CODA AMPLIT PERI AZIMU VELO SNR AR TRES W  DIS CAZ7
 BAR2 SZ EP   1   2041  2.71                             171     0.1 7   22 203 
 BAR2 SZ ES   2   2041 17.35                             171    -0.2 5   22 203 
 BAR2 SZ I        2041 18.22        34.5 0.24                            22 203 
 GIR2 SZ EP       2041  2.60                             165    -0.210   35 344 
 GIR2 SZ ES   2   2041 17.94                             165     0.0 5   35 344 
 BRR  HZ EP   1   2041  4.47                             150    -0.1 7   76 299 
 BRR  HE ES   1   2041 21.36                             150     0.4 7   76 299 
 BRR  HZ I        2041 25.24        35.7 0.13                            76 299 
 PAM  SZ EP   1   2041  5.63                             150     0.4 7   77  36 
 PAM  SN ES   2   2041 22.33                             150     0.1 5   77  36 
 RUS  HZ EP   1   2041  6.65                             144     0.0 7   98 179 
 RUS  HE ES   2   2041 24.71                             144     0.0 5   98 179 
 RUS  HZ I        2041 27.38         8.3 0.36                            98 179 
 PTB  HZ EP   1   2041  9.59                             130    -0.9 7  152 260 
 PTB  HN ES   2   2041 31.37                             130    -0.2 5  152 260 
 OCA  SZ EP   2   2041 11.82                             128     0.0 5  163 352 
 OCA  SZ ES   2   2041 33.85                             128    -0.1 5  163 352 
 OCA  SZ I        2041 37.62        12.8 0.33                           163 352 
 NOR  SZ EP   2   2041 19.35                             117     0.1 4  237 236 
 NOR  SN ES   2   2041 47.15                             117     0.0 4  237 236 
 CHI  HZ EP   1   2041 21.04                             116     0.2 6  247 196 
 CHI  HN ES   2   2041 49.68                             116    -0.3 4  247 196 
 CHI  HZ I        2041 57.87         3.8 0.28                           247 196 
 HEL  HZ EP   1   2041 24.04                             114     0.1 6  276 257 
 HEL  HN ES   2   2041 55.61                             114     0.1 4  276 257 
 HEL  HZ I        2042  1.16         6.5 0.48                           276 257 
 GUY  SZ EP   1   2041 28.04                             111     0.6 5  306 236 
 GUY  SE ES   2   2042  2.30                             111     0.6 4  306 236 
 GUY  SZ I        2042  7.59         7.2 0.35                           306 236 
 RREF HZ EP   2   2041 29.64                             110     0.0 3  324 230 
 RREF HE ES   2   2042  6.04                             110     0.3 3  324 230 
 RREF HZ I        2042 12.06         5.9 0.55                           324 230 
                                                                                
