 2014 1129 2316  3.2 L   6.793 -73.129150.5  RSN  5 0.5 1.4LRSN                1
 GAP=239        1.21       7.7     8.6 10.0  0.1871E+02  0.1296E+02  0.3147E+01E
 Epicentro: LOS SANTOS - SANTANDER                                             3
 ACTION:UPD 14-12-19 15:48 OP:nd   STATUS:               ID:20141129231603 L   I
 OLDACT:ARG 14-11-30 06:00 OP:stll STATUS:               ID:20141129230750     3
 2014-11-29-2307-50M.COL___300                                                 6
 STAT SP IPHASW D HRMM SECON CODA AMPLIT PERI AZIMU VELO AIN AR TRES W  DIS CAZ7
 BAR2 SZ ES       2316 38.96                             171   -0.1910 23.0 195 
 BAR2 SZ I        2316 40.14         5.1 0.46            164           23.0 195 
 BRR  HZ EP       2316 24.29                             153   -0.6910 73.2 298 
 BRR  HN ES       2316 42.63                             153    0.6710 73.2 298 
 RUS  HZ EP       2316 28.03                             145    0.6610 99.7 177 
 RUS  HN ES       2316 45.84                             145   -0.3710 99.7 177 
 RUS  HZ I        2316 48.00         1.6 0.38            142           99.7 177 
 PTB  HZ EP       2316 30.72                             133    0.00 9  149 259 
 PTB  HN ES       2316 51.83                             133   -0.34 9  149 259 
 PTB  HZ I        2316 56.10         2.5 0.36            130            149 259 
 SPBC HN ES       2316 54.96                             130    0.27 9  164 220 
 SPBC HZ I        2317  1.07         5.5 0.24            127            164 220 
                                                                                
