 2016  829 2355 39.3 L   6.744 -73.590111.1  RSN 10 0.6 1.7LRSN                1
 GAP= 75        1.38       4.7     4.2  9.0 -0.2259E+01  0.6907E+01  0.7518E+01E
 Epicentro: EL CARMEN - SANTANDER                                              3
 ACTION:UPD 16-10-29 15:40 OP:rebc STATUS:               ID:20160829235539 L   I
 OLDACT:DUP 16-08-30 06:27 OP:ak   STATUS:               ID:20160829234731d    3
 2016-08-29-2348-00M.COL___353                                                 6
 STAT SP IPHASW D HRMM SECON CODA AMPLIT PERI AZIMU VELO AIN AR TRES W  DIS CAZ7
 BRR  HZ IP     C 2355 55.88                             158    0.7110 42.4 342 
 BRR  HN ES       2356  8.43                             158    0.9210 42.4 342 
 BRR  HZ I        2356 10.65        10.2 0.10                          42.4 342 
 BAR2 EZ EP       2355 56.09                             155    0.2910 48.1 110 
 BAR2 EZ ES       2356  9.25                             155    0.6110 48.1 110 
 BAR2 EZ I        2356 10.76        12.7 0.27                          48.1 110 
 PTB  HZ IP     D 2355 59.10                             136    0.0710 98.4 257 
 PTB  HN ES       2356 13.66                             136   -0.7310 98.4 257 
 PTB  HZ I        2356 14.82        10.8 0.12                          98.4 257 
 RUS  HZ EP       2356  0.65                             133   -0.0210  110 149 
 RUS  HN ES       2356 16.62                             133   -0.6810  110 149 
 RUS  HZ I        2356 17.70        11.7 0.22                           110 149 
 PAM  EZ EP       2356  1.10                             130   -0.3810  118  56 
 PAM  EN ES       2356 18.12                             130   -0.6210  118  56 
 PAM  EZ I        2356 22.55         7.8 0.27                           118  56 
 SPBC HZ EP   2   2356  2.67                             127    0.42 5  132 204 
 SPBC HN ES       2356 19.70                             127   -0.4110  132 204 
 SPBC HZ I        2356 21.82        19.6 0.10                           132 204 
 ZAR  HN ES       2356 24.71                             120   -0.80 9  163 301 
 ZAR  HZ I        2356 31.41        10.9 0.05                           163 301 
 NOR  HZ EP       2356  8.76                             115    0.19 9  193 227 
 NOR  HE ES       2356 31.76                             115    0.39 9  193 227 
 NOR  HZ I        2356 36.43         5.1 0.14                           193 227 
 CHI  HZ EP   2   2356 14.75                             111    1.01 4  234 184 
 CHI  HN ES   4   2356 42.91                             111    2.35 0  234 184 
 GUY2CHZ EP   2   2356 17.45                             108    0.85 4  258 230 
 GUY2CHN ES   4   2356 48.89                             108    3.22 0  258 230 
 GUY2CHZ I        2356 54.01         1.6 0.08                           258 230 
                                                                                
