 2015  429 2208 54.2 L   6.777 -73.096155.3  RSN  8 0.4 1.8LRSN                1
 GAP=144        0.95       6.4     5.1  9.7 -0.6995E+01  0.3784E+01  0.2286E+02E
 Epicentro: LOS SANTOS - SANTANDER                                             3
 ACTION:UPD 15-06-03 16:58 OP:cam  STATUS:               ID:20150429220854 L   I
 OLDACT:REG 15-04-30 02:50 OP:spq  STATUS:               ID:20150429220750     3
 2015-04-29-2207-50M.COL___268                                                 6
 STAT SP IPHASW D HRMM SECON CODA AMPLIT PERI AZIMU VELO AIN AR TRES W  DIS CAZ7
 BAR2 EZ EP   1   22 9 14.91                             171   -0.01 7 22.5 205 
 PAM  SZ EP       22 9 17.78                             153    0.4610 76.1  35 
 PAM  SE ES       22 9 34.91                             153   -0.4810 76.1  35 
 PAM  SZ I        22 9 37.30         5.0 0.33            158           76.1  35 
 BRR  HZ EP   1   22 9 16.94                             152    0.27 7 77.2 298 
 BRR  HN ES       22 9 34.75                             152    0.5110 77.2 298 
 BRR  HZ I        22 9 41.91        13.4 0.42            150           77.2 298 
 RUS  HZ EP   1   22 9 18.73                             146    0.06 7 97.8 179 
 PTB  HZ EP       22 9 21.93                             133   -0.42 9  153 260 
 PTB  HN ES   1   22 9 43.61                             133   -0.73 7  153 260 
 PTB  HZ I        22 9 50.10         7.3 0.42            134            153 260 
 ZAR  HE ES   1   22 9 54.64                             124    0.52 6  210 292 
 ZAR  HZ I        22 9 59.01         5.9 0.26            126            210 292 
 NOR  HN ES   1   22 9 59.37                             120    0.04 6  238 236 
 NOR  HZ I        2210  2.79         3.1 0.18            123            238 236 
 SML  HE ES   1   2210  0.68                             119   -0.52 6  248 334 
 SML  HZ I        2210  4.84         6.9 0.10            122            248 334 
                                                                                
