 2012 1229 2318 36.6 L   6.431 -73.605101.0  RSN  4 0.4 1.7LRSN                1
 GAP=141        1.09       8.0     5.4 11.7  0.2516E+02  0.2366E+02  0.6443E+01E
 Epicentro: SANTA HELENA DEL OPON - SANTANDER                                  3
 ACTION:UPD 13-01-04 14:31 OP:ep   STATUS:               ID:20121229231836 L   I
 2012-12-29-2310-00M.COL___242                                                 6
 STAT SP IPHASW D HRMM SECON CODA AMPLIT PERI AZIMU VELO AIN AR TRES W  DIS CAZ7
 BAR2 SZ EP       2318 51.68                             152   -0.3710 50.0  69 
 BAR2 SZ ES       2319  3.97                             152   -0.1310 50.0  69 
 BAR2 SZ I        2319  5.12        45.9 0.48                          50.0  69 
 RUS  HZ EP       2318 55.12                             138    0.3810 83.0 136 
 RUS  HN ES       2319  9.19                             138    0.2910 83.0 136 
 RUS  HN I        2319 12.20         3.5 0.42                          83.0 136 
 PTB  HZ EP       2318 54.45                             133   -0.6610 94.9 277 
 PTB  HN ES       2319  9.50                             133   -0.0610 94.9 277 
 PTB  HN I        2319 10.16        11.5 0.20                          94.9 277 
 ZAR  HE ES       2319 26.14                             113    0.72 9  181 310 
 ZAR  HE I        2319 29.94        11.8 0.22                           181 310 
                                                                                
