 2010  529 2234 55.7 L   6.831 -73.196135.7  RSN 13 0.5 3.0LRSN                1
 GAP=157        1.06       3.8     7.2  8.7 -0.1132E+02  0.2940E+02  0.2333E+01E
 Epicentro: ZAPATOCA - SANTANDER                                               3
 ACTION:UP  10-08-24 10:07 OP:vdl  STATUS:               ID:20100529223455 L   I
 2010-05-29-2233-21S.COL___109                                                 6
 STAT SP IPHASW D HRMM SECON CODA AMPLIT PERI AZIMU VELO SNR AR TRES W  DIS CAZ7
 BAR2 SZ IP       2235 13.76                             168    -0.410   26 177 
 BAR2 SZ ES   1   2235 28.08                             168    -0.5 7   26 177 
 GUE  SZ EP       2235 18.72                             138    -0.610  115  15 
 GUE  SZ ES   1   2235 38.12                             138     0.4 7  115  15 
 GRA  SZ IP       2235 20.75                             135     0.910  124  20 
 GRA  SZ ES   1   2235 39.52                             135     0.7 7  124  20 
 OCA  SZ EP       2235 22.51                             128    -0.3 9  156 355 
 OCA  SZ ES   2   2235 43.73                             128    -0.3 5  156 355 
 OCA  SZ I        2235 47.64       220.3 0.37                           156 355 
 CHI  HZ EP       2235 32.64                             115    -0.4 8  251 194 
 CHI  HN ES       2236  2.43                             115     0.3 8  251 194 
 CHI  HZ I        2236  7.03        32.5 0.26                           251 194 
 ROSC BZ EP   1   2235 33.87                             114     0.6 6  253 210 
 ROSC BE ES   2   2236  2.57                             114     0.0 4  253 210 
 ROSC BZ I        2236  9.86        72.0 0.61                           253 210 
 HEL  HZ EP   2   2235 35.88                             113     1.0 4  268 255 
 HEL  HN ES   1   2236  5.53                             113     0.1 6  268 255 
 HEL  HZ I        2236 15.12        52.3 0.28                           268 255 
 CVER SZ EP   2   2235 35.66                             113     0.0 4  273 201 
 RREF BZ EP   1   2235 41.15                             109     0.0 5  320 228 
 RREF BN ES   2   2236 17.24                             109     0.6 3  320 228 
 RREF BZ I        2236 25.65        53.0 0.25                           320 228 
 DBB  SZ IP       2235 42.21                             108     0.1 7  334 274 
 TOL  SZ EP       2235 42.99                             107    -0.4 7  342 224 
 MON  HE ES   1   2236 20.09                             107    -0.7 5  346 309 
 MON  HZ I        2236 34.58        24.4 0.59                           346 309 
 ANIL BZ EP       2235 44.79                             107    -0.1 6  356 223 
 ANIL BN ES   2   2236 24.42                             107     1.1 3  356 223 
 ANIL BZ I        2236 31.40        72.6 0.34                           356 223 
                                                                                
