 2013  429 2004 26.4 L   6.788 -73.166134.6  RSN  4 0.4 1.4LRSN                1
 GAP=234        0.79       7.1     7.1 11.1  0.8205E+01  0.1225E+02  0.1570E+02E
 Epicentro: LOS SANTOS - SANTANDER                                             3
 ACTION:UPD 13-05-22 14:41 OP:EP   STATUS:               ID:20130429200426 L   I
 2013-04-29-2000-00M.COL___248                                                 6
 STAT SP IPHASW D HRMM SECON CODA AMPLIT PERI AZIMU VELO AIN AR TRES W  DIS CAZ7
 BRR  HZ IP     C 20 4 46.47                             151    0.2010 69.9 300 
 BRR  HN ES   2   20 5  1.85                             151    0.08 5 69.9 300 
 RUS  HZ EP       20 4 48.83                             142   -0.1510 99.4 175 
 RUS  HN ES   2   20 5  6.73                             142    0.14 5 99.4 175 
 RUS  HZ I        20 5  8.25         2.6 0.38            147           99.4 175 
 PTB  HZ EP       20 4 51.65                             130   -0.59 9  145 259 
 PTB  HN ES   2   20 5 12.54                             130    0.14 5  145 259 
 PTB  HZ I        20 5 22.36         7.1 0.18            132            145 259 
 NOR  HZ EP       20 5  1.88                             116    0.67 8  232 234 
 NOR  HN ES   1   20 5 28.19                             116   -0.18 6  232 234 
 NOR  HZ I        20 5 31.26         2.0 0.18            120            232 234 
                                                                                
