 2010  929 2205  0.5 L   6.821 -73.092147.9  RSN 18 0.4 3.1LRSN                1
 GAP=105        0.91       3.0     4.3  5.0 -0.4000E+01  0.3369E+01  0.1991E+01E
 Epicentro: LOS SANTOS - SANTANDER                                             3
 ACTION:UP  11-02-18 11:06 OP:tino STATUS:               ID:20100929220500 L   I
 2010-09-29-2202-45S.COL___125                                                 6
 STAT SP IPHASW D HRMM SECON CODA AMPLIT PERI AZIMU VELO SNR AR TRES W  DIS CAZ7
 BAR2 SZ IP     C 22 5 20.64                             169     0.210   27 202 
 BAR2 SZ ES   1   22 5 35.43                             169    -0.6 7   27 202 
 BAR2 SZ I        22 5 37.39       375.4 0.04                            27 202 
 GIR2 SZ EP       22 5 20.76                             168     0.310   31 339 
 GIR2 SZ ES   2   22 5 36.41                             168     0.5 5   31 339 
 BRR  HZ IP     C 22 5 22.42                             151     0.310   76 295 
 BRR  HN ES   1   22 5 39.80                             151     0.8 7   76 295 
 BRR  HZ I        22 5 41.57       208.7 0.15                            76 295 
 RUS  HZ IP     D 22 5 24.57                             144     0.010  103 179 
 RUS  HN ES   1   22 5 43.06                             144    -0.4 7  103 179 
 RUS  HZ I        22 5 45.02       107.4 0.47                           103 179 
 GUE  SZ EP       22 5 24.53                             141    -0.610  113   9 
 GRA  SZ IP       22 5 25.48                             138    -0.110  122  15 
 GRA  SZ ES   1   22 5 45.06                             138    -0.2 7  122  15 
 GRA  SZ I        22 5 46.59        99.2 0.39                           122  15 
 OCA  SZ EP       22 5 29.02                             130     0.2 9  159 351 
 OCA  SZ ES   3   22 5 50.01                             130    -0.9 2  159 351 
 OCA  SZ I        22 5 54.43       115.4 0.04                           159 351 
 YOP  SZ EP       22 5 31.18                             127     0.5 9  178 155 
 YOP  SN ES   2   22 5 54.65                             127     0.5 4  178 155 
 NOR  SZ EP       22 5 36.32                             118    -0.7 8  241 235 
 NOR  SN ES   2   22 6  4.78                             118    -0.7 4  241 235 
 CHI  HZ EP       22 5 38.59                             117    -0.1 8  252 196 
 CHI  HN ES   1   22 6  7.99                             117    -0.6 6  252 196 
 CHI  HZ I        22 6 11.68        55.5 0.46                           252 196 
 ROSC BE ES   1   22 6 10.00                             117     0.5 6  258 212 
 ROSC BZ I        22 6 15.21        97.7 0.27                           258 212 
 CVER SZ EP       22 5 41.56                             115     0.1 7  277 203 
 CVER SZ I        22 6 20.57       102.9 0.33                           277 203 
 HEL  HZ EP       22 5 41.65                             115     0.1 7  278 256 
 HEL  HN ES   1   22 6 13.13                             115    -0.4 6  278 256 
 HEL  HZ I        22 6 18.80        68.1 0.26                           278 256 
 RREF HZ EP       22 5 47.52                             111     0.1 7  328 230 
 RREF HE ES   2   22 6 23.89                             111    -0.1 3  328 230 
 RREF HZ I        22 6 29.39        75.2 0.37                           328 230 
 DBB  SZ EP       22 5 48.77                             109     0.0 7  345 274 
 TOL  SZ EP       22 5 49.74                             109     0.2 6  349 225 
 SDV  BZ EP       22 5 49.98                             109     0.0 6  354  50 
 ANIL HZ EP       22 5 50.97                             108    -0.1 6  363 225 
 ANIL HN ES   1   22 6 30.91                             108     0.4 5  363 225 
                                                                                
