 2013  629 2116 58.5 L   6.752 -73.149142.0  RSN  4 0.5 1.6LRSN                1
 GAP=138        1.00       6.7     6.3 10.4 -0.4569E+01 -0.3864E+01  0.9296E+01E
 Epicentro: LOS SANTOS - SANTANDER                                             3
 ACTION:UPD 14-01-08 09:58 OP:ep   STATUS:               ID:20130629211658 L   I
 OLDACT:UP  13-06-30 05:11 OP:cam  STATUS:               ID:20130629210959     3
 OLDACT:REG 13-06-29 22:33 OP:cam  STATUS:               ID:20130629210959     3
 2013-06-29-2109-59M.COL___266                                                 6
 STAT SP IPHASW D HRMM SECON CODA AMPLIT PERI AZIMU VELO AIN AR TRES W  DIS CAZ7
 BRR  HZ EP       2117 19.33                             151   -0.0310 73.6 302 
 BRR  HN ES       2117 36.25                             151    0.6110 73.6 302 
 BRR  HZ I        2117 37.98         9.2 0.16            149           73.6 302 
 PAM  SZ EP       2117 20.58                             149    0.0210 81.8  37 
 PAM  SZ I        2117 20.65        20.9 0.22            152           81.8  37 
 PAM  SN ES   1   2117 37.19                             149   -0.60 7 81.8  37 
 RUS  HZ EP   1   2117 22.08                             145    0.60 7 95.3 176 
 RUS  HN ES   1   2117 39.30                             145   -0.12 7 95.3 176 
 RUS  HZ I        2117 40.58         2.6 0.24            145           95.3 176 
 PTB  HZ EP   1   2117 24.70                             132   -0.32 7  146 261 
 PTB  HN ES   1   2117 44.96                             132   -0.76 7  146 261 
 PTB  HZ I        2117 50.43         5.0 0.34            131            146 261 
                                                                                
