 2016  329 2045  9.7 L   6.756 -73.190124.0  RSN  6 0.3 1.3LRSN                1
 GAP=133        0.52       2.9     4.4  7.4 -0.5646E+01  0.1169E+02  0.4302E+01E
 Epicentro: VILLANUEVA - SANTANDER                                             3
 ACTION:UPD 16-05-13 21:28 OP:cam  STATUS:               ID:20160329204509 L   I
 OLDACT:REG 16-03-30 04:03 OP:dnl  STATUS:               ID:20160329203743     3
 2016-03-29-2037-43M.COL___313                                                 6
 STAT SP IPHASW D HRMM SECON CODA AMPLIT PERI AZIMU VELO AIN AR TRES W  DIS CAZ7
 PAM  EZ EP       2045 29.89                             144   -0.2010 84.3  40 
 PAM  EN ES       2045 46.19                             144    0.1610 84.3  40 
 PAM  EZ I        2045 49.08         6.7 0.52            153           84.3  40 
 RUS  HZ EP   2   2045 31.41                             140    0.42 5 96.2 173 
 RUS  HE ES   2   2045 47.09                             140   -0.53 5 96.2 173 
 RUS  HZ I        2045 50.76         3.6 0.34            147           96.2 173 
 PTB  HZ EP   2   2045 35.00                             128    0.61 5  142 260 
 PTB  HN ES   2   2045 53.33                             128   -0.34 5  142 260 
 PTB  HZ I        2045 59.78         2.0 0.08            130            142 260 
 SPBC HZ EP   4   2045 34.40                             125   -1.49 0  156 219 
 SPBC HN ES   2   2045 56.35                             125    0.01 5  156 219 
 ZAR  HZ EP   2   2045 40.19                             117   -0.31 4  201 294 
 ZAR  HN ES   3   2046  5.09                             117    0.53 2  201 294 
 ZAR  HZ I        2046 11.12         3.3 0.27            121            201 294 
 CHI  HZ EP   2   2045 45.23                             113   -0.34 4  243 194 
 CHI  HN ES       2046 13.74                             113    0.16 8  243 194 
 CHI  HZ I        2046 17.06         0.9 0.19            118            243 194 
                                                                                
