 2013  129 2320 46.8 L   6.766 -73.184144.6  RSN  6 0.4 1.4LRSN                1
 GAP=230        0.70       5.4     6.6  6.9  0.2138E+02  0.1345E+02  0.1196E+02E
 Epicentro: VILLANUEVA - SANTANDER                                             3
 ACTION:UPD 13-02-15 09:17 OP:ep   STATUS:               ID:20130129232046 L   I
 2013-01-29-2320-00M.COL___241                                                 6
 STAT SP IPHASW D HRMM SECON CODA AMPLIT PERI AZIMU VELO AIN AR TRES W  DIS CAZ7
 BAR2 SZ ES   1   2321 21.21                             172   -0.16 7 19.3 179 
 BRR  HZ EP   1   2321  7.94                             153    0.20 7 69.4 303 
 BRR  HN ES   1   2321 24.55                             153    0.50 7 69.4 303 
 RUS  HZ EP   1   2321 10.29                             145    0.08 7 97.3 173 
 RUS  HE ES   1   2321 28.06                             145   -0.40 7 97.3 173 
 RUS  HZ I        2321 29.76         3.6 0.22            143           97.3 173 
 PTB  HZ EP   1   2321 12.82                             133   -0.42 7  143 260 
 PTB  HN ES   1   2321 34.17                             133    0.31 7  143 260 
 PTB  HZ I        2321 35.84         3.8 0.40            131            143 260 
 ZAR  HE ES   1   2321 43.34                             122   -0.63 6  202 294 
 CHI  HZ EP   1   2321 24.34                             117    0.40 6  244 194 
 CHI  HN ES   1   2321 53.02                             117    0.13 6  244 194 
 CHI  HZ I        2321 55.83         2.1 0.36            117            244 194 
                                                                                
