 2016  929 2325 49.7 L   6.776 -73.346130.2  RSN  6 0.3 1.5LRSN                1
 GAP=115        0.67       3.5     3.7  6.4  0.3113E+00  0.6438E+01  0.5351E+01E
 Epicentro: ZAPATOCA - SANTANDER                                               3
 ACTION:UPD 17-08-17 21:17 OP:lp   STATUS:               ID:20160929232549 L   I
 OLDACT:DUP 16-09-30 06:18 OP:and  STATUS:               ID:20160929231740d    3
 2016-09-29-2318-00M.COL___369                                                 6
 STAT SP IPHASW D HRMM SECON CODA AMPLIT PERI AZIMU VELO AIN AR TRES W  DIS CAZ7
 BRR  HZ IP     C 2326  8.33                             156    0.0710 54.5 312 
 BRR  HN ES       2326 22.72                             156   -0.0110 54.5 312 
 PAM  EZ EP   2   2326 11.85                             142    0.34 5 94.8  49 
 PAM  EE ES       2326 28.54                             142    0.0210 94.8  49 
 PAM  EZ I        2326 31.47         3.4 0.32            145           94.8  49 
 RUS  HZ EP       2326 12.25                             140    0.1810  102 163 
 RUS  HN ES       2326 29.40                             140   -0.1110  102 163 
 RUS  HZ I        2326 30.75         4.6 0.30            144            102 163 
 PTB  HZ EP       2326 12.82                             133   -0.5710  126 258 
 PTB  HN ES   2   2326 32.14                             133    0.27 5  126 258 
 PTB  HZ I        2326 35.35         5.7 0.18            134            126 258 
 ZAR  HZ EP   2   2326 19.87                             121    0.71 4  185 295 
 ZAR  HN ES   4   2326 43.36                             121    1.23 0  185 295 
 ZAR  HZ I        2326 46.39         7.1 0.13            123            185 295 
 NOR  HE ES   2   2326 48.67                             117    0.64 4  215 232 
                                                                                
