 2017  529 2135 46.2 L   6.770 -73.178150.1  RSN  7 0.4 1.8LRSN                1
 GAP=232        0.81       4.1     5.5  7.7  0.1010E+02 -0.2448E+00  0.3909E+01E
 Epicentro: LOS SANTOS - SANTANDER                                             3
 ACTION:UPD 17-06-16 13:40 OP:jn   STATUS:               ID:20170529213546 L   I
 OLDACT:UP  17-05-30 05:41 OP:dnl  STATUS:               ID:20170529212740     3
 OLDACT:REG 17-05-30 05:05 OP:dnl  STATUS:               ID:20170529212740     3
 2017-05-29-2128-00M.COL___362                                                 6
 STAT SP IPHASW D HRMM SECON CODA AMPLIT PERI AZIMU VELO AIN AR TRES W  DIS CAZ7
 BRR  HZ IP     C 2136  7.76                             154    0.0410 69.8 302 
 BRR  HE ES       2136 25.06                             154    0.5410 69.8 302 
 BRR  HZ I        2136 25.49        16.0 0.12            149           69.8 302 
 RUS  HZ EP       2136  9.96                             146   -0.1910 97.6 174 
 RUS  HN ES       2136 28.46                             146   -0.3810 97.6 174 
 RUS  HZ I        2136 30.47         4.0 0.28            143           97.6 174 
 PTB  HZ EP   2   2136 12.79                             134   -0.34 5  144 260 
 PTB  HN ES       2136 33.67                             134   -0.49 9  144 260 
 PTB  HZ I        2136 41.02         4.7 0.42            130            144 260 
 SPBC HZ EP   2   2136 14.89                             131    0.33 5  158 219 
 SPBC HE ES       2136 36.71                             131    0.01 9  158 219 
 SPBC HZ I        2136 41.78        16.9 0.24            128            158 219 
 ZAR  HZ EP   4   2136 20.04                             124    1.34 0  202 293 
 ZAR  HN ES       2136 44.04                             124   -0.03 9  202 293 
 ZAR  HZ I        2136 49.04         8.8 0.26            122            202 293 
 NOR  HZ EP   2   2136 21.70                             120    0.05 4  230 235 
 NOR  HN ES   4   2136 50.89                             120    1.58 0  230 235 
 NOR  HZ I        2136 52.50         2.9 0.18            118            230 235 
 CHI  HZ EP   2   2136 23.62                             118   -0.06 4  245 195 
 CHI  HE ES       2136 53.63                             118    0.71 8  245 195 
 CHI  HZ I        2136 57.20         3.8 0.44            118            245 195 
                                                                                
