 2014 1229 2351 57.1 L   6.800 -73.138144.0  RSN 23 0.4 2.4LRSN                1
 GAP= 71        0.99       2.6     2.7  4.9 -0.9282E+00  0.3056E+01  0.2131E+01E
 Epicentro: LOS SANTOS - SANTANDER                                             3
 ACTION:UPD 15-02-10 17:08 OP:nd   STATUS:               ID:20141229235157 L   I
 OLDACT:UP  14-12-30 09:46 OP:spq  STATUS:               ID:20141229234747     3
 OLDACT:REG 14-12-30 05:12 OP:spq  STATUS:               ID:20141229234747     3
 2014-12-29-2347-47M.COL___274                                                 6
 STAT SP IPHASW D HRMM SECON CODA AMPLIT PERI AZIMU VELO AIN AR TRES W  DIS CAZ7
 BAR2 EZ EP       2352 16.54                             170   -0.0210 23.5 192 
 BAR2 EZ ES   1   2352 31.52                             170   -0.19 7 23.5 192 
 BAR2 EZ I        2352 33.01        88.6 0.42            168           23.5 192 
 BRR  HZ EP     C 2352 18.44                             152    0.3010 71.9 298 
 BRR  HN ES       2352 35.47                             152    0.9510 71.9 298 
 BRR  HZ I        2352 38.57        63.4 0.14            152           71.9 298 
 PAM  SZ EP       2352 19.41                             151    0.2710 76.8  39 
 PAM  SN ES       2352 36.42                             151    0.1310 76.8  39 
 PAM  SZ I        2352 38.83        68.6 0.54            154           76.8  39 
 RUS  HZ EP       2352 20.47                             143   -0.2510  101 177 
 RUS  HE ES   1   2352 39.07                             143   -0.04 7  101 177 
 RUS  HZ I        2352 40.05        36.9 0.34            143            101 177 
 PTB  HZ EP       2352 23.13                             131   -0.91 9  149 259 
 PTB  HN ES       2352 44.43                             131   -0.59 9  149 259 
 PTB  HZ I        2352 46.18        46.7 0.31            131            149 259 
 TAM  HZ IP     D 2352 24.82                             130    0.21 9  154 105 
 TAM  HN ES       2352 46.11                             130    0.08 9  154 105 
 TAM  HZ I        2352 53.54        12.7 0.78            132            154 105 
 OCA  HZ EP       2352 24.97                             129   -0.35 9  160 353 
 OCA  HN ES       2352 46.58                             129   -0.73 9  160 353 
 OCA  HZ I        2352 50.01        35.6 0.30            131            160 353 
 SPBC HZ EP       2352 25.49                             129   -0.07 9  164 219 
 SPBC HN ES       2352 47.43                             129   -0.29 9  164 219 
 SPBC HZ I        2352 51.02        62.2 0.16            128            164 219 
 ZAR  HZ EP       2352 29.95                             122    0.40 9  205 292 
 ZAR  HN ES       2352 55.25                             122    0.42 9  205 292 
 ZAR  HZ I        2353  1.14        40.7 0.36            122            205 292 
 NOR  HZ EP       2352 33.06                             118    0.22 8  235 235 
 NOR  HE ES       2353  0.30                             118   -0.39 8  235 235 
 NOR  HZ I        2353  5.56        33.7 0.24            118            235 235 
 SML  HZ EP       2352 33.06                             117   -0.65 8  244 335 
 SML  HN ES   1   2353  2.54                             117    0.31 6  244 335 
 SML  HZ I        2353  9.66        37.1 0.22            118            244 335 
 CHI  HZ EP       2352 35.01                             117    0.24 8  249 195 
 CHI  HE ES   1   2353  3.42                             117   -0.70 6  249 195 
 CHI  HZ I        2353 11.04         8.7 0.28            117            249 195 
 ROSC BZ EP   1   2352 35.33                             116    0.12 6  253 211 
 ROSC BN ES   4   2353  7.63                             116    2.72 0  253 211 
 ROSC BZ I        2353 12.16        22.8 0.60            116            253 211 
 HEL  HZ EP   4   2352 38.64                             114    1.28 0  273 256 
 HEL  HE ES   1   2353  8.88                             114    0.16 6  273 256 
 HEL  HZ I        2353 15.42        15.2 0.46            115            273 256 
 PTGC HZ EP   4   2352 39.71                             111   -1.18 0  308 159 
 PTGC HN ES   4   2353 13.05                             111   -1.96 0  308 159 
 PTGC HZ I        2353 17.59        10.7 0.24            112            308 159 
 CBOC HZ EP   4   2352 45.19                             110    1.11 0  334 252 
 CBOC HN ES   1   2353 20.64                             110   -0.04 5  334 252 
 CBOC HZ I        2353 23.69         6.4 0.20            110            334 252 
 DBB  SZ EP       2352 45.10                             109    0.46 7  340 274 
 DBB  SZ ES   4   2353 20.48                             109   -1.21 0  340 274 
 TOL  SZ EP   4   2352 46.77                             109    1.37 0  344 225 
 TOL  SN ES       2353 23.31                             109    0.28 7  344 225 
 TOL  SZ I        2353 32.91        25.2 0.58            109            344 225 
 MON  HZ EP   4   2352 44.27                             108   -1.88 0  354 308 
 MON  HE ES   4   2353 22.93                             108   -1.45 0  354 308 
 MON  HZ I        2353 23.59         9.0 0.18            109            354 308 
 ANIL HN ES   4   2353 27.83                             108    2.03 0  358 225 
 ANIL HZ I        2353 37.52         3.2 0.38            108            358 225 
 ORTC HZ EP       2352 51.52                             106    0.46 6  396 216 
 ORTC HE ES       2353 33.97                             106    0.85 6  396 216 
 ORTC HZ I        2353 39.92         7.1 0.51            106            396 216 
 PAL  HZ EP   1   2352 52.38                             106    0.05 4  406 239 
 PAL  HE ES   1   2353 35.76                             106    0.39 4  406 239 
 PAL  HZ I        2353 39.66         5.6 0.28            106            406 239 
 SJC  HZ EP   4   2352 50.69                             105   -2.01 0  410 327 
 SJC  HN ES   4   2353 32.89                             105   -3.14 0  410 327 
 SJC  HZ I        2353 36.55         5.6 0.68            106            410 327 
                                                                                
