 2014  129 2246 58.1 L   6.451 -74.018 28.6  RSN 11 0.5 2.5LRSN                1
 GAP= 63        1.07       2.9     2.8  5.6 -0.2103E+01 -0.9579E+01  0.4726E+01E
 Epicentro: CIMITARRA - SANTANDER                                              3
 ACTION:UPD 14-03-13 09:59 OP:ep   STATUS:               ID:20140129224658 L   I
 OLDACT:UP  14-01-29 22:27 OP:cam  STATUS:               ID:20140129224001d    3
 OLDACT:UP  14-01-29 22:27 OP:cam  STATUS:               ID:20140129224001d    3
 OLDACT:DUP 14-01-29 22:16 OP:cam  STATUS:               ID:20140129224001d    3
 OLDACT:UP  14-01-29 22:15 OP:cam  STATUS:               ID:20140129224000     3
 OLDACT:UP  14-01-29 22:14 OP:cam  STATUS:               ID:20140129224000     3
 OLDACT:UP  14-01-29 22:13 OP:cam  STATUS:               ID:20140129224000     3
 OLDACT:REG 14-01-29 21:50 OP:cam  STATUS:               ID:20140129224000     3
 2014-01-29-2240-00M.COL___288                                                 6
 STAT SP IPHASW D HRMM SECON CODA AMPLIT PERI AZIMU VELO AIN AR TRES W  DIS CAZ7
 PTB  HZ EP       2247  6.82                             115   -0.2210 49.5 281 
 PTB  HN ES       2247 14.17                             115    0.1210 49.5 281 
 BRR  HZ IP     C 2247 11.02                              61   -0.2110 80.0  25 
 BRR  HN ES       2247 21.46                              61   -0.0510 80.0  25 
 BRR  HZ I        2247 22.43       198.0 0.12             97           80.0  25 
 SPBC HZ EP       2247 12.59                              61    0.1510 88.5 184 
 SPBC HN ES       2247 23.49                              61   -0.1710 88.5 184 
 SPBC HZ I        2247 25.97        74.4 0.20             97           88.5 184 
 BAR2 SZ IP     C 2247 13.25                              61   -0.0210 93.7  80 
 BAR2 SZ ES       2247 24.51                              61   -0.6210 93.7  80 
 BAR2 SZ I        2247 24.86       256.6 0.32             96           93.7  80 
 RUS  HZ EP       2247 17.30                              61    0.3810  120 121 
 RUS  HE ES       2247 31.65                              61    0.0210  120 121 
 RUS  HZ I        2247 33.27        95.4 0.18             95            120 121 
 NOR  HZ EP   2   2247 18.93                              61    0.59 5  136 224 
 ZAR  HZ EP   4   2247 19.10                              61   -0.67 0  148 321 
 ZAR  HZ I        2247 42.92        36.4 0.30             56            148 321 
 HEL  HZ IP     D 2247 22.78                              61   -0.14 9  170 260 
 HEL  HN ES       2247 41.62                              61   -0.69 9  170 260 
 HEL  HZ I        2247 42.76        37.9 0.26             56            170 260 
 PAM  SZ EP   4   2247 25.13                              61    1.31 0  176  56 
 PAM  SE ES   2   2247 45.36                              61    1.44 4  176  56 
 PAM  SZ I        2247 46.52        46.8 0.18             56            176  56 
 GUY2CHZ EP       2247 27.98                              61    0.93 9  202 228 
 CHI  HZ EP   4   2247 29.90                              61    2.65 0  204 171 
 CBOC HZ EP   4   2247 31.74                              61    1.50 0  230 254 
 SML  HZ EP   4   2247 36.56                              60    2.81 0  260 359 
 SJC  HZ EP   1   2247 52.54                              60    1.17 4  402 342 
                                                                                
