 2011 1029 2051 29.9 L   6.823 -73.081147.3  RSN 11 0.4 2.5LRSN                1
 GAP=144        0.71       3.2     4.9  5.4 -0.3402E+01  0.1104E+02  0.2369E+01E
 Epicentro: LOS SANTOS - SANTANDER                                             3
 ACTION:UPD 12-07-13 16:06 OP:ep   STATUS:               ID:20111029205129 L   I
 2011-10-29-2049-21S.COL___157                                                 6
 STAT SP IPHASW D HRMM SECON CODA AMPLIT PERI AZIMU VELO AIN AR TRES W  DIS CAZ7
 BAR2 SZ EP       2051 49.75                             169   -0.0710 27.8 204 
 BAR2 SZ ES   1   2052  5.35                             169    0.00 7 27.8 204 
 BAR2 SZ I        2052  7.77        46.9 0.31                          27.8 204 
 PAM  SZ EP   2   2051 52.56                             153    0.64 5 71.0  36 
 PAM  SN ES   1   2052  9.34                             153    0.25 7 71.0  36 
 BRR  HZ EP       2051 51.62                             151    0.1010 76.5 294 
 BRR  HN ES   1   2052  8.92                             151    0.54 7 76.5 294 
 BRR  HZ I        2052 11.24        56.5 0.12                          76.5 294 
 RUS  HZ EP   1   2051 53.60                             144   -0.37 7  103 180 
 RUS  HN ES   1   2052 12.37                             144   -0.37 7  103 180 
 OCA  SZ EP   1   2051 58.35                             130    0.15 7  159 350 
 OCA  SZ ES   1   2052 19.67                             130   -0.59 7  159 350 
 OCA  SZ I        2052 23.77        25.6 0.21                           159 350 
 ZAR  HZ EP   2   2052  2.45                             122   -0.59 4  210 291 
 ZAR  HN ES   2   2052 28.23                             122   -0.66 4  210 291 
 ZAR  HZ I        2052 33.59        31.4 0.27                           210 291 
 NOR  SZ EP   2   2052  5.70                             118   -0.81 4  242 235 
 NOR  SN ES   2   2052 34.47                             118   -0.59 4  242 235 
 HEL  HZ EP   1   2052 11.41                             114    0.37 6  280 256 
 HEL  HZ I        2052 48.45        15.6 0.29                           280 256 
 GUY  SZ EP   1   2052 14.30                             112   -0.38 5  311 235 
 GUY  SN ES   1   2052 49.82                             112    0.23 5  311 235 
 GUY  SZ I        2052 57.71        20.7 0.37                           311 235 
 RREF HZ EP   1   2052 17.59                             111    0.67 5  329 230 
 RREF HE ES   1   2052 54.17                             111    0.58 5  329 230 
 PRA  HZ EP   1   2052 23.73                             107   -0.42 4  398 210 
 PRA  HE ES   1   2053  7.17                             107    0.70 4  398 210 
                                                                                
