 2013  429 2335 18.2 L   6.637 -73.196149.6  RSN  4 0.4 1.4LRSN                1
 GAP=211        0.90       9.5     8.3  9.5  0.2947E+02  0.1303E+02 -0.1392E+02E
 Epicentro: BARICHARA - SANTANDER                                              3
 ACTION:UPD 13-05-22 14:41 OP:EP   STATUS:               ID:20130429233518 L   I
 2013-04-29-2330-00M.COL___253                                                 6
 STAT SP IPHASW D HRMM SECON CODA AMPLIT PERI AZIMU VELO AIN AR TRES W  DIS CAZ7
 BAR2 SZ EP       2335 38.22                             178    0.1210 5.20 164 
 BAR2 SZ ES   1   2335 53.53                             178   -0.06 7 5.20 164 
 BAR2 SZ I        2335 58.37         4.0 0.38            174           5.20 164 
 BRR  HZ EP       2335 40.07                             151   -0.0610 77.2 312 
 BRR  HZ I        2335 53.04         8.5 0.60            146           77.2 312 
 BRR  HN ES   2   2335 57.31                             151    0.10 5 77.2 312 
 RUS  HZ EP   1   2335 41.99                             150    0.78 7 83.3 171 
 RUS  HN ES   1   2335 58.65                             150   -0.48 7 83.3 171 
 RUS  HZ I        2336  2.58         1.8 0.46            157           83.3 171 
 PTB  HZ EP       2335 44.27                             135   -0.54 9  140 266 
 PTB  HN ES   1   2336  6.09                             135    0.54 7  140 266 
 PTB  HZ I        2336 13.34         3.6 0.32            134            140 266 
                                                                                
