 2014  929 2232 18.1 L   6.788 -73.135149.5  RSN 19 0.4 2.3LRSN                1
 GAP= 66        0.86       2.5     2.9  4.6 -0.3832E+00  0.1903E+01  0.3057E+01E
 Epicentro: LOS SANTOS - SANTANDER                                             3
 ACTION:UPD 14-10-03 23:09 OP:nd   STATUS:               ID:20140929223218 L   I
 OLDACT:REG 14-09-30 02:45 OP:spq  STATUS:               ID:20140929222819     3
 2014-09-29-2228-19M.COL___298                                                 6
 STAT SP IPHASW D HRMM SECON CODA AMPLIT PERI AZIMU VELO AIN AR TRES W  DIS CAZ7
 BAR2 SZ IP     D 2232 38.02                             171   -0.1110 22.3 193 
 BAR2 SZ ES   1   2232 53.10                             171   -0.68 7 22.3 193 
 BAR2 SZ I        2232 54.61        31.9 0.52            168           22.3 193 
 BRR  HZ IP     C 2232 39.76                             153    0.0410 72.8 299 
 BRR  HN ES       2232 57.06                             153    0.4610 72.8 299 
 BRR  HZ I        2233  1.19        27.6 0.14            153           72.8 299 
 PAM  SZ EP       2232 40.73                             151    0.0210 77.7  38 
 PAM  SE ES       2232 57.92                             151   -0.4410 77.7  38 
 PAM  SZ I        2232 59.45        21.8 0.30            156           77.7  38 
 RUS  HZ EP       2232 41.94                             145   -0.1610 99.2 177 
 RUS  HE ES   1   2233  1.07                             145    0.23 7 99.2 177 
 RUS  HZ I        2233  2.68        11.7 0.30            144           99.2 177 
 PTB  HZ EP       2232 44.61                             133   -0.82 9  149 259 
 PTB  HE ES       2233  6.80                             133    0.04 9  149 259 
 PTB  HZ I        2233  7.97        21.4 0.16            132            149 259 
 TAM  HZ EP   1   2232 46.34                             132    0.42 7  154 105 
 TAM  HE ES   1   2233  7.95                             132    0.31 7  154 105 
 TAM  HZ I        2233  8.73        11.6 0.17            134            154 105 
 OCA  HN ES       2233  9.90                             130    0.68 9  162 353 
 OCA  HZ I        2233 13.57        24.4 0.24            133            162 353 
 SPBC HZ EP     C 2232 47.06                             130    0.22 9  163 220 
 SPBC HN ES       2233  9.53                             130    0.26 9  163 220 
 SPBC HZ I        2233 16.40        29.7 0.32            130            163 220 
 ZAR  HZ EP   1   2232 50.60                             123   -0.32 6  206 292 
 ZAR  HE ES       2233 16.30                             123   -0.25 8  206 292 
 ZAR  HZ I        2233 21.91        25.2 0.24            124            206 292 
 SML  HZ EP       2232 55.03                             118   -0.06 8  245 335 
 SML  HN ES   1   2233 23.76                             118   -0.20 6  245 335 
 SML  HZ I        2233 26.43        26.4 0.10            120            245 335 
 CHI  HZ EP       2232 56.32                             118    0.44 8  248 196 
 CHI  HN ES   1   2233 25.10                             118   -0.27 6  248 196 
 CHI  HZ I        2233 36.09         6.6 0.44            118            248 196 
 GUY2CHZ EP   1   2233  2.82                             113    0.94 5  301 235 
 GUY2CHN ES   1   2233 35.83                             113   -0.22 5  301 235 
 GUY2CHZ I        2233 44.70         9.1 0.30                           301 235 
 PTGC HZ EP   1   2233  1.17                             112   -0.75 5  307 159 
 PTGC HE ES   4   2233 34.29                             112   -1.82 0  307 159 
 PTGC HZ I        2233 39.74         9.0 0.58            113            307 159 
 RREF HZ EP   4   2233  1.09                             111   -3.29 0  322 230 
 RREF HN ES   4   2233 37.04                             111   -3.46 0  322 230 
 RREF HZ I        2233 46.26         7.8 0.32            112            322 230 
 DBB  SZ ES   4   2233 41.08                             110   -2.03 0  341 274 
 DBB  SZ I        2233 44.84        17.5 0.58            111            341 274 
 TOL  SZ EP   4   2233  7.81                             110    1.34 0  343 225 
 TOL  SN ES   4   2233 46.21                             110    1.99 0  343 225 
 MON  HN ES   4   2233 43.14                             109   -2.77 0  355 308 
 MON  HZ I        2233 45.61         3.0 0.30            110            355 308 
 ANIL HZ EP   1   2233  7.56                             109   -0.45 5  357 225 
 ANIL HE ES   4   2233 50.44                             109    3.48 0  357 225 
 PRA  HZ EP       2233 11.53                             107   -0.13 6  391 210 
 PRA  HE ES   4   2233 54.65                             107    1.19 0  391 210 
 PRA  HZ I        2234  0.72        10.8 0.32            108            391 210 
 ORTC HZ EP       2233 12.14                             107    0.06 6  395 216 
 ORTC HN ES       2233 54.69                             107    0.49 6  395 216 
 ORTC HZ I        2234  1.45         6.1 0.42            108            395 216 
                                                                                
