 2011  929 2317 41.3 L   6.774 -73.108144.0  RSN  8 0.4 2.1LRSN                1
 GAP=143        0.64       3.5     4.8  5.6 -0.1037E+01  0.2187E+01  0.7107E+01E
 Epicentro: LOS SANTOS - SANTANDER                                             3
 ACTION:UPD 12-07-13 16:00 OP:ep   STATUS:               ID:20110929231741 L   I
 2011-09-29-2316-18S.COL___168                                                 6
 STAT SP IPHASW D HRMM SECON CODA AMPLIT PERI AZIMU VELO AIN AR TRES W  DIS CAZ7
 BAR2 SZ EP       2318  0.51                             171   -0.1410 21.7 202 
 BAR2 SZ ES   1   2318 15.38                             171   -0.39 7 21.7 202 
 BAR2 SZ I        2318 17.06        32.2 0.20                          21.7 202 
 BRR  HZ EP       2318  2.39                             151   -0.1310 76.3 299 
 BRR  HN ES   1   2318 19.61                             151    0.51 7 76.3 299 
 BRR  HZ I        2318 21.28        24.7 0.14                          76.3 299 
 PAM  SZ IP       2318  3.48                             151    0.2010 77.1  36 
 PAM  SN ES   1   2318 20.64                             151    0.19 7 77.1  36 
 RUS  HZ EP       2318  4.36                             144   -0.2610 97.5 178 
 RUS  HN ES   2   2318 22.96                             144    0.12 5 97.5 178 
 ZAR  HZ EP   3   2318 14.50                             121    0.38 2  209 292 
 ZAR  HE ES   2   2318 38.89                             121   -0.85 4  209 292 
 ZAR  HZ I        2318 48.93         9.5 0.24                           209 292 
 CTAB SZ EP   3   2318 17.79                             119    0.91 2  230 212 
 CHI  HZ EP       2318 18.61                             117   -0.08 8  247 196 
 CHI  HN ES   1   2318 48.54                             117    0.67 6  247 196 
 HEL  HZ EP   3   2318 22.22                             114    0.45 2  275 257 
 HEL  HE ES   3   2318 54.36                             114    1.00 2  275 257 
 HEL  HZ I        2319  0.74         8.7 0.36                           275 257 
                                                                                
