 2015  929 2314 57.4 L   6.815 -73.101149.5  RSN  8 0.4 2.0LRSN                1
 GAP=205        1.03       4.4     6.0  6.4  0.1030E+01  0.6883E+01 -0.5200E+00E
 Epicentro: LOS SANTOS - SANTANDER                                             3
 ACTION:UPD 15-10-28 16:29 OP:cam  STATUS:               ID:20150929231457 L   I
 OLDACT:UP  15-09-30 09:26 OP:mh   STATUS:               ID:20150929230749     3
 OLDACT:REG 15-09-30 04:11 OP:mh   STATUS:               ID:20150929230749     3
 2015-09-29-2307-49M.COL___352                                                 6
 STAT SP IPHASW D HRMM SECON CODA AMPLIT PERI AZIMU VELO AIN AR TRES W  DIS CAZ7
 BAR2 EZ EP       2315 17.92                             170    0.3810 26.2 200 
 BAR2 EZ ES       2315 32.74                             170   -0.5010 26.2 200 
 BAR2 EZ I        2315 34.76        12.8 0.32            169           26.2 200 
 BRR  HZ EP       2315 19.45                             152    0.2910 74.8 296 
 BRR  HN ES       2315 36.80                             152    0.6810 74.8 296 
 BRR  HZ I        2315 44.00        15.1 0.30            148           74.8 296 
 RUS  HZ EP       2315 21.07                             144   -0.5510  102 179 
 RUS  HN ES       2315 40.73                             144    0.2210  102 179 
 RUS  HZ I        2315 41.38         8.1 0.28            149            102 179 
 PTB  HZ EP   1   2315 24.50                             132   -0.64 7  153 259 
 PTB  HN ES       2315 46.15                             132   -0.62 9  153 259 
 PTB  HZ I        2315 51.70        14.8 0.40            132            153 259 
 SPBC HZ EP       2315 26.90                             129    0.30 9  168 220 
 SPBC HN ES       2315 49.44                             129    0.06 9  168 220 
 SPBC HZ I        2315 54.19        25.8 0.05            131            168 220 
 NOR  HZ EP       2315 33.70                             119   -0.18 8  240 235 
 NOR  HN ES       2316  2.42                             119    0.09 8  240 235 
 NOR  HZ I        2316  5.35         5.5 0.16            121            240 235 
 SML  HZ EP   1   2315 34.15                             118   -0.15 6  244 334 
 SML  HN ES   1   2316  2.67                             118   -0.41 6  244 334 
 SML  HZ I        2316  9.84        14.7 0.24            119            244 334 
 GUY2CHZ EP       2315 42.32                             113    0.57 7  306 235 
 GUY2CHN ES   4   2316 18.07                             113    1.74 0  306 235 
 GUY2CHZ I        2316 23.21         4.3 0.50                           306 235 
                                                                                
