 2015  429 2107  1.9 L   6.797 -73.129146.0  RSN  8 0.3 1.6LRSN                1
 GAP=139        0.79       3.7     3.5  5.6 -0.1863E+01  0.4319E+01  0.5535E+01E
 Epicentro: LOS SANTOS - SANTANDER                                             3
 ACTION:UPD 15-06-03 16:58 OP:cam  STATUS:               ID:20150429210701 L   I
 OLDACT:DUP 15-04-30 04:02 OP:spq  STATUS:               ID:20150429205750d    3
 OLDACT:REG 15-04-30 02:44 OP:spq  STATUS:               ID:20150429205749     3
 2015-04-29-2057-49M.COL___271                                                 6
 STAT SP IPHASW D HRMM SECON CODA AMPLIT PERI AZIMU VELO AIN AR TRES W  DIS CAZ7
 BAR2 EZ EP       21 7 21.51                             170   -0.0310 23.4 195 
 BAR2 EZ ES   1   21 7 36.81                             170   -0.07 7 23.4 195 
 BAR2 EZ I        21 7 40.16         6.4 0.24            167           23.4 195 
 BRR  HZ EP       21 7 23.26                             152    0.1010 73.0 298 
 BRR  HN ES       21 7 40.23                             152    0.4710 73.0 298 
 BRR  HZ I        21 7 43.88         9.8 0.36            153           73.0 298 
 PAM  SZ EP       21 7 24.32                             151    0.2510 76.4  38 
 PAM  SN ES       21 7 41.25                             151   -0.1210 76.4  38 
 PAM  SZ I        21 7 41.87         7.7 0.18            159           76.4  38 
 RUS  HZ EP       21 7 25.62                             144   -0.0110  100 177 
 RUS  HE ES   1   21 7 43.76                             144   -0.39 7  100 177 
 RUS  HZ I        21 7 48.05         2.2 0.66            145            100 177 
 PTB  HZ EP       21 7 28.37                             132   -0.66 9  150 259 
 PTB  HE ES   1   21 7 49.74                             132   -0.47 7  150 259 
 PTB  HZ I        21 7 52.27         6.7 0.17            133            150 259 
 SPBC HZ EP       21 7 30.59                             129    0.10 9  164 220 
 SPBC HE ES   1   21 7 52.80                             129   -0.00 7  164 220 
 SPBC HZ I        21 7 59.95         6.9 0.17            131            164 220 
 ZAR  HN ES       21 7 59.69                             122   -0.32 8  206 292 
 ZAR  HZ I        21 8  4.96         5.7 0.24            125            206 292 
 NOR  HZ EP       21 7 38.01                             118    0.24 8  236 235 
 NOR  HN ES       21 8  6.36                             118    0.60 8  236 235 
 NOR  HZ I        21 8  9.41         4.5 0.22            121            236 235 
                                                                                
