 2014 1029 2337  8.8 L   6.776 -73.158148.9  RSN  6 0.3 1.6LRSN                1
 GAP= 98        0.70       3.8     3.3  4.7 -0.7770E+00 -0.1223E+01  0.1436E+01E
 Epicentro: LOS SANTOS - SANTANDER                                             3
 ACTION:UPD 14-11-29 23:58 OP:nd   STATUS:               ID:20141029233708 L   I
 OLDACT:ARG 14-10-31 14:10 OP:stll STATUS:               ID:20141029232745     3
 2014-10-29-2327-45M.COL___274                                                 6
 STAT SP IPHASW D HRMM SECON CODA AMPLIT PERI AZIMU VELO AIN AR TRES W  DIS CAZ7
 BAR2 SZ EP       2337 28.73                             172   -0.0110 20.5 188 
 BAR2 SZ ES       2337 44.77                             172    0.4610 20.5 188 
 BAR2 SZ I        2337 44.84        14.3 0.10            171           20.5 188 
 BRR  HZ EP       2337 30.56                             153    0.2810 71.3 301 
 BRR  HN ES       2337 47.24                             153    0.1910 71.3 301 
 PAM  SZ EP       2337 31.48                             150   -0.0310 80.2  39 
 PAM  SZ I        2337 31.76        17.9 0.22            151           80.2  39 
 PAM  SN ES       2337 48.80                             150   -0.4210 80.2  39 
 RUS  HZ EP       2337 32.71                             145    0.0410 98.1 175 
 RUS  HZ I        2337 33.49         2.0 0.10            145           98.1 175 
 RUS  HN ES       2337 51.08                             145   -0.2210 98.1 175 
 PTB  HZ EP       2337 35.84                             133   -0.01 9  146 260 
 PTB  HN ES       2337 56.56                             133   -0.40 9  146 260 
 TAM  HZ EP       2337 36.86                             131    0.09 9  156 104 
                                                                                
