 2011  629 2359  4.1 L   6.838 -73.136142.0  RSN 19 0.3 2.6LRSN                1
 GAP=113        0.81       2.9     4.9  6.0 -0.3463E+01  0.8509E+01  0.6214E+01E
 Epicentro: LOS SANTOS - SANTANDER                                             3
 ACTION:UP  11-07-14 19:09 OP:ep   STATUS:               ID:20110629235904 L   I
 2011-06-29-2358-24S.COL___140                                                 6
 STAT SP IPHASW D HRMM SECON CODA AMPLIT PERI AZIMU VELO SNR AR TRES W  DIS CAZ7
 BTL  SZ IP       2359 23.80                             173     0.610   17 302 
 GIR2 SZ EP       2359 22.96                             169    -0.310   27 347 
 BAR2 SZ IP       2359 23.22                             168    -0.110   28 191 
 BAR2 SZ ES   2   2359 38.16                             168    -0.2 5   28 191 
 BAR2 SZ I        2359 39.87        49.6 0.16                            28 191 
 BRR  HZ IP       2359 24.79                             152     0.010   70 295 
 BRR  HN ES   1   2359 40.89                             152     0.0 7   70 295 
 BRR  HZ I        2359 45.09        74.5 0.11                            70 295 
 PAM  SZ EP       2359 25.89                             151     0.210   74  41 
 BRI  SZ EP       2359 27.37                             142     0.110  104  21 
 BRI  SZ ES   1   2359 45.47                             142     0.1 7  104  21 
 RUS  HZ EP       2359 27.42                             142    -0.410  105 177 
 RUS  HZ I        2359 47.85        22.7 0.33                           105 177 
 GRA  SZ IP       2359 28.62                             137     0.010  121  18 
 GRA  SZ ES   2   2359 48.04                             137     0.3 5  121  18 
 GRA  SZ I        2359 49.18        40.3 0.35                           121  18 
 OCA  SZ EP       2359 31.58                             130    -0.2 9  156 353 
 OCA  SZ ES   1   2359 52.91                             130    -0.4 7  156 353 
 OCA  SZ I        2359 57.28        50.3 0.23                           156 353 
 YOP  SZ EP   2   2359 34.35                             125     0.2 4  182 154 
 YOP  SN ES   2   2359 57.66                             125     0.0 4  182 154 
 NOR  SZ EP       2359 39.40                             117    -0.6 8  238 234 
 CHI  HZ EP       2359 41.65                             116    -0.4 8  253 195 
 CHI  HZ I        2359 44.32        14.7 0.18                           253 195 
 CHI  HN ES   1   24 0 12.23                             116     0.6 6  253 195 
 ROSC BZ EP   2   2359 43.23                             115     0.8 4  257 211 
 ROSC BZ I        24 0 20.93        33.5 0.64                           257 211 
 HEL  HZ EP       2359 44.73                             114     0.4 8  274 255 
 HEL  HZ I        24 0 21.97        58.8 0.35                           274 255 
 GUY  SZ EP       2359 48.73                             111     0.6 7  307 235 
 GUY  SZ I        24 0 32.77        31.9 0.46                           307 235 
 DBB  SZ EP       2359 51.20                             109    -0.3 7  340 274 
 TOL  SZ EP   1   2359 53.06                             108     0.4 5  347 224 
 PRA  HZ EP       2359 57.97                             106     0.0 6  396 209 
 PRA  HN ES   1   24 0 39.80                             106    -0.2 4  396 209 
 PRA  HZ I        24 0 42.84        52.9 0.19                           396 209 
 SJA  SZ ES   2   24 0 41.09                             105    -0.8 3  404 193 
                                                                                
