 2015  730 0334  0.5 L   6.791 -73.155138.0  RSN 11 0.6 1.8LRSN                1
 GAP=136        1.34       4.3     5.8  7.5 -0.5739E+01  0.1832E+02  0.3487E+01E
 Epicentro: LOS SANTOS - SANTANDER                                             3
 ACTION:UPD 15-09-08 21:51 OP:cam  STATUS:               ID:20150730033400 L   I
 OLDACT:REG 15-07-30 12:04 OP:stll STATUS:               ID:20150730032750     3
 2015-07-30-0327-50M.COL___316                                                 6
 STAT SP IPHASW D HRMM SECON CODA AMPLIT PERI AZIMU VELO AIN AR TRES W  DIS CAZ7
 BAR2 EZ IP     D  334 19.23                             170    0.0910 22.2 188 
 BAR2 EZ ES        334 34.02                             170    0.3210 22.2 188 
 BAR2 EZ I         334 36.86        13.5 0.26            167           22.2 188 
 BRR  HZ EP        334 21.15                             151    0.3910 70.8 300 
 BRR  HN ES        334 37.09                             151    0.5110 70.8 300 
 BRR  HZ I         334 41.18         6.9 0.30            141           70.8 300 
 PAM  EZ EP        334 22.18                             149    0.2310 78.8  40 
 PAM  EN ES        334 38.89                             149    0.1810 78.8  40 
 PAM  EZ I         334 41.09        17.2 0.20            148           78.8  40 
 RUS  HZ EP        334 23.12                             142   -0.2710 99.7 175 
 RUS  HZ I         334 23.95         5.8 0.42            143           99.7 175 
 RUS  HE ES        334 40.98                             142   -0.3010 99.7 175 
 OCA  HZ EP        334 27.50                             128   -0.77 9  161 354 
 OCA  HN ES        334 49.33                             128   -0.63 9  161 354 
 OCA  HZ I         334 57.60        14.4 0.32            123            161 354 
 ZAR  HN ES        334 57.26                             121    0.03 9  203 293 
 ZAR  HZ I         335  8.12         7.3 0.30            116            203 293 
 NOR  HZ EP        334 34.51                             117   -1.09 8  233 235 
 NOR  HN ES        335  1.91                             117   -1.10 8  233 235 
 NOR  HZ I         335 10.18         5.5 0.20            113            233 235 
 HEL  HZ EP        334 41.22                             113    1.06 8  271 256 
 HEL  HZ I         335 17.80         3.8 0.38            110            271 256 
 GUY2CHZ EP        334 44.04                             111    0.47 7  300 235 
 GUY2CHN ES        335 16.89                             111   -0.29 7  300 235 
 GUY2CHZ I         335 25.73         4.8 0.40                           300 235 
 CBOC HZ EP        334 47.06                             108    0.14 7  332 252 
 CBOC HZ I         334 48.12         1.6 0.40            106            332 252 
 CBOC HE ES   4    335 20.48                             108   -2.68 0  332 252 
 TOL  SZ EP        334 49.32                             108    1.07 7  342 225 
 TOL  SN ES        335 26.04                             108    0.51 7  342 225 
 TOL  SZ I         335 33.09         3.8 0.40            106            342 225 
                                                                                
