 2017  430 0825 13.8 L   6.772 -73.175149.4  RSN  7 0.4 1.7LRSN                1
 GAP=110        0.97       4.6     4.5  8.0  0.1019E+02 -0.8669E+01 -0.9023E+01E
 Epicentro: LOS SANTOS - SANTANDER                                             3
 ACTION:UPD 17-05-30 21:17 OP:jn   STATUS:               ID:20170430082513 L   I
 OLDACT:REG 17-04-30 12:43 OP:dnl  STATUS:               ID:20170430081745     3
 2017-04-30-0818-00M.COL___368                                                 6
 STAT SP IPHASW D HRMM SECON CODA AMPLIT PERI AZIMU VELO AIN AR TRES W  DIS CAZ7
 BRR  HZ EP        825 35.05                             154   -0.2110 70.0 302 
 BRR  HE ES        825 52.40                             154    0.3810 70.0 302 
 BRR  HZ I         825 53.30        13.3 0.20            152           70.0 302 
 PAM  EZ EP        825 36.35                             150   -0.3110 81.9  40 
 RUS  HZ EP        825 37.60                             145   -0.1010 97.7 174 
 RUS  HN ES        825 56.03                             145   -0.3210 97.7 174 
 RUS  HZ I         825 57.06         4.4 0.26            145           97.7 174 
 PTB  HZ EP        825 40.32                             134   -0.40 9  144 260 
 PTB  HN ES        826  1.24                             134   -0.49 9  144 260 
 PTB  HZ I         826  7.32         6.4 0.34            132            144 260 
 SPBC HN ES        826  4.53                             131    0.26 9  159 219 
 YPLC HZ EP        825 43.69                             128   -0.04 9  176 150 
 YPLC HN ES        826  7.67                             128    0.58 9  176 150 
 YPLC HZ I         826 11.37         3.0 0.39            128            176 150 
 ZAR  HZ EP        825 47.06                             123    0.77 9  202 293 
 ZAR  HE ES        826 11.82                             123    0.17 9  202 293 
 ZAR  HZ I         826 18.41         5.6 0.32            123            202 293 
                                                                                
