 2013  630 0534 29.3 L   6.781 -73.184146.1  RSN  5 0.4 1.2LRSN                1
 GAP=232        0.84       7.6     7.7  8.0  0.4037E+02  0.4901E+01  0.3190E+01E
 Epicentro: LOS SANTOS - SANTANDER                                             3
 ACTION:UPD 14-01-08 09:58 OP:ep   STATUS:               ID:20130630053429 L   I
 OLDACT:REG 13-06-30 07:41 OP:jn   STATUS:               ID:20130630052960d    3
 2013-06-30-0529-59M.COL___266                                                 6
 STAT SP IPHASW D HRMM SECON CODA AMPLIT PERI AZIMU VELO AIN AR TRES W  DIS CAZ7
 BAR2 SZ EP   1    534 48.40                             171   -0.48 7 20.9 180 
 BAR2 SZ ES        535  3.69                             171   -0.4910 20.9 180 
 BAR2 SZ I         535  5.04         5.2 0.26            162           20.9 180 
 BRR  HZ EP   1    534 50.47                             153    0.18 7 68.6 302 
 BRR  HN ES        535  7.19                             153    0.4910 68.6 302 
 BRR  HZ I         535  9.10         2.2 0.18            147           68.6 302 
 RUS  HZ EP        534 53.05                             144    0.1410 98.9 174 
 RUS  HE ES        535 11.63                             144    0.2610 98.9 174 
 RUS  HZ I         535 12.59         2.9 0.28            140           98.9 174 
 PTB  HN ES   1    535 16.37                             133   -0.20 7  143 259 
 PTB  HZ I         535 24.03         2.1 0.14            128            143 259 
 ZAR  HE ES   1    535 26.15                             123   -0.33 6  201 293 
                                                                                
