 2012  930 0523 34.4 L   6.773 -73.142142.9  RSN  7 0.4 1.9LRSN                1
 GAP=236        0.70       4.2     5.6  6.1  0.1145E+02  0.9046E+01  0.7278E+01E
 Epicentro: LOS SANTOS - SANTANDER                                             3
 ACTION:UPD 12-10-22 14:21 OP:ep   STATUS:               ID:20120930052334 L   I
 2012-09-30-0520-00M.COL___211                                                 6
 STAT SP IPHASW D HRMM SECON CODA AMPLIT PERI AZIMU VELO AIN AR TRES W  DIS CAZ7
 BAR2 SZ EP   1    523 53.48                             172   -0.13 7 20.5 193 
 BAR2 SZ ES   1    524  8.39                             172   -0.22 7 20.5 193 
 BAR2 SZ I         524 11.05        43.8 0.26                          20.5 193 
 BRR  HZ EP        523 55.31                             151   -0.0110 73.0 300 
 BRR  HN ES   1    524 12.38                             151    0.72 7 73.0 300 
 BRR  HZ I         524 14.72        12.3 0.28                          73.0 300 
 RUS  HZ EP   1    523 57.68                             144    0.05 7 97.6 176 
 RUS  HN ES        524 15.74                             144   -0.0310 97.6 176 
 RUS  HZ I         524 17.14         9.5 0.24                          97.6 176 
 PTB  HN ES   1    524 21.22                             131   -0.73 7  148 260 
 PTB  HN I         524 26.63        12.1 0.34                           148 260 
 ZAR  HE ES   1    524 32.10                             121    0.02 6  206 293 
 CHI  HZ EP   1    524 11.70                             117    0.08 6  246 195 
 CHI  HN ES   1    524 40.71                             117    0.04 6  246 195 
 CHI  HZ I         524 44.71         2.4 0.70                           246 195 
 CHI  HN I         524 45.29         5.9 0.54                           246 195 
 PRA  HZ EP   1    524 27.20                             106   -0.32 4  390 210 
 PRA  HN ES   1    525  9.84                             106    0.86 4  390 210 
 PRA  HN I         525 13.67         2.9 0.50                           390 210 
                                                                                
