 2014 1130 0702 41.0 L   6.797 -73.097152.9  RSN  9 0.5 1.8LRSN                1
 GAP=188        1.14       3.9     5.7  6.9 -0.1155E+00  0.2167E+01  0.3173E+01E
 Epicentro: LOS SANTOS - SANTANDER                                             3
 ACTION:UPD 14-12-19 15:49 OP:nd   STATUS:               ID:20141130070241 L   I
 OLDACT:REG 14-11-30 13:32 OP:mh   STATUS:               ID:20141130065746     3
 2014-11-30-0657-46M.COL___300                                                 6
 STAT SP IPHASW D HRMM SECON CODA AMPLIT PERI AZIMU VELO AIN AR TRES W  DIS CAZ7
 BAR2 SZ EP        7 3  1.73                             170    0.2310 24.5 203 
 BAR2 SZ ES        7 3 17.31                             170   -0.1910 24.5 203 
 BAR2 SZ I         7 3 20.20        14.6 0.70            168           24.5 203 
 BRR  HZ EP        7 3  3.62                             152    0.4310 76.2 297 
 BRR  HN ES        7 3 20.95                             152    0.4510 76.2 297 
 BRR  HZ I         7 3 25.34        10.5 0.16            151           76.2 297 
 RUS  HZ EP        7 3  5.81                             145    0.4010100.0 179 
 RUS  HN ES   1    7 3 23.57                             145   -0.88 7100.0 179 
 RUS  HZ I         7 3 25.78         6.2 0.42            148          100.0 179 
 PTB  HZ EP        7 3  8.11                             133   -0.91 9  153 259 
 PTB  HN ES        7 3 30.78                             133   -0.10 9  153 259 
 PTB  HZ I         7 3 37.56         9.0 0.54            133            153 259 
 OCA  HZ EP        7 3  9.19                             131   -0.78 9  161 351 
 OCA  HN ES        7 3 32.72                             131    0.16 9  161 351 
 OCA  HZ I         7 3 36.34        10.2 0.18            134            161 351 
 SPBC HZ EP        7 3 10.98                             130    0.64 9  166 221 
 SPBC HN ES   1    7 3 33.16                             130   -0.07 7  166 221 
 SPBC HZ I         7 3 38.92        11.8 0.54            131            166 221 
 ZAR  HZ EP   1    7 3 14.88                             123    0.44 6  209 292 
 ZAR  HN ES        7 3 40.41                             123   -0.11 8  209 292 
 ZAR  HZ I         7 3 46.25         7.9 0.30            124            209 292 
 NOR  HZ EP        7 3 16.93                             119   -0.66 8  239 235 
 NOR  HN ES     C  7 3 46.21                             119    0.07 8  239 235 
 NOR  HZ I         7 3 48.30         5.5 0.26            121            239 235 
 CHI  HZ EP        7 3 19.67                             118    0.46 8  250 196 
 CHI  HN ES   1    7 3 49.20                             118    0.17 6  250 196 
 CHI  HZ I         7 3 53.67         1.6 0.26            121            250 196 
                                                                                
