 2017 1030 0331 44.5 L   6.793 -73.179147.4  RSN  4 0.3 1.1LRSN                1
 GAP=233        0.80       6.4     6.0  6.4  0.1901E+02  0.3019E+01  0.6749E+00E
 Epicentro: LOS SANTOS - SANTANDER                                             3
 ACTION:UPD 17-11-07 19:39 OP:rebc STATUS:               ID:20171030033144 L   I
 OLDACT:REG 17-10-30 12:29 OP:dhb  STATUS:               ID:20171030032738     3
 2017-10-30-0328-00M.COL___423                                                 6
 STAT SP IPHASW D HRMM SECON CODA AMPLIT PERI AZIMU VELO AIN AR TRES W  DIS CAZ7
 BAR2 EZ EP        332  3.82                             171   -0.4910 22.2 181 
 BAR2 EZ ES        332 19.51                             171   -0.2510 22.2 181 
 BAR2 EZ I         332 21.99         4.2 0.24            177           22.2 181 
 BRR  HZ EP        332  5.74                             154    0.0710 68.4 301 
 BRR  HN ES        332 22.56                             154    0.3710 68.4 301 
 BRR  HZ I         332 32.20         3.8 0.58            153           68.4 301 
 RUS  HZ EP        332  8.50                             144    0.1210  100 174 
 RUS  HN ES        332 27.29                             144    0.2810  100 174 
 RUS  HZ I         332 28.28         2.2 0.34            153            100 174 
 PTB  HZ EP        332 11.51                             133    0.24 9  144 259 
 PTB  HN ES        332 31.80                             133   -0.35 9  144 259 
 PTB  HZ I         332 35.17         0.9 0.30            137            144 259 
                                                                                
