 2017  530 0654 33.4 L   6.739 -73.191146.8  RSN  5 0.2 1.4LRSN                1
 GAP=227        0.62       3.7     4.5  5.6  0.5732E+01 -0.7394E+00 -0.4066E+01E
 Epicentro: VILLANUEVA - SANTANDER                                             3
 ACTION:UPD 17-06-16 13:40 OP:jn   STATUS:               ID:20170530065433 L   I
 OLDACT:UP  17-05-30 14:45 OP:osc  STATUS:               ID:20170530064740     3
 OLDACT:REG 17-05-30 12:29 OP:osc  STATUS:               ID:20170530064740     3
 2017-05-30-0648-00M.COL___341                                                 6
 STAT SP IPHASW D HRMM SECON CODA AMPLIT PERI AZIMU VELO AIN AR TRES W  DIS CAZ7
 BRR  HZ EP        654 54.37                             153   -0.2610 70.5 305 
 BRR  HE ES        655 11.43                             153    0.2510 70.5 305 
 BRR  HZ I         655 13.83         6.4 0.16            152           70.5 305 
 RUS  HZ EP        654 57.08                             146    0.2610 94.3 173 
 RUS  HN ES        655 14.85                             146   -0.2410 94.3 173 
 RUS  HZ I         655 17.13         3.1 0.30            150           94.3 173 
 PTB  HZ EP        654 59.75                             134   -0.16 9  142 261 
 PTB  HN ES        655 20.36                             134   -0.22 9  142 261 
 PTB  HZ I         655 21.73         2.8 0.26            135            142 261 
 SPBC HN ES        655 23.13                             131    0.26 9  155 219 
 ZAR  HZ EP        655  5.87                             123    0.15 9  202 294 
 ZAR  HN ES   4    655 30.54                             123   -0.38 0  202 294 
 ZAR  HZ I         655 37.92         3.7 0.22            124            202 294 
                                                                                
