 2013 1230 0253 25.4 L   6.753 -73.136145.7  RSN  9 0.4 1.7LRSN                1
 GAP=140        0.91       6.6     4.3  9.2 -0.2284E+01  0.2838E+01  0.3656E+02E
 Epicentro: LOS SANTOS - SANTANDER                                             3
 ACTION:UP  14-01-13 10:22 OP:ep   STATUS:               ID:20131230025325 L   I
 OLDACT:UP  14-01-09 14:12 OP:ep   STATUS:               ID:20131230025325 L   3
 OLDACT:UPD 14-01-09 13:45 OP:ep   STATUS:               ID:20131230025325 L   3
 OLDACT:UP  13-12-30 11:09 OP:mh   STATUS:               ID:20131230025000     3
 OLDACT:UP  13-12-30 11:08 OP:mh   STATUS:               ID:20131230025000     3
 OLDACT:REG 13-12-30 08:02 OP:mh   STATUS:               ID:20131230025000     3
 2013-12-30-0250-00M.COL___285                                                 6
 STAT SP IPHASW D HRMM SECON CODA AMPLIT PERI AZIMU VELO AIN AR TRES W  DIS CAZ7
 BAR2 SZ EP        253 44.96                             172    0.0310 18.4 196 
 BRR  HZ IP     C  253 46.86                             151    0.1110 74.7 302 
 BRR  HN ES        254  3.99                             151    0.6010 74.7 302 
 BRR  HZ I         254  4.74         8.0 0.27                          74.7 302 
 PAM  SZ EP   1    253 47.74                             150   -0.08 7 80.9  37 
 PAM  SE ES        254  5.03                             150   -0.2710 80.9  37 
 PAM  SZ I         254  7.70         5.9 0.68            154           80.9  37 
 RUS  HZ EP        253 48.86                             145    0.0910 95.3 176 
 RUS  HZ I         254  8.56         4.6 0.23            136           95.3 176 
 PTB  HZ EP        253 51.87                             132   -0.50 9  148 261 
 PTB  HN ES        254 12.70                             132   -0.71 9  148 261 
 PTB  HZ I         254 18.75         8.4 0.12            133            148 261 
 SPBC HZ EP   1    253 53.66                             130    0.08 7  160 220 
 SPBC HN ES   2    254 15.92                             130    0.37 5  160 220 
 SPBC HZ I         254 18.76         8.0 0.10            126            160 220 
 ZAR  HN ES        254 23.90                             122    0.20 8  207 293 
 GUY2CHZ EP   4    254 11.48                             112    2.71 0  299 236 
 GUY2CHN ES   4    254 46.34                             112    3.75 0  299 236 
 GUY2CHZ I         254 51.45         4.1 0.34                           299 236 
 RREF HZ EP        254 11.84                             111    0.59 7  319 230 
 RREF HN ES   4    254 49.40                             111    2.40 0  319 230 
 RREF HZ I         254 53.90         2.7 0.22            110            319 230 
                                                                                
