 2012  630 0805 34.6 L   6.791 -73.135149.4  RSN  7 0.4 1.4LRSN                1
 GAP=138        0.85       4.6     5.1  7.7  0.1029E+01  0.9755E+01 -0.1350E+01E
 Epicentro: LOS SANTOS - SANTANDER                                             3
 ACTION:UPD 12-08-06 17:53 OP:ep   STATUS:               ID:20120630080534 L   I
 2012-06-30-0800-00M.COL___201                                                 6
 STAT SP IPHASW D HRMM SECON CODA AMPLIT PERI AZIMU VELO AIN AR TRES W  DIS CAZ7
 BAR2 SZ EP   1    8 5 54.74                             171    0.11 7 22.6 193 
 BAR2 SZ ES   1    8 6 10.22                             171   -0.05 7 22.6 193 
 BAR2 SZ I         8 6 10.87         6.0 0.34                          22.6 193 
 BRR  HZ EP   1    8 5 56.61                             153    0.41 7 72.7 299 
 BRR  HN ES   1    8 6 13.89                             153    0.82 7 72.7 299 
 BRR  HZ I         8 6 15.85         6.9 0.19                          72.7 299 
 PAM  SZ EP   1    8 5 57.52                             151    0.34 7 77.4  38 
 PAM  SZ I         8 5 57.70         3.8 0.22                          77.4  38 
 PAM  SN ES   1    8 6 14.76                             151   -0.05 7 77.4  38 
 RUS  HZ EP   1    8 5 58.88                             145    0.27 7 99.5 177 
 RUS  HN ES   1    8 6 16.88                             145   -0.48 7 99.5 177 
 RUS  HZ I         8 6 18.86         2.0 0.22                          99.5 177 
 PTB  HZ EP   1    8 6  1.57                             133   -0.36 7  149 259 
 PTB  HN ES   1    8 6 22.83                             133   -0.43 7  149 259 
 PTB  HZ I         8 6 28.58         3.2 0.18                           149 259 
 OCA  HN ES   1    8 6 24.77                             130   -0.89 7  161 353 
 ZAR  HZ EP   1    8 6  7.33                             123   -0.08 6  206 292 
 ZAR  HN ES   1    8 6 33.20                             123    0.18 6  206 292 
                                                                                
