 2016 1130 0336 34.6 L   6.750 -73.163145.1  RSN  5 0.4 1.4LRSN                1
 GAP=149        0.92       9.3     5.6  7.4 -0.2609E+02  0.3604E+01  0.6123E+01E
 Epicentro: LOS SANTOS - SANTANDER                                             3
 ACTION:UPD 17-10-26 21:13 OP:lp   STATUS:               ID:20161130033634 L   I
 OLDACT:UP  16-11-30 17:13 OP:dani STATUS:               ID:20161130032740     3
 OLDACT:UP  16-11-30 17:12 OP:dani STATUS:               ID:20161130032740     3
 OLDACT:UP  16-11-30 17:12 OP:dani STATUS:               ID:20161130032740     3
 OLDACT:REG 16-11-30 12:45 OP:dani STATUS:               ID:20161130032740     3
 2016-11-30-0328-00M.COL___342                                                 6
 STAT SP IPHASW D HRMM SECON CODA AMPLIT PERI AZIMU VELO AIN AR TRES W  DIS CAZ7
 BAR2 EZ EP        336 54.17                             173    0.1010 17.5 187 
 BAR2 EZ ES        337  9.32                             173    0.0810 17.5 187 
 BAR2 EZ I         337 11.90         8.6 0.30            174           17.5 187 
 BRR  HZ EP        336 56.48                             152    0.7110 72.4 303 
 BRR  HN ES        337 12.26                             152   -0.0010 72.4 303 
 BRR  HZ I         337 17.41         5.2 0.28            148           72.4 303 
 PAM  EZ EP        336 57.09                             149   -0.0110 82.9  38 
 PAM  EE ES        337 14.33                             149   -0.3110 82.9  38 
 PAM  EZ I         337 16.76         4.3 0.53            150           82.9  38 
 PTB  HZ EP        337  0.67                             132   -0.61 9  145 261 
 PTB  HN ES        337 22.02                             132   -0.05 9  145 261 
 PTB  HZ I         337 25.92         1.9 0.13            133            145 261 
 ZAR  HN ES   4    337 26.14                             122   -6.23 0  204 294 
 ZAR  HZ I         337 36.98         2.6 0.09            123            204 294 
 CHI  HZ EP   4    337 12.40                             118    0.76 0  243 195 
                                                                                
