 2016  930 0225 41.3 L   6.783 -73.169141.7  RSN  4 0.2 0.9LRSN                1
 GAP=234        0.62       4.4     5.0  5.7  0.1046E+02 -0.2023E+00  0.2356E+01E
 Epicentro: LOS SANTOS - SANTANDER                                             3
 ACTION:UPD 17-08-17 21:17 OP:lp   STATUS:               ID:20160930022541 L   I
 OLDACT:UP  16-09-30 15:15 OP:edw  STATUS:               ID:20160930021742d    3
 OLDACT:DUP 16-09-30 15:08 OP:edw  STATUS:               ID:20160930021742d    3
 OLDACT:UP  16-09-30 15:06 OP:edw  STATUS:               ID:20160930021741d    3
 OLDACT:UP  16-09-30 15:06 OP:edw  STATUS:               ID:20160930021741d    3
 OLDACT:DUP 16-09-30 15:03 OP:edw  STATUS:               ID:20160930021741d    3
 OLDACT:UP  16-09-30 15:03 OP:edw  STATUS:               ID:20160930021740     3
 OLDACT:REG 16-09-30 11:57 OP:edw  STATUS:               ID:20160930021740     3
 2016-09-30-0218-00M.COL___375                                                 6
 STAT SP IPHASW D HRMM SECON CODA AMPLIT PERI AZIMU VELO AIN AR TRES W  DIS CAZ7
 BRR  HZ EP        226  1.77                             152   -0.1510 69.8 301 
 BRR  HN ES        226 18.17                             152    0.1610 69.8 301 
 RUS  HZ EP        226  4.19                             143   -0.3310 99.0 174 
 RUS  HN ES        226 22.76                             143    0.1210 99.0 174 
 RUS  HZ I         226 24.11         1.1 0.30            143           99.0 174 
 PTB  HZ EP        226  7.75                             132    0.09 9  145 259 
 PTB  HN ES        226 28.00                             132   -0.23 9  145 259 
 PTB  HZ I         226 30.16         1.1 0.40            132            145 259 
 SPBC HN EP        226  9.61                             129    0.43 9  160 219 
 SPBC HE ES   2    226 30.78                             129   -0.16 5  160 219 
                                                                                
