 2012  830 0029 52.2 L   6.732 -73.199148.8  RSN  6 0.5 1.8LRSN                1
 GAP=134        0.76      12.3     6.5 12.8 -0.1352E+02 -0.2271E+02  0.6176E+02E
 Epicentro: VILLANUEVA - SANTANDER                                             3
 ACTION:UPD 12-09-10 11:59 OP:ep   STATUS:               ID:20120830002952 L   I
 2012-08-30-0030-00M.COL___218                                                 6
 STAT SP IPHASW D HRMM SECON CODA AMPLIT PERI AZIMU VELO AIN AR TRES W  DIS CAZ7
 BAR2 SZ EP        030 12.00                             174   -0.0410 15.6 173 
 BAR2 SZ I         030 29.82        16.5 0.38                          15.6 173 
 GIR2 SZ EP        030 12.20                             165   -0.2110 38.4   1 
 BRR  HZ EP        030 13.94                             153    0.3410 70.3 306 
 BRR  HN ES   1    030 30.75                             153    0.44 7 70.3 306 
 BRR  HZ I         030 33.60        18.3 0.14                          70.3 306 
 PAM  SN ES   3    030 31.72                             148   -1.61 2 86.9  39 
 PTB  HZ EP   1    030 18.91                             134    0.15 7  141 261 
 PTB  HN ES   1    030 39.19                             134   -0.31 7  141 261 
 PTB  HZ I         030 45.95         6.0 0.34                           141 261 
 ZAR  HE ES   2    030 49.01                             123   -0.83 4  202 295 
                                                                                
