 2010  130 0508  3.1 L   6.817 -73.057144.6  RSN 12 0.7 3.3LRSN                1
 GAP=192        1.66       6.1    10.8 10.5 -0.1719E+02  0.5207E+02  0.5305E+01E
 Epicentro: LOS SANTOS - SANTANDER                                             3
 ACTION:UP  10-08-24 09:46 OP:vdl  STATUS:               ID:20100130050803 L   I
 2010-01-30-0504-05S.COL___094                                                 6
 STAT SP IPHASW D HRMM SECON CODA AMPLIT PERI AZIMU VELO SNR AR TRES W  DIS CAZ7
 BAR2 SZ IP        5 8 22.65                             169     0.010   29 209 
 BAR2 SZ ES   1    5 8 37.47                             169    -0.5 7   29 209 
 GIR2 SZ IP        5 8 23.74                             167     1.110   33 333 
 GIR2 SZ ES   1    5 8 38.84                             167     0.9 7   33 333 
 RUS  BZ EP        5 8 26.52                             143    -0.310  102 182 
 RUS  BN ES        5 8 44.84                             143    -0.510  102 182 
 RUS  BZ I         5 8 46.13       214.7 0.38                           102 182 
 OCA  SZ EP        5 8 31.15                             129    -0.1 9  160 350 
 OCA  SZ ES   1    5 8 52.90                             129    -0.3 7  160 350 
 CHI  HZ EP        5 8 40.82                             116    -0.4 8  253 197 
 CHI  HN ES   1    5 9 10.04                             116    -0.9 6  253 197 
 CHI  HZ I         5 9 16.94        63.0 0.85                           253 197 
 ROSC BZ EP        5 8 42.37                             116     0.5 8  260 213 
 ROSC BN ES        5 9 13.12                             116     1.0 8  260 213 
 ROSC BZ I         5 9 20.31       100.1 0.59                           260 213 
 HEL  HZ EP        5 8 43.64                             114    -0.7 7  282 256 
 HEL  HN ES        5 9 15.03                             114    -1.5 7  282 256 
 HEL  HZ I         5 9 21.04        95.5 0.67                           282 256 
 GUY  HZ EP        5 8 47.87                             111     0.2 7  310 236 
 RREF BZ EP        5 8 49.58                             110    -0.6 7  330 230 
 RREF BN ES   1    5 9 28.31                             110     1.4 5  330 230 
 RREF BZ I         5 9 33.77        95.9 0.13                           330 230 
 TOL  SZ EP        5 8 53.16                             109     0.9 6  352 226 
 ANIL BZ EP   1    5 8 54.22                             108     0.4 5  366 225 
 ANIL BE ES        5 9 33.91                             108     0.6 6  366 225 
 ANIL BZ I         5 9 43.68       175.4 0.37                           366 225 
 PRA  HZ EP        5 8 56.39                             106    -0.9 6  399 211 
 PRA  HN ES   1    5 9 40.12                             106     0.5 4  399 211 
                                                                                
