 2011  130 0805 54.2 L   6.554 -73.546106.1  RSN  8 0.7 1.9LRSN                1
 GAP= 83        1.61       8.8     9.2 15.0 -0.4042E+02  0.9584E+02 -0.6113E+02E
 Epicentro: EL CARMEN DE CHUCURI - SANTANDER                                   3
 ACTION:UP  11-02-08 08:43 OP:pat  STATUS:               ID:20110130080554 L   I
 2011-01-30-0803-26S.COL___138                                                 6
 STAT SP IPHASW D HRMM SECON CODA AMPLIT PERI AZIMU VELO SNR AR TRES W  DIS CAZ7
 BAR2 SZ EP        8 6 10.15                             158     0.410   40  84 
 BAR2 SZ ES        8 6 21.91                             158     0.110   40  84 
 BAR2 SZ I         8 6 23.79       112.8 0.34                            40  84 
 RUS  HZ EP        8 6 13.16                             137    -0.210   89 145 
 RUS  HN ES   1    8 6 27.99                             137    -0.3 7   89 145 
 RUS  HZ I         8 6 30.15        12.3 0.17                            89 145 
 GRA  SZ EP        8 6 20.54                             117    -0.1 9  168  29 
 GRA  SZ ES   2    8 6 41.69                             117     0.4 5  168  29 
 GRA  SZ I         8 6 45.50         8.3 0.57                           168  29 
 NOR  SZ EP        8 6 21.50                             115    -0.6 9  183 233 
 NOR  SN ES   1    8 6 43.04                             115    -0.9 7  183 233 
 OCA  SZ EP   1    8 6 22.79                             114     0.0 7  188   8 
 OCA  SZ I         8 6 50.92         8.5 0.19                           188   8 
 HEL  HZ EP        8 6 27.48                             110     0.5 8  223 260 
 HEL  HN ES   1    8 6 53.18                             110     0.5 6  223 260 
 HEL  HZ I         8 7  1.06         4.4 0.46                           223 260 
 RREF HZ EP   1    8 6 34.99                             106     2.1 6  271 228 
 RREF HZ I         8 7  9.70         3.3 0.36                           271 228 
 MON  HZ EP        8 6 39.06                             101    -1.2 7  338 317 
                                                                                
