 2010  930 0716 12.8 L   6.769 -73.063145.2  RSN 10 0.2 1.7LRSN                1
 GAP=168        0.46       2.3     5.1  4.9 -0.4080E+01  0.2334E+01  0.1233E+01E
 Epicentro: LOS SANTOS - SANTANDER                                             3
 ACTION:UP  11-02-18 11:06 OP:tino STATUS:               ID:20100930071612 L   I
 2010-09-30-0713-55S.COL___125                                                 6
 STAT SP IPHASW D HRMM SECON CODA AMPLIT PERI AZIMU VELO SNR AR TRES W  DIS CAZ7
 BAR2 SZ EP   1    716 32.26                             170    -0.1 7   24 214 
 BAR2 SZ ES   2    716 47.51                             170    -0.1 5   24 214 
 BAR2 SZ I         716 48.98         8.8 0.19                            24 214 
 BTL  SZ EP   2    716 32.68                             169     0.3 5   28 306 
 BRR  HZ EP   1    716 34.24                             149    -0.2 7   81 298 
 BRR  HE ES   2    716 51.25                             149    -0.1 5   81 298 
 BRR  HZ I         716 56.14        10.8 0.11                            81 298 
 RUS  HZ EP   1    716 36.20                             145     0.0 7   97 181 
 RUS  HN ES   2    716 54.41                             145    -0.1 5   97 181 
 RUS  HZ I         716 56.22         4.0 0.16                            97 181 
 GUE  SZ EP   1    716 37.19                             139    -0.4 7  118   7 
 GRA  SZ EP   1    716 38.10                             137     0.1 7  127  13 
 GRA  SZ ES   1    716 57.95                             137     0.2 7  127  13 
 GRA  SZ I         717  0.10         7.7 0.24                           127  13 
 OCA  SZ EP   2    716 41.15                             129    -0.3 5  165 350 
 OCA  SZ ES   1    717  4.11                             129     0.2 7  165 350 
 OCA  SZ I         717  7.92         9.1 0.25                           165 350 
 CHI  HZ EP   2    716 50.45                             117     0.1 4  248 197 
 CHI  HN ES   2    717 20.18                             117     0.5 4  248 197 
 CHI  HZ I         717 28.47         2.8 0.61                           248 197 
 HEL  HZ EP   2    716 54.15                             114     0.3 4  280 257 
 HEL  HZ I         717 30.73         2.2 0.48                           280 257 
 RREF HZ EP   2    716 59.84                             110     0.4 3  327 231 
 RREF HN ES   2    717 35.52                             110    -0.3 3  327 231 
 RREF HZ I         717 40.79         4.2 0.12                           327 231 
                                                                                
