 2017 1030 0518 36.0 L   6.818 -73.144139.4  RSN 21 0.6 2.2LRSN                1
 GAP= 65        1.11       2.9     2.8  4.9  0.5263E+00  0.2772E+01  0.1327E+01E
 Epicentro: LOS SANTOS - SANTANDER                                             3
 ACTION:UPD 17-11-07 19:39 OP:rebc STATUS:               ID:20171030051836 L   I
 OLDACT:UP  17-10-30 15:22 OP:dhb  STATUS:               ID:20171030051749     3
 OLDACT:UP  17-10-30 15:20 OP:dhb  STATUS:               ID:20171030051749     3
 OLDACT:UP  17-10-30 15:19 OP:dhb  STATUS:               ID:20171030051749     3
 OLDACT:REG 17-10-30 12:37 OP:dhb  STATUS:               ID:20171030051749     3
 2017-10-30-0518-00M.COL___423                                                 6
 STAT SP IPHASW D HRMM SECON CODA AMPLIT PERI AZIMU VELO AIN AR TRES W  DIS CAZ7
 BAR2 HZ IP        518 54.92                             169   -0.0110 25.3 190 
 BAR2 HZ ES        519  9.49                             169   -0.1910 25.3 190 
 BAR2 HZ I         519 12.38        58.6 0.40            168           25.3 190 
 BRR  HZ IP     D  518 56.74                             152    0.2910 70.5 297 
 BRR  HN ES        519 12.54                             152    0.1610 70.5 297 
 BRR  HZ I         519 17.45        40.9 0.10            151           70.5 297 
 PAM  EZ EP        518 57.65                             150    0.1810 75.7  40 
 PAM  HN ES        519 14.14                             150   -0.0510 75.7  40 
 PAM  EZ I         519 21.19        11.3 0.56            151           75.7  40 
 RUS  HZ EP        518 59.05                             142   -0.2510  103 176 
 RUS  HN ES        519 17.35                             142   -0.1010  103 176 
 RUS  HZ I         519 18.85        34.4 0.22            141            103 176 
 PTB  HZ EP        519  1.83                             130   -0.71 9  148 258 
 PTB  HN ES        519 23.17                             130   -0.05 9  148 258 
 PTB  HZ I         519 29.59        11.2 0.16            129            148 258 
 TAM  HZ IP     D  519  3.31                             129    0.08 9  155 106 
 TAM  HN ES        519 24.58                             129    0.12 9  155 106 
 TAM  HZ I         519 25.96        22.1 0.50            129            155 106 
 SPBC HZ EP        519  3.72                             127   -0.48 9  165 219 
 SPBC HN ES        519 25.63                             127   -0.55 9  165 219 
 SPBC HZ I         519 28.09        21.0 0.10            126            165 219 
 YPLC HZ IP     C  519  5.48                             125   -0.04 9  178 152 
 YPLC HN ES        519 29.10                             125    0.57 9  178 152 
 YPLC HZ I         519 31.80        13.9 0.36            124            178 152 
 ZAR  HZ EP        519  7.80                             121   -0.21 9  204 292 
 ZAR  HE ES        519 33.53                             121    0.57 9  204 292 
 ZAR  HZ I         519 39.26        26.5 0.36            120            204 292 
 TABC EZ EP        519 11.64                             118    0.05 8  232 211 
 TABC EZ ES        519 39.54                             118    0.20 8  232 211 
 TABC EZ I         519 44.86        21.5 0.62            117            232 211 
 NOR  HZ EP        519 11.51                             117   -0.02 8  236 234 
 NOR  HN ES        519 38.83                             117   -0.40 8  236 234 
 NOR  HZ I         519 40.98        13.2 0.22            116            236 234 
 ROSC BZ EP   9    519 15.33                             115    1.33 0  255 211 
 ROSC BE ES        519 45.81                                    0.86 8  255 211 
 ROSC BZ I         519 54.96        11.0 0.35            114            255 211 
 URE  HZ EP   9    519 14.64                             112   -2.09 0  283 292 
 URE  HE ES        519 46.84                             113    0.45 7  283 292 
 URE  HZ I         519 55.56        13.1 0.18            112            283 292 
 GUY2CHZ EP   9    519 21.05                             111    1.56 0  302 234 
 GUY2CHE ES        519 55.45                             111    0.49 7  302 234 
 GUY2CHZ I         520  0.26         5.1 0.50                           302 234 
 PTGC HZ EP   2    519 18.29                             110   -1.51 3  310 159 
 PTGC HZ I         519 48.31        10.2 0.56            110            310 159 
 PTGC HE ES   3    519 51.25                             110   -2.69 2  310 159 
 DBB  EZ EP        519 22.43                             108   -0.83 7  340 274 
 DBB  EN ES   2    519 57.96                             108   -2.14 3  340 274 
 DBB  EZ I         520  2.08         6.6 0.42            108            340 274 
 ARGC HZ EP   2    519 25.88                             107    0.64 3  357 340 
 ARGC HN ES        520  4.38                             107    0.75 6  357 340 
 ARGC HZ I         520  8.03         2.6 0.46            107            357 340 
 PRA  HZ EP        519 29.39                             105   -0.15 6  394 209 
 PRA  HE ES        520 12.18                             105    0.89 6  394 209 
 PRA  HZ I         520 17.51        10.4 0.32            105            394 209 
 ORTC HZ EP        519 30.58                             105    0.65 6  397 216 
 ORTC HE ES        520 13.93                             105    1.95 6  397 216 
 ORTC HZ I         520 17.23         4.4 0.50            105            397 216 
 APAC HZ EP        519 29.44                             105   -0.52 6  398 288 
 APAC HN ES        520 12.86                             105    0.83 6  398 288 
 APAC HZ I         520 16.60         3.1 0.36            105            398 288 
 SJC  HZ EP   9    519 28.96                             105   -2.24 0  408 327 
 SJC  HE ES        520 11.49                             105   -0.51 6  408 327 
 SJC  HZ I         520 14.47         5.0 0.64            104            408 327 
                                                                                
