 2013  730 0120 11.0 L   6.219 -73.316144.3  RSN 12 0.5 2.1LRSN                1
 GAP=136        0.87       3.3     4.5  6.1 -0.5208E+01  0.6492E+01 -0.7715E+00E
 Epicentro: OIBA - SANTANDER                                                   3
 ACTION:UPD 13-08-12 10:40 OP:ep   STATUS:               ID:20130730012011 L   I
 OLDACT:REG 13-07-30 07:33 OP:carl STATUS:               ID:20130730011959     3
 2013-07-30-0119-59M.COL___267                                                 6
 STAT SP IPHASW D HRMM SECON CODA AMPLIT PERI AZIMU VELO AIN AR TRES W  DIS CAZ7
 RUS  HZ EP   1    120 31.65                             162    0.19 7 44.4 144 
 RUS  HN ES   1    120 46.99                             162   -0.41 7 44.4 144 
 RUS  HZ I         120 49.94         5.6 0.22            166           44.4 144 
 GIR2 SZ EP        120 34.00                             145    0.2010 96.0   8 
 GIR2 SZ ES   1    120 51.27                             145   -0.30 7 96.0   8 
 GIR2 SZ I         120 52.15        12.0 0.42            147           96.0   8 
 SPBC HZ EP   1    120 34.19                             142   -0.17 7  105 233 
 SPBC HE ES        120 52.88                             142    0.3210  105 233 
 SPBC HZ I         120 58.72        14.9 0.20            141            105 233 
 BRR  HZ EP   1    120 34.78                             141    0.33 7  107 336 
 BRR  HN ES   1    120 53.44                             141    0.72 7  107 336 
 BRR  HN I         120 55.43        23.7 0.20            142            107 336 
 PTB  HZ EP        120 35.55                             135   -0.8410  131 286 
 PTB  HE ES   2    120 55.67                             135   -0.50 5  131 286 
 PTB  HZ I         120 57.27        10.2 0.16            134            131 286 
 NOR  HZ EP   1    120 41.70                             125    0.04 7  187 247 
 NOR  HE ES   1    121  5.53                             125   -0.02 7  187 247 
 NOR  HE I         121 12.00        21.5 0.18            125            187 247 
 ZAR  HZ EP   1    120 45.23                             120    0.08 6  221 310 
 ZAR  HE ES        121 11.80                             120    0.03 8  221 310 
 ZAR  HZ I         121 19.72        10.9 0.34            121            221 310 
 OCA  HZ EP   1    120 44.76                             120   -0.82 6  223 360 
 OCA  HE ES   2    121 13.28                             120    0.74 4  223 360 
 OCA  HE I         121 16.15        31.8 0.30            122            223 360 
 HEL  HZ EP   1    120 48.73                             117    0.55 6  245 269 
 HEL  HE ES   2    121 16.34                             117   -0.82 4  245 269 
 HEL  HZ I         121 22.70         8.4 0.28            118            245 269 
 GUY2CHZ EP   4    120 50.28                             116    1.17 0  252 244 
 GUY2CHN ES   4    121 21.28                             116    2.46 0  252 244 
 GUY2CHE I         121 25.50         8.8 0.26                           252 244 
 RREF HZ EP   1    120 51.92                             115    0.85 6  268 237 
 RREF HN ES        121 22.32                             115    0.02 8  268 237 
 RREF HZ I         121 29.02         7.7 0.26            116            268 237 
 PRA  HZ EP   1    120 56.88                             110   -0.10 5  327 212 
 PRA  HN ES   1    121 32.76                             110   -0.06 5  327 212 
 PRA  HZ I         121 37.68         7.2 0.26            112            327 212 
                                                                                
