 2010  630 0218 38.6 L   6.802 -73.104142.9  RSN 11 0.5 2.6LRSN                1
 GAP=160        1.25       4.3     8.8  8.5 -0.1207E+02 -0.7480E+01  0.4288E+01E
 Epicentro: LOS SANTOS - SANTANDER                                             3
 ACTION:UP  10-08-24 10:14 OP:vdl  STATUS:               ID:20100630021838 L   I
 2010-06-30-0215-40S.COL___118                                                 6
 STAT SP IPHASW D HRMM SECON CODA AMPLIT PERI AZIMU VELO SNR AR TRES W  DIS CAZ7
 BAR2 SZ IP        218 57.76                             170    -0.210   25 201 
 BAR2 SZ ES   1    219 12.12                             170    -0.9 7   25 201 
 BRR  HZ EP        218 59.61                             151    -0.110   75 297 
 BRR  HE ES        219 16.84                             151     0.710   75 297 
 BRR  HZ I         219 20.15        58.7 0.18                            75 297 
 RUS  HZ EP        219  1.80                             143    -0.310  101 179 
 RUS  HN ES   1    219 20.61                             143     0.2 7  101 179 
 RUS  HZ I         219 21.69        53.5 0.24                           101 179 
 BRI  SZ EP        219  2.31                             141     0.210  107  19 
 BRI  SZ ES   2    219 20.40                             141     0.0 5  107  19 
 GUE  SZ EP        219  3.75                             139     0.810  115  10 
 GRA  SZ IP        219  3.55                             137     0.110  124  15 
 GRA  SZ ES   1    219 23.25                             137     0.4 7  124  15 
 OCA  SZ EP        219  6.24                             129    -0.5 9  161 352 
 OCA  SZ ES        219 27.69                             129    -1.0 9  161 352 
 OCA  SZ I         219 32.80        44.9 0.33                           161 352 
 CHI  HZ EP   2    219 15.82                             116    -0.5 4  250 196 
 CHI  HN ES   2    219 45.98                             116     0.3 4  250 196 
 CHI  HZ I         219 48.64        25.1 0.59                           250 196 
 ROSC BZ EP   1    219 17.60                             116     0.8 6  255 212 
 ROSC BN ES   2    219 46.18                             116    -0.5 4  255 212 
 ROSC BZ I         219 51.54        23.9 0.39                           255 212 
 HEL  HZ EP   2    219 19.85                             114     0.7 4  277 256 
 HEL  HN ES   2    219 50.27                             114    -0.5 4  277 256 
 HEL  HZ I         219 56.00        18.2 0.16                           277 256 
 PRA  HZ EP   1    219 31.54                             106    -0.8 4  394 210 
 PRA  HE ES   2    220 14.09                             106    -0.1 3  394 210 
 PRA  HZ I         220 17.75        12.5 0.27                           394 210 
                                                                                
