 2015  330 1004  1.0 L   6.740 -73.166135.9  RSN  4 0.2 0.9LRSN                1
 GAP=137        0.56       3.4     3.4  6.9 -0.4036E+01  0.6662E+01 -0.3069E+01E
 Epicentro: LOS SANTOS - SANTANDER                                             3
 ACTION:UPD 15-04-30 16:30 OP:nd   STATUS:               ID:20150330095749 L   I
 OLDACT:UPD 15-03-30 20:42 OP:nlst STATUS:               ID:20150330095749 L   3
 2015-03-30-0957-49M.COL___284                                                 6
 STAT SP IPHASW D HRMM SECON CODA AMPLIT PERI AZIMU VELO AIN AR TRES W  DIS CAZ7
 BAR2 EZ EP       10 4 18.84                             173   -0.4310 16.5 186 
 BAR2 EZ I        10 4 36.79         2.2 0.24            171           16.5 186 
 PAM  SZ EP       10 4 22.64                             147    0.0810 83.9  38 
 PAM  SE ES       10 4 39.48                             147    0.0710 83.9  38 
 PAM  SZ I        10 4 41.82         2.2 0.60            144           83.9  38 
 RUS  HZ EP   1   10 4 23.33                             144    0.06 7 94.2 174 
 RUS  HN ES       10 4 40.79                             144    0.1110 94.2 174 
 RUS  HZ I        10 4 43.39         0.8 0.22            139           94.2 174 
 PTB  HZ EP   1   10 4 27.14                             130    0.32 7  144 261 
 PTB  HE ES       10 4 46.97                             130   -0.02 9  144 261 
 PTB  HZ I        10 4 51.07         1.4 0.28            127            144 261 
                                                                                
