 2016  930 0813 39.6 L   6.833 -73.197127.7  RSN  4 0.2 0.9LRSN                1
 GAP=241        0.53       5.1     4.1  9.0  0.1423E+02 -0.1387E+02 -0.3152E+02E
 Epicentro: ZAPATOCA - SANTANDER                                               3
 ACTION:UPD 17-08-17 21:18 OP:lp   STATUS:               ID:20160930081339 L   I
 OLDACT:REG 16-09-30 12:40 OP:edw  STATUS:               ID:20160930080744     3
 2016-09-30-0808-00M.COL___363                                                 6
 STAT SP IPHASW D HRMM SECON CODA AMPLIT PERI AZIMU VELO AIN AR TRES W  DIS CAZ7
 RUS  HZ EP        814  1.71                             138   -0.1910  105 173 
 RUS  HN ES        814 19.44                             138    0.1110  105 173 
 RUS  HZ I         814 22.88         0.6 0.68            140            105 173 
 PTB  HZ EP        814  4.74                             128    0.09 9  143 257 
 PTB  HN ES        814 24.41                             128    0.18 9  143 257 
 PTB  HZ I         814 28.80         1.5 0.48            129            143 257 
 SPBC HN ES        814 27.69                             125   -0.13 9  163 217 
 SPBC HZ I         814 34.18         1.1 0.20            126            163 217 
 ZAR  HZ EP        814 10.45                             119    0.27 9  197 292 
 ZAR  HE ES        814 33.76                             119   -0.31 9  197 292 
 ZAR  HZ I         814 37.73         1.2 0.26            121            197 292 
                                                                                
