 2017  930 0427 41.9 L   6.554 -73.056143.9  RSN  5 0.3 1.4LRSN                1
 GAP=199        0.73       7.6     8.8  5.1  0.5724E+02 -0.1545E+01 -0.2983E+01E
 Epicentro: CURITI - SANTANDER                                                 3
 ACTION:UPD 17-10-05 19:17 OP:rebc STATUS:               ID:20170930042741 L   I
 OLDACT:UP  17-09-30 16:09 OP:edw  STATUS:               ID:20170930041740     3
 OLDACT:UP  17-09-30 16:07 OP:edw  STATUS:               ID:20170930041740     3
 OLDACT:REG 17-09-30 12:42 OP:edw  STATUS:               ID:20170930041740     3
 2017-09-30-0418-00M.COL___438                                                 6
 STAT SP IPHASW D HRMM SECON CODA AMPLIT PERI AZIMU VELO AIN AR TRES W  DIS CAZ7
 BAR2 EZ EP        428  0.56                             174   -0.5510 14.6 287 
 BAR2 EZ ES        428 16.27                             174    0.1310 14.6 287 
 BAR2 EZ I         428 17.22         6.0 0.40            151           14.6 287 
 RUS  HZ EP        428  3.81                             152    0.1910 73.2 182 
 RUS  HN ES        428 20.50                             152   -0.1110 73.2 182 
 RUS  HZ I         428 21.87         5.2 0.20            134           73.2 182 
 BRR  HZ EP        428  4.72                             145    0.4010 94.9 310 
 BRR  HN ES        428 21.79                             145   -0.0510 94.9 310 
 YPLC HZ EP        428  8.93                             131    0.14 9  148 150 
 ZAR  HZ EP        428 16.01                             119   -0.32 8  225 298 
 ZAR  HZ I         428 43.27         2.1 0.32            106            225 298 
 ZAR  HN ES        428 43.34                             119    0.12 8  225 298 
                                                                                
