 2013  630 0402  5.8 L   6.719 -73.194151.3  RSN  5 0.3 1.1LRSN                1
 GAP=225        0.69       6.0     5.2  5.7  0.1707E+02  0.5084E+01  0.3809E+01E
 Epicentro: VILLANUEVA - SANTANDER                                             3
 ACTION:UPD 14-01-08 09:58 OP:ep   STATUS:               ID:20130630040205 L   I
 OLDACT:REG 13-06-30 07:34 OP:jn   STATUS:               ID:20130630035959     3
 2013-06-30-0359-59M.COL___266                                                 6
 STAT SP IPHASW D HRMM SECON CODA AMPLIT PERI AZIMU VELO AIN AR TRES W  DIS CAZ7
 BAR2 SZ EP   1    4 2 25.51                             175   -0.42 7 14.1 175 
 BAR2 SZ ES        4 2 41.43                             175   -0.2210 14.1 175 
 BAR2 SZ I         4 2 42.23         3.0 0.36            171           14.1 175 
 BRR  HZ EP        4 2 27.56                             153    0.0210 71.5 307 
 BRR  HN ES        4 2 44.91                             153    0.3910 71.5 307 
 BRR  HZ I         4 2 50.21         2.8 0.46            152           71.5 307 
 RUS  HZ EP        4 2 29.88                             147    0.3710 92.2 172 
 RUS  HN ES   1    4 2 47.83                             147   -0.19 7 92.2 172 
 RUS  HZ I         4 2 49.62         1.0 0.36            149           92.2 172 
 PTB  HZ EP        4 2 32.50                             135   -0.10 9  141 262 
 PTB  HN ES        4 2 53.60                             135    0.07 9  141 262 
 PTB  HZ I         4 2 59.57         3.3 0.40            134            141 262 
 ZAR  HE ES   1    4 3  3.46                             124   -0.47 6  203 295 
                                                                                
