 2012  730 0803 13.5 L   6.788 -73.170147.9  RSN  5 0.2 1.4LRSN                1
 GAP=234        0.58       6.8     6.3  7.6  0.2647E+02  0.1665E+02  0.4377E+01E
 Epicentro: LOS SANTOS - SANTANDER                                             3
 ACTION:UPD 12-08-14 11:46 OP:ep   STATUS:               ID:20120730080313 L   I
 2012-07-30-0800-00M.COL___215                                                 6
 STAT SP IPHASW D HRMM SECON CODA AMPLIT PERI AZIMU VELO AIN AR TRES W  DIS CAZ7
 BAR2 SZ EP   1    8 3 33.27                             171    -0.1 7   22 184 
 BAR2 SZ ES   1    8 3 48.52                             171    -0.3 7   22 184 
 BAR2 SZ I         8 3 49.52         4.6 0.13            165             22 184 
 BRR  HN ES   1    8 3 51.64                             153     0.2 7   70 301 
 RUS  HN ES   1    8 3 56.34                             145     0.3 7   99 174 
 RUS  HZ I         8 3 58.44         3.4 0.34            141             99 174 
 PTB  HZ EP   1    8 3 40.30                             133    -0.1 7  145 259 
 PTB  HN ES   1    8 4  1.13                             133    -0.2 7  145 259 
 PTB  HZ I         8 4  4.20         3.5 0.19            131            145 259 
 ZAR  HN ES   1    8 4 11.35                             123     0.2 6  202 293 
