 2010  930 0521  2.3 L   6.805 -73.107146.7  RSN  5 0.2 1.7LRSN                1
 GAP=163        0.51       3.7     7.3  8.2  0.2019E+01 -0.2802E+02  0.2488E+01E
 Epicentro: LOS SANTOS - SANTANDER                                             3
 ACTION:UP  11-02-18 11:06 OP:tino STATUS:               ID:20100930052102 L   I
 2010-09-30-0517-38S.COL___125                                                 6
 STAT SP IPHASW D HRMM SECON CODA AMPLIT PERI AZIMU VELO SNR AR TRES W  DIS CAZ7
 BTL  SZ EP        521 22.29                             171     0.310   22 305 
 BAR2 SZ EP   1    521 21.92                             170    -0.1 7   25 200 
 BAR2 SZ I         521 22.25        11.3 0.06                            25 200 
 BRR  HZ IP     C  521 23.72                             151     0.010   75 297 
 BRR  HZ I         521 24.09        14.1 0.09                            75 297 
 BRR  HE ES   1    521 40.32                             151    -0.1 7   75 297 
 RUS  HZ EP        521 25.97                             144    -0.210  101 178 
 RUS  HE ES   2    521 44.89                             144     0.1 5  101 178 
 RUS  HZ I         521 46.45         4.3 0.32                           101 178 
 GRA  SZ EP   1    521 27.37                             138    -0.1 7  124  16 
 GRA  SZ ES   2    521 46.94                             138    -0.1 5  124  16 
 GRA  SZ I         521 48.58         5.8 0.25                           124  16 
                                                                                
