 2011  830 0636 39.4 L   6.755 -73.103140.9  RSN  6 0.3 1.7LRSN                1
 GAP=187        0.69       4.0     8.7  5.8  0.1050E+02  0.6452E+01  0.8884E+00E
 Epicentro: LOS SANTOS - SANTANDER                                             3
 ACTION:UPD 12-07-13 15:54 OP:ep   STATUS:               ID:20110830063639 L   I
 2011-08-30-0632-36S.COL___165                                                 6
 STAT SP IPHASW D HRMM SECON CODA AMPLIT PERI AZIMU VELO AIN AR TRES W  DIS CAZ7
 BAR2 SZ EP        636 58.71                             172    0.2810 20.0 206 
 BAR2 SZ ES   1    637 12.64                             172   -0.60 7 20.0 206 
 BAR2 SZ I         637 15.01        12.7 0.22                          20.0 206 
 BRR  HZ EP        637  0.47                             150    0.0010 77.7 300 
 BRR  HN ES   1    637 16.90                             150    0.04 7 77.7 300 
 BRR  HZ I         637 18.17        14.4 0.12                          77.7 300 
 RUS  HZ EP   1    637  2.45                             144    0.10 7 95.4 179 
 RUS  HN ES   1    637 20.69                             144    0.48 7 95.4 179 
 RUS  HZ I         637 23.70         4.7 0.33                          95.4 179 
 OCA  SZ EP   1    637  7.73                             127   -0.19 7  166 352 
 OCA  SZ I         637 33.70         8.4 0.32                           166 352 
 CHI  HZ EP   1    637 15.90                             116   -0.60 6  245 197 
 CHI  HN ES   1    637 45.15                             116   -0.25 6  245 197 
 HEL  HZ EP   1    637 20.11                             113    0.31 6  276 257 
 HEL  HZ I         637 57.01         3.9 0.62                           276 257 
                                                                                
