 2013  130 0936 60.0 L   6.878 -73.123152.2  RSN  4 0.4 1.3LRSN                1
 GAP=135        0.70       7.4     5.7  8.7 -0.6414E+01  0.6000E+01  0.2395E+02E
 Epicentro: LOS SANTOS - SANTANDER                                             3
 ACTION:UPD 13-02-15 09:17 OP:ep   STATUS:               ID:20130130093660 L   I
 2013-01-30-0930-00M.COL___241                                                 6
 STAT SP IPHASW D HRMM SECON CODA AMPLIT PERI AZIMU VELO AIN AR TRES W  DIS CAZ7
 PAM  SE ES   1    937 39.57                             154   -0.37 7 69.2  43 
 PAM  SE I         937 42.07         5.8 0.39            156           69.2  43 
 BRR  HZ EP        937 22.06                             154    0.3210 69.8 291 
 BRR  HN ES        937 38.87                             154    0.1510 69.8 291 
 BRR  HN I         937 42.36         6.9 0.55            154           69.8 291 
 RUS  HZ EP   2    937 24.53                             143   -0.44 5  109 178 
 RUS  HE ES   2    937 44.93                             143    0.46 5  109 178 
 PTB  HZ EP   1    937 27.85                             132    0.00 7  152 256 
 PTB  HE ES   1    937 49.03                             132   -0.57 7  152 256 
 PTB  HZ I         937 51.17         0.9 0.25            135            152 256 
                                                                                
