 2017  830 0859 26.5 L   6.825 -73.148147.2  RSN  6 0.4 1.6LRSN                1
 GAP=215        1.04       6.4     7.8  7.2  0.3752E+02  0.3308E+01  0.3349E+01E
 Epicentro: LOS SANTOS - SANTANDER                                             3
 ACTION:UPD 17-09-04 20:26 OP:rebc STATUS:               ID:20170830085926 L   I
 OLDACT:UP  17-08-30 16:18 OP:dani STATUS:               ID:20170830085740d    3
 OLDACT:DUP 17-08-30 16:16 OP:dani STATUS:               ID:20170830085740d    3
 OLDACT:UP  17-08-30 16:14 OP:dani STATUS:               ID:20170830085739d    3
 OLDACT:DUP 17-08-30 16:05 OP:dani STATUS:               ID:20170830085739d    3
 2017-08-30-0858-00M.COL___384                                                 6
 STAT SP IPHASW D HRMM SECON CODA AMPLIT PERI AZIMU VELO AIN AR TRES W  DIS CAZ7
 BAR2 EZ EP        859 45.94                             170   -0.4210 26.0 188 
 BAR2 EZ ES        9 0  1.69                             170   -0.1610 26.0 188 
 BAR2 EZ I         9 0  2.51        10.1 0.30            169           26.0 188 
 BRR  HZ EP        859 47.71                             153   -0.0110 69.7 297 
 BRR  HN ES        9 0  4.97                             153    0.7010 69.7 297 
 BRR  HZ I         9 0  8.20         4.8 0.24            152           69.7 297 
 RUS  HZ EP        859 51.13                             143    0.5410  103 176 
 RUS  HN ES        9 0  8.85                             143   -0.5310  103 176 
 RUS  HZ I         9 0 10.04         4.8 0.17            144            103 176 
 YPLC HZ EP        859 56.38                             127   -0.26 9  179 152 
 YPLC HN ES        9 0 20.44                             127    0.28 9  179 152 
 YPLC HZ I         9 0 23.13         4.9 0.28            128            179 152 
 ZAR  HZ EP        859 59.05                             123    0.15 9  203 291 
 ZAR  HN ES        9 0 23.64                             123   -0.55 9  203 291 
 ZAR  HZ I         9 0 29.82         4.9 0.31            123            203 291 
 CHI  HN ES        9 0 34.49                             117    0.25 8  251 195 
                                                                                
