 2010 1130 0206 55.2 L   5.853 -73.719117.6  RSN  4 0.1 1.9LRSN                1
 GAP=145        0.38       1.8     2.7  5.4 -0.1885E+01  0.2671E+01  0.2618E+00E
 Epicentro: PUENTE NACIONAL - SANTANDER                                        3
 ACTION:UP  10-12-17 16:56 OP:REBC STATUS:               ID:20101130020655 L   I
 2010-11-30-0204-33S.COL___129                                                 6
 STAT SP IPHASW D HRMM SECON CODA AMPLIT PERI AZIMU VELO SNR AR TRES W  DIS CAZ7
 BAR2 SZ EP   2    2 7 16.35                             137     0.3 5  101  36 
 BAR2 SZ ES   1    2 7 32.12                             137    -0.1 8  101  36 
 BAR2 SZ I         2 7 33.45        24.9 0.37                           101  36 
 NOR  SZ EP        2 7 18.49                             128    -0.110  132 256 
 NOR  SN ES   1    2 7 36.81                             128     0.1 7  132 256 
 CHI  HZ EP   1    2 7 19.48                             128     0.1 7  135 181 
 CHI  HE ES   1    2 7 38.16                             128     0.0 7  135 181 
 BRR  HZ EP        2 7 19.05                             127    -0.110  139   0 
 BRR  HZ I         2 7 20.66         7.5 0.10                           139   0 
 BRR  HN ES   1    2 7 37.99                             127     0.2 7  139   0 
                                                                                
