 2010  630 0828  2.5 L   7.646 -73.226136.3  RSN  6 0.4 1.3LRSN                1
 GAP=129        0.65       4.3     9.0  8.0 -0.1695E+02  0.2292E+02  0.9179E+00E
 Epicentro: EL PLAYON - SANTANDER                                              3
 ACTION:UP  10-08-24 10:14 OP:vdl  STATUS:               ID:20100630082802 L   I
 2010-06-30-0824-37S.COL___118                                                 6
 STAT SP IPHASW D HRMM SECON CODA AMPLIT PERI AZIMU VELO SNR AR TRES W  DIS CAZ7
 GUE  SZ EP   1    828 21.79                             163     0.3 7   39  58 
 GUE  SZ ES   2    828 35.50                             163    -0.9 5   39  58 
 BRI  SZ EP   2    828 21.11                             160    -0.6 5   48  81 
 BRI  SZ ES   1    828 36.79                             160     0.1 7   48  81 
 GRA  SZ EP   2    828 22.11                             157     0.2 5   54  60 
 GRA  SZ ES        828 37.24                             157     0.210   54  60 
 OCA  SZ EP   2    828 22.36                             153    -0.2 5   66 351 
 OCA  SZ ES   2    828 37.86                             153    -0.4 5   66 351 
 OCA  SZ I         828 39.82         2.1 0.27                            66 351 
 BRR  HE ES   2    828 39.82                             148     0.5 5   80 222 
 BRR  HZ I         828 43.68         9.2 0.62                            80 222 
 BAR2 SZ EP   2    828 26.30                             137     0.1 5  117 178 
 BAR2 SZ ES        828 44.62                             137    -0.110  117 178 
                                                                                
