 2011 1230 0651  8.7 L   6.804 -73.142144.4  RSN  7 0.4 1.9LRSN                1
 GAP=137        0.67       4.4     5.8  6.5  0.8502E+01  0.1867E+02  0.9269E+01E
 Epicentro: LOS SANTOS - SANTANDER                                             3
 ACTION:UPD 12-07-13 16:19 OP:ep   STATUS:               ID:20111230065108 L   I
 2011-12-30-0650-00M.COL___186                                                 6
 STAT SP IPHASW D HRMM SECON CODA AMPLIT PERI AZIMU VELO AIN AR TRES W  DIS CAZ7
 BAR2 SZ EP   1    651 27.88                             170   -0.34 7 23.8 191 
 BAR2 SZ ES   1    651 42.73                             170   -0.67 7 23.8 191 
 BAR2 SZ I         651 45.84        19.8 0.24                          23.8 191 
 BRR  HZ EP   1    651 30.15                             152    0.40 7 71.4 298 
 BRR  HE ES   2    651 46.79                             152    0.65 5 71.4 298 
 BRR  HZ I         651 51.07        16.5 0.26                          71.4 298 
 PAM  SN ES   1    651 48.18                             151    0.22 7 76.8  40 
 RUS  HZ EP   1    651 32.27                             143   -0.12 7  101 176 
 RUS  HE ES   1    651 51.19                             143    0.36 7  101 176 
 RUS  HZ I         651 52.17        13.9 0.27                           101 176 
 ZAR  HZ EP   1    651 40.77                             122   -0.35 6  204 292 
 ZAR  HN ES   1    652  6.30                             122   -0.07 6  204 292 
 ZAR  HZ I         652  7.96         5.4 0.12                           204 292 
 CHI  HZ EP   1    651 46.59                             117    0.17 6  249 195 
 CHI  HZ I         651 49.14         5.6 0.39                           249 195 
 PRA  HZ EP   1    652  2.41                             106    0.13 4  393 210 
 PRA  HN ES   2    652 44.18                             106    0.14 3  393 210 
                                                                                
