 2011  530 0916  2.8 L   6.764 -73.088151.1  RSN  8 0.2 1.9LRSN                1
 GAP=163        0.47       2.2     3.5  4.0 -0.3211E+01  0.1481E+01 -0.9306E+00E
 Epicentro: LOS SANTOS - SANTANDER                                             3
 ACTION:UP  11-06-29 08:57 OP:tino STATUS:               ID:20110530091602 L   I
 2011-05-30-0915-04S.COL___113                                                 6
 STAT SP IPHASW D HRMM SECON CODA AMPLIT PERI AZIMU VELO SNR AR TRES W  DIS CAZ7
 BAR2 SZ EP   1    916 23.00                             171    -0.1 8   22 209 
 BAR2 SZ ES   1    916 38.51                             171    -0.3 8   22 209 
 BAR2 SZ I         916 39.81        20.8 0.29                            22 209 
 BRR  HZ EP   1    916 24.91                             151    -0.1 8   79 299 
 BRR  HN ES   1    916 42.44                             151     0.2 8   79 299 
 BRR  HZ I         916 44.63        21.2 0.14                            79 299 
 RUS  HZ EP   1    916 26.96                             146     0.1 8   96 180 
 RUS  HN ES   1    916 45.71                             146     0.2 8   96 180 
 RUS  HZ I         916 46.88         6.8 0.36                            96 180 
 BRI  SZ EP   1    916 27.52                             142     0.2 8  110  17 
 BRI  SZ ES   1    916 46.57                             142     0.1 8  110  17 
 BRI  SZ I         916 53.71         9.6 0.37                           110  17 
 GRA  SZ IP        916 28.81                             138     0.110  128  14 
 GRA  SZ I         916 29.95        13.5 0.31                           128  14 
 GRA  SZ ES   1    916 48.66                             138    -0.3 7  128  14 
 OCA  SZ EP   1    916 31.65                             130    -0.4 7  165 351 
 OCA  SZ ES   1    916 55.01                             130     0.3 7  165 351 
 NOR  SN ES   1    917  7.46                             119    -0.1 6  238 236 
 HEL  HZ EP   2    916 43.71                             115    -0.2 4  277 257 
 HEL  HN ES   2    917 16.02                             115     0.1 4  277 257 
 HEL  HZ I         917 21.01         4.3 0.50                           277 257 
                                                                                
