 2015  130 0219  6.5 L   6.778 -73.189137.8  RSN  5 0.4 1.4LRSN                1
 GAP=132        1.18       6.0     5.8  8.8 -0.3364E+01  0.7764E+01  0.1763E+01E
 Epicentro: ZAPATOCA - SANTANDER                                               3
 ACTION:UPD 15-03-02 15:43 OP:nd   STATUS:               ID:20150130021906 L   I
 OLDACT:REG 15-01-30 12:56 OP:cam  STATUS:               ID:20150130021818     3
 2015-01-30-0218-18M.COL___271                                                 6
 STAT SP IPHASW D HRMM SECON CODA AMPLIT PERI AZIMU VELO AIN AR TRES W  DIS CAZ7
 BAR2 EZ ES        219 39.16                             171   -0.4910 20.5 178 
 BAR2 EZ I         219 41.94         4.8 0.24            172           20.5 178 
 BRR  HZ EP        219 26.77                             152    0.1310 68.3 302 
 BRR  HN ES        219 43.25                             152    0.9210 68.3 302 
 BRR  HN I         219 44.00        14.3 0.28            153           68.3 302 
 PAM  SZ EP     D  219 28.19                             148   -0.0210 82.4  41 
 PAM  SN ES        219 44.76                             148   -0.3710 82.4  41 
 PAM  SZ I         219 47.29         4.1 0.60            150           82.4  41 
 RUS  HZ EP        219 29.69                             143    0.3410 98.6 173 
 RUS  HN ES        219 47.39                             143    0.2410 98.6 173 
 RUS  HZ I         219 48.42         2.5 0.38            145           98.6 173 
 PTB  HZ EP        219 32.10                             131   -0.27 9  143 259 
 PTB  HN ES        219 51.95                             131   -0.58 9  143 259 
 PTB  HZ I         219 55.61         2.5 0.42            133            143 259 
                                                                                
