 2012  930 0454 48.6 L   6.789 -73.177146.5  RSN  6 0.4 1.9LRSN                1
 GAP=233        0.79       5.8     6.3  9.3  0.1686E+02  0.1112E+02  0.4267E+01E
 Epicentro: LOS SANTOS - SANTANDER                                             3
 ACTION:UPD 12-10-22 14:21 OP:ep   STATUS:               ID:20120930045448 L   I
 2012-09-30-0450-00M.COL___208                                                 6
 STAT SP IPHASW D HRMM SECON CODA AMPLIT PERI AZIMU VELO AIN AR TRES W  DIS CAZ7
 BAR2 SZ EP        455  8.03                             171   -0.2210 21.8 182 
 BAR2 SZ ES   1    455 23.24                             171   -0.37 7 21.8 182 
 BAR2 SZ I         455 24.01        19.4 0.34                          21.8 182 
 BRR  HZ EP        455  9.80                             153    0.1410 68.8 301 
 BRR  HN ES   1    455 26.80                             153    0.68 7 68.8 301 
 BRR  HN I         455 27.60        42.4 0.22                          68.8 301 
 BRR  HZ I         455 29.86         9.3 0.14                          68.8 301 
 RUS  HN ES   2    455 31.06                             144    0.20 5 99.7 174 
 PTB  HN ES   1    455 35.50                             133   -0.60 7  144 259 
 PTB  HN I         455 40.98         6.5 0.28                           144 259 
 ZAR  HE ES        455 45.90                             123   -0.01 9  201 293 
 ZAR  HN I         455 48.84         7.2 0.10                           201 293 
 CHI  HN ES   1    455 55.81                             117    0.46 6  247 194 
                                                                                
