 2010 1230 0805  1.9 L   6.784 -73.112138.2  RSN  7 0.4 1.6LRSN                1
 GAP=163        0.72       5.2    11.8 14.4 -0.3293E+02  0.9186E+02 -0.2100E+02E
 Epicentro: LOS SANTOS - SANTANDER                                             3
 ACTION:UP  11-01-14 15:28 OP:pat  STATUS:               ID:20101230080501 L   I
 2010-12-30-0800-00M.COL___137                                                 6
 STAT SP IPHASW D HRMM SECON CODA AMPLIT PERI AZIMU VELO SNR AR TRES W  DIS CAZ7
 BAR2 SZ EP   1    8 5 20.94                             170     0.3 7   23 200 
 BTL  SZ EP   1    8 5 21.09                             170     0.5 7   23 311 
 BAR2 SZ I         8 5 38.93         6.6 0.14                            23 200 
 RUS  HZ EP   1    8 5 24.86                             143     0.1 7   99 178 
 RUS  HN ES   2    8 5 41.87                             143    -0.7 5   99 178 
 GRA  SZ EP   2    8 5 26.20                             135    -0.3 5  126  16 
 GRA  SZ ES   1    8 5 45.69                             135    -0.1 7  126  16 
 GRA  SZ I         8 5 48.69         4.0 0.27                           126  16 
 OCA  SZ EP   1    8 5 29.50                             127    -0.4 7  162 352 
 OCA  SZ I         8 5 56.87         7.5 0.28                           162 352 
 NOR  SN ES   2    8 6  5.09                             117    -0.1 4  237 235 
 HEL  HZ EP   2    8 5 41.97                             113    -0.1 4  275 256 
 HEL  HZ I         8 6 20.63         2.0 0.24                           275 256 
                                                                                
