 2012 1130 0330 57.6 L   6.792 -73.155141.6  RSN  6 0.3 1.7LRSN                1
 GAP=136        0.72       2.7     4.1  6.8 -0.1972E+01  0.6940E+01  0.4063E+01E
 Epicentro: LOS SANTOS - SANTANDER                                             3
 ACTION:UPD 12-12-05 15:37 OP:}ep  STATUS:               ID:20121130033057 L   I
 2012-11-30-0330-00M.COL___236                                                 6
 STAT SP IPHASW D HRMM SECON CODA AMPLIT PERI AZIMU VELO AIN AR TRES W  DIS CAZ7
 BAR2 SZ EP        331 16.64                             171   -0.0210 22.3 188 
 PAM  SZ EP        331 19.59                             150    0.1810 78.7  40 
 PAM  SN ES        331 36.56                             150    0.1110 78.7  40 
 PAM  SN I         331 38.14        12.7 0.50                          78.7  40 
 RUS  HZ EP        331 20.74                             143   -0.1010 99.8 175 
 RUS  HN ES        331 38.67                             143   -0.3310 99.8 175 
 RUS  HN I         331 40.33         4.3 0.16                          99.8 175 
 PTB  HZ EP        331 23.52                             131   -0.55 9  147 259 
 PTB  HE ES        331 44.99                             131    0.24 9  147 259 
 PTB  HE I         331 48.18        10.2 0.16                           147 259 
 OCA  HN ES        331 47.53                             128    0.03 9  161 354 
 CHI  HZ EP        331 35.03                             116    0.13 8  248 195 
 CHI  HE ES        332  4.58                             116    0.55 8  248 195 
 CHI  HE I         332 10.21         3.5 0.46                           248 195 
                                                                                
