 2012  330 0125 32.8 L   6.738 -73.146129.5  RSN  5 0.2 1.2LRSN                1
 GAP=139        0.31       5.5     5.3  6.0  0.6886E+01 -0.3333E+01  0.8178E+01E
 ACTION:UP  12-03-31 23:24 OP:EP   STATUS:               ID:20120330012532 L   I
 2012-03-30-0120-00M.COL___196                                                 6
 STAT SP IPHASW D HRMM SECON CODA AMPLIT PERI AZIMU VELO SNR AR TRES W  DIS CAZ7
 BRR  HZ EP        125 52.44                             148     0.010   75 303 
 BRR  HZ I         125 52.69         9.7 0.32                            75 303 
 BRR  HE ES   1    126  7.75                             148     0.0 7   75 303 
 PAM  SE ES   3    126  9.71                             146    -0.2 2   83  37 
 RUS  HZ EP   3    125 54.65                             142     0.2 2   94 176 
 RUS  HZ I         126 10.92         1.9 0.26                            94 176 
 RUS  HN ES   3    126 11.42                             142     0.1 2   94 176 
 PTB  HZ EP   3    125 57.91                             128    -0.5 2  147 261 
 PTB  HN ES   3    126 18.05                             128    -0.3 2  147 261 
 PTB  HZ I         126 22.01         1.2 0.42                           147 261 
 ZAR  HN ES   3    126 29.51                             118     0.3 2  207 294 
                                                                                
