 2011  430 0741 13.5 L   6.776 -73.102151.2  RSN  7 0.2 1.6LRSN                1
 GAP=143        0.55       3.5     5.8  5.0 -0.1636E+01 -0.3726E+01 -0.4768E+01E
 Epicentro: LOS SANTOS - SANTANDER                                             3
 ACTION:UP  11-06-22 15:34 OP:REBC STATUS:               ID:20110430074113 L   I
 2011-04-30-0740-08S.COL___129                                                 6
 STAT SP IPHASW D HRMM SECON CODA AMPLIT PERI AZIMU VELO SNR AR TRES W  DIS CAZ7
 BAR2 SZ EP        741 33.66                             171    -0.110   22 204 
 BAR2 SZ ES   1    741 49.44                             171    -0.1 7   22 204 
 BAR2 SZ I         741 50.45         9.5 0.34                            22 204 
 PAM  SZ EP   1    741 36.36                             152     0.1 7   77  35 
 PAM  SZ I         741 36.70         3.3 0.25                            77  35 
 PAM  SN ES   1    741 53.97                             152     0.0 7   77  35 
 BRR  HZ EP   1    741 35.56                             152     0.0 7   77 299 
 BRR  HE ES   1    741 52.90                             152     0.2 7   77 299 
 BRR  HZ I         741 55.21        11.8 0.11                            77 299 
 RUS  HZ EP   1    741 37.80                             146     0.2 7   98 179 
 RUS  HN ES   1    741 56.19                             146    -0.2 7   98 179 
 RUS  HZ I         741 57.51         3.8 0.30                            98 179 
 BRI  SZ EP   1    741 38.22                             142     0.3 7  109  18 
 GRA  SZ EP   1    741 39.36                             138     0.0 7  127  15 
 GRA  SZ I         742  0.10         5.0 0.37                           127  15 
 OCA  SZ EP   1    741 41.99                             130    -0.5 7  164 352 
 OCA  SZ I         742 10.02         4.6 0.33                           164 352 
                                                                                
