 2011  730 0426 28.9 L   6.694 -73.139148.1  RSN  4 0.4 1.5LRSN                1
 GAP=230        0.77       7.8    10.1  8.6  0.3750E+02 -0.1324E+01  0.1049E+02E
 Epicentro: VILLANUEVA - SANTANDER                                             3
 ACTION:UPD 12-07-25 14:04 OP:epov STATUS:               ID:20110730042628 L   I
 2011-07-30-0424-44S.COL___141                                                 6
 STAT SP IPHASW D HRMM SECON CODA AMPLIT PERI AZIMU VELO AIN AR TRES W  DIS CAZ7
 BAR2 SZ EP   1    426 48.41                             175   -0.19 7 12.2 203 
 BAR2 SZ ES   1    427  3.62                             175   -0.38 7 12.2 203 
 BAR2 SZ I         427  5.31         6.0 0.22                          12.2 203 
 BRR  HZ EP        426 50.32                             151   -0.3310 78.1 306 
 BRR  HZ I         426 50.72         8.3 0.14                          78.1 306 
 BRR  HE ES        427  7.98                             151    0.3210 78.1 306 
 RUS  HZ EP   1    426 52.68                             147    0.65 7 88.8 176 
 RUS  HN ES   2    427 10.12                             147    0.01 5 88.8 176 
 RUS  HZ I         427 12.00         4.0 0.45                          88.8 176 
 NOR  SN ES   2    427 31.34                             120   -0.22 4  229 237 
                                                                                
