 2013  630 0950 32.6 L   6.763 -73.122151.5  RSN  6 0.2 1.2LRSN                1
 GAP=185        0.42       2.4     5.7  3.3  0.5676E+01 -0.2142E+01 -0.6007E+00E
 Epicentro: LOS SANTOS - SANTANDER                                             3
 ACTION:UPD 14-01-08 09:58 OP:ep   STATUS:               ID:20130630095032 L   I
 OLDACT:REG 13-06-30 07:58 OP:jn   STATUS:               ID:20130630094959     3
 2013-06-30-0949-59M.COL___267                                                 6
 STAT SP IPHASW D HRMM SECON CODA AMPLIT PERI AZIMU VELO AIN AR TRES W  DIS CAZ7
 BAR2 SZ EP   1    950 52.68                             172   -0.13 7 20.0 199 
 BAR2 SZ ES        951  8.86                             172    0.2510 20.0 199 
 BAR2 SZ I         951  9.50         4.2 0.18            166           20.0 199 
 GIR2 SZ EP   1    950 52.94                             166   -0.09 7 35.8 347 
 BRR  HZ EP        950 54.66                             152    0.1010 75.5 300 
 BRR  HN ES        951 11.64                             152   -0.0910 75.5 300 
 BRR  HZ I         951 17.97         4.6 0.20            147           75.5 300 
 RUS  HZ EP   1    950 56.78                             146    0.20 7 96.3 177 
 RUS  HN ES        951 15.11                             146   -0.2110 96.3 177 
 RUS  HZ I         951 16.98         1.7 0.22            147           96.3 177 
 OCA  HZ EP   1    951  1.58                             130   -0.14 7  165 352 
 CHI  HZ EP   1    951 10.39                             119    0.16 6  245 196 
 CHI  HE ES   1    951 39.53                             119   -0.08 6  245 196 
                                                                                
