 2016 1230 0712 35.7 L   6.740 -73.126145.3  RSN  4 0.2 0.9LRSN                1
 GAP=235        0.66       5.2     5.0  5.3  0.1310E+02  0.2344E+01  0.9220E-01E
 Epicentro: LOS SANTOS - SANTANDER                                             3
 ACTION:UPD 17-01-11 20:20 OP:rebc STATUS:               ID:20161230071235 L   I
 OLDACT:REG 16-12-30 13:02 OP:edw  STATUS:               ID:20161230070645     3
 2016-12-30-0707-00M.COL___365                                                 6
 STAT SP IPHASW D HRMM SECON CODA AMPLIT PERI AZIMU VELO AIN AR TRES W  DIS CAZ7
 BAR2 EZ EP        712 55.33                             173    0.1710 17.5 201 
 BAR2 EZ ES        713 10.37                             173    0.0210 17.5 201 
 BRR  HZ EP        712 57.01                             151   -0.0810 76.5 302 
 BRR  HE ES        713 13.74                             151   -0.0510 76.5 302 
 RUS  HZ EP        712 58.48                             146   -0.4310 93.8 177 
 RUS  HN ES        713 17.20                             146    0.1710 93.8 177 
 RUS  HZ I         713 19.07         1.6 0.26            143           93.8 177 
 PTB  HZ EP        713  3.13                             132    0.42 9  149 262 
 PTB  HE ES        713 23.60                             132   -0.19 9  149 262 
 PTB  HZ I         713 28.10         1.0 0.46            129            149 262 
                                                                                
