 2013  630 0438 57.2 L   6.789 -73.146139.9  RSN 14 0.5 2.0LRSN                1
 GAP= 66        1.22       3.5     4.2  6.3  0.2015E+01  0.2294E+01  0.1793E+01E
 Epicentro: LOS SANTOS - SANTANDER                                             3
 ACTION:UPD 14-01-08 09:58 OP:ep   STATUS:               ID:20130630043857 L   I
 OLDACT:DUP 13-06-30 10:32 OP:jn   STATUS:               ID:20130630043749d    3
 2013-06-30-0437-48M.COL___228                                                 6
 STAT SP IPHASW D HRMM SECON CODA AMPLIT PERI AZIMU VELO AIN AR TRES W  DIS CAZ7
 BAR2 SZ EP        439 16.18                             171    0.0810 22.1 190 
 BAR2 SZ ES        439 30.76                             171   -0.0810 22.1 190 
 BAR2 SZ I         439 32.22        25.3 0.16            161           22.1 190 
 GIR2 SZ EP        439 16.31                             166    0.1110 32.5 351 
 BRR  HZ EP        439 18.15                             151    0.4010 71.8 299 
 BRR  HN ES        439 34.86                             151    1.0810 71.8 299 
 BRR  HZ I         439 36.64        26.7 0.14            137           71.8 299 
 PAM  SZ EP        439 19.07                             149    0.2210 78.3  39 
 PAM  SN ES        439 35.85                             149    0.1110 78.3  39 
 PAM  SZ I         439 38.38        19.8 0.60            145           78.3  39 
 RUS  HZ EP        439 20.33                             143    0.0510 99.4 176 
 RUS  HN ES        439 37.85                             143   -0.4510 99.4 176 
 RUS  HZ I         439 39.18        11.4 0.44            131           99.4 176 
 PTB  HN ES        439 43.78                             131   -0.54 9  148 259 
 PTB  HZ I         439 46.58        17.5 0.24            117            148 259 
 TAM  HZ EP        439 24.53                             129    0.14 9  155 105 
 TAM  HE ES   1    439 45.51                             129   -0.09 7  155 105 
 OCA  HZ EP   1    439 24.77                             128   -0.40 7  161 353 
 OCA  HN ES        439 45.94                             128   -1.05 9  161 353 
 OCA  HZ I         439 50.49        26.6 0.56            118            161 353 
 YOP  SZ EP   1    439 26.83                             125    0.12 7  178 153 
 YOP  SN ES   1    439 50.50                             125    0.76 7  178 153 
 YOP  SZ I         439 53.00         9.5 0.20            116            178 153 
 ZAR  HZ EP        439 29.12                             121   -0.19 9  204 292 
 ZAR  HE ES   1    439 54.69                             121    0.33 6  204 292 
 ZAR  HZ I         440  1.14        18.4 0.30            111            204 292 
 SML  HZ EP        439 33.28                             116   -0.33 8  245 335 
 CHI  HZ EP        439 34.43                             116   -0.01 8  247 195 
 CHI  HN ES        440  2.37                             116   -1.13 8  247 195 
 CHI  HZ I         440  6.86         2.9 0.22            107            247 195 
 HEL  HZ EP   1    439 38.26                             114    1.18 6  272 256 
 HEL  HZ I         440 18.44         2.5 0.24            105            272 256 
 PRA  HZ EP   1    439 50.81                             106    0.42 4  391 210 
 PRA  HZ I         440 38.05         3.9 0.32            100            391 210 
                                                                                
