 2016  830 0559  0.7 L   6.814 -73.111137.1  RSN  9 0.4 1.6LRSN                1
 GAP=187        0.87       3.0     4.0  5.8 -0.1339E+01  0.8615E+01 -0.2975E+01E
 Epicentro: LOS SANTOS - SANTANDER                                             3
 ACTION:UPD 16-10-29 15:40 OP:rebc STATUS:               ID:20160830055900 L   I
 OLDACT:UP  16-08-30 16:35 OP:edw  STATUS:               ID:20160830055738     3
 OLDACT:REG 16-08-30 12:47 OP:edw  STATUS:               ID:20160830055738     3
 2016-08-30-0558-00M.COL___353                                                 6
 STAT SP IPHASW D HRMM SECON CODA AMPLIT PERI AZIMU VELO AIN AR TRES W  DIS CAZ7
 BAR2 EZ EP        559 19.45                             169    0.0910 25.8 198 
 BAR2 EZ ES        559 33.67                             169   -0.2310 25.8 198 
 BRR  HZ IP     C  559 21.27                             150    0.1810 73.9 296 
 BRR  HN ES   4    559 38.34                             150    1.36 0 73.9 296 
 BRR  HZ I         559 41.49         6.1 0.18                          73.9 296 
 RUS  HZ EP        559 23.92                             141    0.1910  102 178 
 RUS  HN ES        559 41.89                             141    0.2110  102 178 
 RUS  HZ I         559 43.61         2.5 0.18                           102 178 
 PTB  HZ EP        559 26.63                             129   -0.74 9  152 259 
 PTB  HE ES        559 47.99                             129   -0.17 9  152 259 
 PTB  HZ I         559 49.79         4.3 0.16                           152 259 
 OCA  HZ EP        559 28.22                             128   -0.04 9  159 352 
 OCA  HE ES        559 50.12                             128    0.37 9  159 352 
 OCA  HZ I         559 52.70         7.3 0.22                           159 352 
 SPBC HZ EP        559 28.47                             126   -0.45 9  167 220 
 SPBC HN ES        559 50.79                             126   -0.13 9  167 220 
 SPBC HZ I         559 54.15         6.0 0.11                           167 220 
 ZAR  HZ EP        559 32.70                             120   -0.22 8  207 291 
 ZAR  HE ES        559 57.72                             120   -0.32 8  207 291 
 ZAR  HZ I         6 0  2.59         4.4 0.36                           207 291 
 HEL  HZ EP        559 41.32                             113    0.36 7  276 256 
 HEL  HN ES        6 0 13.31                             113    0.96 7  276 256 
 HEL  HZ I         6 0 19.72         2.1 0.36                           276 256 
 GUY2CHZ EP        559 44.61                             110    0.21 7  305 235 
 GUY2CHE ES        6 0 18.69                             110    0.22 7  305 235 
 GUY2CHZ I         6 0 25.63         2.6 0.36                           305 235 
                                                                                
