 2016  830 0438 28.6 L   6.766 -73.168150.9  RSN  5 0.1 1.1LRSN                1
 GAP=232        0.37       2.1     2.5  3.2  0.2619E+01 -0.2331E+00 -0.3054E+00E
 Epicentro: LOS SANTOS - SANTANDER                                             3
 ACTION:UPD 16-10-29 15:40 OP:rebc STATUS:               ID:20160830043828 L   I
 OLDACT:UP  16-08-30 15:37 OP:edw  STATUS:               ID:20160830043744     3
 OLDACT:REG 16-08-30 12:40 OP:edw  STATUS:               ID:20160830043744     3
 2016-08-30-0438-00M.COL___359                                                 6
 STAT SP IPHASW D HRMM SECON CODA AMPLIT PERI AZIMU VELO AIN AR TRES W  DIS CAZ7
 BRR  HZ EP        438 50.41                             153    0.1610 71.0 302 
 BRR  HN ES        439  7.22                             153    0.0510 71.0 302 
 BRR  HZ I         439  7.89         2.1 0.12                          71.0 302 
 RUS  HZ EP        438 52.57                             146    0.0010 97.0 174 
 RUS  HE ES        439 11.13                             146   -0.1710 97.0 174 
 RUS  HZ I         439 11.83         1.9 0.18                          97.0 174 
 PTB  HZ EP        438 55.52                             134   -0.15 9  145 260 
 PTB  HE ES        439 16.88                             134    0.06 9  145 260 
 PTB  HZ I         439 19.05         1.1 0.10                           145 260 
 SPBC HZ EP        438 57.16                             131    0.12 9  159 219 
 SPBC HN ES        439 19.33                             131    0.07 9  159 219 
 SPBC HZ I         439 20.50         2.1 0.24                           159 219 
 ZAR  HZ EP   2    439  1.19                             124   -0.07 4  203 293 
 ZAR  HN ES        439 26.60                             124   -0.16 9  203 293 
                                                                                
