 2016  530 0853 47.6 L   7.419 -73.552109.1  RSN  4 0.3 1.0LRSN                1
 GAP=150        0.80       4.6     4.3  7.3 -0.1074E+02  0.3340E+01  0.2001E+01E
 Epicentro: SABANA DE TORRES - SANTANDER                                       3
 ACTION:UPD 16-08-18 17:50 OP:cam  STATUS:               ID:20160530085347 L   I
 OLDACT:DUP 16-05-30 17:23 OP:ak   STATUS:               ID:20160530084745d    3
 2016-05-30-0847-43M.COL___298                                                 6
 STAT SP IPHASW D HRMM SECON CODA AMPLIT PERI AZIMU VELO AIN AR TRES W  DIS CAZ7
 BRR  HZ EP        854  3.52                             159    0.4610 38.7 207 
 BRR  HN ES        854 15.46                             159    0.3610 38.7 207 
 BRR  HZ I         854 16.19         3.0 0.09            158           38.7 207 
 OCA  HZ EP   2    854  7.35                             136    0.37 5 94.2  16 
 OCA  HN ES        854 21.85                             136   -0.2210 94.2  16 
 PAM  EZ EP        854  7.50                             136    0.0310 94.6  95 
 PAM  EN ES        854 22.69                             136   -0.2510 94.6  95 
 PAM  EZ I         854 24.18         2.5 0.49            137           94.6  95 
 PTB  HZ EP        854 11.00                             124   -0.03 9  139 226 
 PTB  HN ES        854 28.80                             124   -0.49 9  139 226 
 PTB  HZ I         854 31.31         1.9 0.20            125            139 226 
                                                                                
