 2014  630 0521 52.9 L   6.796 -73.147148.7  RSN  5 0.4 1.4LRSN                1
 GAP=237        1.04       6.3     6.8  7.7  0.9475E+01  0.5586E+01  0.3952E+01E
 Epicentro: LOS SANTOS - SANTANDER                                             3
 ACTION:UPD 14-07-01 22:58 OP:nd   STATUS:               ID:20140630052152 L   I
 OLDACT:REG 14-06-30 14:34 OP:stll STATUS:               ID:20140630051813     3
 2014-06-30-0518-13M.COL___247                                                 6
 STAT SP IPHASW D HRMM SECON CODA AMPLIT PERI AZIMU VELO AIN AR TRES W  DIS CAZ7
 BAR2 SZ EP        522 12.88                             171    0.0110 22.9 190 
 BAR2 SZ ES        522 27.83                             171   -0.6310 22.9 190 
 BAR2 SZ I         522 28.88         6.5 0.26            170           22.9 190 
 BRR  HZ EP        522 14.65                             153    0.2810 71.3 299 
 BRR  HN ES        522 31.70                             153    0.5810 71.3 299 
 BRR  HZ I         522 35.07         4.6 0.28            149           71.3 299 
 RUS  HZ EP        522 16.84                             144   -0.0710  100 176 
 RUS  HZ I         522 17.66         2.3 0.48            146            100 176 
 RUS  HN ES        522 35.84                             144    0.2010  100 176 
 PTB  HZ EP        522 19.46                             133   -0.63 9  148 259 
 PTB  HN ES        522 40.89                             133   -0.41 9  148 259 
 PTB  HZ I         522 46.50         5.3 0.50            131            148 259 
 SPBC HZ EP        522 21.87                             130    0.29 9  163 219 
 SPBC HZ I         522 24.59         4.1 0.22            129            163 219 
 SPBC HN ES        522 44.32                             130    0.36 9  163 219 
                                                                                
