 2016  930 0413  6.7 L   6.685 -73.242163.5  RSN  4 0.4 1.2LRSN                1
 GAP=217        0.91       5.9     8.5  9.7  0.1275E+02 -0.9483E+01 -0.1999E+01E
 Epicentro: BARICHARA - SANTANDER                                              3
 ACTION:UPD 17-08-17 21:18 OP:lp   STATUS:               ID:20160930041306 L   I
 OLDACT:UP  16-09-30 16:37 OP:edw  STATUS:               ID:20160930040327d    3
 OLDACT:UP  16-09-30 16:35 OP:edw  STATUS:               ID:20160930040327d    3
 OLDACT:UP  16-09-30 16:34 OP:edw  STATUS:               ID:20160930040327d    3
 OLDACT:DUP 16-09-30 16:33 OP:edw  STATUS:               ID:20160930040327d    3
 OLDACT:UP  16-09-30 16:32 OP:edw  STATUS:               ID:20160930040326     3
 OLDACT:UP  16-09-30 16:31 OP:edw  STATUS:               ID:20160930040326     3
 OLDACT:UP  16-09-30 16:30 OP:edw  STATUS:               ID:20160930040326     3
 OLDACT:REG 16-09-30 12:12 OP:edw  STATUS:               ID:20160930040326     3
 2016-09-30-0408-00M.COL___372                                                 6
 STAT SP IPHASW D HRMM SECON CODA AMPLIT PERI AZIMU VELO AIN AR TRES W  DIS CAZ7
 BRR  HZ EP        413 30.02                             156    0.3410 69.8 312 
 BRR  HN ES        413 47.40                             156   -0.2410 69.8 312 
 RUS  HZ EP        413 30.98                             150   -0.5110 89.4 169 
 RUS  HN ES        413 51.23                             150    0.3810 89.4 169 
 RUS  HZ I         413 52.29         2.4 0.32            148           89.4 169 
 PTB  HZ EP   2    413 33.95                             139   -0.14 5  135 263 
 PTB  HN ES   2    413 56.09                             139    0.61 5  135 263 
 PTB  HZ I         413 57.56         1.0 0.44            136            135 263 
 SPBC HZ EP   2    413 36.03                             136    0.90 5  147 219 
 SPBC HN ES        413 57.03                             136   -0.31 9  147 219 
 SPBC HZ I         414  1.71         3.3 0.30            134            147 219 
 ZAR  HZ EP   4    413 50.61                             127   10.72 0  200 297 
 ZAR  HN ES   4    414 11.05                             127    5.25 0  200 297 
                                                                                
