 2016  630 0521 47.4 L   6.164 -73.740100.9  RSN 11 0.3 2.0LRSN                1
 GAP= 67        0.84       2.0     2.3  5.1 -0.6084E-01  0.5024E+01  0.1151E+01E
 Epicentro: LANDAZURI - SANTANDER                                              3
 ACTION:UPD 16-07-21 22:24 OP:rebc STATUS:               ID:20160630052147 L   I
 OLDACT:REG 16-06-30 13:14 OP:edw  STATUS:               ID:20160630051748     3
 2016-06-30-0517-48M.COL___345                                                 6
 STAT SP IPHASW D HRMM SECON CODA AMPLIT PERI AZIMU VELO AIN AR TRES W  DIS CAZ7
 SPBC HZ EP     C  522  3.28                             143   -0.4810 67.5 213 
 SPBC HE ES        522 16.47                             143   -0.0810 67.5 213 
 SPBC HZ I         522 19.04        37.1 0.10                          67.5 213 
 BAR2 EZ EP        522  4.88                             139    0.1310 77.8  52 
 BAR2 EZ ES        522 18.69                             139    0.3810 77.8  52 
 RUS  HZ EP        522  5.07                             139   -0.1010 78.6 112 
 RUS  HE ES        522 18.68                             139   -0.3710 78.6 112 
 RUS  HZ I         522 20.52        17.2 0.20                          78.6 112 
 PTB  HZ EP   4    522  4.13                             135   -1.29 0 89.5 298 
 PTB  HE ES        522 19.09                             135   -0.4110 89.5 298 
 PTB  HZ I         522 21.98        23.6 0.36                          89.5 298 
 BRR  HZ EP        522  6.60                             130   -0.1410  104   2 
 BRR  HN ES        522 22.34                             130    0.5010  104   2 
 BRR  HZ I         522 25.88        22.2 0.12                           104   2 
 ROSC BZ EP        522 13.38                             117    0.46 9  160 204 
 ROSC BN ES        522 33.55                             117    0.71 9  160 204 
 CHI  HZ EP        522 13.97                             116   -0.04 9  170 180 
 CHI  HN ES        522 34.51                             116   -0.28 9  170 180 
 CHI  HZ I         522 37.51         4.2 0.24                           170 180 
 ZAR  HZ EP        522 15.72                             112   -0.28 9  192 320 
 ZAR  HN ES        522 38.19                             112   -0.13 9  192 320 
 ZAR  HZ I         522 41.01        30.7 0.52                           192 320 
 HEL  HZ EP        522 17.24                             111    0.10 9  198 271 
 HEL  HN ES        522 40.68                             111    0.33 9  198 271 
 HEL  HZ I         522 44.41        12.2 0.32                           198 271 
 GUY2CHZ EP        522 18.24                             110   -0.15 8  208 240 
 GUY2CHN ES        522 42.84                             110    0.26 8  208 240 
 GUY2CHZ I         522 47.84        12.5 0.40                           208 240 
 CBOC HZ EP        522 23.29                             105   -0.06 8  254 263 
 CBOC HN ES        522 51.08                             105   -0.32 8  254 263 
 CBOC HZ I         522 52.98         4.4 0.46                           254 263 
                                                                                
