 2017 1230 0747 54.0 L   6.833 -73.146146.2  RSN 31 1.0 2.7LRSN                1
 GAP= 56        1.97       3.1     4.3  8.2 -0.1569E+01  0.7115E+01 -0.2425E+01E
 Epicentro: LOS SANTOS - SANTANDER                                             3
 ACTION:UPD 18-01-04 13:25 OP:rebc STATUS:               ID:20171230074754 L   I
 OLDACT:UP  17-12-30 16:23 OP:dani STATUS:               ID:20171230073821     3
 OLDACT:UP  17-12-30 16:22 OP:dani STATUS:               ID:20171230073821     3
 OLDACT:REG 17-12-30 13:34 OP:osc  STATUS:               ID:20171230073821     3
 2017-12-30-0748-00M.COL___462                                                 6
 STAT SP IPHASW D HRMM SECON CODA AMPLIT PERI AZIMU VELO AIN AR TRES W  DIS CAZ7
 BAR2 EZ EP     D  748 13.88                             169    0.0810 27.0 188 
 BAR2 EZ ES        748 28.91                             169   -0.3010 27.0 188 
 BAR2 EZ I         748 31.71       129.8 0.32            168           27.0 188 
 PAM  EZ EP     D  748 16.68                             152    0.5410 74.6  41 
 PAM  EN ES        748 33.69                             152    0.3110 74.6  41 
 PAM  EZ I         748 36.07       116.2 0.56            156           74.6  41 
 PTB  HZ EP        748 20.45                             132   -0.65 9  148 257 
 PTB  HN ES        748 41.61                             132   -0.60 9  148 257 
 PTB  HZ I         748 49.08        26.2 0.32            132            148 257 
 TAM  HZ IP     D  748 22.29                             130    0.44 9  156 106 
 TAM  HN ES        748 44.04                             130    0.50 9  156 106 
 TAM  HZ I         748 45.20        22.1 0.40            134            156 106 
 OCA  HZ EP        748 22.17                             130    0.13 9  157 353 
 OCA  HN ES        748 44.00                             130    0.12 9  157 353 
 OCA  HZ I         748 47.84       188.9 0.20            133            157 353 
 SPBC HZ EP        748 22.88                             129    0.04 9  166 218 
 SPBC HN ES        748 44.77                             129   -0.53 9  166 218 
 SPBC HZ I         748 47.77        95.8 0.18            130            166 218 
 YPLC HZ EP        748 24.30                             126    0.11 9  180 152 
 YPLC HE ES        748 47.68                             126   -0.02 9  180 152 
 YPLC HZ I         748 51.10        82.4 0.24            129            180 152 
 ZAR  HZ EP        748 26.51                             123    0.15 9  203 291 
 ZAR  HE ES        748 50.71                             123   -0.87 9  203 291 
 ZAR  HZ I         748 57.19        47.8 0.24            124            203 291 
 ROSC BZ EP        748 33.88                             116    1.36 8  256 211 
 ROSC BN ES        749  2.62                             116    0.08 8  256 211 
 ROSC BZ I         749  8.68        58.0 0.40            118            256 211 
 CVER HZ EP        748 35.29                             115    0.49 7  276 202 
 CVER HN ES        749  7.67                             115    1.08 7  276 202 
 CVER HZ I         749 16.77        28.8 0.64            116            276 202 
 URE  HZ EP        748 33.96                             114   -1.01 7  282 291 
 URE  HE ES        749  5.29                             114   -1.60 7  282 291 
 URE  HZ I         749 15.34        51.8 0.20            115            282 291 
 DRL03HZ EP        748 35.53                             113    0.27 7  285 353 
 DRL03HE ES        749  7.69                             113    0.28 7  285 353 
 GUY2CHZ EP        748 39.16                             112    1.26 7  303 234 
 GUY2CHE ES        749 13.37                             112    1.26 7  303 234 
 GUY2CHZ I         749 20.04        20.0 0.32                           303 234 
 VIL  EZ EP        748 37.23                             112   -0.65 7  307 191 
 VIL  EN ES        749 11.71                             112   -0.37 7  307 191 
 VIL  EZ I         749 17.44        33.7 0.32            113            307 191 
 DRL04HZ EP        748 39.23                             112    1.23 7  310 352 
 DRL04HN ES        749 15.60                             112    3.31 7  310 352 
 PTGC HZ EP     C  748 37.05                             111   -1.26 7  312 159 
 PTGC HE ES        749 10.43                             111   -2.41 7  312 159 
 PTGC HZ I         749 15.29        30.7 0.36            113            312 159 
 LL6C HZ EP        748 39.26                             111   -0.08 7  321 358 
 DRL02HZ EP        748 39.25                             111   -0.08 7  321 358 
 DRL02HE ES        749 13.73                             111   -0.93 7  321 358 
 DRL01HZ EP        748 40.20                             111    0.66 7  323 350 
 DRL01HN ES        749 16.60                             111    1.58 7  323 350 
 CBOC HZ EP        748 41.92                             110    0.83 7  335 251 
 CBOC HN ES        749 18.95                             110    1.15 7  335 251 
 CBOC HZ I         749 29.18         6.0 0.60            111            335 251 
 DBB  EZ EP        748 42.23                             110    0.74 7  339 274 
 DBB  HN ES        749 17.17                             110   -1.34 7  339 274 
 DBB  EZ I         749 19.15        10.4 0.28            111            339 274 
 ARGC HZ EP        748 43.98                             108    0.68 6  356 340 
 ARGC HN ES        749 22.57                             108    0.84 6  356 340 
 ARGC HZ I         749 29.34         9.2 0.50            110            356 340 
 SDV  BZ EP        748 43.53                             108   -0.30 6  358  51 
 SDV  B2 ES        749 21.24                             108   -1.43 6  358  51 
 SDV  BZ I         749 22.81         9.3 0.40            111            358  51 
 PRA  HZ EP        748 47.67                             106   -0.28 6  395 209 
 PRA  HN ES        749 29.36                             106   -0.63 6  395 209 
 PRA  HZ I         749 36.09        27.3 0.38            108            395 209 
 ORTC HZ EP        748 47.98                             106   -0.34 6  398 216 
 ORTC HN ES        749 31.79                             106    1.14 6  398 216 
 ORTC HZ I         749 37.76        15.1 0.40            108            398 216 
 SJC  HZ EP        748 48.14                             106   -1.11 6  406 327 
 SJC  HN ES        749 29.34                             106   -2.97 6  406 327 
 SJC  HZ I         749 33.68         8.0 0.28            107            406 327 
 PAL  HZ EP        748 49.65                             106    0.22 6  408 239 
 PAL  HE ES        749 32.59                             106   -0.04 6  408 239 
 PAL  HZ I         749 39.48         6.4 0.18            107            408 239 
 CRJC HZ EP        748 54.49                             103   -1.62 5  464   4 
 CRJC HE ES        749 41.74                             103   -2.79 5  464   4 
 CRJC HZ I         749 55.13        13.3 0.18            105            464   4 
 SMAR HZ EP        748 59.38                             102   -0.11 4  493 346 
 SMAR HE ES   1    749 48.42                             102   -2.12 3  493 346 
 MACC HZ EP   9    749 41.29                             102   38.09 0  524 189 
 MACC HE ES        750 34.04                             100   -1.19 4  524 189 
 FLO2 HZ EP        749 16.85                              99   -0.72 2  644 206 
                                                                                
