 2016  130 0514 25.9 L   6.803 -73.153142.8  RSN 10 0.3 2.0LRSN                1
 GAP=135        0.85       2.3     3.6  5.2 -0.8124E+00  0.6285E+01 -0.9143E+00E
 Epicentro: LOS SANTOS - SANTANDER                                             3
 ACTION:UPD 16-03-09 23:29 OP:cam  STATUS:               ID:20160130051425 L   I
 OLDACT:REG 16-01-30 11:51 OP:mh   STATUS:               ID:20160130050800     3
 2016-01-30-0507-59S.COL___223                                                 6
 STAT SP IPHASW D HRMM SECON CODA AMPLIT PERI AZIMU VELO AIN AR TRES W  DIS CAZ7
 BAR2 EZ EP        514 45.10                             170   -0.0610 23.5 188 
 BAR2 EZ ES        514 59.71                             170   -0.4910 23.5 188 
 BAR2 EZ I         515  1.19        31.4 0.20            171           23.5 188 
 PAM  EZ EP        514 47.95                             150    0.1510 77.6  40 
 PAM  EN ES        515  5.17                             150    0.2810 77.6  40 
 PAM  EZ I         515  7.65        12.9 0.48            153           77.6  40 
 RUS  HZ EP        514 49.14                             143   -0.2310  101 176 
 RUS  HN ES        515  8.04                             143    0.3510  101 176 
 RUS  HZ I         515  9.29         8.7 0.54            146            101 176 
 PTB  HZ EP   4    514 51.67                             131   -0.87 0  147 259 
 PTB  HN ES        515 12.92                             131   -0.42 9  147 259 
 PTB  HZ I         515 17.07        12.0 0.14            132            147 259 
 OCA  HZ EP        514 53.37                             129   -0.55 9  160 353 
 OCA  HN ES        515 15.88                             129    0.08 9  160 353 
 OCA  HZ I         515 20.18        22.9 0.32            130            160 353 
 ZAR  HZ EP        514 58.52                             122    0.47 9  203 292 
 ZAR  HN ES        515 23.41                             122    0.27 9  203 292 
 ZAR  HZ I         515 28.56        14.4 0.42            122            203 292 
 NOR  HZ EP        515  1.29                             118   -0.10 8  234 234 
 NOR  HN ES        515 29.13                             118    0.04 8  234 234 
 NOR  HZ I         515 34.07         6.2 0.18            119            234 234 
 SML  HZ EP        515  1.67                             117   -0.60 8  243 335 
 SML  HE ES        515 31.18                             117    0.52 8  243 335 
 SML  HZ I         515 35.02        16.5 0.26            118            243 335 
 CHI  HZ EP        515  3.63                             116    0.20 8  249 195 
 CHI  HN ES        515 33.00                             116    0.29 8  249 195 
 CHI  HZ I         515 35.05         5.9 0.34            118            249 195 
 GUY2CHZ EP   4    515 10.55                             112    1.25 0  301 235 
 GUY2CHE ES   4    515 46.18                             112    3.01 0  301 235 
 GUY2CHZ I         515 52.80         4.1 0.26                           301 235 
                                                                                
