 2012 1130 0132 56.6 L   6.806 -73.177142.9  RSN  5 0.4 1.8LRSN                1
 GAP=276        0.92       7.5     7.0  7.7  0.2098E+02  0.2614E+02  0.1767E+02E
 Epicentro: LOS SANTOS - SANTANDER                                             3
 ACTION:UPD 12-12-05 15:37 OP:}ep  STATUS:               ID:20121130013256 L   I
 2012-11-30-0130-00M.COL___236                                                 6
 STAT SP IPHASW D HRMM SECON CODA AMPLIT PERI AZIMU VELO AIN AR TRES W  DIS CAZ7
 BAR2 SZ ES        133 30.57                             170   -0.4210 23.7 181 
 RUS  HN ES        133 39.10                             143    0.5510  102 174 
 RUS  HN I         133 40.35         5.8 0.26                           102 174 
 PTB  HZ EP        133 22.94                             132   -0.15 9  145 258 
 PTB  HN ES        133 43.99                             132    0.28 9  145 258 
 PTB  HN I         133 49.08        15.1 0.26                           145 258 
 NOR  HZ EP        133 32.50                             118    0.55 8  232 234 
 NOR  HN ES        133 59.16                             118   -0.33 8  232 234 
 NOR  HN I         134  7.53         7.0 0.16                           232 234 
 CHI  HZ EP        133 33.89                             116   -0.28 8  248 194 
 CHI  HN ES        134  3.09                             116   -0.34 8  248 194 
 CHI  HN I         134  9.22         3.4 0.54                           248 194 
                                                                                
