 2013  730 0805 13.5 L   6.782 -73.156144.0  RSN  9 0.4 1.7LRSN                1
 GAP=136        0.91       3.4     5.4  7.2 -0.3110E+01  0.8844E+01 -0.4779E+00E
 Epicentro: LOS SANTOS - SANTANDER                                             3
 ACTION:UPD 13-08-12 10:41 OP:ep   STATUS:               ID:20130730080513 L   I
 OLDACT:REG 13-07-30 08:02 OP:carl STATUS:               ID:20130730075959     3
 2013-07-30-0759-59M.COL___267                                                 6
 STAT SP IPHASW D HRMM SECON CODA AMPLIT PERI AZIMU VELO AIN AR TRES W  DIS CAZ7
 BAR2 SZ EP   1    8 5 32.92                             171    0.03 7 21.2 188 
 BAR2 SZ ES   1    8 5 47.42                             171   -0.58 7 21.2 188 
 BAR2 SZ I         8 5 49.21        10.4 0.24            169           21.2 188 
 GIR2 SZ EP   1    8 5 33.20                             166    0.17 7 33.1 353 
 BRR  HN ES   1    8 5 51.68                             152    0.86 7 71.2 300 
 BRR  HN I         8 5 55.51        15.6 0.18            148           71.2 300 
 PAM  SZ EP   1    8 5 35.85                             150    0.17 7 79.6  39 
 PAM  SN ES        8 5 52.69                             150   -0.2710 79.6  39 
 RUS  HZ EP        8 5 36.83                             144   -0.1210 98.7 175 
 RUS  HN ES   1    8 5 55.33                             144    0.09 7 98.7 175 
 RUS  HZ I         8 5 56.45         1.7 0.44            146           98.7 175 
 PTB  HZ EP   1    8 5 39.89                             132   -0.31 7  146 260 
 PTB  HN ES   1    8 6  0.17                             132   -0.85 7  146 260 
 PTB  HN I         8 6  4.59         6.4 0.28            130            146 260 
 SPBC HZ EP   1    8 5 41.98                             129    0.32 7  161 219 
 SPBC HN ES   1    8 6  4.20                             129    0.58 7  161 219 
 SPBC HZ I         8 6  9.74         4.0 0.16            129            161 219 
 OCA  HN ES        8 6  4.38                             129    0.41 9  162 354 
 OCA  HN I         8 6  5.74        22.6 0.20            130            162 354 
 SML  HZ EP   1    8 5 50.26                             117    0.07 6  245 336 
 SML  HN ES   1    8 6 18.12                             117   -0.67 6  245 336 
 SML  HZ I         8 6 24.08         4.7 0.10            118            245 336 
                                                                                
