 2013 1030 0125 57.4 L   7.095 -73.361119.3  RSN  7 0.5 1.4LRSN                1
 GAP= 91        1.10       4.5     5.0  8.0 -0.1696E+01  0.4358E+01 -0.4003E+01E
 Epicentro: LEBRIJA - SANTANDER                                                3
 ACTION:UPD 13-11-25 09:24 OP:ep   STATUS:               ID:20131030012557 L   I
 OLDACT:REG 13-10-30 06:29 OP:jn   STATUS:               ID:20131030012000     3
 2013-10-30-0120-00M.COL___273                                                 6
 STAT SP IPHASW D HRMM SECON CODA AMPLIT PERI AZIMU VELO AIN AR TRES W  DIS CAZ7
 BRR  HZ EP        126 14.34                             161    0.3310 38.8 272 
 BRR  HN ES        126 27.74                             161    0.7810 38.8 272 
 BRR  HZ I         126 28.85         9.9 0.14            152           38.8 272 
 BAR2 SZ EP        126 15.51                             152    0.1610 59.0 160 
 BAR2 SZ ES        126 29.16                             152   -0.1810 59.0 160 
 BAR2 SZ I         126 30.64        30.7 0.24            148           59.0 160 
 PAM  SZ EP        126 17.05                             145    0.1410 77.9  70 
 PAM  SN ES   1    126 31.18                             145   -0.95 7 77.9  70 
 PAM  SZ I         126 35.60         2.8 0.36            143           77.9  70 
 OCA  HN ES   1    126 38.31                             130   -0.19 7  127   2 
 OCA  HZ I         126 40.24         8.9 0.22            124            127   2 
 RUS  HZ EP   1    126 21.98                             128    0.10 7  136 167 
 RUS  HE ES   1    126 41.39                             128    0.42 7  136 167 
 RUS  HZ I         126 41.87         1.0 0.20            122            136 167 
 PTB  HZ EP        126 20.80                             128   -0.38 9  136 243 
 PTB  HN ES        126 38.95                             128   -0.77 9  136 243 
 PTB  HZ I         126 42.39         2.9 0.14            120            136 243 
 SML  HZ EP   1    126 28.60                             116    0.32 6  204 338 
 SML  HE ES   2    126 52.60                             116    0.23 4  204 338 
                                                                                
