 2017 1130 0217 10.7 L   6.792 -73.257132.6  RSN  4 0.2 1.1LRSN                1
 GAP=226        0.64       5.8     4.4  5.7  0.1634E+02  0.2883E+01 -0.8470E+01E
 Epicentro: ZAPATOCA - SANTANDER                                               3
 ACTION:UPD 17-12-12 20:02 OP:rebc STATUS:               ID:20171130021710 L   I
 OLDACT:REG 17-11-30 12:26 OP:dhb  STATUS:               ID:20171130020738     3
 2017-11-30-0208-00M.COL___495                                                 6
 STAT SP IPHASW D HRMM SECON CODA AMPLIT PERI AZIMU VELO AIN AR TRES W  DIS CAZ7
 BAR2 EZ EP        217 28.47                             169   -0.2810 23.6 160 
 BAR2 EZ ES        217 42.82                             169   -0.0110 23.6 160 
 BAR2 EZ I         217 44.09         5.3 0.34            165           23.6 160 
 RUS  HZ EP        217 33.07                             141   -0.1610  101 169 
 RUS  HN ES        217 51.16                             141    0.3510  101 169 
 RUS  HZ I         217 52.29         1.7 0.58            141            101 169 
 PTB  HZ EP        217 35.41                             131   -0.07 9  136 258 
 PTB  HN ES        217 54.57                             131   -0.24 9  136 258 
 PTB  HZ I         218  2.93         1.0 0.42            129            136 258 
 ZAR  HZ EP        217 41.54                             121    0.38 9  193 294 
 ZAR  HE ES        218  5.06                             121    0.14 9  193 294 
 ZAR  HZ I         218  9.84         2.1 0.28            121            193 294 
                                                                                
