 2015  730 0732  8.2 L   6.795 -73.093147.9  RSN  5 0.5 1.6LRSN                1
 GAP=188        1.35       6.5    10.5 11.2  0.3109E+02 -0.1767E+02 -0.2287E+02E
 Epicentro: LOS SANTOS - SANTANDER                                             3
 ACTION:UPD 15-09-08 21:51 OP:cam  STATUS:               ID:20150730073208 L   I
 OLDACT:REG 15-07-30 12:11 OP:stll STATUS:               ID:20150730072743     3
 2015-07-30-0727-43M.COL___307                                                 6
 STAT SP IPHASW D HRMM SECON CODA AMPLIT PERI AZIMU VELO AIN AR TRES W  DIS CAZ7
 BAR2 EZ EP        732 28.77                             170    0.6610 24.5 204 
 BAR2 EZ I         732 28.89         5.9 0.40            168           24.5 204 
 BAR2 EZ ES        732 43.42                             170   -0.2210 24.5 204 
 BRR  HZ EP        732 30.55                             151    0.6610 76.6 297 
 BRR  HN ES        732 46.70                             151   -0.1110 76.6 297 
 BRR  HZ I         732 48.66         7.8 0.38            148           76.6 297 
 RUS  HZ EP        732 31.02                             144   -1.0910 99.8 179 
 RUS  HN ES        732 51.13                             144    0.3710 99.8 179 
 RUS  HZ I         732 52.59         2.9 0.26            145           99.8 179 
 OCA  HZ EP        732 36.89                             130    0.09 9  162 351 
 OCA  HN ES        732 58.85                             130   -0.26 9  162 351 
 OCA  HZ I         733  3.12         9.2 0.26            129            162 351 
 ZAR  HE ES        733  7.05                             122   -0.18 8  210 292 
 ZAR  HZ I         733 13.53         4.7 0.48            121            210 292 
                                                                                
