 2010  930 0842  1.2 L   6.759 -73.114148.1  RSN  4 0.1 1.5LRSN                1
 GAP=187        0.40       8.5    10.6  8.5  0.5149E+02 -0.6261E+02 -0.2937E+02E
 Epicentro: LOS SANTOS - SANTANDER                                             3
 ACTION:UP  11-02-18 11:06 OP:tino STATUS:               ID:20100930084201 L   I
 2010-09-30-0840-57S.COL___125                                                 6
 STAT SP IPHASW D HRMM SECON CODA AMPLIT PERI AZIMU VELO SNR AR TRES W  DIS CAZ7
 BAR2 SZ EP        842 20.92                             172    -0.110   20 203 
 BAR2 SZ ES   2    842 36.58                             172     0.1 5   20 203 
 BAR2 SZ I         842 37.23         6.5 0.22                            20 203 
 BTL  SZ EP   1    842 21.35                             170     0.2 7   24 316 
 BRR  HZ EP   2    842 22.95                             151     0.1 5   77 300 
 BRR  HZ I         842 28.21        11.8 0.23                            77 300 
 BRR  HE ES   1    842 39.75                             151    -0.1 7   77 300 
 GRA  SZ EP   2    842 26.83                             137    -0.1 5  129  15 
 GRA  SZ I         842 48.82         2.9 0.29                           129  15 
                                                                                
