 2016 1230 0812 43.6 L   7.478 -73.254127.5  RSN  8 0.2 1.4LRSN                1
 GAP=193        0.48       2.6     2.0  3.4  0.1109E+00  0.2745E+01 -0.1067E+00E
 Epicentro: EL PLAYON - SANTANDER                                              3
 ACTION:UPD 17-01-11 20:20 OP:rebc STATUS:               ID:20161230081243 L   I
 OLDACT:UP  16-12-30 18:21 OP:edw  STATUS:               ID:20161230080744d    3
 OLDACT:UP  16-12-30 18:19 OP:edw  STATUS:               ID:20161230080744d    3
 OLDACT:DUP 16-12-30 18:16 OP:edw  STATUS:               ID:20161230080744d    3
 OLDACT:UP  16-12-30 18:14 OP:edw  STATUS:               ID:20161230080743d    3
 OLDACT:DUP 16-12-30 18:11 OP:edw  STATUS:               ID:20161230080743d    3
 OLDACT:UP  16-12-30 18:10 OP:edw  STATUS:               ID:20161230080742     3
 OLDACT:UP  16-12-30 18:09 OP:edw  STATUS:               ID:20161230080742     3
 OLDACT:REG 16-12-30 13:05 OP:edw  STATUS:               ID:20161230080742     3
 2016-12-30-0808-00M.COL___371                                                 6
 STAT SP IPHASW D HRMM SECON CODA AMPLIT PERI AZIMU VELO AIN AR TRES W  DIS CAZ7
 PAM  HZ EP        813  3.28                             152    0.2910 63.1 104 
 PAM  EN ES        813 18.06                             152   -0.0810 63.1 104 
 PAM  HZ I         813 20.56         6.7 0.44            154           63.1 104 
 BRR  HZ IP     C  813  2.39                             151   -0.0110 65.1 231 
 BRR  HN ES        813 17.09                             151    0.0010 65.1 231 
 BRR  HZ I         813 18.94         4.1 0.10            152           65.1 231 
 BAR2 EZ EP        813  4.71                             140   -0.3210 98.2 175 
 BAR2 EZ ES        813 21.73                             140   -0.0410 98.2 175 
 BAR2 EZ I         813 24.79         3.1 0.15            141           98.2 175 
 PTB  HZ EP        813 10.80                             123   -0.37 9  169 232 
 PTB  HE ES        813 32.76                             123    0.05 9  169 232 
 RUS  HZ EP   4    813 11.61                             122   -0.98 0  176 174 
 RUS  HN ES        813 35.42                             122    0.19 9  176 174 
 RUS  HZ I         813 39.05         1.4 0.18            124            176 174 
 ZAR  HZ EP        813 12.14                             122    0.11 9  177 271 
 ZAR  HN ES        813 34.33                             122    0.09 9  177 271 
 ZAR  HZ I         813 36.99         4.9 0.09            124            177 271 
 URE  HZ EP   4    813 22.94                             112    2.61 0  253 277 
 URE  HN ES   4    813 47.19                             112   -1.82 0  253 277 
 NOR  HN ES   2    813 54.14                             110    0.25 4  277 220 
 GUY2CHZ EP        813 31.24                             106    0.15 7  342 223 
 GUY2CHE ES        814  8.16                             106    0.00 7  342 223 
 GUY2CHZ I         814 16.77         1.7 0.48                           342 223 
                                                                                
