 2010  630 0034 10.9 L   6.754 -73.108148.0  RSN  5 0.3 1.6LRSN                1
 GAP=160        0.51       4.4     7.4  7.2  0.3020E+01 -0.1907E+02 -0.2961E+01E
 Epicentro: LOS SANTOS - SANTANDER                                             3
 ACTION:UP  10-08-24 10:14 OP:vdl  STATUS:               ID:20100630003410 L   I
 2010-06-30-0030-21S.COL___118                                                 6
 STAT SP IPHASW D HRMM SECON CODA AMPLIT PERI AZIMU VELO SNR AR TRES W  DIS CAZ7
 BAR2 SZ EP        034 30.69                             172    -0.110   20 205 
 BAR2 SZ ES   2    034 45.62                             172    -0.6 5   20 205 
 BRR  HZ EP   1    034 32.47                             151    -0.2 7   77 300 
 BRR  HZ I         034 32.72        14.0 0.16                            77 300 
 BRR  HN ES   1    034 49.83                             151     0.2 7   77 300 
 RUS  HZ EP   2    034 34.90                             146     0.4 5   95 178 
 RUS  HN ES   2    034 53.19                             146     0.3 5   95 178 
 RUS  HZ I         034 54.43         4.1 0.27                            95 178 
 BRI  SZ EP   2    034 35.33                             141     0.1 5  112  18 
 BRI  SZ ES   2    034 54.57                             141     0.3 5  112  18 
 GRA  SZ EP   2    034 36.48                             137    -0.2 5  129  15 
                                                                                
