 2014  430 0311 11.1 L   6.798 -73.165138.7  RSN 17 0.4 2.2LRSN                1
 GAP=108        0.66       2.5     2.2  4.8 -0.9412E+00  0.3355E+01  0.2025E+01E
 Epicentro: LOS SANTOS - SANTANDER                                             3
 OLDACT:REG 14-04-30 12:33 OP:fm   STATUS:               ID:20140430031000     3
 ACTION:UPD 14-05-13 20:49 OP:nd   STATUS:               ID:20140430031111 L   I
 OLDACT:UP  14-04-30 16:24 OP:fm   STATUS:               ID:20140430031000     3
 2014-04-30-0310-00M.COL___270                                                 6
 STAT SP IPHASW D HRMM SECON CODA AMPLIT PERI AZIMU VELO AIN AR TRES W  DIS CAZ7
 PAM  SZ EP        311 32.83                             149    0.1810 78.9  41 
 PAM  SN ES        311 49.32                             149   -0.1510 78.9  41 
 PAM  SZ I         311 51.90        19.1 0.54            149           78.9  41 
 RUS  HZ EP        311 34.30                             142    0.1510  101 175 
 RUS  HN ES        311 52.24                             142    0.1010  101 175 
 RUS  SZ I         311 53.82        26.9 0.32            144            101 175 
 PTB  HZ EP        311 36.84                             131   -0.45 9  146 259 
 PTB  HN ES        311 57.34                             131   -0.38 9  146 259 
 TAM  HZ EP   1    311 38.27                             128   -0.14 7  157 105 
 TAM  HN ES   1    311 59.61                             128   -0.11 7  157 105 
 SPBC HZ EP   1    311 39.24                             128    0.33 7  162 218 
 SPBC HN ES        312  0.64                             128    0.03 9  162 218 
 SPBC SZ I         312  3.37        26.0 0.26            126            162 218 
 ZAR  HZ EP   2    311 43.34                             121    0.46 4  202 292 
 ZAR  HE ES        312  8.26                             121    0.58 9  202 292 
 ZAR  SZ I         312 14.06        19.6 0.32            117            202 292 
 NOR  HZ EP   1    311 45.47                             117   -0.75 6  233 234 
 NOR  HN ES   1    312 14.04                             117    0.43 6  233 234 
 NOR  SZ I         312 22.41         9.9 0.16            115            233 234 
 SML  HZ EP   4    311 43.64                             116   -3.61 0  243 336 
 SML  HN ES   4    312 14.30                             116   -1.15 0  243 336 
 SML  SZ I         312 26.88        19.1 0.08            113            243 336 
 CHI  HZ EP   4    311 46.56                             116   -1.76 0  248 195 
 CHI  HN ES   1    312 17.48                             116    0.11 6  248 195 
 CHI  SZ I         312 24.57         6.5 0.60            115            248 195 
 ROSC BZ EP   1    311 48.68                             115   -0.01 6  252 211 
 ROSC BN ES   1    312 18.08                             115    0.06 6  252 211 
 ROSC SZ I         312 26.33        13.7 0.45            114            252 211 
 HEL  HZ EP   1    311 50.22                             113   -0.49 6  270 256 
 HEL  HE ES   4    312 20.20                             113   -1.42 0  270 256 
 HEL  SZ I         312 29.90         5.7 0.50            111            270 256 
 URE  HZ EP   4    311 48.32                             112   -3.29 0  282 292 
 URE  HE ES   4    312 20.65                             112   -2.56 0  282 292 
 URE  SZ I         312 35.27         8.7 0.16            110            282 292 
 GUY2CHZ EP   1    311 54.85                             111    0.68 5  299 235 
 GUY2CHN ES   1    312 27.95                             111    0.18 5  299 235 
 GUY2CSZ I         312 39.53         7.0 0.96                           299 235 
 CBOC HZ EP   4    311 58.74                             109    1.26 0  332 252 
 CBOC HN ES   1    312 33.04                             109   -0.62 5  332 252 
 CBOC SZ I         312 44.32         3.9 1.02            107            332 252 
 SDV  BN ES   4    312 34.87                             107   -5.19 0  362  50 
 PRA  HZ EP   1    312  4.19                             105   -0.04 4  391 209 
 PRA  HN ES   1    312 45.81                             105    0.13 4  391 209 
 PRA  SZ I         312 50.67         9.3 0.90            104            391 209 
 ORTC HZ EP   1    312  4.95                             105    0.34 4  394 216 
 ORTC HN ES   1    312 45.92                             105   -0.43 4  394 216 
 ORTC SZ I         312 52.73         5.0 0.78            104            394 216 
 SJC  HZ EP   4    312  4.21                             105   -2.10 0  408 327 
 SJC  HN ES   4    312 44.32                             105   -5.05 0  408 327 
 SJC  SZ I         313  0.80         6.2 2.46            103            408 327 
