 2013  130 0402 50.3 L   6.877 -73.090149.0  RSN  4 0.1 1.5LRSN                1
 GAP=139        0.32       1.7     2.6  2.9 -0.3088E+00  0.4744E+00  0.2140E+01E
 Epicentro: LOS SANTOS - SANTANDER                                             3
 ACTION:UPD 13-02-15 09:17 OP:ep   STATUS:               ID:20130130040250 L   I
 2013-01-30-0400-00M.COL___241                                                 6
 STAT SP IPHASW D HRMM SECON CODA AMPLIT PERI AZIMU VELO AIN AR TRES W  DIS CAZ7
 PAM  SZ EP   1    4 3 12.27                             155   -0.02 7 66.9  40 
 PAM  SE ES        4 3 29.40                             155   -0.0410 66.9  40 
 PAM  SZ I         4 3 31.84         6.7 0.41            158           66.9  40 
 BRR  HZ EP        4 3 12.07                             152    0.1410 73.3 290 
 BRR  HN ES        4 3 28.71                             152   -0.0810 73.3 290 
 BRR  HN I         4 3 31.29         8.1 0.20            153           73.3 290 
 RUS  HZ EP        4 3 14.93                             142   -0.0610  109 180 
 RUS  HN ES        4 3 34.34                             142    0.1010  109 180 
 CHI  HZ EP        4 3 29.24                             117   -0.03 8  259 196 
 CHI  HN ES   1    4 3 59.55                             117   -0.10 6  259 196 
 CHI  HZ I         4 4  4.44         1.0 0.58            118            259 196 
                                                                                
