 2014 1030 0647 17.0 L   6.058 -73.699115.3  RSN 10 0.5 1.6LRSN                1
 GAP= 76        1.15       3.0     3.5  6.9 -0.3051E+01  0.4177E+01 -0.8811E+00E
 Epicentro: VELEZ - SANTANDER                                                  3
 ACTION:UPD 14-11-29 23:58 OP:nd   STATUS:               ID:20141030063737 L   I
 OLDACT:UPD 14-11-02 11:03 OP:FJMB STATUS:               ID:20141030063737 L   3
 2014-10-30-0637-37M.COL___271                                                 6
 STAT SP IPHASW D HRMM SECON CODA AMPLIT PERI AZIMU VELO AIN AR TRES W  DIS CAZ7
 SPBC HZ EP        647 34.76                             150    0.3810 61.0 223 
 SPBC HE ES        647 48.24                             150    0.2710 61.0 223 
 SPBC HZ I         647 49.78        12.4 0.38            150           61.0 223 
 RUS  HZ EP        647 35.44                             147   -0.1310 70.6 105 
 RUS  HN ES        647 50.17                             147    0.0910 70.6 105 
 RUS  HZ I         647 50.99         6.0 0.26            149           70.6 105 
 BAR2 SZ EP        647 36.23                             142    0.2010 82.2  44 
 BAR2 SZ ES   1    647 51.58                             142    0.66 7 82.2  44 
 BAR2 SZ I         647 51.90        12.8 0.24            144           82.2  44 
 PTB  HZ EP        647 36.70                             136   -0.3910 99.3 302 
 PTB  HN ES        647 52.37                             136   -0.4310 99.3 302 
 PTB  HZ I         647 55.13         7.5 0.24            136           99.3 302 
 BRR  HZ EP        647 38.90                             131    0.3610  116 359 
 BRR  HN ES        647 55.71                             131    0.3310  116 359 
 BRR  HZ I         647 58.98         8.7 0.28            132            116 359 
 CHI  HZ EP        647 42.55                             122   -0.64 9  158 181 
 CHI  HN ES        648  3.12                             122   -0.54 9  158 181 
 CHI  HZ I         648  8.02         2.7 0.40            123            158 181 
 PAM  SZ EP        647 45.94                             119    0.36 9  180  38 
 PAM  SN ES        648  7.18                             119   -0.73 9  180  38 
 PAM  SZ I         648 11.24         3.9 0.18            120            180  38 
 HEL  HZ EP        647 48.71                             115    0.74 9  203 274 
 HEL  HN ES        648 11.70                             115   -0.47 9  203 274 
 HEL  HZ I         648 17.42         3.1 0.48            116            203 274 
 TOL  SZ EP        647 53.14                             111    0.78 8  243 228 
 TOL  SN ES        648 19.96                             111   -0.02 8  243 228 
 TOL  SZ I         648 25.58         4.4 0.42            111            243 228 
 OCA  HN ES        648 19.43                             110   -0.62 8  245  10 
 OCA  HZ I         648 21.86         3.3 0.28            111            245  10 
                                                                                
