 2017  530 0050 13.7 L   6.789 -73.163150.0  RSN 16 0.5 2.0LRSN                1
 GAP=170        0.90       3.5     4.1  6.0  0.4887E+01 -0.7125E+01 -0.2322E+01E
 Epicentro: LOS SANTOS - SANTANDER                                             3
 ACTION:UPD 17-06-16 13:40 OP:jn   STATUS:               ID:20170530005013 L   I
 OLDACT:UP  17-05-30 12:52 OP:and  STATUS:               ID:20170530004730     3
 OLDACT:UP  17-05-30 12:51 OP:and  STATUS:               ID:20170530004730     3
 OLDACT:UP  17-05-30 12:51 OP:and  STATUS:               ID:20170530004730     3
 OLDACT:UP  17-05-30 12:50 OP:and  STATUS:               ID:20170530004730     3
 OLDACT:UP  17-05-30 12:49 OP:and  STATUS:               ID:20170530004730     3
 OLDACT:UP  17-05-30 12:48 OP:and  STATUS:               ID:20170530004730     3
 OLDACT:UP  17-05-30 12:48 OP:and  STATUS:               ID:20170530004730     3
 OLDACT:UP  17-05-30 12:47 OP:and  STATUS:               ID:20170530004730     3
 OLDACT:UP  17-05-30 12:47 OP:and  STATUS:               ID:20170530004730     3
 OLDACT:UP  17-05-30 12:47 OP:and  STATUS:               ID:20170530004730     3
 OLDACT:UP  17-05-30 12:45 OP:and  STATUS:               ID:20170530004730     3
 OLDACT:UP  17-05-30 12:45 OP:and  STATUS:               ID:20170530004730     3
 OLDACT:UP  17-05-30 12:44 OP:and  STATUS:               ID:20170530004730     3
 OLDACT:UP  17-05-30 12:44 OP:and  STATUS:               ID:20170530004730     3
 OLDACT:REG 17-05-30 12:12 OP:and  STATUS:               ID:20170530004730     3
 2017-05-30-0048-00M.COL___347                                                 6
 STAT SP IPHASW D HRMM SECON CODA AMPLIT PERI AZIMU VELO AIN AR TRES W  DIS CAZ7
 BRR  HZ IP     D  050 35.57                             154    0.2810 70.1 300 
 BRR  HN ES        050 52.69                             154    0.5910 70.1 300 
 BRR  HZ I         050 56.82        18.5 0.47            150           70.1 300 
 RUS  HZ EP        050 37.71                             145   -0.1210 99.5 175 
 RUS  HN ES        050 56.29                             145   -0.3310 99.5 175 
 RUS  HZ I         050 57.44        13.5 0.32            143           99.5 175 
 PTB  HZ EP        050 40.47                             134   -0.39 9  146 259 
 PTB  HN ES        051  1.40                             134   -0.62 9  146 259 
 PTB  HZ I         051  7.28         9.9 0.48            130            146 259 
 SPBC HZ EP        050 42.84                             131    0.48 9  161 219 
 SPBC HN ES        051  4.91                             131    0.22 9  161 219 
 SPBC HZ I         051  9.07        11.9 0.16            128            161 219 
 YPLC HZ IP     C  050 44.24                             128    0.42 9  177 151 
 YPLC HE ES   3    051  5.98                             128   -1.31 2  177 151 
 YPLC HZ I         051 10.97         8.6 0.28            128            177 151 
 ZAR  HZ EP        050 46.21                             124   -0.12 9  203 293 
 ZAR  HN ES        051 11.52                             124   -0.23 9  203 293 
 ZAR  HZ I         051 18.41        14.1 0.26            122            203 293 
 NOR  HZ EP   2    050 50.27                             120    0.80 4  232 234 
 NOR  HN ES   1    051 17.31                             120   -0.04 6  232 234 
 NOR  HZ I         051 23.73         4.8 0.24            118            232 234 
 CHI  HZ EP   9    050 52.07                             118    0.58 0  247 195 
 CHI  HN ES        051 21.52                             118    0.00 8  247 195 
 CHI  HZ I         051 24.87         5.2 0.56            117            247 195 
 ROSC BZ EP   9    050 53.77                             118    1.90 0  251 211 
 ROSC BN ES        051 23.76                             117    0.25 8  251 211 
 ROSC BZ I         051 28.27         9.3 0.50            116            251 211 
 HEL  HZ EP   9    050 55.52                             116    1.59 0  270 256 
 HEL  HN ES        051 27.48                             115    0.61 8  270 256 
 HEL  HZ I         051 32.87         4.9 0.26            114            270 256 
 VIL  EE ES        051 31.45                             113    0.40 7  302 191 
 VIL  EZ I         051 34.54         8.4 0.40            112            302 191 
 PTGC HZ EP        050 56.97                             113   -0.76 7  308 158 
 PTGC HN ES   3    051 30.71                             113   -1.34 2  308 158 
 CBOC HN ES   1    051 36.66                             111   -0.45 5  331 252 
 CBOC HZ I         051 43.89         1.3 0.22            110            331 252 
 ARGC HN ES   2    051 42.82                             109    0.29 3  360 341 
 ORTC HN ES   3    051 51.53                             107    2.00 1  393 216 
 ORTC HZ I         051 55.31         2.4 0.25            106            393 216 
 SJC  HZ EP   9    051  7.99                             107   -1.45 0  409 327 
 SJC  HN ES   1    051 50.78                             106   -0.66 4  409 327 
 SJC  HZ I         051 56.91         2.6 0.42            106            409 327 
                                                                                
