 2017 1030 0356 25.5 L   5.833 -74.005 95.6  RSN  7 0.5 1.1LRSN                1
 GAP=114        1.20       4.6     3.6  7.9 -0.7457E+01  0.1934E+01 -0.5368E+01E
 Epicentro: FLORIAN - SANTANDER                                                3
 ACTION:UPD 17-11-07 19:39 OP:rebc STATUS:               ID:20171030035625 L   I
 OLDACT:UP  17-10-30 17:56 OP:nlst STATUS:               ID:20171030035625 L   3
 OLDACT:DUP 17-10-30 14:29 OP:dhb  STATUS:               ID:20171030034738d    3
 OLDACT:REG 17-10-30 12:31 OP:dhb  STATUS:               ID:20171030034737     3
 2017-10-30-0348-00M.COL___423                                                 6
 STAT SP IPHASW D HRMM SECON CODA AMPLIT PERI AZIMU VELO AIN AR TRES W  DIS CAZ7
 SPBC HZ EP        356 38.92                             167    0.0410 21.3 200 
 SPBC HN ES        356 49.62                             167    0.3210 21.3 200 
 SPBC HZ I         356 51.50         5.8 0.12            170           21.3 200 
 PTB  HZ EP        356 42.74                             133   -0.6610 92.7 327 
 PTB  HN ES        356 56.88                             133   -0.4710 92.7 327 
 PTB  HZ I         356 58.52         1.5 0.38            134           92.7 327 
 NOR  HZ EP        356 43.56                             130   -0.5910  100 253 
 NOR  HE ES        356 58.57                             130   -0.1110  100 253 
 NOR  HZ I         356 59.74         3.1 0.12            133            100 253 
 RUS  HZ EP        356 45.05                             130    0.1210  102  86 
 RUS  HN ES        356 59.42                             130   -0.6510  102  86 
 BAR2 EZ EP        356 46.93                             124    0.2110  124  47 
 BAR2 EZ ES        357  3.69                             124    0.4410  124  47 
 BAR2 EZ I         357  7.36         4.2 0.28            125            124  47 
 BRR  HZ EP        356 48.77                             119    0.18 9  145  13 
 BRR  HE ES        357  7.15                             119    0.57 9  145  13 
 BRR  HZ I         357  9.29         2.4 0.34            120            145  13 
 GUY2CHZ EP        356 51.46                             116    0.01 9  165 246 
 GUY2CHN ES        357 12.56                             116    0.90 9  165 246 
 GUY2CHZ I         357 18.12         1.0 0.30                           165 246 
                                                                                
