 2016  630 0343  2.1 L   7.558 -73.137124.1  RSN  6 0.4 1.7LRSN                1
 GAP=268        0.81       5.6     6.4  6.5  0.2001E+02  0.5581E+01 -0.5768E+01E
 Epicentro: EL PLAYON - SANTANDER                                              3
 ACTION:UPD 16-07-21 22:24 OP:rebc STATUS:               ID:20160630034302 L   I
 OLDACT:UP  16-06-30 14:00 OP:edw  STATUS:               ID:20160630033742     3
 OLDACT:REG 16-06-30 12:55 OP:edw  STATUS:               ID:20160630033742     3
 2016-06-30-0337-42M.COL___346                                                 6
 STAT SP IPHASW D HRMM SECON CODA AMPLIT PERI AZIMU VELO AIN AR TRES W  DIS CAZ7
 BRR  HZ EP        343 21.93                             145    0.2910 80.7 232 
 BRR  HN ES        343 37.18                             145    0.3410 80.7 232 
 BRR  HZ I         343 39.12         9.3 0.22                          80.7 232 
 BAR2 EZ ES        343 40.68                             137   -0.3710  107 183 
 BAR2 EZ I         343 41.18         8.1 0.16                           107 183 
 ZAR  HZ EP        343 31.71                             119   -0.07 9  190 268 
 ZAR  HN ES        343 54.98                             119    0.09 9  190 268 
 ZAR  HZ I         343 56.47         6.5 0.28                           190 268 
 SPBC HZ EP        343 36.68                             114   -0.09 8  235 206 
 SPBC HN ES        344  3.40                             114   -0.37 8  235 206 
 SPBC HZ I         344  5.20         5.2 0.32                           235 206 
 URE  HZ EP        343 40.19                             111    0.07 8  265 275 
 URE  HN ES        344  9.02                             111   -0.71 8  265 275 
 URE  HZ I         344 11.47         3.1 0.18                           265 275 
 GUY2CHZ EP        343 51.66                             104    0.29 6  357 224 
 GUY2CHE ES        344 30.44                             104    0.68 6  357 224 
 GUY2CHZ I         344 41.27         1.8 0.64                           357 224 
                                                                                
