 2016 1030 0857 47.4 L   6.783 -73.129149.7  RSN  6 0.3 1.6LRSN                1
 GAP=139        0.74       3.3     5.1  5.0 -0.5685E+01  0.8753E+00  0.4565E+01E
 Epicentro: LOS SANTOS - SANTANDER                                             3
 ACTION:UPD 16-11-09 19:24 OP:rebc STATUS:               ID:20161030085747 L   I
 OLDACT:REG 16-10-30 15:03 OP:cog  STATUS:               ID:20161030084746     3
 2016-10-30-0848-00M.COL___315                                                 6
 STAT SP IPHASW D HRMM SECON CODA AMPLIT PERI AZIMU VELO AIN AR TRES W  DIS CAZ7
 BAR2 EZ EP        858  7.19                             171   -0.2510 21.8 196 
 BAR2 EZ ES        858 22.66                             171   -0.4310 21.8 196 
 BAR2 EZ I         858 23.78        10.1 0.16            171           21.8 196 
 BRR  HZ EP        858  9.07                             152   -0.0110 73.7 299 
 BRR  HN ES        858 26.12                             152    0.1110 73.7 299 
 PAM  EZ EP        858  9.96                             151   -0.0610 77.8  38 
 PAM  EN ES        858 27.85                             151    0.1610 77.8  38 
 PAM  EZ I         858 29.28        11.0 0.58            152           77.8  38 
 RUS  HZ EP        858 11.16                             145   -0.2010 98.5 177 
 RUS  HE ES        858 30.62                             145    0.5410 98.5 177 
 RUS  HZ I         858 30.88         3.4 0.26            146           98.5 177 
 SPBC HZ EP        858 16.44                             130    0.30 9  163 220 
 SPBC HE ES        858 38.63                             130    0.06 9  163 220 
 SPBC HZ I         858 39.89         5.9 0.16            131            163 220 
 CHI  HZ EP        858 25.35                             118    0.21 8  247 196 
 CHI  HN ES        858 54.13                             118   -0.46 8  247 196 
                                                                                
