 2012  830 0214 40.5 L   6.762 -73.161144.3  RSN  7 0.4 1.8LRSN                1
 GAP=136        0.76       5.9     5.9  6.5  0.1576E+00  0.3539E+01 -0.5660E+01E
 Epicentro: LOS SANTOS - SANTANDER                                             3
 ACTION:UPD 12-09-10 11:59 OP:ep   STATUS:               ID:20120830021440 L   I
 2012-08-30-0210-00M.COL___218                                                 6
 STAT SP IPHASW D HRMM SECON CODA AMPLIT PERI AZIMU VELO AIN AR TRES W  DIS CAZ7
 BAR2 SZ EP        215  0.01                             172    0.1710 18.9 187 
 BAR2 SZ ES   1    215 14.45                             172   -0.50 7 18.9 187 
 BAR2 SZ I         215 16.32        13.0 0.18                          18.9 187 
 GIR2 SZ EP        214 59.90                             166   -0.1810 35.2 354 
 GIR2 SZ ES   1    215 15.02                             166   -0.36 7 35.2 354 
 BRR  HZ EP        215  1.70                             152    0.2010 71.8 302 
 BRR  HZ I         215  7.07         8.7 0.12                          71.8 302 
 BRR  HN ES   1    215 18.66                             152    0.76 7 71.8 302 
 PAM  SZ EP        215  2.78                             149   -0.0210 81.7  39 
 PAM  SZ I         215  3.05        23.6 0.20                          81.7  39 
 RUS  HN ES   1    215 22.32                             145    0.34 7 96.5 175 
 RUS  HZ I         215 23.79         7.7 0.34                          96.5 175 
 PTB  HZ EP        215  6.95                             132   -0.15 9  145 260 
 PTB  HN ES   2    215 27.13                             132   -0.74 5  145 260 
 ZAR  HN ES   3    215 37.93                             122   -0.14 2  204 293 
                                                                                
