 2017  130 0918 25.1 L   6.813 -73.176146.0  RSN 18 0.4 2.3LRSN                1
 GAP= 63        0.88       3.0     2.8  4.7  0.4935E+00  0.2880E+01 -0.5870E+00E
 Epicentro: ZAPATOCA - SANTANDER                                               3
 ACTION:UPD 17-05-22 16:04 OP:jn   STATUS:               ID:20170130091825 L   I
 OLDACT:UP  17-01-30 18:02 OP:and  STATUS:               ID:20170130091720     3
 OLDACT:UP  17-01-30 18:00 OP:and  STATUS:               ID:20170130091720     3
 OLDACT:UP  17-01-30 18:00 OP:and  STATUS:               ID:20170130091720     3
 OLDACT:UP  17-01-30 17:59 OP:and  STATUS:               ID:20170130091720     3
 OLDACT:UP  17-01-30 17:57 OP:and  STATUS:               ID:20170130091720     3
 OLDACT:UP  17-01-30 17:56 OP:and  STATUS:               ID:20170130091720     3
 OLDACT:UP  17-01-30 17:55 OP:and  STATUS:               ID:20170130091720     3
 OLDACT:UP  17-01-30 17:55 OP:and  STATUS:               ID:20170130091720     3
 OLDACT:UP  17-01-30 17:55 OP:and  STATUS:               ID:20170130091720     3
 OLDACT:UP  17-01-30 17:51 OP:and  STATUS:               ID:20170130091720     3
 OLDACT:UP  17-01-30 17:50 OP:and  STATUS:               ID:20170130091720     3
 OLDACT:UP  17-01-30 17:47 OP:and  STATUS:               ID:20170130091720     3
 OLDACT:UP  17-01-30 17:47 OP:and  STATUS:               ID:20170130091720     3
 OLDACT:REG 17-01-30 14:34 OP:ar   STATUS:               ID:20170130091720     3
 2017-01-30-0918-00M.COL___318                                                 6
 STAT SP IPHASW D HRMM SECON CODA AMPLIT PERI AZIMU VELO AIN AR TRES W  DIS CAZ7
 BAR2 EZ IP     D  918 44.84                             170    0.0810 24.4 182 
 BAR2 EZ ES        918 59.66                             170   -0.4510 24.4 182 
 BAR2 EZ I         919  1.47        58.0 0.18            170           24.4 182 
 BRR  HZ IP     C  918 46.61                             154    0.5610 67.6 299 
 BRR  HN ES   3    919  3.95                             154    1.54 2 67.6 299 
 BRR  HZ I         919  7.96        27.4 0.20            151           67.6 299 
 PAM  EZ EP        918 47.67                             150    0.2910 78.5  42 
 PAM  EN ES        919  4.49                             150   -0.2910 78.5  42 
 PAM  EZ I         919  7.00        34.6 0.48            147           78.5  42 
 RUS  HZ EP        918 48.85                             143   -0.1210  102 174 
 RUS  HN ES        919  7.86                             143    0.2510  102 174 
 RUS  HZ I         919  9.14        57.5 0.26            141            102 174 
 PTB  HZ EP        918 51.28                             132   -0.51 9  145 258 
 PTB  HN ES        919 12.44                             132   -0.19 9  145 258 
 PTB  HZ I         919 14.57        25.7 0.16            130            145 258 
 TAM  HZ IP     D  918 53.16                             130    0.05 9  159 105 
 TAM  HZ I         919 11.84         9.7 0.48            126            159 105 
 TAM  HN ES        919 14.85                             130   -0.12 9  159 105 
 ZAR  HZ EP        918 57.39                             123    0.23 9  200 292 
 ZAR  HN ES        919 22.50                             123    0.31 9  200 292 
 ZAR  HZ I         919 29.25        19.8 0.28            120            200 292 
 CHI  HZ EP        919  2.91                             117    0.07 8  249 194 
 CHI  HN ES        919 32.15                             117   -0.14 8  249 194 
 CHI  HZ I         919 34.44        11.5 0.32            114            249 194 
 ROSC BZ EP   9    919  4.94                             116    1.79 0  252 210 
 ROSC BN ES        919 35.54                             116    0.90 8  252 210 
 ROSC BZ I         919 39.23        20.4 0.45            114            252 210 
 URE  HZ EP        919  5.46                             114   -0.29 7  280 292 
 URE  HE ES   4    919 36.21                             114   -1.27 0  280 292 
 URE  HZ I         919 41.05        13.4 0.12            111            280 292 
 PTGC HZ EP   3    919  7.84                             111   -1.39 2  311 158 
 PTGC HN ES   4    919 41.21                             111   -2.46 0  311 158 
 PTGC HZ I         919 48.82         7.3 0.24            109            311 158 
 LL6C HZ EP   9    918 51.23                             110   -19.4 0  323 358 
 LL6C HE ES        919 25.77                                   -0.98 7  323 358 
 CBOC HZ EP   9    919 13.20                             110    1.52 0  331 252 
 CBOC HN ES        919 49.38                             110   -0.17 7  331 252 
 CBOC HZ I         919 49.85         3.9 0.34            108            331 252 
 DBB  EN ES   2    919 47.99                             109   -0.91 3  336 274 
 DBB  EZ I         919 50.35         7.3 0.30            107            336 274 
 ARGC HZ EP        919 14.91                             108    0.45 6  357 341 
 ARGC HN ES   4    919 55.80                             108    2.82 0  357 341 
 ARGC HZ I         920  2.46         3.3 0.20            106            357 341 
 ORTC HZ EP        919 19.08                             106    0.18 6  395 216 
 ORTC HN ES   4    920  2.80                             106    1.91 0  395 216 
 ORTC HZ I         920  8.76         5.0 0.27            104            395 216 
 SJC  HZ EP   3    919 18.99                             106   -1.31 1  406 327 
 SJC  HN ES   4    920  0.11                             106   -3.26 0  406 327 
 SJC  HZ I         920 12.32         2.5 0.34            103            406 327 
 CRJC HZ EP   9    919 25.20                             103   -2.24 0  466   4 
 CRJC HN ES        920 13.56                             104   -0.29 5  466   4 
 CRJC HZ I         920 15.67         5.7 0.21            101            466   4 
                                                                                
