 2017 1030 0631 34.6 L   6.761 -73.148136.0  RSN  7 0.4 1.3LRSN                1
 GAP=138        0.84       3.6     4.1  5.5 -0.4449E+01  0.1752E+01  0.5624E+01E
 Epicentro: LOS SANTOS - SANTANDER                                             3
 ACTION:UPD 17-11-07 19:39 OP:rebc STATUS:               ID:20171030063134 L   I
 OLDACT:DUP 17-10-30 15:59 OP:dhb  STATUS:               ID:20171030062744d    3
 2017-10-30-0628-00M.COL___423                                                 6
 STAT SP IPHASW D HRMM SECON CODA AMPLIT PERI AZIMU VELO AIN AR TRES W  DIS CAZ7
 BAR2 EZ EP        631 52.82                             172   -0.1910 19.0 192 
 BAR2 EZ ES        632  7.63                             172    0.2910 19.0 192 
 BAR2 EZ I         632 10.17         6.4 0.20            171           19.0 192 
 BRR  HZ EP        631 55.00                             150    0.1410 73.2 302 
 BRR  HN ES        632 10.87                             150    0.2410 73.2 302 
 BRR  HZ I         632 21.32         3.7 0.48            150           73.2 302 
 PAM  EZ EP        631 56.01                             148   -0.0410 80.9  38 
 PAM  EN ES        632 12.85                             148    0.1010 80.9  38 
 PAM  EZ I         632 15.51         3.1 0.44            153           80.9  38 
 RUS  HZ EP        631 56.64                             143   -0.4810 96.3 176 
 RUS  HN ES        632 14.65                             143   -0.0010 96.3 176 
 RUS  HZ I         632 16.24         3.5 0.34            147           96.3 176 
 PTB  HE ES        632 20.67                             130   -0.42 9  147 260 
 PTB  HZ I         632 21.16         1.7 0.56            131            147 260 
 SPBC HZ EP        632  1.73                             128   -0.33 9  160 220 
 SPBC HN ES        632 23.44                             128   -0.02 9  160 220 
 SPBC HZ I         632 29.76         2.6 0.36            130            160 220 
 PRA  HZ EP        632 28.03                             105    0.65 6  388 210 
 PRA  HE ES        633  9.56                             105    1.04 6  388 210 
 PRA  HZ I         633 16.54         0.8 0.48            108            388 210 
                                                                                
