 2013  630 0902 28.3 L   6.806 -73.153142.8  RSN 12 0.5 2.0LRSN                1
 GAP=113        1.18       4.4     5.6  7.7  0.4375E+01  0.1495E+02  0.5539E+01E
 Epicentro: LOS SANTOS - SANTANDER                                             3
 ACTION:UPD 14-01-08 09:58 OP:ep   STATUS:               ID:20130630090228 L   I
 OLDACT:DUP 13-06-30 12:42 OP:jn   STATUS:               ID:20130630085960d    3
 OLDACT:REG 13-06-30 07:55 OP:jn   STATUS:               ID:20130630085959     3
 2013-06-30-0859-59M.COL___267                                                 6
 STAT SP IPHASW D HRMM SECON CODA AMPLIT PERI AZIMU VELO AIN AR TRES W  DIS CAZ7
 BAR2 SZ EP        9 2 47.21                             170   -0.4110 23.9 188 
 BAR2 SZ ES        9 3  2.93                             170    0.2710 23.9 188 
 BAR2 SZ I         9 3  3.38        15.8 0.44            158           23.9 188 
 GIR2 SZ EP        9 2 47.70                             167    0.0610 30.5 352 
 BRR  HZ EP        9 2 49.42                             152    0.3110 70.2 298 
 BRR  HN ES   1    9 3  6.21                             152    0.90 7 70.2 298 
 BRR  HZ I         9 3 10.49        22.1 0.12            139           70.2 298 
 PAM  SZ EP        9 2 50.54                             150    0.3010 77.4  40 
 PAM  SN ES        9 3  7.34                             150    0.0210 77.4  40 
 PAM  SZ I         9 3  9.66        34.1 0.64            144           77.4  40 
 RUS  HZ EP        9 2 51.58                             143   -0.2710  101 176 
 RUS  HN ES   1    9 3  9.28                             143   -0.91 7  101 176 
 RUS  HZ I         9 3 11.22        11.3 0.28            127            101 176 
 PTB  HZ EP        9 2 54.62                             131   -0.38 9  147 259 
 PTB  HN ES   1    9 3 14.99                             131   -0.81 7  147 259 
 PTB  HZ I         9 3 18.57        15.3 0.14            116            147 259 
 OCA  HN ES   1    9 3 17.53                             129   -0.66 7  159 353 
 YOP  SN ES   1    9 3 22.33                             125    0.72 7  180 153 
 ZAR  HZ EP   1    9 3  0.43                             122   -0.06 6  203 292 
 ZAR  HE ES   1    9 3 25.97                             122    0.41 6  203 292 
 ZAR  HZ I         9 3 31.61        17.9 0.36            110            203 292 
 SML  HN ES   1    9 3 32.25                             117   -0.80 6  243 335 
 CHI  HZ EP        9 3  5.80                             116   -0.12 8  249 195 
 CHI  HZ I         9 3 39.21         3.6 0.28            106            249 195 
 HEL  HZ EP        9 3  9.48                             114    1.15 8  271 256 
 HEL  HZ I         9 3 46.94         4.9 0.38            104            271 256 
                                                                                
