 2017  430 0410 45.6 L   6.847 -73.154151.6  RSN  8 0.4 1.7LRSN                1
 GAP=133        0.82       3.2     3.9  6.7 -0.1112E+01  0.6876E+01  0.4190E+01E
 Epicentro: LOS SANTOS - SANTANDER                                             3
 ACTION:UPD 17-05-30 21:17 OP:jn   STATUS:               ID:20170430041045 L   I
 OLDACT:UP  17-04-30 15:58 OP:dnl  STATUS:               ID:20170430040741     3
 OLDACT:UP  17-04-30 15:58 OP:dnl  STATUS:               ID:20170430040741     3
 OLDACT:REG 17-04-30 12:30 OP:dnl  STATUS:               ID:20170430040741     3
 2017-04-30-0408-00M.COL___371                                                 6
 STAT SP IPHASW D HRMM SECON CODA AMPLIT PERI AZIMU VELO AIN AR TRES W  DIS CAZ7
 BRR  HZ IP     D  411  7.45                             155    0.2110 68.0 295 
 BRR  HN ES        411 24.56                             155    0.4610 68.0 295 
 BRR  HZ I         411 28.35         9.5 0.12            153           68.0 295 
 PAM  EZ EP        411  8.52                             153    0.2510 74.0  43 
 PAM  EE ES        411 25.36                             153   -0.5810 74.0  43 
 PAM  EZ I         411 27.45         7.3 0.50            159           74.0  43 
 RUS  HZ EP        411 10.40                             144    0.0710  106 176 
 RUS  HN ES        411 29.85                             144    0.2510  106 176 
 RUS  HZ I         411 30.53         2.7 0.48            145            106 176 
 PTB  HZ EP        411 12.69                             133   -0.40 9  148 257 
 PTB  HN ES   4    411 33.09                             133   -1.43 0  148 257 
 PTB  HZ I         411 38.90         7.1 0.50            133            148 257 
 SPBC HZ EP   2    411 15.07                             130    0.16 5  167 218 
 SPBC HN ES        411 37.30                             130   -0.45 9  167 218 
 SPBC HZ I         411 44.61         7.2 0.12            130            167 218 
 ZAR  HZ EP   2    411 18.89                             124    0.71 4  201 291 
 ZAR  HE ES        411 43.44                             124   -0.13 9  201 291 
 ZAR  HZ I         411 49.26        10.1 0.40            125            201 291 
 NOR  HZ EP   2    411 21.20                             119   -0.75 4  237 233 
 NOR  HE ES        411 50.32                             119    0.04 8  237 233 
 NOR  HZ I         411 53.16         4.4 0.16            121            237 233 
 CHI  HZ EP   4    411 25.94                             118    1.77 0  253 195 
 CHI  HE ES        411 54.37                             118    0.13 8  253 195 
 CHI  HZ I         412  1.98         2.2 0.58            120            253 195 
                                                                                
