 2013  130 0432 43.1 L   6.758 -73.096142.5  RSN  4 0.2 1.5LRSN                1
 GAP=145        0.46       3.1     2.9  4.8 -0.9862E+00 -0.5840E+00  0.2014E+01E
 Epicentro: LOS SANTOS - SANTANDER                                             3
 ACTION:UPD 13-02-15 09:17 OP:ep   STATUS:               ID:20130130043243 L   I
 2013-01-30-0430-00M.COL___241                                                 6
 STAT SP IPHASW D HRMM SECON CODA AMPLIT PERI AZIMU VELO AIN AR TRES W  DIS CAZ7
 PAM  SZ EP        433  5.04                             150    0.0310 77.8  34 
 PAM  SZ I         433  5.54         6.6 0.28            152           77.8  34 
 PAM  SE ES   1    433 21.85                             150   -0.23 7 77.8  34 
 BRR  HZ EP        433  4.33                             150    0.0010 78.2 300 
 BRR  HE ES        433 21.06                             150    0.1910 78.2 300 
 BRR  HE I         433 26.11         8.4 0.29            149           78.2 300 
 RUS  HZ EP   1    433  6.51                             144    0.32 7 95.7 179 
 RUS  HN ES   1    433 24.07                             144   -0.12 7 95.7 179 
 PTB  HZ EP   1    433  9.97                             130   -0.27 7  152 261 
 PTB  HE ES   1    433 31.25                             130   -0.14 7  152 261 
 PTB  HZ I         433 33.09         2.8 0.16            132            152 261 
                                                                                
