 2012  630 0621 19.4 L   6.830 -73.124146.0  RSN  7 0.3 1.4LRSN                1
 GAP=138        0.57       3.1     3.8  6.6  0.1379E+01  0.6019E+01  0.7227E+00E
 Epicentro: LOS SANTOS - SANTANDER                                             3
 ACTION:UPD 12-08-06 17:53 OP:ep   STATUS:               ID:20120630062119 L   I
 2012-06-30-0620-00M.COL___201                                                 6
 STAT SP IPHASW D HRMM SECON CODA AMPLIT PERI AZIMU VELO AIN AR TRES W  DIS CAZ7
 BAR2 SZ EP   1    621 39.38                             169    0.20 7 27.1 194 
 BAR2 SZ ES   1    621 54.37                             169   -0.20 7 27.1 194 
 BAR2 SZ I         621 56.14         5.3 0.59                          27.1 194 
 BRR  HZ EP   1    621 40.95                             152    0.30 7 71.9 295 
 BRR  HZ I         621 41.21         7.7 0.15                          71.9 295 
 BRR  HN ES   1    621 57.64                             152    0.44 7 71.9 295 
 PAM  SN ES   1    621 58.77                             152    0.17 7 73.3  40 
 RUS  HZ EP   1    621 43.40                             143   -0.04 7  104 178 
 RUS  HN ES   1    622  1.96                             143   -0.20 7  104 178 
 RUS  HZ I         622  4.69         1.9 0.43                           104 178 
 PTB  HN ES   1    622  7.79                             131   -0.18 7  151 258 
 PTB  HZ I         622  9.79         2.7 0.34                           151 258 
 OCA  HN ES   1    622  8.84                             130   -0.53 7  157 352 
 ZAR  HN ES   1    622 17.32                             122   -0.09 6  205 291 
                                                                                
