 2016  430 0850 33.1 L   6.770 -73.106142.5  RSN 10 0.4 1.9LRSN                1
 GAP=143        0.95       3.3     4.4  6.9 -0.4197E+01  0.1429E+02 -0.3045E+01E
 Epicentro: LOS SANTOS - SANTANDER                                             3
 ACTION:UPD 16-05-05 14:25 OP:rebc STATUS:               ID:20160430085033 L   I
 OLDACT:REG 16-04-30 13:45 OP:dnl  STATUS:               ID:20160430082934     3
 2016-04-30-0830-00M.COL                                                       6
 STAT SP IPHASW D HRMM SECON CODA AMPLIT PERI AZIMU VELO AIN AR TRES W  DIS CAZ7
 BAR2 EZ EP     C  850 52.30                             171    0.0310 21.4 203 
 BAR2 EZ ES        851  6.73                             171   -0.5210 21.4 203 
 BAR2 EZ I         851  8.40        13.8 0.28            168           21.4 203 
 PAM  EZ EP        850 55.38                             150    0.4410 77.3  35 
 PAM  EN ES        851 12.63                             150    0.6410 77.3  35 
 PAM  EZ I         851 16.38         5.0 0.28            152           77.3  35 
 RUS  HZ EP        850 56.06                             144   -0.1910 97.1 179 
 RUS  HN ES        851 14.42                             144    0.0910 97.1 179 
 RUS  HZ I         851 15.78        12.4 0.36            149           97.1 179 
 SPBC HZ EP        851  1.11                             128   -0.24 9  163 221 
 SPBC HE ES        851 23.35                             128   -0.06 9  163 221 
 SPBC HZ I         851 25.99         9.8 0.16            129            163 221 
 OCA  HZ EP        851  1.10                             128   -0.40 9  164 352 
 OCA  HN ES        851 23.19                             128   -0.48 9  164 352 
 OCA  HZ I         851 30.79        20.3 0.40            128            164 352 
 ZAR  HZ EP   4    851  3.09                             121   -2.77 0  209 293 
 ZAR  HN ES        851 31.40                             121   -0.04 8  209 293 
 ZAR  HZ I         851 37.30        13.7 0.44            120            209 293 
 HEL  HZ EP   2    851 13.56                             114    0.05 4  276 257 
 HEL  HN ES        851 46.16                             114    1.11 7  276 257 
 HEL  HZ I         851 52.67         4.1 0.42            114            276 257 
 URE  HZ EP   4    851 12.73                             112   -1.85 0  289 292 
 URE  HN ES   4    851 44.76                             112   -2.20 0  289 292 
 URE  HZ I         851 55.05         5.1 0.34            112            289 292 
 GUY2CHZ EP   2    851 17.02                             111    0.29 4  303 236 
 GUY2CHN ES   2    851 50.08                             111   -0.70 4  303 236 
 GUY2CHZ I         851 58.48         4.1 0.54                           303 236 
 CBOC HZ EP   2    851 20.23                             109    0.01 3  337 253 
 CBOC HE ES        851 56.86                             109   -0.14 7  337 253 
 CBOC HZ I         852 12.83         1.8 0.48            110            337 253 
                                                                                
