 2016  730 0130 43.9 L   6.788 -73.087144.6  RSN 14 0.4 1.9LRSN                1
 GAP= 98        0.98       3.7     3.1  4.9 -0.2400E+00  0.2461E+01  0.2642E+01E
 Epicentro: LOS SANTOS - SANTANDER                                             3
 ACTION:UPD 17-03-29 16:56 OP:lp   STATUS:               ID:20160730013043 L   I
 OLDACT:UP  16-07-30 15:49 OP:edw  STATUS:               ID:20160730012759     3
 OLDACT:UP  16-07-30 15:47 OP:edw  STATUS:               ID:20160730012759     3
 OLDACT:REG 16-07-30 12:51 OP:edw  STATUS:               ID:20160730012759     3
 2016-07-30-0127-59S.COL___343                                                 6
 STAT SP IPHASW D HRMM SECON CODA AMPLIT PERI AZIMU VELO AIN AR TRES W  DIS CAZ7
 BAR2 EZ EP        131  3.36                             170   -0.0710 24.1 206 
 BAR2 EZ ES        131 18.54                             170   -0.1110 24.1 206 
 PAM  EZ EP        131  6.23                             152    0.3810 74.5  35 
 PAM  EE ES        131 23.16                             152    0.2210 74.5  35 
 PAM  EZ I         131 25.02        25.6 0.40            154           74.5  35 
 BRR  HZ EP        131  5.15                             150   -0.1710 77.5 297 
 BRR  HN ES        131 22.03                             150    0.0210 77.5 297 
 BRR  HZ I         131 22.17        17.4 0.30            152           77.5 297 
 RUS  HZ EP        131  7.62                             144    0.1710 99.1 180 
 RUS  HN ES        131 25.98                             144    0.1810 99.1 180 
 RUS  HZ I         131 27.53         9.1 0.23            144           99.1 180 
 TAM  HZ EP        131 10.67                             132   -0.23 9  149 105 
 PTB  HZ EP        131 10.44                             131   -0.92 9  154 260 
 PTB  HE ES        131 32.82                             131    0.06 9  154 260 
 PTB  HZ I         131 34.37         9.0 0.14            132            154 260 
 SPBC HZ EP        131 12.34                             128   -0.30 9  166 221 
 SPBC HN ES        131 35.43                             128    0.40 9  166 221 
 SPBC HZ I         131 40.10        11.0 0.20            129            166 221 
 ZAR  HZ EP        131 17.47                             121    0.50 8  211 292 
 ZAR  HN ES        131 41.98                             121   -0.76 8  211 292 
 NOR  HZ EP        131 19.47                             118   -0.61 8  239 236 
 NOR  HE ES        131 48.18                             118   -0.10 8  239 236 
 HEL  HN ES        131 57.19                             114    0.61 7  278 256 
 URE  HZ EP        131 26.22                             113    0.55 7  290 292 
 URE  HN ES   4    131 54.40                             113   -3.82 0  290 292 
 PTGC HZ EP        131 27.34                             112    0.01 7  305 160 
 PTGC HN ES   2    132  0.38                             112   -0.81 4  305 160 
 GUY2CHZ EP        131 28.68                             112    0.68 7  306 236 
 GUY2CHN ES   4    132  0.74                             112   -1.64 0  306 236 
 ELA  HZ EP   4    131 30.22                             110   -0.98 0  333 230 
 ELA  HN ES   4    131 56.37                             110   -11.7 0  333 230 
 SJC  HZ EP   4    131 38.06                             105   -1.93 0  414 326 
 SJC  HN ES   4    132 19.02                             105   -4.71 0  414 326 
 SJC  HZ I         132 22.43         2.4 0.44            107            414 326 
                                                                                
