 2017 1030 0422 50.6 L   6.774 -73.182150.0  RSN  6 0.4 1.1LRSN                1
 GAP=231        1.05       5.7     6.1  7.1  0.1425E+02  0.7234E+01 -0.1159E+01E
 Epicentro: LOS SANTOS - SANTANDER                                             3
 ACTION:UPD 17-11-07 19:39 OP:rebc STATUS:               ID:20171030042250 L   I
 OLDACT:REG 17-10-30 12:34 OP:dhb  STATUS:               ID:20171030041740     3
 2017-10-30-0418-00M.COL___432                                                 6
 STAT SP IPHASW D HRMM SECON CODA AMPLIT PERI AZIMU VELO AIN AR TRES W  DIS CAZ7
 BAR2 EZ EP        423 11.11                             172    0.4710 20.1 180 
 BAR2 EZ ES        423 25.92                             172   -0.3810 20.1 180 
 BAR2 EZ I         423 33.99         4.0 0.52            173           20.1 180 
 BRR  HZ IP     D  423 11.90                             154   -0.1610 69.2 302 
 BRR  HE ES        423 29.26                             154    0.4310 69.2 302 
 BRR  HZ I         423 38.36         1.1 0.30            153           69.2 302 
 RUS  HZ EP        423 15.02                             145    0.4710 98.1 174 
 RUS  HN ES     C  423 32.85                             145   -0.4210 98.1 174 
 RUS  HZ I         423 35.73         1.3 0.43            154           98.1 174 
 PTB  HZ EP        423 16.99                             134   -0.49 9  143 260 
 PTB  HN ES        423 38.08                             134   -0.40 9  143 260 
 PTB  HZ I         423 45.47         1.7 0.44            137            143 260 
 SPBC HZ EP        423 18.77                             131   -0.17 9  158 219 
 SPBC HN ES        423 41.73                             131    0.65 9  158 219 
 SPBC HZ I         423 45.14         2.0 0.20            137            158 219 
 ZAR  HZ EP        423 22.73                             124   -0.29 9  201 293 
 ZAR  HE ES        423 48.60                             124    0.26 9  201 293 
 ZAR  HZ I         423 58.10         1.2 0.24            128            201 293 
                                                                                
