 2017 1130 0245 46.6 L   6.887 -73.126142.6  RSN  7 0.4 1.5LRSN                1
 GAP=134        1.06       4.8     4.7  7.6 -0.4690E+01  0.1333E+02  0.1681E+01E
 Epicentro: PIEDECUESTA - SANTANDER                                            3
 ACTION:UPD 17-12-12 20:02 OP:rebc STATUS:               ID:20171130024546 L   I
 OLDACT:DUP 17-11-30 15:01 OP:dhb  STATUS:               ID:20171130023743d    3
 OLDACT:REG 17-11-30 12:27 OP:dhb  STATUS:               ID:20171130023741     3
 2017-11-30-0238-00M.COL___495                                                 6
 STAT SP IPHASW D HRMM SECON CODA AMPLIT PERI AZIMU VELO AIN AR TRES W  DIS CAZ7
 BAR2 EZ EP        246  5.87                             166   -0.2310 33.2 191 
 BAR2 EZ ES        246 21.09                             166   -0.2110 33.2 191 
 BAR2 EZ I         246 22.71         4.2 0.14            168           33.2 191 
 PAM  EZ IP     D  246  8.50                             153    0.5110 68.8  43 
 PAM  EE ES        246 24.59                             153   -0.0710 68.8  43 
 PAM  EZ I         246 27.59         3.3 0.30            155           68.8  43 
 RUS  HZ EP        246 10.45                             140   -0.3110  110 178 
 RUS  HN ES        246 29.86                             140    0.2610  110 178 
 RUS  HZ I         246 30.86         4.5 0.32            144            110 178 
 PTB  HZ EP        246 12.97                             130   -0.74 9  152 255 
 PTB  HE ES        246 34.27                             130   -0.57 9  152 255 
 PTB  HZ I         246 36.38         3.1 0.36            131            152 255 
 SPBC HZ EP        246 16.15                             127    0.43 9  172 218 
 SPBC HN ES        246 38.95                             127    0.52 9  172 218 
 SPBC HZ I         246 42.53         4.2 0.40            129            172 218 
 ZAR  HE ES        246 44.36                             122    0.63 9  203 289 
 ZAR  HZ I         246 49.44         7.9 0.34            123            203 289 
 NOR  HZ EP        246 22.74                             117   -0.22 8  242 233 
 NOR  HN ES        246 51.46                             117    0.15 8  242 233 
 NOR  HZ I         246 53.36         3.3 0.20            119            242 233 
                                                                                
