 2013 1030 0558 22.7 L   6.758 -73.151145.9  RSN 10 0.4 1.9LRSN                1
 GAP=138        0.77       2.8     4.2  5.3 -0.1999E+01  0.5365E+01  0.1806E+01E
 Epicentro: LOS SANTOS - SANTANDER                                             3
 ACTION:UPD 13-11-25 09:24 OP:ep   STATUS:               ID:20131030055822 L   I
 OLDACT:REG 13-10-30 07:09 OP:jn   STATUS:               ID:20131030055640     3
 2013-10-30-0556-40M.COL___221                                                 6
 STAT SP IPHASW D HRMM SECON CODA AMPLIT PERI AZIMU VELO AIN AR TRES W  DIS CAZ7
 BAR2 SZ EP        558 42.32                             172    0.0810 18.7 191 
 BAR2 SZ ES        558 57.45                             172   -0.0410 18.7 191 
 BAR2 SZ I         558 58.61        23.8 0.32            168           18.7 191 
 BRR  HZ EP        558 44.15                             152    0.2110 73.1 302 
 BRR  HN ES   1    559  1.37                             152    0.84 7 73.1 302 
 BRR  HZ I         559  4.43        14.4 0.32            148           73.1 302 
 PAM  SZ EP        558 45.11                             150   -0.0410 81.3  38 
 PAM  SN ES        559  2.33                             150   -0.3410 81.3  38 
 PAM  SZ I         559  4.45        14.7 0.56            155           81.3  38 
 RUS  HZ EP   1    558 46.40                             145    0.28 7 96.0 176 
 RUS  HN ES        559  4.35                             145   -0.0510 96.0 176 
 RUS  HZ I         559  6.51         5.5 0.20            146           96.0 176 
 PTB  HZ EP   1    558 48.79                             132   -0.74 7  146 261 
 PTB  HN ES   1    559  9.94                             132   -0.54 7  146 261 
 PTB  HZ I         559 17.67        16.6 0.46            130            146 261 
 SPBC HZ EP        558 51.22                             130    0.40 9  159 220 
 SPBC HN ES   1    559 12.86                             130    0.10 7  159 220 
 SPBC HZ I         559 18.36        12.0 0.40            129            159 220 
 OCA  HN ES   2    559 13.72                             129   -0.13 5  165 354 
 OCA  HZ I         559 17.38         8.3 0.46            130            165 354 
 ZAR  HN ES   2    559 20.69                             122    0.01 4  205 293 
 ZAR  HZ I         559 27.61         9.1 0.44            121            205 293 
 CHI  HZ EP   1    559  0.18                             118    0.30 6  244 195 
 CHI  HN ES        559 28.52                             118   -0.38 8  244 195 
 CHI  HZ I         559 39.48         4.1 0.66            118            244 195 
 SML  HN ES   2    559 28.34                             117   -0.31 4  248 336 
                                                                                
