 2015  530 0155 50.9 L   6.867 -72.916141.0  RSN  4 0.2 1.4LRSN                1
 GAP=262        0.52       7.2    11.1  5.6  0.6969E+02 -0.3123E+02 -0.2218E+02E
 Epicentro: GUACA - SANTANDER                                                  3
 ACTION:UPD 15-09-10 22:08 OP:cam  STATUS:               ID:20150530015552 L   I
 OLDACT:UP  15-06-03 18:35 OP:cam  STATUS:               ID:20150530015552 L   3
 OLDACT:UP  15-06-03 18:35 OP:cam  STATUS:               ID:20150530015552 L   3
 OLDACT:UP  15-06-01 11:35 OP:Mher STATUS:               ID:20150530015552 L   3
 OLDACT:REG 15-05-30 13:12 OP:ar   STATUS:               ID:20150530014737     3
 2015-05-30-0147-37M.COL___309                                                 6
 STAT SP IPHASW D HRMM SECON CODA AMPLIT PERI AZIMU VELO AIN AR TRES W  DIS CAZ7
 BAR2 EZ EP        156 10.57                             162    0.0310 42.3 224 
 BAR2 EZ ES   1    156 26.17                             162    0.34 7 42.3 224 
 BAR2 EZ I         156 34.10         5.9 0.30            125           42.3 224 
 BRR  HZ EP        156 12.87                             145   -0.0310 91.9 287 
 BRR  HE ES        156 29.80                             145   -0.2310 91.9 287 
 BRR  HZ I         156 32.64         5.1 0.78            113           91.9 287 
 RUS  HZ EP        156 14.68                             140   -0.2010  109 190 
 RUS  HE ES        156 33.58                             140    0.0210  109 190 
 RUS  HZ I         156 34.79         2.7 0.46            115            109 190 
 ZAR  HZ EP        156 25.63                             118    0.30 8  225 288 
 ZAR  HZ I         156 57.59         3.4 0.44            101            225 288 
                                                                                
