 2010  130 0847 12.6 L   6.539 -73.451113.3  RSN 10 0.6 1.8LRSN                1
 GAP=104        1.37       5.1     7.8 11.9 -0.1085E+02  0.4998E+02  0.1868E+01E
 Epicentro: HATO - SANTANDER                                                   3
 ACTION:UP  10-08-24 09:46 OP:vdl  STATUS:               ID:20100130084712 L   I
 2010-01-30-0845-19S.COL___094                                                 6
 STAT SP IPHASW D HRMM SECON CODA AMPLIT PERI AZIMU VELO SNR AR TRES W  DIS CAZ7
 BAR2 SZ IP        847 28.54                             164     0.010   30  79 
 BAR2 SZ ES   1    847 40.68                             164    -0.3 7   30  79 
 GIR2 SZ EP        847 31.11                             147     0.910   66  26 
 RUS  BZ EP        847 31.56                             142    -0.210   82 150 
 RUS  BN ES   1    847 46.72                             142    -0.1 7   82 150 
 RUS  BZ I         847 48.22        11.2 0.37                            82 150 
 OCA  SZ EP        847 41.02                             116    -0.6 9  189   4 
 OCA  SZ ES   1    848  3.97                             116    -0.3 7  189   4 
 ROSC BZ EP        847 45.51                             113     1.1 8  211 207 
 CHI  HZ EP        847 44.46                             113    -0.2 8  213 188 
 CHI  HZ I         847 45.73         4.8 0.42                           213 188 
 CHI  HN ES   2    848  9.27                             113    -0.5 4  213 188 
 HEL  HN ES        848 13.06                             111    -0.5 8  233 261 
 HEL  HZ I         848 14.25         6.4 0.47                           233 261 
 RREF BZ EP   2    847 53.33                             107     1.1 4  277 229 
 RREF BN ES   1    848 23.98                             107     0.7 6  277 229 
 RREF BZ I         848 27.37         7.0 0.41                           277 229 
 TOL  SZ EP   2    847 54.64                             105     0.2 4  299 224 
 PRA  HZ EP        847 59.13                             102    -1.1 6  351 207 
 PRA  HE ES        848 36.92                             102    -0.4 6  351 207 
                                                                                
