 2016  430 0441 25.4 L   6.786 -73.187138.9  RSN  7 0.4 1.7LRSN                1
 GAP=132        0.70       2.8     3.8  5.3 -0.1765E+01  0.5809E+01  0.1993E+01E
 Epicentro: ZAPATOCA - SANTANDER                                               3
 ACTION:UPD 16-05-05 14:25 OP:rebc STATUS:               ID:20160430044125 L   I
 OLDACT:REG 16-04-30 13:35 OP:dnl  STATUS:               ID:20160430042931     3
 2016-04-30-0430-00M.COL                                                       6
 STAT SP IPHASW D HRMM SECON CODA AMPLIT PERI AZIMU VELO AIN AR TRES W  DIS CAZ7
 BAR2 EZ EP        441 44.05                             171   -0.1210 21.5 179 
 BAR2 EZ ES        441 58.75                             171   -0.0510 21.5 179 
 BAR2 EZ I         442  2.54        13.8 0.16            171           21.5 179 
 PAM  EZ EP        441 46.86                             148   -0.2910 81.5  41 
 PAM  EN ES        442  4.24                             148    0.1310 81.5  41 
 PAM  EZ I         442  6.51        13.0 0.64            152           81.5  41 
 RUS  HZ EP        441 48.21                             143   -0.1910 99.5 173 
 RUS  HN ES        442  6.81                             143    0.4710 99.5 173 
 RUS  HZ I         442  7.66         4.8 0.28            146           99.5 173 
 SPBC HZ EP   2    441 53.34                             128    0.35 5  159 218 
 SPBC HN ES        442 14.41                             128   -0.10 9  159 218 
 SPBC HZ I         442 16.67         6.4 0.10            130            159 218 
 ZAR  HZ EP   3    441 58.77                             122    1.75 2  200 293 
 ZAR  HN ES        442 21.74                             122    0.05 9  200 293 
 ZAR  HZ I         442 28.65         8.0 0.32            122            200 293 
 CHI  HZ EP        442  2.79                             116    0.35 8  246 194 
 CHI  HN ES        442 30.88                             116   -0.45 8  246 194 
 CHI  HZ I         442 34.96         2.1 0.17            118            246 194 
 GUY2CHE ES   4    442 43.93                             111    2.40 0  297 234 
 GUY2CHZ I         442 48.69         1.4 0.52                           297 234 
                                                                                
