 2016  730 0411  4.7 L   7.467 -73.152122.0  RSN  6 0.4 1.4LRSN                1
 GAP=267        0.97       6.5     6.1  7.8  0.2207E+02 -0.6639E+01 -0.1213E+02E
 Epicentro: EL PLAYON - SANTANDER                                              3
 ACTION:UPD 17-03-29 16:56 OP:lp   STATUS:               ID:20160730041104 L   I
 OLDACT:REG 16-07-30 13:33 OP:edw  STATUS:               ID:20160730040759     3
 2016-07-30-0407-59S.COL___337                                                 6
 STAT SP IPHASW D HRMM SECON CODA AMPLIT PERI AZIMU VELO AIN AR TRES W  DIS CAZ7
 BRR  HZ EP        411 23.90                             147    0.4210 73.5 237 
 BRR  HN ES        411 38.03                             147   -0.1010 73.5 237 
 BRR  HZ I         411 43.02         6.2 0.27            143           73.5 237 
 BAR2 EZ EP        411 24.87                             139   -0.6610 96.8 182 
 BAR2 EZ ES        411 41.85                             139    0.0710 96.8 182 
 RUS  HZ EP        411 33.38                             121    0.23 9  174 177 
 RUS  HN ES        411 55.62                             121    0.27 9  174 177 
 RUS  HZ I         412  6.69         1.4 0.40            120            174 177 
 PTB  HZ EP        411 32.35                             121   -0.46 9  177 235 
 PTB  HE ES        411 54.82                             121    0.08 9  177 235 
 PTB  HZ I         411 57.54         2.8 0.14            121            177 235 
 ZAR  HZ EP        411 33.77                             119   -0.24 9  188 271 
 ZAR  HN ES        411 57.13                             119    0.25 9  188 271 
 SPBC HZ EP        411 38.86                             114    0.74 8  225 207 
 SPBC HN ES        412  3.70                             114   -0.50 8  225 207 
 SPBC HZ I         412 10.19         3.0 0.28            114            225 207 
                                                                                
