 2016  730 0429 34.6 L   6.780 -73.199154.2  RSN  4 0.3 1.1LRSN                1
 GAP=230        0.81       5.1     6.0  7.3  0.9034E+01 -0.3154E+01  0.1185E+01E
 Epicentro: ZAPATOCA - SANTANDER                                               3
 ACTION:UPD 17-03-29 16:56 OP:lp   STATUS:               ID:20160730042934 L   I
 OLDACT:REG 16-07-30 13:35 OP:edw  STATUS:               ID:20160730042759     3
 2016-07-30-0427-59S.COL___337                                                 6
 STAT SP IPHASW D HRMM SECON CODA AMPLIT PERI AZIMU VELO AIN AR TRES W  DIS CAZ7
 BRR  HZ EP        429 56.61                             155    0.1910 67.3 303 
 BRR  HN ES        430 13.66                             155    0.2010 67.3 303 
 RUS  HZ EP        429 58.82                             146   -0.2110 98.9 173 
 RUS  HN ES        430 17.94                             146   -0.1810 98.9 173 
 RUS  HZ I         430 19.47         1.2 0.24            143           98.9 173 
 PTB  HZ EP        430  1.26                             135   -0.42 9  142 259 
 PTB  HE ES        430 22.49                             135   -0.35 9  142 259 
 PTB  HZ I         430 26.13         1.5 0.18            133            142 259 
 SPBC HZ EP        430  3.71                             132    0.49 9  158 218 
 SPBC HN ES        430 25.90                             132    0.32 9  158 218 
 SPBC HZ I         430 31.20         2.0 0.08            129            158 218 
                                                                                
