 2013  130 0534 33.1 L   6.751 -73.141142.5  RSN  5 0.2 1.4LRSN                1
 GAP=139        0.62       3.4     3.6  5.8 -0.1202E+01  0.1555E+01  0.1579E+01E
 Epicentro: LOS SANTOS - SANTANDER                                             3
 ACTION:UPD 13-02-15 09:17 OP:ep   STATUS:               ID:20130130053433 L   I
 2013-01-30-0530-00M.COL___241                                                 6
 STAT SP IPHASW D HRMM SECON CODA AMPLIT PERI AZIMU VELO AIN AR TRES W  DIS CAZ7
 BAR2 SZ EP        534 52.20                             172   -0.0510 18.2 195 
 BAR2 SZ I         534 52.69         9.0 0.10            171           18.2 195 
 BRR  HZ EP        534 54.25                             151    0.1610 74.4 302 
 BRR  HN ES        535 10.79                             151    0.3310 74.4 302 
 BRR  HZ I         535 14.42         3.9 0.16            151           74.4 302 
 PAM  SZ EP        534 55.35                             149    0.1310 81.3  37 
 PAM  SN ES        535 12.15                             149   -0.3210 81.3  37 
 PAM  SZ I         535 14.56         7.8 0.45            154           81.3  37 
 RUS  HZ EP   1    534 56.32                             145    0.17 7 95.2 176 
 RUS  HN ES        535 14.18                             145    0.0510 95.2 176 
 RUS  HN I         535 16.58         3.5 0.30            148           95.2 176 
 PTB  HZ EP   1    534 59.40                             131   -0.37 7  147 261 
 PTB  HN ES   1    535 20.15                             131   -0.42 7  147 261 
 PTB  HZ I         535 25.75         2.7 0.38            133            147 261 
                                                                                
