 2017 1030 0658  3.8 L   6.687 -73.155170.3  RSN  4 0.3 0.9LRSN                1
 GAP=228        0.80       7.2     7.2  7.1  0.3487E+02 -0.4650E+01 -0.1089E+02E
 Epicentro: VILLANUEVA - SANTANDER                                             3
 ACTION:UPD 17-11-07 19:39 OP:rebc STATUS:               ID:20171030065803 L   I
 OLDACT:UP  17-10-30 16:22 OP:dhb  STATUS:               ID:20171030064739d    3
 OLDACT:DUP 17-10-30 16:15 OP:dhb  STATUS:               ID:20171030064739d    3
 OLDACT:REG 17-10-30 12:43 OP:dhb  STATUS:               ID:20171030064738     3
 2017-10-30-0648-00M.COL___423                                                 6
 STAT SP IPHASW D HRMM SECON CODA AMPLIT PERI AZIMU VELO AIN AR TRES W  DIS CAZ7
 BRR  HZ EP        658 27.88                             154   -0.1010 77.1 307 
 BRR  HN ES        658 47.08                             154    0.2710 77.1 307 
 BRR  HZ I         658 47.72         2.3 0.42            157           77.1 307 
 RUS  HZ EP        658 29.66                             152    0.3510 88.2 175 
 RUS  HE ES        658 48.76                             152   -0.4210 88.2 175 
 RUS  HZ I         658 56.26         0.7 0.54            150           88.2 175 
 PTB  HZ EP        658 32.98                             138    0.33 9  145 264 
 PTB  HN ES        658 55.27                             138    0.14 9  145 264 
 PTB  HZ I         658 56.65         0.5 0.12            139            145 264 
 ZAR  HZ EP        658 37.90                             127   -0.48 8  208 295 
 ZAR  HE ES        659  5.11                             127   -0.22 8  208 295 
 ZAR  HZ I         659  9.17         1.0 0.54            129            208 295 
                                                                                
