 2010  430 0413 45.7 L   7.342 -73.144130.3  RSN  4 0.2 1.3LRSN                1
 GAP=140        0.45       5.9     6.4  6.5 -0.2744E+02  0.4105E+01  0.2096E+01E
 Epicentro: RIONEGRO - SANTANDER                                               3
 ACTION:UP  10-08-24 10:01 OP:vdl  STATUS:               ID:20100430041345 L   I
 2010-04-30-0412-04S.COL___104                                                 6
 STAT SP IPHASW D HRMM SECON CODA AMPLIT PERI AZIMU VELO SNR AR TRES W  DIS CAZ7
 BRI  SZ EP   2    414  4.45                             155    -0.2 5   56  43 
 BRI  SZ ES   1    414 19.18                             155    -0.2 7   56  43 
 GUE  SZ EP   2    414  5.38                             154     0.4 5   59  24 
 GUE  SZ ES   1    414 20.26                             154     0.2 7   59  24 
 BRR  HZ EP   1    414  4.95                             151    -0.1 7   68 248 
 BRR  HN ES   1    414 20.08                             151     0.0 7   68 248 
 BRR  HZ I         414 21.43         4.9 0.06                            68 248 
 BAR2 SZ ES   2    414 22.60                             146     0.2 5   83 183 
                                                                                
