 2015  730 0105 38.2 L   7.437 -73.387105.0  RSN  5 0.3 1.8LRSN                1
 GAP= 93        0.89       3.5     3.5  7.3  0.2786E+00  0.6931E+01 -0.3078E+01E
 Epicentro: SABANA DE TORRES - SANTANDER                                       3
 ACTION:UPD 15-09-08 21:51 OP:cam  STATUS:               ID:20150730010538 L   I
 OLDACT:REG 15-07-30 12:00 OP:stll STATUS:               ID:20150730005744     3
 2015-07-30-0057-44M.COL___316                                                 6
 STAT SP IPHASW D HRMM SECON CODA AMPLIT PERI AZIMU VELO AIN AR TRES W  DIS CAZ7
 BRR  HZ EP        1 5 53.62                             152   -0.1710 51.1 225 
 BRR  HN ES        1 6  5.91                             152   -0.0610 51.1 225 
 BRR  HZ I         1 6  7.53        14.2 0.12            152           51.1 225 
 PAM  EZ EP        1 5 56.10                             141   -0.1110 76.7  98 
 PAM  EZ I         1 5 56.64         7.3 0.18            145           76.7  98 
 PAM  EN ES        1 6 10.80                             141    0.5310 76.7  98 
 OCA  HZ EP        1 5 56.62                             136   -0.1110 89.0   5 
 OCA  HN ES        1 6 10.98                             136   -0.2210 89.0   5 
 OCA  HZ I         1 6 12.75        28.8 0.28            137           89.0   5 
 BAR2 EZ EP        1 5 56.98                             134   -0.4710 96.1 166 
 BAR2 EZ ES        1 6 12.50                             134    0.0210 96.1 166 
 BAR2 EZ I         1 6 12.78        24.7 0.12            137           96.1 166 
 ZAR  HZ EP        1 6  4.49                             118    0.75 9  162 272 
 ZAR  HE ES        1 6 23.64                             118   -0.03 9  162 272 
 ZAR  HZ I         1 6 27.85         6.4 0.12            118            162 272 
                                                                                
