 2012 1230 0219  2.7 L   6.790 -73.101146.3  RSN  7 0.4 1.8LRSN                1
 GAP=187        0.73       3.7     5.4  6.4  0.2907E+01  0.7825E+01  0.4112E+01E
 Epicentro: LOS SANTOS - SANTANDER                                             3
 ACTION:UPD 13-01-04 14:31 OP:ep   STATUS:               ID:20121230021902 L   I
 2012-12-30-0217-40M.COL___205                                                 6
 STAT SP IPHASW D HRMM SECON CODA AMPLIT PERI AZIMU VELO AIN AR TRES W  DIS CAZ7
 BAR2 SZ EP   1    219 21.88                             170   -0.50 7 23.6 202 
 BAR2 SZ ES   1    219 37.56                             170   -0.19 7 23.6 202 
 BAR2 SZ I         219 39.95        40.0 0.28                          23.6 202 
 BRR  HZ EP        219 24.58                             151    0.4110 76.1 298 
 BRR  HN ES   1    219 41.40                             151    0.47 7 76.1 298 
 BRR  HZ I         219 42.58        15.2 0.14                          76.1 298 
 RUS  HZ EP   1    219 26.53                             144    0.15 7 99.2 179 
 RUS  HN ES   1    219 44.88                             144    0.01 7 99.2 179 
 RUS  HZ I         219 46.15         3.3 0.30                          99.2 179 
 PTB  HZ EP   1    219 29.37                             131   -0.74 7  152 260 
 PTB  HE ES   1    219 51.05                             131   -0.46 7  152 260 
 PTB  HZ I         219 56.07         7.8 0.16                           152 260 
 OCA  HN ES   1    219 53.32                             129   -0.12 7  162 351 
 OCA  HZ I         219 57.49        12.6 0.28                           162 351 
 CHI  HZ EP   1    219 40.69                             117    0.26 6  249 196 
 CHI  HN ES   1    220 10.10                             117    0.22 6  249 196 
 CHI  HZ I         220 15.73         3.2 0.22                           249 196 
 HEL  HZ EP   1    219 43.40                             114   -0.02 6  277 256 
 HEL  HN ES   1    220 15.48                             114    0.28 6  277 256 
 HEL  HZ I         220 20.29         3.3 0.28                           277 256 
                                                                                
