 2016  330 0146 28.9 L   6.869 -73.094143.4  RSN  4 0.5 1.2LRSN                1
 GAP=283        1.00      10.9     7.2  9.2  0.2015E+02  0.2510E+02  0.3507E-01E
 Epicentro: LOS SANTOS - SANTANDER                                             3
 ACTION:UPD 16-05-13 21:28 OP:cam  STATUS:               ID:20160330014628 L   I
 OLDACT:UP  16-03-30 15:07 OP:ak   STATUS:               ID:20160330013743     3
 OLDACT:REG 16-03-30 13:12 OP:ak   STATUS:               ID:20160330013743     3
 2016-03-30-0137-43M.COL___320                                                 6
 STAT SP IPHASW D HRMM SECON CODA AMPLIT PERI AZIMU VELO AIN AR TRES W  DIS CAZ7
 BAR2 EZ EP   2    146 49.02                             167    0.54 5 32.2 198 
 BAR2 EZ ES        147  4.24                             167    0.5010 32.2 198 
 BAR2 EZ I         147  5.67         4.8 0.26            167           32.2 198 
 RUS  HZ EP        146 52.97                             141   -0.0310  108 179 
 RUS  HN ES        147 11.36                             141   -0.4110  108 179 
 RUS  HZ I         147 13.19         1.5 0.22            143            108 179 
 PTB  HZ EP        146 56.20                             130   -0.17 9  155 256 
 PTB  HN ES        147 17.21                             130   -0.56 9  155 256 
 PTB  HZ I         147 19.63         1.9 0.20            132            155 256 
 GUY2CHZ EP   2    147 13.44                             111   -0.01 4  310 234 
 GUY2CHE ES        147 49.04                             111    0.85 7  310 234 
 GUY2CHZ I         147 54.55         1.0 0.44                           310 234 
                                                                                
