 2010  830 0348 49.0 L   7.464 -73.519103.2  RSN  4 0.2 1.6LRSN                1
 GAP=166        0.58       5.0     6.4  7.1 -0.1856E+02 -0.5684E+01 -0.5261E+01E
 Epicentro: SABANA DE TORRES - SANTANDER                                       3
 ACTION:UP  10-09-07 10:59 OP:vdl  STATUS:               ID:20100830034849 L   I
 2010-08-30-0345-30S.COL___120                                                 6
 STAT SP IPHASW D HRMM SECON CODA AMPLIT PERI AZIMU VELO SNR AR TRES W  DIS CAZ7
 BRR  HZ EP   1    349  3.86                             155    -0.2 7   45 208 
 BRR  HN ES   1    349 15.90                             155     0.1 7   45 208 
 BRR  HZ I         349 17.09         7.4 0.25                            45 208 
 GUE  SZ EP   1    349  6.26                             140    -0.4 7   77  58 
 GUE  SZ I         349 20.80         7.1 0.13                            77  58 
 OCA  SZ EP        349  7.54                             136     0.210   88  14 
 OCA  SZ ES   1    349 21.42                             136    -0.2 7   88  14 
 OCA  SZ I         349 23.30         9.6 0.16                            88  14 
 GRA  SZ EP        349  7.67                             135     0.110   92  59 
 GRA  SZ ES   1    349 22.19                             135     0.1 7   92  59 
 GRA  SZ I         349 24.22        18.2 0.28                            92  59 
                                                                                
