 2014  730 0805 55.6 L   6.796 -73.123156.7  RSN 11 0.5 2.1LRSN                1
 GAP=140        0.98       4.0     4.4  7.1 -0.4370E+01  0.1171E+02 -0.2427E+01E
 Epicentro: LOS SANTOS - SANTANDER                                             3
 ACTION:UPD 15-03-16 20:48 OP:nd   STATUS:               ID:20140730080555 L   I
 OLDACT:REG 14-07-30 14:17 OP:mh   STATUS:               ID:20140730075807     3
 2014-07-30-0758-07M.COL___248                                                 6
 STAT SP IPHASW D HRMM SECON CODA AMPLIT PERI AZIMU VELO AIN AR TRES W  DIS CAZ7
 BAR2 SZ EP   1    8 6 16.81                             171    0.29 7 23.5 196 
 BAR2 SZ I         8 6 34.95        14.5 0.16            169           23.5 196 
 PAM  SZ EP        8 6 19.50                             153    0.6110 76.1  38 
 PAM  SN ES        8 6 36.80                             153   -0.2710 76.1  38 
 PAM  SZ I         8 6 39.03        16.5 0.27            155           76.1  38 
 RUS  HZ EP        8 6 20.62                             146    0.2510  100 177 
 RUS  HN ES        8 6 39.12                             146   -0.5910  100 177 
 RUS  HZ I         8 6 41.47         7.2 0.36            145            100 177 
 PTB  HZ EP        8 6 23.66                             134    0.01 9  150 259 
 PTB  HN ES        8 6 45.06                             134   -0.50 9  150 259 
 PTB  HZ I         8 6 50.79        19.6 0.15            133            150 259 
 SPBC HZ EP   1    8 6 25.75                             131    0.71 7  164 220 
 SPBC HN ES        8 6 48.24                             131    0.21 9  164 220 
 SPBC HZ I         8 6 53.82        20.5 0.16            130            164 220 
 ZAR  HZ EP        8 6 28.88                             124   -0.12 8  207 292 
 ZAR  HN ES        8 6 55.65                             124    0.58 8  207 292 
 ZAR  HZ I         8 7  1.45        14.5 0.19            124            207 292 
 NOR  HZ EP        8 6 31.85                             120   -0.29 8  237 235 
 NOR  HN ES        8 7  0.85                             120    0.18 8  237 235 
 NOR  HZ I         8 7  6.73         7.9 0.19            120            237 235 
 HEL  HZ EP   1    8 6 36.20                             116   -0.41 6  274 256 
 HEL  HN ES   4    8 7 12.17                             116    3.54 0  274 256 
 HEL  HZ I         8 7 15.52         6.2 0.39            116            274 256 
 PTGC HZ EP   4    8 6 39.51                             113   -0.28 0  307 159 
 PTGC HN ES   4    8 7 12.48                             113   -1.80 0  307 159 
 TOL  SZ EP   4    8 6 45.74                             111    1.29 0  345 225 
 TOL  SN ES   4    8 7 24.19                             111    1.61 0  345 225 
 TOL  SZ I         8 7 30.92         9.3 0.29            111            345 225 
 ORTC HZ EP   1    8 6 49.25                             108   -0.76 4  397 217 
 ORTC HN ES        8 7 32.72                             108    0.24 6  397 217 
 ORTC HZ I         8 7 41.48         3.4 0.26            108            397 217 
 SJC  HZ EP        8 6 50.76                             107   -0.95 6  411 327 
 SJC  HN ES   4    8 7 31.14                             107   -4.36 0  411 327 
                                                                                
