 2017 1230 0059  3.2 L   6.816 -73.123146.0  RSN 16 0.8 2.3LRSN                1
 GAP=113        1.75       3.8     5.3  8.6 -0.9251E+00  0.9653E+01  0.4412E+01E
 Epicentro: LOS SANTOS - SANTANDER                                             3
 ACTION:UPD 18-01-04 13:25 OP:rebc STATUS:               ID:20171230005903 L   I
 OLDACT:UP  17-12-30 15:15 OP:osc  STATUS:               ID:20171230005742d    3
 OLDACT:DUP 17-12-30 15:07 OP:osc  STATUS:               ID:20171230005742d    3
 2017-12-30-0058-00M.COL___460                                                 6
 STAT SP IPHASW D HRMM SECON CODA AMPLIT PERI AZIMU VELO AIN AR TRES W  DIS CAZ7
 BAR2 EZ IP     C  059 22.99                             170    0.0610 25.6 195 
 BAR2 EZ ES        059 38.02                             170   -0.2910 25.6 195 
 BAR2 EZ I         059 39.45        47.6 0.18            168           25.6 195 
 PAM  EZ EP        059 25.78                             152    0.4910 74.4  39 
 PAM  EE ES        059 42.89                             152    0.3910 74.4  39 
 PAM  EZ I         059 45.10        19.3 0.48            156           74.4  39 
 PTB  HZ EP        059 29.85                             131   -0.62 9  151 258 
 PTB  HN ES        059 50.92                             131   -0.81 9  151 258 
 PTB  HZ I         059 56.81        21.4 0.60            132            151 258 
 OCA  HZ EP        059 31.50                             130    0.08 9  159 352 
 OCA  HN ES        059 53.03                             130   -0.38 9  159 352 
 OCA  HZ I         059 57.73        38.3 0.26            133            159 352 
 SPBC HZ EP        059 31.90                             129   -0.13 9  166 219 
 SPBC HE ES        059 53.85                             129   -0.64 9  166 219 
 SPBC HZ I         059 58.29        29.2 0.24            130            166 219 
 YPLC HZ EP        059 33.19                             127    0.12 9  177 152 
 YPLC HE ES        059 56.87                             127    0.52 9  177 152 
 YPLC HZ I         059 59.78        11.3 0.30            130            177 152 
 ZAR  HZ EP        059 35.88                             122    0.02 8  206 291 
 ZAR  HE ES        1 0  1.47                             122    0.15 8  206 291 
 ZAR  HZ I         1 0  9.55        20.0 0.20            124            206 291 
 NOR  HZ EP        059 39.34                             118    0.04 8  238 234 
 NOR  HE ES        1 0  8.33                             118    0.89 8  238 234 
 ROSC BZ EP        059 42.95                             116    1.28 8  256 211 
 ROSC BN ES        1 0 13.32                             116    1.67 8  256 211 
 ROSC BZ I         1 0 20.88        24.3 0.35            118            256 211 
 DRL03HZ EP        059 45.90                             113    1.21 7  287 352 
 DRL03HE ES        1 0 18.16                             113    1.13 7  287 352 
 GUY2CHZ EP        059 47.51                             112    0.31 7  304 235 
 GUY2CHE ES        1 0 21.82                             112    0.33 7  304 235 
 GUY2CHZ I         1 0 29.48        14.4 0.58                           304 235 
 VIL  EZ EP        059 46.80                             112   -0.11 7  306 192 
 VIL  EN ES        1 0 20.88                             112   -0.10 7  306 192 
 VIL  EZ I         1 0 24.51        11.5 0.36            114            306 192 
 PTGC HZ EP        059 45.96                             112   -1.22 7  309 159 
 PTGC HN ES        1 0 19.30                             112   -2.16 7  309 159 
 CBOC HZ EP        059 51.09                             110    0.60 7  337 252 
 CBOC HN ES        1 0 26.13                             110   -1.23 7  337 252 
 CBOC HZ I         1 0 35.18         3.6 0.42            111            337 252 
 PRA  HZ EP        059 56.73                             106   -0.35 6  395 210 
 PRA  HN ES        1 0 39.64                             106    0.55 6  395 210 
 PRA  HZ I         1 0 45.37         8.0 0.26            108            395 210 
 SJC  HZ EP        059 57.30                             106   -1.49 6  409 327 
 SJC  HE ES        1 0 39.98                             106   -2.14 6  409 327 
                                                                                
