 2012  430 0125 46.8 L   6.670 -73.217153.3  RSN  4 0.2 1.3LRSN                1
 GAP=204        0.61       6.5     6.1  6.5  0.1862E+02  0.4847E+01  0.1737E+01E
 Epicentro: BARICHARA - SANTANDER                                              3
 ACTION:UPD 12-07-05 11:56 OP:tino STATUS:               ID:20120430012546 L   I
 2012-04-30-0120-00M.COL___189                                                 6
 STAT SP IPHASW D HRMM SECON CODA AMPLIT PERI AZIMU VELO AIN AR TRES W  DIS CAZ7
 BAR2 SZ EP   1    126  6.86                             176    -0.3 7    9 156 
 BAR2 SZ ES   1    126 23.03                             176     0.0 7    9 156 
 BAR2 SZ I         126 23.94         6.2 0.43                             9 156 
 BRR  HZ EP   1    126  8.75                             153    -0.1 7   73 312 
 BRR  HE ES   1    126 26.27                             153     0.2 7   73 312 
 BRR  HZ I         126 27.85         5.4 0.17                            73 312 
 RUS  HZ EP   1    126 10.92                             149     0.5 7   87 170 
 RUS  HN ES   1    126 28.66                             149    -0.2 7   87 170 
 RUS  HZ I         126 30.35         2.1 0.33                            87 170 
 PTB  HZ EP   1    126 13.40                             136    -0.1 7  138 264 
 PTB  HN ES   1    126 34.39                             136     0.0 7  138 264 
 PTB  HZ I         126 36.70         2.7 0.15                           138 264 
                                                                                
