 2017  330 0805  6.9 L   6.779 -73.100143.6  RSN  5 0.3 1.1LRSN                1
 GAP=143        0.48       3.8     3.0  6.8 -0.1431E+01  0.4102E+01 -0.1261E+02E
 Epicentro: LOS SANTOS - SANTANDER                                             3
 ACTION:UPD 17-05-25 18:47 OP:jn   STATUS:               ID:20170330080506 L   I
 OLDACT:DUP 17-03-30 17:13 OP:and  STATUS:               ID:20170330075745d    3
 2017-03-30-0758-00M.COL___353                                                 6
 STAT SP IPHASW D HRMM SECON CODA AMPLIT PERI AZIMU VELO AIN AR TRES W  DIS CAZ7
 BAR2 EZ EP   2    8 5 26.19                             171   -0.05 5 22.6 204 
 BAR2 EZ ES   2    8 5 41.14                             171   -0.20 5 22.6 204 
 PAM  EZ EP        8 5 28.88                             151    0.0810 76.2  35 
 PAM  EN ES   2    8 5 46.01                             151    0.12 5 76.2  35 
 PAM  EZ I         8 5 48.07         2.1 0.42            153           76.2  35 
 RUS  HZ EP   2    8 5 30.73                             144    0.49 5 98.0 179 
 RUS  HN ES        8 5 48.27                             144   -0.1910 98.0 179 
 RUS  HZ I         8 5 49.89         2.1 0.32            150           98.0 179 
 PTB  HZ EP   2    8 5 33.45                             130   -0.65 5  152 260 
 PTB  HN ES        8 5 55.54                             130    0.21 9  152 260 
 PTB  HZ I         8 5 59.52         1.0 0.18            132            152 260 
 ZAR  HZ EP   2    8 5 39.91                             121    0.14 4  210 292 
 ZAR  HN ES   2    8 6  5.13                             121   -0.30 4  210 292 
 ZAR  HZ I         8 6 10.77         1.5 0.26            122            210 292 
                                                                                
