 2013 1130 0406 55.1 L   6.733 -73.107138.7  RSN  6 0.4 1.5LRSN                1
 GAP=174        0.88       5.5     5.3  7.5 -0.1048E+02 -0.8243E+00  0.8457E+01E
 Epicentro: JORDAN - SANTANDER                                                 3
 ACTION:UPD 14-01-09 16:32 OP:ep   STATUS:               ID:20131130040655 L   I
 OLDACT:REG 13-11-30 08:11 OP:mher STATUS:               ID:20131130040000     3
 2013-11-30-0400-00M.COL___282                                                 6
 STAT SP IPHASW D HRMM SECON CODA AMPLIT PERI AZIMU VELO AIN AR TRES W  DIS CAZ7
 BAR2 SZ EP        4 7 14.35                             172    0.5910 17.7 208 
 BAR2 SZ ES   1    4 7 27.88                             172   -0.45 7 17.7 208 
 BAR2 SZ I         4 7 32.24        10.8 0.46            172           17.7 208 
 BRR  HZ EP        4 7 16.20                             149    0.2710 78.6 302 
 BRR  HN ES        4 7 32.62                             149    0.4410 78.6 302 
 BRR  HZ I         4 7 37.82         5.2 0.21            149           78.6 302 
 PAM  SZ EP        4 7 16.63                             149   -0.1310 80.8  34 
 PAM  SN ES   1    4 7 33.41                             149   -0.27 7 80.8  34 
 PAM  SZ I         4 7 36.83         4.6 0.57            153           80.8  34 
 PTB  HZ EP        4 7 21.29                             130   -0.47 9  151 262 
 PTB  HN ES        4 7 42.35                             130   -0.22 9  151 262 
 PTB  HZ I         4 7 48.39         3.2 0.23            133            151 262 
 OCA  HN ES        4 7 45.68                             127   -0.20 9  168 352 
 OCA  HZ I         4 7 49.76         3.8 0.18            130            168 352 
 PRA  HZ EP   1    4 7 47.85                             106   -0.02 4  388 211 
 SJC  HZ EP   4    4 7 47.36                             104   -4.07 0  418 327 
 SJC  HN ES   4    4 8 30.83                             104   -4.55 0  418 327 
                                                                                
