 2017  130 0042 31.3 L   6.793 -73.154145.3  RSN 15 0.5 2.4LRSN                1
 GAP= 65        1.05       3.8     2.9  5.3  0.9257E+00  0.4361E+01  0.4455E+01E
 Epicentro: LOS SANTOS - SANTANDER                                             3
 ACTION:UPD 17-05-22 16:04 OP:jn   STATUS:               ID:20170130004231 L   I
 OLDACT:UP  17-01-30 14:50 OP:ar   STATUS:               ID:20170130003748     3
 OLDACT:UP  17-01-30 14:45 OP:ar   STATUS:               ID:20170130003748     3
 OLDACT:REG 17-01-30 12:56 OP:ar   STATUS:               ID:20170130003748     3
 2017-01-30-0038-00M.COL___342                                                 6
 STAT SP IPHASW D HRMM SECON CODA AMPLIT PERI AZIMU VELO AIN AR TRES W  DIS CAZ7
 BAR2 EZ EP        042 50.77                             171   -0.0710 22.5 188 
 BAR2 EZ ES        043  5.67                             171   -0.4310 22.5 188 
 BAR2 EZ I         043  8.37        95.9 0.30            169           22.5 188 
 BRR  HZ IP     C  042 52.52                             152    0.1610 70.7 299 
 BRR  HN ES        043  9.62                             152    0.8310 70.7 299 
 BRR  HZ I         043 13.49        39.9 0.30            151           70.7 299 
 PAM  EZ IP     C  042 53.53                             150    0.0110 78.5  40 
 PAM  EN ES        043 10.81                             150   -0.0510 78.5  40 
 PAM  EZ I         043 12.83        51.8 0.48            154           78.5  40 
 RUS  HZ IP     D  042 54.65                             144   -0.3010 99.9 175 
 RUS  HE ES        043 13.29                             144   -0.1110 99.9 175 
 RUS  HZ I         043 14.52        43.1 0.36            144           99.9 175 
 PTB  HZ EP        042 57.80                             132   -0.32 9  147 259 
 PTB  HN ES        043 18.34                             132   -0.71 9  147 259 
 PTB  HZ I         043 21.41        20.8 0.26            131            147 259 
 TAM  HZ IP     C  042 59.13                             130    0.14 9  156 105 
 TAM  HN ES        043 20.66                             130    0.06 9  156 105 
 ZAR  HZ EP        043  3.85                             122    0.21 9  203 292 
 ZAR  HN ES        043 29.13                             122    0.25 9  203 292 
 ZAR  HZ I         043 33.90        36.0 0.76            122            203 292 
 NOR  HZ EP        043  6.75                             118   -0.11 8  234 234 
 NOR  HN ES        043 34.57                             118   -0.04 8  234 234 
 NOR  HZ I         043 40.28        17.9 0.22            118            234 234 
 CHI  HZ IP     C  043  9.02                             117    0.16 8  248 195 
 CHI  HN ES        043 38.86                             117    0.70 8  248 195 
 CHI  HZ I         043 44.38        13.1 0.34            117            248 195 
 ROSC BZ EP   1    043 10.47                             117    1.21 6  252 211 
 ROSC BN ES   4    043 41.60                             117    2.72 0  252 211 
 ROSC BZ I         043 45.31        36.3 0.40            117            252 211 
 PTGC HZ IP   1 D  043 13.89                             111   -1.20 5  308 158 
 PTGC HN ES   4    043 46.99                             111   -2.26 0  308 158 
 PTGC HZ I         043 52.11        19.1 0.32            112            308 158 
 CBOC HZ EP        043 18.84                             110    0.78 7  332 252 
 CBOC HN ES        043 54.72                             110    0.19 7  332 252 
 CBOC HZ I         044  5.56         3.7 0.56            110            332 252 
 DBB  EZ EP        043 18.13                             109   -0.51 7  339 274 
 DBB  EE ES        043 54.71                             109   -0.87 7  339 274 
 DBB  EZ I         043 55.64         6.4 0.30            110            339 274 
 SJC  HZ EP   4    043 24.88                             105   -1.97 0  409 327 
 SJC  HN ES   4    044  5.90                             105   -4.28 0  409 327 
 SJC  HZ I         044 20.69         3.8 0.30            106            409 327 
 CRJC HZ EP   9    043 31.38                             103   -2.49 0  468   4 
 CRJC HE ES   2    044 19.64                             104   -0.55 2  468   4 
                                                                                
