 2016 1230 0829 42.8 L   6.650 -73.143154.4  RSN  5 0.3 1.1LRSN                1
 GAP=227        0.68       5.3     5.0  5.0  0.1618E+02  0.3501E+01 -0.2232E+01E
 Epicentro: VILLANUEVA - SANTANDER                                             3
 ACTION:UPD 17-01-11 20:20 OP:rebc STATUS:               ID:20161230082942 L   I
 OLDACT:UP  16-12-30 18:26 OP:edw  STATUS:               ID:20161230082743     3
 OLDACT:REG 16-12-30 13:07 OP:edw  STATUS:               ID:20161230082743     3
 2016-12-30-0828-00M.COL___365                                                 6
 STAT SP IPHASW D HRMM SECON CODA AMPLIT PERI AZIMU VELO AIN AR TRES W  DIS CAZ7
 BAR2 EZ EP        830  3.39                             177    0.1210 7.77 214 
 BAR2 EZ ES        830 19.28                             177    0.0410 7.77 214 
 BAR2 EZ I         830 19.85         4.1 0.68            174           7.77 214 
 BRR  HZ EP        830  5.49                             151    0.0710 80.6 309 
 BRR  HN ES        830 23.03                             151   -0.0410 80.6 309 
 RUS  HZ EP        830  5.78                             150   -0.5610 84.1 175 
 RUS  HN ES        830 24.86                             150    0.1610 84.1 175 
 RUS  HZ I         830 27.14         1.6 0.26            149           84.1 175 
 PTB  HZ EP        830 10.73                             134    0.42 9  146 265 
 PTB  HN ES        830 31.71                             134   -0.06 9  146 265 
 PTB  HZ I         830 33.39         1.4 0.20            134            146 265 
 ZAR  HZ EP        830 16.69                             123    0.15 8  211 296 
 ZAR  HN ES        830 42.54                             123   -0.31 8  211 296 
 ZAR  HZ I         830 44.81         1.4 0.30            124            211 296 
                                                                                
