 2017 1230 0625 58.8 L   6.786 -73.156144.5  RSN  6 0.3 1.3LRSN                1
 GAP=148        0.82       4.4     4.1  5.9 -0.7001E+01  0.9390E+01  0.7438E-02E
 Epicentro: LOS SANTOS - SANTANDER                                             3
 ACTION:UPD 18-01-04 13:25 OP:rebc STATUS:               ID:20171230062558 L   I
 OLDACT:REG 17-12-30 17:09 OP:osc  STATUS:               ID:20171230061737     3
 2017-12-30-0618-00M.COL___461                                                 6
 STAT SP IPHASW D HRMM SECON CODA AMPLIT PERI AZIMU VELO AIN AR TRES W  DIS CAZ7
 BAR2 EZ EP        626 17.94                             171   -0.3210 21.6 188 
 BAR2 EZ ES        626 33.28                             171   -0.1510 21.6 188 
 BAR2 EZ I         626 34.55        10.0 0.16            170           21.6 188 
 PAM  EZ EP        626 20.85                             150   -0.1610 79.3  39 
 PAM  EN ES        626 38.67                             150    0.3510 79.3  39 
 PAM  EZ I         626 40.55         2.5 0.40            155           79.3  39 
 PTB  HZ EP        626 25.22                             132   -0.34 9  146 259 
 PTB  HN ES        626 46.13                             132   -0.28 9  146 259 
 PTB  HZ I         626 51.64         1.0 0.23            133            146 259 
 SPBC HZ EP        626 27.01                             129   -0.03 9  161 219 
 SPBC HE ES        626 49.62                             129    0.57 9  161 219 
 SPBC HZ I         626 56.92         3.6 0.12            131            161 219 
 ZAR  HZ EP        626 31.15                             122    0.02 9  204 293 
 ZAR  HN ES        626 56.62                             122    0.28 9  204 293 
 ZAR  HZ I         627  1.21         2.9 0.40            124            204 293 
 GUY2CHZ EP        626 42.84                             112    0.68 7  299 235 
 GUY2CHE ES        627 15.62                             112   -0.36 7  299 235 
 GUY2CHZ I         627 21.04         1.0 0.28                           299 235 
                                                                                
