 2016  330 0609 48.7 L   6.832 -73.173143.8  RSN  7 0.1 1.4LRSN                1
 GAP=112        0.42       3.1     3.7 10.0 -0.1070E+01  0.3399E+01  0.3605E+00E
 Epicentro: ZAPATOCA - SANTANDER                                               3
 ACTION:UPD 16-05-13 21:28 OP:cam  STATUS:               ID:20160330060952dL   I
 OLDACT:UP  16-04-11 17:03 OP:cam  STATUS:               ID:20160330060952dL   3
 OLDACT:DUP 16-04-11 15:36 OP:cam  STATUS:               ID:20160330060952dL   3
 OLDACT:UP  16-04-11 15:35 OP:cam  STATUS:               ID:20160330060951 L   3
 OLDACT:UP  16-04-01 11:32 OP:AR   STATUS:               ID:20160330060951 L   3
 OLDACT:UP  16-03-30 17:15 OP:ak   STATUS:               ID:20160330060747     3
 OLDACT:REG 16-03-30 13:25 OP:ak   STATUS:               ID:20160330060747     3
 2016-03-30-0607-47M.COL___310                                                 6
 STAT SP IPHASW D HRMM SECON CODA AMPLIT PERI AZIMU VELO AIN AR TRES W  DIS CAZ7
 BAR2 EZ EP        610  8.26                             169    0.1410 26.6 182 
 BAR2 EZ I         610  8.59         4.8 0.10            168           26.6 182 
 RUS  HZ EP        610 12.23                             142   -0.2710  104 175 
 RUS  HZ I         610 13.65         3.0 0.12            143            104 175 
 PTB  HZ EP   1    610 15.28                             132    0.02 7  146 257 
 OCA  HZ EP        610 16.37                             130   -0.08 9  156 354 
 TAM  HZ EP        610 16.64                             129    0.10 9  159 106 
 SPBC HZ EP        610 17.21                             128    0.11 9  164 217 
 SPBC HZ I         610 17.67         5.1 0.20            129            164 217 
 ZAR  HZ EP   4    610 22.72                             123    2.17 0  200 292 
 CHI  HZ EP   1    610 26.56                             116    0.02 6  251 194 
 ROSC BZ EP   4    610 28.98                             116    2.14 0  254 210 
 URE  HZ EP   4    610 32.95                             114    3.78 0  280 291 
                                                                                
