 2016  930 0848 21.1 L   6.779 -73.154144.2  RSN  9 0.2 1.5LRSN                1
 GAP=136        0.53       1.9     2.1  3.3 -0.3025E+00  0.1476E+01  0.1644E+01E
 Epicentro: LOS SANTOS - SANTANDER                                             3
 ACTION:UPD 17-08-17 21:18 OP:lp   STATUS:               ID:20160930084821 L   I
 OLDACT:REG 16-09-30 12:45 OP:edw  STATUS:               ID:20160930084741     3
 2016-09-30-0848-00M.COL___369                                                 6
 STAT SP IPHASW D HRMM SECON CODA AMPLIT PERI AZIMU VELO AIN AR TRES W  DIS CAZ7
 BAR2 EZ IP        848 40.42                             171   -0.0410 20.9 189 
 BAR2 EZ ES        848 55.70                             171    0.1110 20.9 189 
 BAR2 EZ I         848 56.94        15.2 0.18            171           20.9 189 
 BRR  HZ IP        848 42.18                             152    0.1110 71.5 301 
 BRR  HE ES        848 58.61                             152    0.1710 71.5 301 
 BRR  HZ I         849  3.31         4.4 0.34            151           71.5 301 
 PAM  EZ EP        848 43.24                             150   -0.0210 79.8  39 
 PAM  EN ES        849  0.50                             150   -0.0710 79.8  39 
 PAM  EZ I         849  2.61         3.1 0.50            153           79.8  39 
 RUS  HZ EP        848 44.54                             144    0.0410 98.3 175 
 RUS  HE ES        849  2.79                             144    0.0110 98.3 175 
 RUS  HZ I         849  4.23         5.8 0.22            147           98.3 175 
 PTB  HZ EP        848 47.30                             132   -0.48 9  146 260 
 PTB  HN ES        849  8.25                             132   -0.37 9  146 260 
 PTB  HZ I         849 13.81         2.9 0.32            132            146 260 
 SPBC HZ EP        848 49.32                             129    0.10 9  161 219 
 SPBC HN ES        849 11.12                             129   -0.06 9  161 219 
 SPBC HZ I         849 14.02         8.0 0.32            131            161 219 
 ZAR  HN ES        849 18.82                             122    0.18 9  204 293 
 ZAR  HZ I         849 24.66         3.3 0.38            123            204 293 
 CHI  HZ EP        848 58.62                             117    0.21 8  246 195 
 CHI  HN ES        849 27.44                             117   -0.09 8  246 195 
 CHI  HZ I         849 30.53         1.3 0.26            119            246 195 
 GUY2CHZ EP   4    849  6.06                             112    1.69 0  299 235 
 GUY2CHE ES        849 38.55                             112    0.41 7  299 235 
 GUY2CHZ I         849 50.76         1.3 0.56                           299 235 
                                                                                
