 2013  530 0529 48.1 L   6.651 -74.174 26.0  RSN  5 0.4 1.3LRSN                1
 GAP=154        0.91       3.9     3.7  5.1 -0.6254E+01 -0.1406E+02  0.4573E+01E
 Epicentro: PUERTO PARRA - SANTANDER                                           3
 ACTION:UPD 13-06-20 09:54 OP:ep   STATUS:               ID:20130530052948 L   I
 2013-05-30-0527-50M.COL___214                                                 6
 STAT SP IPHASW D HRMM SECON CODA AMPLIT PERI AZIMU VELO AIN AR TRES W  DIS CAZ7
 PTB  HZ IP     C  529 54.83                             124   -0.0610 33.6 249 
 PTB  HN ES        530  0.01                             124   -0.1710 33.6 249 
 PTB  HZ I         530  0.37        65.8 0.10            123           33.6 249 
 BRR  HZ EP        530  0.27                              71    0.2110 71.8  45 
 BRR  HN ES        530  9.38                              71   -0.0010 71.8  45 
 BRR  HZ I         530 10.65         6.6 0.32            104           71.8  45 
 BAR2 SZ EP        530  4.77                              56   -0.7510  110  93 
 BAR2 SZ I         530 20.80         5.6 0.60             56            110  93 
 RUS  HZ EP        530 11.00                              56    0.54 9  147 125 
 RUS  HN ES        530 27.90                              56    0.00 9  147 125 
 RUS  HZ I         530 29.59         3.6 0.68             56            147 125 
 HEL  HZ EP        530 12.15                              56    0.41 9  158 251 
 HEL  HN ES   2    530 29.82                              56   -0.34 5  158 251 
 HEL  HZ I         530 31.39         2.8 0.18             56            158 251 
                                                                                
