 2016  330 0237  5.6 L   5.926 -73.664130.6  RSN  4 0.2 1.0LRSN                1
 GAP=143        0.58       4.0     2.9  5.5 -0.6238E-01  0.3198E+01 -0.1084E+01E
 Epicentro: GUAVATA - SANTANDER                                                3
 ACTION:UPD 16-05-13 21:28 OP:cam  STATUS:               ID:20160330023705 L   I
 OLDACT:REG 16-03-30 13:15 OP:ak   STATUS:               ID:20160330022749     3
 2016-03-30-0227-49M.COL___320                                                 6
 STAT SP IPHASW D HRMM SECON CODA AMPLIT PERI AZIMU VELO AIN AR TRES W  DIS CAZ7
 SPBC HZ EP        237 24.12                             156   -0.1710 54.5 236 
 SPBC HE ES        237 39.14                             156    0.2410 54.5 236 
 SPBC HZ I         237 40.97         2.8 0.18            157           54.5 236 
 RUS  HZ EP        237 25.61                             152    0.2210 64.4  93 
 RUS  HE ES        237 40.55                             152   -0.3210 64.4  93 
 RUS  HZ I         237 42.75         1.5 0.28            155           64.4  93 
 BAR2 EZ ES        237 43.48                             143    0.1810 90.9  36 
 BAR2 EZ I         237 44.48         4.4 0.12            146           90.9  36 
 PTB  HZ EP        237 27.99                             137   -0.0210  111 308 
 PTB  HN ES        237 45.40                             137   -0.1410  111 308 
 PTB  HZ I         237 47.69         1.3 0.10            139            111 308 
                                                                                
