 2011 1130 0154 38.7 L   6.762 -73.125141.2  RSN  4 0.2 1.5LRSN                1
 GAP=141        0.44       2.9     4.8  5.0 -0.1694E+01  0.2717E+01 -0.4707E-01E
 Epicentro: LOS SANTOS - SANTANDER                                             3
 ACTION:UPD 12-07-13 16:13 OP:ep   STATUS:               ID:20111130015438 L   I
 2011-11-30-0153-36S.COL___160                                                 6
 STAT SP IPHASW D HRMM SECON CODA AMPLIT PERI AZIMU VELO AIN AR TRES W  DIS CAZ7
 BAR2 SZ EP        154 57.57                             172   -0.1510 19.8 199 
 BAR2 SZ I         154 57.86         6.6 0.18                          19.8 199 
 BAR2 SZ ES   2    155 12.21                             172   -0.34 5 19.8 199 
 BRR  HZ EP        154 59.52                             150   -0.0810 75.3 301 
 BRR  HZ I         154 59.87        11.3 0.10                          75.3 301 
 BRR  HE ES   2    155 16.30                             150    0.39 5 75.3 301 
 PAM  SZ EP        155  0.52                             149   -0.0410 79.3  36 
 PAM  SN ES   1    155 17.71                             149    0.11 7 79.3  36 
 RUS  HZ EP        155  1.91                             144    0.2210 96.2 177 
 RUS  HN ES   1    155 19.60                             144   -0.03 7 96.2 177 
 RUS  HZ I         155 21.01         2.4 0.48                          96.2 177 
                                                                                
