 2012 1030 0330 56.4 L   6.794 -73.128140.9  RSN  9 0.5 2.8LRSN 3.1WRSN        1
 SPEC AVERAGE  MO 13.8 ST 10.0 OM  2.5 f0 4.16 R0.3673 AL 2.06 WI 20.3 MW  3.1 3
 SPEC SD       MO  0.4 ST  9.6 OM  0.8 f00.843 R0.0704 AL      WI      MW  0.2 3
 GAP=139        1.11       3.5     6.2  6.6  0.2562E+00  0.1088E+02  0.2067E+01E
 Epicentro: LOS SANTOS - SANTANDER                                             3
 SPEC OCA HH N MO 14.3 ST 15.5 OM  2.6 f0 3.84 R0.3828 AL 2.34 WI 26.6 MW  3.5 3
 SPEC OCA HH N T 33144 K 0.000 GD  213 VS 4.20 DE 3.00 Q0230.0 QA 0.60 VS 4.20 3
 SPEC RUS HH N MO 13.3 ST  1.2 OM  1.7 f0 3.49 R0.4212 AL 1.88 WI 15.3 MW  2.8 3
 SPEC RUS HH N T 33136 K 0.000 GD  172 VS 4.20 DE 3.00 Q0230.0 QA 0.60 VS 4.20 3
 SPEC RUS HH Z MO 13.5 ST  4.6 OM  1.1 f0 4.82 R0.3050 AL 1.71 WI 17.2 MW  2.9 3
 SPEC RUS HH Z T 33119 K 0.000 GD  172 VP 7.60 DE 3.00 Q0230.0 QA 0.60 VS 4.20 3
 SPEC CHI HH N MO 13.7 ST  2.4 OM  1.9 f0 3.21 R0.4579 AL 2.14 WI 16.9 MW  3.1 3
 SPEC CHI HH N T 332 2 K 0.000 GD  286 VS 4.20 DE 3.00 Q0230.0 QA 0.60 VS 4.20 3
 SPEC BRR HH N MO 14.1 ST 26.2 OM  2.5 f0 5.45 R0.2697 AL 2.25 WI 25.7 MW  3.3 3
 SPEC BRR HH N T 33133 K 0.000 GD  158 VS 4.20 DE 3.00 Q0230.0 QA 0.60 VS 4.20 3
 ACTION:UPD 12-11-22 17:06 OP:ep   STATUS:               ID:20121030033056 L   I
 2012-10-30-0330-00M.COL___231                                                 6
 STAT SP IPHASW D HRMM SECON CODA AMPLIT PERI AZIMU VELO AIN AR TRES W  DIS CAZ7
 BAR2 SZ IP     D  331 15.51                             170    0.0510 23.1 195 
 BAR2 SZ ES        331 30.10                             170   -0.2110 23.1 195 
 BAR2 SZ I         331 31.84       143.4 0.20                          23.1 195 
 GIR2 SZ EP        331 15.56                             166    0.0210 32.3 347 
 BRR  HZ IP     D  331 17.33                             151    0.1710 73.2 298 
 BRR  HN ES        331 34.23                             151    0.8910 73.2 298 
 BRR  HN I         331 34.87       276.6 0.16                          73.2 298 
 PAM  SZ IP     D  331 18.32                             150    0.2510 76.6  38 
 PAM  SN ES        331 34.96                             150    0.0010 76.6  38 
 PAM  SN I         331 36.49        64.9 0.50                          76.6  38 
 RUS  HZ IP        331 19.53                             143   -0.1110 99.8 177 
 RUS  HN ES        331 37.32                             143   -0.4310 99.8 177 
 OCA  HZ EP        331 23.86                             128   -0.57 9  161 352 
 OCA  HN ES        331 46.10                             128   -0.19 9  161 352 
 OCA  HN I         331 48.28       197.8 0.22                           161 352 
 ZAR  HZ EP   1    331 28.58                             121   -0.18 6  206 292 
 ZAR  HN ES   1    331 52.62                             121   -1.38 6  206 292 
 ZAR  HN I         331 56.91        47.8 0.12                           206 292 
 CHI  HZ EP        331 33.98                             116    0.14 8  249 196 
 CHI  HN ES        332  3.11                             116    0.08 8  249 196 
 CHI  HN I         332  5.78        26.6 0.56                           249 196 
 HEL  HZ EP        331 37.45                             114    0.87 8  274 256 
 HEL  HN I         332 14.69        19.6 0.24                           274 256 
                                                                                
