 2017  530 0252 29.0 L   6.786 -73.127143.3  RSN 20 0.5 2.2LRSN                1
 GAP=172        0.71       2.5     2.8  4.9  0.9470E+00 -0.1243E+01 -0.2692E+01E
 Epicentro: LOS SANTOS - SANTANDER                                             3
 ACTION:UPD 17-06-16 13:40 OP:jn   STATUS:               ID:20170530025229 L   I
 OLDACT:UP  17-05-30 14:44 OP:and  STATUS:               ID:20170530024738     3
 OLDACT:UP  17-05-30 14:43 OP:and  STATUS:               ID:20170530024738     3
 OLDACT:UP  17-05-30 14:42 OP:and  STATUS:               ID:20170530024738     3
 OLDACT:UP  17-05-30 14:41 OP:and  STATUS:               ID:20170530024738     3
 OLDACT:UP  17-05-30 14:41 OP:and  STATUS:               ID:20170530024738     3
 OLDACT:UP  17-05-30 14:39 OP:and  STATUS:               ID:20170530024738     3
 OLDACT:UP  17-05-30 14:31 OP:and  STATUS:               ID:20170530024738     3
 OLDACT:UP  17-05-30 14:31 OP:and  STATUS:               ID:20170530024738     3
 OLDACT:UP  17-05-30 14:31 OP:and  STATUS:               ID:20170530024738     3
 OLDACT:REG 17-05-30 12:18 OP:and  STATUS:               ID:20170530024738     3
 2017-05-30-0248-00M.COL___347                                                 6
 STAT SP IPHASW D HRMM SECON CODA AMPLIT PERI AZIMU VELO AIN AR TRES W  DIS CAZ7
 BRR  HZ IP     C  252 50.26                             151    0.2510 73.8 299 
 BRR  HN ES   3    253  7.46                             151    1.04 2 73.8 299 
 BRR  HZ I         253  8.61        31.3 0.14            151           73.8 299 
 RUS  HZ EP        252 52.25                             144   -0.1210 98.9 177 
 RUS  HN ES        253 10.63                             144    0.0210 98.9 177 
 RUS  HZ I         253 12.16        15.8 0.42            142           98.9 177 
 PTB  HZ EP   2    252 55.15                             131   -0.76 5  150 260 
 PTB  HN ES        253 16.27                             131   -0.64 9  150 260 
 PTB  HZ I         253 23.71        18.2 0.46            130            150 260 
 SPBC HZ EP        252 57.31                             128    0.01 9  163 220 
 SPBC HN ES        253 19.16                             128   -0.23 9  163 220 
 SPBC HZ I         253 22.26        38.3 0.11            127            163 220 
 YPLC HZ IP     D  252 58.59                             126    0.23 9  174 152 
 YPLC HE ES   3    253 22.52                             126    1.24 2  174 152 
 YPLC HZ I         253 32.89         7.7 0.32            126            174 152 
 ZAR  HZ EP   9    253  1.12                             121   -0.41 0  207 292 
 ZAR  HE ES        253 26.43                             121   -0.08 8  207 292 
 ZAR  HZ I         253 31.72        26.8 0.38            122            207 292 
 NOR  HZ EP        253  4.34                             118   -0.31 8  236 235 
 NOR  HN ES        253 32.55                             118    0.07 8  236 235 
 NOR  HZ I         253 38.80        13.0 0.16            117            236 235 
 CHI  HZ EP        253  6.34                             116   -0.10 8  248 196 
 CHI  HN ES        253 35.90                             116    0.25 8  248 196 
 CHI  HZ I         253 44.36         8.4 0.48            116            248 196 
 ROSC BZ EP   9    253  8.37                             116    1.43 0  253 212 
 ROSC BN ES   2    253 38.93                             116    0.95 4  253 212 
 ROSC BZ I         253 43.22        20.7 0.45            116            253 212 
 HEL  HZ EP   3    253 10.51                             114    1.26 2  274 256 
 HEL  HN ES        253 41.04                             114    0.38 8  274 256 
 HEL  HZ I         253 46.42        11.2 0.36            114            274 256 
 VIL  EZ EP        253 12.69                             111    0.53 7  302 192 
 VIL  EN EP        253 13.93                             112            302 192 
 VIL  EE ES        253 45.33                             111   -0.51 7  302 192 
 VIL  EZ I         253 52.72        22.8 0.14            112            302 192 
 PTGC HZ IP   9 D  253 11.25                             111   -1.22 0  306 159 
 PTGC HN ES        253 44.56                             111   -0.62 7  306 159 
 PTGC HZ I         253 50.99         5.0 0.24            111            306 159 
 ELA  HZ EP   9    253 17.05                             110    1.26 0  330 230 
 ELA  HN ES        253 53.56                             109   -0.01 7  330 230 
 ELA  HZ I         254  0.05        10.0 0.40            110            330 230 
 CBOC HZ EP        253 15.93                             109   -0.04 7  335 252 
 CBOC HE ES        253 53.23                             109    0.61 7  335 252 
 CBOC HZ I         254  6.38         2.8 0.36            109            335 252 
 DBB  EZ EP   4    253 15.14                             109   -1.47 0  342 274 
 DBB  EE ES   4    253 51.48                             109   -2.28 0  342 274 
 DBB  EZ I         253 53.35         5.3 0.48            109            342 274 
 ANIL HN ES   3    253 59.10                             108    1.56 2  358 225 
 ARGC HZ EP        253 18.44                             107   -0.35 6  361 340 
 ARGC HN ES        253 57.94                             107    0.29 6  361 340 
 ARGC HZ I         254  4.20         2.6 0.30            109            361 340 
 ORTC HZ EP        253 22.58                             106   -0.23 6  395 217 
 ORTC HE ES   3    254  6.33                             106    1.53 1  395 217 
 ORTC HZ I         254 12.93         6.1 0.44            106            395 217 
 PAL  HZ EP   2    253 23.80                             105   -0.37 3  407 239 
 PAL  HN ES        254  7.34                             105    0.11 6  407 239 
 PAL  HZ I         254 12.46         3.3 0.36            105            407 239 
 SJC  HZ IP   4 C  253 22.51                             105   -2.24 0  412 327 
 SJC  HN ES   4    254  3.29                             105   -4.96 0  412 327 
 SJC  HZ I         254  8.92         3.4 0.24            106            412 327 
                                                                                
