 2010  630 0957 35.7 L   6.882 -73.304148.2  RSN  5 0.2 1.2LRSN                1
 GAP=192        0.41       6.3    22.5 10.9 -0.1068E+03  0.5809E+02 -0.1742E+01E
 Epicentro: BETULIA - SANTANDER                                                3
 ACTION:UP  10-08-24 10:14 OP:vdl  STATUS:               ID:20100630095735 L   I
 2010-06-30-0956-27S.COL___118                                                 6
 STAT SP IPHASW D HRMM SECON CODA AMPLIT PERI AZIMU VELO SNR AR TRES W  DIS CAZ7
 BAR2 SZ EP        957 56.01                             167     0.110   35 158 
 BRI  SZ ES   2    958 18.63                             143     0.1 5  108  31 
 RUS  HZ EP   2    958  0.16                             142    -0.4 5  112 167 
 RUS  HZ I         958 22.63         1.7 0.41                           112 167 
 GRA  SZ EP        958  0.97                             139     0.010  124  26 
 GRA  SZ ES   3    958 20.28                             139    -0.4 2  124  26 
 OCA  SZ ES   3    958 24.53                             132    -0.2 2  150 359 
 OCA  SZ I         958 31.03         3.3 0.36                           150 359 
                                                                                
