 2010  730 0842 20.4 L   6.785 -73.048138.5  RSN  5 0.2 1.4LRSN                1
 GAP=170        0.59       3.5     7.1  7.8  0.2072E+01 -0.3053E+02 -0.7504E+01E
 Epicentro: LOS SANTOS - SANTANDER                                             3
 ACTION:UPD 10-12-01 15:21 OP:pat  STATUS:               ID:20100730084220 L   I
 2010-07-30-0839-07S.COL___123                                                 6
 STAT SP IPHASW D HRMM SECON CODA AMPLIT PERI AZIMU VELO AIN AR TRES W  DIS CAZ7
 BAR2 SZ EP   1    842 38.98                             169    -0.2 7   26 215 
 BAR2 SZ ES   1    842 53.53                             169    -0.3 7   26 215 
 BAR2 SZ I         842 54.72         8.3 0.02                            26 215 
 BRR  HZ I         842 42.91         9.0 0.05                            82 296 
 BRR  HN ES        842 57.83                             148     0.110   82 296 
 RUS  HZ EP   2    842 43.46                             143     0.2 5   99 182 
 RUS  HE ES   1    843  1.36                             143     0.2 7   99 182 
 RUS  HZ I         843  2.99         2.8 0.46                            99 182 
 GUE  SZ EP   1    842 44.08                             138    -0.3 7  116   7 
 GUE  SZ I         843  4.94         2.1 0.16                           116   7 
 GRA  SZ EP   1    842 45.00                             136     0.2 7  125  12 
 GRA  SZ ES   1    843  4.16                             136     0.2 7  125  12 
 GRA  SZ I         843  6.63         3.5 0.36                           125  12 
                                                                                
