 2017  630 0415 38.8 L   7.498 -73.125107.3  RSN  5 0.2 1.7LRSN                1
 GAP=274        0.54       6.7     5.1  6.8  0.2454E+02 -0.1389E+02 -0.2831E+02E
 Epicentro: EL PLAYON - SANTANDER                                              3
 ACTION:UPD 17-09-14 16:56 OP:jn   STATUS:               ID:20170630041538 L   I
 OLDACT:UP  17-06-30 15:47 OP:and  STATUS:               ID:20170630040743     3
 OLDACT:UP  17-06-30 15:47 OP:and  STATUS:               ID:20170630040743     3
 OLDACT:UP  17-06-30 15:47 OP:and  STATUS:               ID:20170630040743     3
 OLDACT:REG 17-06-30 13:22 OP:and  STATUS:               ID:20170630040743     3
 2017-06-30-0408-00M.COL___371                                                 6
 STAT SP IPHASW D HRMM SECON CODA AMPLIT PERI AZIMU VELO AIN AR TRES W  DIS CAZ7
 BRR  HZ IP     C  415 56.31                             142   -0.1510 77.9 236 
 BRR  HN ES        416 10.28                             142    0.0510 77.9 236 
 BRR  HZ I         416 10.86        12.1 0.10            144           77.9 236 
 BAR2 EZ IP     C  415 58.84                             134    0.1910  100 184 
 BAR2 EZ ES        416 14.01                             134   -0.1210  100 184 
 BAR2 EZ I         416 15.61        16.0 0.26            136            100 184 
 PTB  HZ EP   9    416  4.79                             116   -1.77 0  181 234 
 PTB  HN ES   2    416 25.51                             119   -0.92 4  181 234 
 PTB  HZ I         416 27.63         2.9 0.14            118            181 234 
 ZAR  HZ EP        416  7.46                             114   -0.19 9  191 270 
 ZAR  HN ES        416 30.32                             114    0.17 9  191 270 
 ZAR  HZ I         416 32.25         7.6 0.12            116            191 270 
 SPBC HZ EP   2    416 12.40                             110    0.33 4  229 207 
 SPBC HN ES   2    416 37.88                             110   -0.15 4  229 207 
                                                                                
