 2015  130 0629 44.5 L   6.645 -74.158 25.1  RSN  7 0.3 1.3LRSN                1
 GAP=126        0.70       2.1     1.4  2.8 -0.3257E+00 -0.1190E+01  0.1016E+00E
 Epicentro: PUERTO PARRA - SANTANDER                                           3
 ACTION:UPD 15-03-02 15:43 OP:nd   STATUS:               ID:20150130062944 L   I
 OLDACT:REG 15-01-30 13:14 OP:cam  STATUS:               ID:20150130062817     3
 2015-01-30-0628-17M.COL___268                                                 6
 STAT SP IPHASW D HRMM SECON CODA AMPLIT PERI AZIMU VELO AIN AR TRES W  DIS CAZ7
 PTB  HZ IP     D  629 51.28                             118   -0.1010 35.0 250 
 PTB  HN ES        629 56.65                             118   -0.1110 35.0 250 
 BRR  HZ EP        629 56.34                              91    0.0210 71.0  44 
 BRR  HN ES        630  5.52                              91   -0.0210 71.0  44 
 BRR  HZ I         630  6.10         8.1 0.12            105           71.0  44 
 BAR2 EZ EP        630  1.65                              61   -0.0810  108  93 
 BAR2 EZ ES        630 14.70                              61   -0.4810  108  93 
 BAR2 EZ I         630 17.21         6.5 0.30             56            108  93 
 ZAR  HZ EP        630  3.28                              61    0.1510  121 320 
 ZAR  HN ES        630 17.73                              61    0.0610  121 320 
 ZAR  HZ I         630 19.12         5.7 0.10             56            121 320 
 RUS  HZ EP        630  7.27                              61    0.59 9  145 125 
 RUS  HN ES        630 24.07                              61    0.08 9  145 125 
 RUS  HZ I         630 25.88         5.5 0.28             56            145 125 
 HEL  HZ EP        630  8.66                              61    0.31 9  160 252 
 HEL  HN ES        630 26.63                              61   -0.34 9  160 252 
 HEL  HZ I         630 27.46         5.7 0.40             56            160 252 
 GUY2CHZ EP   4    630 15.46                              61    1.16 0  206 220 
 GUY2CHZ I         630 41.11         1.2 0.30                           206 220 
                                                                                
