 2013  830 0651 41.3 L   6.814 -73.162144.7  RSN  9 0.4 2.7LRSN 3.1WRSN        1
 SPEC AVERAGE  MO 13.7 ST  8.7 OM  1.7 f0 8.47 R0.3156 AL 0.00 WI 18.4 MW  3.1 3
 SPEC SD       MO  0.3 ST  5.3 OM  0.5 f0 4.21 R1.0478 AL      WI      MW  0.2 3
 GAP= 70        0.99       3.3     3.2  5.7 -0.2098E+00  0.1628E+01 -0.6009E+00E
 Epicentro: LOS SANTOS - SANTANDER                                             3
 SPEC SPBCHH Z MO 13.8 ST 12.7 OM  1.3 f0 10.0 R0.2812 AL 0.00 WI 17.9 MW  3.1 3
 SPEC SPBCHH Z T 652 9 K 0.000 GD  217 VP 7.60 DE 3.20 Q0300.0 QA 0.60 VS 4.20 3
 SPEC RUS HH N MO 13.3 ST  4.8 OM  1.7 f0 5.71 R0.2722 AL 0.00 WI 24.9 MW  2.8 3
 SPEC RUS HH N T 65221 K 0.000 GD  177 VS 4.20 DE 3.20 Q0300.0 QA 0.60 VS 4.20 3
 SPEC OCA HH Z MO 13.6 ST  7.9 OM  1.1 f0 10.0 R0.2812 AL 0.00 WI 22.1 MW  3.0 3
 SPEC OCA HH Z T 652 8 K 0.000 GD  214 VP 7.60 DE 3.20 Q0300.0 QA 0.60 VS 4.20 3
 SPEC PAM SH Z MO 13.8 ST  9.2 OM  1.4 f0 9.16 R0.3070 AL 0.00 WI 16.5 MW  3.1 3
 SPEC PAM SH Z T 652 2 K 0.000 GD  164 VP 7.60 DE 3.20 Q0300.0 QA 0.60 VS 4.20 3
 SPEC HEL HH Z MO 13.7 ST  4.4 OM  1.0 f0 7.89 R0.3564 AL 0.00 WI 30.1 MW  3.0 3
 SPEC HEL HH Z T 65220 K 0.000 GD  307 VP 7.60 DE 3.20 Q0300.0 QA 0.60 VS 4.20 3
 SPEC CHI HH Z MO 13.7 ST  2.4 OM  1.1 f0 6.07 R0.4633 AL 0.00 WI 22.6 MW  3.1 3
 SPEC CHI HH Z T 65218 K 0.000 GD  289 VP 7.60 DE 3.20 Q0300.0 QA 0.60 VS 4.20 3
 SPEC BRR HH Z MO 13.9 ST 14.8 OM  1.5 f0 10.0 R0.2812 AL 0.00 WI 15.9 MW  3.2 3
 SPEC BRR HH Z T 652 2 K 0.000 GD  160 VP 7.60 DE 3.20 Q0300.0 QA 0.60 VS 4.20 3
 SPEC BAR2SH Z MO 13.8 ST  2.9 OM  1.5 f0 5.97 R0.4710 AL 0.00 WI 13.3 MW  3.2 3
 SPEC BAR2SH Z T 652 0 K 0.000 GD  146 VP 7.60 DE 3.20 Q0300.0 QA 0.60 VS 4.20 3
 ACTION:UPD 14-01-14 09:08 OP:ep   STATUS:               ID:20130830065141 L   I
 OLDACT:UP  13-08-30 10:32 OP:jn   STATUS:               ID:20130830064848     3
 OLDACT:REG 13-08-30 08:17 OP:jn   STATUS:               ID:20130830064848     3
 2013-08-30-0648-48M.COL___211                                                 6
 STAT SP IPHASW D HRMM SECON CODA AMPLIT PERI AZIMU VELO AIN AR TRES W  DIS CAZ7
 BAR2 SZ EP     D  652  0.96                             170    0.1110 24.6 185 
 BAR2 SZ ES        652 15.64                             170   -0.4410 24.6 185 
 BAR2 SZ I         652 18.94        89.3 0.32            170           24.6 185 
 BRR  HZ IP     C  652  2.68                             153    0.4510 68.9 298 
 BRR  HN ES        652 19.50                             153    0.9610 68.9 298 
 BRR  HZ I         652 20.22       143.0 0.10            154           68.9 298 
 PAM  SZ EP        652  3.62                             151    0.2010 77.3  41 
 PAM  SN ES        652 20.44                             151   -0.2210 77.3  41 
 PAM  SZ I         652 21.37        86.6 0.22            153           77.3  41 
 RUS  HZ EP        652  5.04                             143   -0.0510  102 175 
 RUS  HN ES        652 23.59                             143   -0.0410  102 175 
 RUS  HZ I         652 26.02        36.8 0.26            145            102 175 
 PTB  HZ EP        652  7.56                             132   -0.52 9  146 258 
 PTB  HN ES        652 28.56                             132   -0.38 9  146 258 
 PTB  HZ I         652 31.11       102.8 0.12            133            146 258 
 TAM  HZ EP        652  9.37                             130    0.26 9  157 105 
 TAM  HN ES        652 30.93                             130    0.14 9  157 105 
 TAM  HZ I         652 31.61        59.0 0.24            132            157 105 
 OCA  HZ EP        652  9.25                             130   -0.14 9  159 354 
 OCA  HE ES        652 30.66                             130   -0.62 9  159 354 
 OCA  HZ I         652 35.26        81.7 0.16            132            159 354 
 SPBC HZ EP        652  9.89                             129    0.14 9  163 218 
 SPBC HN ES        652 31.79                             129   -0.13 9  163 218 
 SPBC HZ I         652 36.31        68.1 0.26            130            163 218 
 ZAR  HZ EP        652 13.34                             122   -0.13 9  202 292 
 ZAR  HN ES   1    652 39.08                             122    0.53 6  202 292 
                                                                                
