 2013  830 0812 53.2 L   6.840 -73.171141.3  RSN  9 0.5 1.7LRSN                1
 GAP=181        0.96       3.0     5.4  6.5  0.2013E+01  0.2973E+01 -0.4806E+00E
 Epicentro: LOS SANTOS - SANTANDER                                             3
 ACTION:UPD 14-01-14 09:08 OP:ep   STATUS:               ID:20130830081253 L   I
 OLDACT:REG 13-08-30 08:21 OP:jn   STATUS:               ID:20130830080850     3
 2013-08-30-0808-50M.COL___211                                                 6
 STAT SP IPHASW D HRMM SECON CODA AMPLIT PERI AZIMU VELO AIN AR TRES W  DIS CAZ7
 BAR2 SZ EP        813 12.77                             169    0.3410 27.4 183 
 BAR2 SZ ES        813 27.85                             169    0.4510 27.4 183 
 BAR2 SZ I         813 29.39        11.4 0.20            170           27.4 183 
 BRR  HN ES   1    813 28.52                             153   -1.06 7 66.7 296 
 BRR  HZ I         813 34.70        11.3 0.22            153           66.7 296 
 RUS  HZ EP        813 16.87                             142   -0.0410  105 175 
 RUS  HN ES        813 35.28                             142   -0.0910  105 175 
 RUS  HZ I         813 36.50         3.9 0.18            145            105 175 
 PTB  HZ EP   1    813 19.50                             131   -0.19 7  146 257 
 PTB  HN ES        813 40.29                             131   -0.02 9  146 257 
 PTB  HZ I         813 43.27         6.2 0.12            133            146 257 
 OCA  HZ EP   1    813 20.84                             130    0.07 7  156 354 
 OCA  HN ES        813 42.27                             130    0.04 9  156 354 
 OCA  HZ I         813 49.73         4.1 0.52            131            156 354 
 SPBC HZ EP        813 21.79                             128    0.22 9  165 217 
 SPBC HN ES   1    813 44.04                             128    0.37 7  165 217 
 SPBC HZ I         813 48.24         8.4 0.18            130            165 217 
 ZAR  HN ES   1    813 50.59                             122    0.89 6  200 291 
 SML  HZ EP   1    813 29.29                             117    0.23 6  239 335 
 SML  HN ES   1    813 56.17                             117   -0.82 6  239 335 
 CHI  HZ EP   1    813 30.80                             116   -0.29 6  252 194 
 CHI  HN ES        813 59.93                             116   -0.68 8  252 194 
 CHI  HZ I         814  4.13         3.5 0.48            118            252 194 
                                                                                
