 2014  930 0238 53.0 L   6.754 -73.118151.0  RSN  5 0.4 1.2LRSN                1
 GAP=237        0.99       6.0     6.9  9.1  0.9721E+01 -0.6120E+01 -0.5583E+00E
 Epicentro: LOS SANTOS - SANTANDER                                             3
 ACTION:UPD 14-10-03 23:09 OP:nd   STATUS:               ID:20140930023853 L   I
 OLDACT:REG 14-09-30 12:07 OP:stll STATUS:               ID:20140930023817     3
 2014-09-30-0238-17M.COL___292                                                 6
 STAT SP IPHASW D HRMM SECON CODA AMPLIT PERI AZIMU VELO AIN AR TRES W  DIS CAZ7
 BAR2 SZ EP        239 13.12                             172   -0.1010 19.2 202 
 BAR2 SZ I         239 13.37         3.4 0.18            165           19.2 202 
 BRR  HZ EP        239 15.11                             152    0.0710 76.4 301 
 BRR  HZ I         239 15.37         2.8 0.30            148           76.4 301 
 BRR  HN ES        239 32.63                             152    0.4210 76.4 301 
 RUS  HZ EP        239 16.94                             146    0.0010 95.3 178 
 RUS  HZ I         239 17.83         1.4 0.34            142           95.3 178 
 RUS  HN ES        239 35.22                             146   -0.3610 95.3 178 
 PTB  HZ EP        239 20.23                             133   -0.39 9  150 261 
 PTB  HN ES        239 41.51                             133   -0.63 9  150 261 
 PTB  HZ I         239 47.17         2.8 0.58            129            150 261 
 SPBC HZ EP        239 22.22                             131    0.46 9  161 221 
 SPBC HN ES        239 44.72                             131    0.56 9  161 221 
 SPBC HZ I         239 51.34         3.5 0.30            127            161 221 
                                                                                
