 2011  930 0015 46.2 L   6.780 -73.123140.1  RSN  4 0.1 1.2LRSN                1
 GAP=140        0.33       4.2     6.4  4.4  0.1697E+02 -0.1012E+02 -0.4236E+01E
 Epicentro: VILLANUEVA - SANTANDER                                             3
 ACTION:UP  12-07-13 16:00 OP:ep   STATUS:               ID:20110930001547 L   I
 OLDACT:UP  12-07-13 14:50 OP:ep   STATUS:               ID:20110930001547 L   3
 OLDACT:UPD 12-07-12 22:18 OP:ep   STATUS:               ID:20110930001547 L   3
 2011-09-30-0013-42S.COL___168                                                 6
 STAT SP IPHASW D HRMM SECON CODA AMPLIT PERI AZIMU VELO AIN AR TRES W  DIS CAZ7
 BAR2 SZ ES   1    016 19.80                             171   -0.04 7 21.7 197 
 BRR  HZ EP   1    016  7.01                             150    0.11 7 74.4 299 
 BRR  HZ I         016 17.92         6.3 0.37                          74.4 299 
 BRR  HN ES   1    016 23.03                             150   -0.04 7 74.4 299 
 PAM  SZ EP   2    016  7.86                             150    0.06 5 77.6  37 
 RUS  HZ EP   1    016  9.08                             143   -0.11 7 98.2 177 
 RUS  HN ES   2    016 27.29                             143    0.14 5 98.2 177 
 RUS  HZ I         016 29.27         1.3 0.35                          98.2 177 
                                                                                
