 2017  530 0731 50.2 L   6.846 -73.098154.0  RSN 10 0.4 1.8LRSN                1
 GAP=220        0.91       4.1     4.1  6.0  0.8224E+01  0.5150E+00  0.8985E+00E
 Epicentro: LOS SANTOS - SANTANDER                                             3
 ACTION:UPD 17-06-16 13:40 OP:jn   STATUS:               ID:20170530073150 L   I
 OLDACT:REG 17-05-30 12:31 OP:osc  STATUS:               ID:20170530072728     3
 2017-05-30-0728-00M.COL___335                                                 6
 STAT SP IPHASW D HRMM SECON CODA AMPLIT PERI AZIMU VELO AIN AR TRES W  DIS CAZ7
 BRR  HZ EP        732 12.63                             153    0.2410 73.7 293 
 BRR  HN ES        732 30.09                             153    0.4010 73.7 293 
 BRR  HZ I         732 32.94         7.9 0.12            152           73.7 293 
 RUS  HZ EP        732 15.00                             144   -0.1210  105 179 
 RUS  HN ES        732 33.94                             144   -0.6110  105 179 
 RUS  HZ I         732 34.98         4.8 0.19            144            105 179 
 PTB  HZ EP        732 17.89                             133   -0.52 9  154 257 
 PTB  HN ES   4    732 39.03                             133   -1.37 0  154 257 
 PTB  HZ I         732 42.05         7.1 0.38            132            154 257 
 SPBC HZ EP        732 19.88                             130   -0.14 9  170 219 
 SPBC HN ES        732 43.05                             130   -0.23 9  170 219 
 SPBC HZ I         732 49.63        13.8 0.24            130            170 219 
 YPLC HZ EP     C  732 21.29                             128    0.48 9  179 154 
 YPLC HE ES        732 45.06                             128    0.38 9  179 154 
 YPLC HZ I         732 50.92         4.2 0.32            130            179 154 
 ZAR  HZ EP        732 23.65                             124    0.14 8  207 290 
 ZAR  HN ES        732 48.98                             124   -0.50 8  207 290 
 ZAR  HZ I         732 55.29         4.4 0.15            125            207 290 
 NOR  HZ EP        732 26.97                             119   -0.22 8  242 234 
 NOR  HE ES        732 56.36                             119    0.32 8  242 234 
 NOR  HZ I         733  0.81         5.3 0.28            120            242 234 
 CHI  HZ EP        732 29.43                             118    0.38 8  255 196 
 CHI  HN ES        732 59.59                             118    0.24 8  255 196 
 HEL  HZ EP        732 31.83                             116    0.28 7  278 255 
 HEL  HE ES        733  4.11                             116    0.32 7  278 255 
 HEL  HZ I         733 12.73         2.7 0.16            117            278 255 
 PTGC HZ EP        732 33.99                             113   -0.78 7  312 160 
                                                                                
