 2017 1030 0254 23.7 L   6.822 -73.165147.1  RSN 13 0.5 1.5LRSN                1
 GAP=109        1.11       3.2     3.7  5.4  0.1136E+01  0.3987E+01  0.2141E+01E
 Epicentro: LOS SANTOS - SANTANDER                                             3
 ACTION:UPD 17-11-07 19:39 OP:rebc STATUS:               ID:20171030025423 L   I
 OLDACT:DUP 17-10-30 13:50 OP:dhb  STATUS:               ID:20171030024747d    3
 OLDACT:DUP 17-10-30 13:46 OP:dhb  STATUS:               ID:20171030024746d    3
 2017-10-30-0248-00M.COL___429                                                 6
 STAT SP IPHASW D HRMM SECON CODA AMPLIT PERI AZIMU VELO AIN AR TRES W  DIS CAZ7
 BAR2 HZ IP     C  254 43.48                             170   -0.0510 25.4 184 
 BAR2 HZ ES        254 58.57                             170   -0.4310 25.4 184 
 BAR2 HZ I         255  0.86         6.8 0.26            169           25.4 184 
 BRR  HZ IP     C  254 45.28                             154    0.4510 68.2 298 
 BRR  HN ES        255  2.00                             154    0.6910 68.2 298 
 BRR  HZ I         255  5.74         5.4 0.16            152           68.2 298 
 PAM  EZ EP        254 46.50                             151    0.4710 76.9  42 
 PAM  EE ES        255  3.20                             151   -0.2410 76.9  42 
 PAM  EZ I         255  6.13         3.1 0.68            155           76.9  42 
 RUS  HZ EP        254 47.43                             143   -0.3310  103 175 
 RUS  HN ES        255  6.26                             143   -0.2710  103 175 
 RUS  HZ I         255  7.23         6.4 0.24            145            103 175 
 PTB  HZ EP        254 50.19                             133   -0.44 9  146 258 
 PTB  HE ES        255 11.87                             133    0.23 9  146 258 
 PTB  HZ I         255 13.40         4.3 0.10            132            146 258 
 SPBC HZ EP        254 52.38                             129    0.03 9  164 218 
 SPBC HN ES        255 14.15                             129   -0.55 9  164 218 
 SPBC HZ I         255 21.48         6.9 0.28            130            164 218 
 YPLC HZ EP        254 54.10                             126    0.21 9  180 151 
 YPLC HN ES        255 17.90                             126    0.46 9  180 151 
 YPLC HZ I         255 20.77         5.4 0.18            129            180 151 
 ZAR  HZ EP        254 56.02                             123    0.08 9  201 292 
 ZAR  HN ES        255 21.56                             123    0.47 9  201 292 
 ZAR  HZ I         255 30.07         3.9 0.32            124            201 292 
 NOR  HZ EP        254 58.86                             119   -0.61 8  234 234 
 NOR  HN ES        255 26.63                             119   -0.75 8  234 234 
 NOR  HZ I         255 32.26         2.8 0.34            120            234 234 
 CHI  HZ EP        255  1.80                             117    0.14 8  250 195 
 CHI  HE ES        255 31.35                             117    0.08 8  250 195 
 CHI  HZ I         255 34.18         2.1 0.38            118            250 195 
 GUY2CHZ EP   9    255  9.54                             113    2.21 0  301 234 
 GUY2CHN ES        255 43.39                                   -0.18 7  301 234 
 GUY2CHZ I         255 49.37         1.6 0.42                           301 234 
 PRA  HZ EP        255 18.11                             107    0.72 6  393 209 
 PRA  HE ES        256  0.39                             107    1.12 6  393 209 
 PRA  HZ I         256  5.71         1.1 0.36            108            393 209 
 SJC  HZ EP        255 17.54                             106   -1.40 6  406 327 
 SJC  HE ES        256  1.98                             106   -0.04 6  406 327 
 SJC  HZ I         256  7.20         0.5 0.51            107            406 327 
                                                                                
