 2016 1230 0100 53.8 L   6.784 -73.144139.4  RSN 12 0.4 1.6LRSN                1
 GAP=137        0.98       3.6     4.2  5.5  0.1105E+01  0.7817E+01  0.5817E+01E
 Epicentro: LOS SANTOS - SANTANDER                                             3
 ACTION:UPD 17-01-11 20:20 OP:rebc STATUS:               ID:20161230010053 L   I
 OLDACT:UP  16-12-30 14:54 OP:edw  STATUS:               ID:20161230005750d    3
 OLDACT:UP  16-12-30 14:53 OP:edw  STATUS:               ID:20161230005750d    3
 OLDACT:DUP 16-12-30 14:46 OP:edw  STATUS:               ID:20161230005750d    3
 OLDACT:REG 16-12-30 12:32 OP:edw  STATUS:               ID:20161230005749     3
 2016-12-30-0058-00M.COL___378                                                 6
 STAT SP IPHASW D HRMM SECON CODA AMPLIT PERI AZIMU VELO AIN AR TRES W  DIS CAZ7
 BAR2 EZ EP        1 1 12.45                             171   -0.2110 21.6 191 
 BAR2 EZ ES        1 1 27.16                             171   -0.1910 21.6 191 
 BAR2 EZ I         1 1 28.60        17.0 0.18            168           21.6 191 
 BRR  HZ EP        1 1 14.36                             151    0.0010 72.2 300 
 BRR  HE ES        1 1 31.16                             151    0.7910 72.2 300 
 PAM  EZ IP     C  1 1 15.37                             149   -0.0810 78.7  39 
 PAM  EN ES        1 1 32.20                             149   -0.1210 78.7  39 
 PAM  EZ I         1 1 34.21        10.4 0.40            153           78.7  39 
 RUS  HZ EP        1 1 16.52                             143   -0.3110 98.8 176 
 RUS  HE ES        1 1 35.05                             143    0.2910 98.8 176 
 RUS  HZ I         1 1 36.74         5.6 0.40            143           98.8 176 
 PTB  HZ EP        1 1 20.47                             131    0.20 9  148 260 
 PTB  HN ES        1 1 39.99                             131   -0.91 9  148 260 
 PTB  HZ I         1 1 42.83         4.7 0.12            131            148 260 
 ZAR  HZ EP        1 1 25.55                             121   -0.41 9  205 293 
 ZAR  HN ES        1 1 51.18                             121    0.16 9  205 293 
 ZAR  HZ I         1 1 53.09         4.6 0.12            122            205 293 
 NOR  HZ EP        1 1 29.13                             117    0.03 8  234 235 
 NOR  HN ES   4    1 1 57.43                             117    0.82 0  234 235 
 NOR  HZ I         1 2  1.89         2.4 0.12            118            234 235 
 CHI  HZ EP        1 1 31.03                             116    0.03 8  247 195 
 CHI  HN ES        1 2  0.20                             116    0.21 8  247 195 
 CHI  HZ I         1 2  3.36         1.5 0.44            116            247 195 
 GUY2CHZ EP        1 1 37.87                             111    0.82 7  300 235 
 GUY2CHN ES   4    1 2 14.05                             111    3.29 0  300 235 
 GUY2CHZ I         1 2 17.93         1.6 0.30                           300 235 
 CBOC HZ EP   4    1 1 41.40                             109    0.96 0  333 252 
 CBOC HN ES   4    1 2  9.39                             109   -7.41 0  333 252 
 CBOC HZ I         1 2 18.20         2.2 0.18            109            333 252 
 ORTC HZ EP        1 1 47.87                             105    0.49 6  394 216 
 ORTC HE ES        1 2 28.70                             105   -0.45 6  394 216 
 ORTC HZ I         1 2 35.52         1.8 0.60            106            394 216 
 SJC  HZ EP   4    1 1 47.35                             105   -2.03 0  411 327 
 SJC  HN ES   4    1 2 28.45                             105   -4.26 0  411 327 
 SJC  HZ I         1 2 31.95         1.2 0.14            106            411 327 
                                                                                
