 2014  330 0317 31.9 L   6.800 -73.152141.8  RSN  9 0.4 2.1LRSN                1
 GAP=136        1.05       3.2     4.9  6.9 -0.3173E+01  0.1551E+02  0.1904E+01E
 Epicentro: LOS SANTOS - SANTANDER                                             3
 ACTION:UPD 14-04-09 23:21 OP:nd   STATUS:               ID:20140330031731 L   I
 OLDACT:DUP 14-03-30 11:48 OP:carl STATUS:               ID:20140330031051d    3
 2014-03-30-0310-50M.COL___250                                                 6
 STAT SP IPHASW D HRMM SECON CODA AMPLIT PERI AZIMU VELO AIN AR TRES W  DIS CAZ7
 BAR2 SZ EP        317 51.11                             170    0.0910 23.2 188 
 BAR2 SZ ES        318  5.99                             170    0.0310 23.2 188 
 BAR2 SZ I         318  6.97        40.8 0.36            169           23.2 188 
 PAM  SZ EP        317 53.93                             150    0.2310 77.9  40 
 PAM  SN ES        318 11.26                             150    0.5410 77.9  40 
 PAM  SZ I         318 13.12        19.5 0.56            154           77.9  40 
 RUS  HZ EP        317 55.00                             143   -0.2410  101 176 
 RUS  HN ES        318 13.54                             143    0.0810  101 176 
 RUS  HZ I         318 14.48        13.3 0.22            145            101 176 
 OCA  HN ES        318 20.51                             129   -1.21 9  160 353 
 SPBC HZ EP        318  0.31                             128    0.28 9  163 219 
 SPBC HN ES        318 21.78                             128   -0.20 9  163 219 
 SPBC HE I         318 25.74        84.1 0.90            129            163 219 
 ZAR  HZ EP        318  4.00                             122   -0.00 9  203 292 
 ZAR  HN ES        318 29.62                             122    0.56 9  203 292 
 ZAR  HZ I         318 35.36         9.7 0.26            122            203 292 
 NOR  HZ EP        318  7.55                             118    0.24 8  234 234 
 NOR  HN ES        318 34.74                             118   -0.21 8  234 234 
 NOR  HZ I         318 42.08         8.7 0.24            119            234 234 
 CHI  HZ EP        318  9.23                             116   -0.10 8  248 195 
 CHI  HN ES        318 37.83                             116   -0.72 8  248 195 
 CHI  HZ I         318 41.61         4.1 0.26            118            248 195 
 GUY2CHZ EP        318 15.76                             112    0.52 7  301 235 
 GUY2CHN ES        318 49.10                             112    0.04 7  301 235 
 GUY2CHZ I         318 56.16         4.5 0.26                           301 235 
                                                                                
