 2012 1230 0753 16.0 L   6.610 -73.170146.8  RSN  4 0.1 1.4LRSN                1
 GAP=221        0.39       5.6     3.9  4.7  0.7717E+01  0.2630E+01  0.9604E+01E
 Epicentro: SAN GIL - SANTANDER                                                3
 ACTION:UPD 13-01-04 14:31 OP:ep   STATUS:               ID:20121230075316 L   I
 2012-12-30-0750-00M.COL___242                                                 6
 STAT SP IPHASW D HRMM SECON CODA AMPLIT PERI AZIMU VELO AIN AR TRES W  DIS CAZ7
 BAR2 SZ EP   1    753 35.82                             179    0.29 7 2.39 216 
 BAR2 SZ ES   1    753 50.76                             179    0.01 7 2.39 216 
 BAR2 SZ I         753 52.40         7.3 0.34                          2.39 216 
 RUS  HZ EP   1    753 38.29                             150   -0.20 7 79.9 173 
 BRR  HZ EP   1    753 37.83                             149   -0.04 7 81.3 313 
 BRR  HN ES   1    753 54.79                             149   -0.12 7 81.3 313 
 PTB  HZ EP   1    753 42.56                             133   -0.03 7  142 267 
 PTB  HN ES   1    754  3.40                             133    0.08 7  142 267 
 PTB  HZ I         754 11.14         2.5 0.30                           142 267 
                                                                                
