 2014 1230 0330 39.8 L   6.850 -73.122145.6  RSN 29 0.7 2.7LRSN                1
 GAP= 52        1.82       3.6     3.8  7.1 -0.2007E+01  0.2593E+01  0.3270E+01E
 Epicentro: LOS SANTOS - SANTANDER                                             3
     117.0      38.0    -102.0  9.0 15.0 14.0  0.0  0.1           RSN FPFIT    F
 ACTION:UPD 15-02-10 17:08 OP:nd   STATUS:               ID:20141230033039 L   I
 OLDACT:REG 14-12-30 12:46 OP:stll STATUS:               ID:20141230032748     3
 2014-12-30-0327-48M.COL___262                                                 6
 STAT SP IPHASW D HRMM SECON CODA AMPLIT PERI AZIMU VELO AIN AR TRES W  DIS CAZ7
 BAR2 EZ EP     D  330 59.91                             168    0.3910 29.3 193 
 BAR2 EZ I         331  0.20        73.6 0.36            166           29.3 193 
 BAR2 EZ ES        331 14.66                             168   -0.2610 29.3 193 
 BRR  HZ IP     D  331  1.62                             152    0.7310 71.1 294 
 BRR  HN ES        331 17.99                             152    0.6210 71.1 294 
 BRR  HZ I         331 21.54        97.4 0.28            143           71.1 294 
 PAM  SZ EP     D  331  2.54                             153    0.9110 71.4  41 
 PAM  SZ I         331  2.81       221.6 0.16            148           71.4  41 
 PAM  SN ES        331 19.22                             153    0.5510 71.4  41 
 RUS  HZ EP     D  331  4.02                             142    0.1210  106 178 
 RUS  HN ES        331 22.21                             142   -0.5210  106 178 
 RUS  HZ I         331 24.27        72.1 0.30            138            106 178 
 PTB  HZ EP        331  6.53                             131   -0.53 9  151 257 
 PTB  HE ES        331 28.23                             131   -0.12 9  151 257 
 PTB  HZ I         331 30.74        65.2 0.14            123            151 257 
 TAM  HZ IP     D  331  8.25                             130    0.90 9  154 107 
 TAM  HZ I         331  8.42       100.9 0.36            127            154 107 
 TAM  HN ES        331 29.33                             130    0.47 9  154 107 
 OCA  HZ EP        331  7.67                             130    0.09 9  155 352 
 OCA  HN ES        331 29.18                             130   -0.10 9  155 352 
 OCA  HZ I         331 34.50        73.0 0.22            123            155 352 
 SPBC HZ EP        331  8.94                             128    0.11 9  169 218 
 SPBC HN ES        331 31.11                             128   -0.38 9  169 218 
 SPBC HZ I         331 34.76        88.1 0.20            121            169 218 
 ZAR  HZ EP        331 12.49                             122    0.24 9  204 290 
 ZAR  HN ES        331 37.54                             122   -0.04 9  204 290 
 ZAR  HZ I         331 43.52        96.5 0.24            115            204 290 
 NOR  HZ EP        331 16.04                             118   -0.03 8  240 234 
 NOR  HN ES        331 43.70                             118   -0.68 8  240 234 
 NOR  HZ I         331 50.43        29.5 0.32            112            240 234 
 SML  HZ EP        331 15.90                             118   -0.06 8  240 334 
 SML  HN ES        331 43.54                             118   -0.65 8  240 334 
 SML  HZ I         331 47.16        96.1 0.10            111            240 334 
 CHI  HZ EP        331 18.28                             116    0.16 8  255 195 
 CHI  HN ES        331 47.58                             116   -0.45 8  255 195 
 CHI  HZ I         331 54.20        24.1 0.30            111            255 195 
 ROSC BZ EP     C  331 19.97                             116    1.42 8  259 211 
 ROSC BN ES        331 48.29                             116   -0.51 8  259 211 
 ROSC BZ I         331 56.83        54.5 0.60            111            259 211 
 HEL  HZ EP        331 21.18                             114    0.77 7  276 255 
 HEL  HN ES        331 52.21                             114    0.10 7  276 255 
 HEL  HZ I         331 59.53        26.8 0.30            108            276 255 
 URE  HZ EP        331 20.12                             113   -0.76 7  284 291 
 URE  HE ES        331 51.28                             113   -1.66 7  284 291 
 SOCV BZ EP        331 22.28                             112    0.06 7  296  57 
 SOCV BN ES        331 54.11                             112   -1.22 7  296  57 
 VIL  SZ EP        331 23.88                             111    0.02 7  309 192 
 VIL  SE ES        331 57.82                             111   -0.43 7  309 192 
 VIL  SZ I         332  3.53        21.8 0.28            107            309 192 
 PTGC HZ EP        331 23.35                             111   -0.75 7  313 159 
 PTGC HZ I         331 23.80        32.4 0.34            107            313 159 
 PTGC HN ES        331 56.69                             111   -2.00 7  313 159 
 CBOC HZ EP        331 27.95                             109    0.79 7  338 251 
 CBOC HZ I         331 33.20         6.1 0.18            104            338 251 
 CBOC HE ES        332  3.85                             109   -0.28 7  338 251 
 DBB  SZ EP        331 27.53                             109    0.03 7  342 273 
 DBB  SZ I         332  6.57        65.2 0.44            104            342 273 
 TOL  SZ EP        331 29.07                             109    0.38 6  349 224 
 TOL  SN ES        332  6.90                             109    0.06 6  349 224 
 MON  HZ EP   9 D  331 27.09                             108   -1.52 0  352 307 
 MON  HZ I         331 34.27        13.7 0.34            103            352 307 
 MON  HN ES        332  4.09                                   -1.09 6  352 307 
 ARGC HZ EP   9    331 29.68                             108    0.76 0  355 340 
 ARGC HZ I         331 31.89        17.2 0.36            103            355 340 
 ARGC HE ES        332  7.92                                   -0.09 6  355 340 
 SDV  BZ EP        331 29.27                             108    0.11 6  355  51 
 SDV  BE ES        332  5.99                             108   -1.70 6  355  51 
 ANIL HZ EP        331 30.87                             108    0.63 6  363 224 
 ANIL HE ES        332  9.61                             108    0.01 6  363 224 
 ANIL HZ I         332 16.32         6.0 0.34            103            363 224 
 ORTC HZ EP        331 35.12                             106    0.73 6  401 216 
 ORTC HZ I         331 36.27        13.6 0.16            102            401 216 
 ORTC HN ES        332 17.42                             106    0.43 6  401 216 
 ELOV BZ EP   9    331 34.11                             106   -0.34 0  402  87 
 ELOV BN ES        332 13.84                                   -2.92 6  402  87 
 SJC  HZ EP   9    331 33.55                             106   -1.40 0  406 326 
 SJC  HZ I         331 34.28        15.5 0.22            101            406 326 
 SJC  HE ES        332 13.56                                   -3.03 6  406 326 
 CRJC HZ EP   9    331 39.90                             103   -1.69 0  462   3 
 CRJC HN ES        332 24.31                                   -3.81 5  462   3 
 CRJC HZ I         332 39.53         8.5 0.20             99            462   3 
                                                                                
