 2014  130 0343 38.3 L   6.764 -73.174145.0  RSN  6 0.3 1.2LRSN                1
 GAP=135        0.77       4.5     4.6  5.3  0.4194E+01 -0.9421E+00  0.9961E+00E
 Epicentro: LOS SANTOS - SANTANDER                                             3
 ACTION:UPD 14-03-13 09:59 OP:ep   STATUS:               ID:20140130034338 L   I
 OLDACT:DUP 14-01-30 10:10 OP:stll STATUS:               ID:20140130033816d    3
 2014-01-30-0338-15M.COL___233                                                 6
 STAT SP IPHASW D HRMM SECON CODA AMPLIT PERI AZIMU VELO AIN AR TRES W  DIS CAZ7
 BAR2 SZ EP        343 57.81                             172    0.1010 19.0 183 
 BAR2 SZ ES        344 13.05                             172    0.1610 19.0 183 
 BAR2 SZ I         344 13.93         6.0 0.26            174           19.0 183 
 BRR  HZ EP        343 59.45                             153    0.1610 70.6 303 
 BRR  HZ I         344  9.86         3.0 0.52            149           70.6 303 
 BRR  HN ES        344 15.89                             153    0.2010 70.6 303 
 PAM  SN EP        344  0.50                             149   -0.2010 82.4  39 
 RUS  HZ EP        344  1.62                             145   -0.0510 96.9 174 
 RUS  HN ES        344 19.59                             145   -0.3310 96.9 174 
 RUS  HZ I         344 22.15         2.1 0.36            146           96.9 174 
 PTB  HZ EP        344  4.33                             133   -0.49 9  144 260 
 PTB  HN ES        344 25.46                             133   -0.08 9  144 260 
 PTB  HZ I         344 28.67         2.6 0.12            131            144 260 
 CHI  HZ EP        344 16.12                             117    0.71 8  244 195 
 CHI  HZ I         344 16.71         0.8 0.34            117            244 195 
                                                                                
