 2014  530 0903  3.6 L   6.804 -73.105144.9  RSN 19 0.5 2.1LRSN                1
 GAP=142        1.14       2.7     3.9  5.2 -0.2363E+01  0.6411E+01  0.1959E+01E
 Epicentro: LOS SANTOS - SANTANDER                                             3
 ACTION:UPD 15-03-16 17:02 OP:nd   STATUS:               ID:20140530090303 L   I
 OLDACT:REG 14-05-30 13:01 OP:mh   STATUS:               ID:20140530085813     3
 2014-05-30-0858-13M.COL___235                                                 6
 STAT SP IPHASW D HRMM SECON CODA AMPLIT PERI AZIMU VELO AIN AR TRES W  DIS CAZ7
 BAR2 SZ EP        9 3 23.21                             170    0.0410 25.0 200 
 BAR2 SZ ES        9 3 38.23                             170   -0.2010 25.0 200 
 BAR2 SZ I         9 3 39.89        15.9 0.38            168           25.0 200 
 PAM  SZ EP        9 3 26.37                             152    0.8210 74.2  37 
 PAM  SN ES        9 3 43.35                             152    0.6910 74.2  37 
 PAM  SZ I         9 3 45.44        12.2 0.20            155           74.2  37 
 BRR  HZ EP        9 3 25.20                             151    0.3110 75.0 297 
 BRR  HN ES        9 3 41.88                             151    0.4010 75.0 297 
 BRR  HZ I         9 3 44.72        15.0 0.16            148           75.0 297 
 RUS  HZ EP     D  9 3 27.04                             143   -0.2610  101 179 
 RUS  HN ES        9 3 44.94                             143   -0.8310  101 179 
 RUS  HZ I         9 3 46.82         6.8 0.42            146            101 179 
 PTB  HZ EP        9 3 30.16                             131   -0.76 9  152 259 
 PTB  HN ES        9 3 51.74                             131   -0.48 9  152 259 
 PTB  HZ I         9 3 57.24        18.8 0.38            130            152 259 
 OCA  HZ EP        9 3 31.80                             129   -0.07 9  160 352 
 OCA  HN ES        9 3 54.06                             129    0.15 9  160 352 
 OCA  HZ I         9 3 59.16        12.7 0.18            131            160 352 
 SPBC HZ EP        9 3 32.30                             128   -0.05 9  166 220 
 SPBC HN ES        9 3 54.98                             128    0.21 9  166 220 
 SPBC HZ I         9 4  1.37        28.6 0.32            129            166 220 
 ZAR  HZ EP        9 3 35.77                             122   -0.65 8  208 292 
 ZAR  HE ES        9 4  1.54                             122   -0.46 8  208 292 
 ZAR  HZ I         9 4  7.74        19.9 0.46            122            208 292 
 NOR  HZ EP        9 3 39.34                             118   -0.38 8  239 235 
 NOR  HN ES        9 4  7.71                             118   -0.16 8  239 235 
 NOR  HZ I         9 4 10.94        11.9 0.20            119            239 235 
 SML  HZ EP        9 3 39.87                             117   -0.48 8  245 334 
 SML  HN ES        9 4  8.16                             117   -0.85 8  245 334 
 SML  HZ I         9 4 15.56        24.2 0.10            118            245 334 
 CHI  HZ EP        9 3 41.42                             117   -0.02 8  250 196 
 CHI  HN ES        9 4 10.54                             117   -0.41 8  250 196 
 CHI  HZ I         9 4 16.33         4.6 0.40            118            250 196 
 HEL  HZ EP        9 3 45.27                             114    0.99 7  277 256 
 HEL  HN ES        9 4 16.36                             114    0.36 7  277 256 
 HEL  HZ I         9 4 21.92         5.4 0.34            115            277 256 
 URE  HZ EP   4    9 3 44.02                             113   -1.07 0  288 291 
 URE  HE ES   4    9 4 14.00                             113   -3.44 0  288 291 
 URE  HZ I         9 4 23.99         8.7 0.30            114            288 291 
 GUY2CHZ EP        9 3 47.55                             112   -0.08 7  305 235 
 GUY2CHN ES        9 4 22.31                             112    0.35 7  305 235 
 GUY2CHZ I         9 4 30.46         6.9 0.58                           305 235 
 RREF HZ EP        9 3 50.91                             110    0.77 7  325 230 
 RREF HN ES        9 4 27.77                             110    1.33 7  325 230 
 RREF HZ I         9 4 31.86         7.8 0.26            111            325 230 
 CBOC HZ EP        9 3 50.91                             109   -0.09 7  338 252 
 CBOC HN ES        9 4 28.39                             109    0.43 7  338 252 
 CBOC HZ I         9 4 38.75         2.3 0.58            110            338 252 
 TOL  SZ EP        9 3 52.10                             109   -0.14 6  347 225 
 TOL  SN ES        9 4 30.33                             109    0.17 6  347 225 
 TOL  SZ I         9 4 36.44        13.8 0.54            110            347 225 
 PRA  HZ EP        9 3 57.26                             106   -0.15 6  395 210 
 PRA  HN ES        9 4 39.30                             106   -0.08 6  395 210 
 PRA  HZ I         9 4 44.92         6.0 0.36            107            395 210 
 ORTC HZ EP        9 3 58.15                             106    0.29 6  398 217 
 ORTC HN ES        9 4 40.40                             106    0.23 6  398 217 
 ORTC HZ I         9 4 44.58         3.9 0.54            107            398 217 
                                                                                
