 2012  630 0633 59.6 L   6.790 -73.151145.0  RSN  6 0.4 1.4LRSN                1
 GAP=136        0.72       4.8     4.3  7.6  0.2126E+01  0.3528E+01 -0.7258E+00E
 Epicentro: LOS SANTOS - SANTANDER                                             3
 ACTION:UPD 12-08-06 17:53 OP:ep   STATUS:               ID:20120630063359 L   I
 2012-06-30-0630-00M.COL___201                                                 6
 STAT SP IPHASW D HRMM SECON CODA AMPLIT PERI AZIMU VELO AIN AR TRES W  DIS CAZ7
 BAR2 SZ EP   1    634 19.10                             171   -0.06 7 22.1 189 
 BAR2 SZ ES   1    634 34.05                             171   -0.33 7 22.1 189 
 BAR2 SZ I         634 35.34         5.0 0.31                          22.1 189 
 BRR  HZ EP   1    634 20.73                             152    0.02 7 71.2 300 
 BRR  HN ES   1    634 37.67                             152    0.53 7 71.2 300 
 BRR  HZ I         634 39.48         4.9 0.17                          71.2 300 
 PAM  SZ EP   1    634 22.04                             150    0.19 7 78.6  39 
 PAM  SE ES   1    634 38.86                             150   -0.31 7 78.6  39 
 RUS  HZ EP   1    634 23.07                             144   -0.17 7 99.5 176 
 RUS  HN ES   1    634 42.15                             144    0.50 7 99.5 176 
 RUS  HZ I         634 43.52         3.5 0.29                          99.5 176 
 PTB  HN ES   1    634 46.78                             132   -0.63 7  147 259 
 PTB  HZ I         634 49.56         3.6 0.17                           147 259 
 ZAR  HN ES   1    634 57.54                             122    0.25 6  204 292 
                                                                                
