 2011 1230 0118 38.1 L   6.798 -73.168142.6  RSN  8 0.3 2.3LRSN                1
 GAP=134        0.60       3.3     4.6  5.6  0.1504E+01  0.1345E+02  0.3742E+01E
 Epicentro: LOS SANTOS - SANTANDER                                             3
 ACTION:UPD 12-07-13 16:19 OP:ep   STATUS:               ID:20111230011838 L   I
 2011-12-30-0110-42S.COL___155                                                 6
 STAT SP IPHASW D HRMM SECON CODA AMPLIT PERI AZIMU VELO AIN AR TRES W  DIS CAZ7
 BAR2 SZ IP        118 57.21                             170   -0.1110 22.8 184 
 BAR2 SZ ES   1    119 12.06                             170   -0.27 7 22.8 184 
 BAR2 SZ I         119 14.03        44.8 0.19                          22.8 184 
 BRR  HZ EP        118 59.15                             153    0.3710 69.2 300 
 BRR  HZ I         118 59.66        41.5 0.11                          69.2 300 
 PAM  SZ EP   1    119  0.15                             150    0.08 7 79.1  41 
 PAM  SN ES   1    119 17.30                             150    0.08 7 79.1  41 
 PAM  SZ I         119 19.44        31.8 0.60                          79.1  41 
 RUS  HZ EP   1    119  1.14                             143   -0.38 7  101 175 
 RUS  HE ES   1    119 20.08                             143    0.28 7  101 175 
 RUS  HZ I         119 22.81        28.2 0.47                           101 175 
 ZAR  HZ EP   1    119  9.57                             122   -0.53 6  202 292 
 ZAR  HN ES   1    119 34.99                             122   -0.09 6  202 292 
 ZAR  HZ I         119 42.01        16.6 0.30                           202 292 
 CHI  HZ EP   1    119 15.24                             116   -0.27 6  248 195 
 CHI  HZ I         119 17.23        12.1 0.12                           248 195 
 RREF HZ EP   1    119 24.50                             110    0.64 5  320 229 
 RREF HZ I         120  8.71        18.2 0.29                           320 229 
 PRA  HZ EP   1    119 31.45                             106    0.12 4  391 209 
 PRA  HE ES   1    120 12.93                             106    0.07 4  391 209 
                                                                                
