 2014  130 0247  9.4 L   6.746 -73.147144.7  RSN  5 0.3 1.1LRSN                1
 GAP=139        0.81       4.3     4.2  6.0 -0.1642E+01  0.3096E+01  0.8671E+00E
 Epicentro: JORDAN - SANTANDER                                                 3
 ACTION:UPD 14-03-13 09:59 OP:ep   STATUS:               ID:20140130024709 L   I
 OLDACT:REG 14-01-30 07:50 OP:stll STATUS:               ID:20140130023817     3
 2014-01-30-0238-17M.COL___240                                                 6
 STAT SP IPHASW D HRMM SECON CODA AMPLIT PERI AZIMU VELO AIN AR TRES W  DIS CAZ7
 BAR2 SZ EP        247 28.96                             173    0.2010 17.5 193 
 BAR2 SZ ES        247 44.11                             173    0.2210 17.5 193 
 BAR2 SZ I         247 48.66         4.5 0.72            171           17.5 193 
 BRR  HZ EP        247 30.74                             151    0.1810 74.1 303 
 BRR  HN ES        247 47.38                             151    0.2910 74.1 303 
 PAM  SZ EP        247 31.70                             149   -0.0610 82.2  37 
 PAM  SN ES        247 48.86                             149   -0.3610 82.2  37 
 PAM  SZ I         247 49.25         2.2 0.22            153           82.2  37 
 RUS  HZ EP        247 33.04                             145    0.4510 94.7 176 
 RUS  HN ES        247 50.34                             145   -0.3610 94.7 176 
 RUS  HZ I         247 53.42         1.1 0.34            146           94.7 176 
 PTB  HZ EP        247 35.68                             132   -0.45 9  147 261 
 PTB  HN ES        247 56.82                             132   -0.19 9  147 261 
 PTB  HZ I         247 58.77         1.5 0.10            134            147 261 
                                                                                
