 2013 1130 0318 56.2 L   6.819 -73.153151.7  RSN  8 0.4 2.1LRSN                1
 GAP=147        1.10       4.3     5.6  8.5 -0.7379E+01 -0.3285E+01  0.9750E+00E
 Epicentro: LOS SANTOS - SANTANDER                                             3
 ACTION:UPD 14-01-09 16:32 OP:ep   STATUS:               ID:20131130031856 L   I
 OLDACT:REG 13-11-30 08:53 OP:mh   STATUS:               ID:20131130031736     3
 2013-11-30-0317-36M.COL___247                                                 6
 STAT SP IPHASW D HRMM SECON CODA AMPLIT PERI AZIMU VELO AIN AR TRES W  DIS CAZ7
 BAR2 SZ EP   1    319 16.68                             170    0.07 7 25.2 188 
 BAR2 SZ I         319 33.18        31.3 0.23            167           25.2 188 
 BRR  HZ EP        319 17.06                             154   -0.8710 69.6 297 
 BRR  HN ES        319 35.24                             154    0.3710 69.6 297 
 BRR  HZ I         319 38.41        11.2 0.11            157           69.6 297 
 PAM  SZ EP        319 19.59                             152    0.5710 76.3  41 
 PAM  SN ES   1    319 36.17                             152   -0.62 7 76.3  41 
 PAM  SZ I         319 38.50        14.5 0.53            154           76.3  41 
 PTB  HZ EP        319 23.44                             133   -0.22 9  147 258 
 PTB  HN ES        319 44.52                             133   -0.53 9  147 258 
 PTB  HZ I         319 47.80        10.4 0.11            135            147 258 
 OCA  HZ EP        319 24.55                             131   -0.26 9  158 353 
 OCA  HN ES        319 47.29                             131    0.19 9  158 353 
 OCA  HZ I         319 49.65        12.4 0.18            134            158 353 
 SPBC HZ EP        319 25.68                             130    0.39 9  164 218 
 SPBC HN ES        319 48.39                             130    0.42 9  164 218 
 SPBC HZ I         319 53.48         8.3 0.21            130            164 218 
 ZAR  HZ EP   4    319 30.64                             124    1.72 0  203 292 
 ZAR  HN ES        319 54.45                             124    0.03 9  203 292 
 ZAR  HZ I         320  0.47        10.7 0.29            126            203 292 
 SML  HZ EP        319 32.83                             119   -0.13 8  242 335 
 SML  HN ES        320  2.13                             119    0.52 8  242 335 
 SML  HZ I         320  4.86        48.1 0.05            121            242 335 
                                                                                
