 2016 1130 0620  8.5 L   6.786 -73.142140.5  RSN  5 0.3 1.0LRSN                1
 GAP=153        0.69       7.4     3.4  7.6 -0.8002E+01  0.8560E-01  0.2478E+02E
 Epicentro: LOS SANTOS - SANTANDER                                             3
 ACTION:UPD 17-10-26 21:13 OP:lp   STATUS:               ID:20161130062008 L   I
 OLDACT:UP  16-11-30 19:55 OP:nlst STATUS:               ID:20161130062008 L   3
 OLDACT:REG 16-11-30 13:23 OP:dani STATUS:               ID:20161130061537     3
 2016-11-30-0618-00M.COL___343                                                 6
 STAT SP IPHASW D HRMM SECON CODA AMPLIT PERI AZIMU VELO AIN AR TRES W  DIS CAZ7
 BAR2 EZ EP        620 27.66                             171    0.2010 21.9 192 
 BRR  HZ EP        620 29.32                             151    0.1810 72.3 299 
 BRR  HE ES        620 45.19                             151   -0.0610 72.3 299 
 BRR  HZ I         620 47.92         2.4 0.21            154           72.3 299 
 PAM  EZ EP        620 30.42                             150    0.2110 78.3  39 
 PAM  EN ES        620 46.93                             150   -0.2210 78.3  39 
 PAM  EZ I         620 48.82         2.7 0.16            155           78.3  39 
 PTB  HZ EP        620 34.46                             131   -0.59 9  148 259 
 PTB  HN ES        620 55.92                             131    0.16 9  148 259 
 PTB  HZ I         620 58.95         1.0 0.13            134            148 259 
 ZAR  HN ES        621  5.92                             121    0.09 9  205 293 
                                                                                
