 2017  430 0720  1.9 L   6.312 -73.524123.5  RSN  8 0.4 1.7LRSN                1
 GAP=147        0.94       3.3     4.8  7.3  0.4651E+01  0.1373E+02  0.2853E+01E
 Epicentro: CONTRATACION - SANTANDER                                           3
 ACTION:UPD 17-05-30 21:17 OP:jn   STATUS:               ID:20170430072001 L   I
 OLDACT:UP  17-04-30 17:06 OP:dnl  STATUS:               ID:20170430071738     3
 OLDACT:REG 17-04-30 12:37 OP:dnl  STATUS:               ID:20170430071738     3
 2017-04-30-0718-00M.COL___371                                                 6
 STAT SP IPHASW D HRMM SECON CODA AMPLIT PERI AZIMU VELO AIN AR TRES W  DIS CAZ7
 RUS  HZ EP   2    720 20.95                             150   -0.17 5 67.3 134 
 RUS  HE ES        720 36.12                             150   -0.0110 67.3 134 
 RUS  HZ I         720 37.59         4.8 0.48            156           67.3 134 
 BRR  HZ EP        720 22.15                             141    0.1410 90.4 347 
 BRR  HE ES        720 37.91                             141    0.1910 90.4 347 
 BRR  HZ I         720 47.84         7.1 0.12            146           90.4 347 
 SPBC HZ EP        720 22.45                             140   -0.0410 94.9 220 
 SPBC HE ES        720 38.49                             140   -0.0910 94.9 220 
 SPBC HZ I         720 44.67        16.7 0.20            144           94.9 220 
 PTB  HZ EP        720 22.57                             136   -0.7310  106 284 
 PTB  HN ES   4    720 38.29                             136   -1.73 0  106 284 
 PTB  HZ I         720 39.24        15.5 0.26            141            106 284 
 CHI  HZ EP        720 31.27                             120   -0.44 9  187 187 
 CHI  HN ES        720 55.51                             120    0.53 9  187 187 
 CHI  HZ I         721  0.27         4.0 0.46            125            187 187 
 ZAR  HZ EP   2    720 32.81                             118    0.62 4  197 312 
 ZAR  HN ES        720 55.79                             118   -0.06 9  197 312 
 ZAR  HZ I         720 58.69         8.9 0.22            123            197 312 
 HEL  HZ EP        720 36.35                             115    0.92 8  222 267 
 HEL  HN ES        721  1.41                             115   -0.20 8  222 267 
 HEL  HZ I         721  5.64         4.6 0.24            120            222 267 
 PTGC HZ EP   2    720 41.03                             109   -0.45 4  280 147 
 PTGC HN ES   4    721  9.93                             109   -2.45 0  280 147 
 PTGC HZ I         721 11.35         3.9 0.42            114            280 147 
                                                                                
