 2016  730 0606 13.8 L   6.796 -73.111152.0  RSN  9 0.6 1.6LRSN                1
 GAP=222        1.12       6.3     8.1  7.0  0.2692E+02  0.1440E+02  0.1600E+02E
 Epicentro: LOS SANTOS - SANTANDER                                             3
 ACTION:UPD 17-03-29 16:56 OP:lp   STATUS:               ID:20160730060613 L   I
 OLDACT:DUP 16-07-30 18:20 OP:edw  STATUS:               ID:20160730055760d    3
 OLDACT:REG 16-07-30 13:46 OP:edw  STATUS:               ID:20160730055759     3
 2016-07-30-0557-59S.COL___334                                                 6
 STAT SP IPHASW D HRMM SECON CODA AMPLIT PERI AZIMU VELO AIN AR TRES W  DIS CAZ7
 BAR2 EZ EP        6 6 34.28                             171    0.0910 23.9 199 
 BAR2 EZ ES        6 6 49.49                             171   -0.6110 23.9 199 
 BRR  HZ EP        6 6 36.28                             152    0.4510 74.8 297 
 BRR  HN ES        6 6 53.10                             152    0.0910 74.8 297 
 BRR  HZ I         6 6 55.60         7.8 0.80            151           74.8 297 
 RUS  HZ EP        6 6 38.62                             145    0.4910 99.9 178 
 RUS  HN ES        6 6 57.41                             145    0.3110 99.9 178 
 RUS  HZ I         6 6 58.10         5.2 0.28            145           99.9 178 
 PTB  HZ EP        6 6 41.47                             132   -0.14 9  151 259 
 PTB  HN ES   4    6 7  3.05                             132   -0.25 0  151 259 
 PTB  HZ I         6 7  5.62         3.1 0.13            131            151 259 
 SPBC HZ EP        6 6 42.93                             130   -0.05 9  165 220 
 SPBC HN ES   4    6 7  6.14                             130    0.40 0  165 220 
 SPBC HZ I         6 7 10.01         6.8 0.12            129            165 220 
 ZAR  HZ EP   2    6 6 45.11                             123   -1.93 4  208 292 
 ZAR  HN ES   2    6 7 11.87                             123   -1.09 4  208 292 
 ROSC BZ EP        6 6 53.04                             118    0.60 8  254 212 
 ROSC BN ES        6 7 22.30                             118   -0.28 8  254 212 
 HEL  HZ EP   4    6 7  4.20                             115    9.47 0  276 256 
 HEL  HN ES   4    6 7 28.39                             115    1.73 0  276 256 
 URE  HZ EP   4    6 6 52.26                             114   -3.33 0  288 292 
 URE  HN ES   4    6 7 27.98                             114   -0.21 0  288 292 
 GUY2CHZ EP        6 6 58.52                             113    0.49 7  304 235 
 GUY2CHN ES   4    6 7 33.04                             113    0.52 0  304 235 
 GUY2CHZ I         6 7 39.44         1.9 0.54                           304 235 
 PTGC HZ EP        6 6 57.13                             113   -0.61 7  307 159 
 PTGC HN ES        6 7 31.49                             113   -0.52 7  307 159 
                                                                                
