 2017 1130 0109 35.2 L   6.828 -73.165141.9  RSN 19 0.8 2.0LRSN                1
 GAP=100        1.62       3.3     4.5  7.3 -0.2634E+01  0.5927E+01 -0.6354E+00E
 Epicentro: LOS SANTOS - SANTANDER                                             3
 ACTION:UPD 17-12-12 20:02 OP:rebc STATUS:               ID:20171130010935 L   I
 OLDACT:REG 17-11-30 12:22 OP:dhb  STATUS:               ID:20171130010737     3
 2017-11-30-0108-00M.COL___486                                                 6
 STAT SP IPHASW D HRMM SECON CODA AMPLIT PERI AZIMU VELO AIN AR TRES W  DIS CAZ7
 BAR2 EZ IP     C  1 9 54.47                             169   -0.0010 26.1 184 
 BAR2 EZ ES        110  9.01                             169   -0.4610 26.1 184 
 BAR2 EZ I         110 10.52        27.7 0.34            167           26.1 184 
 PAM  EZ IP     C  1 9 57.47                             150    0.4810 76.4  42 
 PAM  EN ES        110 14.42                             150    0.4610 76.4  42 
 PAM  EZ I         110 15.21        13.2 0.20            148           76.4  42 
 RUS  HZ EP        1 9 58.45                             142   -0.4110  104 175 
 RUS  HN ES        110 17.02                             142   -0.2510  104 175 
 RUS  HZ I         110 18.10         7.8 0.22            138            104 175 
 PTB  HZ EP        110  1.35                             131   -0.42 9  146 257 
 PTB  HN ES        110 22.29                             131   -0.17 9  146 257 
 PTB  HZ I         110 27.25         6.9 0.32            128            146 257 
 OCA  HZ EP        110  3.35                             129    0.40 9  157 354 
 OCA  HE ES        110 24.23                             129   -0.33 9  157 354 
 OCA  HZ I         110 29.55        27.7 0.58            126            157 354 
 SPBC HZ EP        110  3.08                             128   -0.47 9  164 218 
 SPBC HN ES        110 25.29                             128   -0.35 9  164 218 
 SPBC HZ I         110 30.31        16.5 0.36            124            164 218 
 YPLC HZ IP     C  110  4.92                             125   -0.21 9  181 151 
 YPLC HE ES        110 29.63                             125    1.19 9  181 151 
 YPLC HZ I         110 31.80         5.7 0.42            121            181 151 
 ZAR  HZ EP        110  7.52                             122    0.40 9  201 292 
 ZAR  HN ES        110 32.26                             122    0.28 9  201 292 
 ZAR  HZ I         110 37.59        12.0 0.38            119            201 292 
 TABC EZ EP        110 11.07                             118    0.13 8  231 210 
 TABC EZ ES        110 38.81                             118    0.04 8  231 210 
 TABC EZ I         110 43.61        14.2 0.64            115            231 210 
 NOR  HZ EP        110 10.50                             118   -0.26 8  235 234 
 NOR  HE ES        110 38.56                             118    0.09 8  235 234 
 NOR  HZ I         110 48.02         7.0 0.40            114            235 234 
 CHI  HZ EP        110 12.85                             116   -0.15 8  251 195 
 CHI  HE ES        110 42.26                             116   -0.18 8  251 195 
 CHI  HZ I         110 47.05         6.8 0.46            113            251 195 
 HEL  HZ EP        110 17.13                             114    2.01 8  271 255 
 HEL  HE ES        110 44.51                             114   -1.72 8  271 255 
 HEL  HZ I         110 53.08         6.1 0.28            111            271 255 
 DRL03HZ EP        110 16.87                             112    0.57 7  286 353 
 DRL03HE ES        110 49.07                             112    0.74 7  286 353 
 GUY2CHZ EP        110 19.69                             111    1.01 7  301 234 
 GUY2CHE ES   4    110 56.33                             111    3.76 0  301 234 
 GUY2CHZ I         111  0.91         6.6 0.58                           301 234 
 PTGC HZ EP        110 17.71                             110   -1.63 7  312 158 
 PTGC HZ I         110 57.02         8.2 0.48            108            312 158 
 SDV  BZ EP        110 24.04                             107   -1.06 6  360  51 
 SDV  B2 ES        111  4.07                             107    0.08 6  360  51 
 SDV  BZ I         111  9.07         2.1 0.60            105            360  51 
 PRA  HZ EP        110 28.43                             106   -0.40 6  394 209 
 PRA  HE ES        111 11.26                             106    0.64 6  394 209 
 PRA  HZ I         111 14.73         6.4 0.40            103            394 209 
 ORTC HZ EP        110 28.98                             106   -0.20 6  397 216 
 ORTC HE ES        111 13.43                             106    2.18 6  397 216 
 ORTC HZ I         111 15.85         3.7 0.26            103            397 216 
 SJC  HZ EP        110 28.56                             105   -1.69 6  406 327 
 SJC  HE ES        111 12.58                             105   -0.57 6  406 327 
 SJC  HZ I         111 24.54         2.0 0.52            103            406 327 
                                                                                
