 2013 1230 0752 22.8 L   6.763 -73.143151.1  RSN  8 0.4 1.5LRSN                1
 GAP=200        0.85       4.2     4.9  8.1  0.6139E+01 -0.1599E+01 -0.1991E+01E
 Epicentro: LOS SANTOS - SANTANDER                                             3
 ACTION:UPD 14-01-13 10:22 OP:ep   STATUS:               ID:20131230075222 L   I
 OLDACT:UP  13-12-30 12:44 OP:mh   STATUS:               ID:20131230075000     3
 OLDACT:REG 13-12-30 08:09 OP:mh   STATUS:               ID:20131230075000     3
 2013-12-30-0750-00M.COL___285                                                 6
 STAT SP IPHASW D HRMM SECON CODA AMPLIT PERI AZIMU VELO AIN AR TRES W  DIS CAZ7
 BAR2 SZ EP        752 42.75                             172   -0.2110 19.4 193 
 BAR2 SZ I         752 59.54         8.5 0.28            175           19.4 193 
 BRR  HZ EP        752 44.72                             153    0.1010 73.5 301 
 BRR  HE ES        753  2.08                             153    0.4110 73.5 301 
 BRR  HZ I         753  5.99         3.9 0.25            153           73.5 301 
 RUS  HZ EP        752 46.84                             146    0.0810 96.5 176 
 RUS  HN ES        753  5.27                             146   -0.2010 96.5 176 
 RUS  HZ I         753  7.22         2.5 0.14            148           96.5 176 
 PTB  HZ EP   1    752 49.70                             133   -0.43 7  147 260 
 PTB  HN ES        753 10.92                             133   -0.56 9  147 260 
 PTB  HZ I         753 18.40         3.5 0.36            135            147 260 
 SPBC HZ EP   1    752 51.58                             131    0.18 7  160 220 
 SPBC HN ES        753 14.11                             131    0.37 9  160 220 
 SPBC HZ I         753 18.99         5.7 0.19            132            160 220 
 ZAR  HZ EP   4    752 58.55                             123    2.80 0  206 293 
 ZAR  HE ES        753 21.13                             123   -0.36 8  206 293 
 ZAR  HZ I         753 27.19         3.2 0.24            123            206 293 
 NOR  HN ES   1    753 27.20                             120    0.67 6  233 235 
 SML  HN ES   2    753 30.11                             118    0.87 4  248 336 
 GUY2CHZ EP   4    753  8.19                             114    1.80 0  299 235 
 GUY2CHN ES   4    753 44.89                             114    4.47 0  299 235 
 SJC  HZ EP   4    753 24.17                             106    5.24 0  413 327 
 SJC  HN ES   4    754  0.06                             106   -2.68 0  413 327 
                                                                                
