 2017  130 0809  5.8 L   6.807 -73.124144.2  RSN  7 0.2 1.2LRSN                1
 GAP=101        0.60       3.1     2.9  4.0  0.1880E+01 -0.2222E+01 -0.6566E+00E
 Epicentro: LOS SANTOS - SANTANDER                                             3
 ACTION:UPD 17-05-22 16:04 OP:jn   STATUS:               ID:20170130080905 L   I
 OLDACT:UP  17-01-30 16:18 OP:and  STATUS:               ID:20170130080338     3
 OLDACT:UP  17-01-30 16:17 OP:and  STATUS:               ID:20170130080338     3
 OLDACT:UP  17-01-30 16:17 OP:and  STATUS:               ID:20170130080338     3
 OLDACT:UP  17-01-30 16:16 OP:and  STATUS:               ID:20170130080338     3
 OLDACT:REG 17-01-30 14:29 OP:ar   STATUS:               ID:20170130080338     3
 2017-01-30-0808-00M.COL___321                                                 6
 STAT SP IPHASW D HRMM SECON CODA AMPLIT PERI AZIMU VELO AIN AR TRES W  DIS CAZ7
 BAR2 EZ EP        8 9 25.16                             170   -0.1110 24.5 195 
 BAR2 EZ ES        8 9 40.56                             170    0.1010 24.5 195 
 BAR2 EZ I         8 9 41.28         3.5 0.17            170           24.5 195 
 BRR  HZ EP        8 9 26.77                             152   -0.1110 73.0 297 
 BRR  HN ES        8 9 43.80                             152    0.4710 73.0 297 
 BRR  HZ I         8 9 47.52         3.2 0.26            149           73.0 297 
 PAM  EZ EP        8 9 27.70                             151   -0.0310 75.3  39 
 PAM  EN ES        8 9 44.57                             151   -0.2610 75.3  39 
 PAM  EZ I         8 9 46.70         3.2 0.52            152           75.3  39 
 RUS  HZ EP        8 9 29.54                             143    0.1010  101 177 
 RUS  HN ES        8 9 47.64                             143   -0.2410  101 177 
 RUS  HZ I         8 9 49.79         1.3 0.34            145            101 177 
 PTB  HZ EP   9    8 9 31.83                             131   -1.04 0  150 259 
 PTB  HN ES        8 9 52.92                             131   -0.02 9  150 259 
 PTB  HZ I         8 9 55.42         2.9 0.12            131            150 259 
 TAM  HZ IP     D  8 9 33.48                             131    0.32 9  153 105 
 ZAR  HZ EP   3    8 9 38.46                             122    0.11 2  206 292 
 ZAR  HE ES        810  3.47                             122   -0.26 8  206 292 
 ZAR  HZ I         810 10.06         2.2 0.43            121            206 292 
                                                                                
