 2015  530 0652 15.3 L   6.855 -73.203124.8  RSN  4 0.6 1.2LRSN                1
 GAP=236        1.44       8.8    13.1 13.7  0.4278E+02  0.1858E+02  0.2706E+02E
 Epicentro: ZAPATOCA - SANTANDER                                               3
 ACTION:UPD 15-09-10 22:08 OP:cam  STATUS:               ID:20150530065215 L   I
 OLDACT:UP  15-06-03 18:53 OP:cam  STATUS:               ID:20150530065215 L   3
 OLDACT:UP  15-06-01 11:35 OP:Mher STATUS:               ID:20150530065215 L   3
 OLDACT:REG 15-05-30 16:04 OP:stll STATUS:               ID:20150530064748     3
 2015-05-30-0647-48M.COL___306                                                 6
 STAT SP IPHASW D HRMM SECON CODA AMPLIT PERI AZIMU VELO AIN AR TRES W  DIS CAZ7
 BAR2 EZ ES        652 46.73                             166    0.6710 29.1 175 
 BAR2 EZ I         652 48.65         3.8 0.18            170           29.1 175 
 BRR  HZ EP        652 34.41                             152    0.6710 62.8 296 
 BRR  HN ES        652 47.34                             152   -0.7610 62.8 296 
 BRR  HN I         652 54.50         6.9 0.52            152           62.8 296 
 RUS  HZ EP        652 37.10                             137   -0.5210  107 173 
 RUS  HN ES        652 54.69                             137   -0.3210  107 173 
 RUS  HZ I         652 56.96         1.5 0.30            143            107 173 
 SPBC HN ES        653  3.81                             124    0.29 9  164 216 
                                                                                
