 2013  130 0052  5.5 L   6.761 -73.101140.8  RSN  4 0.2 1.5LRSN                1
 GAP=144        0.51       2.7     2.9  4.5 -0.6096E+00  0.1872E+01  0.1640E+01E
 Epicentro: LOS SANTOS - SANTANDER                                             3
 ACTION:UPD 13-02-15 09:17 OP:ep   STATUS:               ID:20130130005205 L   I
 2013-01-30-0050-00M.COL___241                                                 6
 STAT SP IPHASW D HRMM SECON CODA AMPLIT PERI AZIMU VELO AIN AR TRES W  DIS CAZ7
 BRR  HZ EP        052 26.70                             149    0.1610 77.6 300 
 BRR  HE ES        052 43.15                             149    0.2310 77.6 300 
 BRR  HE I         052 44.25        14.7 0.27            152           77.6 300 
 PAM  SZ EP        052 27.37                             150    0.1110 77.8  35 
 PAM  SN ES        052 43.95                             150   -0.2510 77.8  35 
 PAM  SZ I         052 46.98         5.7 0.53            152           77.8  35 
 RUS  HZ EP        052 28.48                             144    0.0010 96.1 179 
 RUS  HN ES        052 46.41                             144    0.0310 96.1 179 
 RUS  HN I         052 48.45         5.5 0.49            146           96.1 179 
 PTB  HZ EP        052 32.35                             130   -0.14 9  152 261 
 PTB  HE ES   1    052 53.16                             130   -0.35 7  152 261 
 PTB  HZ I         052 54.93         2.5 0.14            133            152 261 
                                                                                
