 2017 1030 0909 38.8 L   6.780 -73.184142.9  RSN  5 0.4 0.8LRSN                1
 GAP=232        0.98       7.5     6.8  7.8  0.3183E+02  0.7878E+01  0.7985E+00E
 Epicentro: LOS SANTOS - SANTANDER                                             3
 ACTION:UPD 17-11-07 19:39 OP:rebc STATUS:               ID:20171030090938 L   I
 OLDACT:REG 17-10-30 12:53 OP:dhb  STATUS:               ID:20171030085739     3
 2017-10-30-0858-00M.COL___414                                                 6
 STAT SP IPHASW D HRMM SECON CODA AMPLIT PERI AZIMU VELO AIN AR TRES W  DIS CAZ7
 BAR2 EZ EP        9 9 57.78                             171   -0.3010 20.8 180 
 BAR2 EZ ES        910 12.85                             171   -0.2310 20.8 180 
 BAR2 EZ I         910 14.22         1.4 0.14            176           20.8 180 
 BRR  HZ EP        9 9 59.43                             153   -0.1110 68.7 302 
 BRR  HZ I         910 12.53         1.1 0.66            147           68.7 302 
 BRR  HN ES        910 15.87                             153    0.1910 68.7 302 
 RUS  HZ EP        910  2.88                             144    0.7010 98.8 174 
 RUS  HN ES        910 20.45                             144    0.0610 98.8 174 
 RUS  HZ I         910 21.99         1.0 0.32            145           98.8 174 
 PTB  HZ EP        910  4.54                             132   -0.63 9  143 259 
 PTB  HN ES        910 25.58                             132   -0.11 9  143 259 
 PTB  HZ I         910 28.07         0.5 0.10            130            143 259 
 ZAR  HE ES        910 36.18                             122    0.47 9  201 293 
 ZAR  HZ I         910 41.75         0.9 0.36            118            201 293 
                                                                                
