 2010  730 0411  0.9 L   6.810 -73.171151.4  RSN  4 0.2 1.2LRSN                1
 GAP=156        0.44       5.6    11.3 10.5  0.3424E+02 -0.8799E+02 -0.2916E+02E
 Epicentro: LOS SANTOS - SANTANDER                                             3
 ACTION:UPD 10-12-01 15:21 OP:pat  STATUS:               ID:20100730041100 L   I
 2010-07-30-0409-48S.COL___123                                                 6
 STAT SP IPHASW D HRMM SECON CODA AMPLIT PERI AZIMU VELO AIN AR TRES W  DIS CAZ7
 BRR  HZ EP   1    411 22.50                             154     0.0 7   68 299 
 BRR  HE ES   1    411 39.31                             154     0.0 7   68 299 
 BRR  HZ I         411 42.89         3.7 0.26                            68 299 
 RUS  HZ EP   2    411 25.23                             145     0.0 5  102 175 
 RUS  HZ I         411 28.49         1.6 0.82                           102 175 
 RUS  HN ES   2    411 44.31                             145     0.0 5  102 175 
 GUE  SZ EP   2    411 25.66                             141    -0.4 5  116  14 
 GRA  SZ EP   2    411 26.97                             138     0.4 5  126  19 
 GRA  SZ I         411 48.00         2.7 0.22                           126  19 
                                                                                
