 2017  530 0833 59.2 L   6.685 -73.225148.3  RSN  5 0.1 1.3LRSN                1
 GAP=219        0.40       2.4     3.3  3.8  0.1549E+01  0.2338E+01 -0.2321E+01E
 Epicentro: BARICHARA - SANTANDER                                              3
 ACTION:UPD 17-06-16 13:40 OP:jn   STATUS:               ID:20170530083359 L   I
 OLDACT:REG 17-05-30 12:34 OP:osc  STATUS:               ID:20170530082733     3
 2017-05-30-0828-00M.COL___335                                                 6
 STAT SP IPHASW D HRMM SECON CODA AMPLIT PERI AZIMU VELO AIN AR TRES W  DIS CAZ7
 BRR  HZ EP        834 20.50                             153   -0.1310 71.3 311 
 BRR  HE ES        834 37.45                             153    0.1110 71.3 311 
 BRR  HZ I         834 38.77         4.3 0.22            148           71.3 311 
 RUS  HN ES        834 40.48                             148   -0.0310 89.0 170 
 PTB  HZ EP        834 25.39                             135   -0.05 9  137 263 
 PTB  HN ES        834 45.73                             135   -0.17 9  137 263 
 PTB  HZ I         834 48.68         1.9 0.30            132            137 263 
 SPBC HE ES        834 47.89                             133    0.14 9  148 219 
 ZAR  HZ EP        834 31.70                             123    0.17 9  201 296 
 ZAR  HE ES   4    834 55.92                             123   -0.83 0  201 296 
 ZAR  HZ I         835  3.34         2.7 0.26            122            201 296 
                                                                                
