 2014  730 0048 42.8 L   6.879 -73.515 95.1  RSN 13 0.4 1.9LRSN                1
 GAP= 70        0.97       2.7     3.8  8.6 -0.4255E+01  0.1900E+02 -0.4832E+01E
 Epicentro: SAN VICENTE DE CHUCURI - SANTANDER                                 3
 ACTION:UPD 15-03-16 20:48 OP:nd   STATUS:               ID:20140730004842 L   I
 OLDACT:REG 14-07-30 13:50 OP:mh   STATUS:               ID:20140730004817     3
 2014-07-30-0048-17M.COL___254                                                 6
 STAT SP IPHASW D HRMM SECON CODA AMPLIT PERI AZIMU VELO AIN AR TRES W  DIS CAZ7
 BAR2 SZ IP     D  048 58.34                             151    0.8010 48.6 131 
 BAR2 SZ ES   1    049  9.00                             151   -0.03 7 48.6 131 
 BAR2 SZ I         049 11.46        41.4 0.15            161           48.6 131 
 PAM  SZ EP   1    049  2.84                             129    0.57 7  103  60 
 PAM  SN ES        049 17.37                             129   -0.0910  103  60 
 PAM  SZ I         049 20.62        14.1 0.36            138            103  60 
 PTB  HZ IP     C  049  2.44                             127    0.1010  111 250 
 PTB  HN ES   1    049 17.79                             127    0.21 7  111 250 
 RUS  HZ EP   1    049  3.54                             125   -0.27 7  119 156 
 RUS  HN ES   1    049 19.56                             125   -0.64 7  119 156 
 RUS  HZ I         049 22.38        10.5 0.21            133            119 156 
 SPBC HZ EP        049  6.47                             118    0.03 9  149 204 
 SPBC HN ES   1    049 24.81                             118   -0.06 7  149 204 
 SPBC HZ I         049 26.33        10.9 0.14            123            149 204 
 OCA  HZ EP        049  6.45                             118   -0.38 9  152   8 
 OCA  HN ES        049 25.59                             118    0.01 9  152   8 
 OCA  HZ I         049 32.84        15.6 0.79            123            152   8 
 ZAR  HZ EP   1    049  8.85                             116    0.97 7  163 295 
 ZAR  HN ES   4    049 31.45                             116    4.01 0  163 295 
 ZAR  HZ I         049 33.27        13.9 0.14            119            163 295 
 NOR  HZ EP   1    049 13.27                             110    0.13 6  209 226 
 NOR  HN ES        049 36.21                             110   -0.60 8  209 226 
 NOR  HZ I         049 44.96         4.7 0.20            113            209 226 
 SML  HN ES        049 38.49                             109   -0.75 8  221 344 
 HEL  HZ EP        049 17.04                             108    0.40 8  235 251 
 HEL  HN ES   1    049 43.10                             108    0.07 6  235 251 
 HEL  HZ I         049 49.75         4.1 0.18            110            235 251 
 CHI  HN ES   4    049 48.58                             107    2.40 0  250 186 
 GUY2CHZ EP        049 20.94                             105   -0.48 8  275 228 
 GUY2CHE ES        049 51.46                             105   -0.09 8  275 228 
 GUY2CHZ I         049 58.37         3.5 0.12                           275 228 
 RREF HZ EP   2    049 24.82                             104    0.36 4  298 223 
 RREF HN ES   4    049 58.48                             104    1.53 0  298 223 
 TOL  SZ EP   4    049 29.19                             102    2.14 0  323 218 
 TOL  SN ES   4    050  3.02                             102    1.46 0  323 218 
 TOL  SZ I         050 10.96        13.0 0.76            104            323 218 
                                                                                
