 2011  730 0921 13.7 L   6.551 -73.437123.9  RSN  5 0.3 1.3LRSN                1
 GAP= 98        0.63       4.5     6.3  7.0  0.7794E+01  0.1616E+02  0.4945E+01E
 Epicentro: HATO - SANTANDER                                                   3
 ACTION:UPD 12-07-25 14:04 OP:epov STATUS:               ID:20110730092113 L   I
 2011-07-30-0920-10S.COL___141                                                 6
 STAT SP IPHASW D HRMM SECON CODA AMPLIT PERI AZIMU VELO AIN AR TRES W  DIS CAZ7
 BAR2 SZ EP   1    921 31.05                             166    0.19 7 28.5  81 
 BAR2 SZ ES   1    921 43.98                             166   -0.26 7 28.5  81 
 BAR2 SZ I         921 44.94         5.8 0.40                          28.5  81 
 BRR  HZ EP   1    921 31.71                             149   -0.67 7 68.6 334 
 BRR  HN ES   1    921 47.29                             149    0.35 7 68.6 334 
 BRR  HZ I         921 48.51         3.8 0.12                          68.6 334 
 RUS  HZ EP   1    921 34.11                             144    0.08 7 82.7 152 
 RUS  HN ES   1    921 49.94                             144    0.07 7 82.7 152 
 RUS  HZ I         921 52.36         3.9 0.46                          82.7 152 
 OCA  SZ EP   2    921 43.75                             120    0.54 4  187   4 
 OCA  SZ I         922  2.71         4.0 0.51                           187   4 
 NOR  SZ EP   2    921 43.70                             119    0.05 4  192 236 
 NOR  SE ES   2    922  7.13                             119    0.13 4  192 236 
                                                                                
