 2013 1130 0447 40.3 L   6.820 -73.223145.5  RSN  5 0.6 1.4LRSN                1
 GAP=125        1.36       8.8     7.9 10.5 -0.1779E+02  0.1927E+02 -0.3606E+02E
 Epicentro: ZAPATOCA - SANTANDER                                               3
 ACTION:UPD 14-01-09 16:32 OP:ep   STATUS:               ID:20131130044740 L   I
 OLDACT:UP  13-11-30 12:30 OP:mh   STATUS:               ID:20131130044001d    3
 OLDACT:DUP 13-11-30 12:30 OP:mh   STATUS:               ID:20131130044001d    3
 2013-11-30-0440-00M.COL___282                                                 6
 STAT SP IPHASW D HRMM SECON CODA AMPLIT PERI AZIMU VELO AIN AR TRES W  DIS CAZ7
 BAR2 SZ ES        448 14.97                             170   -0.3310 25.6 170 
 BRR  HZ EP        448  1.30                             155    0.3010 62.6 300 
 BRR  HN ES        448 17.98                             155    0.8710 62.6 300 
 BRR  HZ I         448 20.13         6.2 0.16            155           62.6 300 
 PAM  SZ EP        448  3.41                             149    0.6410 81.5  45 
 PAM  SN ES   1    448 19.48                             149   -0.79 7 81.5  45 
 PAM  SZ I         448 22.29         3.9 0.43            153           81.5  45 
 PTB  HZ EP        448  5.98                             134   -0.59 9  140 257 
 PTB  HN ES        448 26.81                             134   -0.22 9  140 257 
 PTB  HZ I         448 31.56         3.4 0.19            135            140 257 
 SML  HZ EP        448 16.53                             118    0.18 8  238 337 
 SML  HN ES        448 43.78                             118   -0.66 8  238 337 
                                                                                
