 2013  130 0932 53.0 L   6.787 -73.110151.4  RSN  7 0.3 1.5LRSN                1
 GAP=142        0.70       4.3     4.0  5.8  0.2373E+01  0.4741E+01  0.8464E+01E
 Epicentro: LOS SANTOS - SANTANDER                                             3
 ACTION:UPD 13-02-15 09:17 OP:ep   STATUS:               ID:20130130093253 L   I
 2013-01-30-0930-00M.COL___241                                                 6
 STAT SP IPHASW D HRMM SECON CODA AMPLIT PERI AZIMU VELO AIN AR TRES W  DIS CAZ7
 BAR2 SZ EP        933 13.07                             171   -0.2310 22.9 200 
 BAR2 SZ ES   1    933 29.11                             171   -0.03 7 22.9 200 
 BAR2 SZ I         933 31.01         7.3 0.18            170           22.9 200 
 BRR  HZ EP        933 15.39                             152    0.4010 75.4 298 
 BRR  HE ES        933 32.59                             152    0.4410 75.4 298 
 BRR  HE I         933 36.31         9.3 0.19            149           75.4 298 
 PAM  SZ EP   2    933 15.49                             152   -0.25 5 76.1  37 
 PAM  SE ES        933 33.33                             152   -0.1510 76.1  37 
 PAM  SZ I         933 35.50         3.5 0.16            155           76.1  37 
 RUS  HZ EP        933 17.15                             145   -0.0410 98.9 178 
 RUS  HE ES   1    933 36.01                             145   -0.05 7 98.9 178 
 RUS  HE I         933 36.69         2.2 0.36            149           98.9 178 
 PTB  HZ EP   1    933 20.71                             132   -0.05 7  151 260 
 PTB  HE ES   1    933 42.00                             132   -0.41 7  151 260 
 PTB  HZ I         933 47.30         3.9 0.30            132            151 260 
 ZAR  HE ES   1    933 51.58                             123   -0.60 6  208 292 
 ZAR  HE I         933 57.74         8.2 0.28            123            208 292 
 CHI  HZ EP   1    933 31.44                             118    0.46 6  248 196 
                                                                                
