 2012  730 0411 49.2 L   6.595 -73.266140.0  RSN  4 0.3 1.0LRSN                1
 GAP=133        0.62       8.9     6.5  9.3  0.1566E+02  0.3689E+01  0.3696E+02E
 Epicentro: CABRERA - SANTANDER                                                3
 ACTION:UPD 12-08-14 11:46 OP:ep   STATUS:               ID:20120730041149 L   I
 2012-07-30-0410-00M.COL___215                                                 6
 STAT SP IPHASW D HRMM SECON CODA AMPLIT PERI AZIMU VELO AIN AR TRES W  DIS CAZ7
 BAR2 SZ ES   2    412 22.07                             176    -0.5 5    9  92 
 BRR  HZ EP   1    412  9.76                             150    -0.2 7   75 319 
 BRR  HZ I         412 10.40         3.9 0.11            151             75 319 
 BRR  HN ES   1    412 26.50                             150     0.3 7   75 319 
 RUS  HZ EP   1    412 11.29                             149     0.3 7   80 165 
 RUS  HZ I         412 12.10         1.2 0.26            147             80 165 
 PTB  HZ EP   1    412 14.19                             134    -0.1 7  132 267 
 PTB  HN ES   1    412 33.82                             134     0.0 7  132 267 
 PTB  HZ I         412 36.38         1.2 0.11            133            132 267 
