 2017  930 0442  2.2 L   6.833 -73.133146.2  RSN 13 0.5 1.8LRSN                1
 GAP=186        1.22       5.1     5.0  7.1  0.1127E+02  0.5717E+01  0.5609E+01E
 Epicentro: LOS SANTOS - SANTANDER                                             3
 ACTION:UPD 17-10-05 19:17 OP:rebc STATUS:               ID:20170930044202 L   I
 OLDACT:UP  17-09-30 16:40 OP:edw  STATUS:               ID:20170930042941     3
 OLDACT:REG 17-09-30 12:44 OP:edw  STATUS:               ID:20170930042941     3
 2017-09-30-0438-00M.COL___441                                                 6
 STAT SP IPHASW D HRMM SECON CODA AMPLIT PERI AZIMU VELO AIN AR TRES W  DIS CAZ7
 BAR2 EZ EP        442 21.88                             169   -0.0510 27.1 192 
 BAR2 EZ ES        442 36.88                             169   -0.4710 27.1 192 
 BAR2 EZ I         442 39.08        15.0 0.32            167           27.1 192 
 BRR  HZ EP        442 23.72                             153    0.3810 70.8 295 
 BRR  HN ES        442 40.47                             153    0.6110 70.8 295 
 BRR  HZ I         442 44.79        13.3 0.14            152           70.8 295 
 RUS  HZ EP        442 26.49                             143    0.2710  104 177 
 RUS  HN ES        442 44.07                             143   -0.9110  104 177 
 RUS  HZ I         442 46.01         5.4 0.26            143            104 177 
 YPLC HZ EP        442 32.57                             126    0.33 9  179 152 
 YPLC HN ES        442 56.69                             126    0.99 9  179 152 
 YPLC HZ I         442 58.95         7.0 0.28            128            179 152 
 ZAR  HZ EP   1    442 35.16                             122    0.53 6  204 291 
 ZAR  HN ES        442 59.58                             122   -0.38 9  204 291 
 ZAR  HZ I         443  5.47         7.0 0.32            123            204 291 
 CHI  HZ EP        442 40.11                             117   -0.20 8  252 195 
 CHI  HN ES        443 10.11                             117    0.05 8  252 195 
 CHI  HZ I         443 15.40         1.8 0.48            117            252 195 
 HEL  HZ EP   4    442 45.13                             115    2.48 0  274 255 
 HEL  HN ES        443 14.41                             115    0.18 8  274 255 
 HEL  HZ I         443 20.21         3.5 0.34            115            274 255 
 URE  HZ EP   4    442 44.41                             114    1.16 0  284 291 
 URE  HN ES   4    443 13.78                             114   -1.52 0  284 291 
 URE  HZ I         443 14.47         4.7 0.16            114            284 291 
 GUY2CHZ EP   4    442 47.64                             112    1.48 0  304 234 
 GUY2CHN ES        443 20.41                             112   -0.06 7  304 234 
 GUY2CHZ I         443 29.32         2.5 0.30                           304 234 
 PTGC HZ EP        442 45.29                             111   -1.08 7  312 159 
 PTGC HN ES   4    443 18.89                             111   -1.96 0  312 159 
 CBOC HZ EP   4    442 50.65                             110    1.27 0  336 252 
 CBOC HN ES        443 26.25                             110    0.05 7  336 252 
 PRA  HZ EP   9    442 55.29                             106   -0.86 0  396 209 
 PRA  HN ES        443 37.70                             106    0.30 6  396 209 
 PRA  HZ I         443 43.77         2.3 0.36            107            396 209 
 SJC  HZ EP        442 56.58                             106   -0.89 6  407 327 
 SJC  HN ES   4    443 32.63                             106   -7.99 0  407 327 
 SJC  HZ I         443 43.65         1.1 0.60            107            407 327 
                                                                                
