 2012  530 0004 32.1 L   6.768 -73.160142.0  RSN  9 0.4 2.1LRSN                1
 GAP=136        0.87       3.6     4.5  7.1 -0.2599E+01  0.1256E+02  0.2191E+00E
 Epicentro: LOS SANTOS - SANTANDER                                             3
 ACTION:UP  12-07-05 12:08 OP:pat  STATUS:               ID:20120530000432 L   I
 2012-05-30-0000-00M.COL___201                                                 6
 STAT SP IPHASW D HRMM SECON CODA AMPLIT PERI AZIMU VELO AIN AR TRES W  DIS CAZ7
 BAR2 SZ EP   1    0 4 51.13                             172    -0.1 7   20 187 
 BAR2 SZ ES   1    0 5  6.37                             172     0.2 7   20 187 
 BAR2 SZ I         0 5  8.38        74.3 0.21                            20 187 
 PAM  SZ EP   1    0 4 54.43                             149     0.2 7   81  39 
 PAM  SZ I         0 4 54.71        25.2 0.18                            81  39 
 PAM  SN ES   1    0 5 11.53                             149     0.1 7   81  39 
 RUS  HZ EP   1    0 4 55.31                             144     0.0 7   97 175 
 RUS  HN ES   1    0 5 13.35                             144     0.0 7   97 175 
 RUS  HZ I         0 5 15.53        18.4 0.43                            97 175 
 PTB  HZ EP   1    0 4 58.45                             132    -0.2 7  146 260 
 PTB  HN ES   1    0 5 19.37                             132     0.1 7  146 260 
 PTB  HZ I         0 5 22.76        11.0 0.18                           146 260 
 OCA  HZ EP   1    0 4 59.73                             128    -0.7 7  164 354 
 OCA  HN ES   1    0 5 22.25                             128    -0.3 7  164 354 
 OCA  HZ I         0 5 28.76        31.3 0.14                           164 354 
 ZAR  HZ EP   1    0 5  4.64                             122     0.3 6  204 293 
 ZAR  HN ES   1    0 5 29.50                             122     0.1 6  204 293 
 ZAR  HZ I         0 5 35.63        10.9 0.20                           204 293 
 NOR  SZ EP   1    0 5  7.32                             118     0.0 6  231 235 
 NOR  SN ES   1    0 5 33.98                             118    -0.7 6  231 235 
 NOR  SZ I         0 5 39.70         1.3 0.22                           231 235 
 CHI  HZ EP   1    0 5  9.70                             117     0.5 6  245 195 
 CHI  HN ES   1    0 5 37.47                             117    -0.7 6  245 195 
 CHI  HZ I         0 5 44.83         7.9 0.28                           245 195 
 HEL  HZ EP   1    0 5 12.85                             114     1.0 6  270 256 
 HEL  HE ES   1    0 5 43.11                             114     0.2 6  270 256 
 HEL  HZ I         0 5 49.94         6.8 0.28                           270 256 
                                                                                
