 2015  130 0622 42.2 L   6.806 -73.130140.7  RSN  9 0.5 1.3LRSN                1
 GAP=138        1.20       4.1     5.0  7.0 -0.1281E+00  0.6877E+01  0.3058E+01E
 Epicentro: LOS SANTOS - SANTANDER                                             3
 ACTION:UPD 15-03-02 15:43 OP:nd   STATUS:               ID:20150130062242 L   I
 OLDACT:REG 15-01-30 13:13 OP:cam  STATUS:               ID:20150130061815     3
 2015-01-30-0618-15M.COL___268                                                 6
 STAT SP IPHASW D HRMM SECON CODA AMPLIT PERI AZIMU VELO AIN AR TRES W  DIS CAZ7
 BAR2 EZ EP        623  1.16                             170   -0.1310 24.4 194 
 BAR2 EZ ES        623 15.23                             170   -0.9210 24.4 194 
 BRR  HZ EP        623  3.00                             151    0.0810 72.4 297 
 BRR  HN ES        623 19.83                             151    0.7810 72.4 297 
 BRR  HZ I         623 20.47         3.8 0.10            140           72.4 297 
 PAM  SZ EP        623  4.13                             150    0.3010 75.7  39 
 PAM  SN ES        623 21.03                             150    0.3710 75.7  39 
 PAM  SZ I         623 22.76         2.0 0.56            138           75.7  39 
 RUS  HZ EP        623  5.44                             143   -0.1110  101 177 
 RUS  HN ES        623 23.49                             143   -0.2410  101 177 
 RUS  HZ I         623 25.45         1.7 0.26            138            101 177 
 PTB  HN ES        623 29.13                             130   -0.70 9  150 259 
 PTB  HZ I         623 31.18         3.4 0.12            121            150 259 
 SPBC HZ EP        623 10.27                             127   -0.25 9  165 219 
 SPBC HN ES        623 33.36                             127    0.78 9  165 219 
 SPBC HZ I         623 39.32         2.6 0.22            120            165 219 
 ZAR  HZ EP        623 14.44                             121   -0.07 8  205 292 
 ZAR  HE ES        623 39.61                             121   -0.06 8  205 292 
 ZAR  HZ I         623 45.41         2.3 0.32            111            205 292 
 SML  HZ EP   1    623 17.96                             116   -0.64 6  244 335 
 SML  HZ I         623 49.15         2.3 0.10            107            244 335 
 CHI  HZ EP        623 19.81                             116    0.01 8  250 196 
 CHI  HN ES        623 49.65                             116    0.57 8  250 196 
                                                                                
