 2014  630 0714  7.9 L   6.826 -73.179146.9  RSN  5 0.3 1.1LRSN                1
 GAP=146        0.83       4.7     4.8  6.4 -0.1011E+02  0.8769E+01 -0.1695E+01E
 Epicentro: ZAPATOCA - SANTANDER                                               3
 ACTION:UPD 14-07-01 22:58 OP:nd   STATUS:               ID:20140630071407 L   I
 OLDACT:REG 14-06-30 14:47 OP:stll STATUS:               ID:20140630070809     3
 2014-06-30-0708-09M.COL___244                                                 6
 STAT SP IPHASW D HRMM SECON CODA AMPLIT PERI AZIMU VELO AIN AR TRES W  DIS CAZ7
 BAR2 SZ EP        714 27.53                             170   -0.1710 25.9 181 
 BAR2 SZ ES        714 43.78                             170    0.6110 25.9 181 
 BAR2 SZ I         714 45.18         3.6 0.28            171           25.9 181 
 PAM  SZ EP        714 30.62                             151    0.3910 77.6  43 
 PAM  SZ I         714 30.70         1.8 0.42            152           77.6  43 
 PAM  SN ES        714 47.28                             151   -0.3910 77.6  43 
 RUS  HZ EP        714 31.93                             143   -0.0510  104 174 
 RUS  HN ES        714 50.41                             143   -0.3710  104 174 
 RUS  HZ I         714 51.19         1.2 0.26            145            104 174 
 PTB  HZ EP        714 34.56                             133   -0.11 9  145 257 
 PTB  HN ES        714 55.37                             133   -0.19 9  145 257 
 PTB  HZ I         714 57.96         1.7 0.24            133            145 257 
 SPBC HZ EP        714 36.66                             129    0.19 9  163 217 
 SPBC HZ I         714 36.90         2.8 0.10            130            163 217 
 SPBC HN ES        714 58.87                             129    0.10 9  163 217 
                                                                                
