 2016 1230 0437  3.6 L   6.721 -73.201142.0  RSN  5 0.4 1.2LRSN                1
 GAP=225        0.91       7.1     7.3  7.3  0.2826E+02  0.1237E+02  0.9036E+01E
 Epicentro: VILLANUEVA - SANTANDER                                             3
 ACTION:UPD 17-01-11 20:20 OP:rebc STATUS:               ID:20161230043703 L   I
 OLDACT:UP  16-12-30 16:29 OP:edw  STATUS:               ID:20161230042748     3
 OLDACT:REG 16-12-30 12:52 OP:edw  STATUS:               ID:20161230042748     3
 2016-12-30-0428-00M.COL___375                                                 6
 STAT SP IPHASW D HRMM SECON CODA AMPLIT PERI AZIMU VELO AIN AR TRES W  DIS CAZ7
 BAR2 EZ ES        437 36.90                             174   -0.5510 14.4 172 
 BAR2 EZ I         437 39.92         3.6 0.17            170           14.4 172 
 BRR  HZ EP        437 24.39                             152    0.0910 70.8 307 
 BRR  HN ES        437 40.93                             152    0.4710 70.8 307 
 RUS  HZ EP        437 26.14                             145   -0.2510 92.6 172 
 RUS  HN ES        437 44.69                             145    0.5110 92.6 172 
 RUS  HZ I         437 46.10         3.5 0.34            145           92.6 172 
 PTB  HZ EP        437 29.41                             133   -0.16 9  140 262 
 PTB  HN ES        437 49.64                             133   -0.19 9  140 262 
 PTB  HZ I         437 54.17         1.7 0.18            132            140 262 
 CHI  HZ EP   2    437 40.33                             117    0.34 4  239 194 
                                                                                
