 2017  630 0534 31.0 L   6.644 -73.166145.5  RSN  4 0.3 1.2LRSN                1
 GAP=247        0.51       6.7     4.1  4.8  0.7164E+01  0.6074E+01  0.6574E+01E
 Epicentro: VILLANUEVA - SANTANDER                                             3
 ACTION:UPD 17-09-14 16:56 OP:jn   STATUS:               ID:20170630053431 L   I
 OLDACT:REG 17-06-30 13:28 OP:and  STATUS:               ID:20170630052743     3
 2017-06-30-0528-00M.COL___371                                                 6
 STAT SP IPHASW D HRMM SECON CODA AMPLIT PERI AZIMU VELO AIN AR TRES W  DIS CAZ7
 BAR2 EZ EP        534 50.30                             178   -0.0710 5.96 197 
 BAR2 EZ ES        535  5.48                             178   -0.0010 5.96 197 
 BAR2 EZ I         535  7.47         5.3 0.43            168           5.96 197 
 BRR  HZ EP   2    534 52.26                             150   -0.32 5 79.2 310 
 BRR  HN ES        535  9.53                             150    0.1110 79.2 310 
 BRR  HZ I         535 10.45         3.3 0.18            147           79.2 310 
 PTB  HZ EP        534 57.57                             133    0.05 9  143 265 
 PTB  HN ES        535 18.22                             133    0.00 9  143 265 
 PTB  HZ I         535 25.11         1.3 0.48            130            143 265 
 ZAR  HZ EP   2    535  4.69                             122    0.74 4  209 297 
 ZAR  HN ES   2    535 28.93                             122   -0.72 4  209 297 
 ZAR  HZ I         535 34.68         1.4 0.16            121            209 297 
                                                                                
