 2017  930 0222 10.2 L   7.353 -73.251122.7  RSN  4 0.2 1.4LRSN                1
 GAP=258        0.57       8.3     7.6  5.9  0.5605E+02 -0.1230E+02 -0.1299E+02E
 Epicentro: EL PLAYON - SANTANDER                                              3
 ACTION:UPD 17-10-05 19:17 OP:rebc STATUS:               ID:20170930022210 L   I
 OLDACT:DUP 17-09-30 14:39 OP:edw  STATUS:               ID:20170930021739d    3
 OLDACT:UP  17-09-30 14:38 OP:edw  STATUS:               ID:20170930021738     3
 OLDACT:REG 17-09-30 12:22 OP:edw  STATUS:               ID:20170930021738     3
 2017-09-30-0218-00M.COL___447                                                 6
 STAT SP IPHASW D HRMM SECON CODA AMPLIT PERI AZIMU VELO AIN AR TRES W  DIS CAZ7
 BRR  HZ EP        222 27.82                             153   -0.2910 57.7 242 
 BRR  HN ES        222 42.21                             153    0.1410 57.7 242 
 BRR  HZ I         222 44.81         6.7 0.32            155           57.7 242 
 BAR2 EZ ES        222 45.76                             143    0.0210 84.4 175 
 BAR2 EZ I         222 46.70         7.0 0.10            146           84.4 175 
 RUS  HZ EP        222 37.85                             124    0.34 9  163 173 
 RUS  HN ES        222 58.60                             124   -0.20 9  163 173 
 RUS  HZ I         222 59.19         1.9 0.40            127            163 173 
 ZAR  HN ES        223  0.56                             121    0.01 9  178 275 
                                                                                
