 2016  730 0240 56.2 L   6.787 -73.145140.4  RSN 14 0.4 1.9LRSN                1
 GAP=137        0.94       3.5     3.3  5.1 -0.1148E+01  0.5821E+01  0.2502E+01E
 Epicentro: LOS SANTOS - SANTANDER                                             3
 ACTION:UPD 17-03-29 16:56 OP:lp   STATUS:               ID:20160730024056 L   I
 OLDACT:REG 16-07-30 13:23 OP:edw  STATUS:               ID:20160730023759     3
 2016-07-30-0237-59S.COL___343                                                 6
 STAT SP IPHASW D HRMM SECON CODA AMPLIT PERI AZIMU VELO AIN AR TRES W  DIS CAZ7
 BAR2 EZ EP        241 14.97                             171   -0.2210 21.9 191 
 BAR2 EZ ES        241 30.17                             171    0.2010 21.9 191 
 BRR  HZ EP        241 16.75                             151   -0.1010 72.0 300 
 BRR  HN ES        241 33.20                             151    0.2710 72.0 300 
 BRR  HZ I         241 34.60        19.1 0.28            149           72.0 300 
 PAM  EZ IP        241 17.85                             150   -0.1010 78.5  39 
 PAM  EN ES        241 35.06                             150    0.1810 78.5  39 
 PAM  EZ I         241 37.11        18.8 0.48            154           78.5  39 
 RUS  HZ EP        241 18.95                             143   -0.4010 99.1 176 
 RUS  HN ES        241 37.65                             143    0.2710 99.1 176 
 RUS  HZ I         241 38.58         6.8 0.20            145           99.1 176 
 PTB  HZ EP        241 22.06                             131   -0.69 9  148 259 
 PTB  HN ES        241 42.69                             131   -0.74 9  148 259 
 PTB  HZ I         241 49.35         9.2 0.36            130            148 259 
 SPBC HZ EP        241 24.04                             128   -0.18 9  162 219 
 SPBC HN ES        241 46.30                             128    0.25 9  162 219 
 SPBC HZ I         241 50.75        19.1 0.22            129            162 219 
 ZAR  HZ EP        241 29.29                             121    0.89 9  205 293 
 ZAR  HN ES        241 53.02                             121   -0.47 9  205 293 
 ZAR  HZ I         241 58.29        12.4 0.42            122            205 293 
 NOR  HZ EP        241 31.14                             117   -0.43 8  234 235 
 NOR  HN ES        241 59.25                             117    0.11 8  234 235 
 NOR  HZ I         242  4.35         5.4 0.14            118            234 235 
 HEL  HZ EP        241 37.10                             114    0.95 8  272 256 
 HEL  HN ES        242  7.47                             114    0.19 8  272 256 
 HEL  HZ I         242 13.00         4.7 0.28            114            272 256 
 URE  HZ EP   9    241 35.19                             112   -1.93 0  284 292 
 URE  HN ES        242  7.17                                    0.09 7  284 292 
 URE  HZ I         242 12.40         4.1 0.18            113            284 292 
 GUY2CHZ EP   2    241 39.61                             111    0.10 4  300 235 
 GUY2CHN ES   2    242 13.22                             111   -0.05 4  300 235 
 GUY2CHZ I         242 21.17         5.3 0.34                           300 235 
 SOCV BZ EP   4    241 37.87                             111   -1.25 0  302  57 
 SOCV BN ES   4    242  9.81                             111   -2.76 0  302  57 
 VIL  EZ EP   2    241 39.06                             111   -0.19 4  302 192 
 VIL  EN ES   2    242 13.07                             111    0.27 4  302 192 
 LL6C HZ EP   4    241 39.94                             109   -1.94 0  326 358 
 LL6C HE ES   4    242 17.26                             109   -0.23 0  326 358 
 CBOC HZ EP        241 43.17                             109    0.28 7  333 252 
 CBOC HN ES        242 19.78                             109    0.50 7  333 252 
 CBOC HZ I         242 25.53         1.1 0.31            110            333 252 
 SJC  HZ EP   4    241 49.20                             105   -2.58 0  411 327 
 SJC  HN ES   4    242 31.38                             105   -3.72 0  411 327 
 CRJC HZ EP   9    241 55.40                             102   -3.36 0  469   4 
 CRJC HN ES        242 43.69                                   -0.48 5  469   4 
                                                                                
