 2017 1230 0405 34.5 L   6.840 -73.160145.4  RSN 14 0.6 2.0LRSN                1
 GAP= 79        1.38       4.3     4.2  7.4 -0.3952E+01  0.8309E+01  0.5347E+01E
 Epicentro: LOS SANTOS - SANTANDER                                             3
 ACTION:UPD 18-01-04 13:25 OP:rebc STATUS:               ID:20171230040534 L   I
 OLDACT:UP  17-12-30 16:28 OP:osc  STATUS:               ID:20171230034552d    3
 OLDACT:DUP 17-12-30 16:17 OP:osc  STATUS:               ID:20171230034552d    3
 2017-12-30-0358-00M.COL___463                                                 6
 STAT SP IPHASW D HRMM SECON CODA AMPLIT PERI AZIMU VELO AIN AR TRES W  DIS CAZ7
 BAR2 EZ EP        4 5 54.07                             169   -0.1510 27.5 185 
 BAR2 EZ ES        4 6  9.40                             169   -0.1710 27.5 185 
 BAR2 EZ I         4 6 10.48        29.5 0.22            170           27.5 185 
 PAM  EZ EP        4 5 56.95                             151    0.3710 75.1  43 
 PAM  EN ES        4 6 14.07                             151    0.3010 75.1  43 
 PAM  EZ I         4 6 16.37        17.2 0.54            153           75.1  43 
 PTB  HZ EP        4 6  0.84                             132   -0.58 9  147 257 
 PTB  HN ES        4 6 22.20                             132   -0.19 9  147 257 
 PTB  HZ I         4 6 23.94         6.6 0.34            132            147 257 
 OCA  HZ EP        4 6  2.67                             130    0.28 9  156 354 
 OCA  HE ES        4 6 24.34                             130    0.22 9  156 354 
 OCA  HZ I         4 6 28.96        18.1 0.12            131            156 354 
 TAM  HZ EP     D  4 6  2.28                             130   -0.16 9  158 106 
 TAM  HE ES        4 6 23.98                             130   -0.22 9  158 106 
 SPBC HZ EP        4 6  3.05                             128   -0.20 9  166 218 
 SPBC HN ES        4 6 25.41                             128   -0.23 9  166 218 
 SPBC HZ I         4 6 27.69        27.9 0.30            129            166 218 
 ZAR  HZ EP        4 6  4.95                             123   -1.70 9  201 291 
 ZAR  HE ES        4 6 32.18                             123    0.50 9  201 291 
 ZAR  HZ I         4 6 43.00         6.4 0.30            123            201 291 
 ROSC BZ EP        4 6 13.95                             116    0.98 8  256 210 
 ROSC BN ES   4    4 6 45.60                             116    2.66 0  256 210 
 DRL03HZ EP        4 6 15.54                             113   -0.08 7  284 353 
 DRL03HE ES   4    4 6 49.62                             113    1.96 0  284 353 
 GUY2CHZ EP        4 6 19.21                             112    0.93 7  302 234 
 GUY2CHN ES        4 6 54.06                             112    1.66 7  302 234 
 GUY2CHZ I         4 7  0.64         4.2 0.28                           302 234 
 CBOC HZ EP        4 6 21.92                             110    0.49 7  334 251 
 CBOC HE ES        4 6 57.05                             110   -0.95 7  334 251 
 PRA  HZ EP        4 6 28.40                             106   -0.01 6  395 209 
 PRA  HE ES        4 7  9.83                             106   -0.60 6  395 209 
 PRA  HZ I         4 7 14.32         2.9 0.40            107            395 209 
 ORTC HZ EP        4 6 28.27                             106   -0.49 6  398 216 
 ORTC HN ES        4 7 11.59                             106    0.54 6  398 216 
 ORTC HZ I         4 7 20.75         1.5 0.18            107            398 216 
 SJC  HZ EP   9    4 6 28.29                             106   -1.27 0  405 327 
 SJC  HN ES        4 7 11.32                             106    0.12 6  405 327 
                                                                                
