 2016  730 0602 48.2 L   6.766 -73.127147.7  RSN  5 0.2 1.4LRSN                1
 GAP=237        0.64       3.8     4.1  4.7  0.3484E+01  0.2231E+01  0.1413E+01E
 Epicentro: LOS SANTOS - SANTANDER                                             3
 ACTION:UPD 17-03-29 16:56 OP:lp   STATUS:               ID:20160730060248 L   I
 OLDACT:REG 16-07-30 13:46 OP:edw  STATUS:               ID:20160730055759     3
 2016-07-30-0557-59S.COL___334                                                 6
 STAT SP IPHASW D HRMM SECON CODA AMPLIT PERI AZIMU VELO AIN AR TRES W  DIS CAZ7
 BAR2 EZ EP        6 3  7.77                             172   -0.2410 20.2 198 
 BAR2 EZ ES        6 3 23.68                             172    0.2210 20.2 198 
 BRR  HZ EP        6 3  9.87                             152    0.1010 74.8 300 
 BRR  HZ I         6 3 21.01         8.0 0.32            148           74.8 300 
 BRR  HN ES        6 3 26.66                             152    0.0710 74.8 300 
 RUS  HZ EP        6 3 11.94                             145    0.0610 96.7 177 
 RUS  HN ES        6 3 30.05                             145   -0.2910 96.7 177 
 RUS  HZ I         6 3 31.51         2.3 0.32            146           96.7 177 
 PTB  HZ EP        6 3 15.56                             132    0.11 9  149 260 
 PTB  HE ES        6 3 36.27                             132   -0.43 9  149 260 
 PTB  HZ I         6 3 37.78         4.3 0.12            130            149 260 
 SPBC HZ EP        6 3 16.72                             130    0.01 9  162 220 
 SPBC HN ES        6 3 39.33                             130    0.40 9  162 220 
 SPBC HZ I         6 3 41.44         2.5 0.13            129            162 220 
                                                                                
