 2012 1030 0334 46.9 L   6.326 -73.563111.3  RSN  9 0.5 1.9LRSN                1
 GAP= 80        0.97       4.2     4.9  8.0  0.1530E+01  0.2068E+02  0.2372E+00E
 Epicentro: SANTA HELENA DEL OPON - SANTANDER                                  3
 ACTION:UPD 12-11-22 17:06 OP:ep   STATUS:               ID:20121030033446 L   I
 2012-10-30-0330-00M.COL___231                                                 6
 STAT SP IPHASW D HRMM SECON CODA AMPLIT PERI AZIMU VELO AIN AR TRES W  DIS CAZ7
 BAR2 SZ IP     C  335  3.65                             153    0.0610 51.3  55 
 BAR2 SZ ES        335 16.64                             153    0.0610 51.3  55 
 BAR2 SZ I         335 18.19        44.7 0.26                          51.3  55 
 RUS  HZ EP        335  4.90                             145   -0.3110 71.6 132 
 RUS  HN ES   1    335 19.70                             145    0.23 7 71.6 132 
 RUS  HN I         335 22.94         7.4 0.22                          71.6 132 
 BRR  HZ EP        335  5.35                             139   -0.4010 87.9 349 
 BRR  HE ES   1    335 20.98                             139    0.56 7 87.9 349 
 BRR  HN I         335 28.55        33.8 0.16                          87.9 349 
 GIR2 SZ EP        335  6.31                             137   -0.0310 92.7  26 
 GIR2 SZ ES   1    335 20.80                             137   -0.67 7 92.7  26 
 PAM  SN ES   2    335 31.96                             123    0.58 5  147  40 
 CHI  HZ EP   2    335 16.40                             116    0.20 4  189 186 
 CHI  HZ I         335 42.93         3.8 0.62                           189 186 
 ZAR  HZ EP   1    335 15.52                             115   -0.61 7  193 312 
 ZAR  HE ES   1    335 38.51                             115   -0.39 7  193 312 
 ZAR  HE I         335 42.28        33.7 0.32                           193 312 
 OCA  HZ EP        335 19.64                             112    1.03 8  213   7 
 OCA  HE ES   1    335 43.14                             112   -0.18 6  213   7 
 HEL  HZ EP   1    335 19.14                             112   -0.29 6  218 266 
 HEL  HN ES   1    335 45.52                             112    0.74 6  218 266 
 HEL  HN I         335 49.85         4.6 0.12                           218 266 
                                                                                
