 2013  330 0910 32.6 L   6.857 -73.318124.0  RSN 11 0.5 2.8LRSN                1
 GAP= 55        0.90       3.3     3.3  5.9  0.1119E+01  0.2311E+01 -0.1082E+01E
 Epicentro: ZAPATOCA - SANTANDER                                               3
 ACTION:UPD 13-04-09 14:05 OP:ep   STATUS:               ID:20130330091032 L   I
 2013-03-30-0910-00M.COL___245                                                 6
 STAT SP IPHASW D HRMM SECON CODA AMPLIT PERI AZIMU VELO AIN AR TRES W  DIS CAZ7
 BAR2 SZ IP        910 50.04                             164    0.1410 32.9 153 
 BAR2 SZ ES   1    911  3.06                             164   -0.33 7 32.9 153 
 BAR2 SZ I         911  4.31       681.4 0.22            157           32.9 153 
 BRR  HZ IP     C  910 50.44                             156    0.1110 51.6 302 
 BRR  HN ES   1    911  4.60                             156    0.45 7 51.6 302 
 BRR  HZ I         911  5.39       122.5 0.16            155           51.6 302 
 PAM  SZ EP        910 53.31                             143    0.1010 86.7  52 
 PAM  SN ES   1    911  9.59                             143    0.31 7 86.7  52 
 PAM  SZ I         911 12.00        78.8 0.56            137           86.7  52 
 RUS  HZ EP        910 54.97                             136   -0.0810  110 166 
 RUS  HN ES   1    911 12.55                             136    0.00 7  110 166 
 RUS  HZ I         911 14.33        44.9 0.34            128            110 166 
 PTB  HZ IP     D  910 55.36                             130   -0.9110  131 254 
 PTB  HN ES   2    911 14.42                             130   -0.30 5  131 254 
 PTB  HZ I         911 17.35        70.1 0.18            124            131 254 
 OCA  HZ EP   1    910 58.14                             126   -0.44 7  153 360 
 OCA  HN ES   1    911 18.06                             126   -0.78 7  153 360 
 OCA  HZ I         911 19.31       136.5 0.18            120            153 360 
 TAM  HZ IP     C  911  0.90                             122    0.20 9  175 105 
 TAM  HZ I         911 22.13        50.8 0.20            114            175 105 
 TAM  HN ES   1    911 22.66                             122    0.05 7  175 105 
 ZAR  HZ EP        911  1.70                             120    0.10 9  184 293 
 ZAR  HN ES   1    911 25.37                             120    1.16 7  184 293 
 ZAR  HZ I         911 28.40        82.5 0.34            115            184 293 
 HEL  HZ EP   4    911 11.01                             112    1.10 0  255 253 
 HEL  HN ES   2    911 38.71                             112   -0.30 4  255 253 
 HEL  HZ I         911 45.22        27.2 0.56            106            255 253 
 URE  HZ EP   4    911  9.27                             111   -1.15 0  264 292 
 URE  HN ES   4    911 38.04                             111   -1.88 0  264 292 
 COD  HZ EP   1    911 19.47                             105    0.14 5  341 358 
 COD  HN ES   1    911 55.84                             105    0.07 5  341 358 
 PRA  HZ EP   1    911 25.76                             103    0.70 4  389 207 
 PRA  HN ES   2    912  6.67                             103    0.70 3  389 207 
 PRA  HZ I         912 13.41        15.8 0.22             97            389 207 
 SJC  HZ EP   4    911 24.25                             103   -1.45 0  394 329 
 SJC  HN ES   4    912  4.01                             103   -3.10 0  394 329 
                                                                                
