 2015 1230 0127 57.2 L   6.795 -73.141143.9  RSN 18 0.5 2.4LRSN                1
 GAP= 66        1.22       3.0     3.0  5.4 -0.3911E+00  0.4944E+01  0.9265E+00E
 Epicentro: LOS SANTOS - SANTANDER                                             3
 ACTION:UPD 16-02-04 15:08 OP:cam  STATUS:               ID:20151230012757 L   I
 OLDACT:REG 15-12-30 12:31 OP:ak   STATUS:               ID:20151230011750     3
 2015-12-30-0117-50M.COL___335                                                 6
 STAT SP IPHASW D HRMM SECON CODA AMPLIT PERI AZIMU VELO AIN AR TRES W  DIS CAZ7
 BAR2 EZ EP        128 16.80                             171    0.2110 22.9 191 
 BAR2 EZ ES        128 31.39                             171   -0.3310 22.9 191 
 BAR2 EZ I         128 32.80        43.4 0.36            170           22.9 191 
 BRR  HZ EP     D  128 18.68                             152    0.5010 71.9 299 
 BRR  HN ES        128 35.45                             152    0.9010 71.9 299 
 BRR  HZ I         128 39.88        39.7 0.22            150           71.9 299 
 PAM  EZ EP        128 19.74                             150    0.5210 77.5  39 
 PAM  EN ES        128 36.84                             150    0.4510 77.5  39 
 PAM  EZ I         128 39.38        32.9 0.40            154           77.5  39 
 RUS  HZ EP        128 20.92                             144    0.2010  100 176 
 RUS  HN ES        128 38.22                             144   -0.8610  100 176 
 RUS  HZ I         128 40.70        22.1 0.30            146            100 176 
 PTB  HZ EP        128 23.56                             131   -0.49 9  148 259 
 PTB  HN ES        128 44.38                             131   -0.61 9  148 259 
 PTB  HZ I         128 46.85        29.1 0.18            131            148 259 
 TAM  HZ EP        128 25.05                             130    0.38 9  154 105 
 TAM  HN ES        128 46.22                             130    0.12 9  154 105 
 TAM  HZ I         128 47.29        18.0 0.30            135            154 105 
 OCA  HZ EP        128 24.97                             129   -0.45 9  161 353 
 OCA  HN ES        128 46.72                             129   -0.71 9  161 353 
 OCA  HZ I         128 51.00        68.7 0.18            130            161 353 
 SPBC HZ EP        128 25.93                             129    0.39 9  163 219 
 SPBC HN ES        128 47.08                             129   -0.58 9  163 219 
 SPBC HZ I         128 53.69        35.6 0.10            129            163 219 
 ZAR  HZ EP        128 29.61                             122    0.02 9  205 292 
 ZAR  HN ES        128 55.08                             122    0.23 9  205 292 
 ZAR  HZ I         129  0.98        46.9 0.42            122            205 292 
 NOR  HZ EP        128 33.25                             118    0.42 8  235 235 
 NOR  HN ES        129  1.11                             118    0.49 8  235 235 
 NOR  HZ I         129  5.99        15.5 0.14            119            235 235 
 SML  HZ EP        128 33.17                             117   -0.62 8  244 335 
 SML  HN ES        129  1.58                             117   -0.76 8  244 335 
 SML  HZ I         129  8.12        43.9 0.10            118            244 335 
 HEL  HZ EP   1    128 38.05                             114    0.69 6  272 256 
 HEL  HN ES        129  9.39                             114    0.71 8  272 256 
 HEL  HZ I         129 15.24        11.4 0.52            115            272 256 
 URE  HZ EP        128 37.58                             113   -0.67 7  284 292 
 URE  HE ES        129 10.79                             113    0.52 7  284 292 
 URE  HZ I         129 19.90        16.8 0.18            114            284 292 
 GUY2CHZ EP        128 41.39                             112    0.66 7  301 235 
 GUY2CHN ES        129 14.27                             112   -0.42 7  301 235 
 GUY2CHZ I         129 25.44         9.3 0.66                           301 235 
 PTGC HZ EP        128 40.11                             111   -0.79 7  308 159 
 PTGC HE ES   4    129 13.04                             111   -1.94 0  308 159 
 CBOC HZ EP        128 44.65                             109    0.58 7  334 252 
 CBOC HN ES        129 20.89                             109    0.26 7  334 252 
 CBOC HZ I         129 33.51         4.1 0.40            110            334 252 
 DBB  SZ EP        128 44.53                             109   -0.13 7  340 274 
 DBB  SZ ES        129 21.04                             109   -0.64 7  340 274 
 DBB  SZ I         129 33.21        22.6 0.70            110            340 274 
 PRA  HZ EP   1    128 50.44                             106   -0.19 4  392 210 
 PRA  HE ES        129 32.00                             106   -0.31 6  392 210 
 PRA  HZ I         129 36.22         7.4 0.34            107            392 210 
                                                                                
