 2012  630 0957 23.7 L   6.740 -73.160138.7  RSN  6 0.4 1.6LRSN                1
 GAP=137        0.83       5.3     4.8  7.5  0.2444E+01  0.9541E+01 -0.2087E+01E
 Epicentro: VILLANUEVA - SANTANDER                                             3
 ACTION:UPD 12-08-06 17:53 OP:ep   STATUS:               ID:20120630095723 L   I
 2012-06-30-0950-00M.COL___201                                                 6
 STAT SP IPHASW D HRMM SECON CODA AMPLIT PERI AZIMU VELO AIN AR TRES W  DIS CAZ7
 BAR2 SZ EP   1    957 42.44                             173    0.06 7 16.5 189 
 BAR2 SZ ES   1    957 57.02                             173    0.09 7 16.5 189 
 BAR2 SZ I         957 58.58        11.1 0.25                          16.5 189 
 BRR  HZ EP   1    957 44.36                             150    0.12 7 73.3 304 
 BRR  HZ I         957 47.91        16.1 0.31                          73.3 304 
 BRR  HN ES   1    958  1.07                             150    0.83 7 73.3 304 
 PAM  SZ EP   1    957 45.47                             147   -0.12 7 83.6  37 
 PAM  SZ I         957 45.78        11.6 0.24                          83.6  37 
 PAM  SN ES   1    958  2.16                             147   -0.48 7 83.6  37 
 RUS  HZ EP   1    957 46.44                             144    0.13 7 94.1 175 
 RUS  HN ES   1    958  3.83                             144   -0.10 7 94.1 175 
 RUS  HZ I         958  5.94         4.5 0.40                          94.1 175 
 PTB  HZ EP   1    957 50.41                             131    0.54 7  145 261 
 PTB  HN ES   1    958  9.40                             131   -0.87 7  145 261 
 PTB  HZ I         958 12.94         2.7 0.15                           145 261 
 ZAR  HZ EP   1    957 55.75                             121   -0.09 6  205 294 
 ZAR  HN ES   1    958 20.66                             121   -0.23 6  205 294 
 ZAR  HZ I         958 26.71         3.2 0.12                           205 294 
                                                                                
