 2017  930 0318 28.3 L   6.601 -73.214146.0  RSN  4 0.2 1.4LRSN                1
 GAP=151        0.52       5.5     6.5  4.7  0.2976E+02  0.5701E+01  0.1969E+01E
 Epicentro: CABRERA - SANTANDER                                                3
 ACTION:UPD 17-10-05 19:17 OP:rebc STATUS:               ID:20170930031828 L   I
 OLDACT:UP  17-09-30 15:33 OP:edw  STATUS:               ID:20170930031740     3
 OLDACT:REG 17-09-30 12:35 OP:edw  STATUS:               ID:20170930031740     3
 2017-09-30-0318-00M.COL___441                                                 6
 STAT SP IPHASW D HRMM SECON CODA AMPLIT PERI AZIMU VELO AIN AR TRES W  DIS CAZ7
 BAR2 EZ EP        318 47.36                             178   -0.3310 3.70 106 
 BAR2 EZ ES        319  2.78                             178   -0.0610 3.70 106 
 BAR2 EZ I         319  3.69         4.9 0.54            178           3.70 106 
 BRR  HZ EP        318 50.06                             150    0.2010 78.4 316 
 BRR  HE ES        319  6.85                             150    0.1510 78.4 316 
 BRR  HZ I         319 13.92         4.4 0.54            150           78.4 316 
 RUS  HZ EP        318 50.79                             150    0.1410 79.7 169 
 RUS  HN ES        319  8.12                             150    0.0110 79.7 169 
 RUS  HZ I         319 10.02         4.0 0.40            155           79.7 169 
 ZAR  HN ES        319 26.34                             122   -0.16 8  207 299 
                                                                                
