 2015  330 0120 55.3 L   6.734 -73.112145.1  RSN  4 0.3 1.2LRSN                1
 GAP=144        0.74       4.9     4.1  7.2 -0.4988E+01  0.1488E+01  0.7954E+01E
 Epicentro: JORDAN - SANTANDER                                                 3
 ACTION:UPD 15-04-30 16:30 OP:nd   STATUS:               ID:20150330012055 L   I
 OLDACT:UP  15-03-30 18:53 OP:mh   STATUS:               ID:20150330011748     3
 OLDACT:REG 15-03-30 18:01 OP:mh   STATUS:               ID:20150330011748     3
 2015-03-30-0117-48M.COL___288                                                 6
 STAT SP IPHASW D HRMM SECON CODA AMPLIT PERI AZIMU VELO AIN AR TRES W  DIS CAZ7
 BRR  HZ EP   1    121 17.07                             150    0.28 7 78.1 302 
 BRR  HZ I         121 30.36         4.9 0.50            146           78.1 302 
 BRR  HN ES        121 33.84                             150    0.3010 78.1 302 
 PAM  SZ EP        121 18.02                             149    0.3510 81.0  34 
 PAM  SN ES        121 34.68                             149   -0.4310 81.0  34 
 PAM  SZ I         121 37.48         3.9 0.52            144           81.0  34 
 RUS  HZ EP   1    121 18.28                             146   -0.18 7 93.1 178 
 RUS  HN ES   1    121 36.74                             146    0.22 7 93.1 178 
 RUS  HZ I         121 39.56         1.5 0.40            142           93.1 178 
 PTB  HZ EP        121 22.19                             131   -0.26 9  150 262 
 PTB  HN ES        121 43.40                             131   -0.21 9  150 262 
                                                                                
