 2012  830 0600 47.2 L   6.713 -73.170153.7  RSN  5 0.1 1.3LRSN                1
 GAP=228        0.31       7.6     5.6  6.3 -0.2363E+02 -0.1951E+02  0.3140E+02E
 Epicentro: VILLANUEVA - SANTANDER                                             3
 ACTION:UPD 12-09-10 11:59 OP:ep   STATUS:               ID:20120830060047 L   I
 2012-08-30-0600-00M.COL___218                                                 6
 STAT SP IPHASW D HRMM SECON CODA AMPLIT PERI AZIMU VELO AIN AR TRES W  DIS CAZ7
 BAR2 SZ EP   3    6 1  7.30                             175   -0.32 2 13.4 186 
 BRR  HZ EP        6 1  9.31                             153   -0.0510 74.1 306 
 BRR  HZ I         6 1 11.00         5.4 0.12                          74.1 306 
 BRR  HN ES   1    6 1 26.73                             153    0.08 7 74.1 306 
 RUS  HZ EP   3    6 1 11.09                             148   -0.01 2 91.2 174 
 PTB  HZ EP        6 1 14.54                             135    0.09 9  144 262 
 PTB  HN ES   1    6 1 35.63                             135   -0.08 7  144 262 
 PTB  HZ I         6 1 38.56         1.4 0.16                           144 262 
 ZAR  HE ES   3    6 1 45.89                             124   -0.25 2  205 295 
                                                                                
