 2012  130 0746  5.2 L   6.767 -73.123135.9  RSN  8 0.5 1.7LRSN                1
 GAP=141        1.23       6.0     6.6 10.1  0.6493E+01  0.1822E+02  0.9452E+01E
 Epicentro: LOS SANTOS - SANTANDER                                             3
 ACTION:DUP 12-02-03 08:22 OP:REBC STATUS:               ID:20120130074605 L   I
 2012-01-30-0740-00M.COL___188                                                 6
 STAT SP IPHASW D HRMM SECON CODA AMPLIT PERI AZIMU VELO SNR AR TRES W  DIS CAZ7
 BAR2 SZ EP   1    746 23.74                             171     0.2 9   20 199 
 BAR2 SZ I         746 24.21        12.4 0.11                            20 199 
 BAR2 SZ ES   1    746 37.58                             171    -0.3 9   20 199 
 GIR2 SZ EP   1    746 23.91                             165     0.1 9   35 347 
 BRR  HZ EP   1    746 25.64                             149     0.1 9   75 300 
 BRR  HE ES   1    746 41.59                             149     0.2 9   75 300 
 BRR  HZ I         746 43.30        27.5 0.13                            75 300 
 PAM  SZ EP   1    746 26.82                             149     0.4 9   79  36 
 PAM  SN ES   1    746 42.60                             149    -0.4 9   79  36 
 PAM  SZ I         746 45.90         5.9 0.49                            79  36 
 RUS  HZ EP   1    746 27.48                             143    -0.2 9   97 177 
 RUS  HZ I         746 28.64         6.4 0.32                            97 177 
 RUS  HN ES   1    746 45.56                             143     0.3 9   97 177 
 PTB  HZ EP   1    746 30.65                             129    -0.9 8  150 260 
 PTB  HN ES   1    746 51.26                             129    -0.8 8  150 260 
 PTB  HZ I         746 53.50                                            150 260 
 ZAR  HZ EP   1    746 36.47                             120    -0.9 7  208 293 
 ZAR  HN ES        747  3.42                             120     0.910  208 293 
 ZAR  HZ I         747  9.30         6.7 0.23                           208 293 
 CHI  HZ EP   1    746 42.31                             115     0.3 7  246 196 
 CHI  HN ES   1    747 11.28                             115     0.5 7  246 196 
 CHI  HZ I         747 15.15         2.7 0.43                           246 196 
                                                                                
