 2011  330 0739 56.1 L   6.747 -73.137143.2  RSN  7 0.5 2.1LRSN                1
 GAP=159        0.79       6.5     7.9  7.7 -0.1258E+02  0.1098E+02  0.2318E+02E
 Epicentro: LOS SANTOS - SANTANDER                                             3
 ACTION:UP  11-06-16 14:36 OP:jfem STATUS:               ID:20110330073956 L   I
 2011-03-30-0740-00M.COL___139                                                 6
 STAT SP IPHASW D HRMM SECON CODA AMPLIT PERI AZIMU VELO SNR AR TRES W  DIS CAZ7
 BAR2 SZ EP        740 15.30                             172     0.010   18 197 
 BAR2 SZ ES   1    740 30.11                             172    -0.2 7   18 197 
 BAR2 SZ I         740 31.40        24.7 0.22                            18 197 
 BRR  HZ IP     C  740 17.11                             151    -0.110   75 302 
 BRR  HZ I         740 17.35        50.0 0.15                            75 302 
 BRR  HN ES   1    740 34.20                             151     0.6 7   75 302 
 PAM  SZ EP   2    740 18.29                             149     0.0 5   81  36 
 PAM  SN ES   2    740 35.15                             149    -0.4 5   81  36 
 NOR  SZ EP        740 31.25                             118    -0.2 8  232 236 
 NOR  SN ES   2    740 57.48                             118    -1.5 4  232 236 
 CHI  HZ EP   2    740 33.21                             117     0.2 4  243 196 
 CHI  HN ES   2    741  2.65                             117     0.8 4  243 196 
 CHI  HZ I         741  7.29         4.0 0.12                           243 196 
 HEL  HZ EP   3    740 36.03                             114    -0.1 2  272 257 
 HEL  HZ I         741 14.17         4.6 0.60                           272 257 
 PRA  HZ EP        740 49.35                             106     0.4 6  387 210 
 PRA  HN ES   2    741 30.56                             106     0.3 3  387 210 
 PRA  HZ I         741 37.66         8.6 0.20                           387 210 
                                                                                
