 2013  330 0426 29.4 L   6.770 -73.150145.2  RSN 10 0.5 2.2LRSN                1
 GAP= 72        0.97       4.1     3.8  6.7  0.1654E+01  0.5114E+01 -0.3074E+01E
 Epicentro: LOS SANTOS - SANTANDER                                             3
 ACTION:UPD 13-04-09 14:05 OP:ep   STATUS:               ID:20130330042629 L   I
 2013-03-30-0420-00M.COL___245                                                 6
 STAT SP IPHASW D HRMM SECON CODA AMPLIT PERI AZIMU VELO AIN AR TRES W  DIS CAZ7
 BAR2 SZ IP        426 48.87                             172   -0.0410 20.0 190 
 BAR2 SZ ES   1    427  4.12                             172    0.00 7 20.0 190 
 BAR2 SZ I         427  4.75        70.1 0.36            172           20.0 190 
 BRR  HZ IP     D  426 50.91                             152    0.3510 72.4 301 
 BRR  HN ES   1    427  7.89                             152    0.82 7 72.4 301 
 BRR  HZ I         427 11.07        29.7 0.30            150           72.4 301 
 PAM  SZ EP   1    426 52.23                             150    0.49 7 80.3  38 
 PAM  SN ES   1    427  9.08                             150   -0.08 7 80.3  38 
 PAM  SZ I         427 11.79         9.3 0.24            152           80.3  38 
 RUS  HZ EP        426 52.70                             145   -0.1710 97.3 176 
 RUS  HN ES   1    427 10.78                             145   -0.39 7 97.3 176 
 RUS  HZ I         427 12.25        13.7 0.30            148           97.3 176 
 PTB  HZ EP        426 55.95                             132   -0.28 9  147 260 
 PTB  HN ES   1    427 16.54                             132   -0.61 7  147 260 
 PTB  HZ I         427 19.45        19.2 0.14            133            147 260 
 TAM  HZ EP   1    426 57.21                             131    0.21 7  155 104 
 TAM  HN ES   1    427 18.47                             131   -0.06 7  155 104 
 TAM  HZ I         427 19.09        15.2 0.26            135            155 104 
 OCA  HZ EP   1    426 58.95                             129    0.97 7  164 353 
 OCA  HN ES   1    427 19.51                             129   -0.76 7  164 353 
 OCA  HZ I         427 24.33        19.7 0.32            130            164 353 
 ZAR  HZ EP   1    427  1.97                             122    0.07 6  205 293 
 ZAR  HE ES   1    427 27.76                             122    0.51 6  205 293 
 ZAR  HZ I         427 33.37        19.2 0.16            123            205 293 
 SML  HZ EP        427  5.50                             117   -0.81 8  247 336 
 SML  HN ES   1    427 34.50                             117   -0.59 6  247 336 
 HEL  HZ EP   1    427 10.12                             115    0.67 6  271 256 
 HEL  HN ES   1    427 40.70                             115    0.02 6  271 256 
 HEL  HZ I         427 49.01        11.0 0.50            116            271 256 
 URE  HZ EP   4    427  9.32                             113   -1.22 0  285 293 
 SJC  HZ EP   4    427 24.23                             105   -1.02 0  412 327 
 SJC  HN ES   4    428  5.47                             105   -3.33 0  412 327 
                                                                                
