 2011 1230 0503 37.7 L   6.331 -73.520109.5  RSN  5 0.1 1.1LRSN                1
 GAP=124        0.34       2.2     4.2  6.2  0.5119E+01  0.1664E+02  0.7659E+01E
 Epicentro: CONTRATACION - SANTANDER                                           3
 ACTION:UPD 12-07-13 16:19 OP:ep   STATUS:               ID:20111230050337 L   I
 2011-12-30-0500-00M.COL___186                                                 6
 STAT SP IPHASW D HRMM SECON CODA AMPLIT PERI AZIMU VELO AIN AR TRES W  DIS CAZ7
 BAR2 SZ EP   1    5 3 54.05                             155    0.13 7 47.2  52 
 BAR2 SZ I         5 3 54.29         7.3 0.18                          47.2  52 
 BAR2 SZ ES   1    5 4  6.62                             155    0.04 7 47.2  52 
 RUS  HZ EP   1    5 3 55.45                             146   -0.12 7 68.5 135 
 RUS  HZ I         5 3 55.68         1.4 0.33                          68.5 135 
 RUS  HN ES   1    5 4  9.38                             146   -0.13 7 68.5 135 
 BRR  HE ES   1    5 4 10.98                             138    0.04 7 88.4 346 
 CHI  HN ES   1    5 4 29.96                             115    0.14 7  190 187 
 ZAR  HN ES   2    5 4 29.90                             114   -0.22 4  196 311 
 ZAR  HZ I         5 4 34.05         2.0 0.39                           196 311 
                                                                                
