 2014  830 0241 10.5 L   6.810 -73.205152.0  RSN  4 0.4 1.4LRSN                1
 GAP=276        0.88       5.8     9.2  8.9 -0.1262E+01 -0.9473E+01 -0.2546E+01E
 Epicentro: ZAPATOCA - SANTANDER                                               3
 ACTION:UPD 14-09-15 21:54 OP:nd   STATUS:               ID:20140830024110 L   I
 OLDACT:REG 14-08-30 12:46 OP:fm   STATUS:               ID:20140830023812     3
 2014-08-30-0238-12M.COL___269                                                 6
 STAT SP IPHASW D HRMM SECON CODA AMPLIT PERI AZIMU VELO AIN AR TRES W  DIS CAZ7
 BRR  HZ EP        241 31.78                             156   -0.2010 65.0 300 
 BRR  HN ES        241 48.89                             156    0.1410 65.0 300 
 BRR  HZ I         241 52.49         6.1 0.32            155           65.0 300 
 PTB  HZ EP        241 36.91                             135   -0.51 9  142 258 
 PTB  HN ES        241 58.09                             135   -0.34 9  142 258 
 PTB  HZ I         242  1.87         3.2 0.10            136            142 258 
 SPBC HN ES        242  1.91                             131    0.37 9  160 217 
 SPBC HZ I         242  3.93         2.4 0.20            133            160 217 
 ZAR  HZ EP        241 43.27                             125    0.59 9  198 293 
 ZAR  HN ES        242  7.89                             125    0.09 9  198 293 
 ZAR  HZ I         242 10.99         2.6 0.30            127            198 293 
                                                                                
