 2017  930 0918 59.3 L   6.821 -73.156139.3  RSN 14 0.5 1.8LRSN                1
 GAP=110        0.85       2.9     3.1  5.0 -0.3814E+00  0.6256E+01  0.3022E+01E
 Epicentro: LOS SANTOS - SANTANDER                                             3
 ACTION:UPD 17-10-05 19:17 OP:rebc STATUS:               ID:20170930091859 L   I
 OLDACT:UP  17-09-30 16:04 OP:dhb  STATUS:               ID:20170930091739     3
 OLDACT:REG 17-09-30 13:12 OP:edw  STATUS:               ID:20170930091739     3
 2017-09-30-0918-00M.COL___404                                                 6
 STAT SP IPHASW D HRMM SECON CODA AMPLIT PERI AZIMU VELO AIN AR TRES W  DIS CAZ7
 BAR2 EZ IP     C  919 18.04                             169   -0.1810 25.4 186 
 BAR2 EZ ES        919 32.68                             169   -0.2810 25.4 186 
 BAR2 EZ I         919 34.46        22.1 0.18            170           25.4 186 
 PAM  EZ IP     D  919 21.05                             150    0.2610 76.4  41 
 PAM  EN ES        919 37.76                             150    0.2310 76.4  41 
 PAM  EZ I         919 38.67         7.1 0.19            141           76.4  41 
 RUS  HZ EP        919 22.17                             142   -0.4510  103 175 
 RUS  HN ES        919 40.86                             142    0.0710  103 175 
 RUS  HZ I         919 41.57         7.6 0.24            137            103 175 
 YPLC HZ IP     C  919 28.48                             125   -0.43 9  179 151 
 YPLC HN ES     C  919 52.63                             125    0.64 9  179 151 
 YPLC HZ I         919 55.14         4.8 0.22            118            179 151 
 ZAR  HN ES        919 56.44                             121    0.47 9  202 292 
 ZAR  HZ I         920  2.18         6.3 0.13            113            202 292 
 NOR  HZ EP        919 34.45                             117   -0.27 8  235 234 
 NOR  HN ES        920  1.90                             117   -0.44 8  235 234 
 NOR  HZ I         920  5.91         5.4 0.34            110            235 234 
 CHI  HZ EP        919 36.68                             116   -0.20 8  251 195 
 CHI  HE ES        920  6.03                             116   -0.14 8  251 195 
 CHI  HZ I         920 12.68         4.5 0.52            109            251 195 
 URE  HE ES   3    920  9.07                             113   -2.41 2  282 292 
 URE  HZ I         920 10.88         4.1 0.10            106            282 292 
 GUY2CHZ EP   9    919 43.62                             111    0.94 0  302 234 
 GUY2CHE ES        920 17.89                             111    0.45 7  302 234 
 GUY2CHZ I         920 24.63         3.1 0.54                           302 234 
 ELA  HE ES        920 22.25                             109   -0.11 7  330 229 
 ELA  HZ I         920 30.20         3.9 0.36            103            330 229 
 CBOC HZ EP   2    919 46.63                             109    0.70 3  333 252 
 CBOC HE ES        920 22.47                             109    0.19 7  333 252 
 CBOC HZ I         920 31.22         1.4 0.42            103            333 252 
 PRA  HZ EP        919 52.57                             105   -0.22 6  393 209 
 PRA  HE ES        920 35.49                             105    0.99 6  393 209 
 PRA  HZ I         920 40.17         4.9 0.28            100            393 209 
 ORTC HZ EP        919 53.74                             105    0.58 6  397 216 
 ORTC HN ES        920 35.52                             105    0.36 6  397 216 
 ORTC HZ I         920 43.56         2.7 0.34            100            397 216 
 SJC  HZ EP        919 54.01                             105   -0.36 6  407 327 
 SJC  HZ I         920 32.19         1.8 0.09             99            407 327 
 SJC  HE ES   4    920 32.45                             105   -4.86 0  407 327 
                                                                                
