 2014  930 0517 50.4 L   6.771 -73.175154.9  RSN  4 0.3 1.4LRSN                1
 GAP=240        0.80       6.0     6.3  6.5 -0.5844E+01  0.2653E+01  0.7427E+01E
 Epicentro: LOS SANTOS - SANTANDER                                             3
 ACTION:UPD 14-10-03 23:09 OP:nd   STATUS:               ID:20140930051750 L   I
 OLDACT:DUP 14-09-30 18:02 OP:stll STATUS:               ID:20140930050815d    3
 2014-09-30-0508-14M.COL___289                                                 6
 STAT SP IPHASW D HRMM SECON CODA AMPLIT PERI AZIMU VELO AIN AR TRES W  DIS CAZ7
 BAR2 SZ EP        518 10.74                             172   -0.3010 19.7 182 
 BAR2 SZ ES        518 27.01                             172   -0.1610 19.7 182 
 BAR2 SZ I         518 28.52         5.5 0.22            168           19.7 182 
 BRR  HZ EP        518 12.62                             154    0.1610 70.1 302 
 BRR  HN ES        518 30.07                             154    0.3810 70.1 302 
 BRR  HZ I         518 33.11         3.7 0.34            155           70.1 302 
 PTB  HZ EP        518 17.47                             135   -0.31 9  144 260 
 PTB  HN ES        518 38.77                             135   -0.38 9  144 260 
 PTB  HZ I         518 41.67         2.0 0.12            135            144 260 
 SPBC HZ EP        518 19.62                             132    0.44 9  159 219 
 SPBC HN ES        518 41.82                             132    0.18 9  159 219 
 SPBC HZ I         518 48.57         3.5 0.28            132            159 219 
                                                                                
