 2017 1030 0223 54.1 L   6.715 -73.338149.2  RSN  4 0.3 0.8LRSN                1
 GAP=172        0.76       6.0     5.6  6.7  0.1617E+02  0.3555E+01  0.3458E+01E
 Epicentro: GALAN - SANTANDER                                                  3
 ACTION:UPD 17-11-07 19:39 OP:rebc STATUS:               ID:20171030022354 L   I
 OLDACT:REG 17-10-30 12:22 OP:dhb  STATUS:               ID:20171030021739     3
 2017-10-30-0218-00M.COL___444                                                 6
 STAT SP IPHASW D HRMM SECON CODA AMPLIT PERI AZIMU VELO AIN AR TRES W  DIS CAZ7
 BAR2 EZ EP   1    224 14.30                             171    0.15 7 21.9 128 
 BAR2 EZ ES   1    224 29.03                             171   -0.73 7 21.9 128 
 BAR2 EZ I         224 33.33         1.3 0.06            170           21.9 128 
 BRR  HZ EP        224 14.86                             157   -0.2110 59.9 316 
 BRR  HN ES        224 31.82                             157    0.4210 59.9 316 
 BRR  HZ I         224 44.94         2.8 0.48            158           59.9 316 
 RUS  HZ EP        224 18.08                             146    0.2210 95.2 163 
 RUS  HN ES        224 36.47                             146    0.1210 95.2 163 
 RUS  HZ I         224 47.47         0.8 0.44            151           95.2 163 
 PTB  HZ EP        224 19.28                             138   -0.1710  125 261 
 PTB  HE ES        224 39.13                             138   -0.0610  125 261 
 PTB  HZ I         224 51.57         0.6 0.44            140            125 261 
                                                                                
