 2017  830 0006 55.2 L   6.023 -73.726109.5  RSN  5 0.2 1.6LRSN                1
 GAP=143        0.55       2.7     2.6  5.6 -0.2432E+01  0.7594E+01  0.1623E+00E
 Epicentro: VELEZ - SANTANDER                                                  3
 ACTION:UPD 17-09-04 20:26 OP:rebc STATUS:               ID:20170830000655 L   I
 OLDACT:REG 17-08-30 12:19 OP:dani STATUS:               ID:20170830000000     3
 2017-08-30-0000-15M.COL___414                                                 6
 STAT SP IPHASW D HRMM SECON CODA AMPLIT PERI AZIMU VELO AIN AR TRES W  DIS CAZ7
 RUS  HZ EP        0 7 13.33                             144   -0.0410 72.6 101 
 RUS  HN ES        0 7 27.31                             144   -0.2210 72.6 101 
 RUS  HZ I         0 7 28.71         4.9 0.24            149           72.6 101 
 BAR2 EZ EP        0 7 14.28                             139    0.1710 87.0  44 
 BAR2 EZ ES        0 7 29.21                             139    0.3510 87.0  44 
 BAR2 EZ I         0 7 30.45        26.5 0.44            141           87.0  44 
 BRR  HZ EP        0 7 16.48                             128   -0.2210  120   1 
 BRR  HN ES        0 7 33.30                             128   -0.1610  120   1 
 BRR  HZ I         0 7 36.89         6.4 0.40            131            120   1 
 NOR  HZ EP        0 7 18.28                             125   -0.11 9  136 248 
 NOR  HN ES        0 7 36.53                             125    0.05 9  136 248 
 NOR  HZ I         0 7 37.61         7.9 0.22            128            136 248 
 GUY2CHZ EP        0 7 26.15                             114    0.21 9  202 244 
                                                                                
