 2012  730 0109 58.8 L   6.802 -73.149152.1  RSN  4 0.5 1.2LRSN                1
 GAP=136        1.16       8.8     8.3 13.5 -0.8709E+01  0.8993E+01  0.1607E+02E
 Epicentro: LOS SANTOS - SANTANDER                                             3
 ACTION:UPD 12-08-14 11:46 OP:ep   STATUS:               ID:20120730010959 L   I
 2012-07-30-0110-00M.COL___215                                                 6
 STAT SP IPHASW D HRMM SECON CODA AMPLIT PERI AZIMU VELO AIN AR TRES W  DIS CAZ7
 BRR  HZ EP   1    110 20.70                             154     0.1 7   71 299 
 BRR  HZ I         110 22.01         4.3 0.17            150             71 299 
 BRR  HE ES   1    110 38.51                             154     0.9 7   71 299 
 PAM  SZ EP   1    110 22.18                             152     0.5 7   77  40 
 PAM  SN ES   1    110 38.80                             152    -0.8 7   77  40 
 RUS  HZ EP   1    110 23.25                             145     0.0 7  101 176 
 RUS  HZ I         110 24.01         1.8 0.32            145            101 176 
 RUS  HE ES   1    110 42.40                             145     0.2 7  101 176 
 PTB  HZ EP   1    110 26.06                             133    -0.2 7  147 259 
 PTB  HN ES   1    110 47.05                             133    -0.7 7  147 259 
 PTB  HZ I         110 53.25         2.2 0.13            131            147 259 
