 2016 1030 0810 12.7 L   6.801 -73.176155.0  RSN  5 0.5 1.5LRSN                1
 GAP=234        1.33       8.2     8.7  9.8  0.1452E+02  0.8005E+01  0.5950E+01E
 Epicentro: LOS SANTOS - SANTANDER                                             3
 ACTION:UPD 16-11-09 19:24 OP:rebc STATUS:               ID:20161030081012 L   I
 OLDACT:REG 16-10-30 14:57 OP:cog  STATUS:               ID:20161030080743     3
 2016-10-30-0808-00M.COL___315                                                 6
 STAT SP IPHASW D HRMM SECON CODA AMPLIT PERI AZIMU VELO AIN AR TRES W  DIS CAZ7
 BAR2 EZ EP        810 33.44                             171    0.0110 23.1 182 
 BAR2 EZ ES        810 48.87                             171   -0.7310 23.1 182 
 BAR2 EZ I         810 49.47         7.6 0.24            169           23.1 182 
 BRR  HZ EP        810 35.17                             155    0.4810 68.3 300 
 BRR  HE ES        810 52.45                             155    0.6010 68.3 300 
 BRR  HZ I         810 54.99         3.6 0.29            153           68.3 300 
 RUS  HZ EP        810 37.65                             146    0.2710  101 174 
 RUS  HE ES        810 56.64                             146   -0.0010  101 174 
 RUS  HZ I         810 57.04         3.7 0.26            145            101 174 
 PTB  HZ EP     D  810 39.63                             135   -0.51 9  145 259 
 PTB  HN ES        811  0.95                             135   -0.61 9  145 259 
 PTB  HZ I         811  3.11         2.6 0.16            133            145 259 
 SPBC HZ EP     C  810 41.30                             131   -0.43 9  161 218 
 SPBC HE ES        811  5.23                             131    0.85 9  161 218 
 SPBC HN I         811  9.47         7.9 0.10            131            161 218 
                                                                                
