 2017 1030 0948 53.3 L   6.425 -73.613100.1  RSN  6 0.4 1.1LRSN                1
 GAP=118        1.07       4.5     3.6  7.6  0.7114E+01  0.2896E+01 -0.1254E+01E
 Epicentro: SANTA HELENA DEL OPON - SANTANDER                                  3
 ACTION:UPD 17-11-07 19:39 OP:rebc STATUS:               ID:20171030094853 L   I
 OLDACT:REG 17-10-30 12:57 OP:dhb  STATUS:               ID:20171030094740     3
 2017-10-30-0948-00M.COL___414                                                 6
 STAT SP IPHASW D HRMM SECON CODA AMPLIT PERI AZIMU VELO AIN AR TRES W  DIS CAZ7
 BAR2 EZ IP     D  949  8.34                             151   -0.3810 51.1  69 
 BAR2 EZ ES        949 20.47                             151   -0.2810 51.1  69 
 BAR2 EZ I         949 22.18        10.7 0.50            160           51.1  69 
 RUS  HZ EP        949 11.48                             138    0.1110 83.0 135 
 RUS  HN ES        949 26.37                             138    0.8910 83.0 135 
 RUS  HZ I         949 34.83         1.2 0.54            141           83.0 135 
 PTB  HZ IP     C  949 11.19                             134   -0.4910 94.2 278 
 PTB  HN ES        949 26.06                             134    0.0410 94.2 278 
 PTB  HZ I         949 27.45         1.6 0.12            137           94.2 278 
 SPBC HZ EP        949 12.65                             132    0.4010 99.4 211 
 SPBC HE ES        949 26.56                             132   -0.4810 99.4 211 
 SPBC HZ I         949 37.05         2.7 0.28            133           99.4 211 
 YPLC HZ EP        949 20.22                             115   -0.12 9  178 130 
 YPLC HN ES        949 41.16                             115   -0.28 9  178 130 
 YPLC HZ I         949 43.22         2.7 0.56            119            178 130 
 ZAR  HZ EP        949 20.98                             115    0.31 9  181 311 
 ZAR  HE ES        949 42.34                             115    0.32 9  181 311 
 ZAR  HZ I         949 47.44         1.2 0.40            120            181 311 
                                                                                
