 2014  130 0725 39.2 L   6.793 -73.168144.8  RSN  4 0.2 1.3LRSN                1
 GAP=276        0.58       5.0     3.8  5.0  0.1865E+01  0.4176E+01 -0.2906E+01E
 Epicentro: LOS SANTOS - SANTANDER                                             3
 ACTION:UPD 14-03-13 09:59 OP:ep   STATUS:               ID:20140130072539 L   I
 OLDACT:DUP 14-01-30 11:49 OP:stll STATUS:               ID:20140130071807d    3
 2014-01-30-0718-06M.COL___227                                                 6
 STAT SP IPHASW D HRMM SECON CODA AMPLIT PERI AZIMU VELO AIN AR TRES W  DIS CAZ7
 BAR2 SZ EP        725 58.48                             171   -0.2310 22.3 184 
 BAR2 SZ ES        726 14.21                             171    0.2910 22.3 184 
 BAR2 SZ I         726 16.46         4.2 0.48            167           22.3 184 
 RUS  HZ EP        726  2.97                             144    0.1410  100 175 
 RUS  HN ES        726 20.95                             144   -0.3110  100 175 
 PTB  HZ EP        726  5.89                             132    0.02 9  145 259 
 PTB  HN ES        726 26.46                             132   -0.20 9  145 259 
 PTB  HZ I         726 32.86         2.0 0.18            131            145 259 
 SPBC HZ EP        726  7.58                             129    0.14 9  161 218 
 SPBC HN ES        726 29.62                             129    0.17 9  161 218 
 SPBC HZ I         726 34.93         2.7 0.24            129            161 218 
                                                                                
