 2011  930 0504 42.1 L   6.750 -73.084141.8  RSN 12 0.3 2.2LRSN                1
 GAP=147        0.63       2.6     4.8  4.2 -0.1342E+01  0.5130E+01  0.3074E+01E
 Epicentro: LOS SANTOS - SANTANDER                                             3
 ACTION:UPD 12-07-13 16:01 OP:ep   STATUS:               ID:20110930050442 L   I
 2011-09-30-0500-00M.COL___169                                                 6
 STAT SP IPHASW D HRMM SECON CODA AMPLIT PERI AZIMU VELO AIN AR TRES W  DIS CAZ7
 BAR2 SZ EP        5 5  1.19                             171    0.0010 20.6 212 
 BAR2 SZ ES   1    5 5 16.11                             171    0.03 7 20.6 212 
 BAR2 SZ I         5 5 17.79        23.8 0.20                          20.6 212 
 GIR2 SZ EP   2    5 5  1.38                             164   -0.13 5 38.3 342 
 PAM  SZ EP   1    5 5  3.97                             150    0.06 7 77.8  33 
 PAM  SN ES   1    5 5 21.36                             150    0.43 7 77.8  33 
 BRR  HZ EP   1    5 5  3.15                             149   -0.18 7 79.8 300 
 BRR  HN ES        5 5 20.00                             149    0.1010 79.8 300 
 BRR  HZ I         5 5 25.48        26.4 0.13                          79.8 300 
 RUS  HZ EP   1    5 5  5.00                             145   -0.04 7 94.8 180 
 RUS  HN ES   1    5 5 22.54                             145   -0.40 7 94.8 180 
 RUS  HZ I         5 5 25.19        15.0 0.31                          94.8 180 
 OCA  SZ EP   1    5 5 10.58                             127   -0.13 7  167 351 
 OCA  SZ ES   1    5 5 32.70                             127   -0.33 7  167 351 
 OCA  SZ I         5 5 38.31        21.0 0.34                           167 351 
 NOR  SZ EP        5 5 17.37                             117   -0.50 8  237 237 
 CHI  HZ EP   1    5 5 18.86                             117   -0.34 6  245 197 
 CHI  HN ES   1    5 5 48.32                             117    0.17 6  245 197 
 CHI  HZ I         5 5 54.27         8.0 0.26                           245 197 
 ROSC BZ EP   1    5 5 20.78                             116    0.90 6  252 213 
 ROSC BZ I         5 5 55.38        16.5 0.46                           252 213 
 HEL  HZ EP   1    5 5 23.11                             113    0.41 6  277 257 
 HEL  HZ I         5 6  1.95         9.1 0.24                           277 257 
 RREF HZ EP   1    5 5 28.75                             110    0.49 5  323 231 
 RREF HZ I         5 6 11.62        11.2 0.17                           323 231 
 PRA  HZ EP   1    5 5 35.45                             106    0.12 4  391 211 
                                                                                
