 2015  130 0950 19.2 L   6.811 -73.129142.9  RSN  5 0.3 1.4LRSN                1
 GAP=155        0.77       4.8     3.9  8.3 -0.3943E+01  0.1136E+02 -0.4961E+01E
 Epicentro: LOS SANTOS - SANTANDER                                             3
 ACTION:UPD 15-03-02 15:43 OP:nd   STATUS:               ID:20150130095019 L   I
 OLDACT:UP  15-01-30 17:39 OP:cam  STATUS:               ID:20150130094815     3
 OLDACT:REG 15-01-30 13:32 OP:cam  STATUS:               ID:20150130094815     3
 2015-01-30-0948-15M.COL___268                                                 6
 STAT SP IPHASW D HRMM SECON CODA AMPLIT PERI AZIMU VELO AIN AR TRES W  DIS CAZ7
 BAR2 EZ EP        950 38.74                             170    0.1810 24.9 194 
 PAM  SZ EP        950 41.20                             151    0.1710 75.3  39 
 PAM  SN ES        950 57.94                             151   -0.0810 75.3  39 
 PAM  SZ I         951  0.79         3.1 0.22            154           75.3  39 
 PTB  HZ EP        950 45.81                             131   -0.35 9  150 259 
 PTB  HN ES        951  6.90                             131   -0.25 9  150 259 
 PTB  HZ I         951 12.41         3.0 0.24            134            150 259 
 ZAR  HN ES        951 17.52                             122    0.64 8  205 292 
 SML  HZ EP        950 55.74                             117    0.07 8  243 335 
 SML  HN ES        951 23.66                             117   -0.42 8  243 335 
 SML  HZ I         951 28.49         3.1 0.10            120            243 335 
                                                                                
