 2012  830 0313 51.8 L   6.764 -73.145147.1  RSN 10 0.2 2.2LRSN                1
 GAP= 72        0.50       3.0     3.4  3.5 -0.1125E+01  0.2647E+01  0.2371E+01E
 Epicentro: LOS SANTOS - SANTANDER                                             3
 ACTION:UPD 12-09-10 11:59 OP:ep   STATUS:               ID:20120830031351 L   I
 2012-08-30-0310-00M.COL___218                                                 6
 STAT SP IPHASW D HRMM SECON CODA AMPLIT PERI AZIMU VELO AIN AR TRES W  DIS CAZ7
 BAR2 SZ EP        314 11.44                             172   -0.0610 19.4 192 
 BAR2 SZ ES   1    314 26.44                             172   -0.44 7 19.4 192 
 BAR2 SZ I         314 29.41        47.5 0.38                          19.4 192 
 GIR2 SZ EP        314 11.60                             166   -0.1210 35.2 351 
 GIR2 SZ ES   1    314 27.28                             166    0.00 7 35.2 351 
 BRR  HZ IP     C  314 13.38                             152    0.1910 73.2 301 
 BRR  HZ I         314 15.23        23.3 0.12                          73.2 301 
 BRR  HN ES   1    314 30.37                             152    0.48 7 73.2 301 
 PAM  SZ EP        314 14.32                             150    0.0010 80.4  38 
 PAM  SZ I         314 14.48        39.3 0.18                          80.4  38 
 PAM  SN ES   1    314 31.85                             150   -0.05 7 80.4  38 
 RUS  HZ EP        314 15.58                             145    0.2010 96.6 176 
 RUS  HN ES   1    314 33.92                             145    0.13 7 96.6 176 
 RUS  HZ I         314 36.69        11.3 0.50                          96.6 176 
 PTB  HZ EP        314 18.47                             132   -0.33 9  147 260 
 PTB  HN ES   3    314 39.46                             132   -0.41 2  147 260 
 PTB  HZ I         314 45.25         9.2 0.18                           147 260 
 TAM  HZ EP   2    314 19.63                             131    0.16 5  154 104 
 OCA  HZ EP   3    314 20.15                             129   -0.41 2  164 353 
 OCA  HZ I         314 46.85        28.6 0.16                           164 353 
 NOR  SZ EP        314 27.36                             119    0.01 8  232 235 
 NOR  SZ I         314 59.60        11.7 0.20                           232 235 
 PRA  HZ EP   2    314 45.11                             107    0.16 3  389 210 
 PRA  HZ I         315 32.86         5.8 0.62                           389 210 
                                                                                
