 2011  830 0308 13.1 L   6.780 -73.097137.9  RSN  4 0.1 1.8LRSN                1
 GAP=241        0.33       2.5     5.4  3.3  0.6780E+01  0.9452E+00  0.1699E+01E
 Epicentro: LOS SANTOS - SANTANDER                                             3
 ACTION:UPD 12-07-13 15:54 OP:ep   STATUS:               ID:20110830030813 L   I
 2011-08-30-0300-00M.COL___151                                                 6
 STAT SP IPHASW D HRMM SECON CODA AMPLIT PERI AZIMU VELO AIN AR TRES W  DIS CAZ7
 BAR2 SZ EP        3 8 31.89                             170    0.1210 22.8 204 
 BAR2 SZ ES   1    3 8 46.21                             170   -0.12 7 22.8 204 
 BAR2 SZ I         3 8 47.85        21.0 0.32                          22.8 204 
 BRR  HZ EP        3 8 33.69                             149   -0.0610 76.9 298 
 BRR  HZ I         3 8 40.38        16.6 0.08                          76.9 298 
 BRR  HN ES   1    3 8 49.90                             149    0.05 7 76.9 298 
 RUS  HZ EP   1    3 8 35.96                             143    0.06 7 98.2 179 
 RUS  HN ES   1    3 8 53.66                             143   -0.02 7 98.2 179 
 RUS  HZ I         3 8 56.16         7.6 0.44                          98.2 179 
 CHI  HZ EP   1    3 8 50.06                             115   -0.24 6  248 196 
 CHI  HE ES   1    3 9 19.42                             115    0.11 6  248 196 
 CHI  HZ I         3 9 24.32         3.2 0.39                           248 196 
                                                                                
