 2013  930 0721 56.8 L   6.803 -73.145147.5  RSN  6 0.5 1.6LRSN                1
 GAP=201        1.29       5.3     8.2  8.7  0.8733E+01  0.3349E+01 -0.9824E+01E
 Epicentro: LOS SANTOS - SANTANDER                                             3
 ACTION:UPD 13-10-22 09:26 OP:ep   STATUS:               ID:20130930072156 L   I
 OLDACT:REG 13-09-30 06:02 OP:nd   STATUS:               ID:20130930072000     3
 2013-09-30-0720-00M.COL___271                                                 6
 STAT SP IPHASW D HRMM SECON CODA AMPLIT PERI AZIMU VELO AIN AR TRES W  DIS CAZ7
 BAR2 SZ EP        722 16.77                             171    0.1310 23.6 190 
 BAR2 SZ ES        722 32.05                             171   -0.0710 23.6 190 
 BAR2 SZ I         722 33.05        12.5 0.38            169           23.6 190 
 BRR  HZ IP     C  722 18.78                             153    0.6510 71.1 298 
 BRR  HN ES        722 35.61                             153    0.8410 71.1 298 
 BRR  HZ I         722 39.85         6.9 0.50            149           71.1 298 
 RUS  HZ EP        722 20.75                             144    0.0110  101 176 
 RUS  HN ES        722 38.72                             144   -0.7010  101 176 
 RUS  HZ I         722 40.37         3.2 0.30            147            101 176 
 PTB  HZ EP        722 23.89                             132   -0.03 9  148 259 
 PTB  HN ES        722 44.34                             132   -0.74 9  148 259 
 PTB  HZ I         722 48.68         3.9 0.22            131            148 259 
 SPBC HZ EP        722 25.86                             129    0.40 9  163 219 
 SPBC HN ES        722 47.96                             129    0.15 9  163 219 
 SPBC HZ I         722 53.91         5.0 0.22            130            163 219 
 SML  HZ EP        722 33.37                             118   -0.13 8  243 335 
 SML  HE ES        723  1.22                             118   -0.90 8  243 335 
 SML  HZ I         723  9.14         6.9 0.10            118            243 335 
                                                                                
