 2013 1130 0004 56.9 L   6.842 -73.112148.8  RSN 16 0.4 2.6LRSN                1
 GAP= 89        0.91       3.9     3.6  5.0 -0.4740E+01  0.1717E+01  0.6904E+01E
 Epicentro: LOS SANTOS - SANTANDER                                             3
 ACTION:UPD 14-01-09 16:31 OP:ep   STATUS:               ID:20131130000456 L   I
 OLDACT:UP  13-11-30 10:48 OP:mh   STATUS:               ID:20131130000000     3
 OLDACT:UP  13-11-30 10:48 OP:mh   STATUS:               ID:20131130000000     3
 OLDACT:UP  13-11-30 10:46 OP:mh   STATUS:               ID:20131130000000     3
 OLDACT:UP  13-11-30 10:45 OP:mh   STATUS:               ID:20131130000000     3
 OLDACT:UP  13-11-30 10:43 OP:mh   STATUS:               ID:20131130000000     3
 OLDACT:UP  13-11-30 10:42 OP:mh   STATUS:               ID:20131130000000     3
 OLDACT:UP  13-11-30 10:36 OP:mh   STATUS:               ID:20131130000000     3
 OLDACT:REG 13-11-30 07:21 OP:mh   STATUS:               ID:20131130000000     3
 2013-11-30-0000-00M.COL___282                                                 6
 STAT SP IPHASW D HRMM SECON CODA AMPLIT PERI AZIMU VELO AIN AR TRES W  DIS CAZ7
 BAR2 SZ EP        0 5 16.89                             169   -0.1110 28.7 196 
 BAR2 SZ ES        0 5 32.93                             169    0.2410 28.7 196 
 BAR2 SZ I         0 5 34.93       149.8 0.38            168           28.7 196 
 PAM  SZ EP        0 5 19.00                             153   -0.0910 71.4  40 
 PAM  SN ES        0 5 36.19                             153   -0.2110 71.4  40 
 PAM  SZ I         0 5 38.41        89.6 0.17            155           71.4  40 
 BRR  HZ EP        0 5 18.45                             152    0.0110 72.5 294 
 BRR  HN ES        0 5 35.98                             152    0.7410 72.5 294 
 BRR  HZ I         0 5 37.96        34.3 0.19            149           72.5 294 
 PTB  HZ EP   1    0 5 23.78                             132   -0.74 7  152 257 
 PTB  HN ES        0 5 45.46                             132   -0.61 9  152 257 
 PTB  HZ I         0 5 47.32        42.3 0.16            130            152 257 
 TAM  HZ EP        0 5 24.66                             132    0.06 9  153 107 
 OCA  HZ EP   1    0 5 25.22                             131    0.16 7  156 352 
 OCA  HN ES   2    0 5 45.57                             131   -1.45 5  156 352 
 OCA  HZ I         0 5 51.41        18.9 0.44            130            156 352 
 SPBC HZ EP   1    0 5 26.56                             129    0.37 7  169 219 
 SPBC HN ES   4    0 5 50.42                             129    1.38 0  169 219 
 ZAR  HZ EP   1    0 5 30.16                             123    0.44 6  206 291 
 ZAR  HN ES   4    0 5 55.01                             123   -0.31 0  206 291 
 NOR  HZ EP   1    0 5 33.27                             118   -0.14 6  240 234 
 NOR  HN ES        0 6  1.85                             118   -0.05 8  240 234 
 NOR  HZ I         0 6  6.95        31.2 0.20            118            240 234 
 SML  HZ EP   4    0 5 32.19                             118   -1.22 0  241 334 
 SML  HN ES   4    0 6  0.25                             118   -1.64 0  241 334 
 SML  HZ I         0 6 10.48        15.2 0.08            118            241 334 
 CHI  HZ EP   1    0 5 35.43                             117    0.07 6  254 196 
 CHI  HN ES        0 6  4.95                             117   -0.40 8  254 196 
 CHI  HZ I         0 6 11.95        18.6 0.50            117            254 196 
 HEL  HZ EP        0 5 38.71                             115    0.92 7  277 255 
 HEL  HN ES        0 6  9.42                             115   -0.26 7  277 255 
 HEL  HZ I         0 6 16.31        28.9 0.29            114            277 255 
 GUY2CHZ EP        0 5 41.68                             112    0.39 7  307 234 
 GUY2CHN ES   4    0 6 17.35                             112    1.44 0  307 234 
 PTGC HZ EP   4    0 5 39.82                             112   -1.41 0  312 160 
 PTGC HN ES   4    0 6 12.50                             112   -3.31 0  312 160 
 CBOC HZ EP        0 5 44.72                             110    0.21 7  339 252 
 CBOC HN ES   4    0 6 19.61                             110   -2.03 0  339 252 
 CBOC HZ I         0 6 28.89         7.4 0.27            110            339 252 
 PRA  HZ EP        0 5 51.02                             107   -0.19 6  398 210 
 PRA  HN ES   4    0 6 34.55                             107    0.98 0  398 210 
 PRA  HZ I         0 6 39.90        24.4 0.37            107            398 210 
 ORTC HZ EP        0 5 51.31                             106   -0.31 6  401 216 
 ORTC HN ES        0 6 34.15                             106   -0.15 6  401 216 
 ORTC HZ I         0 6 40.34        16.3 0.53            106            401 216 
 SJC  HZ EP   4    0 5 49.54                             106   -2.80 0  407 326 
 SJC  HE ES   4    0 6 29.03                             106   -6.55 0  407 326 
                                                                                
