 2015  430 0126 58.9 L   6.811 -73.143136.6  RSN 18 0.6 2.2LRSN                1
 GAP= 71        1.72       4.0     4.5  7.8 -0.1757E+01  0.8986E+01  0.4357E+01E
 Epicentro: LOS SANTOS - SANTANDER                                             3
 ACTION:UPD 15-06-03 16:58 OP:cam  STATUS:               ID:20150430012658 L   I
 OLDACT:UP  15-04-30 13:27 OP:drio STATUS:               ID:20150430011749     3
 OLDACT:UP  15-04-30 13:20 OP:drio STATUS:               ID:20150430011749     3
 OLDACT:REG 15-04-30 12:10 OP:stll STATUS:               ID:20150430011749     3
 2015-04-30-0117-49M.COL___279                                                 6
 STAT SP IPHASW D HRMM SECON CODA AMPLIT PERI AZIMU VELO AIN AR TRES W  DIS CAZ7
 BAR2 EZ EP        127 17.66                             169    0.2410 24.6 190 
 BAR2 EZ ES        127 31.67                             169   -0.2310 24.6 190 
 BAR2 EZ I         127 33.73        39.5 0.18            169           24.6 190 
 BRR  HZ IP     C  127 19.43                             151    0.4310 70.8 298 
 BRR  HE ES        127 35.92                             151    1.2010 70.8 298 
 BRR  HZ I         127 39.39        26.6 0.16            150           70.8 298 
 PAM  SZ EP        127 20.44                             149    0.4010 76.2  40 
 PAM  SN ES        127 37.01                             149    0.4510 76.2  40 
 PAM  SZ I         127 39.17        57.8 0.44            153           76.2  40 
 RUS  HZ EP        127 21.82                             141    0.0010  102 176 
 RUS  HE ES        127 38.97                             141   -0.7510  102 176 
 RUS  HZ I         127 41.74        11.1 0.24            144            102 176 
 PTB  HZ EP     C  127 24.76                             130   -0.38 9  148 258 
 PTB  HE ES        127 45.34                             130   -0.30 9  148 258 
 PTB  HZ I         127 50.49        22.5 0.34            130            148 258 
 TAM  HZ IP     D  127 26.02                             128    0.19 9  155 105 
 TAM  HZ I         127 26.42        33.3 0.22            133            155 105 
 TAM  HE ES        127 46.20                             128   -0.68 9  155 105 
 OCA  HZ EP     D  127 25.82                             128   -0.53 9  159 353 
 OCA  HN ES        127 47.46                             128   -0.34 9  159 353 
 OCA  HZ I         127 52.62        31.7 0.38            129            159 353 
 SPBC HZ EP        127 26.78                             127   -0.00 9  164 219 
 SPBC HE ES        127 48.72                             127    0.16 9  164 219 
 SPBC HZ I         127 53.99        18.6 0.24            128            164 219 
 ZAR  HZ EP        127 30.91                             120    0.21 9  204 292 
 ZAR  HE ES        127 55.78                             120    0.25 9  204 292 
 ZAR  HZ I         128  0.93        26.1 0.46            121            204 292 
 NOR  HZ EP        127 34.29                             116    0.12 8  236 234 
 NOR  HE ES        128  2.11                             116    0.39 8  236 234 
 NOR  HZ I         128  7.19         9.7 0.32            118            236 234 
 SML  HZ EP        127 33.81                             116   -1.06 8  243 335 
 SML  HN ES        128  2.82                             116   -0.14 8  243 335 
 SML  HZ I         128 12.17        20.0 0.12            117            243 335 
 CHI  HZ EP        127 36.19                             115   -0.02 8  250 195 
 CHI  HN ES        128  4.76                             115   -0.58 8  250 195 
 CHI  HZ I         128  9.26         6.8 0.22            117            250 195 
 HEL  HZ EP        127 39.38                             113    0.70 8  273 256 
 HEL  HN ES        128  7.70                             113   -2.04 8  273 256 
 HEL  HZ I         128 17.27         7.2 0.32            114            273 256 
 GUY2CHZ EP        127 42.28                             110    0.12 7  302 235 
 GUY2CHN ES        128 15.93                             110   -0.02 7  302 235 
 GUY2CHZ I         128 25.07         5.2 0.32                           302 235 
 TOL  SZ EP        127 47.75                             107    0.87 7  345 225 
 TOL  SE ES        128 25.74                             107    1.39 7  345 225 
 TOL  SZ I         128 32.66         4.4 0.32            109            345 225 
 MON  HZ EP   9    127 45.25                             107   -2.20 0  353 308 
 MON  HN ES        128 21.51                             108   -1.64 6  353 308 
 MON  HZ I         128 24.53         7.1 0.18            108            353 308 
 ORTC HZ EP        127 53.02                             105    0.40 6  397 216 
 ORTC HN ES        128 34.41                             105   -0.14 6  397 216 
 ORTC HZ I         128 40.81         4.1 0.52            106            397 216 
 SJC  HZ EP   9    127 52.38                             104   -1.64 0  408 327 
 SJC  HN ES        128 32.04                                   -3.37 6  408 327 
 SJC  HZ I         128 37.07         4.5 0.50            105            408 327 
                                                                                
