 2015  730 0746 27.6 L   5.768 -73.903102.4  RSN 17 0.6 2.2LRSN                1
 GAP= 91        1.34       3.0     3.3  8.6 -0.3324E+01  0.8207E+01 -0.1091E+01E
 Epicentro: ALBANIA - SANTANDER                                                3
 ACTION:UPD 15-09-08 21:51 OP:cam  STATUS:               ID:20150730074627 L   I
 OLDACT:REG 15-07-30 12:14 OP:stll STATUS:               ID:20150730073745     3
 2015-07-30-0737-45M.COL___307                                                 6
 STAT SP IPHASW D HRMM SECON CODA AMPLIT PERI AZIMU VELO AIN AR TRES W  DIS CAZ7
 RUS  HZ IP     D  746 46.94                             135    0.2810 91.9  81 
 RUS  HE ES        747  0.63                             135   -0.8810 91.9  81 
 NOR  HZ EP        746 47.39                             129   -0.2610  109 258 
 NOR  HZ I         746 48.15        70.2 0.16            123            109 258 
 NOR  HN ES        747  2.69                             129   -0.5810  109 258 
 ROSC BZ EP        746 49.26                             129    0.8510  113 204 
 ROSC BN ES        747  4.59                             129   -0.0310  113 204 
 ROSC BZ I         747  9.11        29.9 0.40            123            113 204 
 BAR2 EZ IP     D  746 49.66                             126    0.6210  121  41 
 BAR2 EZ ES        747  6.12                             126    0.3810  121  41 
 BAR2 EZ I         747  8.27        54.9 0.34            121            121  41 
 BRR  HZ EP        746 51.97                             119    0.32 9  150   8 
 BRR  HN ES        747 11.19                             119    0.81 9  150   8 
 GUY2CHZ EP        746 54.92                             116    0.15 9  173 250 
 GUY2CHN ES        747 16.63                             116    0.69 9  173 250 
 GUY2CHZ I         747 21.28        10.8 0.32                           173 250 
 VIL  SZ EP        746 55.06                             114   -0.58 9  185 173 
 VIL  SN ES        747 17.25                             114   -0.24 9  185 173 
 VIL  SZ I         747 21.84        16.8 0.28            110            185 173 
 HEL  HZ EP        746 56.58                             114    0.49 9  186 285 
 HEL  HN ES        747 17.53                             114   -0.77 9  186 285 
 HEL  HZ I         747 22.53         9.4 0.70            109            186 285 
 ELA  HZ EP        746 57.81                             113    0.62 9  194 239 
 ELA  HZ I         747  3.49         6.2 0.36            109            194 239 
 TOL  SZ EP     D  746 58.25                             111    0.11 9  204 230 
 TOL  SZ I         746 59.21        10.4 0.12            108            204 230 
 TOL  SN ES        747 21.99                             111    0.06 9  204 230 
 ANIL HZ EP        746 59.63                             109   -0.03 8  218 230 
 ANIL HN ES        747 23.92                             109   -0.72 8  218 230 
 ANIL HZ I         747 27.87        33.3 0.34            106            218 230 
 ZAR  HZ EP        746 58.65                             109   -0.62 8  218 331 
 ZAR  HE ES        747 23.35                             109   -0.61 8  218 331 
 ZAR  HZ I         747 25.43        15.6 0.40            106            218 331 
 CBOC HZ EP        747  1.42                             108    0.11 8  234 273 
 CBOC HZ I         747  2.84         7.0 0.14            105            234 273 
 CBOC HN ES   4    747 27.36                             108   -0.23 0  234 273 
 ORTC HZ EP        747  3.22                             106   -0.27 8  254 216 
 ORTC HZ I         747  4.34        11.2 0.18            104            254 216 
 ORTC HN ES        747 32.12                             106    0.66 8  254 216 
 DBB  SZ EP        747  7.51                             103   -0.33 7  290 299 
 DBB  SZ I         747 43.63        24.2 0.42            102            290 299 
 MON  HZ EP   9    747 16.92                              97   -2.27 0  386 330 
 MON  HN ES        747 56.93                                   -0.20 6  386 330 
 MON  HZ I         747 59.44         3.9 0.36             98            386 330 
 SOCV BZ EP        747 23.67                              95   -1.76 5  437  50 
 SOCV BN ES   4    748  6.00                              95   -4.52 0  437  50 
                                                                                
