 2011  730 0218 31.2 L   6.703 -73.161145.3  RSN  4 0.4 1.2LRSN                1
 GAP=158        0.64       4.7    11.8  9.0  0.5797E+01 -0.3003E+02 -0.1273E+02E
 Epicentro: VILLANUEVA - SANTANDER                                             3
 ACTION:UPD 12-07-25 14:04 OP:epov STATUS:               ID:20110730021831 L   I
 2011-07-30-0213-52S.COL___142                                                 6
 STAT SP IPHASW D HRMM SECON CODA AMPLIT PERI AZIMU VELO AIN AR TRES W  DIS CAZ7
 BAR2 SZ EP   1    218 50.05                             175   -0.56 7 12.5 191 
 BAR2 SZ ES   2    219  5.34                             175   -0.40 5 12.5 191 
 BAR2 SZ I         219  6.76         3.2 0.48                          12.5 191 
 BRR  HZ EP   2    218 52.28                             151   -0.27 5 75.5 306 
 BRR  HZ I         218 53.17         7.0 0.36                          75.5 306 
 BRR  HE ES   2    219  9.65                             151    0.44 5 75.5 306 
 RUS  HZ EP   1    218 54.22                             147    0.05 7 90.0 175 
 RUS  HE ES   1    219 12.39                             147    0.30 7 90.0 175 
 RUS  HZ I         219 14.81         1.1 0.29                          90.0 175 
 GRA  SZ EP   1    218 57.70                             134    0.38 7  136  17 
 GRA  SZ ES   2    219 17.61                             134   -0.08 5  136  17 
 GRA  SZ I         219 22.50         2.2 0.35                           136  17 
                                                                                
