 2017 1130 0922 18.7 L   6.809 -73.161142.0  RSN 16 0.6 1.8LRSN                1
 GAP= 64        1.10       2.9     3.0  5.8 -0.2315E+00  0.4488E+01  0.1904E+01E
 Epicentro: LOS SANTOS - SANTANDER                                             3
 ACTION:UPD 17-12-12 20:02 OP:rebc STATUS:               ID:20171130092218 L   I
 OLDACT:UP  17-11-30 15:00 OP:dani STATUS:               ID:20171130091739     3
 OLDACT:UP  17-11-30 14:58 OP:dani STATUS:               ID:20171130091739     3
 OLDACT:REG 17-11-30 13:05 OP:dhb  STATUS:               ID:20171130091739     3
 2017-11-30-0918-00M.COL___438                                                 6
 STAT SP IPHASW D HRMM SECON CODA AMPLIT PERI AZIMU VELO AIN AR TRES W  DIS CAZ7
 BAR2 EZ EP        922 37.78                             170   -0.1310 24.1 186 
 BAR2 EZ ES        922 53.24                             170    0.3610 24.1 186 
 BAR2 EZ I         922 54.34        16.0 0.20            168           24.1 186 
 PAM  EZ EP        922 40.72                             150    0.1710 77.6  41 
 PAM  EN ES        922 57.36                             150   -0.2210 77.6  41 
 PAM  EZ I         923  0.23         7.4 0.46            153           77.6  41 
 RUS  HZ EP        922 41.77                             143   -0.4210  102 175 
 RUS  HN ES        923  0.68                             143    0.1910  102 175 
 RUS  HZ I         923  2.49         4.3 0.40            143            102 175 
 PTB  HZ EP        922 44.29                             131   -0.97 9  146 258 
 PTB  HN ES        923  5.25                             131   -0.70 9  146 258 
 PTB  HZ I         923  7.37         4.8 0.18            130            146 258 
 TAM  HZ EP        922 46.16                             129   -0.12 9  157 105 
 TAM  HN ES        923  8.36                             129    0.59 9  157 105 
 OCA  HZ EP        922 47.54                             129    0.91 9  159 354 
 OCA  HN ES        923  7.95                             129   -0.44 9  159 354 
 OCA  HZ I         923 14.21        13.8 0.24            130            159 354 
 SPBC HZ EP        922 46.74                             128   -0.17 9  163 218 
 SPBC HN ES        923  8.67                             128   -0.23 9  163 218 
 SPBC HZ I         923 15.75        12.1 0.34            128            163 218 
 YPLC HZ EP        922 48.25                             125   -0.16 9  179 151 
 YPLC HE ES        923 11.21                             125   -0.36 9  179 151 
 YPLC HZ I         923 13.16         8.7 0.28            127            179 151 
 ZAR  HZ EP        922 50.41                             122   -0.32 9  202 292 
 ZAR  HN ES        923 16.39                             122    0.70 9  202 292 
 ZAR  HZ I         923 20.52         6.3 0.26            121            202 292 
 NOR  HN ES        923 21.85                             118    0.06 8  234 234 
 CHI  HZ EP        922 56.18                             116   -0.10 8  249 195 
 CHI  HE ES        923 26.27                             116    0.70 8  249 195 
 CHI  HZ I         923 31.64         2.4 0.28            117            249 195 
 HEL  HZ EP   3    923  0.14                             114    1.54 2  271 256 
 HEL  HN ES   3    923 31.82                             114    2.12 2  271 256 
 HEL  HZ I         923 36.58         4.2 0.40            114            271 256 
 GUY2CHZ EP   3    923  3.20                             112    1.12 2  300 234 
 GUY2CHZ I         923 45.79         3.6 0.70                           300 234 
 CBOC HZ EP        923  6.12                             109    0.78 7  332 252 
 CBOC HE ES        923 42.35                             109    0.65 7  332 252 
 CBOC HZ I         923 59.26         1.3 0.55            109            332 252 
 PRA  HZ EP        923 12.01                             106   -0.12 6  392 209 
 PRA  HN ES        923 53.89                             106    0.11 6  392 209 
 PRA  HZ I         924  1.22         2.3 0.17            106            392 209 
 SJC  HZ EP   3    923 11.83                             105   -2.13 1  407 327 
 SJC  HN ES   4    923 53.44                             105   -3.60 0  407 327 
 SJC  HZ I         924  0.52         2.0 0.50            106            407 327 
                                                                                
