 2011  930 0425 34.3 L   6.767 -73.096146.0  RSN 11 0.4 1.9LRSN                1
 GAP=145        0.70       3.5     5.2  6.1 -0.3933E+01  0.9060E+01  0.4354E+01E
 Epicentro: LOS SANTOS - SANTANDER                                             3
 ACTION:UPD 12-07-13 16:01 OP:ep   STATUS:               ID:20110930042534 L   I
 2011-09-30-0420-00M.COL___169                                                 6
 STAT SP IPHASW D HRMM SECON CODA AMPLIT PERI AZIMU VELO AIN AR TRES W  DIS CAZ7
 BAR2 SZ EP        425 53.89                             171   -0.0310 21.6 206 
 BAR2 SZ I         426 11.91        17.7 0.19                          21.6 206 
 GIR2 SZ EP   2    425 54.28                             165    0.14 5 36.1 343 
 PAM  SZ EP   1    425 56.67                             151    0.16 7 77.0  35 
 PAM  SN ES   1    426 13.38                             151   -0.46 7 77.0  35 
 PAM  SZ I         426 16.02         7.0 0.22                          77.0  35 
 BRR  HZ EP        425 55.87                             150    0.0210 77.8 299 
 BRR  HN ES   1    426 12.81                             150    0.14 7 77.8 299 
 BRR  HZ I         426 15.51        23.6 0.14                          77.8 299 
 RUS  HZ EP        425 57.76                             145   -0.0410 96.7 179 
 RUS  HN ES   1    426 16.82                             145    0.70 7 96.7 179 
 RUS  HZ I         426 17.85         5.1 0.19                          96.7 179 
 OCA  SZ EP   1    426  2.96                             129   -0.08 7  165 351 
 NOR  SZ EP   1    426  9.85                             118   -0.45 6  237 236 
 NOR  SE ES   1    426 38.00                             118   -0.38 6  237 236 
 CHI  HZ EP   1    426 11.86                             117    0.07 6  247 197 
 CHI  HE ES   1    426 40.23                             117   -0.81 6  247 197 
 CHI  HZ I         426 49.61         4.0 0.38                           247 197 
 HEL  HZ EP   1    426 15.57                             114    0.55 6  277 257 
 HEL  HZ I         426 53.17         4.9 0.33                           277 257 
 RREF HZ EP   1    426 21.34                             111    0.68 5  324 231 
 RREF HZ I         427  6.11         6.5 0.58                           324 231 
 PRA  HZ EP   1    426 27.58                             107   -0.20 4  392 211 
                                                                                
