 2013  630 0854 10.9 L   6.830 -73.177141.5  RSN 10 0.4 2.3LRSN                1
 GAP= 76        0.96       4.3     3.6  5.9 -0.2934E+01  0.4589E+00  0.1018E+02E
 Epicentro: ZAPATOCA - SANTANDER                                               3
 ACTION:UPD 14-01-08 09:58 OP:ep   STATUS:               ID:20130630085410 L   I
 OLDACT:REG 13-06-30 07:54 OP:jn   STATUS:               ID:20130630084959     3
 2013-06-30-0849-59M.COL___267                                                 6
 STAT SP IPHASW D HRMM SECON CODA AMPLIT PERI AZIMU VELO AIN AR TRES W  DIS CAZ7
 BAR2 SZ EP        854 29.91                             169   -0.2010 26.3 181 
 BAR2 SZ ES        854 44.89                             169   -0.1910 26.3 181 
 BAR2 SZ I         854 46.02        68.0 0.32            165           26.3 181 
 GIR2 SZ EP        854 30.17                             168    0.1710 27.6 356 
 GIR2 SZ ES        854 44.50                             168   -0.3810 27.6 356 
 BRR  HZ EP        854 31.87                             153    0.5110 66.6 297 
 BRR  HN ES   1    854 48.11                             153    0.81 7 66.6 297 
 BRR  HZ I         854 52.54        40.3 0.12            146           66.6 297 
 PAM  SZ EP        854 32.95                             150    0.2710 77.2  43 
 PAM  SN ES        854 49.94                             150    0.2910 77.2  43 
 PAM  SZ I         854 52.23        48.1 0.50            147           77.2  43 
 PTB  HZ EP        854 36.72                             131   -0.58 9  145 257 
 PTB  HN ES        854 57.74                             131   -0.14 9  145 257 
 PTB  HZ I         855  1.34        24.8 0.22            124            145 257 
 OCA  HN ES   1    854 59.14                             129   -0.98 7  157 354 
 OCA  HZ I         855  2.98        30.4 0.18            124            157 354 
 TAM  HZ IP     C  854 38.54                             129   -0.13 9  159 106 
 TAM  HE ES   1    855  0.45                             129    0.14 7  159 106 
 CHI  HZ EP        854 48.64                             116   -0.00 8  251 194 
 CHI  HN ES        855 17.84                             116   -0.22 8  251 194 
 CHI  HZ I         855 22.56         6.8 0.44            110            251 194 
 HEL  HN ES   1    855 22.32                             114    0.70 6  270 255 
 PRA  HZ EP   1    855  5.05                             106    0.61 4  393 209 
 PRA  HZ I         855 52.05         8.4 0.34            101            393 209 
                                                                                
