 2014  530 0227 21.5 L   6.787 -73.231130.5  RSN  4 0.6 1.0LRSN                1
 GAP=227        1.48       9.4    10.6 16.4  0.2506E+02 -0.1625E+02  0.3007E+02E
 Epicentro: ZAPATOCA - SANTANDER                                               3
 ACTION:UPD 15-03-16 17:02 OP:nd   STATUS:               ID:20140530022721 L   I
 OLDACT:DUP 14-05-30 13:53 OP:mh   STATUS:               ID:20140530021807d    3
 2014-05-30-0218-06M.COL___241                                                 6
 STAT SP IPHASW D HRMM SECON CODA AMPLIT PERI AZIMU VELO AIN AR TRES W  DIS CAZ7
 BRR  HZ EP   1    227 40.60                             152    0.04 7 63.8 304 
 BRR  HN ES        227 55.65                             152    0.2110 63.8 304 
 BRR  HZ I         228  2.54         4.2 0.33            167           63.8 304 
 RUS  HZ EP        227 42.98                             140   -0.7610  100 171 
 RUS  HN ES   1    228  1.44                             140    0.34 7  100 171 
 RUS  HZ I         228 13.65         0.7 0.43            146            100 171 
 PTB  HZ EP        227 47.23                             130    0.88 9  138 259 
 PTB  HN ES        228  4.83                             130   -0.91 9  138 259 
 PTB  HZ I         228  8.55         2.3 0.11            145            138 259 
 SPBC HN ES        228  9.42                             127    0.43 9  156 217 
                                                                                
