 2012  430 0802 27.3 L   6.775 -73.154142.9  RSN  7 0.3 1.7LRSN                1
 GAP=137        0.69       4.9     5.1  7.3  0.9444E+01  0.1084E+02  0.5931E+01E
 Epicentro: LOS SANTOS - SANTANDER                                             3
 ACTION:UPD 12-07-05 11:56 OP:tino STATUS:               ID:20120430080227 L   I
 2012-04-30-0800-00M.COL___189                                                 6
 STAT SP IPHASW D HRMM SECON CODA AMPLIT PERI AZIMU VELO AIN AR TRES W  DIS CAZ7
 BAR2 SZ EP   1    8 2 46.74                             171     0.3 7   20 189 
 BAR2 SZ ES   1    8 3  0.93                             171    -0.6 7   20 189 
 BAR2 SZ I         8 3  2.86        11.8 0.24                            20 189 
 BRR  HZ EP   1    8 2 48.31                             152     0.2 7   72 301 
 BRR  HN ES   1    8 3  4.67                             152     0.3 7   72 301 
 BRR  HZ I         8 3  8.65         9.2 0.28                            72 301 
 PAM  SN ES   2    8 3  6.37                             149    -0.2 5   80  39 
 RUS  HZ EP   1    8 2 50.47                             144    -0.1 7   98 175 
 RUS  HN ES   1    8 3  9.14                             144     0.4 7   98 175 
 PTB  HZ EP   1    8 2 53.37                             132    -0.5 7  146 260 
 PTB  HN ES   1    8 3 14.48                             132    -0.1 7  146 260 
 ZAR  HN ES   1    8 3 24.92                             122     0.2 6  204 293 
 ZAR  HZ I         8 3 28.93         6.3 0.44                           204 293 
 CHI  HN ES   2    8 3 33.40                             117    -0.1 4  246 195 
                                                                                
