 2012  530 0310 36.4 L   6.858 -73.178145.7  RSN  8 0.4 1.5LRSN                1
 GAP=130        0.94       3.8     5.5  9.9 -0.2323E+01  0.2177E+02  0.8284E+00E
 Epicentro: ZAPATOCA - SANTANDER                                               3
 ACTION:UP  12-07-05 12:09 OP:pat  STATUS:               ID:20120530031036 L   I
 2012-05-30-0310-00M.COL___201                                                 6
 STAT SP IPHASW D HRMM SECON CODA AMPLIT PERI AZIMU VELO AIN AR TRES W  DIS CAZ7
 BAR2 SZ EP   1    310 56.87                             168     0.7 8   29 181 
 BAR2 SZ ES   1    311 11.56                             168     0.0 8   29 181 
 BAR2 SZ I         311 13.67         8.7 0.25                            29 181 
 PAM  SZ EP   1    310 58.39                             152    -0.1 8   75  45 
 PAM  SN ES   1    311 16.10                             152     0.4 8   75  45 
 PAM  SZ I         311 19.03         4.3 0.28                            75  45 
 RUS  HZ EP   1    311  0.03                             142    -0.6 7  107 174 
 RUS  HN ES        311 19.25                             142    -0.310  107 174 
 RUS  HZ I         311 21.26         4.9 0.16                           107 174 
 PTB  HZ EP   1    311  3.68                             132     0.5 7  146 256 
 PTB  HN ES   1    311 24.45                             132     0.4 7  146 256 
 PTB  HZ I         311 27.32         3.8 0.11                           146 256 
 OCA  HN ES        311 25.33                             131    -0.3 9  154 354 
 ZAR  HN ES   1    311 32.68                             123    -0.4 7  198 291 
 NOR  SN ES   1    311 39.93                             118    -0.2 6  236 233 
 PRA  HN ES   1    312 12.62                             106     0.2 4  396 209 
                                                                                
