 2017  630 0259 11.5 L   6.791 -73.144145.2  RSN 22 0.5 2.6LRSN                1
 GAP= 66        0.78       2.3     2.0  3.7  0.2002E-01  0.1846E+01  0.2309E+01E
 Epicentro: LOS SANTOS - SANTANDER                                             3
 ACTION:UPD 17-09-14 16:56 OP:jn   STATUS:               ID:20170630025911 L   I
 OLDACT:UP  17-06-30 15:27 OP:and  STATUS:               ID:20170630025746     3
 OLDACT:UP  17-06-30 15:24 OP:and  STATUS:               ID:20170630025746     3
 OLDACT:UP  17-06-30 15:24 OP:and  STATUS:               ID:20170630025746     3
 OLDACT:UP  17-06-30 15:22 OP:and  STATUS:               ID:20170630025746     3
 OLDACT:REG 17-06-30 13:19 OP:and  STATUS:               ID:20170630025746     3
 2017-06-30-0258-00M.COL___371                                                 6
 STAT SP IPHASW D HRMM SECON CODA AMPLIT PERI AZIMU VELO AIN AR TRES W  DIS CAZ7
 BAR2 EZ IP     C  259 30.79                             171   -0.3110 22.4 191 
 BAR2 EZ ES        259 46.30                             171   -0.0510 22.4 191 
 BAR2 EZ I         259 48.65       125.9 0.46            170           22.4 191 
 BRR  HZ IP     C  259 32.59                             152   -0.0910 71.9 299 
 BRR  HN ES        259 49.64                             152    0.4810 71.9 299 
 BRR  HZ I         259 53.49        67.2 0.07            152           71.9 299 
 PAM  EZ IP     C  259 33.67                             150   -0.0710 78.0  39 
 PAM  EN ES        259 51.00                             150   -0.0510 78.0  39 
 PAM  EZ I         259 53.91        83.1 0.42            153           78.0  39 
 PTB  HZ EP   9    259 37.55                             132   -0.93 0  148 259 
 PTB  HN ES        259 58.59                             132    0.04 9  148 259 
 PTB  HZ I         3 0  4.20        27.4 0.12            132            148 259 
 TAM  HZ IP     C  259 39.26                             130    0.12 9  155 105 
 TAM  HN ES        3 0  0.93                             130    0.27 9  155 105 
 TAM  HZ I         3 0  7.36        25.8 0.48            132            155 105 
 SPBC HZ EP        259 39.76                             129   -0.19 9  163 219 
 SPBC HN ES        3 0  1.73                             129   -0.37 9  163 219 
 SPBC HZ I         3 0  3.04        74.9 0.26            129            163 219 
 YPLC HZ EP        259 41.22                             127    0.01 9  176 151 
 YPLC HN ES        3 0  4.54                             127    0.19 9  176 151 
 YPLC HZ I         3 0  8.05        62.0 0.28            128            176 151 
 ZAR  HZ EP        259 44.12                             122    0.10 9  205 292 
 ZAR  HN ES        3 0  9.10                             122   -0.25 9  205 292 
 ZAR  HZ I         3 0 13.95        79.1 0.38            123            205 292 
 TABC EZ EP   3    259 48.40                             119    1.21 2  229 211 
 TABC EZ ES   3    3 0 16.97                             119    1.98 2  229 211 
 TABC EZ I         3 0 22.14        40.8 0.38            120            229 211 
 NOR  HZ EP        259 47.08                             118   -0.13 8  234 235 
 NOR  HN ES        3 0 14.56                             118   -0.46 8  234 235 
 NOR  HZ I         3 0 20.32        21.4 0.24            119            234 235 
 CHI  HZ EP        259 49.12                             117   -0.00 8  248 195 
 CHI  HN ES        3 0 17.77                             117   -0.66 8  248 195 
 CHI  HZ I         3 0 24.49        25.9 0.34            118            248 195 
 ROSC BZ EP   3    259 50.79                             116    1.23 2  252 211 
 ROSC BN ES   4    3 0 22.35                             116    3.14 0  252 211 
 ROSC BZ I         3 0 25.60        86.6 0.40            117            252 211 
 HEL  HZ EP        259 52.31                             114    0.58 8  272 256 
 HEL  HN ES        3 0 22.98                             114   -0.10 8  272 256 
 HEL  HZ I         3 0 29.20        13.6 0.50            115            272 256 
 GUY2CHZ EP        259 55.83                             112    0.74 7  301 235 
 GUY2CHN ES   4    3 0 32.07                             112    3.01 0  301 235 
 GUY2CHZ I         3 0 37.18        22.5 0.62                           301 235 
 VIL  EZ EP        259 54.68                             112   -0.16 7  302 192 
 VIL  EN ES        3 0 28.20                             112   -0.41 7  302 192 
 VIL  EZ I         3 0 33.89        29.3 0.34            113            302 192 
 PTGC HZ IP   9 D  259 53.97                             111   -1.30 0  308 159 
 PTGC HN ES        3 0 27.44                             112   -0.63 7  308 159 
 PTGC HZ I         3 0 32.26        18.7 0.32            113            308 159 
 LL6C HZ EP   3    259 56.05                             110   -1.29 2  326 358 
 LL6C HN ES   2    3 0 32.73                             110   -0.32 3  326 358 
 LL6C HZ I         3 0 44.66         9.3 0.16            111            326 358 
 CBOC HZ EP   2    259 59.23                             110    0.80 3  334 252 
 CBOC HN ES        3 0 35.48                             110    0.48 7  334 252 
 CBOC HZ I         3 0 45.78         6.5 0.50            110            334 252 
 DBB  EZ EP        259 59.07                             109    0.03 7  340 274 
 DBB  EN ES   3    3 0 34.44                             109   -1.64 2  340 274 
 DBB  EZ I         3 0 36.32        14.4 0.36            110            340 274 
 ORTC HZ EP        3 0  4.87                             106   -0.51 6  395 216 
 ORTC HN ES        3 0 48.41                             106    1.05 6  395 216 
 ORTC HZ I         3 0 54.68        13.9 0.36            107            395 216 
 PAL  HZ EP        3 0  7.14                             106    0.48 6  405 239 
 PAL  HN ES        3 0 49.32                             106   -0.32 6  405 239 
 PAL  HZ I         3 0 54.31         6.8 0.24            106            405 239 
 SJC  HZ EP   4    3 0  4.95                             105   -2.25 0  410 327 
 SJC  HN ES   4    3 0 45.88                             105   -4.73 0  410 327 
 SJC  HZ I         3 0 50.97         7.9 0.32            106            410 327 
                                                                                
