 2015  330 0611 59.0 L   6.765 -73.126139.8  RSN  7 0.3 1.1LRSN                1
 GAP=141        0.74       4.1     3.7  7.4 -0.2759E+01  0.7459E+01 -0.4567E+01E
 Epicentro: LOS SANTOS - SANTANDER                                             3
 ACTION:UPD 15-04-30 16:30 OP:nd   STATUS:               ID:20150330061159 L   I
 OLDACT:DUP 15-03-30 19:02 OP:spq  STATUS:               ID:20150330060743d    3
 2015-03-30-0607-42M.COL___287                                                 6
 STAT SP IPHASW D HRMM SECON CODA AMPLIT PERI AZIMU VELO AIN AR TRES W  DIS CAZ7
 BAR2 EZ ES   1    612 32.19                             172   -0.39 7 20.1 198 
 BAR2 EZ I         612 33.29         2.8 0.28            169           20.1 198 
 BRR  HZ EP        612 19.66                             150   -0.1110 75.0 300 
 BRR  HN ES        612 36.30                             150    0.3610 75.0 300 
 BRR  HZ I         612 38.85         4.4 0.44            149           75.0 300 
 PAM  SZ EP        612 20.72                             149   -0.0110 79.1  37 
 PAM  SN ES        612 37.57                             149   -0.0710 79.1  37 
 PAM  SZ I         612 38.06         2.5 0.36            152           79.1  37 
 RUS  HN ES   1    612 40.09                             144    0.34 7 96.5 177 
 RUS  HZ I         612 40.85         0.6 0.34            143           96.5 177 
 PTB  HE ES   1    612 45.65                             130   -0.77 7  149 260 
 PTB  HZ I         612 48.56         2.1 0.26            129            149 260 
 SPBC HE ES   1    612 48.78                             128    0.10 7  162 220 
 SPBC HZ I         612 53.04         1.7 0.26            127            162 220 
 ZAR  HE ES        612 57.03                             121    0.26 8  208 293 
 ZAR  HZ I         612 59.93         1.2 0.26            120            208 293 
                                                                                
