 2015  630 0747 59.7 L   6.812 -73.106142.5  RSN  5 0.4 1.6LRSN                1
 GAP=187        0.93       3.5     6.4 10.3  0.3451E+01  0.2990E+02 -0.4671E+01E
 Epicentro: LOS SANTOS - SANTANDER                                             3
 ACTION:UPD 15-09-10 22:15 OP:cam  STATUS:               ID:20150630074759 L   I
 OLDACT:UP  15-06-30 18:19 OP:ar   STATUS:               ID:20150630073750d    3
 OLDACT:DUP 15-06-30 18:07 OP:ar   STATUS:               ID:20150630073750d    3
 OLDACT:REG 15-06-30 14:38 OP:ar   STATUS:               ID:20150630073749     3
 2015-06-30-0737-49M.COL___310                                                 6
 STAT SP IPHASW D HRMM SECON CODA AMPLIT PERI AZIMU VELO AIN AR TRES W  DIS CAZ7
 RUS  HZ EP        748 23.93                             142    0.7110  102 179 
 RUS  HE ES        748 41.10                             142   -0.4510  102 179 
 RUS  HZ I         748 42.89         2.9 0.38            145            102 179 
 OCA  HN ES        748 49.51                             129   -0.01 9  160 352 
 OCA  HZ I         748 53.04        10.4 0.34            130            160 352 
 ZAR  HZ EP        748 32.28                             121   -0.03 8  208 291 
 ZAR  HN ES        748 58.27                             121    0.52 8  208 291 
 ZAR  HZ I         749  3.41         4.6 0.32            120            208 291 
 SML  HZ EP        748 35.89                             116   -0.33 8  244 334 
 SML  HE ES        749  4.49                             116   -0.22 8  244 334 
 SML  HZ I         749 12.70         5.1 0.26            118            244 334 
 CBOC HZ EP        748 46.77                             109   -0.25 7  338 252 
 CBOC HN ES        749 23.60                             109   -0.32 7  338 252 
 CBOC HZ I         749 40.14         0.6 0.58            110            338 252 
                                                                                
