 2016 1230 0959 23.5 L   6.718 -73.104138.5  RSN  4 0.4 0.9LRSN                1
 GAP=236        0.95       7.3     7.5  9.8  0.2931E+02 -0.7028E+01 -0.7326E+01E
 Epicentro: JORDAN - SANTANDER                                                 3
 ACTION:UPD 17-01-11 20:20 OP:rebc STATUS:               ID:20161230095923 L   I
 OLDACT:REG 16-12-30 13:12 OP:edw  STATUS:               ID:20161230094742     3
 2016-12-30-0948-00M.COL___362                                                 6
 STAT SP IPHASW D HRMM SECON CODA AMPLIT PERI AZIMU VELO AIN AR TRES W  DIS CAZ7
 BAR2 EZ EP        959 42.32                             173    0.1710 16.3 212 
 BAR2 EZ I        10 0  0.12         3.1 0.31            173           16.3 212 
 BRR  HZ EP        959 44.21                             148   -0.2110 79.8 303 
 BRR  HE ES       10 0  0.76                             148    0.0410 79.8 303 
 RUS  HZ EP        959 46.45                             145    0.5610 91.3 179 
 RUS  HN ES       10 0  2.96                             145   -0.3810 91.3 179 
 RUS  HZ I        10 0  5.76         0.8 0.18            147           91.3 179 
 PTB  HZ EP        959 49.64                             130   -0.55 9  151 263 
 PTB  HE ES       10 0 11.33                             130    0.34 9  151 263 
 PTB  HZ I        10 0 13.80         1.2 0.16            133            151 263 
 ZAR  HE ES   4   10 0 19.55                             120   -2.36 0  212 294 
                                                                                
