 2012  130 0523  3.7 L   6.802 -73.205138.7  RSN 12 0.5 2.1LRSN                1
 GAP=129        0.97       5.1     4.6  8.1 -0.7724E+00  0.1141E+02  0.1240E+02E
 Epicentro: ZAPATOCA - SANTANDER                                               3
 ACTION:UP  12-02-03 08:22 OP:REBC STATUS:               ID:20120130052303 L   I
 2012-01-30-0520-00M.COL___188                                                 6
 STAT SP IPHASW D HRMM SECON CODA AMPLIT PERI AZIMU VELO SNR AR TRES W  DIS CAZ7
 BAR2 SZ EP        523 22.85                             170     0.310   23 174 
 BAR2 SZ I         523 38.69       110.9 0.23                            23 174 
 GIR2 SZ EP   1    523 22.87                             167     0.3 7   31   2 
 BRR  HN ES   1    523 40.05                             153     0.6 7   65 301 
 PAM  SZ EP   1    523 25.73                             148     0.2 7   82  43 
 PAM  SE ES   1    523 41.87                             148    -0.6 7   82  43 
 PAM  SZ I         523 43.66        31.4 0.21                            82  43 
 RUS  HZ EP   1    523 26.93                             142     0.0 7  102 172 
 RUS  HZ I         523 30.75        99.2 0.76                           102 172 
 RUS  HN ES   1    523 44.48                             142    -0.5 7  102 172 
 PTB  HZ EP   1    523 29.68                             132     0.1 7  141 258 
 PTB  HN ES   1    523 49.39                             132    -0.3 7  141 258 
 PTB  HZ I         523 52.20         1.0 0.41                           141 258 
 ZAR  HZ EP   1    523 34.29                             122    -0.8 6  198 293 
 ZAR  HN ES   1    523 59.76                             122     0.2 6  198 293 
 ZAR  HZ I         524  1.46        45.2 0.49                           198 293 
 NOR  SZ EP   1    523 38.95                             118     0.4 6  230 233 
 NOR  SN ES   1    524  6.12                             118     0.5 6  230 233 
 NOR  SZ I         524 10.70         3.1 0.54                           230 233 
 CHI  HZ EP   1    523 40.16                             116    -0.8 6  247 194 
 HEL  HZ EP   1    523 42.88                             114     0.0 6  266 255 
 HEL  HN ES   1    524 12.50                             114    -1.0 6  266 255 
 DBB  SZ EP   1    523 50.01                             109    -0.2 5  333 274 
 PRA  HZ EP   1    523 57.33                             105     0.6 4  389 209 
 PRA  HE ES   1    524 38.52                             105     0.5 4  389 209 
                                                                                
