 2015  330 0629 22.4 L   6.780 -73.178155.0  RSN  6 0.4 1.2LRSN                1
 GAP=198        0.76       5.2     6.3  6.3  0.1581E+02  0.2806E+01 -0.4921E+01E
 Epicentro: LOS SANTOS - SANTANDER                                             3
 ACTION:UPD 15-04-30 16:30 OP:nd   STATUS:               ID:20150330062922 L   I
 OLDACT:DUP 15-03-30 19:11 OP:spq  STATUS:               ID:20150330062744d    3
 2015-03-30-0627-43M.COL___287                                                 6
 STAT SP IPHASW D HRMM SECON CODA AMPLIT PERI AZIMU VELO AIN AR TRES W  DIS CAZ7
 BAR2 EZ EP   1    629 42.86                             172   -0.23 7 20.8 181 
 BAR2 EZ ES   1    629 59.04                             172   -0.20 7 20.8 181 
 BAR2 EZ I         630  0.36         2.2 0.21            170           20.8 181 
 BRR  HZ EP        629 44.86                             155    0.4210 69.2 302 
 BRR  HN ES        630  2.04                             155    0.4010 69.2 302 
 BRR  HZ I         630  7.92         3.3 0.46            150           69.2 302 
 RUS  HZ EP   1    629 47.11                             146    0.17 7 98.7 174 
 RUS  HE ES   1    630  5.77                             146   -0.31 7 98.7 174 
 RUS  HZ I         630  8.17         1.2 0.42            151           98.7 174 
 PTB  HZ EP        629 49.77                             135   -0.01 9  144 259 
 PTB  HN ES   1    630 10.61                             135   -0.54 7  144 259 
 PTB  HZ I         630 18.07         2.2 0.30            134            144 259 
 ZAR  HZ EP   1    629 55.65                             125    0.44 6  202 293 
 ZAR  HN ES   1    630 20.59                             125   -0.21 6  202 293 
 ZAR  HZ I         630 28.73         1.8 0.56            125            202 293 
 SML  HZ EP   2    629 58.85                             119   -0.75 4  244 336 
 SML  HE ES   1    630 28.07                             119   -0.56 6  244 336 
 SML  HZ I         630 35.97         2.6 0.26            121            244 336 
                                                                                
