 2017  730 0216 36.2 L   6.808 -73.157142.9  RSN 13 0.3 1.9LRSN                1
 GAP=102        0.87       2.8     2.6  4.4  0.5884E+00  0.1897E+01  0.2476E+01E
 Epicentro: LOS SANTOS - SANTANDER                                             3
 ACTION:UPD 17-08-30 15:38 OP:rebc STATUS:               ID:20170730021636 L   I
 OLDACT:UP  17-07-30 15:59 OP:ar   STATUS:               ID:20170730020747     3
 OLDACT:UP  17-07-30 15:53 OP:ar   STATUS:               ID:20170730020747     3
 OLDACT:REG 17-07-30 13:14 OP:ar   STATUS:               ID:20170730020747     3
 2017-07-30-0208-00M.COL___383                                                 6
 STAT SP IPHASW D HRMM SECON CODA AMPLIT PERI AZIMU VELO AIN AR TRES W  DIS CAZ7
 BAR2 EZ EP        216 55.25                             170   -0.2210 24.1 187 
 BAR2 EZ ES        217  9.91                             170   -0.6110 24.1 187 
 BAR2 EZ I         217 12.24        19.3 0.22            168           24.1 187 
 BRR  HZ EP        216 57.00                             153    0.0710 69.7 298 
 BRR  HN ES        217 13.82                             153    0.7110 69.7 298 
 BRR  HZ I         217 14.76        12.8 0.20            153           69.7 298 
 PAM  EZ EP        216 58.13                             150    0.0410 77.5  41 
 PAM  EN ES        217 15.22                             150    0.0410 77.5  41 
 PAM  EZ I         217 17.10        15.5 0.50            155           77.5  41 
 RUS  HZ EP        216 59.52                             143   -0.2010  102 175 
 RUS  HN ES        217 18.38                             143    0.3010  102 175 
 RUS  HZ I         217 19.46        11.1 0.30            143            102 175 
 PTB  HZ EP        217  2.09                             132   -0.73 9  147 258 
 PTB  HN ES        217 23.12                             132   -0.48 9  147 258 
 PTB  HZ I         217 29.06         5.7 0.32            132            147 258 
 TAM  HZ EP        217  3.96                             130    0.21 9  156 105 
 SPBC HZ EP        217  4.21                             128   -0.24 9  163 218 
 SPBC HE ES        217 26.51                             128    0.01 9  163 218 
 SPBC HZ I         217 32.20        13.5 0.24            129            163 218 
 YPLC HZ EP        217  5.75                             126   -0.15 9  178 151 
 YPLC HE ES        217 29.42                             126    0.34 9  178 151 
 YPLC HZ I         217 32.26         7.8 0.32            128            178 151 
 ZAR  HZ EP        217  8.24                             122   -0.04 9  203 292 
 ZAR  HN ES        217 33.38                             122    0.06 9  203 292 
 ZAR  HZ I         217 34.92         6.2 0.48            123            203 292 
 NOR  HZ EP        217 11.76                             118    0.07 8  234 234 
 NOR  HN ES        217 39.71                             118    0.32 8  234 234 
 NOR  HZ I         217 44.00         6.4 0.34            119            234 234 
 CHI  HZ EP        217 13.68                             116   -0.10 8  249 195 
 CHI  HN ES        217 43.21                             116    0.11 8  249 195 
 HEL  HZ EP        217 16.75                             114    0.61 8  271 256 
 HEL  HN ES        217 47.57                             114    0.26 8  271 256 
 HEL  HZ I         217 54.47         4.1 0.42            115            271 256 
 GUY2CHZ EP   4    217 21.96                             112    2.36 0  301 234 
 GUY2CHN ES   4    217 56.66                             112    3.19 0  301 234 
 GUY2CHZ I         218  1.62         3.7 0.28                           301 234 
                                                                                
