 2010  930 0251 24.9 L   6.749 -73.139146.5  RSN  5 0.3 1.6LRSN                1
 GAP=160        0.80       4.4     9.7  7.3 -0.1044E+01 -0.1265E+02 -0.1392E+01E
 Epicentro: LOS SANTOS - SANTANDER                                             3
 ACTION:UP  11-02-18 11:06 OP:tino STATUS:               ID:20100930025124 L   I
 2010-09-30-0249-54S.COL___125                                                 6
 STAT SP IPHASW D HRMM SECON CODA AMPLIT PERI AZIMU VELO SNR AR TRES W  DIS CAZ7
 BAR2 SZ EP   1    251 44.13                             173    -0.4 7   18 196 
 BAR2 SZ ES   1    251 59.56                             173    -0.3 7   18 196 
 BAR2 SZ I         252  1.31         9.9 0.28                            18 196 
 BRR  HZ IP     C  251 46.08                             152    -0.310   75 302 
 BRR  HZ I         251 46.39        16.3 0.15                            75 302 
 BRR  HN ES   1    252  3.42                             152     0.3 7   75 302 
 RUS  HZ EP   1    251 48.03                             146    -0.3 7   95 176 
 RUS  HN ES   1    252  7.06                             146     0.5 7   95 176 
 RUS  HZ I         252  8.59         2.9 0.30                            95 176 
 GRA  SZ EP        251 50.97                             136     0.310  131  16 
 GRA  SZ I         251 51.53        11.6 0.05                           131  16 
 GRA  SZ ES   2    252 10.80                             136     0.0 5  131  16 
 CHI  HZ EP   1    252  2.39                             118     0.3 6  243 196 
 CHI  HN ES   2    252 31.18                             118     0.1 4  243 196 
 CHI  HZ I         252 41.48         1.9 0.64                           243 196 
                                                                                
