 2017 1230 0811 31.7 L   6.587 -73.347119.7  RSN  4 0.2 1.1LRSN                1
 GAP=147        1.10       6.2     6.5  8.8  0.2581E+01  0.1908E+02 -0.6142E+01E
 Epicentro: HATO - SANTANDER                                                   3
 ACTION:UPD 18-01-04 13:25 OP:rebc STATUS:               ID:20171230081131 L   I
 OLDACT:UP  17-12-30 16:34 OP:dani STATUS:               ID:20171230080744     3
 OLDACT:REG 17-12-30 13:35 OP:osc  STATUS:               ID:20171230080744     3
 2017-12-30-0808-00M.COL___463                                                 6
 STAT SP IPHASW D HRMM SECON CODA AMPLIT PERI AZIMU VELO AIN AR TRES W  DIS CAZ7
 BAR2 EZ EP        811 48.02                             171   -0.0810 18.2  88 
 BAR2 EZ ES        812  0.75                             171   -0.1410 18.2  88 
 BAR2 EZ I         812  1.75         3.7 0.20            173           18.2  88 
 PTB  HZ EP   9    811 52.70                             131   -1.59 0  123 268 
 PTB  HE ES        812  9.23                             131   -1.0910  123 268 
 PTB  HZ I         812 13.21         1.5 0.15            129            123 268 
 SPBC HZ EP        811 55.39                             129    0.2410  131 218 
 SPBC HN ES        812 13.44                             129    0.0110  131 218 
 SPBC HZ I         812 18.84         1.9 0.16            127            131 218 
 ZAR  HZ EP        812  1.38                             117   -0.20 9  195 301 
 ZAR  HN ES        812 25.06                             117    0.19 9  195 301 
 ZAR  HZ I         812 27.29         1.6 0.18            117            195 301 
                                                                                
