 2016 1030 0202 31.6 L   6.801 -73.178145.0  RSN  8 0.4 1.8LRSN                1
 GAP=132        1.06       4.5     4.9  6.5 -0.4685E+01  0.5564E+01  0.8411E+01E
 Epicentro: LOS SANTOS - SANTANDER                                             3
 ACTION:UPD 16-11-09 19:24 OP:rebc STATUS:               ID:20161030020231 L   I
 OLDACT:REG 16-10-30 13:55 OP:cog  STATUS:               ID:20161030015744     3
 2016-10-30-0158-00M.COL___315                                                 6
 STAT SP IPHASW D HRMM SECON CODA AMPLIT PERI AZIMU VELO AIN AR TRES W  DIS CAZ7
 BAR2 HZ EP        2 2 50.97                             171   -0.2010 23.1 181 
 BAR2 HZ ES        2 3  5.65                             171   -0.7510 23.1 181 
 BAR2 HZ I         2 3  7.16        21.3 0.24            168           23.1 181 
 BRR  HZ EP        2 2 52.72                             153    0.2010 68.0 300 
 BRR  HN ES        2 3  9.44                             153    0.6310 68.0 300 
 BRR  HZ I         2 3 12.37        10.3 0.28            151           68.0 300 
 PAM  EZ EP        2 2 53.87                             150   -0.0310 79.6  42 
 PAM  EE ES        2 3 11.39                             150    0.1210 79.6  42 
 PAM  EZ I         2 3 13.12         9.1 0.44            156           79.6  42 
 RUS  HZ EP        2 2 55.21                             143   -0.1310  101 174 
 RUS  HN ES        2 3 14.25                             143    0.4110  101 174 
 RUS  HZ I         2 3 14.70         9.5 0.28            145            101 174 
 PTB  HZ EP        2 2 57.46                             132   -0.76 9  144 258 
 PTB  HN ES        2 3 18.62                             132   -0.34 9  144 258 
 PTB  HZ I         2 3 25.74         7.3 0.32            132            144 258 
 SPBC HZ EP        2 3  0.26                             129    0.39 9  161 218 
 SPBC HN ES   2    2 3 22.59                             129    0.69 5  161 218 
 SPBC HZ I         2 3 29.52        11.6 0.10            130            161 218 
 NOR  HZ EP        2 3  7.69                             119    0.68 8  232 234 
 NOR  HN ES        2 3 34.44                             119   -0.17 8  232 234 
 NOR  HZ I         2 3 39.62         4.7 0.34            120            232 234 
 CHI  HZ EP        2 3  8.98                             117   -0.22 8  248 194 
 CHI  HN ES        2 3 38.57                             117    0.06 8  248 194 
 CHI  HZ I         2 3 40.82         3.9 0.32            119            248 194 
                                                                                
