 2017  430 0316 36.5 L   6.771 -73.140146.4  RSN  9 0.4 1.8LRSN                1
 GAP=113        1.00       3.8     3.9  6.8  0.9098E+00  0.3286E+01  0.7954E+01E
 Epicentro: LOS SANTOS - SANTANDER                                             3
 ACTION:UPD 17-05-30 21:17 OP:jn   STATUS:               ID:20170430031636 L   I
 OLDACT:UP  17-04-30 15:37 OP:dnl  STATUS:               ID:20170430030740     3
 OLDACT:REG 17-04-30 12:28 OP:dnl  STATUS:               ID:20170430030740     3
 2017-04-30-0308-00M.COL___365                                                 6
 STAT SP IPHASW D HRMM SECON CODA AMPLIT PERI AZIMU VELO AIN AR TRES W  DIS CAZ7
 BRR  HZ EP        316 58.23                             152    0.3910 73.4 301 
 BRR  HE ES        317 15.26                             152    0.7710 73.4 301 
 BRR  HZ I         317 20.29         8.9 0.14            152           73.4 301 
 PAM  EZ EP        316 58.81                             150   -0.1010 79.5  38 
 PAM  EN ES        317 16.23                             150   -0.1610 79.5  38 
 PAM  EZ I         317 18.20        10.5 0.20            157           79.5  38 
 RUS  HZ EP        316 60.00                             145   -0.0810 97.3 176 
 RUS  HN ES        317 18.20                             145   -0.2810 97.3 176 
 RUS  HZ I         317 19.90         3.4 0.36            147           97.3 176 
 PTB  HZ EP        317  3.14                             132   -0.39 9  148 260 
 PTB  HN ES        317 23.92                             132   -0.68 9  148 260 
 PTB  HZ I         317 31.52        12.7 0.40            133            148 260 
 SPBC HZ EP        317  5.08                             130    0.23 9  161 220 
 SPBC HN ES   4    317 28.33                             130    1.37 0  161 220 
 SPBC HZ I         317 29.37        13.0 0.40            131            161 220 
 YPLC HZ EP        317  6.11                             127    0.07 9  174 151 
 YPLC HN ES   4    317 27.56                             127   -1.51 0  174 151 
 YPLC HZ I         317 32.43         4.3 0.24            131            174 151 
 ZAR  HZ EP        317  8.87                             122   -0.31 8  206 293 
 ZAR  HE ES        317 34.43                             122   -0.24 8  206 293 
 ZAR  HZ I         317 40.48         7.4 0.38            125            206 293 
 NOR  HZ EP   4    317 10.84                             119   -1.29 0  233 235 
 NOR  HN ES        317 40.48                             119    0.57 8  233 235 
 NOR  HZ I         317 45.49         5.7 0.28            121            233 235 
 CHI  HZ EP        317 14.46                             118    0.54 8  246 196 
 CHI  HE ES        317 42.82                             118   -0.28 8  246 196 
 CHI  HZ I         317 49.55         2.7 0.40            120            246 196 
                                                                                
