 2012 1230 0918 57.0 L   6.786 -73.148142.4  RSN  9 0.4 1.9LRSN                1
 GAP=111        0.79       3.4     3.2  5.9  0.2161E+01  0.4361E+00  0.3439E+00E
 Epicentro: LOS SANTOS - SANTANDER                                             3
 ACTION:UPD 13-01-04 14:31 OP:ep   STATUS:               ID:20121230091857 L   I
 2012-12-30-0917-40M.COL___201                                                 6
 STAT SP IPHASW D HRMM SECON CODA AMPLIT PERI AZIMU VELO AIN AR TRES W  DIS CAZ7
 BAR2 SZ IP        919 16.06                             171   -0.1410 21.7 190 
 BAR2 SZ ES   1    919 30.98                             171   -0.19 7 21.7 190 
 BAR2 SZ I         919 32.50        38.7 0.22                          21.7 190 
 BRR  HZ IP     C  919 17.89                             152    0.0610 71.8 300 
 BRR  HN ES   1    919 34.80                             152    0.74 7 71.8 300 
 RUS  HZ EP        919 20.15                             144   -0.1710 99.0 176 
 RUS  HE ES   1    919 38.77                             144    0.27 7 99.0 176 
 RUS  HZ I         919 39.79         5.1 0.16                          99.0 176 
 PTB  HZ EP   4    919 22.76                             131   -0.90 0  147 259 
 PTB  HN ES   1    919 43.84                             131   -0.60 7  147 259 
 PTB  HZ I         919 45.68         9.6 0.38                           147 259 
 TAM  HZ EP        919 24.43                             130    0.02 9  155 104 
 TAM  HZ I         919 45.07         7.2 0.36                           155 104 
 TAM  HE ES   1    919 46.03                             130    0.26 7  155 104 
 OCA  HZ EP   1    919 25.69                             129    0.48 7  162 353 
 OCA  HN ES   1    919 46.54                             129   -0.66 7  162 353 
 OCA  HZ I         919 49.23        12.3 0.18                           162 353 
 ZAR  HZ EP   1    919 29.00                             122   -0.28 6  204 293 
 ZAR  HN ES   1    919 54.35                             122   -0.09 6  204 293 
 ZAR  HZ I         919 59.99        10.4 0.56                           204 293 
 CHI  HZ EP   1    919 33.83                             117   -0.52 6  247 195 
 CHI  HN ES   1    920  3.31                             117   -0.16 6  247 195 
 CHI  HZ I         920 10.77         3.9 0.54                           247 195 
 HEL  HZ EP   1    919 37.89                             114    0.91 6  271 256 
 HEL  HN ES   1    920  8.54                             114    0.38 6  271 256 
 HEL  HZ I         920 16.83         3.9 0.24                           271 256 
                                                                                
