 2011  130 0210 33.0 L   6.798 -73.347140.1  RSN  6 0.4 1.7LRSN                1
 GAP=121        1.13       4.8    15.5 10.6 -0.3104E+02  0.1042E+03 -0.1629E+02E
 Epicentro: ZAPATOCA - SANTANDER                                               3
 ACTION:UP  11-02-08 08:43 OP:pat  STATUS:               ID:20110130021033 L   I
 2011-01-30-0207-16S.COL___138                                                 6
 STAT SP IPHASW D HRMM SECON CODA AMPLIT PERI AZIMU VELO SNR AR TRES W  DIS CAZ7
 BTL  SZ IP     C  210 52.22                             173     0.410   16  33 
 BAR2 SZ IP     D  210 52.10                             168     0.010   29 142 
 BAR2 SZ I         210 52.43        20.8 0.11                            29 142 
 BAR2 SZ ES        211  7.28                             168     0.310   29 142 
 RUS  HZ EP        210 56.02                             142    -0.410  104 164 
 RUS  HN ES        211 14.29                             142    -0.510  104 164 
 RUS  HZ I         211 16.00         6.5 0.49                           104 164 
 GRA  SZ EP        210 58.95                             134     0.510  134  27 
 GRA  SZ ES        211 17.90                             134    -0.410  134  27 
 GRA  SZ I         211 20.04         6.0 0.54                           134  27 
 CHI  HZ EP        211 10.09                             117     0.3 8  244 190 
 CHI  HE ES   1    211 38.79                             117     0.3 6  244 190 
 CHI  HZ I         211 49.19         2.5 0.42                           244 190 
 MON  HZ EP        211 19.24                             109    -0.5 7  336 311 
                                                                                
