 2014  630 0833 57.4 L   6.847 -73.212142.9  RSN  6 0.2 1.2LRSN                1
 GAP=126        0.57       3.0     3.1  4.6 -0.3442E+01  0.5953E+01 -0.3635E+01E
 Epicentro: ZAPATOCA - SANTANDER                                               3
 ACTION:UPD 14-07-01 22:58 OP:nd   STATUS:               ID:20140630083357 L   I
 OLDACT:REG 14-06-30 14:41 OP:stll STATUS:               ID:20140630082817     3
 2014-06-30-0828-17M.COL___244                                                 6
 STAT SP IPHASW D HRMM SECON CODA AMPLIT PERI AZIMU VELO AIN AR TRES W  DIS CAZ7
 BAR2 SZ EP        834 16.67                             168   -0.1310 28.3 173 
 BAR2 SZ ES        834 31.91                             168   -0.0210 28.3 173 
 BAR2 SZ I         834 32.66         5.4 0.36            168           28.3 173 
 PAM  SZ EP        834 19.64                             150    0.2610 78.6  46 
 PAM  SZ I         834 19.89         4.6 0.18            151           78.6  46 
 PAM  SN ES        834 36.54                             150    0.0110 78.6  46 
 RUS  HZ EP        834 21.44                             142    0.1310  106 172 
 RUS  HN ES        834 39.68                             142   -0.2810  106 172 
 RUS  HZ I         834 41.26         1.6 0.24            142            106 172 
 PTB  HZ EP        834 23.76                             133    0.17 9  142 256 
 PTB  HN ES        834 44.13                             133    0.12 9  142 256 
 PTB  HZ I         834 45.83         1.9 0.24            133            142 256 
 SPBC HN ES        834 47.84                             128    0.16 9  163 216 
 ZAR  HZ EP        834 28.29                             123   -0.47 9  195 292 
                                                                                
