 2013  730 0534 21.3 L   6.792 -73.193147.5  RSN  5 0.4 1.5LRSN                1
 GAP=177        0.82       7.7     8.1  8.4 -0.1346E+02  0.1396E+02  0.2084E+02E
 Epicentro: ZAPATOCA - SANTANDER                                               3
 ACTION:UPD 13-08-12 10:41 OP:ep   STATUS:               ID:20130730053421 L   I
 OLDACT:REG 13-07-30 07:45 OP:carl STATUS:               ID:20130730052959     3
 2013-07-30-0529-59M.COL___267                                                 6
 STAT SP IPHASW D HRMM SECON CODA AMPLIT PERI AZIMU VELO AIN AR TRES W  DIS CAZ7
 BAR2 SZ EP   1    534 40.87                             171   -0.29 7 22.1 177 
 BAR2 SZ ES   1    534 56.21                             171   -0.41 7 22.1 177 
 BAR2 SZ I         534 57.38         5.2 0.20            164           22.1 177 
 GIR2 SZ ES   1    534 56.84                             167    0.08 7 31.7 360 
 BRR  HZ EP   1    534 42.73                             154    0.27 7 67.1 301 
 BRR  HN ES   1    534 59.49                             154    0.56 7 67.1 301 
 BRR  HN I         535  0.48        12.4 0.26            154           67.1 301 
 PTB  HZ EP   1    534 47.60                             133   -0.38 7  142 259 
 PTB  HN ES   1    535  8.11                             133   -0.65 7  142 259 
 PTB  HZ I         535 11.15         3.2 0.18            132            142 259 
 SPBC HZ EP   1    534 49.96                             130    0.35 7  159 218 
 SPBC HN ES   1    535 12.16                             130    0.50 7  159 218 
 SPBC HZ I         535 18.73         3.1 0.24            128            159 218 
                                                                                
