 2012  930 0532 39.7 L   6.736 -73.195144.0  RSN  5 0.5 1.6LRSN                1
 GAP=229        0.94      10.8     8.4 10.4  0.4010E+02  0.1100E+02  0.2987E+02E
 Epicentro: VILLANUEVA - SANTANDER                                             3
 ACTION:UPD 12-10-22 14:21 OP:ep   STATUS:               ID:20120930053239 L   I
 2012-09-30-0530-39M.COL___208                                                 6
 STAT SP IPHASW D HRMM SECON CODA AMPLIT PERI AZIMU VELO AIN AR TRES W  DIS CAZ7
 BAR2 SZ EP        532 58.52                             173   -0.4210 16.0 175 
 BAR2 SZ ES   1    533 14.30                             173    0.31 7 16.0 175 
 BAR2 SZ I         533 14.70         7.6 0.18                          16.0 175 
 BRR  HZ EP        533  0.42                             153   -0.1410 70.3 306 
 BRR  HZ I         533  0.84         6.8 0.10                          70.3 306 
 BRR  HN ES   1    533 17.24                             153    0.38 7 70.3 306 
 BRR  HN I         533 23.76         6.2 0.18                          70.3 306 
 PTB  HN ES   1    533 25.68                             133   -0.65 7  141 261 
 PTB  HN I         533 31.50         5.0 0.22                           141 261 
 ZAR  HN ES   1    533 37.24                             122    0.46 6  202 295 
 ZAR  HN I         533 41.79         5.0 0.28                           202 295 
 CHI  HZ EP   1    533 17.20                             118    0.84 6  240 194 
                                                                                
