 2013  630 0242 57.8 L   6.607 -73.511120.2  RSN  4 0.2 1.3LRSN                1
 GAP=128        0.51       4.7     3.1  5.4  0.1522E+01  0.5139E+01 -0.4112E+01E
 Epicentro: EL CARMEN DE CHUCURI - SANTANDER                                   3
 ACTION:UPD 14-01-08 09:58 OP:ep   STATUS:               ID:20130630024257 L   I
 OLDACT:REG 13-06-30 07:32 OP:jn   STATUS:               ID:20130630023959     3
 2013-06-30-0239-59M.COL___267                                                 6
 STAT SP IPHASW D HRMM SECON CODA AMPLIT PERI AZIMU VELO AIN AR TRES W  DIS CAZ7
 BAR2 SZ EP        243 14.94                             162    0.1310 36.4  93 
 BAR2 SZ ES        243 27.92                             162   -0.1210 36.4  93 
 BAR2 SZ I         243 29.32         8.6 0.18            165           36.4  93 
 GIR2 SZ EP        243 16.04                             150    0.0710 62.9  34 
 RUS  HZ EP   1    243 18.68                             140    0.19 7 92.1 149 
 RUS  HE ES   1    243 34.56                             140   -0.04 7 92.1 149 
 RUS  HZ I         243 38.30         3.2 0.56            140           92.1 149 
 PTB  HZ EP        243 18.55                             136   -0.3210  105 266 
 PTB  HN ES   1    243 35.55                             136    0.29 7  105 266 
 PTB  HZ I         243 38.70         3.0 0.16            136            105 266 
                                                                                
