 2016 1230 0732 30.5 L   6.801 -73.132144.9  RSN  8 0.4 1.5LRSN                1
 GAP=138        0.93       3.7     4.6  5.6  0.9524E+00  0.2893E+01  0.5156E+01E
 Epicentro: LOS SANTOS - SANTANDER                                             3
 ACTION:UPD 17-01-11 20:20 OP:rebc STATUS:               ID:20161230073230 L   I
 OLDACT:UP  16-12-30 17:50 OP:edw  STATUS:               ID:20161230072742     3
 OLDACT:REG 16-12-30 13:03 OP:edw  STATUS:               ID:20161230072742     3
 2016-12-30-0728-00M.COL___371                                                 6
 STAT SP IPHASW D HRMM SECON CODA AMPLIT PERI AZIMU VELO AIN AR TRES W  DIS CAZ7
 BAR2 EZ EP        732 49.74                             170   -0.3110 23.7 193 
 BAR2 EZ ES        733  5.27                             170   -0.0110 23.7 193 
 BRR  HZ EP        732 51.60                             152   -0.0410 72.5 298 
 BRR  HE ES        733  8.87                             152    0.7510 72.5 298 
 BRR  HZ I         733 11.85         4.9 0.14            149           72.5 298 
 PAM  EZ IP     D  732 52.74                             151    0.1610 76.4  39 
 PAM  EN ES        733  9.55                             151   -0.2410 76.4  39 
 PAM  EZ I         733 11.93         4.3 0.54            155           76.4  39 
 RUS  HZ EP     C  732 54.00                             144   -0.1810  101 177 
 RUS  HN ES        733 12.66                             144    0.0310  101 177 
 RUS  HZ I         733 14.04         4.0 0.48            145            101 177 
 PTB  HZ EP   9    732 56.65                             131   -0.89 0  149 259 
 PTB  HN ES        733 17.39                             132   -0.34 9  149 259 
 PTB  HZ I         733 24.98         3.3 0.28            130            149 259 
 ZAR  HZ EP   4    733  4.04                             122    1.00 0  205 292 
 ZAR  HN ES        733 27.74                             122   -0.67 8  205 292 
 ZAR  HZ I         733 32.94         4.1 0.30            122            205 292 
 CHI  HZ EP        733  8.41                             117    0.20 8  249 195 
 CHI  HN ES        733 37.36                             117   -0.26 8  249 195 
 CHI  HZ I         733 40.77         2.5 0.64            118            249 195 
 GUY2CHZ EP        733 14.90                             112    0.68 7  302 235 
 GUY2CHN ES   4    733 50.27                             112    1.96 0  302 235 
 GUY2CHZ I         733 56.18         1.7 0.56                           302 235 
 SJC  HZ EP   4    733 23.81                             105   -2.33 0  410 327 
 SJC  HN ES   4    734  5.20                             105   -4.32 0  410 327 
                                                                                
