 2010 1230 0339 27.9 L   6.804 -73.365131.7  RSN  5 0.3 1.7LRSN                1
 GAP=172        0.64       3.0    14.0  7.6 -0.1295E+02  0.4163E+02 -0.8237E+01E
 Epicentro: ZAPATOCA - SANTANDER                                               3
 ACTION:UP  11-01-14 15:28 OP:pat  STATUS:               ID:20101230033927 L   I
 2010-12-30-0337-38S.COL___123                                                 6
 STAT SP IPHASW D HRMM SECON CODA AMPLIT PERI AZIMU VELO SNR AR TRES W  DIS CAZ7
 BAR2 SZ EP   1    339 46.17                             166     0.1 8   31 140 
 BAR2 SZ ES   1    340  0.39                             166     0.2 8   31 140 
 BAR2 SZ I         340  3.19        14.3 0.22                            31 140 
 RUS  HZ EP   1    339 50.67                             139     0.0 8  106 163 
 RUS  HN ES   1    340  8.14                             139    -0.3 8  106 163 
 RUS  HZ I         340 10.33         3.1 0.21                           106 163 
 GRA  SZ EP        339 53.05                             131     0.310  135  27 
 GRA  SZ ES   1    340 11.93                             131    -0.2 7  135  27 
 GRA  SZ I         340 13.44        11.3 0.41                           135  27 
 OCA  SZ EP   1    339 54.58                             126    -0.4 7  159   2 
 OCA  SZ ES   1    340 16.19                             126     0.0 7  159   2 
 OCA  SZ I         340 19.68        12.0 0.40                           159   2 
 CHI  HN ES   2    340 33.07                             114     0.3 4  244 190 
 CHI  HZ I         340 44.33         1.9 0.34                           244 190 
                                                                                
