 2016  330 0747 21.0 L   6.627 -73.566125.1  RSN  6 0.4 1.1LRSN                1
 GAP=146        0.98       4.4     4.2  8.5 -0.4674E+01  0.6690E+01  0.5695E+01E
 Epicentro: EL CARMEN - SANTANDER                                              3
 ACTION:UPD 16-05-13 21:28 OP:cam  STATUS:               ID:20160330074721 L   I
 OLDACT:UP  16-03-30 18:15 OP:ak   STATUS:               ID:20160330073746     3
 OLDACT:REG 16-03-30 13:30 OP:ak   STATUS:               ID:20160330073746     3
 2016-03-30-0737-46M.COL___309                                                 6
 STAT SP IPHASW D HRMM SECON CODA AMPLIT PERI AZIMU VELO AIN AR TRES W  DIS CAZ7
 BAR2 EZ EP        747 38.83                             160    0.0910 42.6  95 
 BAR2 EZ ES        747 53.20                             160    0.5910 42.6  95 
 BAR2 EZ I         747 54.20         5.3 0.20            162           42.6  95 
 RUS  HZ EP        747 42.17                             140   -0.3010 97.2 147 
 RUS  HN ES        747 58.65                             140   -0.6010 97.2 147 
 RUS  HZ I         747 59.69         0.9 0.20            142           97.2 147 
 PTB  HZ EP        747 41.75                             139   -0.1910 98.9 264 
 PTB  HE ES        747 58.00                             139   -0.3110 98.9 264 
 PTB  HZ I         747 59.76         2.3 0.10            140           98.9 264 
 SPBC HZ IP        747 44.56                             133    0.6010  121 207 
 SPBC HN ES        748  2.07                             133    0.1710  121 207 
 SPBC HZ I         748  3.65         3.7 0.14            135            121 207 
 PAM  EE ES        748  3.20                             133   -0.0810  124  50 
 CHI  HN ES        748 20.92                             115    0.11 8  222 185 
                                                                                
