 2010 1130 0356 13.1 L   6.790 -73.103143.7  RSN 10 0.3 2.5LRSN                1
 GAP=181        0.70       3.5     6.1  5.2 -0.1302E+02 -0.1164E+01  0.4348E+01E
 Epicentro: LOS SANTOS - SANTANDER                                             3
 ACTION:UP  10-12-17 16:56 OP:REBC STATUS:               ID:20101130035613 L   I
 2010-11-30-0354-09S.COL___129                                                 6
 STAT SP IPHASW D HRMM SECON CODA AMPLIT PERI AZIMU VELO SNR AR TRES W  DIS CAZ7
 BAR2 SZ IP        356 32.49                             170     0.010   24 202 
 BAR2 SZ ES   1    356 47.34                             170    -0.2 7   24 202 
 BAR2 SZ I         356 48.91        92.2 0.30                            24 202 
 BRR  HZ IP     C  356 34.32                             151     0.110   76 298 
 BRR  HE ES   1    356 51.19                             151     0.4 7   76 298 
 BRR  HZ I         356 53.05        61.4 0.07                            76 298 
 GUE  SZ EP        356 37.55                             139     0.010  117  10 
 GRA  SZ EP        356 38.23                             137     0.110  126  15 
 GRA  SZ I         356 39.77        43.2 0.35                           126  15 
 GRA  SZ ES   1    356 57.86                             137     0.2 7  126  15 
 OCA  SZ EP        356 40.82                             129    -0.6 9  162 352 
 OCA  SZ I         357  7.24        32.3 0.20                           162 352 
 NOR  SZ EP        356 48.87                             118    -0.2 8  238 235 
 NOR  SN ES   1    357 16.59                             118    -0.5 6  238 235 
 CHI  HZ EP        356 50.77                             117     0.1 8  249 196 
 CHI  HN ES   1    357 19.79                             117    -0.2 6  249 196 
 CHI  HZ I         357 27.33        13.3 0.59                           249 196 
 HEL  HZ EP   2    356 53.96                             114     0.3 4  276 256 
 RREF HZ EP   2    356 59.87                             110     0.4 3  325 230 
 RREF HZ I         357 44.43        11.0 0.41                           325 230 
 PRA  HZ EP        357  7.17                             106     0.5 6  393 210 
 PRA  HN ES   1    357 48.86                             106     0.4 4  393 210 
 PRA  HZ I         357 53.41        30.0 0.43                           393 210 
                                                                                
