 2014 1030 0615  2.4 L   6.794 -73.137145.0  RSN 13 0.5 1.9LRSN                1
 GAP=138        1.19       3.6     5.0  6.3 -0.4680E+01  0.8074E+01  0.3110E+01E
 Epicentro: LOS SANTOS - SANTANDER                                             3
 ACTION:UPD 14-11-29 23:58 OP:nd   STATUS:               ID:20141030061502 L   I
 OLDACT:DUP 14-10-31 21:45 OP:fm   STATUS:               ID:20141030060746d    3
 2014-10-30-0607-44M.COL___271                                                 6
 STAT SP IPHASW D HRMM SECON CODA AMPLIT PERI AZIMU VELO AIN AR TRES W  DIS CAZ7
 BAR2 SZ EP        615 22.09                             171    0.2110 22.9 193 
 BAR2 SZ ES        615 37.18                             171    0.0810 22.9 193 
 BAR2 SZ I         615 38.13        16.3 0.22            168           22.9 193 
 BRR  HZ EP     C  615 24.03                             152    0.5510 72.4 299 
 BRR  HN ES        615 40.66                             152    0.7010 72.4 299 
 BRR  HZ I         615 44.57        14.8 0.12            151           72.4 299 
 PAM  SZ EP        615 24.95                             151    0.4710 77.3  39 
 PAM  SN ES        615 41.72                             151   -0.0110 77.3  39 
 PAM  SZ I         615 42.50        13.0 0.38            155           77.3  39 
 RUS  HZ EP        615 26.04                             144    0.0710 99.9 177 
 RUS  HN ES        615 44.20                             144   -0.1910 99.9 177 
 RUS  HZ I         615 45.78        11.0 0.24            143           99.9 177 
 PTB  HZ EP        615 28.82                             132   -0.51 9  149 259 
 PTB  HN ES        615 49.53                             132   -0.84 9  149 259 
 PTB  HZ I         615 52.13        18.1 0.18            131            149 259 
 OCA  HZ EP        615 30.10                             129   -0.57 9  161 353 
 OCA  HN ES        615 51.94                             129   -0.82 9  161 353 
 OCA  HZ I         615 54.35        11.3 0.20            131            161 353 
 SPBC HZ EP        615 30.96                             129    0.16 9  163 219 
 SPBC HN ES        615 52.77                             129   -0.21 9  163 219 
 SPBC HZ I         615 55.23        11.9 0.38            128            163 219 
 CHI  HZ EP        615 40.21                             117    0.25 8  248 195 
 CHI  HN ES        616  8.96                             117   -0.34 8  248 195 
 CHI  HZ I         616 19.17         2.0 0.56            117            248 195 
 HEL  HZ EP        615 43.65                             114    1.04 8  273 256 
 HEL  HN ES        616 14.42                             114    0.41 8  273 256 
 HEL  HZ I         616 21.45         5.9 0.32            114            273 256 
 RREF HZ EP   4    615 43.84                             111   -4.65 0  322 230 
 RREF HN ES   4    616 19.44                             111   -5.04 0  322 230 
 RREF HZ I         616 28.41         3.0 0.46            111            322 230 
 CBOC HZ EP        615 49.64                             110    0.32 7  334 252 
 CBOC HN ES   4    616 23.54                             110   -2.40 0  334 252 
 CBOC HZ I         616 26.94         1.4 0.22            110            334 252 
 TOL  SN ES        616 28.00                             109   -0.23 7  344 225 
 TOL  SZ I         616 33.85         4.6 0.32            109            344 225 
 PRA  HZ EP        615 54.94                             106   -0.89 6  392 210 
 PRA  HN ES   4    616 38.30                             106    0.75 0  392 210 
 PRA  HZ I         616 44.31         2.6 0.36            107            392 210 
                                                                                
