 2014  930 0947 18.8 L   7.414 -73.190128.9  RSN  5 0.1 1.3LRSN                1
 GAP=108        0.40       1.9     2.2  3.4  0.1009E+00  0.2908E+01 -0.7809E+00E
 Epicentro: EL PLAYON - SANTANDER                                              3
 ACTION:UPD 14-10-03 23:10 OP:nd   STATUS:               ID:20140930094718 L   I
 OLDACT:DUP 14-09-30 18:35 OP:stll STATUS:               ID:20140930093823d    3
 2014-09-30-0938-19M.COL___286                                                 6
 STAT SP IPHASW D HRMM SECON CODA AMPLIT PERI AZIMU VELO AIN AR TRES W  DIS CAZ7
 PAM  SN ES        947 53.01                             156    0.1110 54.7  99 
 BRR  HN ES        947 52.99                             151    0.1710 66.9 240 
 BAR2 SZ EP        947 39.95                             143    0.0710 90.9 179 
 BAR2 SZ ES        947 56.05                             143   -0.2410 90.9 179 
 BAR2 SZ I         947 57.42         4.6 0.12            146           90.9 179 
 OCA  HZ EP        947 39.85                             142   -0.0110 92.3 351 
 OCA  HN ES        947 56.16                             142   -0.1010 92.3 351 
 OCA  HZ I         948  0.13         2.8 0.12            142           92.3 351 
 ZAR  HZ EP        947 48.20                             121    0.04 9  184 273 
 ZAR  HN ES        948 10.98                             121   -0.05 9  184 273 
 ZAR  HZ I         948 14.37         2.6 0.42            122            184 273 
                                                                                
