 2017  530 0515 30.0 L   6.820 -73.161151.1  RSN 11 0.5 1.7LRSN                1
 GAP=184        0.83       3.8     4.0  6.4  0.7424E+01 -0.2063E+01  0.2528E+01E
 Epicentro: LOS SANTOS - SANTANDER                                             3
 ACTION:UPD 17-06-16 13:40 OP:jn   STATUS:               ID:20170530051530 L   I
 OLDACT:UP  17-05-30 15:43 OP:and  STATUS:               ID:20170530050740d    3
 OLDACT:UP  17-05-30 15:43 OP:and  STATUS:               ID:20170530050740d    3
 OLDACT:UP  17-05-30 15:43 OP:and  STATUS:               ID:20170530050740d    3
 OLDACT:UP  17-05-30 15:43 OP:and  STATUS:               ID:20170530050740d    3
 OLDACT:UP  17-05-30 15:43 OP:and  STATUS:               ID:20170530050740d    3
 OLDACT:UP  17-05-30 15:39 OP:and  STATUS:               ID:20170530050740d    3
 OLDACT:DUP 17-05-30 15:37 OP:and  STATUS:               ID:20170530050740d    3
 OLDACT:UP  17-05-30 15:37 OP:and  STATUS:               ID:20170530050739     3
 OLDACT:UP  17-05-30 15:37 OP:and  STATUS:               ID:20170530050739     3
 OLDACT:UP  17-05-30 15:36 OP:and  STATUS:               ID:20170530050739     3
 OLDACT:UP  17-05-30 15:32 OP:and  STATUS:               ID:20170530050739     3
 OLDACT:UP  17-05-30 15:32 OP:and  STATUS:               ID:20170530050739     3
 OLDACT:UP  17-05-30 15:32 OP:and  STATUS:               ID:20170530050739     3
 OLDACT:UP  17-05-30 15:31 OP:and  STATUS:               ID:20170530050739     3
 OLDACT:UP  17-05-30 15:31 OP:and  STATUS:               ID:20170530050739     3
 OLDACT:UP  17-05-30 15:30 OP:and  STATUS:               ID:20170530050739     3
 OLDACT:UP  17-05-30 15:28 OP:and  STATUS:               ID:20170530050739     3
 OLDACT:UP  17-05-30 15:28 OP:and  STATUS:               ID:20170530050739     3
 OLDACT:UP  17-05-30 15:27 OP:and  STATUS:               ID:20170530050739     3
 OLDACT:UP  17-05-30 15:27 OP:and  STATUS:               ID:20170530050739     3
 OLDACT:REG 17-05-30 12:23 OP:and  STATUS:               ID:20170530050739     3
 2017-05-30-0508-00M.COL___347                                                 6
 STAT SP IPHASW D HRMM SECON CODA AMPLIT PERI AZIMU VELO AIN AR TRES W  DIS CAZ7
 BRR  HZ EP     C  515 51.72                             154    0.1110 68.6 298 
 BRR  HN ES        516  8.86                             154    0.4210 68.6 298 
 BRR  HZ I         516 13.46         5.7 0.18            154           68.6 298 
 RUS  HZ EP        515 54.44                             144   -0.0210  103 175 
 RUS  HN ES   2    516 12.80                             144   -0.73 5  103 175 
 RUS  HZ I         516 14.39         8.7 0.30            144            103 175 
 PTB  HZ EP        515 56.91                             134   -0.41 9  147 258 
 PTB  HN ES        516 17.81                             134   -0.80 9  147 258 
 PTB  HZ I         516 19.75         4.4 0.36            133            147 258 
 SPBC HZ EP        515 59.05                             130    0.06 9  164 218 
 SPBC HN ES        516 21.19                             130   -0.40 9  164 218 
 SPBC HZ I         516 25.76         8.9 0.16            130            164 218 
 YPLC HZ IP     C  516  0.45                             127   -0.02 9  180 151 
 YPLC HN ES        516 24.59                             127    0.36 9  180 151 
 YPLC HZ I         516 28.08         4.6 0.32            129            180 151 
 ZAR  HZ EP        516  2.87                             124    0.30 9  202 292 
 ZAR  HN ES        516 28.14                             124    0.18 9  202 292 
 ZAR  HZ I         516 33.82         5.3 0.26            125            202 292 
 CHI  HZ EP        516  8.34                             118    0.14 8  250 195 
 CHI  HN ES        516 38.23                             118    0.25 8  250 195 
 CHI  HZ I         516 44.28         2.4 0.32            119            250 195 
 ROSC BZ EP   4    516 10.36                             118    1.81 0  254 210 
 ROSC BN ES   4    516 42.16                             118    3.57 0  254 210 
 ROSC BZ I         516 46.82         4.6 0.65            118            254 210 
 PTGC HZ EP   3    516 13.25                             112   -1.17 2  311 159 
 PTGC HN ES   4    516 46.80                             112   -2.26 0  311 159 
 CBOC HZ EP   3    516 18.40                             111    1.35 2  333 252 
 CBOC HN ES        516 54.23                             111    0.50 7  333 252 
 CBOC HZ I         516 59.42         1.4 0.12            112            333 252 
 SJC  HZ EP   3    516 24.10                             106   -1.33 1  406 327 
 SJC  HE ES   3    517  6.33                             106   -2.32 1  406 327 
                                                                                
