 2013 1030 0628 45.4 L   6.770 -73.124146.6  RSN  6 0.5 1.3LRSN                1
 GAP=141        1.16       6.6     6.6  9.3 -0.1770E+02  0.8762E+01  0.3795E+01E
 Epicentro: LOS SANTOS - SANTANDER                                             3
 ACTION:UPD 13-11-25 09:24 OP:ep   STATUS:               ID:20131030062845 L   I
 OLDACT:REG 13-10-30 07:09 OP:jn   STATUS:               ID:20131030062735     3
 2013-10-30-0627-35M.COL___221                                                 6
 STAT SP IPHASW D HRMM SECON CODA AMPLIT PERI AZIMU VELO AIN AR TRES W  DIS CAZ7
 BAR2 SZ EP   1    629  4.94                             172   -0.18 7 20.7 198 
 BAR2 SZ ES        629 20.70                             172    0.2210 20.7 198 
 BAR2 SZ I         629 21.88         6.3 0.26            170           20.7 198 
 BRR  HZ EP   1    629  7.18                             151    0.29 7 74.9 300 
 BRR  HN ES        629 24.41                             151    0.7910 74.9 300 
 BRR  HZ I         629 28.21         2.3 0.26            149           74.9 300 
 PAM  SZ EP        629  8.18                             151    0.3710 78.5  37 
 PAM  SN ES        629 24.48                             151   -0.7810 78.5  37 
 PAM  SZ I         629 27.37         2.9 0.40            154           78.5  37 
 RUS  HN ES   1    629 27.49                             145    0.06 7 97.2 177 
 PTB  HZ EP   1    629 12.14                             132   -0.49 7  149 260 
 PTB  HN ES        629 33.18                             132   -0.66 9  149 260 
 PTB  HZ I         629 38.87         2.4 0.56            132            149 260 
 SPBC HZ EP   1    629 14.30                             129    0.39 7  162 220 
 SPBC HN ES        629 36.04                             129   -0.07 9  162 220 
 SPBC HZ I         629 41.26         3.4 0.16            130            162 220 
                                                                                
