 2016 1030 0650  4.7 L   5.966 -74.219 25.1  RSN  5 0.4 0.9LRSN                1
 GAP=125        1.02       3.4     3.1  5.0  0.4926E+01 -0.1507E+01 -0.6805E+01E
 Epicentro: LA BELLEZA - SANTANDER                                             3
 ACTION:UPD 16-11-09 19:24 OP:rebc STATUS:               ID:20161030065004 L   I
 OLDACT:UP  16-11-01 14:52 OP:nlst STATUS:               ID:20161030065004 L   3
 OLDACT:REG 16-10-30 14:46 OP:cog  STATUS:               ID:20161030064746     3
 2016-10-30-0648-00M.COL___312                                                 6
 STAT SP IPHASW D HRMM SECON CODA AMPLIT PERI AZIMU VELO AIN AR TRES W  DIS CAZ7
 SPBC HZ EP        650 12.23                             115    0.1410 38.3 155 
 SPBC HE ES        650 17.86                             115    0.0010 38.3 155 
 SPBC HZ I         650 18.37         9.3 0.08            120           38.3 155 
 PTB  HZ EP        650 16.16                              91   -0.0510 68.7 337 
 PTB  HN ES        650 25.01                              91   -0.1910 68.7 337 
 RUS  HZ EP        650 24.74                              61    0.2610  126  94 
 RUS  HN ES        650 39.49                              61   -0.4210  126  94 
 BRR  HZ EP        650 26.00                              61    0.60 9  138  24 
 HEL  HZ EP        650 26.19                              61   -0.79 9  147 280 
 HEL  HN ES        650 44.80                              61    0.44 9  147 280 
 HEL  HZ I         650 45.62         1.4 0.26             56            147 280 
                                                                                
