 2012 1030 0334 46.8 L   6.329 -73.598109.7  RSN 10 0.3 2.1LRSN                1
 GAP= 76        0.58       2.4     3.9  6.0  0.2896E+00  0.1657E+02  0.5062E+00E
 Epicentro: SANTA HELENA DEL OPON - SANTANDER                                  3
 ACTION:UPD 12-11-22 17:06 OP:ep   STATUS:               ID:20121030033447dL   I
 2012-10-30-0330-00M.COL___231                                                 6
 STAT SP IPHASW D HRMM SECON CODA AMPLIT PERI AZIMU VELO AIN AR TRES W  DIS CAZ7
 BAR2 SZ IP        335  3.64                             152    0.1710 54.4  58 
 BAR2 SZ ES        335 16.64                             152    0.1910 54.4  58 
 BAR2 SZ I         335 18.23        46.0 0.29                          54.4  58 
 RUS  HZ EP        335  4.92                             143   -0.2310 74.6 130 
 RUS  HN ES   1    335 19.29                             143   -0.16 7 74.6 130 
 BRR  HZ EP        335  5.24                             138   -0.1710 87.0 352 
 BRR  HN I         335 28.59        34.6 0.21                          87.0 352 
 GIR2 SZ EP   1    335  6.25                             136    0.05 7 94.2  28 
 PAM  SZ EP   2    335 11.28                             122   -0.64 5  150  42 
 PAM  SZ I         335 35.36         6.8 0.39                           150  42 
 ZAR  HZ EP   1    335 15.53                             115   -0.07 7  190 313 
 ZAR  HN ES   1 D  335 37.94                             115   -0.10 7  190 313 
 ZAR  HZ I         335 42.07        15.4 0.52                           190 313 
 OCA  HZ EP   1    335 19.22                             112    0.77 6  213   8 
 OCA  HN ES   1    335 42.99                             112   -0.13 6  213   8 
 HEL  HZ EP   1    335 18.64                             112   -0.17 6  214 266 
 HEL  HN I         335 47.68         7.6 0.15                           214 266 
 GUY  SZ EP   1    335 20.91                             110   -0.18 6  233 238 
 GUY  SZ I         335 53.77        18.8 0.42                           233 238 
 PRA  HZ EP   1    335 31.12                             103    0.10 5  323 206 
 PRA  HN ES   1    336  6.11                             103    0.61 5  323 206 
 PRA  HZ I         336 12.12         6.0 0.24                           323 206 
                                                                                
