 2016  630 0029 31.4 L   6.738 -73.090147.9  RSN  8 0.3 1.7LRSN                1
 GAP=239        0.79       4.6     5.4  6.8 -0.1232E+00  0.7310E+01  0.1336E+02E
 Epicentro: JORDAN - SANTANDER                                                 3
 ACTION:UPD 16-07-21 22:24 OP:rebc STATUS:               ID:20160630002931 L   I
 OLDACT:DUP 16-06-30 12:54 OP:ar   STATUS:               ID:20160630002741d    3
 OLDACT:REG 16-06-30 12:28 OP:edw  STATUS:               ID:20160630002740     3
 2016-06-30-0027-40M.COL___349                                                 6
 STAT SP IPHASW D HRMM SECON CODA AMPLIT PERI AZIMU VELO AIN AR TRES W  DIS CAZ7
 BAR2 EZ EP        029 51.13                             172   -0.1310 19.1 212 
 BAR2 EZ ES        030  6.79                             172    0.0710 19.1 212 
 BAR2 EZ I         030 11.59         8.0 0.22                          19.1 212 
 BRR  HN ES        030 10.40                             150   -0.0110 79.9 301 
 BRR  HZ I         030 13.73        12.4 0.16                          79.9 301 
 RUS  HZ EP        029 54.94                             146    0.0210 93.5 180 
 RUS  HN ES        030 13.54                             146    0.3110 93.5 180 
 RUS  HZ I         030 14.40         7.6 0.34                          93.5 180 
 SPBC HZ EP        030  0.02                             130    0.02 9  162 222 
 SPBC HN ES        030 21.45                             130   -0.82 9  162 222 
 SPBC HZ I         030 26.89         8.2 0.34                           162 222 
 NOR  HN ES        030 36.03                             119    0.53 8  236 237 
 NOR  HZ I         030 41.41         5.4 0.14                           236 237 
 CHI  HN ES        030 37.89                             118    0.06 8  244 197 
 CHI  HZ I         030 45.79         2.4 0.36                           244 197 
 GUY2CHE ES   2    030 49.99                             113    0.50 4  302 237 
 GUY2CHZ I         030 57.39         3.2 0.64                           302 237 
 PRA  HE ES   2    031  5.89                             107   -0.37 3  389 211 
 PRA  HZ I         031  9.91         1.8 0.64                           389 211 
                                                                                
