 2016  330 0943 27.3 L   6.562 -73.345140.8  RSN  4 0.2 1.1LRSN                1
 GAP=138        0.61       5.5     4.1  5.2  0.1413E+02  0.4615E+01 -0.4518E+01E
 Epicentro: HATO - SANTANDER                                                   3
 ACTION:UPD 16-05-13 21:29 OP:cam  STATUS:               ID:20160330094328dL   I
 OLDACT:REG 16-03-30 13:34 OP:ak   STATUS:               ID:20160330093747     3
 2016-03-30-0937-47M.COL___309                                                 6
 STAT SP IPHASW D HRMM SECON CODA AMPLIT PERI AZIMU VELO AIN AR TRES W  DIS CAZ7
 BAR2 EZ EP        943 46.09                             172   -0.1410 18.3  79 
 BAR2 EZ ES        944  0.92                             172   -0.0910 18.3  79 
 BAR2 EZ I         944  1.09         3.4 0.18            172           18.3  79 
 RUS  HZ EP        943 48.95                             149   -0.1710 79.5 159 
 RUS  HE ES        944  6.47                             149    0.3310 79.5 159 
 RUS  HZ I         944  9.71         1.5 0.54            148           79.5 159 
 PTB  HZ EP        943 51.83                             136    0.1610  123 269 
 PTB  HN ES        944 10.34                             136   -0.3410  123 269 
 PTB  HZ I         944 19.83         1.3 0.42            132            123 269 
 ZAR  HZ EP        943 58.61                             122   -0.00 9  196 302 
 ZAR  HN ES        944 23.36                             122    0.32 9  196 302 
 ZAR  HZ I         944 29.51         1.9 0.32            123            196 302 
                                                                                
