 2011  430 0907 11.5 L   6.822 -73.045142.0  RSN  4 0.4 1.3LRSN                1
 GAP=149        1.03       7.4    10.3 13.0  0.1076E+01  0.6051E+01  0.1351E+02E
 Epicentro: LOS SANTOS - SANTANDER                                             3
 ACTION:UP  11-06-22 15:34 OP:REBC STATUS:               ID:20110430090711 L   I
 2011-04-30-0905-12S.COL___129                                                 6
 STAT SP IPHASW D HRMM SECON CODA AMPLIT PERI AZIMU VELO SNR AR TRES W  DIS CAZ7
 BAR2 SZ EP   1    9 7 30.77                             168    -0.1 7   30 211 
 BAR2 SZ I         9 7 47.50        10.3 0.17                            30 211 
 PAM  SZ EP   1    9 7 33.65                             153     0.8 7   69  34 
 PAM  SZ I         9 7 33.78         2.0 0.28                            69  34 
 PAM  SN ES   1    9 7 49.05                             153    -0.4 7   69  34 
 BRR  HZ EP        9 7 32.64                             149    -0.210   80 293 
 BRR  HE ES   1    9 7 49.62                             149     0.2 7   80 293 
 BRR  HZ I         9 7 51.59         7.1 0.14                            80 293 
 RUS  HZ EP   1    9 7 34.64                             142    -0.4 7  103 182 
 RUS  HN ES   1    9 7 53.74                             142     0.3 7  103 182 
 RUS  HZ I         9 7 57.42         1.5 0.18                           103 182 
                                                                                
