 2011 1230 0726 22.5 L   6.780 -73.060149.1  RSN  5 0.2 1.3LRSN                1
 GAP=245        0.42       6.0     8.4  4.7  0.4070E+02 -0.2863E+01 -0.1457E+01E
 Epicentro: LOS SANTOS - SANTANDER                                             3
 ACTION:UPD 12-07-13 16:19 OP:ep   STATUS:               ID:20111230072622 L   I
 2011-12-30-0720-00M.COL___186                                                 6
 STAT SP IPHASW D HRMM SECON CODA AMPLIT PERI AZIMU VELO AIN AR TRES W  DIS CAZ7
 BAR2 SZ EP   1    726 42.30                             170   -0.30 7 24.8 213 
 BAR2 SZ ES   1    726 58.26                             170    0.01 7 24.8 213 
 BAR2 SZ I         726 59.20         3.6 0.32                          24.8 213 
 BRR  HZ EP   1    726 44.59                             150   -0.01 7 80.6 297 
 BRR  HN ES   1    727  2.00                             150    0.20 7 80.6 297 
 BRR  HZ I         727  3.57         4.5 0.29                          80.6 297 
 RUS  HZ EP   1    726 46.69                             145    0.24 7 98.2 181 
 RUS  HN ES   1    727  4.99                             145   -0.11 7 98.2 181 
 RUS  HZ I         727  6.71         2.2 0.22                          98.2 181 
 ZAR  HE ES   2    727 22.12                             122   -0.32 4  214 292 
 ZAR  HZ I         727 27.69         2.6 0.31                           214 292 
 CHI  HZ EP   2    727  0.70                             118    0.22 4  249 197 
                                                                                
