 2015 1130 0632 34.1 L   6.856 -73.355124.9  RSN  5 0.4 1.3LRSN                1
 GAP=167        1.08       4.8     6.4  7.7  0.1231E+02  0.1097E+01 -0.9800E+01E
 Epicentro: SAN VICENTE DE CHUCURI - SANTANDER                                 3
 ACTION:UPD 15-12-28 16:14 OP:cam  STATUS:               ID:20151130063234 L   I
 OLDACT:REG 15-11-30 14:06 OP:drio STATUS:               ID:20151130062744     3
 2015-11-30-0627-44M.COL___289                                                 6
 STAT SP IPHASW D HRMM SECON CODA AMPLIT PERI AZIMU VELO AIN AR TRES W  DIS CAZ7
 BAR2 EZ IP     C  632 51.76                             164    0.2310 34.9 147 
 BAR2 EZ ES        633  4.62                             164   -0.5310 34.9 147 
 BAR2 EZ I         633  6.06        11.7 0.28            170           34.9 147 
 BRR  HZ EP        632 52.18                             158    0.4610 48.2 305 
 BRR  HN ES        633  6.07                             158    0.5810 48.2 305 
 BRR  HZ I         633 11.16         4.1 0.42            155           48.2 305 
 RUS  HZ EP        632 56.68                             136    0.0210  111 164 
 RUS  HE ES        633 14.22                             136   -0.0610  111 164 
 PTB  HZ EP        632 57.01                             132   -0.4010  127 254 
 PTB  HE ES        633 15.55                             132   -0.0810  127 254 
 PTB  HZ I         633 18.88         1.6 0.38            133            127 254 
 SML  HZ EP        633  8.39                             114    0.41 8  229 340 
 SML  HE ES        633 33.61                             114   -0.82 8  229 340 
 SML  HZ I         633 39.70         2.7 0.10            116            229 340 
                                                                                
