 2017  930 0235 30.5 L   6.590 -73.462116.9  RSN  6 0.3 1.4LRSN                1
 GAP=115        0.79       3.7     3.9  6.9  0.5595E+01  0.1703E+02  0.7155E+01E
 Epicentro: EL CARMEN - SANTANDER                                              3
 ACTION:UPD 17-10-05 19:17 OP:rebc STATUS:               ID:20170930023530 L   I
 OLDACT:UP  17-09-30 15:02 OP:edw  STATUS:               ID:20170930022738     3
 OLDACT:UP  17-09-30 15:00 OP:edw  STATUS:               ID:20170930022738     3
 OLDACT:REG 17-09-30 12:29 OP:edw  STATUS:               ID:20170930022738     3
 2017-09-30-0228-00M.COL___447                                                 6
 STAT SP IPHASW D HRMM SECON CODA AMPLIT PERI AZIMU VELO AIN AR TRES W  DIS CAZ7
 BAR2 EZ EP        235 47.13                             164    0.2410 31.0  90 
 BAR2 EZ ES        235 59.60                             164   -0.0810 31.0  90 
 BRR  HZ EP        235 47.98                             149   -0.1310 63.4 334 
 BRR  HN ES        236  1.81                             149   -0.0310 63.4 334 
 BRR  HZ I         236 11.44         7.7 0.22            151           63.4 334 
 RUS  HZ EP        235 50.01                             141   -0.5110 87.8 151 
 RUS  HN ES        236  6.39                             141    0.2710 87.8 151 
 RUS  HZ I         236  7.28         2.5 0.36            150           87.8 151 
 ZAR  HZ EP        235 59.39                             118    0.37 9  184 303 
 ZAR  HN ES        236 21.36                             118    0.10 9  184 303 
 ZAR  HZ I         236 23.60         6.3 0.52            123            184 303 
 HEL  HE ES        236 31.22                             112   -0.55 8  233 259 
 GUY2CHZ EP   4    236  9.56                             109    1.49 0  259 234 
 GUY2CHN ES        236 37.79                             109    0.42 8  259 234 
 GUY2CHZ I         236 45.09         1.9 0.60                           259 234 
 URE  HN ES   4    236 35.28                             109   -1.68 0  262 299 
                                                                                
