 2017  730 0414 53.8 L   6.803 -73.149146.0  RSN 20 0.5 2.2LRSN                1
 GAP=101        1.13       3.4     2.8  5.1  0.7403E+00  0.4055E+01  0.2617E+01E
 Epicentro: LOS SANTOS - SANTANDER                                             3
 ACTION:UPD 17-08-30 15:38 OP:rebc STATUS:               ID:20170730041453 L   I
 OLDACT:UP  17-07-30 17:06 OP:ar   STATUS:               ID:20170730040739     3
 OLDACT:UP  17-07-30 17:05 OP:ar   STATUS:               ID:20170730040739     3
 OLDACT:REG 17-07-30 13:22 OP:ar   STATUS:               ID:20170730040739     3
 2017-07-30-0408-00M.COL___383                                                 6
 STAT SP IPHASW D HRMM SECON CODA AMPLIT PERI AZIMU VELO AIN AR TRES W  DIS CAZ7
 BAR2 EZ EP        415 13.08                             170   -0.3710 23.6 189 
 BAR2 EZ ES        415 28.72                             170   -0.0710 23.6 189 
 BAR2 EZ I         415 29.10        41.1 0.24            169           23.6 189 
 BRR  HZ EP        415 14.91                             153   -0.0210 70.7 298 
 BRR  HN ES        415 32.20                             153    0.7710 70.7 298 
 BRR  HZ I         415 35.09        38.1 0.26            151           70.7 298 
 PAM  EZ EP        415 16.11                             151    0.0810 77.4  40 
 PAM  EN ES        415 33.34                             151   -0.0410 77.4  40 
 PAM  EZ I         415 36.29        18.0 0.40            154           77.4  40 
 RUS  HZ EP        415 17.10                             144   -0.4810  101 176 
 RUS  HN ES        415 35.73                             144   -0.4210  101 176 
 RUS  HZ I         415 38.42        10.5 0.28            144            101 176 
 PTB  HZ EP        415 19.79                             132   -0.95 9  147 259 
 PTB  HN ES        415 41.17                             132   -0.60 9  147 259 
 PTB  HZ I         415 45.77        16.1 0.24            132            147 259 
 TAM  HZ EP        415 21.57                             131    0.04 9  156 105 
 TAM  HE ES        415 43.44                             131    0.27 9  156 105 
 TAM  HZ I         415 51.12        16.4 0.34            133            156 105 
 SPBC HZ EP        415 22.06                             129   -0.24 9  163 219 
 SPBC HN ES        415 44.92                             129    0.38 9  163 219 
 SPBC HZ I         415 49.90        28.8 0.42            129            163 219 
 YPLC HZ IP     D  415 23.55                             127   -0.09 9  177 151 
 YPLC HN ES        415 47.62                             127    0.69 9  177 151 
 YPLC HZ I         415 48.47        18.9 0.28            128            177 151 
 ZAR  HZ EP        415 25.51                             123   -0.69 9  204 292 
 ZAR  HE ES        415 51.57                             123    0.09 9  204 292 
 ZAR  HZ I         415 58.17        14.0 0.42            123            204 292 
 NOR  HZ EP     D  415 29.77                             119    0.26 8  235 234 
 NOR  HN ES        415 57.56                             119    0.18 8  235 234 
 NOR  HZ I         416  2.03        13.3 0.30            119            235 234 
 CHI  HZ EP        415 31.56                             117    0.04 8  249 195 
 CHI  HN ES        416  0.90                             117   -0.05 8  249 195 
 CHI  HZ I         416  6.83         7.1 0.32            118            249 195 
 ROSC BZ EP   9    415 33.38                             117    1.46 0  253 211 
 ROSC BN ES        416  4.08                             117    0.95 8  253 211 
 ROSC BZ I         416  7.78        15.6 0.45            117            253 211 
 HEL  HZ EP        415 34.85                             115    0.88 8  272 256 
 HEL  HN ES        416  5.97                             115    0.65 8  272 256 
 HEL  HZ I         416 11.65        11.9 0.44            115            272 256 
 URE  HZ EP   4    415 29.26                             114   -5.55 0  283 292 
 URE  HN ES   4    416  4.12                             114   -2.69 0  283 292 
 URE  HZ I         416 14.84        13.2 0.22            114            283 292 
 GUY2CHZ EP        415 38.17                             112    0.78 7  301 235 
 GUY2CHN ES   4    416 14.55                             112    3.16 0  301 235 
 GUY2CHZ I         416 18.96        12.2 0.78                           301 235 
 PTGC HZ EP   9    415 36.31                             112   -1.39 0  309 159 
 PTGC HN ES        416  9.79                             112   -0.77 7  309 159 
 PTGC HZ I         416 12.55         8.4 0.22            113            309 159 
 CBOC HZ EP        415 41.26                             110    0.59 7  333 252 
 CBOC HN ES        416 17.14                             110   -0.11 7  333 252 
 CBOC HZ I         416 34.17         3.2 0.54            110            333 252 
 DBB  EZ EP        415 41.46                             110    0.24 7  339 274 
 DBB  EN ES        416 17.95                             110   -0.27 7  339 274 
 DBB  EZ I         416 27.28         3.7 0.34            110            339 274 
 PRA  HZ EP        415 47.14                             107   -0.18 6  392 209 
 PRA  HE ES        416 28.44                             107   -0.64 6  392 209 
 PRA  HZ I         416 33.32         7.0 0.30            107            392 209 
 SJC  HZ EP   4    415 47.32                             106   -1.98 0  409 327 
 SJC  HN ES   4    416 27.72                             106   -4.88 0  409 327 
 SJC  HZ I         416 35.50         2.7 0.30            106            409 327 
                                                                                
