 2011 1230 0518  2.1 L   6.776 -73.134147.1  RSN  7 0.3 1.9LRSN                1
 GAP=139        0.70       3.5     5.2  6.0  0.2662E+01  0.3153E+01  0.5132E+00E
 Epicentro: LOS SANTOS - SANTANDER                                             3
 ACTION:UPD 12-07-13 16:19 OP:ep   STATUS:               ID:20111230051802 L   I
 2011-12-30-0510-00M.COL___186                                                 6
 STAT SP IPHASW D HRMM SECON CODA AMPLIT PERI AZIMU VELO AIN AR TRES W  DIS CAZ7
 BAR2 SZ EP        518 21.72                             171   -0.0910 21.0 195 
 BAR2 SZ ES   1    518 36.89                             171   -0.32 7 21.0 195 
 BAR2 SZ I         518 38.54        20.5 0.33                          21.0 195 
 BRR  HZ EP   1    518 23.64                             152    0.14 7 73.6 300 
 BRR  HZ I         518 23.95        40.7 0.16                          73.6 300 
 BRR  HE ES   1    518 40.93                             152    0.72 7 73.6 300 
 PAM  SZ EP   1    518 24.72                             151    0.22 7 78.6  38 
 PAM  SN ES   1    518 41.80                             151   -0.19 7 78.6  38 
 PAM  SZ I         518 43.91        11.1 0.40                          78.6  38 
 RUS  HZ EP   1    518 25.60                             145   -0.16 7 97.9 177 
 RUS  HN ES   1    518 44.41                             145    0.18 7 97.9 177 
 RUS  HZ I         518 46.04         6.5 0.18                          97.9 177 
 OCA  SZ EP   1    518 31.22                             129    0.48 7  163 353 
 OCA  SZ ES   1    518 52.70                             129   -0.41 7  163 353 
 ZAR  HE ES   1    518 59.84                             122   -0.54 6  206 293 
 ZAR  HZ I         519  5.56        13.1 0.33                           206 293 
 CHI  HZ EP   1    518 39.45                             118   -0.15 6  246 196 
 CHI  HZ I         518 42.41         2.9 0.32                           246 196 
                                                                                
