 2013  730 0214  9.4 L   6.798 -73.160152.9  RSN 10 0.4 2.2LRSN                1
 GAP=135        0.87       3.6     5.2  6.2 -0.4436E+01  0.8004E+01 -0.2031E+00E
 Epicentro: LOS SANTOS - SANTANDER                                             3
 ACTION:UPD 13-08-12 10:40 OP:ep   STATUS:               ID:20130730021409 L   I
 OLDACT:REG 13-07-30 07:34 OP:carl STATUS:               ID:20130730020959     3
 2013-07-30-0209-59M.COL___268                                                 6
 STAT SP IPHASW D HRMM SECON CODA AMPLIT PERI AZIMU VELO AIN AR TRES W  DIS CAZ7
 BAR2 SZ EP        214 29.92                             171    0.0010 22.8 186 
 BAR2 SZ ES   1    214 45.29                             171   -0.60 7 22.8 186 
 BAR2 SZ I         214 47.35        20.6 0.20            171           22.8 186 
 GIR2 SZ EP        214 29.99                             168    0.0310 31.3 353 
 GIR2 SZ ES   1    214 46.46                             168    0.49 7 31.3 353 
 GIR2 SZ I         214 47.24        12.4 0.16            165           31.3 353 
 BRR  HZ IP     C  214 31.76                             154    0.4610 69.9 299 
 BRR  HN ES   1    214 49.35                             154    1.01 7 69.9 299 
 BRR  HN I         214 50.04        51.0 0.32            151           69.9 299 
 PAM  SZ EP   1    214 32.82                             152    0.33 7 78.6  40 
 PAM  SN ES   1    214 50.25                             152   -0.21 7 78.6  40 
 PAM  SZ I         214 52.17        20.8 0.48            153           78.6  40 
 RUS  HZ EP   1    214 33.96                             145    0.07 7  100 175 
 RUS  HN ES   1    214 52.69                             145   -0.27 7  100 175 
 RUS  HZ I         214 54.15        11.9 0.42            147            100 175 
 PTB  HZ EP        214 36.73                             134   -0.13 9  146 259 
 PTB  HN ES   1    214 57.87                             134   -0.37 7  146 259 
 PTB  HZ I         214 59.48        12.7 0.26            133            146 259 
 OCA  HN ES   1    214 59.98                             131   -0.87 7  160 354 
 OCA  HN I         215  4.09        47.3 0.22            131            160 354 
 SPBC HZ EP        214 38.35                             131   -0.03 9  162 219 
 SPBC HN ES   1    215  0.90                             131   -0.06 7  162 219 
 SPBC HZ I         215  3.69        18.8 0.30            131            162 219 
 NOR  HE ES   1    215 13.38                             120   -0.14 6  233 234 
 NOR  HE I         215 21.20        14.7 0.18            120            233 234 
 SML  HZ EP   1    214 46.55                             119    0.12 6  243 336 
 SML  HN ES   1    215 14.74                             119   -0.54 6  243 336 
 SML  HZ I         215 22.17        12.0 0.26            119            243 336 
                                                                                
