 2017 1030 0838 25.1 L   6.820 -73.168144.4  RSN  5 0.3 1.0LRSN                1
 GAP=237        0.83       5.0     5.3  6.1  0.6097E+01  0.3878E+01  0.3058E+01E
 Epicentro: LOS SANTOS - SANTANDER                                             3
 ACTION:UPD 17-11-07 19:39 OP:rebc STATUS:               ID:20171030083825 L   I
 OLDACT:REG 17-10-30 12:51 OP:dhb  STATUS:               ID:20171030083738     3
 2017-10-30-0838-00M.COL___414                                                 6
 STAT SP IPHASW D HRMM SECON CODA AMPLIT PERI AZIMU VELO AIN AR TRES W  DIS CAZ7
 BAR2 EZ EP        838 45.18                             170    0.5510 25.3 184 
 BAR2 EZ ES        838 59.69                             170   -0.1510 25.3 184 
 BAR2 EZ I         839  3.30         4.0 0.48            173           25.3 184 
 BRR  HZ EP        838 45.90                             153   -0.0410 68.0 298 
 BRR  HN ES        839  2.33                             153    0.1510 68.0 298 
 BRR  HZ I         839 10.22         3.0 0.28            152           68.0 298 
 RUS  HZ EP        838 48.57                             143   -0.3410  103 175 
 RUS  HN ES     C  839  7.31                             143   -0.1610  103 175 
 RUS  HZ I         839  8.49         1.2 0.54            149            103 175 
 PTB  HZ EP        838 51.80                             132   -0.00 9  146 258 
 PTB  HN ES        839 12.18                             132   -0.43 9  146 258 
 PTB  HZ I         839 16.61         0.4 0.44            135            146 258 
 SPBC HZ EP        838 53.42                             129   -0.12 9  163 218 
 SPBC HN ES        839 16.26                             129    0.56 9  163 218 
 SPBC HZ I         839 17.64         1.1 0.32            133            163 218 
                                                                                
