 2016 1030 0226 22.1 L   6.043 -73.914  0.4  RSN 10 0.5 1.8LRSN                1
 GAP=102        1.26       2.6     2.5  5.6 -0.1079E+01  0.2779E+01  0.1725E+01E
 Epicentro: EL PENON - SANTANDER                                               3
 ACTION:UPD 16-11-09 19:24 OP:rebc STATUS:               ID:20161030022622 L   I
 OLDACT:UP  16-10-30 21:10 OP:dani STATUS:               ID:20161030021746d    3
 OLDACT:UP  16-10-30 21:09 OP:dani STATUS:               ID:20161030021746d    3
 OLDACT:UP  16-10-30 21:08 OP:dani STATUS:               ID:20161030021746d    3
 OLDACT:UP  16-10-30 21:07 OP:dani STATUS:               ID:20161030021746d    3
 OLDACT:DUP 16-10-30 15:59 OP:cog  STATUS:               ID:20161030021746d    3
 2016-10-30-0218-00M.COL___315                                                 6
 STAT SP IPHASW D HRMM SECON CODA AMPLIT PERI AZIMU VELO AIN AR TRES W  DIS CAZ7
 SPBC HZ EP        226 30.14                              47   -0.2110 46.7 202 
 SPBC HN ES        226 37.00                              47    0.2010 46.7 202 
 SPBC HZ I         226 39.31        43.1 0.42             47           46.7 202 
 PTB  HZ IP     D  226 34.80                              47   -0.7110 81.3 312 
 PTB  HN ES        226 47.01                              47    1.0110 81.3 312 
 PTB  HZ I         226 47.29        30.2 0.20             47           81.3 312 
 RUS  HZ EP        226 38.65                              47    0.8010 93.5 100 
 RUS  HN ES        226 49.86                              47   -0.3010 93.5 100 
 RUS  HZ I         226 50.94         8.0 0.12             47           93.5 100 
 BAR2 EZ EP        226 38.84                              47    0.0910  101  53 
 NOR  HZ EP        226 41.46                              47    0.2910  118 243 
 NOR  HE ES        226 55.96                              47   -0.1110  118 243 
 NOR  HZ I         226 56.43        28.3 0.22             47            118 243 
 BRR  HZ EP        226 41.18                              47   -0.1410  120  11 
 BRR  HE ES        226 56.01                              47   -0.3210  120  11 
 BRR  HZ I         226 59.89        29.2 0.12             47            120  11 
 CHI  HZ EP   4    226 52.09                              47    4.60 0  158 173 
 HEL  HZ EP        226 50.09                              47   -0.67 9  179 275 
 HEL  HN ES   4    227 10.74                              47   -2.39 0  179 275 
 HEL  HZ I         227 11.74        16.2 0.20             47            179 275 
 GUY2CHZ EP   4    226 52.72                              37    1.15 0  184 241 
 GUY2CHN ES        227 14.46                              37   -0.11 9  184 241 
 GUY2CHZ I         227 18.97         6.8 0.40                           184 241 
 PAM  EZ EP   4    226 54.34                              37    1.28 0  196  43 
 PAM  EE ES   4    227 19.39                              37    2.15 0  196  43 
 PAM  EZ I         227 21.44        13.5 0.20             37            196  43 
 ELA  HZ EP   9    226 56.83                              37    1.97 0  210 232 
 ELA  HN ES        227 21.94                              37   -0.47 8  210 232 
 ELA  HZ I         227 23.47         5.4 0.26             37            210 232 
                                                                                
