 2015 1130 0750 20.2 L   6.793 -73.117146.8  RSN  7 0.4 1.5LRSN                1
 GAP=186        1.02       4.1     7.0  6.8  0.1081E+02  0.4275E+01 -0.7562E+01E
 Epicentro: LOS SANTOS - SANTANDER                                             3
 ACTION:UPD 15-12-28 16:14 OP:cam  STATUS:               ID:20151130075020 L   I
 OLDACT:REG 15-11-30 14:07 OP:drio STATUS:               ID:20151130074740     3
 2015-11-30-0747-40M.COL___289                                                 6
 STAT SP IPHASW D HRMM SECON CODA AMPLIT PERI AZIMU VELO AIN AR TRES W  DIS CAZ7
 BAR2 EZ EP        750 40.07                             171    0.1310 23.3 198 
 BAR2 EZ ES        750 55.36                             171    0.0210 23.3 198 
 BAR2 EZ I         750 56.50         7.0 0.24            173           23.3 198 
 BRR  HZ EP        750 42.15                             152    0.5210 74.4 298 
 BRR  HN ES        750 58.89                             152    0.5410 74.4 298 
 BRR  HZ I         751  0.02         5.9 0.16            151           74.4 298 
 RUS  HZ EP        750 43.78                             144   -0.1910 99.6 178 
 RUS  HN ES        751  2.10                             144   -0.4110 99.6 178 
 RUS  HZ I         751  3.06         3.7 0.24            148           99.6 178 
 PTB  HZ EP        750 47.19                             132   -0.32 9  151 259 
 PTB  HN ES   4    751  7.37                             132   -1.45 0  151 259 
 PTB  HZ I         751 10.02         2.6 0.62            133            151 259 
 OCA  HZ EP        750 49.06                             130    0.37 9  161 352 
 OCA  HN ES        751 10.70                             130   -0.22 9  161 352 
 OCA  HZ I         751 15.02         5.5 0.46            130            161 352 
 ZAR  HZ EP        750 53.70                             122    0.66 8  207 292 
 ZAR  HE ES        751 18.16                             122   -0.50 8  207 292 
 ZAR  HZ I         751 21.37         2.7 0.44            123            207 292 
 SML  HZ EP        750 56.83                             117   -0.27 8  246 335 
 SML  HE ES        751 25.23                             117   -0.65 8  246 335 
 SML  HZ I         751 29.32         3.6 0.10            118            246 335 
                                                                                
