 2011 1130 0237 14.9 L   6.746 -73.095141.5  RSN  5 0.2 1.6LRSN                1
 GAP=146        0.50       3.2     4.8  4.4 -0.2470E+00 -0.1183E+01 -0.1538E+01E
 Epicentro: JORDAN - SANTANDER                                                 3
 ACTION:UPD 12-07-13 16:13 OP:ep   STATUS:               ID:20111130023714 L   I
 2011-11-30-0235-10S.COL___160                                                 6
 STAT SP IPHASW D HRMM SECON CODA AMPLIT PERI AZIMU VELO AIN AR TRES W  DIS CAZ7
 BAR2 SZ EP        237 34.04                             172    0.0510 19.6 210 
 BAR2 SZ ES   1    237 48.38                             172   -0.47 7 19.6 210 
 BAR2 SZ I         237 50.20        11.2 0.26                          19.6 210 
 PAM  SZ EP        237 36.78                             150   -0.0110 78.8  34 
 PAM  SE ES   1    237 54.01                             150    0.17 7 78.8  34 
 BRR  HZ EP        237 35.94                             149   -0.1710 79.0 300 
 BRR  HZ I         237 36.24        13.5 0.12                          79.0 300 
 BRR  HN ES   1    237 52.93                             149    0.32 7 79.0 300 
 RUS  HZ EP        237 37.94                             145    0.1110 94.4 179 
 RUS  HZ I         237 39.06         2.6 0.10                          94.4 179 
 RUS  HN ES   2    237 55.93                             145    0.24 5 94.4 179 
 OCA  SZ EP        237 43.51                             127   -0.05 9  167 351 
 OCA  SZ I         238  9.43         4.2 0.20                           167 351 
                                                                                
