 2017 1030 0349 11.5 L   6.806 -73.115139.4  RSN 10 0.6 1.4LRSN                1
 GAP=115        1.13       4.3     4.3  6.6  0.2930E+01  0.9898E+01  0.6140E+01E
 Epicentro: LOS SANTOS - SANTANDER                                             3
 ACTION:UPD 17-11-07 19:39 OP:rebc STATUS:               ID:20171030034911 L   I
 OLDACT:REG 17-10-30 12:31 OP:dhb  STATUS:               ID:20171030034737     3
 2017-10-30-0348-00M.COL___423                                                 6
 STAT SP IPHASW D HRMM SECON CODA AMPLIT PERI AZIMU VELO AIN AR TRES W  DIS CAZ7
 BAR2 EZ IP     C  349 30.27                             169   -0.1510 24.8 197 
 BAR2 EZ ES        349 44.88                             169   -0.2810 24.8 197 
 BAR2 EZ I         349 46.24         7.3 0.14            170           24.8 197 
 BRR  HZ EP        349 32.18                             150    0.0310 73.9 297 
 BRR  HN ES        349 48.42                             150    0.1910 73.9 297 
 BRR  HZ I         349 53.02         3.7 0.12            150           73.9 297 
 PAM  EZ IP     C  349 33.30                             150    0.4010 74.7  38 
 PAM  EN ES        349 49.70                             150    0.1210 74.7  38 
 PAM  EZ I         349 52.98         3.7 0.27            152           74.7  38 
 RUS  HZ EP        349 34.15                             142   -0.5410  101 178 
 RUS  HN ES        349 52.55                             142   -0.2110  101 178 
 RUS  HZ I         349 53.44         3.1 0.22            145            101 178 
 PTB  HZ EP        349 37.08                             130   -1.22 9  151 259 
 PTB  HE ES        349 59.45                             130    0.26 9  151 259 
 PTB  HZ I         350  0.52         3.2 0.52            131            151 259 
 YPLC HN ES        350  4.13                             125    0.56 9  176 152 
 YPLC HZ I         350  6.95         4.1 0.24            128            176 152 
 ZAR  HZ EP        349 44.20                             120    0.34 8  207 292 
 ZAR  HE ES        350  9.16                             120    0.07 8  207 292 
 ZAR  HZ I         350 17.26         2.6 0.18            121            207 292 
 NOR  HZ EP        349 46.95                             117   -0.28 8  238 235 
 NOR  HE ES        350 15.09                             117    0.01 8  238 235 
 NOR  HZ I         350 16.11         2.2 0.18            118            238 235 
 GUY2CHZ EP        349 55.42                             111    0.22 7  304 235 
 GUY2CHE ES   2    350 31.40                             111    2.13 4  304 235 
 GUY2CHZ I         350 38.57         0.9 0.40                           304 235 
 PRA  HZ EP        350  5.68                             105    0.59 6  394 210 
 PRA  HE ES   2    350 48.40                             105    1.52 3  394 210 
 PRA  HZ I         350 50.88         0.8 0.28            106            394 210 
                                                                                
