 2011  630 0044 30.1 L   6.743 -73.254158.9  RSN  5 0.4 1.2LRSN                1
 GAP=140        0.99       7.2    12.6  9.4  0.1678E+02 -0.2661E+02 -0.2002E+02E
 Epicentro: ZAPATOCA - SANTANDER                                               3
 ACTION:UP  11-07-14 19:09 OP:ep   STATUS:               ID:20110630004430 L   I
 2011-06-30-0040-00M.COL___124                                                 6
 STAT SP IPHASW D HRMM SECON CODA AMPLIT PERI AZIMU VELO SNR AR TRES W  DIS CAZ7
 BAR2 SZ EP        044 51.21                             173    -0.110   19 155 
 BAR2 SZ ES        045  7.90                             173     0.210   19 155 
 BAR2 SZ I         045 17.01         3.9 0.61                            19 155 
 BRR  HZ EP        044 52.69                             157     0.310   65 309 
 BRR  HZ I         044 53.47         5.9 0.16                            65 309 
 BRR  HN ES   1    045  9.32                             157    -0.4 7   65 309 
 PAM  SZ EP   1    044 54.09                             149    -0.4 7   90  43 
 PAM  SZ I         045 12.84         2.5 0.42                            90  43 
 RUS  HZ EP   1    044 55.47                             147     0.6 7   96 169 
 RUS  HE ES   1    045 13.80                             147    -0.4 7   96 169 
 RUS  HZ I         045 15.67         1.1 0.40                            96 169 
 GRA  SZ EP   1    044 56.98                             137    -0.4 7  136  21 
 GRA  SZ I         044 58.14         2.3 0.29                           136  21 
 GRA  SZ ES   2    045 19.35                             137     0.7 5  136  21 
                                                                                
