 2017 1030 0252  5.5 L   6.795 -73.165146.2  RSN  4 0.2 0.8LRSN                1
 GAP=235        0.56       4.5     4.5  5.7  0.1034E+02 -0.3501E+01 -0.1856E+01E
 Epicentro: LOS SANTOS - SANTANDER                                             3
 ACTION:UPD 17-11-07 19:39 OP:rebc STATUS:               ID:20171030025205 L   I
 OLDACT:DUP 17-10-30 13:46 OP:dhb  STATUS:               ID:20171030024746d    3
 2017-10-30-0248-00M.COL___429                                                 6
 STAT SP IPHASW D HRMM SECON CODA AMPLIT PERI AZIMU VELO AIN AR TRES W  DIS CAZ7
 BAR2 EZ EP        252 24.84                             171   -0.3510 22.5 185 
 BAR2 EZ I         252 44.69         3.2 0.46            168           22.5 185 
 BRR  HZ EP        252 26.94                             153    0.3010 69.6 300 
 BRR  HN ES        252 43.08                             153   -0.0210 69.6 300 
 BRR  HZ I         252 46.47         1.4 0.26            154           69.6 300 
 RUS  HZ EP        252 29.44                             144    0.1510  100 175 
 RUS  HN ES        252 47.87                             144    0.0410  100 175 
 RUS  HZ I         252 50.43         0.7 0.54            145            100 175 
 PTB  HZ EP        252 32.18                             133   -0.15 9  146 259 
 PTB  HN ES        252 53.24                             133    0.01 9  146 259 
 PTB  HZ I         252 54.64         0.6 0.40            137            146 259 
                                                                                
