 2013  530 0733 18.4 L   6.772 -73.176144.1  RSN  4 0.3 1.3LRSN                1
 GAP=232        0.70       5.5     5.2  5.6  0.1413E+02  0.2847E+01  0.8657E+00E
 Epicentro: LOS SANTOS - SANTANDER                                             3
 ACTION:UPD 13-06-20 09:54 OP:ep   STATUS:               ID:20130530073318 L   I
 2013-05-30-0730-00M.COL___261                                                 6
 STAT SP IPHASW D HRMM SECON CODA AMPLIT PERI AZIMU VELO AIN AR TRES W  DIS CAZ7
 BAR2 SZ EP        733 37.78                             172   -0.0310 19.9 182 
 BAR2 SZ ES        733 52.49                             172   -0.4310 19.9 182 
 BAR2 SZ I         733 54.52         6.3 0.20            169           19.9 182 
 BRR  HZ IP     C  733 39.62                             153    0.2810 69.8 302 
 BRR  HN ES        733 55.83                             153    0.1910 69.8 302 
 BRR  HZ I         733 59.98         5.8 0.42            151           69.8 302 
 RUS  HZ EP        733 41.84                             144    0.0010 97.8 174 
 RUS  HN ES        734  0.37                             144    0.2910 97.8 174 
 RUS  HZ I         734  2.45         1.7 0.16            146           97.8 174 
 PTB  HZ EP        733 44.56                             132   -0.37 9  144 260 
 PTB  HN ES        734  5.61                             132    0.03 9  144 260 
 PTB  HZ I         734 10.62         3.2 0.36            132            144 260 
                                                                                
