 2015  930 0526  5.8 L   6.791 -73.112154.9  RSN  4 0.4 1.0LRSN                1
 GAP=240        0.79       5.4     8.3  8.7  0.8860E+01 -0.6450E+01 -0.6045E-01E
 Epicentro: LOS SANTOS - SANTANDER                                             3
 ACTION:UPD 15-10-28 16:29 OP:cam  STATUS:               ID:20150930052605 L   I
 OLDACT:REG 15-09-30 13:27 OP:spq  STATUS:               ID:20150930051749     3
 2015-09-30-0517-49M.COL___354                                                 6
 STAT SP IPHASW D HRMM SECON CODA AMPLIT PERI AZIMU VELO AIN AR TRES W  DIS CAZ7
 BRR  HZ EP        526 28.20                             153    0.1010 75.0 298 
 BRR  HE ES        526 45.70                             153    0.1710 75.0 298 
 BRR  HZ I         526 49.93         1.8 0.50            151           75.0 298 
 RUS  HZ EP   1    526 30.61                             146    0.28 7 99.4 178 
 RUS  HE ES   1    526 49.05                             146   -0.45 7 99.4 178 
 RUS  HZ I         526 50.42         0.7 0.38            149           99.4 178 
 PTB  HZ EP        526 33.41                             133   -0.38 9  151 259 
 PTB  HE ES   2    526 54.82                             133   -0.83 5  151 259 
 PTB  HZ I         527  0.04         1.0 0.38            134            151 259 
 SPBC HE ES        526 58.41                             131    0.40 9  165 220 
 SPBC HZ I         527  0.53         1.9 0.10            132            165 220 
                                                                                
