 2012  730 0806 31.0 L   6.813 -73.160142.0  RSN  5 0.2 1.2LRSN                1
 GAP=237        0.45       5.3     4.9  7.9  0.1510E+02  0.1095E+02  0.3970E+01E
 Epicentro: LOS SANTOS - SANTANDER                                             3
 ACTION:UPD 12-08-14 11:46 OP:ep   STATUS:               ID:20120730080631 L   I
 2012-07-30-0800-00M.COL___215                                                 6
 STAT SP IPHASW D HRMM SECON CODA AMPLIT PERI AZIMU VELO AIN AR TRES W  DIS CAZ7
 BAR2 SZ EP   1    8 6 50.20                             170     0.0 7   25 186 
 BAR2 SZ I         8 6 50.55         4.4 0.10            166             25 186 
 BAR2 SZ ES   1    8 7  5.43                             170     0.2 7   25 186 
 BRR  HE ES   1    8 7  7.54                             153    -0.2 7   69 298 
 RUS  HN ES   1    8 7 12.77                             143    -0.1 7  102 175 
 RUS  HZ I         8 7 13.77         1.8 0.28            139            102 175 
 PTB  HN ES   1    8 7 18.28                             131     0.0 7  146 258 
 PTB  HZ I         8 7 21.16         1.3 0.15            125            146 258 
 ZAR  HN ES   2    8 7 28.27                             122     0.3 4  202 292 
 ZAR  HZ I         8 7 34.06         2.6 0.20            117            202 292 
