 2010  330 0733 39.3 L   6.965 -73.489106.4  RSN  4 0.2 1.7LRSN                1
 GAP=143        0.51       4.5     9.1  7.8  0.1711E+02 -0.2435E+02 -0.1694E+02E
 Epicentro: SAN VICENTE DE CHUCURI - SANTANDER                                 3
 ACTION:UP  10-08-24 09:56 OP:vdl  STATUS:               ID:20100330073339 L   I
 2010-03-30-0731-33S.COL___098                                                 6
 STAT SP IPHASW D HRMM SECON CODA AMPLIT PERI AZIMU VELO SNR AR TRES W  DIS CAZ7
 BRR  HZ EP        733 53.83                             164    -0.210   29 302 
 BRR  HZ I         733 54.30        10.1 0.09                            29 302 
 BRR  HN ES   2    734  6.01                             164     0.4 5   29 302 
 BAR2 SZ EP        733 55.62                             152     0.110   53 141 
 BAR2 SZ ES   2    734  7.96                             152    -0.2 5   53 141 
 RUS  HZ EP   3    734  2.38                             126     0.5 2  127 159 
 RUS  HZ I         734  3.59        12.1 0.42                           127 159 
 OCA  SZ EP        734  3.08                             122     0.1 9  142   8 
 OCA  SZ ES   2    734 21.44                             122     0.0 5  142   8 
 OCA  SZ I         734 22.28        10.7 0.08                           142   8 
                                                                                
