 2010  430 0739 19.1 L   6.779 -73.039142.6  RSN  5 0.5 1.6LRSN                1
 GAP=203        0.71       8.1     9.9  9.2 -0.2634E+02 -0.1948E+02 -0.1536E+02E
 Epicentro: CEPITA - SANTANDER                                                 3
 ACTION:UPD 10-08-24 10:02 OP:vdl  STATUS:               ID:20100430073919 L   I
 2010-04-30-0736-32S.COL___104                                                 6
 STAT SP IPHASW D HRMM SECON CODA AMPLIT PERI AZIMU VELO SNR AR TRES W  DIS CAZ7
 BAR2 SZ EP   2    739 38.34                             169    -0.1 5   26 218 
 BAR2 SZ ES   1    739 53.39                             169    -0.1 7   26 218 
 BRR  HZ EP   1    739 40.52                             148    -0.1 7   83 296 
 BRR  HN ES   1    739 57.60                             148     0.2 7   83 296 
 BRR  HZ I         740  2.06         6.7 0.46                            83 296 
 BRI  SZ EP   2    739 43.17                             141     0.6 5  107  14 
 BRI  SZ ES   2    740  1.70                             141     0.8 5  107  14 
 GUE  SZ EP   2    739 43.41                             138    -0.2 5  117   6 
 GUE  SZ ES   2    740  1.60                             138    -1.0 5  117   6 
 GRA  SZ EP   2    739 44.01                             136     0.0 5  125  12 
                                                                                
