 2012  530 0527 30.0 L   6.800 -73.183135.8  RSN  5 0.4 1.8LRSN                1
 GAP=241        0.92       7.4     8.1  9.2  0.3405E+02  0.2020E+02  0.4901E+01E
 Epicentro: LOS SANTOS - SANTANDER                                             3
 ACTION:UP  12-07-05 12:09 OP:pat  STATUS:               ID:20120530052730 L   I
 2012-05-30-0520-00M.COL___201                                                 6
 STAT SP IPHASW D HRMM SECON CODA AMPLIT PERI AZIMU VELO AIN AR TRES W  DIS CAZ7
 BAR2 SZ EP   1    527 48.61                             170     0.2 7   23 180 
 BAR2 SZ I         527 49.08        17.5 0.19                            23 180 
 BAR2 SZ ES   1    528  3.13                             170     0.3 7   23 180 
 RUS  HZ EP   1    527 52.65                             142    -0.2 7  101 174 
 RUS  HN ES   1    528 10.29                             142    -0.3 7  101 174 
 RUS  HZ I         528 12.89         9.9 0.34                           101 174 
 PTB  HZ EP   1    527 55.28                             131    -0.6 7  144 259 
 PTB  HN ES   1    528 15.67                             131    -0.3 7  144 259 
 PTB  HZ I         528 20.37         5.8 0.12                           144 259 
 ZAR  HZ EP   1    528  2.01                             121     0.6 6  200 293 
 ZAR  HN ES   1    528 26.09                             121     0.1 6  200 293 
 ZAR  HZ I         528 32.50        15.2 0.33                           200 293 
 CHI  HZ EP   1    528  6.72                             115    -0.4 6  248 194 
 CHI  HZ I         528  9.10         2.7 0.12                           248 194 
 CHI  HN ES   1    528 36.82                             115     0.8 6  248 194 
                                                                                
