 2016  830 0639 51.9 L   7.363 -73.125  8.0  RSN  8 0.4 1.8LRSN                1
 GAP=106        1.05       2.0     2.6  5.7 -0.1211E+00  0.7916E+01 -0.5157E-01E
 Epicentro: RIONEGRO - SANTANDER                                               3
 ACTION:UPD 16-10-29 15:40 OP:rebc STATUS:               ID:20160830063951 L   I
 OLDACT:UP  16-08-30 17:14 OP:edw  STATUS:               ID:20160830063735     3
 OLDACT:REG 16-08-30 12:51 OP:edw  STATUS:               ID:20160830063735     3
 2016-08-30-0638-00M.COL___353                                                 6
 STAT SP IPHASW D HRMM SECON CODA AMPLIT PERI AZIMU VELO AIN AR TRES W  DIS CAZ7
 PAM  EZ EP     D  640  0.37                              96    0.2410 47.0  93 
 PAM  EN ES        640  6.62                              96    0.0510 47.0  93 
 PAM  EZ I         640  7.43        48.0 0.16                          47.0  93 
 BRR  HZ EP        640  3.45                              94    0.2410 70.7 246 
 BRR  HN ES        640 12.33                              94    0.2810 70.7 246 
 BRR  HZ I         640 12.85        22.7 0.12                          70.7 246 
 BAR2 EZ EP        640  5.41                              93   -0.2710 85.4 184 
 BAR2 EZ ES        640 15.94                              93   -0.5110 85.4 184 
 BAR2 EZ I         640 16.91        31.9 0.14                          85.4 184 
 OCA  HZ EP        640  7.68                              93   -0.0010 99.2 348 
 OCA  HE ES        640 19.39                              93   -0.6210 99.2 348 
 OCA  HZ I         640 20.12        32.5 0.14                          99.2 348 
 RUS  HZ EP        640 18.32                              92    0.69 9  163 178 
 RUS  HN ES        640 37.32                              92   -0.40 9  163 178 
 RUS  HZ I         640 38.74         8.8 0.22                           163 178 
 PTB  HZ EP        640 18.53                              56    0.09 9  173 238 
 PTB  HN ES        640 39.10                              56   -0.06 9  173 238 
 PTB  HZ I         640 40.17        14.0 0.46                           173 238 
 ZAR  HZ EP        640 21.60                              56    0.81 9  192 274 
 ZAR  HN ES        640 42.96                              56   -0.38 9  192 274 
 ZAR  HZ I         640 44.96        11.3 0.40                           192 274 
 SPBC HZ EP   9    640 26.76                              56    2.83 0  216 209 
 SPBC HN ES        640 51.27                              37   -0.49 8  216 209 
 SPBC HZ I         640 54.57         6.8 0.32                           216 209 
                                                                                
