 2011  630 0850 52.0 L   6.765 -73.092146.3  RSN  9 0.3 1.8LRSN                1
 GAP=145        0.77       3.6     9.0  8.3 -0.1430E+02  0.3544E+02 -0.3425E+01E
 Epicentro: LOS SANTOS - SANTANDER                                             3
 ACTION:UP  11-07-14 19:09 OP:ep   STATUS:               ID:20110630085052 L   I
 2011-06-30-0840-00M.COL___124                                                 6
 STAT SP IPHASW D HRMM SECON CODA AMPLIT PERI AZIMU VELO SNR AR TRES W  DIS CAZ7
 BTL  SZ EP        851 11.62                             169    -0.110   26 311 
 GIR2 SZ EP        851 11.64                             165    -0.210   36 342 
 PAM  SZ EP   1    851 14.42                             151     0.2 7   77  34 
 PAM  SE ES   1    851 31.55                             151     0.0 7   77  34 
 PAM  SZ I         851 33.73         6.1 0.28                            77  34 
 RUS  HZ EP        851 15.51                             145     0.010   96 179 
 RUS  HZ I         851 16.67         7.3 0.14                            96 179 
 RUS  HE ES   1    851 34.11                             145     0.3 7   96 179 
 BRI  SZ EP   1    851 16.14                             141     0.1 7  110  17 
 GRA  SZ EP        851 17.31                             137    -0.110  128  14 
 GRA  SZ ES        851 36.77                             137    -0.510  128  14 
 GRA  SZ I         851 38.20        15.3 0.27                           128  14 
 OCA  SZ EP        851 20.92                             129     0.2 9  165 351 
 OCA  SZ ES   1    851 44.08                             129     0.9 7  165 351 
 OCA  SZ I         851 48.77        13.0 0.52                           165 351 
 NOR  SZ EP   2    851 27.60                             118    -0.4 4  237 236 
 NOR  SE ES   2    851 55.69                             118    -0.4 4  237 236 
 TOL  SZ EP   1    851 40.70                             109     0.3 5  345 226 
                                                                                
