 2017 1230 0051 40.3 L   6.833 -74.193 49.8  RSN 11 0.4 1.6LRSN                1
 GAP= 71        0.98       2.4     2.2  7.8 -0.7137E+00 -0.3751E+01 -0.4712E+01E
 Epicentro: PUERTO PARRA - SANTANDER                                           3
 ACTION:UPD 18-01-04 13:25 OP:rebc STATUS:               ID:20171230005140 L   I
 OLDACT:REG 17-12-30 12:37 OP:osc  STATUS:               ID:20171230004740     3
 2017-12-30-0048-00M.COL___460                                                 6
 STAT SP IPHASW D HRMM SECON CODA AMPLIT PERI AZIMU VELO AIN AR TRES W  DIS CAZ7
 PTB  HZ EP        051 49.23                             132   -0.6210 43.6 222 
 PTB  HE ES        051 57.57                             132    0.2410 43.6 222 
 PTB  HZ I         051 58.48        30.8 0.22            133           43.6 222 
 ZAR  HZ EP        051 55.94                             105   -0.5110  104 315 
 ZAR  HN ES        052  8.98                             105   -0.1010  104 315 
 ZAR  HZ I         052 12.28        18.5 0.17            104            104 315 
 BAR2 EZ EP        051 57.80                             103   -0.2910  115 103 
 BAR2 EZ ES        052 12.31                             103    0.3210  115 103 
 BAR2 EZ I         052 13.00        13.4 0.14            104            115 103 
 SPBC HZ EP   9    051 58.66                             100   -1.24 0  131 174 
 SPBC HE ES        052 13.69                                   -0.2910  131 174 
 SPBC HZ I         052 14.68         8.9 0.10            101            131 174 
 NOR  HZ EP        052  3.14                              97   -0.11 9  159 208 
 NOR  HE ES        052 21.36                              97    0.18 9  159 208 
 PAM  EZ EP        052  5.37                              96   -0.26 9  174  71 
 PAM  EN ES        052 25.89                              96    0.47 9  174  71 
 URE  HN ES        052 26.18                              96    0.63 9  180 305 
 OCA  HZ EP        052  6.07                              96   -0.22 9  183  32 
 OCA  HE ES        052 27.04                              96    0.44 9  183  32 
 OCA  HZ I         052 31.06        14.9 0.34             96            183  32 
 GUY2CHZ EP        052 11.17                              94   -0.10 8  220 216 
 GUY2CHN ES        052 35.86                              94    0.40 8  220 216 
 GUY2CHZ I         052 40.88         4.6 0.42                           220 216 
 CBOC HZ EP   9    052 13.55                              94    1.68 0  228 242 
 CBOC HE ES        052 39.03                                    0.83 8  228 242 
 CBOC HZ I         052 41.54         1.4 0.60             94            228 242 
 DRL03HZ EP        052 19.41                              93   -0.34 7  294  16 
 DRL03HE ES   3    052 51.80                              93    1.24 2  294  16 
                                                                                
