 2014  430 0523 46.6 L   6.814 -73.136144.1  RSN 20 0.4 2.6LRSN 3.3WRSN        1
 SPEC AVERAGE  MO 14.0 ST0.118 OM  2.2 f0 1.22 R1.7536 AL 0.00 WI 30.0 MW  3.3 3
 Epicentro: LOS SANTOS - SANTANDER                                             3
 SPEC SD       MO  0.7 ST1.000 OM  0.7 f00.439 R0.5885 AL      WI      MW  0.5 3
 GAP= 71        0.90       2.3     2.7  5.2 -0.4535E+00  0.5314E+01  0.4126E+00E
 SPEC PAM SH Z MO 13.7 ST0.104 OM  1.8 f0 1.47 R1.3088 AL-0.00 WI 30.0 MW  3.1 3
 SPEC PAM SH Z T 52424 K 0.000 GD  162 VS 5.20 DE 3.50 Q0750.0 QA 1.50 VS 5.20 3
 SPEC RUS HH Z MO 14.4 ST0.034 OM  2.4 f00.625 R3.0784 AL-0.00 WI 30.0 MW  3.5 3
 SPEC RUS HH Z T 52427 K 0.000 GD  176 VS 5.20 DE 3.50 Q0750.0 QA 1.50 VS 5.20 3
 SPEC TAM HH Z MO 13.7 ST0.081 OM  1.7 f0 1.34 R1.4358 AL-0.00 WI 30.0 MW  3.1 3
 SPEC TAM HH Z T 52434 K 0.000 GD  210 VS 5.20 DE 3.50 Q0750.0 QA 1.50 VS 5.20 3
 SPEC HEL HH Z MO 13.9 ST0.045 OM  1.7 f00.969 R1.9856 AL-0.00 WI 30.0 MW  3.2 3
 SPEC HEL HH Z T 52457 K 0.000 GD  309 VS 5.20 DE 3.50 Q0750.0 QA 1.50 VS 5.20 3
 SPEC URE HH Z MO 13.7 ST0.360 OM  1.5 f0 2.24 R0.8589 AL-0.00 WI 30.0 MW  3.1 3
 SPEC URE HH Z T 52455 K 0.000 GD  318 VS 5.20 DE 3.50 Q0750.0 QA 1.50 VS 5.20 3
 SPECGUY2CHH Z MO 14.2 ST  0.1 OM  1.9 f00.908 R  2.12 AL-0.00 WI 30.0 MW  3.4 3
 SPECGUY2CHH Z T 525 6 K       GD335.5 VS 5.20 DE 3.50 Q0750.0 QA 1.50 VS 5.20 3
 SPEC CBOCHH Z MO 13.7 ST0.048 OM  1.4 f0 1.18 R1.6305 AL-0.00 WI 30.0 MW  3.1 3
 SPEC CBOCHH Z T 525 6 K 0.000 GD  364 VS 5.20 DE 3.50 Q0750.0 QA 1.50 VS 5.20 3
 SPEC DBB SH Z MO 14.5 ST0.204 OM  2.2 f0 1.03 R1.8680 AL-0.00 WI 30.0 MW  3.6 3
 SPEC DBB SH Z T 525 8 K 0.000 GD  369 VS 5.20 DE 3.50 Q0750.0 QA 1.50 VS 5.20 3
 SPEC PRA HH Z MO 14.2 ST0.097 OM  1.9 f00.969 R1.9856 AL-0.00 WI 30.0 MW  3.4 3
 SPEC PRA HH Z T 52521 K 0.000 GD  419 VS 5.20 DE 3.50 Q0750.0 QA 1.50 VS 5.20 3
 SPEC ORTCHH Z MO 13.9 ST0.088 OM  1.6 f0 1.18 R1.6305 AL-0.00 WI 30.0 MW  3.2 3
 SPEC ORTCHH Z T 52522 K 0.000 GD  422 VS 5.20 DE 3.50 Q0750.0 QA 1.50 VS 5.20 3
 OLDACT:REG 14-04-30 12:42 OP:fm   STATUS:               ID:20140430052000     3
 ACTION:UPD 14-05-13 20:49 OP:nd   STATUS:               ID:20140430052346 L   I
 OLDACT:UP  14-04-30 17:22 OP:fm   STATUS:               ID:20140430052000     3
 2014-04-30-0520-00M.COL___270                                                 6
 STAT SP IPHASW D HRMM SECON CODA AMPLIT PERI AZIMU VELO AIN AR TRES W  DIS CAZ7
 PAM  SZ IP     C  524  8.81                             151    0.3210 75.5  40 
 PAM  SN ES        524 25.77                             151    0.1810 75.5  40 
 PAM  SZ I         524 28.01        62.9 0.32            156           75.5  40 
 RUS  HZ EP        524  9.86                             143   -0.4010  102 177 
 RUS  HE ES        524 28.51                             143   -0.2310  102 177 
 PTB  HZ EP        524 12.67                             131   -0.86 9  149 258 
 PTB  HE ES   1    524 34.30                             131   -0.25 7  149 258 
 PTB  SZ I         524 39.63        51.7 0.50            131            149 258 
 TAM  HZ IP     D  524 14.21                             130    0.16 9  154 106 
 TAM  HN ES        524 35.54                             130    0.05 9  154 106 
 SPBC HZ EP        524 14.92                             128   -0.20 9  165 219 
 SPBC HN ES        524 37.31                             128   -0.08 9  165 219 
 SPBC SZ I         524 41.94        62.7 0.26            129            165 219 
 ZAR  HZ EP        524 18.77                             122   -0.18 9  205 292 
 ZAR  HE ES        524 44.34                             122    0.13 9  205 292 
 ZAR  SZ I         524 50.22        44.1 0.26            123            205 292 
 NOR  HZ EP        524 21.99                             118   -0.40 8  236 234 
 NOR  HN ES        524 50.18                             118   -0.16 8  236 234 
 NOR  SZ I         524 57.18        27.4 0.22            119            236 234 
 SML  HZ EP        524 22.84                             117   -0.16 8  243 335 
 SML  HE ES        524 52.09                             117    0.68 8  243 335 
 SML  SZ I         524 55.72        32.2 0.08            119            243 335 
 CHI  HZ EP   1    524 24.18                             116   -0.19 6  250 195 
 CHI  HN ES        524 53.96                             116    0.11 8  250 195 
 CHI  SZ I         524 57.06        16.3 0.56            119            250 195 
 ROSC BZ EP        524 25.61                             116    0.81 8  255 211 
 ROSC BN ES   4    524 56.64                             116    2.01 0  255 211 
 ROSC SZ I         525  3.82        44.9 0.50            118            255 211 
 HEL  HZ EP        524 27.21                             114    0.35 8  274 256 
 HEL  HN ES        524 58.58                             114    0.30 8  274 256 
 HEL  SZ I         525  4.72        21.6 0.38            116            274 256 
 URE  HZ EP   1    524 26.67                             113   -0.94 6  284 292 
 URE  HE ES   4    524 56.65                             113   -2.97 0  284 292 
 URE  SZ I         524 59.76        18.2 0.14            115            284 292 
 GUY2CHZ EP        524 31.08                             112    0.78 7  303 235 
 GUY2CHN ES   4    525  7.76                             112    3.35 0  303 235 
 GUY2CSZ I         525 12.56        27.2 0.40                           303 235 
 VIL  SZ EP   1    524 30.34                             111    0.23 5  305 192 
 VIL  SN ES   4    525  5.37                             111    1.30 0  305 192 
 VIL  SZ I         525  9.18        20.3 0.58            114            305 192 
 CBOC HZ EP        524 33.71                             109    0.12 7  335 252 
 CBOC HN ES   4    525  7.96                             109   -2.30 0  335 252 
 DBB  SZ ES   4    525  9.83                             109   -1.33 0  340 274 
 TOL  SZ EP   1    524 35.24                             109    0.27 5  345 225 
 TOL  SZ ES   4    525 14.39                             109    1.66 0  345 225 
 TOL  SZ I         525 19.44        13.4 0.90            110            345 225 
 ARGC HZ EP   1    524 35.95                             108   -0.09 5  358 340 
 ARGC HN ES   1    525 13.88                             108   -0.74 5  358 340 
 ARGC SZ I         525 22.92        18.3 2.30            110            358 340 
 PRA  HZ EP        524 39.68                             106   -0.57 6  394 210 
 PRA  HN ES        525 22.62                             106    0.50 6  394 210 
 PRA  SZ I         525 27.35        21.5 0.66            108            394 210 
 ORTC HZ EP        524 40.26                             106   -0.39 6  397 216 
 ORTC HN ES        525 23.81                             106    0.97 6  397 216 
 ORTC SZ I         525 29.62        13.1 0.38            108            397 216 
 SJC  HZ EP   4    524 40.11                             105   -1.89 0  409 327 
 SJC  HN ES   4    525 21.39                             105   -3.84 0  409 327 
 SJC  SZ I         525 33.64         7.4 0.96            107            409 327 
