 2016 1130 0721  4.6 L   6.776 -73.138146.2  RSN  5 0.4 1.2LRSN                1
 GAP=156        1.02       8.5     4.9  8.1 -0.9149E+01  0.8768E+01  0.1312E+01E
 Epicentro: LOS SANTOS - SANTANDER                                             3
 ACTION:UPD 17-10-26 21:13 OP:lp   STATUS:               ID:20161130072104 L   I
 OLDACT:DUP 16-11-30 19:22 OP:cog  STATUS:               ID:20161130071739d    3
 2016-11-30-0718-00M.COL___343                                                 6
 STAT SP IPHASW D HRMM SECON CODA AMPLIT PERI AZIMU VELO AIN AR TRES W  DIS CAZ7
 BAR2 EZ EP        721 24.32                             171    0.1110 20.9 194 
 BAR2 EZ ES        721 39.56                             171    0.0410 20.9 194 
 BAR2 EZ I         721 42.14         6.9 0.30            171           20.9 194 
 BRR  HZ EP        721 26.06                             152    0.1810 73.3 300 
 BRR  HN ES        721 43.20                             152    0.6910 73.3 300 
 BRR  HZ I         721 47.09         3.3 0.40            150           73.3 300 
 PAM  EZ EP        721 27.23                             150    0.3110 78.9  38 
 PAM  EE ES        721 43.69                             150   -0.6710 78.9  38 
 PAM  EZ I         721 47.05         2.8 0.46            154           78.9  38 
 PTB  HZ EP        721 31.46                             132   -0.15 9  148 260 
 PTB  HE ES        721 52.23                             132   -0.46 9  148 260 
 PTB  HZ I         721 59.46         1.2 0.30            133            148 260 
 ZAR  HZ EP   4    721 39.06                             122    1.83 0  206 293 
 ZAR  HE ES        722  2.52                             122   -0.19 8  206 293 
 ZAR  HZ I         722  7.68         1.8 0.38            124            206 293 
                                                                                
