 2012  730 0839 50.0 L   6.808 -73.159134.4  RSN  8 0.4 2.2LRSN                1
 GAP=135        0.99       4.1     5.8  8.6 -0.8725E+00  0.1696E+02 -0.5769E+00E
 Epicentro: LOS SANTOS - SANTANDER                                             3
 ACTION:UPD 12-08-14 11:46 OP:ep   STATUS:               ID:20120730083950 L   I
 2012-07-30-0837-37M.COL___201                                                 6
 STAT SP IPHASW D HRMM SECON CODA AMPLIT PERI AZIMU VELO AIN AR TRES W  DIS CAZ7
 BAR2 SZ EP   1    840  8.39                             169     0.2 7   24 186 
 BAR2 SZ ES   1    840 22.44                             169     0.0 7   24 186 
 BAR2 SZ I         840 24.57        59.5 0.19            171             24 186 
 BRR  HZ EP   1    840 10.20                             151     0.4 7   70 298 
 BRR  HZ I         840 30.89        57.6 0.19            146             70 298 
 PAM  SZ EP   1    840 11.30                             148     0.3 7   78  41 
 PAM  SN ES   1    840 27.66                             148     0.3 7   78  41 
 PAM  SZ I         840 30.40        37.7 0.51            147             78  41 
 RUS  HZ EP   1    840 12.42                             141    -0.3 7  102 175 
 RUS  HN ES   1    840 30.53                             141     0.1 7  102 175 
 RUS  HZ I         840 32.58        14.8 0.26            142            102 175 
 PTB  HZ EP   1    840 15.50                             130    -0.4 7  147 258 
 PTB  HN ES   1    840 35.76                             130    -0.4 7  147 258 
 PTB  HZ I         840 39.07         9.9 0.26            126            147 258 
 OCA  HZ EP   1    840 16.61                             127    -0.7 7  159 354 
 OCA  HN ES   1    840 38.04                             127    -0.6 7  159 354 
 ZAR  HZ EP   1    840 21.97                             120     0.5 6  202 292 
 ZAR  HN ES   1    840 46.73                             120     0.6 6  202 292 
 ZAR  HZ I         840 52.22        21.8 0.20            117            202 292 
 CHI  HZ EP   1    840 27.78                             115     0.7 6  249 195 
 CHI  HN ES   1    840 55.45                             115    -0.6 6  249 195 
 CHI  HZ I         840 59.54         5.3 0.24            113            249 195 
