 2017  730 0806 50.5 L   6.761 -73.139143.8  RSN  6 0.4 1.3LRSN                1
 GAP=139        1.14       6.1     5.2  9.0 -0.7305E+00  0.1304E+02 -0.7768E+01E
 Epicentro: LOS SANTOS - SANTANDER                                             3
 ACTION:UPD 17-08-30 15:38 OP:rebc STATUS:               ID:20170730080650 L   I
 OLDACT:UP  17-07-30 21:40 OP:ar   STATUS:               ID:20170730075743d    3
 OLDACT:DUP 17-07-30 21:37 OP:ar   STATUS:               ID:20170730075743d    3
 2017-07-30-0758-00M.COL___377                                                 6
 STAT SP IPHASW D HRMM SECON CODA AMPLIT PERI AZIMU VELO AIN AR TRES W  DIS CAZ7
 BAR2 EZ EP        8 7  9.85                             172    0.0310 19.2 195 
 BAR2 EZ ES        8 7 24.61                             172   -0.2810 19.2 195 
 BAR2 EZ I         8 7 25.36         6.1 0.38            174           19.2 195 
 BRR  HZ EP        8 7 11.90                             151    0.2910 74.0 301 
 BRR  HN ES        8 7 28.55                             151    0.4910 74.0 301 
 BRR  HZ I         8 7 38.09         4.2 0.20            150           74.0 301 
 PAM  EZ EP        8 7 12.76                             149    0.0710 80.3  37 
 PAM  EN ES        8 7 29.57                             149   -0.4210 80.3  37 
 RUS  HN ES        8 7 32.38                             145    0.5110 96.2 176 
 PTB  HZ EP        8 7 16.86                             132   -0.45 9  148 261 
 PTB  HN ES        8 7 37.42                             132   -0.80 9  148 261 
 PTB  HZ I         8 7 39.77         2.1 0.22            134            148 261 
 ZAR  HN ES        8 7 49.04                             122    0.57 8  206 293 
                                                                                
