 2012 1030 0039 35.9 L   6.782 -73.119142.0  RSN  5 0.3 2.0LRSN                1
 GAP=141        0.57       3.4     5.0  4.9 -0.2284E+01  0.6266E+00  0.2462E+01E
 Epicentro: LOS SANTOS - SANTANDER                                             3
 ACTION:UPD 12-11-22 17:06 OP:ep   STATUS:               ID:20121030003935 L   I
 2012-10-30-0037-49M.COL___202                                                 6
 STAT SP IPHASW D HRMM SECON CODA AMPLIT PERI AZIMU VELO AIN AR TRES W  DIS CAZ7
 BAR2 SZ EP        039 54.89                             171   -0.1710 22.2 199 
 BAR2 SZ ES   1    040 10.06                             171    0.06 7 22.2 199 
 BAR2 SZ I         040 10.89        14.4 0.36                          22.2 199 
 GIR2 SZ EP   1    039 55.18                             166   -0.02 7 33.8 346 
 GIR2 SZ ES   2    040  9.39                             166   -0.86 5 33.8 346 
 BRR  HZ EP        039 56.73                             151   -0.1310 74.8 299 
 BRR  HN ES   1    040 13.57                             151    0.37 7 74.8 299 
 BRR  HN I         040 14.53        39.0 0.16                          74.8 299 
 PAM  SZ EP        039 57.65                             150   -0.0510 77.1  37 
 PAM  SN ES        040 14.87                             150    0.1710 77.1  37 
 PAM  SN I         040 16.09        13.7 0.62                          77.1  37 
 RUS  HZ EP        039 59.34                             144    0.2110 98.4 178 
 RUS  HN ES   1    040 17.17                             144   -0.08 7 98.4 178 
                                                                                
