 2011  930 0727 16.6 L   6.754 -73.341114.5  RSN  5 0.4 2.0LRSN                1
 GAP=123        0.84       6.4     7.4  7.5 -0.7414E+01  0.1743E+01  0.3886E+01E
 Epicentro: ZAPATOCA - SANTANDER                                               3
 ACTION:UPD 12-07-13 16:01 OP:ep   STATUS:               ID:20110930072716 L   I
 2011-09-30-0724-10S.COL___168                                                 6
 STAT SP IPHASW D HRMM SECON CODA AMPLIT PERI AZIMU VELO AIN AR TRES W  DIS CAZ7
 BAR2 SZ EP   1    727 32.68                             167    0.11 7 25.1 135 
 BAR2 SZ ES   1    727 45.00                             167    0.01 7 25.1 135 
 BAR2 SZ I         727 46.57        89.2 0.26                          25.1 135 
 BRR  HZ EP   1    727 33.29                             152   -0.29 7 56.6 314 
 BRR  HN ES   1    727 46.98                             152    0.18 7 56.6 314 
 BRR  HZ I         727 49.75        15.9 0.11                          56.6 314 
 PAM  SZ EP   1    727 37.99                             137    0.91 7 96.0  48 
 PAM  SN ES   1    727 52.46                             137   -0.56 7 96.0  48 
 OCA  SZ EP   1    727 42.94                             121   -0.20 7  164   1 
 OCA  SZ I         728 11.62         9.6 0.20                           164   1 
 CHI  HZ EP   1    727 51.40                             111   -0.30 6  239 190 
                                                                                
