 2011 1230 0506 28.4 L   6.788 -73.162143.9  RSN  4 0.2 1.2LRSN                1
 GAP=235        0.51       7.7     8.5  6.1  0.5250E+02  0.6435E+01 -0.7062E+01E
 Epicentro: LOS SANTOS - SANTANDER                                             3
 ACTION:UPD 12-07-13 16:19 OP:ep   STATUS:               ID:20111230050628 L   I
 2011-12-30-0500-00M.COL___186                                                 6
 STAT SP IPHASW D HRMM SECON CODA AMPLIT PERI AZIMU VELO AIN AR TRES W  DIS CAZ7
 BAR2 SZ EP   1    5 6 47.67                             171   -0.14 7 21.7 186 
 BAR2 SZ ES   1    5 7  2.58                             171   -0.34 7 21.7 186 
 BAR2 SZ I         5 7  5.85         3.9 0.50                          21.7 186 
 BRR  HZ EP   1    5 6 49.52                             152    0.19 7 70.3 300 
 BRR  HE ES   1    5 7  5.96                             152    0.33 7 70.3 300 
 BRR  HZ I         5 7  7.76         4.2 0.15                          70.3 300 
 RUS  HN ES   1    5 7 10.40                             144    0.17 7 99.4 175 
 RUS  HZ I         5 7 11.72         1.6 0.51                          99.4 175 
 ZAR  HZ EP   1    5 7  0.64                             122    0.00 6  203 293 
 ZAR  HE ES   1    5 7 25.48                             122   -0.28 6  203 293 
 ZAR  HZ I         5 7 28.58         2.2 0.10                           203 293 
                                                                                
