 2017  930 0343  0.7 L   6.815 -73.116147.4  RSN 10 0.4 1.8LRSN                1
 GAP=216        0.95       4.5     4.9  5.5  0.1265E+02  0.7370E+01  0.7700E+01E
 Epicentro: LOS SANTOS - SANTANDER                                             3
 ACTION:UPD 17-10-05 19:17 OP:rebc STATUS:               ID:20170930034300 L   I
 OLDACT:UP  17-09-30 15:51 OP:edw  STATUS:               ID:20170930033736     3
 OLDACT:UP  17-09-30 15:50 OP:edw  STATUS:               ID:20170930033736     3
 OLDACT:REG 17-09-30 12:37 OP:edw  STATUS:               ID:20170930033736     3
 2017-09-30-0338-00M.COL___441                                                 6
 STAT SP IPHASW D HRMM SECON CODA AMPLIT PERI AZIMU VELO AIN AR TRES W  DIS CAZ7
 BAR2 EZ EP        343 20.51                             170   -0.0410 25.7 197 
 BAR2 EZ ES        343 35.72                             170   -0.3310 25.7 197 
 BAR2 EZ I         343 38.26        21.4 0.30            163           25.7 197 
 BRR  HZ IP     D  343 22.32                             152    0.1910 73.4 296 
 BRR  HN ES        343 39.31                             152    0.4610 73.4 296 
 BRR  HZ I         343 43.23        13.7 0.32            147           73.4 296 
 RUS  HZ EP        343 24.67                             144   -0.0210  102 178 
 RUS  HN ES        343 43.30                             144   -0.1210  102 178 
 RUS  HZ I         343 44.31         6.4 0.36            143            102 178 
 YPLC HZ EP        343 30.88                             127    0.30 9  177 153 
 YPLC HN ES        343 54.49                             127    0.59 9  177 153 
 YPLC HZ I         343 55.85         7.7 0.26            129            177 153 
 ZAR  HZ EP        343 33.70                             122    0.21 8  207 291 
 ZAR  HN ES        343 58.25                             122   -0.82 8  207 291 
 ZAR  HZ I         344  8.87         5.8 0.18            121            207 291 
 CHI  HZ EP        343 38.57                             117   -0.16 8  251 196 
 CHI  HN ES        344  7.96                             117   -0.45 8  251 196 
 CHI  HZ I         344 11.58         2.8 0.38            117            251 196 
 HEL  HN ES   4    344 11.01                             115   -2.11 0  276 256 
 URE  HN ES   4    344 11.37                             114   -3.05 0  286 291 
 GUY2CHZ EP   4    343 46.64                             112    1.87 0  305 235 
 GUY2CHN ES   4    344 17.94                             112   -1.23 0  305 235 
 GUY2CHZ I         344 30.69         2.7 0.42                           305 235 
 PTGC HZ EP        343 43.71                             112   -0.94 7  309 159 
 PTGC HE ES   4    344 16.61                             112   -2.33 0  309 159 
 CBOC HZ EP        343 48.39                             110    0.31 7  337 252 
 CBOC HN ES        344 25.69                             110    0.64 7  337 252 
 CBOC HZ I         344 37.30         0.9 0.28            110            337 252 
 PRA  HZ EP        343 54.54                             107   -0.07 6  395 210 
 PRA  HN ES        344 36.83                             107    0.15 6  395 210 
 PRA  HZ I         344 42.70         3.5 0.48            107            395 210 
 ORTC HE ES   4    344 39.18                             106    1.74 0  399 216 
                                                                                
