 2017  330 0422  0.3 L   6.823 -73.089145.3  RSN  9 0.3 1.7LRSN                1
 GAP=194        0.69       3.5     4.4  4.4  0.6238E+01  0.2151E+00  0.9590E+00E
 Epicentro: LOS SANTOS - SANTANDER                                             3
 ACTION:UPD 17-05-25 18:47 OP:jn   STATUS:               ID:20170330042200 L   I
 OLDACT:UP  17-03-30 15:08 OP:and  STATUS:               ID:20170330041742d    3
 OLDACT:UP  17-03-30 15:07 OP:and  STATUS:               ID:20170330041742d    3
 OLDACT:UP  17-03-30 15:07 OP:and  STATUS:               ID:20170330041742d    3
 OLDACT:UP  17-03-30 15:06 OP:and  STATUS:               ID:20170330041742d    3
 OLDACT:UP  17-03-30 15:06 OP:and  STATUS:               ID:20170330041742d    3
 OLDACT:UP  17-03-30 15:05 OP:and  STATUS:               ID:20170330041742d    3
 OLDACT:UP  17-03-30 15:05 OP:and  STATUS:               ID:20170330041742d    3
 OLDACT:DUP 17-03-30 15:01 OP:and  STATUS:               ID:20170330041742d    3
 2017-03-30-0418-00M.COL___350                                                 6
 STAT SP IPHASW D HRMM SECON CODA AMPLIT PERI AZIMU VELO AIN AR TRES W  DIS CAZ7
 BAR2 EZ EP        422 19.91                             170   -0.0610 27.5 202 
 BAR2 EZ ES        422 35.12                             170   -0.1910 27.5 202 
 BRR  HZ EP        422 21.70                             151    0.0510 75.6 295 
 BRR  HN ES        422 38.44                             151    0.1310 75.6 295 
 BRR  HZ I         422 43.16         5.3 0.14            148           75.6 295 
 RUS  HZ EP        422 24.21                             143    0.0410  103 180 
 RUS  HN ES        422 43.20                             143    0.4010  103 180 
 RUS  HZ I         422 44.45         9.2 0.38            143            103 180 
 PTB  HZ EP   9    422 26.72                             131   -1.12 0  154 258 
 PTB  HN ES        422 47.71                             131   -0.49 9  154 258 
 PTB  HZ I         422 50.47         5.0 0.16            129            154 258 
 SPBC HZ EP        422 29.21                             128   -0.12 9  169 220 
 SPBC HN ES        422 51.45                             128   -0.53 9  169 220 
 SPBC HZ I         422 57.89         7.4 0.38            127            169 220 
 ZAR  HZ EP   4    422 35.55                             122    2.33 0  209 291 
 ZAR  HN ES        422 59.09                             122    0.20 8  209 291 
 ZAR  HZ I         423  5.02         4.1 0.37            121            209 291 
 ROSC BZ EP   4    422 39.56                             116    0.57 0  258 212 
 PTGC HZ EP   9    422 43.21                             111   -0.95 0  309 160 
 PTGC HN ES        423 17.14                             112   -0.28 7  309 160 
 PRA  HZ EP        422 54.30                             106   -0.13 6  397 210 
 PRA  HN ES   2    423 37.43                             106    0.78 3  397 210 
 PRA  HZ I         423 39.28         1.8 0.26            106            397 210 
 SJC  HZ EP   9    422 54.14                             105   -1.86 0  411 326 
 SJC  HN ES        423 37.09                             106   -0.49 6  411 326 
 SJC  HZ I         423 38.68         1.5 0.54            106            411 326 
                                                                                
