 2015  930 0450  5.3 L   6.484 -73.563111.6  RSN 15 0.3 2.0LRSN                1
 GAP= 71        0.68       2.0     1.8  4.1 -0.7943E+00  0.1884E+01 -0.7938E+00E
 Epicentro: SANTA HELENA DEL OPON - SANTANDER                                  3
 ACTION:UPD 15-10-28 16:29 OP:cam  STATUS:               ID:20150930045005 L   I
 OLDACT:REG 15-09-30 13:25 OP:spq  STATUS:               ID:20150930044749     3
 2015-09-30-0447-49M.COL___352                                                 6
 STAT SP IPHASW D HRMM SECON CODA AMPLIT PERI AZIMU VELO AIN AR TRES W  DIS CAZ7
 BAR2 EZ EP     D  450 21.66                             157    0.0910 43.7  74 
 BAR2 EZ ES   1    450 34.29                             157    0.01 7 43.7  74 
 BAR2 EZ I         450 35.42        22.5 0.24            129           43.7  74 
 BRR  HZ EP        450 22.46                             145   -0.3710 70.8 347 
 BRR  HN ES        450 36.40                             145   -0.1110 70.8 347 
 BRR  HZ I         450 37.46        20.3 0.10            123           70.8 347 
 RUS  HZ EP   1    450 24.35                             141   -0.16 7 84.3 141 
 RUS  HE ES   1    450 39.55                             141    0.04 7 84.3 141 
 RUS  HZ I         450 40.92         6.9 0.26            113           84.3 141 
 PTB  HZ IP   4 C  450 23.74                             135   -1.32 0 99.0 274 
 PTB  HE ES   4    450 38.47                             135   -2.02 0 99.0 274 
 PTB  HZ I         450 39.09        55.0 0.10            115           99.0 274 
 SPBC HE ES   1    450 42.66                             133    0.59 7  108 212 
 SPBC HZ I         450 47.12        25.4 0.12            110            108 212 
 PAM  EZ EP        450 29.03                             126    0.0510  134  45 
 PAM  EE ES   2    450 47.34                             126   -0.12 5  134  45 
 PAM  EZ I         450 50.27         9.4 0.22            103            134  45 
 NOR  HZ EP        450 32.93                             118    0.11 9  177 235 
 NOR  HN ES        450 53.75                             118   -0.56 9  177 235 
 NOR  HZ I         450 56.14        12.6 0.08            100            177 235 
 ZAR  HZ EP     C  450 32.98                             117   -0.28 9  181 308 
 ZAR  HN ES        450 55.75                             117    0.67 9  181 308 
 ZAR  HZ I         450 59.03        19.0 0.28            100            181 308 
 TAM  HZ EP        450 35.14                             115    0.23 9  196  91 
 TAM  HN ES   1    450 58.21                             115    0.19 6  196  91 
 TAM  HZ I         451  6.95        10.4 0.40             98            196  91 
 OCA  HZ EP        450 34.73                             115   -0.30 9  196   8 
 OCA  HN ES        450 58.06                             115   -0.18 9  196   8 
 OCA  HZ I         451  6.58        25.9 0.30             98            196   8 
 CHI  HZ EP   4    450 37.71                             114    1.23 0  206 185 
 CHI  HN ES   4    451  2.31                             114    1.49 0  206 185 
 HEL  HZ EP        450 37.84                             112   -0.16 8  220 262 
 HEL  HE ES        451  3.53                             112    0.01 8  220 262 
 HEL  HZ I         451 11.93         6.3 0.28             98            220 262 
 GUY2CHZ EP   4    450 42.01                             110    1.20 0  243 235 
 GUY2CHN ES   4    451 10.42                             110    1.90 0  243 235 
 GUY2CHZ I         451 15.04         7.1 0.48                           243 235 
 SML  HZ EP   1    450 42.71                             108    0.32 6  262 348 
 SML  HN ES   1    451 11.79                             108    0.45 6  262 348 
 SML  HZ I         451 17.00         9.8 0.36             96            262 348 
 CBOC HZ EP   1    450 44.99                             106    0.35 6  280 256 
 CBOC HN ES        451 15.33                             106   -0.00 7  280 256 
 CBOC HZ I         451 18.79         2.4 0.42             95            280 256 
 ORTC HN ES   4    451 30.67                             102    2.83 0  340 213 
 ORTC HZ I         451 38.81         1.9 0.50             94            340 213 
                                                                                
