 2017 1030 0053 15.7 L   6.770 -73.148139.8  RSN  8 0.4 1.2LRSN                1
 GAP=138        0.99       4.2     4.2  6.7 -0.7344E+00  0.7487E+01 -0.1981E+01E
 Epicentro: LOS SANTOS - SANTANDER                                             3
 ACTION:UPD 17-11-07 19:39 OP:rebc STATUS:               ID:20171030005315 L   I
 OLDACT:REG 17-10-30 12:16 OP:dhb  STATUS:               ID:20171030003929     3
 2017-10-30-0048-00M.COL___444                                                 6
 STAT SP IPHASW D HRMM SECON CODA AMPLIT PERI AZIMU VELO AIN AR TRES W  DIS CAZ7
 BAR2 EZ IP     D  053 34.64                             171    0.1210 20.1 191 
 BAR2 EZ ES        053 48.92                             171   -0.3010 20.1 191 
 BAR2 EZ I         053 51.36         5.2 0.38            175           20.1 191 
 BRR  HZ EP        053 36.44                             151    0.1810 72.6 301 
 BRR  HE ES        053 52.33                             151    0.0110 72.6 301 
 BRR  HZ I         053 54.31         5.3 0.32            151           72.6 301 
 PAM  EZ IP     C  053 37.59                             149    0.1610 80.1  38 
 PAM  EE ES        053 54.11                             149   -0.2810 80.1  38 
 PAM  EZ I         054  0.13         2.0 0.30            150           80.1  38 
 RUS  HZ EP        053 38.69                             143    0.0810 97.3 176 
 RUS  HN ES        053 57.07                             143    0.5810 97.3 176 
 RUS  HZ I         053 58.20         1.9 0.24            148           97.3 176 
 PTB  HZ EP        053 41.50                             131   -0.59 9  147 260 
 PTB  HN ES        054  2.36                             131   -0.32 9  147 260 
 PTB  HZ I         054  5.68         1.3 0.36            133            147 260 
 SPBC HN ES        054  4.90                             128   -0.24 9  160 220 
 SPBC HZ I         054  5.13         3.4 0.20            132            160 220 
 ZAR  HZ EP        053 47.53                             121   -0.32 9  205 293 
 ZAR  HE ES        054 13.88                             121    0.94 9  205 293 
 ZAR  HZ I         054 18.51         2.2 0.46            123            205 293 
 GUY2CHN ES   4    054 36.88                             111    4.48 0  299 235 
 GUY2CHZ I         054 45.51         0.7 0.44                           299 235 
                                                                                
