 2017 1130 0516 26.8 L   6.822 -73.162141.8  RSN  8 0.3 1.5LRSN                1
 GAP=110        0.70       3.1     3.0  5.6 -0.6447E+00  0.4033E+01  0.1628E+01E
 Epicentro: LOS SANTOS - SANTANDER                                             3
 ACTION:UPD 17-12-12 20:02 OP:rebc STATUS:               ID:20171130051626 L   I
 OLDACT:DUP 17-11-30 16:06 OP:dhb  STATUS:               ID:20171130050738d    3
 OLDACT:REG 17-11-30 12:38 OP:dhb  STATUS:               ID:20171130050737     3
 2017-11-30-0508-00M.COL___456                                                 6
 STAT SP IPHASW D HRMM SECON CODA AMPLIT PERI AZIMU VELO AIN AR TRES W  DIS CAZ7
 BAR2 EZ EP     D  516 46.00                             169   -0.0110 25.5 185 
 BAR2 EZ I         517  1.93         8.0 0.36            171           25.5 185 
 PAM  EZ IP     C  516 48.97                             150    0.4110 76.7  42 
 PAM  EN ES        517  5.40                             150   -0.1310 76.7  42 
 PAM  EZ I         517  8.58         3.5 0.56            151           76.7  42 
 RUS  HZ EP        516 50.28                             142   -0.0810  103 175 
 RUS  HN ES        517  8.56                             142   -0.1810  103 175 
 RUS  HZ I         517  9.57         3.8 0.28            145            103 175 
 PTB  HZ EP        516 52.89                             131   -0.45 9  147 258 
 PTB  HN ES        517 14.01                             131   -0.03 9  147 258 
 PTB  HZ I         517 15.44         2.6 0.30            130            147 258 
 SPBC HZ EP        516 54.81                             128   -0.27 9  164 218 
 SPBC HN ES        517 17.34                             128    0.20 9  164 218 
 SPBC HZ I         517 24.15         4.2 0.36            128            164 218 
 YPLC HZ EP        516 56.45                             125   -0.17 9  180 151 
 YPLC HE ES        517 20.21                             125    0.34 9  180 151 
 YPLC HZ I         517 21.24         5.1 0.30            127            180 151 
 ZAR  HN ES   3    517 25.14                             122    1.51 2  201 292 
 ZAR  HZ I         517 29.80         4.4 0.18            121            201 292 
 HEL  HZ EP        517  7.12                             114    0.42 8  271 255 
 HEL  HE ES   4    517 43.61                             114    5.80 0  271 255 
 HEL  HZ I         517 46.47         1.7 0.58            114            271 255 
                                                                                
