 2014  930 0056 14.1 L   6.766 -73.200141.3  RSN  6 0.5 1.5LRSN                1
 GAP=195        1.19       7.0     8.1  8.0  0.2079E+02  0.5153E+01 -0.5898E+01E
 Epicentro: ZAPATOCA - SANTANDER                                               3
 ACTION:UPD 14-10-03 23:09 OP:nd   STATUS:               ID:20140930005614 L   I
 OLDACT:DUP 14-09-30 15:12 OP:stll STATUS:               ID:20140930004819d    3
 2014-09-30-0048-18M.COL___292                                                 6
 STAT SP IPHASW D HRMM SECON CODA AMPLIT PERI AZIMU VELO AIN AR TRES W  DIS CAZ7
 BAR2 SZ EP        056 33.29                             172    0.2010 19.3 174 
 BAR2 SZ I         056 33.73         8.2 0.18            168           19.3 174 
 BAR2 SZ ES        056 47.79                             172   -0.1310 19.3 174 
 BRR  HZ EP        056 35.23                             153    0.6710 67.9 304 
 BRR  HN ES        056 50.89                             153    0.3610 67.9 304 
 RUS  HZ EP        056 37.26                             144    0.0910 97.5 172 
 RUS  HN ES        056 54.65                             144   -0.5210 97.5 172 
 RUS  HZ I         056 56.68         3.1 0.30            142           97.5 172 
 PTB  HZ EP        056 40.01                             132   -0.07 9  141 260 
 PTB  HN ES        056 59.96                             132   -0.40 9  141 260 
 PTB  HZ I         057  5.81         6.3 0.12            130            141 260 
 SPBC HZ EP        056 42.11                             129    0.51 9  156 218 
 SML  HZ EP        056 49.49                             116   -1.07 8  245 337 
                                                                                
