 2016  530 0612 59.1 L   6.764 -73.147147.9  RSN  7 0.4 1.3LRSN                1
 GAP=138        1.01       4.6     5.2  7.1 -0.7088E+01  0.7119E+01  0.7195E+00E
 Epicentro: LOS SANTOS - SANTANDER                                             3
 ACTION:UPD 16-08-18 17:50 OP:cam  STATUS:               ID:20160530061259 L   I
 OLDACT:REG 16-05-30 13:19 OP:edw  STATUS:               ID:20160530060744     3
 2016-05-30-0607-44M.COL___304                                                 6
 STAT SP IPHASW D HRMM SECON CODA AMPLIT PERI AZIMU VELO AIN AR TRES W  DIS CAZ7
 BAR2 EZ EP        613 19.11                             172    0.1710 19.3 192 
 BAR2 EZ ES        613 34.00                             172   -0.3910 19.3 192 
 BAR2 EZ I         613 36.99         4.8 0.28            170           19.3 192 
 BRR  HZ EP        613 20.67                             152    0.0610 73.0 301 
 BRR  HN ES        613 38.23                             152    0.8610 73.0 301 
 BRR  HZ I         613 43.67         2.9 0.16            151           73.0 301 
 PAM  EZ EP        613 21.72                             150   -0.0510 80.6  38 
 PAM  EN ES        613 39.40                             150   -0.0210 80.6  38 
 PAM  EZ I         613 41.72         3.1 0.30            156           80.6  38 
 RUS  HZ EP   2    613 23.05                             145    0.24 5 96.6 176 
 RUS  HN ES        613 41.14                             145   -0.1410 96.6 176 
 RUS  HZ I         613 43.22         2.3 0.32            149           96.6 176 
 PTB  HZ EP        613 25.87                             133   -0.32 9  147 260 
 PTB  HN ES        613 46.57                             133   -0.72 9  147 260 
 PTB  HZ I         613 54.24         2.9 0.56            133            147 260 
 SPBC HZ EP        613 27.82                             130    0.33 9  160 220 
 SPBC HN ES        613 49.90                             130    0.29 9  160 220 
 SPBC HZ I         613 57.07         6.3 0.10            132            160 220 
 OCA  HN ES   2    613 49.75                             129   -0.73 5  164 353 
                                                                                
