 2010  930 0124 49.1 L   6.804 -73.114140.3  RSN 15 0.3 2.2LRSN                1
 GAP=105        0.68       2.5     4.1  4.6 -0.2784E+01  0.6108E+00  0.1116E+01E
 Epicentro: LOS SANTOS - SANTANDER                                             3
 ACTION:UP  11-02-18 11:06 OP:tino STATUS:               ID:20100930012449 L   I
 2010-09-30-0121-53S.COL___125                                                 6
 STAT SP IPHASW D HRMM SECON CODA AMPLIT PERI AZIMU VELO SNR AR TRES W  DIS CAZ7
 BTL  SZ EP   1    125  8.50                             171     0.4 7   21 307 
 BAR2 SZ IP        125  8.07                             170    -0.110   25 198 
 BAR2 SZ ES   1    125 22.58                             170    -0.4 7   25 198 
 BAR2 SZ I         125 24.37        35.9 0.16                            25 198 
 GIR2 SZ EP   1    125  8.14                             167     0.0 7   32 344 
 BRR  HZ IP     C  125  9.92                             150     0.110   74 297 
 BRR  HZ I         125 11.49        39.9 0.10                            74 297 
 BRR  HE ES   1    125 26.21                             150     0.2 7   74 297 
 RUS  HZ EP        125 12.10                             143    -0.310  101 178 
 RUS  HN ES   1    125 30.66                             143     0.2 7  101 178 
 RUS  HZ I         125 32.47        15.1 0.31                           101 178 
 GUE  SZ EP        125 13.16                             138    -0.110  115  10 
 GRA  SZ EP   1    125 13.92                             136     0.1 7  124  16 
 GRA  SZ ES   1    125 33.01                             136     0.0 7  124  16 
 GRA  SZ I         125 35.52        22.0 0.60                           124  16 
 OCA  SZ EP   1    125 17.12                             128     0.1 7  160 352 
 OCA  SZ I         125 41.47        18.4 0.32                           160 352 
 YOP  SZ EP   1    125 18.89                             125     0.2 7  178 154 
 YOP  SN ES   2    125 42.51                             125     0.8 4  178 154 
 NOR  SZ EP   1    125 24.77                             117    -0.1 6  238 235 
 NOR  SN ES   1    125 52.26                             117    -0.5 6  238 235 
 CHI  HZ EP   1    125 26.47                             116    -0.2 6  250 196 
 CHI  HN ES   1    125 55.93                             116     0.0 6  250 196 
 CHI  HZ I         126  3.57         7.1 0.30                           250 196 
 HEL  HZ EP   1    125 30.25                             113     0.8 6  276 256 
 HEL  HZ I         126  6.55         9.0 0.35                           276 256 
 TOL  SZ EP   2    125 38.20                             108     0.7 3  346 225 
 SDV  BZ EP   1    125 37.79                             107    -0.8 5  357  50 
 SDV  BZ I         125 38.59         6.2 0.34                           357  50 
 PRA  HZ EP   1    125 42.63                             105    -0.1 4  394 210 
 PRA  HE ES   1    126 24.36                             105    -0.1 4  394 210 
                                                                                
