 2011  130 0617  1.1 L   6.818 -73.060143.0  RSN  4 0.1 1.2LRSN                1
 GAP=168        0.37       3.5    17.9  5.2 -0.4719E+02  0.1551E+01  0.4131E+00E
 Epicentro: LOS SANTOS - SANTANDER                                             3
 ACTION:UP  11-02-08 08:43 OP:pat  STATUS:               ID:20110130061701 L   I
 2011-01-30-0613-35S.COL___138                                                 6
 STAT SP IPHASW D HRMM SECON CODA AMPLIT PERI AZIMU VELO SNR AR TRES W  DIS CAZ7
 BAR2 SZ EP        617 20.64                             168     0.110   28 209 
 BAR2 SZ I         617 21.24         5.6 0.38                            28 209 
 BAR2 SZ ES   2    617 35.53                             168    -0.2 5   28 209 
 RUS  HZ EP        617 24.75                             143     0.010  102 181 
 RUS  HE ES   1    617 43.17                             143     0.0 7  102 181 
 RUS  HZ I         617 44.22         1.9 0.28                           102 181 
 GRA  SZ EP   2    617 25.43                             137    -0.3 5  121  13 
 GRA  SZ ES   1    617 45.08                             137     0.1 7  121  13 
 GRA  SZ I         617 46.20         2.5 0.44                           121  13 
 CHI  HZ EP   3    617 39.27                             116     0.1 2  253 197 
                                                                                
