 2017  330 0952 53.3 L   6.792 -73.160150.9  RSN  6 0.3 1.4LRSN                1
 GAP=135        0.49       3.8     4.4  6.4  0.3629E+01  0.7368E+01 -0.5611E+01E
 Epicentro: LOS SANTOS - SANTANDER                                             3
 ACTION:UPD 17-05-25 18:47 OP:jn   STATUS:               ID:20170330095253 L   I
 OLDACT:REG 17-03-30 12:48 OP:and  STATUS:               ID:20170330094740     3
 2017-03-30-0948-00M.COL___353                                                 6
 STAT SP IPHASW D HRMM SECON CODA AMPLIT PERI AZIMU VELO AIN AR TRES W  DIS CAZ7
 BAR2 EZ EP   2    953 13.46                             171   -0.08 5 22.2 186 
 BAR2 EZ ES   2    953 29.14                             171   -0.18 5 22.2 186 
 BAR2 EZ I         953 29.88         6.2 0.28            173           22.2 186 
 BRR  HZ EP   2    953 15.28                             154    0.31 5 70.2 300 
 BRR  HN ES   2    953 32.51                             154    0.65 5 70.2 300 
 BRR  HZ I         953 35.39         8.1 0.30            151           70.2 300 
 PAM  EZ EP   2    953 16.49                             151    0.31 5 79.1  40 
 PAM  EN ES   2    953 33.48                             151   -0.53 5 79.1  40 
 PAM  EZ I         953 36.07         2.9 0.50            153           79.1  40 
 RUS  HZ EP   2    953 17.42                             145   -0.10 5 99.8 175 
 RUS  HN ES        953 36.46                             145    0.0710 99.8 175 
 RUS  HZ I         953 38.26         2.2 0.42            150           99.8 175 
 PTB  HZ EP   2    953 20.13                             133   -0.42 5  146 259 
 PTB  HN ES   2    953 41.48                             133   -0.31 5  146 259 
 PTB  HZ I         953 43.23         3.9 0.09            134            146 259 
 ZAR  HZ EP   2    953 26.23                             124    0.25 4  203 293 
 ZAR  HE ES   2    953 51.19                             124   -0.27 4  203 293 
 ZAR  HZ I         953 59.18         3.0 0.14            124            203 293 
                                                                                
