 2013  630 0251  9.6 L   6.775 -73.135147.3  RSN  7 0.3 1.2LRSN                1
 GAP=139        0.84       4.4     4.4  6.3 -0.3565E+00  0.6394E+01 -0.1501E+01E
 Epicentro: LOS SANTOS - SANTANDER                                             3
 ACTION:UPD 14-01-08 09:58 OP:ep   STATUS:               ID:20130630025109 L   I
 OLDACT:REG 13-06-30 07:32 OP:jn   STATUS:               ID:20130630024959     3
 2013-06-30-0249-59M.COL___267                                                 6
 STAT SP IPHASW D HRMM SECON CODA AMPLIT PERI AZIMU VELO AIN AR TRES W  DIS CAZ7
 BAR2 SZ EP        251 29.50                             172    0.1410 20.8 195 
 BAR2 SZ ES        251 45.01                             172    0.2310 20.8 195 
 BAR2 SZ I         251 47.54         3.3 0.18            170           20.8 195 
 GIR2 SZ EP        251 29.42                             166   -0.1110 34.3 349 
 BRR  HZ EP        251 31.35                             152    0.3110 73.6 300 
 BRR  HN ES   1    251 48.20                             152    0.43 7 73.6 300 
 PAM  SZ EP        251 32.34                             151    0.2910 78.8  38 
 PAM  SN ES        251 49.05                             151   -0.5310 78.8  38 
 PAM  SZ I         251 50.58         3.0 0.16            155           78.8  38 
 RUS  HZ EP        251 33.57                             145    0.2810 97.7 177 
 RUS  HN ES        251 51.55                             145   -0.2210 97.7 177 
 RUS  HZ I         251 54.77         1.5 0.28            146           97.7 177 
 PTB  HZ EP        251 36.13                             132   -0.61 9  148 260 
 PTB  HN ES   1    251 57.67                             132   -0.25 7  148 260 
 PTB  HZ I         252  0.77         2.4 0.16            134            148 260 
 ZAR  HE ES   1    252  7.96                             122    0.04 6  206 293 
                                                                                
