 2014 1030 0437 24.0 L   6.773 -73.134143.5  RSN  9 0.4 1.6LRSN                1
 GAP=139        1.09       4.3     4.5  6.5 -0.4310E+01  0.6691E+01  0.7269E+01E
 Epicentro: LOS SANTOS - SANTANDER                                             3
 ACTION:UPD 14-11-29 23:58 OP:nd   STATUS:               ID:20141030043724 L   I
 OLDACT:DUP 14-10-31 21:01 OP:fm   STATUS:               ID:20141030042741d    3
 2014-10-30-0427-40M.COL___277                                                 6
 STAT SP IPHASW D HRMM SECON CODA AMPLIT PERI AZIMU VELO AIN AR TRES W  DIS CAZ7
 BAR2 SZ EP        437 43.38                             171    0.1310 20.7 195 
 BAR2 SZ ES        437 58.36                             171    0.0510 20.7 195 
 BAR2 SZ I         438  0.12         4.2 0.38            170           20.7 195 
 BRR  HZ EP        437 45.10                             151    0.1010 73.8 300 
 BRR  HN ES        438  2.20                             151    0.7810 73.8 300 
 BRR  HZ I         438  6.63         6.0 0.12            151           73.8 300 
 PAM  SZ EP        437 46.13                             150    0.1110 79.0  37 
 PAM  SN ES        438  2.74                             150   -0.4910 79.0  37 
 PAM  SZ I         438  5.19        11.6 0.52            154           79.0  37 
 RUS  HZ EP        437 47.35                             144    0.1010 97.5 177 
 RUS  HN ES        438  5.29                             144   -0.1410 97.5 177 
 RUS  HZ I         438  8.03         4.8 0.26            146           97.5 177 
 PTB  HZ EP        437 49.91                             131   -0.88 9  148 260 
 PTB  HN ES        438 11.25                             131   -0.48 9  148 260 
 PTB  HZ I         438 13.75         4.4 0.32            132            148 260 
 SPBC HZ EP        437 53.04                             129    0.91 9  162 220 
 SPBC HE ES        438 13.77                             129   -0.34 9  162 220 
 SPBC HZ I         438 17.20         9.8 0.24            130            162 220 
 CHI  HZ EP        438  0.94                             117   -0.30 8  246 196 
 CHI  HN ES        438 30.57                             117    0.24 8  246 196 
 CHI  HZ I         438 35.06         1.9 0.48            119            246 196 
 HEL  HN ES        438 35.38                             114   -0.04 8  273 256 
 HEL  HZ I         438 44.02         1.8 0.52            116            273 256 
 GUY2CHZ EP        438  7.47                             112    0.10 7  300 235 
 GUY2CHN ES        438 41.38                             112    0.14 7  300 235 
 GUY2CHZ I         438 49.88         2.2 0.38                           300 235 
                                                                                
