 2014 1030 0736 38.3 L   6.807 -73.152145.7  RSN 12 0.4 2.0LRSN                1
 GAP=135        1.29       3.9     5.5  6.9 -0.6505E+01  0.6933E+01  0.4916E+01E
 Epicentro: LOS SANTOS - SANTANDER                                             3
 ACTION:UPD 14-11-29 23:58 OP:nd   STATUS:               ID:20141030072735 L   I
 OLDACT:UPD 14-11-02 11:03 OP:FJMB STATUS:               ID:20141030072735 L   3
 2014-10-30-0727-35M.COL___271                                                 6
 STAT SP IPHASW D HRMM SECON CODA AMPLIT PERI AZIMU VELO AIN AR TRES W  DIS CAZ7
 BAR2 SZ EP        736 57.97                             170   -0.0010 24.0 188 
 BAR2 SZ ES   1    737 13.20                             170   -0.09 7 24.0 188 
 BAR2 SZ I         737 15.84        16.4 0.52            168           24.0 188 
 BRR  HZ EP        736 59.82                             153    0.4010 70.2 298 
 BRR  HN ES        737 16.51                             153    0.6410 70.2 298 
 BRR  HZ I         737 20.81        10.1 0.12            151           70.2 298 
 PAM  SZ EP        737  0.69                             152    0.1510 77.2  40 
 PAM  SN ES        737 17.99                             152    0.1410 77.2  40 
 PAM  SZ I         737 20.40        16.4 0.62            156           77.2  40 
 RUS  HZ EP        737  1.94                             144   -0.2010  101 176 
 RUS  HE ES        737 20.77                             144    0.0610  101 176 
 RUS  HZ I         737 21.64         9.5 0.22            145            101 176 
 PTB  HZ EP        737  4.81                             132   -0.44 9  147 258 
 PTB  HE ES        737 25.62                             132   -0.62 9  147 258 
 PTB  HZ I         737 31.84        12.9 0.38            132            147 258 
 OCA  HZ EP        737  6.94                             130    0.38 9  159 353 
 OCA  HN ES        737 27.90                             130   -0.67 9  159 353 
 OCA  HZ I         737 33.66        13.0 0.18            133            159 353 
 SPBC HZ EP        737  6.95                             129    0.10 9  163 219 
 SPBC HN ES        737 29.04                             129   -0.04 9  163 219 
 SPBC HZ I         737 32.93        18.8 0.28            130            163 219 
 CHI  HZ EP        737 16.11                             117    0.02 8  249 195 
 CHI  HN ES        737 45.05                             117   -0.49 8  249 195 
 CHI  HZ I         737 53.60         3.3 0.46            119            249 195 
 ROSC BZ EP   9    737 17.76                             117    1.27 0  253 211 
 ROSC BN ES        737 49.73                                    2.21 8  253 211 
 ROSC BZ I         737 52.73         7.1 0.35            118            253 211 
 HEL  HZ EP        737 18.16                             115   -0.33 8  272 256 
 HEL  HN ES        737 50.07                             115    0.26 8  272 256 
 HEL  HZ I         737 56.19         4.6 0.28            116            272 256 
 TOL  SZ EP        737 26.94                             110    0.34 7  344 224 
 TOL  SE ES        738  4.85                             110    0.61 7  344 224 
 TOL  SZ I         738 10.12         9.2 0.30            111            344 224 
 PRA  HZ EP        737 31.70                             107   -0.19 6  392 209 
 PRA  HE ES        738 13.61                             107   -0.06 6  392 209 
 PRA  HZ I         738 20.67         3.4 0.58            108            392 209 
                                                                                
