 2017  830 0717 35.1 L   6.161 -73.424130.0  RSN  9 0.5 1.4LRSN                1
 GAP= 97        1.14       3.9     4.6  8.2  0.5461E+01  0.1753E+02  0.9460E+01E
 Epicentro: SUAITA - SANTANDER                                                 3
 ACTION:UPD 17-09-04 20:26 OP:rebc STATUS:               ID:20170830071735 L   I
 OLDACT:UP  17-08-30 15:33 OP:dani STATUS:               ID:20170830070641     3
 OLDACT:UP  17-08-30 15:32 OP:dani STATUS:               ID:20170830070641     3
 OLDACT:UP  17-08-30 15:32 OP:dani STATUS:               ID:20170830070641     3
 OLDACT:UP  17-08-30 15:31 OP:dani STATUS:               ID:20170830070641     3
 OLDACT:REG 17-08-30 12:49 OP:dani STATUS:               ID:20170830070641     3
 2017-08-30-0707-00M.COL___393                                                 6
 STAT SP IPHASW D HRMM SECON CODA AMPLIT PERI AZIMU VELO AIN AR TRES W  DIS CAZ7
 RUS  HN ES        718  9.39                             159    0.5810 47.9 128 
 BAR2 EZ EP        717 53.51                             156   -0.4710 54.7  29 
 BAR2 EZ ES        718  8.56                             156   -0.1510 54.7  29 
 BAR2 EZ I         718  9.73         7.2 0.52            162           54.7  29 
 BRR  HZ EP        717 57.00                             138   -0.3510  109 343 
 BRR  HE ES        718 14.82                             138    0.1110  109 343 
 BRR  HZ I         718 15.69         3.7 0.14            141            109 343 
 YPLC HZ EP        718  0.20                             129   -0.26 9  143 126 
 YPLC HN ES        718 20.60                             129    0.35 9  143 126 
 YPLC HZ I         718 22.47         8.0 0.32            133            143 126 
 NOR  HZ EP        718  2.95                             124   -0.44 9  173 248 
 NOR  HN ES        718 25.52                             124    0.06 9  173 248 
 NOR  HZ I         718 29.38         2.4 0.29            124            173 248 
 CHI  HZ EP        718  4.21                             124    0.40 9  173 191 
 CHI  HN ES        718 25.45                             124   -0.77 9  173 191 
 CHI  HZ I         718 29.95         1.8 0.27            125            173 191 
 ZAR  HN ES        718 33.51                             117    0.04 8  216 313 
 HEL  HZ EP        718 11.24                             115    1.07 8  233 271 
 HEL  HN ES   4    718 41.39                             115    3.85 0  233 271 
 HEL  HZ I         718 44.52         1.9 0.29            117            233 271 
 GUY2CHZ EP   3    718 12.29                             115    1.36 2  239 244 
 GUY2CHN ES   4    718 42.13                             115    3.24 0  239 244 
 GUY2CHZ I         718 45.37         1.5 0.28                           239 244 
                                                                                
