 2011  530 0310 44.6 L   6.781 -73.116144.7  RSN 10 0.2 2.6LRSN                1
 GAP=141        0.51       2.2     3.5  3.7 -0.4117E+01  0.2787E+01  0.3969E+00E
 Epicentro: LOS SANTOS - SANTANDER                                             3
 ACTION:UP  11-06-29 08:57 OP:tino STATUS:               ID:20110530031044 L   I
 2011-05-30-0307-31S.COL___113                                                 6
 STAT SP IPHASW D HRMM SECON CODA AMPLIT PERI AZIMU VELO SNR AR TRES W  DIS CAZ7
 BAR2 SZ EP   1    311  3.97                             171    -0.1 8   22 199 
 BAR2 SZ ES   1    311 18.97                             171    -0.3 8   22 199 
 BAR2 SZ I         311 20.28        99.3 0.17                            22 199 
 BRR  HZ EP   1    311  5.82                             151     0.0 8   75 299 
 BRR  HN ES   1    311 22.87                             151     0.4 8   75 299 
 BRR  HZ I         311 24.00        74.8 0.15                            75 299 
 PAM  SZ EP   1    311  6.99                             151     0.3 8   77  37 
 PAM  SN ES   1    311 23.83                             151    -0.1 8   77  37 
 PAM  SZ I         311 25.88        31.6 0.36                            77  37 
 RUS  HZ EP   1    311  8.26                             144     0.2 8   98 178 
 RUS  HN ES   1    311 26.39                             144     0.0 8   98 178 
 RUS  HZ I         311 27.59        58.4 0.24                            98 178 
 BRI  SZ EP   1    311  8.59                             141     0.1 8  109  19 
 BRI  SZ ES   1    311 26.98                             141    -0.1 8  109  19 
 BRI  SZ I         311 33.55        61.7 0.42                           109  19 
 GRA  SZ IP        311  9.79                             136     0.010  127  16 
 GRA  SZ ES   1    311 29.52                             136     0.0 7  127  16 
 GRA  SZ I         311 30.77        66.3 0.28                           127  16 
 OCA  SZ EP   1    311 12.61                             129    -0.4 7  163 352 
 OCA  SZ ES   1    311 35.21                             129     0.0 7  163 352 
 OCA  SZ I         311 39.31        58.8 0.28                           163 352 
 NOR  SZ EP   1    311 20.54                             118     0.1 6  236 235 
 NOR  SN ES   1    311 47.99                             118    -0.4 6  236 235 
 RREF HN ES   1    312  6.96                             111     0.1 5  323 230 
 RREF HZ I         312 15.94        24.3 0.28                           323 230 
 PRA  HZ EP   1    311 37.94                             106    -0.1 5  392 210 
 PRA  HE ES   1    312 19.90                             106     0.1 5  392 210 
                                                                                
