 2013  630 0410 29.7 L   6.788 -73.145144.0  RSN 12 0.5 1.9LRSN                1
 GAP=137        1.12       3.7     4.8  7.0  0.1231E+01  0.9481E+01  0.4333E+01E
 Epicentro: LOS SANTOS - SANTANDER                                             3
 ACTION:UPD 14-01-08 09:58 OP:ep   STATUS:               ID:20130630041029 L   I
 OLDACT:REG 13-06-30 07:35 OP:jn   STATUS:               ID:20130630040959     3
 2013-06-30-0409-59M.COL___266                                                 6
 STAT SP IPHASW D HRMM SECON CODA AMPLIT PERI AZIMU VELO AIN AR TRES W  DIS CAZ7
 BAR2 SZ EP        410 49.12                             171    0.0110 22.0 191 
 BAR2 SZ ES        411  4.37                             171    0.1310 22.0 191 
 BAR2 SZ I         411  5.85        21.1 0.48            169           22.0 191 
 GIR2 SZ EP        410 49.15                             167   -0.0710 32.6 351 
 BRR  HZ EP     C  410 50.93                             152    0.2110 71.9 299 
 BRR  HN ES        411  7.74                             152    0.6510 71.9 299 
 BRR  HZ I         411 10.94        11.9 0.36            149           71.9 299 
 PAM  SZ EP        410 51.97                             150    0.1610 78.4  39 
 PAM  SE ES        411  9.10                             150    0.0610 78.4  39 
 PAM  SZ I         411 11.26         8.8 0.52            155           78.4  39 
 RUS  HZ EP        410 53.00                             144   -0.2010 99.2 176 
 RUS  HN ES        411 11.25                             144   -0.2610 99.2 176 
 RUS  HZ I         411 12.87         8.9 0.28            146           99.2 176 
 PTB  HZ EP        410 55.66                             132   -0.86 9  148 259 
 PTB  HN ES   1    411 16.48                             132   -0.95 7  148 259 
 PTB  HZ I         411 24.36        13.4 0.22            131            148 259 
 OCA  HN ES   1    411 19.71                             129   -0.39 7  162 353 
 OCA  HZ I         411 23.97        15.2 0.32            131            162 353 
 ZAR  HE ES        411 26.92                             122   -0.45 9  205 292 
 ZAR  HZ I         411 34.14        12.9 0.40            122            205 292 
 SML  HN ES   1    411 35.01                             117    0.03 6  245 335 
 CHI  HZ EP        411  7.27                             117    0.09 8  247 195 
 CHI  HN ES        411 36.65                             117    0.26 8  247 195 
 CHI  HZ I         411 40.42         3.0 0.78            119            247 195 
 HEL  HZ EP   1    411 10.79                             115    0.98 6  272 256 
 HEL  HE ES   1    411 42.60                             115    1.52 6  272 256 
 HEL  HZ I         411 48.35         5.5 0.24            115            272 256 
 GUY2CHZ EP   4    411 14.18                             112    1.02 0  300 235 
 GUY2CHN ES   4    411 46.94                             112   -0.10 0  300 235 
 GUY2CHZ I         411 56.29         4.7 0.28                           300 235 
                                                                                
