 2015  430 0436 24.2 L   6.826 -73.170137.3  RSN 11 0.7 1.7LRSN                1
 GAP= 69        1.72       4.9     5.8  9.7 -0.2645E+01  0.7755E+01 -0.7989E+01E
 Epicentro: LOS SANTOS - SANTANDER                                             3
 ACTION:UPD 15-06-03 16:58 OP:cam  STATUS:               ID:20150430043624 L   I
 OLDACT:REG 15-04-30 12:16 OP:stll STATUS:               ID:20150430042750     3
 2015-04-30-0427-50M.COL___277                                                 6
 STAT SP IPHASW D HRMM SECON CODA AMPLIT PERI AZIMU VELO AIN AR TRES W  DIS CAZ7
 BAR2 EZ EP        436 42.47                             169   -0.3610 25.9 183 
 BAR2 EZ ES        436 57.23                             169   -0.1610 25.9 183 
 BAR2 EZ I         436 59.51         9.7 0.20            170           25.9 183 
 BRR  HZ EP        436 44.46                             152    0.2810 67.5 297 
 BRR  HN ES        437  0.26                             152    0.4610 67.5 297 
 BRR  HZ I         437  2.78         9.9 0.38            153           67.5 297 
 PAM  SZ EP        436 45.40                             149   -0.0510 77.0  42 
 PAM  SN ES        437  2.38                             149    0.3210 77.0  42 
 PAM  SZ I         437  4.83        11.1 0.62            151           77.0  42 
 RUS  HZ EP        436 48.42                             141    1.1010  104 175 
 RUS  HN ES        437  5.10                             141   -0.2810  104 175 
 RUS  HZ I         437  6.25         3.1 0.26            144            104 175 
 PTB  HZ EP        436 49.37                             130   -0.89 9  146 258 
 PTB  HN ES        437  9.78                             130   -0.84 9  146 258 
 PTB  HZ I         437 13.11        20.5 0.90            132            146 258 
 OCA  HZ EP        436 51.85                             128    0.33 9  157 354 
 OCA  HN ES        437 12.69                             128   -0.17 9  157 354 
 OCA  HZ I         437 16.11        18.3 0.34            130            157 354 
 TAM  HZ EP        436 50.70                             128   -0.80 9  158 106 
 SPBC HN ES        437 14.48                             127    0.62 9  164 218 
 ZAR  HZ EP        436 57.41                             121    1.72 9  201 292 
 ZAR  HN ES        437 20.78                             121    0.49 9  201 292 
 NOR  HN ES        437 26.04                             117   -0.77 8  234 234 
 NOR  HZ I         437 29.70         2.5 0.24            119            234 234 
 SML  HZ EP        436 59.64                             116   -0.27 8  240 336 
 SML  HN ES        437 26.72                             116   -1.08 8  240 336 
                                                                                
