 2016  930 0923 57.2 L   7.262 -72.993 77.8  RSN  4 0.1 1.0LRSN                1
 GAP=191        0.36       2.9     2.6  4.6  0.1593E+01  0.8345E+01  0.7445E+01E
 Epicentro: CHARTA - SANTANDER                                                 3
 ACTION:UPD 17-08-17 21:18 OP:lp   STATUS:               ID:20160930092357 L   I
 OLDACT:REG 16-09-30 12:47 OP:edw  STATUS:               ID:20160930091745     3
 2016-09-30-0918-00M.COL___369                                                 6
 STAT SP IPHASW D HRMM SECON CODA AMPLIT PERI AZIMU VELO AIN AR TRES W  DIS CAZ7
 PAM  EN ES        924 19.15                             155   -0.0110 33.5  75 
 PAM  EZ I         924 19.30         2.8 0.16            170           33.5  75 
 RUS  HZ EP        924 20.88                             112    0.15 9  152 184 
 RUS  HN ES        924 39.02                             112   -0.07 9  152 184 
 RUS  HZ I         924 40.80         1.7 0.34            116            152 184 
 PTB  HZ EP        924 23.35                             108   -0.11 9  180 244 
 PTB  HN ES        924 44.04                             108    0.08 9  180 244 
 PTB  HZ I         924 49.09         1.4 0.38            111            180 244 
 SPBC HZ EP        924 27.53                             104   -0.06 8  214 214 
 SPBC HN ES   4    924 48.53                             104   -2.77 0  214 214 
 SPBC HZ I         924 54.76         1.6 0.22            108            214 214 
                                                                                
