 2011 1130 0025 11.1 L   6.349 -73.530110.7  RSN  4 0.1 1.4LRSN                1
 GAP=211        0.40       2.6     3.9  4.2  0.2347E+01  0.1282E+01  0.4616E+00E
 Epicentro: CONTRATACION - SANTANDER                                           3
 ACTION:UPD 12-07-13 16:13 OP:ep   STATUS:               ID:20111130002511 L   I
 2011-11-30-0023-03S.COL___152                                                 6
 STAT SP IPHASW D HRMM SECON CODA AMPLIT PERI AZIMU VELO AIN AR TRES W  DIS CAZ7
 BAR2 SZ IP        025 27.71                             155    0.2910 46.9  55 
 BAR2 SZ I         025 27.84        12.8 0.12                          46.9  55 
 BAR2 SZ ES   1    025 40.08                             155   -0.09 7 46.9  55 
 RUS  HZ EP        025 29.15                             145   -0.0710 70.7 136 
 RUS  HZ I         025 29.70         2.9 0.26                          70.7 136 
 RUS  HN ES   2    025 43.32                             145   -0.06 5 70.7 136 
 BRR  HZ EP        025 29.57                             139   -0.1110 86.2 347 
 BRR  HZ I         025 42.71         6.4 0.50                          86.2 347 
 BRR  HN ES   1    025 44.23                             139    0.03 7 86.2 347 
 PAM  SZ EP        025 35.50                             124   -0.06 9  143  40 
 PAM  SN ES   1    025 54.64                             124   -0.02 7  143  40 
                                                                                
