 2011 1030 0118 25.8 L   6.824 -73.165145.5  RSN 23 0.5 3.5LRSN                1
 GAP=111        0.87       2.7     3.7  5.2  0.5849E+00  0.8552E+01  0.2479E+01E
 Epicentro: LOS SANTOS - SANTANDER                                             3
 ACTION:UPD 12-07-13 16:06 OP:ep   STATUS:               ID:20111030011825 L   I
 2011-10-30-0116-52S.COL___157                                                 6
 STAT SP IPHASW D HRMM SECON CODA AMPLIT PERI AZIMU VELO AIN AR TRES W  DIS CAZ7
 BTL  SZ EP        118 45.70                             174    0.3910 15.5 313 
 BAR2 SZ IP        118 45.48                             170   -0.0110 25.7 184 
 BAR2 SZ ES   1    119  0.09                             170   -0.72 7 25.7 184 
 BAR2 SZ I         119  1.42       624.3 0.30                          25.7 184 
 BRR  HZ IP     D  118 47.28                             153    0.4910 68.1 297 
 BRR  HN ES   2    119  4.09                             153    0.97 5 68.1 297 
 BRR  HZ I         119  8.95       414.4 0.24                          68.1 297 
 PAM  SZ IP        118 48.29                             151    0.3010 76.8  42 
 PAM  SN ES   1    119  5.15                             151   -0.11 7 76.8  42 
 RUS  HZ IP     C  118 49.48                             143   -0.2910  103 175 
 RUS  HE ES   1    119  7.82                             143   -0.60 7  103 175 
 RUS  HZ I         119  9.85       298.5 0.30                           103 175 
 OCA  SZ EP        118 53.89                             130    0.03 9  157 354 
 OCA  SZ ES   2    119 15.80                             130    0.08 5  157 354 
 OCA  SZ I         119 18.94       379.8 0.23                           157 354 
 YOP  SZ IP     C  118 56.31                             126    0.12 9  182 153 
 YOP  SZ I         118 56.58       146.3 0.40                           182 153 
 YOP  SN ES   1    119 20.07                             126    0.21 7  182 153 
 ZAR  HZ EP        118 58.05                             123    0.08 9  201 292 
 ZAR  HN ES   1    119 22.73                             123   -0.29 6  201 292 
 ZAR  HZ I         119 29.11       370.1 0.68                           201 292 
 NOR  SZ EP        119  1.32                             118   -0.22 8  235 234 
 NOR  SN ES   1    119 29.75                             118    0.37 6  235 234 
 ROSC BE ES   2    119 34.13                             116    0.24 4  254 210 
 ROSC BZ I         119 39.99       333.1 0.40                           254 210 
 HEL  HZ EP   1    119  5.42                             115   -0.47 6  271 255 
 HEL  HN ES   2    119 37.64                             115    0.52 4  271 255 
 HEL  HZ I         119 44.60       184.5 0.38                           271 255 
 GUY  SZ EP        119  9.82                             112    0.14 7  303 234 
 GUY  SN ES   1    119 43.72                             112   -0.15 5  303 234 
 GUY  SZ I         119 52.49       182.7 0.42                           303 234 
 VIL  SZ EP        119  8.83                             112   -0.66 7  306 191 
 VIL  SN ES   1    119 43.28                             112   -0.25 5  306 191 
 RREF HZ EP        119 12.24                             111    0.25 7  322 229 
 RREF HN ES   2    119 46.73                             111   -1.25 3  322 229 
 RREF HZ I         120  1.86       140.4 0.32                           322 229 
 DBB  SZ EP   2    119 13.81                             109    0.77 3  337 274 
 TOL  SZ EP        119 14.88                             109    0.75 7  344 224 
 MON  HZ IP   3 D  119 12.75                             109   -1.70 2  350 308 
 MON  HE ES   1    119 51.02                             109   -1.35 5  350 308 
 ANIL HZ EP        119 16.08                             108    0.40 6  358 224 
 ANIL HE ES   2    119 55.54                             108    0.98 3  358 224 
 PRA  HZ EP        119 19.01                             106   -0.49 6  393 209 
 PAL  HZ EP        119 21.37                             106    0.43 6  405 239 
 SJC  HZ IP     D  119 19.86                             106   -1.14 6  406 327 
 SJC  HZ I         120  5.01        65.3 0.42                           406 327 
 GUA  SZ EP   3    119 27.44                             103   -1.89 1  477 173 
 CAP2 HZ EP        119 32.91                             102    0.27 4  505 294 
                                                                                
