 2013  130 0237 23.1 L   6.776 -73.118144.0  RSN  6 0.3 1.7LRSN                1
 GAP=141        0.78       3.8     4.8  6.5 -0.1682E+01 -0.3328E+00  0.8909E+01E
 Epicentro: LOS SANTOS - SANTANDER                                             3
 ACTION:UPD 13-02-15 09:17 OP:ep   STATUS:               ID:20130130023723 L   I
 2013-01-30-0230-00M.COL___241                                                 6
 STAT SP IPHASW D HRMM SECON CODA AMPLIT PERI AZIMU VELO AIN AR TRES W  DIS CAZ7
 BAR2 SZ EP        237 42.56                             171    0.0510 21.5 199 
 BAR2 SZ ES   2    237 57.29                             171   -0.34 5 21.5 199 
 BAR2 SZ I         237 59.15        19.3 0.27            169           21.5 199 
 BRR  HZ IP     C  237 44.36                             151    0.0410 75.1 299 
 BRR  HN ES        238  1.42                             151    0.5810 75.1 299 
 BRR  HZ I         238  4.64         8.0 0.41            152           75.1 299 
 PAM  SZ EP        237 45.37                             151    0.2010 77.6  37 
 PAM  SN ES   1    238  1.94                             151   -0.43 7 77.6  37 
 PAM  SZ I         238  5.32         3.6 0.42            156           77.6  37 
 RUS  HZ EP        237 46.39                             144   -0.1110 97.7 178 
 RUS  HN ES   1    238  4.72                             144   -0.01 7 97.7 178 
 RUS  HN I         238  7.07         8.7 0.31            146           97.7 178 
 PTB  HZ EP        237 49.58                             131   -0.60 9  150 260 
 PTB  HN ES   1    238 10.91                             131   -0.37 7  150 260 
 PTB  HZ I         238 15.43         6.9 0.19            133            150 260 
 CHI  HZ EP        238  0.70                             117    0.16 8  247 196 
 CHI  HN ES        238 30.00                             117    0.29 8  247 196 
 CHI  HN I         238 34.90         3.8 0.55            120            247 196 
                                                                                
