 2011  530 0234 33.6 L   6.795 -73.052151.8  RSN  4 0.2 1.4LRSN                1
 GAP=169        0.58       3.6     7.6  6.7 -0.1187E+01 -0.1364E+02 -0.2561E+01E
 Epicentro: LOS SANTOS - SANTANDER                                             3
 ACTION:UP  11-06-29 08:57 OP:tino STATUS:               ID:20110530023433 L   I
 2011-05-30-0232-45S.COL___113                                                 6
 STAT SP IPHASW D HRMM SECON CODA AMPLIT PERI AZIMU VELO SNR AR TRES W  DIS CAZ7
 BAR2 SZ EP   1    234 53.97                             170    -0.1 7   27 213 
 BAR2 SZ ES   1    235  9.76                             170    -0.2 7   27 213 
 BRR  HZ EP   1    234 55.74                             150    -0.2 7   81 295 
 BRR  HZ I         234 56.08         9.3 0.11                            81 295 
 BRR  HN ES   1    235 13.58                             150     0.2 7   81 295 
 RUS  HZ EP   1    234 57.69                             145    -0.2 7  100 182 
 RUS  HE ES   1    235 17.14                             145     0.3 7  100 182 
 RUS  HZ I         235 17.59         1.9 0.25                           100 182 
 GRA  SZ EP   1    234 59.62                             139     0.4 7  124  13 
 GRA  SZ ES   1    235 19.04                             139    -0.2 7  124  13 
 GRA  SZ I         235 21.92         2.5 0.29                           124  13 
                                                                                
