 2011  530 0336 29.9 L   6.749 -73.114156.4  RSN  5 0.1 1.4LRSN                1
 GAP=160        0.36       4.6     7.9  8.7  0.1753E+02 -0.5702E+02 -0.2130E+02E
 Epicentro: LOS SANTOS - SANTANDER                                             3
 ACTION:UP  11-06-29 08:57 OP:tino STATUS:               ID:20110530033629 L   I
 2011-05-30-0333-51S.COL___113                                                 6
 STAT SP IPHASW D HRMM SECON CODA AMPLIT PERI AZIMU VELO SNR AR TRES W  DIS CAZ7
 BAR2 SZ EP   1    336 50.59                             173    -0.2 7   19 203 
 BAR2 SZ I         337  8.78         8.0 0.55                            19 203 
 BRR  HZ EP   1    336 52.66                             152     0.1 7   77 301 
 BRR  HE ES        337 10.19                             152     0.010   77 301 
 BRR  HZ I         337 12.61         4.9 0.11                            77 301 
 RUS  HE ES   2    337 13.53                             147     0.1 5   95 178 
 RUS  HZ I         337 14.65         2.8 0.44                            95 178 
 BRI  SZ EP   1    336 55.15                             142     0.0 7  113  18 
 GRA  SZ EP   1    336 56.53                             138     0.0 7  130  15 
 GRA  SZ I         337 17.29         3.1 0.28                           130  15 
                                                                                
