 2013 1130 0551 41.9 L   6.817 -73.150141.8  RSN 14 0.5 2.2LRSN                1
 GAP=148        1.05       2.8     4.2  5.2 -0.2849E+01  0.4904E+01  0.2536E+01E
 Epicentro: LOS SANTOS - SANTANDER                                             3
 ACTION:UPD 14-01-09 16:32 OP:ep   STATUS:               ID:20131130055141 L   I
 OLDACT:UP  13-11-30 12:39 OP:mh   STATUS:               ID:20131130055000     3
 OLDACT:UP  13-11-30 12:38 OP:mh   STATUS:               ID:20131130055000     3
 OLDACT:REG 13-11-30 08:14 OP:mher STATUS:               ID:20131130055000     3
 2013-11-30-0550-00M.COL___282                                                 6
 STAT SP IPHASW D HRMM SECON CODA AMPLIT PERI AZIMU VELO AIN AR TRES W  DIS CAZ7
 BAR2 SZ EP        552  1.12                             169    0.0110 25.1 188 
 BAR2 SZ ES        552 15.97                             169   -0.1010 25.1 188 
 BAR2 SZ I         552 21.61        29.6 0.15            168           25.1 188 
 BRR  HZ IP        552  2.91                             152    0.3510 69.9 297 
 BRR  HN ES        552 19.65                             152    0.9910 69.9 297 
 BRR  HZ I         552 23.55        33.2 0.06            152           69.9 297 
 PAM  SZ EP   1    552  3.77                             151    0.13 7 76.2  41 
 PAM  SN ES        552 20.55                             151   -0.0310 76.2  41 
 PAM  SZ I         552 23.21        29.4 0.55            156           76.2  41 
 PTB  HZ EP   1    552  7.66                             131   -0.89 7  148 258 
 PTB  HN ES        552 28.62                             131   -0.71 9  148 258 
 OCA  HZ EP        552  9.74                             129    0.01 9  158 353 
 OCA  HN ES        552 30.57                             129   -0.86 9  158 353 
 OCA  HZ I         552 34.41        14.1 0.33            133            158 353 
 SPBC HZ EP        552 10.08                             128   -0.15 9  164 218 
 SPBC HN ES        552 32.58                             128    0.27 9  164 218 
 ZAR  HZ EP        552 14.48                             122    0.50 9  203 292 
 ZAR  HN ES        552 39.16                             122    0.16 9  203 292 
 ZAR  HZ I         552 45.11        16.6 0.08            124            203 292 
 NOR  HZ EP        552 17.62                             118    0.12 8  235 234 
 NOR  HN ES        552 44.71                             118   -0.54 8  235 234 
 NOR  HZ I         552 51.35        11.8 0.24            120            235 234 
 SML  HZ EP        552 17.89                             117   -0.22 8  242 335 
 SML  HN ES        552 46.13                             117   -0.21 8  242 335 
 SML  HZ I         552 49.11        19.6 0.12            120            242 335 
 CHI  HZ EP        552 19.85                             116    0.27 8  250 195 
 CHI  HN ES        552 48.66                             116   -0.31 8  250 195 
 CHI  HZ I         552 52.27         6.3 0.26            119            250 195 
 HEL  HZ EP        552 22.76                             114    0.83 8  272 255 
 HEL  HN ES        552 53.15                             114    0.01 8  272 255 
 HEL  HZ I         553  0.12         6.0 0.17            116            272 255 
 GUY2CHZ EP        552 25.86                             111    0.44 7  302 234 
 GUY2CHN ES   4    553  2.40                             111    3.04 0  302 234 
 PRA  HZ EP        552 35.43                             106   -0.04 6  393 209 
 PRA  HN ES        553 16.94                             106   -0.30 6  393 209 
 PRA  HZ I         553 24.00         8.4 0.33            108            393 209 
 ORTC HZ EP        552 35.50                             106   -0.35 6  397 216 
 ORTC HN ES   4    553 20.10                             106    2.18 0  397 216 
 ORTC HZ I         553 24.75         4.1 0.23            108            397 216 
 SJC  HZ EP   4    552 35.57                             105   -1.56 0  407 327 
 SJC  HN ES   4    553 17.09                             105   -3.11 0  407 327 
                                                                                
