 2011  530 0934  4.9 L   6.773 -73.117151.0  RSN  4 0.3 1.5LRSN                1
 GAP=162        0.61       4.8     9.0  7.4  0.5219E+01 -0.2397E+02 -0.5142E+01E
 Epicentro: LOS SANTOS - SANTANDER                                             3
 ACTION:UP  11-06-29 08:57 OP:tino STATUS:               ID:20110530093404 L   I
 2011-05-30-0932-30S.COL___113                                                 6
 STAT SP IPHASW D HRMM SECON CODA AMPLIT PERI AZIMU VELO SNR AR TRES W  DIS CAZ7
 BAR2 SZ EP   1    934 25.13                             171     0.0 7   21 200 
 BAR2 SZ ES   1    934 40.65                             171    -0.2 7   21 200 
 BAR2 SZ I         934 41.48         5.3 0.29                            21 200 
 BRR  HZ EP   1    934 26.69                             152    -0.1 7   75 299 
 BRR  HZ I         934 26.89        10.0 0.11                            75 299 
 BRR  HE ES   1    934 44.06                             152     0.1 7   75 299 
 RUS  HZ EP   1    934 29.29                             146     0.4 7   97 178 
 RUS  HE ES   2    934 47.43                             146    -0.2 5   97 178 
 RUS  HZ I         934 48.31         4.6 0.47                            97 178 
 GRA  SZ EP   1    934 30.39                             138    -0.3 7  128  16 
 GRA  SZ ES   2    934 51.39                             138     0.5 5  128  16 
 GRA  SZ I         934 58.81         2.4 0.34                           128  16 
                                                                                
