 2010  130 0044 41.9 L   6.846 -73.051142.7  RSN  8 0.4 2.0LRSN                1
 GAP=193        0.78       3.2     9.0  6.2 -0.3987E+01  0.1852E+02  0.2195E+00E
 Epicentro: LOS SANTOS - SANTANDER                                             3
 ACTION:UP  10-08-24 09:46 OP:vdl  STATUS:               ID:20100130004441 L   I
 2010-01-30-0043-37S.COL___094                                                 6
 STAT SP IPHASW D HRMM SECON CODA AMPLIT PERI AZIMU VELO SNR AR TRES W  DIS CAZ7
 GIR2 SZ EP   1    045  1.24                             168     0.0 8   30 329 
 GIR2 SZ ES   2    045 15.42                             168    -0.8 5   30 329 
 BAR2 SZ EP   1    045  1.16                             167    -0.2 8   32 207 
 BAR2 SZ ES   1    045 16.65                             167     0.1 8   32 207 
 RUS  BZ EP        045  6.35                             142     0.610  106 182 
 RUS  BN ES        045 24.35                             142     0.010  106 182 
 RUS  BZ I         045 28.40         7.5 0.95                           106 182 
 OCA  SZ EP        045  9.50                             130    -0.2 9  157 349 
 OCA  SZ ES   1    045 31.60                             130     0.3 7  157 349 
 CHI  HZ EP        045 20.15                             116    -0.2 8  256 197 
 CHI  HE ES   2    045 49.55                             116    -0.7 4  256 197 
 CHI  HZ I         045 55.24         5.3 0.19                           256 197 
 HEL  HE ES   2    045 55.70                             113     0.2 4  283 255 
 HEL  HZ I         046  0.91         7.1 0.19                           283 255 
 RREF BE ES   2    046  6.88                             109     0.7 3  333 230 
 RREF BZ I         046 12.15         5.3 0.33                           333 230 
 PRA  HZ EP        045 36.16                             105    -0.3 6  402 211 
 PRA  HN ES   1    046 18.47                             105    -0.6 4  402 211 
                                                                                
