 2017 1230 0248 51.8 L   6.739 -73.401126.3  RSN  5 0.4 1.3LRSN                1
 GAP=136        0.90       5.1     3.8  9.0 -0.6116E+01  0.1180E+02 -0.1325E+02E
 Epicentro: EL CARMEN - SANTANDER                                              3
 ACTION:UPD 18-01-04 13:25 OP:rebc STATUS:               ID:20171230024851 L   I
 OLDACT:REG 17-12-30 12:45 OP:osc  STATUS:               ID:20171230024738     3
 2017-12-30-0248-00M.COL___469                                                 6
 STAT SP IPHASW D HRMM SECON CODA AMPLIT PERI AZIMU VELO AIN AR TRES W  DIS CAZ7
 BAR2 EZ EP        249  9.45                             166    0.2210 29.1 124 
 BAR2 EZ ES        249 22.85                             166    0.0110 29.1 124 
 BAR2 EZ I         249 23.58         8.4 0.32            169           29.1 124 
 PAM  EZ EP        249 13.78                             139   -0.0110  102  49 
 PAM  EE ES        249 31.17                             139    0.2110  102  49 
 PAM  EZ I         249 32.07         2.9 0.20            143            102  49 
 PTB  HZ EP        249 14.36                             134   -0.1810  119 259 
 PTB  HE ES        249 31.89                             134   -0.4010  119 259 
 PTB  HZ I         249 37.12         2.6 0.28            135            119 259 
 OCA  HN ES        249 40.14                             124   -0.53 9  166   3 
 ZAR  HN ES        249 43.81                             121    0.71 9  181 297 
                                                                                
