 2017  530 0448 34.6 L   5.996 -74.232  4.0  RSN  8 0.7 1.3LRSN                1
 GAP=106        1.09       2.4     3.1  6.4  0.1618E+01  0.4825E+01 -0.4840E+00E
 Epicentro: LA BELLEZA - SANTANDER                                             3
 ACTION:UPD 17-06-16 13:40 OP:jn   STATUS:               ID:20170530044834 L   I
 OLDACT:UP  17-05-30 15:22 OP:and  STATUS:               ID:20170530044741     3
 OLDACT:UP  17-05-30 15:21 OP:and  STATUS:               ID:20170530044741     3
 OLDACT:UP  17-05-30 15:21 OP:and  STATUS:               ID:20170530044741     3
 OLDACT:UP  17-05-30 15:20 OP:and  STATUS:               ID:20170530044741     3
 OLDACT:UP  17-05-30 15:19 OP:and  STATUS:               ID:20170530044741     3
 OLDACT:UP  17-05-30 15:18 OP:and  STATUS:               ID:20170530044741     3
 OLDACT:UP  17-05-30 15:18 OP:and  STATUS:               ID:20170530044741     3
 OLDACT:UP  17-05-30 15:17 OP:and  STATUS:               ID:20170530044741     3
 OLDACT:UP  17-05-30 15:11 OP:and  STATUS:               ID:20170530044741     3
 OLDACT:UP  17-05-30 15:06 OP:and  STATUS:               ID:20170530044741     3
 OLDACT:REG 17-05-30 12:23 OP:and  STATUS:               ID:20170530044741     3
 2017-05-30-0448-00M.COL___353                                                 6
 STAT SP IPHASW D HRMM SECON CODA AMPLIT PERI AZIMU VELO AIN AR TRES W  DIS CAZ7
 SPBC HZ IP     D  448 41.65                              47    0.0610 41.9 155 
 SPBC HN ES        448 47.14                              47    0.0610 41.9 155 
 SPBC HZ I         448 47.85        23.1 0.09             47           41.9 155 
 PTB  HZ IP   1 D  448 45.09                              47    0.07 7 65.0 338 
 PTB  HN ES        448 53.60                              47    0.4210 65.0 338 
 PTB  HZ I         448 54.12        17.7 0.28             47           65.0 338 
 RUS  HZ IP     D  448 54.90                              47   -0.1010  128  95 
 RUS  HN ES   3    449  9.60                              47   -1.36 2  128  95 
 RUS  HZ I         449 10.89         3.7 0.25             47            128  95 
 BRR  HZ EP        448 55.91                              47    0.21 9  136  25 
 BRR  HN ES        449 11.82                              47   -0.38 9  136  25 
 BRR  HZ I         449 14.95         6.6 0.12             47            136  25 
 HEL  HZ IP     D  448 56.86                              47   -0.66 9  145 279 
 HEL  HN ES   2    449 13.68                              47   -1.76 5  145 279 
 HEL  HZ I         449 14.99        10.4 0.32             47            145 279 
 CHI  HZ EP   3    449  1.93                              47    1.97 2  161 160 
 CHI  HN ES   4    449 23.30                              47    3.52 0  161 160 
 CHI  HZ I         449 25.79         2.3 0.30             47            161 160 
 ZAR  HZ EP   1    449  2.86                              37    0.62 7  179 337 
 ZAR  HN ES   3    449 22.25                              37   -1.59 2  179 337 
 ZAR  HZ I         449 23.20         3.5 0.26             47            179 337 
 CBOC HZ EP   4    449  7.63                              37    2.91 0  198 266 
 CBOC HN ES        449 28.81                              37    0.55 9  198 266 
 CBOC HZ I         449 32.96         2.0 0.40             37            198 266 
                                                                                
