 2014 1230 0102 38.7 L   6.812 -73.138142.9  RSN 25 0.5 2.3LRSN                1
 GAP= 53        1.62       3.6     4.2  7.0 -0.1774E+01  0.8903E+01  0.3816E+01E
 Epicentro: LOS SANTOS - SANTANDER                                             3
     101.0      38.0      38.0  5.0  3.0 12.0  0.2  0.3           RSN FPFIT    F
 ACTION:UPD 15-02-10 17:08 OP:nd   STATUS:               ID:20141230010238 L   I
 OLDACT:REG 14-12-30 12:43 OP:stll STATUS:               ID:20141230005744     3
 2014-12-30-0057-44M.COL___263                                                 6
 STAT SP IPHASW D HRMM SECON CODA AMPLIT PERI AZIMU VELO AIN AR TRES W  DIS CAZ7
 BAR2 EZ EP     C  1 2 58.18                             170    0.1810 24.8 191 
 BAR2 EZ ES        1 3 13.21                             170    0.1410 24.8 191 
 BAR2 EZ I         1 3 14.60        93.1 0.16            169           24.8 191 
 BRR  HZ EP     C  1 3  0.20                             152    0.6710 71.3 297 
 BRR  HE ES        1 3 16.69                             152    0.9010 71.3 297 
 BRR  HZ I         1 3 19.65        42.9 0.24            146           71.3 297 
 PAM  SZ EP     D  1 3  0.90                             151    0.4110 75.8  40 
 PAM  SZ I         1 3  1.20        52.6 0.24            149           75.8  40 
 PAM  SN ES        1 3 17.85                             151    0.3410 75.8  40 
 RUS  HZ EP     C  1 3  2.04                             143   -0.2110  102 177 
 RUS  HZ I         1 3  3.23        23.4 0.16            142            102 177 
 RUS  HE ES        1 3 20.64                             143    0.0110  102 177 
 PTB  HZ EP        1 3  4.90                             131   -0.62 9  149 258 
 PTB  HN ES        1 3 25.99                             131   -0.46 9  149 258 
 PTB  HZ I         1 3 28.88        28.7 0.28            127            149 258 
 TAM  HZ EP        1 3  6.43                             130    0.34 9  155 106 
 TAM  HE ES        1 3 26.45                             130   -1.02 9  155 106 
 TAM  HZ I         1 3 27.21        16.3 0.42            130            155 106 
 OCA  HZ EP     C  1 3  6.26                             129   -0.39 9  159 353 
 OCA  HN ES        1 3 27.97                             129   -0.50 9  159 353 
 OCA  HZ I         1 3 36.25        16.4 0.22            126            159 353 
 SPBC HZ EP     D  1 3  7.14                             128    0.03 9  165 219 
 SPBC HE ES        1 3 29.48                             128    0.19 9  165 219 
 SPBC HZ I         1 3 33.89        35.2 0.20            125            165 219 
 ZAR  HZ EP        1 3 10.91                             121   -0.06 9  204 292 
 ZAR  HN ES        1 3 36.15                             121   -0.01 9  204 292 
 ZAR  HZ I         1 3 41.46        25.2 0.32            118            204 292 
 NOR  HZ EP        1 3 14.18                             117   -0.22 8  236 234 
 NOR  HE ES        1 3 41.19                             117   -1.08 8  236 234 
 NOR  HZ I         1 3 47.55        20.6 0.18            115            236 234 
 SML  HZ EP     D  1 3 14.61                             117   -0.44 8  243 335 
 SML  HN ES        1 3 43.09                             117   -0.33 8  243 335 
 SML  HZ I         1 3 51.02        33.1 0.24            114            243 335 
 CHI  HZ EP     D  1 3 16.26                             116   -0.13 8  250 195 
 CHI  HN ES        1 3 45.02                             116   -0.78 8  250 195 
 CHI  HZ I         1 3 51.33         9.4 0.32            115            250 195 
 ROSC BZ EP        1 3 18.14                             116    1.32 8  254 211 
 ROSC BE ES        1 3 46.28                             116   -0.29 8  254 211 
 ROSC BZ I         1 3 55.83        27.8 0.40            114            254 211 
 HEL  HZ EP        1 3 19.24                             114    0.36 8  273 256 
 HEL  HN ES        1 3 50.48                             114    0.25 8  273 256 
 HEL  HZ I         1 3 57.03        10.4 0.36            111            273 256 
 SOCV BZ EP   9    1 3 20.80                             111   -0.63 0  300  57 
 SOCV BN ES        1 3 52.58                                   -1.57 7  300  57 
 PTGC HZ EP   9 C  1 3 21.18                             111   -1.34 0  310 159 
 PTGC HZ I         1 3 21.63        23.9 0.12            110            310 159 
 PTGC HN ES        1 3 52.60                                   -2.77 7  310 159 
 CBOC HZ EP        1 3 25.94                             109    0.32 7  335 252 
 CBOC HZ I         1 3 26.75         4.6 0.20            107            335 252 
 CBOC HE ES        1 4  1.53                             109   -0.70 7  335 252 
 DBB  SZ EP        1 3 26.25                             109    0.12 7  340 274 
 DBB  SZ I         1 4  8.78        21.8 0.50            107            340 274 
 TOL  SZ EP        1 3 27.41                             108    0.41 7  345 225 
 TOL  SN ES        1 4  4.87                             108    0.18 7  345 225 
 MON  HZ EP   9    1 3 25.29                             108   -2.26 0  354 308 
 MON  HN ES        1 4  2.50                                   -0.91 6  354 308 
 MON  HZ I         1 4  5.98         4.5 0.20            106            354 308 
 ANIL HZ EP        1 3 29.32                             108    0.76 6  359 224 
 ANIL HN ES        1 4  8.30                             108    0.84 6  359 224 
 ANIL HZ I         1 4 11.89         3.0 0.48            106            359 224 
 ORTC HZ EP        1 3 32.37                             106   -0.32 6  397 216 
 ORTC HN ES        1 4 15.18                             106    0.36 6  397 216 
 ORTC HZ I         1 4 21.37         5.8 0.46            104            397 216 
 PAL  HZ EP     C  1 3 33.69                             105   -0.22 6  407 239 
 PAL  HZ I         1 3 35.38         7.0 0.22            103            407 239 
 PAL  HN ES        1 4 16.60                             105   -0.40 6  407 239 
 SJC  HZ EP   9    1 3 31.83                             105   -2.24 0  409 327 
 SJC  HZ I         1 3 48.58         2.5 0.12            103            409 327 
 SJC  HN ES        1 4 12.71                                   -2.32 6  409 327 
 CRJC HZ EP   9    1 3 38.46                             103   -2.47 0  466   3 
 CRJC HN ES        1 4 24.84                                   -2.18 5  466   3 
                                                                                
