 2014  430 0040 35.2 L   6.781 -73.128148.0  RSN 10 0.5 1.9LRSN                1
 GAP=140        0.94       4.9     4.5  7.7 -0.2360E+01  0.6560E+01  0.1375E+02E
 Epicentro: LOS SANTOS - SANTANDER                                             3
 OLDACT:REG 14-04-30 12:24 OP:fm   STATUS:               ID:20140430004000     3
 ACTION:UPD 14-05-13 23:12 OP:nd   STATUS:               ID:20140430004035 L   I
 OLDACT:UP  14-04-30 15:51 OP:fm   STATUS:               ID:20140430004000     3
 2014-04-30-0040-00M.COL___270                                                 6
 STAT SP IPHASW D HRMM SECON CODA AMPLIT PERI AZIMU VELO AIN AR TRES W  DIS CAZ7
 BRR  HZ EP   1    040 56.45                             152   -0.28 7 73.9 299 
 BRR  HE ES        041 14.27                             152    0.7410 73.9 299 
 BRR  HZ I         041 16.89        14.5 0.40            132           73.9 299 
 PAM  SZ EP   1    040 57.87                             151    0.21 7 77.8  37 
 PAM  SN ES        041 14.87                             151   -0.3210 77.8  37 
 PAM  HZ I         041 15.64         9.6 0.22            135           77.8  37 
 RUS  HZ EP   1    040 59.35                             145    0.35 7 98.4 177 
 RUS  HN ES   1    041 17.72                             145    0.14 7 98.4 177 
 PTB  HZ EP   1    041  2.06                             132   -0.41 7  149 260 
 PTB  HN ES        041 23.26                             132   -0.50 9  149 260 
 PTB  HZ I         041 28.45         8.9 0.42            115            149 260 
 SPBC HZ EP   1    041  3.16                             130   -0.66 7  163 220 
 SPBC HN ES   1    041 25.73                             130   -0.43 7  163 220 
 SPBC HZ I         041 33.46        11.2 0.48            114            163 220 
 ZAR  HZ EP   4    041  2.59                             123   -5.45 0  207 292 
 ZAR  HE ES        041 33.57                             123   -0.10 8  207 292 
 ZAR  HZ I         041 40.57         6.9 0.28            108            207 292 
 NOR  HZ EP   1    041 11.83                             119    0.74 6  235 235 
 NOR  HN ES   1    041 39.75                             119    0.66 6  235 235 
 NOR  HZ I         041 45.52         4.4 0.32            106            235 235 
 HEL  HZ EP   4    041 17.20                             115    1.54 0  273 256 
 HEL  HZ I         041 55.86         4.7 0.40            103            273 256 
 URE  HN ES   4    041 46.09                             114   -2.90 0  286 292 
 GUY2CHZ EP   1    041 18.99                             113    0.05 5  302 235 
 GUY2CHN ES   4    041 55.54                             113    2.47 0  302 235 
 GUY2CHZ I         042  2.01         5.6 0.50                           302 235 
 PRA  HZ EP   1    041 28.81                             107    0.12 4  391 210 
 PRA  HN ES   4    042 13.40                             107    2.98 0  391 210 
 PRA  HZ I         042 14.07         4.8 3.64             99            391 210 
 SJC  HN ES   4    042  7.98                             106   -6.81 0  412 327 
                                                                                
