 2012  730 0900 15.1 L   6.728 -73.182152.5  RSN  4 0.3 1.4LRSN                1
 GAP=235        0.62      10.6     6.1  8.1  0.2367E+02  0.9934E+01 -0.8886E+01E
 Epicentro: VILLANUEVA - SANTANDER                                             3
 ACTION:UPD 12-08-14 11:46 OP:ep   STATUS:               ID:20120730090015 L   I
 2012-07-30-0900-00M.COL___215                                                 6
 STAT SP IPHASW D HRMM SECON CODA AMPLIT PERI AZIMU VELO AIN AR TRES W  DIS CAZ7
 BAR2 SZ EP   1    9 0 35.30                             174    -0.1 7   15 180 
 BAR2 SZ ES   1    9 0 51.05                             174    -0.2 7   15 180 
 BAR2 SZ I         9 0 52.33         5.2 0.30            157             15 180 
 BRR  HZ EP   1    9 0 37.20                             153     0.2 7   72 306 
 BRR  HN ES   2    9 0 54.80                             153     0.6 5   72 306 
 PTB  HZ EP   1    9 0 42.36                             134     0.2 7  142 262 
 PTB  HN ES   1    9 1  3.40                             134     0.1 7  142 262 
 PTB  HZ I         9 1 10.54         3.5 0.45            128            142 262 
 ZAR  HN ES   1    9 1 13.11                             124    -0.5 6  204 295 
