 2016 1230 0019 34.1 L   6.790 -73.148142.7  RSN  8 0.4 1.2LRSN                1
 GAP=137        0.96       3.7     4.7  5.7  0.2204E+01  0.4421E+01  0.3358E+01E
 Epicentro: LOS SANTOS - SANTANDER                                             3
 ACTION:UPD 17-01-11 20:20 OP:rebc STATUS:               ID:20161230001934 L   I
 OLDACT:UP  16-12-30 13:55 OP:edw  STATUS:               ID:20161230001744     3
 OLDACT:UP  16-12-30 13:54 OP:edw  STATUS:               ID:20161230001744     3
 OLDACT:REG 16-12-30 12:30 OP:edw  STATUS:               ID:20161230001744     3
 2016-12-30-0018-00M.COL___381                                                 6
 STAT SP IPHASW D HRMM SECON CODA AMPLIT PERI AZIMU VELO AIN AR TRES W  DIS CAZ7
 BAR2 EZ ES        020  7.53                             171   -0.8010 22.2 190 
 BAR2 EZ I         020  9.29         5.7 0.30            173           22.2 190 
 BRR  HZ EP        019 54.90                             152   -0.0310 71.6 299 
 BRR  HN ES        020 11.92                             152    0.7410 71.6 299 
 BRR  HZ I         020 14.04         3.7 0.13            152           71.6 299 
 PAM  EZ EP        019 55.91                             150   -0.1310 78.4  39 
 PAM  EN ES        020 13.35                             150    0.1910 78.4  39 
 PAM  EZ I         020 18.87         2.1 0.26            150           78.4  39 
 RUS  HZ EP        019 57.37                             143   -0.0910 99.5 176 
 RUS  HN ES        020 15.95                             143    0.2710 99.5 176 
 RUS  HZ I         020 16.82         2.2 0.25            146           99.5 176 
 PTB  HZ EP   9    020  0.12                             131   -0.65 0  147 259 
 PTB  HN ES        020 20.72                             132   -0.21 9  147 259 
 PTB  HZ I         020 22.80         1.8 0.14            133            147 259 
 ZAR  HZ EP        020  6.46                             122    0.10 9  204 292 
 ZAR  HN ES        020 31.06                             122   -0.47 9  204 292 
 ZAR  HZ I         020 36.22         1.9 0.30            122            204 292 
 CHI  HZ EP        020 11.33                             117   -0.16 8  247 195 
 CHI  HN ES        020 40.92                             117    0.25 8  247 195 
 CHI  HZ I         020 42.69         1.3 0.48            118            247 195 
 GUY2CHZ EP   2    020 18.03                             112    0.57 4  300 235 
 GUY2CHN ES   4    020 54.55                             112    3.26 0  300 235 
 GUY2CHZ I         020 59.46         1.0 0.60                           300 235 
                                                                                
