 2015  130 0724 59.3 L   6.793 -73.157136.8  RSN  7 0.5 1.4LRSN                1
 GAP=135        1.15       4.7     4.8  7.5 -0.7707E+00  0.9104E+01  0.1680E+01E
 Epicentro: LOS SANTOS - SANTANDER                                             3
 ACTION:UPD 15-03-02 15:43 OP:nd   STATUS:               ID:20150130072459 L   I
 OLDACT:REG 15-01-30 13:16 OP:cam  STATUS:               ID:20150130071818     3
 2015-01-30-0718-18M.COL___265                                                 6
 STAT SP IPHASW D HRMM SECON CODA AMPLIT PERI AZIMU VELO AIN AR TRES W  DIS CAZ7
 BAR2 EZ EP        725 17.80                             170   -0.0810 22.4 187 
 BAR2 EZ ES        725 31.82                             170   -0.5210 22.4 187 
 BAR2 EZ I         725 33.62         4.5 0.16            169           22.4 187 
 BRR  HZ EP        725 19.06                             151   -0.4310 70.5 300 
 BRR  HN ES        725 35.55                             151    0.3410 70.5 300 
 BRR  HN I         725 37.00        14.9 0.34            153           70.5 300 
 PAM  SZ EP        725 20.93                             149    0.2210 78.8  40 
 PAM  SN ES        725 37.54                             149    0.1710 78.8  40 
 PAM  SZ I         725 40.04         4.7 0.50            152           78.8  40 
 RUS  HZ EP        725 21.86                             142   -0.3210 99.9 175 
 RUS  HN ES        725 40.43                             142    0.4410 99.9 175 
 RUS  HZ I         725 42.91         2.0 0.32            143           99.9 175 
 PTB  HZ EP        725 24.63                             130   -0.84 9  146 259 
 PTB  HN ES        725 45.47                             130   -0.38 9  146 259 
 PTB  HZ I         725 47.29         2.6 0.52            132            146 259 
 SPBC HZ EP        725 27.19                             127    0.15 9  162 219 
 SPBC HE ES        725 49.21                             127    0.57 9  162 219 
 SPBC HZ I         725 53.77         3.1 0.66            129            162 219 
 ZAR  HZ EP   1    725 32.18                             121    1.05 6  203 292 
 ZAR  HN ES        725 56.23                             121    0.30 9  203 292 
                                                                                
