 2010 1130 0310 25.8 L   6.781 -73.123138.0  RSN 11 0.5 2.5LRSN                1
 GAP=180        0.97       4.5     7.1  7.0 -0.1894E+02 -0.6105E-01  0.9023E+01E
 Epicentro: LOS SANTOS - SANTANDER                                             3
 ACTION:UP  10-12-17 16:56 OP:REBC STATUS:               ID:20101130031025 L   I
 2010-11-30-0307-09S.COL___129                                                 6
 STAT SP IPHASW D HRMM SECON CODA AMPLIT PERI AZIMU VELO SNR AR TRES W  DIS CAZ7
 BAR2 SZ IP     C  310 44.57                             170     0.110   22 198 
 BAR2 SZ ES   1    310 58.37                             170    -0.6 7   22 198 
 BAR2 SZ I         311  0.53        74.1 0.17                            22 198 
 BRR  HZ IP     D  310 46.48                             150     0.210   74 299 
 BRR  HN ES   1    311  3.23                             150     1.0 7   74 299 
 BRR  HZ I         311  4.53        87.0 0.13                            74 299 
 GUE  SZ EP        310 49.73                             138    -0.210  118  11 
 GRA  SZ EP        310 50.48                             135     0.110  127  16 
 GRA  SZ ES   1    311 10.13                             135     0.5 7  127  16 
 GRA  SZ I         311 10.92        50.2 0.12                           127  16 
 OCA  SZ EP        310 53.44                             128    -0.3 9  163 352 
 OCA  SZ ES   1    311 14.88                             128    -0.6 7  163 352 
 OCA  SZ I         311 18.39        42.7 0.36                           163 352 
 NOR  SZ EP        311  0.49                             117    -0.7 8  236 235 
 NOR  SN ES   1    311 28.30                             117    -0.5 6  236 235 
 CHI  HZ EP        311  2.89                             116     0.0 8  247 196 
 CHI  HE ES   2    311 32.42                             116     0.6 4  247 196 
 CHI  HZ I         311 42.26         7.7 0.51                           247 196 
 HEL  HZ EP   2    311  6.33                             113     0.5 4  274 256 
 HEL  HN ES   2    311 36.52                             113    -0.5 4  274 256 
 GUY  SZ EP   2    311 10.08                             111     0.9 4  302 235 
 GUY  SE ES   2    311 42.82                             111    -0.2 4  302 235 
 RREF HZ EP        311 11.91                             109     0.3 7  322 230 
 RREF HN ES   2    311 47.07                             109    -0.4 3  322 230 
 RREF HZ I         311 57.82         9.2 0.47                           322 230 
 PRA  HZ EP        311 18.93                             105     0.0 6  391 210 
 PRA  HE ES   1    312  1.19                             105     0.7 4  391 210 
 PRA  HZ I         312  5.58        25.1 0.35                           391 210 
                                                                                
