 2015 1230 0451 30.4 L   6.831 -73.133150.9  RSN 25 0.5 2.4LRSN                1
 GAP= 53        1.09       2.5     2.7  4.4 -0.7764E+00  0.2259E+01  0.8268E+00E
 Epicentro: LOS SANTOS - SANTANDER                                             3
 ACTION:UPD 16-02-04 15:09 OP:cam  STATUS:               ID:20151230045130 L   I
 OLDACT:REG 15-12-30 12:48 OP:ak   STATUS:               ID:20151230044750     3
 2015-12-30-0447-50M.COL___334                                                 6
 STAT SP IPHASW D HRMM SECON CODA AMPLIT PERI AZIMU VELO AIN AR TRES W  DIS CAZ7
 BAR2 EZ EP        451 50.84                             169    0.1310 26.9 192 
 BAR2 EZ ES        452  6.57                             169    0.0110 26.9 192 
 BAR2 EZ I         452  8.76        36.3 0.40            169           26.9 192 
 BRR  HZ EP        451 52.65                             153    0.5710 71.0 296 
 BRR  HN ES        452  9.42                             153    0.4210 71.0 296 
 BRR  HZ I         452 12.92        27.2 0.34            152           71.0 296 
 PAM  EZ EP        451 53.54                             153    0.5910 73.9  40 
 PAM  EN ES        452 10.95                             153    0.4010 73.9  40 
 PAM  EZ I         452 12.92        61.2 0.54            156           73.9  40 
 RUS  HZ EP        451 54.76                             144   -0.1210  104 177 
 RUS  HN ES        452 13.28                             144   -0.7010  104 177 
 RUS  HZ I         452 16.45        30.0 0.34            146            104 177 
 PTB  HZ EP        451 57.38                             133   -0.59 9  150 258 
 PTB  HN ES        452 18.82                             133   -0.66 9  150 258 
 PTB  HZ I         452 26.11        31.4 0.72            133            150 258 
 TAM  HZ EP        451 58.78                             132    0.35 9  155 106 
 TAM  HN ES        452 20.26                             132   -0.05 9  155 106 
 OCA  HZ EP        451 58.76                             131   -0.05 9  157 352 
 OCA  HN ES        452 20.98                             131    0.00 9  157 352 
 OCA  HZ I         452 30.67        42.7 0.24            133            157 352 
 SPBC HZ EP        451 59.86                             130    0.25 9  167 219 
 SPBC HN ES        452 22.30                             130   -0.11 9  167 219 
 SPBC HZ I         452 24.48        37.2 0.40            131            167 219 
 ZAR  HZ EP        452  3.43                             123    0.25 9  204 291 
 ZAR  HN ES        452 28.94                             123    0.18 9  204 291 
 ZAR  HZ I         452 35.27        29.7 0.28            124            204 291 
 NOR  HZ EP        452  6.88                             119    0.13 8  238 234 
 NOR  HN ES        452 35.18                             119    0.06 8  238 234 
 NOR  HZ I         452 40.27        23.9 0.20            120            238 234 
 SML  HZ EP        452  6.89                             119   -0.15 8  241 335 
 SML  HN ES        452 35.15                             119   -0.49 8  241 335 
 SML  HZ I         452 42.32        18.1 0.22            120            241 335 
 CHI  HZ EP        452  8.86                             118    0.09 8  252 195 
 CHI  HN ES        452 38.14                             118   -0.56 8  252 195 
 CHI  HZ I         452 44.46         9.8 0.56            120            252 195 
 ROSC BZ EP   9    452 10.99                             117    1.81 0  256 211 
 ROSC BN ES        452 41.11                                   -0.14 8  256 211 
 ROSC BZ I         452 44.50        18.9 0.40            119            256 211 
 HEL  HZ EP   4    452 12.84                             116    1.73 0  274 255 
 HEL  HN ES        452 42.53                             116   -0.35 8  274 255 
 HEL  HZ I         452 49.40        12.6 0.30            117            274 255 
 URE  HZ EP        452 11.39                             115   -0.33 7  284 291 
 URE  HN ES   4    452 41.53                             115   -2.43 0  284 291 
 URE  HZ I         452 45.62        11.4 0.20            116            284 291 
 SOCV BZ EP        452 12.30                             113   -1.03 7  298  57 
 SOCV BN ES   4    452 43.64                             113   -3.19 0  298  57 
 GUY2CHZ EP        452 15.39                             113    0.80 7  304 234 
 GUY2CHE ES        452 49.78                             113    0.71 7  304 234 
 GUY2CHZ I         452 57.67        18.8 0.72                           304 234 
 PTGC HZ EP        452 13.86                             112   -0.91 7  311 159 
 PTGC HN ES   4    452 46.70                             112   -2.69 0  311 159 
 PTGC HZ I         452 50.46        12.2 0.45            114            311 159 
 CBOC HZ EP        452 18.92                             111    1.13 7  336 252 
 CBOC HE ES   2    452 53.68                             111   -1.09 3  336 252 
 CBOC HZ I         453  1.14         6.4 0.52            112            336 252 
 DBB  SZ EP   4    452 20.77                             110    2.56 0  341 274 
 DBB  SZ ES        452 54.68                             110   -0.84 7  341 274 
 ANIL HZ EP   2    452 21.50                             109    0.71 3  361 224 
 ANIL HN ES   4    453  2.12                             109    2.02 0  361 224 
 PRA  HZ EP        452 24.54                             107    0.03 6  396 210 
 PRA  HN ES        453  6.92                             107    0.19 6  396 210 
 PRA  HZ I         453 15.42         9.8 0.28            109            396 210 
 ORTC HZ EP        452 25.14                             107    0.24 6  399 216 
 ORTC HN ES        453  8.38                             107    0.95 6  399 216 
 ORTC HZ I         453 14.83         7.0 0.54            108            399 216 
 SJC  HZ EP        452 24.72                             107   -1.16 6  407 327 
 SJC  HN ES   4    453  5.76                             107   -3.41 0  407 327 
 SJC  HZ I         453 10.42         5.5 0.40            108            407 327 
 PAL  HZ EP        452 26.46                             107    0.39 6  409 239 
 PAL  HN ES   4    453 10.94                             107    1.44 0  409 239 
 PAL  HZ I         453 15.00         6.5 0.32            108            409 239 
                                                                                
