 2016  130 0723  3.9 L   6.819 -73.147147.5  RSN 11 0.3 1.5LRSN                1
 GAP=135        0.83       2.2     3.5  4.8 -0.9157E+00  0.6100E+01  0.4331E-01E
 Epicentro: LOS SANTOS - SANTANDER                                             3
 ACTION:UPD 16-03-09 23:29 OP:cam  STATUS:               ID:20160130072303 L   I
 OLDACT:REG 16-01-30 12:00 OP:mher STATUS:               ID:20160130072000     3
 2016-01-30-0719-59S.COL___226                                                 6
 STAT SP IPHASW D HRMM SECON CODA AMPLIT PERI AZIMU VELO AIN AR TRES W  DIS CAZ7
 BAR2 EZ IP     C  723 23.71                             170   -0.0610 25.4 189 
 BAR2 EZ ES        723 38.91                             170   -0.3710 25.4 189 
 BAR2 EZ I         723 40.27         6.1 0.22            168           25.4 189 
 PAM  EZ EP        723 26.41                             152    0.2010 75.9  41 
 PAM  EN ES        723 43.96                             152    0.3510 75.9  41 
 PAM  EZ I         723 45.77         3.3 0.48            157           75.9  41 
 RUS  HZ EP        723 27.57                             144   -0.4010  103 176 
 RUS  HN ES        723 46.69                             144   -0.0510  103 176 
 RUS  HZ I         723 48.32         2.0 0.28            145            103 176 
 PTB  HZ EP        723 30.62                             132   -0.40 9  148 258 
 PTB  HN ES        723 51.63                             132   -0.55 9  148 258 
 PTB  HZ I         723 57.49         4.1 0.56            132            148 258 
 OCA  HZ EP   4    723 35.44                             130    3.30 0  158 353 
 OCA  HE ES        723 54.28                             130    0.11 9  158 353 
 SPBC HZ EP        723 32.66                             129   -0.01 9  165 218 
 SPBC HN ES        723 55.58                             129    0.47 9  165 218 
 SPBC HZ I         724  2.49         5.9 0.34            130            165 218 
 ZAR  HZ EP        723 36.09                             123   -0.26 9  203 292 
 ZAR  HN ES        724  2.08                             123    0.41 9  203 292 
 ZAR  HZ I         724  7.95         4.1 0.30            124            203 292 
 NOR  HZ EP        723 39.88                             119    0.04 8  236 234 
 NOR  HN ES        724  8.14                             119    0.27 8  236 234 
 NOR  HZ I         724 11.21         3.2 0.20            120            236 234 
 SML  HZ EP        723 40.62                             118    0.22 8  242 335 
 SML  HN ES        724  8.74                             118   -0.14 8  242 335 
 SML  HZ I         724 12.05         6.4 0.10            120            242 335 
 CHI  HZ EP        723 41.43                             117   -0.47 8  251 195 
 CHI  HN ES        724 12.18                             117    0.63 8  251 195 
 CHI  HZ I         724 19.78         1.1 0.40            119            251 195 
 GUY2CHZ EP        723 48.15                             112    0.45 7  302 234 
 GUY2CHN ES   4    724 23.21                             112    1.34 0  302 234 
 GUY2CHZ I         724 30.40         2.7 0.76                           302 234 
                                                                                
