 2017 1230 0304 24.3 L   6.783 -73.135142.0  RSN  8 0.5 1.6LRSN                1
 GAP=156        1.22       4.5     5.9  8.2 -0.1210E+02  0.1888E+02 -0.5793E+01E
 Epicentro: LOS SANTOS - SANTANDER                                             3
 ACTION:UPD 18-01-04 13:25 OP:rebc STATUS:               ID:20171230030424 L   I
 OLDACT:REG 17-12-30 12:46 OP:osc  STATUS:               ID:20171230025734     3
 2017-12-30-0258-00M.COL___469                                                 6
 STAT SP IPHASW D HRMM SECON CODA AMPLIT PERI AZIMU VELO AIN AR TRES W  DIS CAZ7
 BAR2 EZ EP        3 4 42.84                             171   -0.6010 21.7 194 
 BAR2 EZ ES        3 4 58.35                             171   -0.0210 21.7 194 
 BAR2 EZ I         3 4 59.22        11.9 0.36            171           21.7 194 
 PAM  EZ EP        3 4 46.04                             150   -0.1110 78.1  38 
 PAM  EE ES        3 5  3.27                             150    0.0710 78.1  38 
 PAM  EZ I         3 5  5.34         5.7 0.54            153           78.1  38 
 PTB  HZ EP        3 4 50.23                             131   -0.80 9  149 260 
 PTB  HE ES        3 5 11.76                             131   -0.12 9  149 260 
 PTB  HZ I         3 5 17.21         2.2 0.20            132            149 260 
 SPBC HZ EP        3 4 52.27                             128   -0.17 9  162 220 
 SPBC HE ES        3 5 15.22                             128    0.83 9  162 220 
 SPBC HZ I         3 5 18.94         6.2 0.22            131            162 220 
 OCA  HZ EP        3 4 52.25                             128   -0.25 9  162 353 
 OCA  HN ES        3 5 15.35                             128    0.85 9  162 353 
 OCA  HZ I         3 5 19.49        12.5 0.24            130            162 353 
 ZAR  HZ EP        3 4 57.10                             121    0.42 8  206 293 
 ZAR  HN ES        3 5 21.19                             121   -0.75 8  206 293 
 ZAR  HZ I         3 5 26.53         4.8 0.40            123            206 293 
 DRL03HN ES        3 5 38.68                             112    0.24 7  291 353 
 GUY2CHZ EP        3 5  8.32                             112    0.61 7  301 235 
 GUY2CHE ES        3 5 42.00                             112    0.42 7  301 235 
 GUY2CHZ I         3 5 49.34         1.7 0.34                           301 235 
                                                                                
