 2017 1230 0512 55.1 L   6.516 -73.488112.0  RSN  6 0.6 1.4LRSN                1
 GAP=138        0.95       4.3     4.6  7.9 -0.9826E+01  0.1833E+02 -0.7039E+01E
 Epicentro: SIMACOTA - SANTANDER                                               3
 ACTION:UPD 18-01-04 13:25 OP:rebc STATUS:               ID:20171230051255 L   I
 OLDACT:REG 17-12-30 12:55 OP:osc  STATUS:               ID:20171230050729     3
 2017-12-30-0508-00M.COL___463                                                 6
 STAT SP IPHASW D HRMM SECON CODA AMPLIT PERI AZIMU VELO AIN AR TRES W  DIS CAZ7
 BAR2 EZ EP     C  513 11.23                             162    0.1310 34.8  76 
 BAR2 EZ ES        513 23.85                             162    0.3010 34.8  76 
 BAR2 EZ I         513 24.83        20.2 0.44            164           34.8  76 
 PTB  HZ EP   3    513 14.06                             133   -1.61 2  107 271 
 PTB  HN ES   3    513 29.04                             133   -2.65 2  107 271 
 PTB  HZ I         513 30.22         3.8 0.11            134            107 271 
 SPBC HZ EP        513 16.66                             131    0.1410  115 214 
 SPBC HE ES        513 32.94                             131   -0.2510  115 214 
 SPBC HZ I         513 38.12         4.3 0.22            132            115 214 
 PAM  EZ EP        513 17.80                             128   -0.2610  126  44 
 PAM  EE ES        513 35.85                             128   -0.0910  126  44 
 ZAR  HZ EP        513 23.28                             116   -0.36 9  186 306 
 ZAR  HN ES        513 46.40                             116    0.54 9  186 306 
 ZAR  HZ I         513 48.43         4.2 0.30            118            186 306 
 GUY2CHZ EP        513 31.32                             109   -0.38 8  252 236 
 GUY2CHN ES        514  0.81                             109    0.59 8  252 236 
 GUY2CHZ I         514  4.75         1.2 0.28                           252 236 
                                                                                
