 2017 1130 0713 57.8 L   6.813 -73.139144.5  RSN  8 0.6 1.5LRSN                1
 GAP=134        1.30       4.9     8.6  8.3 -0.2097E+02  0.7769E+01  0.8384E+01E
 Epicentro: LOS SANTOS - SANTANDER                                             3
 ACTION:UPD 17-12-12 20:02 OP:rebc STATUS:               ID:20171130071357 L   I
 OLDACT:DUP 17-11-30 18:06 OP:dani STATUS:               ID:20171130070646d    3
 OLDACT:UP  17-11-30 18:05 OP:dani STATUS:               ID:20171130070645     3
 OLDACT:UP  17-11-30 18:01 OP:dani STATUS:               ID:20171130070645     3
 OLDACT:REG 17-11-30 12:54 OP:dhb  STATUS:               ID:20171130070645     3
 2017-11-30-0707-00M.COL___453                                                 6
 STAT SP IPHASW D HRMM SECON CODA AMPLIT PERI AZIMU VELO AIN AR TRES W  DIS CAZ7
 BAR2 EZ EP        714 17.35                             170   -0.0110 24.9 191 
 BAR2 EZ ES        714 32.81                             170    0.2410 24.9 191 
 BAR2 EZ I         714 40.95         4.9 0.38            169           24.9 191 
 PAM  EZ EP        714 20.11                             151    0.2810 75.8  40 
 PAM  EN ES        714 37.24                             151    0.2610 75.8  40 
 PAM  EZ I         714 39.19         5.9 0.50            156           75.8  40 
 RUS  HZ EP        714 21.45                             143   -0.1310  102 177 
 RUS  HN ES        714 39.92                             143   -0.1610  102 177 
 RUS  HZ I         714 41.77         3.8 0.29            146            102 177 
 TAM  HZ EP        714 25.68                             130    0.29 9  155 106 
 OCA  HN ES        714 47.45                             130   -0.38 9  159 353 
 SPBC HZ EP        714 26.55                             129    0.15 9  165 219 
 SPBC HN ES        714 48.34                             129   -0.33 9  165 219 
 SPBC HZ I         714 51.12         4.9 0.16            132            165 219 
 CHI  HZ EP        714 34.35                             117   -1.30 8  250 195 
 CHI  HN ES        715  4.55                             117   -0.58 8  250 195 
 CHI  HZ I         715  7.28         1.4 0.32            120            250 195 
 PRA  HZ EP        714 52.25                             106    0.74 6  394 210 
 PRA  HE ES        715 35.30                             106    1.93 6  394 210 
 PRA  HZ I         715 38.12         1.5 0.29            109            394 210 
                                                                                
