 2014 1130 0951 51.5 L   6.778 -73.107151.8  RSN 10 0.5 1.7LRSN                1
 GAP=143        1.29       4.4     5.6  7.6 -0.3302E+01  0.1204E+02  0.2260E+01E
 Epicentro: LOS SANTOS - SANTANDER                                             3
 ACTION:UPD 14-12-19 15:49 OP:nd   STATUS:               ID:20141130095151 L   I
 OLDACT:UP  14-11-30 19:03 OP:mh   STATUS:               ID:20141130094746d    3
 OLDACT:DUP 14-11-30 18:58 OP:mh   STATUS:               ID:20141130094746d    3
 2014-11-30-0947-45M.COL___300                                                 6
 STAT SP IPHASW D HRMM SECON CODA AMPLIT PERI AZIMU VELO AIN AR TRES W  DIS CAZ7
 BAR2 SZ EP        952 12.61                             171    0.8210 22.2 202 
 BAR2 SZ ES        952 27.67                             171    0.0210 22.2 202 
 BAR2 SZ I         952 30.23        13.6 0.22            168           22.2 202 
 BRR  HZ EP        952 14.22                             152    0.6910 76.1 299 
 BRR  HN ES        952 31.12                             152    0.3710 76.1 299 
 BRR  HZ I         952 34.32        10.2 0.19            149           76.1 299 
 PAM  SZ EP        952 13.36                             152   -0.9110 76.7  36 
 PAM  SN ES        952 32.22                             152    0.1510 76.7  36 
 PAM  SZ I         952 35.00         7.5 0.48            156           76.7  36 
 RUS  HN ES        952 34.13                             146   -0.3410 98.0 178 
 PTB  HZ EP        952 18.43                             133   -0.83 9  152 260 
 PTB  HN ES        952 40.65                             133   -0.29 9  152 260 
 PTB  HZ I         952 46.84         7.1 0.23            131            152 260 
 OCA  HZ EP   1    952 21.07                             130    0.56 7  163 352 
 OCA  HN ES        952 42.80                             130   -0.38 9  163 352 
 OCA  HZ I         952 47.85         6.2 0.08            132            163 352 
 ZAR  HZ EP        952 24.79                             123   -0.01 8  209 292 
 ZAR  HN ES        952 50.58                             123   -0.22 8  209 292 
 ZAR  HZ I         952 57.04         9.4 0.51            123            209 292 
 NOR  HZ EP        952 28.65                             119    0.88 8  237 236 
 NOR  HN ES        952 56.13                             119    0.04 8  237 236 
 NOR  HZ I         953  2.74         4.8 0.14            120            237 236 
 CHI  HZ EP        952 28.99                             118   -0.38 8  247 196 
 CHI  HN ES   1    952 59.00                             118    0.06 6  247 196 
 CHI  HZ I         953  2.94         1.3 0.18            120            247 196 
 HEL  HZ EP   4    952 33.91                             116    1.53 0  276 257 
 HEL  HN ES   4    953  3.90                             116   -0.39 0  276 257 
 HEL  HZ I         953 13.62         2.7 0.49            116            276 257 
                                                                                
