 2014 1230 0733 15.5 L   6.756 -73.191135.5  RSN  4 0.4 1.0LRSN                1
 GAP=233        0.93       6.7     6.9  8.5 -0.6840E+01  0.1252E+02  0.4063E+01E
 Epicentro: VILLANUEVA - SANTANDER                                             3
 ACTION:UPD 15-02-10 17:08 OP:nd   STATUS:               ID:20141230073315 L   I
 OLDACT:DUP 14-12-30 17:27 OP:stll STATUS:               ID:20141230072748d    3
 OLDACT:REG 14-12-30 13:06 OP:stll STATUS:               ID:20141230072747     3
 2014-12-30-0727-47M.COL___262                                                 6
 STAT SP IPHASW D HRMM SECON CODA AMPLIT PERI AZIMU VELO AIN AR TRES W  DIS CAZ7
 BAR2 EZ EP        733 33.80                             172   -0.0310 18.2 177 
 BAR2 EZ ES        733 47.82                             172   -0.2710 18.2 177 
 BAR2 EZ I         733 49.58         2.9 0.34            175           18.2 177 
 BRR  HZ EP        733 36.01                             151    0.5410 69.4 304 
 BRR  HN ES        733 51.16                             151    0.1410 69.4 304 
 BRR  HZ I         733 53.98         2.3 0.42            150           69.4 304 
 PTB  HZ EP        733 40.53                             131   -0.61 9  142 260 
 PTB  HZ I         733 43.10         1.3 0.42            131            142 260 
 PTB  HN ES        734  0.94                             131   -0.17 9  142 260 
 SPBC HN ES        734  4.08                             128    0.38 9  156 219 
                                                                                
