 2013  830 0721 17.5 L   6.732 -73.161154.0  RSN  5 0.5 1.1LRSN                1
 GAP=268        0.94       8.4    13.2 12.1 -0.6899E+02 -0.4182E+02  0.1209E+02E
 Epicentro: VILLANUEVA - SANTANDER                                             3
 ACTION:UPD 14-01-14 09:08 OP:ep   STATUS:               ID:20130830072117 L   I
 OLDACT:REG 13-08-30 08:19 OP:jn   STATUS:               ID:20130830071847d    3
 2013-08-30-0718-45M.COL___211                                                 6
 STAT SP IPHASW D HRMM SECON CODA AMPLIT PERI AZIMU VELO AIN AR TRES W  DIS CAZ7
 BRR  HN ES   1    721 57.44                             153    0.43 8 73.7 304 
 PTB  HZ EP        721 45.36                             134    0.4310  145 262 
 PTB  HN ES        722  5.63                             134   -0.6610  145 262 
 PTB  HZ I         722 10.01         1.3 0.46            128            145 262 
 OCA  HN ES   1    722  9.96                             130   -0.32 7  168 354 
 ZAR  HN ES   1    722 17.13                             124    0.61 7  205 294 
 ZAR  HZ I         722 21.42         1.1 0.20            119            205 294 
 SML  HZ EP   1    721 55.02                             118   -0.27 6  250 336 
 SML  HN ES   1    722 24.61                             118   -0.13 6  250 336 
                                                                                
