 2013  430 0352 40.8 L   6.792 -73.143146.4  RSN  9 0.3 2.0LRSN                1
 GAP=137        0.79       2.8     3.7  5.1 -0.1928E+01  0.5722E+01 -0.1271E+01E
 Epicentro: LOS SANTOS - SANTANDER                                             3
 ACTION:UPD 13-05-22 14:41 OP:EP   STATUS:               ID:20130430035240 L   I
 2013-04-30-0350-00M.COL___253                                                 6
 STAT SP IPHASW D HRMM SECON CODA AMPLIT PERI AZIMU VELO AIN AR TRES W  DIS CAZ7
 BAR2 SZ EP        353  0.42                             171   -0.0410 22.5 191 
 BAR2 SZ ES   1    353 15.33                             171   -0.50 7 22.5 191 
 BAR2 SZ I         353 16.49        20.1 0.32            171           22.5 191 
 BRR  HZ EP     C  353  2.35                             152    0.3210 71.8 299 
 BRR  HN ES   1    353 19.41                             152    0.81 7 71.8 299 
 BRR  HZ I         353 23.18        17.3 0.30            149           71.8 299 
 PAM  SZ EP        353  3.23                             151    0.1410 77.9  39 
 PAM  SZ I         353  3.50        30.8 0.18            152           77.9  39 
 PAM  SN ES        353 20.39                             151   -0.1010 77.9  39 
 RUS  HZ EP        353  4.83                             144    0.3110 99.7 176 
 RUS  HN ES        353 23.00                             144   -0.0510 99.7 176 
 RUS  HZ I         353 23.78         8.5 0.26            148           99.7 176 
 PTB  HZ EP     C  353  7.45                             132   -0.35 9  148 259 
 PTB  HN ES        353 28.37                             132   -0.51 9  148 259 
 PTB  HZ I         353 31.53        13.9 0.12            132            148 259 
 OCA  HZ EP   2    353  9.07                             130   -0.14 5  161 353 
 OCA  HN ES   2    353 31.12                             130   -0.28 5  161 353 
 OCA  HZ I         353 35.75         9.9 0.26            130            161 353 
 NOR  HZ EP   1    353 16.42                             119   -0.09 6  234 235 
 NOR  HN ES        353 44.72                             119    0.34 8  234 235 
 NOR  HZ I         353 49.52        12.7 0.18            120            234 235 
 SML  HZ EP     C  353 17.03                             117   -0.50 8  245 335 
 SML  HN ES        353 46.45                             117    0.25 8  245 335 
 SML  HZ I         353 53.17        13.6 0.10            118            245 335 
 PRA  HZ EP        353 34.38                             107    0.14 6  391 210 
                                                                                
