 2013 1230 0324 45.2 L   7.382 -73.224134.2  RSN  5 0.3 1.5LRSN                1
 GAP=261        0.68      10.4     6.1  7.7 -0.6966E+00 -0.1592E+02  0.1475E+02E
 Epicentro: EL PLAYON - SANTANDER                                              3
 ACTION:UPD 14-01-13 10:22 OP:ep   STATUS:               ID:20131230032445 L   I
 OLDACT:UP  13-12-30 11:11 OP:mh   STATUS:               ID:20131230032000     3
 OLDACT:REG 13-12-30 08:03 OP:mh   STATUS:               ID:20131230032000     3
 2013-12-30-0320-00M.COL___285                                                 6
 STAT SP IPHASW D HRMM SECON CODA AMPLIT PERI AZIMU VELO AIN AR TRES W  DIS CAZ7
 BRR  HZ EP        325  4.69                             154    0.1410 61.9 241 
 BRR  HN ES        325 19.64                             154   -0.0210 61.9 241 
 BRR  HZ I         325 20.57         8.9 0.07                          61.9 241 
 BAR2 SZ EP   1    325  6.50                             145    0.01 7 87.5 177 
 BAR2 SZ I         325 24.05         9.5 0.08             90           87.5 177 
 PTB  HZ I         325 38.85         2.5 0.09             90            165 236 
 RUS  HZ EP   1    325 13.05                             126   -0.52 7  165 175 
 PTB  HZ EP        325 13.25                             126    0.36 9  165 236 
 PTB  HN ES        325 34.52                             126    0.01 9  165 236 
 ZAR  HN ES   2    325 36.40                             123   -0.92 4  181 274 
                                                                                
