 2011  130 0253 46.3 L   6.763 -73.269144.0  RSN  7 0.4 1.7LRSN                1
 GAP=131        1.14       4.5    11.6  7.4 -0.4144E+01  0.2544E+02 -0.4857E+01E
 Epicentro: ZAPATOCA - SANTANDER                                               3
 ACTION:UP  11-02-08 08:43 OP:pat  STATUS:               ID:20110130025346 L   I
 2011-01-30-0252-05S.COL___138                                                 6
 STAT SP IPHASW D HRMM SECON CODA AMPLIT PERI AZIMU VELO SNR AR TRES W  DIS CAZ7
 BTL  SZ EP        254  4.96                             173    -0.710   17   1 
 BTL  SZ ES        254 20.98                             173     0.310   17   1 
 BAR2 SZ EP        254  5.68                             171     0.010   21 153 
 BAR2 SZ ES        254 21.01                             171     0.210   21 153 
 BAR2 SZ I         254 21.84        13.2 0.46                            21 153 
 RUS  HZ EP        254  9.58                             144    -0.210   98 168 
 RUS  HN ES        254 27.72                             144    -0.310   98 168 
 RUS  HZ I         254 31.76         5.0 0.70                            98 168 
 GRA  SZ EP        254 12.53                             135     0.410  134  22 
 GRA  SZ ES        254 32.43                             135     0.210  134  22 
 GRA  SZ I         254 35.01        10.1 0.34                           134  22 
 OCA  SZ EP        254 14.29                             129    -0.5 9  163 358 
 CHI  HZ EP        254 23.92                             118     0.8 8  241 192 
 CHI  HZ I         254 25.74         2.8 0.78                           241 192 
 MON  HE ES   1    255 11.81                             109     0.1 5  345 310 
                                                                                
