 2017  630 0419 39.2 L   6.791 -73.104146.8  RSN 11 0.5 1.7LRSN                1
 GAP=116        0.75       3.9     4.0  5.2  0.2220E+01  0.3808E+01  0.1167E+02E
 Epicentro: LOS SANTOS - SANTANDER                                             3
 ACTION:UPD 17-09-14 16:56 OP:jn   STATUS:               ID:20170630041939 L   I
 OLDACT:UP  17-06-30 15:54 OP:and  STATUS:               ID:20170630041738     3
 OLDACT:UP  17-06-30 15:54 OP:and  STATUS:               ID:20170630041738     3
 OLDACT:UP  17-06-30 15:53 OP:and  STATUS:               ID:20170630041738     3
 OLDACT:UP  17-06-30 15:52 OP:and  STATUS:               ID:20170630041738     3
 OLDACT:UP  17-06-30 15:51 OP:and  STATUS:               ID:20170630041738     3
 OLDACT:REG 17-06-30 13:23 OP:and  STATUS:               ID:20170630041738     3
 2017-06-30-0418-00M.COL___371                                                 6
 STAT SP IPHASW D HRMM SECON CODA AMPLIT PERI AZIMU VELO AIN AR TRES W  DIS CAZ7
 BAR2 EZ IP     C  419 59.00                             170    0.0110 23.6 201 
 BAR2 EZ ES        420 14.12                             170   -0.2910 23.6 201 
 BAR2 EZ I         420 15.44        13.1 0.18            167           23.6 201 
 PAM  EZ EP   2    420  1.85                             152    0.41 5 75.3  36 
 PAM  EN ES        420 18.76                             152    0.0010 75.3  36 
 PAM  EZ I         420 20.35         6.8 0.22            156           75.3  36 
 BRR  HZ IP     C  420  0.74                             151   -0.0110 75.7 298 
 BRR  HN ES        420 17.80                             151    0.2610 75.7 298 
 BRR  HZ I         420 20.83         9.1 0.40            149           75.7 298 
 PTB  HZ EP        420  6.23                             131   -0.45 9  152 260 
 PTB  HN ES   3    420 26.83                             131   -1.26 2  152 260 
 PTB  HZ I         420 28.58         4.0 0.28            130            152 260 
 SPBC HZ EP        420  7.97                             129   -0.05 9  165 220 
 SPBC HN ES   3    420 31.52                             129    1.05 2  165 220 
 SPBC HZ I         420 35.00         7.9 0.14            129            165 220 
 YPLC HZ EP        420  9.46                             127    0.66 9  174 153 
 ZAR  HN ES   3    420 36.75                             122   -1.21 2  209 292 
 ZAR  HZ I         420 43.14         6.1 0.16            122            209 292 
 CHI  HZ EP        420 17.00                             117   -0.02 8  249 196 
 CHI  HN ES        420 46.89                             117    0.40 8  249 196 
 CHI  HZ I         420 50.35         2.0 0.28            118            249 196 
 HEL  HZ EP        420 19.98                             115    0.02 7  276 256 
 HEL  HN ES   2    420 52.31                             115    0.57 4  276 256 
 HEL  HZ I         420 57.28         3.2 0.30            115            276 256 
 GUY2CHZ EP   3    420 24.26                             112    1.01 2  304 235 
 GUY2CHN ES   4    421  0.63                             112    3.05 0  304 235 
 GUY2CHZ I         421  7.97         2.2 0.44                           304 235 
 PTGC HZ EP        420 22.36                             112   -0.48 7  306 159 
 PTGC HN ES   1    420 56.04                             112   -0.82 5  306 159 
                                                                                
