 2015 1230 0146 23.1 L   6.793 -73.168143.7  RSN  9 0.4 1.8LRSN                1
 GAP=181        0.87       2.6     4.1  5.1 -0.2876E+00  0.3438E+01 -0.2213E+01E
 Epicentro: LOS SANTOS - SANTANDER                                             3
 ACTION:UPD 16-02-04 15:08 OP:cam  STATUS:               ID:20151230014623 L   I
 OLDACT:DUP 15-12-30 15:22 OP:ak   STATUS:               ID:20151230013751d    3
 OLDACT:UP  15-12-30 15:20 OP:ak   STATUS:               ID:20151230013750     3
 OLDACT:REG 15-12-30 12:34 OP:ak   STATUS:               ID:20151230013750     3
 2015-12-30-0137-50M.COL___335                                                 6
 STAT SP IPHASW D HRMM SECON CODA AMPLIT PERI AZIMU VELO AIN AR TRES W  DIS CAZ7
 BAR2 EZ EP        146 42.57                             171    0.1310 22.2 184 
 BAR2 EZ ES        146 57.62                             171    0.0810 22.2 184 
 BAR2 EZ I         146 59.04        19.0 0.26            172           22.2 184 
 BRR  HZ EP        146 44.40                             153    0.4910 69.5 300 
 BRR  HN ES        147  0.42                             153    0.2610 69.5 300 
 BRR  HZ I         147  3.43        11.9 0.36            150           69.5 300 
 RUS  HZ EP        146 46.26                             144   -0.3310100.0 175 
 RUS  HN ES        147  4.71                             144   -0.2110100.0 175 
 RUS  HZ I         147  6.22         4.8 0.34            148          100.0 175 
 PTB  HZ EP        146 48.99                             132   -0.66 9  145 259 
 PTB  HN ES        147 10.46                             132    0.08 9  145 259 
 PTB  HZ I         147 15.71         5.9 0.18            132            145 259 
 SPBC HZ EP        146 51.18                             129   -0.04 9  161 218 
 SPBC HN ES        147 13.39                             129    0.23 9  161 218 
 OCA  HZ EP        146 51.59                             129    0.30 9  161 354 
 OCA  HN ES        147 12.85                             129   -0.43 9  161 354 
 OCA  HZ I         147 18.87        14.3 0.46            130            161 354 
 ZAR  HZ EP        146 55.54                             122    0.35 9  202 293 
 ZAR  HN ES        147 19.91                             122   -0.33 9  202 293 
 ZAR  HZ I         147 27.03         6.7 0.32            123            202 293 
 NOR  HZ EP        146 58.22                             118   -0.21 8  232 234 
 NOR  HN ES        147 26.09                             118    0.09 8  232 234 
 NOR  HZ I         147 28.81         3.8 0.18            120            232 234 
 SML  HZ EP        147  0.25                             117    0.68 8  243 336 
 SML  HN ES        147 27.51                             117   -0.51 8  243 336 
 SML  HZ I         147 34.70         6.5 0.36            118            243 336 
                                                                                
