 2014 1130 0913 33.1 L   6.801 -73.170153.6  RSN  8 0.4 1.8LRSN                1
 GAP=189        1.08       4.6     6.3  8.6 -0.1258E+02 -0.8563E+01  0.9063E+01E
 Epicentro: LOS SANTOS - SANTANDER                                             3
 ACTION:UPD 14-12-19 15:49 OP:nd   STATUS:               ID:20141130091333 L   I
 OLDACT:REG 14-11-30 13:35 OP:mh   STATUS:               ID:20141130090750     3
 2014-11-30-0907-50M.COL___300                                                 6
 STAT SP IPHASW D HRMM SECON CODA AMPLIT PERI AZIMU VELO AIN AR TRES W  DIS CAZ7
 BAR2 SZ EP        913 53.35                             171   -0.3610 23.2 183 
 BAR2 SZ I         914 10.88         9.2 0.07            169           23.2 183 
 BRR  HZ EP        913 55.68                             155    0.6710 68.8 299 
 BRR  HN ES        914 12.26                             155    0.1910 68.8 299 
 BRR  HZ I         914 15.39         7.4 0.14            161           68.8 299 
 PTB  HZ EP        913 59.71                             134   -0.82 9  145 259 
 PTB  HN ES        914 21.85                             134   -0.04 9  145 259 
 PTB  HZ I         914 23.58        10.4 0.12            139            145 259 
 OCA  HZ EP        914  2.57                             131    0.55 9  160 354 
 OCA  HN ES        914 23.85                             131   -0.71 9  160 354 
 OCA  HZ I         914 29.01         6.0 0.32            135            160 354 
 SPBC HZ EP        914  2.49                             131    0.38 9  162 218 
 SPBC HN ES        914 24.83                             131    0.13 9  162 218 
 SPBC HZ I         914 28.37        10.0 0.26            134            162 218 
 ZAR  HZ EP        914  5.73                             124   -0.12 9  202 292 
 ZAR  HN ES        914 31.87                             124    0.50 9  202 292 
 ZAR  HZ I         914 38.27         7.5 0.46            129            202 292 
 NOR  HZ EP        914  8.96                             120   -0.15 8  233 234 
 NOR  HN ES        914 37.06                             120   -0.12 8  233 234 
 NOR  HZ I         914 41.25         5.9 0.16            123            233 234 
 HEL  HZ EP   1    914 13.78                             117    0.30 6  270 256 
 HEL  HN ES        914 44.55                             117   -0.40 8  270 256 
 HEL  HZ I         914 51.79         3.8 0.34            120            270 256 
                                                                                
