 2015  530 0724 18.2 L   6.821 -73.143146.2  RSN 24 0.6 2.7LRSN                1
 GAP=108        1.27       2.7     4.1  5.5 -0.1371E+01  0.6262E+01  0.2057E+01E
 Epicentro: LOS SANTOS - SANTANDER                                             3
      78.0      27.0     113.0 20.0 10.0 20.0  0.0  0.1           RSN FPFIT    F
 ACTION:UPD 15-09-10 22:08 OP:cam  STATUS:               ID:20150530072418 L   I
 OLDACT:UP  15-06-01 11:35 OP:Mher STATUS:               ID:20150530072418 L   3
 OLDACT:REG 15-05-30 14:17 OP:ar   STATUS:               ID:20150530071744     3
 2015-05-30-0717-44M.COL___309                                                 6
 STAT SP IPHASW D HRMM SECON CODA AMPLIT PERI AZIMU VELO AIN AR TRES W  DIS CAZ7
 BAR2 EZ IP     C  724 38.08                             170    0.1810 25.7 190 
 BAR2 EZ ES        724 53.13                             170   -0.1710 25.7 190 
 BAR2 EZ I         724 55.70       105.9 0.30            166           25.7 190 
 BRR  HZ IP     C  724 39.93                             153    0.6110 70.4 297 
 BRR  HZ I         724 40.16        77.4 0.26            144           70.4 297 
 BRR  HE ES        724 56.17                             153    0.3510 70.4 297 
 PAM  SZ EP     C  724 40.80                             151    0.4810 75.4  40 
 PAM  SZ I         724 41.06       185.2 0.22            152           75.4  40 
 PAM  SN ES        724 57.60                             151    0.0110 75.4  40 
 RUS  HZ EP     D  724 41.93                             143   -0.2010  103 176 
 RUS  HE ES        725  0.32                             143   -0.5010  103 176 
 RUS  HZ I         725  1.86        40.7 0.40            142            103 176 
 OCA  HZ EP        724 45.99                             130   -0.31 9  158 353 
 OCA  HN ES        725  8.46                             130    0.21 9  158 353 
 OCA  HZ I         725 13.26        99.1 0.36            126            158 353 
 SPBC HZ EP        724 46.94                             129    0.05 9  165 219 
 SPBC HN ES        725  9.01                             129   -0.29 9  165 219 
 SPBC HZ I         725 16.15        88.5 0.22            124            165 219 
 ZAR  HZ EP        724 50.73                             122    0.14 9  203 292 
 ZAR  HE ES        725 16.00                             122    0.13 9  203 292 
 ZAR  HZ I         725 26.10        43.9 0.20            117            203 292 
 NOR  HZ EP     C  724 54.00                             118   -0.10 8  236 234 
 NOR  HE ES        725 21.64                             118   -0.48 8  236 234 
 NOR  HZ I         725 25.57        39.1 0.36            114            236 234 
 SML  HZ EP        724 54.09                             118   -0.52 8  242 335 
 SML  HN ES        725 23.56                             118    0.53 8  242 335 
 SML  HZ I         725 30.85        70.0 0.28            114            242 335 
 CHI  HZ EP        724 55.95                             117   -0.20 8  251 195 
 CHI  HZ I         724 56.74        15.0 0.38            114            251 195 
 CHI  HE ES        725 25.79                             117    0.02 8  251 195 
 ROSC BZ EP        724 57.67                             116    1.12 8  255 211 
 ROSC BE ES        725 26.62                             116    0.14 8  255 211 
 ROSC BZ I         725 35.63        45.7 0.45            113            255 211 
 HEL  HZ EP        724 59.20                             115    0.70 8  273 255 
 HEL  HN ES        725 30.27                             115    0.31 8  273 255 
 HEL  HZ I         725 36.25        17.5 0.26            111            273 255 
 URE  HZ EP        724 57.93                             114   -1.27 7  283 291 
 URE  HN ES        725 29.02                             114   -2.18 7  283 291 
 URE  HZ I         725 39.83        26.2 0.22            110            283 291 
 GUY2CHZ EP        725  2.23                             112    0.25 7  303 234 
 GUY2CHN ES        725 36.19                             112    0.04 7  303 234 
 GUY2CHZ I         725 44.72        24.7 0.26                           303 234 
 VIL  SZ EP        725  1.19                             112   -0.68 7  306 192 
 VIL  SE ES        725 35.99                             112    0.03 7  306 192 
 VIL  SZ I         725 45.14        21.4 0.46            110            306 192 
 PTGC HZ EP   9 D  725  0.93                             111   -1.35 0  311 159 
 PTGC HN ES        725 34.03                                   -1.30 7  311 159 
 CBOC HZ EP        725  5.59                             110    0.37 7  335 252 
 CBOC HZ I         725 58.17         7.0 0.44            107            335 252 
 MON  HZ EP   9    725  5.20                             109   -1.85 0  352 308 
 MON  HN ES        725 43.81                                    0.48 6  352 308 
 MON  HZ I         725 58.63        11.9 0.54            105            352 308 
 ANIL HZ EP        725  9.11                             108    0.90 6  359 224 
 ANIL HN ES        725 47.66                             108    0.42 6  359 224 
 ANIL HZ I         725 51.97        44.9 0.34            106            359 224 
 SDV  BZ EP        725  7.33                             108   -0.70 6  359  50 
 SDV  BZ I         725  8.11        16.7 0.30            107            359  50 
 SDV  BN ES   4    725 44.85                             108   -2.07 0  359  50 
 PRA  HZ EP        725 11.30                             106   -0.66 6  394 209 
 PRA  HN ES        725 54.27                             106    0.35 6  394 209 
 PRA  HZ I         726  2.34        17.8 0.52            104            394 209 
 ORTC HZ EP        725 12.47                             106    0.12 6  397 216 
 ORTC HN ES        725 55.13                             106    0.53 6  397 216 
 ORTC HZ I         726  1.66        17.8 0.40            104            397 216 
 SJC  HZ EP   4    725 11.75                             106   -1.79 0  407 327 
 SJC  HN E         725 52.53                                            407 327 
 SJC  HN ES   4    725 52.53                             106   -4.20 0  407 327 
 SJC  HZ I         726  5.90         5.8 0.38            103            407 327 
 CRJC HZ EP   4    725 18.10                             103   -2.30 0  465   4 
 CRJC HN ES   4    726  5.25                             103   -3.70 0  465   4 
 CRJC HZ I         726 21.10        12.1 0.18            101            465   4 
                                                                                
