 2013  130 0928 16.1 L   6.801 -73.126151.4  RSN  6 0.1 1.5LRSN                1
 GAP=139        0.35       2.6     2.5  3.4  0.7929E+00  0.1228E+01  0.3607E+01E
 Epicentro: LOS SANTOS - SANTANDER                                             3
 ACTION:UPD 13-02-15 09:17 OP:ep   STATUS:               ID:20130130092816 L   I
 2013-01-30-0920-00M.COL___241                                                 6
 STAT SP IPHASW D HRMM SECON CODA AMPLIT PERI AZIMU VELO AIN AR TRES W  DIS CAZ7
 BAR2 SZ EP        928 36.48                             171    0.0110 23.9 195 
 BAR2 SZ I         928 53.93         5.7 0.12            170           23.9 195 
 BRR  HZ EP        928 38.16                             153    0.1510 73.1 298 
 BRR  HN ES        928 55.14                             153    0.0710 73.1 298 
 BRR  HN I         928 56.28        10.3 0.28            154           73.1 298 
 PAM  SN ES   1    928 56.48                             152   -0.13 7 75.9  38 
 PAM  SN I         928 57.82         5.3 0.39            146           75.9  38 
 RUS  HZ EP   1    928 40.44                             145   -0.02 7  101 177 
 RUS  HN ES   1    928 59.41                             145   -0.01 7  101 177 
 RUS  HN I         929  0.76         3.2 0.21            141            101 177 
 PTB  HZ EP        928 43.58                             133   -0.20 9  150 259 
 PTB  HE ES   1    929  5.26                             133   -0.07 7  150 259 
 PTB  HE I         929  6.14         4.7 0.29            132            150 259 
 CHI  HZ EP   1    928 54.40                             118    0.16 6  249 196 
                                                                                
