 2015  330 0139 41.6 L   6.810 -73.020143.6  RSN  6 0.4 1.6LRSN                1
 GAP=153        1.31       6.4     6.4 11.4 -0.1007E+02  0.2587E+02  0.8113E+01E
 Epicentro: CEPITA - SANTANDER                                                 3
 ACTION:UPD 15-04-30 16:30 OP:nd   STATUS:               ID:20150330013941 L   I
 OLDACT:REG 15-03-30 18:01 OP:mh   STATUS:               ID:20150330013750     3
 2015-03-30-0137-50M.COL___287                                                 6
 STAT SP IPHASW D HRMM SECON CODA AMPLIT PERI AZIMU VELO AIN AR TRES W  DIS CAZ7
 PAM  SZ EP        140  3.36                             152    0.2510 68.4  31 
 PAM  SN ES        140 19.86                             152    0.0010 68.4  31 
 PAM  SZ I         140 22.28         4.5 0.33            150           68.4  31 
 RUS  HZ EP        140  4.54                             142   -0.7210  102 184 
 RUS  HE ES        140 23.85                             142    0.1610  102 184 
 PTB  HZ EP   9    140  7.66                             128   -2.07 0  162 259 
 PTB  HN ES        140 28.35                                   -1.22 9  162 259 
 PTB  HZ I         140 30.42         4.1 0.42            126            162 259 
 ZAR  HN ES        140 41.35                             119   -0.13 8  217 290 
 ZAR  HZ I         140 49.83         5.9 0.22            118            217 290 
 NOR  HN ES        140 47.11                             116   -0.24 8  247 236 
 NOR  HZ I         140 51.66         2.3 0.28            115            247 236 
 GUY2CHZ EP        140 26.95                             110    0.43 7  313 236 
 GUY2CHN ES  4     141  2.21                             110    0.68 7  313 236 
                                                                                
