 2016  330 0803 12.8 L   6.834 -73.165151.0  RSN  4 0.3 1.2LRSN                1
 GAP=278        0.72       6.5     4.8  6.2  0.2869E+01  0.5731E+01 -0.6072E+01E
 Epicentro: LOS SANTOS - SANTANDER                                             3
 ACTION:UPD 16-05-13 21:28 OP:cam  STATUS:               ID:20160330080312 L   I
 OLDACT:REG 16-03-30 13:31 OP:ak   STATUS:               ID:20160330075745     3
 2016-03-30-0757-45M.COL___309                                                 6
 STAT SP IPHASW D HRMM SECON CODA AMPLIT PERI AZIMU VELO AIN AR TRES W  DIS CAZ7
 BAR2 EZ EP        8 3 32.94                             169   -0.1610 26.8 184 
 BAR2 EZ ES        8 3 49.17                             169    0.2110 26.8 184 
 RUS  HZ EP        8 3 36.92                             144   -0.4010  105 175 
 RUS  HE ES        8 3 56.53                             144    0.0610  105 175 
 RUS  HZ I         8 3 57.31         0.9 0.28            145            105 175 
 PTB  HZ EP        8 3 40.44                             133    0.38 9  146 257 
 PTB  HN ES        8 4  0.99                             133   -0.35 9  146 257 
 PTB  HZ I         8 4  8.42         2.9 0.28            132            146 257 
 SPBC HZ EP        8 3 42.14                             130    0.31 9  165 218 
 SPBC HE ES        8 4  4.51                             130    0.01 9  165 218 
 SPBC HZ I         8 4  7.52         2.7 0.10            130            165 218 
                                                                                
