 2016  830 0148 33.0 L   6.717 -72.972126.3  RSN  5 0.3 1.2LRSN                1
 GAP=250        0.83       4.5     5.6  6.8  0.3267E+01 -0.1245E+01  0.3067E+01E
 Epicentro: CEPITA - SANTANDER                                                 3
 ACTION:UPD 16-10-29 15:40 OP:rebc STATUS:               ID:20160830014833 L   I
 OLDACT:UP  16-08-30 13:29 OP:edw  STATUS:               ID:20160830014737     3
 OLDACT:UP  16-08-30 13:27 OP:edw  STATUS:               ID:20160830014737     3
 OLDACT:REG 16-08-30 12:22 OP:edw  STATUS:               ID:20160830014737     3
 2016-08-30-0148-00M.COL___359                                                 6
 STAT SP IPHASW D HRMM SECON CODA AMPLIT PERI AZIMU VELO AIN AR TRES W  DIS CAZ7
 RUS  HZ EP        148 54.61                             142    0.4210 91.9 188 
 RUS  HN ES        149 10.75                             142    0.0110 91.9 188 
 RUS  HZ I         149 16.17         1.7 0.54                          91.9 188 
 BRR  HZ EP        148 53.21                             142   -0.3310 92.4 298 
 BRR  HN ES        149  9.80                             142    0.2210 92.4 298 
 PTB  HZ EP   9    148 58.64                             124   -1.53 0  165 263 
 PTB  HE ES        149 19.48                             125   -0.37 9  165 263 
 PTB  HZ I         149 26.32         2.2 0.24                           165 263 
 SPBC HZ EP        149  0.25                             123   -0.43 9  169 226 
 SPBC HE ES        149 21.91                             123   -0.38 9  169 226 
 SPBC HZ I         149 27.14         2.4 0.22                           169 226 
 GUY2CHZ EP        149 17.28                             107    0.26 7  312 238 
 GUY2CHN ES        149 51.82                             107    0.45 7  312 238 
 GUY2CHZ I         149 58.03         1.0 0.40                           312 238 
                                                                                
