 2016  530 0400 42.5 L   6.820 -73.172132.0  RSN  4 0.4 1.0LRSN                1
 GAP=144        1.01       7.2     5.8 14.1 -0.6910E+01  0.6298E+01 -0.4707E+02E
 Epicentro: LOS SANTOS - SANTANDER                                             3
 ACTION:UPD 16-08-18 17:50 OP:cam  STATUS:               ID:20160530040042 L   I
 OLDACT:REG 16-05-30 13:00 OP:edw  STATUS:               ID:20160530035742     3
 2016-05-30-0357-42M.COL___310                                                 6
 STAT SP IPHASW D HRMM SECON CODA AMPLIT PERI AZIMU VELO AIN AR TRES W  DIS CAZ7
 PAM  EZ EP        4 1  3.13                             148   -0.1210 77.6  42 
 RUS  HZ EP        4 1  4.75                             140   -0.3210  103 175 
 RUS  HN ES        4 1 23.03                             140    0.3210  103 175 
 RUS  HZ I         4 1 23.96         2.1 0.20            145            103 175 
 PTB  HZ EP        4 1  7.99                             129   -0.12 9  145 258 
 PTB  HN ES        4 1 28.32                             129    0.20 9  145 258 
 PTB  HZ I         4 1 31.49         1.2 0.12            132            145 258 
 SPBC HZ EP        4 1 10.64                             126    0.71 9  163 218 
 SPBC HE ES        4 1 30.71                             126   -0.65 9  163 218 
                                                                                
