 2011  330 0956 24.7 L   6.782 -73.145143.3  RSN 10 0.5 2.8LRSN                1
 GAP=114        1.09       5.2     6.2  9.9 -0.9507E+01  0.7294E+01  0.2752E+02E
 Epicentro: LOS SANTOS - SANTANDER                                             3
 ACTION:UP  11-06-16 14:36 OP:jfem STATUS:               ID:20110330095624 L   I
 2011-03-30-0940-00M.COL___140                                                 6
 STAT SP IPHASW D HRMM SECON CODA AMPLIT PERI AZIMU VELO SNR AR TRES W  DIS CAZ7
 BAR2 SZ IP        956 43.79                             171    -0.210   21 192 
 BAR2 SZ I         956 59.71       173.5 0.21                            21 192 
 BRR  HZ IP     C  956 45.70                             152     0.110   72 300 
 BRR  HN ES   1    957  2.54                             152     0.6 7   72 300 
 BRR  HZ I         957  3.60       205.3 0.05                            72 300 
 PAM  SZ IP        956 46.80                             150     0.110   79  39 
 PAM  SZ I         956 47.00        93.9 0.15                            79  39 
 PAM  SN ES   1    957  3.55                             150    -0.3 7   79  39 
 GRA  SZ IP        956 49.74                             136    -0.110  128  17 
 GRA  SZ ES   1    957  9.41                             136    -0.1 7  128  17 
 GRA  SZ I         957 10.37        71.7 0.37                           128  17 
 YOP  SZ EP        956 54.41                             126     0.1 9  177 153 
 YOP  SN ES   2    957 17.99                             126     0.5 4  177 153 
 NOR  SZ EP        956 59.46                             118    -0.7 8  234 235 
 NOR  SN ES   1    957 26.73                             118    -1.1 6  234 235 
 CHI  HZ EP        957  2.03                             117     0.0 8  247 195 
 CHI  HN ES   1    957 31.23                             117     0.1 6  247 195 
 CHI  HZ I         957 35.27        23.7 0.34                           247 195 
 HEL  HZ EP        957  5.28                             114     0.6 8  272 256 
 HEL  HZ I         957 42.57        34.8 0.22                           272 256 
 TOL  SZ EP        957 13.62                             109     1.0 7  342 225 
 PRA  HZ EP        957 17.20                             106    -0.7 6  390 210 
 PRA  HN ES   1    957 59.98                             106     0.6 4  390 210 
 PRA  HZ I         958  3.32        59.2 0.19                           390 210 
                                                                                
