 2014  530 0535 19.7 L   6.806 -73.151140.3  RSN 18 0.4 2.2LRSN                1
 GAP=136        0.97       2.5     3.8  5.1 -0.1672E+01  0.6230E+01  0.2004E+01E
 Epicentro: LOS SANTOS - SANTANDER                                             3
 ACTION:UPD 15-03-16 17:02 OP:nd   STATUS:               ID:20140530053519 L   I
 OLDACT:UP  14-05-30 17:42 OP:mh   STATUS:               ID:20140530052808     3
 OLDACT:UP  14-05-30 17:41 OP:mh   STATUS:               ID:20140530052808     3
 OLDACT:REG 14-05-30 12:50 OP:mh   STATUS:               ID:20140530052808     3
 2014-05-30-0528-08M.COL___229                                                 6
 STAT SP IPHASW D HRMM SECON CODA AMPLIT PERI AZIMU VELO AIN AR TRES W  DIS CAZ7
 BAR2 SZ EP        535 38.92                             170    0.2410 23.9 188 
 BAR2 SZ ES   1    535 53.59                             170    0.11 7 23.9 188 
 BRR  HZ EP        535 40.73                             152    0.5310 70.4 298 
 BRR  HN ES   1    535 56.54                             152    0.34 7 70.4 298 
 BRR  HZ I         536  1.84        24.3 0.19            148           70.4 298 
 PAM  SZ EP        535 41.46                             150    0.1410 77.2  40 
 PAM  SN ES        535 58.33                             150    0.1510 77.2  40 
 RUS  HZ EP        535 42.59                             142   -0.3710  101 176 
 RUS  HN ES   1    536  0.92                             142   -0.19 7  101 176 
 RUS  HZ I         536  2.73        14.4 0.33            145            101 176 
 PTB  HZ EP        535 45.42                             131   -0.76 9  147 259 
 PTB  HN ES        536  6.78                             131   -0.06 9  147 259 
 PTB  HZ I         536  9.17        29.1 0.17            130            147 259 
 OCA  HZ EP        535 48.32                             128    0.81 9  160 353 
 OCA  HN ES        536  8.62                             128   -0.59 9  160 353 
 OCA  HZ I         536 14.32        17.8 0.60            132            160 353 
 SPBC HZ EP        535 47.74                             128   -0.05 9  163 219 
 SPBC HN ES   1    536  9.70                             128   -0.01 7  163 219 
 SPBC HZ I         536 20.89        13.3 0.10            128            163 219 
 ZAR  HZ EP        535 51.53                             121   -0.18 9  203 292 
 ZAR  HN ES   1    536 17.27                             121    0.59 6  203 292 
 ZAR  HZ I         536 23.69        19.1 0.15            122            203 292 
 NOR  HZ EP        535 55.28                             117    0.18 8  235 234 
 NOR  HN ES   1    536 22.76                             117    0.04 6  235 234 
 NOR  HZ I         536 29.42        13.7 0.29            119            235 234 
 SML  HZ EP        535 55.52                             116   -0.40 8  243 335 
 SML  HN ES        536 23.18                             116   -1.00 8  243 335 
 SML  HZ I         536 27.87        15.1 0.09            119            243 335 
 CHI  HZ EP   1    535 57.23                             116    0.08 6  249 195 
 CHI  HN ES        536 26.00                             116   -0.36 8  249 195 
 ROSC BZ EP   1    535 57.84                             115    0.29 6  253 211 
 ROSC BN ES   4    536 28.90                             115    1.82 0  253 211 
 HEL  HZ EP        535 59.60                             114    0.01 8  272 256 
 HEL  HN ES        536 30.86                             114    0.15 8  272 256 
 HEL  HZ I         536 37.54        11.2 0.55            115            272 256 
 GUY2CHZ EP        536  3.49                             111    0.44 7  301 235 
 GUY2CHN ES   4    536 36.40                             111   -0.46 0  301 235 
 GUY2CHZ I         536 45.59         6.9 0.19                           301 235 
 PTGC HZ EP   4    535 59.70                             110   -3.70 0  310 159 
 PTGC HN ES   4    536 34.48                             110   -3.02 0  310 159 
 RREF HZ EP        536  5.43                             110   -0.18 7  322 229 
 RREF HN ES   4    536 43.31                             110    1.89 0  322 229 
 CBOC HZ EP        536  7.18                             109    0.83 7  333 252 
 CBOC HN ES   4    536 41.16                             109   -1.58 0  333 252 
 CBOC HZ I         536 54.61         3.1 0.46            110            333 252 
 TOL  SZ EP        536  8.37                             108    0.63 7  344 224 
 TOL  SN ES   4    536 47.10                             108    1.88 0  344 224 
 TOL  SZ I         536 55.74        15.2 0.43            110            344 224 
 PRA  HZ EP        536 12.68                             106   -0.39 6  392 209 
 PRA  HN ES        536 53.98                             106   -0.72 6  392 209 
 PRA  HZ I         537  0.05         7.9 0.33            108            392 209 
 ORTC HZ EP   4    536 11.42                             105   -2.04 0  396 216 
 ORTC HN ES   4    536 57.81                             105    2.42 0  396 216 
 SJC  HZ EP   4    536 12.15                             105   -2.83 0  408 327 
 SJC  HN ES   4    536 53.12                             105   -4.98 0  408 327 
                                                                                
