 2016 1230 0434 46.0 L   6.725 -73.174137.9  RSN  4 0.3 1.1LRSN                1
 GAP=228        0.83       6.5     6.7  7.9  0.2397E+02  0.5690E+01  0.3985E+01E
 Epicentro: VILLANUEVA - SANTANDER                                             3
 ACTION:UPD 17-01-11 20:20 OP:rebc STATUS:               ID:20161230043446 L   I
 OLDACT:UP  16-12-30 16:32 OP:edw  STATUS:               ID:20161230042749d    3
 OLDACT:DUP 16-12-30 16:30 OP:edw  STATUS:               ID:20161230042749d    3
 OLDACT:UP  16-12-30 16:29 OP:edw  STATUS:               ID:20161230042748     3
 OLDACT:REG 16-12-30 12:52 OP:edw  STATUS:               ID:20161230042748     3
 2016-12-30-0428-00M.COL___375                                                 6
 STAT SP IPHASW D HRMM SECON CODA AMPLIT PERI AZIMU VELO AIN AR TRES W  DIS CAZ7
 BAR2 EZ ES        435 19.16                             174    0.1210 14.7 184 
 BRR  HZ EP        435  5.97                             150   -0.4910 73.0 305 
 BRR  HN ES        435 22.57                             150    0.1910 73.0 305 
 BRR  HZ I         435 24.62         2.6 0.34            153           73.0 305 
 RUS  HZ EP        435  8.94                             144    0.4910 92.6 174 
 RUS  HN ES        435 25.57                             144   -0.3510 92.6 174 
 RUS  HZ I         435 28.78         1.9 0.30            146           92.6 174 
 PTB  HZ EP   3    435 12.40                             131    0.43 2  143 262 
 PTB  HN ES        435 32.20                             131    0.01 9  143 262 
                                                                                
