 2016  330 0703  0.6 L   6.833 -73.178145.2  RSN  7 0.5 1.5LRSN                1
 GAP=138        1.12       3.9     5.2  7.8 -0.5533E+01  0.7893E+01  0.3694E+01E
 Epicentro: ZAPATOCA - SANTANDER                                               3
 ACTION:UPD 16-05-13 21:28 OP:cam  STATUS:               ID:20160330070300 L   I
 OLDACT:REG 16-03-30 13:27 OP:ak   STATUS:               ID:20160330065749     3
 2016-03-30-0657-49M.COL___310                                                 6
 STAT SP IPHASW D HRMM SECON CODA AMPLIT PERI AZIMU VELO AIN AR TRES W  DIS CAZ7
 BAR2 EZ EP        7 3 20.37                             169    0.1110 26.6 181 
 BAR2 EZ ES        7 3 35.29                             169   -0.2810 26.6 181 
 BAR2 EZ I         7 3 36.68        10.5 0.18            168           26.6 181 
 PAM  EZ EP        7 3 23.08                             151    0.3210 77.0  43 
 PAM  EE ES        7 3 40.16                             151    0.1410 77.0  43 
 PAM  EZ I         7 3 42.24         3.9 0.42            156           77.0  43 
 PTB  HZ EP        7 3 26.86                             132   -0.44 9  145 257 
 PTB  HN ES        7 3 47.68                             132   -0.43 9  145 257 
 PTB  HZ I         7 3 55.33         3.3 0.44            131            145 257 
 OCA  HZ EP        7 3 29.09                             130    0.58 9  156 354 
 OCA  HE ES        7 3 49.67                             130   -0.60 9  156 354 
 OCA  HZ I         7 3 54.81         8.1 0.26            132            156 354 
 SPBC HZ EP        7 3 28.81                             129   -0.33 9  164 217 
 SPBC HE ES        7 3 51.98                             129    0.59 9  164 217 
 SPBC HZ I         7 3 56.29                             129            164 217 
 ZAR  HZ EP   4    7 3 36.07                             123    3.52 0  199 292 
 ZAR  HE ES        7 3 58.09                             123    0.63 9  199 292 
 ZAR  HZ I         7 4  5.82         2.2 0.14            123            199 292 
 CHI  HZ EP        7 3 37.86                             117   -0.72 8  251 194 
 CHI  HN ES        7 4  8.57                             117    0.39 8  251 194 
 CHI  HZ I         7 4 15.42         1.0 0.36            118            251 194 
 MON  HE ES   4    7 4 24.89                             109   -1.88 0  349 308 
                                                                                
