 2014  930 0317 38.0 L   6.801 -73.148139.7  RSN 15 0.6 2.3LRSN                1
 GAP= 71        1.29       3.1     4.0  6.0 -0.1639E+01  0.4815E+01  0.3020E+01E
 Epicentro: LOS SANTOS - SANTANDER                                             3
 ACTION:UPD 14-10-03 23:09 OP:nd   STATUS:               ID:20140930031738 L   I
 OLDACT:REG 14-09-30 12:16 OP:stll STATUS:               ID:20140930030807     3
 2014-09-30-0308-07M.COL___292                                                 6
 STAT SP IPHASW D HRMM SECON CODA AMPLIT PERI AZIMU VELO AIN AR TRES W  DIS CAZ7
 BAR2 SZ EP        317 57.22                             170    0.3410 23.3 189 
 BAR2 SZ ES        318 10.95                             170   -0.6710 23.3 189 
 BAR2 SZ I         318 13.36        45.4 0.22            166           23.3 189 
 BRR  HZ IP     D  317 59.13                             151    0.6710 70.9 299 
 BRR  HN ES        318 15.45                             151    1.0110 70.9 299 
 BRR  HZ I         318 19.85        22.1 0.14            145           70.9 299 
 PAM  SZ EP        318  0.12                             150    0.5610 77.5  40 
 PAM  SZ I         318  0.36        62.2 0.24            151           77.5  40 
 PAM  SN ES        318 16.61                             150    0.2210 77.5  40 
 RUS  HZ EP        318  1.15                             142    0.0010  101 176 
 RUS  HN ES        318 18.90                             142   -0.3110  101 176 
 RUS  HZ I         318 20.19        16.0 0.24            140            101 176 
 PTB  HZ EP        318  3.89                             131   -0.55 9  148 259 
 PTB  HE ES        318 24.92                             131   -0.16 9  148 259 
 PTB  HZ I         318 31.31        17.1 0.12            125            148 259 
 TAM  HZ IP     D  318  5.50                             129    0.29 9  155 105 
 TAM  HN ES        318 25.69                             129   -0.76 9  155 105 
 OCA  HZ EP        318  5.61                             128   -0.21 9  160 353 
 OCA  HE ES        318 27.43                             128   -0.10 9  160 353 
 OCA  HZ I         318 31.32        23.0 0.22            125            160 353 
 SPBC HZ EP        318  6.05                             128    0.04 9  163 219 
 SPBC HZ I         318  6.69        29.0 0.10            123            163 219 
 SPBC HE ES        318 27.60                             128   -0.27 9  163 219 
 SML  HZ EP        318 13.81                             116   -0.45 8  244 335 
 SML  HN ES        318 41.73                             116   -0.82 8  244 335 
 SML  HZ I         318 45.01        21.3 0.10            113            244 335 
 CHI  HZ EP        318 15.29                             116   -0.06 8  249 195 
 CHI  HN ES        318 45.44                             116    0.94 8  249 195 
 CHI  HZ I         318 50.58        11.8 0.26            113            249 195 
 CBOC HZ EP        318 24.72                             109    0.09 7  333 252 
 CBOC HZ I         319  7.40         3.2 0.52            106            333 252 
 TOL  SZ EP        318 26.69                             108    0.70 7  343 225 
 TOL  SN ES        319  1.85                             108   -1.58 7  343 225 
 MON  HZ EP   9    318 24.80                             107   -1.93 0  353 308 
 MON  HE ES        319  2.51                                   -0.31 6  353 308 
 MON  HZ I         319  5.81         4.7 0.62            105            353 308 
 PRA  HZ EP        318 30.88                             105   -0.41 6  392 210 
 PRA  HN ES        319 12.87                             105   -0.00 6  392 210 
 PRA  HZ I         319 19.68        11.9 0.36            103            392 210 
 ORTC HZ EP        318 32.23                             105    0.54 6  395 216 
 ORTC HN ES        319 14.17                             105    0.59 6  395 216 
 ORTC HZ I         319 21.42         6.8 0.44            103            395 216 
                                                                                
