 2013  430 0610 56.8 L   6.756 -73.140150.0  RSN 10 0.4 1.8LRSN                1
 GAP=139        1.02       4.8     5.4  7.3 -0.7440E+01 -0.1445E+01  0.8112E+01E
 Epicentro: LOS SANTOS - SANTANDER                                             3
 ACTION:UPD 13-05-22 14:41 OP:EP   STATUS:               ID:20130430061056 L   I
 2013-04-30-0610-00M.COL___253                                                 6
 STAT SP IPHASW D HRMM SECON CODA AMPLIT PERI AZIMU VELO AIN AR TRES W  DIS CAZ7
 BAR2 SZ EP     D  611 16.68                             173   -0.2010 18.7 194 
 GIR2 SZ EP        611 16.94                             166   -0.2010 36.1 351 
 GIR2 SZ ES   1    611 32.86                             166   -0.12 7 36.1 351 
 BRR  HZ EP     D  611 18.71                             153    0.1110 74.2 302 
 BRR  HE ES        611 36.38                             153    0.8010 74.2 302 
 BRR  HZ I         611 37.59        12.2 0.12            132           74.2 302 
 PAM  SZ EP        611 19.71                             151    0.0210 80.8  37 
 RUS  HZ EP        611 20.42                             146   -0.2410 95.7 176 
 RUS  HZ I         611 20.93         6.8 0.22            135           95.7 176 
 RUS  HE ES   1    611 39.73                             146    0.49 7 95.7 176 
 PTB  HZ EP        611 23.53                             133   -0.59 9  148 261 
 PTB  HN ES        611 44.76                             133   -0.65 9  148 261 
 PTB  HZ I         611 49.27         7.4 0.40            115            148 261 
 OCA  HZ EP   1    611 26.38                             130    0.46 7  165 353 
 OCA  HN ES   1    611 48.14                             130   -0.48 7  165 353 
 OCA  HZ I         611 51.71         5.7 0.28            114            165 353 
 NOR  HZ EP     C  611 32.73                             120    0.17 8  232 236 
 NOR  HE ES        612  0.61                             120    0.17 8  232 236 
 NOR  HZ I         612  5.79         6.1 0.48            105            232 236 
 HEL  HZ EP   1    611 38.28                             116    1.08 6  272 257 
 HEL  HZ I         612 15.23         3.7 0.32            102            272 257 
 PRA  HZ EP   1    611 50.09                             108    0.05 4  388 210 
                                                                                
