 2012 1230 0006 34.8 L   6.822 -73.089143.7  RSN 13 0.5 2.4LRSN                1
 GAP=186        0.92       3.1     5.0  6.1 -0.1148E+01  0.5122E+01  0.1487E+01E
 Epicentro: LOS SANTOS - SANTANDER                                             3
 ACTION:UPD 13-01-04 14:31 OP:ep   STATUS:               ID:20121230000634 L   I
 2012-12-30-0000-00M.COL___242                                                 6
 STAT SP IPHASW D HRMM SECON CODA AMPLIT PERI AZIMU VELO AIN AR TRES W  DIS CAZ7
 BAR2 SZ IP        0 6 54.58                             169    0.2610 27.4 202 
 BAR2 SZ ES   1    0 7  9.75                             169    0.24 7 27.4 202 
 BAR2 SZ I         0 7 11.17        97.7 0.34                          27.4 202 
 BRR  HZ EP     C  0 6 56.48                             151    0.4410 75.7 295 
 BRR  HE ES   1    0 7 13.04                             151    0.47 7 75.7 295 
 BRR  HZ I         0 7 17.34        39.6 0.38                          75.7 295 
 RUS  HZ EP     D  0 6 58.42                             143   -0.1410  103 180 
 RUS  HN ES   1    0 7 16.78                             143   -0.28 7  103 180 
 RUS  HZ I         0 7 19.11        12.4 0.26                           103 180 
 PTB  HZ EP   1    0 7  1.28                             130   -0.98 7  154 258 
 PTB  HE ES   1    0 7 22.65                             130   -0.99 7  154 258 
 PTB  HZ I         0 7 28.47        56.8 0.46                           154 258 
 OCA  HZ EP   1    0 7  2.91                             129    0.06 7  159 351 
 OCA  HN ES   1    0 7 24.70                             129    0.00 7  159 351 
 OCA  HZ I         0 7 29.78        30.1 0.36                           159 351 
 ZAR  HZ EP   1    0 7  7.65                             121   -0.02 6  209 291 
 ZAR  HN ES   1    0 7 34.03                             121    0.75 6  209 291 
 ZAR  HZ I         0 7 43.39        33.5 0.30                           209 291 
 CHI  HZ EP   1    0 7 12.49                             116   -0.39 6  253 196 
 CHI  HN ES   1    0 7 42.11                             116   -0.43 6  253 196 
 CHI  HZ I         0 7 49.85        10.7 0.56                           253 196 
 ROSC BZ EP        0 7 14.16                             116    0.72 8  258 212 
 ROSC BN ES   1    0 7 42.81                             116   -0.74 6  258 212 
 ROSC BZ I         0 7 50.61        34.0 0.55                           258 212 
 HEL  HZ EP   1    0 7 15.95                             114    0.25 6  279 256 
 HEL  HN ES   1    0 7 47.18                             114   -0.39 6  279 256 
 HEL  HZ I         0 7 53.36        12.5 0.26                           279 256 
 URE  HZ EP   4    0 7 14.65                             113   -1.72 0  289 291 
 URE  HN ES   4    0 7 50.44                             113    1.68 0  289 291 
 RREF HZ EP   2    0 7 22.40                             110    0.77 3  328 230 
 RREF HN ES   1    0 7 58.02                             110   -0.10 5  328 230 
 RREF HZ I         0 8  7.24        22.2 0.44                           328 230 
 COD  HZ EP   1    0 7 21.99                             109   -0.94 5  346 354 
 COD  HE ES   1    0 7 59.72                             109   -0.72 5  346 354 
 COD  HZ I         0 8  6.02         6.2 0.52                           346 354 
 TOL  SZ EP   1    0 7 23.88                             109    0.15 5  350 225 
 TOL  SZ ES   2    0 8  1.84                             109   -0.02 3  350 225 
 MON  HZ EP   4    0 7 21.92                             108   -2.25 0  357 307 
 MON  HN ES   4    0 8  0.47                             108   -2.17 0  357 307 
 ANIL HZ EP   1    0 7 26.12                             108    0.83 5  364 225 
 ANIL HN ES   1    0 8  4.98                             108    0.35 5  364 225 
 ANIL HZ I         0 8 10.58        13.1 0.38                           364 225 
                                                                                
