 2012 1230 0210 43.2 L   6.761 -73.469114.9  RSN  5 0.5 1.5LRSN                1
 GAP=156        0.92       7.5     6.5  9.1  0.2992E+02  0.1877E+02  0.9136E+01E
 Epicentro: EL CARMEN DE CHUCURI - SANTANDER                                   3
 ACTION:UPD 13-01-04 14:31 OP:ep   STATUS:               ID:20121230021043 L   I
 2012-12-30-0210-00M.COL___242                                                 6
 STAT SP IPHASW D HRMM SECON CODA AMPLIT PERI AZIMU VELO AIN AR TRES W  DIS CAZ7
 BAR2 SZ EP   1    210 59.33                             161   -0.27 7 36.8 120 
 BAR2 SZ ES   1    211 12.58                             161    0.22 7 36.8 120 
 BAR2 SZ I         211 13.36        31.3 0.30                          36.8 120 
 BRR  HZ EP   1    210 59.46                             156   -0.22 7 46.7 325 
 BRR  HN ES   1    211 12.18                             156   -0.34 7 46.7 325 
 RUS  HZ EP   1    211  4.32                             135   -0.15 7  105 156 
 RUS  HN ES   1    211 21.61                             135    0.56 7  105 156 
 PTB  HZ EP   1    211  3.65                             132   -0.77 7  112 257 
 PTB  HN ES   1    211 20.76                             132   -0.19 7  112 257 
 PTB  HZ I         211 27.75         2.3 0.44                           112 257 
 ZAR  HZ EP   1    211 11.21                             119    0.68 7  173 298 
 ZAR  HN ES   1    211 32.57                             119    0.74 7  173 298 
 ZAR  HZ I         211 39.05         2.8 0.12                           173 298 
                                                                                
