 2016 1230 0451  7.9 L   6.016 -73.923 95.1  RSN  5 0.2 1.1LRSN                1
 GAP=142        0.51       2.5     2.2  5.8  0.1784E+01  0.2029E+01  0.3580E+01E
 Epicentro: EL PENON - SANTANDER                                               3
 ACTION:UPD 17-01-11 20:20 OP:rebc STATUS:               ID:20161230045107 L   I
 OLDACT:UP  16-12-30 16:53 OP:edw  STATUS:               ID:20161230044750d    3
 OLDACT:UP  16-12-30 16:51 OP:edw  STATUS:               ID:20161230044750d    3
 OLDACT:UP  16-12-30 16:51 OP:edw  STATUS:               ID:20161230044750d    3
 OLDACT:DUP 16-12-30 16:48 OP:edw  STATUS:               ID:20161230044750d    3
 2016-12-30-0448-00M.COL___377                                                 6
 STAT SP IPHASW D HRMM SECON CODA AMPLIT PERI AZIMU VELO AIN AR TRES W  DIS CAZ7
 PTB  HZ EP        451 24.78                             136   -0.0510 82.6 314 
 PTB  HN ES        451 38.13                             136    0.0910 82.6 314 
 PTB  HZ I         451 44.02         1.6 0.09            140           82.6 314 
 RUS  HZ EP        451 26.78                             132    0.3010 94.0  98 
 RUS  HN ES        451 41.16                             132    0.1710 94.0  98 
 RUS  HZ I         451 41.71         2.7 0.30            142           94.0  98 
 BAR2 EZ EP   2    451 27.00                             129   -0.06 5  104  52 
 BAR2 EZ ES        451 41.65                             129   -0.3710  104  52 
 BAR2 EZ I         451 42.09         9.7 0.12            138            104  52 
 BRR  HZ EP        451 28.58                             124   -0.0610  123  11 
 BRR  HN ES        451 44.89                             124    0.0610  123  11 
 CHI  HZ EP   2    451 32.30                             118   -0.27 5  155 172 
 CHI  HN ES   2    451 51.49                             118   -0.33 5  155 172 
                                                                                
