 2016  330 0937 44.0 L   7.394 -73.205132.3  RSN  7 0.2 1.7LRSN                1
 GAP=104        0.64       2.4     2.8  4.8 -0.2714E+00  0.5285E+01  0.2187E+01E
 Epicentro: EL PLAYON - SANTANDER                                              3
 ACTION:UPD 16-05-13 21:29 OP:cam  STATUS:               ID:20160330093744 L   I
 OLDACT:REG 16-03-30 13:34 OP:ak   STATUS:               ID:20160330092748     3
 2016-03-30-0927-48M.COL___309                                                 6
 STAT SP IPHASW D HRMM SECON CODA AMPLIT PERI AZIMU VELO AIN AR TRES W  DIS CAZ7
 PAM  EZ EP        938  3.80                             156    0.2410 56.2  96 
 PAM  EN ES        938 19.08                             156    0.2410 56.2  96 
 PAM  EZ I         938 20.40         9.1 0.24            156           56.2  96 
 BAR2 EZ EP        938  5.16                             144   -0.0310 88.7 178 
 BAR2 EZ ES        938 21.35                             144   -0.3910 88.7 178 
 BAR2 EZ I         938 22.63        16.5 0.12            139           88.7 178 
 OCA  HZ EP        938  5.52                             142    0.0510 94.2 352 
 OCA  HE ES        938 22.03                             142   -0.2110 94.2 352 
 OCA  HZ I         938 25.12        18.8 0.46            138           94.2 352 
 RUS  HZ EP        938 12.44                             125    0.09 9  167 175 
 PTB  HZ EP        938 11.36                             125   -0.45 9  167 236 
 PTB  HN ES        938 33.69                             125    0.18 9  167 236 
 PTB  HZ I         938 36.02         4.0 0.38            119            167 236 
 ZAR  HZ EP        938 13.53                             122    0.18 9  183 274 
 ZAR  HN ES        938 36.36                             122    0.10 9  183 274 
 ZAR  HZ I         938 40.92         6.1 0.12            116            183 274 
 SPBC HZ EP        938 16.60                             118   -0.28 8  215 207 
 SPBC HN ES        938 42.88                             118    0.33 8  215 207 
 SPBC HZ I         938 50.97         4.2 0.20            113            215 207 
                                                                                
