 2010 1130 0057 35.0 L   6.759 -73.094144.4  RSN  5 0.3 1.8LRSN                1
 GAP=194        0.80       6.6     8.4  7.8 -0.3380E+02  0.1399E+01 -0.8939E+01E
 Epicentro: LOS SANTOS - SANTANDER                                             3
 ACTION:UP  10-12-17 16:56 OP:REBC STATUS:               ID:20101130005735 L   I
 2010-11-30-0055-33S.COL___129                                                 6
 STAT SP IPHASW D HRMM SECON CODA AMPLIT PERI AZIMU VELO SNR AR TRES W  DIS CAZ7
 BAR2 SZ EP        057 54.85                             171     0.410   21 208 
 BAR2 SZ ES   1    058  9.26                             171    -0.3 7   21 208 
 BRR  HZ EP        057 56.64                             150     0.210   78 299 
 BRR  HN ES   1    058 13.50                             150     0.3 7   78 299 
 BRR  HZ I         058 14.27        16.0 0.13                            78 299 
 GRA  SZ EP        058  0.39                             136     0.010  129  14 
 GRA  SZ ES   1    058 19.91                             136    -0.3 7  129  14 
 GRA  SZ I         058 25.42         5.7 0.60                           129  14 
 OCA  SZ EP        058  3.37                             128    -0.4 9  166 351 
 OCA  SZ I         058 33.56         6.9 0.35                           166 351 
 NOR  SN ES   1    058 38.56                             118    -0.4 6  237 236 
                                                                                
