 2016 1030 0755 40.6 L   6.078 -73.949  2.0  RSN 16 0.8 2.4LRSN                1
 GAP= 69        1.35       2.5     3.3  6.2 -0.1834E+01  0.8127E+01  0.1434E+00E
 Epicentro: EL PENON - SANTANDER                                               3
 ACTION:UPD 16-11-09 19:24 OP:rebc STATUS:               ID:20161030075540 L   I
 OLDACT:UP  16-11-01 14:52 OP:nlst STATUS:               ID:20161030075540 L   3
 OLDACT:UP  16-10-30 17:08 OP:cog  STATUS:               ID:20161030074750d    3
 OLDACT:UP  16-10-30 17:04 OP:cog  STATUS:               ID:20161030074750d    3
 OLDACT:DUP 16-10-30 16:50 OP:cog  STATUS:               ID:20161030074750d    3
 2016-10-30-0748-00M.COL___321                                                 6
 STAT SP IPHASW D HRMM SECON CODA AMPLIT PERI AZIMU VELO AIN AR TRES W  DIS CAZ7
 SPBC HZ IP     C  755 48.65                              47   -0.3310 49.0 196 
 SPBC HE ES        755 54.58                              47   -0.9510 49.0 196 
 SPBC HZ I         755 57.43       143.9 0.46             47           49.0 196 
 PTB  HZ IP     D  755 52.65                              47   -0.3310 75.8 312 
 PTB  HN ES        756  2.23                              47   -0.4110 75.8 312 
 PTB  HZ I         756  5.88        66.1 0.27             47           75.8 312 
 RUS  HZ EP        755 56.28                              47   -0.5510 98.1 102 
 RUS  HE ES   3    756  7.85                              47   -1.66 2 98.1 102 
 RUS  HZ I         756  9.92        37.9 0.38             47           98.1 102 
 BAR2 EZ EP     C  755 56.66                              47   -0.5310  102  56 
 BAR2 EZ ES   4    756  8.68                              47   -1.47 0  102  56 
 BAR2 EZ I         756 16.45        53.3 0.40             47            102  56 
 NOR  HZ EP        755 59.56                              47    0.3610  117 241 
 NOR  HE ES        756 13.61                              47   -0.1010  117 241 
 NOR  HZ I         756 14.26       168.0 0.26             47            117 241 
 BRR  HZ IP     C  755 59.19                              47    0.0210  117  13 
 BRR  HE ES        756 13.74                              47    0.0810  117  13 
 BRR  HZ I         756 17.73       126.1 0.12             47            117  13 
 CHI  HZ EP        756  7.41                              47    0.98 9  162 171 
 CHI  HN ES   2    756 27.36                              47    0.77 5  162 171 
 CHI  HZ I         756 40.38        17.5 0.42             47            162 171 
 HEL  HZ IP     D  756  7.91                              47   -0.49 9  175 274 
 HEL  HN ES   4    756 28.75                              47   -1.35 0  175 274 
 HEL  HZ I         756 30.36        93.6 0.22             47            175 274 
 GUY2CHZ EP        756 10.41                              37    0.78 9  183 239 
 GUY2CHN ES        756 32.17                              37   -0.11 9  183 239 
 GUY2CHZ I         756 36.82        48.4 0.40                           183 239 
 PAM  EZ EP        756 12.13                              37    0.82 9  196  45 
 PAM  EE ES   3    756 36.89                              37    1.61 2  196  45 
 PAM  EZ I         756 39.36        75.7 0.24             37            196  45 
 ELA  HZ EP   9    756 14.65                              37    1.63 0  210 230 
 ELA  HN ES        756 39.87                              37   -0.08 8  210 230 
 ELA  HZ I         756 41.20        26.2 0.24             37            210 230 
 CBOC HZ EP        756 16.05                              37    0.96 8  230 264 
 CBOC HE ES   3    756 43.97                              37    1.98 2  230 264 
 CBOC HZ I         756 46.43        22.0 0.19             37            230 264 
 ANIL HZ EP   3    756 18.33                              37    2.02 2  238 223 
 ANIL HE ES   4    756 45.86                              37    1.69 0  238 223 
 ANIL HZ I         756 51.97        62.6 0.26             37            238 223 
 TAM  HZ EP   3    756 18.34                              37    1.85 2  242  80 
 TAM  HN ES   4    756 48.51                              37    4.02 0  242  80 
 TAM  HZ I         756 52.92        17.8 0.28             37            242  80 
 ORTC HZ EP   3    756 23.15                              37    1.97 2  280 211 
 ORTC HE ES   3    756 56.38                              37    3.55 2  280 211 
 ORTC HZ I         757  5.45        12.8 0.42             37            280 211 
 PTGC HZ EP   4    756 27.67                              37    5.33 0  289 136 
 PTGC HE ES   4    756 56.81                              37    1.91 0  289 136 
 PTGC HZ I         757  4.85        12.0 0.40             36            289 136 
                                                                                
