 2013  830 0417 53.9 L   6.754 -73.151147.4  RSN  6 0.3 1.5LRSN                1
 GAP=233        0.71       4.4     4.6  5.7  0.8059E+01  0.4676E+01  0.9795E+00E
 Epicentro: LOS SANTOS - SANTANDER                                             3
 ACTION:UPD 14-01-14 09:08 OP:ep   STATUS:               ID:20130830041753 L   I
 OLDACT:REG 13-08-30 08:08 OP:jn   STATUS:               ID:20130830040843     3
 2013-08-30-0408-43M.COL___211                                                 6
 STAT SP IPHASW D HRMM SECON CODA AMPLIT PERI AZIMU VELO AIN AR TRES W  DIS CAZ7
 BAR2 SZ EP        418 13.55                             173   -0.0410 18.2 191 
 BAR2 SZ ES        418 28.89                             173   -0.1010 18.2 191 
 BAR2 SZ I         418 29.70         5.4 0.26            167           18.2 191 
 BRR  HZ EP     C  418 15.42                             152    0.1210 73.3 302 
 BRR  HN ES        418 32.44                             152    0.4110 73.3 302 
 BRR  HZ I         418 36.91         3.6 0.14            148           73.3 302 
 RUS  HZ EP   1    418 17.52                             146    0.11 7 95.6 176 
 RUS  HN ES        418 35.49                             146   -0.3010 95.6 176 
 RUS  HZ I         418 37.37         3.6 0.26            146           95.6 176 
 PTB  HZ EP   1    418 20.54                             133   -0.29 7  146 261 
 PTB  HN ES        418 41.53                             133   -0.34 9  146 261 
 PTB  HZ I         418 48.78         3.6 0.34            130            146 261 
 SPBC HZ EP   1    418 22.44                             130    0.36 7  159 220 
 SPBC HN ES   1    418 44.67                             130    0.57 7  159 220 
 SPBC HZ I         418 48.58         6.5 0.22            129            159 220 
 ZAR  HE ES   1    418 51.67                             122   -0.40 6  206 294 
 ZAR  HZ I         418 57.70         4.6 0.24            122            206 294 
                                                                                
