 2016 1130 0621 44.4 L   6.716 -73.147147.0  RSN  5 0.3 1.5LRSN                1
 GAP=160        0.86       7.3     4.2  6.9 -0.6854E+01  0.5853E+01  0.1879E+01E
 Epicentro: VILLANUEVA - SANTANDER                                             3
 ACTION:UPD 17-10-26 21:13 OP:lp   STATUS:               ID:20161130062144 L   I
 OLDACT:UP  16-11-30 19:55 OP:nlst STATUS:               ID:20161130062144 L   3
 OLDACT:UP  16-11-30 19:27 OP:dani STATUS:               ID:20161130061538d    3
 OLDACT:DUP 16-11-30 19:25 OP:dani STATUS:               ID:20161130061538d    3
 OLDACT:REG 16-11-30 13:23 OP:dani STATUS:               ID:20161130061537     3
 2016-11-30-0618-00M.COL___343                                                 6
 STAT SP IPHASW D HRMM SECON CODA AMPLIT PERI AZIMU VELO AIN AR TRES W  DIS CAZ7
 BAR2 EZ EP        622  4.26                             174    0.2410 14.2 196 
 BAR2 EZ ES        622 19.39                             174    0.0610 14.2 196 
 BAR2 EZ I         622 20.36        11.8 0.21            173           14.2 196 
 BRR  HZ EP        622  6.29                             151    0.3410 76.0 305 
 BRR  HN ES        622 23.25                             151    0.4910 76.0 305 
 BRR  HZ I         622 26.51         5.6 0.29            148           76.0 305 
 PAM  EZ EP        622  7.22                             149    0.0210 84.9  36 
 PAM  EN ES        622 24.47                             149   -0.5110 84.9  36 
 PAM  EZ I         622 26.29         3.4 0.53            150           84.9  36 
 PTB  HZ EP        622 11.10                             133   -0.21 9  146 262 
 PTB  HN ES        622 31.83                             133   -0.47 9  146 262 
 PTB  HZ I         622 37.15         2.3 0.21            132            146 262 
 ZAR  HE ES        622 42.88                             122   -0.06 8  208 295 
 ZAR  HZ I         622 48.34         3.1 0.28            122            208 295 
                                                                                
