 2014  630 0125 38.8 L   6.802 -73.174149.7  RSN  6 0.5 1.4LRSN                1
 GAP=198        1.21       5.2     7.7  8.9  0.8483E+01  0.1023E+01 -0.1391E+02E
 Epicentro: LOS SANTOS - SANTANDER                                             3
 ACTION:UPD 14-07-01 22:57 OP:nd   STATUS:               ID:20140630012538 L   I
 OLDACT:DUP 14-06-30 15:10 OP:stll STATUS:               ID:20140630011813d    3
 2014-06-30-0118-12M.COL___247                                                 6
 STAT SP IPHASW D HRMM SECON CODA AMPLIT PERI AZIMU VELO AIN AR TRES W  DIS CAZ7
 BAR2 SZ EP        125 58.90                             171   -0.0210 23.2 182 
 BAR2 SZ ES        126 13.82                             171   -0.7810 23.2 182 
 BAR2 SZ I         126 14.93         6.7 0.32            168           23.2 182 
 BRR  HZ EP        126  0.60                             154    0.3610 68.4 300 
 BRR  HZ I         126  0.88         7.4 0.24            151           68.4 300 
 BRR  HN ES        126 17.98                             154    1.0310 68.4 300 
 RUS  HZ EP        126  3.15                             145    0.1610  101 174 
 RUS  HN ES        126 21.95                             145    0.1110  101 174 
 RUS  HZ I         126 23.40         1.4 0.18            144            101 174 
 PTB  HZ EP        126  5.83                             134   -0.01 9  145 259 
 PTB  HN ES        126 26.40                             134   -0.52 9  145 259 
 PTB  HZ I         126 33.80         4.5 0.52            131            145 259 
 SPBC HN ES        126 29.79                             130    0.00 9  161 218 
 SML  HZ EP        126 15.37                             118   -0.14 8  242 336 
 SML  HN ES        126 43.62                             118   -0.51 8  242 336 
                                                                                
