 2017  530 0056 46.1 L   6.813 -73.120150.0  RSN 24 0.5 2.5LRSN                1
 GAP=166        0.98       3.1     3.4  5.1  0.3254E+01  0.2144E+00 -0.1998E+00E
 Epicentro: LOS SANTOS - SANTANDER                                             3
 ACTION:UPD 17-06-16 13:40 OP:jn   STATUS:               ID:20170530005646 L   I
 OLDACT:UP  17-05-30 13:04 OP:and  STATUS:               ID:20170530004731d    3
 OLDACT:UP  17-05-30 13:04 OP:and  STATUS:               ID:20170530004731d    3
 OLDACT:UP  17-05-30 13:04 OP:and  STATUS:               ID:20170530004731d    3
 OLDACT:UP  17-05-30 13:02 OP:and  STATUS:               ID:20170530004731d    3
 OLDACT:UP  17-05-30 12:59 OP:and  STATUS:               ID:20170530004731d    3
 OLDACT:UP  17-05-30 12:59 OP:and  STATUS:               ID:20170530004731d    3
 OLDACT:UP  17-05-30 12:59 OP:and  STATUS:               ID:20170530004731d    3
 OLDACT:UP  17-05-30 12:56 OP:and  STATUS:               ID:20170530004731d    3
 OLDACT:UP  17-05-30 12:54 OP:and  STATUS:               ID:20170530004731d    3
 OLDACT:UP  17-05-30 12:54 OP:and  STATUS:               ID:20170530004731d    3
 OLDACT:DUP 17-05-30 12:52 OP:and  STATUS:               ID:20170530004731d    3
 OLDACT:UP  17-05-30 12:52 OP:and  STATUS:               ID:20170530004730     3
 OLDACT:UP  17-05-30 12:51 OP:and  STATUS:               ID:20170530004730     3
 OLDACT:UP  17-05-30 12:51 OP:and  STATUS:               ID:20170530004730     3
 OLDACT:UP  17-05-30 12:50 OP:and  STATUS:               ID:20170530004730     3
 OLDACT:UP  17-05-30 12:49 OP:and  STATUS:               ID:20170530004730     3
 OLDACT:UP  17-05-30 12:48 OP:and  STATUS:               ID:20170530004730     3
 OLDACT:UP  17-05-30 12:48 OP:and  STATUS:               ID:20170530004730     3
 OLDACT:UP  17-05-30 12:47 OP:and  STATUS:               ID:20170530004730     3
 OLDACT:UP  17-05-30 12:47 OP:and  STATUS:               ID:20170530004730     3
 OLDACT:UP  17-05-30 12:47 OP:and  STATUS:               ID:20170530004730     3
 OLDACT:UP  17-05-30 12:45 OP:and  STATUS:               ID:20170530004730     3
 OLDACT:UP  17-05-30 12:45 OP:and  STATUS:               ID:20170530004730     3
 OLDACT:UP  17-05-30 12:44 OP:and  STATUS:               ID:20170530004730     3
 OLDACT:UP  17-05-30 12:44 OP:and  STATUS:               ID:20170530004730     3
 OLDACT:REG 17-05-30 12:12 OP:and  STATUS:               ID:20170530004730     3
 2017-05-30-0048-00M.COL___347                                                 6
 STAT SP IPHASW D HRMM SECON CODA AMPLIT PERI AZIMU VELO AIN AR TRES W  DIS CAZ7
 BRR  HZ IP     C  057  8.10                             153    0.3210 73.1 296 
 BRR  HN ES        057 25.27                             153    0.5510 73.1 296 
 BRR  HZ I         057 26.31        41.9 0.12            148           73.1 296 
 RUS  HZ EP        057 10.18                             144   -0.1510  102 178 
 RUS  HN ES        057 29.15                             144   -0.1010  102 178 
 RUS  HZ I         057 30.04        84.7 0.22            140            102 178 
 PTB  HZ EP        057 13.02                             132   -0.64 9  151 259 
 PTB  HN ES        057 34.29                             132   -0.90 9  151 259 
 PTB  HZ I         057 41.58        53.0 0.44            127            151 259 
 SPBC HZ EP        057 15.17                             130    0.00 9  166 219 
 SPBC HN ES        057 37.59                             130   -0.27 9  166 219 
 SPBC HZ I         057 39.98        99.8 0.15            125            166 219 
 YPLC HZ EP        057 16.34                             128    0.18 9  177 152 
 YPLC HE ES        057 40.37                             128    0.74 9  177 152 
 YPLC HZ I         057 41.35        24.2 0.30            125            177 152 
 ZAR  HZ EP        057 18.73                             123   -0.28 8  206 291 
 ZAR  HN ES        057 44.75                             123    0.04 8  206 291 
 ZAR  HZ I         057 46.84        25.3 0.20            119            206 291 
 TABC EZ EP   9    057 23.63                             120    1.27 0  233 211 
 TABC EZ ES        057 52.76                             119    0.83 8  233 211 
 TABC EZ I         057 57.23        31.9 0.40            116            233 211 
 NOR  HZ EP        057 22.16                             119   -0.22 8  238 235 
 NOR  HN ES        057 50.69                             119   -0.02 8  238 235 
 NOR  HZ I         057 53.73        25.3 0.18            115            238 235 
 CHI  HZ EP        057 24.25                             118    0.02 8  251 196 
 CHI  HN ES        057 53.29                             118   -0.71 8  251 196 
 CHI  HZ I         057 58.84        13.3 0.38            114            251 196 
 ROSC BZ EP   3    057 25.94                             117    1.23 2  255 211 
 ROSC BN ES   4    057 57.11                             117    2.25 0  255 211 
 ROSC BZ I         058  1.59        24.5 0.50            114            255 211 
 HEL  HZ EP        057 27.81                             115    0.96 8  275 256 
 HEL  HN ES        057 58.90                             115    0.25 8  275 256 
 HEL  HZ I         058  4.32        21.1 0.30            112            275 256 
 VIL  EZ EP        057 29.82                             113   -0.08 7  305 192 
 VIL  EE ES        058  4.05                             113   -0.04 7  305 192 
 VIL  EZ I         058  6.49        14.4 0.50            110            305 192 
 PTGC HZ EP        057 29.09                             112   -1.06 7  309 159 
 PTGC HN ES   4    058  2.12                             112   -2.41 0  309 159 
 PTGC HZ I         058  5.58        11.7 0.20            110            309 159 
 ELA  HZ EP   2    057 35.03                             111    1.57 3  332 230 
 ELA  HN ES        058 10.81                             111    0.40 7  332 230 
 ELA  HZ I         058 17.76        17.9 0.38            108            332 230 
 CBOC HZ EP        057 34.11                             111    0.59 7  337 252 
 CBOC HN ES        058 10.85                             111    0.31 7  337 252 
 CBOC HZ I         058 16.15         7.4 0.76            107            337 252 
 DBB  EZ EP        057 34.07                             110    0.03 7  342 274 
 DBB  EN ES   3    058 10.36                             110   -1.09 2  342 274 
 DBB  EZ I         058 11.13         8.6 0.26            107            342 274 
 ARGC HZ EP   2    057 35.73                             109   -0.12 3  359 340 
 ARGC HE ES   2    058 14.87                             109    0.19 3  359 340 
 ARGC HZ I         058 24.44         4.4 0.24            107            359 340 
 ORTC HZ EP        057 40.47                             107    0.00 6  398 216 
 ORTC HN ES        058 23.59                             107    0.70 6  398 216 
 ORTC HZ I         058 29.68         9.3 0.52            104            398 216 
 APAC HN ES   2    058 22.77                             107   -0.50 3  401 288 
 APAC HZ I         058 27.41         7.7 0.50            104            401 288 
 PAL  HZ EP        057 41.88                             106    0.13 6  409 239 
 PAL  HN ES   1    058 24.75                             106   -0.42 4  409 239 
 PAL  HZ I         058 30.05         7.6 0.22            104            409 239 
 SJC  HZ IP   3 C  057 40.40                             106   -1.42 1  410 327 
 SJC  HN ES   4    058 21.72                             106   -3.59 0  410 327 
 SJC  HZ I         058 26.15         4.1 0.12            104            410 327 
 YOT  HZ EP   2    057 50.15                             104    0.55 2  475 229 
 YOT  HZ I         058 50.59         1.8 0.44            101            475 229 
 SMAR HZ EP        057 51.57                             103   -0.41 4  496 346 
 SMAR HN ES   4    058 40.13                             103   -3.25 0  496 346 
 SMAR HZ I         058 46.78         6.7 0.42            101            496 346 
 MACC HZ EP   4    057 52.97                             102   -2.13 0  522 189 
 MACC HN ES   4    058 44.87                             102   -4.08 0  522 189 
 MACC HZ I         058 49.04         2.7 0.74            100            522 189 
                                                                                
