 2012 1030 0004 59.0 L   6.783 -73.120143.1  RSN  5 0.1 1.9LRSN                1
 GAP=141        0.38       2.2     3.3  3.8  0.8431E+00 -0.2284E+01 -0.1509E+00E
 Epicentro: LOS SANTOS - SANTANDER                                             3
 ACTION:UPD 12-11-22 17:06 OP:ep   STATUS:               ID:20121030000459 L   I
 2012-10-30-0000-00M.COL___231                                                 6
 STAT SP IPHASW D HRMM SECON CODA AMPLIT PERI AZIMU VELO AIN AR TRES W  DIS CAZ7
 BAR2 SZ ES   2    0 5 33.01                             171   -0.27 5 22.1 198 
 BAR2 SZ I         0 5 34.10        15.1 0.40                          22.1 198 
 GIR2 SZ EP   2    0 5 18.59                             166    0.21 5 33.7 346 
 BRR  HZ EP        0 5 19.83                             151   -0.1810 74.6 299 
 BRR  HN ES        0 5 36.52                             151    0.0910 74.6 299 
 BRR  HN I         0 5 37.45        35.4 0.20                          74.6 299 
 PAM  SZ EP        0 5 21.00                             150    0.1310 77.1  37 
 PAM  SZ I         0 5 21.19        11.4 0.20                          77.1  37 
 PAM  SN ES   1    0 5 37.89                             150   -0.07 7 77.1  37 
 RUS  HZ EP        0 5 22.25                             144   -0.0410 98.5 178 
 RUS  HN ES        0 5 40.56                             144    0.0610 98.5 178 
 RUS  HN I         0 5 42.41         7.1 0.44                          98.5 178 
                                                                                
