 2011  830 0930 48.1 L   6.788 -73.062138.8  RSN  7 0.3 1.9LRSN                1
 GAP=191        0.60       3.0     7.0  4.7  0.4173E+01  0.5087E+01  0.2207E+01E
 Epicentro: LOS SANTOS - SANTANDER                                             3
 ACTION:UPD 12-07-13 15:54 OP:ep   STATUS:               ID:20110830093048 L   I
 2011-08-30-0928-48S.COL___165                                                 6
 STAT SP IPHASW D HRMM SECON CODA AMPLIT PERI AZIMU VELO AIN AR TRES W  DIS CAZ7
 BAR2 SZ EP        931  7.13                             169    0.1810 25.4 212 
 BAR2 SZ ES   1    931 21.20                             169   -0.45 7 25.4 212 
 BAR2 SZ I         931 24.65        21.2 0.26                          25.4 212 
 BRR  HZ EP        931  9.11                             148    0.0510 80.0 296 
 BRR  HN ES   1    931 25.57                             148    0.18 7 80.0 296 
 BRR  HZ I         931 27.63        18.6 0.17                          80.0 296 
 RUS  HZ EP        931 11.10                             143    0.0310 99.1 181 
 RUS  HN ES   1    931 29.02                             143    0.04 7 99.1 181 
 RUS  HZ I         931 31.22         5.8 0.27                          99.1 181 
 OCA  SZ EP   1    931 15.88                             127   -0.27 7  163 350 
 OCA  SZ ES   2    931 38.48                             127    0.47 5  163 350 
 OCA  SZ I         931 41.70        12.3 0.31                           163 350 
 NOR  SZ EP        931 23.72                             116   -0.48 8  242 236 
 CHI  HZ EP   1    931 25.36                             115   -0.22 6  250 197 
 CHI  HE ES   1    931 55.10                             115    0.29 6  250 197 
 CHI  HZ I         932  0.57         4.1 0.25                           250 197 
 ROSC BZ EP   1    931 26.81                             115    0.53 6  257 213 
 ROSC BZ I         932  3.44        10.4 0.29                           257 213 
                                                                                
