 2010  530 0531 30.6 L   6.819 -73.064150.0  RSN  9 0.6 2.3LRSN                1
 GAP=183        1.08       5.8    10.0 10.6 -0.3508E+02  0.2870E+02  0.6799E+01E
 Epicentro: LOS SANTOS - SANTANDER                                             3
 ACTION:UP  10-08-24 10:07 OP:vdl  STATUS:               ID:20100530053130 L   I
 2010-05-30-0528-12S.COL___109                                                 6
 STAT SP IPHASW D HRMM SECON CODA AMPLIT PERI AZIMU VELO SNR AR TRES W  DIS CAZ7
 BAR2 SZ EP        531 50.31                             169    -0.510   28 208 
 BAR2 SZ ES   2    532  6.52                             169    -0.1 5   28 208 
 GIR2 SZ EP   1    531 51.63                             167     0.8 7   32 334 
 GIR2 SZ ES   2    532  7.45                             167     0.9 5   32 334 
 GUE  SZ EP   1    531 55.70                             141     0.3 7  113   8 
 GUE  SZ ES   2    532 14.43                             141    -0.4 5  113   8 
 GRA  SZ EP   1    531 56.13                             139     0.3 7  121  14 
 GRA  SZ ES   1    532 14.69                             139    -0.9 7  121  14 
 OCA  SZ EP        531 59.47                             130     0.3 9  160 350 
 OCA  SZ ES   1    532 21.59                             130     0.1 7  160 350 
 OCA  SZ I         532 25.57        27.4 0.31                           160 350 
 CHI  HZ EP   2    532  8.29                             117    -0.7 4  253 197 
 CHI  HN ES   2    532 38.32                             117    -0.7 4  253 197 
 CHI  HZ I         532 43.64         9.5 0.31                           253 197 
 ROSC BZ EP   2    532  9.91                             117     0.2 4  259 213 
 ROSC BN ES   1    532 40.97                             117     0.8 6  259 213 
 ROSC BZ I         532 43.68         9.5 0.37                           259 213 
 HEL  HZ EP   1    532 12.35                             115     0.3 6  281 256 
 HEL  HN ES   1    532 43.46                             115    -0.9 6  281 256 
 HEL  HZ I         532 48.53        12.3 0.38                           281 256 
 RREF BZ EP   1    532 17.52                             111    -0.3 5  330 230 
 RREF BN ES   1    532 54.95                             111     0.2 5  330 230 
 RREF BZ I         533  2.46        13.0 0.27                           330 230 
                                                                                
