 2015 1230 0142 26.1 L   6.795 -73.164147.2  RSN  6 0.4 1.5LRSN                1
 GAP=242        0.98       6.2     5.3  8.7  0.8475E+01  0.1283E+02 -0.3422E+01E
 Epicentro: LOS SANTOS - SANTANDER                                             3
 ACTION:UPD 16-02-04 15:08 OP:cam  STATUS:               ID:20151230014226 L   I
 OLDACT:UP  15-12-30 15:20 OP:ak   STATUS:               ID:20151230013750     3
 OLDACT:REG 15-12-30 12:34 OP:ak   STATUS:               ID:20151230013750     3
 2015-12-30-0137-50M.COL___335                                                 6
 STAT SP IPHASW D HRMM SECON CODA AMPLIT PERI AZIMU VELO AIN AR TRES W  DIS CAZ7
 BAR2 EZ EP        142 45.87                             171   -0.0210 22.5 185 
 BAR2 EZ ES        143  1.26                             171   -0.0610 22.5 185 
 BAR2 EZ I         143  2.07         5.8 0.24            166           22.5 185 
 RUS  HZ EP        142 50.03                             144    0.0610  100 175 
 RUS  HE ES        143  8.71                             144    0.1310  100 175 
 PTB  HZ EP        142 52.56                             133   -0.43 9  146 259 
 PTB  HN ES        143 13.16                             133   -0.81 9  146 259 
 PTB  HZ I         143 19.35         3.5 0.24            131            146 259 
 SPBC HZ EP   1    142 54.55                             130    0.00 7  161 219 
 SPBC HN ES        143 17.13                             130    0.39 9  161 219 
 ZAR  HZ EP   4    143  0.11                             123    1.64 0  202 293 
 ZAR  HE ES        143 24.47                             123    0.76 9  202 293 
 NOR  HZ EP   4    143  4.10                             119    2.40 0  233 234 
 NOR  HN ES        143 29.63                             119    0.16 8  233 234 
 NOR  HZ I         143 36.49         2.3 0.30            118            233 234 
                                                                                
