 2013  130 0040 17.4 L   6.782 -73.141149.5  RSN  7 0.3 1.9LRSN                1
 GAP=138        0.74       2.8     3.9  4.9 -0.1152E+01  0.1961E+01  0.3210E+01E
 Epicentro: LOS SANTOS - SANTANDER                                             3
 ACTION:UPD 13-02-15 09:17 OP:ep   STATUS:               ID:20130130004017 L   I
 2013-01-30-0040-00M.COL___241                                                 6
 STAT SP IPHASW D HRMM SECON CODA AMPLIT PERI AZIMU VELO AIN AR TRES W  DIS CAZ7
 BAR2 SZ EP        040 37.38                             171   -0.0410 21.4 192 
 BAR2 SZ ES        040 53.08                             171    0.0310 21.4 192 
 BAR2 SZ I         040 54.15        18.3 0.27            171           21.4 192 
 BRR  HZ IP     C  040 39.27                             153    0.2610 72.6 300 
 BRR  HE ES        040 56.46                             153    0.5910 72.6 300 
 BRR  HE I         040 57.79        29.4 0.25            153           72.6 300 
 PAM  SZ EP        040 40.16                             151    0.1010 78.7  38 
 PAM  SZ I         040 40.41        10.2 0.17            153           78.7  38 
 PAM  SN ES        040 57.54                             151   -0.2210 78.7  38 
 RUS  HZ EP        040 41.51                             145    0.1610 98.5 176 
 RUS  HE ES        040 59.78                             145   -0.2710 98.5 176 
 RUS  HE I         041  1.08        14.3 0.52            146           98.5 176 
 PTB  HZ EP        040 44.26                             133   -0.40 9  148 260 
 PTB  HN ES        041  5.56                             133   -0.37 9  148 260 
 PTB  HZ I         041  7.51         5.4 0.13            133            148 260 
 OCA  HN ES   1    041  8.28                             130   -0.35 7  162 353 
 CHI  HZ EP        040 55.23                             118    0.14 8  247 195 
 CHI  HE ES        041 24.70                             118    0.20 8  247 195 
                                                                                
