 2010  630 0417  3.8 L   6.822 -73.084142.6  RSN  5 0.4 1.4LRSN                1
 GAP=162        0.76       5.9    11.3 10.7 -0.2540E+02 -0.2601E+02  0.3172E+01E
 Epicentro: LOS SANTOS - SANTANDER                                             3
 ACTION:UP  10-08-24 10:14 OP:vdl  STATUS:               ID:20100630041703 L   I
 2010-06-30-0414-19S.COL___118                                                 6
 STAT SP IPHASW D HRMM SECON CODA AMPLIT PERI AZIMU VELO SNR AR TRES W  DIS CAZ7
 BRR  HZ EP   1    417 24.27                             151    -0.6 8   76 295 
 BRR  HN ES   2    417 41.84                             151     0.5 5   76 295 
 BRR  HZ I         417 44.71         7.0 0.14                            76 295 
 RUS  HZ EP   2    417 27.30                             142     0.0 5  103 180 
 RUS  HE ES   2    417 45.91                             142     0.2 5  103 180 
 RUS  HZ I         417 47.23         2.9 0.37                           103 180 
 BRI  SZ EP   2    417 27.66                             142     0.7 5  104  18 
 BRI  SZ ES   2    417 44.51                             142    -0.6 5  104  18 
 GUE  SZ EP        417 28.22                             140     0.310  113   9 
 GUE  SZ ES   2    417 46.49                             140    -0.2 5  113   9 
 GRA  SZ EP        417 28.17                             137    -0.210  122  15 
 GRA  SZ ES   2    417 47.76                             137     0.2 5  122  15 
                                                                                
