 2011  330 0506 35.2 L   6.671 -73.084136.6  RSN  5 0.4 1.3LRSN                1
 GAP=202        0.84      10.8    10.1 10.4 -0.2545E+02 -0.4673E+02 -0.9472E+01E
 Epicentro: JORDAN - SANTANDER                                                 3
 ACTION:UP  11-06-16 14:36 OP:jfem STATUS:               ID:20110330050635 L   I
 2011-03-30-0504-39S.COL___138                                                 6
 STAT SP IPHASW D HRMM SECON CODA AMPLIT PERI AZIMU VELO SNR AR TRES W  DIS CAZ7
 BAR2 SZ EP   2    5 6 52.45                             174    -1.1 5   14 231 
 BAR2 SZ ES   2    5 7  8.03                             174     0.2 5   14 231 
 BAR2 SZ I         5 7  9.65         4.4 0.17                            14 231 
 BTL  SZ EP        5 6 54.22                             165     0.210   34 323 
 BTL  SZ ES   2    5 7  8.78                             165     0.1 5   34 323 
 BRR  HZ EP        5 6 55.95                             147    -0.210   85 305 
 BRR  HZ I         5 7  2.40         5.8 0.75                            85 305 
 BRR  HN ES   1    5 7 12.64                             147     0.1 7   85 305 
 PAM  SZ EP        5 6 57.01                             146     0.110   85  30 
 PAM  SZ I         5 6 57.24         3.5 0.26                            85  30 
 GRA  SZ EP        5 7  0.96                             132     0.3 9  138  13 
 GRA  SZ ES   2    5 7 19.91                             132    -0.6 5  138  13 
 GRA  SZ I         5 7 21.45         2.5 0.35                           138  13 
                                                                                
