 2016  330 0102 18.8 L   6.731 -73.132133.1  RSN  4 0.2 1.9LRSN                1
 GAP=196        0.51       2.9     3.6  4.2 -0.2553E+01 -0.3862E+01  0.8056E+00E
 Epicentro: JORDAN - SANTANDER                                                 3
 ACTION:UPD 16-05-13 21:28 OP:cam  STATUS:               ID:20160330010218 L   I
 OLDACT:UP  16-03-30 14:07 OP:ak   STATUS:               ID:20160330005750     3
 OLDACT:REG 16-03-30 13:11 OP:ak   STATUS:               ID:20160330005750     3
 2016-03-30-0057-50M.COL___320                                                 6
 STAT SP IPHASW D HRMM SECON CODA AMPLIT PERI AZIMU VELO AIN AR TRES W  DIS CAZ7
 BAR2 EZ EP        1 2 36.96                             173    0.1510 16.3 200 
 BAR2 EZ ES        1 2 50.61                             173   -0.2310 16.3 200 
 BAR2 EZ I         1 2 54.08        36.8 0.22            174           16.3 200 
 PAM  EZ EP        1 2 39.89                             147   -0.1710 82.6  35 
 PAM  EN ES        1 2 56.81                             147    0.1910 82.6  35 
 PAM  EZ I         1 2 59.80        15.8 0.54            149           82.6  35 
 RUS  HZ EP        1 2 40.64                             143   -0.1510 92.9 177 
 RUS  HE ES        1 2 58.11                             143    0.2010 92.9 177 
 RUS  HZ I         1 3  0.14        11.8 0.20            147           92.9 177 
 TAM  HZ EP        1 2 45.37                             128    0.14 9  152 102 
 TAM  HN ES        1 3  5.67                             128   -0.15 9  152 102 
 TAM  HZ I         1 3  8.01        11.1 0.42            131            152 102 
                                                                                
