 2013  330 0001 47.7 L   6.737 -73.166153.4  RSN  5 0.4 1.2LRSN                1
 GAP=230        0.73      10.0    11.0  8.0  0.8791E+02  0.2193E+02  0.1079E+02E
 Epicentro: VILLANUEVA - SANTANDER                                             3
 ACTION:UPD 13-04-09 14:05 OP:ep   STATUS:               ID:20130330000147 L   I
 2013-03-30-0000-00M.COL___245                                                 6
 STAT SP IPHASW D HRMM SECON CODA AMPLIT PERI AZIMU VELO AIN AR TRES W  DIS CAZ7
 BAR2 SZ EP   1    0 2  7.86                             174   -0.28 7 16.1 187 
 BAR2 SZ ES   1    0 2 23.54                             174   -0.53 7 16.1 187 
 BRR  HZ EP   1 C  0 2  9.83                             153    0.05 7 72.9 304 
 BRR  HN ES   1    0 2 27.63                             153    0.64 7 72.9 304 
 RUS  HZ EP   1    0 2 12.12                             147    0.36 7 93.8 174 
 RUS  HN ES   1    0 2 30.63                             147    0.11 7 93.8 174 
 RUS  HZ I         0 2 31.94         1.4 0.42            111           93.8 174 
 PTB  HZ EP   1    0 2 14.88                             134   -0.13 7  144 261 
 PTB  HZ I         0 2 41.19         2.4 0.30            103            144 261 
 ZAR  HE ES   1    0 2 46.17                             124   -0.32 6  205 294 
 ZAR  HZ I         0 2 51.35         2.5 0.28            101            205 294 
                                                                                
