 2017  930 0705 15.1 L   6.506 -73.330155.9  RSN  4 0.3 1.3LRSN                1
 GAP=145        0.88       9.6    10.9  7.5  0.8632E+02  0.3308E+02  0.1694E+02E
 Epicentro: HATO - SANTANDER                                                   3
 ACTION:UPD 17-10-05 19:17 OP:rebc STATUS:               ID:20170930070515 L   I
 OLDACT:REG 17-09-30 12:57 OP:edw  STATUS:               ID:20170930065742     3
 2017-09-30-0658-00M.COL___407                                                 6
 STAT SP IPHASW D HRMM SECON CODA AMPLIT PERI AZIMU VELO AIN AR TRES W  DIS CAZ7
 BAR2 EZ EP        7 5 36.02                             173    0.1310 18.9  60 
 BAR2 EZ ES        7 5 51.52                             173   -0.5710 18.9  60 
 BAR2 EZ I         7 5 52.04         5.0 0.33            172           18.9  60 
 RUS  HZ EP        7 5 37.86                             154   -0.3310 73.1 158 
 RUS  HN ES        7 5 56.56                             154    0.3710 73.1 158 
 RUS  HZ I         7 5 59.70         2.3 0.37            151           73.1 158 
 BRR  HZ EP        7 5 38.15                             152    0.3610 78.8 328 
 BRR  HN ES        7 5 55.77                             152    0.3010 78.8 328 
 BRR  HZ I         7 5 59.07         4.0 0.21            150           78.8 328 
 ZAR  HZ EP        7 5 47.80                             125   -0.14 9  201 303 
 ZAR  HE ES        7 6 13.33                             125   -0.21 9  201 303 
 ZAR  HZ I         7 6 20.37         1.7 0.19            124            201 303 
                                                                                
