 2016  730 0014 14.2 L   6.744 -73.103143.6  RSN 15 0.4 1.8LRSN                1
 GAP=104        0.85       2.9     2.8  4.3  0.2199E+00  0.2537E+01  0.3144E+01E
 Epicentro: LOS SANTOS - SANTANDER                                             3
 ACTION:UPD 17-03-29 16:56 OP:lp   STATUS:               ID:20160730001414 L   I
 OLDACT:UP  16-07-30 15:15 OP:edw  STATUS:               ID:20160730000760d    3
 OLDACT:DUP 16-07-30 15:05 OP:edw  STATUS:               ID:20160730000760d    3
 OLDACT:REG 16-07-30 12:43 OP:edw  STATUS:               ID:20160730000759     3
 2016-07-30-0007-59S.COL___343                                                 6
 STAT SP IPHASW D HRMM SECON CODA AMPLIT PERI AZIMU VELO AIN AR TRES W  DIS CAZ7
 BAR2 EZ EP        014 33.76                             172    0.2610 18.9 207 
 BAR2 EZ ES        014 48.50                             172   -0.0510 18.9 207 
 BRR  HZ EP        014 35.49                             150   -0.0610 78.3 301 
 BRR  HN ES        014 52.45                             150    0.2510 78.3 301 
 PAM  EZ EP        014 36.36                             150    0.0310 79.5  34 
 PAM  EN ES        014 53.39                             150   -0.1910 79.5  34 
 PAM  EZ I         014 55.63        16.4 0.62            146           79.5  34 
 RUS  HZ EP        014 37.45                             145    0.1510 94.2 179 
 RUS  HN ES        014 55.60                             145    0.3010 94.2 179 
 RUS  HZ I         014 57.00         7.5 0.32            151           94.2 179 
 PTB  HZ EP        014 40.93                             131   -0.40 9  151 261 
 PTB  HN ES        015  1.88                             131   -0.60 9  151 261 
 PTB  HZ I         015  3.58         9.7 0.12            125            151 261 
 SPBC HZ EP        014 42.15                             129   -0.23 9  161 222 
 SPBC HN ES        015  4.72                             129    0.36 9  161 222 
 SPBC HZ I         015  8.35         8.7 0.10            127            161 222 
 ZAR  HZ EP        014 47.41                             121    0.20 8  211 293 
 ZAR  HE ES        015 13.08                             121    0.12 8  211 293 
 ZAR  HZ I         016 12.09         2.9 0.28            116            211 293 
 NOR  HZ EP        014 50.37                             118    0.52 8  235 236 
 NOR  HN ES        015 16.70                             118   -0.95 8  235 236 
 NOR  HZ I         015 20.04         5.3 0.18            116            235 236 
 HEL  HZ EP   2    014 55.46                             114    0.80 4  275 257 
 HEL  HN ES   2    015 25.32                             114   -0.89 4  275 257 
 URE  HZ EP   4    014 55.35                             113   -0.58 0  291 293 
 URE  HN ES   4    015 25.52                             113   -2.95 0  291 293 
 VIL  HZ EP   4    014 52.11                             112   -4.85 0  298 193 
 VIL  EN ES   4    015 39.54                             112    9.24 0  298 193 
 SOCV BZ EP   2    014 56.56                             112   -0.55 4  301  55 
 SOCV BN ES   4    015 26.74                             112   -3.83 0  301  55 
 PTGC HZ EP        014 56.80                             112   -0.33 7  301 159 
 PTGC HN ES        015 30.26                             112   -0.34 7  301 159 
 GUY2CHZ EP   2    014 58.33                             112    0.57 4  302 236 
 GUY2CHN ES   2    015 32.49                             112    0.76 4  302 236 
 GUY2CHZ I         015 42.20         3.3 0.48                           302 236 
 LL6C HZ EP   4    014 58.27                             110   -2.29 0  331 357 
 LL6C HN ES   4    015 38.38                             110    1.68 0  331 357 
 CBOC HZ EP        015  0.95                             109   -0.39 7  336 253 
 CBOC HN ES        015 38.61                             109    0.51 7  336 253 
 PRA  HZ EP        015  8.06                             106    0.75 6  389 211 
 PRA  HN ES   2    015 49.36                             106    0.64 3  389 211 
 PRA  HZ I         015 54.22         2.8 0.26            106            389 211 
 SJC  HZ EP   4    015  8.46                             105   -2.15 0  417 327 
 SJC  HN ES   4    015 48.74                             105   -5.87 0  417 327 
 CRJC HZ EP   9    015  7.97                             103   -9.38 0  474   3 
 CRJC HN ES        015 57.73                                    0.51 5  474   3 
                                                                                
