 2015  830 0834 29.9 L   6.803 -73.127143.3  RSN 12 0.4 1.7LRSN                1
 GAP=185        0.95       2.5     4.6  5.1 -0.2170E+01  0.6818E+01  0.5059E+00E
 Epicentro: LOS SANTOS - SANTANDER                                             3
 ACTION:UPD 15-09-15 23:06 OP:cam  STATUS:               ID:20150830083429 L   I
 OLDACT:REG 15-08-30 14:38 OP:ak   STATUS:               ID:20150830082747     3
 2015-08-30-0827-47M.COL___352                                                 6
 STAT SP IPHASW D HRMM SECON CODA AMPLIT PERI AZIMU VELO AIN AR TRES W  DIS CAZ7
 BAR2 EZ EP        834 49.29                             170    0.0310 24.1 195 
 BAR2 EZ ES        835  4.51                             170    0.1610 24.1 195 
 BAR2 EZ I         835  5.83        12.4 0.20            167           24.1 195 
 BRR  HZ EP        834 51.44                             152    0.5410 72.9 298 
 BRR  HN ES        835  8.05                             152    0.7910 72.9 298 
 BRR  HZ I         835 12.61         6.0 0.20            148           72.9 298 
 RUS  HZ EP        834 53.28                             143   -0.1510  101 177 
 RUS  HN ES        835 11.40                             143   -0.3810  101 177 
 RUS  HZ I         835 12.97         3.9 0.25            145            101 177 
 OCA  HZ EP        834 58.50                             129    0.47 9  160 352 
 OCA  HN ES        835 19.37                             129   -0.59 9  160 352 
 OCA  HZ I         835 22.76        16.8 0.22            130            160 352 
 SPBC HZ EP        834 58.58                             128    0.21 9  165 219 
 SPBC HN ES        835 19.86                             128   -0.71 9  165 219 
 SPBC HZ I         835 26.28                             128            165 219 
 NOR  HZ EP        835  5.70                             118   -0.01 8  237 235 
 NOR  HE ES        835 33.27                             118   -0.35 8  237 235 
 NOR  HZ I         835 37.42         3.0 0.11            118            237 235 
 SML  HZ EP        835  5.95                             117   -0.52 8  244 335 
 SML  HE ES        835 34.56                             117   -0.42 8  244 335 
 SML  HZ I         835 40.48         7.9 0.10            118            244 335 
 CHI  HZ EP        835  7.61                             117    0.04 8  249 196 
 CHI  HN ES        835 37.00                             117    0.06 8  249 196 
 CHI  HZ I         835 42.75         2.1 0.45            118            249 196 
 HEL  HZ EP        835 10.22                             114   -0.02 8  274 256 
 HEL  HN ES        835 41.59                             114   -0.10 8  274 256 
 HEL  HZ I         835 48.38         2.7 0.44            114            274 256 
 GUY2CHZ EP   1    835 14.08                             112    0.46 5  303 235 
 GUY2CHN ES        835 47.55                             112   -0.16 7  303 235 
 GUY2CHZ I         835 57.83         2.2 0.26                           303 235 
 TOL  SN ES        835 55.99                             109    0.01 7  345 225 
 TOL  SZ I         836  5.93         1.9 0.51            109            345 225 
 PRA  HZ EP        835 23.54                             106    0.04 6  393 210 
 PRA  HE ES        836  6.16                             106    0.86 6  393 210 
 PRA  HZ I         836 11.59         3.0 0.26            107            393 210 
 SJC  HZ EP   4    835 23.97                             105   -1.53 0  410 327 
 SJC  HN ES   4    836  5.27                             105   -3.59 0  410 327 
                                                                                
