 2012  830 0907 23.4 L   6.796 -73.147150.3  RSN  7 0.4 2.2LRSN                1
 GAP=183        0.80       5.5     6.0  6.1  0.2053E+01  0.8227E+01 -0.5962E+01E
 Epicentro: LOS SANTOS - SANTANDER                                             3
 ACTION:UPD 12-09-10 11:59 OP:ep   STATUS:               ID:20120830090723 L   I
 2012-08-30-0900-00M.COL___218                                                 6
 STAT SP IPHASW D HRMM SECON CODA AMPLIT PERI AZIMU VELO AIN AR TRES W  DIS CAZ7
 BAR2 SZ EP   2    9 7 43.37                             171   -0.16 5 22.9 190 
 BAR2 SZ ES   1    9 7 58.73                             171   -0.52 7 22.9 190 
 BAR2 SZ I         9 8  0.20        55.9 0.20                          22.9 190 
 GIR2 SZ EP        9 7 43.68                             167    0.1010 31.7 351 
 GIR2 SZ ES   1    9 7 59.39                             167    0.04 7 31.7 351 
 BRR  HZ EP        9 7 45.50                             153    0.4910 71.3 299 
 BRR  HZ I         9 7 45.75        61.8 0.12                          71.3 299 
 BRR  HN ES   1    9 8  2.64                             153    0.75 7 71.3 299 
 RUS  HZ EP   2    9 7 47.93                             145    0.40 5  100 176 
 RUS  HE ES   2    9 8  6.14                             145   -0.24 5  100 176 
 RUS  HZ I         9 8  7.48         9.0 0.32                           100 176 
 PTB  HZ EP        9 7 50.45                             133   -0.23 9  148 259 
 PTB  HN ES   2    9 8 11.47                             133   -0.52 5  148 259 
 PTB  HZ I         9 8 14.66         9.2 0.36                           148 259 
 OCA  HZ EP        9 7 51.64                             131   -0.42 9  161 353 
 OCA  HN ES   2    9 8 13.99                             131   -0.46 5  161 353 
 OCA  HZ I         9 8 18.47        49.9 0.14                           161 353 
 ZAR  HZ EP        9 7 56.33                             123    0.22 9  204 292 
 ZAR  HZ I         9 7 58.34        13.1 0.26                           204 292 
 ZAR  HN ES   1    9 8 21.32                             123   -0.33 6  204 292 
                                                                                
