 2012 1030 0918 15.1 L   6.799 -73.120143.1  RSN 10 0.4 2.3LRSN                1
 GAP=140        0.75       2.9     4.1  5.4 -0.8724E-01  0.7238E+01  0.2646E+01E
 Epicentro: LOS SANTOS - SANTANDER                                             3
 ACTION:UPD 12-11-22 17:06 OP:ep   STATUS:               ID:20121030091815 L   I
 2012-10-30-0909-45M.COL___188                                                 6
 STAT SP IPHASW D HRMM SECON CODA AMPLIT PERI AZIMU VELO AIN AR TRES W  DIS CAZ7
 BAR2 SZ EP        918 34.48                             170    0.0610 23.8 197 
 BAR2 SZ ES   1    918 49.13                             170   -0.37 7 23.8 197 
 BAR2 SZ I         918 50.92        77.9 0.18                          23.8 197 
 GIR2 SZ EP        918 34.52                             167    0.0410 32.0 345 
 BRR  HZ EP        918 36.43                             151    0.3210 73.7 298 
 BRR  HN ES   1    918 53.21                             151    0.71 7 73.7 298 
 BRR  HZ I         918 55.64        35.3 0.14                          73.7 298 
 PAM  SZ EP        918 37.31                             151    0.3710 75.8  38 
 PAM  SN ES   1    918 54.10                             151    0.13 7 75.8  38 
 PAM  SN I         918 55.36        51.8 0.48                          75.8  38 
 RUS  HZ EP        918 38.46                             143   -0.1110  100 178 
 RUS  HN ES   1    918 56.33                             143   -0.55 7  100 178 
 RUS  HN I         919  0.12        24.9 0.38                           100 178 
 OCA  HZ EP   1    918 43.16                             129   -0.09 7  161 352 
 OCA  HN ES   1    919  4.24                             129   -0.98 7  161 352 
 ZAR  HZ EP        918 47.58                             121   -0.07 8  207 292 
 ZAR  HN ES   1    919 12.87                             121   -0.17 6  207 292 
 ZAR  HN I         919 18.73        37.7 0.20                           207 292 
 CHI  HZ EP   1    918 52.84                             116    0.12 6  249 196 
 CHI  HE ES   1    919 22.44                             116    0.38 6  249 196 
 CHI  HZ I         919 29.18         9.5 0.44                           249 196 
 HEL  HZ EP   1    918 55.45                             114   -0.03 6  275 256 
 HEL  HN ES   1    919 26.78                             114   -0.19 6  275 256 
 HEL  HN I         919 32.31         7.9 0.22                           275 256 
 PRA  HZ EP        919  8.21                             106   -0.47 6  393 210 
 PRA  HN ES   1    919 50.64                             106    0.17 4  393 210 
                                                                                
