 2010  430 0700 46.7 L   6.810 -73.056148.0  RSN 13 0.6 2.2LRSN                1
 GAP=148        1.29       6.6    10.9  9.2 -0.4488E+02 -0.2382E+02  0.2475E+02E
 Epicentro: LOS SANTOS - SANTANDER                                             3
 ACTION:UP  10-08-24 10:01 OP:vdl  STATUS:               ID:20100430070046 L   I
 2010-04-30-0659-08S.COL___104                                                 6
 STAT SP IPHASW D HRMM SECON CODA AMPLIT PERI AZIMU VELO SNR AR TRES W  DIS CAZ7
 BAR2 SZ EP        7 1  6.26                             169    -0.410   28 210 
 BAR2 SZ ES   1    7 1 21.78                             169    -0.5 7   28 210 
 BRR  HZ IP     C  7 1  8.69                             150     0.110   80 294 
 BRR  HN ES   1    7 1 26.18                             150     0.5 7   80 294 
 BRR  HZ I         7 1 28.95        31.5 0.13                            80 294 
 BRI  SZ EP        7 1 10.77                             143     0.310  104  16 
 BRI  SZ ES   1    7 1 29.28                             143     0.2 7  104  16 
 GUE  SZ IP        7 1 12.27                             140     0.910  114   7 
 GUE  SZ ES   2    7 1 29.89                             140    -0.8 5  114   7 
 GRA  SZ IP        7 1 12.05                             138     0.210  122  13 
 GRA  SZ ES   1    7 1 31.58                             138     0.1 7  122  13 
 OCA  SZ EP   1    7 1 13.99                             130    -1.2 7  161 350 
 OCA  SZ ES   1    7 1 36.51                             130    -1.0 7  161 350 
 CHI  HZ EP   1    7 1 23.98                             117    -0.9 6  252 197 
 CHI  HN ES   2    7 1 54.69                             117    -0.1 4  252 197 
 CHI  HZ I         7 2  1.55         6.6 0.30                           252 197 
 ROSC BZ EP        7 1 26.59                             116     1.0 8  259 213 
 ROSC BZ I         7 2  3.83         6.5 0.42                           259 213 
 HEL  HZ EP   2    7 1 28.31                             114     0.2 4  282 256 
 HEL  HZ I         7 2  4.93        11.8 0.37                           282 256 
 RREF BZ EP   2    7 1 33.31                             110    -0.6 3  330 230 
 RREF BE ES   2    7 2 10.72                             110     0.1 3  330 230 
 RREF BZ I         7 2 18.35         9.3 0.21                           330 230 
 TOL  SZ EP   1    7 1 35.58                             109    -0.4 5  351 226 
 SDV  BZ EP        7 1 35.65                             109    -0.2 6  352  49 
 SDV  BZ I         7 2 14.95         2.1 0.36                           352  49 
 PRA  HZ EP   2    7 1 40.31                             106    -0.7 3  398 211 
 PRA  HN ES   2    7 2 23.22                             106    -0.1 3  398 211 
 PRA  HZ I         7 2 27.32         6.8 0.38                           398 211 
                                                                                
