 2015 1030 0209 48.2 L   6.799 -73.113141.6  RSN 14 0.3 2.2LRSN                1
 GAP=141        0.82       2.2     3.4  4.4  0.2705E+00  0.5587E+01  0.2525E+00E
 Epicentro: LOS SANTOS - SANTANDER                                             3
 ACTION:UPD 15-12-22 20:44 OP:cam  STATUS:               ID:20151030020948 L   I
 OLDACT:UP  15-10-30 14:47 OP:mh   STATUS:               ID:20151030020749     3
 OLDACT:UP  15-10-30 14:45 OP:mh   STATUS:               ID:20151030020749     3
 OLDACT:REG 15-10-30 12:34 OP:mh   STATUS:               ID:20151030020749     3
 2015-10-30-0207-49M.COL___319                                                 6
 STAT SP IPHASW D HRMM SECON CODA AMPLIT PERI AZIMU VELO AIN AR TRES W  DIS CAZ7
 BAR2 EZ EP        210  7.35                             170    0.0210 24.1 199 
 BAR2 EZ ES        210 21.95                             170   -0.3110 24.1 199 
 BAR2 EZ I         210 22.92        51.1 0.18            169           24.1 199 
 BRR  HZ EP        210  8.62                             151   -0.4610 74.5 297 
 BRR  HN ES        210 25.68                             151    0.3110 74.5 297 
 BRR  HZ I         210 26.17        27.1 0.28            148           74.5 297 
 PAM  EZ EP        210 10.21                             151    0.3810 75.3  37 
 PAM  EN ES   1    210 26.94                             151    0.23 7 75.3  37 
 PAM  EZ I         210 28.62        22.2 0.22            153           75.3  37 
 RUS  HZ EP        210 11.32                             143   -0.1810  100 178 
 RUS  HE ES        210 29.83                             143    0.1410  100 178 
 RUS  HZ I         210 30.31        12.6 0.18            144            100 178 
 OCA  HN ES        210 37.56                             128   -0.55 9  161 352 
 OCA  HZ I         210 41.59        32.3 0.38            129            161 352 
 SPBC HZ EP   1    210 16.30                             128   -0.28 7  165 220 
 SPBC HN ES        210 39.17                             128    0.45 9  165 220 
 SPBC HZ I         210 46.94        20.1 0.32            128            165 220 
 ZAR  HZ EP        210 21.04                             121    0.32 8  207 292 
 ZAR  HN ES        210 46.18                             121    0.09 8  207 292 
 ZAR  HZ I         210 51.90        23.3 0.30            121            207 292 
 SML  HZ EP        210 25.47                             116    0.71 8  245 335 
 SML  HE ES        210 53.07                             116   -0.22 8  245 335 
 SML  HZ I         211  5.70        10.8 0.10            117            245 335 
 CHI  HZ EP        210 25.40                             116   -0.35 8  249 196 
 CHI  HN ES        210 54.81                             116   -0.23 8  249 196 
 CHI  HZ I         211  1.42         5.2 0.64            117            249 196 
 HEL  HZ EP        210 29.07                             114    0.49 7  276 256 
 HEL  HE ES        210 59.85                             114   -0.23 7  276 256 
 HEL  HZ I         211  6.22        13.3 0.28            114            276 256 
 URE  HZ EP   4    210 30.28                             112    0.84 0  287 292 
 URE  HN ES   4    210 58.23                             112   -3.39 0  287 292 
 GUY2CHZ EP        210 32.07                             111    0.14 7  304 235 
 GUY2CHN ES   4    211  8.29                             111    2.24 0  304 235 
 GUY2CHZ I         211 12.29        11.5 0.24                           304 235 
 DBB  SZ EP        210 35.41                             108   -0.50 7  343 274 
 DBB  SZ ES        211 13.01                             108   -0.13 7  343 274 
 MON  HZ EP   4    210 32.80                             108   -4.57 0  357 308 
 MON  HN ES   4    211 13.39                             108   -2.34 0  357 308 
 MON  HZ I         211 13.86         3.2 0.18            108            357 308 
 SJC  HZ EP   4    210 40.36                             105   -3.50 0  411 327 
 SJC  HN ES   4    211 22.28                             105   -5.01 0  411 327 
 SJC  HZ I         211 27.19         3.7 0.50            105            411 327 
                                                                                
