 2017  830 0815 49.9 L   6.818 -73.109139.1  RSN  8 0.6 1.8LRSN                1
 GAP=102        1.48       6.8     5.7  9.2  0.3206E+01  0.1560E+02  0.1040E+02E
 Epicentro: LOS SANTOS - SANTANDER                                             3
 ACTION:UPD 17-09-04 20:26 OP:rebc STATUS:               ID:20170830081549 L   I
 OLDACT:DUP 17-08-30 15:41 OP:dani STATUS:               ID:20170830080741d    3
 2017-08-30-0808-00M.COL___384                                                 6
 STAT SP IPHASW D HRMM SECON CODA AMPLIT PERI AZIMU VELO AIN AR TRES W  DIS CAZ7
 BAR2 EZ EP        816  8.82                             169    0.0110 26.3 198 
 BAR2 EZ ES        816 23.59                             169    0.0410 26.3 198 
 BAR2 EZ I         816 24.44        15.2 0.30            170           26.3 198 
 PAM  EN ES        816 26.58                             151   -1.1910 73.3  38 
 BRR  HZ EP        816 10.72                             150    0.2110 73.9 296 
 BRR  HN ES        816 27.49                             150    0.9110 73.9 296 
 BRR  HZ I         816 31.70        10.9 0.32            149           73.9 296 
 RUS  HZ EP        816 13.89                             142    0.7310  102 178 
 RUS  HN ES        816 31.09                             142   -0.1910  102 178 
 RUS  HZ I         816 32.07         5.6 0.30            145            102 178 
 TAM  HZ EP        816 17.19                             130    0.44 9  152 106 
 ZAR  HZ EP        816 22.22                             120   -0.04 8  207 291 
 ZAR  HN ES        816 47.81                             120    0.32 8  207 291 
 ZAR  HZ I         816 53.54         7.6 0.28            121            207 291 
 NOR  HZ EP        816 25.11                             116   -0.65 8  239 235 
 NOR  HN ES        816 53.54                             116   -0.17 8  239 235 
 NOR  HZ I         816 54.74         4.6 0.16            118            239 235 
 HEL  HN ES        817  0.80                             113   -1.00 7  277 256 
                                                                                
