 2017  830 0237 27.5 L   6.757 -73.070145.5  RSN  4 0.3 1.3LRSN                1
 GAP=242        0.68       4.1     6.2  5.5  0.5397E+01  0.1471E+01  0.2473E+01E
 Epicentro: LOS SANTOS - SANTANDER                                             3
 ACTION:UPD 17-09-04 20:26 OP:rebc STATUS:               ID:20170830023727 L   I
 OLDACT:DUP 17-08-30 13:44 OP:dani STATUS:               ID:20170830022742d    3
 OLDACT:UP  17-08-30 13:42 OP:dani STATUS:               ID:20170830022740     3
 OLDACT:UP  17-08-30 13:42 OP:dani STATUS:               ID:20170830022740     3
 OLDACT:REG 17-08-30 12:28 OP:dani STATUS:               ID:20170830022740     3
 2017-08-30-0228-00M.COL___414                                                 6
 STAT SP IPHASW D HRMM SECON CODA AMPLIT PERI AZIMU VELO AIN AR TRES W  DIS CAZ7
 BAR2 EZ EP        237 47.02                             171   -0.0710 22.1 214 
 BAR2 EZ ES        238  1.96                             171   -0.4110 22.1 214 
 BRR  HZ EP        237 49.19                             149   -0.0210 80.8 299 
 BRR  HN ES        238  6.41                             149    0.2710 80.8 299 
 BRR  HZ I         238 11.30         5.1 0.57            147           80.8 299 
 RUS  HZ EP        237 51.20                             145    0.3110 95.6 181 
 RUS  HN ES        238  9.33                             145    0.2010 95.6 181 
 RUS  HZ I         238 10.62         3.8 0.25            147           95.6 181 
 SPBC HZ EP        237 55.83                             129   -0.35 9  165 222 
 SPBC HN ES        238 18.54                             129    0.01 9  165 222 
 SPBC HZ I         238 21.70         2.0 0.10            129            165 222 
                                                                                
