 2015  530 0216 17.0 L   6.793 -73.162159.0  RSN  6 0.5 1.6LRSN                1
 GAP=135        1.38       7.1     8.5 10.0 -0.2593E+02  0.9852E+01  0.9027E+01E
 Epicentro: LOS SANTOS - SANTANDER                                             3
 ACTION:UPD 15-09-10 22:08 OP:cam  STATUS:               ID:20150530021617 L   I
 OLDACT:REG 15-05-30 13:15 OP:ar   STATUS:               ID:20150530020747     3
 2015-05-30-0207-47M.COL___309                                                 6
 STAT SP IPHASW D HRMM SECON CODA AMPLIT PERI AZIMU VELO AIN AR TRES W  DIS CAZ7
 BAR2 EZ EP        216 38.08                             172   -0.1410 22.3 186 
 BAR2 EZ I         216 55.54         4.9 0.40            171           22.3 186 
 BAR2 EZ ES        216 55.54                             172    0.7810 22.3 186 
 BRR  HZ EP        216 39.59                             155    0.0410 70.0 300 
 BRR  HN ES        216 57.63                             155    0.5110 70.0 300 
 BRR  HZ I         217  0.99         9.6 0.40            150           70.0 300 
 PAM  SZ EP        216 40.78                             153    0.0310 79.1  40 
 PAM  SE ES        216 58.28                             153   -0.9910 79.1  40 
 PAM  SZ I         217  0.22         9.5 0.56            150           79.1  40 
 RUS  HZ EP        216 42.44                             147    0.3910100.0 175 
 RUS  HE ES        217  1.33                             147   -0.2510100.0 175 
 RUS  HZ I         217  2.18         2.5 0.40            145          100.0 175 
 SPBC HZ EP        216 46.93                             132    0.52 9  161 219 
 SPBC HN ES        217  9.12                             132   -0.21 9  161 219 
 SPBC HZ I         217 13.11         6.3 0.10            129            161 219 
 NOR  HZ EP   4    216 54.63                             121    1.28 0  233 234 
 NOR  HE ES        217 20.72                             121   -0.96 8  233 234 
 NOR  HZ I         217 28.69         3.2 0.44            118            233 234 
                                                                                
