 2012  930 0752 55.2 L   6.735 -73.181144.0  RSN  9 0.5 2.1LRSN                1
 GAP=155        1.03       4.3     6.0  8.0 -0.2431E+01 -0.4039E+01  0.7015E+01E
 Epicentro: VILLANUEVA - SANTANDER                                             3
 ACTION:UPD 12-10-22 14:21 OP:ep   STATUS:               ID:20120930075255 L   I
 2012-09-30-0750-39M.COL___199                                                 6
 STAT SP IPHASW D HRMM SECON CODA AMPLIT PERI AZIMU VELO AIN AR TRES W  DIS CAZ7
 BAR2 SZ EP        753 13.96                             173   -0.5610 15.8 181 
 BAR2 SZ ES   1    753 29.19                             173   -0.37 7 15.8 181 
 BAR2 SZ I         753 31.63        27.1 0.16                          15.8 181 
 GIR2 SZ EP   1    753 14.12                             164   -0.77 7 38.0 358 
 BRR  HZ EP   1    753 15.91                             152   -0.30 7 71.7 305 
 BRR  HN ES        753 33.12                             152    0.5410 71.7 305 
 BRR  HZ I         753 34.76        17.6 0.10                          71.7 305 
 BRR  HN I         753 36.31        44.8 0.16                          71.7 305 
 RUS  HZ EP   1    753 17.82                             145   -0.50 7 93.8 173 
 RUS  HN ES   1    753 36.74                             145    0.40 7 93.8 173 
 GRA  SZ EP        753 21.74                             135    0.7410  134  18 
 GRA  SZ ES   1    753 41.22                             135    0.12 7  134  18 
 PTB  HE ES   1    753 42.10                             133   -0.06 7  143 261 
 PTB  HN I         753 47.27        23.4 0.28                           143 261 
 ZAR  HN ES   1    753 52.12                             122   -0.52 6  203 294 
 ZAR  HN I         753 58.88        15.8 0.26                           203 294 
 CHI  HZ EP   1    753 31.97                             118    0.00 6  241 195 
 CHI  HN ES   1    754  1.13                             118    0.51 6  241 195 
 CHI  HZ I         754  7.32         3.6 0.54                           241 195 
 PRA  HZ EP   1    753 48.37                             107    0.64 4  384 210 
 PRA  HN ES   1    754 29.13                             107    0.45 4  384 210 
 PRA  HN I         754 33.34         4.6 0.42                           384 210 
                                                                                
