 2011  430 0517 58.3 L   6.785 -73.106144.1  RSN 13 0.4 2.2LRSN                1
 GAP=118        0.78       3.4     4.3  5.2 -0.6161E+01  0.5578E+01  0.1522E+01E
 Epicentro: LOS SANTOS - SANTANDER                                             3
 ACTION:UP  11-06-22 15:34 OP:REBC STATUS:               ID:20110430051758 L   I
 2011-04-30-0514-21S.COL___129                                                 6
 STAT SP IPHASW D HRMM SECON CODA AMPLIT PERI AZIMU VELO SNR AR TRES W  DIS CAZ7
 BAR2 SZ EP        518 17.58                             170    -0.110   23 202 
 BAR2 SZ ES   1    518 32.54                             170    -0.3 7   23 202 
 BAR2 SZ I         518 33.66        51.4 0.30                            23 202 
 BRR  HZ EP        518 19.38                             151    -0.210   76 298 
 BRR  HN ES   1    518 36.57                             151     0.5 7   76 298 
 BRR  HZ I         518 37.56        44.0 0.11                            76 298 
 PAM  SZ EP        518 20.60                             151     0.310   76  36 
 PAM  SN ES   1    518 37.57                             151     0.2 7   76  36 
 RUS  HZ EP   1    518 21.56                             143    -0.2 7   99 179 
 RUS  HN ES   1    518 40.14                             143     0.1 7   99 179 
 RUS  HZ I         518 41.40        14.8 0.26                            99 179 
 BRI  SZ EP   1    518 22.02                             141     0.0 7  109  18 
 BRI  SZ I         518 45.77        11.3 0.49                           109  18 
 GRA  SZ EP        518 23.37                             137    -0.110  126  15 
 GRA  SZ ES   1    518 42.76                             137    -0.3 7  126  15 
 GRA  SZ I         518 47.23        14.5 0.25                           126  15 
 OCA  SZ EP   1    518 26.07                             129    -0.6 7  163 352 
 OCA  SZ ES   3    518 48.38                             129    -0.5 2  163 352 
 OCA  SZ I         518 55.96        24.4 0.35                           163 352 
 YOP  SZ EP   1    518 28.25                             126     0.4 7  175 154 
 YOP  SZ I         518 55.95         6.8 0.27                           175 154 
 NOR  SZ EP   1    518 33.78                             118    -0.4 6  237 235 
 NOR  SN ES   2    519  1.63                             118    -0.6 4  237 235 
 HEL  HZ EP        518 39.45                             114     0.6 7  276 256 
 HEL  HN ES   1    519 10.51                             114     0.0 6  276 256 
 HEL  HZ I         519 16.10        12.9 0.20                           276 256 
 GUY  SZ EP   1    518 42.84                             112     0.4 5  306 236 
 RREF HN ES   1    519 21.19                             110     0.4 5  324 230 
 RREF HZ I         519 27.46        11.8 0.24                           324 230 
 PRA  HZ EP   1    518 51.84                             106     0.0 4  393 210 
 PRA  HN ES   1    519 32.79                             106    -0.8 4  393 210 
                                                                                
