 2014  530 0832 45.3 L   6.789 -73.174148.8  RSN  6 0.5 1.3LRSN                1
 GAP=234        1.26       6.4     8.0  9.2  0.9916E+01  0.9652E+01  0.1089E+02E
 Epicentro: LOS SANTOS - SANTANDER                                             3
 ACTION:UPD 15-03-16 17:02 OP:nd   STATUS:               ID:20140530083245 L   I
 OLDACT:REG 14-05-30 13:00 OP:mh   STATUS:               ID:20140530082808     3
 2014-05-30-0828-08M.COL___235                                                 6
 STAT SP IPHASW D HRMM SECON CODA AMPLIT PERI AZIMU VELO AIN AR TRES W  DIS CAZ7
 BAR2 SZ EP        833  5.01                             171   -0.2310 21.8 182 
 BAR2 SZ ES        833 20.31                             171   -0.5110 21.8 182 
 BAR2 SZ I         833 21.56         6.7 0.18            170           21.8 182 
 BRR  HZ EP        833  6.91                             154    0.2810 69.0 301 
 BRR  HN ES        833 24.17                             154    0.8710 69.0 301 
 BRR  HZ I         833 27.34         3.1 0.34            151           69.0 301 
 RUS  HZ EP        833  9.56                             145    0.3010 99.7 174 
 RUS  HN ES        833 27.78                             145   -0.1910 99.7 174 
 RUS  HZ I         833 28.90         3.5 0.26            147           99.7 174 
 PTB  HZ EP        833 11.88                             133   -0.31 9  144 259 
 PTB  HN ES        833 32.80                             133   -0.39 9  144 259 
 PTB  HZ I         833 39.65         1.9 0.42            132            144 259 
 SPBC HZ EP        833 13.26                             130   -0.47 9  160 218 
 SPBC HN ES        833 35.71                             130   -0.22 9  160 218 
 SPBC HZ I         833 38.47         3.7 0.44            130            160 218 
 CHI  HN ES        833 53.37                             118    1.07 8  247 195 
                                                                                
