 2012 1030 0416  6.3 L   6.764 -73.122147.5  RSN  7 0.3 1.9LRSN                1
 GAP=141        0.66       3.5     4.3  4.8  0.2771E+01  0.8013E+00 -0.5568E+00E
 Epicentro: LOS SANTOS - SANTANDER                                             3
 ACTION:UPD 12-11-22 17:06 OP:ep   STATUS:               ID:20121030041606 L   I
 2012-10-30-0410-00M.COL___231                                                 6
 STAT SP IPHASW D HRMM SECON CODA AMPLIT PERI AZIMU VELO AIN AR TRES W  DIS CAZ7
 BAR2 SZ EP   1    416 26.04                             172   -0.09 7 20.1 199 
 BAR2 SZ ES   1    416 41.07                             172   -0.48 7 20.1 199 
 BAR2 SZ I         416 44.28        23.2 0.41                          20.1 199 
 BRR  HZ EP        416 27.98                             151    0.0610 75.4 300 
 BRR  HN ES        416 45.26                             151    0.5110 75.4 300 
 BRR  HZ I         416 49.88        13.4 0.15                          75.4 300 
 PAM  SZ EP        416 28.89                             151    0.0510 78.9  36 
 PAM  SZ I         416 29.24        14.6 0.23                          78.9  36 
 PAM  SN ES   1    416 46.19                             151   -0.19 7 78.9  36 
 RUS  HZ EP        416 29.95                             145   -0.0310 96.5 177 
 RUS  HE ES   1    416 48.49                             145    0.08 7 96.5 177 
 RUS  HE I         416 50.04        17.7 0.47                          96.5 177 
 OCA  HZ EP        416 35.28                             129    0.09 9  165 352 
 OCA  HZ I         417  1.49         8.8 0.17                           165 352 
 ZAR  HZ EP   1    416 38.94                             122   -0.37 6  208 293 
 ZAR  HE ES   1    417  4.43                             122   -0.59 6  208 293 
 ZAR  HZ I         417 13.62         8.5 0.15                           208 293 
 CHI  HZ EP   1    416 44.11                             118    0.30 6  246 196 
 CHI  HZ I         417 19.30         2.7 0.35                           246 196 
                                                                                
