 2015  330 0729  8.6 L   6.822 -73.163145.6  RSN 10 0.4 1.9LRSN                1
 GAP=133        1.07       3.4     4.5  6.3 -0.1441E+01  0.5769E+01 -0.3198E+01E
 Epicentro: LOS SANTOS - SANTANDER                                             3
 ACTION:UPD 15-04-30 16:30 OP:nd   STATUS:               ID:20150330072908 L   I
 OLDACT:REG 15-03-30 18:34 OP:mh   STATUS:               ID:20150330072736     3
 2015-03-30-0727-36M.COL___287                                                 6
 STAT SP IPHASW D HRMM SECON CODA AMPLIT PERI AZIMU VELO AIN AR TRES W  DIS CAZ7
 BAR2 EZ EP        729 28.44                             170    0.1610 25.6 185 
 BAR2 EZ ES        729 43.57                             170   -0.0510 25.6 185 
 BAR2 EZ I         729 44.42        10.1 0.20            170           25.6 185 
 BRR  HZ EP        729 30.13                             153    0.5310 68.4 297 
 BRR  HN ES        729 46.68                             153    0.7210 68.4 297 
 BRR  HZ I         729 50.21        12.6 0.26            151           68.4 297 
 PAM  SZ EP        729 31.08                             151    0.3010 76.7  42 
 PAM  SN ES        729 47.98                             151   -0.0910 76.7  42 
 PAM  SZ I         729 49.88        19.5 0.52            155           76.7  42 
 RUS  HZ EP        729 32.50                             143   -0.0510  103 175 
 RUS  HN ES        729 50.90                             143   -0.3110  103 175 
 RUS  HZ I         729 52.77         5.6 0.28            146            103 175 
 PTB  HZ EP        729 34.96                             132   -0.50 9  146 258 
 PTB  HN ES        729 55.45                             132   -0.94 9  146 258 
 PTB  HZ I         729 58.69         7.8 0.38            132            146 258 
 OCA  HZ EP        729 36.21                             130   -0.46 9  158 354 
 OCA  HN ES        729 58.25                             130   -0.30 9  158 354 
 OCA  HZ I         730  2.07        13.3 0.22            132            158 354 
 SPBC HZ EP        729 37.52                             129    0.33 9  164 218 
 SPBC HN ES        729 59.61                             129    0.15 9  164 218 
 SPBC HZ I         730  6.36         8.9 0.25            130            164 218 
 ZAR  HZ EP   1    729 41.32                             123    0.53 6  201 292 
 ZAR  HN ES        730  6.30                             123    0.43 9  201 292 
 ZAR  HZ I         730 13.70         7.7 0.72            123            201 292 
 SML  HZ EP        729 44.93                             118    0.02 8  241 335 
 SML  HN ES   1    730 12.55                             118   -0.67 6  241 335 
 SML  HZ I         730 16.47         8.2 0.24            119            241 335 
 GUY2CHZ EP   4    729 53.83                             112    1.61 0  301 234 
 GUY2CHN ES   4    730 28.10                             112    1.88 0  301 234 
 GUY2CHZ I         730 36.83         3.3 0.57                           301 234 
                                                                                
