 2013 1030 0131 22.9 L   6.801 -73.219134.7  RSN  4 0.2 1.3LRSN                1
 GAP=146        0.50       3.5     2.9  4.5 -0.4170E+01  0.4054E+01 -0.1984E+01E
 Epicentro: ZAPATOCA - SANTANDER                                               3
 ACTION:UPD 13-11-25 09:24 OP:ep   STATUS:               ID:20131030013122 L   I
 OLDACT:REG 13-10-30 06:30 OP:jn   STATUS:               ID:20131030013000     3
 2013-10-30-0130-00M.COL___273                                                 6
 STAT SP IPHASW D HRMM SECON CODA AMPLIT PERI AZIMU VELO AIN AR TRES W  DIS CAZ7
 BAR2 SZ EP        131 41.07                             170   -0.1010 23.5 170 
 BAR2 SZ ES        131 55.47                             170    0.0210 23.5 170 
 BAR2 SZ I         131 58.29         7.1 0.18            172           23.5 170 
 PAM  SZ EP        131 44.09                             147   -0.1710 82.7  44 
 PAM  SN ES        132  1.06                             147    0.1110 82.7  44 
 PAM  SZ I         132  3.19         5.6 0.68            151           82.7  44 
 RUS  HZ EP   1    131 45.51                             141   -0.12 7  102 172 
 RUS  HN ES   1    132  3.47                             141    0.10 7  102 172 
 RUS  HZ I         132  4.74         2.4 0.22            145            102 172 
 PTB  HZ EP        131 48.59                             131    0.37 9  140 258 
 PTB  HN ES        132  7.80                             131   -0.20 9  140 258 
 PTB  HZ I         132 11.46         2.2 0.36            133            140 258 
                                                                                
