 2016  430 0913 25.6 L   6.796 -73.161133.3  RSN 10 0.4 1.9LRSN                1
 GAP=135        0.75       2.8     4.3  5.7 -0.4797E+01  0.1304E+02 -0.1942E+01E
 Epicentro: LOS SANTOS - SANTANDER                                             3
 ACTION:UPD 16-05-05 14:25 OP:rebc STATUS:               ID:20160430091325 L   I
 OLDACT:DUP 16-04-30 18:35 OP:dnl  STATUS:               ID:20160430085933d    3
 OLDACT:REG 16-04-30 13:45 OP:dnl  STATUS:               ID:20160430085932     3
 2016-04-30-0900-00M.COL                                                       6
 STAT SP IPHASW D HRMM SECON CODA AMPLIT PERI AZIMU VELO AIN AR TRES W  DIS CAZ7
 BAR2 EZ EP        913 43.90                             170    0.1610 22.6 186 
 BAR2 EZ ES        913 57.69                             170   -0.1910 22.6 186 
 BAR2 EZ I         913 59.71        18.8 0.20            168           22.6 186 
 PAM  EZ EP        913 46.80                             148    0.1710 78.9  40 
 PAM  EN ES        914  3.54                             148    0.5310 78.9  40 
 PAM  EZ I         914  6.08        11.1 0.28            152           78.9  40 
 RUS  HZ EP        913 47.87                             141   -0.2810  100 175 
 RUS  HE ES        914  5.78                             141    0.0710  100 175 
 RUS  HZ I         914  7.40        10.2 0.30            147            100 175 
 OCA  HE ES        914 13.73                             126   -0.67 9  161 354 
 OCA  HZ I         914 18.50        11.7 0.50            128            161 354 
 SPBC HZ EP        913 52.91                             126   -0.14 9  162 219 
 SPBC HN ES        914 14.18                             126   -0.27 9  162 219 
 SPBC HZ I         914 17.28        15.7 0.26            128            162 219 
 ZAR  HZ EP   2    913 56.85                             120   -0.29 4  203 292 
 ZAR  HE ES   2    914 22.51                             120    0.79 4  203 292 
 ZAR  HZ I         914 29.97        10.4 0.24            120            203 292 
 NOR  HZ EP        914  0.46                             116   -0.02 8  233 234 
 NOR  HN ES        914 27.70                             116    0.04 8  233 234 
 NOR  HZ I         914 33.67         6.2 0.38            118            233 234 
 HEL  HZ EP   2    914  5.76                             112    0.73 4  270 256 
 HEL  HN ES   2    914 36.07                             112    0.31 4  270 256 
 HEL  HZ I         914 43.22         5.4 0.28            114            270 256 
 URE  HZ EP   2    914  6.49                             111    0.53 4  282 292 
 URE  HN ES   4    914 37.86                             111    0.45 0  282 292 
 URE  HZ I         914 40.84         4.5 0.14            112            282 292 
 GUY2CHZ EP   2    914  9.28                             110    0.79 4  299 235 
 GUY2CHN ES   4    914 40.09                             110   -1.84 0  299 235 
 GUY2CHZ I         914 51.51         3.7 0.62                           299 235 
                                                                                
