 2015  830 0441 10.3 L   6.832 -73.145145.2  RSN 14 0.5 1.9LRSN                1
 GAP=183        1.11       2.7     4.8  5.7 -0.9020E+00  0.7716E+01  0.2051E+01E
 Epicentro: LOS SANTOS - SANTANDER                                             3
 ACTION:UPD 15-09-15 23:06 OP:cam  STATUS:               ID:20150830044110 L   I
 OLDACT:REG 15-08-30 13:53 OP:ak   STATUS:               ID:20150830043749     3
 2015-08-30-0437-49M.COL___355                                                 6
 STAT SP IPHASW D HRMM SECON CODA AMPLIT PERI AZIMU VELO AIN AR TRES W  DIS CAZ7
 BAR2 EZ EP        441 30.04                             169    0.1110 26.8 189 
 BAR2 EZ ES        441 44.48                             169   -0.7710 26.8 189 
 BAR2 EZ I         441 47.07         9.4 0.22            166           26.8 189 
 BRR  HZ EP        441 31.98                             153    0.6810 69.7 296 
 BRR  HN ES        441 48.50                             153    0.8210 69.7 296 
 BRR  HZ I         441 51.98         8.2 0.12            149           69.7 296 
 RUS  HZ EP        441 34.25                             143    0.0010  104 176 
 RUS  HN ES        441 53.10                             143    0.1710  104 176 
 RUS  HZ I         441 54.60         7.4 0.34            144            104 176 
 OCA  HZ EP        441 38.31                             130    0.07 9  157 353 
 OCA  HN ES        441 59.43                             130   -0.60 9  157 353 
 OCA  HZ I         442  5.45        17.8 0.68            132            157 353 
 SPBC HZ EP        441 39.04                             128    0.03 9  166 218 
 SPBC HN ES        442  1.15                             128   -0.27 9  166 218 
 SPBC HZ I         442  8.07        11.9 0.40            128            166 218 
 ZAR  HZ EP        441 43.39                             122    0.81 9  203 291 
 ZAR  HN ES        442  7.49                             122   -0.27 9  203 291 
 ZAR  HZ I         442 16.02         5.1 0.26            122            203 291 
 NOR  HZ EP        441 46.97                             118    0.75 8  237 234 
 NOR  HE ES        442 14.03                             118   -0.21 8  237 234 
 SML  HZ EP   1    441 45.74                             118   -0.81 6  241 335 
 SML  HE ES        442 14.79                             118   -0.04 8  241 335 
 SML  HZ I         442 16.52        12.3 0.10            119            241 335 
 CHI  HZ EP        441 48.29                             117   -0.04 8  252 195 
 CHI  HN ES        442 17.86                             117   -0.14 8  252 195 
 CHI  HZ I         442 21.24         2.5 0.20            118            252 195 
 HEL  HZ EP   1    441 49.61                             114   -0.97 6  273 255 
 HEL  HN ES        442 21.46                             114   -0.55 8  273 255 
 HEL  HZ I         442 29.47         4.7 0.32            115            273 255 
 GUY2CHZ EP        441 53.44                             112   -0.67 7  303 234 
 GUY2CHN ES        442 29.04                             112    0.75 7  303 234 
 GUY2CHZ I         442 38.14         3.5 0.36                           303 234 
 TOL  SZ EP   1    441 59.19                             109    0.37 5  346 224 
 TOL  SE ES        442 36.71                             109    0.04 6  346 224 
 TOL  SZ E         442 47.37                                            346 224 
 TOL  SZ I         442 47.50         2.2 0.32            110            346 224 
 PRA  HZ EP        442  4.22                             106    0.07 6  395 209 
 PRA  HN ES        442 45.44                             106   -0.73 6  395 209 
 PRA  HZ I         442 52.61         3.3 0.28            107            395 209 
 ORTC HZ EP        442  4.62                             106    0.09 6  398 216 
 ORTC HN ES        442 46.81                             106   -0.02 6  398 216 
 ORTC HZ I         442 56.18         1.4 0.51            107            398 216 
                                                                                
