 2014  930 0355 59.5 L   6.817 -73.149140.0  RSN  9 0.6 1.6LRSN                1
 GAP= 70        1.60       4.9     6.5  9.3 -0.2423E+01  0.3373E+01 -0.2488E+01E
 Epicentro: LOS SANTOS - SANTANDER                                             3
 ACTION:UPD 14-10-03 23:09 OP:nd   STATUS:               ID:20140930035559 L   I
 OLDACT:REG 14-09-30 12:21 OP:stll STATUS:               ID:20140930034816     3
 2014-09-30-0348-16M.COL___292                                                 6
 STAT SP IPHASW D HRMM SECON CODA AMPLIT PERI AZIMU VELO AIN AR TRES W  DIS CAZ7
 BAR2 SZ EP        356 18.88                             169    0.4010 25.1 188 
 BAR2 SZ ES        356 33.31                             169    0.0310 25.1 188 
 BAR2 SZ I         356 34.64         9.3 0.36            171           25.1 188 
 BRR  HZ EP        356 20.87                             152    0.9110 70.0 297 
 BRR  HN ES        356 37.33                             152    1.4110 70.0 297 
 BRR  HZ I         356 42.43         9.1 0.12            150           70.0 297 
 PAM  SZ EP        356 20.76                             150   -0.2710 76.2  41 
 PAM  SE ES        356 37.43                             150   -0.3910 76.2  41 
 PAM  SZ I         356 40.95        10.8 0.26            152           76.2  41 
 RUS  HZ EP        356 23.19                             142    0.3610  103 176 
 RUS  HE ES        356 40.36                             142   -0.6710  103 176 
 RUS  HZ I         356 42.09         3.2 0.24            147            103 176 
 PTB  HZ EP        356 26.15                             131    0.14 9  148 258 
 PTB  HN ES        356 46.06                             131   -0.62 9  148 258 
 PTB  HZ I         356 49.79         4.8 0.42            132            148 258 
 TAM  HZ EP        356 27.12                             129    0.32 9  156 106 
 OCA  HN ES        356 48.22                             129   -0.56 9  158 353 
 OCA  HZ I         356 53.32         4.8 0.22            130            158 353 
 SPBC HZ EP        356 28.02                             127    0.34 9  164 218 
 SPBC HN ES        356 48.79                             127   -0.88 9  164 218 
 SPBC HZ I         356 53.81         3.9 0.24            130            164 218 
 SML  HZ EP        356 35.05                             116   -0.55 8  242 335 
 SML  HE ES        357  3.18                             116   -0.58 8  242 335 
 SML  HZ I         357 11.23         5.6 0.30            118            242 335 
                                                                                
