 2011  330 0521 46.4 L   6.731 -73.137144.0  RSN  6 0.4 1.5LRSN                1
 GAP=163        1.06       9.8    12.5 12.0 -0.3747E+02 -0.5362E+02  0.4709E+00E
 Epicentro: JORDAN - SANTANDER                                                 3
 ACTION:UP  11-06-16 14:36 OP:jfem STATUS:               ID:20110330052146 L   I
 2011-03-30-0519-45S.COL___138                                                 6
 STAT SP IPHASW D HRMM SECON CODA AMPLIT PERI AZIMU VELO SNR AR TRES W  DIS CAZ7
 BAR2 SZ EP        522  5.72                             173     0.010   16 198 
 BAR2 SZ ES   3    522 20.31                             173    -0.5 2   16 198 
 BAR2 SZ I         522 23.31         7.4 0.04                            16 198 
 BTL  SZ EP        522  5.94                             170     0.010   25 325 
 BTL  SZ ES   2    522 20.54                             170    -0.5 5   25 325 
 BRR  HZ EP        522  7.75                             151     0.110   76 303 
 BRR  HN ES   1    522 24.69                             151     0.4 7   76 303 
 BRR  HZ I         522 27.08         6.5 0.23                            76 303 
 PAM  SZ EP        522  8.79                             149     0.010   83  36 
 PAM  SZ I         522  8.97         3.6 0.15                            83  36 
 GRA  SZ EP        522 12.61                             136     0.510  133  16 
 GRA  SZ ES   1    522 32.40                             136     0.2 7  133  16 
 GRA  SZ I         522 33.47         5.1 0.27                           133  16 
 OCA  SZ EP        522 14.49                             128    -0.9 9  168 353 
 OCA  SZ I         522 39.62         4.0 0.35                           168 353 
                                                                                
