 2013  330 0220 35.2 L   6.765 -73.142142.5  RSN  6 0.3 1.4LRSN                1
 GAP=139        0.69       4.4     3.9  6.4  0.4634E+00  0.3029E+01 -0.1098E+01E
 Epicentro: LOS SANTOS - SANTANDER                                             3
 ACTION:UPD 13-04-09 14:05 OP:ep   STATUS:               ID:20130330022035 L   I
 2013-03-30-0220-00M.COL___245                                                 6
 STAT SP IPHASW D HRMM SECON CODA AMPLIT PERI AZIMU VELO AIN AR TRES W  DIS CAZ7
 BAR2 SZ EP        220 54.30                             172   -0.1110 19.7 193 
 BAR2 SZ ES   1    221  9.26                             172   -0.10 7 19.7 193 
 BAR2 SZ I         221 10.28         6.5 0.14            172           19.7 193 
 BRR  HZ EP   1    220 56.20                             151    0.04 7 73.4 301 
 BRR  HN ES   1    221 13.06                             151    0.58 7 73.4 301 
 BRR  HZ I         221 14.08         5.0 0.26            147           73.4 301 
 PAM  SZ EP        220 57.23                             149   -0.0510 80.1  38 
 PAM  SN ES   1    221 14.18                             149   -0.28 7 80.1  38 
 PAM  SZ I         221 16.67         3.1 0.62            150           80.1  38 
 RUS  HZ EP   1    220 58.74                             144    0.35 7 96.7 176 
 RUS  HN ES   1    221 16.62                             144    0.17 7 96.7 176 
 RUS  HZ I         221 17.70         2.3 0.32            147           96.7 176 
 PTB  HZ EP   1    221  1.84                             131   -0.07 7  147 260 
 PTB  HN ES   1    221 21.95                             131   -0.77 7  147 260 
 PTB  HZ I         221 25.09         4.3 0.12            130            147 260 
 ZAR  HN ES   1    221 33.29                             121    0.34 6  206 293 
 ZAR  HZ I         221 43.22         3.0 0.26            120            206 293 
                                                                                
