 2010  830 0211 17.6 L   6.776 -73.050139.2  RSN  9 0.3 2.2LRSN                1
 GAP=185        0.65       4.1     6.0  6.1 -0.1327E+02 -0.5589E+01  0.9601E+01E
 Epicentro: LOS SANTOS - SANTANDER                                             3
 ACTION:UP  10-09-07 10:59 OP:vdl  STATUS:               ID:20100830021117 L   I
 2010-08-30-0208-32S.COL___120                                                 6
 STAT SP IPHASW D HRMM SECON CODA AMPLIT PERI AZIMU VELO SNR AR TRES W  DIS CAZ7
 BAR2 SZ IP        211 36.64                             169     0.110   25 216 
 BAR2 SZ ES   2    211 51.12                             169    -0.1 5   25 216 
 BAR2 SZ I         211 52.77        47.1 0.26                            25 216 
 BRR  HZ IP     C  211 38.46                             148    -0.310   82 297 
 BRR  HN ES   1    211 55.13                             148     0.0 7   82 297 
 BRR  HZ I         211 58.89        40.0 0.13                            82 297 
 GUE  SZ EP   1    211 41.63                             138    -0.2 7  117   7 
 GUE  SZ I         211 59.33         5.9 0.10                           117   7 
 GRA  SZ IP        211 42.43                             136     0.210  126  13 
 GRA  SZ ES   1    212  1.59                             136     0.1 7  126  13 
 GRA  SZ I         212  4.13        25.9 0.24                           126  13 
 OCA  SZ EP   1    211 45.50                             127    -0.3 7  164 350 
 OCA  SZ I         212 11.05        21.4 0.40                           164 350 
 CHI  HZ EP   1    211 55.15                             116     0.1 6  249 198 
 CHI  HN ES   3    212 23.77                                    -0.4 2  249 198 
 CHI  HZ I         212 31.78         6.8 0.31                           249 198 
 ROSC BZ EP   1    211 56.41                             115     0.6 6  256 213 
 HEL  HZ EP   1    211 58.85                             113     0.3 6  282 257 
 HEL  HN ES   2    212 30.70                             113     0.2 4  282 257 
 HEL  HZ I         212 35.01        14.6 0.42                           282 257 
 PRA  HZ EP   1    212 10.39                             105    -0.9 4  395 211 
 PRA  HN ES   2    212 52.95                             105    -0.2 3  395 211 
 PRA  HZ I         212 59.17        11.9 0.31                           395 211 
                                                                                
