 2017  330 0150 36.7 L   6.850 -73.151143.5  RSN  6 0.3 1.3LRSN                1
 GAP=133        0.45       3.7     4.4  6.8  0.5541E+01  0.1067E+02  0.3687E+00E
 Epicentro: LOS SANTOS - SANTANDER                                             3
 ACTION:UPD 17-05-25 18:47 OP:jn   STATUS:               ID:20170330015036 L   I
 OLDACT:DUP 17-03-30 13:31 OP:and  STATUS:               ID:20170330014746d    3
 OLDACT:UP  17-03-30 13:31 OP:and  STATUS:               ID:20170330014745     3
 OLDACT:UP  17-03-30 13:30 OP:and  STATUS:               ID:20170330014745     3
 OLDACT:UP  17-03-30 13:30 OP:and  STATUS:               ID:20170330014745     3
 OLDACT:UP  17-03-30 13:29 OP:and  STATUS:               ID:20170330014745     3
 OLDACT:UP  17-03-30 13:28 OP:and  STATUS:               ID:20170330014745     3
 OLDACT:UP  17-03-30 13:28 OP:and  STATUS:               ID:20170330014745     3
 OLDACT:REG 17-03-30 12:26 OP:and  STATUS:               ID:20170330014745     3
 2017-03-30-0148-00M.COL___350                                                 6
 STAT SP IPHASW D HRMM SECON CODA AMPLIT PERI AZIMU VELO AIN AR TRES W  DIS CAZ7
 BAR2 EZ EP   2    150 56.33                             168    0.16 5 28.7 187 
 BAR2 EZ ES   2    151 11.22                             168   -0.14 5 28.7 187 
 BRR  HZ EP   2    150 57.93                             153    0.51 5 68.2 295 
 BRR  HN ES   2    151 13.99                             153    0.40 5 68.2 295 
 PAM  EN ES   2    151 15.03                             152   -0.37 5 73.6  43 
 RUS  HZ EP   2    151  0.47                             142   -0.16 5  106 176 
 RUS  HN ES        151 19.36                             142    0.0510  106 176 
 RUS  HZ I         151 20.08         2.7 0.30            142            106 176 
 PTB  HZ EP   2    151  3.27                             131   -0.25 5  148 257 
 PTB  HN ES   2    151 24.05                             131   -0.41 5  148 257 
 PTB  HZ I         151 31.06         2.0 0.26            127            148 257 
 ZAR  HN ES   2    151 33.63                             122   -0.07 4  201 291 
 ZAR  HZ I         151 41.38         2.2 0.08            120            201 291 
                                                                                
