 2012  730 0618 13.1 L   6.781 -73.163140.7  RSN 10 0.4 2.2LRSN                1
 GAP=135        0.95       4.0     4.7  7.3 -0.2914E+01  0.8400E+01  0.2151E+01E
 Epicentro: LOS SANTOS - SANTANDER                                             3
 ACTION:UPD 12-08-14 11:46 OP:ep   STATUS:               ID:20120730061813 L   I
 2012-07-30-0616-49M.COL___201                                                 6
 STAT SP IPHASW D HRMM SECON CODA AMPLIT PERI AZIMU VELO AIN AR TRES W  DIS CAZ7
 BAR2 SZ EP        618 32.09                             171     0.110   21 186 
 BAR2 SZ ES   1    618 46.80                             171     0.0 7   21 186 
 BAR2 SZ I         618 48.28        59.6 0.21            170             21 186 
 BRR  HZ EP   1    618 33.90                             152     0.3 7   71 301 
 BRR  HN ES   1    618 50.23                             152     0.6 7   71 301 
 BRR  HZ I         618 55.11        39.3 0.14            150             71 301 
 PAM  SZ EP        618 35.04                             149     0.110   80  40 
 PAM  SZ I         618 35.31        18.7 0.23            153             80  40 
 PAM  SN ES   1    618 51.95                             149     0.0 7   80  40 
 RUS  HZ EP   1    618 36.26                             143     0.1 7   99 175 
 RUS  HN ES   1    618 54.42                             143     0.2 7   99 175 
 RUS  HZ I         618 55.72        22.8 0.31            146             99 175 
 PTB  HZ EP   1    618 38.70                             131    -0.7 7  145 260 
 PTB  HN ES   1    618 59.68                             131    -0.3 7  145 260 
 PTB  HZ I         619  2.03        14.4 0.12            132            145 260 
 OCA  HZ EP   1    618 41.22                             128     0.1 7  162 354 
 OCA  HE ES   1    619  2.15                             128    -0.9 7  162 354 
 ZAR  HN ES   1    619 10.17                             121     0.1 6  203 293 
 NOR  SZ EP   1    618 48.51                             118     0.3 6  232 235 
 NOR  SN ES   1    619 14.98                             118    -0.6 6  232 235 
 HEL  HZ EP   1    618 53.74                             114     1.0 6  270 256 
 HEL  HN ES   2    619 24.07                             114     0.4 4  270 256 
 HEL  HZ I         619 30.96         9.6 0.48            115            270 256 
 VIL  SN ES   1    619 28.71                             111    -0.7 5  301 191 
