 2011 1030 0232 16.6 L   6.780 -73.079146.7  RSN  4 0.3 1.4LRSN                1
 GAP=146        0.54       5.5     7.6  6.9  0.1728E+02 -0.3327E+00  0.9734E+01E
 Epicentro: LOS SANTOS - SANTANDER                                             3
 ACTION:UPD 12-07-13 16:07 OP:ep   STATUS:               ID:20111030023216 L   I
 2011-10-30-0229-00S.COL___157                                                 6
 STAT SP IPHASW D HRMM SECON CODA AMPLIT PERI AZIMU VELO AIN AR TRES W  DIS CAZ7
 BAR2 SZ EP        232 36.06                             170   -0.2710 23.7 209 
 BAR2 SZ ES   2    232 51.26                             170   -0.48 5 23.7 209 
 BAR2 SZ I         232 54.06         8.9 0.34                          23.7 209 
 PAM  SN ES   2    232 56.28                             152    0.25 5 74.7  34 
 BRR  HZ EP        232 38.20                             150   -0.0710 78.7 297 
 BRR  HE ES   1    232 55.41                             150    0.22 7 78.7 297 
 BRR  HZ I         232 57.76         6.5 0.12                          78.7 297 
 RUS  HZ EP        232 40.46                             145    0.2110 98.2 180 
 RUS  HN ES   2    232 58.98                             145    0.26 5 98.2 180 
 RUS  HZ I         233  1.04         1.7 0.16                          98.2 180 
                                                                                
