 2011  630 0122 21.8 L   6.766 -73.096145.8  RSN  8 0.3 1.8LRSN                1
 GAP=165        0.74       2.8     6.9  5.3 -0.2051E+01 -0.5145E+01  0.1450E+01E
 Epicentro: LOS SANTOS - SANTANDER                                             3
 ACTION:UP  11-07-14 19:09 OP:ep   STATUS:               ID:20110630012221 L   I
 2011-06-30-0120-06S.COL___140                                                 6
 STAT SP IPHASW D HRMM SECON CODA AMPLIT PERI AZIMU VELO SNR AR TRES W  DIS CAZ7
 BAR2 SZ EP   1    122 40.85                             171    -0.5 7   21 206 
 BAR2 SZ ES   1    122 56.30                             171    -0.4 7   21 206 
 BAR2 SZ I         122 59.24        18.1 0.28                            21 206 
 BRR  HZ EP        122 43.20                             150    -0.110   78 299 
 BRR  HE ES        123  0.31                             150     0.210   78 299 
 BRR  HZ I         123  2.55        14.1 0.15                            78 299 
 RUS  HZ EP        122 45.30                             145     0.010   97 179 
 RUS  HN ES   1    123  3.97                             145     0.4 7   97 179 
 RUS  HZ I         123  5.27         8.0 0.26                            97 179 
 GRA  SZ EP        122 47.14                             136    -0.110  128  15 
 GRA  SZ I         123 15.47         6.0 0.40                           128  15 
 OCA  SZ EP        122 50.95                             129     0.4 9  165 351 
 OCA  SZ ES   1    123 12.68                             129    -0.2 7  165 351 
 NOR  SZ EP   1    122 57.84                             118     0.1 6  237 236 
 CHI  HZ EP   1    122 59.39                             117     0.1 6  247 197 
 CHI  HZ I         123  0.23         3.5 0.19                           247 197 
 CHI  HE ES   1    123 28.79                             117     0.3 6  247 197 
 PRA  HZ EP   1    123 15.18                             106    -0.1 4  392 211 
 PRA  HN ES   1    123 56.13                             106    -0.8 4  392 211 
                                                                                
