 2013  130 0800 14.5 L   6.792 -73.163146.1  RSN  9 0.3 2.5LRSN                1
 GAP= 81        0.69       2.8     2.4  4.4  0.1417E+00  0.1442E+01  0.2588E+01E
 Epicentro: LOS SANTOS - SANTANDER                                             3
 ACTION:UPD 13-02-15 09:17 OP:ep   STATUS:               ID:20130130080014 L   I
 2013-01-30-0800-00M.COL___241                                                 6
 STAT SP IPHASW D HRMM SECON CODA AMPLIT PERI AZIMU VELO AIN AR TRES W  DIS CAZ7
 BAR2 SZ IP        8 0 34.06                             171   -0.0510 22.2 186 
 BAR2 SZ ES        8 0 49.55                             171    0.1210 22.2 186 
 BAR2 SZ I         8 0 50.78        70.3 0.18            165           22.2 186 
 BRR  HZ IP     D  8 0 35.92                             153    0.3510 70.0 300 
 BRR  HN ES   1    8 0 52.50                             153    0.46 7 70.0 300 
 BRR  HN I         8 0 55.99       115.1 0.20            143           70.0 300 
 PAM  SZ EP        8 0 36.84                             150    0.0210 79.2  40 
 PAM  SN ES        8 0 54.07                             150   -0.1910 79.2  40 
 PAM  SZ I         8 0 56.14        35.6 0.32            149           79.2  40 
 PTB  HZ EP        8 0 40.98                             132   -0.29 9  146 259 
 PTB  HN ES        8 1  1.52                             132   -0.66 9  146 259 
 PTB  HZ I         8 1  7.92        44.4 0.31            123            146 259 
 TAM  HZ IP     D  8 0 42.23                             130   -0.08 9  157 105 
 TAM  HN ES        8 1  3.92                             130   -0.11 9  157 105 
 TAM  HN I         8 1  4.96        66.3 0.42            126            157 105 
 OCA  HZ EP   1    8 0 42.77                             130   -0.08 7  161 354 
 OCA  HN ES        8 1  5.11                             130    0.11 9  161 354 
 OCA  HZ I         8 1  8.94        30.4 0.42            123            161 354 
 ZAR  HZ EP   1    8 0 46.66                             123   -0.12 6  203 293 
 ZAR  HN ES   1    8 1 12.24                             123    0.25 6  203 293 
 ZAR  HZ I         8 1 18.43        36.9 0.34            115            203 293 
 CHI  HZ EP        8 0 52.03                             117    0.00 8  247 195 
 CHI  HN ES   1    8 1 22.05                             117    0.71 6  247 195 
 CHI  HZ I         8 1 27.46        10.2 0.60            111            247 195 
 HEL  HZ EP   1    8 0 54.87                             115    0.41 6  270 256 
 HEL  HZ I         8 1 32.95        15.4 0.37            108            270 256 
 URE  HZ EP   4    8 0 53.82                             114   -1.56 0  282 292 
                                                                                
