 2017  130 0616 57.7 L   6.786 -73.160144.9  RSN  8 0.3 1.8LRSN                1
 GAP= 99        0.80       3.2     2.7  5.0  0.8118E+00  0.7905E+00  0.3613E+01E
 Epicentro: LOS SANTOS - SANTANDER                                             3
 ACTION:UPD 17-05-22 16:04 OP:jn   STATUS:               ID:20170130061657 L   I
 OLDACT:UP  17-01-30 17:33 OP:ar   STATUS:               ID:20170130055823     3
 OLDACT:REG 17-01-30 13:49 OP:ar   STATUS:               ID:20170130055823     3
 2017-01-30-0608-00M.COL___314                                                 6
 STAT SP IPHASW D HRMM SECON CODA AMPLIT PERI AZIMU VELO AIN AR TRES W  DIS CAZ7
 BAR2 EZ EP        617 17.01                             171   -0.1410 21.5 186 
 BAR2 EZ ES        617 31.91                             171   -0.4510 21.5 186 
 BAR2 EZ I         617 34.74        26.6 0.30            170           21.5 186 
 BRR  HZ EP        617 18.80                             153    0.1210 70.6 300 
 BRR  HN ES        617 35.91                             153    0.8310 70.6 300 
 BRR  HZ I         617 36.39        12.9 0.38            152           70.6 300 
 PAM  EZ EP        617 19.95                             150    0.0310 79.6  40 
 PAM  EN ES        617 37.14                             150   -0.1510 79.6  40 
 PAM  EZ I         617 39.20        10.1 0.42            153           79.6  40 
 RUS  HZ EP        617 21.17                             144   -0.0610 99.1 175 
 RUS  HN ES        617 39.67                             144    0.0710 99.1 175 
 RUS  HZ I         617 40.79        11.0 0.30            144           99.1 175 
 PTB  HZ EP        617 24.19                             132   -0.20 9  146 259 
 PTB  HN ES        617 44.79                             132   -0.44 9  146 259 
 PTB  HZ I         617 48.71         6.7 0.18            132            146 259 
 TAM  HZ IP     D  617 25.41                             130    0.03 9  156 104 
 TAM  HN ES        617 47.05                             130    0.05 9  156 104 
 ZAR  HZ EP   4    617 28.35                             122   -1.61 0  203 293 
 ZAR  HN ES        617 55.05                             122   -0.10 9  203 293 
 ZAR  HZ I         618  0.18         6.5 0.32            123            203 293 
 CHI  HZ EP        617 35.22                             117    0.12 8  247 195 
 CHI  HN ES        618  4.69                             117    0.39 8  247 195 
 CHI  HZ I         618 10.70         3.7 0.34            118            247 195 
                                                                                
