 2014  130 0840  1.1 L   6.869 -73.232139.9  RSN  5 0.3 0.9LRSN                1
 GAP=121        0.82       4.4     5.2  9.0  0.5824E+01 -0.6113E+01 -0.1803E+02E
 Epicentro: ZAPATOCA - SANTANDER                                               3
 ACTION:UPD 14-03-13 09:59 OP:ep   STATUS:               ID:20140130084001 L   I
 OLDACT:REG 14-01-30 08:21 OP:stll STATUS:               ID:20140130083817     3
 2014-01-30-0838-17M.COL___227                                                 6
 STAT SP IPHASW D HRMM SECON CODA AMPLIT PERI AZIMU VELO AIN AR TRES W  DIS CAZ7
 BAR2 SZ EP        840 20.38                             167    0.1610 31.1 170 
 BAR2 SZ I         840 20.71         3.6 0.16            166           31.1 170 
 BAR2 SZ ES        840 35.17                             167    0.0510 31.1 170 
 PAM  SZ EP        840 23.19                             149    0.4210 78.5  48 
 RUS  HZ EP        840 24.79                             140   -0.1510  109 171 
 RUS  HN ES        840 43.13                             140   -0.4010  109 171 
 RUS  HZ I         840 44.33         0.8 0.18            140            109 171 
 PTB  HN ES        840 47.32                             132    0.29 9  140 255 
 SML  HN ES        841  3.09                             117   -0.53 8  233 337 
                                                                                
