 2017  130 0513 46.7 L   6.263 -73.653107.5  RSN  5 0.4 1.3LRSN                1
 GAP=166        0.96       5.5     4.5  9.2  0.1242E+02  0.1480E+02  0.5673E+01E
 Epicentro: SANTA HELENA DEL OPON - SANTANDER                                  3
 ACTION:UPD 17-05-22 16:04 OP:jn   STATUS:               ID:20170130051346 L   I
 OLDACT:REG 17-01-30 13:45 OP:ar   STATUS:               ID:20170130050220     3
 2017-01-30-0508-00M.COL___336                                                 6
 STAT SP IPHASW D HRMM SECON CODA AMPLIT PERI AZIMU VELO AIN AR TRES W  DIS CAZ7
 BAR2 EZ EP        514  3.73                             147    0.0610 63.6  55 
 BAR2 EZ ES        514 16.80                             147   -0.1110 63.6  55 
 BAR2 EZ I         514 17.61        11.1 0.09            151           63.6  55 
 RUS  HZ EP        514  4.88                             143    0.0310 75.2 123 
 RUS  HN ES        514 19.37                             143    0.3610 75.2 123 
 RUS  HZ I         514 20.69         2.1 0.26            146           75.2 123 
 BRR  HZ EP        514  5.22                             136   -0.4110 93.6 356 
 BRR  HN ES        514 20.32                             136   -0.0810 93.6 356 
 PTB  HZ EP        514  5.40                             135   -0.2910 94.0 289 
 PTB  HN ES        514 20.23                             135   -0.2710 94.0 289 
 PTB  HZ I         514 22.82         3.8 0.10            136           94.0 289 
 ZAR  HN ES        514 38.79                             114    0.94 9  190 316 
 ZAR  HZ I         514 41.97         4.1 0.28            116            190 316 
                                                                                
