 2012 1230 0754 17.4 L   6.787 -73.150148.6  RSN  7 0.4 1.8LRSN                1
 GAP=182        0.81       4.1     6.2  7.6  0.7580E+01  0.9346E+01  0.6058E+00E
 Epicentro: LOS SANTOS - SANTANDER                                             3
 ACTION:UPD 13-01-04 14:31 OP:ep   STATUS:               ID:20121230075417 L   I
 2012-12-30-0750-00M.COL___242                                                 6
 STAT SP IPHASW D HRMM SECON CODA AMPLIT PERI AZIMU VELO AIN AR TRES W  DIS CAZ7
 BAR2 SZ EP   1    754 37.20                             171   -0.17 7 21.9 189 
 BAR2 SZ ES   1    754 52.85                             171   -0.08 7 21.9 189 
 BAR2 SZ I         754 54.16        17.6 0.38                          21.9 189 
 BRR  HZ IP     C  754 39.15                             153    0.2510 71.5 300 
 BRR  HE ES   1    754 56.55                             153    0.90 7 71.5 300 
 BRR  HZ I         755  0.55         9.2 0.14                          71.5 300 
 RUS  HZ EP   1    754 41.64                             145    0.27 7 99.2 176 
 RUS  HN ES   1    754 59.55                             145   -0.48 7 99.2 176 
 RUS  HZ I         755  0.91         4.8 0.46                          99.2 176 
 PTB  HZ EP   1    754 44.33                             133   -0.24 7  147 259 
 PTB  HN ES   1    755  5.36                             133   -0.37 7  147 259 
 PTB  HZ I         755 10.43         7.1 0.42                           147 259 
 OCA  HN ES   1    755  7.94                             130   -0.50 7  162 353 
 OCA  HZ I         755 13.25         8.7 0.20                           162 353 
 ZAR  HZ EP   1    754 50.35                             123    0.28 6  204 293 
 ZAR  HN ES   1    755 15.12                             123   -0.41 6  204 293 
 ZAR  HZ I         755 22.18        10.0 0.38                           204 293 
 CHI  HN ES   1    755 24.79                             118    0.26 6  247 195 
 CHI  HZ I         755 30.49         2.2 0.22                           247 195 
 MON  HZ EP   4    755  4.33                             109   -2.27 0  354 309 
 MON  HN ES   4    755 42.77                             109   -2.19 0  354 309 
                                                                                
