 2017 1030 0953 40.9 L   6.810 -73.170138.2  RSN  6 0.4 1.2LRSN                1
 GAP=133        1.15       5.5     4.9  7.8  0.2856E+01  0.1016E+02 -0.1605E+01E
 Epicentro: LOS SANTOS - SANTANDER                                             3
 ACTION:UPD 17-11-07 19:39 OP:rebc STATUS:               ID:20171030095340 L   I
 OLDACT:DUP 17-10-30 17:51 OP:dhb  STATUS:               ID:20171030094741d    3
 OLDACT:REG 17-10-30 12:57 OP:dhb  STATUS:               ID:20171030094740     3
 2017-10-30-0948-00M.COL___414                                                 6
 STAT SP IPHASW D HRMM SECON CODA AMPLIT PERI AZIMU VELO AIN AR TRES W  DIS CAZ7
 BAR2 EZ EP        953 59.73                             170    0.0510 24.1 183 
 BAR2 EZ ES        954 14.13                             170   -0.1610 24.1 183 
 BAR2 EZ I         954 16.03         5.1 0.18            172           24.1 183 
 BRR  HZ EP        954  1.50                             152    0.3910 68.3 299 
 BRR  HE ES        954 17.09                             152    0.2510 68.3 299 
 BRR  HZ I         954 21.79         6.0 0.56            151           68.3 299 
 PAM  EZ EP        954  2.63                             149    0.2210 78.3  42 
 PAM  EE ES        954 18.64                             149   -0.5210 78.3  42 
 PAM  EZ I         954 22.24         2.4 0.54            152           78.3  42 
 RUS  HZ EP        954  4.18                             142    0.1310  102 175 
 RUS  HN ES        954 22.52                             142    0.4410  102 175 
 RUS  HZ I         954 23.42         2.9 0.18            147            102 175 
 PTB  HZ EP        954  6.35                             131   -0.73 9  145 258 
 PTB  HN ES        954 26.77                             131   -0.70 9  145 258 
 PTB  HZ I         954 30.76         1.7 0.14            132            145 258 
 ZAR  HZ EP        954 12.39                             121   -0.21 9  201 292 
 ZAR  HE ES        954 38.11                             121    0.81 9  201 292 
 ZAR  HZ I         954 43.46         1.6 0.24            123            201 292 
                                                                                
