 2017 1230 0900 56.8 L   6.812 -73.164149.7  RSN  4 0.4 1.0LRSN                1
 GAP=143        1.00       6.6     6.8  9.8 -0.1889E+02  0.1703E+02 -0.9533E+01E
 Epicentro: LOS SANTOS - SANTANDER                                             3
 ACTION:UPD 18-01-04 13:25 OP:rebc STATUS:               ID:20171230090056 L   I
 OLDACT:UP  17-12-30 16:54 OP:dani STATUS:               ID:20171230085418d    3
 OLDACT:DUP 17-12-30 16:51 OP:dani STATUS:               ID:20171230085418d    3
 2017-12-30-0858-00M.COL___457                                                 6
 STAT SP IPHASW D HRMM SECON CODA AMPLIT PERI AZIMU VELO AIN AR TRES W  DIS CAZ7
 BAR2 EZ EP        9 1 16.86                             170   -0.0610 24.4 185 
 BAR2 EZ ES        9 1 33.11                             170    0.4910 24.4 185 
 PAM  EZ EP        9 1 19.45                             151    0.0010 77.7  41 
 PAM  EE ES   1    9 1 36.21                             151   -0.91 7 77.7  41 
 PAM  EZ I         9 1 37.31         1.7 0.40            153           77.7  41 
 PTB  HZ EP        9 1 24.11                             133    0.18 9  146 258 
 PTB  HN ES        9 1 44.66                             133   -0.43 9  146 258 
 PTB  HZ I         9 1 46.88         1.3 0.14            133            146 258 
 OCA  HN ES        9 1 47.84                             131    0.36 9  159 354 
                                                                                
