 2013  330 0247 42.8 L   6.770 -73.172143.8  RSN  4 0.2 1.2LRSN                1
 GAP=241        0.38       4.9     3.8  4.8  0.1100E+02  0.2190E+01 -0.5336E+01E
 Epicentro: LOS SANTOS - SANTANDER                                             3
 ACTION:UPD 13-04-09 14:05 OP:ep   STATUS:               ID:20130330024742 L   I
 2013-03-30-0240-00M.COL___245                                                 6
 STAT SP IPHASW D HRMM SECON CODA AMPLIT PERI AZIMU VELO AIN AR TRES W  DIS CAZ7
 BAR2 SZ EP   1    248  1.93                             172   -0.19 7 19.7 183 
 BAR2 SZ ES   1    248 17.19                             172    0.00 7 19.7 183 
 BAR2 SZ I         248 19.45         7.3 0.18            167           19.7 183 
 RUS  HZ EP   1    248  6.29                             144    0.16 7 97.5 174 
 RUS  HN ES        248 24.36                             144    0.0310 97.5 174 
 RUS  HZ I         248 26.41         2.3 0.26            145           97.5 174 
 PTB  HZ EP   1    248  9.24                             132   -0.05 7  144 260 
 PTB  HN ES   1    248 29.83                             132   -0.12 7  144 260 
 PTB  HZ I         248 35.51         1.4 0.26            132            144 260 
 ZAR  HN ES   2    248 40.47                             122    0.41 4  203 293 
                                                                                
