 2011 1230 0450 32.8 L   6.778 -73.129140.0  RSN  6 0.3 1.4LRSN                1
 GAP=140        0.54       3.3     4.0  5.7  0.2043E+01  0.3531E+01  0.1412E+01E
 Epicentro: LOS SANTOS - SANTANDER                                             3
 ACTION:UPD 12-07-13 16:19 OP:ep   STATUS:               ID:20111230045032 L   I
 2011-12-30-0450-00M.COL___186                                                 6
 STAT SP IPHASW D HRMM SECON CODA AMPLIT PERI AZIMU VELO AIN AR TRES W  DIS CAZ7
 BAR2 SZ EP   1    450 51.54                             171   -0.13 7 21.4 196 
 BAR2 SZ I         450 51.89         7.0 0.09                          21.4 196 
 BAR2 SZ ES   1    451  5.88                             171   -0.53 7 21.4 196 
 BRR  HZ EP   1    450 53.36                             150   -0.10 7 74.0 299 
 BRR  HZ I         450 53.61        11.3 0.17                          74.0 299 
 BRR  HN ES   1    451  9.93                             150    0.33 7 74.0 299 
 PAM  SZ EP   1    450 54.53                             149    0.11 7 78.1  37 
 PAM  SZ I         450 54.65         3.1 0.16                          78.1  37 
 PAM  SN ES   1    451 11.44                             149    0.14 7 78.1  37 
 RUS  HZ EP   1    450 55.58                             143   -0.19 7 98.1 177 
 RUS  HN ES   1    451 14.02                             143    0.30 7 98.1 177 
 RUS  HZ I         451 15.82         2.0 0.31                          98.1 177 
 ZAR  HE ES   1    451 30.26                             121   -0.09 6  207 293 
 ZAR  HZ I         451 35.27         3.1 0.22                           207 293 
 CHI  HN ES   2    451 39.38                             116    0.42 4  247 196 
                                                                                
