 2017  730 0652 57.4 L   6.762 -73.114146.4  RSN  5 0.4 1.2LRSN                1
 GAP=238        1.01       6.1     6.9  7.5  0.1154E+02  0.8383E+01  0.4949E+01E
 Epicentro: LOS SANTOS - SANTANDER                                             3
 ACTION:UPD 17-08-30 15:38 OP:rebc STATUS:               ID:20170730065257 L   I
 OLDACT:REG 17-07-30 13:50 OP:ar   STATUS:               ID:20170730064742     3
 2017-07-30-0648-00M.COL___377                                                 6
 STAT SP IPHASW D HRMM SECON CODA AMPLIT PERI AZIMU VELO AIN AR TRES W  DIS CAZ7
 BAR2 EZ EP   2    653 16.89                             172   -0.19 5 20.3 202 
 BAR2 EZ ES        653 32.28                             172   -0.1210 20.3 202 
 BAR2 EZ I         653 34.12         4.1 0.42            168           20.3 202 
 BRR  HZ EP        653 18.94                             151    0.0010 76.2 300 
 BRR  HE ES        653 35.90                             151    0.1910 76.2 300 
 BRR  HZ I         653 39.88         4.0 0.46            151           76.2 300 
 RUS  HZ EP        653 21.63                             145    0.6910 96.2 178 
 RUS  HN ES        653 38.89                             145   -0.3810 96.2 178 
 RUS  HZ I         653 40.90         2.0 0.20            146           96.2 178 
 PTB  HZ EP        653 23.83                             132   -0.86 9  150 261 
 PTB  HN ES        653 46.21                             132    0.26 9  150 261 
 PTB  HZ I         653 47.56         1.4 0.54            132            150 261 
 SPBC HZ EP        653 26.04                             129    0.15 9  162 221 
 SPBC HN ES        653 48.15                             129    0.07 9  162 221 
 SPBC HZ I         653 54.57         2.5 0.24            130            162 221 
                                                                                
