 2013  730 0015 54.2 L   6.808 -73.109146.6  RSN 12 0.5 2.4LRSN                1
 GAP=141        0.98       3.7     5.6  6.8 -0.2566E+01  0.1446E+02 -0.6958E+00E
 Epicentro: LOS SANTOS - SANTANDER                                             3
 ACTION:UPD 13-08-12 10:40 OP:ep   STATUS:               ID:20130730001554 L   I
 OLDACT:REG 13-07-30 07:32 OP:carl STATUS:               ID:20130730000959     3
 2013-07-30-0009-59M.COL___266                                                 6
 STAT SP IPHASW D HRMM SECON CODA AMPLIT PERI AZIMU VELO AIN AR TRES W  DIS CAZ7
 BAR2 SZ IP     D  016 13.91                             170   -0.0510 25.1 199 
 BAR2 SZ ES   1    016 29.21                             170   -0.17 7 25.1 199 
 BAR2 SZ I         016 31.62        26.0 0.32            168           25.1 199 
 GIR2 SZ EP        016 13.99                             167    0.0310 31.4 343 
 PAM  SZ IP     C  016 16.70                             152    0.3910 74.2  38 
 PAM  SN ES   1    016 33.88                             152    0.32 7 74.2  38 
 BRR  HZ IP     C  016 15.79                             152    0.1810 74.4 296 
 BRR  HN ES   1    016 33.30                             152    0.98 7 74.4 296 
 BRR  HN I         016 34.19        52.3 0.18            149           74.4 296 
 RUS  HZ EP   1    016 18.21                             144    0.14 7  101 178 
 RUS  HN ES   1    016 35.97                             144   -0.72 7  101 178 
 RUS  HZ I         016 37.70        18.3 0.26            146            101 178 
 PTB  HZ EP   4    016 20.43                             131   -1.17 0  152 259 
 PTB  HE ES   4    016 41.27                             131   -1.71 0  152 259 
 PTB  HZ I         016 47.80        13.1 0.22            131            152 259 
 OCA  HE ES   1    016 44.17                             130   -0.47 7  160 352 
 OCA  HE I         016 48.22        94.0 0.18            132            160 352 
 SPBC HZ EP        016 22.88                             129   -0.17 9  166 220 
 SPBC HN ES   1    016 44.84                             129   -0.73 7  166 220 
 SPBC HZ I         016 48.95        30.4 0.24            130            166 220 
 ZAR  HZ EP        016 27.30                             122    0.26 8  207 292 
 ZAR  HE ES   1    016 52.51                             122   -0.15 6  207 292 
 NOR  HZ EP   1    016 30.51                             118    0.14 6  238 235 
 NOR  HE ES   4    016 57.83                             118   -0.76 0  238 235 
 NOR  HZ I         017  3.22        14.4 0.28            119            238 235 
 SML  HZ EP        016 30.17                             118   -0.79 8  245 334 
 SML  HN ES   1    016 58.88                             118   -0.77 6  245 334 
 SML  HZ I         017  2.50        38.0 0.10            119            245 334 
 GUY2CHZ EP        016 38.93                             112    0.67 7  305 235 
 GUY2CHE ES   1    017 12.96                             112    0.32 5  305 235 
 GUY2CHZ I         017 21.26         7.0 0.74                           305 235 
                                                                                
