 2014  530 0342  0.1 L   6.819 -73.151134.2  RSN 18 0.4 2.5LRSN                1
 GAP= 70        0.87       2.2     2.7  5.2 -0.1336E+01  0.4662E+01  0.1226E+01E
 Epicentro: LOS SANTOS - SANTANDER                                             3
 ACTION:UPD 15-03-16 17:02 OP:nd   STATUS:               ID:20140530034200 L   I
 OLDACT:UP  14-05-30 15:17 OP:mh   STATUS:               ID:20140530033811     3
 OLDACT:UP  14-05-30 15:17 OP:mh   STATUS:               ID:20140530033811     3
 OLDACT:UP  14-05-30 15:15 OP:mh   STATUS:               ID:20140530033811     3
 OLDACT:REG 14-05-30 12:46 OP:mh   STATUS:               ID:20140530033811     3
 2014-05-30-0338-11M.COL___164                                                 6
 STAT SP IPHASW D HRMM SECON CODA AMPLIT PERI AZIMU VELO AIN AR TRES W  DIS CAZ7
 PAM  SZ EP        342 21.68                             149    0.6510 76.1  41 
 PAM  SN ES        342 37.60                             149    0.2510 76.1  41 
 PAM  SZ I         342 40.81        95.7 0.23            152           76.1  41 
 RUS  HZ EP        342 22.78                             140   -0.1310  103 176 
 RUS  HN ES        342 40.90                             140    0.2110  103 176 
 RUS  HZ I         342 42.54        43.7 0.14            141            103 176 
 PTB  HZ EP        342 25.72                             129   -0.43 9  148 258 
 PTB  HN ES        342 45.85                             129   -0.61 9  148 258 
 TAM  HZ EP     D  342 27.19                             127    0.19 9  156 106 
 TAM  HE ES   1    342 47.61                             127   -0.37 7  156 106 
 TAM  HZ I         342 59.36        18.1 0.49            129            156 106 
 OCA  HN EP        342 27.28                             127   -0.06 9  158 353 
 OCA  HE ES        342 48.37                             127   -0.21 9  158 353 
 SPBC HZ EP        342 27.74                             126   -0.14 9  164 218 
 SPBC HN ES        342 49.03                             126   -0.50 9  164 218 
 SPBC HZ I         342 53.73        43.0 0.14            128            164 218 
 ZAR  HZ EP        342 31.69                             120   -0.01 9  203 292 
 ZAR  HN ES   1    342 56.94                             120    0.61 6  203 292 
 ZAR  HZ I         343  3.13        25.9 0.18            123            203 292 
 NOR  HZ EP   1    342 35.01                             116   -0.27 6  235 234 
 NOR  HN ES   1    343  2.33                             116   -0.39 6  235 234 
 NOR  HZ I         343  4.94        18.3 0.44            118            235 234 
 SML  HZ EP        342 35.34                             115   -0.54 8  242 335 
 SML  HN ES   1    343  3.80                             115    0.02 6  242 335 
 SML  HZ I         343  6.10                             118            242 335 
 ROSC BZ EP        342 38.16                             114    0.37 8  254 211 
 ROSC BN ES   1    343  7.60                             114    0.41 6  254 211 
 ROSC BZ I         343 16.67        17.5 0.27            116            254 211 
 HEL  HZ EP        342 40.34                             112    0.58 8  272 255 
 HEL  HN ES   1    343 11.01                             112    0.32 6  272 255 
 URE  HZ EP   4    342 39.63                             111   -0.87 0  283 292 
 URE  HN ES   4    343 10.01                             111   -1.99 0  283 292 
 GUY2CHZ EP        342 43.85                             110    0.55 7  302 234 
 GUY2CHN ES   1    343 17.47                             110    0.49 5  302 234 
 VIL  SZ EP   1    342 42.53                             109   -0.72 5  305 191 
 VIL  SN ES   4    343 14.50                             109   -2.39 0  305 191 
 PTGC HZ EP   4    342 41.85                             109   -1.87 0  311 159 
 PTGC HN ES   4    343 14.54                             109   -3.20 0  311 159 
 RREF HZ EP   1    342 45.75                             108   -0.14 5  323 229 
 RREF HN ES   4    343 23.40                             108    1.81 0  323 229 
 TOL  SZ EP        342 48.67                             107    0.61 7  345 224 
 TOL  SN ES        343 25.91                             107    0.46 7  345 224 
 TOL  SZ I         343 31.18        22.9 0.13            109            345 224 
 SDV  BZ EP   4    342 48.45                             106   -1.18 0  359  50 
 SDV  BN ES   4    343 24.69                             106   -3.56 0  359  50 
 PRA  HZ EP   1    342 52.35                             104   -1.09 4  394 209 
 PRA  HN ES        343 34.41                             104   -0.62 6  394 209 
 PRA  HZ I         343 42.01         9.6 0.32            106            394 209 
 ORTC HZ EP   1    342 53.69                             104   -0.13 4  397 216 
 ORTC HN ES   1    343 35.97                             104    0.26 4  397 216 
 ORTC HZ I         343 41.91         5.7 0.25            106            397 216 
 PAL  HZ EP   4    342 54.92                             104   -0.06 0  406 239 
 PAL  HN ES   4    343 37.77                             104   -0.01 0  406 239 
 SJC  HZ EP   4    342 53.37                             104   -1.70 0  407 327 
 SJC  HN ES   4    343 33.96                             104   -3.99 0  407 327 
 SJC  HZ I         343 38.56                             106            407 327 
                                                                                
