 2015  430 0447 22.7 L   6.839 -73.137141.7  RSN  6 0.6 1.5LRSN                1
 GAP=136        1.55       6.2     8.1 11.9 -0.8507E+01  0.2072E+02 -0.2093E+02E
 Epicentro: LOS SANTOS - SANTANDER                                             3
 ACTION:UPD 15-06-03 16:58 OP:cam  STATUS:               ID:20150430044722 L   I
 OLDACT:DUP 15-04-30 19:07 OP:drio STATUS:               ID:20150430043749d    3
 OLDACT:REG 15-04-30 12:16 OP:stll STATUS:               ID:20150430043747     3
 2015-04-30-0437-47M.COL___277                                                 6
 STAT SP IPHASW D HRMM SECON CODA AMPLIT PERI AZIMU VELO AIN AR TRES W  DIS CAZ7
 BRR  HZ EP        447 43.86                             152    0.5510 70.1 295 
 BRR  HN ES        448  0.50                             152    1.0810 70.1 295 
 BRR  HZ I         448  4.15         5.0 0.42            152           70.1 295 
 PAM  SZ EP        447 44.80                             151    0.5810 73.5  41 
 PAM  SN ES        448  0.82                             151   -0.2110 73.5  41 
 PAM  SZ I         448  3.70         8.4 0.38            153           73.5  41 
 RUS  HN ES        448  4.40                             142   -0.4010  105 177 
 PTB  HZ EP        447 49.28                             131   -0.19 9  150 257 
 PTB  HN ES        448  9.70                             131   -0.68 9  150 257 
 PTB  HZ I         448 12.48         3.0 0.20            134            150 257 
 OCA  HZ EP        447 50.41                             129    0.14 9  156 353 
 OCA  HN ES        448 10.58                             129   -1.22 9  156 353 
 OCA  HZ I         448 17.05         6.7 0.28            132            156 353 
 SML  HZ EP        447 58.56                             117   -0.13 8  240 335 
 SML  HN ES        448 27.00                             117    0.22 8  240 335 
                                                                                
