 2015  630 0809 57.7 L   6.807 -73.089139.9  RSN 11 0.5 2.2LRSN                1
 GAP=206        1.05       3.4     5.6  6.7  0.2107E+01  0.1627E+02  0.5023E+00E
 Epicentro: LOS SANTOS - SANTANDER                                             3
 ACTION:UPD 15-09-10 22:15 OP:cam  STATUS:               ID:20150630080958dL   I
 OLDACT:UP  15-06-30 18:28 OP:ar   STATUS:               ID:20150630080749     3
 OLDACT:REG 15-06-30 14:40 OP:ar   STATUS:               ID:20150630080749     3
 2015-06-30-0807-49M.COL___310                                                 6
 STAT SP IPHASW D HRMM SECON CODA AMPLIT PERI AZIMU VELO AIN AR TRES W  DIS CAZ7
 BAR2 EZ EP        810 16.80                             169    0.0910 25.9 204 
 BAR2 EZ ES        810 31.38                             169   -0.1410 25.9 204 
 BAR2 EZ I         810 33.21        38.0 0.18            163           25.9 204 
 RUS  HZ EP        810 20.86                             142   -0.0910  101 180 
 RUS  HE ES        810 39.39                             142    0.3310  101 180 
 RUS  HZ I         810 40.45         6.7 0.36            141            101 180 
 ZAR  HZ EP        810 31.23                             120    0.84 8  210 291 
 ZAR  HE ES        810 55.16                             120   -0.70 8  210 291 
 ZAR  HZ I         811  0.89        15.6 0.40            120            210 291 
 NOR  HE ES        811  1.06                             117   -0.76 8  240 235 
 NOR  HZ I         811  6.84         9.8 0.22            116            240 235 
 SML  HZ EP        810 33.30                             116   -0.96 8  246 334 
 SML  HN ES        811  3.44                             116    0.69 8  246 334 
 SML  HZ I         811  4.35        13.2 0.24            117            246 334 
 CHI  HZ EP        810 35.41                             116    0.03 8  251 197 
 CHI  HN ES        811  4.58                             116   -0.17 8  251 197 
 CHI  HZ I         811 11.39         7.6 0.52            116            251 197 
 ROSC BN ES   4    811  8.14                             115    2.34 0  257 212 
 ROSC BZ I         811 10.66        16.3 0.40            115            257 212 
 GUY2CHZ EP        810 41.81                             111    0.09 7  307 235 
 GUY2CHE ES        811 16.66                             111    0.64 7  307 235 
 GUY2CHZ I         811 23.35         7.3 0.50                           307 235 
 CBOC HZ EP        810 45.06                             108   -0.07 7  340 252 
 CBOC HN ES        811 22.47                             108    0.37 7  340 252 
 CBOC HZ I         811 31.34         3.1 0.20            108            340 252 
 PRA  HZ EP        810 51.68                             105    0.17 6  396 210 
 PRA  HN ES        811 33.06                             105   -0.39 6  396 210 
 PRA  HZ I         811 40.00         8.6 0.26            106            396 210 
 ORTC HZ EP        810 51.43                             105   -0.54 6  400 217 
 ORTC HN ES        811 34.91                             105    0.63 6  400 217 
 ORTC HZ I         811 41.13         4.2 0.44            105            400 217 
                                                                                
