 2013  830 0005 59.5 L   6.753 -73.209150.9  RSN  5 0.4 1.4LRSN                1
 GAP=225        0.94       7.5     7.1  8.0  0.2963E+02  0.1125E+02  0.7553E+00E
 Epicentro: VILLANUEVA - SANTANDER                                             3
 ACTION:UPD 14-01-14 09:08 OP:ep   STATUS:               ID:20130830000559 L   I
 OLDACT:REG 13-08-30 07:51 OP:jn   STATUS:               ID:20130829235947     3
 2013-08-29-2359-47M.COL___214                                                 6
 STAT SP IPHASW D HRMM SECON CODA AMPLIT PERI AZIMU VELO AIN AR TRES W  DIS CAZ7
 BAR2 SZ EP   1    0 6 19.34                             173   -0.29 7 18.0 171 
 BAR2 SZ ES        0 6 34.77                             173   -0.5910 18.0 171 
 BAR2 SZ I         0 6 35.73         6.3 0.22            165           18.0 171 
 BRR  HZ EP        0 6 21.32                             154    0.3110 68.0 305 
 BRR  HN ES        0 6 38.11                             154    0.3010 68.0 305 
 RUS  HZ EP   1    0 6 23.76                             146    0.33 7 96.2 172 
 RUS  HN ES        0 6 42.50                             146    0.3810 96.2 172 
 RUS  HZ I         0 6 43.28         3.4 0.26            143           96.2 172 
 PTB  HZ EP        0 6 25.61                             135   -0.57 9  140 260 
 PTB  HN ES        0 6 46.98                             135   -0.03 9  140 260 
 PTB  HZ I         0 6 54.08         3.3 0.44            131            140 260 
 ZAR  HE ES   1    0 6 57.26                             124    0.22 6  200 294 
                                                                                
