 2016  330 0719 52.6 L   6.793 -73.193145.8  RSN  6 0.5 1.3LRSN                1
 GAP=143        1.29       7.3     7.3  9.8 -0.2371E+02  0.2121E+02 -0.4377E+01E
 Epicentro: ZAPATOCA - SANTANDER                                               3
 ACTION:UPD 16-05-13 21:28 OP:cam  STATUS:               ID:20160330071952 L   I
 OLDACT:REG 16-03-30 13:29 OP:ak   STATUS:               ID:20160330071742     3
 2016-03-30-0717-42M.COL___309                                                 6
 STAT SP IPHASW D HRMM SECON CODA AMPLIT PERI AZIMU VELO AIN AR TRES W  DIS CAZ7
 BAR2 EZ EP        720 12.32                             171    0.1210 22.2 177 
 BAR2 EZ ES        720 27.98                             171    0.4910 22.2 177 
 BAR2 EZ I         720 28.87         5.2 0.24            171           22.2 177 
 PAM  EZ EP        720 15.23                             150    0.1810 81.4  42 
 PAM  EN ES        720 32.53                             150   -0.0310 81.4  42 
 PAM  EZ I         720 35.26         2.6 0.48            153           81.4  42 
 RUS  HZ EP        720 16.22                             144   -0.1010  100 173 
 RUS  HN ES        720 34.00                             144   -0.8310  100 173 
 RUS  HZ I         720 36.72         1.5 0.29            146            100 173 
 PTB  HZ EP        720 18.17                             133   -0.91 9  142 259 
 PTB  HN ES        720 39.50                             133   -0.24 9  142 259 
 PTB  HZ I         720 42.67         2.8 0.16            134            142 259 
 SPBC HZ EP        720 21.40                             130    0.67 9  159 218 
 SPBC HN ES        720 43.31                             130    0.64 9  159 218 
 SPBC HZ I         720 47.70         3.8 0.08            131            159 218 
 GUY2CHZ EP   2    720 36.41                             113    0.74 4  296 234 
 GUY2CHN ES   4    721 13.13                             113    3.86 0  296 234 
 GUY2CHZ I         721 18.68         1.5 0.62                           296 234 
                                                                                
