 2014  530 0224 35.0 L   6.827 -73.151154.5  RSN  6 0.3 1.6LRSN                1
 GAP=135        0.65       3.4     3.5  5.3 -0.2398E+01  0.2089E+01  0.2470E+01E
 Epicentro: LOS SANTOS - SANTANDER                                             3
 ACTION:UPD 15-03-16 17:02 OP:nd   STATUS:               ID:20140530022435 L   I
 OLDACT:REG 14-05-30 12:43 OP:mh   STATUS:               ID:20140530021806     3
 2014-05-30-0218-06M.COL___241                                                 6
 STAT SP IPHASW D HRMM SECON CODA AMPLIT PERI AZIMU VELO AIN AR TRES W  DIS CAZ7
 BRR  HZ EP        224 57.12                             155    0.1610 69.3 297 
 BRR  HN ES        225 14.22                             155    0.1010 69.3 297 
 BRR  HZ I         225 18.48         4.8 0.08            153           69.3 297 
 PAM  SZ EP   1    224 57.84                             153   -0.16 7 75.5  41 
 PAM  SN ES   1    225 15.74                             153   -0.24 7 75.5  41 
 PAM  SZ I         225 16.55         7.4 0.16            157           75.5  41 
 RUS  HZ EP        225  0.23                             145    0.4510  104 176 
 RUS  HN ES        225 18.99                             145   -0.1610  104 176 
 RUS  HZ I         225 20.33         1.8 0.38            146            104 176 
 PTB  HZ EP        225  2.81                             134    0.16 9  148 258 
 PTB  HN ES        225 24.16                             134   -0.09 9  148 258 
 PTB  HZ I         225 26.54         7.3 0.24            134            148 258 
 SPBC HN ES        225 27.27                             131    0.05 9  165 218 
 SPBC HZ I         225 29.58         7.9 0.11            131            165 218 
 NOR  HZ EP        225 10.71                             120   -0.63 8  236 234 
 NOR  HN ES   1    225 39.67                             120   -0.05 6  236 234 
 NOR  HZ I         225 46.24         2.8 0.11            121            236 234 
                                                                                
