 2016  830 0620  3.2 L   6.788 -73.127142.4  RSN  8 0.3 1.6LRSN                1
 GAP=185        0.81       2.7     3.9  4.9 -0.1386E+00  0.3952E+01 -0.7129E+00E
 Epicentro: LOS SANTOS - SANTANDER                                             3
 ACTION:UPD 16-10-29 15:40 OP:rebc STATUS:               ID:20160830062003 L   I
 OLDACT:UP  16-08-30 16:58 OP:edw  STATUS:               ID:20160830061737     3
 OLDACT:REG 16-08-30 12:49 OP:edw  STATUS:               ID:20160830061737     3
 2016-08-30-0618-00M.COL___353                                                 6
 STAT SP IPHASW D HRMM SECON CODA AMPLIT PERI AZIMU VELO AIN AR TRES W  DIS CAZ7
 BAR2 EZ EP        620 22.14                             171   -0.2810 22.5 196 
 BAR2 EZ ES        620 37.37                             171   -0.0310 22.5 196 
 BAR2 EZ I         620 38.82        10.3 0.19                          22.5 196 
 BRR  HZ EP        620 23.98                             151   -0.1610 73.6 299 
 BRR  HN ES        620 40.85                             151    0.3910 73.6 299 
 BRR  HZ I         620 43.37         5.4 0.16                          73.6 299 
 RUS  HZ EP        620 26.50                             144   -0.0310 99.1 177 
 RUS  HN ES        620 44.69                             144   -0.0210 99.1 177 
 RUS  HZ I         620 46.02         3.5 0.34                          99.1 177 
 PTB  HZ EP        620 29.48                             131   -0.59 9  150 259 
 PTB  HN ES        620 50.57                             131   -0.45 9  150 259 
 PTB  HZ I         620 52.50         4.2 0.16                           150 259 
 OCA  HZ EP        620 31.64                             129    0.22 9  162 352 
 OCA  HN ES        620 53.62                             129    0.21 9  162 352 
 OCA  HZ I         620 55.73         8.3 0.16                           162 352 
 SPBC HZ IP        620 31.39                             128   -0.09 9  163 220 
 SPBC HN ES        620 54.01                             128    0.48 9  163 220 
 SPBC HZ I         620 56.10         5.4 0.09                           163 220 
 ZAR  HZ EP        620 36.07                             121    0.38 8  206 292 
 ZAR  HN ES        621  0.64                             121   -0.38 8  206 292 
 GUY2CHZ EP        620 46.95                             112    0.18 7  302 235 
 GUY2CHN ES        621 21.29                             112    0.54 7  302 235 
 GUY2CHZ I         621 28.52         2.2 0.62                           302 235 
                                                                                
