 2012  830 0718  3.4 L   6.724 -73.130147.6  RSN  5 0.3 1.8LRSN                1
 GAP=209        0.48       8.4     6.9  6.0  0.1538E+02 -0.2230E+01  0.9299E+01E
 Epicentro: JORDAN - SANTANDER                                                 3
 ACTION:UPD 12-09-10 11:59 OP:ep   STATUS:               ID:20120830071803 L   I
 2012-08-30-0710-00M.COL___218                                                 6
 STAT SP IPHASW D HRMM SECON CODA AMPLIT PERI AZIMU VELO AIN AR TRES W  DIS CAZ7
 BAR2 SZ EP        718 23.18                             174    0.0610 15.6 202 
 BAR2 SZ ES   2    718 38.35                             174   -0.15 5 15.6 202 
 BAR2 SZ I         718 39.59        23.5 0.18                          15.6 202 
 GIR2 SZ EP        718 23.58                             164    0.0410 39.9 350 
 GIR2 SZ ES   2    718 38.71                             164   -0.55 5 39.9 350 
 BRR  HZ EP        718 25.24                             151    0.1610 77.0 303 
 BRR  HN ES   1    718 42.14                             151    0.15 7 77.0 303 
 BRR  HZ I         718 46.26        12.1 0.12                          77.0 303 
 PTB  HZ EP   2    718 30.13                             132   -0.41 5  148 262 
 PTB  HN ES   3    718 51.07                             132   -0.64 2  148 262 
 PTB  HZ I         718 56.77         3.7 0.34                           148 262 
 OCA  HZ EP   3    718 31.74                             128   -0.92 2  169 353 
                                                                                
