 2015 1230 0944  0.5 L   6.831 -73.141148.0  RSN  5 0.4 1.5LRSN                1
 GAP=215        0.90       4.3     6.0  7.7  0.9176E+00  0.6510E+01 -0.1056E+02E
 Epicentro: LOS SANTOS - SANTANDER                                             3
 ACTION:UPD 16-02-04 15:09 OP:cam  STATUS:               ID:20151230094400 L   I
 OLDACT:UP  15-12-30 18:46 OP:ak   STATUS:               ID:20151230093746     3
 OLDACT:REG 15-12-30 13:21 OP:ak   STATUS:               ID:20151230093746     3
 2015-12-30-0937-46M.COL___334                                                 6
 STAT SP IPHASW D HRMM SECON CODA AMPLIT PERI AZIMU VELO AIN AR TRES W  DIS CAZ7
 BAR2 EZ EP        944 20.54                             169    0.0710 26.7 190 
 BAR2 EZ ES        944 36.27                             169    0.2310 26.7 190 
 BAR2 EZ I         944 37.85         4.9 0.50            170           26.7 190 
 PTB  HZ EP        944 27.23                             133   -0.52 9  149 258 
 PTB  HN ES        944 48.95                             133   -0.06 9  149 258 
 PTB  HZ I         944 52.07         3.8 0.14            132            149 258 
 SPBC HZ EP        944 29.61                             129    0.17 9  166 218 
 SPBC HN ES        944 51.71                             129   -0.31 9  166 218 
 SPBC HZ I         944 58.05         4.8 0.24            131            166 218 
 ZAR  HZ EP   2    944 33.77                             123    0.77 4  203 291 
 ZAR  HN ES        944 59.00                             123    0.64 9  203 291 
 ZAR  HZ I         945  5.53         4.3 0.52            123            203 291 
 SML  HZ EP        944 37.15                             118    0.21 8  241 335 
 SML  HN ES        945  4.71                             118   -0.65 8  241 335 
 SML  HZ I         945 14.69         2.5 0.17            119            241 335 
                                                                                
