 2012  830 0503 50.2 L   6.744 -73.172148.0  RSN  5 0.3 1.4LRSN                1
 GAP=178        0.60       5.4     6.0  6.5  0.1201E+02  0.1585E+01 -0.3721E+01E
 Epicentro: VILLANUEVA - SANTANDER                                             3
 ACTION:UPD 12-09-10 11:59 OP:ep   STATUS:               ID:20120830050350 L   I
 2012-08-30-0500-00M.COL___218                                                 6
 STAT SP IPHASW D HRMM SECON CODA AMPLIT PERI AZIMU VELO AIN AR TRES W  DIS CAZ7
 BAR2 SZ EP        5 4  9.87                             173   -0.1110 16.8 184 
 BAR2 SZ ES   2    5 4 24.94                             173   -0.47 5 16.8 184 
 BAR2 SZ I         5 4 26.00        10.1 0.16                          16.8 184 
 GIR2 SZ EP        5 4 10.09                             165   -0.2110 37.1 356 
 BRR  HZ EP        5 4 11.75                             153    0.1310 71.9 304 
 BRR  HN ES   1    5 4 28.85                             153    0.51 7 71.9 304 
 BRR  HZ I         5 4 31.79         6.9 0.14                          71.9 304 
 RUS  HZ EP   1    5 4 14.07                             146    0.32 7 94.6 174 
 RUS  HN ES   1    5 4 32.27                             146    0.15 7 94.6 174 
 RUS  HZ I         5 4 33.41         2.1 0.26                          94.6 174 
 PTB  HZ EP        5 4 16.79                             134   -0.20 9  144 261 
 PTB  HN ES   2    5 4 37.57                             134   -0.32 5  144 261 
 PTB  HZ I         5 4 39.65         1.8 0.24                           144 261 
                                                                                
