 2011  530 0217 12.1 L   6.782 -73.073141.7  RSN  4 0.3 1.3LRSN                1
 GAP=164        0.72       4.3     8.7  9.6  0.1312E+01 -0.5464E+01 -0.1013E+02E
 Epicentro: LOS SANTOS - SANTANDER                                             3
 ACTION:UP  11-06-29 08:57 OP:tino STATUS:               ID:20110530021712 L   I
 2011-05-30-0212-04S.COL___113                                                 6
 STAT SP IPHASW D HRMM SECON CODA AMPLIT PERI AZIMU VELO SNR AR TRES W  DIS CAZ7
 BAR2 SZ EP   1    217 31.00                             170    -0.3 7   24 210 
 BAR2 SZ ES   1    217 45.76                             170    -0.5 7   24 210 
 BAR2 SZ I         217 48.36         5.6 0.14                            24 210 
 BRR  HZ EP   1    217 33.11                             149    -0.2 7   79 297 
 BRR  HZ I         217 36.28         4.4 0.17                            79 297 
 BRR  HN ES   1    217 50.13                             149     0.3 7   79 297 
 RUS  HN ES        217 53.61                             144     0.210   98 181 
 RUS  HZ I         217 54.60         2.1 0.21                            98 181 
 BRI  SZ EP   2    217 35.88                             141     0.3 5  108  16 
 BRI  SZ ES   1    217 53.95                             141     0.1 7  108  16 
 BRI  SZ I         217 58.63         3.8 0.34                           108  16 
                                                                                
