 2013  730 0615 14.3 L   6.757 -73.167152.3  RSN  6 0.3 1.5LRSN                1
 GAP=232        0.66       5.0     5.7  7.0  0.9637E+01  0.1040E+02  0.1112E+01E
 Epicentro: LOS SANTOS - SANTANDER                                             3
 ACTION:UPD 13-08-12 10:41 OP:ep   STATUS:               ID:20130730061514 L   I
 OLDACT:DUP 13-07-30 13:03 OP:carl STATUS:               ID:20130730060960d    3
 2013-07-30-0609-59M.COL___267                                                 6
 STAT SP IPHASW D HRMM SECON CODA AMPLIT PERI AZIMU VELO AIN AR TRES W  DIS CAZ7
 BAR2 SZ EP   1    615 34.27                             173   -0.37 7 18.3 185 
 BAR2 SZ ES   1    615 50.20                             173   -0.30 7 18.3 185 
 BAR2 SZ I         615 52.07         4.0 0.30            169           18.3 185 
 BRR  HZ EP   1    615 36.35                             153    0.16 7 71.6 303 
 BRR  HN ES   1    615 53.87                             153    0.61 7 71.6 303 
 BRR  HN I         615 54.61         7.9 0.20            149           71.6 303 
 RUS  HN ES   1    615 57.20                             146    0.02 7 96.0 174 
 RUS  HN I         615 57.59         4.6 0.42            148           96.0 174 
 PTB  HZ EP   1    615 41.35                             134   -0.18 7  145 260 
 PTB  HN ES   1    616  2.49                             134   -0.28 7  145 260 
 PTB  HZ I         616  8.24         2.0 0.16            132            145 260 
 SPBC HZ EP   1    615 43.33                             131    0.49 7  158 219 
 SPBC HN ES   1    616  5.19                             131    0.10 7  158 219 
 ZAR  HE ES   1    616 12.47                             124   -0.30 6  204 294 
 ZAR  HE I         616 19.31        10.4 0.42            123            204 294 
                                                                                
