 2015  330 0106  0.4 L   6.802 -73.075147.5  RSN  5 0.2 1.4LRSN                1
 GAP=146        0.58       6.5     4.1  9.5 -0.1562E+02 -0.1700E+02  0.4466E+02E
 Epicentro: LOS SANTOS - SANTANDER                                             3
 ACTION:UPD 15-04-30 16:30 OP:nd   STATUS:               ID:20150330010600 L   I
 OLDACT:UP  15-03-30 18:46 OP:mh   STATUS:               ID:20150330005751     3
 OLDACT:REG 15-03-30 18:00 OP:mh   STATUS:               ID:20150330005751     3
 2015-03-30-0057-51M.COL___290                                                 6
 STAT SP IPHASW D HRMM SECON CODA AMPLIT PERI AZIMU VELO AIN AR TRES W  DIS CAZ7
 PAM  SZ EP   1    1 6 22.87                             153    0.33 7 72.5  35 
 PAM  SN ES   1    1 6 40.05                             153    0.26 7 72.5  35 
 BRR  HZ EP        1 6 21.97                             151   -0.1810 78.0 296 
 BRR  HN ES        1 6 38.87                             151   -0.2310 78.0 296 
 BRR  HZ I         1 7 57.18         5.3 0.38            147           78.0 296 
 RUS  HZ EP        1 6 24.13                             144   -0.2110  101 181 
 PTB  HN ES        1 6 50.10                             131    0.18 9  155 259 
 PTB  HZ I         1 6 55.72         2.4 0.34            147            155 259 
 NOR  HE ES        1 7  5.66                             118    0.22 8  241 236 
                                                                                
