 2010 1030 0834 58.9 L   6.788 -73.037146.3  RSN  6 0.3 2.0LRSN                1
 GAP=171        0.71       3.5     6.2  5.9  0.2109E+00 -0.2521E+01  0.1126E+00E
 Epicentro: CEPITA - SANTANDER                                                 3
 ACTION:UP  11-02-18 11:13 OP:tino STATUS:               ID:20101030083458 L   I
 2010-10-30-0832-43S.COL___127                                                 6
 STAT SP IPHASW D HRMM SECON CODA AMPLIT PERI AZIMU VELO SNR AR TRES W  DIS CAZ7
 BAR2 SZ EP        835 18.54                             169    -0.210   27 217 
 BAR2 SZ ES   2    835 33.90                             169    -0.2 5   27 217 
 BAR2 SZ I         835 35.49        19.6 0.33                            27 217 
 BRR  HZ EP        835 20.47                             149    -0.310   83 295 
 BRR  HZ I         835 20.75        23.3 0.23                            83 295 
 BRR  HN ES        835 37.98                             149     0.110   83 295 
 RUS  HZ EP        835 22.68                             144     0.010   99 183 
 RUS  HN ES        835 41.20                             144     0.110   99 183 
 RUS  HZ I         835 42.94        10.0 1.15                            99 183 
 GRA  SZ EP        835 24.36                             138     0.310  124  12 
 GRA  SZ ES   2    835 43.78                             138     0.1 5  124  12 
 GRA  SZ I         835 44.90         3.9 0.33                           124  12 
 HEL  HZ EP   1    835 40.73                             114     0.3 6  283 257 
 HEL  HZ I         836 17.62         3.8 0.54                           283 257 
 PRA  HZ EP   1    835 52.31                             106    -0.7 4  397 211 
 PRA  HN ES   1    836 35.94                             106     0.7 4  397 211 
 PRA  HZ I         836 38.76        11.7 0.50                           397 211 
                                                                                
