 2017  430 0330 16.9 L   6.796 -73.140146.0  RSN 18 0.5 2.4LRSN                1
 GAP=112        1.08       3.4     3.6  5.6  0.1327E+01  0.5232E+01  0.3099E+01E
 Epicentro: LOS SANTOS - SANTANDER                                             3
 ACTION:UPD 17-05-30 21:17 OP:jn   STATUS:               ID:20170430033016 L   I
 OLDACT:UP  17-04-30 15:45 OP:dnl  STATUS:               ID:20170430032741     3
 OLDACT:UP  17-04-30 15:45 OP:dnl  STATUS:               ID:20170430032741     3
 OLDACT:REG 17-04-30 12:28 OP:dnl  STATUS:               ID:20170430032741     3
 2017-04-30-0328-00M.COL___365                                                 6
 STAT SP IPHASW D HRMM SECON CODA AMPLIT PERI AZIMU VELO AIN AR TRES W  DIS CAZ7
 BRR  HZ EP        330 38.28                             152    0.1610 72.0 299 
 BRR  HN ES        330 55.60                             152    0.9310 72.0 299 
 BRR  HZ I         330 56.27        49.3 0.28            153           72.0 299 
 PAM  EZ IP     C  330 39.23                             151    0.0810 77.3  39 
 PAM  EE ES        330 56.52                             151    0.0310 77.3  39 
 PAM  EZ I         330 59.28        20.5 0.20            156           77.3  39 
 RUS  HZ EP        330 40.37                             144   -0.2810  100 176 
 RUS  HE ES        330 59.14                             144   -0.0210  100 176 
 RUS  HZ I         331  0.32        39.6 0.20            143            100 176 
 PTB  HZ EP        330 43.23                             132   -0.71 9  148 259 
 PTB  HN ES        331  4.05                             132   -0.98 9  148 259 
 PTB  HZ I         331 11.63        34.3 0.46            132            148 259 
 SPBC HZ EP        330 45.46                             129    0.03 9  163 219 
 SPBC HE ES        331  7.90                             129    0.23 9  163 219 
 SPBC HZ I         331 12.03        54.3 0.38            129            163 219 
 YPLC HZ IP     D  330 46.72                             127    0.07 9  176 151 
 YPLC HN ES        331  9.72                             127   -0.13 9  176 151 
 YPLC HZ I         331 13.68        16.0 0.34            128            176 151 
 ZAR  HZ EP        330 48.94                             122   -0.50 9  205 292 
 ZAR  HE ES        331 14.42                             122   -0.40 9  205 292 
 ZAR  HZ I         331 20.09        44.7 0.54            124            205 292 
 NOR  HZ EP        330 52.38                             119   -0.30 8  235 235 
 NOR  HE ES        331 20.62                             119    0.04 8  235 235 
 NOR  HZ I         331 24.77        24.7 0.42            119            235 235 
 CHI  HZ EP        330 54.59                             117    0.00 8  248 195 
 CHI  HE ES        331 23.86                             117   -0.12 8  248 195 
 CHI  HZ I         331 27.29        15.6 0.58            118            248 195 
 ROSC BZ EP   9    330 56.54                             117    1.51 0  253 211 
 ROSC BN ES        331 27.01                             117    0.73 8  253 211 
 ROSC BZ I         331 34.16        49.0 0.35            117            253 211 
 HEL  HZ EP        330 58.08                             115    0.89 8  273 256 
 HEL  HN ES   4    331 26.99                             115   -1.61 0  273 256 
 HEL  HZ I         331 34.39        18.6 0.34            115            273 256 
 PTGC HZ EP   9    330 59.39                             112   -1.31 0  308 159 
 PTGC HN ES        331 33.56                             112    0.01 7  308 159 
 PTGC HZ I         331 45.32         6.5 0.30            113            308 159 
 CBOC HZ EP        331  4.31                             110    0.43 7  334 252 
 CBOC HN ES        331 41.12                             110    0.60 7  334 252 
 CBOC HZ I         331 46.27         4.6 0.58            111            334 252 
 DBB  EZ EP        331  4.76                             110    0.29 7  340 274 
 DBB  EN ES   4    331 39.66                             110   -1.90 0  340 274 
 DBB  EZ I         331 42.90         9.4 0.32            110            340 274 
 ANIL HZ EP        331  7.71                             109    0.98 6  357 225 
 ANIL HN ES   4    331 47.74                             109    2.14 0  357 225 
 ORTC HZ EP        331 10.67                             106   -0.17 6  395 216 
 ORTC HE ES   4    331 55.02                             106    2.12 0  395 216 
 ORTC HZ I         331 57.17         7.5 0.20            107            395 216 
 PAL  HZ EP        331 11.72                             106   -0.39 6  406 239 
 PAL  HE ES   4    331 53.09                             106   -2.08 0  406 239 
 PAL  HZ I         332  3.06         5.1 0.36            107            406 239 
 SJC  HZ EP   4    331 10.57                             106   -1.99 0  410 327 
 SJC  HE ES   4    331 52.51                             106   -3.46 0  410 327 
 SJC  HZ I         331 57.98         6.6 0.30            107            410 327 
                                                                                
