 2016  830 0442 24.9 L   6.843 -73.080168.0  RSN  4 0.2 1.3LRSN                1
 GAP=283        0.55       6.7     4.0  6.1  0.5210E+01  0.6476E+00 -0.1785E+02E
 Epicentro: LOS SANTOS - SANTANDER                                             3
 ACTION:UPD 16-10-29 15:40 OP:rebc STATUS:               ID:20160830044224 L   I
 OLDACT:DUP 16-08-30 15:50 OP:edw  STATUS:               ID:20160830043746d    3
 OLDACT:UP  16-08-30 15:46 OP:edw  STATUS:               ID:20160830043745d    3
 OLDACT:UP  16-08-30 15:43 OP:edw  STATUS:               ID:20160830043745d    3
 OLDACT:DUP 16-08-30 15:38 OP:edw  STATUS:               ID:20160830043745d    3
 OLDACT:UP  16-08-30 15:37 OP:edw  STATUS:               ID:20160830043744     3
 OLDACT:REG 16-08-30 12:40 OP:edw  STATUS:               ID:20160830043744     3
 2016-08-30-0438-00M.COL___359                                                 6
 STAT SP IPHASW D HRMM SECON CODA AMPLIT PERI AZIMU VELO AIN AR TRES W  DIS CAZ7
 RUS  HZ EP        442 50.88                             147   -0.2710  105 180 
 RUS  HN ES        443 11.76                             147    0.1010  105 180 
 RUS  HZ I         443 13.28         1.9 0.34                           105 180 
 PTB  HZ EP        442 54.61                             135    0.21 9  156 258 
 PTB  HN ES        443 17.33                             135   -0.12 9  156 258 
 PTB  HZ I         443 17.41         1.7 0.52                           156 258 
 SPBC HZ EP        442 55.82                             132   -0.07 9  171 220 
 SPBC HE ES        443 20.28                             132    0.19 9  171 220 
 SPBC HZ I         443 24.13         2.6 0.09                           171 220 
 GUY2CHZ EP        443 10.89                             116    0.36 7  310 235 
 GUY2CHN ES        443 45.81                             116   -0.35 7  310 235 
 GUY2CHZ I         443 57.10         0.9 0.38                           310 235 
                                                                                
