 2011  730 0753 38.5 L   6.749 -73.083145.8  RSN  4 0.2 1.3LRSN                1
 GAP=240        0.36       3.9     4.8  4.2  0.6913E+01  0.2507E+01  0.3790E+01E
 Epicentro: LOS SANTOS - SANTANDER                                             3
 ACTION:UPD 12-07-25 14:04 OP:epov STATUS:               ID:20110730075338 L   I
 2011-07-30-0749-38S.COL___141                                                 6
 STAT SP IPHASW D HRMM SECON CODA AMPLIT PERI AZIMU VELO AIN AR TRES W  DIS CAZ7
 BAR2 SZ EP   1    753 58.04                             172   -0.02 7 20.5 212 
 BAR2 SZ ES   1    754 13.15                             172   -0.18 7 20.5 212 
 BAR2 SZ I         754 15.71         6.2 0.28                          20.5 212 
 BRR  HZ EP   1    754  0.14                             150   -0.01 7 80.0 300 
 BRR  HZ I         754  4.02         6.1 0.48                          80.0 300 
 BRR  HE ES   1    754 17.14                             150    0.09 7 80.0 300 
 RUS  HZ EP   1    754  2.01                             145    0.19 7 94.7 180 
 RUS  HN ES   2    754 20.06                             145    0.03 5 94.7 180 
 RUS  HZ I         754 21.28         1.5 0.58                          94.7 180 
 NOR  SZ EP   2    754 14.07                             118   -0.41 4  237 237 
 NOR  SE ES   2    754 42.71                             118    0.15 4  237 237 
                                                                                
