 2016 1230 0300 43.1 L   6.827 -73.158151.0  RSN  5 0.2 1.0LRSN                1
 GAP=134        0.51       3.4     3.1  4.0  0.2198E+01 -0.1285E+01 -0.2258E+01E
 Epicentro: LOS SANTOS - SANTANDER                                             3
 ACTION:UPD 17-01-11 20:20 OP:rebc STATUS:               ID:20161230030043 L   I
 OLDACT:UP  16-12-30 16:02 OP:edw  STATUS:               ID:20161230025751     3
 OLDACT:REG 16-12-30 12:44 OP:edw  STATUS:               ID:20161230025751     3
 2016-12-30-0258-00M.COL___375                                                 6
 STAT SP IPHASW D HRMM SECON CODA AMPLIT PERI AZIMU VELO AIN AR TRES W  DIS CAZ7
 BAR2 EZ EP        3 1  3.03                             170   -0.3410 26.1 186 
 BAR2 EZ ES        3 1 19.06                             170   -0.1610 26.1 186 
 BAR2 EZ I         3 1 20.08         2.7 0.17            168           26.1 186 
 BRR  HZ EP        3 1  4.53                             154   -0.1010 68.6 297 
 BRR  HN ES        3 1 21.54                             154    0.0810 68.6 297 
 PAM  EZ EP        3 1  6.02                             152    0.2610 76.1  42 
 RUS  HZ EP        3 1  7.58                             144    0.0410  104 175 
 RUS  HN ES        3 1 26.80                             144    0.1610  104 175 
 RUS  HZ I         3 1 27.74         2.9 0.32            144            104 175 
 PTB  HZ EP        3 1 10.37                             133   -0.02 9  147 258 
 PTB  HE ES        3 1 31.80                             133    0.09 9  147 258 
 PTB  HZ I         3 1 33.83         0.7 0.11            133            147 258 
                                                                                
