 2015  430 0509 15.1 L   6.815 -73.174146.7  RSN 10 0.5 1.8LRSN                1
 GAP=132        1.29       3.6     5.3  7.6 -0.2558E+01  0.8147E+01 -0.2888E+01E
 Epicentro: LOS SANTOS - SANTANDER                                             3
 ACTION:UPD 15-06-03 16:58 OP:cam  STATUS:               ID:20150430050915 L   I
 OLDACT:REG 15-04-30 12:17 OP:stll STATUS:               ID:20150430050746     3
 2015-04-30-0507-46M.COL___277                                                 6
 STAT SP IPHASW D HRMM SECON CODA AMPLIT PERI AZIMU VELO AIN AR TRES W  DIS CAZ7
 BAR2 EZ EP        5 9 34.75                             170   -0.1110 24.7 182 
 BAR2 EZ ES        5 9 49.81                             170   -0.4710 24.7 182 
 BAR2 EZ I         5 9 51.19        14.8 0.22            169           24.7 182 
 BRR  HZ EP        5 9 36.21                             154    0.0610 67.7 299 
 BRR  HE ES        5 9 53.93                             154    1.3610 67.7 299 
 BRR  HZ I         5 9 56.47        10.5 0.28            152           67.7 299 
 PAM  SZ EP        5 9 37.73                             151    0.2810 78.1  42 
 PAM  SN ES        5 9 54.83                             151   -0.0510 78.1  42 
 PAM  SZ I         5 9 57.54         5.4 0.32            155           78.1  42 
 RUS  HZ EP        5 9 38.71                             143   -0.3610  103 174 
 RUS  HN ES        5 9 57.58                             143   -0.2010  103 174 
 RUS  HZ I         5 9 58.02         5.2 0.50            145            103 174 
 PTB  HZ EP        5 9 41.35                             133   -0.54 9  145 258 
 PTB  HN ES        510  2.02                             133   -0.78 9  145 258 
 PTB  HZ I         510  6.35         5.0 0.28            132            145 258 
 OCA  HZ EP        5 9 43.67                             130    0.38 9  158 354 
 OCA  HN ES        510  4.87                             130   -0.40 9  158 354 
 OCA  HZ I         510  8.19        12.9 0.22            132            158 354 
 SPBC HZ EP        5 9 44.05                             129    0.44 9  163 218 
 SPBC HN ES        510  5.94                             129    0.09 9  163 218 
 SPBC HZ I         510 13.16        10.3 0.40            130            163 218 
 ZAR  HN ES        510 11.98                             123   -0.33 9  201 292 
 ZAR  HZ I         510 17.91         8.1 0.34            123            201 292 
 SML  HZ EP        5 9 51.50                             118    0.03 8  241 336 
 SML  HE ES        510 19.75                             118   -0.08 8  241 336 
 ROSC BN ES        510 23.81                             117    0.80 8  253 210 
 ROSC BZ I         510 28.90         7.3 0.55            118            253 210 
                                                                                
