 2013  430 0453 21.3 L   6.786 -73.133145.0  RSN 10 0.5 2.0LRSN                1
 GAP=139        0.93       3.7     4.4  5.7 -0.3245E+01  0.7735E+01  0.2144E+01E
 Epicentro: LOS SANTOS - SANTANDER                                             3
 ACTION:UPD 13-05-22 14:41 OP:EP   STATUS:               ID:20130430045321 L   I
 2013-04-30-0450-00M.COL___253                                                 6
 STAT SP IPHASW D HRMM SECON CODA AMPLIT PERI AZIMU VELO AIN AR TRES W  DIS CAZ7
 BAR2 SZ EP     C  453 40.62                             171   -0.2410 22.1 194 
 BAR2 SZ ES   1    453 55.68                             171   -0.40 7 22.1 194 
 BAR2 SZ I         453 57.19        21.8 0.44            170           22.1 194 
 GIR2 SZ EP   1    453 40.90                             166   -0.08 7 33.1 348 
 GIR2 SZ ES   1    453 56.09                             166   -0.20 7 33.1 348 
 GIR2 SZ I         453 58.01        11.0 0.14            165           33.1 348 
 BRR  HZ EP     C  453 42.38                             152   -0.1510 73.2 299 
 BRR  HN ES   1    453 59.84                             152    0.79 7 73.2 299 
 BRR  HZ I         454  3.73        12.3 0.14            150           73.2 299 
 PAM  SZ EP     C  453 43.39                             151   -0.1110 77.7  38 
 PAM  SN ES        454  1.11                             151    0.3310 77.7  38 
 PAM  SZ I         454  2.68         9.4 0.48            154           77.7  38 
 RUS  HZ EP        453 44.86                             144   -0.0410 98.9 177 
 RUS  HN ES        454  3.46                             144    0.1810 98.9 177 
 RUS  HZ I         454  4.15        12.2 0.24            146           98.9 177 
 PTB  HN ES        454  8.74                             132   -0.67 9  149 260 
 NOR  HZ EP        453 56.70                             118   -0.35 8  235 235 
 NOR  HE ES   1    454 25.18                             118    0.27 6  235 235 
 NOR  HZ I         454 28.68        11.8 0.20            119            235 235 
 SML  HZ EP   1    453 57.43                             117   -0.72 6  246 335 
 SML  HE ES   1    454 27.41                             117    0.56 6  246 335 
 SML  HZ I         454 28.57        12.5 0.26            118            246 335 
 HEL  HZ EP   1    454  2.83                             114    1.20 6  273 256 
 HEL  HN ES   1    454 33.34                             114    0.29 6  273 256 
 HEL  HZ I         454 38.96         5.6 0.32            115            273 256 
 PRA  HZ EP        454 14.97                             106    0.21 6  391 210 
 PRA  HE ES   1    454 57.42                             106    1.00 4  391 210 
 PRA  HZ I         454 59.78         5.1 0.32            108            391 210 
                                                                                
