 2012  430 0456 27.6 L   6.777 -73.114150.0  RSN  9 0.4 1.8LRSN                1
 GAP=142        0.91       5.1     5.4  7.3 -0.4135E+01  0.1118E+02  0.1043E+02E
 Epicentro: LOS SANTOS - SANTANDER                                             3
 ACTION:UPD 12-07-05 11:56 OP:tino STATUS:               ID:20120430045627 L   I
 2012-04-30-0450-00M.COL___189                                                 6
 STAT SP IPHASW D HRMM SECON CODA AMPLIT PERI AZIMU VELO AIN AR TRES W  DIS CAZ7
 BAR2 SZ EP   1    456 47.28                             171    -0.4 7   22 200 
 BAR2 SZ ES   1    457  2.64                             171    -0.8 7   22 200 
 BAR2 SZ I         457  3.98        15.3 0.19                            22 200 
 BRR  HZ EP   1    456 49.62                             152     0.2 7   76 299 
 BRR  HZ I         456 49.89        15.2 0.11                            76 299 
 BRR  HN ES   1    457  7.04                             152     0.5 7   76 299 
 PAM  SZ EP   1    456 50.56                             152     0.3 7   77  36 
 PAM  SN ES   1    457  7.95                             152     0.0 7   77  36 
 RUS  HZ EP   1    456 51.65                             145     0.1 7   98 178 
 RUS  HN ES   1    457 10.84                             145     0.6 7   98 178 
 RUS  HZ I         457 11.26         7.4 0.28                            98 178 
 PTB  HZ EP   1    456 54.84                             132    -0.4 7  151 260 
 PTB  HN ES   1    457 16.33                             132    -0.4 7  151 260 
 PTB  HZ I         457 17.44         5.0 0.16                           151 260 
 CHI  HZ EP   1    457  4.79                             118    -0.6 6  247 196 
 CHI  HN ES   1    457 35.28                             118     0.4 6  247 196 
 CHI  HZ I         457 40.41         2.6 0.25                           247 196 
 HEL  HZ EP   1    457  9.03                             115     0.7 6  275 256 
 HEL  HN ES   1    457 40.19                             115     0.1 6  275 256 
 HEL  HZ I         457 46.53         4.1 0.32                           275 256 
 RREF HZ EP   1    457 13.74                             111    -0.3 5  323 230 
 RREF HN ES   1    457 50.40                             111     0.1 5  323 230 
 RREF HZ I         457 57.15         3.0 0.27                           323 230 
 PRA  HN ES   2    458  3.01                             107     0.0 3  392 210 
                                                                                
