 2016  330 0647 43.4 L   6.844 -73.197143.5  RSN 15 0.4 1.9LRSN                1
 GAP= 67        0.95       2.4     2.6  5.0 -0.3979E+00  0.4364E+01  0.1117E+01E
 Epicentro: ZAPATOCA - SANTANDER                                               3
 ACTION:UPD 16-05-13 21:28 OP:cam  STATUS:               ID:20160330064743 L   I
 OLDACT:REG 16-03-30 13:27 OP:ak   STATUS:               ID:20160330063747     3
 2016-03-30-0637-47M.COL___310                                                 6
 STAT SP IPHASW D HRMM SECON CODA AMPLIT PERI AZIMU VELO AIN AR TRES W  DIS CAZ7
 BAR2 EZ IP     D  648  2.93                             168    0.0410 27.9 177 
 BAR2 EZ ES        648 17.78                             168   -0.2910 27.9 177 
 BAR2 EZ I         648 20.75        18.8 0.16            171           27.9 177 
 PAM  EZ EP        648  5.77                             150    0.3510 77.6  45 
 PAM  EN ES        648 22.53                             150   -0.0310 77.6  45 
 PAM  EZ I         648 25.69        15.5 0.56            148           77.6  45 
 RUS  HZ EP        648  6.83                             142   -0.5310  106 173 
 RUS  HN ES        648 25.61                             142   -0.4110  106 173 
 RUS  HZ I         648 26.82         6.9 0.24            143            106 173 
 PTB  HZ EP        648  9.32                             132   -0.49 9  143 256 
 PTB  HE ES        648 30.46                             132    0.08 9  143 256 
 PTB  HZ I         648 37.87        10.0 0.32            131            143 256 
 OCA  HZ EP        648 10.98                             130   -0.08 9  155 355 
 OCA  HN ES        648 32.91                             130    0.31 9  155 355 
 OCA  HZ I         648 38.10        12.6 0.19            127            155 355 
 TAM  HZ EP        648 11.43                             129   -0.13 9  162 106 
 TAM  HZ I         648 32.24         5.6 0.36            129            162 106 
 TAM  HE ES        648 33.90                             129    0.39 9  162 106 
 SPBC HZ EP        648 11.90                             128    0.10 9  164 216 
 SPBC HN ES        648 34.67                             128    0.75 9  164 216 
 SPBC HZ I         648 40.81        16.9 0.22            128            164 216 
 ZAR  HZ EP   2    648 14.97                             123   -0.03 4  197 291 
 ZAR  HN ES        648 40.08                             123    0.45 9  197 291 
 ZAR  HZ I         648 51.19         8.7 0.44            121            197 291 
 NOR  HZ EP        648 18.91                             118    0.06 8  233 233 
 NOR  HE ES        648 46.47                             118   -0.01 8  233 233 
 NOR  HZ I         648 49.73         8.6 0.16            117            233 233 
 CHI  HZ EP        648 21.02                             116   -0.35 8  252 194 
 CHI  HN ES        648 50.18                             116   -0.78 8  252 194 
 CHI  HZ I         648 52.72         3.1 0.42            116            252 194 
 ROSC BZ EP        648 21.86                             116    0.28 8  254 209 
 ROSC BN ES        648 52.27                             116    0.94 8  254 209 
 ROSC BZ I         648 59.16        10.6 0.45            115            254 209 
 URE  HZ EP        648 23.55                             114   -0.05 7  277 291 
 URE  HN ES        648 54.19                             114   -0.75 7  277 291 
 URE  HZ I         649  6.43         4.7 0.15            112            277 291 
 GUY2CHZ EP        648 27.52                             112    0.78 7  299 233 
 GUY2CHN ES        649  0.39                             112   -0.14 7  299 233 
 GUY2CHZ I         649  8.11         4.1 0.38                           299 233 
 MON  HZ EP   4    648 30.25                             109   -1.23 0  346 308 
 MON  HN ES        649  8.54                             109   -0.42 6  346 308 
 MON  HZ I         649 23.15         2.1 0.62            107            346 308 
 ORTC HZ EP        648 37.34                             106   -0.01 6  396 215 
 ORTC HE ES        649 19.43                             106    0.02 6  396 215 
                                                                                
