 2010  930 0725 41.1 L   6.798 -73.046138.5  RSN  9 0.4 2.3LRSN                1
 GAP=170        0.74       3.3     6.6  6.0 -0.7115E+01 -0.1069E+01  0.4500E+01E
 Epicentro: LOS SANTOS - SANTANDER                                             3
 ACTION:UP  11-02-18 11:06 OP:tino STATUS:               ID:20100930072541 L   I
 2010-09-30-0723-35S.COL___125                                                 6
 STAT SP IPHASW D HRMM SECON CODA AMPLIT PERI AZIMU VELO SNR AR TRES W  DIS CAZ7
 BAR2 SZ IP     D  725 59.96                             168     0.110   27 214 
 BAR2 SZ ES   1    726 14.34                             168    -0.3 7   27 214 
 BAR2 SZ I         726 16.27        49.8 0.16                            27 214 
 BRR  HZ EP        726  1.76                             148    -0.310   81 295 
 BRR  HN ES   1    726 18.69                             148     0.3 7   81 295 
 BRR  HZ I         726 19.59        65.7 0.14                            81 295 
 RUS  HZ EP        726  3.99                             142    -0.110  100 182 
 RUS  HE ES   2    726 21.80                             142    -0.2 5  100 182 
 RUS  HZ I         726 23.82        25.9 0.13                           100 182 
 GRA  SZ EP        726  5.71                             136     0.310  123  13 
 GRA  SZ ES   1    726 24.91                             136     0.5 7  123  13 
 GRA  SZ I         726 26.53        26.0 0.29                           123  13 
 OCA  SZ EP   2    726  8.43                             127    -0.6 5  162 349 
 OCA  SZ ES   2    726 30.00                             127    -0.8 5  162 349 
 OCA  SZ I         726 35.27        24.0 0.24                           162 349 
 CHI  HZ EP   1    726 18.28                             115    -0.4 6  251 198 
 CHI  HE ES   2    726 47.86                             115    -0.2 4  251 198 
 CHI  HZ I         726 51.51         7.4 0.34                           251 198 
 ROSC BZ EP   1    726 19.77                             115     0.4 6  258 213 
 ROSC BE ES   2    726 50.13                             115     0.8 4  258 213 
 ROSC BZ I         726 54.97        14.1 0.49                           258 213 
 HEL  HZ EP   2    726 21.91                             112    -0.2 4  283 256 
 HEL  HZ I         726 58.38        14.6 0.42                           283 256 
 RREF HZ EP   2    726 28.25                             109     0.4 3  330 231 
 RREF HE ES   2    727  4.34                             109     0.0 3  330 231 
 RREF HZ I         727 10.97         7.8 0.23                           330 231 
                                                                                
