 2013  530 0303 25.1 L   6.719 -73.234148.0  RSN  4 0.4 1.3LRSN                1
 GAP=220        0.90       5.8     5.8  7.9  0.7736E+01  0.7188E+01  0.8637E+01E
 Epicentro: VILLANUEVA - SANTANDER                                             3
 ACTION:UPD 13-06-20 09:54 OP:ep   STATUS:               ID:20130530030325 L   I
 2013-05-30-0300-00M.COL___261                                                 6
 STAT SP IPHASW D HRMM SECON CODA AMPLIT PERI AZIMU VELO AIN AR TRES W  DIS CAZ7
 BRR  HZ EP     C  3 3 45.96                             154   -0.3110 68.1 309 
 BRR  HN ES        3 4  3.07                             154    0.2510 68.1 309 
 BRR  HZ I         3 4  6.12         7.3 0.44            153           68.1 309 
 RUS  HZ EP        3 3 48.42                             147   -0.0710 92.9 170 
 RUS  HN ES        3 4  6.82                             147    0.0510 92.9 170 
 RUS  HZ I         3 4  8.43         2.1 0.42            147           92.9 170 
 PTB  HZ EP     C  3 3 50.85                             135   -0.37 9  137 262 
 PTB  HN ES        3 4 11.75                             135    0.12 9  137 262 
 PTB  HZ I         3 4 14.95         2.6 0.30            134            137 262 
 NOR  HZ EP     C  3 4  0.36                             121    0.85 8  222 235 
 NOR  HN ES        3 4 25.98                             121   -0.42 8  222 235 
 NOR  HZ I         3 4 34.28         1.9 0.18            121            222 235 
                                                                                
