 2012  430 0134 33.9 L   6.782 -73.127140.0  RSN 11 0.4 2.4LRSN                1
 GAP=140        0.90       3.3     4.2  6.0 -0.1749E+01  0.6617E+01  0.2759E+01E
 Epicentro: LOS SANTOS - SANTANDER                                             3
 ACTION:UPD 12-07-05 11:56 OP:tino STATUS:               ID:20120430013433 L   I
 2012-04-30-0130-00M.COL___189                                                 6
 STAT SP IPHASW D HRMM SECON CODA AMPLIT PERI AZIMU VELO AIN AR TRES W  DIS CAZ7
 BAR2 SZ IP        134 52.95                             171     0.110   22 196 
 BAR2 SZ ES   1    135  7.18                             171    -0.4 7   22 196 
 BAR2 SZ I         135  9.04        83.8 0.21                            22 196 
 BRR  HZ IP     C  134 54.87                             151     0.210   74 299 
 BRR  HN ES   1    135 11.58                             151     0.8 7   74 299 
 BRR  HZ I         135 16.28        59.4 0.13                            74 299 
 PAM  SZ EP        134 55.84                             150     0.310   78  37 
 PAM  SN ES   1    135 12.57                             150     0.1 7   78  37 
 RUS  HZ EP        134 56.88                             143    -0.110   99 177 
 RUS  HZ I         134 58.07        25.0 0.23                            99 177 
 RUS  HE ES   1    135 15.06                             143     0.1 7   99 177 
 PTB  HZ EP   1    134 59.82                             130    -0.8 7  149 260 
 PTB  HN ES   1    135 21.05                             130    -0.3 7  149 260 
 PTB  HZ I         135 23.22        18.7 0.12                           149 260 
 OCA  SZ EP        135  1.62                             128    -0.4 9  162 352 
 OCA  SZ ES   1    135 23.47                             128    -0.5 7  162 352 
 ZAR  HZ EP   1    135  6.17                             121    -0.1 6  207 292 
 ZAR  HN ES   1    135 31.74                             121     0.2 6  207 292 
 ZAR  HZ I         135 37.76        29.3 0.33                           207 292 
 CHI  HZ EP   1    135 10.84                             116    -0.3 6  247 196 
 CHI  HN ES   1    135 39.73                             116    -0.5 6  247 196 
 CHI  HZ I         135 50.89         8.9 0.61                           247 196 
 HEL  HZ EP   1    135 14.61                             114     0.6 6  274 256 
 HEL  HN ES   1    135 44.93                             114    -0.4 6  274 256 
 HEL  HZ I         135 52.05        16.0 0.42                           274 256 
 RREF HZ EP   1    135 20.25                             110     0.4 5  322 230 
 RREF HN ES   1    135 56.12                             110     0.4 5  322 230 
 RREF HZ I         136  3.42        12.6 0.29                           322 230 
 PRA  HZ EP   1    135 27.61                             106     0.4 4  391 210 
 PRA  HN ES   1    136  9.29                             106     0.6 4  391 210 
                                                                                
