 2014  930 0730  4.5 L   6.768 -73.129141.9  RSN  8 0.4 2.0LRSN                1
 GAP=237        0.96       4.4     5.4  6.2  0.4971E+01  0.9374E+01  0.6178E+01E
 Epicentro: LOS SANTOS - SANTANDER                                             3
 ACTION:UPD 14-10-03 23:10 OP:nd   STATUS:               ID:20140930073004 L   I
 OLDACT:UP  14-09-30 18:55 OP:mh   STATUS:               ID:20140930072808     3
 OLDACT:REG 14-09-30 12:51 OP:stll STATUS:               ID:20140930072808     3
 2014-09-30-0728-08M.COL___286                                                 6
 STAT SP IPHASW D HRMM SECON CODA AMPLIT PERI AZIMU VELO AIN AR TRES W  DIS CAZ7
 BAR2 SZ EP        730 23.71                             172    0.1410 20.3 197 
 BAR2 SZ ES        730 38.34                             172   -0.1310 20.3 197 
 BRR  HZ IP     C  730 25.65                             151    0.2610 74.5 300 
 BRR  HN ES        730 42.26                             151    0.5510 74.5 300 
 BRR  HZ I         730 44.16        13.6 0.08            147           74.5 300 
 RUS  HZ EP        730 27.69                             144    0.1210 97.0 177 
 RUS  HN ES        730 45.37                             144   -0.2310 97.0 177 
 PTB  HZ EP        730 30.35                             131   -0.87 9  149 260 
 PTB  HN ES        730 51.47                             131   -0.63 9  149 260 
 SPBC HZ EP     C  730 32.71                             129    0.19 9  162 220 
 SPBC HN ES        730 54.41                             129    0.01 9  162 220 
 SPBC HZ I         731  0.63        10.8 0.22            127            162 220 
 ZAR  HZ EP   1    730 36.80                             121   -0.17 6  207 293 
 ZAR  HN ES   1    731  2.70                             121    0.37 6  207 293 
 ZAR  HZ I         731  7.64        11.9 0.56            120            207 293 
 CBOC HZ EP   4    730 51.25                             109   -0.04 0  334 253 
 CBOC HN ES   4    731 29.28                             109    1.45 0  334 253 
 TOL  SZ EP   4    730 53.92                             109    1.50 0  342 225 
 TOL  SN ES        731 30.12                             109    0.28 7  342 225 
 MON  HZ EP   4    730 49.95                             108   -3.78 0  357 309 
 MON  HN ES   4    731 28.85                             108   -3.32 0  357 309 
 PRA  HZ EP        730 57.38                             106   -0.21 6  390 210 
 PRA  HN ES        731 39.89                             106    0.85 6  390 210 
 PRA  HZ I         731 46.38         3.0 0.34            106            390 210 
                                                                                
