 2010 1230 0807 45.8 L   6.746 -73.136148.2  RSN  5 0.1 1.5LRSN                1
 GAP=183        0.35       4.8     6.2 10.0 -0.1017E+02  0.2586E+02 -0.3371E+02E
 Epicentro: JORDAN - SANTANDER                                                 3
 ACTION:UP  11-01-14 15:28 OP:pat  STATUS:               ID:20101230080745 L   I
 2010-12-30-0800-00M.COL___137                                                 6
 STAT SP IPHASW D HRMM SECON CODA AMPLIT PERI AZIMU VELO SNR AR TRES W  DIS CAZ7
 BAR2 SZ EP   2    8 8  5.35                             173    -0.3 5   18 197 
 BAR2 SZ I         8 8 21.67         9.8 0.16                            18 197 
 BTL  SZ EP   1    8 8  5.73                             170     0.0 7   24 323 
 RUS  HZ EP   1    8 8  9.38                             146     0.0 7   95 176 
 RUS  HN ES   1    8 8 27.79                             146     0.0 7   95 176 
 RUS  HZ I         8 8 28.95         2.6 0.21                            95 176 
 OCA  SZ EP   2    8 8 15.00                             129     0.1 5  166 353 
 OCA  SZ I         8 8 39.07         5.5 0.12                           166 353 
 NOR  SN ES   2    8 8 49.20                             119     0.0 4  232 236 
                                                                                
