 2017  130 0346 32.1 L   6.791 -73.157149.0  RSN  5 0.3 1.4LRSN                1
 GAP=100        0.76       4.3     3.6  6.2 -0.1387E+01 -0.2786E+01  0.4676E+01E
 Epicentro: LOS SANTOS - SANTANDER                                             3
 ACTION:UPD 17-05-22 16:04 OP:jn   STATUS:               ID:20170130034632 L   I
 OLDACT:DUP 17-01-30 16:19 OP:ar   STATUS:               ID:20170130033743d    3
 OLDACT:REG 17-01-30 13:31 OP:ar   STATUS:               ID:20170130033742     3
 2017-01-30-0338-00M.COL___333                                                 6
 STAT SP IPHASW D HRMM SECON CODA AMPLIT PERI AZIMU VELO AIN AR TRES W  DIS CAZ7
 BRR  HZ EP        346 53.82                             153    0.2510 70.6 300 
 BRR  HN ES        347 10.81                             153    0.4910 70.6 300 
 BRR  HZ I         347 14.16         4.5 0.15            153           70.6 300 
 PAM  EZ EP        346 54.75                             151   -0.0010 78.9  40 
 PAM  EN ES        347 12.03                             151   -0.3910 78.9  40 
 PAM  EZ I         347 14.20         9.3 0.60            154           78.9  40 
 RUS  HZ EP        346 56.29                             145    0.1810 99.7 175 
 RUS  HN ES        347 14.80                             145   -0.0410 99.7 175 
 RUS  HZ I         347 16.17         2.7 0.32            147           99.7 175 
 PTB  HZ EP        346 58.86                             133   -0.35 9  146 259 
 PTB  HN ES        347 20.04                             133   -0.32 9  146 259 
 PTB  HZ I         347 25.63         2.9 0.18            134            146 259 
 TAM  HZ EP        347  0.22                             131    0.10 9  156 105 
                                                                                
