 2012  630 0812 50.7 L   6.739 -73.168152.6  RSN  6 0.2 1.3LRSN                1
 GAP=136        0.53       4.5     3.9  5.5  0.6803E+01 -0.1138E+01 -0.4903E+01E
 Epicentro: VILLANUEVA - SANTANDER                                             3
 ACTION:UPD 12-08-06 17:53 OP:ep   STATUS:               ID:20120630081250 L   I
 2012-06-30-0810-00M.COL___201                                                 6
 STAT SP IPHASW D HRMM SECON CODA AMPLIT PERI AZIMU VELO AIN AR TRES W  DIS CAZ7
 BAR2 SZ EP   1    813 10.89                             174   -0.10 7 16.3 185 
 BAR2 SZ ES   1    813 26.46                             174   -0.39 7 16.3 185 
 BAR2 SZ I         813 28.97         4.7 0.40                          16.3 185 
 BRR  HZ EP   1    813 12.92                             153    0.30 7 72.5 304 
 BRR  HZ I         813 15.21         4.7 0.08                          72.5 304 
 BRR  HN ES   1    813 30.13                             153    0.38 7 72.5 304 
 PAM  SZ EP   1    813 13.80                             150   -0.20 7 84.2  38 
 PAM  SZ I         813 13.99         2.7 0.28                          84.2  38 
 RUS  HZ EP   1    813 14.75                             147    0.11 7 94.1 174 
 RUS  HN ES   1    813 33.60                             147    0.25 7 94.1 174 
 RUS  HZ I         813 35.51         1.5 0.38                          94.1 174 
 PTB  HZ EP   1    813 17.75                             134   -0.12 7  144 261 
 PTB  HN ES   1    813 38.84                             134   -0.25 7  144 261 
 PTB  HZ I         813 40.62         2.5 0.23                           144 261 
 ZAR  HN ES   1    813 49.25                             124   -0.02 6  204 294 
                                                                                
