 2015  630 0151  0.9 L   6.882 -73.078143.7  RSN  8 0.3 2.0LRSN                1
 GAP=190        0.72       2.9     4.2  5.7  0.6655E+00  0.1277E+02  0.2838E+01E
 Epicentro: PIEDECUESTA - SANTANDER                                            3
 ACTION:UPD 15-09-10 22:15 OP:cam  STATUS:               ID:20150630015100 L   I
 OLDACT:UP  15-06-30 16:05 OP:ar   STATUS:               ID:20150630014748     3
 OLDACT:REG 15-06-30 13:10 OP:ar   STATUS:               ID:20150630014748     3
 2015-06-30-0147-48M.COL___316                                                 6
 STAT SP IPHASW D HRMM SECON CODA AMPLIT PERI AZIMU VELO AIN AR TRES W  DIS CAZ7
 BAR2 EZ EP        151 20.96                             166    0.3910 34.1 200 
 BAR2 EZ ES        151 36.19                             166    0.2910 34.1 200 
 BAR2 EZ I         151 36.83         9.4 0.22            169           34.1 200 
 RUS  HZ EP        151 24.91                             141   -0.2210  109 180 
 RUS  HE ES        151 43.77                             141   -0.2510  109 180 
 RUS  HZ I         151 45.15         6.1 0.22            145            109 180 
 OCA  HN ES        151 49.42                             131   -0.29 9  152 350 
 OCA  HZ I         152  1.18        15.9 0.30            128            152 350 
 ZAR  HE ES        151 59.23                             121    0.09 8  208 289 
 ZAR  HZ I         152  5.37        11.8 0.44            120            208 289 
 NOR  HN ES        152  5.86                             117   -0.65 8  246 234 
 NOR  HZ I         152 12.07         7.6 0.14            117            246 234 
 GUY2CHZ EP        151 46.17                             111    0.44 7  313 234 
 GUY2CHE ES        152 21.05                             111    0.37 7  313 234 
 GUY2CHZ I         152 27.69         7.4 0.68                           313 234 
 CBOC HZ EP        151 48.95                             109    0.05 7  344 251 
 CBOC HN ES        152 26.28                             109   -0.05 7  344 251 
 ORTC HZ EP        151 55.90                             105   -0.26 6  407 216 
 ORTC HN ES        152 39.43                             105    0.19 6  407 216 
 ORTC HZ I         152 45.58         2.7 0.40            106            407 216 
                                                                                
