 2014  130 0755 10.8 L   6.821 -73.186147.1  RSN  6 0.3 1.3LRSN                1
 GAP=131        0.78       2.7     4.3  5.3 -0.8806E+00  0.7398E+01 -0.1092E+01E
 Epicentro: ZAPATOCA - SANTANDER                                               3
 ACTION:UPD 14-03-13 09:59 OP:ep   STATUS:               ID:20140130075510 L   I
 OLDACT:REG 14-01-30 08:20 OP:stll STATUS:               ID:20140130074817     3
 2014-01-30-0748-17M.COL___227                                                 6
 STAT SP IPHASW D HRMM SECON CODA AMPLIT PERI AZIMU VELO AIN AR TRES W  DIS CAZ7
 BAR2 SZ EP        755 30.81                             170    0.1910 25.3 179 
 BAR2 SZ I         755 30.85         9.1 0.22            169           25.3 179 
 BAR2 SZ ES        755 46.03                             170   -0.0610 25.3 179 
 PAM  SZ EP        755 33.59                             151    0.3710 78.6  43 
 PAM  SN ES        755 50.75                             151    0.0410 78.6  43 
 PAM  SZ I         755 52.77         4.4 0.48            155           78.6  43 
 RUS  HZ EP        755 34.68                             143   -0.1910  103 174 
 RUS  HZ I         755 35.40         1.8 0.30            145            103 174 
 RUS  HN ES        755 53.42                             143   -0.2210  103 174 
 PTB  HZ EP        755 37.66                             133    0.14 9  144 258 
 PTB  HN ES        755 58.77                             133    0.40 9  144 258 
 PTB  HZ I         756  4.50         4.4 0.30            133            144 258 
 SML  HZ EP        755 47.19                             118    0.12 8  240 336 
 SML  HE ES        756 14.57                             118   -0.79 8  240 336 
 CHI  HZ EP        755 48.81                             117    0.13 8  250 194 
 CHI  HN ES        756 17.80                             117   -0.44 8  250 194 
 CHI  HZ I         756 21.18         0.8 0.20            119            250 194 
                                                                                
