 2012  130 0442 17.2 L   6.806 -73.120146.0  RSN  7 0.4 1.3LRSN                1
 GAP=140        0.86       6.9    13.1  9.3  0.3967E+02  0.2714E+02  0.2106E+02E
 Epicentro: LOS SANTOS - SANTANDER                                             3
 ACTION:UP  12-02-03 08:22 OP:REBC STATUS:               ID:20120130044216 L   I
 2012-01-30-0440-00M.COL___188                                                 6
 STAT SP IPHASW D HRMM SECON CODA AMPLIT PERI AZIMU VELO SNR AR TRES W  DIS CAZ7
 BAR2 SZ EP   2    442 36.93                             170     0.0 5   25 196 
 BAR2 SZ ES   1    442 51.77                             170    -0.5 7   25 196 
 BAR2 SZ I         442 53.39         5.9 0.22                            25 196 
 GIR2 SZ ES   3    442 52.24                             167     0.0 2   31 345 
 BRR  HZ EP   1    442 38.00                             152    -0.5 7   73 297 
 BRR  HN ES   1    442 55.78                             152     0.7 7   73 297 
 BRR  HZ I         442 59.11         3.8 0.12                            73 297 
 PAM  SN ES   3    442 56.51                             152    -0.1 2   75  38 
 RUS  HZ EP   1    442 41.57                             144     0.6 7  101 178 
 RUS  HN ES   1    442 59.57                             144     0.0 7  101 178 
 RUS  HZ I         443  1.05         2.5 0.27                           101 178 
 PTB  HZ EP   2    442 43.83                             131    -0.6 5  151 259 
 PTB  HZ I         443  7.96         1.8 0.12                           151 259 
 CHI  HZ EP   2    442 55.51                             117     0.4 4  250 196 
 CHI  HN ES   1    443 24.48                             117    -0.1 6  250 196 
                                                                                
