 2013  130 0817 23.5 L   6.758 -73.147139.9  RSN  6 0.3 1.3LRSN                1
 GAP=138        0.72       3.6     4.2  5.3 -0.2141E+01  0.1283E+01  0.5237E+01E
 Epicentro: LOS SANTOS - SANTANDER                                             3
 ACTION:UPD 13-02-15 09:17 OP:ep   STATUS:               ID:20130130081723 L   I
 2013-01-30-0810-00M.COL___241                                                 6
 STAT SP IPHASW D HRMM SECON CODA AMPLIT PERI AZIMU VELO AIN AR TRES W  DIS CAZ7
 BAR2 SZ EP   1    817 42.53                             172    0.15 7 18.7 192 
 BAR2 SZ ES        817 56.73                             172   -0.3510 18.7 192 
 BAR2 SZ I         817 58.89         8.7 0.22            172           18.7 192 
 BRR  HZ EP        817 44.28                             151    0.0910 73.4 302 
 BRR  HE ES        818  0.86                             151    0.5610 73.4 302 
 BRR  HZ I         818  4.04         3.6 0.42            151           73.4 302 
 PAM  SZ EP        817 45.29                             148   -0.0910 81.1  38 
 PAM  SN ES        818  2.28                             148   -0.1210 81.1  38 
 PAM  SZ I         818  5.05         4.7 0.44            152           81.1  38 
 RUS  HZ EP        817 46.47                             144    0.0910 95.9 176 
 RUS  HN ES   1    818  4.27                             144    0.07 7 95.9 176 
 RUS  HN I         818  6.50         3.4 0.20            147           95.9 176 
 PTB  HZ EP   1    817 49.40                             131   -0.55 7  147 261 
 PTB  HE ES   1    818 10.04                             131   -0.50 7  147 261 
 PTB  HZ I         818 13.40         1.9 0.13            133            147 261 
 CHI  HZ EP   1    818  0.66                             116    0.24 6  244 195 
 CHI  HN ES   1    818 29.54                             116    0.35 6  244 195 
                                                                                
