 2011  430 0120 55.4 L   6.339 -73.450118.5  RSN  5 0.3 1.3LRSN                1
 GAP=101        0.79       6.2     6.8 10.4 -0.2387E+02  0.3434E+02 -0.2671E+02E
 Epicentro: CONTRATACION - SANTANDER                                           3
 ACTION:UP  11-06-22 15:34 OP:REBC STATUS:               ID:20110430012055 L   I
 2011-04-30-0118-13S.COL___130                                                 6
 STAT SP IPHASW D HRMM SECON CODA AMPLIT PERI AZIMU VELO SNR AR TRES W  DIS CAZ7
 BAR2 SZ EP   1    121 12.41                             160     0.0 7   41  46 
 BAR2 SZ ES   1    121 25.81                             160     0.2 7   41  46 
 BAR2 SZ I         121 26.70        21.4 0.35                            41  46 
 RUS  HZ EP   1    121 13.95                             150     0.0 7   64 141 
 RUS  HN ES   1    121 28.13                             150    -0.3 7   64 141 
 RUS  HZ I         121 30.15         3.3 0.16                            64 141 
 BRR  HZ EP   1    121 14.38                             140    -0.7 7   90 341 
 BRR  HZ I         121 21.32         7.1 0.05                            90 341 
 PAM  SZ EP   1    121 20.41                             127     0.4 7  138  37 
 PAM  SZ I         121 21.30         1.2 0.19                           138  37 
 PAM  SN ES   1    121 39.32                             127     0.1 7  138  37 
 NOR  SN ES   1    121 45.92                             119     0.3 7  179 241 
                                                                                
