 2010  630 0937 32.6 L   6.806 -73.200139.1  RSN  8 0.4 1.8LRSN                1
 GAP=149        0.69       3.7     7.1  8.3 -0.8377E+01  0.1182E+02 -0.9794E+01E
 Epicentro: ZAPATOCA - SANTANDER                                               3
 ACTION:UP  10-08-24 10:14 OP:vdl  STATUS:               ID:20100630093732 L   I
 2010-06-30-0935-25S.COL___118                                                 6
 STAT SP IPHASW D HRMM SECON CODA AMPLIT PERI AZIMU VELO SNR AR TRES W  DIS CAZ7
 BAR2 SZ EP        937 51.63                             169     0.210   24 176 
 BAR2 SZ ES   2    938  5.30                             169    -0.8 5   24 176 
 BRR  HN ES   3    938 10.03                             153     1.6 2   66 301 
 RUS  HZ EP        937 55.99                             141     0.210  102 173 
 RUS  HZ I         937 56.89         5.1 0.11                           102 173 
 RUS  HN ES   2    938 13.28                             141    -0.6 5  102 173 
 BRI  SZ EP        937 56.16                             139     0.210  110  24 
 BRI  SZ ES   3    938 14.21                             139     0.0 2  110  24 
 GUE  SZ EP        937 56.48                             137    -0.310  117  15 
 GRA  SZ EP        937 57.40                             135     0.110  127  20 
 GRA  SZ ES   2    938 16.70                             135     0.0 5  127  20 
 OCA  SZ EP        938  0.04                             128    -0.2 9  159 355 
 OCA  SZ ES   2    938 21.77                             128    -0.1 5  159 355 
 OCA  SZ I         938 24.86        11.5 0.21                           159 355 
 HEL  HZ EP   2    938 11.95                             113     0.1 4  266 255 
 HEL  HN ES   2    938 41.90                             113    -0.5 4  266 255 
 HEL  HZ I         938 49.94         3.9 0.47                           266 255 
                                                                                
