 2013 1130 0854 44.1 L   6.788 -73.191145.0  RSN  4 0.3 1.0LRSN                1
 GAP=132        0.86       4.8     4.4  7.7 -0.2617E+01  0.2008E+01  0.6014E+01E
 Epicentro: ZAPATOCA - SANTANDER                                               3
 ACTION:UPD 14-01-09 16:32 OP:ep   STATUS:               ID:20131130085444 L   I
 OLDACT:DUP 13-11-30 13:16 OP:mh   STATUS:               ID:20131130085002d    3
 2013-11-30-0850-00M.COL___282                                                 6
 STAT SP IPHASW D HRMM SECON CODA AMPLIT PERI AZIMU VELO AIN AR TRES W  DIS CAZ7
 BRR  HZ EP   1    855  5.60                             154    0.63 7 67.6 302 
 BRR  HN ES        855 21.58                             154    0.3410 67.6 302 
 BRR  HZ I         855 26.16         2.8 0.17            155           67.6 302 
 PAM  SZ EP        855  6.69                             149    0.2010 81.6  42 
 PAM  SN ES        855 23.51                             149   -0.4510 81.6  42 
 RUS  HZ EP        855  7.56                             144   -0.1510 99.7 173 
 RUS  HN ES        855 26.34                             144    0.2110 99.7 173 
 RUS  HZ I         855 29.37         0.8 0.38            147           99.7 173 
 PTB  HZ EP        855 10.37                             133   -0.17 9  143 259 
 PTB  HN ES        855 30.78                             133   -0.39 9  143 259 
 PTB  HZ I         855 33.94         1.4 0.13            135            143 259 
                                                                                
