 2012  930 0702 15.9 L   5.907 -73.667117.8  RSN  6 0.4 1.4LRSN                1
 GAP=126        0.83       3.7     6.3 10.0  0.1757E+01  0.1788E+02  0.4432E+01E
 Epicentro: PUENTE NACIONAL - SANTANDER                                        3
 ACTION:UPD 12-10-22 14:21 OP:ep   STATUS:               ID:20120930070215 L   I
 2012-09-30-0700-00M.COL___220                                                 6
 STAT SP IPHASW D HRMM SECON CODA AMPLIT PERI AZIMU VELO AIN AR TRES W  DIS CAZ7
 RUS  HN ES   1    7 2 48.23                             150   -0.59 7 64.7  91 
 BAR2 SZ ES   1    7 2 52.20                             139    0.46 7 92.8  35 
 BAR2 SZ I         7 2 53.08         8.4 0.22                          92.8  35 
 PTB  HE ES   1    7 2 53.70                             133   -0.36 7  112 309 
 PTB  HN I         7 2 56.18         4.5 0.32                           112 309 
 BRR  HZ EP   1    7 2 39.45                             128    0.19 7  133 358 
 BRR  HN ES   1    7 2 57.82                             128    0.35 7  133 358 
 BRR  HZ I         7 2 59.35         4.5 0.46                           133 358 
 GIR2 SZ EP   1    7 2 39.83                             126   -0.29 7  140  22 
 CHI  HZ EP   1    7 2 40.33                             126   -0.33 7  141 183 
 CHI  HN ES   1    7 3  0.57                             126    0.61 7  141 183 
 CHI  HZ I         7 3  2.91         2.5 0.44                           141 183 
                                                                                
