 2014  130 0057 24.2 L   6.755 -73.168138.0  RSN  7 0.5 1.4LRSN                1
 GAP=138        1.19       5.4     6.0  8.0 -0.1300E+02  0.1408E+02  0.4465E+01E
 Epicentro: LOS SANTOS - SANTANDER                                             3
 ACTION:UPD 14-03-13 09:59 OP:ep   STATUS:               ID:20140130005724 L   I
 OLDACT:REG 14-01-30 07:47 OP:stll STATUS:               ID:20140130004814     3
 2014-01-30-0048-14M.COL___239                                                 6
 STAT SP IPHASW D HRMM SECON CODA AMPLIT PERI AZIMU VELO AIN AR TRES W  DIS CAZ7
 BAR2 SZ EP        057 42.79                             172   -0.0010 18.1 185 
 BAR2 SZ I         057 42.94         8.7 0.42            172           18.1 185 
 BAR2 SZ ES        057 57.68                             172    0.3810 18.1 185 
 PAM  SZ EP        057 45.62                             148   -0.3210 82.8  39 
 PAM  SN ES        058  2.65                             148   -0.2510 82.8  39 
 PAM  SZ I         058  4.95         7.4 0.56            151           82.8  39 
 RUS  HZ EP        057 46.72                             144   -0.1210 95.8 174 
 RUS  HE ES        058  5.24                             144    0.7410 95.8 174 
 RUS  HZ I         058  7.97         2.1 0.60            147           95.8 174 
 PTB  HZ EP        057 50.33                             131    0.10 9  144 261 
 PTB  HE ES        058 10.44                             131   -0.10 9  144 261 
 PTB  HZ I         058 18.54         2.8 0.40            131            144 261 
 SPBC HN ES        058 12.39                             128   -0.56 9  158 219 
 CHI  HZ EP        058  0.90                             116    0.02 8  243 195 
 CHI  HZ I         058  3.54         1.1 0.30            118            243 195 
 CHI  HN ES        058 28.49                             116   -1.00 8  243 195 
 GUY2CHZ EP        058  8.10                             111    1.20 7  296 235 
 GUY2CHE ES        058 40.29                             111    0.08 7  296 235 
 GUY2CHZ I         058 49.45         2.2 0.84                           296 235 
                                                                                
