 2012  430 0610 56.9 L   6.753 -73.176143.2  RSN  9 0.4 2.0LRSN                1
 GAP=135        0.92       4.5     4.7  7.2  0.1025E+01  0.1121E+02  0.5690E+01E
 Epicentro: VILLANUEVA - SANTANDER                                             3
 ACTION:UPD 12-07-05 11:56 OP:tino STATUS:               ID:20120430061056 L   I
 2012-04-30-0610-00M.COL___189                                                 6
 STAT SP IPHASW D HRMM SECON CODA AMPLIT PERI AZIMU VELO AIN AR TRES W  DIS CAZ7
 BAR2 SZ EP        611 16.18                             173     0.110   18 182 
 BAR2 SZ I         611 16.34        27.6 0.21                            18 182 
 BAR2 SZ ES   1    611 30.94                             173    -0.2 7   18 182 
 BRR  HZ EP        611 18.01                             152     0.310   71 303 
 BRR  HZ I         611 18.37        44.8 0.09                            71 303 
 BRR  HN ES   1    611 34.89                             152     0.9 7   71 303 
 PAM  SZ EP   1    611 19.05                             148    -0.2 7   83  39 
 PAM  SN ES   1    611 36.01                             148    -0.6 7   83  39 
 RUS  HZ EP   1    611 20.16                             145     0.1 7   96 174 
 RUS  HN ES   1    611 38.19                             145     0.1 7   96 174 
 RUS  HZ I         611 40.51         9.8 0.38                            96 174 
 PTB  HZ EP   1    611 22.86                             132    -0.4 7  144 261 
 PTB  HN ES   1    611 43.56                             132    -0.3 7  144 261 
 PTB  HZ I         611 46.61        10.5 0.13                           144 261 
 ZAR  HZ EP   1    611 28.83                             122    -0.2 6  203 294 
 ZAR  HN ES   1    611 54.17                             122     0.0 6  203 294 
 ZAR  HZ I         612  0.35        14.8 0.36                           203 294 
 CHI  HZ EP   1    611 34.44                             117     0.6 6  243 195 
 CHI  HN ES   1    612  2.25                             117    -0.3 6  243 195 
 CHI  HZ I         612 11.40         2.6 0.24                           243 195 
 HEL  HZ EP   1    611 36.76                             115     0.3 6  268 257 
 HEL  HN ES   1    612  6.61                             115    -0.7 6  268 257 
 HEL  HZ I         612 15.99         5.3 0.35                           268 257 
 RREF HN ES   2    612 17.67                             111     0.1 3  316 230 
 RREF HZ I         612 26.27         5.6 0.47                           316 230 
                                                                                
