 2016 1030 0556 54.2 L   6.767 -73.120146.2  RSN  5 0.2 1.8LRSN                1
 GAP=141        0.62       3.3     3.2  4.5 -0.1015E+01  0.1814E+01  0.5883E+00E
 Epicentro: LOS SANTOS - SANTANDER                                             3
 ACTION:UPD 16-11-09 19:24 OP:rebc STATUS:               ID:20161030055654 L   I
 OLDACT:DUP 16-10-30 16:32 OP:cog  STATUS:               ID:20161030054750d    3
 2016-10-30-0548-00M.COL___312                                                 6
 STAT SP IPHASW D HRMM SECON CODA AMPLIT PERI AZIMU VELO AIN AR TRES W  DIS CAZ7
 BAR2 EZ EP        557 13.80                             172   -0.0410 20.5 200 
 BAR2 EZ ES        557 28.88                             172   -0.2710 20.5 200 
 BAR2 EZ I         557 29.84        21.5 0.18            172           20.5 200 
 BRR  HZ EP        557 15.88                             151    0.2310 75.5 300 
 BRR  HN ES        557 32.64                             151    0.2710 75.5 300 
 BRR  HZ I         557 36.69        10.7 0.12            151           75.5 300 
 PAM  EZ EP        557 16.70                             150    0.1610 78.5  36 
 PAM  EN ES        557 33.76                             150   -0.1910 78.5  36 
 RUS  HZ EP        557 17.79                             145    0.0610 96.8 178 
 RUS  HE ES        557 36.26                             145    0.1810 96.8 178 
 RUS  HZ I         557 37.31         9.6 0.36            147           96.8 178 
 PTB  HZ EP        557 20.95                             132   -0.45 9  150 260 
 PTB  HE ES        557 42.60                             132   -0.02 9  150 260 
 PTB  HZ I         557 43.79         9.1 0.12            133            150 260 
                                                                                
