 2013  530 0321 21.4 L   6.747 -73.150144.5  RSN  6 0.4 1.4LRSN                1
 GAP=233        0.84       5.0     4.9  5.7  0.4951E+01  0.8012E+01  0.7810E+01E
 Epicentro: LOS SANTOS - SANTANDER                                             3
 ACTION:UPD 13-06-20 09:54 OP:ep   STATUS:               ID:20130530032121 L   I
 2013-05-30-0320-00M.COL___261                                                 6
 STAT SP IPHASW D HRMM SECON CODA AMPLIT PERI AZIMU VELO AIN AR TRES W  DIS CAZ7
 BAR2 SZ EP        321 40.72                             173   -0.0110 17.4 192 
 BAR2 SZ ES        321 55.71                             173   -0.1210 17.4 192 
 BAR2 SZ I         321 56.80         6.3 0.36            166           17.4 192 
 BRR  HZ EP        321 42.59                             151    0.0710 73.8 303 
 BRR  HN ES        321 59.62                             151    0.6010 73.8 303 
 BRR  HZ I         322  1.02         2.7 0.14            150           73.8 303 
 RUS  HZ EP        321 44.66                             145    0.0910 94.7 176 
 RUS  HN ES        322  2.53                             145   -0.1410 94.7 176 
 RUS  HZ I         322  4.38         3.2 0.32            143           94.7 176 
 PTB  HZ EP        321 47.52                             132   -0.56 9  146 261 
 PTB  HN ES        322  8.40                             132   -0.53 9  146 261 
 PTB  HZ I         322 10.59         3.8 0.14            130            146 261 
 NOR  HZ EP        321 56.97                             119    0.36 8  231 236 
 NOR  HN ES        322 24.22                             119    0.12 8  231 236 
 NOR  HZ I         322 31.61         2.3 0.16            118            231 236 
 PRA  HZ EP        322 14.33                             107    0.12 6  387 210 
 PRA  HN ES   2    322 56.41                             107    0.98 3  387 210 
 PRA  HZ I         323  2.74         2.0 0.26            106            387 210 
                                                                                
