 2014  430 0455 59.6 L   6.820 -73.168145.5  RSN  8 0.3 1.9LRSN                1
 GAP=110        0.71       2.8     2.9  6.0 -0.7505E+00  0.3911E+01  0.2428E+00E
 Epicentro: LOS SANTOS - SANTANDER                                             3
 OLDACT:REG 14-04-30 12:40 OP:fm   STATUS:               ID:20140430045002d    3
 ACTION:UPD 14-05-13 20:49 OP:nd   STATUS:               ID:20140430045559 L   I
 OLDACT:UP  14-04-30 17:10 OP:fm   STATUS:               ID:20140430045002d    3
 OLDACT:UP  14-04-30 17:10 OP:fm   STATUS:               ID:20140430045002d    3
 2014-04-30-0450-00M.COL___270                                                 6
 STAT SP IPHASW D HRMM SECON CODA AMPLIT PERI AZIMU VELO AIN AR TRES W  DIS CAZ7
 PAM  SZ EP        456 21.90                             151    0.1110 77.3  42 
 PAM  SN ES        456 39.06                             151   -0.0410 77.3  42 
 PAM  SZ I         456 40.46         8.3 0.18             97           77.3  42 
 RUS  HZ EP        456 23.66                             143    0.1610  103 175 
 RUS  HE ES        456 42.14                             143   -0.0110  103 175 
 RUS  SZ I         456 44.38         8.5 0.82             96            103 175 
 PTB  HZ EP        456 25.95                             132   -0.42 9  146 258 
 PTB  HN ES        456 46.71                             132   -0.54 9  146 258 
 PTB  SZ I         456 50.78        11.8 0.16             95            146 258 
 TAM  HZ EP   1    456 27.44                             130   -0.10 7  158 106 
 TAM  SZ I         457  2.07         5.4 0.38             56            158 106 
 SPBC HZ EP   2    456 28.08                             129   -0.02 5  163 218 
 SPBC HN ES        456 50.83                             129    0.50 9  163 218 
 SPBC SZ I         456 55.43         8.5 0.16             56            163 218 
 ZAR  HZ EP        456 31.97                             123    0.26 9  201 292 
 ZAR  HN ES        456 57.05                             123    0.29 9  201 292 
 ZAR  SZ I         457  2.77        11.0 0.42             56            201 292 
 CHI  HZ EP   4    456 35.55                             117   -1.90 0  250 194 
 CHI  HN ES        457  6.67                             117   -0.30 8  250 194 
 CHI  SZ I         457  9.30         5.6 1.22             56            250 194 
 ROSC BN ES   4    457 10.93                             116    3.38 0  253 210 
 URE  HE ES   4    457  9.86                             114   -2.21 0  281 292 
 PRA  HZ EP   2    456 52.65                             106   -0.55 3  393 209 
 PRA  HN ES   2    457 35.90                             106    0.90 3  393 209 
 PRA  SZ I         457 42.54         6.0 2.00             55            393 209 
