 2015 1030 0741 13.5 L   6.778 -73.115149.3  RSN  8 0.4 1.9LRSN                1
 GAP=142        0.89       3.0     6.0  6.0 -0.5103E+01  0.2421E+01  0.1618E+01E
 Epicentro: LOS SANTOS - SANTANDER                                             3
 ACTION:UPD 15-12-22 20:44 OP:cam  STATUS:               ID:20151030073749 L   I
 OLDACT:UP  15-10-30 17:25 OP:mh   STATUS:               ID:20151030073749 L   3
 OLDACT:UP  15-10-30 17:25 OP:mh   STATUS:               ID:20151030073749 L   3
 OLDACT:UP  15-10-30 17:20 OP:mh   STATUS:               ID:20151030073749 L   3
 OLDACT:UP  15-10-30 17:06 OP:mh   STATUS:               ID:20151030073749 L   3
 OLDACT:UPD 15-10-30 14:48 OP:AK   STATUS:               ID:20151030073749 L   3
 2015-10-30-0737-49M.COL___313                                                 6
 STAT SP IPHASW D HRMM SECON CODA AMPLIT PERI AZIMU VELO AIN AR TRES W  DIS CAZ7
 BAR2 EZ EP        741 33.59                             171    0.0510 21.8 200 
 BAR2 EZ ES   1    741 48.75                             171   -0.41 7 21.8 200 
 BAR2 EZ I         741 50.35        15.7 0.40            166           21.8 200 
 BRR  HZ EP        741 35.44                             152    0.1510 75.4 299 
 BRR  HN ES        741 52.81                             152    0.5510 75.4 299 
 BRR  HZ I         741 54.60        12.8 0.14            133           75.4 299 
 PAM  EZ EP        741 36.33                             152    0.2310 77.2  36 
 PAM  EN ES        741 53.84                             152    0.1310 77.2  36 
 PAM  EZ I         741 55.68         9.6 0.56            134           77.2  36 
 RUS  HZ EP        741 37.29                             145   -0.1410 97.9 178 
 RUS  HN ES        741 56.22                             145    0.1410 97.9 178 
 RUS  HZ I         741 57.45         6.2 0.26            128           97.9 178 
 OCA  HZ EP        741 42.53                             130    0.15 9  163 352 
 OCA  HN ES        742  3.96                             130   -0.92 9  163 352 
 OCA  HZ I         742  9.40        25.7 0.22            112            163 352 
 SPBC HZ EP        741 42.49                             130    0.17 9  163 220 
 SPBC HN ES        742  4.60                             130   -0.18 9  163 220 
 SPBC HZ I         742  6.71        16.1 0.72            112            163 220 
 CHI  HZ EP   1    741 51.32                             118    0.06 6  247 196 
 CHI  HN ES   1    742 19.97                             118   -0.72 6  247 196 
 CHI  HZ I         742 24.94         2.5 0.41            104            247 196 
 SML  HZ EP   4    741 50.50                             118   -0.24 0  247 335 
 SML  HN ES   4    742 18.69                             118   -1.09 0  247 335 
 SML  HZ I         742 23.16        14.5 0.10            104            247 335 
                                                                                
