 2013  830 0925  1.4 L   7.457 -73.162139.6  RSN  9 0.4 1.7LRSN                1
 GAP=116        0.96       4.0     4.9  7.0  0.3036E+00  0.1075E+02  0.9187E+00E
 Epicentro: EL PLAYON - SANTANDER                                              3
 ACTION:UPD 14-01-14 09:08 OP:ep   STATUS:               ID:20130830092501 L   I
 OLDACT:REG 13-08-30 08:33 OP:jn   STATUS:               ID:20130830091850     3
 2013-08-30-0918-50M.COL___208                                                 6
 STAT SP IPHASW D HRMM SECON CODA AMPLIT PERI AZIMU VELO AIN AR TRES W  DIS CAZ7
 PAM  SZ EP        925 22.04                             159    0.3710 52.7 104 
 PAM  SN ES        925 37.31                             159   -0.1510 52.7 104 
 PAM  SZ I         925 40.70         4.9 0.50            164           52.7 104 
 BRR  HZ EP        925 22.19                             151    0.2210 72.0 238 
 BRR  HN ES        925 38.77                             151    0.7810 72.0 238 
 BRR  HZ I         925 42.55         8.2 0.44            149           72.0 238 
 OCA  HN ES   1    925 39.82                             146   -0.39 7 88.1 349 
 OCA  HZ I         925 42.62         9.8 0.22            149           88.1 349 
 BAR2 SZ EP        925 23.81                             144   -0.0610 95.7 181 
 BAR2 SZ ES        925 40.81                             144   -0.5610 95.7 181 
 BAR2 SZ I         925 41.86         6.1 0.18            145           95.7 181 
 PTB  HZ EP        925 30.30                             125   -0.26 9  175 235 
 PTB  HN ES   1    925 52.41                             125   -0.88 7  175 235 
 PTB  HZ I         925 56.00         7.4 0.16            126            175 235 
 SML  HZ EP   1    925 30.68                             125   -0.24 7  179 326 
 SML  HE ES   1    925 53.98                             125    0.05 7  179 326 
 ZAR  HN ES   1    925 55.55                             123    0.15 7  187 271 
 ZAR  HZ I         926  1.65         7.5 0.42            125            187 271 
 SPBC HZ EP   1    925 35.82                             118    0.16 6  224 207 
 SPBC HN ES   1    926  2.81                             118    0.46 6  224 207 
 SPBC HZ I         926 10.79         4.2 0.64            120            224 207 
 GUY2CHZ EP   4    925 52.03                             108    2.01 0  347 225 
 GUY2CHZ I         926 38.70         3.0 0.50                           347 225 
                                                                                
