 2011  630 0042 34.2 L   6.763 -73.083143.9  RSN 10 0.3 1.7LRSN                1
 GAP=146        0.77       3.2     5.2  5.6 -0.4654E+01  0.1251E+01  0.2869E+01E
 Epicentro: LOS SANTOS - SANTANDER                                             3
 ACTION:UP  11-07-14 19:09 OP:ep   STATUS:               ID:20110630004234 L   I
 2011-06-30-0040-00M.COL___124                                                 6
 STAT SP IPHASW D HRMM SECON CODA AMPLIT PERI AZIMU VELO SNR AR TRES W  DIS CAZ7
 BAR2 SZ EP        042 53.47                             171    -0.110   22 210 
 BAR2 SZ ES   1    043  8.15                             171    -0.5 7   22 210 
 BAR2 SZ I         043 10.12        29.0 0.09                            22 210 
 BTL  SZ EP        042 53.88                             169     0.210   27 310 
 PAM  SZ EP   2    042 56.53                             151     0.4 5   77  34 
 PAM  SZ I         042 56.81         2.7 0.20                            77  34 
 PAM  SE ES   2    043 13.51                             151     0.2 5   77  34 
 BRR  HZ EP        042 55.44                             149    -0.210   79 299 
 BRR  HZ I         042 55.74        18.2 0.11                            79 299 
 BRR  HN ES        043 12.75                             149     0.410   79 299 
 RUS  HZ EP        042 57.61                             145     0.210   96 180 
 RUS  HN ES   1    043 15.86                             145     0.3 7   96 180 
 RUS  HZ I         043 18.01        10.3 0.46                            96 180 
 GRA  SZ EP        042 59.47                             136     0.010  128  14 
 GRA  SZ ES   1    043 18.49                             136    -0.7 7  128  14 
 GRA  SZ I         043 20.31         3.7 0.35                           128  14 
 OCA  SZ EP   2    043  2.80                             128     0.0 5  165 351 
 OCA  SZ ES   2    043 25.48                             128     0.3 5  165 351 
 OCA  SZ I         043 31.29         6.6 0.41                           165 351 
 NOR  SZ EP   1    043  9.86                             118    -0.3 6  238 236 
 NOR  SE ES   1    043 37.75                             118    -0.5 6  238 236 
 CHI  HZ EP   1    043 11.60                             117     0.0 6  247 197 
 CHI  HE ES   1    043 40.58                             117    -0.2 6  247 197 
 CHI  HZ I         043 49.11         3.2 0.53                           247 197 
 HEL  HZ EP   1    043 15.41                             114     0.5 6  278 257 
 HEL  HZ I         043 52.47         6.6 0.41                           278 257 
                                                                                
