 2017 1030 0716  3.8 L   6.764 -73.102143.4  RSN  7 0.5 1.1LRSN                1
 GAP=144        1.16       4.8     5.0  7.4 -0.1001E+01  0.9760E+01  0.2816E+00E
 Epicentro: LOS SANTOS - SANTANDER                                             3
 ACTION:UPD 17-11-07 19:39 OP:rebc STATUS:               ID:20171030071603 L   I
 OLDACT:REG 17-10-30 12:44 OP:dhb  STATUS:               ID:20171030070639     3
 2017-10-30-0707-00M.COL___414                                                 6
 STAT SP IPHASW D HRMM SECON CODA AMPLIT PERI AZIMU VELO AIN AR TRES W  DIS CAZ7
 BAR2 HZ EP        716 23.08                             171   -0.0410 21.0 205 
 BAR2 HZ ES        716 37.64                             171   -0.5310 21.0 205 
 BAR2 HZ I         716 45.20         4.2 0.64            172           21.0 205 
 BRR  HZ IP     C  716 25.01                             150   -0.0610 77.3 299 
 BRR  HE ES        716 42.15                             150    0.5010 77.3 299 
 BRR  HZ I         716 45.25         2.0 0.30            153           77.3 299 
 PAM  EZ EP        716 25.94                             150    0.1510 77.6  35 
 PAM  EE ES        716 42.70                             150   -0.2410 77.6  35 
 PAM  EZ I         716 46.15         1.2 0.36            154           77.6  35 
 RUS  HZ EP        716 27.29                             144    0.2610 96.4 179 
 RUS  HN ES        716 45.68                             144    0.5310 96.4 179 
 RUS  HZ I         716 48.91         0.8 0.44            149           96.4 179 
 PTB  HZ EP        716 29.87                             131   -1.09 9  152 261 
 PTB  HN ES        716 51.66                             131   -0.48 9  152 261 
 PTB  HZ I         716 53.29         1.2 0.16            135            152 261 
 SPBC HZ EP        716 32.12                             128   -0.02 9  163 221 
 SPBC HE ES        716 54.32                             128    0.09 9  163 221 
 SPBC HZ I         716 56.65         2.2 0.32            133            163 221 
 ZAR  HZ EP        716 37.23                             121    0.50 8  210 293 
 ZAR  HE ES        717  2.92                             121    0.52 8  210 293 
 ZAR  HZ I         717  7.22         2.3 0.34            125            210 293 
                                                                                
