 2013 1030 0850 47.3 L   6.126 -73.885 91.0  RSN  6 0.3 1.3LRSN                1
 GAP=118        0.69       2.7     2.8  6.5 -0.8834E+00  0.2410E+01 -0.3295E+00E
 Epicentro: EL PEON - SANTANDER                                                3
 ACTION:UPD 13-11-25 09:24 OP:ep   STATUS:               ID:20131030085047 L   I
 OLDACT:REG 13-10-30 06:52 OP:jn   STATUS:               ID:20131030085000     3
 2013-10-30-0850-00M.COL___273                                                 6
 STAT SP IPHASW D HRMM SECON CODA AMPLIT PERI AZIMU VELO AIN AR TRES W  DIS CAZ7
 SPBC HE ES   1    851 12.91                             146   -0.33 7 56.3 202 
 PTB  HZ EP        851  2.82                             136   -0.6210 78.0 306 
 PTB  HN ES        851 16.22                             136    0.1610 78.0 306 
 PTB  HZ I         851 19.33         5.6 0.10            134           78.0 306 
 BAR2 SZ EP   1    851  5.13                             131    0.01 7 93.3  56 
 BAR2 SZ ES        851 19.18                             131    0.1410 93.3  56 
 NOR  HZ EP        851  8.24                             122    0.1610  125 240 
 NOR  HE ES   1    851 24.62                             122    0.31 7  125 240 
 NOR  HZ I         851 28.19         4.5 0.20            119            125 240 
 CHI  HE ES   1    851 33.26                             114    0.17 7  166 174 
 CHI  HZ I         851 39.53         1.1 0.70            112            166 174 
 ZAR  HZ EP   1    851 14.61                             111   -0.06 7  185 325 
 ZAR  HN ES   1    851 36.36                             111    0.32 7  185 325 
 ZAR  HZ I         851 41.24         5.3 0.44            110            185 325 
                                                                                
