 2011 1030 0833 14.3 L   6.796 -73.088142.8  RSN  4 0.3 1.3LRSN                1
 GAP=144        0.46       6.4    18.8  7.6 -0.9102E+01 -0.5399E+01  0.1827E+01E
 Epicentro: LOS SANTOS - SANTANDER                                             3
 ACTION:UPD 12-07-13 16:07 OP:ep   STATUS:               ID:20111030083314 L   I
 2011-10-30-0832-09S.COL___157                                                 6
 STAT SP IPHASW D HRMM SECON CODA AMPLIT PERI AZIMU VELO AIN AR TRES W  DIS CAZ7
 BAR2 SZ EP        833 33.81                             170    0.1710 24.8 205 
 BAR2 SZ ES   2    833 48.29                             170   -0.40 5 24.8 205 
 BAR2 SZ I         833 51.45         5.7 0.32                          24.8 205 
 PAM  SZ EP   3    833 35.37                             151   -0.66 2 73.9  36 
 PAM  SN ES   3    833 53.35                             151    0.40 2 73.9  36 
 BRR  HZ EP   3    833 35.73                             150    0.22 2 77.0 297 
 RUS  HZ EP        833 37.61                             143   -0.1310 99.9 180 
 RUS  HE ES   2    833 56.26                             143    0.26 5 99.9 180 
 RUS  HZ I         833 57.73         2.2 0.38                          99.9 180 
                                                                                
