 2017 1030 0402 48.8 L   6.803 -73.173142.0  RSN  8 0.5 1.2LRSN                1
 GAP=235        1.10       5.5     5.7  7.0  0.8618E+01  0.1122E+02  0.7217E+01E
 Epicentro: LOS SANTOS - SANTANDER                                             3
 ACTION:UPD 17-11-07 19:39 OP:rebc STATUS:               ID:20171030040248 L   I
 OLDACT:REG 17-10-30 12:32 OP:dhb  STATUS:               ID:20171030035735     3
 2017-10-30-0358-00M.COL___432                                                 6
 STAT SP IPHASW D HRMM SECON CODA AMPLIT PERI AZIMU VELO AIN AR TRES W  DIS CAZ7
 BAR2 EZ EP        4 3  7.54                             170   -0.4010 23.3 182 
 BAR2 EZ ES        4 3 23.10                             170    0.2010 23.3 182 
 BAR2 EZ I         4 3 26.40         4.9 0.52            170           23.3 182 
 BRR  HZ EP        4 3  9.74                             153    0.3910 68.4 300 
 BRR  HN ES        4 3 25.94                             153    0.5410 68.4 300 
 BRR  HZ I         4 3 37.41         2.1 0.30            151           68.4 300 
 RUS  HZ EP        4 3 11.94                             143   -0.2410  101 174 
 RUS  HN ES     C  4 3 30.35                             143   -0.1010  101 174 
 RUS  HZ I         4 3 33.02         2.2 0.42            149            101 174 
 PTB  HZ EP        4 3 14.72                             132   -0.44 9  145 258 
 PTB  HN ES        4 3 35.58                             132   -0.17 9  145 258 
 PTB  HZ I         4 3 38.22         0.9 0.12            134            145 258 
 SPBC HZ EP        4 3 16.66                             128   -0.15 9  162 218 
 SPBC HN ES        4 3 38.30                             128   -0.39 9  162 218 
 SPBC HZ I         4 3 44.56         3.3 0.28            132            162 218 
 ZAR  HN ES        4 3 44.75                             122   -0.79 9  201 292 
 ZAR  HZ I         4 3 55.29         1.6 0.24            124            201 292 
 NOR  HZ EP        4 3 24.64                             118    0.61 8  232 234 
 NOR  HN ES        4 3 52.09                             118    0.56 8  232 234 
 NOR  HZ I         4 3 58.43         1.3 0.16            122            232 234 
 GUY2CHZ EP        4 3 32.73                             112    0.79 7  299 234 
 GUY2CHE ES   4    4 4 10.66                             112    5.05 0  299 234 
 GUY2CHZ I         4 4 16.44         0.8 0.50                           299 234 
                                                                                
