 2010  530 0850 33.5 L   6.826 -72.933138.0  RSN  4 0.4 1.3LRSN                1
 GAP=220        0.62      12.0    34.2  8.2 -0.3673E+03 -0.2907E+02  0.1484E+01E
 Epicentro: CEPITA - SANTANDER                                                 3
 ACTION:UP  10-08-24 10:07 OP:vdl  STATUS:               ID:20100530085033 L   I
 2010-05-30-0848-33S.COL___109                                                 6
 STAT SP IPHASW D HRMM SECON CODA AMPLIT PERI AZIMU VELO SNR AR TRES W  DIS CAZ7
 BAR2 SZ EP   1    850 52.30                             164    -0.3 7   38 227 
 BAR2 SZ ES   1    851  7.75                             164     0.2 7   38 227 
 GUE  SZ EP   1    850 57.07                             139     0.0 7  111   0 
 GUE  SZ ES   2    851 14.83                             139    -0.6 5  111   0 
 GRA  SZ EP   2    850 57.75                             137     0.3 5  118   7 
 GRA  SZ ES   2    851 16.65                             137     0.6 5  118   7 
 RREF BZ EP   2    851 21.92                             108     0.3 3  342 232 
 RREF BZ I         851 22.76         0.8 0.26                           342 232 
                                                                                
