 2012  930 0544 29.9 L   6.724 -73.171147.2  RSN  5 0.3 1.6LRSN                1
 GAP=229        0.63       6.2     6.8  7.3  0.1747E+02  0.2428E+01 -0.3888E+01E
 Epicentro: VILLANUEVA - SANTANDER                                             3
 ACTION:UPD 12-10-22 14:21 OP:ep   STATUS:               ID:20120930054429 L   I
 2012-09-30-0540-00M.COL___220                                                 6
 STAT SP IPHASW D HRMM SECON CODA AMPLIT PERI AZIMU VELO AIN AR TRES W  DIS CAZ7
 BAR2 SZ EP   1    544 49.32                             174   -0.23 7 14.7 185 
 BAR2 SZ ES   1    545  4.78                             174   -0.11 7 14.7 185 
 BAR2 SZ I         545  5.92        14.1 0.22                          14.7 185 
 BRR  HZ EP        544 51.14                             152   -0.1710 73.3 305 
 BRR  HZ I         544 51.41         8.3 0.34                          73.3 305 
 BRR  HN ES   1    545  8.59                             152    0.57 7 73.3 305 
 BRR  HN I         545  9.75         7.9 0.12                          73.3 305 
 RUS  HN ES   1    545 11.51                             147    0.09 7 92.5 174 
 PTB  HN ES   1    545 17.19                             134   -0.25 7  144 262 
 PTB  HN I         545 22.72         2.9 0.64                           144 262 
 CHI  HZ EP   2    545  7.39                             119    0.68 4  240 195 
                                                                                
