 2014  730 0511 35.0 L   6.806 -73.148144.4  RSN 17 0.5 2.3LRSN                1
 GAP=136        0.90       2.6     3.4  5.1 -0.9189E+00  0.6478E+01  0.2171E+01E
 Epicentro: LOS SANTOS - SANTANDER                                             3
 ACTION:UPD 15-03-16 20:48 OP:nd   STATUS:               ID:20140730051135 L   I
 OLDACT:UP  14-07-30 18:06 OP:mh   STATUS:               ID:20140730050819     3
 OLDACT:REG 14-07-30 14:04 OP:mh   STATUS:               ID:20140730050819     3
 2014-07-30-0508-19M.COL___254                                                 6
 STAT SP IPHASW D HRMM SECON CODA AMPLIT PERI AZIMU VELO AIN AR TRES W  DIS CAZ7
 BAR2 SZ EP   1    511 54.54                             170    0.02 7 23.9 189 
 BAR2 SZ ES   1    512  9.68                             170   -0.03 7 23.9 189 
 BAR2 SZ I         512 12.32        47.4 0.16            166           23.9 189 
 PAM  SZ EP        511 57.36                             151    0.2710 77.1  40 
 PAM  SN ES        512 14.60                             151    0.3110 77.1  40 
 PAM  SZ I         512 16.80        26.0 0.45            158           77.1  40 
 RUS  HZ EP        511 58.31                             143   -0.4010  101 176 
 RUS  HN ES        512 17.35                             143    0.1810  101 176 
 RUS  HZ I         512 18.62        23.8 0.06            145            101 176 
 PTB  HZ EP   1    512  1.41                             132   -0.47 7  148 259 
 PTB  HN ES        512 22.17                             132   -0.65 9  148 259 
 PTB  HZ I         512 28.44        22.8 0.10            131            148 259 
 OCA  HN ES        512 25.27                             129    0.15 9  160 353 
 SPBC HZ EP        512  3.42                             129   -0.04 9  164 219 
 SPBC HN ES   1    512 25.33                             129   -0.31 7  164 219 
 SPBC HZ I         512 31.17        25.7 0.25            129            164 219 
 ZAR  HZ EP        512  6.95                             122   -0.39 9  204 292 
 ZAR  HN ES        512 32.83                             122    0.30 9  204 292 
 ZAR  HZ I         512 38.80        16.5 0.32            123            204 292 
 NOR  HZ EP        512 10.71                             118    0.01 8  235 234 
 NOR  HN ES        512 38.33                             118   -0.19 8  235 234 
 NOR  HZ I         512 44.17        13.9 0.16            119            235 234 
 SML  HZ EP   1    512 10.62                             117   -0.89 6  243 335 
 SML  HN ES   1    512 39.47                             117   -0.48 6  243 335 
 SML  HZ I         512 45.10        19.8 0.14            120            243 335 
 CHI  HZ EP        512 12.59                             117   -0.13 8  249 195 
 CHI  HN ES   1    512 41.97                             117   -0.15 6  249 195 
 CHI  HZ I         512 50.45         6.7 0.25            119            249 195 
 ROSC BZ EP        512 13.13                             116    0.00 8  253 211 
 ROSC BN ES   4    512 46.51                             116    3.67 0  253 211 
 ROSC BZ I         512 49.71        17.3 0.28            118            253 211 
 HEL  HZ EP   1    512 16.19                             114    1.02 6  272 256 
 HEL  HN ES        512 47.06                             114    0.59 8  272 256 
 HEL  HZ I         512 53.76        11.2 0.29            116            272 256 
 GUY2CHZ EP        512 18.72                             112    0.12 7  301 235 
 GUY2CHN ES   4    512 55.82                             112    3.24 0  301 235 
 GUY2CHZ I         513  0.67                                            301 235 
 RREF HZ EP   1    512 22.12                             111    0.98 5  322 229 
 RREF HE ES   4    512 59.41                             111    2.30 0  322 229 
 RREF HZ I         513  6.84         8.8 0.39            112            322 229 
 CBOC HZ EP        512 21.97                             110    0.08 7  334 252 
 CBOC HN ES        512 58.64                             110    0.21 7  334 252 
 CBOC HZ I         513  5.00         4.0 0.41            111            334 252 
 TOL  SZ EP        512 24.32                             109    1.05 7  344 225 
 TOL  SN ES   4    513  2.78                             109    1.89 0  344 225 
 TOL  SZ I         513  6.13        16.4 0.50            111            344 225 
 PRA  HZ EP        512 27.76                             106   -0.80 6  392 209 
 PRA  HN ES   4    513 11.47                             106    1.16 0  392 209 
 PRA  HZ I         513 16.72         7.4 0.29            108            392 209 
                                                                                
